Origin Time       2016/04/16 01:25:00
Lat.              32.753
Long.             130.762
Depth. (km)       12
Mag.              7.3
Station Code      AIC001
Station Lat.      35.2976
Station Long.     136.7500
Station Height(m) 6
Record Time       2016/04/16 01:28:06
Sampling Freq(Hz) 100Hz
Duration Time(s)  120
Dir.              N-S
Scale Factor      7845(gal)/8223790
Max. Acc. (gal)   2.327
Last Correction   2016/04/16 01:28:08
Memo.             
[...]
      20       29       45       52       47       58       76       89 
      98      124      152      152      133      118      112      116 
     118      110       98       85       74       65       59       54 
      51       37        0      -45      -78      -89     -103     -144 
    -195     -225     -244     -279     -336     -388     -421     -450 
    -492     -542     -591     -634     -656     -684     -735     -769 
    -797     -838     -858     -868     -908     -949     -976    -1012 
   -1043    -1057    -1071    -1102    -1132    -1159    -1183    -1208 
   -1240    -1273    -1296    -1313    -1328    -1359    -1416    -1470 
   -1486    -1479    -1487    -1533    -1610    -1667    -1679    -1683 
   -1709    -1737    -1776    -1837    -1898    -1933    -1933    -1929 
   -1964    -2027    -2093    -2150    -2178    -2181    -2188    -2224 
   -2258    -2272    -2297    -2347    -2382    -2377    -2349    -2350 
   -2393    -2430    -2439    -2428    -2420    -2442    -2471    -2482 
   -2498    -2512    -2498    -2484    -2484    -2489    -2502    -2509 
   -2501    -2492    -2485    -2482    -2482    -2465    -2446    -2454 
   -2470    -2467    -2455    -2436    -2415    -2407    -2416    -2435 
   -2454    -2466    -2470    -2452    -2421    -2417    -2452    -2473 
   -2438    -2400    -2432    -2488    -2479    -2438    -2447    -2505 
   -2528    -2493    -2459    -2438    -2407    -2404    -2439    -2469 
   -2447    -2377    -2311    -2308    -2354    -2374    -2340    -2267 
   -2200    -2200    -2250    -2245    -2150    -2060    -2069    -2134 
   -2130    -2065    -2047    -2085    -2079    -2023    -1991    -1988 
   -1966    -1923    -1907    -1926    -1930    -1891    -1845    -1815 
   -1806    -1826    -1844    -1799    -1733    -1714    -1749    -1788 
   -1773    -1710    -1657    -1645    -1653    -1664    -1668    -1660 
   -1640    -1602    -1567    -1552    -1544    -1545    -1539    -1499 
   -1462    -1440    -1428    -1431    -1441    -1441    -1429    -1405 
   -1382    -1378    -1398    -1417    -1410    -1394    -1398    -1422 
   -1443    -1439    -1424    -1422    -1433    -1443    -1468    -1497 
   -1490    -1476    -1486    -1512    -1540    -1551    -1543    -1537 
   -1539    -1540    -1532    -1518    -1501    -1480    -1482    -1497 
   -1485    -1453    -1429    -1404    -1370    -1354    -1358    -1368 
   -1379    -1364    -1302    -1219    -1177    -1201    -1235    -1223 
   -1178    -1144    -1135    -1127    -1105    -1077    -1042    -1015 
   -1021    -1038    -1013     -953     -899     -895     -922     -934 
    -916     -857     -773     -747     -789     -804     -750     -660 
    -583     -565     -588     -585     -526     -423     -330     -307 
    -321     -292     -220     -137      -75      -65      -99     -102 
     -36       35       43        9        5       43       85      114 
     117       89       63       76       95       83       67       59 
      31        0       -1       16       35       32       -9      -55 
     -79      -98     -109     -114     -140     -172     -194     -229 
    -241     -183     -143     -194     -263     -311     -336     -317 
    -286     -291     -322     -356     -403     -477     -544     -556 
    -538     -545     -607     -711     -800     -847     -866     -869 
    -877     -922     -997    -1085    -1179    -1220    -1175    -1155 
   -1246    -1372    -1437    -1445    -1449    -1470    -1499    -1541 
   -1591    -1657    -1728    -1761    -1765    -1776    -1806    -1859 
   -1939    -2006    -2023    -2011    -1996    -1993    -2031    -2118 
   -2196    -2228    -2220    -2192    -2182    -2226    -2317    -2396 
   -2408    -2396    -2403    -2408    -2413    -2450    -2513    -2558 
   -2548    -2511    -2505    -2528    -2543    -2571    -2623    -2606 
   -2512    -2459    -2508    -2593    -2635    -2604    -2528    -2463 
   -2448    -2489    -2546    -2573    -2567    -2559    -2531    -2457 
   -2397    -2436    -2543    -2613    -2592    -2506    -2428    -2394 
   -2412    -2475    -2533    -2516    -2444    -2366    -2311    -2317 
   -2359    -2350    -2284    -2223    -2196    -2196    -2204    -2187 
   -2134    -2066    -2003    -1958    -1922    -1887    -1872    -1861 
   -1807    -1734    -1703    -1694    -1652    -1586    -1526    -1506 
   -1544    -1586    -1570    -1513    -1464    -1443    -1445    -1471 
   -1490    -1455    -1394    -1377    -1409    -1448    -1444    -1390 
   -1347    -1362    -1405    -1447    -1457    -1417    -1355    -1328 
   -1352    -1398    -1426    -1414    -1363    -1321    -1331    -1366 
   -1386    -1391    -1387    -1391    -1405    -1379    -1318    -1329 
   -1421    -1485    -1476    -1439    -1412    -1398    -1414    -1472 
   -1507    -1487    -1491    -1525    -1530    -1520    -1522    -1545 
   -1598    -1637    -1617    -1583    -1601    -1648    -1661    -1655 
   -1664    -1664    -1647    -1647    -1672    -1690    -1687    -1688 
   -1690    -1661    -1645    -1667    -1676    -1663    -1664    -1667 
   -1657    -1644    -1622    -1605    -1625    -1653    -1638    -1613 
   -1597    -1567    -1548    -1559    -1572    -1574    -1566    -1552 
   -1539    -1522    -1516    -1530    -1554    -1561    -1545    -1514 
   -1507    -1544    -1578    -1572    -1563    -1575    -1610    -1652 
   -1668    -1669    -1680    -1687    -1709    -1764    -1806    -1826 
   -1867    -1875    -1841    -1841    -1881    -1938    -2003    -2027 
   -2004    -1993    -2006    -2022    -2056    -2088    -2081    -2053 
   -2038    -2047    -2070    -2079    -2074    -2076    -2058    -2014 
   -1991    -2004    -1999    -1964    -1944    -1946    -1917    -1865 
   -1854    -1865    -1849    -1817    -1791    -1763    -1736    -1719 
   -1719    -1719    -1692    -1647    -1630    -1629    -1610    -1597 
   -1595    -1583    -1556    -1526    -1505    -1509    -1522    -1516 
   -1485    -1456    -1456    -1449    -1412    -1383    -1393    -1424 
   -1439    -1405    -1355    -1348    -1355    -1348    -1362    -1381 
   -1371    -1355    -1345    -1336    -1359    -1410    -1426    -1391 
   -1360    -1383    -1445    -1499    -1528    -1528    -1506    -1514 
   -1584    -1663    -1699    -1721    -1761    -1809    -1842    -1875 
   -1926    -1998    -2062    -2101    -2116    -2119    -2155    -2247 
   -2327    -2331    -2308    -2319    -2358    -2390    -2415    -2428 
   -2424    -2419    -2431    -2451    -2452    -2423    -2385    -2374 
   -2400    -2412    -2373    -2311    -2269    -2235    -2201    -2184 
   -2162    -2115    -2070    -2042    -2004    -1987    -1999    -1969 
   -1877    -1803    -1788    -1787    -1767    -1741    -1709    -1683 
   -1679    -1668    -1636    -1605    -1566    -1507    -1475    -1493 
   -1509    -1497    -1452    -1385    -1343    -1348    -1354    -1332 
   -1294    -1258    -1232    -1216    -1217    -1217    -1190    -1165 
   -1143    -1111    -1115    -1155    -1147    -1071    -1028    -1058 
   -1097    -1109    -1097    -1085    -1096    -1117    -1135    -1140 
   -1124    -1123    -1183    -1244    -1223    -1177    -1208    -1291 
   -1348    -1345    -1294    -1233    -1242    -1347    -1455    -1468 
   -1405    -1354    -1375    -1439    -1472    -1474    -1456    -1425 
   -1431    -1459    -1426    -1389    -1449    -1534    -1509    -1405 
   -1360    -1402    -1443    -1445    -1437    -1436    -1435    -1417 
   -1426    -1483    -1522    -1548    -1578    -1561    -1551    -1617 
   -1669    -1653    -1675    -1768    -1837    -1848    -1854    -1865 
   -1877    -1972    -2126    -2184    -2149    -2161    -2232    -2319 
   -2400    -2446    -2504    -2571    -2565    -2542    -2608    -2733 
   -2833    -2866    -2859    -2891    -2951    -2978    -3001    -3071 
   -3140    -3165    -3183    -3206    -3226    -3273    -3329    -3353 
   -3381    -3440    -3496    -3523    -3542    -3555    -3547    -3538 
   -3547    -3562    -3628    -3750    -3765    -3630    -3532    -3601 
   -3778    -3852    -3688    -3481    -3478    -3662    -3850    -3827 
   -3580    -3357    -3335    -3465    -3585    -3572    -3476    -3412 
   -3380    -3330    -3262    -3199    -3129    -3025    -2940    -2997 
   -3164    -3225    -3028    -2682    -2457    -2496    -2695    -2839 
   -2732    -2420    -2245    -2403    -2624    -2577    -2247    -1910 
   -1906    -2196    -2404    -2371    -2173    -1910    -1733    -1694 
   -1729    -1852    -2050    -2142    -1975    -1625    -1383    -1509 
   -1865    -2019    -1764    -1354    -1285    -1665    -2022    -1887 
   -1341     -965    -1144    -1626    -1930    -1837    -1495    -1237 
   -1236    -1351    -1418    -1451    -1491    -1448    -1262    -1154 
   -1337    -1584    -1560    -1298    -1081    -1081    -1208    -1244 
   -1156    -1162    -1345    -1478    -1314     -955     -734     -812 
   -1075    -1271    -1183     -916     -777     -832     -892     -842 
    -741     -707     -811     -936     -890     -708     -558     -533 
    -662     -816     -826     -739     -702     -707     -642     -558 
    -600     -767     -922     -931     -818     -735     -749     -783 
    -801     -855     -974    -1107    -1146    -1062     -966     -955 
   -1055    -1233    -1348    -1325    -1273    -1296    -1395    -1494 
   -1522    -1494    -1447    -1449    -1591    -1799    -1910    -1908 
   -1863    -1788    -1742    -1841    -2089    -2270    -2245    -2135 
   -2058    -2081    -2259    -2431    -2478    -2500    -2481    -2369 
   -2311    -2432    -2616    -2654    -2563    -2562    -2691    -2759 
   -2671    -2571    -2650    -2826    -2870    -2776    -2698    -2690 
   -2755    -2847    -2862    -2787    -2710    -2732    -2862    -2943 
   -2871    -2759    -2732    -2826    -2943    -2915    -2758    -2646 
   -2675    -2768    -2782    -2739    -2779    -2830    -2785    -2756 
   -2767    -2744    -2748    -2752    -2700    -2678    -2706    -2721 
   -2712    -2658    -2636    -2755    -2894    -2851    -2650    -2504 
   -2524    -2635    -2789    -2910    -2828    -2629    -2582    -2677 
   -2759    -2799    -2794    -2729    -2671    -2693    -2783    -2835 
   -2740    -2598    -2616    -2767    -2859    -2817    -2681    -2521 
   -2482    -2659    -2862    -2826    -2617    -2475    -2494    -2589 
   -2619    -2584    -2542    -2412    -2276    -2332    -2461    -2492 
   -2450    -2299    -2087    -2092    -2315    -2398    -2220    -2012 
   -1954    -2027    -2121    -2130    -2050    -1944    -1818    -1709 
   -1706    -1804    -1903    -1910    -1765    -1514    -1323    -1328 
   -1501    -1637    -1588    -1422    -1221    -1034    -1013    -1146 
   -1154     -990     -926    -1028    -1043     -886     -780     -754 
    -658     -607     -720     -787     -684     -602     -626     -595 
    -440     -340     -434     -623     -677     -557     -484     -525 
    -495     -380     -334     -400     -523     -614     -596     -506 
    -484     -594     -658     -535     -399     -483     -745     -934 
    -885     -695     -540     -492     -622     -926    -1179    -1169 
    -940     -728     -706     -862    -1069    -1165    -1128    -1084 
   -1081    -1059    -1026    -1073    -1237    -1416    -1424    -1244 
   -1097    -1147    -1316    -1451    -1498    -1466    -1372    -1339 
   -1429    -1495    -1460    -1436    -1474    -1497    -1448    -1394 
   -1417    -1497    -1549    -1513    -1378    -1237    -1215    -1333 
   -1479    -1485    -1314    -1111    -1070    -1224    -1372    -1345 
   -1216    -1116    -1081    -1115    -1181    -1202    -1154    -1089 
   -1065    -1074    -1081    -1107    -1143    -1140    -1138    -1188 
   -1189    -1073     -972     -984    -1071    -1163    -1204    -1188 
   -1162    -1104     -993     -969    -1098    -1198    -1135    -1008 
    -978    -1069    -1124    -1063     -987     -987    -1044    -1096 
   -1115    -1109    -1081    -1047    -1042    -1078    -1150    -1197 
   -1144    -1063    -1085    -1209    -1352    -1431    -1399    -1324 
   -1296    -1317    -1374    -1467    -1563    -1598    -1551    -1524 
   -1606    -1748    -1861    -1899    -1836    -1728    -1669    -1717 
   -1861    -2001    -2060    -2041    -1962    -1898    -1933    -2050 
   -2130    -2104    -2050    -2018    -2003    -2012    -2033    -2033 
   -2027    -2053    -2111    -2150    -2143    -2111    -2098    -2091 
   -2060    -2033    -2023    -2014    -2025    -2053    -2076    -2130 
   -2231    -2262    -2141    -1991    -2003    -2181    -2323    -2296 
   -2158    -2064    -2100    -2212    -2274    -2238    -2188    -2174 
   -2151    -2123    -2126    -2144    -2178    -2189    -2085    -1933 
   -1894    -1971    -2027    -1977    -1876    -1826    -1863    -1900 
   -1830    -1687    -1615    -1683    -1795    -1784    -1606    -1436 
   -1426    -1530    -1598    -1535    -1374    -1239    -1237    -1321 
   -1329    -1223    -1128    -1112    -1112    -1070     -992     -909 
    -847     -819     -814     -791     -700     -577     -513     -508 
    -502     -471     -409     -309     -202     -140     -124     -114 
     -82      -32       28      108      168      197      245      317 
     342      317      328      398      451      484      549      614 
     612      584      611      692      756      754      722      710 
     730      770      810      835      828      801      810      846 
     843      792      746      723      737      797      824      760 
     679      648      639      639      649      626      571      526 
     491      454      456      493      500      445      365      318 
     328      356      349      318      289      257      228      220 
     207      191      187      166      116       55       17       36 
      70       41      -35      -98     -131     -126     -101     -122 
    -193     -265     -325     -353     -333     -319     -352     -402 
    -448     -484     -490     -486     -500     -517     -553     -604 
    -615     -603     -621     -648     -672     -695     -675     -630 
    -656     -750     -822     -842     -820     -773     -753     -778 
    -843     -942    -1026    -1055    -1063    -1073    -1084    -1142 
   -1235    -1279    -1282    -1332    -1418    -1480    -1503    -1509 
   -1541    -1622    -1719    -1771    -1777    -1765    -1759    -1794 
   -1857    -1892    -1912    -1935    -1923    -1883    -1857    -1863 
   -1894    -1926    -1914    -1867    -1850    -1873    -1854    -1806 
   -1795    -1809    -1810    -1786    -1753    -1746    -1745    -1718 
   -1705    -1729    -1760    -1755    -1719    -1682    -1684    -1721 
   -1729    -1711    -1737    -1810    -1836    -1773    -1702    -1718 
   -1811    -1864    -1841    -1819    -1819    -1818    -1817    -1800 
   -1779    -1798    -1830    -1831    -1802    -1753    -1734    -1786 
   -1826    -1798    -1755    -1749    -1768    -1790    -1788    -1771 
   -1759    -1765    -1788    -1818    -1841    -1852    -1863    -1877 
   -1892    -1923    -1975    -2004    -1999    -1988    -2003    -2062 
   -2116    -2118    -2115    -2133    -2154    -2195    -2228    -2235 
   -2253    -2280    -2281    -2277    -2303    -2343    -2350    -2319 
   -2311    -2350    -2396    -2390    -2331    -2305    -2361    -2413 
   -2393    -2355    -2350    -2362    -2362    -2358    -2363    -2359 
   -2344    -2344    -2354    -2353    -2316    -2258    -2258    -2305 
   -2296    -2215    -2155    -2173    -2209    -2172    -2092    -2060 
   -2064    -2034    -1984    -1954    -1927    -1873    -1831    -1817 
   -1798    -1769    -1729    -1664    -1593    -1532    -1493    -1494 
   -1501    -1467    -1405    -1329    -1252    -1220    -1242    -1267 
   -1247    -1169    -1073    -1024    -1032    -1058    -1044     -984 
    -923     -907     -945     -961     -866     -737     -723     -810 
    -855     -800     -715     -680     -669     -639     -614     -615 
    -622     -610     -576     -522     -463     -429     -432     -436 
    -425     -413     -400     -380     -349     -303     -268     -268 
    -278     -284     -288     -261     -203     -162     -168     -212 
    -252     -240     -187     -170     -202     -225     -218     -218 
    -237     -248     -241     -255     -294     -306     -294     -311 
    -333     -330     -346     -387     -409     -403     -386     -398 
    -454     -484     -476     -480     -490     -495     -518     -526 
    -499     -493     -540     -592     -611     -599     -595     -622 
    -648     -661     -696     -750     -796     -828     -827     -810 
    -853     -950    -1021    -1043    -1063    -1112    -1169    -1220 
   -1282    -1358    -1440    -1522    -1578    -1597    -1629    -1711 
   -1815    -1899    -1939    -1962    -2027    -2147    -2250    -2293 
   -2315    -2362    -2435    -2506    -2567    -2631    -2701    -2766 
   -2799    -2808    -2824    -2872    -2937    -2997    -3052    -3092 
   -3107    -3123    -3156    -3183    -3221    -3283    -3322    -3310 
   -3292    -3303    -3331    -3376    -3427    -3461    -3462    -3438 
   -3424    -3447    -3478    -3483    -3480    -3488    -3484    -3473 
   -3499    -3530    -3520    -3496    -3487    -3499    -3508    -3480 
   -3447    -3458    -3485    -3483    -3451    -3423    -3407    -3383 
   -3353    -3341    -3331    -3321    -3317    -3298    -3264    -3237 
   -3207    -3173    -3134    -3095    -3090    -3094    -3069    -3052 
   -3059    -3044    -3013    -2983    -2949    -2938    -2965    -2984 
   -2955    -2901    -2870    -2875    -2890    -2899    -2899    -2871 
   -2843    -2849    -2860    -2857    -2878    -2891    -2853    -2810 
   -2797    -2817    -2840    -2813    -2758    -2740    -2740    -2717 
   -2682    -2658    -2643    -2640    -2632    -2598    -2546    -2493 
   -2442    -2408    -2382    -2362    -2344    -2304    -2249    -2215 
   -2204    -2189    -2153    -2106    -2088    -2100    -2087    -2046 
   -2010    -1979    -1958    -1960    -1953    -1941    -1933    -1925 
   -1934    -1956    -1956    -1927    -1899    -1892    -1919    -1953 
   -1960    -1956    -1956    -1929    -1899    -1919    -1971    -1993 
   -1985    -1975    -1971    -1977    -1988    -2000    -2006    -1998 
   -1995    -2022    -2062    -2077    -2060    -2034    -2034    -2061 
   -2092    -2115    -2133    -2141    -2139    -2149    -2173    -2195 
   -2199    -2187    -2187    -2215    -2224    -2191    -2173    -2205 
   -2236    -2224    -2201    -2203    -2192    -2168    -2176    -2189 
   -2154    -2097    -2068    -2065    -2058    -2023    -1988    -1985 
   -1985    -1952    -1902    -1872    -1858    -1848    -1837    -1809 
   -1764    -1725    -1698    -1675    -1645    -1620    -1617    -1605 
   -1563    -1532    -1514    -1487    -1483    -1498    -1478    -1445 
   -1441    -1436    -1409    -1390    -1397    -1397    -1375    -1360 
   -1364    -1355    -1327    -1306    -1301    -1293    -1297    -1318 
   -1313    -1271    -1244    -1243    -1239    -1233    -1227    -1221 
   -1227    -1239    -1246    -1240    -1228    -1228    -1247    -1262 
   -1255    -1250    -1271    -1308    -1321    -1317    -1329    -1345 
   -1360    -1393    -1425    -1440    -1462    -1499    -1526    -1528 
