Origin Time       2016/04/16 01:25:00
Lat.              32.753
Long.             130.762
Depth. (km)       12
Mag.              7.3
Station Code      AIC012
Station Lat.      34.9119
Station Long.     137.0447
Station Height(m) 6
Record Time       2016/04/16 01:28:12
Sampling Freq(Hz) 100Hz
Duration Time(s)  60
Dir.              E-W
Scale Factor      7845(gal)/8223790
Max. Acc. (gal)   1.967
Last Correction   2016/04/16 01:28:14
Memo.             
[...]
  -12918   -12910   -12900   -12900   -12907   -12900   -12880   -12868 
  -12865   -12860   -12860   -12858   -12845   -12831   -12822   -12822 
  -12825   -12812   -12800   -12798   -12793   -12784   -12776   -12773 
  -12768   -12756   -12752   -12762   -12758   -12739   -12738   -12749 
  -12750   -12753   -12754   -12737   -12721   -12721   -12721   -12717 
  -12713   -12707   -12687   -12663   -12645   -12638   -12631   -12623 
  -12622   -12625   -12619   -12609   -12609   -12621   -12618   -12599 
  -12590   -12604   -12627   -12626   -12617   -12623   -12631   -12636 
  -12647   -12661   -12664   -12665   -12671   -12675   -12687   -12715 
  -12730   -12726   -12734   -12745   -12752   -12777   -12803   -12812 
  -12825   -12838   -12841   -12855   -12896   -12938   -12960   -12978 
  -12996   -13004   -13020   -13053   -13080   -13086   -13092   -13103 
  -13113   -13132   -13157   -13177   -13194   -13201   -13204   -13219 
  -13240   -13252   -13259   -13267   -13277   -13288   -13296   -13319 
  -13344   -13338   -13324   -13343   -13371   -13390   -13406   -13410 
  -13409   -13420   -13435   -13440   -13446   -13460   -13464   -13456 
  -13458   -13470   -13467   -13452   -13439   -13436   -13446   -13443 
  -13428   -13425   -13420   -13410   -13423   -13429   -13410   -13393 
  -13382   -13369   -13369   -13379   -13383   -13377   -13363   -13350 
  -13335   -13314   -13313   -13339   -13351   -13351   -13351   -13323 
  -13285   -13288   -13302   -13302   -13293   -13279   -13275   -13274 
  -13261   -13252   -13231   -13192   -13178   -13186   -13178   -13161 
  -13155   -13150   -13136   -13123   -13126   -13132   -13123   -13096 
  -13069   -13053   -13047   -13030   -12995   -12973   -12966   -12946 
  -12926   -12924   -12927   -12911   -12872   -12842   -12846   -12852 
  -12842   -12825   -12803   -12789   -12783   -12765   -12746   -12746 
  -12754   -12735   -12695   -12684   -12692   -12675   -12650   -12650 
  -12660   -12663   -12658   -12652   -12650   -12649   -12640   -12636 
  -12652   -12671   -12679   -12676   -12660   -12656   -12675   -12680 
  -12667   -12664   -12665   -12660   -12657   -12660   -12661   -12661 
  -12661   -12665   -12667   -12657   -12650   -12663   -12657   -12631 
  -12631   -12649   -12653   -12656   -12660   -12654   -12638   -12623 
  -12625   -12638   -12644   -12646   -12656   -12658   -12652   -12656 
  -12671   -12679   -12687   -12695   -12690   -12685   -12700   -12725 
  -12746   -12760   -12764   -12769   -12779   -12798   -12810   -12810 
  -12811   -12838   -12872   -12888   -12893   -12897   -12907   -12912 
  -12912   -12931   -12964   -12987   -12995   -12993   -12989   -12993 
  -13001   -13004   -13015   -13030   -13024   -13004   -13001   -13020 
  -13039   -13036   -13022   -13026   -13042   -13038   -13027   -13041 
  -13070   -13088   -13090   -13093   -13090   -13082   -13100   -13139 
  -13153   -13144   -13165   -13205   -13228   -13235   -13252   -13281 
  -13288   -13274   -13285   -13320   -13339   -13352   -13382   -13392 
  -13370   -13366   -13386   -13377   -13342   -13339   -13363   -13378 
  -13378   -13367   -13338   -13304   -13289   -13296   -13301   -13279 
  -13248   -13238   -13243   -13247   -13240   -13220   -13200   -13176 
  -13149   -13136   -13135   -13117   -13089   -13072   -13054   -13030 
  -13036   -13054   -13026   -12989   -12987   -12985   -12969   -12958 
  -12943   -12926   -12906   -12891   -12895   -12892   -12870   -12865 
  -12868   -12855   -12839   -12826   -12811   -12799   -12795   -12792 
  -12787   -12779   -12768   -12758   -12758   -12754   -12731   -12712 
  -12712   -12715   -12704   -12688   -12679   -12661   -12629   -12607 
  -12596   -12587   -12581   -12573   -12557   -12548   -12546   -12529 
  -12490   -12463   -12460   -12452   -12429   -12426   -12413   -12372 
  -12343   -12329   -12317   -12322   -12329   -12310   -12297   -12294 
  -12272   -12254   -12253   -12240   -12226   -12236   -12239   -12235 
  -12243   -12244   -12248   -12270   -12278   -12260   -12248   -12263 
  -12275   -12275   -12301   -12337   -12352   -12360   -12375   -12386 
  -12391   -12409   -12438   -12459   -12471   -12487   -12491   -12488 
  -12507   -12538   -12561   -12575   -12584   -12602   -12626   -12638 
  -12642   -12658   -12680   -12690   -12695   -12719   -12737   -12730 
  -12722   -12735   -12765   -12789   -12804   -12815   -12815   -12818 
  -12834   -12846   -12855   -12868   -12869   -12864   -12876   -12891 
  -12895   -12903   -12920   -12923   -12910   -12911   -12928   -12928 
  -12923   -12946   -12973   -12976   -12978   -12997   -13012   -13016 
  -13026   -13042   -13054   -13069   -13081   -13081   -13082   -13101 
  -13120   -13124   -13123   -13136   -13157   -13163   -13172   -13197 
  -13213   -13221   -13238   -13255   -13271   -13292   -13309   -13323 
  -13333   -13336   -13338   -13342   -13351   -13373   -13390   -13392 
  -13393   -13404   -13402   -13397   -13400   -13400   -13397   -13394 
  -13396   -13401   -13405   -13405   -13409   -13404   -13400   -13409 
  -13419   -13423   -13421   -13412   -13419   -13441   -13455   -13459 
  -13463   -13466   -13470   -13475   -13489   -13506   -13513   -13513 
  -13522   -13525   -13531   -13555   -13564   -13549   -13552   -13558 
  -13551   -13547   -13554   -13560   -13564   -13564   -13570   -13579 
  -13585   -13590   -13594   -13585   -13572   -13583   -13597   -13598 
  -13605   -13616   -13628   -13628   -13610   -13610   -13636   -13643 
  -13624   -13610   -13612   -13612   -13608   -13605   -13606   -13610 
  -13598   -13572   -13565   -13571   -13555   -13537   -13532   -13537 
  -13541   -13522   -13495   -13489   -13495   -13495   -13501   -13505 
  -13500   -13494   -13494   -13495   -13504   -13517   -13527   -13518 
  -13504   -13506   -13514   -13505   -13498   -13489   -13458   -13443 
  -13433   -13404   -13386   -13375   -13340   -13304   -13275   -13243 
  -13221   -13203   -13166   -13134   -13105   -13057   -13022   -13016 
  -12993   -12951   -12927   -12906   -12874   -12853   -12835   -12811 
  -12792   -12781   -12756   -12722   -12710   -12703   -12677   -12653 
  -12645   -12633   -12618   -12604   -12594   -12594   -12588   -12575 
  -12577   -12581   -12565   -12553   -12556   -12553   -12548   -12548 
  -12537   -12522   -12514   -12509   -12491   -12478   -12483   -12476 
  -12453   -12434   -12417   -12396   -12390   -12380   -12351   -12324 
  -12317   -12301   -12268   -12249   -12245   -12229   -12205   -12190 
  -12187   -12185   -12170   -12151   -12137   -12127   -12118   -12106 
  -12093   -12089   -12087   -12079   -12077   -12069   -12050   -12039 
  -12032   -12016   -12002   -12008   -12016   -12002   -11982   -11978 
  -11983   -11980   -11979   -11988   -11992   -11982   -11973   -11975 
  -11996   -12013   -12021   -12031   -12043   -12055   -12071   -12096 
  -12128   -12158   -12175   -12194   -12220   -12241   -12263   -12289 
  -12314   -12341   -12367   -12394   -12424   -12437   -12451   -12475 
  -12488   -12501   -12529   -12553   -12560   -12564   -12576   -12594 
  -12610   -12627   -12647   -12657   -12658   -12677   -12703   -12715 
  -12734   -12768   -12788   -12793   -12806   -12838   -12879   -12911 
  -12935   -12954   -12976   -13004   -13034   -13061   -13088   -13113 
  -13138   -13166   -13200   -13234   -13265   -13292   -13311   -13324 
  -13351   -13386   -13412   -13431   -13446   -13456   -13473   -13502 
  -13540   -13564   -13575   -13585   -13601   -13624   -13653   -13678 
  -13701   -13728   -13744   -13747   -13770   -13805   -13819   -13829 
  -13853   -13876   -13890   -13892   -13892   -13913   -13932   -13930 
  -13930   -13938   -13940   -13940   -13937   -13934   -13937   -13938 
  -13940   -13956   -13960   -13948   -13950   -13960   -13957   -13959 
  -13973   -13980   -13968   -13954   -13959   -13968   -13971   -13971 
  -13969   -13960   -13945   -13930   -13917   -13909   -13902   -13892 
  -13884   -13875   -13855   -13839   -13829   -13809   -13786   -13779 
  -13773   -13752   -13724   -13706   -13707   -13697   -13679   -13679 
  -13680   -13660   -13644   -13641   -13636   -13633   -13649   -13654 
  -13639   -13628   -13621   -13613   -13609   -13598   -13586   -13594 
  -13591   -13567   -13545   -13522   -13504   -13500   -13489   -13459 
  -13423   -13387   -13356   -13339   -13316   -13275   -13244   -13220 
  -13184   -13149   -13132   -13112   -13077   -13045   -13015   -12981 
  -12950   -12926   -12912   -12897   -12868   -12834   -12812   -12799 
  -12785   -12769   -12756   -12746   -12723   -12692   -12680   -12680 
  -12668   -12653   -12637   -12611   -12595   -12590   -12583   -12575 
  -12565   -12542   -12526   -12522   -12503   -12482   -12480   -12469 
  -12449   -12442   -12432   -12413   -12401   -12386   -12355   -12328 
  -12320   -12313   -12283   -12251   -12233   -12221   -12205   -12186 
  -12168   -12154   -12133   -12098   -12074   -12067   -12058   -12050 
  -12037   -12013   -11994   -11992   -11986   -11978   -11967   -11955 
  -11956   -11947   -11924   -11925   -11940   -11927   -11902   -11896 
  -11894   -11889   -11892   -11890   -11873   -11853   -11853   -11857 
  -11843   -11840   -11854   -11844   -11830   -11831   -11835   -11838 
  -11836   -11827   -11832   -11850   -11862   -11867   -11870   -11890 
  -11925   -11944   -11947   -11965   -11997   -12010   -12016   -12037 
  -12062   -12086   -12104   -12109   -12118   -12133   -12145   -12166 
  -12187   -12194   -12205   -12225   -12239   -12235   -12236   -12264 
  -12290   -12294   -12306   -12322   -12330   -12355   -12387   -12403 
  -12422   -12449   -12472   -12496   -12523   -12550   -12579   -12611 
  -12645   -12675   -12698   -12725   -12756   -12791   -12822   -12861 
  -12898   -12933   -12968   -13004   -13036   -13065   -13105   -13144 
  -13170   -13207   -13252   -13292   -13328   -13365   -13400   -13435 
  -13471   -13501   -13536   -13582   -13626   -13663   -13694   -13721 
  -13759   -13817   -13853   -13861   -13884   -13930   -13969   -13998 
  -14027   -14067   -14098   -14115   -14142   -14176   -14195   -14214 
  -14233   -14245   -14262   -14283   -14300   -14321   -14335   -14337 
  -14339   -14350   -14357   -14354   -14353   -14354   -14342   -14320 
  -14323   -14334   -14319   -14296   -14283   -14265   -14239   -14220 
  -14212   -14206   -14184   -14145   -14113   -14099   -14080   -14067 
  -14050   -14018   -13977   -13945   -13922   -13905   -13887   -13852 
  -13810   -13784   -13756   -13713   -13687   -13663   -13616   -13572 
  -13535   -13487   -13446   -13409   -13362   -13316   -13269   -13213 
  -13162   -13112   -13049   -12982   -12928   -12881   -12827   -12764 
  -12700   -12640   -12583   -12526   -12469   -12421   -12373   -12314 
  -12251   -12198   -12159   -12128   -12089   -12046   -12009   -11970 
  -11928   -11892   -11866   -11843   -11812   -11772   -11739   -11722 
  -11705   -11686   -11674   -11658   -11623   -11589   -11574   -11558 
  -11534   -11523   -11519   -11500   -11481   -11476   -11472   -11464 
  -11454   -11442   -11425   -11412   -11412   -11408   -11398   -11395 
  -11394   -11389   -11399   -11402   -11395   -11396   -11403   -11408 
  -11422   -11435   -11439   -11439   -11446   -11455   -11469   -11485 
  -11503   -11521   -11537   -11546   -11554   -11572   -11605   -11639 
  -11663   -11686   -11716   -11749   -11776   -11809   -11851   -11886 
  -11908   -11940   -11988   -12035   -12085   -12136   -12170   -12201 
  -12253   -12307   -12343   -12382   -12425   -12455   -12486   -12526 
  -12567   -12603   -12627   -12646   -12680   -12712   -12726   -12753 
  -12787   -12811   -12831   -12845   -12853   -12865   -12877   -12888 
  -12893   -12911   -12933   -12942   -12950   -12957   -12958   -12984 
  -13014   -13016   -13020   -13036   -13049   -13061   -13072   -13081 
  -13106   -13127   -13126   -13134   -13151   -13163   -13178   -13203 
  -13228   -13247   -13265   -13286   -13309   -13324   -13344   -13373 
  -13387   -13392   -13413   -13450   -13470   -13487   -13514   -13535 
  -13549   -13576   -13609   -13639   -13659   -13678   -13709   -13737 
  -13757   -13780   -13809   -13834   -13849   -13867   -13898   -13925 
  -13934   -13945   -13965   -13981   -13991   -14007   -14029   -14050 
  -14069   -14080   -14092   -14113   -14133   -14137   -14145   -14170 
  -14187   -14189   -14204   -14222   -14227   -14233   -14253   -14262 
  -14257   -14253   -14254   -14255   -14250   -14246   -14241   -14227 
  -14216   -14215   -14207   -14191   -14176   -14164   -14145   -14115 
  -14094   -14080   -14067   -14053   -14044   -14018   -13984   -13957 
  -13932   -13903   -13886   -13868   -13836   -13802   -13771   -13747 
  -13728   -13709   -13680   -13641   -13606   -13582   -13552   -13517 
  -13497   -13478   -13443   -13406   -13390   -13375   -13343   -13302 
  -13266   -13225   -13180   -13146   -13122   -13082   -13035   -12997 
  -12964   -12933   -12892   -12850   -12814   -12766   -12712   -12675 
  -12645   -12610   -12573   -12534   -12490   -12444   -12398   -12361 
  -12330   -12287   -12237   -12204   -12174   -12133   -12098   -12075 
  -12044   -11992   -11936   -11900   -11867   -11831   -11800   -11762 
  -11716   -11677   -11643   -11604   -11561   -11519   -11480   -11431 
  -11376   -11338   -11313   -11275   -11230   -11186   -11149   -11122 
  -11094   -11064   -11044   -11020   -10989   -10963   -10947   -10932 
  -10924   -10910   -10902   -10897   -10889   -10891   -10903   -10908 
  -10916   -10939   -10955   -10966   -10984   -11016   -11048   -11075 
  -11101   -11121   -11137   -11160   -11207   -11261   -11296   -11331 
  -11369   -11392   -11430   -11483   -11519   -11547   -11584   -11628 
  -11674   -11715   -11762   -11815   -11842   -11871   -11931   -11986 
  -12031   -12089   -12155   -12210   -12252   -12302   -12372   -12441 
  -12503   -12569   -12626   -12675   -12731   -12793   -12854   -12916 
  -12977   -13035   -13088   -13150   -13217   -13275   -13333   -13392 
  -13444   -13501   -13559   -13620   -13690   -13759   -13810   -13861 
  -13922   -13979   -14027   -14075   -14123   -14168   -14202   -14235 
  -14281   -14328   -14369   -14413   -14457   -14488   -14524   -14563 
  -14590   -14609   -14635   -14669   -14692   -14704   -14714   -14725 
  -14737   -14751   -14759   -14767   -14769   -14762   -14763   -14769 
  -14770   -14778   -14785   -14779   -14773   -14775   -14780   -14774 
  -14764   -14762   -14760   -14752   -14742   -14733   -14733   -14731 
  -14721   -14713   -14700   -14685   -14675   -14670   -14665   -14650 
  -14625   -14609   -14601   -14580   -14553   -14532   -14511   -14482 
  -14451   -14423   -14400   -14373   -14335   -14291   -14251   -14226 
  -14199   -14154   -14103   -14058   -14013   -13959   -13910   -13878 
  -13834   -13775   -13729   -13680   -13614   -13560   -13522   -13475 
  -13423   -13380   -13327   -13269   -13227   -13189   -13136   -13076 
  -13016   -12964   -12907   -12846   -12793   -12748   -12692   -12637 
  -12580   -12526   -12487   -12439   -12375   -12320   -12272   -12220 
  -12167   -12112   -12052   -11998   -11955   -11911   -11859   -11809 
  -11759   -11693   -11630   -11593   -11564   -11515   -11461   -11416 
  -11373   -11334   -11298   -11253   -11217   -11186   -11142   -11109 
  -11103   -11087   -11053   -11033   -11017   -10986   -10967   -10968 
  -10962   -10939   -10921   -10910   -10897   -10895   -10899   -10908 
  -10916   -10910   -10897   -10901   -10906   -10903   -10918   -10947 
  -10960   -10970   -10984   -10996   -11021   -11062   -11092   -11107 
  -11126   -11155   -11188   -11222   -11256   -11298   -11333   -11361 
  -11408   -11455   -11484   -11519   -11568   -11615   -11665   -11716 
  -11759   -11803   -11861   -11921   -11980   -12035   -12089   -12147 
  -12198   -12252   -12325   -12394   -12448   -12513   -12587   -12650 
  -12711   -12776   -12841   -12903   -12964   -13023   -13089   -13162 
  -13224   -13274   -13333   -13397   -13452   -13508   -13572   -13630 
  -13680   -13745   -13817   -13872   -13927   -13990   -14047   -14094 
  -14145   -14204   -14255   -14295   -14346   -14407   -14450   -14488 
  -14539   -14594   -14638   -14671   -14704   -14740   -14775   -14801 
  -14825   -14855   -14878   -14897   -14920   -14944   -14960   -14972 
  -14978   -14980   -14986   -14991   -14997   -15003   -15006   -15005 
  -15003   -14998   -14998   -15003   -15006   -14998   -14980   -14967 
  -14959   -14951   -14939   -14918   -14901   -14881   -14852   -14828 
  -14805   -14777   -14747   -14724   -14701   -14667   -14636   -14617 
  -14590   -14562   -14548   -14517   -14477   -14453   -14422   -14381 
  -14354   -14337   -14311   -14280   -14249   -14215   -14168   -14125 
  -14107   -14088   -14047   -14017   -13996   -13956   -13909   -13872 
  -13842   -13810   -13771   -13728   -13689   -13641   -13590   -13537 
  -13478   -13425   -13383   -13329   -13275   -13227   -13167   -13101 
  -13045   -13007   -12978   -12941   -12893   -12847   -12802   -12758 
  -12722   -12694   -12667   -12625   -12571   -12530   -12511   -12495 
  -12460   -12413   -12373   -12345   -12318   -12289   -12253   -12226 
  -12202   -12170   -12147   -12128   -12098   -12075   -12056   -12020 
  -11983   -11966   -11951   -11927   -11904   -11890   -11877   -11853 
  -11831   -11820   -11808   -11785   -11762   -11754   -11739   -11722 
  -11720   -11716   -11701   -11693   -11689   -11681   -11682   -11684 
  -11680   -11681   -11688   -11691   -11693   -11704   -11713   -11724 
  -11747   -11765   -11784   -11812   -11830   -11843   -11870   -11902 
  -11934   -11956   -11983   -12019   -12046   -12069   -12104   -12144 
  -12185   -12221   -12253   -12282   -12321   -12366   -12406   -12449 
  -12498   -12536   -12563   -12598   -12640   -12684   -12730   -12772 
  -12806   -12841   -12879   -12918   -12954   -12989   -13030   -13069 
  -13099   -13134   -13178   -13224   -13262   -13292   -13325   -13370 
  -13409   -13435   -13463   -13501   -13533   -13562   -13597   -13636 
  -13663   -13676   -13693   -13714   -13726   -13747   -13786   -13814 
  -13815   -13818   -13829   -13838   -13846   -13860   -13869   -13871 
  -13865   -13860   -13852   -13846   -13845   -13838   -13826   -13815 
  -13801   -13784   -13779   -13775   -13763   -13749   -13732   -13710 
  -13682   -13651   -13637   -13631   -13617   -13595   -13565   -13529 
  -13513   -13506   -13489   -13478   -13460   -13432   -13408   -13389 
  -13383   -13389   -13378   -13359   -13360   -13358   -13346   -13352 
  -13365   -13360   -13344   -13331   -13333   -13346   -13352   -13358 
  -13356   -13346   -13339   -13340   -13347   -13365   -13377   -13367 
  -13355   -13360   -13369   -13367   -13363   -13358   -13340   -13317 
  -13313   -13323   -13331   -13328   -13319   -13304   -13298   -13297 
  -13290   -13281   -13281   -13271   -13257   -13248   -13247   -13247 
  -13246   -13242   -13238   -13242   -13246   -13246   -13240   -13236 
  -13231   -13228   -13231   -13244   -13255   -13254   -13254   -13248 
  -13242   -13250   -13258   -13254   -13251   -13244   -13235   -13228 
  -13224   -13221   -13211   -13196   -13178   -13159   -13157   -13162 
  -13155   -13142   -13139   -13134   -13117   -13099   -13084   -13070 
