Origin Time       2016/04/16 01:25:00
Lat.              32.753
Long.             130.762
Depth. (km)       12
Mag.              7.3
Station Code      AIC015
Station Lat.      34.7549
Station Long.     137.4047
Station Height(m) 8
Record Time       2016/04/16 01:28:26
Sampling Freq(Hz) 100Hz
Duration Time(s)  60
Dir.              N-S
Scale Factor      7845(gal)/8223790
Max. Acc. (gal)   2.572
Last Correction   2016/04/16 01:28:27
Memo.             
[...]
    1620     1602     1593     1586     1572     1556     1543     1533 
    1520     1507     1498     1485     1474     1467     1464     1457 
    1447     1445     1451     1431     1405     1404     1404     1404 
    1408     1399     1382     1367     1359     1360     1354     1336 
    1331     1336     1340     1351     1350     1332     1337     1354 
    1348     1356     1372     1363     1363     1387     1404     1395 
    1399     1417     1417     1426     1447     1455     1462     1464 
    1462     1467     1493     1524     1533     1541     1559     1566 
    1568     1587     1610     1621     1632     1660     1684     1695 
    1706     1726     1760     1798     1826     1838     1844     1865 
    1892     1922     1949     1968     1982     1998     2012     2037 
    2053     2069     2081     2084     2089     2106     2119     2119 
    2123     2138     2137     2137     2146     2150     2153     2162 
    2168     2150     2126     2134     2151     2147     2142     2151 
    2143     2115     2104     2111     2107     2102     2115     2110 
    2079     2056     2045     2042     2039     2031     2025     2012 
    1996     1984     1981     1975     1960     1949     1935     1926 
    1926     1919     1914     1902     1881     1872     1857     1840 
    1833     1822     1806     1787     1765     1741     1713     1702 
    1699     1687     1671     1647     1622     1603     1598     1617 
    1626     1618     1606     1599     1598     1598     1605     1613 
    1611     1617     1617     1614     1628     1628     1624     1630 
    1634     1632     1629     1637     1647     1640     1632     1636 
    1640     1632     1624     1626     1618     1610     1618     1609 
    1598     1614     1611     1587     1579     1578     1571     1566 
    1567     1549     1516     1498     1498     1490     1482     1476 
    1467     1451     1439     1431     1401     1367     1356     1356 
    1355     1359     1370     1368     1345     1331     1329     1318 
    1317     1325     1332     1343     1339     1325     1329     1332 
    1323     1310     1313     1331     1333     1334     1340     1328 
    1316     1331     1362     1374     1371     1381     1382     1370 
    1372     1383     1397     1414     1421     1418     1414     1422 
    1444     1452     1453     1462     1470     1478     1486     1498 
    1507     1507     1516     1541     1568     1579     1586     1593 
    1586     1593     1626     1649     1679     1714     1717     1711 
    1722     1737     1738     1745     1779     1810     1817     1817 
    1809     1784     1788     1833     1872     1885     1881     1868 
    1871     1892     1898     1908     1935     1954     1956     1956 
    1965     1975     1977     1984     1993     2006     2029     2053 
    2060     2039     2018     2030     2070     2107     2111     2092 
    2073     2052     2050     2077     2089     2077     2058     2041 
    2025     2011     2011     2020     2019     2006     2001     1999 
    1961     1912     1908     1934     1975     2000     1966     1917 
    1911     1923     1891     1849     1888     1952     1949     1906 
    1859     1823     1829     1881     1938     1966     1941     1884 
    1854     1864     1881     1907     1925     1902     1876     1895 
    1923     1921     1871     1823     1852     1912     1949     1937 
    1872     1844     1858     1863     1880     1899     1891     1875 
    1859     1861     1878     1876     1867     1872     1873     1871 
    1880     1888     1885     1876     1872     1876     1883     1883 
    1857     1825     1830     1850     1848     1845     1841     1815 
    1802     1800     1786     1780     1798     1803     1784     1773 
    1786     1787     1768     1760     1760     1745     1726     1728 
    1726     1705     1686     1675     1675     1684     1687     1674 
    1634     1605     1622     1648     1644     1620     1602     1598 
    1597     1594     1578     1551     1543     1556     1563     1545 
    1506     1487     1507     1522     1506     1474     1453     1456 
    1464     1466     1456     1447     1441     1435     1447     1457 
    1441     1435     1451     1462     1452     1448     1467     1485 
    1505     1516     1503     1509     1526     1530     1552     1566 
    1564     1580     1609     1629     1632     1624     1621     1645 
    1688     1691     1668     1674     1701     1734     1749     1729 
    1722     1753     1804     1836     1833     1829     1837     1863 
    1906     1946     1964     1956     1949     1964     2006     2046 
    2057     2053     2061     2081     2116     2155     2178     2174 
    2151     2160     2226     2282     2274     2243     2234     2243 
    2278     2331     2342     2307     2277     2272     2289     2305 
    2303     2292     2269     2250     2258     2269     2255     2222 
    2185     2165     2168     2184     2188     2141     2064     2041 
    2084     2126     2111     2049     1991     1966     1989     2037 
    2042     1999     1942     1910     1923     1960     1961     1915 
    1871     1859     1875     1896     1890     1852     1811     1803 
    1826     1849     1845     1815     1773     1753     1781     1823 
    1821     1786     1764     1765     1771     1767     1769     1784 
    1787     1783     1783     1787     1790     1792     1803     1821 
    1826     1836     1852     1861     1854     1845     1854     1868 
    1869     1877     1890     1892     1904     1915     1915     1922 
    1933     1935     1926     1929     1961     1987     1988     1989 
    1981     1972     1980     2001     2031     2029     2001     2011 
    2034     2034     2033     2042     2060     2056     2037     2033 
    2038     2046     2050     2043     2034     2034     2049     2049 
    2020     2003     2016     2030     2023     2001     1980     1987 
    2007     2004     1972     1937     1933     1945     1925     1884 
    1859     1850     1846     1840     1822     1790     1769     1769 
    1757     1728     1721     1732     1728     1711     1695     1680 
    1676     1672     1661     1652     1647     1638     1624     1615 
    1613     1609     1617     1621     1594     1574     1590     1626 
    1642     1626     1606     1613     1632     1645     1652     1660 
    1665     1675     1686     1684     1707     1761     1755     1711 
    1734     1784     1788     1799     1826     1815     1809     1826 
    1854     1877     1859     1852     1896     1898     1884     1915 
    1912     1878     1884     1917     1926     1908     1907     1915 
    1884     1867     1898     1906     1861     1822     1813     1829 
    1872     1873     1771     1683     1713     1757     1718     1644 
    1603     1579     1552     1580     1602     1502     1394     1401 
    1431     1405     1363     1312     1262     1282     1328     1298 
    1204     1127     1194     1310     1264     1159     1166     1230 
    1247     1216     1202     1216     1252     1281     1244     1223 
    1263     1271     1225     1236     1301     1293     1248     1260 
    1255     1229     1258     1296     1279     1248     1256     1279 
    1273     1267     1278     1274     1281     1313     1328     1316 
    1308     1306     1287     1305     1351     1343     1320     1347 
    1371     1364     1334     1331     1375     1399     1375     1372 
    1417     1444     1416     1404     1439     1466     1471     1471 
    1485     1520     1544     1533     1533     1556     1584     1624 
    1660     1667     1655     1671     1725     1753     1763     1781 
    1800     1850     1898     1892     1885     1927     1989     2026 
    2026     2023     2056     2128     2191     2196     2180     2196 
    2232     2270     2307     2303     2281     2313     2367     2378 
    2354     2340     2362     2386     2385     2384     2382     2366 
    2376     2397     2393     2392     2401     2400     2382     2362 
    2366     2378     2386     2386     2366     2353     2370     2363 
    2327     2297     2300     2342     2359     2305     2250     2239 
    2254     2270     2236     2169     2151     2177     2181     2139 
    2062     2010     2034     2079     2049     1975     1956     1956 
    1919     1896     1892     1892     1896     1850     1771     1772 
    1819     1786     1728     1729     1742     1715     1647     1595 
    1634     1667     1614     1590     1613     1597     1568     1566 
    1557     1552     1568     1609     1636     1598     1539     1526 
    1556     1594     1598     1574     1559     1548     1554     1586 
    1572     1526     1537     1575     1551     1490     1503     1563 
    1537     1471     1482     1537     1553     1507     1497     1566 
    1587     1549     1544     1561     1603     1634     1580     1593 
    1709     1732     1680     1668     1694     1767     1826     1815 
    1799     1802     1842     1910     1922     1895     1917     1962 
    1969     1982     2041     2061     2012     2026     2123     2126 
    2057     2111     2192     2135     2072     2138     2214     2162 
    2073     2121     2215     2165     2084     2116     2138     2089 
    2087     2092     2052     2046     2056     2008     1948     1939 
    1975     1961     1873     1822     1811     1809     1826     1792 
    1682     1603     1626     1687     1632     1512     1497     1478 
    1420     1441     1410     1317     1286     1239     1197     1193 
    1155     1112     1048      967      959      982      932      849 
     808      787      767      770      750      685      631      616 
     603      602      665      666      550      522      579      603 
     635      660      637      588      604      741      793      707 
     702      753      800      909      953      877      854      935 
    1042     1120     1155     1135     1080     1136     1337     1457 
    1405     1351     1431     1556     1613     1652     1694     1729 
    1802     1883     1930     1942     1972     2046     2087     2116 
    2195     2251     2289     2319     2301     2308     2386     2501 
    2528     2421     2401     2527     2610     2602     2539     2509 
    2560     2589     2596     2635     2629     2567     2550     2586 
    2632     2639     2577     2528     2560     2602     2592     2528 
    2470     2515     2581     2508     2421     2454     2475     2438 
    2420     2424     2370     2334     2377     2374     2338     2300 
    2253     2238     2187     2169     2228     2209     2124     2057 
    2039     2058     2015     1979     2010     1965     1844     1815 
    1891     1929     1857     1742     1711     1769     1784     1723 
    1667     1688     1761     1749     1610     1528     1602     1702 
    1687     1588     1575     1579     1518     1547     1583     1509 
    1479     1507     1466     1431     1467     1435     1344     1333 
    1399     1433     1355     1278     1273     1216     1185     1285 
    1305     1200     1148     1138     1074     1048     1090     1053 
     985     1023     1032      943      868      812      808      870 
     870      795      776      784      707      653      693      684 
     661      704      693      633      596      564      572      610 
     611      614      602      540      525      556      538      526 
     575      579      540      599      645      553      545      634 
     648      684      777      764      683      648      658      761 
     855      850      913      982      912      870      931      976 
    1016     1107     1161     1171     1219     1233     1242     1318 
    1354     1356     1433     1530     1575     1606     1672     1723 
    1714     1717     1798     1903     1960     2008     2041     2006 
    2033     2170     2235     2204     2231     2297     2289     2267 
    2312     2388     2470     2489     2452     2479     2497     2447 
    2469     2543     2552     2559     2612     2609     2548     2531 
    2542     2536     2551     2565     2550     2550     2546     2521 
    2482     2461     2496     2531     2501     2458     2439     2401 
    2385     2444     2477     2435     2407     2396     2353     2342 
    2412     2415     2295     2266     2346     2313     2253     2311 
    2301     2196     2218     2274     2220     2200     2215     2169 
    2158     2196     2166     2107     2096     2110     2137     2141 
    2087     2050     2060     2092     2123     2100     2065     2074 
    2073     2081     2123     2137     2126     2124     2118     2121 
    2149     2172     2188     2205     2176     2151     2215     2234 
    2205     2241     2220     2223     2334     2322     2245     2265 
    2292     2322     2357     2322     2286     2308     2334     2357 
    2374     2340     2305     2300     2286     2317     2344     2280 
    2243     2261     2212     2162     2172     2155     2107     2058 
    1993     1953     1929     1857     1783     1759     1734     1648 
    1534     1486     1462     1385     1297     1220     1147     1085 
    1016      928      850      801      733      619      538      480 
     394      309      248      214      147        9      -87     -129 
    -187     -245     -282     -334     -421     -508     -579     -610 
    -607     -639     -741     -808     -783     -799     -888     -912 
    -881     -882     -924     -967     -981     -961     -940     -961 
    -985     -959     -899     -864     -896     -899     -828     -801 
    -843     -820     -706     -656     -688     -670     -612     -561 
    -540     -531     -450     -372     -378     -344     -263     -225 
    -193     -133      -74      -13       20       25       87      178 
     259      342      367      367      433      514      571      643 
     714      746      770      832      915      984     1031     1070 
    1124     1170     1228     1325     1389     1418     1462     1499 
    1517     1566     1669     1729     1749     1807     1849     1878 
    1956     2012     2019     2052     2128     2200     2251     2282 
    2292     2335     2394     2442     2543     2609     2577     2590 
    2695     2792     2835     2886     2949     2956     2984     3071 
    3119     3153     3206     3269     3335     3368     3387     3431 
    3481     3523     3561     3595     3605     3612     3649     3682 
    3705     3726     3724     3726     3740     3747     3740     3727 
    3719     3713     3707     3690     3646     3601     3568     3542 
    3515     3464     3423     3380     3322     3276     3202     3114 
    3053     3007     2963     2879     2776     2700     2612     2525 
    2463     2396     2309     2214     2116     2041     1975     1892 
    1810     1729     1626     1534     1487     1424     1317     1219 
    1143     1086     1035      974      885      769      706      683 
     641      615      546      430      382      376      337      283 
     252      238      224      193      182      168      117      114 
     156      166      171      178      184      183      206      276 
     298      284      322      364      403      459      476      481 
     525      585      649      695      711      731      769      830 
     895      919      922      954      999     1032     1081     1120 
    1131     1158     1188     1178     1181     1235     1279     1260 
    1224     1237     1285     1308     1296     1244     1223     1266 
    1277     1251     1244     1225     1201     1196     1190     1170 
    1142     1140     1152     1142     1115     1081     1053     1042 
    1047     1035      996      974      967      953      957      947 
     911      889      877      886      908      877      850      877 
     877      873      927      946      882      846      892      939 
     966     1000     1005      980      990     1015     1050     1124 
    1161     1163     1197     1223     1254     1312     1366     1436 
    1485     1479     1513     1593     1634     1667     1741     1795 
    1798     1799     1844     1930     1991     2004     2006     2012 
    2034     2079     2142     2189     2154     2130     2195     2262 
    2281     2280     2266     2278     2340     2404     2404     2357 
    2377     2448     2461     2463     2501     2500     2484     2511 
    2544     2555     2546     2550     2583     2596     2579     2597 
    2606     2592     2621     2635     2602     2617     2651     2631 
    2616     2658     2669     2616     2614     2673     2669     2643 
    2664     2663     2636     2655     2682     2678     2679     2688 
    2671     2658     2682     2693     2673     2700     2764     2762 
    2727     2749     2774     2752     2764     2833     2882     2878 
    2835     2811     2849     2910     2943     2943     2924     2921 
    2940     2945     2940     2953     2948     2910     2909     2945 
    2955     2940     2901     2849     2857     2894     2863     2817 
    2791     2729     2662     2658     2682     2677     2643     2574 
    2496     2465     2447     2392     2366     2377     2328     2227 
    2170     2168     2157     2107     2037     1969     1929     1917 
    1875     1803     1752     1699     1626     1579     1559     1516 
    1441     1366     1298     1256     1232     1185     1123     1067 
     996      916      885      893      880      820      747      688 
     652      634      625      614      585      535      490      476 
     491      491      464      445      434      413      414      440 
     456      441      419      432      459      456      450      459 
     469      487      503      519      531      531      533      562 
     599      612      616      641      677      704      719      751 
     789      811      835      868      909      962     1009     1046 
    1081     1131     1167     1206     1273     1314     1333     1385 
    1453     1503     1552     1605     1644     1680     1717     1746 
    1818     1910     1945     1949     1969     2015     2100     2160 
    2172     2199     2239     2270     2305     2349     2425     2502 
    2520     2531     2556     2575     2629     2739     2839     2875 
    2859     2841     2884     2980     3049     3100     3188     3238 
    3227     3232     3268     3338     3450     3527     3541     3543 
    3549     3569     3640     3721     3767     3819     3852     3817 
    3798     3850     3878     3882     3946     4001     3967     3915 
    3894     3883     3919     3991     4005     3955     3902     3858 
    3848     3863     3842     3816     3812     3775     3704     3653 
    3615     3589     3589     3573     3497     3395     3334     3308 
    3261     3203     3145     3087     3030     2957     2872     2795 
    2728     2683     2648     2569     2458     2374     2330     2281 
    2219     2153     2084     2026     1972     1891     1796     1737 
    1710     1675     1613     1539     1466     1395     1351     1320 
    1273     1221     1182     1147     1097     1051     1034     1030 
    1009      970      942      938      932      922      932      951 
     949      927      918      939      965      974      990     1024 
