Origin Time       2016/04/16 01:25:00
Lat.              32.753
Long.             130.762
Depth. (km)       12
Mag.              7.3
Station Code      AIC001
Station Lat.      35.2976
Station Long.     136.7500
Station Height(m) 6
Record Time       2016/04/16 01:28:06
Sampling Freq(Hz) 100Hz
Duration Time(s)  120
Dir.              E-W
Scale Factor      7845(gal)/8223790
Max. Acc. (gal)   1.773
Last Correction   2016/04/16 01:28:08
Memo.             
[...]
   -5294    -5308    -5296    -5281    -5258    -5240    -5254    -5282 
   -5289    -5273    -5268    -5268    -5255    -5244    -5252    -5256 
   -5250    -5248    -5246    -5235    -5248    -5273    -5279    -5273 
   -5265    -5250    -5242    -5244    -5247    -5254    -5266    -5278 
   -5273    -5250    -5233    -5235    -5250    -5262    -5250    -5223 
   -5219    -5239    -5243    -5224    -5209    -5216    -5220    -5220 
   -5229    -5220    -5179    -5161    -5178    -5188    -5179    -5171 
   -5159    -5157    -5175    -5192    -5186    -5179    -5177    -5174 
   -5179    -5204    -5235    -5258    -5256    -5244    -5252    -5273 
   -5278    -5287    -5314    -5325    -5313    -5310    -5328    -5356 
   -5383    -5391    -5385    -5383    -5398    -5418    -5418    -5409 
   -5404    -5400    -5405    -5420    -5427    -5425    -5410    -5387 
   -5370    -5375    -5397    -5409    -5395    -5371    -5364    -5371 
   -5375    -5382    -5402    -5417    -5418    -5431    -5443    -5452 
   -5472    -5494    -5506    -5516    -5529    -5557    -5601    -5652 
   -5691    -5718    -5764    -5813    -5841    -5869    -5911    -5949 
   -5980    -6004    -6023    -6056    -6110    -6156    -6172    -6189 
   -6219    -6247    -6273    -6293    -6316    -6347    -6369    -6359 
   -6340    -6335    -6336    -6331    -6322    -6318    -6319    -6315 
   -6295    -6268    -6257    -6252    -6238    -6218    -6193    -6164 
   -6138    -6114    -6083    -6068    -6061    -6033    -6002    -5992 
   -5988    -5972    -5945    -5927    -5922    -5923    -5919    -5904 
   -5883    -5864    -5856    -5861    -5876    -5877    -5852    -5814 
   -5795    -5803    -5818    -5807    -5775    -5744    -5711    -5680 
   -5668    -5652    -5599    -5548    -5525    -5501    -5462    -5437 
   -5414    -5356    -5293    -5268    -5254    -5209    -5162    -5143 
   -5131    -5098    -5057    -5035    -5011    -4968    -4946    -4959 
   -4973    -4973    -4984    -5000    -5003    -4994    -5001    -5034 
   -5069    -5084    -5078    -5078    -5097    -5121    -5142    -5166 
   -5188    -5206    -5238    -5271    -5289    -5301    -5323    -5344 
   -5366    -5386    -5395    -5408    -5441    -5466    -5458    -5448 
   -5468    -5489    -5497    -5502    -5495    -5486    -5494    -5501 
   -5495    -5499    -5514    -5518    -5510    -5509    -5524    -5539 
   -5537    -5530    -5544    -5564    -5570    -5567    -5557    -5544 
   -5543    -5560    -5578    -5590    -5597    -5590    -5584    -5590 
   -5598    -5599    -5602    -5599    -5585    -5580    -5590    -5594 
   -5593    -5594    -5590    -5583    -5589    -5601    -5614    -5629 
   -5634    -5632    -5630    -5640    -5660    -5674    -5675    -5694 
   -5730    -5745    -5734    -5726    -5738    -5767    -5791    -5798 
   -5783    -5749    -5736    -5753    -5763    -5748    -5717    -5686 
   -5663    -5648    -5626    -5590    -5548    -5513    -5472    -5439 
   -5421    -5387    -5344    -5323    -5294    -5238    -5184    -5144 
   -5109    -5082    -5054    -5020    -4973    -4914    -4878    -4874 
   -4857    -4819    -4787    -4769    -4769    -4774    -4748    -4691 
   -4641    -4638    -4662    -4675    -4666    -4652    -4644    -4657 
   -4676    -4660    -4615    -4591    -4599    -4623    -4639    -4627 
   -4596    -4587    -4611    -4634    -4627    -4614    -4617    -4615 
   -4606    -4623    -4660    -4660    -4638    -4658    -4698    -4708 
   -4726    -4764    -4799    -4831    -4857    -4855    -4857    -4903 
   -4973    -5023    -5060    -5092    -5104    -5117    -5173    -5247 
   -5283    -5292    -5310    -5335    -5359    -5400    -5448    -5491 
   -5540    -5582    -5598    -5609    -5634    -5676    -5721    -5756 
   -5783    -5798    -5803    -5813    -5834    -5863    -5895    -5913 
   -5894    -5863    -5861    -5892    -5914    -5906    -5894    -5888 
   -5888    -5898    -5906    -5891    -5864    -5863    -5886    -5896 
   -5887    -5884    -5880    -5857    -5836    -5838    -5845    -5829 
   -5814    -5813    -5798    -5780    -5782    -5793    -5800    -5815 
   -5831    -5834    -5834    -5853    -5873    -5881    -5900    -5925 
   -5930    -5931    -5944    -5962    -5987    -6006    -6006    -6008 
   -6029    -6046    -6044    -6041    -6046    -6062    -6081    -6088 
   -6092    -6107    -6120    -6115    -6095    -6079    -6075    -6056 
   -6026    -6018    -6019    -6000    -5965    -5940    -5923    -5896 
   -5869    -5864    -5861    -5845    -5829    -5805    -5778    -5775 
   -5775    -5748    -5705    -5684    -5705    -5738    -5746    -5718 
   -5676    -5641    -5628    -5655    -5691    -5691    -5656    -5610 
   -5574    -5568    -5576    -5576    -5574    -5562    -5535    -5508 
   -5490    -5481    -5479    -5472    -5455    -5414    -5371    -5373 
   -5397    -5381    -5336    -5310    -5312    -5325    -5328    -5320 
   -5306    -5275    -5235    -5235    -5265    -5278    -5266    -5248 
   -5235    -5246    -5270    -5282    -5286    -5294    -5300    -5310 
   -5337    -5366    -5368    -5358    -5368    -5394    -5412    -5416 
   -5420    -5448    -5476    -5472    -5463    -5471    -5478    -5493 
   -5505    -5487    -5471    -5490    -5508    -5497    -5487    -5495 
   -5494    -5474    -5462    -5478    -5498    -5495    -5487    -5476 
   -5448    -5416    -5412    -5431    -5439    -5433    -5443    -5458 
   -5437    -5404    -5404    -5427    -5417    -5381    -5386    -5424 
   -5416    -5360    -5343    -5390    -5421    -5356    -5281    -5296 
   -5343    -5351    -5335    -5310    -5273    -5242    -5240    -5271 
   -5287    -5266    -5239    -5219    -5198    -5185    -5184    -5186 
   -5185    -5178    -5175    -5163    -5116    -5073    -5085    -5127 
   -5131    -5090    -5063    -5078    -5093    -5105    -5109    -5060 
   -5000    -5013    -5092    -5144    -5109    -5035    -5026    -5086 
   -5127    -5105    -5077    -5107    -5173    -5192    -5144    -5108 
   -5143    -5211    -5232    -5200    -5179    -5201    -5244    -5290 
   -5308    -5273    -5228    -5238    -5297    -5339    -5339    -5316 
   -5281    -5255    -5268    -5317    -5368    -5395    -5381    -5325 
   -5278    -5281    -5312    -5336    -5325    -5285    -5255    -5256 
   -5273    -5290    -5292    -5265    -5224    -5211    -5224    -5229 
   -5212    -5190    -5186    -5197    -5219    -5225    -5200    -5182 
   -5179    -5171    -5173    -5151    -5096    -5089    -5169    -5256 
   -5259    -5174    -5093    -5105    -5201    -5312    -5354    -5283 
   -5188    -5189    -5282    -5379    -5421    -5405    -5377    -5400 
   -5478    -5547    -5574    -5587    -5587    -5560    -5556    -5611 
   -5678    -5705    -5710    -5724    -5737    -5744    -5744    -5732 
   -5717    -5741    -5798    -5814    -5768    -5732    -5738    -5740 
   -5707    -5706    -5757    -5764    -5703    -5656    -5637    -5618 
   -5629    -5649    -5629    -5603    -5595    -5545    -5497    -5552 
   -5625    -5582    -5513    -5548    -5602    -5580    -5548    -5545 
   -5547    -5574    -5644    -5691    -5665    -5628    -5632    -5641 
   -5637    -5679    -5760    -5788    -5740    -5686    -5672    -5709 
   -5775    -5822    -5819    -5782    -5753    -5757    -5760    -5765 
   -5811    -5861    -5842    -5784    -5767    -5792    -5815    -5833 
   -5856    -5881    -5890    -5864    -5826    -5825    -5872    -5926 
   -5944    -5935    -5940    -5946    -5953    -5985    -6039    -6081 
   -6080    -6039    -6023    -6057    -6085    -6079    -6085    -6107 
   -6093    -6061    -6049    -6044    -6044    -6057    -6077    -6088 
   -6042    -5949    -5900    -5931    -5992    -6023    -5984    -5888 
   -5802    -5780    -5834    -5906    -5914    -5859    -5782    -5725 
   -5740    -5807    -5825    -5779    -5740    -5726    -5717    -5709 
   -5703    -5725    -5773    -5796    -5788    -5783    -5775    -5765 
   -5780    -5819    -5848    -5848    -5833    -5819    -5838    -5913 
   -5994    -6008    -5956    -5884    -5869    -5944    -6034    -6069 
   -6065    -6049    -6029    -6015    -6031    -6084    -6137    -6161 
   -6168    -6150    -6112    -6108    -6160    -6201    -6195    -6181 
   -6168    -6146    -6135    -6142    -6153    -6150    -6129    -6096 
   -6065    -6065    -6103    -6120    -6093    -6064    -6022    -5967 
   -5953    -5971    -5973    -5968    -5946    -5880    -5806    -5796 
   -5852    -5902    -5910    -5864    -5757    -5659    -5656    -5709 
   -5709    -5651    -5585    -5537    -5506    -5475    -5420    -5362 
   -5344    -5359    -5332    -5254    -5182    -5115    -5067    -5096 
   -5134    -5093    -4999    -4905    -4868    -4876    -4869    -4845 
   -4808    -4746    -4731    -4787    -4811    -4756    -4693    -4679 
   -4679    -4673    -4693    -4729    -4729    -4698    -4664    -4649 
   -4673    -4702    -4704    -4698    -4691    -4702    -4723    -4704 
   -4664    -4657    -4666    -4644    -4599    -4572    -4594    -4638 
   -4633    -4561    -4499    -4502    -4542    -4564    -4556    -4521 
   -4477    -4469    -4500    -4521    -4515    -4506    -4487    -4449 
   -4436    -4461    -4475    -4464    -4457    -4441    -4426    -4430 
   -4430    -4426    -4463    -4519    -4531    -4495    -4453    -4463 
   -4519    -4542    -4511    -4491    -4504    -4531    -4525    -4468 
   -4429    -4452    -4494    -4507    -4476    -4436    -4430    -4457 
   -4487    -4487    -4459    -4456    -4492    -4530    -4545    -4526 
   -4509    -4558    -4648    -4685    -4687    -4720    -4770    -4800 
   -4814    -4842    -4895    -4942    -4974    -5031    -5104    -5124 
   -5123    -5171    -5232    -5277    -5348    -5410    -5417    -5420 
   -5458    -5501    -5536    -5576    -5597    -5583    -5587    -5628 
   -5678    -5715    -5721    -5699    -5692    -5702    -5717    -5741 
   -5764    -5772    -5763    -5733    -5725    -5786    -5857    -5860 
   -5815    -5778    -5778    -5831    -5896    -5915    -5884    -5849 
   -5845    -5872    -5902    -5918    -5910    -5881    -5881    -5937 
   -5977    -5929    -5863    -5883    -5960    -5994    -5965    -5926 
   -5923    -5956    -5994    -6000    -5995    -6002    -5994    -5965 
   -5960    -5976    -5988    -5999    -5999    -5972    -5938    -5937 
   -5958    -5976    -5979    -5949    -5883    -5849    -5888    -5934 
   -5914    -5849    -5802    -5807    -5836    -5857    -5869    -5850 
   -5784    -5719    -5698    -5694    -5694    -5719    -5726    -5676 
   -5620    -5617    -5641    -5649    -5659    -5670    -5636    -5576 
   -5562    -5603    -5641    -5620    -5571    -5555    -5552    -5552 
   -5572    -5564    -5509    -5481    -5479    -5448    -5387    -5336 
   -5344    -5385    -5366    -5277    -5190    -5148    -5146    -5157 
   -5135    -5051    -4954    -4939    -4997    -4992    -4893    -4826 
   -4842    -4857    -4807    -4710    -4657    -4698    -4760    -4769 
   -4730    -4672    -4657    -4722    -4788    -4783    -4743    -4727 
   -4747    -4796    -4852    -4884    -4876    -4870    -4939    -5046 
   -5073    -5038    -5038    -5063    -5097    -5138    -5140    -5117 
   -5147    -5225    -5258    -5229    -5228    -5260    -5273    -5270 
   -5271    -5263    -5267    -5313    -5359    -5314    -5204    -5193 
   -5331    -5418    -5350    -5270    -5277    -5313    -5328    -5289 
   -5228    -5251    -5329    -5319    -5262    -5321    -5412    -5368 
   -5308    -5367    -5436    -5420    -5389    -5400    -5455    -5519 
   -5557    -5593    -5599    -5540    -5499    -5551    -5634    -5656 
   -5609    -5567    -5556    -5519    -5490    -5568    -5698    -5706 
   -5555    -5375    -5335    -5460    -5576    -5517    -5339    -5225 
   -5223    -5252    -5262    -5233    -5127    -4973    -4895    -4954 
   -5046    -5036    -4908    -4765    -4702    -4720    -4758    -4753 
   -4680    -4602    -4564    -4576    -4671    -4737    -4581    -4340 
   -4329    -4553    -4734    -4706    -4602    -4590    -4564    -4431 
   -4407    -4612    -4814    -4807    -4675    -4631    -4718    -4753 
   -4660    -4573    -4567    -4657    -4801    -4842    -4760    -4716 
   -4746    -4750    -4700    -4644    -4648    -4742    -4852    -4878 
   -4841    -4816    -4784    -4702    -4614    -4600    -4739    -5020 
   -5217    -5134    -4884    -4691    -4703    -4936    -5174    -5202 
   -5150    -5223    -5397    -5517    -5448    -5246    -5163    -5296 
   -5521    -5742    -5842    -5765    -5649    -5540    -5436    -5491 
   -5769    -6115    -6284    -6161    -5934    -5849    -5938    -6050 
   -6057    -6050    -6180    -6345    -6340    -6237    -6262    -6399 
   -6450    -6388    -6334    -6363    -6474    -6590    -6658    -6686 
   -6662    -6588    -6546    -6606    -6737    -6866    -6913    -6809 
   -6632    -6567    -6654    -6814    -6947    -6916    -6743    -6590 
   -6543    -6613    -6739    -6755    -6628    -6519    -6493    -6500 
   -6519    -6508    -6393    -6188    -6019    -6011    -6162    -6312 
   -6284    -6064    -5769    -5544    -5530    -5714    -5829    -5691 
   -5464    -5375    -5422    -5451    -5332    -5105    -4973    -4989 
   -5053    -5113    -5101    -4923    -4681    -4523    -4494    -4588 
   -4696    -4668    -4518    -4360    -4261    -4209    -4218    -4299 
   -4314    -4220    -4209    -4287    -4263    -4101    -3923    -3846 
   -3916    -4069    -4220    -4278    -4131    -3821    -3578    -3595 
   -3859    -4121    -4143    -4023    -3959    -3904    -3785    -3774 
   -3984    -4147    -4001    -3815    -3905    -4109    -4125    -3948 
   -3811    -3858    -3975    -4082    -4202    -4209    -4012    -3789 
   -3797    -4041    -4256    -4240    -4139    -4183    -4307    -4298 
   -4191    -4205    -4309    -4270    -4122    -4116    -4289    -4483 
   -4552    -4517    -4504    -4479    -4425    -4500    -4615    -4521 
   -4330    -4349    -4652    -4974    -4999    -4746    -4527    -4594 
   -4874    -5042    -4932    -4753    -4784    -5022    -5161    -4992 
   -4773    -4912    -5355    -5597    -5320    -4891    -4949    -5454 
   -5702    -5394    -5030    -5196    -5786    -6062    -5641    -5055 
   -5034    -5655    -6276    -6266    -5759    -5417    -5589    -5989 
   -6137    -5954    -5800    -5875    -6008    -6038    -6018    -6057 
   -6150    -6207    -6224    -6255    -6228    -6119    -6115    -6288 
   -6401    -6312    -6210    -6234    -6258    -6277    -6404    -6519 
   -6494    -6380    -6230    -6160    -6295    -6517    -6597    -6463 
   -6245    -6143    -6266    -6490    -6600    -6548    -6457    -6397 
   -6331    -6268    -6323    -6480    -6589    -6574    -6434    -6305 
   -6338    -6436    -6439    -6366    -6318    -6350    -6432    -6460 
   -6335    -6126    -6054    -6161    -6300    -6370    -6336    -6219 
   -6084    -5981    -5973    -6062    -6119    -6060    -5954    -5914 
   -5980    -6061    -6002    -5803    -5647    -5665    -5769    -5811 
   -5786    -5753    -5726    -5679    -5602    -5551    -5601    -5689 
   -5664    -5506    -5371    -5386    -5508    -5585    -5532    -5431 
   -5390    -5370    -5336    -5302    -5235    -5185    -5278    -5405 
   -5350    -5134    -4984    -5024    -5121    -5147    -5139    -5123 
   -5085    -5057    -5034    -5011    -4999    -4953    -4905    -4958 
   -5077    -5115    -5034    -4939    -4939    -5032    -5085    -5015 
   -4965    -5049    -5159    -5198    -5164    -5108    -5098    -5120 
   -5154    -5255    -5408    -5485    -5412    -5286    -5258    -5319 
   -5416    -5539    -5609    -5549    -5424    -5339    -5367    -5535 
   -5719    -5732    -5601    -5518    -5514    -5499    -5485    -5519 
   -5582    -5633    -5640    -5572    -5475    -5431    -5454    -5521 
   -5643    -5755    -5684    -5445    -5293    -5375    -5583    -5736 
   -5730    -5585    -5448    -5470    -5628    -5782    -5875    -5868 
   -5703    -5535    -5576    -5765    -5938    -6006    -5896    -5679 
   -5572    -5659    -5850    -6034    -6118    -6035    -5803    -5599 
   -5651    -5896    -6079    -6080    -5935    -5732    -5633    -5756 
   -5987    -6095    -5999    -5818    -5710    -5738    -5872    -6010 
   -6027    -5910    -5791    -5768    -5857    -6031    -6160    -6127 
   -5981    -5848    -5837    -5957    -6129    -6254    -6207    -6000 
   -5873    -5956    -6134    -6270    -6295    -6205    -6077    -5987 
   -5967    -6031    -6151    -6214    -6138    -5988    -5913    -5949 
   -6029    -6087    -6060    -5925    -5803    -5818    -5884    -5877 
   -5827    -5795    -5783    -5753    -5668    -5590    -5609    -5698 
   -5710    -5587    -5466    -5476    -5552    -5576    -5545    -5509 
   -5470    -5436    -5448    -5522    -5590    -5564    -5435    -5339 
   -5405    -5552    -5595    -5530    -5487    -5517    -5568    -5610 
   -5645    -5655    -5626    -5583    -5574    -5638    -5734    -5760 
   -5713    -5682    -5726    -5802    -5818    -5767    -5737    -5776 
   -5840    -5869    -5846    -5798    -5769    -5769    -5784    -5827 
   -5887    -5892    -5826    -5771    -5778    -5831    -5899    -5927 
   -5884    -5827    -5836    -5896    -5950    -5977    -5980    -5965 
   -5949    -5954    -5979    -5984    -5965    -5968    -5998    -5995 
   -5957    -5934    -5922    -5910    -5915    -5930    -5915    -5867 
   -5834    -5841    -5833    -5783    -5730    -5701    -5676    -5632 
   -5575    -5526    -5497    -5485    -5467    -5421    -5364    -5320 
   -5282    -5243    -5211    -5202    -5206    -5193    -5144    -5071 
   -5034    -5058    -5077    -5062    -5050    -5047    -5034    -5008 
   -4982    -4980    -5001    -5017    -5015    -5012    -5013    -5013 
   -5020    -5026    -5008    -4984    -4985    -5001    -5013    -5026 
   -5020    -5004    -5022    -5043    -5012    -4966    -4969    -5011 
   -5047    -5047    -5020    -4997    -4981    -4985    -5023    -5050 
   -5038    -5016    -4997    -4973    -4974    -5003    -5022    -5013 
   -4986    -4958    -4953    -4968    -4988    -4993    -4974    -4950 
   -4943    -4962    -4989    -4986    -4941    -4911    -4939    -4989 
   -5000    -4958    -4920    -4923    -4954    -4969    -4974    -4996 
   -5026    -5043    -5049    -5032    -5003    -4999    -5030    -5053 
   -5038    -5023    -5040    -5076    -5103    -5100    -5077    -5080 
   -5121    -5166    -5164    -5116    -5069    -5082    -5152    -5211 
   -5213    -5196    -5185    -5193    -5232    -5270    -5285    -5300 
   -5320    -5341    -5375    -5420    -5460    -5478    -5474    -5489 
   -5545    -5613    -5649    -5644    -5630    -5644    -5679    -5722 
   -5768    -5790    -5768    -5745    -5763    -5811    -5850    -5844 
   -5810    -5806    -5837    -5859    -5861    -5872    -5880    -5864 
   -5857    -5891    -5923    -5923    -5927    -5946    -5946    -5929 
   -5913    -5923    -5968    -6022    -6030    -6006    -6010    -6037 
   -6056    -6099    -6139    -6114    -6091    -6141    -6211    -6242 
   -6224    -6201    -6226    -6274    -6280    -6252    -6265    -6335 
   -6386    -6349    -6281    -6297    -6389    -6444    -6424    -6385 
   -6354    -6350    -6389    -6436    -6442    -6409    -6399    -6415 
