Origin Time       2016/04/16 01:25:00
Lat.              32.753
Long.             130.762
Depth. (km)       12
Mag.              7.3
Station Code      AIC011
Station Lat.      34.9965
Station Long.     136.8639
Station Height(m) 5
Record Time       2016/04/16 01:28:53
Sampling Freq(Hz) 100Hz
Duration Time(s)  60
Dir.              E-W
Scale Factor      7845(gal)/8223790
Max. Acc. (gal)   2.737
Last Correction   2016/04/16 01:28:56
Memo.             
[...]
   -6562    -6586    -6620    -6647    -6658    -6659    -6677    -6710 
   -6732    -6737    -6741    -6750    -6775    -6805    -6817    -6820 
   -6821    -6825    -6848    -6879    -6893    -6893    -6894    -6899 
   -6909    -6926    -6945    -6964    -6978    -6994    -7023    -7042 
   -7041    -7041    -7067    -7092    -7091    -7105    -7134    -7149 
   -7176    -7210    -7218    -7229    -7256    -7281    -7300    -7331 
   -7368    -7387    -7406    -7435    -7457    -7469    -7488    -7524 
   -7572    -7612    -7641    -7655    -7676    -7717    -7755    -7765 
   -7774    -7813    -7851    -7867    -7893    -7925    -7955    -7979 
   -7996    -8020    -8052    -8070    -8086    -8116    -8139    -8166 
   -8201    -8221    -8230    -8260    -8280    -8279    -8295    -8324 
   -8349    -8372    -8387    -8384    -8376    -8391    -8414    -8418 
   -8426    -8426    -8418    -8418    -8424    -8418    -8401    -8384 
   -8368    -8355    -8344    -8324    -8305    -8284    -8256    -8235 
   -8201    -8164    -8156    -8137    -8104    -8090    -8063    -8006 
   -7969    -7956    -7933    -7916    -7889    -7835    -7793    -7767 
   -7727    -7688    -7652    -7612    -7572    -7541    -7503    -7444 
   -7399    -7360    -7311    -7260    -7203    -7155    -7110    -7061 
   -7017    -6974    -6918    -6862    -6820    -6775    -6731    -6698 
   -6651    -6604    -6578    -6538    -6489    -6453    -6407    -6356 
   -6327    -6297    -6252    -6223    -6210    -6170    -6124    -6100 
   -6072    -6037    -6008    -5987    -5949    -5902    -5875    -5854 
   -5833    -5819    -5805    -5775    -5744    -5740    -5740    -5702 
   -5671    -5660    -5634    -5607    -5594    -5580    -5571    -5580 
   -5572    -5549    -5555    -5551    -5528    -5522    -5518    -5510 
   -5513    -5508    -5501    -5510    -5513    -5503    -5503    -5506 
   -5512    -5528    -5521    -5502    -5501    -5498    -5493    -5506 
   -5517    -5497    -5476    -5485    -5489    -5486    -5498    -5503 
   -5498    -5499    -5499    -5495    -5494    -5501    -5514    -5532 
   -5544    -5552    -5580    -5605    -5610    -5618    -5629    -5637 
   -5653    -5682    -5711    -5724    -5734    -5760    -5786    -5817 
   -5840    -5849    -5869    -5913    -5953    -5967    -5994    -6048 
   -6085    -6118    -6166    -6200    -6224    -6258    -6303    -6346 
   -6386    -6427    -6471    -6516    -6569    -6620    -6658    -6691 
   -6743    -6789    -6824    -6880    -6937    -6978    -7029    -7067 
   -7096    -7148    -7200    -7253    -7314    -7360    -7408    -7479 
   -7541    -7578    -7619    -7672    -7717    -7750    -7789    -7840 
   -7889    -7931    -7986    -8035    -8067    -8105    -8156    -8194 
   -8221    -8256    -8286    -8313    -8343    -8364    -8391    -8437 
   -8471    -8482    -8494    -8520    -8559    -8590    -8595    -8603 
   -8623    -8629    -8645    -8675    -8688    -8702    -8718    -8726 
   -8735    -8743    -8746    -8754    -8761    -8756    -8756    -8770 
   -8772    -8762    -8768    -8772    -8768    -8766    -8757    -8756 
   -8765    -8765    -8749    -8730    -8718    -8707    -8704    -8699 
   -8677    -8664    -8658    -8644    -8622    -8590    -8556    -8527 
   -8499    -8479    -8453    -8413    -8379    -8352    -8321    -8283 
   -8259    -8233    -8199    -8170    -8124    -8081    -8044    -8000 
   -7971    -7950    -7912    -7884    -7860    -7830    -7803    -7782 
   -7759    -7732    -7699    -7665    -7650    -7634    -7599    -7574 
   -7564    -7548    -7541    -7520    -7489    -7473    -7458    -7434 
   -7406    -7384    -7376    -7373    -7352    -7331    -7323    -7306 
   -7283    -7254    -7225    -7211    -7196    -7171    -7160    -7146 
   -7117    -7099    -7092    -7071    -7045    -7040    -7040    -7017 
   -6990    -6974    -6963    -6951    -6932    -6914    -6897    -6871 
   -6843    -6817    -6806    -6802    -6782    -6763    -6747    -6720 
   -6696    -6683    -6662    -6642    -6625    -6597    -6574    -6559 
   -6540    -6528    -6512    -6478    -6453    -6432    -6408    -6396 
   -6384    -6367    -6356    -6331    -6305    -6299    -6280    -6254 
   -6241    -6218    -6189    -6170    -6150    -6129    -6110    -6087 
   -6061    -6035    -6012    -5996    -5968    -5952    -5954    -5942 
   -5914    -5892    -5872    -5852    -5837    -5823    -5811    -5795 
   -5783    -5773    -5763    -5757    -5748    -5729    -5709    -5694 
   -5694    -5698    -5697    -5691    -5684    -5683    -5683    -5672 
   -5667    -5668    -5675    -5683    -5680    -5676    -5689    -5697 
   -5683    -5684    -5706    -5710    -5706    -5722    -5738    -5748 
   -5760    -5760    -5763    -5782    -5800    -5806    -5813    -5822 
   -5834    -5854    -5876    -5899    -5925    -5948    -5952    -5940 
   -5962    -5998    -5998    -6002    -6041    -6081    -6100    -6110 
   -6124    -6147    -6174    -6196    -6216    -6238    -6268    -6318 
   -6356    -6377    -6397    -6420    -6462    -6516    -6544    -6561 
   -6601    -6662    -6711    -6741    -6772    -6812    -6852    -6895 
   -6944    -6990    -7036    -7092    -7146    -7182    -7219    -7257 
   -7292    -7327    -7364    -7411    -7458    -7497    -7537    -7577 
   -7616    -7649    -7680    -7719    -7758    -7792    -7821    -7847 
   -7859    -7870    -7900    -7924    -7938    -7966    -7994    -7998 
   -7992    -8010    -8027    -8019    -8043    -8075    -8078    -8078 
   -8066    -8046    -8055    -8073    -8073    -8078    -8091    -8104 
   -8117    -8114    -8090    -8071    -8073    -8089    -8101    -8086 
   -8073    -8073    -8056    -8037    -8027    -8017    -7996    -7966 
   -7948    -7931    -7909    -7885    -7857    -7831    -7801    -7769 
   -7746    -7712    -7674    -7652    -7628    -7581    -7538    -7522 
   -7507    -7464    -7415    -7392    -7368    -7337    -7307    -7257 
   -7200    -7164    -7122    -7079    -7047    -7007    -6968    -6940 
   -6902    -6858    -6813    -6770    -6729    -6683    -6639    -6602 
   -6573    -6536    -6489    -6443    -6404    -6370    -6339    -6305 
   -6266    -6211    -6161    -6131    -6097    -6056    -6011    -5967 
   -5923    -5877    -5841    -5815    -5780    -5733    -5691    -5659 
   -5623    -5584    -5547    -5508    -5474    -5437    -5395    -5373 
   -5352    -5319    -5297    -5281    -5250    -5228    -5211    -5179 
   -5161    -5155    -5127    -5090    -5065    -5046    -5047    -5054 
   -5051    -5051    -5034    -5015    -5027    -5040    -5019    -4992 
   -4999    -5019    -5007    -4988    -5016    -5060    -5055    -5043 
   -5071    -5074    -5053    -5073    -5096    -5077    -5073    -5123 
   -5135    -5082    -5101    -5184    -5169    -5098    -5130    -5198 
   -5185    -5169    -5206    -5211    -5196    -5221    -5238    -5209 
   -5211    -5263    -5278    -5262    -5282    -5309    -5310    -5308 
   -5324    -5355    -5354    -5335    -5356    -5389    -5394    -5405 
   -5424    -5420    -5421    -5448    -5467    -5451    -5441    -5460 
   -5478    -5475    -5479    -5501    -5514    -5518    -5518    -5506 
   -5502    -5521    -5530    -5525    -5518    -5501    -5499    -5519 
   -5522    -5524    -5524    -5502    -5497    -5509    -5493    -5485 
   -5495    -5481    -5459    -5460    -5463    -5464    -5471    -5481 
   -5481    -5471    -5464    -5467    -5474    -5478    -5475    -5478 
   -5481    -5483    -5505    -5524    -5525    -5541    -5567    -5570 
   -5571    -5590    -5611    -5622    -5632    -5638    -5647    -5664 
   -5683    -5705    -5729    -5752    -5780    -5802    -5806    -5818 
   -5848    -5861    -5867    -5891    -5913    -5921    -5935    -5952 
   -5973    -5999    -6003    -6012    -6039    -6044    -6048    -6072 
   -6088    -6089    -6100    -6119    -6127    -6129    -6137    -6147 
   -6168    -6196    -6200    -6199    -6216    -6222    -6219    -6242 
   -6258    -6259    -6277    -6296    -6299    -6307    -6320    -6334 
   -6346    -6346    -6351    -6378    -6403    -6408    -6411    -6421 
   -6427    -6434    -6454    -6463    -6460    -6471    -6486    -6492 
   -6494    -6494    -6505    -6521    -6544    -6581    -6596    -6588 
   -6592    -6597    -6604    -6635    -6660    -6666    -6685    -6706 
   -6724    -6758    -6790    -6808    -6832    -6862    -6878    -6889 
   -6918    -6955    -6974    -7001    -7041    -7067    -7091    -7122 
   -7142    -7164    -7207    -7252    -7272    -7292    -7334    -7361 
   -7375    -7404    -7439    -7477    -7518    -7542    -7561    -7599 
   -7641    -7672    -7699    -7736    -7767    -7778    -7799    -7840 
   -7874    -7889    -7913    -7956    -7992    -8009    -8025    -8051 
   -8073    -8073    -8073    -8089    -8104    -8122    -8151    -8159 
   -8154    -8160    -8171    -8182    -8186    -8172    -8179    -8195 
   -8176    -8164    -8176    -8174    -8155    -8149    -8152    -8149 
   -8129    -8101    -8090    -8083    -8062    -8044    -8025    -8000 
   -7981    -7956    -7939    -7929    -7898    -7862    -7839    -7823 
   -7797    -7770    -7738    -7697    -7669    -7638    -7596    -7568 
   -7547    -7515    -7482    -7450    -7406    -7375    -7353    -7317 
   -7264    -7222    -7180    -7146    -7123    -7092    -7059    -7032 
   -6998    -6959    -6922    -6890    -6866    -6841    -6810    -6781 
   -6754    -6728    -6709    -6686    -6659    -6633    -6608    -6592 
   -6581    -6559    -6529    -6505    -6485    -6459    -6439    -6431 
   -6426    -6419    -6416    -6412    -6394    -6367    -6361    -6351 
   -6316    -6299    -6305    -6297    -6288    -6295    -6290    -6278 
   -6278    -6268    -6241    -6235    -6237    -6223    -6219    -6224 
   -6212    -6201    -6205    -6208    -6199    -6192    -6188    -6174 
   -6172    -6192    -6189    -6173    -6183    -6186    -6181    -6188 
   -6186    -6188    -6207    -6219    -6219    -6230    -6246    -6259 
   -6268    -6280    -6276    -6277    -6316    -6343    -6343    -6350 
   -6369    -6378    -6363    -6373    -6403    -6405    -6409    -6423 
   -6423    -6432    -6442    -6458    -6475    -6471    -6465    -6467 
   -6471    -6477    -6477    -6473    -6471    -6478    -6480    -6478 
   -6497    -6502    -6489    -6497    -6498    -6482    -6498    -6513 
   -6497    -6494    -6500    -6501    -6512    -6524    -6525    -6536 
   -6551    -6552    -6554    -6562    -6569    -6573    -6577    -6593 
   -6600    -6600    -6624    -6658    -6664    -6671    -6691    -6698 
   -6708    -6744    -6770    -6775    -6794    -6809    -6814    -6833 
   -6859    -6879    -6902    -6933    -6952    -6964    -6985    -7017 
   -7036    -7040    -7051    -7072    -7086    -7094    -7127    -7167 
   -7183    -7190    -7203    -7221    -7240    -7257    -7271    -7290 
   -7296    -7302    -7335    -7358    -7369    -7398    -7416    -7416 
   -7430    -7457    -7477    -7489    -7510    -7535    -7550    -7560 
   -7581    -7601    -7604    -7614    -7622    -7622    -7652    -7684 
   -7684    -7682    -7682    -7677    -7689    -7716    -7709    -7685 
   -7708    -7728    -7704    -7688    -7700    -7705    -7704    -7705 
   -7695    -7676    -7663    -7652    -7651    -7654    -7643    -7627 
   -7624    -7619    -7600    -7584    -7584    -7569    -7543    -7535 
   -7522    -7495    -7476    -7473    -7474    -7453    -7430    -7408 
   -7380    -7372    -7369    -7333    -7291    -7280    -7288    -7279 
   -7256    -7246    -7234    -7207    -7188    -7183    -7173    -7153 
   -7121    -7091    -7087    -7092    -7076    -7060    -7060    -7045 
   -7025    -7022    -7015    -7003    -7003    -7001    -6978    -6947 
   -6936    -6944    -6940    -6929    -6926    -6912    -6906    -6909 
   -6899    -6905    -6918    -6906    -6885    -6890    -6907    -6914 
   -6917    -6926    -6933    -6940    -6947    -6947    -6955    -6978 
   -6997    -7002    -7003    -7028    -7052    -7056    -7080    -7110 
   -7121    -7148    -7179    -7202    -7233    -7257    -7257    -7263 
   -7292    -7317    -7334    -7354    -7361    -7376    -7410    -7438 
   -7458    -7468    -7469    -7476    -7484    -7484    -7487    -7496 
   -7510    -7527    -7528    -7519    -7520    -7519    -7515    -7526 
   -7522    -7495    -7485    -7488    -7485    -7484    -7492    -7472 
   -7433    -7419    -7404    -7384    -7388    -7385    -7356    -7323 
   -7306    -7295    -7275    -7256    -7238    -7217    -7192    -7165 
   -7141    -7132    -7123    -7094    -7055    -7032    -7026    -7002 
   -6961    -6947    -6940    -6906    -6874    -6856    -6833    -6801 
   -6760    -6721    -6687    -6651    -6617    -6588    -6551    -6516 
   -6475    -6430    -6384    -6328    -6273    -6249    -6207    -6129 
   -6083    -6053    -5984    -5919    -5872    -5811    -5752    -5701 
   -5638    -5587    -5552    -5498    -5420    -5344    -5282    -5225 
   -5166    -5113    -5055    -4992    -4951    -4908    -4843    -4799 
   -4765    -4699    -4631    -4594    -4565    -4518    -4477    -4456 
   -4423    -4383    -4344    -4299    -4270    -4253    -4228    -4200 
   -4178    -4162    -4140    -4113    -4098    -4081    -4054    -4035 
   -4031    -4029    -4013    -3991    -3978    -3963    -3950    -3932 
   -3909    -3908    -3912    -3893    -3877    -3877    -3870    -3855 
   -3848    -3836    -3819    -3819    -3828    -3821    -3805    -3808 
   -3817    -3815    -3808    -3805    -3802    -3808    -3821    -3824 
   -3820    -3828    -3842    -3855    -3866    -3871    -3892    -3913 
   -3921    -3936    -3958    -3973    -3998    -4036    -4062    -4072 
   -4087    -4107    -4145    -4187    -4207    -4237    -4280    -4313 
   -4355    -4409    -4449    -4488    -4534    -4571    -4614    -4666 
   -4716    -4773    -4827    -4866    -4922    -4997    -5063    -5115 
   -5166    -5231    -5294    -5363    -5448    -5525    -5584    -5652 
   -5722    -5792    -5869    -5949    -6027    -6099    -6156    -6218 
   -6307    -6400    -6478    -6559    -6635    -6698    -6775    -6866 
   -6943    -7011    -7082    -7152    -7219    -7284    -7365    -7438 
   -7492    -7557    -7631    -7688    -7738    -7796    -7867    -7943 
   -8000    -8035    -8093    -8162    -8202    -8248    -8303    -8347 
   -8394    -8446    -8499    -8560    -8603    -8638    -8687    -8721 
   -8743    -8785    -8839    -8874    -8900    -8935    -8972    -9005 
   -9036    -9069    -9085    -9099    -9130    -9150    -9163    -9194 
   -9216    -9223    -9239    -9252    -9265    -9294    -9322    -9332 
   -9344    -9358    -9359    -9359    -9375    -9396    -9401    -9402 
   -9408    -9405    -9412    -9427    -9429    -9433    -9432    -9414 
   -9406    -9402    -9394    -9394    -9401    -9394    -9373    -9363 
   -9358    -9339    -9321    -9305    -9283    -9263    -9235    -9211 
   -9211    -9193    -9150    -9131    -9126    -9089    -9050    -9024 
   -8996    -8976    -8947    -8904    -8873    -8853    -8824    -8783 
   -8752    -8729    -8698    -8669    -8640    -8602    -8575    -8543 
   -8496    -8457    -8421    -8384    -8349    -8310    -8268    -8230 
   -8197    -8162    -8118    -8078    -8046    -7996    -7939    -7906 
   -7873    -7830    -7799    -7770    -7717    -7665    -7635    -7609 
   -7558    -7504    -7460    -7410    -7364    -7335    -7312    -7269 
   -7207    -7156    -7106    -7055    -7026    -6993    -6947    -6899 
   -6848    -6804    -6759    -6705    -6656    -6615    -6569    -6521 
   -6494    -6467    -6421    -6377    -6328    -6278    -6243    -6199 
   -6156    -6124    -6083    -6041    -6008    -5968    -5922    -5890 
   -5853    -5807    -5771    -5744    -5719    -5692    -5644    -5601 
   -5589    -5567    -5532    -5510    -5478    -5439    -5425    -5413 
   -5386    -5358    -5343    -5335    -5312    -5279    -5266    -5250 
   -5217    -5197    -5189    -5177    -5161    -5131    -5101    -5090 
   -5086    -5071    -5057    -5046    -5032    -5023    -5019    -5011 
   -4993    -4988    -4989    -4966    -4946    -4962    -4974    -4970 
   -4984    -4992    -4981    -4989    -5012    -5027    -5032    -5034 
   -5036    -5053    -5086    -5115    -5136    -5167    -5197    -5220 
   -5246    -5273    -5300    -5332    -5368    -5400    -5435    -5476 
   -5519    -5567    -5597    -5611    -5656    -5721    -5767    -5809 
   -5849    -5894    -5949    -6000    -6038    -6079    -6137    -6195 
   -6232    -6272    -6331    -6400    -6455    -6497    -6542    -6592 
   -6640    -6685    -6731    -6781    -6826    -6870    -6917    -6967 
   -7011    -7051    -7098    -7141    -7173    -7206    -7233    -7267 
   -7322    -7371    -7395    -7420    -7458    -7488    -7518    -7569 
   -7601    -7604    -7634    -7677    -7700    -7723    -7747    -7761 
   -7776    -7804    -7825    -7840    -7863    -7881    -7893    -7911 
   -7917    -7906    -7913    -7938    -7940    -7935    -7948    -7958 
   -7962    -7979    -7992    -7985    -7979    -7979    -7974    -7977 
   -7978    -7969    -7981    -7990    -7974    -7973    -7983    -7969 
   -7944    -7946    -7956    -7943    -7924    -7927    -7933    -7923 
   -7906    -7900    -7885    -7865    -7850    -7830    -7813    -7807 
   -7785    -7761    -7759    -7738    -7693    -7663    -7649    -7635 
   -7619    -7607    -7588    -7564    -7555    -7546    -7512    -7485 
   -7476    -7453    -7423    -7406    -7391    -7372    -7360    -7356 
   -7348    -7318    -7302    -7299    -7284    -7275    -7268    -7250 
   -7236    -7227    -7218    -7211    -7206    -7192    -7182    -7183 
   -7176    -7160    -7169    -7172    -7148    -7140    -7142    -7140 
   -7136    -7121    -7115    -7125    -7115    -7088    -7074    -7069 
   -7071    -7074    -7061    -7038    -7025    -7018    -7023    -7018 
   -6987    -6978    -6978    -6957    -6955    -6959    -6944    -6922 
   -6910    -6912    -6898    -6866    -6848    -6855    -6848    -6821 
   -6790    -6768    -6767    -6766    -6733    -6697    -6678    -6652 
   -6624    -6608    -6594    -6566    -6536    -6515    -6486    -6457 
   -6435    -6405    -6367    -6327    -6303    -6290    -6268    -6243 
   -6219    -6186    -6170    -6161    -6133    -6100    -6073    -6048 
   -6023    -5992    -5962    -5940    -5929    -5923    -5902    -5869 
   -5854    -5846    -5827    -5803    -5763    -5725    -5717    -5707 
   -5691    -5684    -5670    -5656    -5651    -5628    -5589    -5562 
   -5552    -5549    -5541    -5525    -5495    -5471    -5471    -5472 
   -5460    -5451    -5443    -5425    -5412    -5398    -5382    -5374 
   -5358    -5339    -5336    -5337    -5337    -5333    -5321    -5316 
   -5310    -5300    -5298    -5297    -5294    -5300    -5300    -5287 
   -5281    -5279    -5287    -5298    -5298    -5313    -5327    -5313 
   -5312    -5336    -5348    -5346    -5350    -5362    -5377    -5395 
   -5416    -5439    -5463    -5472    -5481    -5506    -5517    -5522 
   -5552    -5585    -5589    -5589    -5621    -5660    -5683    -5705 
   -5727    -5760    -5784    -5798    -5827    -5850    -5864    -5904 
   -5938    -5934    -5944    -5996    -6039    -6056    -6077    -6096 
   -6119    -6147    -6160    -6173    -6186    -6204    -6243    -6272 
