Origin Time       2016/04/16 01:25:00
Lat.              32.753
Long.             130.762
Depth. (km)       12
Mag.              7.3
Station Code      AIC015
Station Lat.      34.7549
Station Long.     137.4047
Station Height(m) 8
Record Time       2016/04/16 01:28:26
Sampling Freq(Hz) 100Hz
Duration Time(s)  60
Dir.              E-W
Scale Factor      7845(gal)/8223790
Max. Acc. (gal)   1.588
Last Correction   2016/04/16 01:28:27
Memo.             
[...]
    6458     6459     6401     6305     6258     6295     6385     6478 
    6493     6421     6326     6250     6259     6353     6454     6496 
    6453     6381     6349     6361     6376     6386     6413     6442 
    6460     6459     6427     6409     6426     6442     6465     6498 
    6512     6502     6501     6519     6531     6535     6542     6554 
    6564     6577     6600     6609     6598     6604     6623     6627 
    6619     6619     6628     6650     6685     6701     6664     6635 
    6659     6687     6681     6662     6667     6694     6710     6711 
    6687     6654     6652     6671     6686     6677     6650     6640 
    6646     6650     6656     6639     6600     6577     6588     6616 
    6613     6573     6542     6543     6564     6574     6558     6536 
    6521     6529     6548     6548     6527     6512     6528     6542 
    6521     6511     6502     6498     6517     6512     6496     6493 
    6490     6497     6489     6462     6444     6453     6469     6448 
    6432     6434     6409     6407     6436     6440     6419     6404 
    6412     6413     6394     6385     6380     6384     6401     6404 
    6381     6353     6359     6373     6370     6374     6359     6330 
    6320     6328     6346     6358     6336     6300     6292     6308 
    6327     6335     6313     6288     6296     6307     6313     6323 
    6320     6300     6289     6307     6328     6328     6323     6312 
    6307     6336     6363     6351     6326     6309     6313     6347 
    6377     6365     6331     6313     6312     6323     6365     6385 
    6335     6272     6255     6280     6309     6315     6305     6282 
    6234     6207     6228     6259     6265     6238     6188     6148 
    6153     6203     6231     6200     6157     6151     6192     6219 
    6184     6142     6169     6235     6274     6262     6210     6166 
    6196     6281     6345     6343     6303     6264     6269     6311 
    6347     6361     6350     6331     6349     6384     6394     6384 
    6376     6389     6416     6442     6457     6443     6427     6438 
    6470     6501     6516     6515     6516     6520     6525     6548 
    6569     6582     6601     6606     6592     6581     6593     6625 
    6651     6637     6602     6586     6596     6608     6610     6604 
    6583     6564     6563     6567     6564     6546     6517     6501 
    6502     6517     6508     6467     6457     6471     6471     6470 
    6457     6431     6421     6427     6430     6424     6420     6431 
    6436     6415     6401     6412     6417     6407     6393     6389 
    6405     6419     6416     6403     6382     6372     6382     6394 
    6393     6376     6367     6381     6393     6393     6401     6397 
    6372     6367     6389     6405     6411     6415     6411     6396 
    6384     6393     6430     6454     6435     6403     6389     6404 
    6447     6489     6484     6438     6416     6436     6465     6490 
    6494     6474     6467     6485     6498     6504     6497     6469 
    6462     6486     6502     6509     6496     6451     6447     6486 
    6489     6465     6462     6453     6420     6415     6458     6486 
    6448     6380     6358     6394     6434     6439     6411     6369 
    6343     6372     6427     6426     6377     6349     6365     6392 
    6403     6419     6424     6399     6388     6416     6440     6431 
    6421     6431     6457     6475     6453     6424     6443     6474 
    6467     6455     6484     6509     6477     6453     6490     6515 
    6496     6492     6501     6497     6498     6535     6558     6528 
    6500     6523     6573     6596     6559     6505     6508     6586 
    6663     6624     6496     6446     6546     6663     6625     6494 
    6474     6529     6528     6507     6516     6529     6519     6478 
    6440     6469     6529     6534     6481     6431     6430     6484 
    6555     6552     6450     6384     6431     6505     6546     6554 
    6512     6438     6401     6440     6508     6542     6534     6496 
    6457     6450     6465     6494     6527     6513     6469     6459 
    6473     6484     6500     6515     6493     6448     6420     6407 
    6432     6501     6529     6462     6382     6385     6436     6463 
    6462     6450     6430     6404     6432     6497     6493     6417 
    6359     6380     6467     6531     6496     6400     6345     6389 
    6462     6465     6430     6400     6374     6394     6451     6416 
    6313     6311     6397     6432     6394     6353     6334     6323 
    6347     6386     6394     6377     6354     6349     6393     6431 
    6403     6361     6378     6432     6448     6427     6417     6404 
    6380     6386     6434     6465     6439     6382     6359     6370 
    6396     6427     6420     6363     6336     6389     6427     6358 
    6290     6351     6438     6439     6411     6376     6342     6394 
    6459     6420     6388     6465     6534     6486     6413     6432 
    6539     6615     6564     6509     6582     6669     6651     6608 
    6606     6656     6754     6813     6758     6671     6673     6763 
    6845     6855     6860     6886     6868     6810     6804     6886 
    6966     6964     6929     6886     6821     6812     6906     6998 
    6964     6844     6798     6860     6885     6799     6743     6815 
    6879     6808     6691     6656     6705     6748     6694     6596 
    6624     6728     6673     6497     6438     6524     6600     6567 
    6481     6440     6444     6396     6338     6380     6451     6430 
    6326     6239     6231     6274     6295     6249     6186     6189 
    6203     6143     6077     6077     6108     6141     6139     6079 
    6014     5989     6018     6093     6135     6095     6058     6072 
    6085     6103     6141     6174     6197     6196     6178     6224 
    6312     6304     6246     6285     6381     6427     6408     6381 
    6424     6517     6548     6536     6559     6579     6604     6658 
    6660     6654     6739     6821     6817     6782     6762     6799 
    6901     6960     6934     6906     6919     6952     6988     6993 
    6976     6982     7005     7028     7020     6976     6975     7006 
    6988     6979     7023     7002     6909     6875     6922     6988 
    7003     6945     6893     6893     6897     6874     6886     6926 
    6891     6841     6831     6797     6813     6853     6818     6790 
    6770     6729     6756     6779     6733     6704     6687     6681 
    6714     6706     6646     6632     6666     6724     6756     6683 
    6617     6624     6635     6694     6755     6727     6675     6644 
    6654     6710     6721     6686     6655     6629     6664     6693 
    6642     6605     6615     6625     6605     6554     6538     6547 
    6527     6488     6459     6454     6463     6435     6351     6316 
    6347     6351     6343     6299     6193     6161     6181     6184 
    6183     6110     6029     6038     6029     5980     5944     5899 
    5880     5880     5856     5853     5833     5756     5733     5745 
    5730     5748     5741     5711     5746     5745     5715     5738 
    5745     5764     5800     5788     5803     5826     5825     5875 
    5915     5926     5946     5967     5987     6018     6064     6088 
    6107     6142     6154     6188     6247     6281     6311     6338 
    6356     6386     6440     6505     6562     6600     6600     6586 
    6647     6759     6793     6752     6779     6891     6968     6972 
    6916     6907     7022     7098     7117     7129     7063     7079 
    7217     7198     7092     7142     7248     7246     7203     7218 
    7236     7190     7165     7238     7287     7260     7244     7225 
    7160     7160     7271     7300     7209     7202     7249     7206 
    7198     7234     7160     7103     7160     7198     7182     7146 
    7080     7011     7015     7074     7079     7034     6975     6901 
    6894     6910     6847     6804     6817     6781     6717     6683 
    6651     6608     6574     6561     6536     6485     6443     6430 
    6417     6377     6345     6358     6334     6281     6296     6292 
    6214     6189     6214     6201     6203     6243     6250     6210 
    6157     6110     6129     6192     6203     6200     6219     6188 
    6178     6247     6268     6216     6216     6259     6293     6351 
    6389     6388     6397     6396     6392     6442     6531     6594 
    6575     6542     6569     6642     6714     6766     6760     6716 
    6714     6768     6801     6804     6851     6909     6913     6898 
    6880     6878     6922     6941     6913     6897     6912     6956 
    7017     7034     6961     6871     6878     6949     6987     7001 
    6982     6916     6898     6930     6937     6929     6926     6906 
    6881     6878     6863     6825     6806     6824     6840     6798 
    6721     6682     6689     6689     6670     6658     6612     6550 
    6540     6534     6492     6474     6467     6409     6354     6358 
    6363     6338     6301     6238     6192     6204     6199     6134 
    6085     6069     6050     6044     6025     5945     5876     5892 
    5919     5864     5815     5805     5748     5697     5719     5732 
    5698     5679     5653     5601     5593     5626     5628     5606 
    5593     5567     5549     5572     5593     5609     5620     5575 
    5590     5678     5670     5644     5672     5689     5746     5786 
    5753     5749     5779     5831     5883     5877     5887     5900 
    5877     5918     5992     6002     5985     5987     6000     6042 
    6084     6081     6076     6114     6129     6103     6147     6231 
    6191     6147     6243     6293     6250     6257     6293     6323 
    6354     6378     6386     6377     6388     6450     6486     6465 
    6500     6554     6519     6521     6601     6620     6612     6632 
    6673     6727     6724     6709     6756     6801     6817     6843 
    6872     6891     6910     6917     6934     6994     7032     7006 
    6979     7030     7121     7110     7032     7052     7145     7156 
    7072     7060     7168     7183     7103     7150     7187     7114 
    7155     7213     7129     7083     7138     7155     7080     7071 
    7163     7126     6997     7014     7069     7003     6940     6974 
    6984     6925     6880     6859     6841     6825     6791     6771 
    6790     6781     6720     6685     6691     6706     6720     6682 
    6623     6632     6675     6663     6627     6644     6663     6631 
    6629     6664     6650     6620     6628     6615     6579     6615 
    6654     6619     6608     6610     6575     6563     6559     6558 
    6563     6544     6528     6521     6528     6538     6501     6454 
    6459     6490     6493     6488     6465     6426     6434     6455 
    6442     6454     6453     6396     6370     6393     6417     6421 
    6389     6355     6347     6343     6319     6300     6312     6290 
    6257     6269     6255     6208     6181     6158     6142     6133 
    6110     6079     6050     6030     6011     5994     5958     5921 
    5908     5890     5864     5829     5790     5778     5749     5726 
    5725     5675     5625     5630     5630     5599     5568     5560 
    5557     5560     5555     5521     5516     5535     5532     5556 
    5585     5574     5572     5594     5616     5649     5683     5692 
    5710     5757     5800     5831     5869     5891     5907     5968 
    6039     6065     6079     6133     6191     6216     6258     6316 
    6361     6421     6457     6469     6536     6613     6651     6702 
    6754     6770     6801     6890     6960     6951     7007     7115 
    7113     7134     7231     7227     7238     7331     7352     7364 
    7414     7434     7452     7466     7499     7535     7530     7535 
    7553     7570     7601     7600     7588     7599     7599     7618 
    7642     7624     7612     7622     7614     7631     7654     7631 
    7607     7611     7611     7589     7564     7555     7557     7539 
    7514     7504     7462     7411     7410     7371     7299     7294 
    7277     7215     7179     7144     7103     7071     7045     7009 
    6949     6922     6897     6848     6832     6787     6721     6708 
    6704     6678     6646     6602     6577     6578     6566     6531 
    6520     6517     6505     6517     6511     6473     6459     6436 
    6439     6485     6448     6413     6470     6448     6394     6444 
    6465     6443     6431     6405     6440     6488     6462     6438 
    6477     6508     6453     6453     6544     6539     6485     6516 
    6564     6586     6577     6547     6586     6660     6646     6605 
    6635     6681     6733     6789     6772     6721     6720     6791 
    6886     6889     6829     6860     6916     6919     6963     6997 
    6945     6916     6971     7032     7021     6990     7002     7013 
    6997     6957     6955     6990     6956     6899     6917     6913 
    6847     6812     6809     6770     6716     6694     6663     6589 
    6536     6525     6482     6403     6372     6356     6272     6212 
    6214     6170     6095     6046     6003     5958     5926     5875 
    5805     5772     5756     5692     5622     5589     5552     5491 
    5443     5439     5428     5337     5243     5247     5251     5196 
    5155     5101     5027     5030     5043     4997     4963     4941 
    4885     4855     4873     4866     4835     4822     4819     4816 
    4814     4818     4835     4845     4828     4831     4870     4909 
    4923     4909     4899     4935     5003     5032     5036     5058 
    5084     5121     5147     5136     5205     5324     5346     5319 
    5325     5367     5471     5572     5576     5526     5551     5649 
    5714     5763     5819     5842     5864     5917     5984     6054 
    6081     6104     6165     6223     6266     6309     6366     6432 
    6469     6494     6548     6598     6646     6737     6804     6789 
    6797     6871     6939     6995     7061     7067     7023     7067 
    7187     7249     7240     7230     7248     7285     7344     7385 
    7388     7406     7423     7419     7449     7487     7489     7500 
    7515     7515     7524     7535     7539     7557     7564     7533 
    7533     7561     7547     7547     7553     7526     7527     7545 
    7537     7527     7520     7506     7492     7493     7492     7481 
    7480     7477     7466     7439     7423     7427     7414     7393 
    7375     7345     7333     7323     7288     7236     7198     7186 
    7159     7121     7078     7032     6995     6941     6885     6851 
    6808     6743     6685     6624     6550     6517     6509     6454 
    6377     6311     6241     6186     6158     6138     6107     6072 
    6038     5971     5884     5853     5864     5859     5844     5795 
    5719     5692     5691     5675     5668     5656     5623     5587 
    5578     5578     5564     5576     5590     5556     5532     5540 
    5539     5555     5583     5575     5572     5599     5614     5623 
    5638     5630     5637     5698     5764     5806     5829     5807 
    5793     5867     5953     5973     5984     6034     6076     6107 
    6148     6181     6219     6269     6300     6308     6320     6351 
    6386     6419     6459     6462     6436     6447     6471     6480 
    6488     6490     6480     6482     6490     6460     6427     6432 
    6442     6427     6407     6399     6384     6354     6338     6320 
    6296     6292     6278     6232     6195     6186     6186     6168 
    6142     6119     6087     6064     6058     6039     6018     6015 
    6011     5984     5953     5950     5957     5940     5930     5937 
    5921     5902     5911     5921     5906     5902     5917     5917 
    5913     5915     5926     5961     5971     5956     5958     5972 
    6006     6042     6054     6072     6092     6097     6115     6170 
    6224     6235     6238     6284     6343     6372     6394     6438 
    6488     6524     6556     6596     6639     6685     6727     6759 
    6789     6824     6859     6906     6952     6979     7011     7055 
    7076     7096     7126     7160     7198     7221     7231     7249 
    7272     7302     7322     7333     7349     7369     7377     7377 
    7388     7414     7430     7422     7415     7420     7419     7420 
    7422     7422     7433     7437     7422     7406     7402     7398 
    7398     7406     7404     7378     7349     7346     7358     7354 
    7338     7321     7296     7272     7256     7248     7244     7234 
    7207     7179     7160     7145     7119     7091     7074     7065 
    7047     7020     6997     6968     6940     6917     6898     6881 
    6853     6821     6790     6762     6739     6716     6687     6662 
    6631     6601     6569     6547     6525     6492     6460     6430 
    6394     6361     6323     6295     6265     6223     6197     6174 
    6141     6099     6049     6018     5996     5976     5957     5919 
    5873     5829     5787     5767     5749     5715     5683     5652 
    5621     5576     5540     5535     5522     5491     5448     5405 
    5393     5400     5390     5360     5336     5329     5323     5308 
    5301     5302     5302     5300     5297     5297     5305     5313 
    5314     5323     5341     5360     5377     5382     5397     5418 
    5435     5455     5476     5502     5544     5578     5597     5606 
    5629     5678     5722     5757     5784     5811     5848     5887 
    5930     5968     6003     6041     6066     6088     6139     6197 
    6237     6268     6304     6343     6377     6407     6446     6507 
    6551     6569     6590     6628     6679     6728     6752     6762 
    6785     6833     6878     6905     6928     6939     6961     6999 
    7014     7030     7059     7083     7102     7113     7127     7149 
    7169     7177     7175     7187     7207     7219     7229     7234 
    7240     7245     7240     7233     7230     7240     7244     7225 
    7206     7191     7182     7172     7150     7130     7119     7102 
    7075     7045     7013     6990     6976     6948     6919     6895 
    6853     6818     6797     6772     6743     6702     6671     6647 
    6616     6589     6566     6540     6515     6490     6459     6424 
    6401     6389     6380     6365     6339     6315     6304     6303 
    6295     6268     6250     6252     6261     6255     6237     6235 
    6241     6231     6230     6242     6262     6274     6268     6269 
    6295     6323     6328     6328     6343     6369     6394     6409 
    6419     6448     6477     6486     6494     6515     6540     6554 
    6564     6586     6598     6606     6625     6644     6660     6677 
    6673     6669     6689     6706     6700     6709     6725     6727 
    6736     6743     6743     6758     6768     6764     6760     6772 
    6797     6801     6790     6794     6802     6798     6804     6812 
    6808     6813     6822     6822     6824     6832     6836     6841 
    6851     6853     6847     6848     6859     6870     6876     6876 
    6885     6898     6894     6886     6895     6901     6898     6902 
    6901     6890     6889     6886     6871     6860     6856     6847 
