Origin Time       2016/04/16 01:25:00
Lat.              32.753
Long.             130.762
Depth. (km)       12
Mag.              7.3
Station Code      AIC004
Station Lat.      35.0632
Station Long.     136.9737
Station Height(m) 27
Record Time       2016/04/16 01:28:12
Sampling Freq(Hz) 100Hz
Duration Time(s)  148
Dir.              E-W
Scale Factor      7845(gal)/8223790
Max. Acc. (gal)   2.881
Last Correction   2016/04/16 01:28:14
Memo.             
[...]
  -13682   -13683   -13686   -13676   -13659   -13652   -13652   -13647 
  -13631   -13617   -13601   -13582   -13565   -13551   -13529   -13508 
  -13489   -13464   -13439   -13410   -13375   -13342   -13313   -13288 
  -13258   -13215   -13169   -13134   -13096   -13053   -13011   -12972 
  -12926   -12877   -12835   -12791   -12741   -12690   -12640   -12591 
  -12540   -12487   -12437   -12384   -12330   -12274   -12218   -12160 
  -12101   -12044   -11990   -11936   -11881   -11827   -11772   -11716 
  -11657   -11603   -11551   -11497   -11439   -11384   -11330   -11279 
  -11225   -11169   -11119   -11072   -11020   -10968   -10921   -10872 
  -10820   -10773   -10731   -10689   -10646   -10606   -10567   -10525 
  -10488   -10453   -10416   -10380   -10349   -10319   -10289   -10261 
  -10230   -10199   -10174   -10153   -10130   -10111   -10093   -10072 
  -10052   -10037   -10022   -10007    -9995    -9983    -9967    -9953 
   -9948    -9937    -9926    -9918    -9907    -9899    -9892    -9883 
   -9879    -9872    -9861    -9852    -9847    -9844    -9837    -9832 
   -9829    -9828    -9822    -9817    -9817    -9815    -9810    -9804 
   -9801    -9794    -9788    -9786    -9782    -9779    -9778    -9778 
   -9775    -9771    -9771    -9768    -9763    -9759    -9755    -9751 
   -9747    -9742    -9741    -9740    -9736    -9732    -9732    -9728 
   -9728    -9728    -9722    -9718    -9717    -9713    -9709    -9710 
   -9713    -9711    -9709    -9707    -9705    -9703    -9703    -9697 
   -9694    -9698    -9699    -9699    -9702    -9702    -9697    -9695 
   -9699    -9703    -9709    -9714    -9711    -9710    -9714    -9715 
   -9715    -9717    -9722    -9730    -9737    -9738    -9741    -9749 
   -9759    -9769    -9778    -9783    -9790    -9801    -9810    -9817 
   -9826    -9837    -9847    -9860    -9871    -9886    -9902    -9915 
   -9931    -9953    -9971    -9988   -10011   -10037   -10061   -10088 
  -10120   -10147   -10170   -10206   -10242   -10276   -10309   -10342 
  -10378   -10416   -10450   -10489   -10528   -10566   -10605   -10646 
  -10692   -10735   -10778   -10824   -10868   -10909   -10951   -10995 
  -11037   -11086   -11133   -11175   -11218   -11263   -11304   -11349 
  -11395   -11437   -11479   -11523   -11566   -11610   -11653   -11696 
  -11735   -11770   -11812   -11853   -11886   -11923   -11961   -11990 
  -12024   -12060   -12093   -12121   -12151   -12181   -12210   -12240 
  -12268   -12297   -12321   -12341   -12366   -12390   -12410   -12429 
  -12452   -12469   -12487   -12505   -12518   -12530   -12544   -12557 
  -12571   -12581   -12591   -12602   -12610   -12614   -12617   -12619 
  -12622   -12625   -12625   -12625   -12623   -12625   -12622   -12617 
  -12613   -12606   -12599   -12594   -12587   -12577   -12569   -12565 
  -12557   -12542   -12533   -12528   -12517   -12503   -12487   -12472 
  -12456   -12442   -12429   -12417   -12399   -12383   -12368   -12353 
  -12334   -12316   -12303   -12286   -12266   -12249   -12233   -12213 
  -12195   -12179   -12162   -12143   -12122   -12108   -12091   -12073 
  -12055   -12039   -12024   -12010   -11996   -11979   -11963   -11946 
  -11929   -11917   -11908   -11898   -11885   -11874   -11867   -11858 
  -11848   -11844   -11840   -11832   -11828   -11827   -11820   -11813 
  -11809   -11805   -11803   -11800   -11801   -11801   -11797   -11796 
  -11796   -11792   -11788   -11790   -11790   -11786   -11786   -11789 
  -11789   -11789   -11788   -11782   -11784   -11786   -11780   -11777 
  -11778   -11774   -11772   -11774   -11777   -11777   -11774   -11774 
  -11772   -11766   -11761   -11762   -11762   -11758   -11758   -11759 
  -11757   -11750   -11747   -11746   -11739   -11738   -11739   -11736 
  -11727   -11718   -11713   -11709   -11700   -11691   -11686   -11680 
  -11668   -11655   -11647   -11639   -11628   -11616   -11601   -11587 
  -11570   -11553   -11542   -11531   -11515   -11502   -11488   -11470 
  -11453   -11442   -11429   -11412   -11399   -11383   -11361   -11344 
  -11330   -11315   -11300   -11286   -11275   -11264   -11250   -11237 
  -11229   -11218   -11211   -11207   -11200   -11196   -11192   -11184 
  -11181   -11181   -11176   -11176   -11181   -11188   -11194   -11195 
  -11200   -11210   -11214   -11226   -11242   -11254   -11268   -11280 
  -11295   -11310   -11325   -11344   -11365   -11383   -11404   -11429 
  -11448   -11466   -11484   -11500   -11518   -11539   -11562   -11583 
  -11603   -11624   -11642   -11662   -11686   -11709   -11729   -11749 
  -11767   -11786   -11811   -11831   -11847   -11865   -11885   -11904 
  -11924   -11942   -11959   -11978   -12001   -12020   -12039   -12060 
  -12081   -12101   -12122   -12141   -12158   -12182   -12208   -12229 
  -12249   -12270   -12289   -12303   -12320   -12343   -12363   -12380 
  -12399   -12415   -12432   -12445   -12457   -12472   -12487   -12499 
  -12509   -12521   -12534   -12544   -12553   -12561   -12564   -12571 
  -12581   -12587   -12588   -12588   -12590   -12590   -12590   -12591 
  -12588   -12584   -12579   -12573   -12567   -12560   -12555   -12546 
  -12538   -12529   -12517   -12505   -12498   -12488   -12472   -12459 
  -12447   -12429   -12415   -12401   -12383   -12363   -12348   -12329 
  -12309   -12291   -12275   -12254   -12239   -12220   -12198   -12182 
  -12168   -12152   -12132   -12114   -12098   -12077   -12055   -12044 
  -12031   -12008   -11993   -11983   -11969   -11954   -11940   -11925 
  -11911   -11896   -11884   -11873   -11861   -11848   -11838   -11830 
  -11817   -11807   -11797   -11788   -11780   -11772   -11765   -11757 
  -11751   -11750   -11746   -11739   -11735   -11731   -11727   -11722 
  -11716   -11711   -11708   -11706   -11701   -11696   -11696   -11696 
  -11693   -11691   -11686   -11685   -11688   -11689   -11685   -11684 
  -11684   -11684   -11682   -11682   -11680   -11677   -11674   -11674 
  -11673   -11668   -11659   -11657   -11659   -11657   -11649   -11643 
  -11638   -11630   -11628   -11626   -11618   -11611   -11601   -11589 
  -11581   -11573   -11562   -11558   -11551   -11539   -11529   -11518 
  -11506   -11499   -11492   -11485   -11475   -11458   -11445   -11434 
  -11422   -11410   -11399   -11385   -11368   -11349   -11334   -11323 
  -11310   -11291   -11275   -11263   -11246   -11230   -11214   -11202 
  -11190   -11176   -11161   -11149   -11136   -11121   -11111   -11098 
  -11083   -11074   -11060   -11044   -11032   -11018   -11005   -10991 
  -10979   -10967   -10956   -10944   -10930   -10918   -10908   -10890 
  -10870   -10859   -10847   -10832   -10818   -10809   -10797   -10781 
  -10763   -10748   -10729   -10712   -10702   -10687   -10670   -10654 
  -10638   -10620   -10601   -10582   -10563   -10547   -10532   -10514 
  -10498   -10484   -10471   -10462   -10450   -10438   -10428   -10415 
  -10401   -10388   -10377   -10369   -10361   -10357   -10355   -10351 
  -10347   -10342   -10335   -10334   -10338   -10335   -10334   -10343 
  -10347   -10346   -10347   -10353   -10359   -10369   -10381   -10392 
  -10401   -10408   -10419   -10431   -10443   -10457   -10471   -10485 
  -10497   -10508   -10521   -10534   -10544   -10555   -10566   -10577 
  -10585   -10594   -10604   -10609   -10612   -10621   -10631   -10636 
  -10644   -10652   -10658   -10663   -10669   -10670   -10673   -10678 
  -10679   -10679   -10679   -10677   -10673   -10669   -10666   -10665 
  -10666   -10666   -10662   -10654   -10651   -10651   -10651   -10652 
  -10652   -10646   -10643   -10640   -10639   -10640   -10640   -10640 
  -10642   -10639   -10638   -10642   -10646   -10651   -10658   -10665 
  -10663   -10665   -10673   -10681   -10686   -10692   -10701   -10710 
  -10719   -10727   -10735   -10747   -10759   -10770   -10782   -10793 
  -10802   -10814   -10828   -10844   -10859   -10874   -10893   -10913 
  -10925   -10937   -10956   -10975   -10993   -11010   -11029   -11053 
  -11072   -11090   -11110   -11130   -11148   -11169   -11195   -11218 
  -11237   -11259   -11284   -11306   -11329   -11356   -11379   -11403 
  -11427   -11452   -11481   -11511   -11535   -11562   -11592   -11619 
  -11647   -11681   -11712   -11735   -11759   -11790   -11824   -11851 
  -11881   -11916   -11947   -11979   -12012   -12046   -12081   -12112 
  -12148   -12187   -12224   -12258   -12297   -12339   -12372   -12410 
  -12447   -12482   -12519   -12556   -12592   -12631   -12671   -12708 
  -12745   -12783   -12819   -12854   -12888   -12927   -12964   -12999 
  -13039   -13080   -13113   -13144   -13178   -13209   -13242   -13281 
  -13308   -13329   -13365   -13404   -13435   -13464   -13491   -13520 
  -13547   -13568   -13587   -13606   -13630   -13657   -13682   -13702 
  -13720   -13740   -13763   -13783   -13795   -13811   -13836   -13852 
  -13861   -13879   -13891   -13898   -13915   -13926   -13932   -13942 
  -13944   -13945   -13953   -13956   -13957   -13957   -13956   -13953 
  -13950   -13948   -13942   -13932   -13923   -13915   -13907   -13899 
  -13890   -13880   -13868   -13853   -13837   -13825   -13813   -13801 
  -13782   -13765   -13752   -13729   -13710   -13705   -13684   -13657 
  -13644   -13630   -13613   -13591   -13570   -13547   -13521   -13495 
  -13471   -13450   -13428   -13406   -13382   -13352   -13321   -13292 
  -13263   -13238   -13216   -13184   -13144   -13116   -13088   -13050 
  -13016   -12988   -12950   -12914   -12883   -12846   -12806   -12768 
  -12729   -12688   -12647   -12607   -12565   -12522   -12479   -12429 
  -12380   -12337   -12291   -12241   -12197   -12151   -12100   -12054 
  -12008   -11956   -11907   -11861   -11813   -11767   -11724   -11677 
  -11628   -11578   -11527   -11480   -11435   -11387   -11337   -11290 
  -11244   -11195   -11148   -11101   -11051   -11003   -10956   -10910 
  -10867   -10818   -10766   -10714   -10663   -10613   -10567   -10521 
  -10470   -10422   -10374   -10328   -10287   -10242   -10192   -10146 
  -10103   -10055   -10007    -9957    -9911    -9868    -9823    -9780 
   -9740    -9698    -9655    -9613    -9574    -9533    -9490    -9452 
   -9414    -9378    -9342    -9305    -9275    -9246    -9215    -9182 
   -9153    -9124    -9097    -9073    -9051    -9026    -9003    -8986 
   -8968    -8947    -8932    -8919    -8905    -8892    -8883    -8877 
   -8876    -8872    -8865    -8862    -8866    -8870    -8876    -8883 
   -8891    -8904    -8916    -8928    -8945    -8962    -8980    -9007 
   -9031    -9049    -9077    -9111    -9140    -9171    -9204    -9238 
   -9277    -9312    -9350    -9388    -9427    -9471    -9518    -9559 
   -9602    -9648    -9691    -9737    -9786    -9834    -9882    -9926 
   -9979   -10033   -10083   -10135   -10189   -10243   -10295   -10346 
  -10399   -10453   -10504   -10557   -10609   -10663   -10719   -10771 
  -10824   -10881   -10936   -10982   -11028   -11083   -11134   -11180 
  -11232   -11284   -11331   -11377   -11426   -11476   -11526   -11578 
  -11630   -11676   -11722   -11770   -11815   -11857   -11898   -11942 
  -11988   -12029   -12069   -12110   -12150   -12187   -12226   -12264 
  -12299   -12336   -12373   -12406   -12441   -12475   -12505   -12534 
  -12564   -12594   -12623   -12653   -12680   -12703   -12725   -12746 
  -12766   -12785   -12807   -12831   -12852   -12865   -12879   -12895 
  -12907   -12920   -12933   -12941   -12947   -12953   -12958   -12966 
  -12972   -12974   -12980   -12981   -12974   -12970   -12973   -12973 
  -12964   -12958   -12950   -12939   -12926   -12911   -12897   -12885 
  -12866   -12843   -12825   -12802   -12773   -12748   -12727   -12704 
  -12673   -12641   -12611   -12577   -12546   -12519   -12487   -12451 
  -12415   -12379   -12341   -12305   -12268   -12225   -12185   -12143 
  -12098   -12055   -12015   -11974   -11929   -11885   -11840   -11799 
  -11757   -11709   -11663   -11615   -11564   -11512   -11462   -11408 
  -11358   -11308   -11253   -11199   -11146   -11094   -11043   -10991 
  -10937   -10883   -10828   -10777   -10724   -10669   -10617   -10566 
  -10511   -10459   -10411   -10358   -10308   -10263   -10216   -10172 
  -10125   -10076   -10033    -9989    -9945    -9904    -9864    -9822 
   -9788    -9755    -9717    -9684    -9653    -9621    -9593    -9563 
   -9532    -9506    -9489    -9468    -9444    -9418    -9394    -9375 
   -9360    -9348    -9337    -9325    -9312    -9302    -9297    -9292 
   -9285    -9283    -9288    -9283    -9279    -9283    -9290    -9293 
   -9301    -9316    -9329    -9339    -9355    -9378    -9398    -9420 
   -9444    -9471    -9497    -9524    -9556    -9594    -9628    -9666 
   -9705    -9745    -9792    -9840    -9888    -9938    -9988   -10041 
  -10099   -10157   -10218   -10278   -10338   -10401   -10469   -10534 
  -10601   -10675   -10741   -10808   -10885   -10963   -11036   -11111 
  -11186   -11257   -11330   -11404   -11480   -11557   -11634   -11712 
  -11790   -11867   -11944   -12023   -12102   -12181   -12259   -12333 
  -12403   -12478   -12550   -12622   -12694   -12766   -12838   -12904 
  -12969   -13036   -13100   -13162   -13225   -13293   -13358   -13413 
  -13466   -13524   -13579   -13633   -13690   -13734   -13776   -13829 
  -13882   -13921   -13959   -14003   -14042   -14080   -14121   -14156 
  -14188   -14222   -14253   -14278   -14303   -14331   -14362   -14381 
  -14404   -14428   -14446   -14466   -14488   -14505   -14519   -14527 
  -14536   -14546   -14551   -14554   -14559   -14561   -14557   -14554 
  -14553   -14548   -14544   -14538   -14527   -14517   -14505   -14488 
  -14472   -14455   -14436   -14412   -14391   -14372   -14346   -14318 
  -14296   -14270   -14239   -14207   -14173   -14137   -14102   -14068 
  -14033   -13988   -13941   -13905   -13869   -13818   -13779   -13740 
  -13689   -13647   -13601   -13543   -13498   -13455   -13406   -13356 
  -13308   -13262   -13205   -13142   -13095   -13046   -12985   -12934 
  -12885   -12822   -12758   -12702   -12642   -12580   -12519   -12460 
  -12401   -12337   -12276   -12213   -12145   -12078   -12012   -11943 
  -11873   -11804   -11735   -11663   -11596   -11526   -11449   -11372 
  -11303   -11236   -11163   -11087   -11014   -10939   -10862   -10793 
  -10720   -10644   -10571   -10498   -10427   -10359   -10288   -10215 
  -10147   -10085   -10018    -9948    -9883    -9818    -9752    -9690 
   -9629    -9570    -9513    -9456    -9404    -9350    -9290    -9240 
   -9194    -9144    -9096    -9053    -9009    -8966    -8927    -8891 
   -8857    -8824    -8791    -8764    -8739    -8712    -8688    -8669 
   -8655    -8641    -8627    -8621    -8615    -8611    -8608    -8608 
   -8614    -8621    -8634    -8649    -8662    -8677    -8695    -8716 
   -8742    -8768    -8795    -8826    -8858    -8893    -8934    -8977 
   -9022    -9067    -9113    -9165    -9221    -9277    -9332    -9390 
   -9452    -9514    -9582    -9651    -9721    -9790    -9859    -9929 
  -10000   -10076   -10154   -10230   -10304   -10384   -10463   -10539 
  -10617   -10698   -10778   -10859   -10944   -11024   -11103   -11186 
  -11265   -11342   -11418   -11496   -11577   -11655   -11727   -11799 
  -11869   -11937   -12008   -12079   -12144   -12206   -12272   -12332 
  -12383   -12438   -12495   -12545   -12595   -12641   -12685   -12731 
  -12772   -12808   -12846   -12881   -12912   -12945   -12974   -12999 
  -13022   -13043   -13065   -13082   -13096   -13109   -13119   -13127 
  -13132   -13136   -13146   -13146   -13138   -13136   -13129   -13123 
  -13116   -13099   -13088   -13076   -13055   -13038   -13016   -12991 
  -12970   -12947   -12926   -12897   -12862   -12834   -12803   -12766 
  -12730   -12692   -12656   -12619   -12576   -12534   -12495   -12452 
  -12405   -12359   -12314   -12270   -12228   -12178   -12131   -12089 
  -12043   -11992   -11939   -11889   -11838   -11793   -11751   -11705 
  -11659   -11614   -11566   -11519   -11472   -11426   -11383   -11340 
  -11296   -11254   -11213   -11169   -11129   -11088   -11052   -11014 
  -10975   -10941   -10912   -10875   -10839   -10805   -10773   -10743 
  -10717   -10689   -10663   -10643   -10621   -10593   -10567   -10546 
  -10525   -10509   -10496   -10481   -10465   -10453   -10443   -10434 
  -10424   -10417   -10412   -10407   -10397   -10392   -10395   -10396 
  -10392   -10388   -10388   -10386   -10390   -10395   -10393   -10397 
  -10404   -10407   -10411   -10419   -10426   -10431   -10436   -10438 
  -10446   -10454   -10459   -10463   -10473   -10481   -10488   -10497 
  -10511   -10523   -10535   -10547   -10559   -10571   -10586   -10601 
  -10619   -10636   -10650   -10666   -10687   -10706   -10728   -10752 
  -10779   -10808   -10833   -10859   -10887   -10917   -10947   -10976 
  -11005   -11037   -11071   -11105   -11142   -11179   -11214   -11252 
  -11291   -11334   -11375   -11414   -11458   -11500   -11539   -11583 
  -11630   -11677   -11720   -11769   -11816   -11858   -11904   -11956 
  -12006   -12054   -12100   -12148   -12197   -12245   -12293   -12339 
  -12386   -12432   -12478   -12522   -12565   -12609   -12653   -12695 
  -12733   -12772   -12814   -12854   -12888   -12923   -12962   -12996 
  -13026   -13059   -13092   -13119   -13146   -13177   -13203   -13230 
  -13255   -13269   -13289   -13323   -13343   -13355   -13373   -13387 
  -13400   -13412   -13423   -13436   -13450   -13462   -13470   -13477 
  -13481   -13482   -13485   -13487   -13487   -13485   -13486   -13485 
  -13479   -13475   -13473   -13468   -13464   -13459   -13451   -13441 
  -13435   -13425   -13413   -13405   -13397   -13382   -13366   -13355 
  -13344   -13333   -13321   -13301   -13279   -13266   -13254   -13238 
  -13216   -13194   -13180   -13161   -13134   -13113   -13096   -13068 
  -13046   -13032   -13007   -12978   -12958   -12928   -12901   -12877 
  -12845   -12815   -12787   -12754   -12725   -12692   -12658   -12629 
  -12596   -12563   -12530   -12502   -12467   -12425   -12387   -12356 
  -12320   -12279   -12244   -12210   -12174   -12139   -12104   -12067 
  -12031   -11992   -11952   -11913   -11871   -11832   -11797   -11758 
  -11718   -11678   -11642   -11605   -11568   -11533   -11499   -11461 
  -11421   -11381   -11345   -11306   -11268   -11232   -11191   -11152 
  -11119   -11083   -11041   -11005   -10968   -10932   -10897   -10860 
  -10821   -10785   -10748   -10712   -10675   -10643   -10609   -10574 
  -10540   -10508   -10471   -10436   -10405   -10377   -10346   -10315 
  -10280   -10243   -10212   -10183   -10150   -10118   -10093   -10069 
  -10038   -10007    -9979    -9954    -9929    -9906    -9880    -9855 
   -9829    -9802    -9774    -9751    -9730    -9702    -9679    -9659 
   -9634    -9612    -9595    -9579    -9558    -9536    -9521    -9508 
   -9491    -9477    -9470    -9459    -9443    -9437    -9437    -9428 
   -9421    -9421    -9417    -9412    -9416    -9421    -9427    -9433 
   -9440    -9450    -9463    -9478    -9491    -9509    -9525    -9544 
   -9568    -9594    -9617    -9647    -9680    -9710    -9742    -9776 
   -9809    -9844    -9883    -9919    -9957    -9998   -10041   -10081 
  -10121   -10164   -10208   -10258   -10309   -10354   -10400   -10450 
  -10500   -10550   -10598   -10651   -10704   -10754   -10804   -10856 
