Origin Time       2016/04/16 01:25:00
Lat.              32.753
Long.             130.762
Depth. (km)       12
Mag.              7.3
Station Code      AIC003
Station Lat.      35.1732
Station Long.     136.7404
Station Height(m) -2
Record Time       2016/04/16 01:28:07
Sampling Freq(Hz) 100Hz
Duration Time(s)  225
Dir.              E-W
Scale Factor      7845(gal)/8223790
Max. Acc. (gal)   4.171
Last Correction   2016/04/16 01:28:09
Memo.             
[...]
   -2874    -2915    -2921    -2965    -3037    -3057    -3068    -3127 
   -3191    -3199    -3194    -3250    -3317    -3314    -3306    -3369 
   -3419    -3404    -3424    -3468    -3480    -3504    -3541    -3538 
   -3535    -3585    -3626    -3608    -3609    -3645    -3665    -3669 
   -3672    -3684    -3692    -3700    -3709    -3699    -3693    -3690 
   -3681    -3690    -3673    -3634    -3642    -3634    -3580    -3568 
   -3554    -3496    -3483    -3464    -3377    -3343    -3346    -3276 
   -3194    -3165    -3130    -3053    -2986    -2957    -2901    -2795 
   -2727    -2701    -2651    -2577    -2501    -2408    -2338    -2316 
   -2265    -2161    -2072    -2034    -2000    -1911    -1826    -1790 
   -1736    -1658    -1609    -1554    -1478    -1428    -1395    -1312 
   -1237    -1223    -1169    -1074    -1032     -996     -920     -870 
    -841     -777     -702     -677     -665     -579     -495     -502 
    -483     -379     -321     -329     -298     -234     -197     -163 
    -129     -103      -71      -21       20       13       16       85 
     140      110       86      163      206      147      162      225 
     189      152      203      210      148      137      157      129 
      97       76       39       -5      -31      -52     -105     -159 
    -184     -232     -309     -368     -398     -448     -531     -587 
    -630     -714     -788     -827     -893     -967    -1030    -1098 
   -1162    -1224    -1296    -1375    -1444    -1483    -1549    -1644 
   -1702    -1760    -1837    -1908    -1975    -2027    -2087    -2178 
   -2251    -2301    -2363    -2427    -2504    -2596    -2648    -2671 
   -2754    -2862    -2901    -2926    -3013    -3084    -3105    -3154 
   -3230    -3260    -3300    -3381    -3412    -3407    -3451    -3519 
   -3547    -3555    -3592    -3626    -3626    -3647    -3700    -3712 
   -3689    -3709    -3753    -3754    -3748    -3771    -3771    -3747 
   -3750    -3771    -3748    -3717    -3748    -3754    -3697    -3699 
   -3731    -3684    -3630    -3655    -3662    -3608    -3599    -3600 
   -3555    -3541    -3559    -3550    -3500    -3484    -3522    -3511 
   -3453    -3437    -3449    -3438    -3437    -3446    -3411    -3365 
   -3399    -3456    -3411    -3352    -3406    -3454    -3393    -3384 
   -3451    -3434    -3414    -3466    -3474    -3447    -3468    -3501 
   -3510    -3501    -3510    -3523    -3516    -3524    -3547    -3543 
   -3530    -3547    -3557    -3523    -3520    -3553    -3532    -3497 
   -3511    -3508    -3474    -3462    -3459    -3440    -3407    -3379 
   -3362    -3338    -3319    -3304    -3241    -3188    -3199    -3171 
   -3096    -3056    -3046    -3015    -2959    -2921    -2896    -2855 
   -2814    -2772    -2736    -2706    -2667    -2639    -2606    -2552 
   -2517    -2505    -2461    -2396    -2392    -2384    -2303    -2265 
   -2282    -2245    -2184    -2153    -2126    -2091    -2081    -2074 
   -2008    -1945    -1961    -1969    -1906    -1867    -1885    -1857 
   -1807    -1817    -1802    -1745    -1745    -1745    -1695    -1677 
   -1702    -1686    -1629    -1609    -1632    -1613    -1557    -1556 
   -1574    -1544    -1520    -1539    -1516    -1474    -1490    -1491 
   -1447    -1444    -1466    -1429    -1374    -1391    -1412    -1355 
   -1323    -1340    -1310    -1266    -1270    -1270    -1230    -1194 
   -1190    -1173    -1139    -1135    -1127    -1069    -1028    -1043 
   -1044     -986     -935     -945     -946     -884     -838     -830 
    -799     -762     -739     -699     -662     -646     -606     -535 
    -500     -523     -513     -437     -390     -388     -375     -365 
    -356     -303     -261     -286     -302     -259     -241     -271 
    -271     -251     -263     -270     -271     -299     -321     -318 
    -324     -360     -394     -406     -432     -464     -481     -508 
    -560     -610     -619     -637     -715     -767     -764     -796 
    -850     -882     -915     -951     -980    -1011    -1060    -1102 
   -1105    -1127    -1190    -1232    -1229    -1247    -1308    -1339 
   -1334    -1363    -1408    -1410    -1418    -1486    -1509    -1468 
   -1507    -1580    -1571    -1553    -1597    -1634    -1625    -1645 
   -1695    -1698    -1709    -1761    -1772    -1755    -1794    -1854 
   -1844    -1830    -1891    -1930    -1915    -1923    -1972    -2004 
   -1993    -2016    -2052    -2043    -2070    -2121    -2130    -2133 
   -2163    -2196    -2207    -2228    -2272    -2292    -2293    -2330 
   -2393    -2420    -2419    -2444    -2485    -2519    -2559    -2589 
   -2604    -2636    -2686    -2729    -2759    -2785    -2817    -2847 
   -2872    -2932    -2971    -2959    -2984    -3052    -3080    -3076 
   -3102    -3142    -3152    -3171    -3208    -3202    -3208    -3258 
   -3256    -3241    -3277    -3287    -3271    -3277    -3291    -3292 
   -3275    -3280    -3304    -3273    -3238    -3262    -3272    -3231 
   -3204    -3202    -3196    -3180    -3171    -3168    -3142    -3113 
   -3115    -3109    -3068    -3049    -3064    -3048    -3017    -3041 
   -3042    -2986    -2997    -3042    -3014    -2980    -3037    -3082 
   -3028    -3024    -3102    -3095    -3071    -3136    -3169    -3142 
   -3165    -3232    -3257    -3244    -3280    -3336    -3350    -3366 
   -3383    -3385    -3442    -3510    -3496    -3485    -3537    -3588 
   -3604    -3582    -3584    -3649    -3674    -3634    -3650    -3689 
   -3677    -3666    -3665    -3646    -3650    -3670    -3636    -3577 
   -3591    -3605    -3524    -3487    -3526    -3477    -3400    -3402 
   -3383    -3312    -3267    -3250    -3219    -3159    -3107    -3073 
   -3025    -2983    -2951    -2898    -2833    -2791    -2778    -2727 
   -2625    -2600    -2628    -2558    -2451    -2438    -2450    -2392 
   -2334    -2313    -2270    -2235    -2253    -2212    -2126    -2141 
   -2169    -2101    -2072    -2102    -2083    -2046    -2047    -2057 
   -2053    -2037    -2033    -2061    -2068    -2060    -2091    -2097 
   -2069    -2098    -2150    -2139    -2135    -2176    -2192    -2192 
   -2224    -2249    -2242    -2259    -2316    -2331    -2305    -2330 
   -2386    -2407    -2411    -2435    -2465    -2496    -2532    -2560 
   -2579    -2604    -2641    -2693    -2718    -2727    -2779    -2844 
   -2871    -2899    -2953    -3001    -3034    -3090    -3145    -3163 
   -3207    -3289    -3333    -3366    -3427    -3465    -3503    -3578 
   -3626    -3645    -3703    -3757    -3778    -3823    -3892    -3932 
   -3944    -3971    -4043    -4091    -4081    -4099    -4153    -4175 
   -4176    -4197    -4222    -4225    -4245    -4253    -4220    -4233 
   -4270    -4247    -4218    -4222    -4230    -4217    -4194    -4186 
   -4156    -4114    -4120    -4120    -4058    -4014    -4024    -3996 
   -3915    -3885    -3896    -3838    -3762    -3767    -3738    -3653 
   -3619    -3595    -3544    -3504    -3461    -3403    -3350    -3325 
   -3289    -3203    -3141    -3130    -3079    -2978    -2929    -2929 
   -2853    -2732    -2694    -2687    -2601    -2501    -2466    -2428 
   -2340    -2272    -2226    -2146    -2079    -2043    -1973    -1869 
   -1810    -1799    -1734    -1615    -1574    -1566    -1471    -1382 
   -1366    -1324    -1233    -1165    -1132    -1102    -1051     -985 
    -926     -877     -849     -834     -791     -726     -700     -692 
    -635     -579     -572     -553     -511     -486     -451     -395 
    -375     -387     -337     -256     -251     -261     -203     -139 
    -129     -137      -93      -45      -27        8       20       11 
      59      121      114      102      155      193      183      206 
     241      240      256      302      309      289      324      370 
     356      341      388      411      382      387      407      396 
     395      403      391      373      364      375      375      336 
     315      328      315      295      283      251      224      238 
     238      178      143      182      178      116      101      128 
     110       74       81       89       52       45       75       55 
      31       71       76       22       41      101       82       44 
      75      112       99       95      121      128      122      149 
     178      160      167      216      193      147      190      244 
     209      166      206      249      206      175      203      199 
     183      195      184      152      137      140      131      118 
     108       62       25       40       32      -35      -90      -67 
     -58     -144     -211     -197     -216     -278     -324     -368 
    -405     -425     -479     -549     -581     -595     -648     -720 
    -761     -783     -824     -897     -949     -976    -1039    -1094 
   -1107    -1151    -1227    -1264    -1277    -1318    -1378    -1413 
   -1433    -1476    -1532    -1566    -1584    -1624    -1675    -1715 
   -1753    -1781    -1809    -1868    -1917    -1912    -1946    -2045 
   -2093    -2083    -2118    -2196    -2253    -2295    -2336    -2370 
   -2413    -2478    -2543    -2582    -2616    -2688    -2759    -2791 
   -2839    -2911    -2967    -3021    -3090    -3145    -3183    -3256 
   -3334    -3364    -3411    -3489    -3527    -3566    -3639    -3686 
   -3713    -3754    -3805    -3854    -3869    -3893    -3955    -3979 
   -3986    -4029    -4058    -4062    -4077    -4102    -4124    -4140 
   -4149    -4140    -4140    -4168    -4178    -4152    -4135    -4166 
   -4176    -4120    -4102    -4135    -4114    -4068    -4051    -4040 
   -4028    -4010    -3979    -3942    -3917    -3912    -3906    -3867 
   -3817    -3828    -3838    -3773    -3723    -3719    -3709    -3685 
   -3659    -3631    -3599    -3584    -3573    -3532    -3496    -3491 
   -3481    -3439    -3396    -3387    -3377    -3348    -3317    -3280 
   -3242    -3237    -3232    -3188    -3137    -3121    -3099    -3061 
   -3036    -3011    -2975    -2928    -2901    -2878    -2829    -2790 
   -2771    -2731    -2674    -2643    -2621    -2560    -2501    -2493 
   -2465    -2380    -2331    -2335    -2292    -2201    -2169    -2158 
   -2088    -2023    -2006    -1961    -1887    -1856    -1833    -1759 
   -1699    -1687    -1645    -1567    -1528    -1518    -1455    -1387 
   -1374    -1344    -1273    -1228    -1220    -1169    -1097    -1111 
   -1097     -992     -959     -994     -962     -882     -851     -872 
    -849     -795     -797     -781     -723     -730     -765     -712 
    -652     -689     -726     -683     -656     -680     -688     -681 
    -700     -706     -692     -724     -765     -754     -761     -820 
    -847     -841     -884     -938     -943     -961    -1017    -1050 
   -1047    -1084    -1142    -1161    -1183    -1237    -1266    -1277 
   -1318    -1374    -1402    -1422    -1456    -1493    -1533    -1584 
   -1611    -1611    -1649    -1722    -1750    -1738    -1776    -1858 
   -1880    -1872    -1921    -1973    -1984    -2003    -2047    -2092 
   -2111    -2130    -2161    -2187    -2212    -2241    -2259    -2278 
   -2309    -2334    -2334    -2347    -2398    -2425    -2403    -2408 
   -2455    -2471    -2471    -2497    -2509    -2513    -2542    -2559 
   -2552    -2565    -2598    -2616    -2616    -2619    -2647    -2682 
   -2675    -2677    -2731    -2743    -2733    -2779    -2801    -2794 
   -2848    -2898    -2894    -2906    -2947    -2965    -2983    -3041 
   -3071    -3052    -3092    -3169    -3171    -3141    -3187    -3260 
   -3264    -3253    -3289    -3323    -3325    -3327    -3360    -3377 
   -3362    -3364    -3379    -3384    -3393    -3384    -3345    -3345 
   -3387    -3368    -3295    -3267    -3298    -3302    -3221    -3153 
   -3163    -3148    -3098    -3059    -2997    -2948    -2936    -2886 
   -2797    -2743    -2724    -2668    -2584    -2528    -2485    -2416 
   -2322    -2259    -2222    -2142    -2058    -1996    -1914    -1842 
   -1788    -1688    -1594    -1563    -1489    -1356    -1286    -1250 
   -1173    -1073     -980     -916     -851     -764     -699     -631 
    -529     -463     -430     -328     -209     -175     -144      -39 
      44       62      126      229      266      301      386      450 
     477      519      591      641      666      715      776      807 
     831      877      920      942      974     1020     1023     1019 
    1080     1125     1090     1097     1155     1142     1112     1155 
    1173     1111     1100     1148     1119     1050     1063     1075 
    1013      980      978      927      870      849      800      735 
     706      681      598      491      464      453      356      248 
     198      153       64      -32     -103     -182     -271     -342 
    -441     -558     -629     -710     -837     -922     -999    -1138 
   -1243    -1294    -1404    -1539    -1628    -1721    -1841    -1953 
   -2046    -2151    -2267    -2371    -2471    -2583    -2700    -2799 
   -2894    -3014    -3132    -3221    -3334    -3464    -3553    -3627 
   -3753    -3878    -3954    -4039    -4159    -4270    -4348    -4445 
   -4558    -4626    -4700    -4826    -4909    -4953    -5047    -5169 
   -5243    -5300    -5394    -5486    -5540    -5603    -5697    -5755 
   -5791    -5869    -5949    -5994    -6042    -6099    -6147    -6183 
   -6207    -6239    -6284    -6318    -6331    -6338    -6358    -6394 
   -6408    -6367    -6361    -6409    -6397    -6340    -6339    -6350 
   -6313    -6272    -6262    -6241    -6181    -6135    -6112    -6060 
   -5988    -5952    -5911    -5811    -5738    -5722    -5643    -5525 
   -5468    -5408    -5302    -5220    -5154    -5058    -4966    -4892 
   -4801    -4700    -4611    -4525    -4430    -4325    -4240    -4167 
   -4055    -3951    -3883    -3788    -3684    -3604    -3518    -3426 
   -3335    -3253    -3186    -3098    -3009    -2932    -2848    -2785 
   -2731    -2644    -2548    -2497    -2461    -2378    -2301    -2261 
   -2200    -2116    -2068    -2045    -1979    -1895    -1863    -1833 
   -1769    -1723    -1682    -1626    -1601    -1584    -1525    -1444 
   -1420    -1428    -1385    -1323    -1294    -1277    -1244    -1210 
   -1185    -1148    -1116    -1123    -1096    -1011     -992    -1039 
   -1000     -913     -899     -901     -873     -846     -818     -778 
    -753     -757     -753     -685     -627     -658     -666     -592 
    -548     -553     -540     -508     -477     -453     -421     -403 
    -414     -383     -324     -330     -341     -274     -218     -245 
    -256     -209     -176     -174     -157     -141     -148     -135 
     -98     -103     -133     -106      -74     -108     -131      -87 
     -79     -135     -147     -124     -144     -171     -175     -194 
    -225     -233     -245     -292     -325     -333     -367     -419 
    -450     -471     -518     -564     -587     -627     -683     -730 
    -773     -816     -853     -884     -950    -1031    -1053    -1057 
   -1119    -1197    -1232    -1256    -1298    -1341    -1405    -1464 
   -1471    -1491    -1567    -1629    -1641    -1648    -1698    -1765 
   -1780    -1783    -1849    -1891    -1871    -1902    -1975    -1985 
   -1980    -2034    -2079    -2056    -2068    -2137    -2141    -2118 
   -2172    -2200    -2143    -2166    -2253    -2230    -2182    -2222 
   -2236    -2201    -2205    -2228    -2215    -2195    -2192    -2185 
   -2161    -2146    -2144    -2120    -2079    -2069    -2069    -2034 
   -1984    -1962    -1954    -1900    -1844    -1848    -1831    -1755 
   -1711    -1709    -1679    -1625    -1578    -1533    -1507    -1495 
   -1449    -1385    -1358    -1355    -1313    -1255    -1240    -1215 
   -1165    -1139    -1132    -1107    -1057    -1024    -1038    -1028 
    -980     -957     -950     -934     -936     -932     -890     -876 
    -907     -895     -862     -882     -901     -874     -873     -907 
    -903     -885     -923     -961     -934     -928     -989    -1015 
    -996    -1008    -1051    -1063    -1065    -1105    -1142    -1138 
   -1146    -1170    -1185    -1209    -1243    -1251    -1243    -1266 
   -1313    -1317    -1296    -1332    -1378    -1359    -1352    -1391 
   -1402    -1404    -1421    -1426    -1436    -1453    -1466    -1464 
   -1455    -1472    -1509    -1503    -1493    -1528    -1543    -1528 
   -1553    -1580    -1574    -1590    -1626    -1648    -1649    -1658 
   -1702    -1729    -1728    -1760    -1806    -1819    -1841    -1884 
   -1919    -1939    -1969    -2012    -2047    -2073    -2118    -2161 
   -2173    -2212    -2296    -2322    -2311    -2373    -2455    -2475 
   -2477    -2532    -2612    -2647    -2679    -2725    -2748    -2814 
   -2894    -2882    -2889    -2999    -3076    -3067    -3099    -3179 
   -3215    -3252    -3322    -3360    -3379    -3434    -3499    -3532 
   -3576    -3643    -3674    -3697    -3759    -3812    -3844    -3883 
   -3924    -3959    -3996    -4055    -4116    -4122    -4128    -4197 
   -4263    -4270    -4275    -4326    -4371    -4403    -4449    -4464 
   -4457    -4502    -4573    -4576    -4553    -4592    -4650    -4646 
   -4629    -4661    -4696    -4689    -4685    -4699    -4706    -4708 
   -4710    -4707    -4692    -4687    -4708    -4696    -4661    -4665 
   -4668    -4642    -4631    -4629    -4603    -4576    -4581    -4579 
   -4537    -4518    -4517    -4479    -4441    -4448    -4436    -4367 
   -4340    -4352    -4305    -4238    -4222    -4207    -4158    -4109 
   -4079    -4027    -3982    -3963    -3912    -3842    -3790    -3762 
   -3713    -3622    -3562    -3557    -3487    -3372    -3346    -3330 
   -3218    -3132    -3096    -3017    -2936    -2893    -2821    -2716 
   -2647    -2600    -2506    -2416    -2370    -2288    -2176    -2115 
   -2066    -1971    -1867    -1814    -1767    -1655    -1566    -1548 
   -1476    -1347    -1279    -1258    -1193    -1107    -1043     -972 
    -909     -886     -823     -712     -668     -658     -592     -506 
    -459     -434     -395     -330     -276     -238     -182     -141 
    -129      -76       -8       11       27       83      125      128 
     168      229      225      234      288      307      318      361 
     375      357      391      457      463      434      450      484 
     510      526      521      521      548      571      587      579 
     573      610      630      614      623      650      649      635 
     657      688      669      638      662      683      661      662 
     670      639      625      650      641      595      566      556 
     557      544      517      481      427      407      413      361 
     294      278      261      186      117      106       62      -18 
     -55      -99     -178     -232     -276     -346     -422     -490 
    -537     -600     -699     -770     -837     -915     -970    -1060 
   -1173    -1217    -1273    -1390    -1487    -1540    -1602    -1710 
   -1818    -1871    -1930    -2034    -2110    -2177    -2272    -2338 
   -2393    -2488    -2586    -2641    -2674    -2752    -2859    -2906 
   -2933    -3018    -3096    -3136    -3199    -3256    -3271    -3325 
   -3415    -3445    -3446    -3507    -3570    -3578    -3605    -3665 
