Origin Time       2016/04/16 01:25:00
Lat.              32.753
Long.             130.762
Depth. (km)       12
Mag.              7.3
Station Code      AIC004
Station Lat.      35.0632
Station Long.     136.9737
Station Height(m) 27
Record Time       2016/04/16 01:28:12
Sampling Freq(Hz) 100Hz
Duration Time(s)  148
Dir.              N-S
Scale Factor      7845(gal)/8223790
Max. Acc. (gal)   2.489
Last Correction   2016/04/16 01:28:14
Memo.             
[...]
    1096     1094     1093     1098     1100     1097     1097     1097 
    1100     1101     1098     1098     1102     1104     1101     1102 
    1111     1117     1124     1132     1138     1142     1148     1159 
    1170     1178     1183     1192     1200     1204     1210     1219 
    1227     1232     1240     1248     1252     1255     1259     1264 
    1269     1270     1267     1270     1275     1278     1278     1279 
    1275     1271     1270     1270     1269     1271     1270     1269 
    1270     1274     1274     1273     1274     1275     1278     1281 
    1279     1279     1287     1297     1304     1312     1318     1325 
    1331     1337     1345     1356     1367     1379     1389     1397 
    1405     1422     1436     1443     1451     1463     1470     1476 
    1483     1490     1495     1502     1512     1518     1524     1534 
    1544     1548     1552     1557     1567     1579     1582     1579 
    1587     1594     1588     1590     1597     1595     1586     1584 
    1583     1578     1570     1564     1557     1545     1537     1532 
    1522     1513     1505     1495     1485     1474     1463     1451 
    1440     1433     1421     1405     1391     1377     1359     1350 
    1340     1323     1304     1289     1270     1251     1236     1220 
    1196     1171     1148     1123     1097     1071     1048     1026 
     993      961      938      916      888      855      826      796 
     764      733      704      677      649      622      595      568 
     545      525      499      475      453      436      415      391 
     367      346      329      307      284      266      246      222 
     199      178      153      129      110       94       70       44 
      25        9       -9      -25      -37      -51      -70      -83 
     -94     -108     -122     -131     -143     -153     -155     -160 
    -171     -183     -190     -197     -203     -210     -216     -218 
    -225     -236     -244     -248     -253     -265     -276     -283 
    -292     -309     -324     -334     -352     -370     -383     -398 
    -417     -437     -453     -469     -488     -508     -526     -540 
    -556     -571     -583     -594     -604     -615     -621     -630 
    -642     -646     -649     -656     -662     -665     -665     -668 
    -669     -664     -654     -650     -650     -652     -648     -641 
    -638     -631     -622     -621     -621     -612     -606     -607 
    -606     -603     -602     -600     -600     -600     -599     -599 
    -600     -596     -592     -595     -596     -592     -587     -581 
    -573     -565     -561     -553     -546     -538     -530     -522 
    -515     -506     -500     -495     -487     -479     -469     -460 
    -451     -449     -442     -433     -422     -410     -398     -386 
    -372     -361     -348     -329     -315     -299     -278     -259 
    -241     -221     -199     -180     -159     -136     -114      -97 
     -78      -56      -36      -14        2       21       40       59 
      79      101      121      139      157      178      199      218 
     237      255      271      289      307      329      351      369 
     396      425      442      459      486      508      531      558 
     579      602      627      646      661      679      693      710 
     731      746      757      769      783      792      803      810 
     811      814      820      823      822      824      823      820 
     818      811      803      800      796      791      784      774 
     765      758      750      746      741      728      719      710 
     692      679      675      669      657      643      633      625 
     615      606      595      589      583      576      573      569 
     562      560      560      557      553      556      561      564 
     569      577      585      594      600      608      619      626 
     631      641      653      660      664      672      676      672 
     670      670      666      662      662      658      650      638 
     623      612      603      587      566      549      532      513 
     491      471      445      418      398      379      351      318 
     295      274      244      216      191      160      125       89 
      58       29       -4      -39      -74     -110     -144     -182 
    -212     -238     -268     -299     -326     -356     -390     -419 
    -448     -475     -500     -519     -540     -571     -599     -621 
    -645     -668     -685     -707     -731     -754     -776     -799 
    -820     -841     -868     -893     -919     -950     -978    -1004 
   -1034    -1065    -1093    -1116    -1143    -1175    -1202    -1232 
   -1266    -1293    -1320    -1351    -1381    -1408    -1433    -1463 
   -1489    -1507    -1528    -1551    -1571    -1590    -1602    -1615 
   -1636    -1648    -1652    -1664    -1674    -1672    -1674    -1677 
   -1676    -1674    -1672    -1672    -1667    -1656    -1647    -1637 
   -1628    -1615    -1602    -1591    -1582    -1567    -1551    -1533 
   -1520    -1505    -1485    -1468    -1451    -1421    -1393    -1367 
   -1334    -1300    -1270    -1233    -1196    -1161    -1127    -1089 
   -1051    -1013     -976     -938     -900     -864     -831     -796 
    -760     -724     -697     -670     -641     -612     -584     -557 
    -537     -518     -495     -477     -460     -444     -433     -421 
    -410     -403     -398     -396     -396     -395     -396     -402 
    -406     -409     -415     -425     -433     -441     -454     -467 
    -475     -490     -504     -515     -530     -545     -557     -571 
    -581     -591     -603     -615     -622     -633     -652     -664 
    -673     -689     -707     -724     -743     -761     -777     -792 
    -811     -830     -845     -861     -877     -890     -907     -920 
    -928     -942     -951     -954     -959     -967     -969     -965 
    -961     -962     -959     -949     -936     -922     -907     -892 
    -877     -858     -837     -810     -788     -769     -743     -720 
    -697     -672     -650     -630     -610     -589     -568     -552 
    -538     -521     -503     -488     -471     -449     -433     -421 
    -403     -386     -369     -349     -328     -306     -284     -266 
    -246     -220     -198     -182     -160     -141     -121      -98 
     -79      -60      -39      -21        0       21       41       65 
      89      110      136      160      183      209      236      263 
     288      313      336      360      383      405      429      453 
     477      500      521      546      571      592      612      631 
     649      668      685      702      720      734      749      767 
     787      801      815      834      849      858      872      888 
     903      915      928      942      955      969      981      996 
    1007     1016     1031     1050     1063     1073     1088     1104 
    1119     1136     1156     1175     1193     1208     1225     1243 
    1262     1277     1287     1297     1305     1317     1331     1337 
    1344     1354     1360     1367     1371     1372     1378     1382 
    1382     1383     1386     1385     1383     1379     1375     1374 
    1370     1363     1358     1352     1345     1340     1331     1314 
    1300     1287     1274     1262     1250     1235     1217     1197 
    1177     1158     1139     1117     1096     1074     1053     1028 
    1007      984      957      932      909      884      859      832 
     803      776      746      715      687      656      619      581 
     546      508      469      430      390      344      301      261 
     221      178      137       98       56       13      -35      -76 
    -116     -157     -198     -234     -271     -309     -344     -380 
    -414     -448     -479     -504     -531     -561     -589     -618 
    -642     -665     -691     -715     -735     -753     -773     -795 
    -811     -827     -843     -858     -874     -893     -908     -922 
    -939     -957     -966     -977     -993    -1009    -1024    -1043 
   -1063    -1078    -1094    -1115    -1140    -1169    -1190    -1206 
   -1227    -1251    -1270    -1285    -1304    -1318    -1337    -1359 
   -1370    -1381    -1395    -1412    -1425    -1436    -1445    -1456 
   -1460    -1466    -1475    -1478    -1480    -1483    -1480    -1479 
   -1482    -1476    -1468    -1468    -1464    -1455    -1449    -1440 
   -1425    -1413    -1402    -1385    -1368    -1352    -1336    -1317 
   -1290    -1266    -1244    -1221    -1197    -1174    -1146    -1113 
   -1088    -1058    -1026     -996     -959     -920     -889     -858 
    -823     -788     -750     -712     -676     -638     -603     -566 
    -526     -486     -445     -406     -368     -326     -282     -241 
    -201     -159     -120      -81      -36       10       56       97 
     140      183      221      265      314      359      400      445 
     484      526      571      615      658      704      746      787 
     830      873      915      959     1003     1046     1086     1128 
    1173     1216     1256     1297     1337     1377     1414     1453 
    1498     1541     1582     1622     1663     1701     1742     1787 
    1831     1875     1921     1964     2004     2049     2091     2130 
    2172     2208     2246     2289     2326     2355     2388     2423 
    2457     2482     2502     2525     2548     2569     2583     2594 
    2606     2619     2627     2632     2636     2636     2636     2636 
    2639     2636     2636     2636     2632     2631     2629     2627 
    2620     2610     2601     2594     2587     2575     2560     2548 
    2531     2511     2490     2470     2447     2427     2405     2377 
    2344     2319     2292     2258     2226     2196     2169     2138 
    2101     2068     2037     2004     1971     1938     1906     1869 
    1833     1803     1768     1729     1694     1656     1615     1578 
    1541     1505     1466     1431     1393     1352     1317     1282 
    1244     1210     1173     1136     1107     1071     1030      994 
     961      923      888      853      819      785      747      711 
     681      648      610      573      540      513      481      449 
     422      391      361      338      311      282      257      233 
     210      191      167      141      116       91       70       45 
      23        0      -27      -47      -71      -98     -118     -141 
    -168     -193     -212     -233     -259     -292     -318     -338 
    -360     -383     -406     -427     -451     -475     -496     -522 
    -542     -557     -579     -603     -626     -650     -669     -688 
    -712     -733     -749     -769     -789     -805     -823     -845 
    -861     -873     -890     -907     -916     -931     -946     -961 
    -974     -982     -993    -1005    -1013    -1021    -1034    -1042 
   -1048    -1053    -1058    -1065    -1071    -1080    -1085    -1088 
   -1090    -1094    -1098    -1107    -1113    -1117    -1124    -1132 
   -1133    -1138    -1144    -1148    -1147    -1146    -1150    -1154 
   -1150    -1148    -1154    -1152    -1146    -1146    -1146    -1143 
   -1143    -1139    -1125    -1115    -1105    -1093    -1077    -1060 
   -1043    -1019     -989     -963     -936     -903     -870     -838 
    -799     -757     -720     -680     -633     -585     -540     -498 
    -453     -400     -348     -298     -248     -202     -153     -101 
     -54       -8       41       89      135      182      228      271 
     317      363      406      449      496      542      589      633 
     676      723      772      815      864      913      957      999 
    1044     1092     1140     1190     1239     1287     1334     1382 
    1431     1475     1520     1568     1613     1653     1696     1741 
    1784     1826     1872     1918     1958     1995     2034     2070 
    2104     2139     2176     2209     2232     2255     2282     2308 
    2328     2344     2366     2385     2394     2403     2416     2424 
    2428     2434     2442     2442     2440     2442     2444     2442 
    2439     2439     2431     2421     2411     2401     2392     2378 
    2365     2353     2338     2319     2304     2289     2272     2245 
    2219     2200     2180     2151     2120     2091     2060     2023 
    1989     1956     1915     1872     1833     1794     1749     1703 
    1655     1603     1552     1497     1441     1391     1332     1270 
    1212     1147     1081     1019      954      886      819      756 
     688      615      546      486      422      356      288      222 
     159       94       29      -29      -90     -152     -209     -268 
    -325     -376     -425     -475     -525     -577     -626     -673 
    -720     -762     -803     -846     -886     -924     -955     -985 
   -1020    -1055    -1081    -1109    -1136    -1161    -1192    -1219 
   -1242    -1269    -1291    -1308    -1332    -1354    -1371    -1393 
   -1416    -1436    -1451    -1468    -1494    -1517    -1534    -1556 
   -1582    -1606    -1626    -1648    -1672    -1695    -1714    -1737 
   -1760    -1780    -1804    -1826    -1844    -1861    -1885    -1910 
   -1930    -1952    -1981    -2008    -2031    -2053    -2085    -2114 
   -2135    -2161    -2185    -2208    -2235    -2258    -2281    -2304 
   -2326    -2346    -2362    -2371    -2385    -2400    -2411    -2419 
   -2428    -2435    -2438    -2440    -2442    -2439    -2432    -2430 
   -2423    -2409    -2400    -2390    -2371    -2355    -2342    -2322 
   -2301    -2284    -2259    -2230    -2204    -2173    -2137    -2104 
   -2077    -2042    -2007    -1975    -1942    -1902    -1861    -1821 
   -1779    -1736    -1691    -1648    -1605    -1556    -1509    -1467 
   -1424    -1378    -1332    -1287    -1242    -1188    -1138    -1093 
   -1048     -994     -945     -900     -850     -796     -747     -699 
    -642     -587     -535     -483     -425     -372     -322     -274 
    -222     -170     -117      -64      -16       32       82      129 
     174      225      274      317      368      419      461      506 
     552      598      642      684      728      774      818      862 
     907      947      982     1021     1065     1107     1142     1182 
    1225     1260     1294     1332     1374     1413     1448     1480 
    1516     1551     1587     1622     1655     1687     1718     1748 
    1776     1803     1831     1861     1887     1908     1929     1948 
    1965     1982     2001     2016     2027     2037     2043     2045 
    2043     2041     2038     2030     2020     2012     2003     1988 
    1965     1944     1925     1900     1869     1842     1814     1780 
    1744     1710     1676     1638     1602     1570     1528     1483 
    1441     1404     1367     1328     1286     1244     1197     1150 
    1111     1075     1039     1003      965      931      895      858 
     824      792      757      722      693      666      634      599 
     569      542      508      479      454      430      402      376 
     356      333      311      292      270      246      228      207 
     191      178      156      140      126      108       89       74 
      60       45       35       28       17        5       -5      -17 
     -31      -37      -45      -55      -60      -68      -82      -91 
     -99     -109     -117     -126     -137     -148     -163     -175 
    -183     -195     -211     -225     -241     -255     -263     -278 
    -295     -311     -326     -344     -359     -368     -383     -398 
    -410     -423     -437     -449     -460     -467     -471     -477 
    -480     -481     -484     -488     -491     -495     -495     -498 
    -499     -499     -500     -499     -498     -500     -499     -499 
    -499     -495     -491     -486     -483     -480     -473     -467 
    -461     -457     -457     -453     -448     -444     -433     -423 
    -419     -413     -406     -399     -390     -379     -369     -359 
    -346     -337     -328     -313     -303     -297     -283     -268 
    -257     -246     -233     -218     -205     -190     -178     -162 
    -147     -135     -116     -102      -94      -79      -64      -55 
     -41      -23       -5        5       21       40       56       71 
      86      101      120      141      160      178      195      212 
     236      259      279      299      322      344      370      396 
     422      450      472      491      519      552      576      600 
     633      664      691      719      750      785      818      849 
     884      918      946      974     1009     1042     1069     1098 
    1133     1165     1193     1221     1254     1279     1302     1331 
    1359     1381     1405     1436     1457     1476     1497     1518 
    1540     1557     1570     1586     1605     1617     1629     1648 
    1660     1665     1675     1686     1694     1701     1710     1717 
    1721     1722     1726     1729     1729     1725     1722     1725 
    1725     1717     1711     1707     1699     1690     1682     1672 
    1661     1647     1634     1622     1605     1590     1578     1560 
    1541     1522     1499     1479     1460     1436     1410     1389 
    1362     1333     1306     1278     1247     1216     1185     1150 
    1113     1084     1050     1009      972      935      895      854 
     816      780      741      702      661      616      576      533 
     493      459      419      376      338      299      259      222 
     190      152      110       72       39        0      -35      -68 
    -102     -133     -167     -201     -230     -261     -292     -321 
    -348     -373     -400     -427     -450     -473     -496     -514 
    -535     -556     -576     -599     -618     -633     -650     -666 
    -680     -696     -710     -722     -733     -741     -751     -761 
    -770     -783     -789     -793     -799     -804     -808     -812 
    -815     -815     -814     -814     -814     -810     -805     -804 
    -803     -797     -788     -781     -777     -772     -766     -761 
    -750     -738     -730     -723     -711     -699     -687     -672 
    -657     -643     -629     -612     -595     -579     -561     -542 
    -526     -514     -495     -480     -472     -459     -442     -429 
    -421     -410     -399     -388     -375     -365     -356     -346 
    -340     -333     -324     -317     -307     -294     -283     -272 
    -263     -256     -246     -233     -222     -217     -211     -203 
    -191     -178     -170     -163     -155     -147     -141     -131 
    -120     -109      -99      -87      -74      -64      -51      -40 
     -31      -20       -5        8       22       36       51       65 
      81       95      108      124      144      160      172      190 
     209      225      240      257      275      291      306      322 
     342      363      382      398      411      425      440      454 
     476      493      510      529      549      568      584      603 
     625      643      660      681      704      726      749      773 
     797      819      841      866      895      923      942      967 
    1000     1023     1039     1063     1086     1104     1117     1131 
