Origin Time       2016/04/16 01:25:00
Lat.              32.753
Long.             130.762
Depth. (km)       12
Mag.              7.3
Station Code      AIC003
Station Lat.      35.1732
Station Long.     136.7404
Station Height(m) -2
Record Time       2016/04/16 01:28:07
Sampling Freq(Hz) 100Hz
Duration Time(s)  225
Dir.              N-S
Scale Factor      7845(gal)/8223790
Max. Acc. (gal)   4.923
Last Correction   2016/04/16 01:28:09
Memo.             
[...]
   -7715    -7846    -7784    -7716    -7835    -7886    -7815    -7831 
   -7946    -7969    -7900    -7959    -8094    -8073    -8054    -8175 
   -8237    -8229    -8303    -8410    -8440    -8449    -8548    -8650 
   -8653    -8715    -8847    -8870    -8884    -8999    -9077    -9080 
   -9124    -9240    -9282    -9246    -9336    -9440    -9414    -9459 
   -9562    -9572    -9580    -9632    -9701    -9737    -9729    -9791 
   -9861    -9836    -9877    -9956    -9938    -9977   -10050   -10029 
  -10039   -10110   -10145   -10133   -10130   -10203   -10251   -10219 
  -10254   -10316   -10314   -10349   -10404   -10400   -10399   -10451 
  -10504   -10489   -10470   -10544   -10578   -10525   -10552   -10608 
  -10570   -10558   -10617   -10625   -10569   -10578   -10646   -10619 
  -10570   -10628   -10640   -10580   -10608   -10655   -10621   -10580 
  -10625   -10671   -10611   -10589   -10678   -10662   -10584   -10650 
  -10697   -10613   -10605   -10705   -10712   -10617   -10639   -10748 
  -10705   -10635   -10706   -10728   -10667   -10685   -10729   -10701 
  -10648   -10689   -10747   -10669   -10625   -10717   -10696   -10609 
  -10660   -10685   -10617   -10615   -10658   -10644   -10573   -10582 
  -10658   -10602   -10532   -10597   -10611   -10544   -10547   -10579 
  -10558   -10520   -10550   -10570   -10482   -10465   -10546   -10496 
  -10407   -10440   -10451   -10390   -10354   -10350   -10320   -10263 
  -10262   -10250   -10149   -10118   -10143   -10072   -10003   -10000 
   -9971    -9913    -9873    -9864    -9832    -9759    -9752    -9755 
   -9667    -9643    -9683    -9616    -9543    -9566    -9570    -9497 
   -9443    -9471    -9448    -9354    -9374    -9398    -9286    -9240 
   -9293    -9254    -9154    -9143    -9175    -9108    -9016    -9054 
   -9050    -8920    -8908    -8962    -8869    -8777    -8804    -8796 
   -8687    -8635    -8687    -8631    -8499    -8522    -8543    -8417 
   -8360    -8407    -8371    -8256    -8237    -8297    -8233    -8122 
   -8170    -8193    -8085    -8078    -8139    -8081    -8014    -8059 
   -8094    -8020    -7981    -8078    -8073    -7974    -8035    -8102 
   -8023    -8012    -8095    -8100    -8048    -8073    -8139    -8117 
   -8090    -8162    -8189    -8148    -8197    -8262    -8256    -8266 
   -8324    -8378    -8380    -8398    -8497    -8538    -8530    -8618 
   -8695    -8703    -8756    -8835    -8883    -8923    -9000    -9080 
   -9094    -9142    -9266    -9306    -9322    -9425    -9494    -9528 
   -9603    -9668    -9720    -9769    -9846    -9930    -9948   -10004 
  -10121   -10145   -10177   -10296   -10359   -10389   -10474   -10579 
  -10633   -10654   -10760   -10882   -10885   -10939   -11079   -11134 
  -11171   -11277   -11360   -11396   -11445   -11556   -11635   -11630 
  -11715   -11826   -11812   -11846   -11971   -12006   -11982   -12043 
  -12144   -12147   -12108   -12193   -12272   -12221   -12243   -12337 
  -12318   -12285   -12355   -12405   -12360   -12339   -12421   -12432 
  -12345   -12391   -12459   -12378   -12341   -12403   -12395   -12328 
  -12316   -12352   -12306   -12212   -12256   -12275   -12132   -12094 
  -12155   -12078   -11965   -11965   -11969   -11874   -11788   -11803 
  -11757   -11628   -11618   -11610   -11470   -11403   -11427   -11362 
  -11241   -11198   -11207   -11130   -11007   -10991   -10974   -10858 
  -10800   -10791   -10708   -10620   -10590   -10550   -10451   -10372 
  -10362   -10287   -10176   -10160   -10104    -9979    -9942    -9918 
   -9801    -9699    -9680    -9641    -9520    -9439    -9433    -9344 
   -9234    -9216    -9159    -9058    -9016    -8969    -8883    -8807 
   -8780    -8754    -8626    -8543    -8577    -8497    -8359    -8361 
   -8359    -8243    -8168    -8174    -8118    -7993    -7967    -7996 
   -7881    -7767    -7809    -7788    -7639    -7595    -7638    -7573 
   -7464    -7474    -7481    -7362    -7322    -7384    -7319    -7222 
   -7267    -7292    -7209    -7183    -7252    -7238    -7142    -7168 
   -7252    -7202    -7175    -7280    -7310    -7260    -7302    -7392 
   -7396    -7375    -7464    -7550    -7514    -7547    -7668    -7661 
   -7646    -7755    -7817    -7805    -7857    -7950    -7986    -7977 
   -8052    -8160    -8152    -8175    -8297    -8336    -8341    -8424 
   -8510    -8540    -8565    -8653    -8721    -8721    -8789    -8877 
   -8884    -8926    -9016    -9058    -9084    -9146    -9211    -9228 
   -9248    -9335    -9385    -9371    -9418    -9479    -9486    -9517 
   -9556    -9589    -9632    -9655    -9679    -9694    -9711    -9780 
   -9786    -9740    -9809    -9875    -9836    -9833    -9884    -9898 
   -9875    -9883    -9936    -9919    -9884    -9954    -9958    -9872 
   -9913    -9987    -9930    -9883    -9930    -9963    -9909    -9891 
   -9957    -9931    -9864    -9921    -9952    -9883    -9883    -9952 
   -9941    -9877    -9923   -10004    -9918    -9865    -9991    -9987 
   -9871    -9927   -10008    -9942    -9892    -9963   -10006    -9926 
   -9918   -10018    -9968    -9879    -9967   -10010    -9910    -9899 
   -9984    -9975    -9882    -9900    -9981    -9913    -9852    -9949 
   -9945    -9826    -9850    -9926    -9872    -9792    -9832    -9883 
   -9810    -9779    -9841    -9791    -9718    -9767    -9778    -9701 
   -9670    -9713    -9721    -9648    -9634    -9682    -9636    -9594 
   -9633    -9613    -9560    -9583    -9607    -9568    -9539    -9578 
   -9591    -9525    -9533    -9589    -9541    -9510    -9567    -9574 
   -9518    -9513    -9556    -9560    -9524    -9540    -9562    -9517 
   -9529    -9568    -9526    -9524    -9563    -9544    -9514    -9522 
   -9548    -9528    -9483    -9529    -9551    -9477    -9486    -9528 
   -9482    -9471    -9512    -9497    -9452    -9451    -9483    -9447 
   -9387    -9444    -9454    -9352    -9363    -9413    -9337    -9285 
   -9321    -9319    -9223    -9165    -9205    -9163    -9050    -9054 
   -9053    -8953    -8903    -8908    -8849    -8738    -8715    -8742 
   -8626    -8500    -8542    -8505    -8352    -8338    -8365    -8262 
   -8160    -8170    -8156    -8019    -7962    -8027    -7946    -7813 
   -7838    -7840    -7736    -7677    -7685    -7657    -7569    -7557 
   -7596    -7507    -7406    -7462    -7466    -7352    -7330    -7369 
   -7322    -7261    -7276    -7283    -7217    -7206    -7250    -7198 
   -7141    -7180    -7171    -7107    -7118    -7160    -7152    -7110 
   -7127    -7179    -7144    -7122    -7187    -7190    -7175    -7236 
   -7269    -7261    -7285    -7350    -7393    -7381    -7427    -7519 
   -7526    -7553    -7646    -7677    -7697    -7784    -7838    -7840 
   -7901    -8024    -8073    -8068    -8176    -8293    -8281    -8343 
   -8480    -8519    -8545    -8662    -8769    -8787    -8834    -8993 
   -9069    -9053    -9186    -9328    -9315    -9382    -9537    -9598 
   -9629    -9724    -9847    -9899    -9917   -10054   -10172   -10139 
  -10218   -10396   -10416   -10409   -10531   -10631   -10613   -10636 
  -10783   -10820   -10747   -10843   -10957   -10905   -10895   -10986 
  -11017   -10979   -10994   -11075   -11041   -10956   -11044   -11080 
  -10945   -10945   -11025   -10944   -10851   -10878   -10881   -10774 
  -10706   -10729   -10669   -10547   -10523   -10498   -10386   -10299 
  -10289   -10239   -10098   -10021   -10035    -9937    -9792    -9796 
   -9769    -9618    -9560    -9562    -9467    -9371    -9346    -9304 
   -9200    -9143    -9151    -9069    -8961    -8958    -8939    -8854 
   -8814    -8789    -8731    -8677    -8658    -8644    -8579    -8522 
   -8517    -8486    -8441    -8441    -8406    -8352    -8348    -8347 
   -8309    -8259    -8260    -8272    -8208    -8181    -8213    -8152 
   -8100    -8144    -8127    -8048    -8039    -8046    -7998    -7951 
   -7954    -7925    -7831    -7807    -7827    -7743    -7652    -7655 
   -7634    -7528    -7458    -7468    -7411    -7271    -7248    -7275 
   -7149    -7038    -7071    -7036    -6905    -6866    -6889    -6806 
   -6702    -6739    -6735    -6598    -6597    -6669    -6574    -6492 
   -6547    -6579    -6509    -6465    -6547    -6561    -6462    -6509 
   -6600    -6528    -6509    -6612    -6620    -6563    -6606    -6698 
   -6687    -6650    -6732    -6782    -6725    -6772    -6868    -6831 
   -6806    -6881    -6934    -6899    -6889    -6972    -6983    -6924 
   -6985    -7038    -6972    -6980    -7056    -7048    -7001    -7021 
   -7076    -7055    -7011    -7063    -7092    -7033    -7045    -7099 
   -7061    -7036    -7088    -7098    -7052    -7065    -7115    -7086 
   -7064    -7132    -7146    -7117    -7168    -7218    -7210    -7227 
   -7300    -7358    -7357    -7406    -7515    -7538    -7558    -7689 
   -7765    -7789    -7888    -7998    -8071    -8132    -8244    -8376 
   -8410    -8487    -8668    -8729    -8768    -8949    -9071    -9100 
   -9207    -9370    -9459    -9493    -9622    -9787    -9821    -9888 
  -10071   -10149   -10177   -10322   -10461   -10504   -10558   -10705 
  -10825   -10841   -10936   -11080   -11102   -11153   -11294   -11338 
  -11341   -11442   -11554   -11553   -11535   -11645   -11722   -11651 
  -11669   -11789   -11772   -11716   -11769   -11808   -11770   -11735 
  -11757   -11757   -11693   -11693   -11712   -11630   -11587   -11626 
  -11589   -11488   -11468   -11476   -11391   -11307   -11323   -11287 
  -11160   -11136   -11153   -11053   -10955   -10943   -10925   -10839 
  -10744   -10739   -10704   -10584   -10558   -10552   -10454   -10413 
  -10396   -10319   -10280   -10253   -10197   -10147   -10106   -10095 
  -10052    -9957    -9948    -9949    -9859    -9826    -9832    -9756 
   -9697    -9701    -9678    -9593    -9532    -9539    -9481    -9391 
   -9394    -9355    -9254    -9234    -9221    -9123    -9042    -9032 
   -9007    -8889    -8814    -8845    -8781    -8650    -8653    -8652 
   -8542    -8480    -8483    -8446    -8348    -8313    -8367    -8298 
   -8187    -8236    -8245    -8144    -8139    -8181    -8127    -8062 
   -8101    -8127    -8040    -8020    -8110    -8082    -7998    -8059 
   -8101    -8027    -8021    -8109    -8132    -8070    -8106    -8208 
   -8167    -8149    -8280    -8309    -8248    -8318    -8434    -8434 
   -8401    -8499    -8617    -8583    -8602    -8743    -8768    -8754 
   -8862    -8931    -8926    -8978    -9084    -9131    -9109    -9178 
   -9316    -9315    -9301    -9429    -9495    -9475    -9540    -9629 
   -9643    -9649    -9733    -9810    -9799    -9837    -9933    -9944 
   -9960   -10048   -10091   -10087   -10112   -10193   -10239   -10220 
  -10272   -10349   -10341   -10369   -10434   -10426   -10438   -10496 
  -10519   -10523   -10535   -10594   -10631   -10586   -10620   -10698 
  -10675   -10697   -10762   -10739   -10737   -10810   -10839   -10806 
  -10821   -10901   -10893   -10854   -10930   -10976   -10926   -10949 
  -11013   -11002   -10982   -11026   -11075   -11036   -11024   -11121 
  -11125   -11041   -11099   -11183   -11130   -11101   -11169   -11202 
  -11137   -11126   -11200   -11165   -11095   -11159   -11178   -11094 
  -11092   -11145   -11102   -11026   -11048   -11076   -10991   -10935 
  -10984   -10949   -10848   -10868   -10887   -10787   -10732   -10755 
  -10709   -10600   -10577   -10600   -10509   -10411   -10423   -10392 
  -10277   -10234   -10224   -10135   -10045   -10046   -10025    -9896 
   -9834    -9861    -9787    -9680    -9678    -9653    -9558    -9502 
   -9497    -9456    -9354    -9319    -9331    -9246    -9180    -9196 
   -9135    -9059    -9065    -9040    -8970    -8935    -8938    -8912 
   -8847    -8838    -8861    -8803    -8762    -8802    -8781    -8734 
   -8766    -8802    -8765    -8731    -8781    -8810    -8760    -8776 
   -8823    -8791    -8792    -8850    -8853    -8833    -8849    -8896 
   -8907    -8877    -8931    -8972    -8908    -8937    -9027    -8986 
   -8964    -9040    -9061    -9013    -9016    -9078    -9073    -9019 
   -9078    -9124    -9047    -9055    -9136    -9112    -9061    -9097 
   -9144    -9103    -9074    -9146    -9150    -9066    -9096    -9171 
   -9121    -9059    -9112    -9147    -9065    -9038    -9121    -9084 
   -8988    -9059    -9085    -8969    -8970    -9045    -8993    -8911 
   -8935    -8984    -8915    -8856    -8939    -8957    -8856    -8884 
   -8961    -8918    -8889    -8938    -8968    -8942    -8945    -9016 
   -9015    -8978    -9053    -9094    -9049    -9084    -9163    -9170 
   -9153    -9207    -9271    -9261    -9277    -9364    -9387    -9388 
   -9466    -9514    -9530    -9575    -9634    -9695    -9718    -9749 
   -9847    -9896    -9922   -10019   -10080   -10106   -10196   -10278 
  -10312   -10388   -10492   -10551   -10592   -10689   -10788   -10827 
  -10901   -11017   -11071   -11119   -11226   -11322   -11376   -11433 
  -11527   -11605   -11643   -11729   -11820   -11842   -11914   -12035 
  -12071   -12102   -12206   -12294   -12314   -12349   -12468   -12548 
  -12541   -12627   -12760   -12756   -12789   -12926   -12972   -12974 
  -13066   -13172   -13198   -13204   -13314   -13419   -13398   -13440 
  -13581   -13610   -13597   -13690   -13782   -13778   -13806   -13933 
  -13976   -13941   -14033   -14138   -14106   -14129   -14241   -14260 
  -14230   -14288   -14377   -14366   -14338   -14430   -14481   -14413 
  -14438   -14512   -14480   -14445   -14485   -14500   -14449   -14423 
  -14458   -14430   -14342   -14358   -14384   -14274   -14210   -14230 
  -14161   -14058   -14018   -13986   -13899   -13795   -13753   -13697 
  -13568   -13478   -13416   -13300   -13190   -13111   -13008   -12870 
  -12754   -12676   -12545   -12387   -12302   -12185   -12009   -11898 
  -11786   -11616   -11473   -11350   -11217   -11049   -10890   -10787 
  -10625   -10428   -10327   -10197    -9992    -9855    -9741    -9567 
   -9396    -9270    -9140    -8953    -8793    -8698    -8536    -8360 
   -8267    -8124    -7924    -7781    -7661    -7501    -7340    -7253 
   -7168    -6979    -6821    -6763    -6635    -6455    -6361    -6290 
   -6156    -6025    -5962    -5873    -5709    -5626    -5606    -5463 
   -5324    -5317    -5259    -5124    -5053    -5026    -4935    -4831 
   -4846    -4847    -4689    -4608    -4665    -4623    -4533    -4535 
   -4534    -4480    -4467    -4499    -4467    -4392    -4430    -4494 
   -4434    -4407    -4480    -4492    -4456    -4480    -4552    -4568 
   -4535    -4602    -4683    -4645    -4679    -4797    -4803    -4800 
   -4893    -4973    -4989    -5015    -5111    -5196    -5194    -5255 
   -5375    -5408    -5437    -5536    -5606    -5641    -5707    -5792 
   -5833    -5868    -5971    -6026    -6026    -6110    -6193    -6197 
   -6242    -6326    -6361    -6376    -6427    -6493    -6515    -6535 
   -6609    -6646    -6647    -6713    -6770    -6781    -6821    -6886 
   -6934    -6949    -6994    -7084    -7106    -7113    -7218    -7273 
   -7257    -7337    -7433    -7438    -7474    -7581    -7643    -7652 
   -7730    -7842    -7870    -7901    -8028    -8113    -8124    -8206 
   -8340    -8394    -8410    -8533    -8664    -8671    -8734    -8892 
   -8943    -8969    -9092    -9193    -9217    -9266    -9388    -9464 
   -9443    -9525    -9680    -9653    -9636    -9795    -9849    -9795 
   -9861    -9963    -9953    -9918    -9977   -10048    -9999    -9973 
  -10049   -10041    -9975   -10004   -10025    -9950    -9922    -9977 
   -9942    -9830    -9841    -9883    -9783    -9720    -9764    -9732 
   -9645    -9628    -9641    -9596    -9518    -9526    -9539    -9452 
   -9429    -9466    -9400    -9350    -9387    -9377    -9317    -9305 
   -9340    -9339    -9278    -9289    -9337    -9298    -9293    -9354 
   -9350    -9335    -9367    -9404    -9416    -9421    -9471    -9513 
   -9514    -9563    -9613    -9603    -9643    -9710    -9715    -9728 
   -9782    -9826    -9833    -9837    -9898    -9925    -9904    -9960 
   -9995    -9960    -9992   -10045   -10045   -10044   -10066   -10100 
  -10088   -10064   -10118   -10137   -10088   -10118   -10154   -10110 
  -10103   -10146   -10152   -10112   -10108   -10170   -10152   -10085 
  -10145   -10172   -10092   -10114   -10179   -10137   -10088   -10137 
  -10179   -10119   -10096   -10174   -10173   -10107   -10142   -10195 
  -10153   -10135   -10187   -10203   -10156   -10166   -10234   -10200 
  -10154   -10233   -10251   -10181   -10204   -10255   -10222   -10185 
  -10220   -10247   -10189   -10169   -10227   -10191   -10123   -10174 
  -10181   -10099   -10091   -10116   -10080   -10025   -10022   -10037 
   -9972    -9923    -9953    -9915    -9840    -9837    -9833    -9778 
   -9726    -9728    -9710    -9629    -9610    -9624    -9545    -9502 
   -9533    -9483    -9405    -9401    -9394    -9346    -9290    -9278 
   -9271    -9202    -9177    -9194    -9127    -9084    -9104    -9059 
   -9013    -9015    -8991    -8942    -8915    -8928    -8915    -8838 
   -8830    -8858    -8787    -8739    -8779    -8758    -8683    -8675 
   -8704    -8646    -8565    -8607    -8614    -8500    -8480    -8529 
   -8469    -8391    -8406    -8417    -8326    -8271    -8328    -8291 
   -8166    -8174    -8201    -8106    -8052    -8067    -8033    -7956 
   -7911    -7929    -7892    -7784    -7797    -7817    -7696    -7663 
   -7732    -7674    -7584    -7624    -7661    -7576    -7538    -7619 
   -7614    -7527    -7574    -7649    -7603    -7588    -7666    -7704 
   -7677    -7713    -7813    -7816    -7796    -7911    -7979    -7952 
   -8024    -8132    -8162    -8181    -8257    -8360    -8390    -8414 
   -8527    -8590    -8596    -8688    -8784    -8795    -8827    -8914 
   -8977    -8996    -9036    -9108    -9128    -9140    -9207    -9220 
   -9205    -9254    -9286    -9267    -9269    -9305    -9309    -9266 
   -9271    -9292    -9242    -9228    -9244    -9186    -9151    -9162 
   -9126    -9074    -9043    -9028    -8997    -8919    -8907    -8920 
   -8829    -8787    -8815    -8749    -8683    -8694    -8681    -8623 
   -8577    -8587    -8576    -8505    -8513    -8542    -8456    -8421 
   -8490    -8469    -8390    -8387    -8428    -8398    -8337    -8380 
   -8394    -8286    -8305    -8395    -8324    -8243    -8295    -8341 
   -8271    -8222    -8303    -8303    -8201    -8245    -8303    -8217 
   -8197    -8264    -8244    -8179    -8198    -8263    -8212    -8133 
   -8215    -8247    -8132    -8158    -8253    -8187    -8127    -8197 
   -8247    -8187    -8164    -8252    -8264    -8201    -8259    -8333 
   -8289    -8293    -8398    -8434    -8390    -8444    -8559    -8545 
   -8526    -8652    -8711    -8677    -8756    -8866    -8876    -8891 
   -9001    -9092    -9085    -9135    -9263    -9305    -9327    -9427 
   -9494    -9530    -9613    -9698    -9745    -9782    -9863    -9964 
   -9989   -10019   -10130   -10179   -10196   -10296   -10354   -10370 
  -10455   -10528   -10547   -10582   -10655   -10712   -10729   -10787 
  -10867   -10872   -10908   -11005   -11036   -11037   -11094   -11164 
  -11187   -11184   -11244   -11313   -11275   -11280   -11394   -11402 
  -11354   -11403   -11457   -11439   -11434   -11488   -11495   -11433 
