Origin Time       2016/04/16 01:25:00
Lat.              32.753
Long.             130.762
Depth. (km)       12
Mag.              7.3
Station Code      AIC012
Station Lat.      34.9119
Station Long.     137.0447
Station Height(m) 6
Record Time       2016/04/16 01:28:12
Sampling Freq(Hz) 100Hz
Duration Time(s)  60
Dir.              N-S
Scale Factor      7845(gal)/8223790
Max. Acc. (gal)   3.062
Last Correction   2016/04/16 01:28:14
Memo.             
[...]
   -8081    -8071    -8066    -8055    -8044    -8035    -8027    -8031 
   -8032    -8014    -8012    -8028    -8016    -7990    -7997    -8014 
   -8002    -7977    -7978    -7994    -7987    -7973    -7974    -7983 
   -7974    -7956    -7948    -7960    -7967    -7950    -7938    -7948 
   -7954    -7936    -7931    -7944    -7936    -7917    -7913    -7912 
   -7900    -7882    -7867    -7870    -7875    -7860    -7838    -7832 
   -7847    -7863    -7852    -7836    -7842    -7834    -7808    -7804 
   -7805    -7803    -7796    -7767    -7758    -7778    -7756    -7712 
   -7716    -7739    -7731    -7709    -7701    -7704    -7703    -7701 
   -7709    -7726    -7726    -7713    -7711    -7713    -7707    -7700 
   -7700    -7703    -7703    -7697    -7699    -7712    -7722    -7726 
   -7728    -7726    -7723    -7735    -7758    -7774    -7776    -7774 
   -7782    -7794    -7805    -7805    -7793    -7785    -7781    -7769 
   -7756    -7765    -7781    -7781    -7781    -7804    -7823    -7815 
   -7804    -7820    -7836    -7825    -7820    -7839    -7854    -7854 
   -7855    -7863    -7869    -7865    -7862    -7874    -7884    -7875 
   -7867    -7882    -7901    -7900    -7900    -7909    -7911    -7896 
   -7893    -7903    -7905    -7903    -7905    -7902    -7898    -7893 
   -7888    -7896    -7900    -7892    -7884    -7870    -7854    -7855 
   -7862    -7854    -7855    -7858    -7839    -7832    -7838    -7831 
   -7823    -7817    -7815    -7823    -7820    -7809    -7815    -7821 
   -7824    -7832    -7836    -7838    -7851    -7859    -7855    -7854 
   -7871    -7898    -7915    -7917    -7919    -7929    -7943    -7951 
   -7966    -7987    -7994    -7996    -8009    -8027    -8040    -8063 
   -8068    -8055    -8064    -8093    -8104    -8102    -8109    -8129 
   -8144    -8149    -8166    -8191    -8205    -8213    -8221    -8230 
   -8248    -8260    -8268    -8281    -8281    -8280    -8302    -8318 
   -8313    -8313    -8324    -8330    -8329    -8341    -8352    -8333 
   -8306    -8298    -8290    -8274    -8276    -8290    -8278    -8251 
   -8236    -8229    -8220    -8212    -8214    -8217    -8186    -8144 
   -8139    -8139    -8105    -8078    -8091    -8087    -8043    -8012 
   -8021    -8016    -7974    -7954    -7962    -7951    -7909    -7879 
   -7884    -7885    -7859    -7842    -7838    -7823    -7803    -7794 
   -7793    -7792    -7782    -7773    -7777    -7781    -7789    -7816 
   -7831    -7823    -7819    -7827    -7831    -7834    -7848    -7870 
   -7879    -7886    -7902    -7916    -7919    -7931    -7959    -7977 
   -7978    -7982    -7997    -8014    -8029    -8047    -8077    -8100 
   -8091    -8086    -8109    -8110    -8086    -8085    -8104    -8102 
   -8073    -8062    -8087    -8091    -8059    -8044    -8047    -8035 
   -8021    -8017    -8019    -8012    -8002    -7998    -7987    -7973 
   -7962    -7948    -7936    -7935    -7927    -7898    -7878    -7881 
   -7875    -7855    -7844    -7840    -7821    -7796    -7780    -7769 
   -7743    -7716    -7709    -7708    -7688    -7655    -7638    -7634 
   -7616    -7603    -7609    -7608    -7588    -7577    -7592    -7604 
   -7597    -7600    -7623    -7641    -7647    -7655    -7669    -7689 
   -7705    -7723    -7747    -7769    -7789    -7813    -7819    -7832 
   -7865    -7879    -7881    -7898    -7920    -7942    -7956    -7971 
   -7994    -8007    -8005    -8000    -8009    -8031    -8043    -8044 
   -8058    -8066    -8063    -8075    -8093    -8089    -8075    -8068 
   -8071    -8083    -8089    -8078    -8071    -8081    -8086    -8082 
   -8078    -8082    -8090    -8089    -8078    -8075    -8068    -8052 
   -8040    -8052    -8060    -8031    -7994    -7994    -8010    -8001 
   -7978    -7983    -8014    -8020    -7986    -7969    -7983    -7986 
   -7969    -7971    -7981    -7979    -7969    -7950    -7940    -7947 
   -7939    -7938    -7962    -7967    -7942    -7929    -7929    -7917 
   -7902    -7901    -7894    -7878    -7889    -7919    -7927    -7912 
   -7896    -7888    -7879    -7870    -7870    -7871    -7863    -7857 
   -7862    -7870    -7862    -7847    -7852    -7860    -7838    -7827 
   -7851    -7858    -7851    -7858    -7851    -7846    -7869    -7870 
   -7851    -7869    -7897    -7892    -7874    -7884    -7919    -7931 
   -7917    -7925    -7955    -7963    -7956    -7971    -7990    -7987 
   -7973    -7974    -7985    -7997    -8005    -7997    -7985    -7990 
   -8004    -8000    -7994    -8002    -8012    -8024    -8035    -8048 
   -8059    -8055    -8046    -8048    -8056    -8052    -8037    -8028 
   -8024    -8028    -8044    -8055    -8051    -8048    -8051    -8044 
   -8033    -8035    -8047    -8051    -8035    -8021    -8021    -8033 
   -8032    -8010    -8009    -8023    -8004    -7985    -8002    -8014 
   -7994    -7981    -7990    -8002    -7997    -7992    -7998    -8005 
   -7998    -7985    -7992    -8004    -7996    -7989    -7998    -8007 
   -8006    -8004    -8001    -7996    -7998    -8009    -8009    -8006 
   -8017    -8025    -8010    -8004    -8020    -8035    -8044    -8050 
   -8052    -8058    -8051    -8040    -8052    -8063    -8067    -8081 
   -8068    -8040    -8044    -8048    -8033    -8028    -8028    -8021 
   -8021    -8027    -8017    -7997    -7997    -8014    -8020    -8010 
   -8004    -8006    -8009    -8007    -8014    -8037    -8047    -8035 
   -8032    -8040    -8056    -8063    -8063    -8067    -8078    -8086 
   -8093    -8111    -8137    -8139    -8118    -8113    -8137    -8147 
   -8122    -8106    -8117    -8121    -8109    -8113    -8127    -8114 
   -8094    -8086    -8085    -8086    -8082    -8077    -8082    -8073 
   -8055    -8056    -8062    -8044    -8024    -8031    -8050    -8046 
   -8014    -7992    -7993    -7996    -7973    -7950    -7954    -7943 
   -7896    -7869    -7874    -7865    -7842    -7831    -7821    -7793 
   -7777    -7793    -7796    -7766    -7753    -7763    -7756    -7730 
   -7716    -7715    -7699    -7681    -7685    -7689    -7673    -7657 
   -7649    -7635    -7618    -7605    -7605    -7614    -7611    -7593 
   -7595    -7607    -7596    -7599    -7618    -7614    -7611    -7619 
   -7632    -7635    -7634    -7650    -7685    -7696    -7685    -7690 
   -7707    -7719    -7742    -7773    -7789    -7781    -7782    -7808 
   -7834    -7844    -7844    -7848    -7869    -7888    -7879    -7875 
   -7897    -7917    -7916    -7919    -7935    -7940    -7931    -7929 
   -7942    -7959    -7974    -7981    -7983    -7985    -7985    -7998 
   -8023    -8032    -8029    -8021    -8010    -8007    -8020    -8023 
   -8012    -8007    -8010    -8002    -8004    -8027    -8040    -8040 
   -8035    -8031    -8031    -8037    -8035    -8032    -8050    -8071 
   -8075    -8067    -8071    -8098    -8118    -8121    -8132    -8156 
   -8171    -8172    -8197    -8236    -8244    -8237    -8253    -8279 
   -8289    -8291    -8313    -8340    -8349    -8359    -8375    -8385 
   -8398    -8403    -8401    -8417    -8430    -8414    -8406    -8418 
   -8428    -8434    -8437    -8428    -8424    -8426    -8413    -8407 
   -8410    -8413    -8410    -8394    -8379    -8383    -8382    -8368 
   -8363    -8352    -8330    -8303    -8290    -8284    -8272    -8252 
   -8229    -8209    -8193    -8170    -8139    -8114    -8094    -8064 
   -8028    -8006    -7985    -7940    -7898    -7886    -7870    -7824 
   -7785    -7767    -7735    -7682    -7646    -7626    -7604    -7572 
   -7541    -7508    -7476    -7446    -7416    -7388    -7366    -7346 
   -7307    -7269    -7256    -7240    -7202    -7175    -7160    -7130 
   -7091    -7068    -7051    -7022    -6993    -6974    -6963    -6948 
   -6926    -6907    -6890    -6868    -6848    -6833    -6820    -6804 
   -6789    -6786    -6782    -6777    -6781    -6785    -6772    -6768 
   -6779    -6775    -6760    -6764    -6777    -6775    -6768    -6762 
   -6752    -6747    -6737    -6718    -6713    -6713    -6689    -6666 
   -6663    -6652    -6632    -6621    -6605    -6585    -6571    -6548 
   -6527    -6515    -6490    -6470    -6457    -6439    -6420    -6407 
   -6393    -6381    -6366    -6345    -6331    -6328    -6315    -6297 
   -6305    -6323    -6323    -6313    -6313    -6331    -6340    -6331 
   -6345    -6388    -6409    -6408    -6421    -6462    -6512    -6540 
   -6564    -6604    -6643    -6681    -6721    -6760    -6809    -6867 
   -6912    -6947    -7002    -7055    -7094    -7149    -7207    -7250 
   -7287    -7321    -7375    -7443    -7488    -7519    -7574    -7636 
   -7672    -7701    -7755    -7811    -7855    -7902    -7956    -8006 
   -8046    -8078    -8122    -8181    -8230    -8259    -8284    -8328 
   -8368    -8391    -8421    -8463    -8494    -8515    -8545    -8581 
   -8604    -8619    -8654    -8696    -8718    -8739    -8773    -8803 
   -8819    -8849    -8896    -8926    -8928    -8953    -9001    -9032 
   -9061    -9101    -9132    -9165    -9204    -9220    -9239    -9285 
   -9320    -9344    -9383    -9429    -9467    -9493    -9520    -9558 
   -9594    -9614    -9633    -9664    -9695    -9721    -9751    -9782 
   -9807    -9828    -9844    -9868    -9896    -9917    -9927    -9938 
   -9957    -9973    -9973    -9975    -9995   -10011   -10008   -10007 
  -10015   -10021   -10007    -9984    -9979    -9976    -9952    -9927 
   -9919    -9906    -9880    -9865    -9863    -9847    -9813    -9779 
   -9752    -9722    -9694    -9672    -9643    -9610    -9586    -9563 
   -9539    -9514    -9483    -9462    -9439    -9404    -9386    -9385 
   -9359    -9321    -9302    -9281    -9246    -9212    -9184    -9154 
   -9116    -9067    -9024    -9000    -8969    -8914    -8868    -8835 
   -8787    -8734    -8695    -8657    -8599    -8532    -8476    -8424 
   -8355    -8280    -8213    -8151    -8077    -7994    -7927    -7871 
   -7792    -7705    -7645    -7580    -7500    -7441    -7388    -7317 
   -7245    -7183    -7118    -7051    -6984    -6922    -6866    -6805 
   -6743    -6687    -6628    -6563    -6512    -6467    -6408    -6349 
   -6304    -6255    -6201    -6154    -6114    -6073    -6039    -6006 
   -5967    -5922    -5881    -5846    -5814    -5780    -5755    -5738 
   -5715    -5680    -5652    -5640    -5623    -5584    -5555    -5560 
   -5545    -5501    -5481    -5494    -5495    -5479    -5468    -5470 
   -5470    -5455    -5440    -5448    -5466    -5467    -5468    -5485 
   -5499    -5503    -5503    -5513    -5539    -5552    -5560    -5585 
   -5622    -5647    -5668    -5701    -5745    -5780    -5802    -5833 
   -5877    -5919    -5953    -5989    -6042    -6091    -6122    -6162 
   -6218    -6261    -6297    -6346    -6393    -6430    -6465    -6517 
   -6569    -6613    -6664    -6729    -6779    -6812    -6860    -6926 
   -6987    -7025    -7069    -7146    -7215    -7261    -7326    -7402 
   -7464    -7530    -7599    -7666    -7744    -7812    -7881    -7973 
   -8055    -8124    -8199    -8278    -8363    -8456    -8543    -8615 
   -8683    -8760    -8846    -8927    -8997    -9078    -9169    -9236 
   -9286    -9355    -9441    -9512    -9563    -9617    -9672    -9724 
   -9774    -9832    -9894    -9942    -9983   -10033   -10087   -10127 
  -10161   -10207   -10260   -10296   -10329   -10380   -10430   -10459 
  -10484   -10513   -10547   -10588   -10620   -10643   -10667   -10693 
  -10720   -10743   -10771   -10795   -10790   -10787   -10801   -10801 
  -10793   -10798   -10801   -10791   -10777   -10758   -10746   -10736 
  -10712   -10682   -10660   -10628   -10585   -10547   -10513   -10477 
  -10450   -10416   -10362   -10314   -10276   -10223   -10169   -10127 
  -10077   -10015    -9957    -9906    -9856    -9798    -9732    -9664 
   -9590    -9521    -9452    -9377    -9310    -9244    -9170    -9112 
   -9055    -8974    -8899    -8830    -8745    -8662    -8595    -8523 
   -8446    -8365    -8294    -8226    -8151    -8077    -8009    -7933 
   -7848    -7773    -7707    -7630    -7548    -7479    -7418    -7349 
   -7261    -7180    -7115    -7044    -6966    -6893    -6824    -6758 
   -6696    -6635    -6577    -6521    -6463    -6396    -6339    -6301 
   -6254    -6191    -6134    -6085    -6035    -5987    -5946    -5914 
   -5875    -5826    -5790    -5768    -5741    -5698    -5659    -5644 
   -5625    -5584    -5562    -5552    -5528    -5494    -5486    -5491 
   -5478    -5452    -5448    -5458    -5451    -5443    -5441    -5445 
   -5459    -5460    -5454    -5468    -5501    -5518    -5521    -5536 
   -5568    -5595    -5617    -5644    -5678    -5710    -5742    -5778 
   -5814    -5853    -5894    -5930    -5968    -6018    -6068    -6115 
   -6165    -6210    -6261    -6327    -6380    -6420    -6482    -6548 
   -6598    -6654    -6708    -6762    -6829    -6889    -6934    -6990 
   -7055    -7115    -7165    -7218    -7300    -7373    -7418    -7482 
   -7569    -7634    -7685    -7756    -7834    -7897    -7954    -8028 
   -8117    -8201    -8272    -8344    -8424    -8510    -8579    -8650 
   -8742    -8833    -8896    -8978    -9092    -9185    -9254    -9342 
   -9440    -9517    -9593    -9679    -9760    -9837    -9913    -9989 
  -10080   -10156   -10214   -10293   -10377   -10432   -10485   -10559 
  -10632   -10686   -10732   -10783   -10836   -10879   -10910   -10948 
  -10999   -11033   -11044   -11062   -11101   -11128   -11134   -11144 
  -11159   -11167   -11165   -11163   -11169   -11176   -11159   -11126 
  -11109   -11099   -11079   -11053   -11037   -11011   -10963   -10925 
  -10895   -10852   -10810   -10768   -10709   -10652   -10600   -10535 
  -10482   -10443   -10381   -10301   -10238   -10177   -10107   -10044 
   -9977    -9899    -9834    -9765    -9680    -9607    -9536    -9451 
   -9364    -9285    -9212    -9134    -9049    -8970    -8896    -8812 
   -8725    -8654    -8584    -8502    -8421    -8341    -8263    -8189 
   -8109    -8032    -7960    -7885    -7803    -7720    -7646    -7581 
   -7506    -7425    -7346    -7267    -7194    -7132    -7065    -6988 
   -6914    -6845    -6775    -6706    -6639    -6569    -6496    -6423 
   -6354    -6297    -6238    -6161    -6097    -6054    -5991    -5914 
   -5859    -5814    -5756    -5694    -5645    -5613    -5578    -5529 
   -5485    -5459    -5435    -5397    -5368    -5350    -5333    -5324 
   -5317    -5304    -5290    -5293    -5305    -5308    -5312    -5333 
   -5350    -5346    -5354    -5394    -5440    -5462    -5487    -5535 
   -5574    -5595    -5629    -5675    -5713    -5745    -5792    -5849 
   -5898    -5948    -6011    -6073    -6134    -6197    -6255    -6327 
   -6405    -6460    -6513    -6602    -6689    -6754    -6831    -6914 
   -6985    -7060    -7140    -7219    -7299    -7377    -7449    -7528 
   -7619    -7708    -7792    -7870    -7946    -8024    -8095    -8164 
   -8241    -8324    -8408    -8487    -8553    -8625    -8702    -8761 
   -8816    -8889    -8962    -9013    -9059    -9127    -9196    -9242 
   -9286    -9347    -9410    -9448    -9478    -9526    -9574    -9599 
   -9628    -9672    -9707    -9726    -9745    -9771    -9795    -9807 
   -9821    -9837    -9853    -9860    -9860    -9869    -9894    -9913 
   -9913    -9915    -9930    -9936    -9929    -9938    -9960    -9964 
   -9960    -9971    -9987    -9994    -9999   -10006   -10010   -10014 
  -10021   -10025   -10022   -10022   -10031   -10034   -10033   -10037 
  -10045   -10045   -10033   -10018   -10012   -10000    -9983    -9969 
   -9958    -9948    -9934    -9921    -9904    -9877    -9856    -9830 
   -9790    -9761    -9742    -9711    -9690    -9667    -9621    -9589 
   -9568    -9535    -9501    -9471    -9431    -9381    -9333    -9302 
   -9274    -9234    -9190    -9153    -9116    -9069    -9022    -8988 
   -8949    -8893    -8841    -8803    -8760    -8704    -8655    -8615 
   -8557    -8494    -8453    -8410    -8348    -8290    -8240    -8193 
   -8147    -8093    -8037    -7993    -7946    -7889    -7834    -7784 
   -7732    -7685    -7645    -7608    -7572    -7538    -7510    -7477 
   -7444    -7429    -7415    -7378    -7346    -7345    -7338    -7307 
   -7291    -7302    -7307    -7287    -7268    -7260    -7249    -7236 
   -7230    -7221    -7210    -7203    -7192    -7176    -7172    -7169 
   -7146    -7123    -7114    -7099    -7079    -7067    -7056    -7037 
   -7015    -6999    -6984    -6964    -6941    -6925    -6914    -6886 
   -6855    -6848    -6845    -6831    -6820    -6804    -6781    -6771 
   -6766    -6748    -6747    -6752    -6724    -6710    -6739    -6741 
   -6716    -6711    -6723    -6727    -6718    -6714    -6735    -6744 
   -6739    -6751    -6777    -6787    -6795    -6824    -6862    -6886 
   -6894    -6916    -6960    -6990    -7013    -7052    -7094    -7126 
   -7157    -7191    -7229    -7264    -7302    -7350    -7402    -7450 
   -7500    -7557    -7614    -7673    -7734    -7789    -7843    -7902 
   -7958    -8006    -8070    -8139    -8197    -8253    -8318    -8376 
   -8433    -8490    -8543    -8591    -8634    -8683    -8739    -8792 
   -8838    -8885    -8939    -8991    -9019    -9045    -9090    -9131 
   -9158    -9197    -9238    -9267    -9297    -9335    -9375    -9398 
   -9414    -9445    -9481    -9501    -9514    -9540    -9571    -9585 
   -9601    -9634    -9647    -9641    -9655    -9672    -9667    -9664 
   -9674    -9684    -9693    -9694    -9688    -9693    -9698    -9687 
   -9680    -9683    -9666    -9643    -9633    -9621    -9616    -9620 
   -9599    -9572    -9560    -9533    -9512    -9506    -9486    -9458 
   -9435    -9402    -9374    -9352    -9322    -9285    -9258    -9225 
   -9180    -9139    -9107    -9065    -9009    -8961    -8920    -8870 
   -8811    -8753    -8688    -8621    -8561    -8513    -8451    -8378 
   -8309    -8248    -8190    -8132    -8077    -8023    -7969    -7908 
   -7834    -7767    -7723    -7677    -7623    -7573    -7527    -7477 
   -7429    -7384    -7342    -7307    -7281    -7236    -7183    -7160 
   -7145    -7102    -7064    -7049    -7022    -6987    -6964    -6943 
   -6913    -6885    -6866    -6851    -6836    -6815    -6801    -6806 
   -6806    -6790    -6782    -6790    -6794    -6787    -6790    -6809 
   -6815    -6810    -6824    -6848    -6862    -6870    -6883    -6905 
   -6928    -6945    -6970    -7002    -7025    -7044    -7074    -7111 
   -7140    -7160    -7186    -7209    -7240    -7276    -7291    -7299 
   -7333    -7371    -7385    -7403    -7437    -7474    -7491    -7492 
   -7514    -7548    -7566    -7576    -7603    -7643    -7672    -7680 
   -7693    -7728    -7761    -7774    -7786    -7812    -7838    -7852 
   -7871    -7903    -7931    -7943    -7958    -7993    -8027    -8040 
   -8054    -8075    -8100    -8124    -8147    -8170    -8187    -8199 
   -8214    -8233    -8248    -8266    -8278    -8291    -8301    -8310 
   -8341    -8371    -8367    -8360    -8379    -8398    -8397    -8394 
   -8414    -8436    -8428    -8424    -8441    -8451    -8431    -8414 
   -8418    -8418    -8395    -8375    -8374    -8367    -8348    -8337 
   -8333    -8318    -8291    -8276    -8272    -8247    -8208    -8191 
   -8187    -8168    -8139    -8117    -8093    -8071    -8047    -8017 
