Origin Time       2016/04/16 01:25:00
Lat.              32.753
Long.             130.762
Depth. (km)       12
Mag.              7.3
Station Code      AIC011
Station Lat.      34.9965
Station Long.     136.8639
Station Height(m) 5
Record Time       2016/04/16 01:28:53
Sampling Freq(Hz) 100Hz
Duration Time(s)  60
Dir.              N-S
Scale Factor      7845(gal)/8223790
Max. Acc. (gal)   1.937
Last Correction   2016/04/16 01:28:56
Memo.             
    8892     8907     8934     8957     8957     8958     8991     9015 
    9028     9058     9078     9092     9116     9132     9139     9166 
    9207     9227     9231     9258     9305     9329     9342     9359 
    9369     9396     9441     9464     9482     9526     9582     9625 
    9666     9707     9736     9767     9799     9830     9882     9927 
    9957     9985    10011    10057    10107    10134    10160    10181 
   10204    10230    10246    10254    10280    10309    10318    10322 
   10338    10354    10359    10351    10342    10342    10354    10366 
   10369    10370    10366    10343    10342    10359    10355    10341 
   10328    10326    10328    10334    10349    10355    10347    10346 
   10354    10358    10351    10341    10341    10353    10355    10355 
   10370    10386    10384    10361    10334    10331    10326    10304 
   10296    10296    10293    10276    10261    10261    10245    10212 
   10184    10153    10121    10091    10065    10046    10025    10008 
    9991     9963     9934     9900     9849     9807     9788     9752 
    9711     9705     9684     9636     9612     9583     9535     9501 
    9474     9444     9406     9373     9360     9325     9282     9256 
    9217     9178     9151     9120     9086     9069     9053     9013 
    8972     8938     8896     8873     8851     8811     8773     8761 
    8760     8739     8712     8695     8676     8661     8642     8618 
    8602     8591     8579     8564     8553     8550     8540     8530 
    8538     8542     8519     8502     8505     8492     8472     8490 
    8510     8509     8513     8536     8545     8530     8542     8573 
    8565     8549     8561     8577     8592     8604     8596     8583 
    8599     8623     8617     8612     8630     8635     8635     8642 
    8653     8671     8683     8698     8718     8731     8760     8792 
    8804     8839     8895     8905     8911     8964     9009     9024 
    9032     9055     9104     9150     9177     9202     9228     9261 
    9293     9302     9304     9312     9310     9322     9366     9397 
    9404     9428     9452     9470     9497     9509     9520     9545 
    9559     9579     9606     9632     9666     9697     9726     9756 
    9780     9813     9850     9879     9906     9930     9950     9985 
   10026    10057    10091    10119    10143    10174    10206    10234 
   10257    10269    10296    10327    10336    10332    10338    10365 
   10384    10385    10400    10419    10413    10405    10415    10430 
   10427    10415    10409    10415    10422    10430    10451    10457 
   10446    10455    10478    10497    10521    10543    10551    10558 
   10579    10598    10616    10639    10654    10667    10686    10704 
   10712    10716    10727    10727    10712    10719    10712    10697 
   10701    10698    10687    10671    10660    10663    10650    10640 
   10636    10623    10605    10585    10575    10570    10570    10573 
   10557    10554    10566    10562    10569    10574    10561    10546 
   10534    10525    10525    10525    10530    10536    10531    10523 
   10530    10534    10534    10527    10498    10490    10498    10485 
   10476    10476    10471    10469    10463    10453    10435    10413 
   10397    10386    10362    10326    10305    10295    10280    10261 
   10235    10212    10187    10164    10152    10135    10110    10081 
   10052    10034    10004     9967     9958     9960     9944     9925 
    9915     9902     9882     9867     9840     9815     9806     9786 
    9768     9748     9724     9718     9699     9682     9680     9645 
    9606     9591     9563     9536     9521     9499     9466     9443 
    9429     9413     9396     9373     9346     9327     9312     9297 
    9275     9258     9244     9224     9219     9231     9229     9216 
    9220     9231     9224     9223     9232     9225     9216     9223 
    9229     9242     9259     9277     9290     9306     9315     9304 
    9298     9308     9310     9306     9312     9327     9320     9312 
    9316     9306     9296     9288     9275     9267     9243     9212 
    9207     9201     9180     9159     9142     9124     9111     9093 
    9065     9043     9030     9008     8985     8962     8928     8896 
    8888     8880     8851     8835     8829     8799     8770     8749 
    8715     8672     8635     8604     8557     8507     8474     8447 
    8424     8383     8336     8301     8267     8220     8162     8114 
    8063     8006     7981     7950     7894     7862     7827     7786 
    7758     7727     7682     7643     7627     7603     7565     7546 
    7514     7473     7456     7442     7433     7423     7418     7416 
    7399     7404     7414     7389     7389     7393     7369     7366 
    7393     7411     7418     7429     7434     7450     7474     7473 
    7469     7493     7519     7523     7533     7564     7586     7611 
    7649     7663     7673     7705     7730     7747     7776     7805 
    7831     7867     7916     7952     7974     8010     8050     8081 
    8104     8129     8175     8210     8233     8260     8295     8337 
    8371     8406     8446     8480     8506     8526     8557     8595 
    8623     8653     8691     8731     8758     8783     8827     8870 
    8900     8941     8992     9024     9054     9094     9140     9169 
    9189     9221     9254     9292     9329     9346     9371     9416 
    9437     9451     9479     9508     9535     9558     9572     9587 
    9613     9645     9674     9697     9717     9737     9763     9786 
    9802     9822     9840     9852     9871     9879     9895     9926 
    9931     9937     9957     9960     9960     9967     9972     9965 
    9954     9957     9948     9937     9948     9953     9953     9949 
    9940     9925     9902     9895     9899     9894     9880     9865 
    9860     9859     9857     9856     9847     9836     9819     9810 
    9815     9810     9794     9783     9774     9753     9733     9733 
    9726     9690     9666     9659     9645     9634     9625     9614 
    9598     9568     9541     9521     9499     9481     9474     9470 
    9454     9450     9454     9451     9448     9433     9404     9381 
    9379     9381     9377     9387     9393     9382     9381     9379 
    9378     9378     9371     9375     9367     9354     9354     9344 
    9350     9385     9405     9391     9374     9379     9385     9391 
    9401     9396     9383     9383     9414     9435     9416     9425 
    9452     9459     9448     9436     9443     9447     9427     9413 
    9423     9424     9404     9391     9387     9363     9337     9328 
    9310     9271     9235     9208     9174     9146     9123     9093 
    9062     9043     9024     8989     8953     8934     8916     8895 
    8873     8847     8830     8815     8799     8787     8761     8741 
    8737     8719     8710     8706     8695     8692     8688     8676 
    8644     8630     8638     8625     8603     8587     8581     8571 
    8545     8537     8533     8503     8471     8457     8453     8430 
    8411     8410     8410     8408     8391     8365     8370     8385 
    8385     8383     8382     8375     8380     8401     8408     8417 
    8421     8421     8441     8457     8456     8464     8482     8499 
    8510     8510     8510     8526     8559     8581     8581     8590 
    8608     8633     8658     8671     8683     8704     8725     8745 
    8770     8787     8804     8838     8876     8900     8922     8951 
    8989     9012     9023     9050     9078     9100     9136     9189 
    9232     9255     9271     9297     9337     9375     9391     9412 
    9454     9485     9509     9553     9595     9620     9634     9651 
    9680     9714     9751     9784     9815     9837     9860     9903 
    9927     9927     9954     9995    10018    10031    10053    10096 
   10139    10158    10154    10162    10187    10204    10235    10254 
   10238    10269    10335    10342    10309    10355    10434    10412 
   10396    10447    10444    10440    10498    10521    10511    10543 
   10575    10561    10561    10604    10635    10621    10624    10671 
   10685    10662    10697    10743    10712    10704    10775    10794 
   10755    10775    10827    10820    10802    10821    10824    10806 
   10817    10835    10814    10804    10829    10827    10798    10791 
   10783    10758    10728    10700    10686    10683    10660    10625 
   10612    10594    10563    10547    10523    10482    10453    10426 
   10396    10361    10339    10332    10309    10269    10242    10233 
   10216    10200    10183    10162    10153    10139    10106    10088 
   10095    10085    10066    10073    10084    10068    10049    10054 
   10057    10044    10044    10054    10057    10061    10064    10060 
   10060    10066    10071    10080    10091    10095    10084    10062 
   10065    10075    10066    10073    10083    10071    10062    10068 
   10071    10061    10060    10058    10041    10044    10055    10055 
   10058    10055    10045    10050    10071    10080    10087    10104 
   10119    10125    10127    10138    10160    10173    10187    10207 
   10208    10218    10239    10257    10269    10289    10312    10320 
   10323    10320    10308    10307    10323    10338    10347    10345 
   10332    10331    10324    10299    10287    10289    10276    10253 
   10242    10226    10197    10179    10172    10164    10154    10147 
   10147    10130    10104    10088    10061    10037    10026     9998 
    9979     9976     9960     9942     9934     9931     9911     9880 
    9863     9837     9803     9787     9776     9761     9753     9747 
    9726     9710     9711     9699     9671     9659     9655     9636 
    9618     9616     9606     9585     9578     9575     9558     9545 
    9530     9506     9505     9508     9485     9463     9448     9428 
    9413     9405     9390     9370     9355     9340     9312     9288 
    9281     9266     9231     9207     9186     9157     9131     9116 
    9096     9078     9073     9045     9013     9019     9007     8959 
    8939     8947     8937     8918     8922     8922     8910     8915 
    8918     8905     8896     8893     8887     8870     8868     8870 
    8861     8873     8889     8869     8861     8880     8881     8870 
    8878     8878     8860     8861     8876     8872     8873     8887 
    8893     8901     8919     8926     8922     8939     8959     8958 
    8964     8972     8976     8988     9009     9027     9038     9050 
    9059     9071     9081     9078     9067     9062     9069     9067 
    9069     9090     9104     9104     9109     9119     9115     9108 
    9119     9126     9121     9117     9112     9116     9124     9128 
    9134     9135     9146     9153     9142     9143     9142     9128 
    9124     9120     9109     9108     9126     9127     9115     9132 
    9151     9135     9135     9154     9146     9135     9143     9134 
    9120     9140     9163     9165     9167     9171     9165     9163 
    9175     9171     9154     9151     9147     9134     9131     9135 
    9123     9117     9131     9128     9103     9094     9104     9094 
    9078     9073     9067     9057     9049     9042     9035     9038 
    9042     9024     9032     9045     9015     9000     9003     8986 
    8981     9003     9020     9005     9003     9028     9013     8992 
    9001     9008     9001     8991     9000     9003     9000     9023 
    9018     9005     9036     9035     9013     9032     9046     9031 
    9030     9046     9043     9028     9036     9045     9042     9057 
    9074     9067     9063     9084     9103     9097     9092     9092 
    9088     9096     9123     9147     9162     9171     9177     9189 
    9213     9229     9238     9250     9259     9258     9256     9279 
    9312     9331     9348     9359     9355     9348     9359     9379 
    9390     9394     9401     9401     9402     9425     9439     9435 
    9445     9445     9436     9458     9474     9454     9445     9447 
    9440     9444     9450     9448     9454     9454     9437     9429 
    9437     9439     9414     9408     9421     9405     9386     9408 
    9416     9382     9382     9402     9379     9369     9386     9374 
    9351     9348     9336     9319     9324     9325     9301     9288 
    9283     9262     9240     9236     9228     9201     9186     9177 
    9137     9107     9108     9096     9063     9046     9027     8982 
    8965     8972     8947     8912     8895     8870     8830     8816 
    8819     8787     8754     8750     8741     8730     8716     8688 
    8671     8657     8638     8617     8602     8611     8604     8587 
    8599     8592     8564     8579     8594     8571     8569     8594 
    8586     8568     8584     8591     8581     8599     8615     8612 
    8618     8633     8652     8671     8685     8681     8658     8669 
    8695     8683     8694     8730     8725     8718     8737     8734 
    8714     8721     8750     8734     8703     8729     8748     8733 
    8748     8750     8729     8739     8760     8761     8753     8743 
    8734     8727     8749     8775     8781     8799     8811     8804 
    8806     8818     8845     8866     8874     8892     8901     8907 
    8924     8954     8984     8997     9005     9022     9057     9096 
    9113     9135     9158     9171     9189     9228     9269     9279 
    9298     9324     9337     9366     9404     9432     9462     9487 
    9494     9493     9508     9522     9530     9556     9583     9591 
    9596     9606     9606     9610     9618     9613     9590     9593 
    9613     9613     9612     9622     9626     9617     9603     9595 
    9578     9572     9586     9566     9533     9526     9518     9502 
    9497     9482     9441     9424     9431     9410     9379     9381 
    9382     9340     9310     9321     9305     9271     9267     9269 
    9258     9243     9234     9236     9236     9232     9216     9202 
    9215     9211     9194     9205     9211     9186     9174     9192 
    9192     9192     9220     9229     9213     9209     9211     9215 
    9224     9224     9225     9250     9267     9267     9289     9322 
    9328     9321     9331     9351     9352     9354     9382     9401 
    9405     9432     9462     9466     9479     9502     9495     9497 
    9533     9547     9543     9570     9596     9607     9624     9649 
    9676     9683     9687     9699     9705     9718     9745     9755 
    9764     9791     9809     9809     9823     9842     9836     9850 
    9877     9861     9857     9892     9906     9913     9949     9973 
    9979    10000    10034    10060    10081    10107    10119    10123 
   10147    10177    10184    10199    10238    10262    10269    10304 
   10345    10357    10374    10403    10413    10428    10451    10461 
   10482    10516    10521    10520    10543    10566    10578    10596 
   10620    10638    10639    10644    10665    10667    10670    10694 
   10704    10701    10710    10721    10731    10740    10747    10750 
   10747    10746    10744    10747    10752    10758    10767    10770 
   10768    10768    10763    10755    10747    10735    10710    10685 
   10675    10673    10656    10629    10601    10577    10554    10534 
   10521    10489    10438    10393    10359    10341    10308    10262 
   10245    10218    10158    10108    10085    10060    10011     9987 
    9969     9911     9871     9846     9803     9761     9725     9686 
    9643     9605     9572     9540     9509     9462     9410     9373 
    9343     9316     9270     9228     9211     9180     9146     9126 
    9100     9061     9034     9024     8996     8959     8946     8931 
    8896     8876     8863     8846     8835     8830     8800     8760 
    8739     8723     8698     8677     8667     8657     8640     8625 
    8612     8595     8579     8572     8556     8533     8517     8502 
    8477     8467     8464     8453     8440     8431     8421     8398 
    8390     8401     8397     8394     8383     8352     8344     8349 
    8356     8359     8348     8341     8344     8355     8375     8383 
    8395     8410     8401     8388     8401     8418     8421     8428 
    8441     8456     8482     8497     8503     8536     8565     8567 
    8576     8610     8635     8637     8648     8665     8685     8725 
    8750     8769     8793     8812     8838     8861     8861     8870 
    8895     8916     8938     8970     8997     9024     9054     9071 
    9089     9117     9144     9158     9173     9194     9209     9231 
    9266     9286     9310     9343     9366     9386     9398     9408 
    9435     9456     9470     9493     9521     9540     9552     9572 
    9586     9590     9625     9656     9656     9657     9664     9679 
    9688     9695     9707     9707     9713     9728     9732     9733 
    9724     9714     9721     9721     9707     9695     9684     9675 
    9676     9679     9667     9653     9644     9632     9612     9589 
    9575     9566     9543     9520     9508     9501     9493     9495 
    9497     9472     9445     9435     9424     9421     9414     9405 
    9408     9406     9409     9424     9437     9448     9459     9468 
    9475     9479     9490     9512     9525     9530     9545     9571 
    9602     9625     9639     9652     9678     9709     9736     9761 
    9787     9813     9844     9876     9903     9925     9967    10007 
   10027    10064    10098    10120    10157    10192    10208    10220 
   10253    10289    10312    10335    10368    10408    10438    10469 
   10501    10513    10530    10563    10578    10585    10605    10623 
   10639    10663    10683    10687    10687    10700    10704    10702 
   10712    10714    10705    10708    10720    10714    10698    10700 
   10710    10708    10708    10716    10714    10704    10698    10692 
   10677    10670    10663    10643    10629    10631    10621    10596 
   10579    10567    10524    10485    10473    10451    10416    10370 
   10335    10318    10285    10247    10230    10216    10173    10119 
   10084    10052    10014     9973     9942     9904     9863     9844 
    9822     9787     9756     9721     9698     9671     9617     9575 
    9553     9522     9491     9462     9435     9417     9391     9355 
    9333     9300     9255     9234     9194     9132     9107     9094 
    9057     9024     9001     8970     8938     8918     8901     8866 
    8822     8800     8795     8776     8748     8719     8688     8672 
    8669     8646     8621     8623     8614     8590     8588     8577 
    8540     8513     8507     8490     8471     8467     8461     8454 
    8451     8430     8410     8404     8401     8384     8359     8352 
    8355     8351     8349     8349     8343     8348     8363     8359 
    8352     8359     8355     8360     8371     8376     8395     8413 
    8424     8434     8441     8464     8490     8513     8543     8553 
    8563     8596     8614     8626     8653     8677     8698     8725 
    8756     8783     8803     8827     8847     8863     8888     8910 
    8910     8920     8955     8986     9016     9055     9078     9089 
    9108     9143     9174     9178     9194     9223     9238     9269 
