Origin Time       2016/04/16 01:25:00
Lat.              32.753
Long.             130.762
Depth. (km)       12
Mag.              7.3
Station Code      CHB002
Station Lat.      35.7868
Station Long.     139.9031
Station Height(m) 14
Record Time       2016/04/16 01:30:28
Sampling Freq(Hz) 100Hz
Duration Time(s)  60
Dir.              E-W
Scale Factor      7845(gal)/8223790
Max. Acc. (gal)   1.539
Last Correction   2016/04/16 01:30:30
Memo.             
[...]
   -7586    -7614    -7599    -7561    -7537    -7520    -7527    -7597 
   -7666    -7600    -7497    -7527    -7603    -7595    -7553    -7546 
   -7564    -7568    -7564    -7589    -7605    -7573    -7569    -7614 
   -7600    -7518    -7482    -7542    -7639    -7674    -7605    -7535 
   -7558    -7600    -7570    -7522    -7555    -7641    -7626    -7531 
   -7520    -7591    -7632    -7614    -7570    -7548    -7569    -7588 
   -7578    -7581    -7609    -7593    -7539    -7510    -7545    -7639 
   -7685    -7619    -7553    -7555    -7576    -7586    -7603    -7635 
   -7638    -7584    -7546    -7574    -7611    -7626    -7628    -7632 
   -7650    -7659    -7626    -7589    -7607    -7657    -7678    -7665 
   -7657    -7666    -7693    -7704    -7676    -7652    -7670    -7712 
   -7735    -7734    -7753    -7776    -7781    -7786    -7784    -7780 
   -7789    -7808    -7799    -7763    -7777    -7847    -7888    -7885 
   -7867    -7867    -7886    -7896    -7924    -7969    -7959    -7919 
   -7927    -7974    -8009    -8013    -8023    -8040    -8023    -7983 
   -8007    -8071    -8093    -8101    -8116    -8098    -8113    -8177 
   -8191    -8152    -8118    -8100    -8116    -8172    -8218    -8230 
   -8239    -8245    -8260    -8284    -8274    -8240    -8241    -8262 
   -8279    -8295    -8317    -8340    -8337    -8334    -8361    -8360 
   -8328    -8337    -8363    -8356    -8352    -8364    -8380    -8418 
   -8437    -8398    -8379    -8403    -8401    -8387    -8433    -8479 
   -8449    -8391    -8376    -8394    -8418    -8430    -8426    -8437 
   -8453    -8444    -8426    -8411    -8406    -8418    -8424    -8407 
   -8414    -8440    -8428    -8413    -8418    -8421    -8426    -8418 
   -8380    -8370    -8404    -8421    -8401    -8363    -8322    -8328 
   -8388    -8421    -8398    -8361    -8328    -8303    -8311    -8340 
   -8356    -8359    -8344    -8310    -8286    -8289    -8302    -8301 
   -8290    -8286    -8283    -8271    -8255    -8240    -8230    -8230 
   -8240    -8247    -8248    -8244    -8220    -8198    -8209    -8199 
   -8159    -8166    -8201    -8194    -8174    -8166    -8151    -8136 
   -8136    -8155    -8170    -8164    -8143    -8135    -8148    -8137 
   -8102    -8095    -8098    -8098    -8120    -8125    -8102    -8086 
   -8090    -8108    -8110    -8101    -8100    -8100    -8095    -8083 
   -8086    -8104    -8093    -8070    -8066    -8066    -8075    -8100 
   -8106    -8083    -8075    -8105    -8124    -8101    -8081    -8090 
   -8073    -8050    -8081    -8127    -8129    -8090    -8037    -8016 
   -8040    -8075    -8104    -8128    -8117    -8078    -8068    -8078 
   -8095    -8117    -8110    -8087    -8094    -8090    -8067    -8068 
   -8082    -8083    -8073    -8073    -8068    -8062    -8104    -8147 
   -8114    -8067    -8063    -8078    -8086    -8070    -8040    -8037 
   -8052    -8043    -8035    -8067    -8083    -8050    -8031    -8064 
   -8105    -8122    -8114    -8062    -7990    -7962    -7974    -8006 
   -8058    -8082    -8043    -7992    -7973    -7979    -7998    -8014 
   -8033    -8067    -8100    -8090    -8043    -8009    -8002    -7990 
   -7959    -7940    -7946    -7958    -7985    -8029    -8048    -8013 
   -7971    -7983    -8033    -8046    -8001    -7971    -7987    -8010 
   -8006    -7987    -7974    -7964    -7944    -7948    -7969    -7986 
   -8009    -8005    -7978    -7967    -7971    -7992    -8020    -7996 
   -7920    -7871    -7893    -7962    -8013    -7989    -7912    -7865 
   -7884    -7942    -7982    -7978    -7956    -7942    -7940    -7939 
   -7919    -7894    -7892    -7879    -7847    -7831    -7851    -7882 
   -7916    -7939    -7917    -7875    -7851    -7839    -7834    -7838 
   -7835    -7827    -7827    -7820    -7815    -7834    -7862    -7863 
   -7832    -7756    -7684    -7700    -7759    -7769    -7747    -7756 
   -7789    -7816    -7804    -7736    -7657    -7642    -7673    -7699 
   -7712    -7685    -7635    -7651    -7709    -7727    -7709    -7662 
   -7591    -7551    -7581    -7645    -7663    -7614    -7547    -7524 
   -7553    -7592    -7597    -7586    -7568    -7514    -7481    -7501 
   -7519    -7524    -7518    -7484    -7441    -7425    -7434    -7438 
   -7430    -7431    -7434    -7423    -7415    -7408    -7383    -7369 
   -7371    -7338    -7298    -7292    -7306    -7329    -7327    -7284 
   -7264    -7279    -7277    -7242    -7218    -7227    -7226    -7196 
   -7176    -7171    -7167    -7168    -7155    -7140    -7136    -7109 
   -7071    -7064    -7105    -7144    -7096    -7018    -7017    -7030 
   -7013    -7006    -6988    -6957    -6944    -6947    -6955    -6949 
   -6925    -6895    -6878    -6872    -6864    -6853    -6844    -6829 
   -6825    -6833    -6828    -6798    -6766    -6754    -6755    -6744 
   -6721    -6698    -6679    -6673    -6689    -6706    -6696    -6671 
   -6658    -6654    -6648    -6610    -6559    -6542    -6546    -6551 
   -6561    -6573    -6574    -6552    -6520    -6507    -6513    -6505 
   -6480    -6467    -6460    -6438    -6427    -6446    -6459    -6446 
   -6426    -6432    -6439    -6401    -6369    -6382    -6404    -6413 
   -6417    -6409    -6389    -6384    -6389    -6381    -6378    -6403 
   -6396    -6358    -6340    -6346    -6378    -6442    -6471    -6439 
   -6393    -6361    -6350    -6380    -6442    -6481    -6446    -6380 
   -6384    -6435    -6470    -6484    -6492    -6490    -6478    -6457 
   -6467    -6519    -6561    -6567    -6548    -6539    -6590    -6635 
   -6598    -6561    -6598    -6656    -6685    -6679    -6673    -6694 
   -6691    -6660    -6660    -6702    -6768    -6814    -6798    -6771 
   -6755    -6739    -6770    -6840    -6891    -6910    -6895    -6868 
   -6891    -6943    -6952    -6947    -6952    -6933    -6928    -6972 
   -7005    -7011    -7018    -7033    -7044    -7037    -7022    -7033 
   -7059    -7075    -7082    -7079    -7069    -7075    -7110    -7144 
   -7145    -7132    -7134    -7150    -7167    -7175    -7188    -7198 
   -7182    -7164    -7165    -7163    -7172    -7210    -7230    -7222 
   -7229    -7238    -7231    -7241    -7260    -7269    -7264    -7246 
   -7236    -7248    -7258    -7261    -7281    -7302    -7296    -7277 
   -7261    -7261    -7277    -7307    -7334    -7307    -7269    -7280 
   -7311    -7329    -7353    -7366    -7350    -7331    -7327    -7334 
   -7352    -7368    -7376    -7376    -7364    -7348    -7346    -7364 
   -7391    -7399    -7400    -7415    -7411    -7380    -7372    -7396 
   -7433    -7479    -7495    -7460    -7426    -7431    -7452    -7484 
   -7501    -7491    -7481    -7481    -7484    -7489    -7503    -7528 
   -7539    -7512    -7499    -7533    -7560    -7562    -7572    -7577 
   -7569    -7553    -7551    -7564    -7568    -7572    -7607    -7651 
   -7678    -7678    -7652    -7623    -7592    -7570    -7601    -7666 
   -7695    -7677    -7655    -7659    -7685    -7711    -7719    -7705 
   -7681    -7657    -7665    -7735    -7780    -7742    -7707    -7700 
   -7712    -7756    -7780    -7770    -7747    -7704    -7689    -7709 
   -7747    -7821    -7847    -7785    -7743    -7754    -7769    -7771 
   -7747    -7726    -7751    -7798    -7809    -7792    -7793    -7789 
   -7788    -7815    -7808    -7759    -7758    -7798    -7830    -7838 
   -7827    -7827    -7825    -7812    -7804    -7805    -7821    -7840 
   -7838    -7825    -7827    -7832    -7844    -7871    -7879    -7857 
   -7846    -7860    -7854    -7848    -7885    -7920    -7917    -7902 
   -7870    -7821    -7809    -7870    -7956    -7993    -7969    -7912 
   -7873    -7893    -7948    -7974    -7960    -7938    -7923    -7933 
   -7973    -8017    -8039    -8035    -8002    -7948    -7943    -8017 
   -8087    -8091    -8040    -8000    -8020    -8056    -8093    -8121 
   -8108    -8091    -8087    -8071    -8087    -8121    -8120    -8113 
   -8147    -8209    -8221    -8151    -8113    -8170    -8229    -8229 
   -8185    -8162    -8222    -8279    -8239    -8213    -8236    -8214 
   -8201    -8232    -8259    -8303    -8336    -8309    -8275    -8278 
   -8317    -8363    -8352    -8305    -8284    -8301    -8333    -8341 
   -8324    -8343    -8355    -8314    -8317    -8361    -8371    -8365 
   -8349    -8343    -8391    -8431    -8417    -8368    -8332    -8351 
   -8387    -8410    -8426    -8406    -8359    -8351    -8378    -8387 
   -8408    -8451    -8447    -8395    -8324    -8290    -8344    -8414 
   -8441    -8411    -8356    -8343    -8364    -8395    -8444    -8463 
   -8424    -8364    -8344    -8387    -8436    -8451    -8437    -8383 
   -8324    -8310    -8341    -8391    -8414    -8413    -8391    -8336 
   -8316    -8391    -8499    -8540    -8483    -8406    -8372    -8359 
   -8375    -8418    -8451    -8460    -8444    -8407    -8383    -8401 
   -8446    -8460    -8433    -8401    -8391    -8417    -8456    -8463 
   -8460    -8494    -8527    -8513    -8483    -8480    -8496    -8519 
   -8522    -8490    -8474    -8490    -8509    -8515    -8529    -8564 
   -8614    -8617    -8560    -8523    -8550    -8592    -8626    -8646 
   -8634    -8604    -8573    -8576    -8637    -8685    -8667    -8604 
   -8546    -8563    -8658    -8748    -8775    -8750    -8698    -8661 
   -8684    -8739    -8772    -8779    -8757    -8718    -8688    -8688 
   -8745    -8807    -8800    -8750    -8710    -8714    -8762    -8800 
   -8807    -8811    -8819    -8815    -8807    -8826    -8849    -8846 
   -8833    -8816    -8797    -8787    -8800    -8842    -8866    -8847 
   -8846    -8889    -8912    -8872    -8830    -8843    -8858    -8847 
   -8853    -8887    -8912    -8912    -8880    -8845    -8866    -8908 
   -8919    -8941    -8961    -8928    -8889    -8885    -8903    -8932 
   -8942    -8923    -8901    -8883    -8884    -8910    -8927    -8947 
   -8976    -8972    -8937    -8929    -8966    -8959    -8912    -8922 
   -8970    -8976    -8945    -8950    -8984    -8978    -8945    -8904 
   -8870    -8891    -8953    -8995    -8993    -8959    -8922    -8881 
   -8858    -8888    -8939    -8984    -8996    -8946    -8892    -8883 
   -8887    -8884    -8880    -8869    -8856    -8846    -8860    -8880 
   -8856    -8810    -8803    -8830    -8869    -8863    -8795    -8731 
   -8718    -8733    -8769    -8799    -8787    -8746    -8708    -8677 
   -8673    -8706    -8718    -8684    -8668    -8665    -8606    -8552 
   -8587    -8614    -8573    -8550    -8573    -8576    -8548    -8530 
   -8494    -8424    -8404    -8460    -8523    -8530    -8490    -8454 
   -8407    -8359    -8357    -8370    -8357    -8356    -8349    -8322 
   -8329    -8337    -8270    -8179    -8155    -8213    -8274    -8276 
   -8260    -8194    -8059    -8013    -8133    -8264    -8266    -8139 
   -7974    -7888    -7952    -8113    -8199    -8160    -8089    -8019 
   -7935    -7859    -7860    -7969    -8073    -8025    -7840    -7689 
   -7739    -7921    -8009    -7902    -7716    -7638    -7717    -7823 
   -7854    -7813    -7753    -7717    -7685    -7654    -7669    -7673 
   -7614    -7581    -7599    -7614    -7650    -7684    -7618    -7507 
   -7485    -7506    -7485    -7497    -7548    -7520    -7398    -7325 
   -7406    -7528    -7515    -7396    -7319    -7356    -7419    -7423 
   -7403    -7366    -7317    -7325    -7361    -7326    -7248    -7222 
   -7273    -7333    -7311    -7227    -7203    -7268    -7325    -7323 
   -7275    -7207    -7188    -7240    -7268    -7234    -7207    -7209 
   -7213    -7223    -7223    -7203    -7214    -7257    -7269    -7227 
   -7184    -7191    -7222    -7229    -7230    -7244    -7229    -7195 
   -7192    -7223    -7273    -7302    -7283    -7264    -7281    -7294 
   -7290    -7295    -7300    -7284    -7271    -7279    -7299    -7345 
   -7373    -7331    -7283    -7292    -7339    -7406    -7480    -7496 
   -7438    -7377    -7389    -7446    -7464    -7465    -7497    -7499 
   -7429    -7387    -7442    -7523    -7535    -7495    -7482    -7514 
   -7543    -7558    -7569    -7580    -7586    -7576    -7558    -7573 
   -7609    -7616    -7584    -7548    -7562    -7645    -7738    -7749 
   -7670    -7585    -7562    -7581    -7630    -7697    -7715    -7646 
   -7566    -7561    -7618    -7678    -7713    -7685    -7616    -7584 
   -7597    -7628    -7678    -7703    -7677    -7631    -7597    -7605 
   -7634    -7649    -7639    -7568    -7480    -7497    -7595    -7651 
   -7627    -7530    -7441    -7465    -7547    -7572    -7553    -7485 
   -7376    -7391    -7514    -7546    -7480    -7404    -7340    -7338 
   -7368    -7371    -7391    -7395    -7315    -7260    -7283    -7284 
   -7261    -7267    -7258    -7215    -7165    -7138    -7175    -7188 
   -7098    -7059    -7138    -7164    -7075    -6967    -6932    -7001 
   -7069    -7013    -6913    -6893    -6924    -6936    -6910    -6851 
   -6814    -6821    -6806    -6762    -6725    -6704    -6693    -6693 
   -6711    -6724    -6669    -6573    -6561    -6643    -6673    -6575 
   -6480    -6475    -6512    -6555    -6544    -6454    -6396    -6394 
   -6416    -6447    -6415    -6355    -6350    -6327    -6273    -6273 
   -6336    -6393    -6370    -6264    -6174    -6184    -6241    -6261 
   -6266    -6280    -6258    -6214    -6189    -6164    -6168    -6191 
   -6178    -6170    -6181    -6184    -6211    -6203    -6142    -6147 
   -6168    -6122    -6122    -6193    -6232    -6227    -6201    -6160 
   -6174    -6230    -6203    -6172    -6241    -6301    -6285    -6226 
   -6170    -6214    -6308    -6323    -6312    -6320    -6308    -6297 
   -6331    -6384    -6389    -6372    -6389    -6435    -6469    -6471 
   -6467    -6497    -6538    -6529    -6475    -6438    -6469    -6564 
   -6687    -6741    -6681    -6615    -6625    -6679    -6721    -6725 
   -6733    -6782    -6818    -6809    -6791    -6817    -6886    -6944 
   -6952    -6919    -6902    -6930    -6983    -7045    -7094    -7088 
   -7059    -7049    -7056    -7089    -7150    -7182    -7159    -7132 
   -7190    -7285    -7292    -7244    -7241    -7292    -7369    -7420 
   -7402    -7350    -7321    -7330    -7395    -7491    -7545    -7528 
   -7499    -7495    -7504    -7497    -7489    -7535    -7604    -7593 
   -7539    -7546    -7626    -7713    -7716    -7631    -7576    -7592 
   -7650    -7728    -7759    -7738    -7735    -7749    -7744    -7753 
   -7770    -7747    -7690    -7663    -7711    -7788    -7808    -7785 
   -7786    -7761    -7692    -7672    -7717    -7781    -7821    -7798 
   -7746    -7732    -7770    -7821    -7811    -7731    -7685    -7711 
   -7732    -7711    -7689    -7707    -7716    -7680    -7638    -7628 
   -7673    -7747    -7744    -7652    -7584    -7605    -7657    -7650 
   -7600    -7553    -7531    -7581    -7657    -7642    -7577    -7531 
   -7496    -7485    -7484    -7458    -7464    -7526    -7535    -7444 
   -7381    -7416    -7481    -7508    -7477    -7427    -7402    -7403 
   -7418    -7402    -7357    -7369    -7416    -7408    -7361    -7330 
   -7362    -7437    -7416    -7307    -7260    -7260    -7275    -7329 
   -7398    -7449    -7450    -7388    -7315    -7294    -7337    -7404 
   -7431    -7398    -7349    -7358    -7406    -7430    -7430    -7410 
   -7389    -7416    -7468    -7487    -7476    -7450    -7446    -7501 
   -7553    -7534    -7493    -7488    -7512    -7553    -7573    -7551 
   -7535    -7584    -7701    -7781    -7743    -7649    -7584    -7616 
   -7726    -7807    -7843    -7825    -7747    -7695    -7723    -7831 
   -7925    -7905    -7879    -7920    -7923    -7909    -7958    -8019 
   -8020    -7977    -7974    -8016    -8050    -8056    -8051    -8086 
   -8144    -8160    -8164    -8170    -8152    -8172    -8243    -8283 
   -8268    -8252    -8263    -8274    -8279    -8321    -8378    -8411 
   -8421    -8404    -8406    -8437    -8428    -8407    -8410    -8446 
   -8536    -8548    -8428    -8376    -8487    -8641    -8691    -8622 
   -8540    -8483    -8446    -8471    -8577    -8750    -8834    -8688 
   -8517    -8517    -8588    -8654    -8746    -8764    -8669    -8610 
   -8622    -8627    -8685    -8816    -8839    -8679    -8537    -8595 
   -8721    -8742    -8742    -8781    -8746    -8649    -8611    -8675 
   -8781    -8800    -8712    -8641    -8649    -8687    -8692    -8673 
   -8691    -8739    -8743    -8685    -8633    -8621    -8638    -8703 
   -8769    -8769    -8699    -8604    -8576    -8623    -8668    -8684 
   -8658    -8604    -8590    -8607    -8618    -8635    -8664    -8658 
   -8590    -8507    -8499    -8567    -8595    -8548    -8522    -8536 
   -8510    -8446    -8446    -8517    -8572    -8553    -8471    -8410 
   -8436    -8472    -8480    -8477    -8451    -8424    -8397    -8365 
   -8352    -8359    -8380    -8388    -8351    -8309    -8319    -8338 
   -8317    -8310    -8336    -8340    -8299    -8228    -8190    -8222 
   -8235    -8220    -8248    -8266    -8210    -8151    -8170    -8236 
   -8264    -8194    -8093    -8102    -8174    -8182    -8170    -8190 
   -8187    -8128    -8067    -8047    -8048    -8086    -8175    -8233 
   -8163    -8037    -8001    -8058    -8127    -8155    -8110    -8027 
   -7998    -8019    -8035    -8040    -8039    -8070    -8106    -8077 
   -8071    -8113    -8056    -7958    -7969    -8050    -8102    -8109 
   -8064    -7973    -7905    -7928    -8033    -8156    -8160    -8005 
   -7859    -7860    -8000    -8147    -8120    -7974    -7898    -7913 
   -7971    -8010    -8006    -8000    -7969    -7896    -7859    -7917 
   -8010    -8029    -7969    -7897    -7858    -7889    -7969    -8010 
   -8006    -7964    -7881    -7839    -7870    -7875    -7836    -7865 
   -7967    -7994    -7892    -7808    -7836    -7912    -7955    -7898 
   -7777    -7740    -7803    -7855    -7889    -7931    -7929    -7846 
   -7774    -7821    -7938    -7985    -7911    -7797    -7738    -7780 
   -7893    -7942    -7865    -7788    -7784    -7820    -7860    -7884 
   -7894    -7875    -7823    -7804    -7855    -7924    -7960    -7955 
   -7908    -7857    -7821    -7792    -7823    -7935    -7987    -7940 
   -7901    -7860    -7835    -7896    -7974    -7998    -7998    -7974 
   -7935    -7925    -7938    -7936    -7936    -7943    -7942    -7956 
   -8017    -8058    -8021    -7978    -7978    -7974    -7979    -8023 
   -8085    -8114    -8073    -8004    -7979    -7987    -7989    -8029 
   -8113    -8152    -8105    -8035    -8010    -8037    -8087    -8152 
   -8191    -8139    -8051    -8052    -8090    -8068    -8060    -8120 
   -8135    -8073    -8055    -8095    -8124    -8113    -8104    -8139 
   -8163    -8135    -8095    -8056    -8064    -8122    -8120    -8063 
   -8071    -8111    -8100    -8067    -8070    -8098    -8113    -8105 
   -8094    -8052    -8016    -8056    -8108    -8101    -8082    -8059 
   -8020    -7993    -8000    -8029    -8050    -8050    -8044    -8043 
   -8033    -8016    -8007    -8005    -7996    -7963    -7923    -7925 
   -7963    -7989    -8005    -8007    -7983    -7952    -7935    -7948 
   -7979    -7978    -7967    -7990    -7974    -7894    -7839    -7844 
   -7888    -7936    -7948    -7928    -7896    -7863    -7844    -7851 
