Origin Time       2016/04/16 01:25:00
Lat.              32.753
Long.             130.762
Depth. (km)       12
Mag.              7.3
Station Code      CHB029
Station Lat.      35.6947
Station Long.     139.9176
Station Height(m) -9999
Record Time       2016/04/16 01:30:30
Sampling Freq(Hz) 100Hz
Duration Time(s)  60
Dir.              N-S
Scale Factor      7845(gal)/8223790
Max. Acc. (gal)   2.993
Last Correction   2016/04/16 01:30:33
Memo.             
[...]
    3763     3731     3689     3645     3609     3596     3578     3541 
    3505     3457     3400     3383     3393     3384     3334     3265 
    3222     3204     3183     3156     3127     3084     3049     3046 
    3048     3011     2961     2936     2933     2930     2901     2855 
    2821     2799     2775     2762     2774     2774     2732     2700 
    2698     2677     2646     2636     2623     2601     2581     2559 
    2562     2569     2552     2544     2546     2539     2527     2527 
    2520     2504     2488     2474     2477     2484     2473     2475 
    2500     2513     2505     2498     2502     2517     2524     2515 
    2515     2524     2521     2532     2558     2573     2586     2604 
    2621     2627     2610     2613     2640     2648     2646     2666 
    2698     2714     2716     2721     2739     2756     2768     2786 
    2809     2826     2841     2856     2875     2890     2901     2928 
    2964     2976     2971     2972     2992     3015     3015     3021 
    3059     3090     3099     3113     3126     3137     3161     3183 
    3202     3218     3213     3215     3240     3260     3275     3294 
    3306     3310     3319     3333     3349     3358     3365     3391 
    3419     3427     3431     3443     3466     3481     3466     3453 
    3457     3465     3477     3496     3520     3546     3550     3546 
    3558     3573     3566     3574     3601     3596     3572     3582 
    3618     3642     3643     3634     3640     3636     3620     3632 
    3658     3665     3666     3669     3674     3678     3670     3665 
    3677     3680     3669     3674     3682     3669     3657     3666 
    3690     3704     3689     3674     3689     3701     3694     3692 
    3694     3684     3659     3653     3684     3712     3703     3684 
    3677     3670     3663     3670     3676     3658     3639     3630 
    3631     3640     3636     3630     3645     3642     3603     3576 
    3578     3582     3561     3535     3539     3555     3550     3516 
    3484     3474     3472     3469     3477     3477     3447     3418 
    3411     3397     3384     3384     3385     3373     3339     3307 
    3308     3314     3300     3291     3287     3267     3242     3227 
    3211     3186     3153     3127     3125     3119     3102     3088 
    3086     3079     3056     3026     3013     2999     2978     2974 
    2982     2970     2947     2929     2915     2902     2882     2871 
    2878     2879     2857     2844     2851     2844     2822     2797 
    2778     2771     2768     2762     2766     2766     2737     2721 
    2737     2744     2732     2718     2713     2728     2743     2736 
    2733     2744     2728     2691     2682     2700     2720     2728 
    2731     2727     2728     2740     2755     2762     2766     2764 
    2770     2778     2782     2803     2829     2820     2799     2795 
    2813     2849     2875     2895     2930     2943     2924     2918 
    2941     2967     2978     2986     3010     3041     3046     3049 
    3075     3103     3129     3160     3186     3194     3194     3206 
    3246     3276     3279     3298     3339     3380     3415     3434 
    3450     3477     3500     3518     3550     3584     3599     3612 
    3632     3663     3708     3757     3789     3797     3807     3842 
    3883     3910     3927     3947     3979     4020     4054     4079 
    4113     4147     4170     4192     4228     4271     4298     4318 
    4357     4396     4411     4438     4491     4531     4546     4554 
    4583     4630     4664     4687     4726     4757     4765     4788 
    4837     4881     4907     4920     4931     4949     4972     4997 
    5035     5074     5085     5086     5109     5136     5148     5177 
    5220     5248     5265     5283     5302     5313     5310     5324 
    5364     5394     5405     5418     5418     5410     5424     5447 
    5459     5468     5474     5493     5517     5522     5522     5535 
    5541     5539     5545     5567     5590     5597     5576     5564 
    5575     5583     5568     5559     5574     5590     5599     5602 
    5593     5582     5572     5567     5589     5605     5587     5568 
    5559     5551     5552     5552     5552     5547     5525     5509 
    5514     5518     5503     5493     5497     5490     5468     5459 
    5464     5459     5447     5437     5424     5412     5406     5401 
    5413     5413     5389     5385     5387     5362     5331     5327 
    5351     5367     5352     5336     5335     5332     5328     5332 
    5335     5323     5302     5290     5302     5321     5324     5314 
    5306     5309     5306     5296     5305     5323     5325     5317 
    5308     5323     5346     5337     5335     5337     5320     5328 
    5364     5383     5377     5359     5370     5405     5409     5406 
    5424     5436     5455     5476     5489     5513     5535     5533 
    5544     5562     5552     5549     5580     5613     5623     5633 
    5663     5697     5711     5722     5745     5757     5740     5736 
    5784     5834     5849     5879     5913     5906     5886     5898 
    5946     5999     6006     5987     5995     6019     6037     6081 
    6135     6147     6133     6124     6156     6201     6201     6192 
    6226     6257     6266     6274     6285     6313     6347     6359 
    6380     6401     6392     6388     6415     6439     6446     6451 
    6473     6492     6492     6497     6525     6567     6577     6539 
    6527     6550     6554     6562     6602     6635     6639     6624 
    6633     6670     6681     6666     6660     6652     6644     6650 
    6667     6698     6711     6700     6706     6731     6729     6714 
    6720     6747     6767     6756     6763     6785     6764     6733 
    6736     6770     6808     6798     6772     6785     6791     6786 
    6794     6793     6789     6798     6805     6824     6837     6829 
    6828     6840     6829     6813     6822     6837     6837     6826 
    6820     6836     6856     6862     6856     6833     6818     6821 
    6831     6866     6898     6876     6845     6843     6840     6841 
    6848     6853     6851     6840     6829     6831     6828     6825 
    6832     6832     6828     6828     6814     6790     6768     6762 
    6777     6798     6789     6764     6750     6739     6739     6733 
    6720     6723     6709     6673     6664     6673     6666     6633 
    6602     6606     6609     6604     6623     6619     6569     6524 
    6486     6446     6435     6453     6474     6482     6450     6407 
    6389     6365     6326     6307     6312     6323     6319     6280 
    6222     6183     6172     6174     6173     6162     6145     6129 
    6114     6088     6050     6016     6002     5992     5989     5984 
    5965     5953     5938     5898     5856     5818     5787     5778 
    5776     5779     5760     5711     5671     5663     5656     5651 
    5652     5640     5599     5551     5521     5506     5478     5443 
    5447     5463     5443     5395     5366     5360     5339     5298 
    5268     5248     5223     5209     5216     5206     5159     5113 
    5104     5117     5112     5084     5057     5034     5011     4989 
    4965     4941     4904     4869     4869     4882     4861     4827 
    4803     4780     4748     4716     4704     4720     4718     4677 
    4646     4630     4600     4575     4561     4544     4529     4517 
    4500     4476     4437     4401     4391     4393     4390     4363 
    4318     4282     4261     4256     4270     4271     4241     4210 
    4183     4162     4159     4149     4133     4132     4107     4054 
    4025     4013     3990     3971     3963     3939     3902     3878 
    3869     3854     3838     3827     3821     3796     3738     3697 
    3700     3708     3696     3669     3636     3603     3565     3524 
    3510     3523     3518     3480     3449     3426     3377     3336 
    3325     3308     3284     3256     3240     3241     3222     3172 
    3141     3140     3126     3099     3073     3046     3015     2991 
    2970     2952     2936     2905     2875     2870     2867     2843 
    2810     2787     2759     2732     2714     2701     2683     2668 
    2660     2654     2636     2613     2598     2578     2546     2528 
    2527     2532     2528     2501     2469     2457     2447     2432 
    2435     2442     2434     2419     2400     2380     2366     2363 
    2362     2365     2363     2347     2334     2338     2344     2334 
    2319     2326     2336     2342     2342     2332     2312     2290 
    2288     2293     2292     2296     2303     2293     2282     2288 
    2305     2319     2324     2312     2305     2322     2342     2343 
    2334     2338     2338     2317     2308     2335     2361     2362 
    2353     2350     2361     2370     2373     2381     2382     2367 
    2371     2404     2423     2408     2376     2362     2385     2420 
    2454     2471     2454     2424     2425     2458     2496     2502 
    2494     2498     2494     2474     2479     2508     2523     2521 
    2517     2524     2531     2528     2542     2574     2589     2578 
    2577     2596     2610     2609     2610     2627     2631     2617 
    2619     2643     2655     2648     2655     2664     2659     2663 
    2681     2693     2693     2693     2708     2727     2732     2729 
    2731     2748     2775     2781     2775     2785     2795     2797 
    2805     2825     2830     2818     2814     2835     2856     2862 
    2855     2863     2880     2884     2882     2901     2918     2924 
    2937     2957     2975     2980     2974     2971     2986     3005 
    3007     3010     3021     3017     3011     3032     3057     3069 
    3071     3071     3075     3075     3071     3078     3083     3083 
    3092     3109     3119     3117     3114     3130     3150     3160 
    3156     3140     3137     3141     3145     3168     3187     3173 
    3161     3154     3148     3159     3175     3183     3188     3172 
    3156     3171     3194     3199     3188     3187     3207     3213 
    3196     3194     3204     3206     3203     3206     3208     3213 
    3211     3202     3200     3202     3192     3198     3211     3206 
    3200     3204     3200     3198     3198     3199     3211     3213 
    3208     3215     3222     3219     3221     3232     3232     3219 
    3218     3227     3240     3249     3249     3242     3237     3241 
    3257     3265     3258     3256     3262     3288     3312     3306 
    3298     3319     3335     3336     3343     3352     3360     3369 
    3381     3403     3423     3430     3438     3457     3474     3488 
    3505     3515     3516     3538     3563     3578     3597     3604 
    3612     3650     3681     3692     3704     3719     3731     3750 
    3778     3807     3827     3835     3850     3885     3919     3935 
    3962     3996     4000     3990     4012     4043     4062     4090 
    4132     4170     4190     4197     4207     4233     4251     4248 
    4263     4301     4337     4367     4387     4405     4419     4426 
    4452     4490     4509     4517     4531     4550     4564     4568 
    4588     4625     4648     4653     4677     4714     4723     4712 
    4718     4741     4764     4781     4799     4823     4834     4826 
    4845     4884     4892     4876     4878     4903     4922     4927 
    4928     4934     4950     4968     4989     5016     5008     4976 
    4980     5013     5036     5043     5030     5026     5049     5058 
    5062     5082     5093     5082     5067     5073     5097     5104 
    5101     5113     5125     5124     5117     5131     5144     5117 
    5089     5107     5136     5142     5140     5143     5142     5134 
    5127     5138     5155     5150     5138     5144     5152     5154 
    5157     5158     5154     5142     5131     5157     5181     5163 
    5148     5164     5175     5173     5169     5174     5186     5182 
    5166     5167     5169     5161     5162     5173     5174     5162 
    5152     5169     5201     5205     5200     5208     5202     5184 
    5186     5211     5225     5225     5217     5221     5238     5232 
    5228     5258     5287     5279     5258     5259     5279     5285 
    5277     5286     5302     5309     5329     5362     5368     5351 
    5350     5375     5397     5405     5425     5452     5464     5467 
    5478     5508     5539     5547     5552     5571     5587     5590 
    5603     5641     5682     5692     5699     5733     5760     5769 
    5787     5821     5861     5884     5894     5921     5952     5968 
    5975     5998     6043     6084     6110     6134     6157     6181 
    6208     6245     6281     6307     6336     6367     6389     6419 
    6443     6470     6505     6531     6563     6616     6648     6655 
    6677     6713     6744     6760     6775     6817     6864     6883 
    6895     6917     6941     6957     6968     7005     7053     7074 
    7092     7129     7157     7165     7173     7202     7244     7273 
    7281     7302     7331     7344     7356     7381     7403     7419 
    7437     7450     7472     7503     7515     7520     7535     7543 
    7551     7570     7592     7609     7612     7611     7630     7645 
    7639     7641     7659     7674     7678     7688     7701     7707 
    7707     7707     7708     7708     7709     7715     7722     7731 
    7738     7732     7732     7738     7734     7728     7728     7719 
    7701     7701     7711     7705     7696     7693     7684     7669 
    7657     7652     7647     7647     7639     7612     7581     7569 
    7561     7553     7548     7545     7523     7499     7492     7482 
    7462     7449     7433     7402     7381     7372     7358     7345 
    7323     7288     7272     7272     7261     7245     7229     7198 
    7163     7132     7117     7109     7088     7063     7052     7037 
    7007     6990     6987     6960     6928     6910     6885     6870 
    6863     6836     6814     6793     6759     6752     6747     6717 
    6694     6671     6646     6623     6592     6571     6571     6558 
    6525     6497     6474     6454     6434     6412     6392     6366 
    6345     6334     6320     6292     6257     6247     6246     6218 
    6188     6170     6147     6122     6092     6068     6064     6049 
    6008     5981     5968     5946     5925     5906     5881     5853 
    5826     5796     5769     5751     5725     5698     5678     5648 
    5616     5597     5578     5551     5518     5486     5462     5433 
    5397     5374     5356     5325     5294     5266     5238     5208 
    5179     5171     5158     5109     5065     5044     5024     4992 
    4946     4914     4901     4868     4827     4801     4779     4748 
    4703     4661     4638     4604     4565     4542     4515     4471 
    4425     4387     4357     4334     4305     4276     4243     4197 
    4159     4145     4132     4085     4028     3996     3969     3931 
    3901     3875     3842     3805     3770     3747     3727     3689 
    3638     3597     3580     3558     3520     3485     3458     3424 
    3391     3373     3364     3335     3283     3246     3231     3202 
    3171     3152     3140     3118     3076     3049     3048     3029 
    2990     2960     2943     2933     2913     2882     2867     2851 
    2826     2817     2817     2799     2764     2732     2731     2743 
    2732     2712     2702     2683     2652     2650     2671     2663 
    2632     2620     2621     2608     2586     2583     2594     2589 
    2573     2579     2597     2597     2581     2569     2577     2583 
    2575     2578     2587     2573     2558     2565     2579     2597 
    2596     2593     2608     2605     2590     2600     2608     2608 
    2610     2606     2613     2625     2625     2640     2660     2654 
    2644     2658     2673     2678     2675     2673     2693     2721 
    2721     2709     2721     2737     2736     2745     2771     2774 
    2759     2768     2786     2790     2787     2790     2805     2822 
    2811     2795     2803     2806     2798     2811     2836     2843 
    2836     2826     2826     2835     2835     2847     2870     2867 
    2844     2833     2835     2843     2855     2866     2876     2874 
    2857     2852     2863     2871     2866     2863     2879     2893 
    2876     2863     2884     2901     2890     2875     2882     2901 
    2890     2871     2875     2880     2875     2867     2867     2872 
    2876     2886     2896     2889     2868     2866     2893     2914 
    2899     2875     2880     2902     2910     2913     2914     2910 
    2903     2896     2903     2922     2921     2910     2921     2930 
    2925     2930     2941     2929     2910     2909     2921     2936 
    2945     2951     2952     2940     2932     2955     2984     2988 
    2970     2955     2955     2959     2961     2965     2971     2963 
    2953     2965     2982     2983     2976     2972     2979     2983 
    2979     2982     2997     3006     2992     2984     2999     3002 
    2997     3006     3014     3024     3026     3021     3036     3048 
    3033     3022     3025     3026     3025     3026     3044     3061 
    3053     3046     3059     3065     3063     3069     3087     3100 
    3092     3079     3087     3113     3126     3118     3119     3134 
    3132     3130     3149     3167     3165     3159     3172     3196 
    3196     3188     3206     3226     3226     3227     3238     3246 
    3248     3253     3261     3276     3291     3291     3299     3319 
    3308     3291     3310     3341     3353     3355     3364     3391 
    3403     3388     3395     3414     3411     3423     3453     3466 
    3458     3446     3456     3481     3492     3492     3503     3514 
    3523     3537     3544     3551     3557     3561     3582     3596 
    3596     3611     3628     3632     3636     3649     3661     3670 
    3676     3680     3692     3708     3709     3707     3713     3713 
    3715     3726     3742     3761     3771     3774     3786     3807 
    3820     3828     3840     3856     3865     3861     3865     3878 
    3880     3894     3913     3916     3917     3923     3936     3956 
    3969     3973     3979     3990     4003     4008     4012     4035 
    4054     4051     4050     4055     4077     4107     4122     4126 
    4131     4144     4164     4178     4194     4210     4225     4238 
    4228     4232     4263     4280     4289     4301     4311     4330 
    4341     4348     4375     4401     4401     4395     4407     4430 
    4438     4438     4460     4482     4491     4498     4513     4542 
    4565     4565     4571     4584     4591     4600     4629     4658 
    4661     4653     4680     4715     4716     4706     4710     4735 
    4769     4787     4799     4808     4799     4804     4838     4852 
    4851     4865     4893     4911     4897     4891     4922     4954 
    4962     4968     4986     5005     5012     5022     5043     5060 
    5055     5050     5066     5097     5123     5134     5138     5150 
    5161     5167     5196     5223     5215     5204     5216     5239 
    5258     5265     5277     5300     5316     5323     5329     5350 
