Origin Time       2016/04/16 01:25:00
Lat.              32.753
Long.             130.762
Depth. (km)       12
Mag.              7.3
Station Code      CHB002
Station Lat.      35.7868
Station Long.     139.9031
Station Height(m) 14
Record Time       2016/04/16 01:30:28
Sampling Freq(Hz) 100Hz
Duration Time(s)  60
Dir.              N-S
Scale Factor      7845(gal)/8223790
Max. Acc. (gal)   1.850
Last Correction   2016/04/16 01:30:30
Memo.             
[...]
    7654     7649     7685     7761     7811     7796     7770     7797 
    7831     7855     7905     7956     7992     8029     8052     8040 
    8027     8035     8050     8055     8086     8147     8203     8241 
    8237     8187     8163     8215     8286     8299     8305     8365 
    8391     8328     8260     8279     8360     8418     8451     8464 
    8437     8411     8414     8434     8499     8577     8553     8461 
    8414     8441     8486     8505     8509     8532     8540     8533 
    8543     8530     8502     8522     8523     8510     8559     8575 
    8497     8464     8527     8581     8579     8569     8545     8480 
    8418     8398     8407     8459     8545     8596     8553     8463 
    8404     8401     8441     8473     8424     8318     8247     8270 
    8344     8387     8424     8444     8307     8124     8186     8372 
    8403     8348     8309     8202     8087     8086     8163     8243 
    8260     8172     8060     8009     8020     8085     8155     8164 
    8114     8023     7927     7894     7890     7879     7897     7943 
    7977     7963     7902     7851     7842     7832     7843     7896 
    7869     7747     7689     7693     7662     7657     7716     7728 
    7662     7595     7599     7672     7704     7678     7673     7636 
    7527     7491     7569     7592     7515     7476     7488     7476 
    7453     7479     7507     7460     7404     7447     7520     7514 
    7458     7410     7380     7356     7333     7349     7393     7414 
    7372     7318     7371     7465     7446     7376     7345     7319 
    7322     7373     7400     7358     7280     7231     7264     7339 
    7387     7408     7410     7365     7312     7329     7411     7476 
    7468     7403     7327     7281     7306     7375     7420     7419 
    7380     7337     7342     7393     7465     7518     7510     7481 
    7456     7422     7425     7456     7477     7515     7562     7547 
    7503     7530     7573     7551     7560     7635     7663     7614 
    7589     7618     7623     7616     7657     7697     7701     7689 
    7676     7699     7754     7801     7825     7819     7824     7850 
    7847     7851     7870     7865     7879     7905     7894     7908 
    7964     7998     7998     8012     8054     8064     8028     8055 
    8122     8116     8095     8137     8186     8177     8124     8083 
    8085     8135     8247     8352     8359     8299     8257     8247 
    8243     8253     8316     8387     8414     8414     8360     8305 
    8348     8372     8347     8421     8517     8513     8484     8454 
    8411     8413     8428     8447     8509     8506     8406     8391 
    8530     8627     8568     8490     8486     8472     8433     8460 
    8533     8545     8503     8467     8440     8437     8473     8502 
    8492     8467     8471     8490     8474     8441     8413     8407 
    8428     8413     8380     8382     8352     8297     8306     8356 
    8365     8333     8305     8294     8264     8209     8172     8167 
    8158     8149     8172     8163     8091     8040     8025     8012 
    8001     7967     7952     7985     7963     7898     7874     7831 
    7750     7717     7707     7688     7712     7723     7673     7657 
    7663     7592     7499     7465     7450     7439     7441     7425 
    7404     7362     7264     7210     7238     7257     7249     7218 
    7142     7069     7048     7067     7060     7014     6984     6956 
    6903     6879     6885     6851     6777     6739     6744     6739 
    6697     6628     6596     6617     6605     6558     6534     6524 
    6527     6504     6450     6448     6459     6416     6372     6350 
    6303     6241     6239     6255     6218     6210     6243     6222 
    6161     6112     6103     6126     6130     6114     6089     6044 
    6031     6039     6008     5977     5981     5992     5989     5981 
    5991     5980     5910     5884     5925     5938     5931     5929 
    5919     5887     5814     5809     5919     5971     5895     5837 
    5852     5864     5864     5880     5925     5942     5864     5776 
    5802     5884     5925     5946     6002     6011     5933     5877 
    5896     5923     5948     5958     5927     5910     5953     6019 
    6043     6010     5965     5931     5900     5933     6016     6042 
    6008     6000     6053     6115     6134     6153     6178     6119 
    6023     6004     6064     6156     6203     6170     6115     6112 
    6147     6153     6145     6165     6174     6172     6199     6222 
    6210     6210     6235     6249     6232     6227     6258     6262 
    6212     6193     6238     6265     6238     6241     6301     6339 
    6336     6316     6265     6219     6224     6242     6255     6301 
    6328     6272     6243     6274     6222     6153     6230     6342 
    6349     6313     6293     6264     6249     6252     6204     6133 
    6158     6232     6239     6243     6280     6270     6227     6178 
    6118     6108     6185     6250     6234     6203     6192     6162 
    6100     6042     6048     6119     6176     6162     6096     6044 
    6069     6141     6147     6056     5972     5954     5971     6021 
    6058     6030     5995     5988     5987     5973     5945     5945 
    5956     5922     5881     5886     5931     5979     5977     5937 
    5881     5836     5809     5790     5821     5876     5863     5840 
    5853     5825     5740     5694     5765     5849     5821     5776 
    5773     5738     5709     5733     5778     5834     5846     5765 
    5688     5710     5745     5707     5692     5730     5736     5760 
    5809     5765     5683     5667     5691     5706     5687     5675 
    5746     5831     5815     5763     5769     5757     5691     5694 
    5763     5796     5790     5765     5760     5805     5809     5724 
    5679     5784     5925     5961     5967     5971     5875     5768 
    5786     5863     5979     6143     6161     5964     5867     5940 
    5914     5902     6137     6290     6139     5999     6046     6104 
    6114     6173     6232     6186     6123     6157     6238     6303 
    6378     6401     6308     6222     6223     6301     6447     6538 
    6484     6389     6369     6411     6486     6581     6678     6691 
    6575     6478     6501     6564     6628     6718     6782     6762 
    6691     6644     6635     6689     6786     6839     6822     6797 
    6771     6748     6812     6932     6988     6960     6872     6801 
    6829     6922     7028     7087     7056     6990     6922     6890 
    6963     7096     7176     7127     7018     6985     7021     7056 
    7110     7141     7096     7056     7106     7164     7188     7219 
    7215     7159     7115     7113     7153     7186     7175     7202 
    7248     7211     7150     7159     7188     7202     7241     7296 
    7302     7267     7206     7157     7190     7279     7323     7314 
    7295     7260     7217     7231     7307     7353     7318     7234 
    7146     7142     7264     7402     7425     7340     7226     7160 
    7195     7307     7414     7419     7326     7264     7268     7268 
    7275     7306     7325     7318     7294     7290     7292     7298 
    7327     7296     7221     7248     7329     7315     7271     7310 
    7361     7360     7373     7369     7287     7226     7238     7248 
    7269     7326     7321     7244     7214     7256     7306     7350 
    7377     7362     7330     7307     7290     7302     7360     7362 
    7279     7241     7272     7279     7304     7380     7403     7365 
    7334     7299     7291     7349     7393     7378     7373     7375 
    7342     7348     7420     7462     7441     7400     7378     7392 
    7404     7426     7479     7510     7499     7469     7446     7458 
    7484     7466     7450     7493     7550     7592     7661     7699 
    7622     7560     7601     7627     7649     7713     7716     7669 
    7635     7588     7591     7705     7832     7850     7794     7781 
    7761     7708     7788     7927     7925     7893     7897     7860 
    7877     7955     7956     7950     7977     7925     7893     8000 
    8082     8071     8070     8058     8007     7983     8005     8062 
    8108     8125     8144     8139     8104     8104     8133     8147 
    8181     8262     8306     8230     8102     8090     8181     8221 
    8240     8280     8237     8147     8124     8144     8209     8284 
    8253     8174     8158     8160     8179     8283     8372     8326 
    8212     8144     8127     8137     8171     8193     8170     8124 
    8095     8104     8144     8187     8181     8144     8110     8056 
    8035     8060     8082     8094     8091     8032     7947     7933 
    7998     8047     8031     7989     7947     7898     7893     7936 
    7959     7952     7944     7901     7835     7801     7812     7847 
    7882     7892     7854     7798     7793     7832     7847     7817 
    7781     7766     7747     7713     7711     7728     7739     7761 
    7767     7755     7759     7761     7743     7727     7735     7763 
    7793     7817     7811     7761     7730     7755     7786     7807 
    7830     7830     7815     7832     7870     7863     7821     7817 
    7850     7851     7825     7838     7900     7948     7942     7927 
    7958     8023     8070     8078     8073     8078     8063     8040 
    8050     8062     8070     8106     8139     8141     8136     8131 
    8133     8160     8213     8259     8280     8309     8326     8319 
    8333     8367     8379     8370     8374     8406     8421     8385 
    8365     8388     8407     8428     8480     8527     8526     8483 
    8467     8519     8568     8579     8595     8621     8602     8548 
    8540     8584     8604     8600     8587     8557     8573     8652 
    8673     8614     8579     8579     8581     8612     8664     8660 
    8604     8584     8606     8607     8599     8603     8623     8661 
    8683     8646     8567     8506     8492     8505     8546     8596 
    8581     8517     8474     8459     8444     8446     8456     8441 
    8447     8496     8522     8505     8460     8359     8260     8259 
    8306     8332     8360     8365     8306     8229     8177     8156 
    8171     8193     8171     8141     8154     8151     8093     8050 
    8052     8043     8021     8027     8016     7967     7942     7950 
    7944     7921     7889     7840     7807     7815     7820     7808 
    7839     7850     7793     7751     7708     7647     7630     7631 
    7609     7585     7580     7609     7642     7646     7630     7581 
    7537     7526     7508     7472     7464     7469     7453     7437 
    7433     7416     7385     7368     7373     7371     7360     7350 
    7299     7236     7242     7290     7344     7371     7330     7292 
    7281     7194     7109     7152     7209     7200     7202     7194 
    7144     7110     7096     7042     6978     7026     7117     7088 
    7078     7142     7087     7015     7072     7038     6912     6906 
    6924     6852     6831     6894     6926     6918     6912     6868 
    6782     6764     6813     6802     6762     6772     6750     6687 
    6702     6748     6741     6723     6711     6667     6606     6600 
    6610     6577     6544     6552     6555     6548     6543     6517 
    6492     6473     6447     6438     6448     6469     6478     6443 
    6388     6358     6343     6330     6323     6338     6353     6343 
    6308     6242     6173     6170     6228     6251     6232     6242 
    6246     6207     6201     6216     6192     6169     6168     6161 
    6162     6160     6124     6089     6080     6076     6089     6115 
    6107     6060     6003     5979     6022     6084     6115     6138 
    6110     6015     5954     5972     6003     6030     6065     6044 
    5946     5877     5894     5956     6015     6016     5964     5926 
    5937     5975     6012     6025     5995     5944     5911     5890 
    5886     5914     5929     5902     5868     5875     5918     5944 
    5919     5864     5846     5888     5929     5957     5975     5922 
    5837     5809     5859     5935     5942     5886     5837     5803 
    5817     5888     5917     5877     5838     5795     5764     5819 
    5911     5942     5902     5836     5792     5798     5838     5892 
    5921     5902     5869     5827     5765     5745     5796     5831 
    5829     5853     5879     5863     5831     5822     5833     5849 
    5854     5849     5840     5834     5848     5856     5809     5775 
    5822     5869     5876     5886     5857     5773     5706     5710 
    5776     5854     5890     5881     5869     5842     5787     5760 
    5771     5792     5845     5871     5806     5756     5784     5776 
    5737     5763     5767     5721     5727     5768     5787     5763 
    5727     5768     5822     5783     5699     5667     5680     5665 
    5653     5698     5725     5706     5661     5599     5628     5737 
    5749     5676     5645     5611     5537     5505     5532     5590 
    5651     5620     5499     5448     5499     5506     5471     5518 
    5605     5583     5479     5448     5502     5503     5405     5360 
    5452     5485     5374     5319     5354     5346     5328     5377 
    5413     5367     5325     5320     5301     5296     5343     5383 
    5347     5254     5198     5232     5289     5306     5300     5294 
    5270     5205     5162     5208     5275     5286     5277     5275 
    5256     5220     5200     5216     5252     5267     5239     5206 
    5216     5255     5277     5293     5323     5308     5235     5209 
    5254     5312     5377     5421     5377     5298     5289     5329 
    5355     5375     5410     5437     5418     5385     5410     5462 
    5475     5493     5544     5579     5560     5516     5513     5568 
    5643     5670     5671     5702     5705     5656     5668     5726 
    5764     5800     5809     5775     5795     5864     5900     5934 
    5996     5995     5913     5880     5950     6046     6120     6173 
    6181     6143     6122     6137     6139     6170     6261     6315 
    6304     6301     6300     6315     6376     6412     6415     6453 
    6485     6488     6508     6562     6629     6662     6627     6585 
    6615     6673     6706     6754     6793     6777     6750     6751 
    6793     6878     6941     6939     6910     6906     6955     7011 
    7029     7049     7078     7065     7068     7122     7160     7163 
    7177     7202     7222     7244     7284     7337     7361     7383 
    7416     7399     7373     7419     7465     7430     7372     7378 
    7437     7506     7577     7630     7639     7586     7541     7597 
    7705     7758     7776     7792     7778     7761     7765     7767 
    7771     7776     7777     7805     7843     7848     7844     7865 
    7903     7915     7897     7940     8028     8054     8035     8035 
    8025     8001     8006     8056     8104     8114     8102     8104 
    8106     8101     8116     8154     8177     8176     8171     8175 
    8179     8187     8205     8214     8210     8212     8248     8310 
    8355     8357     8309     8244     8230     8280     8351     8384 
    8365     8336     8338     8348     8322     8309     8326     8332 
    8356     8408     8434     8460     8480     8414     8318     8324 
    8426     8529     8598     8592     8510     8454     8390     8286 
    8322     8503     8619     8661     8644     8509     8384     8390 
    8424     8456     8583     8721     8687     8560     8494     8494 
    8572     8658     8623     8526     8509     8559     8587     8564 
    8571     8631     8648     8612     8596     8583     8583     8623 
    8640     8622     8611     8608     8602     8622     8662     8653 
    8610     8610     8608     8571     8590     8688     8745     8684 
    8602     8576     8559     8548     8581     8638     8679     8664 
    8606     8584     8599     8607     8606     8617     8625     8557 
    8461     8490     8583     8596     8556     8540     8545     8532 
    8502     8496     8510     8510     8503     8502     8494     8473 
    8444     8424     8471     8515     8461     8403     8406     8397 
    8372     8349     8345     8380     8395     8367     8341     8324 
    8313     8311     8305     8284     8262     8260     8272     8284 
    8293     8266     8203     8171     8179     8198     8222     8245 
    8248     8212     8148     8098     8093     8139     8181     8152 
    8124     8155     8152     8118     8133     8131     8058     8027 
    8085     8122     8098     8066     8073     8113     8114     8093 
    8106     8108     8068     8016     7986     8021     8063     8064 
    8094     8120     8078     8048     8067     8091     8098     8086 
    8083     8090     8066     8050     8095     8122     8094     8093 
    8104     8087     8095     8127     8149     8166     8152     8128 
    8139     8160     8164     8181     8199     8208     8239     8244 
    8191     8158     8185     8220     8210     8206     8251     8278 
    8245     8237     8291     8324     8328     8337     8324     8301 
    8302     8279     8251     8298     8378     8404     8388     8378 
    8380     8378     8340     8295     8306     8355     8391     8418 
    8426     8398     8375     8375     8390     8391     8391     8417 
    8408     8367     8376     8401     8384     8352     8370     8430 
    8433     8364     8322     8332     8336     8319     8332     8363 
    8355     8318     8307     8311     8298     8281     8302     8324 
    8259     8152     8131     8194     8263     8281     8236     8175 
    8127     8082     8066     8102     8131     8083     8023     8000 
    7974     7960     7974     7969     7969     7966     7911     7855 
    7846     7823     7778     7774     7793     7782     7761     7742 
    7713     7665     7578     7522     7522     7545     7601     7627 
    7574     7515     7450     7352     7312     7368     7395     7330 
    7298     7348     7352     7273     7203     7186     7190     7188 
    7160     7125     7106     7088     7068     7074     7074     7028 
    6979     6976     6990     6956     6903     6912     6949     6925 
    6891     6889     6863     6837     6875     6928     6866     6700 
    6652     6739     6751     6744     6831     6840     6756     6737 
    6754     6696     6643     6677     6679     6643     6705     6797 
    6774     6691     6643     6640     6663     6696     6739     6747 
    6670     6600     6597     6608     6666     6739     6733     6679 
    6604     6566     6625     6670     6681     6736     6747     6666 
    6616     6648     6686     6687     6673     6660     6646     6635 
    6663     6700     6682     6640     6632     6646     6666     6696 
    6723     6716     6663     6593     6561     6594     6659     6697 
    6686     6639     6585     6561     6577     6619     6663     6679 
    6648     6589     6531     6517     6550     6588     6615     6608 
    6540     6482     6498     6544     6574     6578     6554     6508 
    6473     6485     6511     6489     6440     6416     6413     6427 
    6463     6485     6467     6427     6397     6393     6384     6370 
