Origin Time       2016/04/16 01:25:00
Lat.              32.753
Long.             130.762
Depth. (km)       12
Mag.              7.3
Station Code      CHB029
Station Lat.      35.6947
Station Long.     139.9176
Station Height(m) -9999
Record Time       2016/04/16 01:30:30
Sampling Freq(Hz) 100Hz
Duration Time(s)  60
Dir.              E-W
Scale Factor      7845(gal)/8223790
Max. Acc. (gal)   1.286
Last Correction   2016/04/16 01:30:33
Memo.             
[...]
    -911     -936     -942     -934     -938     -945     -932     -920 
    -929     -929     -909     -900     -918     -939     -932     -918 
    -938     -955     -934     -922     -939     -950     -934     -909 
    -929     -969     -959     -935     -940     -951     -955     -959 
    -970     -969     -945     -943     -962     -955     -938     -946 
    -974     -978     -955     -940     -938     -936     -927     -919 
    -931     -950     -955     -954     -947     -935     -939     -947 
    -945     -943     -953     -967     -972     -954     -945     -953 
    -958     -954     -950     -961     -982     -986     -967     -965 
    -981     -986     -976     -980    -1004    -1015    -1008    -1008 
   -1017    -1016    -1000    -1005    -1030    -1032    -1023    -1042 
   -1069    -1070    -1055    -1059    -1086    -1098    -1088    -1089 
   -1100    -1104    -1111    -1121    -1133    -1144    -1154    -1169 
   -1189    -1208    -1221    -1227    -1230    -1232    -1230    -1242 
   -1262    -1275    -1287    -1316    -1354    -1360    -1343    -1348 
   -1377    -1394    -1395    -1405    -1431    -1455    -1457    -1455 
   -1467    -1490    -1509    -1533    -1548    -1549    -1548    -1551 
   -1566    -1587    -1598    -1613    -1653    -1675    -1667    -1672 
   -1694    -1709    -1710    -1721    -1749    -1763    -1757    -1767 
   -1788    -1803    -1810    -1818    -1838    -1859    -1858    -1854 
   -1875    -1895    -1894    -1892    -1915    -1939    -1935    -1925 
   -1937    -1953    -1949    -1949    -1964    -1971    -1949    -1948 
   -1988    -2020    -2010    -2000    -2020    -2034    -2016    -1996 
   -2006    -2025    -2019    -1999    -2006    -2027    -2023    -2007 
   -2020    -2038    -2022    -2004    -2015    -2029    -2026    -2019 
   -2027    -2034    -2011    -1980    -1981    -2007    -2020    -2016 
   -2014    -2014    -1995    -1977    -1975    -1977    -1969    -1964 
   -1981    -1995    -1980    -1964    -1960    -1956    -1944    -1929 
   -1935    -1953    -1953    -1938    -1934    -1939    -1942    -1941 
   -1935    -1922    -1915    -1923    -1930    -1921    -1908    -1908 
   -1917    -1918    -1907    -1904    -1915    -1912    -1891    -1885 
   -1907    -1914    -1896    -1899    -1921    -1919    -1902    -1906 
   -1922    -1929    -1921    -1911    -1919    -1922    -1906    -1907 
   -1938    -1954    -1948    -1953    -1972    -1977    -1956    -1935 
   -1949    -1961    -1944    -1941    -1968    -1991    -1987    -1977 
   -1989    -2012    -2012    -2008    -2029    -2039    -2019    -2012 
   -2038    -2053    -2045    -2042    -2072    -2100    -2097    -2091 
   -2104    -2119    -2123    -2126    -2143    -2162    -2180    -2193 
   -2199    -2196    -2192    -2195    -2215    -2226    -2215    -2226 
   -2249    -2261    -2258    -2250    -2259    -2280    -2284    -2282 
   -2297    -2304    -2304    -2319    -2335    -2335    -2340    -2358 
   -2374    -2380    -2382    -2392    -2408    -2420    -2427    -2430 
   -2435    -2442    -2451    -2461    -2485    -2500    -2497    -2496 
   -2505    -2511    -2505    -2497    -2513    -2529    -2519    -2517 
   -2544    -2560    -2562    -2567    -2579    -2579    -2570    -2578 
   -2602    -2608    -2596    -2583    -2582    -2600    -2610    -2605 
   -2613    -2620    -2596    -2579    -2605    -2623    -2612    -2605 
   -2614    -2628    -2631    -2623    -2624    -2631    -2624    -2613 
   -2612    -2606    -2596    -2584    -2579    -2578    -2577    -2582 
   -2590    -2584    -2575    -2581    -2587    -2583    -2569    -2548 
   -2542    -2548    -2544    -2525    -2523    -2535    -2516    -2484 
   -2493    -2504    -2478    -2452    -2448    -2450    -2440    -2425 
   -2421    -2416    -2404    -2392    -2381    -2380    -2371    -2347 
   -2328    -2319    -2301    -2286    -2293    -2299    -2278    -2257 
   -2258    -2258    -2234    -2203    -2188    -2185    -2170    -2150 
   -2143    -2143    -2134    -2120    -2115    -2106    -2079    -2061 
   -2057    -2052    -2034    -2016    -2007    -2001    -1984    -1956 
   -1941    -1944    -1938    -1918    -1902    -1894    -1876    -1852 
   -1844    -1833    -1813    -1806    -1807    -1800    -1788    -1773 
   -1761    -1750    -1729    -1706    -1705    -1719    -1715    -1691 
   -1679    -1676    -1663    -1647    -1638    -1632    -1621    -1611 
   -1617    -1615    -1595    -1584    -1588    -1586    -1568    -1552 
   -1552    -1561    -1545    -1517    -1507    -1505    -1494    -1482 
   -1479    -1485    -1486    -1483    -1483    -1478    -1464    -1449 
   -1453    -1467    -1452    -1431    -1440    -1455    -1453    -1436 
   -1417    -1418    -1418    -1402    -1401    -1413    -1401    -1381 
   -1382    -1395    -1391    -1374    -1377    -1399    -1399    -1371 
   -1362    -1368    -1356    -1329    -1327    -1343    -1345    -1340 
   -1350    -1360    -1351    -1334    -1329    -1327    -1324    -1320 
   -1317    -1324    -1325    -1304    -1296    -1312    -1312    -1294 
   -1290    -1298    -1291    -1277    -1287    -1300    -1282    -1271 
   -1282    -1294    -1294    -1297    -1297    -1290    -1285    -1282 
   -1282    -1296    -1305    -1294    -1290    -1308    -1306    -1287 
   -1296    -1321    -1323    -1300    -1296    -1324    -1333    -1317 
   -1314    -1327    -1328    -1320    -1324    -1336    -1334    -1324 
   -1329    -1344    -1350    -1345    -1343    -1358    -1368    -1354 
   -1350    -1370    -1381    -1367    -1364    -1382    -1386    -1366 
   -1364    -1387    -1399    -1408    -1422    -1425    -1416    -1405 
   -1404    -1422    -1435    -1425    -1435    -1457    -1453    -1441 
   -1463    -1498    -1505    -1489    -1486    -1499    -1503    -1490 
   -1485    -1507    -1517    -1499    -1505    -1528    -1525    -1514 
   -1532    -1549    -1537    -1526    -1549    -1575    -1564    -1544 
   -1556    -1586    -1586    -1561    -1556    -1578    -1590    -1587 
   -1583    -1584    -1590    -1594    -1599    -1609    -1611    -1610 
   -1615    -1615    -1603    -1597    -1615    -1637    -1632    -1628 
   -1640    -1655    -1660    -1651    -1641    -1648    -1651    -1638 
   -1632    -1637    -1649    -1664    -1668    -1669    -1669    -1663 
   -1664    -1667    -1657    -1651    -1656    -1658    -1653    -1648 
   -1652    -1661    -1660    -1653    -1655    -1658    -1655    -1644 
   -1637    -1637    -1629    -1617    -1624    -1641    -1641    -1632 
   -1638    -1648    -1642    -1628    -1621    -1625    -1625    -1611 
   -1599    -1602    -1606    -1603    -1603    -1609    -1606    -1593 
   -1582    -1576    -1567    -1563    -1568    -1564    -1552    -1544 
   -1540    -1537    -1528    -1522    -1533    -1540    -1521    -1497 
   -1494    -1497    -1487    -1479    -1485    -1502    -1498    -1468 
   -1467    -1480    -1457    -1426    -1435    -1447    -1431    -1412 
   -1428    -1451    -1429    -1398    -1399    -1408    -1394    -1378 
   -1382    -1393    -1385    -1370    -1372    -1379    -1366    -1351 
   -1360    -1367    -1340    -1316    -1325    -1334    -1318    -1305 
   -1308    -1321    -1324    -1308    -1308    -1314    -1296    -1273 
   -1262    -1254    -1248    -1244    -1256    -1277    -1266    -1237 
   -1225    -1227    -1225    -1217    -1202    -1204    -1213    -1209 
   -1194    -1189    -1201    -1202    -1177    -1166    -1182    -1193 
   -1182    -1161    -1158    -1171    -1166    -1150    -1151    -1152 
   -1144    -1143    -1142    -1133    -1133    -1144    -1142    -1112 
   -1097    -1112    -1116    -1109    -1119    -1133    -1127    -1104 
   -1096    -1111    -1117    -1107    -1112    -1125    -1115    -1096 
   -1104    -1124    -1123    -1116    -1133    -1151    -1139    -1121 
   -1132    -1155    -1158    -1147    -1155    -1183    -1192    -1174 
   -1174    -1193    -1196    -1185    -1198    -1233    -1255    -1252 
   -1252    -1269    -1279    -1282    -1300    -1321    -1321    -1317 
   -1325    -1337    -1348    -1348    -1360    -1393    -1416    -1416 
   -1422    -1456    -1486    -1478    -1460    -1478    -1499    -1514 
   -1545    -1574    -1582    -1584    -1597    -1629    -1660    -1669 
   -1684    -1717    -1733    -1729    -1745    -1786    -1810    -1802 
   -1814    -1864    -1890    -1877    -1885    -1934    -1977    -1988 
   -1988    -2012    -2042    -2053    -2057    -2074    -2097    -2116 
   -2142    -2182    -2203    -2191    -2196    -2230    -2257    -2280 
   -2308    -2338    -2363    -2367    -2361    -2374    -2401    -2424 
   -2448    -2471    -2485    -2492    -2513    -2548    -2562    -2552 
   -2560    -2590    -2612    -2620    -2623    -2631    -2640    -2652 
   -2677    -2709    -2721    -2718    -2727    -2751    -2759    -2743 
   -2739    -2764    -2783    -2782    -2791    -2813    -2828    -2833 
   -2825    -2830    -2852    -2859    -2856    -2863    -2862    -2855 
   -2867    -2872    -2860    -2855    -2867    -2882    -2879    -2857 
   -2855    -2875    -2882    -2863    -2849    -2860    -2878    -2871 
   -2857    -2862    -2862    -2848    -2852    -2863    -2851    -2832 
   -2833    -2847    -2849    -2836    -2824    -2826    -2829    -2814 
   -2782    -2758    -2758    -2762    -2755    -2755    -2751    -2739 
   -2736    -2729    -2709    -2694    -2687    -2681    -2673    -2656 
   -2643    -2644    -2641    -2629    -2629    -2627    -2617    -2610 
   -2596    -2578    -2570    -2563    -2554    -2543    -2531    -2523 
   -2509    -2492    -2479    -2463    -2457    -2459    -2446    -2430 
   -2421    -2405    -2386    -2370    -2354    -2353    -2358    -2349 
   -2336    -2335    -2324    -2292    -2267    -2273    -2278    -2261 
   -2243    -2241    -2231    -2215    -2207    -2200    -2182    -2163 
   -2160    -2160    -2149    -2126    -2107    -2101    -2102    -2095 
   -2083    -2077    -2069    -2052    -2030    -2011    -2001    -2004 
   -2008    -2006    -1992    -1977    -1971    -1973    -1965    -1942 
   -1921    -1911    -1912    -1908    -1892    -1883    -1887    -1883 
   -1864    -1849    -1850    -1848    -1833    -1818    -1800    -1781 
   -1775    -1779    -1788    -1787    -1776    -1764    -1760    -1757 
   -1746    -1738    -1740    -1728    -1702    -1695    -1701    -1696 
   -1699    -1706    -1692    -1675    -1665    -1660    -1655    -1641 
   -1628    -1634    -1644    -1630    -1614    -1617    -1621    -1609 
   -1588    -1588    -1606    -1606    -1590    -1590    -1597    -1584 
   -1579    -1588    -1588    -1570    -1564    -1582    -1586    -1564 
   -1560    -1572    -1561    -1545    -1551    -1564    -1574    -1575 
   -1574    -1586    -1586    -1564    -1557    -1576    -1583    -1567 
   -1560    -1580    -1595    -1594    -1601    -1611    -1611    -1602 
   -1601    -1599    -1594    -1590    -1591    -1609    -1630    -1618 
   -1603    -1632    -1653    -1622    -1590    -1613    -1649    -1637 
   -1615    -1638    -1660    -1651    -1642    -1657    -1676    -1669 
   -1658    -1676    -1691    -1672    -1651    -1669    -1705    -1702 
   -1680    -1687    -1706    -1709    -1694    -1690    -1702    -1702 
   -1692    -1702    -1707    -1688    -1682    -1703    -1719    -1709 
   -1694    -1696    -1703    -1688    -1677    -1690    -1698    -1691 
   -1688    -1702    -1710    -1698    -1691    -1709    -1722    -1707 
   -1688    -1686    -1686    -1672    -1656    -1655    -1661    -1664 
   -1669    -1674    -1675    -1667    -1644    -1629    -1640    -1636 
   -1617    -1630    -1648    -1630    -1606    -1610    -1620    -1601 
   -1582    -1588    -1588    -1578    -1576    -1578    -1576    -1568 
   -1557    -1559    -1564    -1549    -1528    -1528    -1537    -1513 
   -1478    -1485    -1513    -1502    -1475    -1486    -1509    -1486 
   -1440    -1439    -1462    -1449    -1417    -1420    -1447    -1441 
   -1409    -1398    -1414    -1425    -1408    -1382    -1378    -1374 
   -1363    -1367    -1366    -1341    -1328    -1343    -1354    -1334 
   -1306    -1305    -1317    -1308    -1291    -1289    -1302    -1297 
   -1260    -1240    -1250    -1260    -1260    -1256    -1246    -1236 
   -1236    -1236    -1227    -1220    -1221    -1223    -1221    -1206 
   -1192    -1204    -1216    -1201    -1181    -1178    -1174    -1161 
   -1156    -1169    -1188    -1179    -1154    -1155    -1173    -1169 
   -1151    -1144    -1147    -1147    -1146    -1154    -1155    -1138 
   -1128    -1143    -1144    -1120    -1105    -1115    -1124    -1115 
   -1100    -1112    -1136    -1143    -1128    -1117    -1128    -1136 
   -1121    -1112    -1115    -1113    -1107    -1109    -1121    -1131 
   -1129    -1124    -1127    -1129    -1125    -1129    -1136    -1127 
   -1115    -1112    -1117    -1127    -1132    -1136    -1144    -1151 
   -1148    -1138    -1135    -1142    -1140    -1133    -1140    -1151 
   -1150    -1139    -1133    -1131    -1125    -1125    -1136    -1142 
   -1133    -1131    -1133    -1131    -1135    -1142    -1144    -1150 
   -1155    -1154    -1151    -1143    -1133    -1140    -1150    -1146 
   -1140    -1150    -1163    -1165    -1165    -1174    -1178    -1166 
   -1152    -1151    -1156    -1159    -1162    -1177    -1194    -1197 
   -1196    -1204    -1201    -1178    -1171    -1201    -1223    -1205 
   -1190    -1208    -1227    -1228    -1229    -1235    -1239    -1240 
   -1243    -1247    -1256    -1260    -1260    -1277    -1294    -1293 
   -1290    -1302    -1320    -1320    -1318    -1339    -1362    -1362 
   -1360    -1371    -1387    -1395    -1393    -1405    -1429    -1437 
   -1433    -1439    -1453    -1460    -1463    -1480    -1501    -1501 
   -1497    -1517    -1540    -1539    -1548    -1576    -1576    -1556 
   -1551    -1563    -1583    -1601    -1613    -1632    -1653    -1653 
   -1648    -1663    -1672    -1668    -1677    -1692    -1709    -1722 
   -1726    -1729    -1744    -1755    -1755    -1767    -1791    -1792 
   -1784    -1803    -1825    -1821    -1813    -1825    -1845    -1846 
   -1850    -1876    -1898    -1902    -1904    -1906    -1904    -1904 
   -1914    -1935    -1962    -1977    -1975    -1979    -1996    -1995 
   -1981    -1996    -2018    -2018    -2023    -2053    -2079    -2072 
   -2058    -2076    -2097    -2097    -2093    -2097    -2110    -2118 
   -2119    -2124    -2142    -2158    -2161    -2162    -2180    -2189 
   -2182    -2191    -2214    -2214    -2196    -2212    -2241    -2234 
   -2222    -2236    -2249    -2243    -2245    -2259    -2259    -2242 
   -2254    -2289    -2293    -2265    -2259    -2282    -2297    -2284 
   -2267    -2282    -2304    -2286    -2255    -2263    -2284    -2276 
   -2258    -2262    -2277    -2278    -2277    -2278    -2265    -2239 
   -2226    -2231    -2230    -2219    -2219    -2235    -2242    -2222 
   -2204    -2207    -2196    -2165    -2146    -2157    -2169    -2157 
   -2135    -2130    -2137    -2130    -2111    -2095    -2097    -2097 
   -2074    -2061    -2053    -2025    -2007    -2016    -2018    -1993 
   -1971    -1985    -2006    -1977    -1946    -1961    -1962    -1914 
   -1875    -1883    -1900    -1881    -1856    -1859    -1867    -1840 
   -1803    -1802    -1817    -1811    -1795    -1786    -1787    -1779 
   -1755    -1736    -1728    -1719    -1713    -1719    -1732    -1717 
   -1682    -1675    -1692    -1682    -1655    -1664    -1691    -1675 
   -1637    -1632    -1657    -1651    -1621    -1615    -1628    -1629 
   -1626    -1637    -1651    -1645    -1632    -1628    -1636    -1638 
   -1628    -1625    -1634    -1634    -1628    -1641    -1669    -1661 
   -1636    -1640    -1658    -1665    -1668    -1675    -1686    -1694 
   -1687    -1683    -1699    -1719    -1723    -1728    -1749    -1761 
   -1742    -1729    -1749    -1767    -1760    -1773    -1814    -1833 
   -1823    -1831    -1859    -1859    -1830    -1823    -1854    -1883 
   -1884    -1881    -1900    -1923    -1923    -1926    -1952    -1964 
   -1956    -1965    -1989    -2004    -2007    -2014    -2037    -2053 
   -2052    -2061    -2087    -2096    -2091    -2107    -2143    -2153 
   -2142    -2149    -2173    -2182    -2174    -2181    -2207    -2219 
   -2211    -2208    -2220    -2231    -2235    -2241    -2251    -2265 
   -2272    -2270    -2292    -2322    -2319    -2304    -2316    -2330 
   -2326    -2323    -2338    -2354    -2358    -2354    -2357    -2363 
   -2371    -2376    -2377    -2376    -2365    -2362    -2378    -2382 
   -2374    -2393    -2424    -2420    -2396    -2396    -2408    -2403 
   -2390    -2396    -2404    -2394    -2384    -2390    -2400    -2397 
   -2400    -2417    -2427    -2412    -2394    -2405    -2420    -2403 
   -2381    -2393    -2413    -2411    -2393    -2400    -2419    -2404 
   -2377    -2381    -2393    -2386    -2382    -2388    -2386    -2371 
   -2369    -2386    -2400    -2390    -2376    -2365    -2362    -2362 
   -2363    -2376    -2390    -2382    -2369    -2371    -2369    -2355 
   -2353    -2362    -2366    -2353    -2335    -2338    -2338    -2317 
   -2313    -2319    -2315    -2315    -2323    -2319    -2299    -2277 
   -2274    -2284    -2285    -2285    -2288    -2289    -2284    -2266 
   -2246    -2241    -2242    -2227    -2211    -2215    -2222    -2214 
   -2203    -2200    -2204    -2196    -2178    -2173    -2178    -2169 
   -2149    -2135    -2126    -2111    -2101    -2104    -2111    -2110 
   -2095    -2088    -2097    -2085    -2053    -2034    -2031    -2025 
   -2014    -1998    -1987    -1984    -1968    -1949    -1941    -1930 
   -1929    -1929    -1917    -1898    -1876    -1863    -1865    -1854 
   -1833    -1826    -1818    -1795    -1777    -1769    -1761    -1744 
   -1726    -1721    -1711    -1686    -1663    -1655    -1647    -1626 
   -1601    -1584    -1579    -1568    -1551    -1534    -1520    -1507 
   -1495    -1478    -1466    -1452    -1417    -1379    -1371    -1364 
   -1332    -1308    -1308    -1302    -1286    -1269    -1247    -1223 
   -1197    -1178    -1173    -1162    -1133    -1105    -1085    -1077 
   -1067    -1044    -1030    -1021     -999     -982     -981     -957 
    -912     -882     -872     -857     -842     -834     -823     -812 
    -792     -762     -745     -739     -735     -720     -704     -691 
    -665     -635     -621     -614     -602     -584     -575     -564 
    -544     -535     -544     -535     -508     -491     -483     -467 
    -453     -444     -451     -461     -449     -425     -421     -425 
    -411     -395     -399     -402     -387     -379     -383     -378 
    -364     -369     -386     -382     -372     -379     -390     -388 
    -379     -379     -400     -413     -399     -387     -392     -398 
    -398     -409     -425     -434     -437     -441     -449     -454 
    -463     -473     -464     -453     -464     -487     -498     -500 
    -506     -526     -553     -564     -571     -588     -596     -589 
    -595     -622     -645     -650     -658     -673     -684     -702 
    -728     -745     -760     -785     -796     -789     -800     -826 
    -837     -842     -858     -882     -903     -916     -924     -939 
    -958     -977     -993    -1008    -1019    -1035    -1067    -1096 
