Origin Time       2016/04/16 01:25:00
Lat.              32.753
Long.             130.762
Depth. (km)       12
Mag.              7.3
Station Code      EHM013
Station Lat.      33.3924
Station Long.     132.1141
Station Height(m) 18
Record Time       2016/04/16 01:25:33
Sampling Freq(Hz) 100Hz
Duration Time(s)  99
Dir.              E-W
Scale Factor      7845(gal)/8223790
Max. Acc. (gal)   12.932
Last Correction   2016/04/16 01:25:33
Memo.             
[...]
     198      745     1197     1814     2839     3971     4369     3676 
    2525     1412      206    -1155    -2493    -3403    -3395    -2543 
   -1587    -1115    -1166    -1547    -1989    -2158    -1941    -1586 
   -1293    -1060    -1023    -1410    -2284    -3407    -4256    -4371 
   -3721    -2671    -1755    -1545    -2324    -3719    -5177    -6517 
   -7595    -8286    -8770    -9005    -8721    -8027    -7202    -6203 
   -4868    -3366    -2098    -1264     -799     -432      -25      147 
      58      108      203     -193    -1282    -2909    -4784    -6393 
   -7211    -7037    -5957    -4255    -2407     -965     -256     -259 
    -927    -2061    -3002    -3355    -3570    -4174    -5047    -5606 
   -5173    -3550    -1617     -532     -546    -1343    -2709    -4360 
   -5891    -6866    -7001    -6426    -5248    -3451    -1516     -265 
    -302    -1741    -3928    -5698    -6280    -5707    -4494    -3245 
   -2371    -2000    -2265    -3223    -4496    -5537    -5967    -5675 
   -4932    -4225    -3904    -3882    -3820    -3697    -3642    -3553 
   -3538    -3797    -3852    -3140    -2025    -1105     -387      112 
     144     -324    -1248    -2567    -3893    -4791    -5066    -4440 
   -2878    -1163     -129      211      259        1    -1017    -2914 
   -5046    -6439    -6440    -5306    -3986    -3053    -2442    -2106 
   -2214    -2896    -4041    -5271    -6115    -6269    -5813    -5174 
   -4702    -4406    -4055    -3511    -2945    -2474    -1993    -1748 
   -2258    -3317    -3855    -3179    -1941    -1385    -2060    -3604 
   -5225    -6250    -6527    -6249    -5598    -4918    -4715    -4926 
   -4807    -4126    -3662    -4085    -5023    -5779    -6043    -5611 
   -4614    -3619    -3005    -2924    -3280    -3732    -4144    -4382 
   -4276    -4105    -4183    -4452    -4673    -4477    -3835    -3292 
   -3146    -3199    -3256    -3235    -3156    -3067    -3044    -3254 
   -3608    -3973    -4576    -5521    -6583    -7317    -7040    -5532 
   -3528    -2038    -1363    -1109     -987    -1059    -1224    -1128 
    -756     -359       14      243      109     -197     -457     -778 
   -1246    -1892    -2636    -3161    -3384    -3773    -4710    -5821 
   -6519    -6777    -6751    -6313    -5468    -4500    -3751    -3680 
   -4490    -5495    -6042    -6419    -6727    -6224    -4614    -2758 
   -1723    -1829    -2782    -4094    -5081    -5143    -4450    -3808 
   -3798    -4484    -5645    -6818    -7325    -6531    -4519    -2482 
   -1621    -1884    -2506    -2956    -3218    -3685    -4376    -4688 
   -4360    -3883    -3844    -4329    -4784    -4733    -4413    -4434 
   -5040    -5732    -5724    -4698    -2902     -893      513      600 
    -317    -1053    -1205    -1560    -2652    -4012    -4899    -5073 
   -4812    -4482    -4159    -3747    -3302    -3122    -3213    -2839 
   -1448       67      144    -1557    -3921    -5713    -6546    -6750 
   -6529    -5697    -4248    -2597    -1287     -730    -1205    -2474 
   -3287    -2682    -1549    -1468    -2617    -3932    -4781    -5286 
   -5576    -5652    -5262    -4093    -2573    -1722    -2042    -2798 
   -2721    -1560     -278      417      696     1019     1394      877 
   -1259    -3815    -4893    -3937    -1472     1378     3388     4245 
    4107     2876      837    -1143    -2182    -1807     -303     1282 
    1871     1208     -141    -1598    -2713    -3192    -3321    -3357 
   -2964    -2076    -1221     -927    -1394    -2228    -2681    -2606 
   -2608    -3141    -3958    -4372    -3875    -2718    -1597     -683 
     118      390     -218    -1117    -1377    -1077    -1252    -2274 
   -3292    -3524    -3152    -2721    -2484    -2409    -2243    -1629 
    -607      318      693      365     -616    -1800    -2290    -1757 
    -928     -544     -676    -1100    -1691    -2473    -3265    -3681 
   -3632    -3296    -2884    -2581    -2450    -2740    -3658    -4538 
   -4479    -3492    -2328    -1579    -1225    -1084    -1277    -1876 
   -2592    -2862    -2301    -1166      -56      591      781      841 
     823      598      329      114     -172     -591    -1139    -1652 
   -1981    -2326    -2894    -3508    -3732    -3311    -2461    -1499 
    -699     -660    -1728    -3268    -4243    -4243    -3697    -3211 
   -2947    -2617    -2185    -2153    -2636    -3217    -3856    -4824 
   -6064    -7191    -7809    -7704    -6658    -4779    -3090    -2614 
   -3169    -3955    -4318    -3662    -2088     -712     -268     -627 
   -1498    -2188    -2161    -2104    -2686    -3246    -3024    -2281 
   -1602    -1399    -1949    -2759    -2971    -2743    -2705    -2856 
   -2938    -2832    -2612    -2683    -3420    -4675    -5850    -6413 
   -6200    -5292    -3885    -2211     -600      425      336    -1031 
   -2961    -4159    -4140    -3549    -3171    -3470    -4334    -5057 
   -5151    -4773    -4233    -3770    -3731    -4245    -4588    -4081 
   -3196    -2759    -3064    -3775    -4189    -4126    -3974    -3947 
   -4035    -4167    -4314    -4430    -4334    -3986    -3589    -3423 
   -3677    -4172    -4606    -5131    -5910    -6416    -6285    -6012 
   -6056    -6261    -6100    -4986    -3153    -1779    -1595    -2316 
   -3336    -4205    -4688    -4748    -4433    -3735    -2721    -1740 
   -1188    -1204    -1647    -2289    -3069    -3932    -4680    -5123 
   -5151    -4918    -4816    -4868    -4773    -4587    -4590    -4754 
   -4819    -4738    -4754    -5005    -5250    -5125    -4795    -4923 
   -5555    -5971    -5975    -5902    -5610    -4706    -3395    -2466 
   -2478    -3276    -4336    -5202    -5765    -6197    -6520    -6662 
   -6687    -6616    -6656    -7245    -8091    -8182    -7194    -5798 
   -4645    -3836    -3127    -2446    -2126    -2386    -3096    -3931 
   -4436    -4554    -4654    -4650    -4087    -3071    -2180    -1703 
   -1641    -1884    -2142    -2142    -1918    -1800    -1993    -2300 
   -2424    -2165    -1513     -787      -74      843     1525     1267 
     212    -1313    -3188    -4779    -5435    -5352    -4984    -4393 
   -3719    -3343    -3287    -3204    -2974    -2625    -2114    -1513 
    -992     -638     -564     -959    -1845    -2688    -2840    -2467 
   -2219    -2220    -2155    -1875    -1475    -1155    -1039    -1144 
   -1614    -2466    -3342    -3951    -4233    -4237    -4124    -4010 
   -3855    -3497    -2787    -1962    -1601    -1842    -2176    -2274 
   -2327    -2473    -2528    -2236    -1601    -1129    -1334    -1890 
   -2154    -2270    -2598    -2822    -2544    -2014    -1869    -2196 
   -2412    -2319    -2296    -2629    -3333    -4083    -4500    -4599 
   -4592    -4477    -4212    -4024    -4020    -3753    -3015    -2392 
   -2353    -2629    -2852    -3144    -3732    -4368    -4585    -4152 
   -3138    -1944    -1003     -522     -827    -2092    -3712    -4961 
   -5585    -5460    -4693    -3916    -3842    -4548    -5377    -5751 
   -5726    -5552    -5251    -4788    -4233    -3835    -3751    -3734 
   -3563    -3411    -3451    -3661    -3893    -3970    -3802    -3470 
   -3226    -3256    -3426    -3454    -3059    -2149    -1269     -969 
    -901     -681     -584     -858    -1410    -1980    -2366    -2856 
   -3802    -4784    -5142    -4838    -4195    -3464    -2740    -2031 
   -1457    -1251    -1539    -2100    -2604    -3032    -3321    -3207 
   -3002    -3215    -3578    -3619    -3376    -2961    -2332    -1759 
   -1767    -2263    -2624    -2691    -2663    -2577    -2548    -2786 
   -3240    -3558    -3439    -3030    -2706    -2671    -3013    -3534 
   -3854    -4023    -4178    -4051    -3488    -2540    -1313     -395 
    -530    -1717    -3098    -3854    -3977    -3825    -3496    -3057 
   -2651    -2440    -2717    -3510    -4180    -4079    -3392    -2748 
   -2338    -2079    -1980    -2025    -2173    -2425    -2824    -3551 
   -4500    -5074    -4885    -4079    -3234    -3073    -3581    -4040 
   -4172    -4120    -3800    -3160    -2452    -1810    -1248    -1166 
   -1796    -2616    -3145    -3454    -3551    -3149    -2303    -1611 
   -1405    -1517    -1857    -2454    -3038    -3092    -2448    -1580 
   -1063    -1128    -1576    -1892    -1898    -1910    -2066    -2278 
   -2488    -2636    -2733    -2805    -2822    -2646    -2196    -1684 
   -1370    -1441    -1952    -2766    -3736    -4351    -3873    -2413 
    -918     -346     -981    -2239    -3343    -3672    -2899    -1528 
    -598     -765    -1869    -3148    -3897    -3882    -3499    -3292 
   -3133    -2739    -2504    -2867    -3573    -3971    -3665    -2724 
   -1564     -676     -229     -189     -660    -1535    -2263    -2327 
   -1645     -576      380      796      407     -619    -1922    -3180 
   -3962    -4098    -3842    -3366    -2829    -2373    -2038    -1981 
   -2203    -2471    -2729    -2995    -3217    -3368    -3516    -3825 
   -4369    -4984    -5466    -5732    -5620    -4988    -4207    -3859 
   -3955    -4095    -4087    -3912    -3565    -3244    -3172    -3314 
   -3651    -4194    -4680    -4945    -5159    -5301    -5023    -4295 
   -3561    -3157    -3107    -3366    -3723    -3940    -4094    -4266 
   -4401    -4542    -4681    -4568    -4094    -3593    -3443    -3597 
   -3558    -2976    -2219    -1948    -2303    -2902    -3392    -3800 
   -4276    -4514    -3997    -2839    -1741    -1395    -1912    -2739 
   -3496    -4258    -4999    -5409    -5159    -4333    -3527    -3268 
   -3518    -3824    -3812    -3459    -3071    -2961    -2952    -2778 
   -2679    -2797    -2978    -3327    -3971    -4741    -5432    -5918 
   -6029    -5522    -4463    -3419    -2887    -2844    -3006    -3130 
   -3146    -3141    -3175    -3330    -3732    -4310    -4799    -4951 
   -4673    -4083    -3528    -3372    -3645    -4145    -4519    -4411 
   -4035    -3880    -4059    -4411    -4618    -4583    -4685    -5030 
   -5308    -5317    -5003    -4514    -4071    -3666    -3330    -3273 
   -3603    -4243    -4907    -5271    -5235    -4864    -4344    -4005 
   -4178    -4772    -5202    -5155    -4899    -4779    -4843    -4865 
   -4692    -4428    -4153    -3971    -4135    -4656    -5093    -5088 
   -4726    -4298    -4039    -3943    -3713    -3349    -3241    -3435 
   -3634    -3680    -3522    -3196    -2778    -2384    -2189    -2039 
   -1781    -1776    -2187    -2654    -2949    -3226    -3755    -4537 
   -5175    -5262    -4804    -4203    -3831    -3667    -3569    -3539 
   -3570    -3663    -3744    -3514    -2934    -2388    -2126    -2227 
   -2625    -3036    -3468    -4125    -4779    -5242    -5552    -5576 
   -5408    -5314    -5206    -4968    -4842    -4980    -5013    -4558 
   -3835    -3462    -3773    -4438    -4903    -4946    -4548    -3632 
   -2239     -735      359      815      758      263     -747    -2037 
   -2957    -3180    -2936    -2362    -1525     -796     -417     -294 
    -504    -1192    -2058    -2778    -3385    -3823    -3904    -3605 
   -3051    -2582    -2542    -2767    -2758    -2415    -2207    -2324 
   -2346    -1945    -1242     -525     -118     -271    -1090    -2543 
   -4122    -5007    -4876    -4156    -3507    -3272    -3474    -4041 
   -4720    -5084    -4729    -3546    -1906     -411      409      252 
    -822    -2629    -4901    -6971    -8286    -8972    -9221    -8841 
   -7742    -6409    -5535    -5327    -5351    -5049    -4363    -3711 
   -3457    -3518    -3439    -2889    -2057    -1503    -1459    -1630 
   -1906    -2617    -3896    -5219    -5931    -6060    -5971    -5590 
   -4495    -2664     -943     -386    -1011    -1923    -2432    -2408 
   -2191    -2230    -2504    -2774    -2999    -3298    -3871    -4617 
   -5115    -5283    -5198    -4715    -3861    -3073    -3098    -4210 
   -5491    -5908    -5528    -4850    -4243    -4023    -4110    -4283 
   -4531    -4695    -4568    -4248    -3865    -3319    -2493    -1524 
    -869     -967    -1900    -3508    -5327    -6432    -6053    -4393 
   -2516    -1389    -1246    -1836    -2735    -3422    -3727    -3967 
   -4068    -3685    -3152    -2825    -2466    -2097    -1894    -1602 
   -1436    -1887    -2528    -2836    -3036    -3336    -3697    -4064 
   -4203    -3875    -3184    -2331    -1046      942     2847     3546 
    2994     1942     1179     1259     2033     2529     2168     1441 
     724      -76     -353      908     3642     6562     8340     8577 
    7669     5923     3345      450    -1370     -931     1648     5013 
    7631     9030     9499     8969     7519     5800     4271     3118 
    2322     1516      409     -901    -2003    -2660    -3037    -3188 
   -3184    -3084    -2486    -1439     -872    -1258    -2169    -3184 
   -4380    -5697    -6374    -5814    -4442    -3377    -3755    -5713 
   -7974    -9255    -9243    -8067    -6262    -4945    -4947    -6083 
   -7642    -9219   -10876   -12650   -14065   -14337   -12924   -10142 
   -7195    -4970    -3431    -2442    -1960    -1814    -1966    -2319 
   -2485    -2150    -1533    -1452    -2299    -3326    -3789    -3913 
   -4341    -5104    -5151    -3879    -2643    -2899    -4303    -5684 
   -6598    -7464    -8263    -8411    -7871    -6891    -5258    -3187 
   -2023    -2168    -2072     -985      -25     -126     -974    -1821 
   -2146    -1467      117     1651     3002     4750     6480     7608 
    8376     9200    10052    10542    10277     8988     7263     6735 
    8121     9780     9668     7821     5177     2116    -1080    -4255 
   -6609    -7137    -6501    -5510    -3937    -2146    -1336    -2361 
   -4102    -4473    -3665    -3346    -4214    -5398    -5699    -6039 
   -7591    -9375   -10150    -9265    -7014    -5009    -4241    -4403 
   -5134    -6031    -6496    -6685    -6917    -6343    -4668    -3526 
   -3878    -4330    -4062    -4105    -3981    -2540    -1471    -1858 
   -1679     -249      514     -407    -2060    -3268    -3834    -4448 
   -5575    -6147    -5545    -4862    -4180    -2813    -1243     -672 
   -1740    -3129    -3388    -3291    -3377    -2943    -2242    -1401 
      83      650     -581     -687      774      724     -446    -1159 
   -1760    -1548      -71     1279      557    -2605    -5385    -5954 
   -5286    -3885    -2887    -3018    -2728    -1602     -529     -722 
   -2639    -3607    -2668    -3176    -5590    -6367    -4914    -4233 
   -5363    -6427    -6581    -6006    -4116    -1857    -1417    -2137 
   -1603       76     1706     3600     4814     3800     2295     2359 
    3232     3111     1921     2155     3955     3936     2415     1988 
    1363    -1081    -4330    -6990    -7803    -6544    -4556    -2849 
   -1093     1522     3755     3273      808    -1512    -2026      305 
    3392     5435     6955     6385     2820    -1336    -4475    -5745 
   -4571    -2584    -1039      159      383        5     -326    -1910 
   -4467    -6031    -7196    -9431   -11535   -11753   -10959   -10912 
  -10858    -8635    -5491    -5721    -9151   -11766   -13018   -12964 
  -10592    -8552    -8106    -6682    -5883    -8716   -12098   -11797 
   -8816    -6791    -6332    -5544    -4337    -3245    -1764     -361 
     476     1302     2137     2338     1042    -1710    -4321    -6180 
   -7969    -9140    -8935    -8094    -7182    -5752    -3919    -2014 
     409     3044     4215     2604     -650    -2714    -3550    -5144 
   -6826    -7508    -7524    -6411    -4866    -4136    -2601       -4 
     924       72     -784    -1374    -1545    -1692    -2416    -2450 
   -1757    -2128    -3329    -4629    -6268    -7304    -7248    -7267 
   -7589    -7295    -5815    -4287    -4681    -5570    -4592    -3609 
   -4295    -5143    -5024    -3794    -2243    -1952    -2398    -2157 
   -1377      -95     1179     1634     2286     3440     3921     3563 
    2907     2643     3555     5566     7055     6687     5212     3227 
     903     -492     -838     -905       64     2513     4737     4446 
    1737     -895    -2403    -3304    -3863    -4807    -5967    -6332 
   -5968    -5371    -5256    -5248    -3920    -2304    -2234    -3250 
   -4243    -4421    -3626    -2708    -2231    -1540      216     2500 
    4266     5024     4058     1232    -2359    -5985    -9234   -11057 
  -10813    -9166    -7353    -6012    -5184    -4830    -4279    -3345 
   -3395    -4994    -7126    -8996   -10386   -11087   -10586    -8365 
   -5283    -3221    -2882    -3885    -5533    -6987    -7713    -7213 
   -5325    -2452      598     2647     3261     2439      692     -328 
    -454     -767     -799       79     1344     2311     2577     2475 
    2496     1946       49    -2277    -3693    -4436    -5189    -5533 
   -5097    -4482    -4545    -5508    -6438    -5807    -3707    -2417 
   -2168     -436     2263     3298     2714     1395     -297    -1783 
   -3073    -3730    -3213    -2386    -1841    -2023    -3522    -4779 
   -4024    -2101     -253     1065     1107     -175    -2008    -4595 
   -7788    -9626    -8768    -5347     -711     2336     2627     1204 
   -1370    -3986    -5233    -5459    -5351    -5177    -5302    -5910 
   -7048    -8141    -8691    -8822    -8012    -6131    -4013    -2068 
    -818     -457     -425    -1051    -2687    -4671    -6600    -7797 
   -7261    -5831    -5123    -5090    -4764    -3470    -1611     -642 
    -919    -1237    -1410    -2235    -3118    -3379    -3844    -4671 
   -4905    -4117    -2641    -1692    -2579    -5131    -7577    -8159 
   -7646    -7859    -7830    -6200    -4492    -4283    -4780    -4268 
   -2601     -897      209      380      218      699      741     -946 
   -3620    -6054    -7750    -8679    -8905    -7982    -5715    -3222 
   -1557    -1204    -2434    -4391    -6058    -7211    -7652    -7337 
   -6423    -5337    -4927    -5481    -6427    -6918    -6347    -5505 
   -5412    -5059    -3474    -1711    -1124    -1850    -2852    -3262 
   -3657    -4884    -6060    -5841    -5055    -5227    -5900    -5757 
   -4851    -4542    -5493    -6701    -7416    -7971    -8221    -7680 
   -6442    -4847    -3403    -2874    -3659    -5121    -6014    -5751 
   -4741    -3470    -2581    -3099    -4720    -6030    -6372    -5606 
   -4298    -3450    -2817    -2037    -1580    -1323    -1081    -1663 
   -3307    -4801    -5189    -4695    -3997    -3697    -4301    -5786 
   -6945    -6596    -5292    -4320    -3944    -3518    -2293     -287 
    1286     1209     -579    -3176    -5393    -6551    -6705    -6131 
   -5060    -3959    -3350    -3794    -5374    -6585    -6937    -7989 
   -9238    -9246    -8143    -5684    -2685    -1471    -2169    -3204 
   -3965    -4754    -5691    -6548    -7456    -8044    -6999    -4791 
   -3676    -4066    -4685    -4959    -5057    -5233    -5038    -3963 
   -3198    -3634    -4033    -3674    -3249    -2986    -3068    -3766 
   -4596    -5081    -4627    -3246    -2511    -2646    -2486    -2249 
   -2191    -2230    -2997    -4426    -5539    -5798    -5709    -5665 
   -4994    -3618    -2586    -2562    -3172    -3503    -3119    -2100 
    -699      688     1881     2627     2504     1505      -76    -1786 
   -3156    -4113    -4472    -3754    -2353    -1586    -1877    -2319 
