Origin Time       2016/04/16 01:25:00
Lat.              32.753
Long.             130.762
Depth. (km)       12
Mag.              7.3
Station Code      EHM005
Station Lat.      33.7974
Station Long.     132.9141
Station Height(m) 136
Record Time       2016/04/16 01:25:47
Sampling Freq(Hz) 100Hz
Duration Time(s)  107
Dir.              N-S
Scale Factor      7845(gal)/8223790
Max. Acc. (gal)   9.317
Last Correction   2016/04/16 01:25:48
Memo.             
[...]
   -6666    -6829    -6972    -7110    -7236    -7353    -7479    -7605 
   -7735    -7881    -8005    -8094    -8175    -8243    -8268    -8235 
   -8147    -8043    -7927    -7778    -7591    -7385    -7203    -7064 
   -6928    -6782    -6655    -6588    -6597    -6643    -6682    -6714 
   -6754    -6787    -6785    -6741    -6709    -6710    -6739    -6781 
   -6799    -6813    -6847    -6883    -6932    -7038    -7184    -7334 
   -7476    -7591    -7673    -7767    -7900    -8017    -8077    -8124 
   -8193    -8236    -8255    -8313    -8380    -8390    -8363    -8326 
   -8253    -8118    -7948    -7771    -7589    -7400    -7223    -7055 
   -6856    -6628    -6431    -6289    -6177    -6092    -6041    -6015 
   -6012    -6026    -6031    -6000    -5933    -5854    -5780    -5719 
   -5705    -5742    -5821    -5937    -6057    -6138    -6191    -6251 
   -6334    -6427    -6539    -6682    -6860    -7045    -7203    -7318 
   -7411    -7518    -7642    -7744    -7789    -7776    -7730    -7692 
   -7643    -7546    -7431    -7345    -7285    -7231    -7169    -7122 
   -7105    -7096    -7071    -7028    -6998    -7023    -7099    -7176 
   -7221    -7222    -7188    -7134    -7098    -7117    -7173    -7231 
   -7276    -7281    -7223    -7111    -6971    -6848    -6768    -6721 
   -6709    -6725    -6758    -6817    -6878    -6913    -6925    -6922 
   -6919    -6952    -7003    -7056    -7141    -7264    -7410    -7578 
   -7773    -7962    -8109    -8201    -8228    -8170    -8054    -7924 
   -7761    -7561    -7377    -7252    -7157    -7042    -6928    -6851 
   -6802    -6760    -6724    -6686    -6635    -6578    -6527    -6474 
   -6420    -6374    -6334    -6293    -6247    -6212    -6207    -6199 
   -6135    -6034    -5930    -5840    -5775    -5755    -5800    -5888 
   -5994    -6124    -6268    -6401    -6531    -6654    -6755    -6840 
   -6909    -6948    -6947    -6913    -6864    -6828    -6815    -6824 
   -6863    -6957    -7106    -7284    -7462    -7619    -7734    -7796 
   -7824    -7859    -7903    -7954    -7998    -7985    -7903    -7789 
   -7662    -7546    -7441    -7295    -7107    -6925    -6751    -6567 
   -6392    -6259    -6174    -6127    -6099    -6056    -5975    -5895 
   -5852    -5838    -5856    -5938    -6103    -6323    -6564    -6815 
   -7080    -7342    -7586    -7792    -7938    -8037    -8110    -8159 
   -8177    -8167    -8171    -8214    -8253    -8252    -8232    -8224 
   -8233    -8243    -8226    -8151    -8002    -7797    -7537    -7203 
   -6824    -6459    -6164    -5938    -5771    -5667    -5629    -5643 
   -5697    -5793    -5918    -6027    -6095    -6143    -6189    -6214 
   -6257    -6365    -6516    -6671    -6836    -7007    -7168    -7321 
   -7466    -7584    -7639    -7647    -7650    -7650    -7619    -7557 
   -7473    -7391    -7319    -7236    -7127    -6983    -6804    -6608 
   -6408    -6199    -6008    -5892    -5836    -5791    -5769    -5821 
   -5954    -6158    -6419    -6708    -6988    -7236    -7434    -7553 
   -7581    -7535    -7435    -7267    -7017    -6704    -6381    -6099 
   -5872    -5698    -5597    -5568    -5551    -5494    -5420    -5363 
   -5301    -5185    -5009    -4797    -4558    -4302    -4068    -3886 
   -3744    -3639    -3597    -3646    -3785    -4002    -4298    -4648 
   -5022    -5417    -5823    -6208    -6551    -6848    -7092    -7292 
   -7477    -7649    -7801    -7940    -8063    -8151    -8195    -8208 
   -8193    -8136    -7997    -7756    -7449    -7109    -6751    -6388 
   -6030    -5698    -5412    -5173    -4992    -4874    -4785    -4726 
   -4727    -4788    -4905    -5082    -5316    -5589    -5872    -6160 
   -6444    -6682    -6847    -6955    -7025    -7065    -7083    -7080 
   -7056    -7014    -6956    -6903    -6871    -6845    -6804    -6759 
   -6718    -6666    -6597    -6515    -6413    -6289    -6169    -6102 
   -6129    -6247    -6443    -6702    -6993    -7288    -7586    -7862 
   -8086    -8252    -8371    -8467    -8564    -8660    -8758    -8863 
   -8958    -9042    -9144    -9255    -9329    -9352    -9335    -9282 
   -9212    -9151    -9104    -9078    -9080    -9100    -9112    -9112 
   -9115    -9117    -9104    -9081    -9058    -9038    -9026    -9015 
   -9003    -9000    -9018    -9069    -9159    -9256    -9321    -9369 
   -9447    -9559    -9676    -9788    -9892    -9973   -10022   -10048 
  -10018    -9891    -9672    -9397    -9093    -8776    -8463    -8167 
   -7890    -7646    -7457    -7345    -7300    -7299    -7327    -7381 
   -7414    -7393    -7340    -7267    -7155    -7025    -6921    -6866 
   -6856    -6881    -6929    -6990    -7047    -7087    -7106    -7103 
   -7083    -7056    -7026    -6990    -6944    -6860    -6721    -6531 
   -6322    -6114    -5907    -5694    -5491    -5325    -5216    -5174 
   -5178    -5194    -5215    -5263    -5350    -5433    -5487    -5516 
   -5525    -5532    -5564    -5625    -5709    -5822    -5962    -6124 
   -6293    -6450    -6594    -6716    -6782    -6785    -6727    -6617 
   -6484    -6351    -6234    -6135    -6062    -6022    -6043    -6133 
   -6258    -6394    -6523    -6628    -6711    -6797    -6895    -7022 
   -7194    -7393    -7585    -7758    -7931    -8139    -8374    -8600 
   -8800    -8968    -9085    -9161    -9202    -9209    -9192    -9147 
   -9071    -8981    -8874    -8756    -8642    -8549    -8487    -8456 
   -8454    -8486    -8533    -8571    -8571    -8538    -8484    -8404 
   -8290    -8125    -7905    -7654    -7415    -7223    -7084    -7020 
   -7080    -7271    -7569    -7973    -8451    -8954    -9440    -9875 
  -10208   -10397   -10454   -10420   -10315   -10150    -9954    -9751 
   -9547    -9343    -9130    -8877    -8594    -8306    -8014    -7682 
   -7284    -6822    -6330    -5848    -5404    -5015    -4688    -4434 
   -4288    -4266    -4345    -4494    -4695    -4951    -5252    -5557 
   -5841    -6115    -6420    -6775    -7171    -7591    -8020    -8447 
   -8847    -9196    -9450    -9580    -9590    -9512    -9385    -9208 
   -8950    -8629    -8279    -7929    -7580    -7236    -6903    -6569 
   -6219    -5867    -5501    -5092    -4615    -4079    -3516    -2932 
   -2335    -1763    -1223     -687     -133      418      923     1344 
    1667     1872     1958     1933     1809     1614     1340      954 
     506       82     -333     -737    -1062    -1308    -1522    -1707 
   -1875    -2045    -2218    -2394    -2587    -2813    -3087    -3406 
   -3747    -4095    -4445    -4788    -5109    -5404    -5672    -5902 
   -6106    -6328    -6569    -6818    -7096    -7402    -7726    -8059 
   -8365    -8630    -8842    -8996    -9115    -9205    -9248    -9246 
   -9205    -9140    -9073    -9007    -8946    -8919    -8950    -9059 
   -9244    -9463    -9699    -9953   -10207   -10438   -10636   -10795 
  -10937   -11064   -11159   -11203   -11188   -11117   -11007   -10875 
  -10714   -10532   -10349   -10170    -9984    -9786    -9585    -9388 
   -9213    -9088    -9018    -8970    -8927    -8901    -8888    -8872 
   -8850    -8830    -8808    -8773    -8725    -8645    -8530    -8398 
   -8257    -8106    -7967    -7859    -7754    -7619    -7450    -7268 
   -7089    -6868    -6531    -6161    -5879    -5652    -5474    -5428 
   -5494    -5621    -5790    -5952    -6079    -6177    -6251    -6295 
   -6296    -6277    -6274    -6297    -6345    -6424    -6519    -6601 
   -6662    -6669    -6582    -6394    -6103    -5724    -5283    -4804 
   -4324    -3905    -3592    -3399    -3327    -3375    -3538    -3816 
   -4174    -4548    -4912    -5265    -5575    -5836    -6077    -6315 
   -6554    -6801    -7079    -7391    -7723    -8073    -8433    -8780 
   -9096    -9369    -9579    -9711    -9764    -9756    -9694    -9574 
   -9402    -9188    -8927    -8606    -8226    -7835    -7493    -7253 
   -7180    -7325    -7699    -8314    -9147   -10114   -11115   -12087 
  -13014   -13898   -14747   -15511   -16032   -16262   -16339   -16294 
  -16035   -15619   -15110   -14470   -13718   -12906   -12043   -11141 
  -10234    -9337    -8461    -7638    -6876    -6172    -5560    -5069 
   -4699    -4448    -4326    -4340    -4459    -4652    -4891    -5158 
   -5460    -5780    -6100    -6434    -6748    -7002    -7207    -7356 
   -7406    -7375    -7288    -7111    -6840    -6512    -6133    -5711 
   -5289    -4907    -4584    -4349    -4236    -4247    -4368    -4579 
   -4841    -5131    -5435    -5697    -5869    -5937    -5913    -5822 
   -5697    -5578    -5509    -5522    -5633    -5850    -6191    -6637 
   -7168    -7773    -8431    -9104    -9774   -10440   -11102   -11750 
  -12380   -12993   -13576   -14119   -14611   -15049   -15421   -15684 
  -15836   -15903   -15866   -15716   -15476   -15186   -14904   -14670 
  -14482   -14346   -14272   -14234   -14222   -14245   -14293   -14361 
  -14451   -14529   -14569   -14563   -14484   -14315   -14079   -13761 
  -13344   -12852   -12320   -11759   -11178   -10590    -9991    -9358 
   -8700    -8021    -7329    -6667    -6043    -5424    -4814    -4237 
   -3688    -3180    -2745    -2377    -2074    -1861    -1740    -1683 
   -1668    -1692    -1768    -1906    -2069    -2209    -2326    -2428 
   -2517    -2621    -2775    -2983    -3269    -3669    -4180    -4761 
   -5371    -5991    -6601    -7171    -7665    -8054    -8333    -8510 
   -8595    -8592    -8502    -8321    -8085    -7840    -7609    -7406 
   -7261    -7192    -7188    -7244    -7362    -7515    -7685    -7873 
   -8064    -8243    -8388    -8490    -8552    -8591    -8631    -8706 
   -8842    -9063    -9364    -9740   -10196   -10712   -11252   -11789 
  -12282   -12683   -12941   -13035   -12997   -12876   -12696   -12491 
  -12286   -12109   -11970   -11871   -11847   -11901   -12019   -12197 
  -12406   -12611   -12799   -12958   -13077   -13170   -13254   -13342 
  -13443   -13552   -13664   -13770   -13872   -13981   -14068   -14098 
  -14053   -13922   -13710   -13436   -13073   -12591   -12008   -11334 
  -10585    -9801    -8992    -8167    -7345    -6509    -5667    -4849 
   -4051    -3284    -2569    -1881    -1225     -618      -72      405 
     796     1067     1190     1154      959      627      210     -212 
    -587     -882    -1086    -1189    -1201    -1171    -1132    -1102 
   -1132    -1262    -1493    -1829    -2259    -2755    -3296    -3859 
   -4390    -4816    -5086    -5193    -5163    -5027    -4820    -4585 
   -4367    -4202    -4112    -4113    -4192    -4327    -4507    -4707 
   -4907    -5082    -5212    -5298    -5371    -5458    -5563    -5701 
   -5895    -6154    -6469    -6814    -7168    -7533    -7917    -8321 
   -8727    -9120    -9486    -9799   -10022   -10141   -10149   -10048 
   -9823    -9475    -9042    -8556    -8023    -7472    -6945    -6473 
   -6088    -5825    -5701    -5745    -5961    -6304    -6728    -7236 
   -7834    -8476    -9128    -9790   -10435   -11017   -11523   -11958 
  -12294   -12505   -12560   -12429   -12137   -11705   -11140   -10451 
   -9676    -8878    -8125    -7468    -6928    -6501    -6177    -5940 
   -5764    -5637    -5570    -5547    -5524    -5474    -5412    -5362 
   -5370    -5471    -5651    -5902    -6257    -6704    -7211    -7758 
   -8324    -8868    -9355    -9780   -10139   -10438   -10689   -10891 
  -11065   -11225   -11334   -11353   -11267   -11072   -10774   -10380 
   -9892    -9325    -8708    -8071    -7446    -6860    -6318    -5826 
   -5410    -5071    -4776    -4511    -4283    -4106    -4001    -3951 
   -3917    -3854    -3726    -3538    -3308    -3051    -2794    -2584 
   -2448    -2394    -2432    -2560    -2763    -3034    -3360    -3705 
   -4032    -4288    -4445    -4494    -4431    -4276    -4051    -3775 
   -3481    -3204    -2967    -2801    -2716    -2691    -2718    -2802 
   -2941    -3115    -3306    -3503    -3707    -3913    -4107    -4278 
   -4419    -4531    -4623    -4714    -4793    -4834    -4812    -4737 
   -4649    -4587    -4575    -4637    -4788    -5005    -5243    -5448 
   -5579    -5621    -5580    -5474    -5320    -5138    -4941    -4774 
   -4689    -4715    -4893    -5242    -5744    -6380    -7074    -7743 
   -8367    -8928    -9420    -9840   -10160   -10361   -10444   -10417 
  -10296   -10115    -9911    -9717    -9556    -9454    -9405    -9374 
   -9343    -9320    -9312    -9320    -9340    -9364    -9383    -9382 
   -9351    -9297    -9228    -9151    -9082    -9038    -9020    -9028 
   -9062    -9107    -9144    -9153    -9100    -8955    -8704    -8345 
   -7896    -7391    -6858    -6331    -5838    -5397    -5023    -4716 
   -4487    -4363    -4349    -4428    -4560    -4703    -4841    -4966 
   -5074    -5185    -5316    -5483    -5744    -6147    -6702    -7403 
   -8225    -9123   -10045   -10949   -11804   -12560   -13178   -13648 
  -13967   -14135   -14177   -14150   -14089   -14007   -13911   -13788 
  -13614   -13370   -13032   -12587   -12031   -11367   -10623    -9850 
   -9067    -8286    -7550    -6880    -6292    -5796    -5395    -5096 
   -4904    -4816    -4822    -4897    -5013    -5140    -5256    -5339 
   -5393    -5436    -5483    -5574    -5751    -6010    -6327    -6687 
   -7052    -7396    -7703    -7940    -8086    -8132    -8039    -7789 
   -7395    -6862    -6212    -5499    -4769    -4052    -3373    -2724 
   -2092    -1478     -873     -276      301      854     1394     1892 
    2295     2565     2678     2629     2428     2110     1725     1306 
     880      477      122     -172     -411     -607     -776     -935 
   -1105    -1301    -1526    -1802    -2151    -2587    -3114    -3699 
   -4287    -4845    -5332    -5725    -6016    -6195    -6254    -6222 
   -6123    -5979    -5834    -5733    -5686    -5715    -5852    -6092 
   -6415    -6779    -7140    -7466    -7717    -7873    -7933    -7911 
   -7823    -7703    -7572    -7453    -7384    -7377    -7423    -7520 
   -7645    -7789    -7985    -8201    -8391    -8538    -8602    -8553 
   -8414    -8186    -7865    -7480    -7055    -6633    -6265    -5945 
   -5688    -5524    -5433    -5389    -5363    -5319    -5248    -5136 
   -4968    -4756    -4518    -4266    -4012    -3767    -3553    -3385 
   -3281    -3258    -3315    -3443    -3624    -3838    -4083    -4336 
   -4558    -4734    -4833    -4842    -4779    -4656    -4496    -4332 
   -4174    -4033    -3924    -3846    -3775    -3700    -3624    -3541 
   -3446    -3355    -3291    -3288    -3391    -3615    -3951    -4399 
   -4935    -5528    -6169    -6840    -7506    -8131    -8702    -9219 
   -9690   -10130   -10562   -10990   -11404   -11801   -12190   -12577 
  -12969   -13346   -13691   -13980   -14179   -14287   -14316   -14281 
  -14214   -14139   -14072   -14023   -13987   -13953   -13909   -13826 
  -13702   -13555   -13393   -13221   -13053   -12872   -12650   -12379 
  -12060   -11699   -11298   -10860   -10393    -9898    -9390    -8885 
   -8384    -7903    -7450    -7005    -6546    -6065    -5552    -5004 
   -4442    -3888    -3342    -2814    -2326    -1911    -1606    -1421 
   -1344    -1368    -1491    -1696    -1972    -2292    -2636    -2992 
   -3348    -3704    -4050    -4374    -4692    -5026    -5382    -5767 
   -6185    -6631    -7087    -7535    -7958    -8324    -8614    -8822 
   -8945    -9000    -9019    -9026    -9031    -9030    -9008    -8970 
   -8937    -8922    -8927    -8943    -8959    -8966    -8959    -8946 
   -8901    -8792    -8615    -8368    -8040    -7646    -7217    -6768 
   -6301    -5814    -5313    -4816    -4375    -4016    -3750    -3607 
   -3585    -3670    -3863    -4120    -4395    -4675    -4946    -5213 
   -5475    -5714    -5930    -6133    -6330    -6548    -6809    -7103 
   -7415    -7727    -8025    -8283    -8487    -8614    -8621    -8487 
   -8236    -7902    -7551    -7241    -6994    -6812    -6662    -6508 
   -6347    -6157    -5919    -5652    -5356    -5027    -4679    -4338 
   -4039    -3780    -3568    -3453    -3470    -3622    -3889    -4240 
   -4630    -5020    -5375    -5678    -5922    -6100    -6207    -6242 
   -6222    -6165    -6079    -5965    -5837    -5692    -5533    -5364 
   -5196    -5043    -4909    -4787    -4666    -4531    -4345    -4086 
   -3753    -3361    -2948    -2567    -2255    -2030    -1918    -1938 
   -2107    -2432    -2905    -3495    -4147    -4797    -5394    -5898 
   -6290    -6579    -6762    -6858    -6914    -6975    -7063    -7211 
   -7434    -7728    -8097    -8532    -9019    -9536   -10033   -10459 
  -10785   -10986   -11072   -11071   -10987   -10832   -10617   -10335 
   -9992    -9606    -9197    -8776    -8356    -7946    -7548    -7157 
   -6744    -6315    -5892    -5503    -5178    -4893    -4622    -4367 
   -4116    -3848    -3570    -3271    -2951    -2639    -2369    -2169 
   -2066    -2073    -2174    -2358    -2617    -2896    -3148    -3357 
   -3518    -3634    -3732    -3844    -4006    -4256    -4638    -5174 
   -5856    -6673    -7589    -8538    -9468   -10343   -11136   -11805 
  -12307   -12647   -12858   -12951   -12950   -12897   -12810   -12702 
  -12591   -12476   -12339   -12160   -11932   -11658   -11337   -10952 
  -10501    -9992    -9444    -8908    -8428    -8043    -7767    -7591 
   -7487    -7438    -7431    -7434    -7430    -7410    -7365    -7304 
   -7240    -7152    -7037    -6917    -6812    -6739    -6706    -6714 
   -6754    -6812    -6875    -6941    -6994    -7005    -6982    -6945 
   -6879    -6775    -6660    -6582    -6578    -6659    -6825    -7069 
   -7369    -7703    -8058    -8428    -8806    -9162    -9482    -9744 
   -9940   -10071   -10141   -10161   -10137   -10072    -9992    -9929 
   -9891    -9864    -9833    -9783    -9684    -9506    -9229    -8843 
   -8370    -7854    -7325    -6795    -6272    -5768    -5313    -4915 
   -4550    -4195    -3847    -3514    -3204    -2945    -2767    -2693 
   -2735    -2903    -3176    -3514    -3893    -4297    -4710    -5121 
   -5503    -5863    -6231    -6632    -7074    -7555    -8067    -8579 
   -9059    -9478    -9822   -10106   -10328   -10474   -10537   -10528 
  -10462   -10358   -10222   -10052    -9845    -9589    -9293    -8985 
   -8672    -8352    -8029    -7697    -7371    -7071    -6806    -6590 
   -6432    -6338    -6312    -6359    -6482    -6686    -6963    -7295 
   -7670    -8064    -8430    -8750    -9004    -9166    -9238    -9242 
   -9185    -9071    -8923    -8769    -8629    -8510    -8430    -8394 
   -8401    -8460    -8538    -8603    -8622    -8561    -8407    -8177 
   -7898    -7591    -7275    -6961    -6655    -6361    -6077    -5815 
   -5583    -5371    -5154    -4907    -4638    -4357    -4054    -3728 
   -3430    -3204    -3059    -3006    -3068    -3215    -3395    -3581 
   -3780    -3983    -4168    -4321    -4452    -4568    -4668    -4761 
   -4884    -5044    -5223    -5402    -5575    -5733    -5879    -6016 
   -6170    -6346    -6527    -6717    -6907    -7087    -7264    -7422 
   -7541    -7616    -7643    -7612    -7533    -7423    -7287    -7119 
   -6939    -6752    -6556    -6355    -6151    -5967    -5837    -5768 
   -5738    -5732    -5733    -5721    -5686    -5637    -5572    -5494 
   -5414    -5331    -5263    -5220    -5185    -5178    -5209    -5247 
