Origin Time       2016/04/16 01:25:00
Lat.              32.753
Long.             130.762
Depth. (km)       12
Mag.              7.3
Station Code      EHM015
Station Lat.      33.6094
Station Long.     132.4768
Station Height(m) 4
Record Time       2016/04/16 01:25:40
Sampling Freq(Hz) 100Hz
Duration Time(s)  105
Dir.              E-W
Scale Factor      7845(gal)/8223790
Max. Acc. (gal)   13.320
Last Correction   2016/04/16 01:25:40
Memo.             
[...]
    2208     2281     2582     2519     2369     2515     2397     1995 
    1938     2088     2176     2583     3253     3551     3519     3541 
    3346     2880     2648     2652     2693     2913     3177     3013 
    2332     1553      953      529      438      853     1621     2369 
    2862     3076     3049     3003     3025     2902     2874     3168 
    3261     3117     3217     3055     2261     1601     1227      760 
     572      815     1127     1606     2296     2836     3281     3974 
    4823     5459     5915     6219     5979     5287     4653     4031 
    3369     3073     3150     2938     2151     1337      781      301 
     225      816     1494     1938     2444     2832     2792     2718 
    2889     3003     3037     3199     3196     2918     2821     2766 
    2397     2101     1985     1620     1236     1175     1012      688 
     726      959     1116     1586     2300     2623     2667     2934 
    3137     3024     3196     3711     3793     3544     3476     3284 
    2840     2540     2355     2107     2083     2457     2737     2515 
    2077     1520      630     -207     -715    -1136    -1167     -612 
    -102      317     1053     1746     2133     2646     3287     3684 
    4114     4807     5298     5414     5387     5119     4453     3581 
    2681     1753     1055      807      548       82     -152     -360 
    -953    -1524    -1719    -1771    -1564     -672      451     1089 
    1595     2218     2416     2301     2377     2397     2176     2087 
    2116     1945     1656     1306      687      -28     -274      -90 
      29      299      947     1447     1702     2076     2431     2641 
    2822     2851     2749     2795     2914     2991     3238     3557 
    3456     2964     2546     2222     1949     1998     2128     1929 
    1667     1549     1269      882      801     1020     1359     1864 
    2512     3014     3109     2994     2914     2628     2342     2643 
    3084     3076     2851     2527     2077     1691     1310      754 
     167     -228     -436     -373      108      681      947     1113 
    1296     1242     1204     1593     2064     2209     2263     2278 
    1848     1289     1224     1240     1026     1119     1410     1352 
    1179     1158     1011      881     1200     1657     1962     2482 
    3164     3667     4175     4668     4827     4783     4683     4392 
    4036     3979     4147     4025     3558     3109     2594     1925 
    1493     1331     1217     1308     1499     1377     1105     1053 
    1097     1219     1792     2662     3210     3480     3778     3944 
    3883     3878     4088     4095     3719     3480     3283     2809 
    2477     2266     1690      945      301     -405     -954     -877 
    -342      303      919     1062      689      491      502      464 
     835     1575     2037     2309     2740     2998     2817     2740 
    3099     3387     3470     3597     3454     3034     2855     2729 
    2311     2000     2033     2018     1806     1629     1460     1200 
    1019      886      577      257      229      271      176      288 
     608      823     1254     1945     2349     2623     3164     3586 
    3562     3474     3416     2907     2060     1474     1185      945 
     808      881      992      999     1109     1334     1429     1667 
    2205     2640     3033     3563     3812     3661     3365     2867 
    2227     1787     1528     1158      765      608      488      186 
    -144     -399     -504     -324       37      291      506      926 
    1125      781      592      831      990     1251     1904     2436 
    2596     2710     2721     2446     2251     2313     2254     2042 
    1858     1474      924      631      542      510      827     1379 
    1541     1416     1520     1547     1332     1560     2282     2828 
    3130     3353     3257     2862     2496     2142     1630     1193 
    1053      928      770      915     1139     1125     1161     1355 
    1522     1779     2155     2482     2782     3001     2941     2606 
    2133     1606     1070      594      230     -136     -506     -691 
    -843    -1113    -1059     -621     -344     -206       47       78 
     -94       86      537      896     1385     2151     2795     3223 
    3796     4341     4572     4729     4665     4126     3473     2847 
    2116     1412      907      619      288     -190     -531     -811 
   -1097     -949     -400       39      492     1116     1390     1372 
    1761     2403     2978     3840     4766     5124     5184     5260 
    4895     4153     3712     3402     2829     2432     2262     1746 
    1119      861      700      533      581      649      588      596 
     757      951     1230     1750     2182     2269     2421     2616 
    2344     1826     1478     1042      484      307      361       82 
    -180       94      585     1127     2025     2913     3223     3373 
    3685     3681     3427     3457     3555     3446     3258     2740 
    1857     1233      966      801      982     1431     1554     1344 
    1217     1039      566      297      576      885     1065     1533 
    2029     2130     2147     2255     2176     2062     2239     2400 
    2444     2928     3727     4214     4602     5128     5169     4612 
    4107     3622     2921     2516     2558     2459     2226     2267 
    2239     1849     1499     1224      834      735     1125     1543 
    1939     2543     2825     2583     2435     2195     1405      689 
     440      233      207      774     1443     1833     2401     3079 
    3348     3546     4155     4842     5350     5749     5860     5518 
    4850     4035     3064     2153     1717     1429     1028     1162 
    1725     1952     2130     2606     2817     2678     2701     2744 
    2440     2083     1911     1764     1777     2157     2604     2949 
    3404     3732     3550     3258     3230     3003     2529     2407 
    2335     1838     1479     1398     1150     1104     1570     2020 
    2265     2523     2601     2411     2366     2562     2528     2174 
    1960     1815     1502     1575     2135     2447     2623     3060 
    3235     2980     2936     3094     2853     2380     2135     1755 
    1051      631      598      707     1266     2144     2606     2688 
    2907     3083     2964     3019     3388     3439     3111     2732 
    1975      834      -29     -450     -653     -608     -314        1 
     197      324      344      391      877     1653     2328     3055 
    3784     4148     4158     4008     3823     3682     3670     3766 
    3730     3561     3295     2620     1777     1266      866      579 
     777     1063      945      880     1219     1452     1439     1658 
    2006     2154     2342     2656     2868     2967     3046     3090 
    3001     2768     2502     2249     2104     2033     1826     1725 
    1975     2111     1894     1817     2039     2230     2336     2525 
    2677     2639     2625     2725     2740     2770     2953     3030 
    2982     2983     2814     2465     2307     2317     2189     1799 
    1313      912      532      283      348      566      880     1306 
    1621     1891     2328     2613     2633     2918     3375     3403 
    3365     3657     3636     3114     2590     2034     1368     1036 
    1128     1232     1352     1671     1826     1707     1651     1468 
    1046     1009     1449     1652     1687     2169     2662     2623 
    2525     2470     2083     1696     1761     1998     2100     2239 
    2343     2061     1707     1821     2073     2126     2442     2955 
    3034     2901     2825     2450     2069     2049     1729     1028 
     750      805      612      360      453      766     1031     1287 
    1457     1298     1216     1570     1791     1833     2270     2629 
    2401     2126     1960     1794     2047     2528     2787     3302 
    4147     4650     4927     5313     5509     5529     5670     5617 
    5085     4438     3899     3234     2450     1881     1480      951 
     456      174     -257     -789     -753     -253       72      332 
     739     1051     1329     1794     2053     1830     1580     1509 
    1409     1564     1996     1953     1513     1463     1594     1663 
    2142     2631     2452     2163     2236     2130     1699     1629 
    1995     2226     2388     2570     2343     1971     1944     1694 
     861      265      195       -4     -346     -522     -661     -676 
    -342       95      368      722     1348     1864     2205     2822 
    3537     4023     4657     5328     5451     5386     5512     5346 
    4855     4600     4405     3690     2797     2276     1918     1494 
    1005      359     -232     -425     -463     -645     -642     -271 
     174      756     1478     1787     1702     1849     2155     2311 
    2679     3357     3707     3530     3169     2632     1954     1471 
    1217      986      702      322     -311     -890     -626      178 
     618      974     1452     1439     1084      816      352     -176 
    -194        5      -72      -81      143       99      -25      436 
    1262     1846     2224     2628     2785     2567     2440     2386 
    2007     1718     1800     1541      845      380       25     -421 
    -638     -911    -1540    -1919    -1810    -1653    -1399     -816 
    -211      202      737     1394     1648     1609     1939     2411 
    2536     2505     2193     1541     1350     1611     1478     1252 
    1557     1969     2116     2163     2121     2033     2107     2196 
    2023     1757     1734     1918     1977     1910     1992     2123 
    2196     2331     2201     1680     1364     1188      660      370 
     963     1750     1979     1952     1971     1840     1624     1480 
    1414     1638     1948     1660     1047      934     1140     1209 
    1448     2010     2382     2490     2654     2528     1985     1686 
    1660     1517     1408     1228      664       17     -407     -631 
    -427      405     1467     2119     2428     2914     3292     3154 
    3194     3792     4383     4986     5730     6016     5926     6048 
    6056     5768     5717     5705     5150     4295     3524     2783 
    2157     1779     1417      897      437      159     -229     -712 
    -795     -587     -565     -502     -153      131      288      548 
     714      761     1046     1297     1323     1718     2371     2581 
    2625     2984     3272     3289     3511     3870     3811     3496 
    3268     3095     3030     2874     2315     1715     1487     1273 
     800      642     1007     1255     1201     1229     1487     1918 
    2579     3379     3948     4286     4675     4989     5035     4926 
    4758     4476     4090     3653     3079     2369     1787     1372 
     877      378      144      126      149      172      143      175 
     672     1503     1937     1975     1921     1331      257     -422 
    -566     -723     -912     -912     -974    -1109     -864     -398 
    -251     -246     -109       11      395     1237     1960     2461 
    3204     3986     4367     4509     4691     4738     4376     3686 
    2789     1806     1185     1039      846      649      885     1175 
    1228     1391     1360      785      289       37     -525    -1198 
   -1606    -2154    -2938    -3526    -3970    -4364    -4320    -3846 
   -3348    -2791    -1956     -908      182     1252     2326     3291 
    4012     4487     4702     4766     4988     5339     5540     5810 
    6378     6864     7333     8159     8672     8332     7705     6847 
    5424     4050     3191     2484     1969     1888     1709     1073 
     425      120       82      298      954     2066     3256     3997 
    3889     2924     1599      456     -368     -737     -332      583 
    1440     2285     3059     3381     3558     3960     4175     3935 
    3501     2829     1771      756      143     -253     -248      596 
    1784     2498     2667     2442     1848     1308     1264     1341 
    1107      847      464     -584    -1829    -2559    -3009    -3275 
   -2970    -2155    -1000      708     2724     4376     5860     7693 
    9454    10537    11145    11445    11028    10030     9159     8424 
    7545     6615     5262     2986      251    -2531    -5510    -8082 
   -9574   -10512   -11176   -11132   -10740   -10503   -10053    -9418 
   -8938    -8090    -6625    -5128    -3589    -1656      189     1457 
    2448     3302     3588     3245     2772     2247     1389      588 
     284      148       97      279      348      314      521      739 
     899     1385     2061     2423     2527     2727     2884     2863 
    3003     3240     3308     3511     3842     3890     3955     4390 
    4571     4024     3284     2565     1422       54     -994    -1741 
   -2161    -2128    -2100    -2411    -2597    -2440    -2312    -1988 
    -897      723     2478     4433     6242     7272     7720     8244 
    8854     9242     9701    10455    11036    11249    11227    10735 
    9745     8710     7874     7285     6976     6575     5583     4310 
    3260     2014      236    -1676    -3662    -5775    -7376    -8077 
   -8179    -7678    -6458    -4887    -3288    -1672      -27     1584 
    3237     4999     6564     7690     8305     8031     6759     5007 
    3114     1092     -699    -1887    -2798    -3905    -5166    -6355 
   -7186    -7250    -6293    -4473    -2187      442     3199     5494 
    7280     8957    10539    12013    13591    14998    15716    15911 
   15707    14628    12793    10852     9096     7874     7416     7137 
    6581     6066     5625     4958     4333     4120     4276     4656 
    5100     5467     5742     5926     5769     4884     3211     1115 
   -1062    -3042    -4379    -4962    -5047    -4431    -2933    -1190 
     232     1551     2951     4241     5491     6988     8563     9869 
   10959    11529    11049     9857     8598     7526     6648     5769 
    4631     3192     1790      571     -728    -1858    -2317    -2319 
   -2031    -1337     -662       27     1472     3257     4498     5418 
    6207     6609     6809     7056     7225     7129     6860     6543 
    5732     4344     3307     2890     2674     2917     3527     3793 
    3852     4121     4421     4801     5475     6145     6617     7086 
    7453     7515     7541     7627     7250     6335     5503     4796 
    3828     2902     2315     1745     1198     1058     1123      877 
     380     -108     -604     -812     -405      376     1350     2438 
    3260     3603     3686     3559     2999     2224     1532      513 
    -994    -2323    -3071    -3396    -3250    -2516    -1582     -987 
    -702     -650    -1067    -1593    -1648    -1301     -638      370 
    1213     1437     1371     1252      922      774     1468     2948 
    4784     6681     8245     9243     9794     9784     9126     8367 
    7924     7519     7130     7055     6912     6174     5073     3902 
    2731     1949     1896     2305     2776     3410     4248     4956 
    5665     6666     7628     8532     9690    10651    10844    10392 
    9501     8314     7194     6335     5528     4602     3662     2528 
     897     -811    -2092    -2955    -3264    -2824    -2023    -1274 
    -307      997     2012     2390     2458     2498     2673     3167 
    3771     4251     4914     5664     5786     5336     4978     4611 
    3747     2533     1312      108     -855    -1421    -2066    -2896 
   -3477    -3955    -4464    -4660    -4453    -3757    -2340     -430 
    1512     3250     4672     5656     6029     5760     5310     5077 
    4823     4263     3380     2316     1530     1225      999      745 
     770      838      535      117     -136     -274     -135      352 
     861     1262     1617     1749     1534     1113      491     -311 
    -916    -1254    -1773    -2261    -2130    -1773    -1572    -1090 
    -298      464     1383     2520     3395     3991     4704     5323 
    5560     5687     5811     5713     5354     4768     3909     2909 
    2093     1672     1644     1859     2174     2454     2570     2662 
    2785     2824     3204     4074     4704     4881     5084     5228 
    4861     4287     4143     4209     4205     4617     5147     4849 
    4064     3238     1800      -41    -1497    -2743    -3991    -4699 
   -4791    -4850    -4754    -4077    -3229    -2461    -1370        2 
    1358     2786     4149     5081     5736     6332     6569     6529 
    6859     7508     7915     8013     7740     6635     4897     3252 
    1795      521     -326    -1039    -1760    -2077    -2123    -2242 
   -2223    -1738     -754      480     1705     2803     3500     3492 
    2893     1925      745     -220     -670     -842     -929     -916 
   -1053    -1501    -1880    -1872    -1405     -338     1053     2011 
    2396     2511     2076     1028      246      170      432      929 
    1348      950       85     -266     -475    -1260    -2143    -2818 
   -3748    -4823    -5571    -6084    -6432    -6241    -5567    -4905 
   -4055    -2633    -1034      486     2111     3414     3977     4393 
    4956     5063     4693     4238     3354     1802       85    -1417 
   -2646    -3453    -3832    -4012    -3975    -3592    -3213    -3249 
   -3473    -3505    -3258    -2552    -1294        8      810     1128 
    1092      854      908     1428     1895     2074     2231     2158 
    1598     1081      834      498      429     1020     1671     2085 
    2577     2739     2366     2173     2053     1520     1065      911 
     653      291      147      255      302      244      222       29 
    -214      -65      313      675     1154     1579     1587     1429 
    1486     1433     1119     1144     1563     1826     2038     2245 
    1995     1615     1713     1903     1738     1617     1706     1395 
     760      434      147     -249     -270      -99       28      459 
    1152     1674     1989     2451     2959     3068     2822     2384 
    1723     1228     1296     1637     1937     2335     2631     2231 
    1225      205     -708    -1417    -1548    -1318    -1031     -468 
      94      101     -216     -349     -105      616     1831     3179 
    4107     4598     4908     4931     4691     4527     4303     3527 
    2338     1183       47     -851    -1105    -1055    -1085     -966 
    -741     -662     -318      526     1219     1576     2019     2204 
    1877     1590     1290      472     -642    -1690    -2578    -3067 
   -2955    -2369    -1547     -645      230     1136     2263     3522 
    4541     5161     5563     5778     5525     4761     3748     2647 
    1637      973      506     -117     -714     -967    -1131    -1282 
    -976     -382      -51      315      928     1410     1930     2663 
    3225     3634     3959     3797     3088     2093     1000      151 
    -364     -699     -741     -390      236      781      945     1032 
    1289     1387     1507     2126     2930     3717     4668     5304 
    5287     4945     4398     3601     2828     2444     2349     2155 
    1910     1705     1267      599     -149    -1162    -2231    -2820 
   -2949    -2879    -2698    -2594    -2621    -2450    -1846     -999 
     -51     1102     2249     3017     3511     3929     4233     4457 
