Origin Time       2016/04/16 01:25:00
Lat.              32.753
Long.             130.762
Depth. (km)       12
Mag.              7.3
Station Code      EHM009
Station Lat.      33.6324
Station Long.     132.7963
Station Height(m) 250
Record Time       2016/04/16 01:25:44
Sampling Freq(Hz) 100Hz
Duration Time(s)  109
Dir.              N-S
Scale Factor      7845(gal)/8223790
Max. Acc. (gal)   7.844
Last Correction   2016/04/16 01:25:45
Memo.             
[...]
  -12171   -12244   -12259   -12239   -12226   -12260   -12314   -12366 
  -12465   -12622   -12752   -12795   -12776   -12702   -12523   -12249 
  -11982   -11811   -11758   -11808   -11936   -12132   -12367   -12591 
  -12785   -12964   -13128   -13267   -13367   -13412   -13389   -13298 
  -13144   -12924   -12647   -12379   -12210   -12191   -12309   -12548 
  -12874   -13170   -13316   -13316   -13203   -12988   -12752   -12594 
  -12522   -12479   -12425   -12363   -12326   -12303   -12264   -12221 
  -12262   -12471   -12835   -13265   -13649   -13899   -13988   -13932 
  -13738   -13477   -13216   -12964   -12727   -12563   -12523   -12607 
  -12793   -13043   -13246   -13324   -13273   -13084   -12785   -12492 
  -12293   -12182   -12110   -12019   -11878   -11742   -11678   -11709 
  -11830   -12002   -12191   -12388   -12555   -12642   -12654   -12600 
  -12495   -12402   -12357   -12320   -12237   -12073   -11838   -11618 
  -11529   -11620   -11794   -11897   -11892   -11861   -11865   -11886 
  -11889   -11885   -11889   -11885   -11874   -11888   -11955   -12069 
  -12218   -12390   -12550   -12695   -12847   -13020   -13203   -13313 
  -13262   -13030   -12646   -12172   -11750   -11521   -11507   -11657 
  -11947   -12325   -12702   -13020   -13271   -13466   -13630   -13794 
  -13926   -13930   -13779   -13547   -13329   -13180   -13078   -12988 
  -12916   -12901   -12974   -13127   -13304   -13454   -13551   -13570 
  -13510   -13387   -13230   -13068   -12920   -12789   -12690   -12621 
  -12568   -12510   -12424   -12293   -12147   -12043   -12042   -12174 
  -12418   -12690   -12893   -13023   -13092   -13058   -12895   -12633 
  -12361   -12155   -12020   -11921   -11850   -11830   -11914   -12125 
  -12405   -12677   -12912   -13099   -13212   -13227   -13115   -12842 
  -12441   -12019   -11718   -11654   -11853   -12175   -12448   -12614 
  -12691   -12669   -12530   -12313   -12097   -11897   -11736   -11692 
  -11767   -11934   -12198   -12526   -12834   -13035   -13063   -12915 
  -12680   -12449   -12237   -12048   -11900   -11800   -11776   -11862 
  -12071   -12363   -12661   -12916   -13084   -13147   -13151   -13134 
  -13108   -13126   -13201   -13252   -13205   -13062   -12869   -12695 
  -12577   -12496   -12410   -12287   -12141   -12042   -12046   -12151 
  -12291   -12393   -12429   -12424   -12363   -12218   -11990   -11720 
  -11493   -11373   -11362   -11425   -11531   -11668   -11824   -12004 
  -12204   -12379   -12491   -12550   -12609   -12703   -12822   -12923 
  -12992   -13034   -13030   -12977   -12883   -12738   -12521   -12266 
  -12073   -11986   -11931   -11881   -11901   -11989   -12078   -12141 
  -12145   -12066   -11980   -11980   -12058   -12155   -12252   -12373 
  -12544   -12730   -12845   -12826   -12690   -12499   -12332   -12241 
  -12237   -12278   -12322   -12361   -12355   -12270   -12148   -12028 
  -11890   -11718   -11515   -11330   -11221   -11229   -11340   -11462 
  -11500   -11450   -11391   -11421   -11584   -11831   -12097   -12353 
  -12546   -12621   -12602   -12557   -12490   -12403   -12368   -12449 
  -12647   -12938   -13236   -13413   -13439   -13383   -13301   -13200 
  -13089   -12976   -12845   -12668   -12460   -12260   -12093   -11993 
  -12000   -12105   -12274   -12476   -12696   -12903   -13014   -12949 
  -12730   -12439   -12125   -11842   -11674   -11646   -11716   -11830 
  -11908   -11929   -11935   -11935   -11923   -11901   -11855   -11792 
  -11739   -11731   -11803   -11936   -12067   -12152   -12185   -12170 
  -12129   -12102   -12127   -12179   -12201   -12187   -12182   -12187 
  -12168   -12124   -12071   -11970   -11762   -11514   -11356   -11334 
  -11394   -11469   -11519   -11530   -11516   -11511   -11546   -11614 
  -11686   -11765   -11890   -12104   -12403   -12711   -12897   -12870 
  -12617   -12221   -11848   -11618   -11564   -11688   -11935   -12195 
  -12406   -12581   -12706   -12725   -12637   -12472   -12236   -11982 
  -11803   -11745   -11811   -11965   -12109   -12182   -12182   -12124 
  -12069   -12085   -12195   -12382   -12537   -12561   -12498   -12387 
  -12225   -12081   -12009   -11992   -12004   -12009   -12058   -12283 
  -12677   -13090   -13397   -13473   -13215   -12735   -12280   -12058 
  -12139   -12406   -12649   -12771   -12793   -12793   -12835   -12861 
  -12748   -12495   -12251   -12159   -12295   -12647   -13046   -13274 
  -13278   -13132   -12938   -12772   -12645   -12486   -12231   -11970 
  -11861   -11936   -12074   -12183   -12279   -12318   -12237   -12110 
  -12019   -11914   -11796   -11742   -11754   -11757   -11735   -11754 
  -11838   -11909   -11904   -11892   -11963   -12117   -12268   -12351 
  -12388   -12395   -12340   -12282   -12348   -12537   -12663   -12604 
  -12434   -12276   -12260   -12482   -12861   -13204   -13440   -13559 
  -13473   -13200   -12945   -12833   -12819   -12869   -12930   -12855 
  -12625   -12379   -12210   -12117   -12056   -11931   -11736   -11619 
  -11729   -12052   -12433   -12691   -12665   -12371   -12069   -11967 
  -12042   -12214   -12459   -12713   -12868   -12935   -13095   -13387 
  -13590   -13497   -13115   -12599   -12152   -11875   -11726   -11653 
  -11641   -11684   -11808   -11973   -12037   -11998   -12023   -12141 
  -12168   -12028   -11913   -11939   -11980   -11947   -11947   -12075 
  -12244   -12445   -12737   -12943   -12924   -12850   -12830   -12802 
  -12783   -12765   -12690   -12667   -12850   -13209   -13576   -13790 
  -13780   -13608   -13359   -13049   -12680   -12294   -11936   -11718 
  -11750   -11955   -12144   -12310   -12575   -12888   -13066   -13004 
  -12700   -12252   -11881   -11686   -11623   -11723   -11943   -12060 
  -11974   -11757   -11534   -11473   -11618   -11824   -12037   -12297 
  -12517   -12596   -12588   -12550   -12460   -12332   -12264   -12336 
  -12529   -12746   -12887   -12953   -12993   -12982   -12921   -12855 
  -12745   -12534   -12325   -12316   -12592   -12999   -13247   -13167 
  -12810   -12344   -11939   -11646   -11403   -11191   -11094   -11211 
  -11593   -12139   -12564   -12637   -12378   -11909   -11340   -10894 
  -10809   -11010   -11275   -11608   -12102   -12671   -13111   -13293 
  -13208   -12970   -12785   -12773   -12838   -12800   -12653   -12529 
  -12421   -12270   -12174   -12266   -12468   -12606   -12610   -12569 
  -12658   -12960   -13240   -13213   -12943   -12647   -12428   -12363 
  -12403   -12344   -12188   -12086   -12025   -11962   -11885   -11731 
  -11539   -11443   -11465   -11574   -11746   -11908   -12006   -12035 
  -12077   -12225   -12360   -12332   -12205   -12063   -11881   -11743 
  -11843   -12217   -12630   -12834   -12810   -12710   -12626   -12515 
  -12390   -12356   -12337   -12112   -11723   -11491   -11556   -11788 
  -12052   -12235   -12225   -12100   -12042   -12143   -12378   -12613 
  -12707   -12691   -12668   -12646   -12606   -12599   -12669   -12777 
  -12839   -12746   -12479   -12208   -12108   -12163   -12252   -12279 
  -12191   -12009   -11820   -11643   -11422   -11219   -11181   -11292 
  -11400   -11497   -11680   -11911   -12074   -12127   -12144   -12247 
  -12401   -12479   -12545   -12741   -13030   -13240   -13189   -12811 
  -12297   -11927   -11797   -11889   -12122   -12302   -12286   -12177 
  -12110   -12097   -12108   -12101   -12073   -12089   -12193   -12398 
  -12675   -12885   -12935   -12827   -12622   -12444   -12353   -12310 
  -12237   -12122   -12082   -12128   -12128   -12110   -12206   -12424 
  -12723   -13063   -13275   -13144   -12661   -12037   -11556   -11337 
  -11209   -11010   -10867   -10894   -11014   -11173   -11392   -11623 
  -11785   -11847   -11840   -11858   -11997   -12244   -12451   -12482 
  -12373   -12228   -12060   -11889   -11739   -11583   -11426   -11367 
  -11416   -11455   -11438   -11419   -11364   -11200   -10993   -10881 
  -10963   -11222   -11523   -11772   -11934   -11950   -11777   -11508 
  -11279   -11113   -10987   -10882   -10774   -10682   -10659   -10705 
  -10764   -10773   -10717   -10674   -10701   -10768   -10820   -10835 
  -10828   -10816   -10760   -10613   -10419   -10243   -10162   -10243 
  -10389   -10426   -10392   -10455   -10624   -10783   -10875   -10912 
  -10889   -10800   -10709   -10692   -10750   -10854   -10994   -11148 
  -11292   -11426   -11562   -11734   -11914   -11982   -11875   -11739 
  -11719   -11770   -11776   -11746   -11797   -11956   -12112   -12226 
  -12343   -12401   -12353   -12316   -12403   -12584   -12764   -12914 
  -13072   -13227   -13284   -13236   -13201   -13259   -13433   -13711 
  -13996   -14199   -14323   -14384   -14342   -14160   -13888   -13647 
  -13516   -13494   -13594   -13867   -14287   -14742   -15137   -15410 
  -15489   -15381   -15168   -14951   -14870   -14993   -15152   -15187 
  -15148   -15090   -14990   -14875   -14756   -14593   -14434   -14353 
  -14328   -14338   -14422   -14571   -14661   -14571   -14337   -14104 
  -14004   -14035   -14111   -14246   -14467   -14635   -14627   -14494 
  -14284   -14045   -13911   -13913   -13964   -14022   -14071   -14102 
  -14112   -14045   -13913   -13892   -14064   -14320   -14562   -14783 
  -14974   -15025   -14844   -14520   -14188   -13865   -13570   -13366 
  -13258   -13193   -13180   -13275   -13545   -13963   -14353   -14572 
  -14625   -14496   -14158   -13806   -13672   -13703   -13682   -13562 
  -13425   -13277   -13104   -12985   -12977   -13000   -12954   -12826 
  -12677   -12573   -12522   -12490   -12460   -12476   -12571   -12706 
  -12831   -12957   -13066   -13123   -13132   -13100   -13053   -13043 
  -13047   -12984   -12900   -12935   -13128   -13429   -13772   -14090 
  -14331   -14442   -14386   -14189   -13925   -13654   -13380   -13068 
  -12719   -12422   -12235   -12098   -11965   -11863   -11836   -11886 
  -11988   -12089   -12158   -12253   -12401   -12480   -12409   -12235 
  -12054   -11911   -11770   -11570   -11317   -11052   -10778   -10474 
  -10187    -9989    -9842    -9664    -9477    -9410    -9568    -9913 
  -10322   -10706   -11003   -11159   -11199   -11130   -10893   -10569 
  -10331   -10233   -10255   -10377   -10552   -10775   -10989   -11075 
  -11067   -11086   -11138   -11171   -11241   -11448   -11790   -12168 
  -12488   -12668   -12631   -12372   -11946   -11460   -11041   -10737 
  -10536   -10449   -10493   -10656   -10891   -11119   -11283   -11379 
  -11394   -11292   -11087   -10825   -10588   -10467   -10504   -10669 
  -10909   -11178   -11469   -11785   -12046   -12132   -12042   -11847 
  -11535   -11029   -10397    -9906    -9737    -9810   -10002   -10269 
  -10521   -10619   -10497   -10196    -9803    -9386    -8931    -8421 
   -7911    -7457    -7088    -6872    -6856    -6937    -6929    -6748 
   -6416    -5980    -5552    -5301    -5251    -5273    -5309    -5422 
   -5623    -5850    -6057    -6200    -6276    -6345    -6423    -6475 
   -6480    -6359    -6079    -5755    -5455    -5131    -4812    -4579 
   -4452    -4411    -4445    -4587    -4914    -5452    -6119    -6824 
   -7570    -8384    -9235   -10048   -10722   -11206   -11541   -11805 
  -12048   -12312   -12657   -13100   -13551   -13871   -14017   -14052 
  -14053   -14084   -14214   -14476   -14848   -15309   -15861   -16486 
  -17112   -17656   -18067   -18341   -18534   -18713   -18908   -19130 
  -19350   -19471   -19419   -19217   -18933   -18613   -18295   -18088 
  -18092   -18277   -18526   -18728   -18855   -18948   -18998   -18927 
  -18705   -18372   -17979   -17577   -17197   -16831   -16482   -16171 
  -15893   -15654   -15531   -15628   -15977   -16524   -17194   -17919 
  -18554   -18925   -18959   -18719   -18318   -17814   -17194   -16502 
  -15851   -15288   -14797   -14412   -14179   -14034   -13899   -13783 
  -13706   -13672   -13730   -13927   -14270   -14708   -15157   -15603 
  -16050   -16445   -16776   -17115   -17467   -17740   -17829   -17658 
  -17185   -16430   -15495   -14528   -13674   -13039   -12708   -12680 
  -12826   -12953   -12997   -13023   -13072   -13090   -13039   -12974 
  -12981   -13068   -13250   -13564   -13944   -14222   -14307   -14227 
  -14079   -13950   -13878   -13806   -13664   -13440   -13190   -13016 
  -12978   -13076   -13327   -13725   -14179   -14679   -15294   -15939 
  -16441   -16758   -16968   -17134   -17351   -17734   -18293   -18928 
  -19465   -19738   -19657   -19256   -18700   -18150   -17695   -17431 
  -17400   -17531   -17730   -17936   -18108   -18273   -18396   -18347 
  -18114   -17815   -17500   -17166   -16833   -16449   -15924   -15265 
  -14581   -13990   -13565   -13347   -13304   -13352   -13429   -13532 
  -13636   -13649   -13525   -13320   -13053   -12677   -12209   -11766 
  -11460   -11299   -11263   -11307   -11331   -11275   -11167   -11018 
  -10835   -10627   -10331    -9894    -9369    -8824    -8310    -7923 
   -7723    -7657    -7616    -7543    -7398    -7132    -6771    -6432 
   -6224    -6207    -6407    -6831    -7410    -8020    -8590    -9092 
   -9436    -9532    -9369    -9028    -8658    -8436    -8474    -8745 
   -9143    -9605   -10102   -10628   -11217   -11914   -12679   -13352 
  -13801   -14029   -14116   -14129   -14153   -14291   -14562   -14940 
  -15406   -15916   -16386   -16754   -16972   -16995   -16865   -16703 
  -16586   -16552   -16636   -16797   -16888   -16777   -16460   -15998 
  -15437   -14859   -14388   -14111   -14118   -14499   -15249   -16249 
  -17308   -18274   -19125   -19877   -20440   -20659   -20453   -19886 
  -19110   -18279   -17474   -16738   -16160   -15823   -15758   -15981 
  -16424   -16932   -17377   -17670   -17732   -17524   -17081   -16519 
  -15951   -15437   -14988   -14619   -14278   -13855   -13275   -12548 
  -11686   -10729    -9776    -8958    -8424    -8243    -8332    -8546 
   -8734    -8764    -8612    -8378    -8206    -8228    -8496    -9004 
   -9729   -10616   -11515   -12226   -12595   -12571   -12251   -11830 
  -11523   -11492   -11796   -12355   -12993   -13564   -13964   -14123 
  -14027   -13717   -13292   -12865   -12468   -12091   -11780   -11587 
  -11477   -11330   -11072   -10773   -10536   -10404   -10354   -10336 
  -10327   -10369   -10519   -10768   -11092   -11507   -12027   -12644 
  -13350   -14080   -14688   -15044   -15144   -15056   -14860   -14581 
  -14199   -13724   -13240   -12879   -12777   -13041   -13639   -14372 
  -15007   -15454   -15734   -15869   -15889   -15796   -15513   -14949 
  -14110   -13090   -12017   -11034   -10266    -9774    -9612    -9832 
  -10432   -11311   -12266   -13059   -13497   -13510   -13215   -12788 
  -12314   -11847   -11483   -11263   -11152   -11105   -11101   -11179 
  -11419   -11840   -12341   -12787   -13115   -13328   -13432   -13466 
  -13475   -13460   -13412   -13325   -13213   -13155   -13254   -13475 
  -13691   -13829   -13868   -13818   -13711   -13583   -13524   -13631 
  -13922   -14328   -14743   -15052   -15221   -15272   -15209   -15040 
  -14785   -14438   -14013   -13554   -13092   -12703   -12494   -12474 
  -12567   -12744   -12992   -13279   -13568   -13814   -13983   -14054 
  -14017   -13902   -13784   -13667   -13529   -13429   -13431   -13524 
  -13645   -13686   -13522   -13124   -12592   -12060   -11596   -11196 
  -10875   -10671   -10579   -10530   -10431   -10223    -9899    -9518 
   -9205    -9097    -9266    -9688   -10254   -10824   -11298   -11611 
  -11709   -11580   -11268   -10875   -10543   -10361   -10334   -10484 
  -10832   -11338   -11911   -12451   -12884   -13204   -13408   -13446 
  -13301   -13005   -12569   -12058   -11622   -11360   -11322   -11576 
  -12086   -12658   -13106   -13312   -13223   -12901   -12475   -12044 
  -11719   -11663   -12004   -12661   -13373   -13861   -13969   -13686 
  -13136   -12507   -11913   -11334   -10748   -10239    -9930    -9876 
  -10049   -10341   -10579   -10621   -10458   -10139    -9725    -9306 
   -8932    -8652    -8602    -8863    -9344    -9890   -10378   -10722 
  -10895   -10930   -10885   -10787   -10665   -10546   -10476   -10500 
  -10604   -10731   -10816   -10802   -10681   -10513   -10350   -10230 
  -10241   -10481   -10943   -11497   -11979   -12249   -12267   -12118 
  -11936   -11815   -11793   -11830   -11847   -11843   -11886   -11986 
  -12135   -12367   -12633   -12802   -12806   -12657   -12361   -11934 
  -11446   -10979   -10577   -10289   -10183   -10295   -10586   -10933 
  -11209   -11356   -11373   -11271   -11086   -10879   -10683   -10492 
  -10320   -10210   -10153   -10099    -9954    -9609    -9026    -8290 
   -7538    -6919    -6615    -6751    -7326    -8248    -9378   -10516 
  -11461   -12081   -12325   -12233   -11919   -11541   -11234   -11014 
  -10805   -10580   -10388   -10309   -10443   -10816   -11330   -11819 
  -12152   -12301   -12337   -12406   -12613   -12943   -13342   -13780 
  -14243   -14706   -15107   -15309   -15191   -14751   -14065   -13265 
  -12550   -12086   -11904   -11939   -12079   -12190   -12170   -12025 
  -11808   -11566   -11379   -11292   -11244   -11204   -11214   -11280 
  -11400   -11560   -11701   -11755   -11719   -11676   -11724   -11886 
  -12069   -12158   -12139   -12117   -12231   -12519   -12866   -13117 
  -13205   -13150   -13009   -12834   -12663   -12518   -12421   -12393 
  -12428   -12513   -12598   -12595   -12437   -12131   -11732   -11315 
  -10916   -10527   -10153    -9814    -9568    -9486    -9605    -9915 
  -10378   -10936   -11533   -12089   -12482   -12665   -12718   -12719 
  -12657   -12525   -12382   -12280   -12266   -12401   -12641   -12825 
  -12792   -12476   -11943   -11327   -10737   -10227    -9771    -9342 
   -8992    -8818    -8872    -9126    -9439    -9652    -9695    -9602 
   -9490    -9479    -9620    -9913   -10329   -10778   -11137   -11345 
  -11411   -11385   -11319   -11259   -11253   -11313   -11381   -11388 
  -11303   -11128   -10871   -10543   -10162    -9778    -9454    -9263 
   -9256    -9428    -9718   -10057   -10381   -10667   -10921   -11105 
  -11141   -10998   -10755   -10528   -10377   -10335   -10440   -10656 
  -10856   -10955   -10956   -10864   -10662   -10438   -10370   -10593 
  -11105   -11765   -12351   -12679   -12692   -12476   -12140   -11736 
  -11294   -10854   -10481   -10262   -10250   -10386   -10551   -10640 
  -10611   -10503   -10432   -10517   -10816   -11294   -11819   -12245 
  -12530   -12708   -12811   -12831   -12734   -12509   -12205   -11866 
  -11515   -11203   -10972   -10813   -10701   -10627   -10578   -10547 
  -10525   -10507   -10524   -10620   -10798   -11032   -11284   -11524 
  -11753   -11985   -12210   -12402   -12542   -12626   -12650   -12618 
  -12617   -12776   -13089   -13435   -13706   -13828   -13776   -13624 
  -13478   -13423   -13473   -13581   -13701   -13806   -13895   -13986 
  -14085   -14133   -14062   -13878   -13614   -13328   -13100   -12995 
  -13030   -13169   -13363   -13590   -13825   -13996   -13976   -13713 
  -13289   -12822   -12417   -12175   -12121   -12125   -12008   -11701 
  -11295   -10955   -10793   -10831   -11018   -11269   -11500   -11720 
  -11997   -12322   -12541   -12494   -12193   -11785   -11381   -11029 
  -10781   -10646   -10601   -10651   -10836   -11149   -11530   -11917 
  -12293   -12702   -13150   -13581   -13971   -14347   -14704   -15025 
