Origin Time       2016/04/16 01:25:00
Lat.              32.753
Long.             130.762
Depth. (km)       12
Mag.              7.3
Station Code      EHM008
Station Lat.      33.8198
Station Long.     132.7282
Station Height(m) 7
Record Time       2016/04/16 01:25:44
Sampling Freq(Hz) 100Hz
Duration Time(s)  161
Dir.              E-W
Scale Factor      7845(gal)/8223790
Max. Acc. (gal)   19.526
Last Correction   2016/04/16 01:25:29
Memo.             
[...]
     178      243      388      552      695      804      824      741 
     612      463      324      294      409      550      664      810 
     940      967      924      870      810      791      869     1021 
    1232     1543     1890     2149     2362     2587     2729     2837 
    3052     3287     3459     3674     3960     4189     4293     4322 
    4243     3997     3711     3534     3407     3288     3253     3271 
    3248     3202     3183     3199     3279     3423     3532     3514 
    3372     3129     2767     2286     1741     1221      818      610 
     594      656      756      916     1102     1237     1289     1294 
    1301     1356     1480     1636     1796     1966     2088     2121 
    2120     2114     2134     2238     2380     2457     2439     2355 
    2242     2130     2062     2047     2031     2004     2045     2193 
    2420     2737     3168     3659     4174     4702     5169     5491 
    5659     5682     5552     5341     5151     5008     4873     4752 
    4623     4401     4102     3835     3574     3326     3207     3218 
    3281     3396     3570     3762     3925     4051     4147     4200 
    4209     4197     4192     4210     4241     4266     4232     4087 
    3869     3661     3515     3458     3511     3655     3780     3750 
    3566     3298     2978     2671     2427     2228     2100     2116 
    2263     2438     2565     2632     2658     2682     2767     2924 
    3055     3161     3352     3578     3740     3842     3882     3825 
    3703     3582     3508     3470     3456     3454     3397     3245 
    3024     2740     2419     2141     1944     1813     1772     1852 
    1972     2031     1995     1822     1498     1051      519      -32 
    -550    -1032    -1475    -1858    -2180    -2439    -2629    -2729 
   -2724    -2640    -2511    -2331    -2087    -1755    -1304     -778 
    -288      129      492      745      896     1031     1119     1088 
    1026     1034     1092     1162     1289     1489     1645     1721 
    1837     2023     2257     2623     3127     3662     4233     4861 
    5425     5856     6184     6417     6554     6673     6872     7094 
    7223     7295     7333     7234     6976     6658     6304     5900 
    5517     5166     4766     4322     3850     3311     2724     2118 
    1472      815      178     -441    -1035    -1567    -2014    -2386 
   -2697    -2934    -3075    -3122    -3088    -3005    -2899    -2727 
   -2459    -2137    -1761    -1316     -830     -311      246      750 
    1077     1201     1139      949      726      546      457      437 
     468      583      747      861      935     1013     1088     1183 
    1328     1502     1722     1998     2290     2567     2844     3146 
    3476     3817     4164     4513     4831     5086     5278     5405 
    5494     5580     5667     5718     5686     5514     5225     4882 
    4518     4192     3967     3835     3774     3769     3788     3771 
    3709     3642     3599     3592     3651     3788     3959     4114 
    4228     4253     4168     4039     3889     3688     3497     3406 
    3350     3230     3068     2893     2668     2448     2324     2288 
    2317     2461     2727     2999     3223     3461     3696     3870 
    4021     4222     4486     4807     5198     5557     5724     5694 
    5526     5175     4664     4121     3604     3125     2733     2420 
    2107     1790     1485     1123      706      341       82      -85 
    -178     -212     -217     -193     -124      -49       -5       52 
     168      333      561      845     1112     1350     1605     1826 
    1918     1894     1792     1598     1362     1174     1020      831 
     610      348       25     -251     -403     -517     -648     -749 
    -805     -838     -797     -629     -382     -105      271      745 
    1190     1574     1971     2378     2767     3194     3677     4106 
    4425     4669     4822     4868     4845     4777     4669     4537 
    4421     4347     4321     4313     4248     4068     3785     3418 
    2995     2606     2366     2301     2393     2612     2911     3245 
    3566     3825     3991     4124     4299     4507     4729     4969 
    5209     5443     5687     5888     5991     6038     6077     6104 
    6154     6315     6574     6851     7138     7439     7690     7875 
    8035     8106     8006     7777     7482     7136     6755     6376 
    6002     5613     5235     4915     4617     4303     4031     3831 
    3693     3651     3699     3719     3669     3572     3407     3159 
    2851     2490     2089     1691     1331     1030      810      666 
     542      400      249       78     -139     -376     -568     -719 
    -815     -780     -630     -425     -137      205      449      540 
     568      571      560      616      764      915     1094     1371 
    1651     1850     2041     2232     2327     2336     2370     2424 
    2451     2493     2554     2546     2485     2451     2427     2417 
    2525     2744     2967     3191     3426     3551     3492     3338 
    3136     2830     2511     2324     2209     2064     1919     1798 
    1674     1567     1486     1390     1282     1225     1264     1383 
    1518     1579     1512     1345     1140      927      741      614 
     526      461      419      383      329      282      291      357 
     444      499      468      319       85     -207     -566     -918 
   -1120    -1135    -1004     -750     -380       14      351      654 
     943     1210     1526     1933     2358     2766     3165     3483 
    3622     3626     3595     3563     3557     3647     3842     4088 
    4375     4693     4980     5190     5358     5490     5585     5676 
    5814     6015     6226     6412     6548     6569     6501     6423 
    6358     6343     6423     6544     6648     6721     6724     6662 
    6548     6339     6014     5587     5053     4440     3834     3291 
    2798     2378     2130     2033     1960     1904     1871     1836 
    1844     1902     1925     1930     2056     2312     2586     2857 
    3149     3392     3520     3565     3530     3350     3048     2782 
    2625     2542     2535     2584     2589     2506     2354     2088 
    1698     1287      920      607      417      411      532      661 
     785      953     1127     1278     1405     1502     1615     1769 
    1911     2029     2134     2182     2138     2062     2010     1919 
    1755     1617     1557     1549     1567     1593     1597     1598 
    1647     1687     1632     1544     1468     1333     1154     1085 
    1166     1314     1540     1875     2226     2506     2718     2853 
    2944     3113     3414     3776     4164     4621     5125     5584 
    5994     6343     6538     6609     6698     6798     6835     6874 
    6994     7103     7049     6790     6380     5854     5300     4842 
    4533     4383     4395     4498     4538     4436     4236     4024 
    3861     3773     3763     3824     3915     4000     4069     4091 
    4012     3821     3584     3361     3172     3030     2917     2791 
    2651     2473     2218     1912     1625     1331      996      696 
     450      135     -284     -666     -920    -1090    -1196    -1173 
   -1053     -890     -621     -228      225      689     1094     1421 
    1749     2100     2370     2477     2502     2573     2656     2674 
    2648     2654     2748     2917     3049     3114     3187     3246 
    3215     3163     3154     3121     3024     2917     2841     2785 
    2708     2569     2369     2180     2087     2111     2192     2246 
    2196     2022     1830     1729     1632     1414     1183     1107 
    1113     1065     1009     1000     1011     1015      999      992 
    1105     1398     1737     1948     2045     2097     2084     2046 
    2079     2161     2280     2527     2895     3221     3392     3458 
    3447     3261     2884     2527     2373     2428     2640     2882 
    3021     3099     3180     3244     3291     3294     3208     3129 
    3254     3596     3882     3963     3963     3936     3811     3599 
    3384     3173     2955     2816     2785     2763     2727     2702 
    2664     2643     2652     2573     2357     2088     1804     1494 
    1144      745      386      206      178      143       41     -103 
    -299     -495     -604     -608     -568     -533     -493     -461 
    -495     -602     -756     -929    -1016     -961     -838     -700 
    -531     -314      -18      372      795     1178     1512     1810 
    2083     2315     2504     2675     2832     2980     3150     3296 
    3349     3314     3165     2874     2520     2161     1826     1591 
    1431     1270     1182     1210     1144      780      268     -133 
    -421     -591     -499     -160      317      931     1609     2185 
    2617     2979     3334     3686     4012     4280     4495     4722 
    5008     5277     5414     5445     5385     5164     4864     4626 
    4410     4128     3815     3511     3198     2926     2790     2768 
    2782     2806     2849     2949     3105     3271     3457     3674 
    3905     4147     4364     4473     4415     4218     3975     3759 
    3574     3404     3283     3245     3244     3246     3261     3227 
    3134     3075     3080     3084     3048     3002     2986     3009 
    3071     3134     3150     3125     3038     2832     2570     2380 
    2265     2232     2288     2253     2031     1783     1614     1436 
    1169      892      702      564      506      629      807      893 
     950     1011     1011      963      892      737      513      378 
     390      429      441      467      480      479      548      714 
     907     1078     1251     1478     1749     1980     2104     2116 
    2066     2037     2042     2023     1968     1917     1927     2003 
    2057     2034     1998     2057     2254     2497     2679     2787 
    2880     2995     3036     2896     2625     2367     2170     1948 
    1663     1391     1210     1158     1233     1393     1602     1814 
    1991     2168     2354     2488     2551     2589     2688     2902 
    3186     3437     3566     3593     3624     3723     3886     4090 
    4283     4428     4572     4766     4966     5105     5163     5177 
    5169     5131     5053     4901     4622     4191     3580     2809 
    2061     1489     1071      764      588      557      649      795 
     873      773      537      360      369      573      934     1351 
    1696     2003     2344     2555     2466     2191     1917     1709 
    1634     1737     1902     2033     2154     2224     2155     2016 
    1939     1852     1630     1420     1393     1460     1525     1609 
    1690     1723     1765     1863     1975     2085     2205     2282 
    2282     2297     2409     2608     2851     3060     3130     3024 
    2790     2504     2211     1899     1582     1279     1008      799 
     629      423      163     -143     -493     -778     -858     -778 
    -600     -287      112      486      837     1190     1512     1795 
    2056     2304     2558     2839     3171     3469     3607     3591 
    3477     3292     3078     2905     2808     2754     2647     2396 
    2018     1599     1213      949      876      953     1121     1386 
    1721     2034     2251     2374     2466     2535     2574     2674 
    2894     3141     3333     3496     3638     3767     3963     4205 
    4392     4484     4522     4592     4692     4742     4734     4681 
    4585     4533     4629     4814     4955     5015     5067     5166 
    5233     5209     5157     5119     5093     5121     5177     5204 
    5231     5255     5179     4939     4625     4360     4124     3873 
    3709     3666     3666     3736     3921     4129     4283     4442 
    4657     4911     5219     5540     5784     6044     6443     6886 
    7275     7608     7858     8031     8181     8329     8453     8533 
    8603     8676     8715     8733     8739     8677     8583     8575 
    8621     8615     8621     8665     8615     8486     8441     8533 
    8684     8849     9028     9193     9281     9227     9004     8655 
    8206     7596     6799     5938     5113     4266     3380     2531 
    1701      812     -122    -1034    -1875    -2608    -3184    -3578 
   -3828    -3970    -4074    -4233    -4392    -4475    -4511    -4477 
   -4303    -4029    -3785    -3627    -3470    -3299    -3134    -2859 
   -2442    -1993    -1482     -920     -506     -297      -97      129 
     224      218      303      468      585      662      680      491 
     114     -305     -770    -1323    -1878    -2384    -2802    -3100 
   -3423    -3905    -4428    -4915    -5366    -5729    -5999    -6135 
   -6089    -5948    -5765    -5533    -5321    -5140    -4942    -4681 
   -4311    -3863    -3402    -2914    -2416    -1958    -1560    -1262 
   -1116    -1107    -1181    -1282    -1352    -1340    -1262    -1230 
   -1320    -1452    -1553    -1638    -1664    -1507    -1155     -700 
    -166      473     1182     1899     2570     3149     3650     4166 
    4777     5458     6142     6821     7501     8177     8792     9197 
    9315     9243     9055     8725     8257     7711     7129     6544 
    5949     5273     4464     3634     2884     2178     1537     1055 
     785      738      892     1201     1647     2242     2961     3770 
    4702     5790     7055     8517    10164    11951    13736    15399 
   17003    18589    20020    21208    22164    22802    23043    22986 
   22697    22102    21243    20235    19021    17566    15988    14274 
   12317    10177     7987     5800     3658     1684      -28    -1534 
   -2882    -4021    -4943    -5643    -6008    -5979    -5585    -4748 
   -3412    -1714      224     2365     4594     6809     8991    11034 
   12789    14154    15053    15460    15400    14899    13942    12571 
   10960     9292     7546     5555     3369     1227     -912    -3079 
   -4962    -6421    -7528    -8294    -8814    -9159    -9331    -9416 
   -9443    -9371    -9262    -9167    -8996    -8698    -8428    -8348 
   -8388    -8401    -8418    -8513    -8684    -8961    -9363    -9855 
  -10454   -11225   -12075   -12855   -13531   -14116   -14581   -14843 
  -14902   -14746   -14208   -13301   -12218   -11013    -9633    -8110 
   -6552    -5055    -3699    -2540    -1591     -816     -191      286 
     646      985     1375     1711     1865     1948     2144     2424 
    2700     3051     3588     4295     5086     5967     7011     8241 
    9605    10916    12006    12941    13755    14316    14590    14619 
   14354    13786    12988    12008    10833     9450     8002     6643 
    5360     4284     3557     2979     2471     2176     2049     2066 
    2317     2766     3412     4297     5341     6519     7859     9344 
   10948    12569    14100    15545    16854    17995    19030    19909 
   20502    20784    20754    20416    19877    19253    18569    17834 
   17150    16598    16114    15685    15373    15149    15002    14979 
   14994    14990    15031    15053    14904    14600    14199    13657 
   12945    12112    11222    10263     9251     8303     7477     6732 
    6033     5352     4641     3975     3499     3115     2691     2334 
    2124     1985     1910     1961     2069     2187     2398     2667 
    2822     2816     2650     2243     1634      962      232     -661 
   -1723    -2863    -4058    -5286    -6486    -7678    -8912   -10125 
  -11167   -11927   -12375   -12496   -12291   -11786   -11032   -10065 
   -8966    -7892    -6918    -6006    -5154    -4407    -3804    -3329 
   -2959    -2745    -2735    -2918    -3331    -3997    -4777    -5572 
   -6405    -7207    -7889    -8464    -8946    -9382    -9796   -10102 
  -10253   -10287   -10164    -9884    -9471    -8860    -7992    -6963 
   -5899    -4761    -3541    -2332    -1133      -40      737     1192 
    1351     1123      515     -319    -1263    -2255    -3196    -3970 
   -4567    -5042    -5448    -5795    -6000    -6008    -5830    -5391 
   -4645    -3653    -2423     -959      642     2350     4167     6060 
    7962     9830    11638    13336    14848    16065    16846    17150 
   17057    16629    15884    14908    13857    12800    11688    10571 
    9495     8330     7087     5949     4981     4203     3716     3665 
    4055     4662     5393     6318     7279     8144     9022     9911 
   10748    11628    12654    13759    14827    15789    16530    16952 
   17151    17250    17213    17020    16822    16704    16565    16363 
   16124    15753    15195    14563    13846    12960    11973    10957 
    9863     8698     7528     6363     5202     4066     2934     1780 
     638     -445    -1485    -2423    -3136    -3586    -3844    -3969 
   -3969    -3852    -3647    -3399    -3159    -2887    -2536    -2177 
   -1875    -1540    -1119     -711     -410     -259     -305     -595 
   -1127    -1829    -2639    -3468    -4183    -4725    -5092    -5309 
   -5481    -5726    -5992    -6115    -6118    -6084    -5831    -5223 
   -4334    -3149    -1653       35     1861     3831     5933     8102 
   10219    12254    14214    16009    17524    18678    19475    19962 
   20097    19734    18794    17363    15572    13441    11013     8441 
    5793     3103      579    -1617    -3553    -5252    -6655    -7715 
   -8414    -8884    -9279    -9513    -9532    -9481    -9369    -9100 
   -8698    -8195    -7497    -6601    -5755    -5080    -4411    -3732 
   -3238    -2947    -2667    -2312    -1876    -1300     -654      -45 
     557     1058     1310     1402     1526     1800     2290     2986 
    3874     4999     6290     7523     8525     9293     9933    10528 
   11051    11497    11982    12548    13080    13514    13796    13779 
   13412    12802    12046    11221    10481     9938     9529     9216 
    8977     8680     8328     8009     7566     6862     6041     5232 
    4450     3743     3102     2444     1840     1457     1267     1107 
    1039     1139     1194     1086      934      820      800      965 
    1359     1908     2562     3349     4205     5027     5815     6504 
    7078     7730     8543     9388    10181    10947    11672    12233 
   12523    12534    12236    11545    10466     9097     7543     5933 
    4378     2871     1409      105     -972    -1830    -2442    -2809 
   -3028    -3113    -2972    -2579    -2018    -1344     -553      322 
    1219     2088     2870     3503     3973     4228     4251     4109 
    3835     3380     2749     1998     1170      315     -508    -1278 
   -2062    -2929    -3793    -4575    -5270    -5815    -6195    -6465 
   -6606    -6615    -6578    -6536    -6474    -6347    -6103    -5732 
   -5235    -4631    -3943    -3171    -2355    -1522     -645      243 
    1104     1993     2895     3647     4124     4351     4378     4145 
    3689     3192     2740     2340     2062     1937     1852     1757 
    1676     1582     1456     1269      972      637      396      282 
     251      333      535      741      877      912      783      538 
     326      201      206      432      868     1393     1946     2550 
    3161     3685     4106     4467     4764     4963     5098     5146 
    4996     4668     4256     3696     2960     2172     1355      495 
