Origin Time       2016/04/16 01:25:00
Lat.              32.753
Long.             130.762
Depth. (km)       12
Mag.              7.3
Station Code      EHM011
Station Lat.      33.4496
Station Long.     132.4336
Station Height(m) 10
Record Time       2016/04/16 01:25:38
Sampling Freq(Hz) 100Hz
Duration Time(s)  122
Dir.              N-S
Scale Factor      7845(gal)/8223790
Max. Acc. (gal)   36.240
Last Correction   2016/04/16 01:25:38
Memo.             
[...]
  -13824   -13675   -13421   -12939   -12231   -11500   -10871   -10353 
   -9964    -9709    -9520    -9400    -9536   -10072   -10889   -11797 
  -12661   -13347   -13771   -13892   -13659   -13076   -12260   -11356 
  -10434    -9529    -8837    -8588    -8738    -9051    -9516   -10295 
  -11329   -12309   -13028   -13514   -13783   -13724   -13329   -12842 
  -12484   -12256   -12062   -11808   -11434   -11002   -10627   -10358 
  -10185   -10022    -9790    -9572    -9513    -9539    -9421    -9063 
   -8590    -8172    -7931    -7983    -8364    -8927    -9409    -9601 
   -9501    -9265    -9042    -8889    -8797    -8776    -8955    -9485 
  -10336   -11298   -12114   -12619   -12808   -12775   -12673   -12702 
  -12887   -12997   -12815   -12310   -11568   -10728    -9956    -9374 
   -8989    -8700    -8444    -8266    -8201    -8210    -8172    -7959 
   -7568    -7122    -6758    -6629    -6839    -7256    -7657    -8012 
   -8410    -8878    -9385    -9988   -10763   -11604   -12347   -12954 
  -13451   -13809   -14050   -14204   -14214   -14027   -13710   -13336 
  -12884   -12310   -11704   -11219   -10916   -10777   -10752   -10719 
  -10524   -10196    -9906    -9671    -9401    -9202    -9205    -9259 
   -9162    -8988    -8959    -9166    -9544   -10000   -10438   -10746 
  -10971   -11313   -11836   -12405   -12852   -12984   -12698   -12102 
  -11412   -10860   -10562   -10403   -10206    -9952    -9718    -9536 
   -9352    -9088    -8749    -8479    -8459    -8677    -8912    -8966 
   -8799    -8474    -8106    -7912    -8241    -9212   -10532   -11788 
  -12690   -13161   -13279   -13200   -13100   -13050   -13015   -13003 
  -13054   -13142   -13200   -13209   -13180   -13032   -12607   -11885 
  -11021   -10093    -9084    -8109    -7383    -7029    -7099    -7568 
   -8222    -8781    -9144    -9388    -9647   -10018   -10471   -10870 
  -11105   -11136   -10978   -10696   -10362   -10030    -9672    -9270 
   -8916    -8662    -8348    -7898    -7519    -7377    -7425    -7626 
   -8058    -8776    -9747   -10866   -11966   -12876   -13552   -14064 
  -14397   -14430   -14107   -13548   -12919   -12243   -11493   -10768 
  -10200    -9786    -9408    -9016    -8738    -8684    -8785    -8946 
   -9159    -9331    -9243    -8847    -8380    -8040    -7852    -7903 
   -8307    -8984    -9701   -10281   -10655   -10721   -10353    -9688 
   -9136    -8922    -8984    -9296    -9779   -10142   -10241   -10331 
  -10722   -11391   -12110   -12707   -13038   -12995   -12634   -12109 
  -11458   -10696   -10007    -9634    -9629    -9913   -10411   -10949 
  -11244   -11200   -11078   -11181   -11530   -11917   -12171   -12216 
  -12024   -11703   -11461   -11364   -11284   -11078   -10697   -10206 
   -9733    -9479    -9567    -9834   -10039   -10118   -10142   -10263 
  -10593   -10984   -11171   -11091   -10854   -10504   -10019    -9435 
   -8870    -8398    -8024    -7794    -7780    -7929    -8070    -8078 
   -7939    -7744    -7703    -7974    -8460    -8953    -9402    -9811 
  -10173   -10648   -11422   -12428   -13408   -14130   -14542   -14812 
  -15105   -15417   -15608   -15537   -15168   -14559   -13841   -13170 
  -12606   -12086   -11510   -10817   -10034    -9274    -8657    -8164 
   -7603    -6821    -5961    -5263    -4781    -4482    -4348    -4359 
   -4563    -5077    -5998    -7277    -8714   -10191   -11767   -13421 
  -14958   -16263   -17325   -17994   -18029   -17415   -16386   -15175 
  -13905   -12633   -11407   -10381    -9721    -9315    -8869    -8303 
   -7728    -7188    -6747    -6517    -6475    -6474    -6432    -6444 
   -6681    -7222    -8028    -9045   -10169   -11234   -12135   -12864 
  -13435   -13837   -14115   -14399   -14739   -15024   -15180   -15226 
  -15144   -14897   -14509   -14049   -13598   -13185   -12719   -12086 
  -11295   -10485    -9806    -9374    -9174    -8984    -8576    -7990 
   -7527    -7430    -7654    -8028    -8456    -8908    -9360    -9811 
  -10223   -10520   -10678   -10763   -10870   -11034   -11259   -11507 
  -11641   -11516   -11169   -10728   -10273    -9915    -9806    -9919 
  -10030   -10073   -10247   -10689   -11306   -11925   -12436   -12796 
  -12980   -12937   -12626   -12066   -11335   -10597   -10014    -9620 
   -9339    -9120    -8942    -8742    -8444    -8039    -7608    -7307 
   -7273    -7503    -7896    -8355    -8783    -9094    -9364    -9813 
  -10532   -11398   -12256   -12966   -13386   -13489   -13397   -13274 
  -13250   -13362   -13565   -13819   -14019   -13980   -13637   -13089 
  -12414   -11624   -10751    -9892    -9128    -8414    -7618    -6639 
   -5530    -4553    -4013    -4024    -4495    -5313    -6370    -7512 
   -8564    -9443   -10196   -10890   -11599   -12420   -13373   -14395 
  -15427   -16431   -17334   -17919   -17937   -17400   -16537   -15495 
  -14323   -13139   -12085   -11165   -10339    -9580    -8911    -8371 
   -7974    -7730    -7681    -7840    -8152    -8507    -8761    -8804 
   -8668    -8483    -8360    -8368    -8561    -8986    -9616   -10311 
  -10952   -11523   -12043   -12496   -12826   -12961   -12879   -12599 
  -12167   -11657   -11113   -10570   -10137    -9892    -9811    -9855 
   -9950    -9958    -9790    -9547    -9459    -9594    -9761    -9817 
   -9823    -9833    -9825    -9853   -10046   -10405   -10777   -11043 
  -11227   -11365   -11403   -11331   -11279   -11286   -11229   -11101 
  -11045   -11114   -11186   -11095   -10790   -10332    -9819    -9388 
   -9127    -8926    -8667    -8398    -8186    -8043    -8054    -8324 
   -8810    -9325    -9710    -9900    -9944    -9933    -9913    -9856 
   -9794    -9855   -10153   -10692   -11345   -11919   -12293   -12449 
  -12339   -11898   -11194   -10400    -9679    -9137    -8762    -8417 
   -8025    -7672    -7524    -7703    -8125    -8598    -9022    -9347 
   -9486    -9431    -9306    -9198    -9077    -8992    -9134    -9594 
  -10293   -11164   -12140   -13028   -13651   -13971   -13998   -13734 
  -13250   -12663   -12012   -11250   -10388    -9529    -8733    -8017 
   -7452    -7119    -7051    -7206    -7497    -7840    -8208    -8552 
   -8827    -9137    -9598   -10119   -10550   -10920   -11333   -11786 
  -12195   -12559   -12938   -13304   -13527   -13575   -13582   -13659 
  -13782   -13832   -13721   -13412   -12888   -12226   -11554   -10945 
  -10401    -9895    -9417    -8976    -8599    -8329    -8159    -8028 
   -7951    -8066    -8490    -9196   -10034   -10806   -11350   -11624 
  -11653   -11469   -11200   -11024   -11028   -11200   -11502   -11896 
  -12353   -12825   -13185   -13254   -12935   -12268   -11396   -10540 
   -9877    -9386    -8911    -8360    -7766    -7194    -6717    -6509 
   -6679    -7141    -7759    -8444    -9055    -9435    -9560    -9599 
   -9798   -10293   -11016   -11789   -12498   -13034   -13284   -13263 
  -13134   -13027   -12943   -12820   -12671   -12560   -12491   -12438 
  -12361   -12137   -11693   -11115   -10438    -9553    -8515    -7591 
   -6985    -6720    -6768    -7163    -7912    -8915    -9934   -10810 
  -11587   -12301   -12852   -13149   -13198   -13055   -12783   -12467 
  -12159   -11790   -11329   -10899   -10590   -10338   -10027    -9582 
   -9042    -8546    -8182    -7951    -7827    -7854    -8105    -8604 
   -9274   -10030   -10808   -11473   -11863   -11912   -11754   -11638 
  -11630   -11628   -11622   -11677   -11819   -12017   -12128   -11962 
  -11493   -10862   -10224    -9717    -9421    -9297    -9232    -9167 
   -9113    -9082    -9054    -9024    -9086    -9296    -9572    -9856 
  -10157   -10434   -10652   -10843   -11020   -11194   -11383   -11556 
  -11655   -11691   -11713   -11716   -11634   -11434   -11092   -10580 
   -9938    -9227    -8515    -7944    -7654    -7560    -7387    -7037 
   -6752    -6777    -7094    -7600    -8276    -9057    -9830   -10588 
  -11280   -11732   -11870   -11935   -12175   -12505   -12711   -12779 
  -12764   -12647   -12434   -12145   -11790   -11439   -11203   -11092 
  -11022   -10978   -11056   -11299   -11564   -11672   -11558   -11329 
  -11204   -11300   -11408   -11313   -11114   -10976   -10885   -10787 
  -10712   -10689   -10692   -10667   -10596   -10458   -10197    -9826 
   -9440    -9093    -8795    -8631    -8707    -9085    -9764   -10535 
  -11095   -11356   -11394   -11379   -11510   -11724   -11809   -11762 
  -11677   -11507   -11257   -11132   -11264   -11503   -11630   -11618 
  -11496   -11229   -10786   -10208    -9583    -8972    -8368    -7811 
   -7411    -7198    -7099    -7136    -7387    -7773    -8117    -8365 
   -8573    -8814    -9131    -9520   -10006   -10697   -11614   -12559 
  -13223   -13432   -13281   -12941   -12438   -11812   -11227   -10859 
  -10706   -10602   -10424   -10274   -10351   -10656   -10957   -11070 
  -10976   -10706   -10342   -10014    -9721    -9398    -9217    -9379 
   -9756   -10131   -10516   -10993   -11488   -11782   -11703   -11345 
  -10937   -10524   -10002    -9359    -8766    -8428    -8403    -8553 
   -8603    -8390    -8062    -7843    -7789    -7854    -8037    -8319 
   -8621    -8955    -9304    -9451    -9408    -9512    -9840   -10130 
  -10265   -10370   -10525   -10646   -10689   -10708   -10693   -10537 
  -10253    -9975    -9693    -9254    -8665    -8147    -7931    -7964 
   -7919    -7681    -7364    -6899    -6273    -5806    -5683    -5679 
   -5602    -5589    -5827    -6304    -6974    -7834    -8770    -9595 
  -10114   -10247   -10234   -10323   -10369   -10077    -9369    -8344 
   -7231    -6335    -5823    -5674    -5719    -5859    -6336    -7261 
   -8052    -8197    -7998    -7987    -8272    -8665    -9032    -9377 
   -9652    -9698    -9416    -8819    -8087    -7531    -7310    -7311 
   -7453    -7792    -8170    -8229    -7908    -7395    -6824    -6385 
   -6313    -6542    -6664    -6444    -6081    -5706    -5240    -4872 
   -4835    -4946    -4955    -4897    -4800    -4502    -4010    -3653 
   -3631    -3893    -4498    -5494    -6540    -7269    -7727    -7997 
   -8104    -8213    -8329    -8284    -8105    -7867    -7534    -7118 
   -6744    -6558    -6539    -6447    -6242    -6157    -6154    -6026 
   -5782    -5448    -5078    -4826    -4833    -5248    -6061    -6909 
   -7470    -7763    -7858    -7695    -7272    -6770    -6327    -5844 
   -5297    -4942    -4918    -5074    -5103    -4858    -4592    -4500 
   -4367    -4039    -3593    -3134    -2880    -3064    -3577    -4159 
   -4918    -6083    -7395    -8611    -9953   -11493   -12799   -13520 
  -13763   -13782   -13602   -13234   -12892   -12738   -12667   -12675 
  -13076   -14044   -15295   -16297   -16692   -16722   -16892   -17173 
  -17280   -17412   -17875   -18540   -19217   -20106   -21425   -22858 
  -24065   -25276   -26601   -27580   -28129   -28745   -29552   -30300 
  -30942   -31475   -31855   -32205   -32692   -33238   -33616   -33771 
  -33807   -33659   -33077   -32031   -30874   -29814   -28686   -27380 
  -25987   -24511   -22956   -21594   -20655   -19880   -18979   -18169 
  -17678   -17334   -16980   -16626   -16283   -16104   -16384   -16949 
  -17263   -17355   -17714   -18338   -18792   -18906   -18779   -18516 
  -18316   -18365   -18523   -18397   -17798   -16911   -15982   -14979 
  -13849   -12880   -12295   -11804   -10952    -9657    -8125    -6421 
   -4514    -2560     -684     1012     2162     2675     3001     3336 
    3605     3839     3979     4210     4861     5680     6237     6431 
    6254     5667     4692     3451     2092      801     -241    -1224 
   -2474    -3874    -5128    -6205    -7117    -7693    -7875    -7767 
   -7344    -6504    -5321    -3855    -2060       28     2257     4337 
    5940     6901     7230     7020     6246     4760     2662      287 
   -2187    -4633    -6845    -8735   -10320   -11682   -12950   -14153 
  -15226   -16042   -16441   -16484   -16457   -16426   -16048   -15090 
  -13752   -12251   -10635    -8974    -7269    -5471    -3715    -2168 
    -803      421     1422     2083     2409     2550     2664     2894 
    3167     3007     1988      183    -2038    -4422    -6925    -9371 
  -11318   -12629   -13428   -13629   -13254   -12699   -12360   -12326 
  -12584   -13150   -13795   -14191   -14298   -14224   -14019   -13810 
  -13763   -13973   -14440   -15134   -16114   -17493   -19271   -21200 
  -22835   -23829   -24074   -23537   -22180   -19944   -16935   -13576 
  -10272    -7080    -3913     -890     1656     3472     4531     4972 
    4927     4513     3776     2550      595    -2115    -5489    -9487 
  -13991   -18670   -23145   -27197   -30643   -33172   -34527   -34727 
  -33984   -32447   -30045   -26743   -22924   -19215   -16002   -13340 
  -11236    -9699    -8532    -7365    -6006    -4463    -2874    -1493 
    -603     -453    -1205    -2880    -5375    -8499   -11943   -15234 
  -18007   -20380   -22561   -24219   -24888   -24707   -24140   -23164 
  -21342   -18547   -15001   -10941    -6602    -2133     2351     6596 
   10416    13716    16270    18027    19256    20031    20004    18742 
   15965    11618     5948     -614    -7684   -14850   -21702   -28065 
  -33836   -38750   -42481   -44768   -45634   -45459   -44421   -42364 
  -39348   -35652   -31479   -26932   -21838   -15928    -9417    -2918 
    3024     8073    12128    15183    17138    17851    17293    15522 
   12415     7884     2146    -4568   -12024   -19831   -27481   -34292 
  -39671   -43540   -46222   -47879   -48450   -47995   -46557   -43788 
  -39330   -33578   -27101   -19943   -12303    -4819     1941     7754 
   12802    17363    21455    24786    26796    27051    25813    23722 
   20821    16718    11531     5841      103    -5339   -10285   -14970 
  -19697   -24320   -28544   -32081   -34641   -36151   -36514   -35677 
  -34005   -32036   -29988   -27689   -25016   -21964   -18523   -14891 
  -11175    -7233    -3179      589     3755     6141     7652     8264 
    7894     6585     4653     2455      240    -1923    -4225    -6972 
  -10200   -13477   -16303   -18567   -20339   -21513   -21848   -21358 
  -20421   -19299   -18042   -16877   -16024   -15340   -14688   -14095 
  -13621   -13448   -13674   -14292   -15282   -16421   -17365   -17894 
  -18127   -18396   -18777   -19029   -18967   -18693   -18434   -18226 
  -18006   -17915   -17975   -17807   -17126   -16070   -14955   -13984 
  -13277   -13028   -13342   -14017   -14689   -15134   -15367   -15513 
  -15762   -16197   -16734   -17356   -18108   -18974   -19990   -21270 
  -22756   -24108   -24988   -25316   -25308   -25131   -24605   -23422 
  -21433   -18668   -15236   -11487    -8147    -5826    -4611    -4174 
   -4085    -4077    -4050    -3928    -3846    -4163    -5027    -6361 
   -8164   -10434   -13036   -15799   -18427   -20530   -21840   -22318 
  -22293   -22381   -22890   -23791   -24966   -26096   -26869   -27249 
  -27365   -27422   -27476   -27268   -26462   -24908   -22570   -19442 
  -15680   -11663    -7693    -3963     -780     1668     3442     4596 
    5178     5281     5024     4715     4572     4388     3869     2744 
     855    -1463    -3802    -6070    -8181    -9969   -11407   -12600 
  -13598   -14374   -14914   -15287   -15546   -15620   -15526   -15507 
  -15705   -16017   -16325   -16561   -16615   -16276   -15288   -13621 
  -11618    -9715    -8136    -6756    -5339    -3875    -2573    -1597 
    -982     -719     -731     -953    -1571    -2728    -4288    -6218 
   -8668   -11527   -14249   -16294   -17508   -17959   -17736   -16929 
  -15599   -13809   -11789    -9871    -8294    -7088    -6106    -5247 
   -4415    -3528    -2728    -2180    -1926    -2033    -2505    -3399 
   -4984    -7404   -10390   -13501   -16374   -18836   -20871   -22414 
  -23368   -23697   -23380   -22477   -21196   -19673   -17918   -15982 
  -13969   -11924    -9767    -7360    -4650    -1914      493     2606 
    4556     6247     7411     7685     6893     5265     3183      897 
   -1286    -3009    -4247    -5377    -6885    -9032   -11819   -15132 
  -18742   -22335   -25682   -28537   -30677   -32017   -32513   -32182 
  -31021   -29050   -26507   -23714   -20972   -18499   -16132   -13448 
  -10376    -7125    -3688      -27     3591     6906     9751    11937 
   13494    14467    14674    13946    12256     9675     6504     3159 
    -233    -3782    -7368   -10675   -13477   -15749   -17788   -19970 
  -22234   -24281   -25960   -27147   -27710   -27619   -26867   -25536 
  -23716   -21435   -18752   -15758   -12660    -9705    -7010    -4622 
   -2509     -538     1237     2631     3592     4126     4144     3544 
    2370      846     -880    -2785    -4741    -6527    -8050    -9448 
  -10829   -12066   -12962   -13504   -13815   -13879   -13595   -13089 
  -12529   -12046   -11789   -11794   -12009   -12158   -11738   -10554 
   -8978    -7479    -6208    -5173    -4507    -4284    -4325    -4388 
   -4467    -4710    -5040    -5268    -5487    -5815    -6250    -6820 
   -7477    -7992    -8023    -7393    -6446    -5822    -5834    -6407 
   -7389    -8611   -10006   -11580   -13128   -14396   -15246   -15573 
  -15441   -14993   -14260   -13339   -12422   -11524   -10438    -9143 
   -7897    -6754    -5637    -4739    -4178    -3763    -3352    -3030 
   -3075    -3748    -5062    -6808    -8630   -10278   -11800   -13296 
  -14744   -16028   -16961   -17489   -17825   -18145   -18399   -18522 
  -18508   -18455   -18490   -18511   -18270   -17666   -16768   -15612 
  -14089   -12116    -9853    -7543    -5259    -2951     -564     1830 
    4048     5935     7337     8097     8120     7375     5919     3989 
    1883     -314    -2727    -5362    -8162   -11161   -14283   -17456 
  -20798   -24221   -27391   -30003   -31849   -32817   -32946   -32528 
  -31710   -30292   -28111   -25107   -21339   -17098   -12868    -9182 
   -6377    -4406    -2948    -1846    -1281    -1420    -2232    -3538 
   -4992    -6232    -7021    -7295    -7144    -6711    -6104    -5436 
   -4909    -4731    -4997    -5809    -7175    -8702    -9867   -10377 
  -10191    -9551    -8731    -7838    -6963    -6161    -5373    -4568 
   -3889    -3578    -3812    -4644    -5881    -7236    -8569    -9724 
  -10488   -10808   -10750   -10428   -10087    -9926    -9985   -10243 
  -10582   -10818   -10814   -10504    -9902    -9136    -8414    -7851 
   -7537    -7576    -7948    -8483    -8970    -9312    -9585   -10022 
  -10763   -11696   -12644   -13385   -13717   -13620   -13126   -12343 
  -11547   -10947   -10415    -9678    -8770    -7986    -7426    -7010 
   -6578    -5908    -5022    -4082    -3125    -2205    -1521    -1368 
   -1939    -3187    -4915    -6868    -8797   -10509   -11858   -12827 
  -13560   -14156   -14598   -14881   -14845   -14358   -13543   -12611 
  -11875   -11604   -11817   -12490   -13462   -14368   -14948   -15121 
  -14936   -14516   -13892   -13051   -12062   -11022   -10007    -9058 
   -8108    -7003    -5809    -4812    -4069    -3431    -2926    -2725 
   -2890    -3379    -4131    -5024    -5836    -6361    -6670    -6994 
   -7342    -7537    -7609    -7850    -8380    -9107   -10003   -11076 
  -12321   -13771   -15287   -16518   -17216   -17432   -17293   -16918 
  -16526   -16328   -16336   -16343   -16025   -14994   -13035   -10385 
