Origin Time       2016/04/16 01:25:00
Lat.              32.753
Long.             130.762
Depth. (km)       12
Mag.              7.3
Station Code      EHM005
Station Lat.      33.7974
Station Long.     132.9141
Station Height(m) 136
Record Time       2016/04/16 01:25:47
Sampling Freq(Hz) 100Hz
Duration Time(s)  107
Dir.              E-W
Scale Factor      7845(gal)/8223790
Max. Acc. (gal)   10.665
Last Correction   2016/04/16 01:25:48
Memo.             
[...]
    2578     2517     2473     2447     2427     2404     2388     2381 
    2385     2394     2393     2380     2355     2305     2223     2106 
    1958     1810     1664     1525     1431     1382     1364     1386 
    1435     1491     1549     1580     1578     1571     1554     1518 
    1487     1468     1471     1528     1625     1736     1861     1975 
    2043     2088     2124     2151     2185     2241     2338     2486 
    2640     2771     2876     2936     2949     2926     2870     2802 
    2739     2652     2535     2392     2235     2093     1962     1831 
    1726     1636     1534     1443     1371     1331     1352     1444 
    1588     1757     1907     2034     2154     2277     2417     2573 
    2721     2840     2918     2971     2997     2999     2994     2965 
    2911     2841     2748     2641     2546     2457     2347     2200 
    2004     1792     1605     1456     1355     1290     1273     1345 
    1507     1725     1958     2149     2278     2371     2415     2396 
    2322     2173     1973     1781     1610     1464     1358     1252 
    1140     1053      999      989     1042     1143     1290     1479 
    1686     1895     2079     2204     2290     2343     2366     2412 
    2477     2508     2513     2508     2489     2470     2425     2317 
    2161     1985     1815     1676     1566     1491     1453     1436 
    1452     1503     1554     1617     1691     1765     1873     2018 
    2181     2382     2623     2882     3164     3435     3677     3910 
    4131     4310     4430     4491     4534     4577     4608     4630 
    4629     4588     4537     4479     4386     4270     4121     3925 
    3727     3544     3372     3230     3119     3034     2997     2978 
    2955     2956     2986     3037     3121     3242     3380     3500 
    3582     3604     3554     3451     3333     3217     3113     3030 
    2961     2903     2859     2825     2805     2790     2778     2798 
    2836     2867     2882     2863     2814     2763     2708     2656 
    2605     2544     2494     2432     2335     2215     2061     1868 
    1671     1487     1345     1269     1250     1297     1412     1570 
    1757     1966     2180     2388     2573     2725     2837     2891 
    2893     2839     2720     2565     2405     2235     2079     1972 
    1894     1819     1755     1674     1554     1433     1325     1221 
    1133     1053     1000     1004     1039     1101     1208     1343 
    1498     1677     1863     2039     2196     2308     2384     2436 
    2465     2481     2482     2477     2508     2597     2718     2840 
    2949     3044     3109     3138     3144     3153     3165     3186 
    3245     3335     3430     3520     3582     3612     3626     3626 
    3612     3580     3518     3438     3365     3311     3311     3369 
    3450     3539     3661     3813     3963     4062     4074     4032 
    3964     3861     3735     3597     3427     3237     3044     2844 
    2662     2525     2428     2344     2280     2246     2243     2269 
    2319     2394     2505     2633     2759     2878     2978     3052 
    3099     3092     3022     2907     2758     2596     2455     2344 
    2282     2272     2272     2281     2304     2317     2332     2365 
    2416     2482     2552     2640     2759     2876     2979     3084 
    3196     3308     3422     3508     3542     3543     3527     3492 
    3472     3472     3476     3470     3426     3334     3203     3015 
    2776     2529     2296     2083     1902     1749     1624     1541 
    1509     1505     1520     1559     1636     1750     1885     2034 
    2199     2362     2502     2631     2764     2891     2986     3042 
    3069     3078     3060     2990     2862     2693     2508     2319 
    2133     1965     1833     1737     1687     1684     1729     1825 
    1946     2085     2261     2461     2651     2830     3003     3163 
    3311     3445     3559     3682     3820     3939     4029     4094 
    4132     4159     4174     4151     4110     4074     4041     4010 
    3978     3936     3873     3774     3638     3468     3257     2998 
    2690     2357     2062     1861     1753     1702     1661     1621 
    1584     1543     1491     1445     1412     1404     1426     1474 
    1570     1734     1952     2196     2444     2677     2903     3092 
    3177     3165     3090     2986     2901     2841     2785     2706 
    2590     2461     2351     2253     2161     2074     1987     1918 
    1890     1902     1948     2003     2033     2060     2121     2191 
    2232     2235     2196     2157     2138     2118     2106     2144 
    2235     2338     2454     2587     2733     2879     3028     3157 
    3229     3225     3168     3109     3107     3145     3149     3098 
    3049     3036     3051     3083     3103     3088     3041     2967 
    2843     2639     2411     2234     2101     1975     1849     1733 
    1669     1665     1680     1675     1622     1520     1413     1334 
    1281     1221     1194     1251     1360     1472     1593     1746 
    1952     2172     2353     2492     2571     2551     2488     2442 
    2365     2249     2135     2011     1895     1784     1621     1440 
    1331     1298     1279     1252     1255     1291     1356     1471 
    1605     1750     1949     2149     2311     2450     2558     2658 
    2779     2876     2922     2929     2926     2944     2947     2891 
    2803     2698     2562     2393     2193     1988     1852     1780 
    1690     1568     1479     1466     1520     1588     1628     1655 
    1706     1768     1806     1829     1852     1858     1845     1814 
    1750     1638     1497     1367     1282     1271     1317     1370 
    1452     1590     1722     1803     1865     1911     1941     2015 
    2126     2214     2311     2440     2552     2652     2770     2909 
    3071     3223     3360     3481     3550     3577     3604     3603 
    3532     3400     3240     3078     2925     2770     2577     2353 
    2178     2128     2166     2176     2130     2124     2162     2170 
    2126     2050     1966     1908     1852     1798     1796     1836 
    1817     1696     1545     1441     1420     1470     1532     1593 
    1717     1908     2106     2258     2355     2444     2577     2743 
    2893     2990     3038     3083     3123     3145     3187     3237 
    3246     3229     3202     3153     3083     2924     2643     2343 
    2092     1868     1696     1563     1417     1308     1263     1213 
    1179     1220     1275     1287     1294     1297     1267     1216 
    1129      997      903      892      920     1003     1159     1340 
    1520     1632     1637     1644     1694     1713     1665     1566 
    1475     1452     1447     1440     1449     1482     1552     1624 
    1640     1622     1598     1568     1534     1532     1599     1682 
    1718     1717     1701     1692     1672     1613     1554     1513 
    1497     1502     1474     1417     1401     1435     1509     1632 
    1772     1912     2083     2313     2587     2863     3080     3186 
    3222     3291     3400     3477     3491     3440     3329     3217 
    3137     3013     2841     2694     2551     2416     2353     2319 
    2286     2284     2295     2309     2342     2369     2385     2393 
    2386     2376     2350     2297     2211     2073     1894     1694 
    1522     1431     1375     1300     1260     1273     1329     1436 
    1539     1636     1777     1929     2077     2255     2477     2772 
    3102     3366     3542     3676     3784     3863     3912     3939 
    3951     3944     3888     3786     3686     3618     3599     3626 
    3658     3677     3697     3736     3796     3866     3964     4097 
    4220     4298     4345     4365     4349     4326     4317     4306 
    4263     4148     3990     3850     3719     3589     3469     3348 
    3238     3149     3051     2925     2830     2789     2725     2596 
    2405     2161     1902     1642     1383     1169     1011      912 
     899      873      761      653      583      506      396      216 
      10     -124     -206     -243     -195      -58      178      490 
     823     1177     1545     1895     2212     2505     2781     3028 
    3249     3442     3569     3634     3685     3716     3717     3697 
    3636     3528     3397     3240     3061     2917     2810     2702 
    2596     2546     2586     2664     2717     2748     2792     2859 
    2918     2922     2866     2787     2712     2627     2555     2532 
    2532     2520     2502     2474     2432     2419     2420     2378 
    2308     2227     2130     2049     1999     1949     1880     1784 
    1675     1575     1475     1331     1107      827      566      357 
     180       59       10       16       83      195      322      477 
     641      799      994     1229     1474     1718     1910     2029 
    2119     2204     2281     2343     2344     2258     2151     2061 
    1954     1826     1692     1544     1391     1224     1015      785 
     548      311      128        5      -55      -21       81      221 
     429      676      924     1210     1505     1738     1939     2137 
    2281     2362     2404     2403     2370     2355     2366     2378 
    2415     2492     2556     2577     2565     2519     2447     2373 
    2290     2227     2242     2332     2444     2565     2682     2752 
    2783     2818     2847     2857     2859     2852     2837     2847 
    2890     2943     2999     3060     3100     3111     3109     3102 
    3095     3096     3096     3099     3161     3304     3488     3692 
    3920     4143     4329     4475     4567     4595     4595     4611 
    4656     4727     4835     4984     5142     5273     5398     5526 
    5626     5684     5683     5607     5478     5320     5157     5005 
    4852     4699     4553     4378     4140     3840     3459     2995 
    2513     2056     1647     1323     1067      853      695      595 
     552      562      602      665      743      797      824      831 
     851      935     1028     1046     1028     1017     1034     1105 
    1210     1305     1418     1559     1695     1852     2053     2250 
    2423     2606     2816     3053     3298     3532     3788     4067 
    4329     4552     4726     4862     5007     5144     5233     5271 
    5265     5248     5267     5283     5244     5158     5027     4852 
    4646     4396     4105     3809     3504     3196     2926     2697 
    2492     2323     2170     2027     1925     1880     1877     1921 
    2019     2173     2373     2594     2818     3040     3249     3450 
    3665     3883     4086     4275     4434     4579     4729     4851 
    4914     4922     4874     4765     4577     4309     3989     3609 
    3165     2728     2317     1949     1679     1478     1323     1217 
    1111      973      846      726      594      469      376      336 
     338      349      364      396      442      495      531      529 
     515      514      504      475      434      407      440      548 
     719      938     1161     1387     1657     1977     2328     2708 
    3136     3631     4200     4814     5386     5863     6265     6609 
    6881     7078     7206     7267     7273     7236     7153     7055 
    7006     7006     6998     6970     6924     6835     6721     6613 
    6484     6322     6139     5946     5780     5648     5517     5389 
    5266     5144     5030     4885     4680     4450     4218     3956 
    3657     3323     2967     2620     2274     1900     1491     1058 
     649      289      -49     -357     -603     -824     -996    -1051 
   -1051    -1050    -1008     -963     -966    -1000    -1080    -1217 
   -1397    -1593    -1757    -1873    -1953    -1982    -1945    -1826 
   -1638    -1393    -1085     -766     -499     -261      -54       90 
     203      299      344      373      413      450      514      626 
     756      866      936      965      970      938      835      679 
     502      338      202       85      -20     -109     -178     -203 
    -178     -118      -43       64      221      415      646      923 
    1236     1576     1921     2239     2536     2821     3100     3403 
    3738     4106     4525     5001     5499     5999     6494     6940 
    7268     7435     7425     7217     6797     6166     5344     4367 
    3304     2218     1113       35     -959    -1876    -2705    -3418 
   -4055    -4637    -5116    -5508    -5857    -6141    -6316    -6372 
   -6285    -6107    -5899    -5590    -5143    -4656    -4147    -3562 
   -2922    -2241    -1525     -807     -131      440      897     1237 
    1431     1509     1528     1490     1416     1350     1321     1382 
    1580     1926     2415     3046     3805     4652     5514     6315 
    7013     7581     8013     8324     8523     8650     8746     8823 
    8901     9005     9140     9286     9396     9444     9445     9385 
    9217     8904     8444     7867     7207     6515     5827     5169 
    4560     4010     3511     3057     2668     2365     2107     1854 
    1624     1444     1341     1343     1413     1482     1498     1405 
    1183      880      564      271       18     -189     -333     -422 
    -508     -622     -746     -824     -812     -747     -648     -454 
    -129      337      977     1779     2709     3738     4818     5914 
    7010     8083     9116    10083    10951    11711    12363    12900 
   13286    13517    13616    13548    13290    12843    12147    11168 
    9938     8471     6863     5297     3842     2455     1100     -186 
   -1362    -2457    -3462    -4337    -5077    -5664    -6099    -6404 
   -6597    -6693    -6708    -6646    -6509    -6300    -6008    -5628 
   -5157    -4608    -4016    -3427    -2896    -2452    -2079    -1767 
   -1501    -1232     -934     -594     -176      303      838     1452 
    2106     2755     3391     4000     4549     5034     5462     5813 
    6070     6242     6347     6432     6548     6706     6886     7086 
    7319     7562     7773     7947     8073     8139     8151     8121 
    8033     7885     7700     7452     7114     6725     6295     5827 
    5351     4877     4398     3924     3470     3030     2606     2214 
    1845     1482     1115      747      390       28     -355     -746 
   -1123    -1468    -1753    -1984    -2205    -2416    -2589    -2714 
   -2779    -2785    -2756    -2687    -2551    -2343    -2065    -1742 
   -1393    -1020     -639     -230      228      715     1240     1815 
    2421     3045     3638     4136     4540     4878     5151     5394 
    5641     5873     6084     6308     6538     6762     6987     7203 
    7406     7597     7771     7931     8073     8186     8252     8251 
    8182     8051     7830     7485     7002     6407     5760     5135 
    4567     4091     3750     3505     3307     3144     2974     2767 
    2542     2301     2062     1840     1628     1429     1262     1171 
    1196     1332     1564     1854     2146     2398     2617     2837 
    3102     3427     3819     4252     4687     5115     5537     5938 
    6297     6608     6860     7029     7092     7059     6940     6725 
    6419     6048     5593     5031     4392     3696     2967     2245 
    1543      876      259     -309     -820    -1262    -1632    -1919 
   -2118    -2239    -2253    -2128    -1902    -1602    -1230     -804 
    -317      246      873     1543     2228     2918     3604     4252 
    4843     5370     5800     6133     6361     6450     6404     6247 
    5995     5697     5398     5093     4765     4384     3951     3495 
    3056     2666     2340     2079     1883     1759     1728     1817 
    2014     2284     2606     2941     3241     3496     3681     3770 
    3798     3788     3743     3707     3711     3726     3738     3788 
    3893     4047     4240     4442     4600     4703     4774     4819 
    4841     4877     4920     4955     4993     5008     4958     4837 
    4641     4372     4060     3744     3481     3295     3161     3068 
    3015     3006     3049     3130     3183     3168     3107     3036 
    2980     2980     3079     3283     3582     3975     4437     4936 
    5440     5907     6309     6624     6837     6939     6916     6799 
    6660     6542     6435     6336     6254     6158     6004     5783 
    5493     5109     4641     4117     3522     2849     2134     1377 
     571     -237    -1011    -1741    -2390    -2920    -3341    -3628 
   -3757    -3801    -3825    -3802    -3708    -3589    -3465    -3280 
   -3042    -2810    -2578    -2327    -2093    -1898    -1726    -1566 
   -1399    -1202     -957     -676     -379      -75      209      449 
     633      730      730      653      504      272      -11     -305 
    -566     -762     -892     -969     -986     -947     -866     -745 
    -602     -473     -367     -278     -233     -241     -284     -359 
    -411     -375     -259      -85      170      490      859     1287 
    1755     2241     2752     3292     3815     4275     4649     4934 
    5115     5188     5173     5096     4981     4865     4783     4760 
    4808     4928     5113     5324     5529     5725     5907     6053 
    6153     6203     6184     6112     6030     5940     5842     5755 
    5640     5463     5232     4923     4530     4102     3669     3268 
    2917     2598     2313     2079     1878     1695     1497     1236 
     916      546      102     -370     -808    -1196    -1520    -1780 
   -1996    -2135    -2184    -2168    -2102    -2022    -1938    -1846 
   -1753    -1632    -1467    -1279    -1048     -761     -442      -98 
     263      602      927     1270     1622     1968     2286     2548 
    2727     2803     2781     2666     2459     2196     1908     1595 
    1270      961      691      498      414      441      579      837 
    1175     1584     2069     2602     3163     3728     4251     4708 
    5104     5436     5705     5902     5995     5992     5931     5830 
    5694     5533     5324     5071     4791     4461     4093     3719 
    3339     2970     2624     2285     1958     1645     1334     1060 
     857      700      562      418      253      103       -1      -28 
      59      271      594     1004     1459     1945     2455     2957 
    3434     3877     4275     4658     5027     5348     5614     5826 
    5949     5996     5984     5895     5741     5549     5324     5077 
    4814     4531     4228     3899     3519     3107     2708     2309 
    1922     1578     1252      950      704      492      310      191 
     129      121      176      261      355      471      610      777 
     989     1247     1539     1846     2154     2434     2655     2809 
    2890     2906     2853     2740     2581     2362     2098     1798 
    1453     1109      815      583      429      342      278      232 
     238      288      365      459      561      697      896     1162 
    1502     1921     2417     3001     3645     4311     4976     5587 
    6103     6511     6794     6926     6912     6766     6520     6222 
    5896     5566     5239     4896     4499     4041     3534     2951 
    2284     1575      838       85     -646    -1345    -2018    -2652 
   -3241    -3771    -4233    -4642    -5003    -5302    -5537    -5699 
