Origin Time       2016/04/16 01:25:00
Lat.              32.753
Long.             130.762
Depth. (km)       12
Mag.              7.3
Station Code      EHM016
Station Lat.      33.7654
Station Long.     132.7089
Station Height(m) 3
Record Time       2016/04/16 01:25:44
Sampling Freq(Hz) 100Hz
Duration Time(s)  157
Dir.              E-W
Scale Factor      7845(gal)/8223790
Max. Acc. (gal)   17.799
Last Correction   2016/04/16 01:25:44
Memo.             
[...]
   -7082    -6971    -6932    -6998    -7180    -7435    -7674    -7832 
   -7881    -7835    -7773    -7771    -7859    -8021    -8212    -8391 
   -8563    -8723    -8850    -8873    -8718    -8385    -7963    -7537 
   -7171    -6883    -6650    -6448    -6274    -6139    -6068    -6079 
   -6156    -6261    -6356    -6408    -6420    -6423    -6440    -6515 
   -6628    -6724    -6786    -6775    -6656    -6469    -6264    -6066 
   -5902    -5780    -5703    -5683    -5732    -5841    -5983    -6130 
   -6255    -6318    -6290    -6201    -6099    -6012    -5938    -5856 
   -5742    -5623    -5556    -5560    -5603    -5641    -5645    -5620 
   -5598    -5630    -5737    -5891    -6070    -6281    -6507    -6724 
   -6936    -7130    -7276    -7364    -7419    -7462    -7497    -7528 
   -7568    -7614    -7641    -7626    -7553    -7423    -7264    -7117 
   -7018    -6993    -7056    -7198    -7388    -7595    -7798    -7982 
   -8109    -8155    -8152    -8163    -8226    -8317    -8367    -8329 
   -8209    -8050    -7896    -7761    -7628    -7472    -7295    -7117 
   -6945    -6768    -6578    -6394    -6235    -6108    -6033    -5995 
   -5972    -5968    -5956    -5883    -5710    -5440    -5134    -4855 
   -4629    -4438    -4253    -4050    -3824    -3585    -3316    -2979 
   -2544    -2019    -1439     -834     -241      298      745     1070 
    1264     1344     1355     1337     1262     1078      787      422 
      47     -288     -616     -974    -1377    -1822    -2284    -2729 
   -3142    -3532    -3925    -4336    -4734    -5071    -5327    -5516 
   -5694    -5915    -6183    -6462    -6706    -6897    -7038    -7148 
   -7246    -7337    -7411    -7457    -7457    -7423    -7378    -7331 
   -7267    -7157    -6956    -6625    -6203    -5773    -5406    -5135 
   -4953    -4830    -4727    -4603    -4456    -4326    -4247    -4232 
   -4284    -4356    -4399    -4402    -4365    -4336    -4374    -4488 
   -4639    -4772    -4830    -4777    -4625    -4409    -4172    -3960 
   -3808    -3719    -3672    -3618    -3546    -3461    -3375    -3315 
   -3315    -3411    -3604    -3842    -4068    -4230    -4298    -4307 
   -4338    -4428    -4527    -4568    -4529    -4421    -4287    -4183 
   -4122    -4090    -4102    -4187    -4356    -4587    -4851    -5130 
   -5409    -5687    -5964    -6211    -6393    -6477    -6451    -6331 
   -6119    -5815    -5432    -4986    -4538    -4170    -3913    -3785 
   -3788    -3896    -4101    -4387    -4702    -4992    -5219    -5371 
   -5486    -5618    -5796    -5998    -6150    -6172    -6065    -5937 
   -5917    -6064    -6345    -6677    -6968    -7164    -7288    -7419 
   -7611    -7857    -8095    -8240    -8248    -8172    -8070    -7969 
   -7863    -7699    -7434    -7075    -6648    -6207    -5805    -5475 
   -5223    -5055    -4978    -4969    -4974    -4970    -4978    -5016 
   -5104    -5265    -5489    -5746    -6010    -6242    -6447    -6650 
   -6886    -7203    -7593    -7993    -8357    -8668    -8918    -9116 
   -9277    -9396    -9452    -9425    -9312    -9146    -8941    -8695 
   -8404    -8100    -7804    -7507    -7215    -6961    -6768    -6658 
   -6616    -6577    -6492    -6332    -6103    -5848    -5618    -5428 
   -5244    -5026    -4779    -4534    -4309    -4097    -3866    -3582 
   -3242    -2880    -2551    -2276    -2034    -1836    -1719    -1719 
   -1819    -1966    -2130    -2330    -2565    -2824    -3095    -3348 
   -3559    -3757    -3969    -4191    -4428    -4684    -4966    -5260 
   -5537    -5760    -5886    -5900    -5853    -5787    -5726    -5694 
   -5694    -5711    -5729    -5697    -5552    -5302    -5007    -4750 
   -4585    -4492    -4417    -4310    -4175    -4052    -3975    -3967 
   -4009    -4055    -4083    -4140    -4286    -4500    -4731    -4900 
   -4941    -4854    -4689    -4494    -4309    -4163    -4074    -4066 
   -4137    -4243    -4349    -4455    -4564    -4677    -4814    -4973 
   -5119    -5223    -5265    -5235    -5157    -5071    -4996    -4896 
   -4730    -4467    -4097    -3672    -3294    -2997    -2747    -2552 
   -2447    -2438    -2523    -2716    -2984    -3258    -3472    -3576 
   -3508    -3256    -2895    -2519    -2193    -1953    -1769    -1606 
   -1494    -1464    -1516    -1641    -1826    -2037    -2235    -2421 
   -2593    -2751    -2929    -3163    -3423    -3673    -3904    -4121 
   -4338    -4573    -4827    -5098    -5360    -5587    -5776    -5923 
   -5979    -5887    -5647    -5314    -4970    -4710    -4596    -4604 
   -4662    -4712    -4712    -4650    -4561    -4492    -4475    -4514 
   -4573    -4630    -4698    -4783    -4865    -4911    -4903    -4847 
   -4757    -4664    -4604    -4594    -4637    -4735    -4872    -5040 
   -5256    -5532    -5877    -6307    -6772    -7152    -7344    -7354 
   -7267    -7134    -6979    -6853    -6764    -6687    -6606    -6500 
   -6349    -6164    -5961    -5772    -5645    -5623    -5719    -5892 
   -6058    -6135    -6115    -6057    -6021    -5995    -5919    -5793 
   -5663    -5533    -5435    -5390    -5358    -5328    -5358    -5460 
   -5593    -5730    -5871    -6008    -6154    -6307    -6407    -6384 
   -6273    -6164    -6100    -6122    -6230    -6347    -6427    -6523 
   -6686    -6916    -7207    -7496    -7663    -7670    -7593    -7514 
   -7442    -7378    -7299    -7117    -6815    -6492    -6212    -5981 
   -5796    -5655    -5552    -5489    -5459    -5458    -5475    -5543 
   -5659    -5765    -5833    -5899    -6029    -6249    -6536    -6851 
   -7149    -7385    -7548    -7666    -7750    -7781    -7784    -7820 
   -7889    -7947    -7998    -8066    -8100    -8048    -7921    -7774 
   -7677    -7681    -7786    -7952    -8100    -8162    -8186    -8259 
   -8385    -8515    -8598    -8607    -8560    -8474    -8382    -8314 
   -8255    -8158    -7993    -7756    -7481    -7234    -7063    -6957 
   -6845    -6606    -6186    -5637    -5062    -4548    -4135    -3854 
   -3730    -3685    -3586    -3380    -3094    -2799    -2582    -2485 
   -2520    -2685    -2902    -3099    -3296    -3481    -3578    -3569 
   -3510    -3468    -3450    -3415    -3376    -3376    -3420    -3481 
   -3532    -3619    -3816    -4128    -4475    -4774    -4996    -5154 
   -5279    -5418    -5621    -5899    -6208    -6489    -6677    -6727 
   -6666    -6564    -6480    -6443    -6459    -6485    -6470    -6442 
   -6502    -6689    -6932    -7167    -7368    -7520    -7605    -7607 
   -7530    -7408    -7276    -7155    -7051    -6944    -6825    -6694 
   -6529    -6313    -6042    -5725    -5401    -5117    -4891    -4681 
   -4440    -4175    -3902    -3596    -3244    -2907    -2675    -2606 
   -2698    -2898    -3159    -3474    -3842    -4241    -4653    -5038 
   -5382    -5710    -6000    -6203    -6326    -6373    -6304    -6142 
   -5992    -5913    -5907    -5962    -6044    -6129    -6199    -6243 
   -6285    -6331    -6323    -6231    -6099    -5988    -5904    -5846 
   -5837    -5900    -6033    -6227    -6498    -6791    -6987    -7060 
   -7056    -6999    -6880    -6689    -6397    -5994    -5522    -5071 
   -4710    -4476    -4367    -4347    -4368    -4393    -4382    -4295 
   -4144    -3994    -3935    -4027    -4243    -4518    -4826    -5178 
   -5544    -5871    -6137    -6327    -6446    -6531    -6612    -6694 
   -6782    -6879    -7037    -7307    -7657    -8035    -8436    -8830 
   -9180    -9472    -9674    -9744    -9693    -9537    -9302    -9053 
   -8847    -8712    -8645    -8623    -8615    -8584    -8447    -8168 
   -7823    -7489    -7217    -7047    -6949    -6844    -6666    -6403 
   -6104    -5826    -5602    -5406    -5162    -4864    -4571    -4348 
   -4263    -4315    -4426    -4556    -4715    -4899    -5093    -5333 
   -5667    -6093    -6548    -6948    -7230    -7388    -7481    -7593 
   -7751    -7915    -8035    -8046    -7920    -7707    -7466    -7241 
   -7067    -6936    -6805    -6673    -6543    -6412    -6299    -6184 
   -6035    -5856    -5667    -5502    -5393    -5309    -5182    -4970 
   -4684    -4374    -4117    -3971    -3912    -3877    -3861    -3865 
   -3863    -3867    -3889    -3873    -3816    -3742    -3600    -3407 
   -3302    -3366    -3573    -3863    -4153    -4347    -4449    -4527 
   -4590    -4617    -4579    -4464    -4311    -4162    -4054    -4032 
   -4121    -4307    -4530    -4696    -4758    -4752    -4726    -4703 
   -4681    -4653    -4630    -4657    -4785    -5039    -5389    -5745 
   -6027    -6189    -6241    -6243    -6226    -6162    -6057    -5940 
   -5809    -5645    -5468    -5273    -5055    -4858    -4715    -4595 
   -4475    -4367    -4268    -4183    -4132    -4109    -4126    -4256 
   -4518    -4865    -5231    -5551    -5780    -5907    -5952    -5949 
   -5929    -5911    -5908    -5931    -5988    -6080    -6193    -6304 
   -6399    -6490    -6561    -6542    -6404    -6189    -5946    -5705 
   -5517    -5445    -5443    -5412    -5309    -5139    -4932    -4726 
   -4509    -4207    -3802    -3349    -2917    -2546    -2232    -1912 
   -1567    -1235     -949     -735     -641     -677     -787     -905 
   -1017    -1109    -1166    -1220    -1318    -1463    -1588    -1605 
   -1470    -1258    -1084     -986     -972    -1038    -1119    -1144 
   -1113    -1057    -1015    -1035    -1139    -1294    -1431    -1499 
   -1501    -1482    -1487    -1509    -1513    -1478    -1404    -1348 
   -1395    -1533    -1615    -1520    -1271     -938     -585     -334 
    -309     -556    -1074    -1803    -2663    -3565    -4402    -5100 
   -5656    -6104    -6490    -6886    -7302    -7680    -7947    -8086 
   -8166    -8283    -8476    -8706    -8911    -9057    -9142    -9209 
   -9366    -9715   -10208   -10728   -11214   -11569   -11696   -11623 
  -11381   -10972   -10444    -9869    -9317    -8874    -8590    -8461 
   -8467    -8567    -8700    -8868    -9121    -9510   -10037   -10669 
  -11379   -12144   -12943   -13738   -14461   -15056   -15516   -15849 
  -16070   -16190   -16218   -16206   -16202   -16136   -15916   -15516 
  -14897   -14019   -12981   -11947   -11010   -10193    -9478    -8814 
   -8137    -7433    -6720    -6000    -5304    -4668    -4068    -3485 
   -2949    -2477    -2088    -1857    -1848    -2058    -2442    -2896 
   -3289    -3554    -3684    -3689    -3597    -3453    -3300    -3172 
   -3064    -2994    -2990    -3037    -3095    -3122    -3063    -2837 
   -2396    -1752     -957      -37      986     2050     3071     3991 
    4793     5502     6135     6704     7190     7515     7611     7453 
    7036     6373     5502     4456     3256     1934      506    -1065 
   -2785    -4568    -6323    -7931    -9278   -10307   -11017   -11422 
  -11570   -11545   -11425   -11287   -11213   -11245   -11342   -11408 
  -11360   -11118   -10582    -9703    -8503    -7038    -5363    -3581 
   -1856     -297     1077     2255     3213     3977     4599     5103 
    5490     5759     5904     5921     5810     5579     5238     4742 
    4050     3172     2133      903     -514    -2085    -3776    -5493 
   -7091    -8510    -9705   -10631   -11259   -11514   -11377   -10949 
  -10341    -9626    -8830    -7881    -6724    -5431    -4167    -3044 
   -2089    -1316     -723     -342     -284     -652    -1467    -2683 
   -4178    -5772    -7375    -8962   -10435   -11706   -12758   -13548 
  -14002   -14065   -13760   -13172   -12384   -11503   -10628    -9819 
   -9139    -8594    -8059    -7357    -6361    -5031    -3435    -1696 
      45     1597     2790     3549     3856     3711     3106     2068 
     672     -976    -2762    -4602    -6442    -8232    -9973   -11646 
  -13209   -14648   -15898   -16937   -17780   -18426   -18945   -19371 
  -19627   -19727   -19700   -19530   -19263   -19008   -18813   -18675 
  -18647   -18759   -18956   -19159   -19246   -19121   -18797   -18306 
  -17713   -17104   -16456   -15764   -15115   -14524   -13925   -13279 
  -12560   -11689   -10624    -9369    -7915    -6285    -4568    -2872 
   -1244      298     1711     2902     3805     4365     4510     4280 
    3842     3294     2639     1919     1233      642      197       11 
     159      615     1358     2297     3234     4031     4635     4955 
    4961     4719     4288     3723     3090     2442     1767      981 
      63     -916    -1949    -3061    -4225    -5377    -6465    -7442 
   -8237    -8826    -9290    -9705   -10052   -10263   -10326   -10258 
  -10057    -9699    -9177    -8506    -7638    -6512    -5121    -3443 
   -1554      348     2180     3924     5526     6929     8075     8927 
    9432     9528     9254     8688     7888     6905     5845     4866 
    4058     3412     2926     2511     1985     1228      237     -945 
   -2292    -3730    -5130    -6376    -7357    -8004    -8303    -8257 
   -7909    -7358    -6663    -5872    -5093    -4428    -3950    -3769 
   -3910    -4232    -4618    -5059    -5487    -5826    -6080    -6207 
   -6168    -6043    -5887    -5702    -5475    -5171    -4747    -4132 
   -3321    -2409    -1456     -506      361     1127     1871     2694 
    3588     4511     5436     6237     6841     7393     8010     8675 
    9366    10084    10747    11241    11547    11685    11576    11082 
   10153     8846     7222     5394     3591     1939      346    -1298 
   -3007    -4811    -6785    -8959   -11287   -13679   -16032   -18209 
  -20094   -21633   -22725   -23334   -23679   -23931   -24031   -23922 
  -23608   -23072   -22323   -21379   -20262   -19028   -17707   -16364 
  -15160   -14149   -13259   -12453   -11647   -10797    -9989    -9258 
   -8599    -7993    -7330    -6577    -5790    -5015    -4388    -4035 
   -3964    -4178    -4698    -5509    -6558    -7776    -9042   -10201 
  -11180   -11943   -12505   -12947   -13306   -13610   -13905   -14200 
  -14517   -14806   -14960   -14980   -14898   -14759   -14634   -14557 
  -14596   -14798   -15124   -15534   -15970   -16332   -16528   -16511 
  -16267   -15784   -15124   -14354   -13397   -12201   -10836    -9385 
   -7960    -6694    -5643    -4757    -3917    -3044    -2133    -1189 
    -184      893     2034     3283     4650     6052     7438     8791 
   10022    11020    11715    12109    12260    12287    12266    12106 
   11716    11125    10350     9402     8398     7492     6802     6327 
    5964     5590     5054     4340     3615     2980     2435     1992 
    1624     1289      951      623      351       82     -243     -591 
    -946    -1310    -1668    -2001    -2340    -2798    -3407    -4101 
   -4841    -5585    -6270    -6853    -7333    -7765    -8167    -8553 
   -9027    -9589   -10170   -10717   -11083   -11160   -11009   -10706 
  -10332    -9954    -9575    -9212    -8900    -8654    -8467    -8338 
   -8293    -8318    -8428    -8704    -9190    -9875   -10674   -11438 
  -12059   -12444   -12561   -12545   -12483   -12394   -12349   -12321 
  -12198   -11912   -11410   -10674    -9713    -8565    -7334    -6135 
   -5080    -4260    -3759    -3640    -3927    -4602    -5574    -6667 
   -7696    -8517    -9051    -9265    -9197    -8974    -8698    -8437 
   -8267    -8179    -8143    -8230    -8479    -8815    -9154    -9414 
   -9501    -9377    -9093    -8702    -8213    -7642    -7042    -6450 
   -5871    -5313    -4816    -4419    -4113    -3940    -3942    -4036 
   -4085    -3967    -3659    -3242    -2759    -2246    -1784    -1428 
   -1175     -982     -795     -629     -522     -464     -409     -330 
    -274     -236     -153      -29      133      372      645      872 
    1048     1212     1336     1394     1431     1412     1258     1013 
     749      467      167     -140     -453     -760    -1015    -1197 
   -1391    -1679    -2039    -2408    -2733    -2960    -3037    -2976 
   -2857    -2751    -2639    -2516    -2450    -2459    -2529    -2688 
   -2964    -3284    -3559    -3788    -3991    -4120    -4101    -3909 
   -3553    -3042    -2458    -1930    -1544    -1310    -1196    -1140 
   -1167    -1339    -1651    -2043    -2425    -2718    -2906    -3010 
   -3079    -3191    -3395    -3696    -4155    -4814    -5590    -6407 
   -7288    -8260    -9290   -10304   -11223   -12016   -12644   -13105 
  -13486   -13846   -14227   -14673   -15137   -15577   -15965   -16208 
  -16286   -16197   -15913   -15512   -15017   -14330   -13477   -12522 
  -11421   -10177    -8876    -7546    -6234    -5065    -4106    -3376 
   -2903    -2675    -2647    -2776    -3042    -3457    -3994    -4598 
   -5238    -5886    -6528    -7214    -7987    -8797    -9547   -10224 
  -10856   -11419   -11875   -12178   -12264   -12117   -11749   -11196 
  -10519    -9778    -9099    -8644    -8486    -8635    -9124    -9906 
  -10782   -11611   -12433   -13273   -14056   -14742   -15280   -15614 
  -15788   -15871   -15858   -15697   -15377   -14898   -14219   -13362 
  -12428   -11546   -10825   -10291    -9900    -9599    -9358    -9178 
   -9101    -9140    -9243    -9394    -9578    -9718    -9823    -9952 
  -10083   -10189   -10287   -10378   -10444   -10467   -10478   -10469 
  -10345   -10057    -9628    -9100    -8532    -7944    -7325    -6647 
   -5884    -5054    -4233    -3491    -2843    -2246    -1655    -1071 
    -531     -108      164      360      459      376      259      195 
      -1     -359     -793    -1341    -1987    -2721    -3601    -4583 
   -5572    -6436    -6993    -7195    -7146    -6963    -6741    -6497 
   -6142    -5593    -4851    -4001    -3129    -2289    -1507     -787 
     -85      612     1260     1858     2490     3210     4043     5004 
    6012     6937     7688     8210     8503     8565     8352     7863 
    7121     6170     5113     4002     2822     1543      126    -1429 
   -3092    -4819    -6525    -8182    -9826   -11427   -12846   -13954 
  -14683   -15010   -14983   -14754   -14445   -14058   -13560   -12958 
  -12353   -11865   -11527   -11318   -11129   -10786   -10255    -9616 
   -8907    -8218    -7626    -7113    -6667    -6277    -5911    -5566 
   -5185    -4725    -4194    -3582    -2902    -2199    -1518     -907 
    -380       40      357      606      770      814      730      491 
     120     -299     -749    -1262    -1863    -2528    -3198    -3825 
   -4340    -4662    -4831    -4927    -4963    -4930    -4818    -4610 
   -4332    -4047    -3846    -3785    -3776    -3693    -3483    -3145 
   -2731    -2363    -2154    -2123    -2220    -2424    -2717    -3090 
   -3599    -4289    -5127    -6037    -6943    -7789    -8530    -9147 
   -9643    -9967   -10080   -10053   -10007   -10055   -10272   -10625 
  -11021   -11348   -11556   -11681   -11800   -11955   -12127   -12280 
  -12417   -12532   -12645   -12866   -13234   -13716   -14341   -15103 
  -15962   -16883   -17733   -18422   -18964   -19332   -19481   -19410 
  -19172   -18824   -18280   -17520   -16726   -15942   -15093   -14258 
  -13532   -12827   -12039   -11254   -10615   -10129    -9799    -9641 
   -9537    -9296    -8823    -8132    -7221    -6076    -4753    -3349 
   -1960     -697      303      967     1312     1379     1223      961 
     689      434      178     -117     -454     -816    -1183    -1466 
   -1584    -1594    -1614    -1695    -1890    -2255    -2701    -3078 
