Origin Time       2016/04/16 01:25:00
Lat.              32.753
Long.             130.762
Depth. (km)       12
Mag.              7.3
Station Code      EHM002
Station Lat.      33.9216
Station Long.     133.3074
Station Height(m) 19
Record Time       2016/04/16 01:25:59
Sampling Freq(Hz) 100Hz
Duration Time(s)  96
Dir.              N-S
Scale Factor      7845(gal)/8223790
Max. Acc. (gal)   3.774
Last Correction   2016/04/16 01:26:01
Memo.             
[...]
   -1971    -1927    -1958    -2043    -2077    -2031    -2012    -2065 
   -2095    -2039    -1948    -1863    -1779    -1702    -1634    -1591 
   -1638    -1798    -1958    -2019    -1993    -1942    -1921    -1922 
   -1872    -1784    -1750    -1779    -1826    -1875    -1930    -2016 
   -2110    -2144    -2110    -2060    -2039    -2050    -2073    -2041 
   -1930    -1842    -1865    -1938    -1973    -1972    -1956    -1927 
   -1880    -1845    -1864    -1934    -2004    -2025    -1975    -1910 
   -1900    -1941    -1964    -1930    -1858    -1794    -1772    -1810 
   -1907    -2010    -2041    -1981    -1880    -1803    -1799    -1864 
   -1949    -2008    -2030    -2016    -2001    -2008    -2010    -1977 
   -1965    -2033    -2120    -2115    -2008    -1899    -1884    -1946 
   -1988    -1982    -1985    -1969    -1881    -1819    -1885    -2022 
   -2144    -2199    -2185    -2172    -2191    -2226    -2262    -2269 
   -2269    -2322    -2415    -2511    -2570    -2563    -2527    -2505 
   -2538    -2635    -2721    -2745    -2721    -2671    -2593    -2516 
   -2482    -2517    -2573    -2569    -2544    -2587    -2664    -2682 
   -2632    -2597    -2555    -2427    -2293    -2238    -2176    -2049 
   -1912    -1825    -1807    -1868    -1998    -2130    -2177    -2147 
   -2121    -2144    -2215    -2309    -2396    -2421    -2365    -2317 
   -2366    -2412    -2307    -2115    -2018    -2022    -2016    -1971 
   -1926    -1902    -1891    -1921    -2011    -2089    -2104    -2101 
   -2126    -2181    -2255    -2319    -2326    -2303    -2286    -2270 
   -2241    -2201    -2188    -2265    -2419    -2550    -2604    -2605 
   -2606    -2659    -2736    -2771    -2785    -2802    -2786    -2748 
   -2708    -2681    -2690    -2702    -2694    -2664    -2590    -2465 
   -2332    -2272    -2277    -2215    -2073    -1941    -1836    -1776 
   -1790    -1831    -1890    -1952    -1975    -1985    -1996    -2001 
   -2039    -2101    -2130    -2137    -2158    -2203    -2236    -2235 
   -2258    -2326    -2331    -2219    -2098    -2079    -2124    -2126 
   -2070    -2045    -2083    -2139    -2168    -2180    -2214    -2265 
   -2308    -2332    -2296    -2208    -2160    -2124    -2034    -1973 
   -2015    -2128    -2242    -2281    -2257    -2222    -2177    -2141 
   -2143    -2182    -2277    -2413    -2519    -2581    -2640    -2708 
   -2768    -2778    -2688    -2579    -2569    -2621    -2623    -2528 
   -2388    -2247    -2095    -1956    -1873    -1803    -1721    -1674 
   -1703    -1784    -1841    -1831    -1790    -1799    -1908    -2062 
   -2172    -2230    -2245    -2204    -2158    -2170    -2236    -2274 
   -2215    -2137    -2143    -2200    -2224    -2226    -2257    -2311 
   -2311    -2227    -2162    -2195    -2249    -2250    -2251    -2328 
   -2466    -2558    -2538    -2484    -2482    -2525    -2604    -2688 
   -2725    -2694    -2601    -2506    -2497    -2519    -2482    -2444 
   -2490    -2570    -2600    -2573    -2527    -2488    -2428    -2323 
   -2236    -2227    -2239    -2219    -2192    -2181    -2161    -2124 
   -2096    -2064    -1996    -1930    -1910    -1912    -1887    -1830 
   -1796    -1814    -1844    -1856    -1859    -1876    -1929    -2003 
   -2029    -2003    -2023    -2101    -2139    -2115    -2064    -1996 
   -1961    -1966    -1942    -1888    -1894    -1985    -2077    -2107 
   -2077    -2000    -1910    -1842    -1776    -1669    -1552    -1482 
   -1418    -1324    -1320    -1494    -1683    -1680    -1553    -1491 
   -1505    -1533    -1606    -1714    -1745    -1677    -1630    -1711 
   -1894    -2087    -2245    -2347    -2380    -2400    -2451    -2506 
   -2582    -2663    -2660    -2577    -2494    -2451    -2452    -2484 
   -2519    -2516    -2450    -2398    -2454    -2590    -2709    -2729 
   -2655    -2586    -2597    -2673    -2751    -2764    -2678    -2565 
   -2532    -2579    -2629    -2669    -2752    -2859    -2909    -2874 
   -2825    -2859    -2965    -3094    -3240    -3358    -3392    -3361 
   -3315    -3276    -3232    -3186    -3157    -3109    -3015    -2941 
   -2940    -2967    -2967    -2943    -2899    -2856    -2843    -2843 
   -2821    -2806    -2801    -2786    -2810    -2896    -2943    -2898 
   -2841    -2836    -2824    -2740    -2644    -2666    -2820    -2976 
   -3040    -3055    -3068    -3051    -3002    -3019    -3136    -3237 
   -3232    -3194    -3222    -3306    -3350    -3346    -3339    -3329 
   -3329    -3395    -3487    -3477    -3385    -3348    -3400    -3495 
   -3584    -3628    -3618    -3585    -3592    -3684    -3819    -3935 
   -4032    -4090    -4109    -4148    -4217    -4256    -4225    -4137 
   -4063    -4077    -4114    -4062    -3967    -3904    -3873    -3908 
   -3935    -3823    -3604    -3372    -3229    -3183    -3075    -2893 
   -2792    -2808    -2806    -2688    -2486    -2309    -2226    -2182 
   -2089    -1926    -1773    -1710    -1675    -1568    -1439    -1371 
   -1320    -1220    -1065     -888     -738     -631     -522     -396 
    -294     -230     -176     -110      -28       70      175      287 
     403      506      596      707      872     1073     1252     1379 
    1441     1445     1429     1386     1305     1229     1196     1178 
    1120      978      793      645      577      552      456      244 
       9     -168     -313     -445     -548     -600     -627     -681 
    -799     -973    -1159    -1314    -1443    -1572    -1729    -1949 
   -2231    -2492    -2658    -2754    -2828    -2887    -2963    -3080 
   -3238    -3431    -3634    -3773    -3820    -3851    -3929    -4029 
   -4112    -4194    -4284    -4352    -4409    -4486    -4527    -4495 
   -4433    -4391    -4333    -4217    -4079    -4003    -4008    -4016 
   -3932    -3751    -3562    -3400    -3246    -3099    -2952    -2766 
   -2552    -2371    -2241    -2124    -1965    -1737    -1486    -1267 
   -1132    -1105    -1109    -1070    -1000     -938     -888     -857 
    -877     -959    -1035    -1077    -1148    -1263    -1370    -1471 
   -1574    -1609    -1532    -1436    -1429    -1495    -1560    -1587 
   -1574    -1517    -1453    -1440    -1460    -1467    -1486    -1543 
   -1602    -1602    -1551    -1525    -1560    -1630    -1718    -1813 
   -1887    -1930    -1984    -2110    -2290    -2451    -2565    -2636 
   -2694    -2808    -2997    -3198    -3376    -3547    -3678    -3704 
   -3643    -3580    -3544    -3501    -3427    -3345    -3275    -3218 
   -3180    -3173    -3165    -3113    -3036    -3001    -3024    -3069 
   -3115    -3140    -3121    -3106    -3132    -3134    -3083    -3014 
   -2947    -2878    -2844    -2852    -2874    -2932    -3079    -3284 
   -3443    -3515    -3554    -3603    -3696    -3834    -3931    -3936 
   -3896    -3844    -3794    -3736    -3676    -3650    -3643    -3597 
   -3507    -3422    -3384    -3362    -3308    -3222    -3115    -3001 
   -2887    -2762    -2625    -2542    -2536    -2538    -2525    -2550 
   -2592    -2604    -2600    -2583    -2532    -2479    -2442    -2393 
   -2381    -2473    -2613    -2695    -2709    -2735    -2841    -3024 
   -3206    -3316    -3368    -3407    -3458    -3537    -3645    -3766 
   -3904    -4028    -4055    -3948    -3765    -3605    -3520    -3461 
   -3387    -3327    -3317    -3352    -3392    -3427    -3489    -3589 
   -3728    -3913    -4093    -4228    -4345    -4430    -4421    -4345 
   -4327    -4457    -4688    -4911    -5071    -5206    -5332    -5379 
   -5346    -5319    -5331    -5359    -5395    -5441    -5502    -5525 
   -5439    -5270    -5100    -4936    -4738    -4515    -4314    -4132 
   -3965    -3825    -3692    -3581    -3524    -3485    -3400    -3200 
   -2871    -2517    -2277    -2180    -2130    -2039    -1929    -1892 
   -1923    -1960    -1981    -2001    -2057    -2150    -2203    -2165 
   -2077    -1977    -1873    -1792    -1786    -1864    -1929    -1902 
   -1842    -1806    -1759    -1705    -1688    -1725    -1826    -1979 
   -2088    -2133    -2182    -2246    -2266    -2228    -2141    -2016 
   -1858    -1682    -1541    -1433    -1275    -1075     -916     -841 
    -857     -969    -1144    -1316    -1431    -1464    -1429    -1409 
   -1453    -1502    -1503    -1509    -1598    -1775    -2011    -2262 
   -2488    -2652    -2755    -2826    -2878    -2903    -2929    -2982 
   -3075    -3238    -3472    -3715    -3909    -4016    -4043    -4025 
   -3978    -3921    -3879    -3831    -3759    -3699    -3659    -3569 
   -3388    -3175    -2983    -2835    -2713    -2562    -2374    -2208 
   -2070    -1930    -1833    -1831    -1854    -1821    -1733    -1624 
   -1517    -1431    -1382    -1367    -1377    -1395    -1405    -1386 
   -1340    -1313    -1364    -1489    -1647    -1794    -1885    -1949 
   -2049    -2166    -2266    -2371    -2527    -2708    -2844    -2884 
   -2844    -2795    -2764    -2718    -2624    -2485    -2317    -2124 
   -1934    -1804    -1761    -1763    -1734    -1661    -1582    -1514 
   -1462    -1441    -1485    -1620    -1787    -1872    -1858    -1806 
   -1734    -1645    -1591    -1630    -1717    -1773    -1833    -1952 
   -2110    -2230    -2247    -2215    -2227    -2236    -2142    -1952 
   -1763    -1637    -1556    -1534    -1597    -1715    -1854    -1962 
   -1980    -1902    -1777    -1656    -1557    -1494    -1470    -1455 
   -1420    -1358    -1281    -1193    -1105    -1059    -1069    -1081 
   -1053     -967     -857     -801     -828     -919    -1069    -1213 
   -1282    -1278    -1269    -1350    -1518    -1661    -1732    -1744 
   -1707    -1684    -1757    -1956    -2215    -2432    -2586    -2731 
   -2880    -2978    -3018    -3069    -3153    -3215    -3238    -3258 
   -3308    -3426    -3622    -3851    -4102    -4379    -4658    -4892 
   -4999    -4968    -4896    -4841    -4787    -4753    -4780    -4822 
   -4800    -4684    -4490    -4315    -4258    -4287    -4326    -4351 
   -4360    -4360    -4344    -4283    -4159    -3973    -3743    -3480 
   -3168    -2876    -2720    -2714    -2751    -2745    -2721    -2721 
   -2744    -2775    -2785    -2782    -2818    -2920    -3090    -3284 
   -3407    -3433    -3447    -3499    -3553    -3553    -3474    -3341 
   -3176    -2967    -2712    -2444    -2178    -1880    -1611    -1474 
   -1444    -1451    -1445    -1399    -1339    -1291    -1277    -1332 
   -1447    -1572    -1695    -1871    -2142    -2448    -2729    -3009 
   -3310    -3634    -3932    -4164    -4375    -4591    -4729    -4750 
   -4739    -4793    -4864    -4837    -4722    -4606    -4521    -4464 
   -4413    -4383    -4410    -4463    -4460    -4360    -4186    -3964 
   -3742    -3569    -3477    -3492    -3592    -3670    -3674    -3615 
   -3514    -3407    -3319    -3173    -2974    -2771    -2520    -2205 
   -1942    -1819    -1775    -1694    -1543    -1341    -1155    -1013 
    -855     -673     -562     -553     -544     -445     -246      -40 
      65       54      -70     -276     -441     -526     -649     -843 
   -1000    -1084    -1161    -1325    -1640    -2031    -2330    -2450 
   -2423    -2349    -2359    -2469    -2567    -2581    -2562    -2616 
   -2759    -2918    -3051    -3175    -3298    -3407    -3485    -3515 
   -3501    -3416    -3258    -3109    -3010    -2948    -2938    -2967 
   -3009    -3087    -3154    -3088    -2894    -2687    -2563    -2512 
   -2461    -2412    -2431    -2512    -2594    -2635    -2663    -2745 
   -2874    -2964    -2982    -2945    -2871    -2817    -2840    -2911 
   -2988    -3083    -3203    -3260    -3156    -2930    -2740    -2686 
   -2709    -2716    -2677    -2543    -2297    -2043    -1898    -1869 
   -1907    -1945    -1961    -2001    -2118    -2293    -2416    -2351 
   -2107    -1792    -1489    -1223     -961     -639     -306     -112 
    -103     -159     -217     -307     -379     -349     -253     -221 
    -346     -592     -864    -1136    -1393    -1615    -1798    -1895 
   -1895    -1884    -1945    -2077    -2245    -2423    -2601    -2756 
   -2836    -2785    -2594    -2319    -2068    -1921    -1823    -1667 
   -1482    -1372    -1354    -1354    -1269    -1104    -1016    -1132 
   -1433    -1764    -1961    -1985    -1948    -1958    -2011    -2056 
   -2114    -2212    -2323    -2385    -2338    -2212    -2119    -2147 
   -2272    -2413    -2531    -2602    -2597    -2546    -2550    -2679 
   -2857    -2961    -2972    -2944    -2921    -2948    -3010    -3022 
   -2984    -2975    -3021    -3069    -3080    -3051    -2986    -2924 
   -2934    -2991    -3030    -3084    -3203    -3349    -3440    -3429 
   -3339    -3280    -3291    -3333    -3377    -3396    -3355    -3284 
   -3240    -3264    -3404    -3658    -3932    -4114    -4151    -4078 
   -3962    -3863    -3836    -3846    -3807    -3762    -3793    -3948 
   -4199    -4423    -4546    -4577    -4504    -4342    -4180    -4072 
   -3943    -3730    -3496    -3303    -3080    -2762    -2407    -2107 
   -1937    -1915    -1918    -1818    -1668    -1576    -1549    -1547 
   -1561    -1625    -1687    -1603    -1323     -980     -697     -504 
    -390     -298     -202     -114      -25       81      171      218 
     217      172      149      197      255      295      367      496 
     646      762      838      916     1017     1093     1081     1008 
     929      868      828      810      805      842      953     1170 
    1449     1637     1641     1506     1297     1053      819      653 
     591      591      552      383      126      -55      -68       11 
      95      151      136       62       20       49       89       93 
      71       -1     -170     -364     -488     -542     -564     -611 
    -702     -827     -949     -990     -954     -947    -1043    -1248 
   -1502    -1733    -1922    -2057    -2114    -2102    -2034    -1926 
   -1833    -1814    -1852    -1914    -2014    -2184    -2398    -2609 
   -2809    -2997    -3138    -3213    -3194    -3037    -2806    -2625 
   -2511    -2390    -2245    -2118    -2031    -2007    -2056    -2081 
   -2015    -1891    -1729    -1570    -1456    -1378    -1324    -1235 
   -1067     -947     -981    -1084    -1173    -1247    -1306    -1408 
   -1567    -1674    -1710    -1744    -1833    -2019    -2267    -2506 
   -2669    -2781    -2932    -3086    -3161    -3194    -3177    -3105 
   -3048    -3022    -3003    -2957    -2813    -2590    -2384    -2177 
   -1993    -1952    -2019    -2083    -2092    -2074    -2068    -1988 
   -1804    -1652    -1594    -1590    -1582    -1578    -1663    -1798 
   -1900    -2010    -2107    -2111    -2053    -1989    -1962    -2045 
   -2147    -2180    -2192    -2193    -2168    -2095    -1966    -1833 
   -1726    -1632    -1563    -1568    -1638    -1695    -1696    -1664 
   -1606    -1528    -1467    -1398    -1304    -1281    -1354    -1471 
   -1679    -2006    -2340    -2559    -2633    -2666    -2786    -2949 
   -3041    -3032    -2928    -2825    -2791    -2729    -2641    -2586 
   -2455    -2209    -1973    -1802    -1660    -1534    -1429    -1341 
   -1264    -1212    -1208    -1266    -1374    -1483    -1530    -1455 
   -1331    -1337    -1451    -1503    -1490    -1521    -1624    -1755 
   -1864    -1877    -1768    -1611    -1437    -1224    -1004     -850 
    -819     -859     -838     -751     -714     -832    -1036    -1139 
   -1113    -1104    -1171    -1264    -1316    -1290    -1239    -1255 
   -1355    -1466    -1543    -1615    -1718    -1845    -1971    -2066 
   -2147    -2265    -2419    -2517    -2513    -2474    -2452    -2447 
   -2452    -2461    -2479    -2527    -2594    -2660    -2721    -2752 
   -2739    -2702    -2650    -2602    -2584    -2584    -2565    -2533 
   -2520    -2509    -2474    -2436    -2428    -2452    -2482    -2471 
   -2412    -2386    -2465    -2636    -2816    -2871    -2817    -2778 
   -2762    -2728    -2716    -2732    -2714    -2625    -2488    -2334 
   -2154    -1972    -1876    -1881    -1941    -1984    -1988    -1999 
   -2012    -1946    -1804    -1664    -1548    -1437    -1351    -1316 
   -1341    -1466    -1728    -2079    -2397    -2574    -2616    -2609 
   -2639    -2751    -2920    -3067    -3115    -3060    -3003    -3013 
   -3046    -3079    -3119    -3145    -3136    -3094    -3065    -3114 
   -3202    -3221    -3096    -2872    -2688    -2592    -2459    -2253 
   -2081    -2027    -2050    -2060    -2031    -2029    -2091    -2187 
   -2276    -2324    -2349    -2377    -2389    -2365    -2317    -2272 
   -2295    -2442    -2628    -2740    -2782    -2802    -2771    -2666 
   -2531    -2421    -2371    -2382    -2420    -2436    -2382    -2299 
   -2286    -2346    -2354    -2231    -2043    -1904    -1857    -1833 
   -1729    -1560    -1441    -1445    -1516    -1559    -1528    -1439 
   -1368    -1394    -1478    -1580    -1737    -1944    -2088    -2074 
   -1960    -1876    -1849    -1826    -1809    -1813    -1798    -1740 
   -1694    -1709    -1763    -1825    -1898    -2019    -2208    -2403 
   -2548    -2643    -2706    -2744    -2762    -2745    -2646    -2475 
   -2317    -2209    -2146    -2142    -2182    -2181    -2081    -1922 
   -1809    -1779    -1803    -1842    -1864    -1867    -1868    -1840 
   -1779    -1744    -1736    -1683    -1575    -1478    -1441    -1495 
   -1624    -1715    -1722    -1715    -1767    -1861    -1923    -1918 
   -1887    -1857    -1829    -1842    -1914    -2007    -2092    -2133 
   -2107    -2065    -2060    -2081    -2114    -2169    -2277    -2467 
   -2728    -2990    -3132    -3064    -2851    -2652    -2583    -2605 
   -2574    -2423    -2249    -2187    -2265    -2430    -2636    -2817 
   -2862    -2752    -2625    -2593    -2631    -2669    -2681    -2629 
   -2482    -2266    -2074    -2022    -2097    -2180    -2243    -2327 
   -2436    -2546    -2633    -2668    -2639    -2601    -2654    -2795 
   -2947    -3083    -3175    -3136    -2932    -2654    -2455    -2432 
   -2525    -2582    -2525    -2430    -2424    -2500    -2544    -2558 
   -2593    -2628    -2646    -2636    -2546    -2363    -2120    -1907 
   -1792    -1764    -1799    -1895    -2012    -2102    -2180    -2249 
   -2224    -2072    -1850    -1624    -1464    -1405    -1422    -1478 
   -1517    -1509    -1471    -1437    -1466    -1570    -1690    -1721 
   -1632    -1556    -1636    -1876    -2181    -2455    -2643    -2701 
   -2631    -2505    -2448    -2509    -2606    -2681    -2759    -2862 
   -2964    -3041    -3107    -3200    -3322    -3447    -3550    -3612 
   -3604    -3487    -3279    -3071    -2952    -2937    -2970    -2972 
   -2934    -2906    -2924    -2978    -3071    -3215    -3365    -3423 
   -3354    -3234    -3159    -3154    -3148    -3042    -2832    -2584 
   -2398    -2335    -2382    -2521    -2739    -2925    -2986    -2974 
   -2994    -3083    -3167    -3175    -3156    -3194    -3302    -3437 
   -3559    -3645    -3659    -3609    -3526    -3426    -3311    -3169 
   -2994    -2791    -2620    -2579    -2702    -2890    -2967    -2830 
   -2515    -2111    -1757    -1587    -1614    -1725    -1764    -1661 
   -1513    -1440    -1478    -1584    -1668    -1671    -1615    -1549 
   -1498    -1530    -1698    -1915    -2085    -2214    -2305    -2311 
