Origin Time       2016/04/16 01:25:00
Lat.              32.753
Long.             130.762
Depth. (km)       12
Mag.              7.3
Station Code      EHM007
Station Lat.      33.9621
Station Long.     132.7722
Station Height(m) 1
Record Time       2016/04/16 01:25:46
Sampling Freq(Hz) 100Hz
Duration Time(s)  119
Dir.              E-W
Scale Factor      7845(gal)/8223790
Max. Acc. (gal)   13.728
Last Correction   2016/04/16 01:25:47
Memo.             
[...]
  -10513   -10161    -9987    -9960   -10083   -10368   -10755   -11159 
  -11485   -11686   -11803   -11884   -11947   -12029   -12167   -12382 
  -12726   -13246   -13900   -14588   -15238   -15762   -16054   -16086 
  -15850   -15388   -14866   -14415   -14085   -13936   -13986   -14148 
  -14326   -14423   -14341   -14073   -13710   -13324   -12961   -12663 
  -12468   -12384   -12353   -12309   -12231   -12106   -11890   -11541 
  -11105   -10721   -10477   -10368   -10384   -10547   -10848   -11217 
  -11597   -11954   -12233   -12413   -12529   -12607   -12622   -12571 
  -12456   -12252   -12009   -11826   -11729   -11699   -11684   -11604 
  -11450   -11307   -11250   -11327   -11524   -11726   -11830   -11844 
  -11790   -11695   -11605   -11539   -11452   -11342   -11263   -11209 
  -11186   -11213   -11234   -11261   -11392   -11661   -12063   -12573 
  -13073   -13543   -14060   -14621   -15171   -15606   -15800   -15789 
  -15653   -15402   -15079   -14692   -14229   -13752   -13378   -13188 
  -13158   -13204   -13254   -13238   -13144   -13022   -12919   -12850 
  -12748   -12546   -12274   -11939   -11560   -11230   -10991   -10821 
  -10706   -10617   -10507   -10332   -10127    -9948    -9814    -9774 
   -9860   -10011   -10180   -10357   -10509   -10619   -10686   -10722 
  -10768   -10872   -11045   -11259   -11508   -11827   -12213   -12631 
  -13018   -13340   -13595   -13763   -13851   -13872   -13829   -13721 
  -13583   -13421   -13198   -12912   -12627   -12406   -12247   -12129 
  -12112   -12193   -12272   -12325   -12376   -12448   -12540   -12609 
  -12636   -12636   -12556   -12329   -11971   -11550   -11180   -11003 
  -11013   -11088   -11169   -11214   -11203   -11175   -11168   -11218 
  -11385   -11684   -12027   -12294   -12421   -12424   -12396   -12394 
  -12370   -12309   -12302   -12395   -12499   -12542   -12563   -12614 
  -12702   -12768   -12718   -12548   -12387   -12293   -12220   -12155 
  -12086   -11959   -11758   -11483   -11165   -10917   -10810   -10797 
  -10825   -10893   -10962   -11011   -11060   -11072   -11061   -11132 
  -11334   -11592   -11800   -11925   -12033   -12167   -12293   -12352 
  -12324   -12233   -12128   -12008   -11880   -11838   -11988   -12325 
  -12742   -13112   -13400   -13630   -13784   -13872   -13940   -13953 
  -13895   -13783   -13606   -13397   -13203   -13023   -12898   -12872 
  -12893   -12895   -12819   -12623   -12363   -12150   -12001   -11889 
  -11777   -11628   -11488   -11453   -11516   -11614   -11705   -11804 
  -11967   -12209   -12476   -12661   -12654   -12492   -12326   -12254 
  -12252   -12220   -12139   -12102   -12166   -12328   -12586   -12896 
  -13180   -13366   -13437   -13489   -13630   -13838   -13992   -14010 
  -13914   -13778   -13678   -13667   -13693   -13660   -13585   -13536 
  -13520   -13473   -13302   -12991   -12592   -12182   -11881   -11808 
  -11966   -12290   -12630   -12808   -12842   -12912   -13032   -13034 
  -12811   -12406   -11939   -11497   -11110   -10814   -10643   -10574 
  -10570   -10601   -10616   -10571   -10473   -10329   -10130    -9850 
   -9553    -9362    -9322    -9410    -9626    -9987   -10507   -11178 
  -11916   -12652   -13389   -14084   -14683   -15195   -15570   -15687 
  -15539   -15236   -14891   -14644   -14577   -14613   -14632   -14629 
  -14685   -14793   -14841   -14701   -14354   -13921   -13551   -13270 
  -12985   -12650   -12340   -12128   -12052   -12118   -12287   -12486 
  -12614   -12654   -12694   -12776   -12839   -12784   -12542   -12154 
  -11762   -11533   -11546   -11769   -12064   -12295   -12393   -12391 
  -12441   -12665   -13050   -13450   -13667   -13625   -13413   -13131 
  -12822   -12586   -12457   -12372   -12325   -12386   -12533   -12642 
  -12638   -12602   -12687   -12949   -13174   -13072   -12621   -12066 
  -11672   -11491   -11318   -10995   -10609   -10332   -10292   -10446 
  -10632   -10781   -10909   -10991   -10959   -10743   -10413   -10145 
  -10042   -10129   -10369   -10646   -10902   -11214   -11600   -12015 
  -12503   -13113   -13825   -14553   -15134   -15465   -15610   -15682 
  -15712   -15680   -15612   -15588   -15661   -15789   -15886   -15931 
  -15919   -15797   -15565   -15313   -15155   -15142   -15157   -14990 
  -14570   -14038   -13564   -13207   -12931   -12727   -12584   -12360 
  -11890   -11214   -10544   -10044    -9724    -9454    -9101    -8726 
   -8510    -8569    -8870    -9317    -9849   -10369   -10725   -10887 
  -10949   -10983   -11056   -11181   -11302   -11464   -11742   -12112 
  -12557   -12957   -13095   -12976   -12798   -12733   -12888   -13194 
  -13462   -13621   -13699   -13679   -13564   -13429   -13398   -13536 
  -13776   -14035   -14327   -14648   -14864   -14879   -14744   -14550 
  -14298   -13932   -13470   -13111   -13069   -13308   -13555   -13572 
  -13352   -13058   -12834   -12665   -12469   -12270   -12133   -12012 
  -11808   -11530   -11284   -11202   -11367   -11684   -11923   -11998 
  -12075   -12351   -12900   -13652   -14370   -14825   -14963   -14827 
  -14521   -14242   -14122   -14146   -14220   -14254   -14197   -13996 
  -13582   -13053   -12692   -12708   -13035   -13346   -13352   -13092 
  -12737   -12405   -12167   -12020   -11920   -11890   -11958   -12083 
  -12183   -12213   -12262   -12467   -12729   -12787   -12634   -12530 
  -12656   -12995   -13437   -13853   -14177   -14445   -14673   -14839 
  -14908   -14802   -14488   -14065   -13717   -13518   -13352   -13124 
  -12880   -12653   -12413   -12132   -11780   -11404   -11110   -10891 
  -10770   -10820   -11002   -11272   -11584   -11796   -11904   -12044 
  -12307   -12772   -13406   -14002   -14397   -14589   -14663   -14729 
  -14813   -14835   -14719   -14534   -14415   -14366   -14179   -13630 
  -12779   -12010   -11674   -11724   -11846   -11826   -11680   -11550 
  -11577   -11824   -12268   -12756   -13046   -13023   -12839   -12703 
  -12621   -12468   -12235   -12032   -11885   -11628   -11098   -10416 
   -9964    -9985   -10405   -10983   -11458   -11727   -11865   -11904 
  -11817   -11676   -11608   -11704   -11954   -12286   -12727   -13325 
  -13948   -14496   -14978   -15303   -15357   -15130   -14697   -14270 
  -14088   -14187   -14400   -14567   -14635   -14567   -14285   -13818 
  -13397   -13201   -13111   -12865   -12401   -11889   -11468   -11132 
  -10868   -10766   -10849   -11006   -11159   -11313   -11475   -11578 
  -11475   -11082   -10577   -10180    -9930    -9867   -10071   -10537 
  -11168   -11792   -12276   -12575   -12650   -12503   -12249   -12004 
  -11848   -11827   -11893   -12043   -12302   -12564   -12765   -12943 
  -13009   -12853   -12518   -12129   -11827   -11716   -11781   -11919 
  -12015   -11988   -11947   -12079   -12339   -12525   -12533   -12436 
  -12444   -12627   -12827   -12958   -13104   -13278   -13406   -13416 
  -13252   -12981   -12756   -12607   -12496   -12425   -12375   -12313 
  -12233   -12148   -12112   -12186   -12349   -12536   -12704   -12874 
  -13038   -13070   -12855   -12478   -12102   -11821   -11659   -11639 
  -11824   -12212   -12614   -12866   -12961   -12937   -12811   -12590 
  -12243   -11794   -11398   -11141   -10978   -10827   -10606   -10322 
  -10102   -10003    -9960    -9913    -9891    -9983   -10251   -10611 
  -10863   -10872   -10710   -10588   -10615   -10736   -10889   -11044 
  -11190   -11387   -11692   -12042   -12380   -12713   -13030   -13366 
  -13763   -14126   -14274   -14160   -13914   -13699   -13547   -13309 
  -12880   -12382   -12021   -11907   -12017   -12249   -12565   -12915 
  -13171   -13324   -13404   -13294   -12933   -12460   -12083   -11950 
  -12085   -12396   -12745   -12999   -13119   -13242   -13555   -14083 
  -14659   -15045   -15105   -14872   -14492   -14138   -13844   -13468 
  -12995   -12595   -12380   -12297   -12274   -12340   -12583   -12951 
  -13251   -13386   -13437   -13485   -13525   -13529   -13531   -13649 
  -13884   -14031   -13929   -13626   -13344   -13255   -13346   -13498 
  -13624   -13659   -13575   -13443   -13366   -13335   -13279   -13139 
  -12939   -12807   -12795   -12806   -12783   -12749   -12694   -12594 
  -12432   -12194   -11871   -11426   -10901   -10443   -10137    -9987 
  -10077   -10467   -11024   -11553   -11934   -12195   -12463   -12748 
  -12969   -13032   -12888   -12619   -12305   -11989   -11781   -11762 
  -11865   -12055   -12382   -12825   -13262   -13575   -13817   -14199 
  -14806   -15465   -15972   -16294   -16464   -16505   -16488   -16533 
  -16737   -17050   -17246   -17170   -16837   -16383   -15979   -15657 
  -15330   -14940   -14447   -13864   -13278   -12745   -12267   -11820 
  -11376   -10978   -10650   -10370   -10146    -9934    -9705    -9583 
   -9640    -9666    -9405    -8869    -8220    -7697    -7553    -7819 
   -8378    -9167   -10092   -11038   -11942   -12683   -13182   -13451 
  -13506   -13475   -13433   -13251   -12881   -12486   -12183   -11996 
  -11970   -12094   -12266   -12456   -12691   -12964   -13240   -13358 
  -13180   -12791   -12370   -12016   -11723   -11430   -11202   -11126 
  -11103   -11007   -10889   -10827   -10763   -10646   -10494   -10288 
   -9958    -9495    -8984    -8543    -8286    -8294    -8532    -8816 
   -9036    -9235    -9464    -9768   -10176   -10646   -11203   -11924 
  -12820   -13792   -14685   -15391   -15908   -16306   -16633   -16920 
  -17200   -17460   -17690   -17868   -17957   -17921   -17718   -17346 
  -16812   -16075   -15153   -14179   -13207   -12271   -11524   -11060 
  -10758   -10463   -10121    -9726    -9283    -8754    -8091    -7385 
   -6789    -6397    -6320    -6588    -7071    -7619    -8101    -8453 
   -8761    -9101    -9451    -9768    -9979   -10041   -10064   -10196 
  -10498   -10948   -11476   -12064   -12680   -13197   -13536   -13730 
  -13825   -13855   -13767   -13495   -13136   -12810   -12555   -12410 
  -12401   -12538   -12858   -13323   -13849   -14324   -14553   -14442 
  -14138   -13806   -13451   -13051   -12642   -12339   -12260   -12363 
  -12561   -12893   -13385   -13940   -14458   -14850   -15037   -14959 
  -14615   -14139   -13710   -13385   -13132   -12903   -12699   -12614 
  -12688   -12841   -13049   -13335   -13583   -13657   -13521   -13235 
  -12964   -12834   -12787   -12725   -12645   -12596   -12642   -12808 
  -13014   -13136   -13095   -12847   -12467   -12059   -11673   -11348 
  -11122   -11036   -11159   -11437   -11693   -11878   -12019   -12155 
  -12352   -12676   -13193   -13865   -14520   -15076   -15554   -15846 
  -15850   -15651   -15367   -15010   -14553   -13986   -13369   -12822 
  -12414   -12097   -11793   -11493   -11322   -11381   -11626   -11978 
  -12422   -12861   -13185   -13421   -13631   -13767   -13776   -13710 
  -13643   -13610   -13597   -13612   -13693   -13794   -13822   -13687 
  -13317   -12811   -12376   -12114   -12016   -12035   -12121   -12225 
  -12259   -12166   -12005   -11828   -11630   -11492   -11495   -11587 
  -11673   -11724   -11765   -11813   -11842   -11770   -11515   -11082 
  -10646   -10362   -10243   -10237   -10293   -10358   -10392   -10424 
  -10459   -10431   -10355   -10341   -10524   -10968   -11526   -12032 
  -12461   -12826   -13185   -13593   -13961   -14255   -14500   -14636 
  -14739   -15005   -15462   -16005   -16494   -16773   -16783   -16595 
  -16302   -15970   -15664   -15453   -15365   -15305   -15097   -14665 
  -14049   -13352   -12729   -12221   -11784   -11493   -11473   -11719 
  -12137   -12622   -13086   -13513   -13894   -14214   -14519   -14882 
  -15341   -15923   -16586   -17172   -17560   -17772   -17867   -17890 
  -17857   -17718   -17412   -16964   -16398   -15741   -15036   -14304 
  -13547   -12719   -11844   -11111   -10639   -10368   -10234   -10133 
   -9915    -9529    -8914    -7989    -6840    -5648    -4561    -3666 
   -2992    -2536    -2343    -2466    -2857    -3418    -4024    -4568 
   -5093    -5683    -6311    -6933    -7550    -8170    -8868    -9722 
  -10720   -11808   -12916   -14065   -15356   -16776   -18258   -19730 
  -21046   -22113   -22902   -23417   -23742   -23950   -24027   -23966 
  -23784   -23566   -23365   -23120   -22762   -22223   -21423   -20360 
  -19102   -17710   -16255   -14823   -13500   -12329   -11342   -10660 
  -10376   -10336   -10322   -10208    -9900    -9405    -8849    -8340 
   -7929    -7578    -7236    -6905    -6637    -6481    -6386    -6282 
   -6186    -6170    -6247    -6385    -6596    -6961    -7474    -7927 
   -8230    -8533    -8922    -9386    -9913   -10420   -10908   -11473 
  -12116   -12764   -13398   -14000   -14571   -15118   -15572   -15893 
  -16025   -15853   -15426   -14925   -14515   -14261   -14073   -13878 
  -13662   -13377   -13063   -12835   -12700   -12546   -12239   -11736 
  -11059   -10239    -9274    -8120    -6886    -5763    -4837    -4247 
   -4091    -4283    -4772    -5539    -6420    -7280    -8144    -9020 
   -9788   -10319   -10601   -10770   -10955   -11161   -11385   -11663 
  -11952   -12194   -12348   -12357   -12152   -11712   -11153   -10710 
  -10539   -10631   -10959   -11452   -12048   -12803   -13714   -14662 
  -15573   -16379   -16992   -17429   -17745   -17986   -18208   -18401 
  -18504   -18485   -18339   -18084   -17628   -16915   -16100   -15309 
  -14482   -13563   -12571   -11512   -10388    -9204    -7902    -6515 
   -5189    -3979    -2880    -1875     -953     -125      584     1117 
    1480     1740     1888     1904     1761     1378      762      -27 
    -997    -2158    -3484    -4935    -6504    -8191    -9930   -11663 
  -13321   -14794   -16110   -17315   -18384   -19423   -20518   -21643 
  -22775   -23838   -24665   -25137   -25204   -24898   -24306   -23476 
  -22455   -21371   -20239   -18981   -17539   -15858   -14014   -12204 
  -10514    -8928    -7469    -6154    -5032    -4176    -3538    -3030 
   -2659    -2407    -2207    -2042    -1944    -1945    -2052    -2228 
   -2436    -2675    -2902    -3052    -3204    -3510    -4012    -4731 
   -5721    -6988    -8486   -10099   -11704   -13217   -14600   -15905 
  -17176   -18409   -19623   -20729   -21595   -22242   -22684   -22845 
  -22758   -22457   -21942   -21336   -20692   -19905   -18972   -17980 
  -16983   -16036   -15153   -14323   -13653   -13205   -12873   -12602 
  -12420   -12326   -12313   -12339   -12380   -12475   -12671   -13019 
  -13572   -14321   -15192   -16124   -17004   -17695   -18173   -18354 
  -18131   -17518   -16555   -15411   -14318   -13346   -12577   -12101 
  -11778   -11462   -11204   -11024   -10895   -10854   -10909   -10995 
  -11003   -10940   -10957   -11084   -11217   -11321   -11399   -11414 
  -11392   -11362   -11335   -11421   -11684   -12105   -12730   -13525 
  -14319   -15003   -15515   -15816   -15982   -16121   -16329   -16584 
  -16705   -16636   -16476   -16236   -15894   -15533   -15186   -14779 
  -14242   -13583   -12870   -12183   -11589   -11091   -10675   -10300 
   -9883    -9427    -8915    -8384    -7993    -7761    -7586    -7518 
   -7573    -7627    -7642    -7619    -7560    -7562    -7638    -7682 
   -7688    -7689    -7708    -7747    -7770    -7758    -7744    -7744 
   -7765    -7817    -7877    -7983    -8203    -8503    -8892    -9427 
  -10110   -11010   -12198   -13626   -15211   -16846   -18376   -19724 
  -20854   -21633   -21945   -21735   -20935   -19609   -17967   -16193 
  -14393   -12610   -10949    -9571    -8483    -7577    -6786    -6039 
   -5265    -4522    -3946    -3578    -3442    -3601    -4062    -4731 
   -5499    -6288    -7048    -7820    -8718    -9826   -11153   -12656 
  -14251   -15704   -16779   -17469   -17798   -17791   -17635   -17463 
  -17212   -16848   -16425   -15880   -15137   -14265   -13329   -12360 
  -11396   -10438    -9574    -8935    -8553    -8376    -8286    -8229 
   -8185    -8060    -7870    -7720    -7612    -7555    -7634    -7871 
   -8267    -8834    -9505   -10220   -10983   -11715   -12332   -12822 
  -13230   -13659   -14166   -14673   -15142   -15630   -16171   -16768 
  -17377   -17936   -18466   -19013   -19581   -20148   -20602   -20757 
  -20550   -20098   -19508   -18790   -17964   -17072   -16104   -15053 
  -13988   -12966   -11928   -10836    -9756    -8629    -7378    -6166 
   -5131    -4261    -3573    -3106    -2914    -3087    -3578    -4289 
   -5138    -5967    -6728    -7449    -8078    -8688    -9401   -10207 
  -11055   -11861   -12533   -13108   -13668   -14241   -14833   -15400 
  -15917   -16424   -16943   -17479   -17961   -18312   -18539   -18674 
  -18711   -18635   -18439   -18119   -17655   -17046   -16367   -15723 
  -15142   -14561   -13910   -13235   -12561   -11854   -11214   -10724 
  -10354   -10103    -9888    -9596    -9343    -9209    -9142    -9194 
   -9393    -9682   -10157   -10874   -11669   -12357   -12822   -13058 
  -13234   -13477   -13819   -14284   -14806   -15309   -15804   -16236 
  -16474   -16478   -16297   -15989   -15583   -15115   -14689   -14357 
  -14029   -13631   -13196   -12706   -12155   -11611   -11144   -10860 
  -10858   -11119   -11603   -12279   -13055   -13803   -14404   -14800 
  -14997   -14949   -14570   -13890   -13077   -12360   -11954   -11985 
  -12425   -13106   -13822   -14407   -14817   -15034   -15031   -14852 
  -14548   -14142   -13725   -13363   -13049   -12837   -12741   -12633 
  -12474   -12266   -11970   -11650   -11368   -11075   -10744   -10358 
   -9867    -9269    -8621    -8019    -7548    -7229    -7111    -7281 
   -7672    -8148    -8706    -9325    -9942   -10561   -11146   -11684 
  -12231   -12744   -13162   -13539   -13842   -14062   -14366   -14848 
  -15490   -16285   -17155   -17987   -18701   -19256   -19658   -19927 
  -20029   -20020   -19992   -19974   -20054   -20304   -20659   -21039 
  -21358   -21508   -21448   -21201   -20810   -20397   -20044   -19683 
  -19265   -18756   -18053   -17104   -15943   -14608   -13209   -11909 
  -10744    -9641    -8617    -7697    -6810    -5904    -5040    -4287 
   -3661    -3196    -2965    -2984    -3211    -3640    -4233    -4903 
   -5603    -6304    -6917    -7350    -7573    -7699    -7917    -8313 
   -8907    -9718   -10677   -11685   -12690   -13631   -14469   -15206 
  -15863   -16502   -17199   -17984   -18860   -19795   -20679   -21419 
  -21952   -22211   -22141   -21756   -21092   -20232   -19384   -18747 
  -18376   -18269   -18405   -18704   -19049   -19345   -19530   -19512 
  -19251   -18814   -18270   -17645   -16998   -16420   -15994   -15761 
  -15723   -15878   -16129   -16329   -16418   -16337   -15986   -15368 
  -14596   -13753   -12865   -11994   -11221   -10500    -9863    -9450 
   -9273    -9283    -9468    -9740    -9958   -10007    -9829    -9454 
   -8924    -8294    -7638    -7007    -6430    -5902    -5390    -4936 
   -4660    -4576    -4650    -4928    -5443    -6097    -6733    -7253 
   -7616    -7859    -8073    -8324    -8631    -8997    -9444    -9995 
  -10681   -11573   -12676   -13878   -15097   -16233   -17084   -17572 
  -17797   -17859   -17861   -17845   -17872   -18038   -18342   -18760 
  -19334   -20078   -20930   -21760   -22414   -22798   -22864   -22601 
  -22129   -21613   -21159   -20803   -20545   -20402   -20363   -20374 
  -20401   -20448   -20445   -20264   -19830   -19120   -18127   -16903 
