Origin Time       2016/04/16 01:25:00
Lat.              32.753
Long.             130.762
Depth. (km)       12
Mag.              7.3
Station Code      EHM012
Station Lat.      33.2217
Station Long.     132.5727
Station Height(m) 37
Record Time       2016/04/16 01:25:38
Sampling Freq(Hz) 100Hz
Duration Time(s)  108
Dir.              E-W
Scale Factor      7845(gal)/8223790
Max. Acc. (gal)   14.915
Last Correction   2016/04/16 01:25:23
Memo.             
[...]
  -13598   -12723   -12233   -11799   -11152   -10435   -10143   -10222 
  -10292   -10563   -11265   -12096   -12765   -13374   -14150   -14777 
  -14623   -14027   -13899   -14358   -14975   -15190   -14485   -13219 
  -12388   -12253   -12164   -11927   -12159   -12756   -12799   -12089 
  -11053    -9979    -9150    -8791    -8946    -9201    -9120    -9267 
  -10179   -11245   -12062   -13027   -13965   -14149   -13713   -13169 
  -12459   -11659   -11119   -10790   -10580   -10697   -11144   -11666 
  -12002   -11815   -11307   -11284   -11535   -11115   -10331   -10057 
  -10211   -10227    -9720    -8986    -8743    -8787    -8764    -9464 
  -11184   -12995   -14346   -15279   -15773   -15817   -15357   -14422 
  -13127   -11346    -9522    -8856    -9734   -11402   -13039   -14343 
  -15457   -16525   -17439   -17960   -17949   -17516   -16719   -15568 
  -14040   -12023    -9922    -8530    -7985    -7901    -8127    -8784 
   -9976   -11539   -12934   -13656   -13848   -14067   -14372   -14242 
  -13517   -12604   -11980   -11880   -12012   -11950   -11727   -11419 
  -10959   -10679   -10871   -11047   -10709   -10180   -10134   -10762 
  -11476   -11761   -11819   -11776   -11499   -11317   -11441   -11476 
  -11372   -11632   -12476   -13786   -15294   -16433   -16771   -16370 
  -15591   -14995   -14843   -14670   -14090   -13236   -12322   -11643 
  -11624   -12231   -12822   -13046   -13220   -13516   -13666   -13521 
  -13180   -12607   -11811   -11164   -10895   -10662   -10127    -9526 
   -9270    -9470   -10069   -10841   -11421   -11616   -11626   -11789 
  -12044   -12279   -12876   -13941   -14959   -15461   -15294   -14716 
  -14189   -13839   -13494   -12999   -12607   -12637   -12580   -12016 
  -11619   -11819   -12186   -12573   -13232   -13917   -13882   -12957 
  -12025   -11857   -12078   -12063   -12085   -12561   -13030   -12981 
  -12610   -12321   -12318   -12460   -12645   -13269   -14269   -14683 
  -14050   -12964   -12033   -11311   -10704   -10639   -11695   -13319 
  -14158   -13905   -13482   -13400   -13466   -13806   -14609   -15539 
  -16268   -16740   -16946   -16868   -16405   -15418   -14068   -12779 
  -11556   -10204    -9400    -9710   -10326   -10872   -12282   -14354 
  -15565   -15788   -16036   -16233   -15681   -14376   -12695   -10980 
   -9463    -8284    -7821    -8260    -9135   -10172   -11427   -12418 
  -12690   -12707   -13072   -13743   -14473   -14991   -14845   -13753 
  -12125   -10741    -9952    -9853   -10774   -12503   -14089   -15051 
  -15385   -15003   -14095   -13127   -12490   -12380   -12645   -12912 
  -12981   -13015   -13059   -12798   -12218   -11632   -11125   -10775 
  -10786   -11163   -11830   -12749   -13760   -14763   -15677   -16020 
  -15504   -14701   -14026   -13115   -12186   -12179   -13063   -13884 
  -14184   -14343   -14759   -15107   -15020   -14712   -14330   -14058 
  -14359   -14970   -15095   -14642   -14004   -13279   -12291   -11252 
  -10953   -11646   -12429   -12676   -12914   -13527   -14172   -14505 
  -14401   -14076   -13853   -13717   -13763   -14040   -14133   -13837 
  -13396   -13154   -13363   -13829   -14031   -13864   -13780   -14184 
  -14987   -15682   -15803   -15407   -14925   -14558   -14139   -13670 
  -13402   -13221   -12864   -12478   -12441   -13054   -14100   -14846 
  -14971   -14717   -14451   -14494   -14736   -14757   -14506   -14170 
  -13649   -12768   -11805   -11137   -10696   -10470   -10949   -12378 
  -14308   -16100   -17211   -17548   -17552   -17369   -16829   -15982 
  -14790   -13290   -12006   -11356   -11429   -12139   -12951   -13394 
  -13697   -14025   -14002   -13543   -13061   -12731   -12513   -12505 
  -12733   -13063   -13441   -13733   -13574   -13015   -12730   -12954 
  -13185   -13095   -12791   -12439   -12100   -11821   -11857   -12231 
  -12425   -12245   -12239   -12652   -13026   -13003   -12665   -12185 
  -11739   -11464   -11416   -11746   -12343   -12818   -13197   -13839 
  -14713   -15326   -15250   -14571   -13792   -13258   -12672   -11699 
  -11062   -11502   -12299   -12760   -13158   -13509   -13621   -13635 
  -13514   -13217   -13019   -13065   -13176   -13271   -13527   -13957 
  -14366   -14710   -15007   -15168   -15350   -15776   -16074   -15680 
  -14790   -14040   -13565   -13104   -12479   -11706   -11062   -10862 
  -10917   -10906   -10999   -11384   -12002   -12798   -13525   -13971 
  -14172   -13814   -12687   -11406   -10514    -9891    -9518    -9649 
  -10015   -10100   -10100   -10339   -10594   -11048   -12251   -13653 
  -14207   -14079   -13865   -13297   -12345   -11835   -11924   -11867 
  -11543   -11511   -11859   -12159   -12060   -11564   -11194   -11543 
  -12291   -12680   -12833   -13331   -14056   -14719   -15543   -16397 
  -16614   -16031   -15137   -14424   -13945   -13298   -12301   -11408 
  -10932   -10697   -10747   -11254   -11961   -12610   -13301   -14004 
  -14438   -14461   -14141   -13724   -13601   -13687   -13165   -11653 
  -10045    -9258    -8984    -8557    -8149    -8367    -9324   -10590 
  -11668   -12438   -12951   -13008   -12680   -12312   -11866   -11421 
  -11358   -11519   -11416   -11038   -10694   -10542   -10528   -10600 
  -10879   -11450   -12105   -12536   -12642   -12658   -12910   -13279 
  -13219   -12517   -11723   -11435   -11595   -11965   -12536   -13022 
  -13171   -13393   -13856   -13902   -13236   -12469   -12089   -11978 
  -12023   -12371   -13022   -13495   -13300   -12669   -12258   -12345 
  -12739   -13069   -13240   -13620   -14362   -15012   -15124   -14667 
  -13913   -13221   -12667   -12075   -11361   -10561    -9882    -9552 
   -9560    -9892   -10605   -11383   -11757   -11788   -11909   -12378 
  -13015   -13185   -12564   -11703   -11153   -10916   -10875   -10882 
  -10836   -10851   -11068   -11521   -11807   -11470   -10912   -10686 
  -10813   -11325   -12043   -12378   -12221   -12105   -12278   -12393 
  -12276   -12353   -12877   -13498   -13849   -13964   -14131   -14490 
  -14700   -14430   -13878   -13265   -12472   -11669   -11449   -11890 
  -12444   -12961   -13628   -14251   -14627   -14780   -14642   -14199 
  -13664   -13119   -12436   -11612   -10901   -10632   -10777   -10878 
  -10966   -11592   -12460   -12710   -12406   -12137   -12097   -12175 
  -12052   -11659   -11365   -11168   -10930   -11113   -12036   -13209 
  -13861   -13670   -13105   -12947   -13313   -13640   -13608   -13397 
  -13213   -13089   -12951   -12791   -12857   -13267   -13714   -14049 
  -14415   -14592   -14226   -13590   -13185   -13092   -13190   -13309 
  -13109   -12449   -11685   -11214   -11134   -11533   -12387   -13351 
  -14220   -15080   -15916   -16596   -16903   -16545   -15630   -14716 
  -14027   -13232   -12237   -11419   -10731    -9709    -8661    -8355 
   -8619    -8912    -9445   -10557   -12052   -13571   -14693   -15029 
  -14650   -13977   -13319   -12703   -12002   -11303   -10968   -11156 
  -11792   -12764   -13702   -14158   -13960   -13208   -12316   -11635 
  -11039   -10489   -10453   -11163   -11986   -12483   -13124   -13919 
  -14176   -14061   -14324   -14951   -15462   -15649   -15529   -15180 
  -14611   -13782   -12924   -12334   -12035   -12143   -12808   -13567 
  -13821   -13635   -13437   -13536   -13849   -13975   -13818   -13539 
  -13123   -12838   -13018   -13255   -13113   -12837   -12540   -11902 
  -10970   -10218    -9884    -9894   -10185   -10802   -11674   -12405 
  -12571   -12221   -11819   -11704   -11853   -12078   -12317   -12713 
  -13374   -14052   -14399   -14250   -13443   -12245   -11655   -11920 
  -12202   -12293   -12464   -12609   -12881   -13501   -14100   -14199 
  -13701   -12935   -12309   -11873   -11496   -11183   -11183   -11601 
  -12081   -12483   -13086   -13868   -14516   -14739   -14432   -13996 
  -13856   -13937   -14046   -14047   -13745   -13292   -13099   -13170 
  -13227   -13374   -13905   -14588   -14852   -14401   -13362   -12285 
  -11808   -12191   -13313   -14611   -15475   -15857   -15803   -15434 
  -15325   -15399   -14760   -13510   -12663   -12449   -12501   -12796 
  -13441   -14285   -15016   -15211   -14571   -13243   -11735   -10733 
  -10683   -11260   -11912   -12559   -13120   -13554   -14134   -14796 
  -15138   -14985   -14231   -13095   -12258   -11931   -11663   -11223 
  -10793   -10646   -10936   -11529   -12132   -12513   -12673   -12950 
  -13428   -13636   -13436   -13093   -12411   -11233   -10212   -10048 
  -10513   -10866   -10937   -11151   -11624   -12039   -12190   -12256 
  -12711   -13748   -14804   -15206   -14868   -13986   -12773   -11488 
  -10415    -9799    -9530    -9261    -9286   -10260   -11813   -12961 
  -13404   -13371   -13196   -13262   -13587   -13788   -13660   -13443 
  -13389   -13190   -12449   -11506   -10947   -10771   -10764   -10913 
  -11219   -11632   -11973   -12140   -12409   -12822   -12831   -12159 
  -11354   -10839   -10309    -9804    -9898   -10482   -10935   -11422 
  -12600   -14126   -14987   -14944   -14197   -12924   -11805   -11403 
  -11514   -11831   -12145   -12306   -12467   -12667   -12649   -12421 
  -12217   -12188   -12445   -12933   -13319   -13338   -12946   -12225 
  -11408   -10671   -10079    -9821    -9910   -10174   -10728   -11596 
  -12429   -13015   -13379   -13567   -13547   -13150   -12402   -11655 
  -11101   -10714   -10606   -10783   -11016   -11290   -11699   -11831 
  -11376   -10955   -11121   -11529   -12009   -12748   -13281   -13216 
  -13073   -13261   -13537   -13756   -14021   -14492   -15030   -14947 
  -14156   -13572   -13529   -13716   -14172   -14708   -14840   -14704 
  -14650   -14567   -14224   -13660   -13045   -12591   -12533   -12831 
  -13159   -13311   -13366   -13583   -14014   -14287   -14262   -14191 
  -13948   -13329   -12677   -12231   -11789   -11263   -10768   -10424 
  -10434   -10955   -11819   -12607   -13085   -13370   -13581   -13652 
  -13539   -13212   -12475   -11183    -9616    -8248    -7375    -7300 
   -8264    -9879   -11404   -12637   -13759   -14602   -14904   -14764 
  -14305   -13540   -12675   -11859   -10968   -10055    -9549    -9761 
  -10411   -10962   -11362   -11723   -11821   -11896   -12594   -13636 
  -14199   -14316   -14465   -14600   -14515   -14262   -13872   -13342 
  -12893   -12696   -12599   -12542   -12642   -12866   -13122   -13306 
  -13219   -12710   -11809   -10808   -10166   -10002    -9942    -9891 
  -10314   -11213   -11900   -12171   -12488   -13174   -14203   -15330 
  -16303   -17047   -17324   -16646   -15093   -13486   -12262   -11234 
  -10478   -10212   -10218   -10164    -9992    -9853   -10019   -10633 
  -11554   -12509   -13105   -13041   -12642   -12410   -12370   -12444 
  -12437   -11947   -11059   -10362   -10309   -10843   -11622   -12561 
  -13660   -14413   -14404   -13888   -13105   -12129   -11214   -10440 
   -9857    -9732    -9976   -10208   -10343   -10509   -10804   -11261 
  -11897   -12793   -13911   -14939   -15631   -16213   -17081   -18164 
  -18987   -19114   -18442   -17533   -17153   -17196   -16997   -16470 
  -16066   -16058   -16272   -16416   -16559   -17154   -18269   -19125 
  -19067   -18439   -17757   -17235   -17271   -17968   -18605   -18532 
  -17891   -17058   -16078   -14991   -14044   -13306   -12680   -12226 
  -12089   -12085   -11786   -11018   -10003    -9147    -8626    -8338 
   -8374    -8655    -8729    -8731    -8900    -8479    -7236    -6222 
   -5984    -6419    -7680    -9470   -10895   -11578   -11955   -12366 
  -12373   -11581   -10601   -10119    -9779    -8966    -7842    -6790 
   -5567    -4202    -3740    -4644    -6015    -7257    -8742   -10845 
  -13344   -15654   -17500   -19041   -20254   -21050   -21789   -22553 
  -22612   -21297   -18858   -16168   -13952   -12537   -11896   -11848 
  -12210   -12357   -11650   -10547    -9720    -8955    -8563    -9655 
  -12366   -15595   -18158   -19458   -19421   -17996   -15788   -14288 
  -13851   -13215   -11473    -8857    -6061    -3620    -1806     -696 
    -287     -626    -1503    -2543    -3889    -5621    -7140    -8186 
   -9026    -9942   -11272   -12833   -13919   -14050   -12906   -10903 
   -9470    -9180    -9171    -9074    -9475   -10176    -9965    -8706 
   -7931    -8410    -9310   -10350   -12055   -14258   -16243   -17518 
  -17971   -17684   -16854   -16190   -16163   -15853   -14551   -13139 
  -12442   -12330   -12937   -14712   -17134   -18914   -19504   -19071 
  -18042   -17533   -17991   -18350   -18068   -17585   -16997   -16213 
  -15410   -14963   -15442   -16984   -18547   -18954   -18439   -17760 
  -16729   -15045   -13012   -10619    -7595    -4180    -1127      469 
    -120    -2880    -7584   -13073   -17236   -19287   -19761   -18463 
  -15169   -11404    -9135    -8411    -7897    -7140    -7109    -8653 
  -11094   -13119   -14465   -15385   -15520   -14283   -11560    -7840 
   -4403    -2896    -3716    -5811    -8319   -10962   -13408   -15115 
  -16048   -17089   -18522   -19445   -19414   -18619   -16943   -14224 
  -11086    -8962    -8760    -9759   -10547   -10901   -11866   -13937 
  -16352   -18306   -19468   -19646   -18894   -17556   -16154   -15412 
  -15672   -16544   -17806   -19193   -19672   -18628   -16436   -13838 
  -11898   -11317   -11684   -11952   -11595   -11240   -11265   -11124 
  -11144   -12237   -13811   -14529   -13994   -12523   -10578    -8777 
   -7878    -8317    -9807   -12044   -15322   -19457   -23182   -25509 
  -26793   -27823   -28336   -27460   -25138   -21822   -17647   -12760 
   -7657    -3123      116     2023     2922     2731     1067    -2415 
   -6922   -10411   -12274   -13710   -15329   -16880   -17802   -17213 
  -15033   -12309    -9894    -7917    -6480    -5873    -6454    -8490 
  -11554   -14719   -17560   -19735   -20574   -20013   -18621   -16667 
  -14052   -10967    -8175    -6415    -5814    -6002    -6739    -8434 
  -11345   -14472   -16616   -17648   -17613   -16205   -13594   -10525 
   -7925    -6481    -5911    -5395    -4877    -5024    -6380    -8849 
  -11875   -14976   -17436   -18542   -18447   -17388   -15796   -14701 
  -14200   -14185   -15464   -17764   -19843   -21536   -22981   -23793 
  -24027   -23760   -22188   -18864   -14801   -11608   -10292   -10687 
  -11610   -12083   -11990   -11483   -11067   -11547   -12667   -13319 
  -13242   -12641   -11425    -9975    -8851    -8155    -7912    -7964 
   -8182    -9092   -10989   -13084   -14420   -14813   -14521   -13953 
  -13729   -14138   -14998   -16062   -17067   -17918   -18805   -19792 
  -20424   -19893   -17976   -15299   -12248    -8750    -5178    -2189 
    -322     -265    -2366    -5904    -9846   -13613   -16468   -17466 
  -16596   -14868   -13213   -12077   -11597   -11624   -12029   -13042 
  -14674   -16555   -18590   -20313   -20590   -19307   -17234   -14480 
  -11211    -8401    -6853    -6492    -6559    -6388    -6022    -5922 
   -6130    -6023    -5358    -5038    -5834    -7219    -8343    -8710 
   -8243    -7865    -8741   -11269   -15036   -18453   -19935   -19650 
  -18360   -16268   -14107   -12787   -11843   -10230    -7974    -5848 
   -4376    -4162    -5783    -8469   -10724   -12313   -13529   -13849 
  -12939   -11349    -9998    -9748   -10818   -12452   -13380   -12583 
  -10099    -6832    -3632    -1366     -654     -774     -495     -220 
   -1424    -4338    -7884   -11025   -13126   -14131   -14563   -14665 
  -14548   -14894   -16036   -17447   -18912   -20464   -21331   -20889 
  -19901   -19127   -18175   -16833   -15499   -14072   -12460   -11313 
  -11226   -12521   -15124   -17848   -19614   -20422   -19872   -17509 
  -14366   -11865   -10812   -11310   -12024   -11334    -9381    -7493 
   -6735    -7453    -9570   -12920   -16652   -19036   -18974   -16729 
  -13090    -9144    -6457    -6146    -7799    -9837   -10971   -10966 
  -10212    -9471    -9521   -10300   -11061   -11094    -9895    -7599 
   -5088    -3454    -3816    -6791   -11772   -17223   -21412   -23291 
  -23183   -22033   -20460   -18806   -17211   -15477   -13540   -11772 
  -10185    -8487    -7001    -6231    -6356    -7547    -9910   -13103 
  -16100   -17919   -18381   -17590   -15741   -13565   -12178   -12124 
  -12873   -13903   -15198   -16321   -16569   -15938   -15214   -15402 
  -16567   -17672   -18126   -18152   -17938   -17768   -17879   -17840 
  -17097   -15947   -15059   -14107   -12406   -10748   -10552   -11946 
  -14130   -16173   -17305   -17485   -16946   -15546   -13473   -11574 
  -10600   -10783   -11772   -12973   -14092   -15153   -16513   -18125 
  -19087   -19026   -18252   -16649   -14359   -12324   -11261   -11230 
  -11880   -12442   -12318   -11556   -10471    -9470    -9076    -9919 
  -12236   -14917   -16093   -15268   -13818   -13011   -12680   -12241 
  -11453   -10098    -8185    -5962    -3717    -2004    -1138     -927 
   -1128    -1463    -1938    -2732    -3781    -5339    -7913   -11462 
  -15129   -17491   -17599   -15974   -13629   -10764    -7626    -5251 
   -4275    -4409    -5265    -6670    -8424   -10355   -12545   -15214 
  -18268   -21038   -22657   -22744   -21690   -20170   -18775   -18052 
  -17902   -17466   -16592   -16139   -16281   -16340   -16087   -15795 
  -15967   -17123   -18836   -20079   -20729   -21151   -21088   -20248 
  -18994   -17934   -17388   -16964   -15873   -13969   -12067   -10881 
  -10359   -10336   -10836   -12032   -13984   -15996   -17285   -17737 
  -17173   -15516   -13631   -12523   -12398   -12858   -13176   -12820 
  -12086   -11466   -10996   -11114   -12599   -15037   -17240   -18445 
  -18241   -16872   -14986   -12742   -10542    -9405    -9693   -10883 
  -12224   -13086   -13635   -14575   -15849   -16639   -16584   -16112 
  -15777   -15712   -15708   -15490   -15097   -14887   -14931   -15414 
  -16911   -18719   -19067   -17852   -16639   -16081   -15570   -14921 
  -14311   -13306   -11946   -11356   -11881   -12363   -11827   -10670 
   -9937    -9753    -9618    -9784   -10804   -12684   -15182   -17776 
  -19647   -20386   -20278   -19791   -19159   -18243   -16842   -15130 
  -13297   -11394    -9722    -8473    -7643    -7576    -8298    -9063 
   -9396    -9506    -9717   -10227   -11118   -12208   -13139   -13684 
  -13752   -13244   -12075   -10353    -8604    -7712    -8384   -10362 
  -12575   -14535   -16467   -18195   -19477   -20453   -21057   -20997 
  -20162   -18624   -16691   -14881   -13621   -13103   -13294   -13979 
  -15017   -16218   -16991   -16969   -16714   -16922   -17258   -16958 
  -16028   -14733   -13186   -11909   -11271   -11049   -11252   -11947 
  -12598   -12613   -11890   -10686    -9529    -9080    -9771   -11249 
  -12464   -12999   -13656   -14871   -15777   -15865   -15680   -15239 
  -14098   -12567   -11014    -9508    -8672    -9142   -10760   -13134 
  -15776   -17770   -18355   -17720   -16691   -15942   -15657   -15669 
  -15951   -16565   -17069   -16915   -16131   -15183   -14567   -14388 
  -14561   -15121   -15709   -15626   -14724   -13525   -12494   -11746 
  -11446   -11662   -11900   -11655   -10922    -9853    -8520    -7200 
   -6299    -5734    -5030    -4197    -3946    -4658    -5923    -7466 
   -9394   -11383   -12892   -14094   -15520   -16771   -16814   -15576 
  -13833   -11954   -10044    -8500    -7701    -7663    -8031    -8441 
