Origin Time       2016/04/16 01:25:00
Lat.              32.753
Long.             130.762
Depth. (km)       12
Mag.              7.3
Station Code      EHM002
Station Lat.      33.9216
Station Long.     133.3074
Station Height(m) 19
Record Time       2016/04/16 01:25:59
Sampling Freq(Hz) 100Hz
Duration Time(s)  96
Dir.              E-W
Scale Factor      7845(gal)/8223790
Max. Acc. (gal)   2.569
Last Correction   2016/04/16 01:26:01
Memo.             
[...]
    -862     -962    -1190    -1491    -1651    -1547    -1317    -1179 
   -1183    -1251    -1313    -1332    -1329    -1371    -1425    -1395 
   -1281    -1185    -1198    -1264    -1306    -1348    -1399    -1410 
   -1387    -1405    -1479    -1543    -1549    -1512    -1489    -1576 
   -1761    -1900    -1907    -1815    -1690    -1575    -1517    -1559 
   -1714    -1876    -1878    -1699    -1486    -1370    -1363    -1370 
   -1294    -1142     -997     -953    -1021    -1131    -1178    -1127 
   -1073    -1133    -1286    -1405    -1404    -1314    -1244    -1251 
   -1329    -1436    -1497    -1478    -1397    -1270    -1146    -1120 
   -1197    -1269    -1216    -1036     -870     -874    -1017    -1111 
   -1101    -1073    -1071    -1107    -1192    -1270    -1300    -1337 
   -1437    -1530    -1540    -1514    -1525    -1544    -1541    -1557 
   -1615    -1688    -1732    -1741    -1776    -1846    -1881    -1877 
   -1884    -1933    -2037    -2110    -2037    -1878    -1783    -1784 
   -1822    -1831    -1836    -1852    -1833    -1755    -1647    -1579 
   -1638    -1746    -1718    -1554    -1443    -1486    -1628    -1768 
   -1869    -1945    -2010    -2102    -2189    -2146    -1962    -1775 
   -1690    -1690    -1669    -1591    -1534    -1526    -1490    -1416 
   -1412    -1491    -1541    -1528    -1516    -1478    -1410    -1418 
   -1518    -1586    -1564    -1525    -1509    -1476    -1437    -1431 
   -1397    -1270    -1112     -976     -853     -805     -884     -962 
    -934     -911    -1024    -1193    -1300    -1359    -1386    -1362 
   -1344    -1395    -1482    -1507    -1451    -1413    -1431    -1464 
   -1516    -1566    -1547    -1422    -1212    -1034    -1015    -1138 
   -1273    -1323    -1279    -1189    -1075     -940     -828     -818 
    -885     -927     -927     -929     -932     -916     -873     -834 
    -854     -932    -1020    -1055    -1004     -908     -853     -886 
    -994    -1111    -1173    -1166    -1128    -1150    -1228    -1225 
   -1101     -985     -926     -880     -897     -987    -1024     -985 
    -972    -1009    -1048    -1046     -997     -929     -868     -853 
    -922    -1016    -1048    -1055    -1104    -1152    -1159    -1144 
   -1162    -1256    -1362    -1379    -1281    -1115     -996    -1024 
   -1171    -1278    -1243    -1150    -1113    -1151    -1233    -1317 
   -1382    -1436    -1467    -1435    -1337    -1258    -1274    -1358 
   -1409    -1360    -1233    -1109    -1042    -1008     -955     -932 
   -1032    -1174    -1223    -1170    -1067    -1008    -1046    -1125 
   -1159    -1143    -1146    -1224    -1352    -1474    -1551    -1597 
   -1632    -1620    -1545    -1482    -1467    -1428    -1310    -1208 
   -1229    -1355    -1509    -1632    -1728    -1842    -1921    -1887 
   -1783    -1664    -1570    -1554    -1574    -1516    -1412    -1381 
   -1416    -1428    -1422    -1463    -1557    -1632    -1582    -1405 
   -1230    -1188    -1285    -1399    -1408    -1325    -1263    -1267 
   -1282    -1297    -1378    -1493    -1522    -1480    -1476    -1497 
   -1470    -1418    -1381    -1333    -1302    -1348    -1439    -1513 
   -1583    -1651    -1682    -1652    -1540    -1378    -1224    -1116 
   -1086    -1115    -1117    -1060     -990     -965    -1023    -1135 
   -1202    -1166    -1069    -1008    -1051    -1154    -1202    -1208 
   -1239    -1278    -1306    -1327    -1317    -1308    -1371    -1512 
   -1661    -1790    -1925    -2046    -2118    -2163    -2193    -2200 
   -2195    -2182    -2141    -2070    -2037    -2062    -2068    -2008 
   -1930    -1884    -1906    -1971    -2000    -1975    -1956    -1966 
   -1996    -2033    -2093    -2224    -2358    -2357    -2215    -2047 
   -1949    -1915    -1896    -1892    -1900    -1885    -1861    -1846 
   -1822    -1786    -1749    -1710    -1714    -1836    -2052    -2232 
   -2289    -2220    -2074    -1896    -1746    -1683    -1682    -1701 
   -1728    -1723    -1647    -1537    -1507    -1590    -1684    -1715 
   -1674    -1605    -1560    -1528    -1468    -1417    -1421    -1456 
   -1452    -1367    -1239    -1151    -1151    -1209    -1274    -1336 
   -1375    -1331    -1210    -1096    -1015     -967     -951     -958 
   -1003    -1077    -1119    -1071     -976     -924     -950    -1017 
   -1063    -1060    -1034     -997     -920     -805     -727     -719 
    -719     -680     -641     -661     -724     -769     -777     -756 
    -695     -641     -665     -749     -837     -893     -900     -888 
    -920    -1038    -1230    -1379    -1360    -1277    -1262    -1301 
   -1345    -1304    -1132     -954     -881     -922    -1005    -1031 
    -962     -886     -869     -893     -936     -943     -885     -864 
    -935    -1000    -1000     -947     -873     -803     -750     -722 
    -712     -722     -770     -854     -957    -1042    -1077    -1100 
   -1152    -1196    -1204    -1204    -1220    -1298    -1468    -1657 
   -1755    -1755    -1767    -1833    -1922    -2030    -2176    -2316 
   -2416    -2484    -2501    -2439    -2316    -2187    -2074    -1996 
   -1960    -1954    -1975    -2004    -2015    -1992    -1939    -1856 
   -1759    -1671    -1580    -1506    -1514    -1605    -1729    -1876 
   -2045    -2189    -2267    -2286    -2253    -2163    -2065    -2037 
   -2107    -2224    -2299    -2319    -2338    -2378    -2419    -2467 
   -2528    -2556    -2521    -2457    -2409    -2381    -2369    -2400 
   -2492    -2635    -2776    -2856    -2891    -2945    -2975    -2889 
   -2720    -2600    -2589    -2635    -2694    -2740    -2778    -2840 
   -2949    -3061    -3106    -3053    -2926    -2785    -2679    -2617 
   -2600    -2598    -2528    -2361    -2173    -2018    -1877    -1750 
   -1651    -1580    -1549    -1543    -1533    -1518    -1503    -1486 
   -1449    -1409    -1385    -1359    -1310    -1230    -1127    -1039 
   -1024    -1075    -1120    -1080     -976     -926    -1000    -1166 
   -1314    -1391    -1436    -1498    -1561    -1598    -1628    -1661 
   -1663    -1630    -1609    -1617    -1593    -1513    -1428    -1397 
   -1437    -1521    -1579    -1567    -1489    -1372    -1230    -1111 
   -1070    -1125    -1223    -1263    -1216    -1143    -1136    -1220 
   -1306    -1290    -1182    -1107    -1140    -1227    -1259    -1220 
   -1197    -1242    -1332    -1416    -1449    -1435    -1420    -1455 
   -1554    -1665    -1695    -1595    -1412    -1229    -1057     -909 
    -855     -837     -722     -526     -363     -278     -237     -218 
    -229     -233     -180     -106      -72      -74      -65      -54 
     -54      -75     -198     -506     -923    -1279    -1534    -1749 
   -1949    -2102    -2146    -2060    -1925    -1859    -1895    -1915 
   -1852    -1799    -1822    -1892    -1956    -1975    -1899    -1718 
   -1494    -1282    -1115    -1059    -1128    -1212    -1258    -1329 
   -1424    -1513    -1617    -1723    -1802    -1863    -1935    -2043 
   -2165    -2253    -2299    -2305    -2261    -2180    -2098    -2000 
   -1902    -1884    -1935    -1971    -1952    -1896    -1850    -1846 
   -1859    -1846    -1777    -1674    -1587    -1551    -1568    -1614 
   -1665    -1757    -1902    -2037    -2100    -2107    -2096    -2034 
   -1883    -1717    -1620    -1566    -1479    -1348    -1194    -1042 
    -915     -818     -727     -650     -625     -665     -731     -797 
    -858     -896     -932     -989    -1019     -980     -872     -722 
    -542     -299       -5      248      407      481      506      492 
     446      414      440      484      496      523      622      749 
     854      936      984     1016     1069     1119     1121     1070 
     987      864      652      370       99     -120     -279     -395 
    -503     -589     -594     -506     -406     -355     -348     -409 
    -544     -673     -738     -756     -745     -712     -650     -542 
    -392     -222      -49      117      259      352      356      253 
     106      -27     -124     -183     -225     -255     -230     -141 
     -55      -63     -170     -321     -484     -648     -807     -942 
   -1008     -986     -954    -1023    -1183    -1325    -1417    -1513 
   -1677    -1948    -2258    -2497    -2640    -2709    -2685    -2571 
   -2440    -2354    -2316    -2257    -2100    -1888    -1753    -1741 
   -1768    -1776    -1787    -1791    -1745    -1667    -1574    -1435 
   -1269    -1161    -1167    -1244    -1287    -1271    -1256    -1264 
   -1254    -1212    -1196    -1243    -1302    -1327    -1308    -1251 
   -1182    -1140    -1113    -1097    -1100    -1113    -1139    -1205 
   -1339    -1556    -1806    -1972    -2001    -1960    -1946    -1971 
   -1985    -1958    -1885    -1800    -1755    -1763    -1788    -1833 
   -1923    -2037    -2111    -2123    -2084    -2015    -1953    -1902 
   -1803    -1615    -1370    -1129     -920     -743     -681     -796 
    -982    -1102    -1100    -1021     -999    -1124    -1378    -1597 
   -1647    -1587    -1534    -1475    -1375    -1277    -1194    -1080 
    -915     -745     -596     -471     -394     -390     -450     -556 
    -718     -926    -1128    -1325    -1553    -1800    -2010    -2104 
   -2083    -2045    -2037    -2034    -2034    -2026    -1979    -1867 
   -1674    -1414    -1142     -929     -816     -749     -664     -569 
    -473     -353     -209      -55       83      182      275      376 
     457      537      607      633      657      757      938     1107 
    1181     1163     1113     1015      835      623      436      246 
      -2     -319     -629     -869    -1057    -1254    -1513    -1788 
   -1971    -2004    -1927    -1854    -1880    -2015    -2223    -2465 
   -2668    -2747    -2686    -2582    -2532    -2551    -2597    -2614 
   -2582    -2555    -2610    -2754    -2886    -2924    -2896    -2870 
   -2839    -2756    -2623    -2490    -2396    -2354    -2400    -2542 
   -2720    -2882    -3022    -3115    -3163    -3190    -3180    -3138 
   -3115    -3132    -3142    -3103    -3013    -2884    -2739    -2569 
   -2358    -2121    -1887    -1644    -1399    -1188    -1034     -961 
    -947     -919     -855     -796     -778     -773     -691     -521 
    -369     -319     -332     -328     -278     -186      -89      -71 
    -178     -333     -414     -383     -305     -265     -249     -144 
     105      409      619      658      540      356      259      313 
     363      280      128       -5      -98     -151     -189     -216 
    -225     -221     -175      -91       -5       62      114      152 
     156      103       21      -68     -193     -370     -579     -811 
   -1078    -1333    -1455    -1398    -1243    -1115    -1111    -1239 
   -1436    -1599    -1642    -1560    -1439    -1381    -1391    -1431 
   -1482    -1507    -1470    -1372    -1289    -1266    -1235    -1146 
   -1004     -819     -660     -576     -535     -500     -483     -526 
    -641     -789     -926    -1012    -1051    -1107    -1243    -1453 
   -1695    -1915    -2058    -2100    -2095    -2126    -2182    -2165 
   -2033    -1868    -1752    -1718    -1787    -1904    -1949    -1873 
   -1757    -1674    -1664    -1753    -1881    -1954    -1975    -1985 
   -1989    -2015    -2100    -2230    -2357    -2440    -2436    -2346 
   -2200    -2025    -1868    -1798    -1811    -1868    -1926    -1926 
   -1871    -1792    -1719    -1687    -1684    -1690    -1714    -1750 
   -1822    -1915    -1949    -1914    -1859    -1849    -1910    -1982 
   -2019    -2047    -2070    -2079    -2100    -2170    -2295    -2398 
   -2393    -2307    -2246    -2258    -2315    -2334    -2273    -2192 
   -2165    -2166    -2114    -1965    -1780    -1621    -1464    -1318 
   -1274    -1343    -1428    -1445    -1362    -1182     -977     -870 
    -924    -1039    -1098    -1123    -1189    -1300    -1399    -1451 
   -1475    -1551    -1702    -1819    -1806    -1729    -1711    -1776 
   -1919    -2120    -2266    -2246    -2092    -1919    -1830    -1856 
   -1941    -2007    -2019    -1948    -1806    -1667    -1568    -1478 
   -1393    -1371    -1437    -1541    -1609    -1611    -1582    -1568 
   -1584    -1597    -1609    -1665    -1787    -1953    -2087    -2106 
   -2000    -1802    -1575    -1359    -1136     -939     -826     -780 
    -735     -665     -587     -503     -429     -388     -364     -340 
    -325     -309     -257     -194     -193     -263     -361     -467 
    -579     -683     -735     -743     -750     -789     -846     -841 
    -743     -639     -573     -481     -342     -201     -129     -205 
    -419     -641     -774     -837     -864     -862     -832     -804 
    -815     -896    -1053    -1251    -1426    -1598    -1823    -2037 
   -2095    -1982    -1815    -1696    -1634    -1568    -1491    -1439 
   -1414    -1444    -1561    -1677    -1651    -1486    -1274    -1065 
    -928     -927    -1026    -1107    -1090    -1028    -1039    -1151 
   -1360    -1595    -1706    -1629    -1453    -1321    -1324    -1444 
   -1578    -1632    -1621    -1632    -1746    -1960    -2166    -2276 
   -2277    -2226    -2196    -2218    -2280    -2407    -2602    -2837 
   -3090    -3365    -3647    -3823    -3809    -3688    -3593    -3558 
   -3526    -3485    -3491    -3559    -3659    -3755    -3808    -3811 
   -3811    -3828    -3848    -3831    -3746    -3630    -3566    -3631 
   -3836    -4058    -4109    -3958    -3757    -3642    -3609    -3618 
   -3636    -3657    -3666    -3662    -3631    -3496    -3241    -2995 
   -2843    -2749    -2709    -2740    -2829    -2947    -3053    -3109 
   -3063    -2928    -2774    -2628    -2471    -2282    -2072    -1914 
   -1838    -1776    -1706    -1663    -1668    -1732    -1854    -1995 
   -2091    -2142    -2157    -2142    -2157    -2222    -2299    -2369 
   -2378    -2328    -2343    -2439    -2485    -2421    -2311    -2235 
   -2204    -2168    -2092    -1945    -1772    -1675    -1652    -1601 
   -1470    -1298    -1132    -1019    -1034    -1190    -1377    -1476 
   -1462    -1355    -1194    -1065    -1043    -1089    -1073     -943 
    -792     -726     -784     -934    -1070    -1116    -1080    -1003 
    -919     -815     -648     -425     -230     -105      -75     -174 
    -315     -391     -434     -522     -668     -850    -1044    -1256 
   -1483    -1717    -1971    -2188    -2315    -2435    -2608    -2768 
   -2872    -2932    -2974    -2988    -2991    -3088    -3281    -3449 
   -3546    -3550    -3395    -3109    -2808    -2562    -2427    -2448 
   -2560    -2641    -2614    -2471    -2307    -2212    -2218    -2292 
   -2315    -2258    -2245    -2307    -2384    -2438    -2448    -2388 
   -2280    -2215    -2205    -2172    -2085    -1939    -1748    -1621 
   -1632    -1672    -1595    -1440    -1306    -1263    -1360    -1516 
   -1632    -1714    -1760    -1777    -1753    -1667    -1571    -1456 
   -1298    -1196    -1205    -1281    -1394    -1495    -1520    -1485 
   -1440    -1405    -1385    -1399    -1483    -1590    -1620    -1568 
   -1568    -1713    -1946    -2172    -2300    -2292    -2255    -2286 
   -2305    -2230    -2098    -1981    -1911    -1885    -1908    -1942 
   -1888    -1763    -1695    -1725    -1803    -1850    -1775    -1568 
   -1323    -1120    -1015    -1013    -1005     -899     -778     -764 
    -855     -984    -1080    -1124    -1173    -1290    -1448    -1553 
   -1547    -1467    -1420    -1449    -1502    -1506    -1405    -1202 
    -961     -726     -504     -334     -253     -244     -266     -291 
    -315     -363     -425     -487     -581     -733     -965    -1255 
   -1491    -1606    -1648    -1644    -1613    -1554    -1459    -1397 
   -1464    -1626    -1794    -1946    -2053    -2039    -1919    -1806 
   -1798    -1878    -1934    -1887    -1796    -1775    -1811    -1821 
   -1780    -1698    -1575    -1451    -1358    -1278    -1190    -1151 
   -1233    -1382    -1453    -1359    -1140     -918     -811     -880 
   -1075    -1252    -1321    -1334    -1383    -1463    -1513    -1530 
   -1535    -1563    -1658    -1809    -1948    -2010    -1949    -1822 
   -1722    -1690    -1692    -1671    -1630    -1632    -1744    -1982 
   -2255    -2442    -2529    -2565    -2565    -2493    -2313    -2022 
   -1695    -1455    -1402    -1530    -1738    -1852    -1777    -1628 
   -1587    -1682    -1786    -1769    -1634    -1495    -1447    -1482 
   -1517    -1478    -1334    -1128     -977     -943     -987    -1085 
   -1251    -1452    -1598    -1610    -1509    -1368    -1216    -1055 
    -907     -785     -687     -619     -556     -464     -390     -373 
    -403     -398     -292     -149      -94     -167     -268     -278 
    -225     -233     -372     -589     -747     -762     -652     -471 
    -291     -205     -245     -353     -476     -568     -561     -484 
    -418     -403     -444     -523     -635     -769     -893     -993 
   -1081    -1189    -1308    -1391    -1417    -1402    -1345    -1235 
   -1078     -936     -890     -958    -1053    -1080    -1028     -967 
    -978    -1075    -1183    -1219    -1190    -1156    -1113    -1019 
    -882     -767     -735     -816     -973    -1113    -1158    -1097 
   -1003     -947     -957    -1015    -1062    -1046     -972     -899 
    -864     -832     -767     -668     -476     -206        9       83 
      31      -68     -170     -282     -375     -391     -341     -302 
    -340     -442     -544     -552     -436     -313     -299     -360 
    -400     -417     -434     -454     -492     -573     -695     -832 
    -943     -999    -1007     -993     -957     -838     -614     -390 
    -318     -448     -719     -992    -1139    -1131    -1043     -959 
    -915     -890     -859     -808     -746     -731     -820     -993 
   -1156    -1237    -1235    -1166    -1058     -969     -908     -870 
    -893     -954     -984     -984     -978     -954     -963    -1051 
   -1162    -1205    -1181    -1194    -1314    -1482    -1588    -1566 
   -1431    -1264    -1116    -1024    -1011    -1057    -1115    -1112 
   -1046     -993     -987    -1030    -1109    -1158    -1120    -1039 
    -992     -989     -986     -924     -785     -638     -560     -571 
    -627     -670     -700     -743     -819     -905     -940     -924 
    -901     -903     -974    -1139    -1337    -1475    -1537    -1566 
   -1576    -1537    -1440    -1339    -1302    -1337    -1390    -1394 
   -1312    -1170    -1038     -922     -776     -610     -475     -433 
    -493     -561     -571     -564     -599     -684     -800     -949 
   -1105    -1194    -1189    -1119    -1047    -1050    -1092    -1063 
    -935     -773     -661     -634     -646     -607     -487     -367 
    -332     -387     -488     -599     -692     -747     -770     -780 
    -778     -787     -810     -810     -797     -810     -811     -792 
    -788     -819     -908    -1015    -1081    -1131    -1188    -1246 
   -1282    -1251    -1177    -1133    -1102    -1057    -1069    -1163 
   -1281    -1426    -1611    -1769    -1784    -1629    -1428    -1314 
   -1362    -1549    -1729    -1775    -1706    -1632    -1593    -1557 
   -1525    -1518    -1552    -1626    -1709    -1738    -1653    -1491 
