Origin Time       2016/04/16 01:25:00
Lat.              32.753
Long.             130.762
Depth. (km)       12
Mag.              7.3
Station Code      EHM004
Station Lat.      34.0624
Station Long.     132.9982
Station Height(m) 3
Record Time       2016/04/16 01:25:48
Sampling Freq(Hz) 100Hz
Duration Time(s)  135
Dir.              N-S
Scale Factor      7845(gal)/8223790
Max. Acc. (gal)   14.377
Last Correction   2016/04/16 01:25:49
Memo.             
[...]
    6299     6303     6293     6277     6259     6222     6157     6064 
    5937     5784     5609     5400     5197     5042     4935     4878 
    4861     4864     4876     4877     4855     4800     4700     4590 
    4498     4430     4419     4486     4600     4742     4873     4938 
    4928     4854     4689     4431     4135     3848     3623     3508 
    3510     3613     3804     4047     4301     4552     4808     5066 
    5300     5495     5680     5887     6134     6421     6701     6917 
    7056     7098     7030     6878     6640     6338     6044     5788 
    5549     5321     5078     4792     4486     4180     3871     3569 
    3280     2997     2743     2540     2366     2207     2087     2018 
    2001     2053     2174     2346     2562     2809     3090     3407 
    3738     4068     4406     4741     5065     5375     5653     5890 
    6104     6299     6453     6585     6743     6945     7203     7512 
    7817     8063     8222     8268     8205     8070     7877     7616 
    7310     6947     6500     6018     5567     5164     4816     4526 
    4279     4063     3878     3732     3623     3530     3427     3302 
    3157     3003     2862     2744     2669     2664     2721     2805 
    2906     3026     3157     3315     3501     3697     3923     4192 
    4490     4812     5131     5401     5606     5763     5875     5949 
    5996     6037     6088     6146     6207     6269     6309     6328 
    6350     6369     6372     6351     6301     6237     6185     6123 
    6003     5826     5605     5346     5073     4806     4549     4327 
    4156     4029     3956     3958     4031     4155     4310     4459 
    4545     4552     4504     4449     4441     4513     4631     4774 
    4955     5163     5385     5644     5917     6157     6349     6471 
    6498     6447     6343     6186     5998     5787     5543     5267 
    4978     4679     4391     4144     3963     3883     3919     4047 
    4241     4445     4603     4681     4645     4496     4286     4082 
    3947     3917     3986     4121     4293     4475     4631     4734 
    4774     4765     4731     4698     4698     4725     4741     4757 
    4792     4822     4838     4870     4916     5017     5224     5493 
    5784     6114     6439     6731     6998     7198     7284     7246 
    7094     6851     6547     6204     5863     5537     5224     4941 
    4653     4314     3956     3630     3361     3192     3129     3150 
    3276     3480     3709     3942     4131     4230     4271     4299 
    4340     4414     4519     4649     4799     4932     5044     5130 
    5150     5128     5101     5040     4947     4849     4727     4599 
    4515     4467     4437     4460     4550     4687     4876     5115 
    5358     5551     5670     5727     5733     5674     5547     5373 
    5169     4973     4804     4672     4592     4564     4567     4590 
    4622     4648     4662     4657     4633     4606     4584     4565 
    4553     4552     4592     4695     4854     5080     5348     5621 
    5902     6180     6412     6588     6694     6724     6689     6605 
    6496     6378     6261     6147     6044     5930     5791     5644 
    5503     5366     5239     5130     5030     4941     4858     4766 
    4669     4581     4498     4419     4337     4252     4174     4106 
    4050     3978     3870     3753     3653     3572     3480     3380 
    3306     3261     3254     3303     3379     3458     3589     3802 
    4071     4387     4723     5030     5282     5493     5672     5833 
    5991     6146     6285     6407     6517     6604     6664     6717 
    6756     6755     6710     6621     6490     6336     6173     6019 
    5908     5827     5755     5724     5746     5791     5821     5790 
    5694     5584     5481     5390     5331     5281     5206     5131 
    5074     5034     5026     5035     5044     5081     5144     5212 
    5279     5350     5428     5497     5535     5549     5548     5555 
    5617     5711     5802     5888     5950     5975     5973     5930 
    5840     5718     5528     5228     4866     4490     4124     3834 
    3638     3504     3431     3443     3542     3709     3935     4218 
    4535     4842     5103     5273     5339     5337     5296     5208 
    5115     5074     5090     5143     5200     5229     5258     5301 
    5347     5395     5410     5337     5212     5092     4999     4946 
    4931     4942     4986     5053     5109     5158     5228     5320 
    5417     5505     5570     5637     5742     5888     6060     6218 
    6307     6311     6266     6214     6199     6230     6290     6334 
    6316     6257     6191     6110     6018     5923     5802     5634 
    5456     5323     5262     5283     5336     5347     5308     5256 
    5209     5157     5073     4928     4720     4472     4213     3986 
    3790     3568     3298     3019     2778     2621     2590     2682 
    2832     2961     3034     3048     3013     2978     2978     3018 
    3113     3284     3530     3798     4020     4195     4365     4540 
    4704     4861     5000     5120     5242     5364     5479     5599 
    5715     5810     5860     5829     5741     5670     5651     5698 
    5796     5911     6026     6120     6166     6176     6183     6224 
    6293     6326     6301     6249     6157     6014     5836     5621 
    5397     5256     5229     5256     5304     5359     5409     5483 
    5601     5717     5791     5811     5772     5679     5537     5358 
    5113     4784     4415     4045     3662     3321     3123     3115 
    3261     3464     3604     3670     3728     3835     3998     4156 
    4217     4158     4016     3866     3750     3673     3657     3735 
    3878     4017     4109     4131     4094     4045     3986     3913 
    3865     3861     3915     4104     4438     4814     5136     5337 
    5383     5310     5173     5027     4953     4996     5171     5433 
    5697     5929     6143     6349     6563     6764     6867     6839 
    6732     6621     6538     6471     6397     6280     6106     5869 
    5551     5198     4914     4725     4592     4499     4419     4305 
    4145     3932     3662     3392     3194     3100     3123     3202 
    3283     3377     3492     3645     3892     4233     4606     4954 
    5292     5632     5918     6070     6083     6012     5919     5837 
    5748     5609     5409     5169     4918     4676     4475     4368 
    4364     4431     4557     4712     4855     4992     5119     5206 
    5251     5265     5256     5252     5258     5224     5108     4920 
    4710     4534     4425     4417     4480     4538     4571     4600 
    4614     4606     4594     4600     4673     4799     4935     5090 
    5255     5393     5509     5597     5603     5521     5390     5265 
    5189     5174     5192     5194     5164     5123     5067     4974 
    4858     4738     4612     4530     4518     4521     4515     4540 
    4575     4584     4575     4572     4602     4664     4716     4725 
    4706     4676     4612     4548     4542     4568     4577     4579 
    4575     4575     4626     4737     4823     4797     4691     4621 
    4644     4753     4918     5065     5154     5179     5131     5063 
    5050     5093     5142     5127     5013     4855     4735     4693 
    4720     4765     4776     4737     4658     4600     4608     4639 
    4652     4677     4737     4838     4976     5101     5198     5314 
    5459     5609     5740     5840     5940     6021     5995     5884 
    5768     5660     5582     5543     5490     5412     5314     5188 
    5062     4985     4953     4942     4936     4926     4893     4842 
    4779     4696     4606     4533     4452     4332     4190     4059 
    3971     3935     3917     3915     3958     4069     4238     4407 
    4531     4594     4594     4590     4648     4754     4882     5027 
    5174     5301     5379     5389     5351     5301     5251     5205 
    5161     5112     5076     5077     5112     5146     5154     5150 
    5144     5146     5181     5277     5451     5706     6006     6308 
    6597     6853     7071     7257     7399     7480     7469     7348 
    7168     6990     6835     6705     6582     6427     6228     5989 
    5721     5464     5242     5050     4923     4869     4861     4904 
    4974     5039     5077     5062     4982     4834     4627     4437 
    4307     4228     4215     4276     4395     4590     4824     5009 
    5093     5073     4963     4819     4706     4652     4657     4747 
    4918     5093     5212     5302     5391     5470     5535     5594 
    5678     5807     5948     6048     6056     5961     5842     5745 
    5648     5540     5409     5273     5169     5082     5003     4915 
    4758     4552     4367     4199     4025     3838     3624     3419 
    3267     3177     3200     3354     3591     3905     4288     4668 
    5023     5346     5617     5860     6058     6188     6301     6392 
    6440     6513     6619     6697     6714     6627     6426     6147 
    5811     5472     5201     4996     4854     4791     4824     5011 
    5327     5655     5945     6156     6232     6230     6204     6162 
    6154     6180     6157     6091     6006     5872     5715     5543 
    5309     5051     4818     4619     4529     4568     4646     4708 
    4769     4838     4947     5084     5188     5267     5354     5435 
    5498     5529     5516     5468     5381     5233     5067     4928 
    4814     4700     4544     4306     4028     3778     3568     3407 
    3342     3369     3456     3566     3640     3663     3674     3708 
    3790     3917     4064     4260     4552     4916     5319     5726 
    6091     6427     6766     7052     7254     7406     7487     7468 
    7354     7156     6918     6679     6423     6169     5973     5850 
    5854     6004     6201     6405     6602     6735     6820     6878 
    6879     6871     6879     6832     6739     6656     6569     6473 
    6338     6137     5917     5727     5537     5321     5070     4774 
    4450     4105     3735     3407     3196     3119     3194     3406 
    3670     3965     4268     4537     4814     5109     5374     5630 
    5886     6075     6207     6303     6316     6254     6160     6027 
    5852     5633     5354     5034     4699     4334     3983     3711 
    3504     3345     3234     3140     3051     2988     2934     2906 
    2951     3044     3150     3273     3365     3372     3283     3107 
    2876     2641     2416     2185     1968     1795     1668     1574 
    1499     1452     1466     1544     1637     1717     1792     1898 
    2085     2381     2768     3210     3673     4114     4507     4876 
    5238     5568     5883     6200     6504     6794     7049     7225 
    7334     7365     7292     7171     7021     6789     6471     6107 
    5725     5406     5227     5164     5202     5360     5594     5825 
    5999     6096     6165     6269     6351     6339     6232     6038 
    5773     5493     5212     4904     4540     4112     3642     3161 
    2697     2257     1830     1437     1139      962      893      911 
     999     1178     1460     1803     2181     2617     3127     3719 
    4395     5130     5884     6623     7302     7909     8457     8934 
    9325     9641     9872     9998    10022     9953     9817     9624 
    9355     9031     8683     8307     7901     7476     7030     6600 
    6208     5852     5533     5250     4997     4779     4564     4306 
    4025     3761     3522     3299     3064     2791     2505     2232 
    1975     1738     1547     1425     1389     1414     1490     1637 
    1849     2081     2317     2562     2835     3175     3599     4101 
    4683     5297     5927     6600     7276     7931     8595     9231 
    9798    10295    10710    11047    11329    11543    11676    11736 
   11732    11649    11465    11190    10813    10328     9811     9310 
    8819     8361     7956     7568     7173     6812     6513     6277 
    6085     5902     5687     5468     5290     5144     5022     4914 
    4807     4715     4644     4550     4406     4209     3969     3708 
    3440     3180     2940     2731     2575     2457     2324     2176 
    2042     1954     1937     2019     2215     2485     2787     3118 
    3450     3757     4031     4256     4429     4544     4619     4681 
    4702     4680     4641     4550     4396     4200     3948     3682 
    3466     3292     3159     3080     3024     2992     3065     3269 
    3547     3877     4276     4748     5296     5891     6490     7064 
    7570     7956     8177     8229     8182     8089     7954     7831 
    7715     7553     7396     7292     7230     7219     7223     7160 
    7044     6909     6768     6660     6590     6534     6493     6460 
    6415     6376     6349     6278     6145     5975     5760     5493 
    5154     4708     4145     3472     2683     1790      830     -122 
   -1024    -1849    -2594    -3300    -3981    -4606    -5182    -5714 
   -6170    -6544    -6859    -7109    -7287    -7389    -7406    -7337 
   -7227    -7094    -6944    -6798    -6656    -6504    -6327    -6097 
   -5787    -5390    -4911    -4336    -3678    -2959    -2151    -1275 
    -370      602     1651     2752     3924     5144     6365     7570 
    8746     9887    10990    12063    13136    14161    15082    15934 
   16711    17346    17842    18237    18563    18891    19226    19512 
   19735    19901    20009    20061    20039    19900    19649    19302 
   18816    18171    17404    16522    15558    14577    13608    12660 
   11727    10814     9965     9174     8403     7652     6901     6150 
    5443     4772     4128     3547     3044     2617     2282     2049 
    1899     1755     1560     1337     1102      874      700      598 
     579      683      931     1327     1849     2439     3032     3577 
    4050     4445     4807     5200     5617     5985     6297     6596 
    6875     7126     7335     7481     7591     7690     7774     7835 
    7888     7943     8014     8102     8187     8280     8387     8502 
    8599     8615     8533     8421     8305     8139     7911     7616 
    7284     6944     6571     6157     5733     5314     4903     4480 
    4048     3658     3341     3098     2944     2886     2915     3029 
    3159     3250     3315     3360     3388     3391     3316     3173 
    3032     2925     2859     2837     2843     2856     2852     2832 
    2836     2862     2895     2975     3084     3161     3238     3302 
    3235     3030     2710     2263     1740     1178      607       89 
    -367     -741    -1020    -1270    -1528    -1742    -1899    -2029 
   -2115    -2139    -2076    -1880    -1563    -1152     -634       16 
     804     1690     2619     3572     4523     5440     6323     7182 
    8014     8806     9521    10115    10555    10871    11074    11111 
   10979    10689    10255     9736     9178     8572     7960     7393 
    6866     6403     6049     5838     5803     5923     6158     6465 
    6794     7119     7456     7769     8051     8286     8413     8403 
    8286     8071     7773     7392     6930     6434     5962     5540 
    5173     4869     4611     4380     4183     4039     3996     4041 
    4117     4230     4386     4545     4726     4928     5092     5194 
    5240     5209     5108     4947     4692     4327     3870     3327 
    2705     2058     1440      873      380      -36     -346     -500 
    -521     -422     -180      166      592     1092     1638     2247 
    2909     3558     4175     4747     5247     5674     6034     6326 
    6558     6727     6814     6829     6779     6650     6431     6139 
    5790     5432     5130     4903     4766     4743     4807     4897 
    4989     5078     5147     5190     5235     5339     5536     5818 
    6156     6538     6980     7454     7865     8179     8418     8576 
    8630     8573     8387     8077     7657     7137     6519     5806 
    5027     4220     3402     2584     1777      976      218     -425 
    -934    -1317    -1549    -1641    -1669    -1641    -1462    -1104 
    -622      -47      584     1225     1867     2508     3133     3716 
    4225     4603     4816     4897     4915     4907     4868     4796 
    4703     4611     4556     4507     4442     4441     4538     4680 
    4850     5022     5147     5250     5343     5401     5431     5448 
    5439     5337     5062     4617     4067     3440     2754     2029 
    1285      614      109     -238     -440     -479     -390     -172 
     216      765     1431     2195     3076     4050     5038     6015 
    6990     7890     8629     9202     9636     9933    10107    10134 
    9957     9594     9146     8680     8218     7807     7466     7211 
    7052     6972     6967     7002     6990     6916     6760     6448 
    5949     5296     4517     3624     2636     1613      630     -318 
   -1230    -2037    -2702    -3204    -3487    -3507    -3237    -2686 
   -1965    -1162     -282      638     1533     2397     3183     3800 
    4260     4604     4797     4784     4580     4245     3789     3196 
    2501     1783     1165      722      436      310      379      604 
     927     1331     1769     2199     2592     2906     3153     3379 
    3563     3690     3775     3815     3820     3809     3781     3731 
    3666     3611     3588     3573     3515     3415     3295     3132 
    2934     2766     2614     2461     2369     2373     2428     2513 
    2623     2766     2979     3295     3666     4021     4359     4677 
    4961     5205     5425     5617     5787     5995     6274     6628 
    7076     7588     8085     8526     8860     9059     9186     9301 
    9420     9536     9629     9702     9811    10004    10263    10566 
   10870    11094    11210    11264    11284    11307    11356    11383 
   11373    11341    11246    11049    10760    10382     9876     9225 
    8433     7488     6454     5436     4437     3431     2434     1425 
     376     -683    -1709    -2679    -3535    -4212    -4681    -4939 
   -4989    -4845    -4495    -3947    -3287    -2582    -1849    -1140 
    -475      178      797     1359     1876     2340     2774     3242 
    3732     4217     4752     5375     6073     6844     7715     8695 
    9721    10697    11572    12310    12900    13350    13636    13748 
   13729    13630    13463    13236    12987    12733    12455    12124 
   11711    11211    10654    10042     9390     8742     8128     7566 
    7056     6578     6123     5665     5157     4606     4035     3458 
    2894     2311     1677      980      157     -796    -1826    -2889 
   -3942    -4912    -5730    -6350    -6751    -6934    -6939    -6843 
   -6673    -6384    -5961    -5451    -4858    -4163    -3404    -2610 
   -1784     -985     -280      336      855     1259     1582     1867 
    2142     2407     2625     2797     2975     3169     3335     3489 
    3700     3959     4251     4627     5081     5566     6097     6671 
    7249     7836     8437     9066     9751    10466    11155    11786 
   12334    12768    13073    13252    13300    13252    13163    13038 
   12869    12636    12259    11705    10996    10119     9117     8077 
    7047     6119     5406     4909     4602     4473     4452     4456 
