Origin Time       2016/04/16 01:25:00
Lat.              32.753
Long.             130.762
Depth. (km)       12
Mag.              7.3
Station Code      EHM014
Station Lat.      32.9453
Station Long.     132.5047
Station Height(m) 1
Record Time       2016/04/16 01:25:35
Sampling Freq(Hz) 100Hz
Duration Time(s)  108
Dir.              E-W
Scale Factor      7845(gal)/8223790
Max. Acc. (gal)   16.923
Last Correction   2016/04/16 01:25:35
Memo.             
[...]
    5256     3736     1781      109     -955    -1942    -2046     -361 
    1425     1493      946     1676     3339     4379     4591     4789 
    5352     6297     7083     6937     5967     4726     3984     4541 
    5842     6409     5836     4860     3634     1449    -1031    -2011 
   -2092    -2721    -2116     1533     5853     7335     5485     2123 
    -382      -41     2890     6231     8770    10593    11769    11844 
    9979     6438     3461     2824     3676     4275     4488     5370 
    7029     7892     6523     3565      832     -684     -346     2223 
    5225     6528     6566     6292     5618     4707     4313     4745 
    4814     3581     2509     3040     4382     4939     3754     1679 
    1074     2631     4332     4102     2042      831     2934     6629 
    8203     7275     6259     6183     5710     4176     3299     4719 
    7283     7956     5864     3272     2023     2690     5583     8989 
    9639     7678     7333     9067     8024     3608      388      186 
    1541     3242     5335     7501     7878     6741     7272     9343 
    9117     6135     4210     5111     6759     7727     9074    11230 
   12301    10918     8638     7287     6384     5312     4826     5228 
    5227     3484     1188      789     1771     1906     1898     3746 
    6782     8947     8978     6883     4564     3975     4665     5279 
    5552     5630     5506     5391     5522     6002     6845     7541 
    7603     7318     6644     5125     3731     3831     4407     4128 
    4266     5516     5931     4591     3299     3705     4753     4531 
    3954     5143     7264     8124     7518     6451     5702     5753 
    6781     8144     8414     7315     6164     5333     4348     3821 
    3892     3325     2652     4228     7785     9964     9101     7191 
    6458     6774     7059     7182     7611     7879     7364     7072 
    7607     7628     6513     5358     5250     6106     6621     6068 
    5390     4934     3778     2359     2502     4639     6902     7437 
    6960     7002     6990     6290     6052     6490     6494     6145 
    6115     6531     7732     9239     9262     7543     5872     5283 
    5248     4994     4746     5317     5942     5151     3866     3580 
    3303     2301     2057     3013     3832     3998     4178     5634 
    8928    11914    11770     8748     5248     2905     2371     3823 
    6453     8631     8896     7680     7269     7441     5394     1929 
     564     1617     2612     2515     3095     5427     6791     5278 
    4102     5498     6633     6444     7013     7704     6983     5597 
    4720     5169     6146     5701     4757     5964     8961    10696 
    9155     5491     2451     1375     1859     2871     3451     3338 
    2803     2397     2538     3153     4388     5967     6880     7485 
    8428     8477     7429     7165     7860     8382     9088    10139 
   10470     9647     8235     7003     5914     4332     2870     2578 
    3250     4132     4192     3073     2880     5445     8417     8638 
    7269     6770     6928     6959     6604     5607     4973     5938 
    7990     9783    10278     8908     6203     3743     2586     2106 
    1378      989     1710     2917     3865     4205     3403     1876 
    1351     2700     4464     4793     4163     4238     4851     4622 
    3442     2485     3136     6069     9626    10790     9416     8081 
    7427     6042     4129     3416     3785     3393     2423     2718 
    3801     3981     3643     3497     3071     2687     3419     4865 
    5460     5277     5632     5888     5232     5335     6711     7299 
    6502     5611     5086     4646     4506     4509     3310     1096 
     751     2957     4504     3690     2363     2207     2666     2594 
    2447     3142     3744     3653     4568     7183     9269     8804 
    6951     6186     6079     4668     3019     3358     4999     6037 
    6529     7009     5919     2546      114     1447     4801     6706 
    6148     5323     6313     7454     6474     4943     4603     4627 
    5204     6804     7604     6708     5714     5748     5676     4009 
    2234     2662     4090     4625     4270     2759      797      826 
    2751     3716     2358      -41    -1039      432     2682     4047 
    4595     4772     5138     5613     5355     4861     4939     4568 
    3044     1881     2751     5082     6531     6069     5193     4630 
    3546     2745     3326     3750     2658     1317     1230     2100 
    2965     3689     4286     4105     2943     1818     1722     2536 
    3304     3163     2882     4384     7045     7730     5940     4175 
    3384     2870     3042     4797     7562     9139     7886     5144 
    3511     3350     3440     3653     4725     5933     5802     4936 
    4748     4766     3890     2551     2205     3156     4294     4970 
    4996     4148     3125     2960     3789     5159     6856     8657 
    9684     9246     7680     5989     5248     5374     5421     5699 
    6426     6043     4360     3381     3627     3550     2349     1089 
    1125     2497     4101     5115     5644     5760     5406     4996 
    4617     3842     3040     3159     3782     3381     2093     1711 
    2316     2415     2388     3528     4912     5185     5093     5525 
    5671     4953     4449     4552     3689     1595      246      508 
    1677     2768     3231     4220     6705     9022     9123     7439 
    5964     5505     5262     5015     5732     7188     7076     4718 
    2961     3140     3088     2609     3415     4857     5717     5837 
    5267     4872     4768     3728     2327     2625     4526     5632 
    4691     3095     2542     2836     2740     2359     3159     5030 
    5968     5603     5583     6204     6460     6376     6349     6228 
    5840     5143     4390     3732     3308     3982     5752     6879 
    6763     7071     8527     9381     8105     5782     4534     4378 
    4013     4036     5254     5999     5247     4496     4423     4120 
    3808     4729     6673     7754     6720     4781     4010     4315 
    4275     4148     5360     7699     9126     8237     5845     3870 
    2986     2754     3551     5197     5864     5364     5167     5042 
    4094     3102     3530     5190     5823     4677     4220     5589 
    6571     5984     5192     5119     5517     6471     8194     9587 
    9067     7123     5940     6126     5991     4487     2736     2085 
    2389     2641     2546     2898     4363     6311     6924     5224 
    2887     2455     4135     5972     6748     6990     6990     6161 
    5017     5116     6110     5868     4429     4122     4795     3892 
    1749      900     1327     1840     3073     5313     6766     6219 
    5059     5023     5574     5394     4843     4833     5294     5965 
    6339     5563     4429     4785     6169     6536     5727     5190 
    5583     6353     6675     6401     6035     5537     4167     2349 
    1992     3649     5671     7164     8660     9863     9620     8172 
    7512     8299     8506     6852     4931     4557     5250     5798 
    6376     6826     5987     4256     3156     3231     3984     4750 
    5879     7322     7184     5414     4838     6178     7322     7056 
    6025     5104     4460     4280     4828     5427     5613     5842 
    5798     5158     5008     5634     5736     4926     4058     3642 
    3549     3276     2624     2174     1934     1378     1637     4016 
    6817     7684     6990     6419     6856     8024     8837     8830 
    8365     7410     5891     4248     2732     1325      410      398 
    1282     3134     5283     6084     5701     6019     6894     6643 
    5359     4288     3894     3998     4270     4671     5216     5205 
    4446     4139     4838     5474     5112     4338     4317     4984 
    5196     4457     3415     2929     3119     3481     3839     4223 
    4255     3901     3917     4715     5497     5213     4348     4320 
    5294     6482     7339     7506     7248     7111     6914     6502 
    5689     3776     1371      364     1354     3315     5011     5853 
    5967     5555     5166     6000     7886     8546     6797     4596 
    4200     4738     4305     3848     4988     6488     6509     5694 
    5919     7144     7226     5454     3639     3122     3640     4758 
    5864     5908     4818     3929     4617     6959     9427    10646 
   10735     9811     7807     5481     3813     3781     5483     7038 
    6822     5626     5152     5605     5740     5044     4423     4581 
    5174     5965     6925     7096     5694     3603     2262     2153 
    3165     5107     6971     7527     6993     6520     6625     6525 
    5067     2957     2236     3276     4787     5733     5876     5459 
    4510     3019     1771     1800     3105     4476     4896     4698 
    4491     3993     3204     3094     4301     6779    10006    12182 
   11560     9069     7005     6216     6168     5884     5105     4746 
    4810     4170     3146     3006     3582     3858     3970     4737 
    5711     5783     5314     5686     6876     7388     6655     5746 
    5687     6340     6952     6972     6443     6172     6505     6358 
    5150     3924     3595     4040     4430     4104     3642     3696 
    3759     3457     3184     3179     3249     3187     2952     2905 
    3910     5908     7254     7375     7749     8947     9440     8163 
    6455     6088     6231     4893     2438      770      746     2031 
    3508     3958     3615     3823     4923     5436     4083     2373 
    2759     4823     6255     6168     5486     5548     6590     7639 
    8232     8543     8297     7821     8154     8553     7140     4218 
    2016     1759     2666     3173     2795     2289     2107     2447 
    3704     5111     5060     3689     2822     3208     3824     3885 
    4278     6203     8829    10431    10652     9551     7420     5683 
    4881     4191     3894     4770     5923     5850     4288     2371 
    1710     2770     4386     5201     4950     4383     4324     4699 
    4557     3505     2486     2646     3970     4873     4140     3630 
    5926     9494    10192     7183     3905     3312     4627     5837 
    6912     8260     9081     8887     7799     5689     2693      -49 
    -897      341     1605     1190       65     -112      153     -352 
    -708      851     3591     5070     5219     6050     7940     9760 
   10332     8795     6336     5142     5296     5659     5779     5876 
    6566     7870     8148     6119     3658     3231     4044     4391 
    4610     5092     5063     4644     5475     7766     9090     8306 
    7045     6135     5027     4045     3942     4776     5745     5597 
    4828     5463     7538     9248     9201     7075     4407     3109 
    3198     3753     3543     1859      529     1651     4585     7488 
    8644     7300     5366     5125     5864     5719     4864     4752 
    5360     5026     3150     1287      730      826      700      731 
    1431     2713     4248     5435     5949     6145     6356     6616 
    6831     7191     8326    10185    11502    11163     9497     7662 
    5859     3445     1139     1058     3585     5836     4837     1344 
   -1584    -2776    -2775    -1192     2170     5910     8923    10989 
   11706    10744     8303     5377     3622     3673     4488     5965 
    9244    13068    14288    12455     9605     6817     4795     4348 
    4553     4762     5599     6281     5532     3123     -249    -2315 
    -924     3295     7414     8919     7839     6000     5395     6998 
    9560    10382     8253     4978     2824     1451     -483    -2242 
   -2007      638     4927     9254    10687     7668     3225     1898 
    3766     4884     3385     1753     3194     8213    13829    15519 
   11477     4634     -532    -2633    -3430    -3712    -2442     -214 
     874      463      318     2828     8483    14334    16660    14189 
    8999     5023     3751     2613       17    -1690     -706     1719 
    4148     5784     5880     4930     4066     3361     2668     2316 
    2224     2357     3311     4700     4954     4311     5027     7501 
    9513     9379     6840     2737      -98      903     4766     8321 
    8989     6525     3811     4040     7272    10890    12278    11260 
    9585     7731     5171     2363     -409    -3161    -4629    -3279 
     688     5524    10000    14145    17209    17901    16791    14993 
   11880     6741     1746     1004     5582    12208    16788    16676 
   11963     5694     1070     -851     -726     -391    -2203    -5647 
   -7375    -6959    -6883    -7271    -5802    -1201     5454    11348 
   13911    13154    10748     8149     6932     7852     9788    11375 
   11993    11257     9574     8464     8760     9845    10933    11142 
   10263     9786    10343    10781    10567     9509     7321     4522 
     969    -3649    -7203    -7025    -3002     2934     7404     7109 
    3694     2281     3955     6486     8688     9624     9197     8883 
    9258    10087    11315    11739    10430     9022     8640     8059 
    7106     6438     4888     2031       27      895     4483     8163 
    8974     6863     3798     1389      980     3100     6021     7489 
    7439     7381     8139     8962     9161     9776    11558    12816 
   11442     6952      772    -3808    -4338    -1570     2050     4059 
    3821     2656      538    -2644    -3813     -136     7402    15828 
   21964    22790    17901    11384     7952     8082     9477    10390 
   10164     9898    10874    11838    11745    11094     8469     2478 
   -4263    -8494    -9850    -9251    -7846    -6536    -3846     2242 
    9482    13776    14419    12420     9140     7020     6744     7326 
    8050     7142     4031     1399      989     1987     3402     4617 
    5248     6016     8698    13194    15533    11990     3812    -4020 
   -7240    -5630    -2840    -2516    -4446    -5748    -4999    -2408 
    1312     4371     6214     8696    11727    12194     9132     5445 
    3971     4619     5120     4001     2263     1878     3580     6010 
    7365     6874     3893    -1651    -7584   -10616    -9163    -3676 
    3848     9728    11940    11944    10458     7150     4652     6794 
   13200    19079    19989    14780     6139     -903    -4927    -8607 
  -11198    -9265    -2624     6305    13196    13416     7716      545 
   -5643    -8762    -7315    -3666      646     6552    10565     8760 
    5722     7241    11003    12270    10669     8502     8927    13066 
   15994    13096     7742     5793     8091    11546    12749     9621 
    3770     1098     4860     9327     8023     3267     -364    -1260 
    1804     6373     6929     3345     1532     4889     9864    12373 
   12583    10613     5815      473    -2199    -1547     1204     4698 
    7650     8563     6933     3630      745     1912     8699    16857 
   19342    14071     7047     4032     3842     4107     5440     7406 
    7339     4261     -110    -4000    -6515    -7836    -8557    -7990 
   -5049      186     5841     8661     7654     5549     4407     3989 
    4614     6875    10153    13937    17421    17423    11668     4554 
    3335     8064    12329    13057    11766     9397     6944     5373 
    2928    -1489    -5004    -3956     2342    10732    15561    14191 
   11286    11599    12636    10976     7950     5773     4287     2353 
     139    -1925    -3740    -3362      642     5779     7870     4949 
    -801    -5205    -6305    -4854    -2431     -390      929     2527 
    4387     4450     3164     3051     3885     6123    11574    16954 
   16649    11121     6447     6147     7272     5860     2643      232 
   -2226    -5541    -6901    -4947    -1067     3152     4668      990 
   -4507    -5623    -2335      711     3087     7067    11048    11639 
    9018     6255     4634     3430     3323     4776     6434     7743 
    8900     9814     9981     7944     3609      156      824     5341 
   10731    13770    12609     8792     6706     8715    12293    13803 
   13506    13386    12537     9529     5736     3028     1379     -477 
   -2597    -2311     2506     9468    13230    11234     5782     -153 
   -3653    -1377     4868     8513     6058      394    -1939     2428 
    9462    11986     7645     1210    -1277     2361     9279    13113 
   10087     3140    -1553     -518     4818     9373     8433     3944 
    2459     4787     6087     4896     4008     4696     4876     4017 
    5202     8359     8779     4650     -342    -1675       32      263 
    -761      526     3462     6919    11394    13911    12120     8505 
    5350     3133     1852      923     1135     3854     7333     8217 
    5526      313    -4780    -5251     -468     4104     5455     5718 
    5692     4241     1568     -819     -820     1745     3761     3678 
    3279     2988     1321    -1583    -3411    -1640     3769     9366 
   11481     9259     4117     -777    -1734     1837     6678     9238 
    8224     5535     4918     6918     8380     7487     4507     1031 
     604     4568     8770     8842     5864     3716     3454     3593 
    3582     4266     6126     7643     6855     4311     1688      399 
    1884     4988     6408     5117     2498     -291    -2895    -4448 
   -3659    -1480     -212      156      369       83      535     3053 
    5424     5665     5325     5875     6671     6164     3848     2201 
    3419     5432     5906     6571     9155    11433    11016     8974 
    7659     7288     5896     2586    -1644    -5478    -6697    -4087 
    -348     1391     1467     2259     4502     5759     4148     1547 
     789     2288     4598     6902     9107    10263     9578     7387 
    4338     1497      183      943     3483     6079     5976     3492 
    1945     1394     -332    -1939    -1189     1548     4477     5528 
    4151     2203     1841     2644     2299     1368     2570     5580 
    7198     5559     2704     1842     3411     6380     9896    12167 
   11851     9844     7215     4575     3007     2069      376     -707 
    1135     5131     8919    11203    11692    10910     9240     7203 
    7005     9316    10982     9668     6602     3928     2903     3348 
    3986     4557     5452     5929     5286     4028     3242     3487 
    3859     3546     3510     3880     3343     3341     5895     8108 
    6879     4897     5543     7480     8228     8236     8865     9238 
    7462     4635     4151     5826     5659     3015     2049     4353 
    6385     5611     3753     2922     2628     1888     1178      946 
    1065     1930     4148     6843     7245     4258      789      383 
    3169     5850     6346     5886     5182     3909     2639     1549 
    1058     2515     4984     6473     8368    11327    11354     6781 
    1422    -1829    -3342    -3899    -3223     -795     2176     3563 
    3507     3705     3776     1813    -1474    -2727     -395     4088 
    8789    12089    12719    10571     6909     3828     2640     2584 
    2652     2860     2822     2106     1578     2184     3217     3234 
    2398     1923     2110     2994     4788     6681     7126     5676 
    4009     4241     5630     5610     4317     3954     5194     7489 
    9971    11263    10720     9207     7708     6484     6096     6728 
