Origin Time       2016/04/16 01:25:00
Lat.              32.753
Long.             130.762
Depth. (km)       12
Mag.              7.3
Station Code      EHM004
Station Lat.      34.0624
Station Long.     132.9982
Station Height(m) 3
Record Time       2016/04/16 01:25:48
Sampling Freq(Hz) 100Hz
Duration Time(s)  135
Dir.              E-W
Scale Factor      7845(gal)/8223790
Max. Acc. (gal)   9.744
Last Correction   2016/04/16 01:25:49
Memo.             
[...]
   -6983    -7094    -7234    -7384    -7546    -7722    -7935    -8187 
   -8447    -8708    -8976    -9236    -9466    -9652    -9788    -9864 
   -9859    -9752    -9559    -9340    -9143    -8999    -8934    -8962 
   -9062    -9170    -9255    -9335    -9400    -9439    -9467    -9513 
   -9595    -9695    -9767    -9796    -9792    -9748    -9636    -9437 
   -9180    -8915    -8646    -8387    -8156    -7928    -7690    -7468 
   -7281    -7134    -7018    -6924    -6835    -6754    -6678    -6602 
   -6548    -6554    -6631    -6779    -6990    -7253    -7569    -7923 
   -8275    -8575    -8792    -8949    -9066    -9103    -9049    -8941 
   -8802    -8649    -8515    -8408    -8324    -8270    -8239    -8199 
   -8125    -8017    -7900    -7801    -7739    -7747    -7863    -8082 
   -8390    -8799    -9298    -9837   -10381   -10894   -11326   -11659 
  -11901   -12052   -12114   -12097   -11979   -11732   -11358   -10906 
  -10442    -9996    -9586    -9243    -8962    -8734    -8568    -8433 
   -8299    -8176    -8055    -7940    -7835    -7696    -7518    -7353 
   -7221    -7127    -7098    -7125    -7173    -7198    -7169    -7094 
   -6984    -6837    -6673    -6515    -6366    -6228    -6102    -5984 
   -5899    -5852    -5811    -5776    -5768    -5783    -5831    -5942 
   -6138    -6403    -6710    -7048    -7381    -7651    -7843    -7996 
   -8137    -8298    -8502    -8750    -9051    -9402    -9763   -10107 
  -10435   -10725   -10953   -11105   -11176   -11219   -11280   -11364 
  -11448   -11508   -11508   -11442   -11326   -11179   -11048   -10963 
  -10901   -10829   -10746   -10655   -10555   -10444   -10339   -10247 
  -10157   -10066    -9964    -9817    -9621    -9394    -9151    -8910 
   -8668    -8424    -8215    -8059    -7923    -7777    -7605    -7418 
   -7246    -7088    -6918    -6771    -6685    -6629    -6581    -6558 
   -6569    -6581    -6558    -6507    -6458    -6455    -6505    -6594 
   -6721    -6889    -7082    -7276    -7472    -7663    -7835    -7992 
   -8143    -8278    -8441    -8683    -8955    -9193    -9379    -9510 
   -9591    -9675    -9788    -9886    -9913    -9877    -9837    -9847 
   -9941   -10108   -10296   -10473   -10625   -10741   -10833   -10922 
  -11028   -11152   -11288   -11406   -11479   -11495   -11431   -11253 
  -10963   -10588   -10166    -9759    -9406    -9109    -8856    -8648 
   -8461    -8239    -7974    -7713    -7470    -7254    -7042    -6793 
   -6529    -6308    -6147    -6048    -6029    -6106    -6254    -6439 
   -6646    -6858    -7071    -7322    -7622    -7927    -8191    -8403 
   -8592    -8775    -8932    -9047    -9137    -9239    -9343    -9410 
   -9439    -9459    -9482    -9497    -9494    -9456    -9429    -9485 
   -9585    -9668    -9755    -9836    -9856    -9790    -9625    -9387 
   -9166    -9032    -8969    -8910    -8806    -8642    -8444    -8224 
   -7983    -7767    -7619    -7510    -7408    -7338    -7325    -7389 
   -7558    -7827    -8139    -8441    -8712    -8964    -9239    -9549 
   -9879   -10222   -10578   -10913   -11165   -11310   -11341   -11283 
  -11192   -11061   -10843   -10551   -10253    -9981    -9738    -9505 
   -9270    -9040    -8834    -8692    -8631    -8634    -8708    -8842 
   -8992    -9132    -9238    -9296    -9321    -9286    -9144    -8916 
   -8662    -8430    -8256    -8154    -8105    -8106    -8144    -8182 
   -8213    -8274    -8370    -8457    -8490    -8469    -8428    -8424 
   -8490    -8612    -8764    -8927    -9059    -9116    -9097    -9045 
   -8976    -8935    -8996    -9165    -9429    -9774   -10106   -10343 
  -10477   -10512   -10451   -10334   -10216   -10135   -10102   -10119 
  -10168   -10200   -10189   -10172   -10192   -10250   -10296   -10326 
  -10358   -10390   -10395   -10376   -10374   -10424   -10507   -10527 
  -10397   -10111    -9707    -9216    -8681    -8203    -7855    -7634 
   -7506    -7454    -7461    -7503    -7553    -7568    -7551    -7542 
   -7520    -7437    -7285    -7098    -6919    -6822    -6851    -7017 
   -7263    -7524    -7825    -8170    -8483    -8746    -8984    -9163 
   -9252    -9266    -9240    -9234    -9246    -9219    -9100    -8915 
   -8730    -8591    -8505    -8454    -8406    -8316    -8229    -8226 
   -8295    -8404    -8571    -8773    -8959    -9099    -9147    -9123 
   -9099    -9097    -9101    -9099    -9066    -9000    -8945    -8914 
   -8878    -8827    -8784    -8772    -8781    -8785    -8770    -8725 
   -8642    -8557    -8502    -8449    -8380    -8307    -8236    -8162 
   -8077    -7986    -7928    -7962    -8111    -8352    -8625    -8862 
   -9018    -9058    -8984    -8839    -8700    -8619    -8581    -8522 
   -8397    -8230    -8052    -7882    -7758    -7696    -7700    -7773 
   -7882    -8005    -8139    -8284    -8426    -8552    -8662    -8800 
   -8957    -9036    -9032    -8989    -8904    -8830    -8860    -8968 
   -9121    -9335    -9549    -9705    -9799    -9832    -9814    -9792 
   -9751    -9637    -9463    -9262    -9051    -8861    -8725    -8668 
   -8711    -8807    -8863    -8830    -8695    -8494    -8317    -8206 
   -8172    -8215    -8328    -8483    -8645    -8811    -8993    -9174 
   -9317    -9406    -9464    -9520    -9582    -9644    -9671    -9637 
   -9526    -9315    -8999    -8603    -8182    -7816    -7512    -7231 
   -7009    -6913    -6959    -7106    -7294    -7489    -7685    -7850 
   -7939    -7974    -8006    -8077    -8201    -8367    -8565    -8765 
   -8884    -8888    -8816    -8708    -8596    -8553    -8630    -8808 
   -9016    -9186    -9302    -9359    -9322    -9190    -8992    -8797 
   -8677    -8646    -8721    -8942    -9283    -9634    -9926   -10108 
  -10143   -10072    -9961    -9792    -9556    -9333    -9151    -8959 
   -8743    -8515    -8294    -8116    -7992    -7900    -7803    -7684 
   -7553    -7406    -7261    -7165    -7109    -7052    -7033    -7071 
   -7149    -7285    -7465    -7657    -7878    -8121    -8352    -8552 
   -8688    -8739    -8711    -8586    -8398    -8198    -7960    -7684 
   -7439    -7248    -7121    -7101    -7203    -7411    -7689    -7969 
   -8230    -8513    -8856    -9270    -9697   -10095   -10474   -10804 
  -11034   -11171   -11191   -11087   -10929   -10754   -10547   -10345 
  -10173   -10027    -9891    -9721    -9482    -9202    -8922    -8664 
   -8434    -8248    -8133    -8094    -8109    -8160    -8236    -8290 
   -8290    -8232    -8122    -7977    -7830    -7701    -7601    -7539 
   -7514    -7526    -7572    -7626    -7676    -7738    -7824    -7933 
   -8035    -8111    -8189    -8263    -8298    -8280    -8244    -8248 
   -8302    -8375    -8463    -8603    -8783    -8950    -9088    -9201 
   -9293    -9370    -9445    -9549    -9691    -9828    -9895    -9880 
   -9799    -9651    -9429    -9161    -8878    -8612    -8367    -8149 
   -7985    -7854    -7717    -7601    -7533    -7489    -7503    -7622 
   -7835    -8108    -8410    -8675    -8858    -8957    -8972    -8939 
   -8919    -8910    -8896    -8903    -8927    -8954    -8959    -8946 
   -8953    -8997    -9054    -9113    -9177    -9231    -9278    -9310 
   -9315    -9306    -9301    -9315    -9388    -9525    -9684    -9845 
   -9994   -10131   -10262   -10342   -10357   -10378   -10449   -10551 
  -10639   -10646   -10552   -10374   -10099    -9745    -9410    -9137 
   -8928    -8791    -8710    -8669    -8671    -8671    -8646    -8625 
   -8622    -8680    -8845    -9086    -9373    -9687    -9952   -10103 
  -10157   -10137   -10071   -10000    -9907    -9771    -9629    -9478 
   -9316    -9208    -9158    -9104    -9032    -8957    -8881    -8842 
   -8858    -8923    -9032    -9167    -9304    -9437    -9555    -9666 
   -9799    -9937   -10044   -10114   -10164   -10204   -10249   -10292 
  -10326   -10372   -10431   -10451   -10385   -10250   -10084    -9879 
   -9612    -9298    -8977    -8707    -8515    -8368    -8248    -8159 
   -8091    -8035    -8007    -8017    -8020    -8001    -7990    -8004 
   -8032    -8054    -8054    -8012    -7896    -7722    -7535    -7358 
   -7227    -7153    -7080    -6990    -6929    -6906    -6919    -7006 
   -7130    -7203    -7192    -7084    -6889    -6643    -6366    -6079 
   -5836    -5648    -5498    -5383    -5300    -5243    -5200    -5131 
   -5036    -4962    -4916    -4895    -4923    -4969    -4961    -4893 
   -4785    -4641    -4480    -4327    -4197    -4117    -4104    -4166 
   -4299    -4492    -4758    -5113    -5517    -5922    -6301    -6625 
   -6899    -7159    -7429    -7711    -7985    -8218    -8397    -8520 
   -8594    -8637    -8664    -8662    -8614    -8506    -8357    -8232 
   -8187    -8253    -8447    -8749    -9103    -9463    -9799   -10100 
  -10392   -10682   -10957   -11219   -11469   -11719   -12000   -12321 
  -12665   -13030   -13423   -13824   -14187   -14486   -14740   -14990 
  -15255   -15522   -15778   -15992   -16131   -16208   -16231   -16201 
  -16143   -16077   -16020   -15993   -15979   -15965   -15971   -15992 
  -15974   -15873   -15685   -15437   -15121   -14717   -14243   -13705 
  -13088   -12405   -11639   -10802    -9987    -9232    -8494    -7744 
   -6990    -6254    -5576    -4955    -4344    -3748    -3200    -2678 
   -2162    -1674    -1201     -727     -282      110      445      714 
     892      950      890      746      544      305       28     -322 
    -750    -1250    -1854    -2567    -3352    -4185    -5047    -5917 
   -6766    -7541    -8232    -8880    -9508   -10133   -10790   -11488 
  -12210   -12961   -13699   -14351   -14904   -15375   -15801   -16233 
  -16653   -17032   -17375   -17641   -17793   -17814   -17655   -17316 
  -16857   -16328   -15736   -15101   -14466   -13861   -13275   -12698 
  -12163   -11673   -11178   -10660   -10110    -9497    -8854    -8205 
   -7535    -6876    -6249    -5617    -5012    -4491    -4041    -3651 
   -3342    -3113    -2963    -2874    -2795    -2697    -2577    -2412 
   -2191    -1912    -1591    -1235     -846     -456      -90      244 
     506      661      706      626      425      141     -199     -569 
    -938    -1327    -1742    -2149    -2552    -2947    -3287    -3599 
   -3935    -4275    -4615    -4986    -5373    -5772    -6227    -6724 
   -7225    -7742    -8286    -8850    -9420    -9998   -10621   -11291 
  -11966   -12627   -13271   -13896   -14505   -15074   -15593   -16058 
  -16448   -16750   -16957   -17041   -17008   -16899   -16722   -16476 
  -16194   -15876   -15487   -15047   -14565   -14037   -13518   -13003 
  -12425   -11838   -11300   -10802   -10374   -10017    -9672    -9332 
   -9005    -8680    -8382    -8137    -7955    -7857    -7850    -7920 
   -8024    -8113    -8177    -8203    -8170    -8108    -8031    -7936 
   -7852    -7805    -7803    -7852    -7950    -8077    -8225    -8398 
   -8583    -8768    -8966    -9159    -9382    -9703   -10092   -10481 
  -10875   -11291   -11743   -12256   -12799   -13309   -13779   -14206 
  -14578   -14931   -15244   -15465   -15615   -15720   -15796   -15870 
  -15928   -15954   -15984   -16043   -16141   -16291   -16468   -16649 
  -16826   -16955   -16972   -16852   -16602   -16258   -15826   -15309 
  -14714   -14047   -13336   -12653   -11993   -11322   -10693   -10114 
   -9521    -8895    -8235    -7534    -6820    -6131    -5498    -4911 
   -4336    -3794    -3303    -2786    -2224    -1682    -1173     -714 
    -318       39      346      571      710      756      731      684 
     616      530      454      386      297      167      -43     -336 
    -666    -1050    -1493    -1935    -2351    -2729    -3046    -3323 
   -3582    -3808    -4021    -4263    -4518    -4739    -4920    -5070 
   -5205    -5328    -5436    -5541    -5641    -5709    -5775    -5907 
   -6141    -6485    -6952    -7508    -8118    -8803    -9558   -10338 
  -11125   -11917   -12668   -13358   -14004   -14605   -15125   -15543 
  -15858   -16046   -16098   -16079   -16028   -15943   -15830   -15664 
  -15404   -15047   -14602   -14057   -13393   -12636   -11807   -10935 
  -10099    -9358    -8708    -8164    -7738    -7378    -7036    -6698 
   -6366    -6054    -5830    -5734    -5726    -5767    -5849    -5946 
   -6022    -6064    -6089    -6115    -6153    -6235    -6384    -6598 
   -6902    -7285    -7708    -8164    -8626    -9009    -9292    -9499 
   -9652    -9775    -9888    -9992   -10099   -10189   -10234   -10233 
  -10220   -10207   -10173   -10111   -10054   -10058   -10123   -10185 
  -10204   -10177   -10093    -9956    -9811    -9698    -9664    -9790 
  -10088   -10520   -11082   -11769   -12536   -13331   -14102   -14790 
  -15369   -15803   -16028   -16032   -15855   -15507   -14976   -14285 
  -13460   -12517   -11481   -10376    -9196    -7967    -6760    -5633 
   -4585    -3631    -2806    -2091    -1464     -940     -511     -191 
      -5       52      -18     -218     -475     -753    -1085    -1435 
   -1740    -1985    -2155    -2249    -2304    -2357    -2470    -2727 
   -3153    -3730    -4444    -5281    -6214    -7190    -8144    -9032 
   -9822   -10477   -10955   -11222   -11264   -11107   -10766   -10243 
   -9580    -8854    -8094    -7302    -6498    -5706    -4950    -4271 
   -3707    -3252    -2891    -2628    -2500    -2555    -2808    -3244 
   -3869    -4684    -5675    -6806    -8032    -9302   -10559   -11765 
  -12918   -14004   -15006   -15938   -16794   -17558   -18218   -18704 
  -18916   -18867   -18598   -18106   -17397   -16464   -15340   -14138 
  -12953   -11766   -10585    -9479    -8506    -7666    -6974    -6478 
   -6146    -5923    -5838    -5902    -6093    -6423    -6901    -7480 
   -8078    -8642    -9130    -9529    -9863   -10106   -10211   -10180 
  -10039    -9801    -9462    -9040    -8588    -8158    -7765    -7411 
   -7105    -6844    -6637    -6523    -6494    -6509    -6531    -6525 
   -6474    -6382    -6249    -6095    -5934    -5744    -5510    -5250 
   -4978    -4710    -4453    -4171    -3875    -3627    -3430    -3262 
   -3123    -3036    -3009    -3013    -3010    -3014    -3053    -3172 
   -3426    -3842    -4463    -5358    -6478    -7697    -8928   -10123 
  -11280   -12421   -13532   -14604   -15638   -16598   -17431   -18061 
  -18422   -18489   -18245   -17672   -16812   -15763   -14655   -13616 
  -12700   -11897   -11195   -10594   -10050    -9513    -8964    -8378 
   -7747    -7083    -6386    -5688    -5050    -4529    -4158    -3915 
   -3736    -3577    -3447    -3407    -3478    -3603    -3750    -3981 
   -4322    -4706    -5089    -5481    -5906    -6369    -6831    -7252 
   -7624    -7931    -8166    -8352    -8526    -8715    -8938    -9220 
   -9548    -9850   -10068   -10160   -10106    -9902    -9541    -9069 
   -8569    -8102    -7723    -7487    -7414    -7501    -7700    -7940 
   -8198    -8477    -8758    -8995    -9159    -9266    -9344    -9383 
   -9355    -9289    -9184    -8993    -8764    -8572    -8418    -8289 
   -8203    -8182    -8215    -8281    -8348    -8401    -8453    -8537 
   -8654    -8776    -8872    -8907    -8851    -8714    -8494    -8182 
   -7817    -7427    -7033    -6667    -6328    -6006    -5684    -5321 
   -4915    -4523    -4200    -3974    -3885    -3979    -4284    -4796 
   -5443    -6135    -6835    -7514    -8124    -8669    -9193    -9707 
  -10238   -10829   -11466   -12097   -12658   -13090   -13394   -13598 
  -13737   -13833   -13878   -13859   -13768   -13601   -13374   -13101 
  -12772   -12395   -11959   -11443   -10874   -10277    -9653    -9023 
   -8411    -7851    -7414    -7134    -6978    -6956    -7094    -7373 
   -7781    -8291    -8843    -9377    -9840   -10199   -10467   -10656 
  -10760   -10818   -10854   -10835   -10775   -10694   -10585   -10435 
  -10223    -9933    -9566    -9120    -8596    -8007    -7406    -6872 
   -6427    -6076    -5845    -5717    -5675    -5764    -5992    -6282 
   -6577    -6891    -7175    -7329    -7362    -7315    -7155    -6883 
   -6558    -6211    -5875    -5598    -5371    -5166    -4981    -4789 
   -4545    -4261    -3963    -3663    -3415    -3256    -3191    -3256 
   -3470    -3800    -4195    -4635    -5096    -5579    -6135    -6782 
   -7519    -8371    -9335   -10323   -11286   -12220   -13092   -13846 
  -14440   -14886   -15223   -15433   -15472   -15364   -15117   -14697 
  -14134   -13474   -12708   -11871   -11036   -10230    -9494    -8878 
   -8379    -7987    -7747    -7654    -7666    -7789    -8020    -8302 
   -8619    -8946    -9235    -9489    -9679    -9753    -9737    -9656 
   -9486    -9252    -8970    -8611    -8198    -7773    -7323    -6836 
   -6358    -5927    -5549    -5298    -5208    -5215    -5313    -5532 
   -5793    -6080    -6432    -6806    -7188    -7614    -8016    -8347 
   -8680    -9009    -9288    -9547    -9801   -10022   -10235   -10503 
  -10852   -11299   -11840   -12421   -12989   -13521   -13961   -14237 
  -14330   -14237   -13940   -13505   -13022   -12528   -12059   -11596 
  -11090   -10534    -9883    -9074    -8148    -7160    -6147    -5209 
   -4448    -3885    -3532    -3410    -3469    -3670    -3993    -4371 
   -4739    -5088    -5375    -5552    -5651    -5736    -5829    -5984 
   -6254    -6600    -6964    -7387    -7912    -8479    -9034    -9599 
  -10149   -10660   -11176   -11657   -12040   -12345   -12550   -12614 
  -12579   -12439   -12141   -11731   -11272   -10712   -10046    -9351 
   -8618    -7834    -7017    -6162    -5316    -4561    -3921    -3411 
   -3102    -3015    -3115    -3404    -3839    -4349    -4932    -5545 
   -6099    -6558    -6919    -7142    -7192    -7101    -6870    -6470 
   -5965    -5452    -4947    -4482    -4118    -3852    -3684    -3632 
   -3653    -3719    -3851    -4045    -4298    -4649    -5085    -5557 
   -6091    -6681    -7223    -7669    -8019    -8233    -8340    -8441 
   -8564    -8716    -8928    -9139    -9288    -9410    -9508    -9545 
   -9541    -9520    -9493    -9513    -9603    -9728    -9888   -10088 
  -10282   -10442   -10593   -10727   -10843   -10998   -11198   -11398 
  -11646   -11979   -12353   -12806   -13356   -13856   -14246   -14592 
  -14821   -14855   -14755   -14504   -14049   -13501   -12969   -12478 
  -12082   -11811   -11626   -11527   -11492   -11415   -11271   -11101 
  -10874   -10578   -10281    -9995    -9722    -9526    -9401    -9297 
   -9229    -9202    -9163    -9108    -9062    -9016    -8985    -9000 
   -9043    -9135    -9346    -9674   -10100   -10628   -11221   -11832 
  -12447   -13024   -13518   -13925   -14247   -14477   -14625   -14685 
  -14629   -14485   -14280   -14008   -13699   -13386   -13039   -12649 
  -12212   -11670   -11037   -10349    -9582    -8756    -7913    -7048 
   -6201    -5433    -4741    -4140    -3655    -3249    -2901    -2624 
   -2420    -2307    -2323    -2493    -2805    -3238    -3781    -4426 
   -5159    -5962    -6820    -7703    -8588    -9448   -10265   -11057 
  -11840   -12607   -13336   -13980   -14506   -14922   -15238   -15480 
  -15687   -15853   -15979   -16094   -16186   -16233   -16259   -16246 
  -16174   -16067   -15927   -15734   -15543   -15357   -15122   -14837 
  -14490   -14031   -13473   -12835   -12116   -11364   -10633    -9926 
   -9262    -8655    -8106    -7639    -7253    -6922    -6648    -6439 
