Origin Time       2016/04/16 01:25:00
Lat.              32.753
Long.             130.762
Depth. (km)       12
Mag.              7.3
Station Code      EHM008
Station Lat.      33.8198
Station Long.     132.7282
Station Height(m) 7
Record Time       2016/04/16 01:25:44
Sampling Freq(Hz) 100Hz
Duration Time(s)  161
Dir.              N-S
Scale Factor      7845(gal)/8223790
Max. Acc. (gal)   19.320
Last Correction   2016/04/16 01:25:29
Memo.             
[...]
    1578     1557     1556     1582     1547     1475     1460     1514 
    1591     1684     1819     2012     2247     2506     2779     3036 
    3226     3368     3534     3704     3804     3848     3867     3831 
    3748     3703     3686     3628     3574     3584     3568     3457 
    3338     3218     3013     2803     2686     2592     2546     2677 
    2889     3030     3134     3229     3231     3190     3260     3400 
    3501     3681     4020     4344     4558     4754     4946     5044 
    5077     5119     5097     4963     4824     4706     4533     4329 
    4153     3990     3836     3740     3715     3711     3703     3719 
    3780     3908     4133     4428     4773     5174     5594     6011 
    6380     6605     6747     6914     7071     7175     7285     7389 
    7388     7296     7217     7134     6961     6748     6566     6342 
    6065     5859     5680     5435     5232     5113     4934     4723 
    4650     4633     4491     4280     4094     3846     3535     3295 
    3115     2926     2826     2909     3024     3087     3186     3289 
    3352     3442     3588     3734     3865     4036     4258     4464 
    4654     4872     5009     5005     4966     4943     4936     4942 
    4904     4769     4545     4248     3906     3535     3149     2783 
    2497     2326     2272     2355     2559     2754     2837     2884 
    3007     3163     3327     3599     3956     4286     4600     4908 
    5047     4977     4865     4777     4657     4568     4580     4596 
    4588     4662     4780     4823     4860     4970     5050     5067 
    5152     5251     5212     5088     4962     4772     4530     4342 
    4192     3982     3770     3639     3496     3289     3127     3030 
    2899     2751     2686     2691     2702     2718     2700     2592 
    2457     2377     2349     2335     2317     2309     2324     2346 
    2350     2350     2354     2343     2358     2461     2592     2652 
    2671     2691     2662     2602     2628     2725     2805     2933 
    3184     3461     3715     4017     4302     4450     4567     4745 
    4861     4830     4746     4629     4414     4200     4085     3958 
    3769     3615     3523     3453     3468     3592     3716     3804 
    3951     4182     4409     4631     4918     5229     5508     5798 
    6134     6454     6737     7002     7215     7395     7609     7865 
    8114     8322     8494     8646     8783     8873     8887     8850 
    8762     8583     8357     8148     7921     7654     7404     7198 
    6997     6836     6736     6573     6334     6178     6099     5979 
    5883     5872     5829     5694     5590     5539     5410     5279 
    5296     5354     5359     5420     5529     5544     5516     5566 
    5606     5564     5519     5466     5305     5084     4923     4781 
    4595     4482     4457     4413     4388     4437     4480     4487 
    4519     4579     4581     4542     4545     4535     4456     4347 
    4191     3971     3748     3547     3339     3107     2844     2543 
    2215     1894     1567     1240      954      708      479      325 
     288      328      464      700      885      950      986     1023 
    1024     1048     1171     1314     1426     1588     1755     1792 
    1742     1728     1696     1595     1525     1537     1547     1559 
    1630     1688     1706     1826     2083     2343     2605     2974 
    3377     3685     3913     4107     4232     4293     4374     4509 
    4681     4932     5242     5459     5491     5377     5167     4885 
    4560     4276     4121     4051     3978     3924     3889     3778 
    3566     3284     2956     2669     2540     2624     2840     3071 
    3333     3597     3757     3866     4028     4199     4365     4626 
    4993     5329     5595     5871     6080     6139     6191     6322 
    6430     6523     6700     6845     6805     6663     6493     6216 
    5869     5589     5379     5185     5100     5185     5292     5356 
    5447     5503     5467     5448     5517     5613     5705     5823 
    5934     5992     6022     6015     5935     5834     5778     5767 
    5769     5768     5763     5752     5719     5636     5513     5422 
    5356     5267     5223     5247     5238     5173     5115     5038 
    4885     4695     4484     4178     3784     3439     3173     2911 
    2743     2747     2768     2751     2828     2952     2986     3019 
    3191     3461     3759     4144     4603     4989     5310     5649 
    5911     6037     6181     6392     6524     6575     6655     6747 
    6801     6828     6759     6493     6133     5871     5688     5472 
    5248     5092     4970     4828     4677     4534     4386     4228 
    4090     3994     3950     3986     4099     4209     4263     4315 
    4415     4506     4531     4603     4799     5013     5213     5460 
    5679     5740     5665     5570     5439     5211     4997     4876 
    4768     4689     4706     4679     4486     4247     4013     3705 
    3380     3149     2976     2817     2714     2681     2624     2533 
    2508     2520     2515     2590     2762     2925     3075     3267 
    3473     3661     3840     3965     3984     3951     3963     4000 
    3990     3965     3978     3994     4010     4045     4090     4163 
    4256     4288     4271     4311     4418     4534     4603     4575 
    4479     4391     4286     4113     3959     3944     3989     3951 
    3851     3693     3431     3217     3234     3358     3392     3454 
    3650     3781     3788     3870     4047     4194     4289     4375 
    4502     4738     5062     5324     5414     5382     5290     5117 
    4857     4549     4212     3944     3885     3978     4051     4009 
    3851     3630     3414     3252     3153     3073     3005     3061 
    3335     3732     4072     4253     4297     4287     4299     4344 
    4390     4498     4758     5077     5286     5356     5344     5277 
    5131     4909     4737     4703     4712     4689     4641     4521 
    4301     4055     3838     3653     3527     3530     3709     3958 
    4171     4365     4509     4595     4729     4891     4988     5124 
    5377     5618     5815     6081     6330     6346     6216     6173 
    6130     5945     5733     5478     5023     4482     4059     3750 
    3478     3262     3142     3064     2914     2659     2376     2168 
    2077     2070     2081     2096     2141     2199     2262     2355 
    2461     2587     2775     3013     3231     3430     3689     4043 
    4429     4758     4972     5090     5158     5157     5115     5104 
    5081     4958     4803     4679     4518     4334     4233     4167 
    4024     3877     3838     3854     3855     3854     3808     3630 
    3399     3287     3291     3330     3438     3622     3765     3800 
    3794     3792     3751     3723     3770     3815     3796     3804 
    3893     4016     4178     4410     4645     4838     5062     5316 
    5530     5771     6130     6542     6879     7127     7350     7562 
    7715     7792     7823     7789     7657     7514     7465     7435 
    7281     6974     6512     5896     5265     4787     4423     4058 
    3748     3535     3292     2983     2714     2474     2185     1904 
    1680     1467     1300     1297     1431     1556     1664     1837 
    1975     2019     2196     2586     2933     3154     3396     3657 
    3878     4113     4299     4225     3979     3831     3717     3539 
    3451     3433     3281     3036     2792     2497     2165     1952 
    1944     2124     2412     2677     2829     2909     2943     2884 
    2732     2551     2385     2253     2149     2029     1867     1722 
    1634     1552     1412     1248     1128     1094     1165     1258 
    1285     1383     1660     1894     1927     1923     2015     2151 
    2316     2581     2922     3208     3375     3392     3299     3302 
    3530     3851     4148     4523     5053     5593     5995     6285 
    6515     6669     6774     6866     6955     7118     7365     7586 
    7765     7993     8264     8497     8638     8650     8545     8406 
    8291     8212     8156     8128     8125     8085     7977     7832 
    7646     7434     7238     7034     6809     6590     6394     6219 
    6054     5886     5724     5578     5437     5275     5089     4953 
    4911     4887     4897     5044     5239     5344     5474     5795 
    6219     6602     6933     7182     7314     7400     7441     7334 
    7119     6951     6824     6633     6382     6126     5821     5435 
    5043     4692     4364     4121     3975     3775     3522     3365 
    3302     3289     3404     3622     3811     3993     4313     4762 
    5227     5683     6115     6482     6789     7052     7249     7383 
    7488     7578     7650     7705     7736     7734     7685     7499 
    7098     6593     6150     5767     5390     5093     4889     4634 
    4317     4055     3817     3543     3353     3291     3218     3130 
    3130     3187     3242     3354     3539     3717     3875     4060 
    4232     4371     4606     4999     5427     5751     5987     6218 
    6465     6690     6853     6984     7183     7484     7797     8032 
    8176     8264     8351     8456     8499     8395     8191     8001 
    7844     7719     7692     7763     7807     7767     7681     7546 
    7348     7102     6831     6554     6265     5944     5605     5309 
    5059     4747     4330     3902     3543     3295     3191     3130 
    2972     2790     2708     2617     2370     2042     1767     1521 
    1244      958      618      129     -413     -896    -1435    -2111 
   -2797    -3392    -3950    -4461    -4869    -5256    -5674    -5980 
   -6157    -6323    -6462    -6554    -6658    -6733    -6693    -6534 
   -6299    -6043    -5823    -5640    -5458    -5255    -5043    -4826 
   -4600    -4436    -4376    -4342    -4341    -4483    -4685    -4819 
   -4966    -5173    -5336    -5463    -5601    -5686    -5680    -5637 
   -5563    -5377    -5071    -4685    -4167    -3510    -2841    -2193 
   -1532     -892     -225      562     1436     2299     3163     4029 
    4796     5436     6042     6575     6921     7157     7368     7456 
    7408     7333     7226     7032     6802     6609     6421     6208 
    6011     5825     5623     5505     5513     5562     5664     5902 
    6199     6408     6525     6604     6644     6666     6720     6821 
    6963     7192     7524     7827     8020     8218     8513     8914 
    9447    10053    10628    11159    11628    11992    12297    12592 
   12868    13136    13379    13510    13502    13383    13139    12734 
   12208    11619    10974    10307     9710     9163     8575     7973 
    7411     6843     6281     5869     5618     5436     5401     5593 
    5854     6103     6444     6868     7236     7557     7939     8321 
    8564     8726     8860     8851     8703     8473     8075     7468 
    6782     6137     5508     4839     4192     3661     3230     2867 
    2590     2452     2512     2783     3213     3727     4248     4752 
    5282     5854     6340     6693     7078     7527     7889     8212 
    8606     8992     9360     9796    10241    10604    10890    11065 
   11052    10881    10561    10050     9462     8966     8581     8263 
    7974     7700     7414     7098     6810     6586     6356     6145 
    6060     6029     5930     5836     5796     5711     5587     5566 
    5609     5609     5665     5884     6138     6349     6610     6917 
    7183     7430     7715     7997     8243     8500     8823     9182 
    9547     9949    10362    10741    11072    11256    11271    11237 
   11109    10813    10420     9837     8926     7805     6621     5346 
    3954     2552     1235        5    -1138    -2201    -3187    -4074 
   -4835    -5458    -5977    -6361    -6550    -6596    -6525    -6285 
   -5926    -5547    -5134    -4703    -4280    -3738    -3044    -2367 
   -1745    -1069     -387      152      530      778      862      815 
     774      745      598      330       43     -294     -746    -1201 
   -1583    -1964    -2249    -2309    -2196    -1903    -1391     -731 
      -1      778     1649     2644     3715     4795     5864     6921 
    7931     8827     9566    10156    10582    10804    10837    10743 
   10554    10227     9751     9190     8573     7905     7223     6489 
    5719     5058     4477     3889     3404     3067     2758     2478 
    2284     2134     2006     1937     1985     2143     2398     2782 
    3200     3593     4105     4783     5422     5971     6574     7173 
    7649     8081     8451     8684     8895     9197     9544     9879 
   10204    10493    10702    10872    11097    11344    11476    11485 
   11435    11313    11090    10750    10338     9931     9475     8919 
    8352     7817     7264     6650     5952     5175     4289     3326 
    2405     1462      373     -714    -1744    -2849    -3946    -4905 
   -5798    -6637    -7373    -7986    -8469    -8818    -9047    -9198 
   -9279    -9269    -9238    -9274    -9290    -9177    -9020    -8881 
   -8622    -8221    -7846    -7497    -7075    -6612    -6170    -5694 
   -5130    -4544    -3946    -3252    -2565    -2008    -1487     -947 
    -472      -67      306      553      660      707      687      587 
     436      174     -266     -859    -1597    -2538    -3682    -4908 
   -6088    -7238    -8398    -9528   -10611   -11623   -12544   -13452 
  -14339   -15074   -15599   -15935   -16027   -15816   -15336   -14581 
  -13558   -12429   -11252    -9888    -8324    -6652    -4868    -2960 
   -1017      915     2937     5057     7094     8976    10754    12426 
   13926    15264    16488    17536    18374    19087    19650    19992 
   20173    20225    20123    19939    19751    19537    19310    19182 
   19174    19207    19271    19403    19593    19859    20183    20433 
   20587    20709    20764    20734    20636    20464    20216    19920 
   19650    19418    19210    19099    19067    19021    18991    18998 
   18995    19017    19091    19124    19018    18774    18377    17767 
   16995    16168    15265    14308    13450    12733    12032    11269 
   10527     9825     9030     8230     7632     7086     6480     5953 
    5427     4768     4064     3383     2709     2060     1489      994 
     514      126      -68     -187     -311     -333     -243     -155 
     -68       -4      -56     -186     -322     -522     -851    -1270 
   -1690    -2153    -2721    -3335    -3951    -4567    -5127    -5661 
   -6237    -6768    -7219    -7696    -8171    -8587    -9028    -9478 
   -9832   -10114   -10349   -10470   -10453   -10353   -10154    -9791 
   -9312    -8810    -8248    -7668    -7203    -6866    -6577    -6392 
   -6330    -6205    -5984    -5840    -5753    -5583    -5391    -5282 
   -5206    -5134    -5181    -5355    -5524    -5775    -6222    -6697 
   -7092    -7472    -7763    -7913    -8012    -8039    -7871    -7500 
   -6984    -6330    -5491    -4421    -3179    -1831     -324     1340 
    3067     4814     6494     8060     9545    10883    12033    13072 
   14042    14908    15632    16243    16729    16961    16889    16530 
   15861    15034    14192    13238    12216    11196    10099     9047 
    8144     7276     6458     5818     5351     5040     5011     5316 
    5811     6316     6852     7546     8247     8812     9405     9936 
   10224    10467    10744    10806    10608    10289     9828     9193 
    8505     7812     7068     6305     5551     4748     3886     2997 
    2092     1166      236     -622    -1341    -1898    -2270    -2500 
   -2666    -2772    -2836    -2930    -3046    -3092    -3028    -2882 
   -2625    -2276    -1944    -1640    -1308    -1030     -886     -818 
    -801     -858     -957    -1107    -1336    -1610    -1876    -2143 
   -2432    -2578    -2481    -2259    -1878    -1298     -696     -106 
     560     1217     1745     2182     2605     2964     3229     3542 
    3905     4136     4320     4595     4847     5022     5239     5506 
    5671     5701     5710     5668     5522     5400     5363     5329 
    5351     5509     5729     6002     6378     6777     7156     7576 
    8006     8433     8949     9528    10039    10372    10504    10467 
   10218     9751     9154     8471     7719     6957     6162     5306 
    4472     3681     2880     2150     1595     1192      922      822 
     861      940     1074     1359     1780     2285     2906     3607 
    4279     4923     5636     6408     7156     7860     8437     8800 
    9022     9127     9062     8888     8718     8569     8385     8170 
    7925     7628     7337     7088     6826     6579     6439     6427 
    6578     6909     7292     7584     7801     8017     8174     8168 
    8006     7692     7169     6509     5848     5181     4469     3743 
    2967     2058     1093      189     -630    -1294    -1775    -2154 
   -2447    -2602    -2663    -2691    -2640    -2516    -2431    -2331 
   -2098    -1810    -1556    -1308    -1104    -1057    -1093    -1024 
    -890     -758     -483      -60      303      607      973     1313 
    1533     1767     2083     2400     2732     3164     3653     4101 
    4572     5144     5725     6299     6998     7842     8769     9798 
   10899    11963    12962    13921    14813    15645    16436    17127 
   17703    18220    18716    19161    19515    19759    19867    19859 
   19799    19687    19494    19263    19017    18704    18295    17820 
   17270    16661    16025    15371    14701    14050    13483    13009 
   12595    12293    12097    11916    11792    11789    11834    11912 
   12104    12420    12783    13155    13528    13772    13802    13744 
   13640    13389    13043    12667    12178    11616    11088    10503 
    9756     8914     8016     7005     5896     4824     3821     2811 
    1841     1012      279     -411    -1016    -1501    -1871    -2115 
   -2224    -2176    -1995    -1736    -1382     -923     -415       94 
     630     1221     1841     2447     3030     3586     4054     4383 
    4622     4738     4661     4472     4237     3886     3422     2928 
    2466     2068     1748     1470     1193      923      676      400 
      49     -301     -577     -791     -884     -800     -589     -307 
      31      342      533      638      783     1021     1310     1636 
    1984     2258     2416     2536     2587     2540     2548     2658 
    2764     2901     3132     3369     3499     3542     3570     3576 
    3572     3608     3665     3728     3821     3875     3790     3554 
    3169     2654     2073     1478      880      301     -218     -728 
   -1273    -1755    -2151    -2546    -2907    -3134    -3204    -3099 
   -2736    -2089    -1246     -255      876     2074     3334     4737 
    6192     7547     8860    10081    10937    11391    11604    11547 
   11149    10527     9786     8908     7971     7096     6196     5155 
    4077     3053     2043     1115      467      190      180      326 
     588      908     1279     1768     2363     3001     3682     4464 
    5323     6180     7011     7763     8376     8876     9246     9497 
    9737     9968    10096    10129    10085     9890     9493     8923 
    8210     7402     6613     5867     5060     4199     3334     2455 
