Origin Time       2016/04/16 01:25:00
Lat.              32.753
Long.             130.762
Depth. (km)       12
Mag.              7.3
Station Code      EHM003
Station Lat.      33.9266
Station Long.     133.0843
Station Height(m) 4
Record Time       2016/04/16 01:26:18
Sampling Freq(Hz) 100Hz
Duration Time(s)  69
Dir.              N-S
Scale Factor      7845(gal)/8223790
Max. Acc. (gal)   15.244
Last Correction   2016/04/16 01:26:19
Memo.             
[...]
  -10604   -10859   -11161   -11475   -11794   -12087   -12307   -12448 
  -12544   -12621   -12677   -12725   -12803   -12911   -12993   -13026 
  -13028   -13004   -12938   -12839   -12752   -12712   -12717   -12731 
  -12749   -12754   -12687   -12521   -12290   -12023   -11735   -11411 
  -11051   -10724   -10478   -10295   -10172   -10154   -10235   -10368 
  -10534   -10735   -10941   -11118   -11237   -11308   -11360   -11394 
  -11414   -11469   -11591   -11749   -11898   -12027   -12136   -12210 
  -12236   -12228   -12206   -12163   -12081   -11998   -11980   -12027 
  -12069   -12066   -12024   -11921   -11743   -11526   -11318   -11152 
  -11021   -10933   -10926   -10980   -11029   -11052   -11055   -11024 
  -10945   -10835   -10733   -10702   -10758   -10886   -11074   -11294 
  -11508   -11674   -11774   -11821   -11823   -11772   -11676   -11560 
  -11452   -11354   -11283   -11259   -11280   -11335   -11414   -11515 
  -11608   -11642   -11610   -11543   -11475   -11402   -11335   -11306 
  -11319   -11364   -11426   -11500   -11547   -11518   -11411   -11272 
  -11152   -11068   -11003   -10957   -10933   -10930   -10949   -10982 
  -11026   -11075   -11130   -11227   -11385   -11564   -11709   -11815 
  -11923   -12035   -12133   -12245   -12394   -12552   -12663   -12707 
  -12707   -12690   -12638   -12548   -12436   -12294   -12125   -11963 
  -11819   -11699   -11589   -11476   -11379   -11327   -11335   -11400 
  -11537   -11739   -11935   -12044   -12064   -12009   -11894   -11736 
  -11572   -11446   -11362   -11303   -11267   -11236   -11183   -11092 
  -10971   -10856   -10755   -10677   -10650   -10674   -10743   -10849 
  -10959   -11082   -11237   -11354   -11375   -11344   -11319   -11295 
  -11291   -11350   -11476   -11632   -11780   -11898   -11982   -12008 
  -11950   -11844   -11757   -11686   -11595   -11499   -11449   -11449 
  -11465   -11502   -11591   -11715   -11819   -11881   -11911   -11898 
  -11834   -11734   -11642   -11584   -11537   -11487   -11462   -11470 
  -11500   -11569   -11688   -11851   -12044   -12226   -12373   -12496 
  -12598   -12650   -12646   -12610   -12555   -12463   -12328   -12178 
  -12029   -11871   -11700   -11550   -11435   -11337   -11249   -11176 
  -11111   -11053   -10994   -10941   -10924   -10913   -10849   -10728 
  -10574   -10386   -10166    -9942    -9718    -9505    -9317    -9182 
   -9128    -9154    -9255    -9462    -9783   -10181   -10597   -10962 
  -11241   -11454   -11603   -11674   -11670   -11608   -11499   -11354 
  -11214   -11133   -11114   -11115   -11095   -11048   -10994   -10935 
  -10885   -10881   -10913   -10939   -10944   -10949   -10960   -10937 
  -10862   -10795   -10805   -10893   -11032   -11217   -11446   -11676 
  -11874   -12063   -12245   -12375   -12425   -12399   -12325   -12226 
  -12105   -11996   -11937   -11916   -11889   -11861   -11881   -11952 
  -12036   -12108   -12160   -12185   -12174   -12131   -12077   -12032 
  -11993   -11961   -11954   -11970   -11978   -11959   -11919   -11880 
  -11853   -11819   -11778   -11754   -11743   -11713   -11646   -11564 
  -11484   -11383   -11252   -11110   -10951   -10752   -10530   -10327 
  -10154    -9998    -9868    -9787    -9753    -9763    -9814    -9902 
  -10031   -10218   -10470   -10783   -11125   -11455   -11746   -11983 
  -12182   -12333   -12380   -12322   -12228   -12145   -12085   -12021 
  -11925   -11820   -11732   -11673   -11646   -11627   -11576   -11493 
  -11410   -11331   -11233   -11099   -10963   -10859   -10794   -10747 
  -10694   -10633   -10547   -10408   -10226   -10050    -9913    -9810 
   -9759    -9780    -9846    -9917    -9999   -10118   -10277   -10443 
  -10589   -10733   -10866   -10951   -11014   -11078   -11109   -11094 
  -11072   -11094   -11161   -11241   -11342   -11495   -11691   -11881 
  -12043   -12190   -12329   -12406   -12386   -12283   -12144   -12008 
  -11904   -11867   -11909   -12004   -12121   -12243   -12345   -12410 
  -12417   -12380   -12336   -12289   -12240   -12225   -12294   -12434 
  -12588   -12730   -12887   -13063   -13228   -13347   -13398   -13380 
  -13313   -13225   -13153   -13112   -13088   -13053   -13020   -13027 
  -13066   -13076   -13022   -12904   -12745   -12565   -12352   -12083 
  -11755   -11381   -10991   -10616   -10261    -9930    -9660    -9499 
   -9471    -9540    -9645    -9767    -9929   -10129   -10334   -10509 
  -10650   -10781   -10924   -11070   -11192   -11276   -11313   -11304 
  -11283   -11277   -11271   -11268   -11290   -11306   -11269   -11167 
  -11048   -10980   -10967   -10953   -10908   -10848   -10808   -10786 
  -10788   -10810   -10798   -10744   -10720   -10773   -10889   -11009 
  -11079   -11138   -11286   -11523   -11788   -12042   -12303   -12627 
  -13008   -13383   -13707   -13944   -14079   -14148   -14193   -14193 
  -14099   -13937   -13796   -13749   -13773   -13782   -13743   -13686 
  -13608   -13509   -13400   -13259   -13066   -12830   -12590   -12357 
  -12116   -11884   -11718   -11608   -11484   -11330   -11187   -11082 
  -10995   -10897   -10814   -10814   -10887   -10940   -10936   -10906 
  -10863   -10821   -10801   -10770   -10689   -10575   -10447   -10342 
  -10288   -10246   -10183   -10168   -10270   -10435   -10585   -10709 
  -10832   -10993   -11199   -11400   -11554   -11677   -11750   -11712 
  -11566   -11373   -11160   -10959   -10825   -10767   -10759   -10805 
  -10937   -11186   -11491   -11735   -11881   -11997   -12110   -12214 
  -12294   -12312   -12264   -12187   -12116   -12082   -12085   -12101 
  -12120   -12152   -12220   -12297   -12330   -12336   -12373   -12445 
  -12505   -12523   -12475   -12341   -12132   -11835   -11458   -11064 
  -10683   -10334   -10071    -9937    -9933   -10058   -10323   -10694 
  -11107   -11497   -11843   -12174   -12479   -12695   -12810   -12838 
  -12781   -12664   -12542   -12448   -12378   -12287   -12139   -11961 
  -11786   -11599   -11398   -11202   -11029   -10902   -10835   -10867 
  -11016   -11221   -11403   -11533   -11634   -11724   -11772   -11761 
  -11746   -11762   -11780   -11782   -11816   -11904   -12024   -12168 
  -12332   -12467   -12510   -12453   -12332   -12188   -12066   -11969 
  -11885   -11823   -11789   -11770   -11762   -11765   -11770   -11727 
  -11587   -11364   -11082   -10750   -10382   -10021    -9725    -9517 
   -9382    -9312    -9327    -9410    -9553    -9757    -9991   -10195 
  -10336   -10436   -10539   -10662   -10762   -10775   -10732   -10744 
  -10890   -11121   -11331   -11491   -11628   -11742   -11793   -11753 
  -11605   -11381   -11156   -10986   -10875   -10801   -10767   -10836 
  -11028   -11232   -11353   -11398   -11412   -11422   -11437   -11488 
  -11604   -11758   -11921   -12081   -12233   -12383   -12532   -12676 
  -12822   -12977   -13101   -13167   -13193   -13178   -13100   -12958 
  -12762   -12541   -12316   -12079   -11858   -11722   -11703   -11755 
  -11816   -11877   -11958   -12046   -12087   -12079   -12078   -12097 
  -12110   -12151   -12275   -12469   -12688   -12918   -13157   -13392 
  -13606   -13790   -13933   -13999   -13960   -13861   -13759   -13637 
  -13466   -13235   -12958   -12671   -12394   -12127   -11862   -11600 
  -11352   -11145   -11002   -10921   -10886   -10862   -10828   -10818 
  -10848   -10885   -10895   -10901   -10948   -11013   -11060   -11111 
  -11171   -11213   -11200   -11146   -11079   -11011   -10928   -10821 
  -10732   -10675   -10652   -10686   -10787   -10921   -11013   -11036 
  -11044   -11052   -10998   -10879   -10766   -10694   -10652   -10635 
  -10639   -10660   -10700   -10727   -10712   -10631   -10484   -10295 
  -10125   -10041   -10041   -10058   -10072   -10119   -10241   -10403 
  -10552   -10682   -10793   -10860   -10879   -10851   -10746   -10552 
  -10324   -10114    -9921    -9755    -9643    -9555    -9451    -9339 
   -9232    -9155    -9123    -9135    -9185    -9242    -9296    -9378 
   -9524    -9729    -9952   -10157   -10332   -10465   -10557   -10636 
  -10724   -10827   -10937   -11039   -11144   -11277   -11446   -11649 
  -11838   -11939   -11921   -11834   -11724   -11624   -11550   -11507 
  -11510   -11572   -11685   -11827   -11977   -12104   -12188   -12270 
  -12378   -12484   -12555   -12586   -12591   -12602   -12622   -12611 
  -12548   -12449   -12330   -12191   -12019   -11826   -11610   -11358 
  -11117   -10963   -10948   -11060   -11272   -11546   -11846   -12152 
  -12441   -12696   -12931   -13153   -13320   -13394   -13404   -13402 
  -13412   -13432   -13456   -13460   -13419   -13321   -13166   -12954 
  -12711   -12469   -12253   -12063   -11893   -11742   -11611   -11493 
  -11373   -11194   -10920   -10625   -10423   -10320   -10272   -10250 
  -10254   -10307   -10401   -10476   -10485   -10427   -10327   -10238 
  -10215   -10260   -10336   -10424   -10550   -10727   -10903   -11014 
  -11049   -11034   -10974   -10876   -10777   -10693   -10598   -10471 
  -10322   -10204   -10143   -10088   -10015    -9979   -10046   -10211 
  -10407   -10611   -10801   -10932   -11016   -11088   -11163   -11256 
  -11372   -11493   -11616   -11736   -11838   -11913   -11966   -11988 
  -11969   -11928   -11875   -11794   -11647   -11412   -11125   -10879 
  -10709   -10552   -10380   -10211   -10057    -9915    -9796    -9717 
   -9660    -9590    -9499    -9423    -9396    -9420    -9464    -9504 
   -9545    -9614    -9724    -9891   -10131   -10386   -10590   -10755 
  -10917   -11061   -11168   -11254   -11345   -11430   -11502   -11554 
  -11595   -11653   -11709   -11696   -11585   -11399   -11183   -10972 
  -10787   -10629   -10494   -10365   -10274   -10299   -10449   -10656 
  -10876   -11118   -11399   -11709   -12020   -12317   -12575   -12769 
  -12893   -12954   -12995   -13035   -13053   -13018   -12926   -12765 
  -12525   -12266   -12067   -11940   -11836   -11734   -11670   -11669 
  -11705   -11767   -11842   -11912   -11977   -12040   -12135   -12283 
  -12460   -12637   -12819   -13004   -13171   -13297   -13365   -13383 
  -13386   -13371   -13321   -13277   -13288   -13347   -13416   -13446 
  -13410   -13327   -13200   -13061   -12978   -12991   -13080   -13207 
  -13352   -13495   -13625   -13744   -13837   -13875   -13829   -13694 
  -13529   -13400   -13298   -13169   -12996   -12834   -12711   -12599 
  -12479   -12384   -12344   -12347   -12361   -12382   -12426   -12486 
  -12536   -12548   -12484   -12314   -12044   -11728   -11422   -11121 
  -10812   -10527   -10336   -10293   -10369   -10511   -10693   -10912 
  -11149   -11369   -11566   -11736   -11850   -11877   -11815   -11705 
  -11614   -11526   -11410   -11311   -11287   -11321   -11371   -11427 
  -11503   -11583   -11643   -11696   -11801   -12004   -12280   -12611 
  -13022   -13483   -13930   -14343   -14701   -14945   -15040   -14998 
  -14877   -14735   -14574   -14403   -14260   -14129   -13969   -13756 
  -13504   -13273   -13046   -12761   -12417   -12035   -11635   -11256 
  -10920   -10624   -10351   -10069    -9769    -9479    -9240    -9061 
   -8916    -8829    -8857    -9008    -9216    -9431    -9648    -9859 
  -10022   -10110   -10137   -10110   -10014    -9856    -9659    -9444 
   -9184    -8853    -8487    -8121    -7755    -7392    -7056    -6805 
   -6669    -6589    -6505    -6419    -6358    -6319    -6268    -6186 
   -6091    -5995    -5914    -5886    -5938    -6069    -6255    -6497 
   -6810    -7186    -7595    -8001    -8395    -8784    -9146    -9451 
   -9717    -9979   -10230   -10430   -10528   -10566   -10598   -10617 
  -10597   -10540   -10476   -10442   -10458   -10509   -10590   -10710 
  -10875   -11065   -11237   -11364   -11466   -11577   -11689   -11780 
  -11826   -11797   -11728   -11691   -11688   -11676   -11658   -11642 
  -11641   -11684   -11776   -11907   -12046   -12147   -12209   -12260 
  -12297   -12283   -12206   -12100   -11975   -11823   -11650   -11454 
  -11237   -11009   -10755   -10498   -10303   -10197   -10180   -10237 
  -10366   -10571   -10833   -11107   -11371   -11593   -11747   -11847 
  -11919   -11988   -12071   -12168   -12293   -12461   -12653   -12811 
  -12919   -13014   -13120   -13207   -13243   -13238   -13213   -13161 
  -13054   -12915   -12776   -12646   -12552   -12542   -12614   -12715 
  -12788   -12793   -12749   -12685   -12594   -12429   -12179   -11885 
  -11595   -11373   -11288   -11341   -11483   -11676   -11921   -12226 
  -12563   -12903   -13238   -13587   -13964   -14334   -14681   -15037 
  -15388   -15728   -16089   -16492   -16915   -17298   -17590   -17799 
  -17956   -18065   -18127   -18152   -18183   -18277   -18457   -18711 
  -19045   -19448   -19877   -20309   -20730   -21095   -21332   -21393 
  -21293   -21060   -20702   -20235   -19693   -19136   -18627   -18198 
  -17855   -17595   -17397   -17228   -17087   -16980   -16875   -16738 
  -16549   -16320   -16104   -15947   -15824   -15724   -15642   -15543 
  -15424   -15333   -15315   -15350   -15385   -15377   -15291   -15138 
  -14960   -14763   -14524   -14250   -13942   -13586   -13176   -12722 
  -12233   -11709   -11161   -10621   -10092    -9586    -9127    -8703 
   -8307    -7946    -7603    -7253    -6902    -6552    -6183    -5780 
   -5383    -5015    -4666    -4305    -3905    -3462    -2976    -2455 
   -1930    -1441     -994     -572     -178      171      481      778 
    1065     1340     1626     1945     2309     2695     3068     3445 
    3809     4105     4303     4418     4450     4369     4155     3838 
    3447     2975     2431     1867     1318      838      444       99 
    -186     -396     -591     -818    -1069    -1347    -1668    -2042 
   -2448    -2848    -3231    -3626    -4062    -4531    -5004    -5499 
   -6031    -6589    -7173    -7801    -8484    -9194    -9888   -10571 
  -11257   -11916   -12521   -13073   -13582   -14035   -14449   -14828 
  -15179   -15519   -15850   -16190   -16578   -16987   -17385   -17766 
  -18112   -18384   -18565   -18709   -18873   -19014   -19121   -19294 
  -19548   -19822   -20116   -20422   -20633   -20686   -20621   -20467 
  -20214   -19827   -19318   -18739   -18077   -17358   -16660   -15994 
  -15315   -14652   -14062   -13524   -12982   -12471   -12052   -11705 
  -11425   -11284   -11271   -11322   -11452   -11699   -12050   -12475 
  -12984   -13574   -14141   -14613   -15026   -15346   -15490   -15477 
  -15334   -15021   -14551   -13981   -13365   -12758   -12214   -11788 
  -11546   -11502   -11619   -11897   -12303   -12746   -13240   -13841 
  -14490   -15133   -15786   -16411   -16945   -17374   -17691   -17922 
  -18096   -18227   -18355   -18493   -18602   -18706   -18841   -18954 
  -18989   -18954   -18858   -18663   -18342   -17928   -17456   -16951 
  -16444   -16005   -15697   -15564   -15638   -15934   -16461   -17178 
  -18036   -19045   -20169   -21285   -22339   -23313   -24127   -24730 
  -25146   -25381   -25393   -25141   -24625   -23865   -22879   -21686 
  -20320   -18885   -17494   -16164   -14912   -13810   -12888   -12116 
  -11476   -10971   -10566   -10215    -9913    -9684    -9563    -9595 
   -9774   -10118   -10692   -11452   -12336   -13308   -14280   -15178 
  -15969   -16632   -17134   -17443   -17554   -17456   -17176   -16768 
  -16274   -15727   -15178   -14646   -14127   -13579   -12942   -12217 
  -11421   -10571    -9736    -8981    -8348    -7839    -7447    -7196 
   -7094    -7086    -7092    -7072    -6994    -6844    -6659    -6478 
   -6319    -6146    -5964    -5807    -5670    -5557    -5462    -5348 
   -5196    -4999    -4788    -4577    -4347    -4122    -3964    -3906 
   -3942    -4062    -4263    -4526    -4839    -5188    -5532    -5887 
   -6290    -6720    -7160    -7599    -7977    -8252    -8390    -8371 
   -8240    -8046    -7821    -7605    -7411    -7254    -7160    -7136 
   -7184    -7295    -7427    -7576    -7730    -7892    -8073    -8256 
   -8441    -8671    -8966    -9339    -9774   -10218   -10633   -10982 
  -11230   -11383   -11443   -11411   -11340   -11280   -11280   -11365 
  -11491   -11658   -11866   -12056   -12210   -12306   -12306   -12216 
  -12020   -11715   -11362   -11024   -10732   -10501   -10338   -10247 
  -10219   -10254   -10358   -10498   -10669   -10901   -11184   -11452 
  -11739   -12131   -12560   -12931   -13243   -13537   -13832   -14083 
  -14224   -14291   -14351   -14372   -14310   -14203   -14071   -13902 
  -13693   -13508   -13474   -13609   -13903   -14436   -15203   -16116 
  -17076   -18021   -18985   -19953   -20850   -21686   -22481   -23193 
  -23763   -24204   -24552   -24792   -24879   -24792   -24541   -24128 
  -23510   -22662   -21629   -20475   -19248   -17996   -16750   -15543 
  -14435   -13420   -12491   -11701   -11086   -10666   -10484   -10574 
  -10947   -11569   -12359   -13228   -14094   -14854   -15438   -15820 
  -16019   -16067   -15951   -15653   -15190   -14535   -13637   -12501 
  -11223    -9942    -8680    -7411    -6207    -5131    -4153    -3246 
   -2412    -1663    -1028     -521     -120      186      370      411 
     307       59     -315     -791    -1366    -2041    -2795    -3561 
   -4248    -4826    -5293    -5652    -5915    -6107    -6301    -6558 
   -6848    -7153    -7469    -7744    -7902    -7927    -7807    -7489 
   -7014    -6457    -5791    -5050    -4365    -3747    -3206    -2856 
   -2706    -2716    -2907    -3304    -3889    -4641    -5513    -6409 
   -7311    -8251    -9208   -10173   -11144   -12108   -13008   -13786 
  -14500   -15165   -15718   -16124   -16376   -16457   -16345   -16015 
  -15462   -14733   -13891   -12945   -11969   -11083   -10328    -9661 
   -9092    -8655    -8324    -8085    -7977    -8051    -8338    -8784 
   -9312    -9910   -10569   -11222   -11826   -12396   -12915   -13347 
  -13690   -13905   -13979   -13977   -13963   -13946   -13944   -13964 
  -13995   -14053   -14177   -14369   -14644   -15054   -15588   -16202 
  -16875   -17560   -18175   -18704   -19170   -19538   -19789   -19988 
  -20183   -20359   -20509   -20704   -21011   -21424   -21890   -22366 
  -22828   -23261   -23660   -23984   -24224   -24418   -24560   -24625 
  -24661   -24680   -24638   -24526   -24314   -23980   -23515   -22893 
  -22137   -21330   -20484   -19565   -18639   -17772   -16961   -16221 
  -15535   -14864   -14247   -13733   -13336   -13063   -12903   -12870 
  -12978   -13143   -13292   -13440   -13520   -13482   -13378   -13215 
  -13003   -12761   -12486   -12216   -11959   -11684   -11406   -11111 
  -10752   -10335    -9875    -9364    -8841    -8316    -7808    -7398 
   -7107    -6955    -6976    -7132    -7361    -7643    -7969    -8349 
   -8745    -9104    -9440    -9757   -10034   -10222   -10332   -10461 
  -10602   -10685   -10716   -10747   -10782   -10741   -10615   -10449 
  -10230    -9996    -9771    -9497    -9175    -8834    -8428    -7931 
   -7406    -6916    -6426    -5922    -5448    -5049    -4754    -4608 
   -4611    -4746    -5040    -5524    -6146    -6853    -7649    -8507 
   -9370   -10214   -11049   -11854   -12598   -13294   -13919   -14481 
  -15033   -15504   -15786   -15894   -15881   -15780   -15595   -15319 
  -15001   -14692   -14399   -14141   -13981   -13952   -14000   -14106 
  -14265   -14413   -14493   -14438   -14212   -13895   -13543   -13204 
