Origin Time       2016/04/16 01:25:00
Lat.              32.753
Long.             130.762
Depth. (km)       12
Mag.              7.3
Station Code      EHM010
Station Lat.      33.4512
Station Long.     132.6882
Station Height(m) 190
Record Time       2016/04/16 01:25:41
Sampling Freq(Hz) 100Hz
Duration Time(s)  109
Dir.              N-S
Scale Factor      7845(gal)/8223790
Max. Acc. (gal)   13.287
Last Correction   2016/04/16 01:25:41
Memo.             
[...]
   10501    10808    11097    11294    11341    11257    11094    10890 
   10646    10332     9934     9482     9084     8884     8928     9131 
    9350     9494     9598     9798    10201    10739    11202    11416 
   11295    10825    10141     9490     9069     8920     8945     9001 
    9031     9038     9026     8984     8880     8712     8588     8581 
    8641     8699     8710     8610     8359     8013     7720     7638 
    7877     8398     8993     9421     9575     9486     9275     9077 
    9007     9130     9414     9782    10160    10496    10750    10910 
   10975    10916    10656    10184     9668     9339     9281     9429 
    9686     9907     9956     9806     9514     9139     8753     8436 
    8210     8073     8050     8185     8472     8760     8830     8612 
    8182     7684     7372     7469     7943     8586     9128     9377 
    9339     9158     8950     8797     8775     8938     9292     9730 
   10120    10392    10557    10655    10665    10485    10092     9662 
    9432     9470     9674     9898    10014     9971     9807     9603 
    9416     9266     9178     9174     9252     9388     9562     9728 
    9774     9622     9304     8919     8592     8461     8608     9005 
    9520     9985    10245    10223     9973     9616     9266     9009 
    8877     8856     8911     8970     8991     9065     9333     9794 
   10323    10810    11186    11426    11495    11279    10729     9960 
    9116     8356     7805     7450     7256     7252     7414     7603 
    7672     7578     7393     7219     7203     7458     7947     8500 
    8989     9409     9801    10189    10597    10994    11331    11618 
   11857    11977    11911    11680    11344    10944    10531    10153 
    9804     9460     9085     8669     8264     7948     7823     7996 
    8526     9352    10284    11144    11859    12368    12581    12487 
   12166    11716    11242    10848    10593    10426    10212     9844 
    9324     8731     8137     7608     7200     6943     6879     7011 
    7256     7534     7851     8205     8538     8791     8937     9026 
    9175     9435     9765    10139    10557    10980    11331    11574 
   11695    11616    11292    10767    10062     9204     8345     7685 
    7381     7504     8035     8854     9787    10646    11302    11715 
   11885    11792    11483    11115    10868    10854    11052    11369 
   11723    12025    12221    12254    12033    11547    10940    10416 
   10137    10114    10189    10187    10034     9718     9246     8644 
    7983     7373     6916     6709     6821     7238     7867     8568 
    9189     9641     9921    10091    10212    10292    10331    10397 
   10547    10755    10956    11117    11183    11129    10944    10550 
    9906     9134     8444     8014     7913     8100     8474     8937 
    9355     9601     9639     9544     9398     9285     9285     9381 
    9532     9792    10169    10527    10724    10687    10454    10149 
    9887     9745     9784     9981    10282    10696    11169    11497 
   11502    11206    10747    10266     9892     9684     9526     9266 
    8914     8567     8275     8087     8044     8133     8326     8638 
    9107     9713    10376    11001    11479    11745    11816    11757 
   11608    11367    11036    10646    10207     9779     9471     9319 
    9279     9319     9385     9360     9121     8679     8181     7805 
    7697     7898     8329     8861     9404     9890    10270    10551 
   10737    10778    10681    10525    10314    10012     9648     9258 
    8878     8588     8446     8457     8567     8752     9063     9494 
    9910    10158    10157     9944     9659     9402     9211     9139 
    9256     9596    10093    10524    10669    10490    10079     9605 
    9266     9169     9316     9647    10050    10399    10597    10627 
   10582    10571    10578    10543    10459    10382    10382    10435 
   10413    10255    10011     9744     9563     9593     9798     9992 
   10019     9834     9486     9088     8781     8660     8671     8665 
    8581     8451     8299     8151     8073     8100     8224     8467 
    8830     9310     9910    10552    11044    11183    10874    10219 
    9472     8856     8444     8239     8220     8307     8398     8457 
    8496     8553     8702     8924     9165     9435     9725     9948 
   10034     9965     9733     9351     8901     8513     8218     7974 
    7820     7830     7990     8260     8626     9077     9596    10142 
   10666    11145    11519    11699    11700    11642    11603    11542 
   11379    11079    10665    10172     9626     9074     8573     8135 
    7751     7460     7284     7211     7268     7506     7884     8299 
    8723     9211     9783    10409    11034    11597    12024    12286 
   12398    12337    12087    11684    11218    10847    10666    10636 
   10677    10701    10640    10500    10347    10238    10161    10062 
    9896     9636     9302     8968     8707     8595     8684     8945 
    9298     9684    10066    10438    10786    11041    11095    10883 
   10446     9938     9516     9266     9200     9229     9231     9163 
    9069     8996     8968     8996     9080     9224     9441     9707 
    9975    10224    10407    10411    10150     9629     8974     8380 
    8021     7971     8198     8545     8851     9054     9180     9300 
    9482     9740    10019    10258    10447    10559    10555    10417 
   10161     9860     9589     9322     8993     8611     8264     8004 
    7785     7558     7368     7327     7537     8020     8726     9566 
   10393    10995    11168    10867    10288     9769     9576     9748 
   10160    10642    11007    11103    10848    10257     9468     8657 
    7950     7431     7134     7025     7051     7163     7323     7452 
    7447     7369     7420     7726     8256     8945     9701    10395 
   10929    11304    11566    11739    11842    11857    11754    11541 
   11259    10968    10733    10575    10457    10347    10249    10179 
   10139    10141    10192    10268    10338    10400    10459    10492 
   10442    10311    10189    10137    10183    10334    10534    10720 
   10833    10771    10473     9979     9402     8903     8642     8676 
    8923     9258     9563     9765     9850     9884     9965    10134 
   10308    10368    10289    10126     9915     9671     9371     8986 
    8563     8222     8056     8071     8197     8340     8492     8684 
    8889     9128     9459     9853    10234    10500    10605    10605 
   10596    10682    10922    11207    11350    11300    11156    10990 
   10804    10608    10449    10370    10381    10454    10539    10567 
   10528    10503    10535    10551    10488    10380    10335    10428 
   10620    10813    10941    10947    10779    10450    10041     9633 
    9251     8926     8712     8622     8573     8500     8431     8388 
    8355     8324     8270     8171     8101     8182     8453     8808 
    9119     9387     9691    10033    10307    10419    10403    10376 
   10341    10201     9956     9740     9691     9846    10131    10427 
   10666    10867    11037    11091    10989    10862    10843    10874 
   10841    10712    10504    10243     9929     9517     9036     8638 
    8532     8776     9216     9645     9941    10068    10076    10042 
   10052    10219    10612    11179    11780    12239    12444    12451 
   12371    12213    11929    11455    10708     9684     8520     7418 
    6642     6431     6795     7507     8255     8756     8920     8884 
    8816     8839     9046     9499    10241    11244    12260    12892 
   12910    12310    11207     9810     8345     6999     5981     5509 
    5682     6423     7476     8456     9046     9219     9174     9128 
    9321     9933    10817    11593    12006    11997    11562    10773 
    9855     9042     8401     7817     7056     6046     5077     4537 
    4668     5595     7211     9062    10648    11766    12484    12947 
   13304    13639    13896    14027    14076    14044    13796    13182 
   12132    10737     9246     7952     7126     7018     7681     8760 
    9666    10021     9917     9682     9410     8947     8279     7713 
    7651     8177     8869     9231     9294     9418     9680     9832 
    9610     8959     8108     7384     6930     6710     6681     6881 
    7325     7793     7919     7619     7215     7061     7334     8078 
    9201    10539    11997    13474    14693    15336    15341    14913 
   14203    13163    11894    10716     9802     9205     9036     9312 
    9846    10341    10611    10654    10577    10531    10651    10995 
   11561    12307    13112    13716    13821    13338    12406    11263 
   10184     9347     8685     8171     7903     7693     7115     6151 
    5248     4785     4835     5273     5902     6675     7723     9043 
   10362    11375    11871    11886    11767    11706    11545    11322 
   11237    11183    11017    10722    10169     9347     8579     8114 
    7971     8121     8374     8494     8608     8939     9451    10030 
   10633    11306    12217    13394    14480    15010    14885    14457 
   14079    13663    12951    11932    10882    10147     9845     9810 
    9864    10022    10408    10989    11603    12112    12328    12131 
   11654    11088    10609    10461    10781    11510    12421    13095 
   13205    12804    12105    11181    10055     8951     8209     7985 
    8199     8603     8908     9051     9151     9246     9336     9522 
    9915    10632    11727    12968    13953    14527    14740    14611 
   14242    13821    13413    13072    12943    13008    12977    12634 
   12067    11538    11246    11209    11260    11279    11302    11338 
   11319    11157    10729    10065     9429     9074     9070     9310 
    9576     9760    10022    10562    11300    11952    12314    12324 
   12036    11632    11271    10998    10825    10646    10288     9806 
    9429     9213     9067     9050     9292     9768    10399    11190 
   12160    13181    13963    14265    14076    13548    12838    12008 
   11047    10004     9059     8355     7870     7518     7234     6976 
    6782     6764     6922     7074     7096     7086     7160     7335 
    7645     8174     8962     9855    10473    10648    10608    10523 
   10318     9948     9529     9161     8749     8168     7488     6875 
    6438     6138     5821     5405     4897     4287     3636     3090 
    2751     2668     2852     3253     3757     4263     4754     5200 
    5439     5404     5240     5147     5262     5564     5875     6019 
    5907     5575     5164     4747     4368     4186     4318     4758 
    5526     6563     7609     8437     9026     9472     9880    10245 
   10521    10764    11037    11280    11387    11254    10810    10062 
    9107     8048     6934     5918     5258     5053     5200     5529 
    5883     6199     6524     6948     7535     8306     9301    10534 
   11907    13238    14230    14596    14395    13895    13192    12345 
   11562    11032    10818    10908    11271    11832    12379    12713 
   12876    13012    13188    13375    13510    13528    13389    13139 
   12949    12972    13261    13747    14245    14508    14318    13593 
   12505    11341    10284     9433     8793     8262     7761     7175 
    6353     5459     4950     5071     5663     6478     7381     8210 
    8777     9007     8899     8482     7862     7252     6952     7140 
    7652     8109     8248     8132     8032     8155     8522     9084 
    9825    10615    11209    11481    11434    11020    10241     9270 
    8345     7631     7153     6907     7001     7495     8311     9394 
   10755    12285    13743    14922    15757    16289    16456    16085 
   15265    14354    13725    13602    13988    14670    15367    15865 
   16117    16252    16420    16623    16773    16789    16598    16175 
   15599    14960    14277    13514    12638    11659    10633     9545 
    8321     7072     6050     5363     5003     4959     5228     5850 
    6821     8027     9331    10623    11809    12849    13798    14735 
   15573    16123    16308    16136    15645    14916    13910    12483 
   10692     8814     7160     5984     5416     5406     5806     6523 
    7453     8388     9204     9898    10392    10573    10462    10129 
    9610     9007     8440     7962     7614     7470     7506     7539 
    7447     7253     6990     6702     6474     6345     6296     6365 
    6569     6870     7180     7383     7376     7169     6812     6301 
    5733     5350     5391     6014     7210     8793    10519    12150 
   13520    14532    15117    15311    15272    15161    15063    14929 
   14688    14346    13896    13221    12297    11358    10665    10316 
   10409    10972    11805    12683    13563    14478    15457    16459 
   17377    18181    18875    19448    19893    19990    19292    17574 
   15072    12256     9445     6798     4642     3333     2889     3206 
    4240     5826     7669     9432    10829    11770    12345    12680 
   12892    13106    13448    13902    14222    14119    13436    12166 
   10416     8359     6112     3782     1602      -94    -1024    -1020 
     -21     1872     4282     6650     8464     9482     9755     9458 
    8787     7919     6979     6033     5077     4149     3424     2963 
    2575     2224     2096     2121     2073     1921     1665     1250 
     657     -147    -1077    -1859    -2355    -2635    -2803    -3011 
   -3338    -3666    -3854    -3943    -4067    -4225    -4278    -4074 
   -3474    -2403     -896     1051     3422     5935     8239    10099 
   11425    12266    12676    12695    12465    12091    11510    10631 
    9404     7756     5751     3662     1706      -13    -1297    -1918 
   -1775     -942      268     1501     2587     3530     4423     5421 
    6617     8007     9502    10905    11946    12514    12696    12557 
   12141    11547    10847    10139     9617     9362     9238     9051 
    8699     8113     7333     6666     6528     7155     8526    10346 
   12150    13560    14466    14920    14971    14737    14445    14224 
   14115    14188    14404    14505    14260    13582    12425    10854 
    9113     7510     6367     5919     6193     7014     8111     9285 
   10393    11229    11583    11410    10871    10193     9466     8573 
    7444     6237     5194     4446     3967     3663     3461     3307 
    3203     3198     3277     3375     3485     3612     3753     3977 
    4380     5019     5968     7296     8915    10597    12089    13127 
   13455    12977    11774    10058     8117     6238     4654     3563 
    3107     3279     3971     5088     6492     7928     9144    10037 
   10612    10913    11037    11130    11376    12012    13171    14697 
   16239    17486    18266    18576    18617    18632    18724    18893 
   19114    19364    19575    19565    19099    18064    16587    14964 
   13474    12271    11388    10793    10447    10270    10168    10114 
   10185    10482    11001    11610    12231    12799    13135    13182 
   13120    13062    12961    12761    12422    11911    11263    10537 
    9729     8843     7955     7137     6453     5985     5760     5691 
    5672     5622     5478     5221     4866     4477     4166     3998 
    3979     4082     4258     4482     4799     5271     5934     6806 
    7789     8645     9155     9196     8694     7730     6594     5606 
    4861     4301     3908     3802     4126     4820     5566     6043 
    6154     5956     5568     5159     4928     5017     5443     6164 
    7132     8284     9599    11115    12707    13980    14586    14470 
   13745    12613    11381    10255     9275     8490     7843     7102 
    6170     5150     4118     3190     2502     2091     2034     2465 
    3300     4306     5244     5872     6095     6034     5821     5487 
    5035     4473     3878     3366     3017     2853     2910     3240 
    3846     4625     5383     5922     6138     6093     5976     5996 
    6322     7080     8297     9791    11317    12725    13900    14774 
   15414    15985    16615    17324    18081    18918    19809    20547 
   20858    20568    19704    18477    17182    16097    15280    14632 
   14080    13640    13413    13470    13653    13701    13463    12910 
   12085    11130    10222     9420     8710     8137     7827     7812 
    8012     8349     8681     8776     8464     7735     6718     5694 
    5009     4843     5050     5386     5710     5998     6361     6990 
    8001     9360    10913    12455    13782    14798    15622    16407 
   17116    17612    17755    17400    16586    15566    14597    13784 
   13088    12393    11645    10832     9911     8927     8001     7177 
    6396     5597     4801     4098     3611     3481     3819     4541 
    5374     6050     6465     6608     6523     6330     6118     5902 
    5729     5628     5597     5734     6103     6624     7176     7562 
    7457     6679     5422     4071     2986     2492     2721     3511 
    4611     5894     7317     8873    10534    12187    13787    15404 
   17047    18601    19916    20777    20974    20536    19722    18748 
   17676    16482    15196    14056    13331    13058    13108    13320 
   13454    13331    13012    12664    12451    12495    12733    12958 
   13080    13131    13086    12814    12256    11529    10805    10233 
    9891     9757     9734     9769     9860    10015    10246    10536 
   10881    11331    11925    12581    13149    13516    13633    13540 
   13344    13088    12719    12208    11624    11033    10432     9823 
    9234     8688     8326     8299     8575     9005     9445     9807 
   10153    10557    10918    11097    10974    10435     9497     8375 
    7272     6261     5404     4800     4526     4625     5124     6019 
    7257     8757    10341    11803    13036    13948    14449    14569 
   14357    13837    13176    12622    12286    12122    12117    12307 
   12645    12930    12941    12622    12094    11527    11064    10790 
   10678    10590    10384     9991     9458     8899     8401     7958 
    7586     7365     7290     7288     7339     7437     7555     7701 
    7898     8168     8477     8703     8827     9004     9358     9985 
   10971    12172    13248    13944    14166    13968    13485    12760 
   11762    10555     9283     8071     7044     6326     5968     5953 
    6237     6809     7672     8772     9999    11237    12339    13106 
   13400    13296    13050    12819    12564    12254    11892    11430 
   10933    10563    10411    10482    10768    11211    11700    12109 
   12376    12591    12880    13250    13606    13867    13998    14011 
   13963    13903    13815    13666    13487    13375    13410    13583 
   13787    13876    13790    13594    13400    13294    13301    13352 
   13401    13466    13548    13649    13775    13934    14193    14615 
   15148    15610    15824    15720    15291    14563    13689    12914 
   12438    12401    12868    13745    14804    15807    16540    16869 
   16791    16397    15776    15039    14364    13891    13626    13509 
   13467    13410    13281    13073    12784    12399    11935    11465 
   11055    10731    10516    10411    10361    10312    10203     9956 
    9586     9182     8800     8517     8440     8642     9128     9867 
