Origin Time       2016/04/16 01:25:00
Lat.              32.753
Long.             130.762
Depth. (km)       12
Mag.              7.3
Station Code      EHM015
Station Lat.      33.6094
Station Long.     132.4768
Station Height(m) 4
Record Time       2016/04/16 01:25:40
Sampling Freq(Hz) 100Hz
Duration Time(s)  105
Dir.              N-S
Scale Factor      7845(gal)/8223790
Max. Acc. (gal)   14.718
Last Correction   2016/04/16 01:25:40
Memo.             
[...]
   -2072    -1907    -1382     -714      -71      459      646      484 
     303      218      271      634     1053     1081      862      676 
     383      -78     -446     -654     -929    -1166    -1113     -984 
    -989    -1000    -1013    -1127    -1273    -1286    -1142     -972 
    -854     -801     -826     -927    -1047    -1038     -785     -361 
      45      337      553      585      210     -375     -820    -1159 
   -1399    -1355    -1119     -885     -634     -437     -421     -463 
    -463     -382     -143      191      493      751     1000     1155 
    1042      718      348      -70     -481     -767     -957    -1125 
   -1237    -1240    -1221    -1239    -1230    -1260    -1452    -1649 
   -1595    -1305     -868     -310      224      594      828      993 
    1069     1088     1124     1075      901      707      396     -112 
    -684    -1334    -2097    -2651    -2766    -2632    -2401    -2115 
   -2016    -2251    -2619    -2955    -3242    -3284    -2852    -2093 
   -1232     -236      657     1038     1046      973      741      382 
     147       49      -91     -369     -805    -1362    -1888    -2242 
   -2407    -2397    -2181    -1908    -1698    -1327     -796     -445 
    -276     -143     -178     -429     -629     -654     -538     -234 
      74       79     -108     -253     -399     -579     -695     -778 
   -1019    -1379    -1679    -1984    -2245    -2224    -2014    -1833 
   -1638    -1371    -1206    -1247    -1323    -1433    -1733    -2092 
   -2340    -2451    -2330    -1956    -1498    -1071     -696     -422 
    -198       65      256      270      259      348      382      259 
      98     -126     -495     -886    -1242    -1556    -1687    -1664 
   -1752    -2014    -2308    -2574    -2736    -2660    -2457    -2370 
   -2295    -1966    -1475    -1036     -661     -314        8      307 
     492      472      336      212       32     -346     -868    -1304 
   -1528    -1652    -1786    -1921    -2102    -2312    -2474    -2669 
   -2884    -2949    -2821    -2556    -2166    -1703    -1271     -884 
    -523     -306     -248     -155      -22       56      193      344 
     287       13     -395     -999    -1746    -2377    -2794    -3133 
   -3310    -3240    -3136    -2957    -2482    -1890    -1399     -919 
    -425      -99       90      370      699      858      799      576 
     255      -81     -364     -532     -625     -764     -950    -1069 
   -1046     -978    -1042    -1178    -1223    -1219    -1167     -966 
    -773     -765     -819     -849     -897     -864     -675     -495 
    -454     -410     -266      -91      164      499      727      700 
     503      301       39     -256     -383     -454     -657     -927 
   -1250    -1641    -2025    -2365    -2708    -3037    -3279    -3392 
   -3339    -3150    -3049    -3030    -2836    -2560    -2365    -2007 
   -1368     -672      -41      523      885      932      842      758 
     615      464      379      238       87       90       99     -128 
    -529     -922    -1316    -1651    -1644    -1293     -881     -549 
    -364     -344     -325     -182        1      252      680     1075 
    1232     1331     1372     1058      425     -236     -864    -1447 
   -1760    -1706    -1528    -1420    -1387    -1478    -1655    -1718 
   -1647    -1626    -1628    -1385     -918     -448      -14      266 
     212      -55     -425     -978    -1570    -1921    -2006    -1977 
   -1921    -1908    -2077    -2338    -2475    -2511    -2458    -2176 
   -1738    -1334     -955     -561     -228       86      488      795 
     849      783      576      147     -279     -493     -587     -672 
    -777     -913    -1026    -1125    -1390    -1867    -2344    -2770 
   -3229    -3539    -3511    -3331    -3165    -2855    -2362    -1899 
   -1466     -931     -433      -55      392      943     1459     1896 
    2142     1999     1530     1007      483      -63     -403     -486 
    -648    -1005    -1386    -1761    -2074    -2142    -1989    -1759 
   -1436     -966     -400      129      479      557      399      129 
    -139     -376     -549     -638     -808    -1201    -1713    -2246 
   -2721    -2952    -2903    -2732    -2394    -1804    -1215     -846 
    -585     -329     -140      -32       59      128      139      103 
     -44     -306     -532     -693     -761     -626     -402     -368 
    -622    -1032    -1509    -2065    -2544    -2795    -2914    -2876 
   -2489    -1904    -1409     -938     -480     -270     -151      182 
     540      781     1217     1831     2192     2192     1914     1263 
     425     -233     -722    -1143    -1374    -1514    -1833    -2211 
   -2419    -2533    -2542    -2344    -2100    -1945    -1726    -1316 
    -903     -623     -321      -44       91      305      630      810 
     851      873      719      326      -41     -270     -486     -652 
    -720     -868    -1151    -1401    -1564    -1682    -1652    -1482 
   -1345    -1269    -1239    -1344    -1516    -1634    -1748    -1787 
   -1611    -1340    -1094     -723     -252      -56     -236     -433 
    -540     -751     -945     -984    -1046    -1074     -862     -618 
    -653     -938    -1378    -1930    -2353    -2404    -2134    -1595 
    -787        5      467      711      882      789      429       70 
    -233     -495     -503     -238      -23        2     -136     -526 
   -1028    -1397    -1737    -2074    -2137    -1926    -1676    -1328 
    -869     -641     -697     -807    -1032    -1389    -1584    -1578 
   -1615    -1677    -1597    -1449    -1302    -1090     -909     -869 
    -877     -951    -1098    -1074     -828     -572     -266      228 
     746     1043     1209     1368     1331     1050      793      603 
     386      206       64     -129     -356     -506     -546     -522 
    -453     -360     -297     -259     -240     -386     -715     -990 
   -1185    -1501    -1837    -2003    -2165    -2344    -2239    -1926 
   -1641    -1297     -945     -816     -845     -922    -1116    -1289 
   -1248    -1144    -1069     -822     -409      -93      105      322 
     398      156     -203     -585    -1059    -1397    -1448    -1471 
   -1613    -1713    -1683    -1556    -1258     -785     -394     -178 
       4      135      233      526      953     1235     1383     1453 
    1317     1026      847      766      557      261       -1     -238 
    -427     -680    -1146    -1684    -2154    -2596    -3002    -3277 
   -3396    -3496    -3638    -3662    -3466    -3025    -2346    -1615 
    -994     -502     -201     -118     -178     -311     -468     -519 
    -338      -93      -28      -14       23     -129     -502     -943 
   -1356    -1606    -1634    -1561    -1466    -1242     -858     -490 
    -225      -14      143      216      175      -13     -291     -537 
    -712     -916    -1250    -1601    -1780    -1777    -1621    -1352 
   -1146    -1053     -922     -749     -680     -680     -571     -334 
     -83      112      170       29     -171     -315     -464     -622 
    -760     -947    -1183    -1426    -1606    -1576    -1402    -1277 
   -1127     -859     -584     -391     -205        9      105       59 
      47       71       -9     -157     -230     -330     -599     -874 
   -1069    -1343    -1698    -2034    -2282    -2336    -2272    -2288 
   -2313    -2143    -1914    -1826    -1717    -1554    -1560    -1479 
    -978     -441     -233      -74      118        0     -321     -451 
    -468     -472     -221      248      556      715      959     1128 
     967      495     -178     -926    -1495    -1717    -1749    -1722 
   -1551    -1471    -1765    -1991    -1710    -1208     -699      -54 
     621     1193     1757     2116     1981     1683     1634     1645 
    1501     1194      631       45     -180     -337     -723     -959 
    -903     -890     -885     -773     -781     -841     -730     -637 
    -680     -676     -569     -464     -375     -233      -44      126 
     317      506      427      120       43      209      324      606 
    1038      943      388       99       35      -89     -120     -129 
    -272     -318     -220     -263     -502     -723     -873    -1030 
   -1242    -1545    -1773    -1591    -1142     -987    -1115    -1050 
    -753     -353      184      568      380      -65     -141       94 
     256      287      309      429      599      675      675      645 
     604      639      750      812      724      476      251      283 
     430      421      352      370      392      414      506      544 
     429      307      209       35     -118      -83       36       81 
     139      233      152      -32        9      255      479      820 
    1318     1497     1255     1124     1154     1050     1081     1402 
    1601     1574     1420     1000      406     -117     -519     -749 
    -873    -1089    -1228    -1188    -1308    -1574    -1614    -1414 
   -1112     -564      321     1244     1977     2598     3017     3061 
    2925     2940     3111     3289     3537     3828     3740     3099 
    2400     1930     1457      850      256     -167     -432     -681 
    -982    -1167    -1020     -668     -364      -20      532     1250 
    2100     2871     3167     3160     3322     3438     3126     2710 
    2525     2324     1989     1759     1571     1154      697      631 
     800      675      210     -195     -314     -319     -506     -815 
    -974    -1093    -1487    -2062    -2570    -3203    -4095    -4774 
   -4966    -5039    -5113    -4976    -4870    -5080    -5219    -4904 
   -4395    -3981    -3535    -3071    -2849    -2809    -2745    -2620 
   -2471    -2475    -2555    -2427    -2334    -2471    -2350    -1850 
   -1656    -2093    -2698    -3109    -3528    -4063    -4369    -4251 
   -4028    -4009    -3990    -3754    -3551    -3557    -3537    -3345 
   -3226    -3385    -3411    -2860    -2176    -1937    -1921    -1873 
   -2070    -2644    -3238    -3458    -3296    -3038    -2963    -3194 
   -3600    -3877    -3951    -3960    -3929    -3920    -3923    -3746 
   -3532    -3599    -3743    -3685    -3613    -3585    -3311    -2810 
   -2303    -1781    -1225     -766     -372      178      864     1314 
    1336     1205     1210     1163      785      243     -162     -453 
    -767    -1060    -1277    -1466    -1613    -1653    -1609    -1544 
   -1444    -1260    -1074    -1067    -1324    -1802    -2474    -3352 
   -4318    -5197    -5977    -6620    -6998    -7198    -7495    -8111 
   -8947    -9790   -10665   -11493   -11966   -12010   -11781   -11245 
  -10300    -9165    -8194    -7464    -6737    -5746    -4456    -2925 
   -1166      650     2334     3880     5161     5919     6258     6462 
    6524     6385     6234     6133     5892     5443     4824     3967 
    2810     1506      356     -545    -1394    -2319    -3206    -3786 
   -4012    -4063    -3838    -3159    -2203    -1058      492     2401 
    4225     5813     7288     8490     9240     9703     9903     9705 
    9159     8182     6643     4747     2725      681    -1169    -2728 
   -4079    -5124    -5590    -5481    -5050    -4247    -2868    -1162 
     611     2508     4266     5522     6558     7705     8757     9525 
    9930     9834     9410     8853     8005     6959     6073     5390 
    4835     4415     3861     2787     1259     -437    -2385    -4631 
   -6779    -8581   -10143   -11439   -12306   -12758   -12857   -12680 
  -12469   -12220   -11535   -10389    -9242    -8176    -6922    -5653 
   -4799    -4303    -3880    -3563    -3364    -3045    -2562    -2045 
   -1382     -476      444     1291     2161     2944     3573     4156 
    4658     4965     5171     5458     5813     6083     6230     6296 
    6301     6207     5890     5279     4515     3624     2369      834 
    -560    -1728    -2691    -3226    -3391    -3563    -3680    -3336 
   -2558    -1615     -562      481     1368     2347     3497     4307 
    4529     4388     3897     2924     1664      583       11     -116 
    -103     -209     -423     -490     -411     -533    -1004    -1800 
   -2986    -4280    -5171    -5698    -6070    -6061    -5582    -4977 
   -4401    -3757    -3141    -2539    -1613     -383      801     2034 
    3510     5000     6242     7184     7916     8610     9271     9741 
   10029    10278    10485    10551    10540    10525    10319     9740 
    8862     7595     5746     3693     1941      333    -1439    -3199 
   -4692    -5958    -7072    -7917    -8272    -8067    -7433    -6516 
   -5428    -4255    -3130    -2265    -1651    -1193    -1078    -1302 
   -1543    -1750    -2153    -2893    -3852    -4781    -5471    -5771 
   -5753    -5540    -4992    -4055    -3059    -2411    -2296    -2677 
   -3427    -4321    -5105    -5689    -6042    -6092    -5949    -5815 
   -5814    -6030    -6399    -6606    -6501    -6378    -6421    -6416 
   -6394    -6610    -6976    -7323    -7704    -8083    -8189    -7797 
   -6899    -5597    -4059    -2439     -643     1422     3423     4966 
    6115     7148     8070     8708     9009     9111     9135     8912 
    8208     7018     5328     3140      778    -1366    -3330    -5289 
   -7025    -8306    -9290    -9981   -10042    -9493    -8792    -8010 
   -6903    -5580    -4295    -3126    -2077    -1200     -718     -838 
   -1401    -2196    -3307    -4918    -6975    -9228   -11449   -13451 
  -15029   -15985   -16283   -15971   -14998   -13481   -11685    -9690 
   -7570    -5530    -3572    -1706     -322      400      769      824 
     457       -2     -348     -901    -1872    -2933    -3839    -4841 
   -6069    -7302    -8332    -8991    -9131    -8777    -8025    -6948 
   -5805    -4876    -4260    -4112    -4500    -5115    -5552    -5733 
   -5737    -5463    -4897    -4288    -3530    -2316     -954      106 
     987     1888     2662     3191     3731     4561     5647     6766 
    7541     7666     7127     5940     4228     2386      662     -899 
   -2019    -2436    -2489    -2681    -3040    -3516    -4327    -5505 
   -6732    -7788    -8557    -8910    -8997    -8946    -8410    -7306 
   -6301    -5784    -5413    -5053    -4905    -4780    -4431    -4228 
   -4475    -4779    -4923    -5163    -5367    -5136    -4584    -4093 
   -3690    -3149    -2420    -1583     -738     -120      140      156 
      89      149      390      573      526      170     -630    -1671 
   -2397    -2660    -2609    -2119    -1267     -502       58      619 
    1125     1572     2309     3213     3776     4031     4148     3867 
    3051     1933      633     -805    -2050    -2727    -2813    -2502 
   -1922    -1294     -942    -1008    -1404    -2003    -2739    -3466 
   -4081    -4680    -5347    -6166    -7236    -8441    -9647   -10902 
  -12064   -12742   -12892   -12738   -12225   -11257   -10071    -8935 
   -7839    -6651    -5227    -3488    -1593      240     1991     3636 
    4916     5622     5809     5417     4271     2451      244    -2033 
   -4102    -5763    -6893    -7470    -7506    -7110    -6698    -6659 
   -6879    -6975    -6592    -5459    -3639    -1457      850     3090 
    4974     6254     6883     6952     6723     6544     6412     6041 
    5394     4533     3279     1544     -330    -2004    -3527    -4903 
   -5958    -6669    -7082    -7229    -7156    -6790    -6035    -4986 
   -3688    -1945      203     2421     4549     6369     7337     7183 
    6200     4849     3424     2154     1254      670      276      148 
     163      -44     -621    -1404    -2119    -2559    -2693    -2528 
   -1942     -928      144      953     1645     2477     3357     4105 
    4710     5082     5019     4611     4199     3811     3291     2799 
    2517     2374     2336     2390     2334     1987     1386      623 
    -216    -1065    -1780    -1991    -1611    -1065     -560       64 
     687      985     1059     1169     1031      322     -612    -1425 
   -2245    -3071    -3682    -4045    -4174    -4016    -3604    -2943 
   -1964     -734      619     1968     3141     4125     5049     5800 
    6096     5888     5395     4823     4238     3713     3333     2891 
    2158     1356      675      -11     -588     -886    -1105    -1426 
   -1769    -2097    -2552    -3144    -3751    -4510    -5471    -6204 
   -6482    -6435    -5956    -4973    -3721    -2374    -1015      211 
    1287     2439     3747     4932     5810     6320     6331     5907 
    5212     4172     2743     1104     -704    -2849    -5169    -7241 
   -8876    -9977   -10498   -10639   -10633   -10494   -10211    -9871 
   -9321    -8201    -6458    -4306    -2031      -36     1448     2542 
    3298     3613     3555     3377     3280     3312     3499     3917 
    4515     5085     5456     5564     5433     5164     4870     4561 
    4135     3445     2435     1367      545     -189     -993    -1533 
   -1586    -1416    -1197     -837     -422     -209     -229     -352 
    -552     -665     -368      257      880     1379     1584     1301 
     702      162      -85      -31      252      687     1071     1194 
     973      471     -122     -679    -1205    -1647    -1902    -2043 
   -2146    -2141    -2092    -2188    -2392    -2592    -2805    -3015 
   -3159    -3272    -3333    -3107    -2527    -1977    -1725    -1557 
   -1347    -1206    -1004     -635     -450     -603     -874    -1381 
   -2251    -3022    -3300    -3261    -2992    -2377    -1606     -915 
    -294      147      411      838     1517     2177     2748     3260 
    3404     2988     2168      895     -819    -2424    -3507    -4194 
   -4614    -4610    -4144    -3586    -3260    -3198    -3380    -3576 
   -3330    -2463    -1093      649     2481     4036     5174     5814 
    5834     5401     4899     4411     3858     3373     2921     2295 
    1647     1125      575        2     -333     -368     -207      351 
    1475     2744     3744     4460     4896     5035     4897     4548 
    4205     3998     3723     3194     2536     1914     1259      533 
     -78     -506     -922    -1313    -1447    -1302     -973     -336 
     650     1750     2878     4074     5139     6002     6845     7508 
    7726     7592     7175     6346     5109     3676     2134      538 
    -683    -1269    -1509    -1676    -1884    -2311    -2945    -3526 
   -3970    -4307    -4241    -3568    -2660    -1890    -1136     -298 
     518     1271     1798     1888     1698     1478     1274     1209 
    1368     1513     1455     1334     1275     1138      708      -45 
    -972    -1842    -2496    -2895    -3046    -2956    -2720    -2592 
   -2666    -2636    -2301    -1846    -1535    -1499    -1648    -1625 
   -1112     -233      621     1235     1668     2077     2646     3528 
    4479     5026     5073     4634     3619     2249     1016      166 
    -411     -955    -1597    -2241    -2697    -2851    -2774    -2694 
   -2702    -2731    -2714    -2606    -2322    -1841    -1345    -1090 
   -1144    -1267    -1255    -1156     -892     -387      180      727 
    1237     1487     1348     1043      737      249     -544    -1273 
   -1425    -1065     -714     -747    -1188    -1798    -2297    -2517 
   -2434    -2130    -1818    -1760    -2064    -2652    -3446    -4240 
