Origin Time       2016/04/16 01:25:00
Lat.              32.753
Long.             130.762
Depth. (km)       12
Mag.              7.3
Station Code      EHM006
Station Lat.      33.6410
Station Long.     133.0082
Station Height(m) 552
Record Time       2016/04/16 01:25:51
Sampling Freq(Hz) 100Hz
Duration Time(s)  103
Dir.              E-W
Scale Factor      7845(gal)/8223790
Max. Acc. (gal)   4.528
Last Correction   2016/04/16 01:25:51
Memo.             
[...]
    1590     1548     1470     1370     1270     1202     1143     1035 
     908      823      737      657      706      882     1034     1107 
    1163     1171     1058      889      761      677      669      792 
     970     1105     1213     1296     1297     1243     1224     1269 
    1328     1344     1281     1139     1005      986     1044     1065 
    1080     1185     1318     1345     1310     1325     1397     1464 
    1497     1487     1453     1416     1367     1304     1243     1196 
    1138     1058      981      934      946     1012     1085     1115 
    1123     1204     1360     1452     1410     1308     1213     1138 
    1081     1043     1032     1089     1229     1347     1329     1243 
    1206     1215     1220     1220     1212     1192     1189     1212 
    1229     1239     1244     1205     1138     1135     1215     1281 
    1285     1286     1300     1267     1200     1159     1162     1188 
    1197     1154     1113     1178     1336     1447     1470     1517 
    1622     1658     1572     1459     1371     1266     1162     1136 
    1197     1327     1509     1658     1715     1748     1795     1784 
    1714     1683     1714     1732     1687     1625     1588     1552 
    1525     1539     1568     1614     1687     1722     1664     1564 
    1490     1437     1404     1397     1382     1327     1248     1163 
    1063      929      799      770      877     1050     1194     1225 
    1165     1092      981      837      756      766      826      893 
     931      943      992     1077     1105     1043      970      942 
     931      895      810      702      653      673      670      587 
     475      411      410      422      433      461      508      584 
     720      943     1244     1539     1725     1786     1781     1767 
    1757     1744     1736     1740     1722     1638     1509     1383 
    1317     1341     1389     1385     1364     1399     1480     1535 
    1517     1451     1372     1285     1202     1129     1065     1069 
    1178     1320     1410     1462     1516     1557     1540     1460 
    1341     1190     1059      982      886      760      692      685 
     653      553      390      232      201      329      487      531 
     546      706      922      987      946     1000     1148     1220 
    1197     1198     1271     1367     1413     1368     1271     1183 
    1119     1088     1117     1196     1277     1344     1391     1393 
    1368     1385     1426     1412     1331     1242     1201     1247 
    1343     1379     1363     1379     1413     1367     1227     1078 
     973      908      885      918      989     1063     1102     1043 
     854      623      480      444      461      526      658      854 
    1069     1244     1374     1443     1417     1321     1197     1055 
     919      823      788      810      851      907     1026     1215 
    1350     1306     1107      923      889      994     1112     1140 
    1139     1210     1275     1163      915      738      714      762 
     808      845      896     1003     1165     1271     1219     1093 
    1107     1259     1308     1124      874      757      737      707 
     668      630      587      560      540      496      473      529 
     684      905     1090     1142     1081     1020     1031     1086 
    1128     1131     1119     1133     1162     1166     1163     1228 
    1405     1605     1665     1556     1425     1364     1291     1159 
    1028      908      776      679      684      753      746      566 
     328      307      561      801      857      886      997     1034 
     864      538      211       83      198      341      429      606 
     831      907      882      923      963      861      661      508 
     483      592      745      772      633      514      532      589 
     639      749      922     1080     1093      869      540      380 
     469      643      751      757      704      666      668      643 
     522      383      402      526      596      634      711      758 
     757      791      868      897      889      919      976     1023 
    1104     1221     1258     1163     1090     1158     1278     1327 
    1287     1194     1112     1131     1197     1169     1067     1021 
     980      843      661      529      473      492      526      464 
     306      233      286      252       78      -25       32      152 
     270      400      560      724      778      645      480      526 
     746      797      577      430      545      639      521      383 
     423      614      791      737      441      253      451      769 
     795      595      486      515      510      390      243      182 
     283      519      718      714      545      390      376      467 
     518      473      436      513      670      828      922      873 
     711      579      526      522      572      606      518      375 
     325      383      510      665      754      764      767      783 
     800      789      700      602      537      364       68     -101 
     -32      157      407      681      864      924      958     1000 
    1003      967      942      946      929      826      680      691 
     890     1004      888      765      816      924      951      926 
     927     1003     1156     1286     1243     1051      895      831 
     770      714      720      746      753      827      987     1069 
     972      832      810      824      706      476      342      427 
     602      681      673      672      706      749      747      707 
     711      719      588      383      330      459      552      437 
     205       94      166      246      263      346      556      823 
    1067     1177     1090      946      903      903      854      826 
     926     1080     1167     1194     1185     1089      966      986 
    1129     1192     1119      999      843      662      579      675 
     831      896      939     1065     1162     1107      973      880 
     927     1115     1266     1219     1113     1162     1262     1256 
    1221     1202     1133     1051     1031     1035     1000      880 
     645      450      495      679      777      797      834      850 
     785      657      508      386      318      311      363      459 
     532      557      611      702      715      631      591      679 
     819      938     1026     1067     1039     1011     1071     1178 
    1175     1050      955      982     1081     1213     1355     1394 
    1287     1209     1252     1278     1198     1143     1185     1206 
    1131     1043      989      942      950     1020     1077     1096 
    1063      899      626      417      370      430      522      638 
     783      953     1151     1337     1410     1381     1364     1386 
    1412     1466     1541     1597     1661     1786     1945     2066 
    2111     2114     2084     1987     1825     1632     1443     1290 
    1161      997      850      832      903      961     1062     1243 
    1372     1394     1451     1610     1729     1691     1591     1591 
    1709     1852     1956     2004     2020     2046     2083     2069 
    1939     1682     1382     1189     1175     1252     1264     1239 
    1293     1378     1397     1409     1464     1480     1451     1467 
    1553     1692     1858     1930     1863     1784     1780     1804 
    1776     1642     1448     1333     1363     1440     1455     1416 
    1405     1480     1588     1576     1420     1300     1308     1310 
    1254     1282     1459     1625     1642     1568     1549     1590 
    1591     1594     1690     1792     1763     1610     1429     1287 
    1193     1078      899      772      819      935      967      958 
    1016     1127     1219     1262     1248     1204     1235     1399 
    1584     1651     1615     1591     1642     1757     1850     1815 
    1688     1638     1734     1841     1818     1698     1617     1644 
    1707     1713     1682     1734     1927     2161     2292     2307 
    2280     2250     2226     2192     2092     1917     1792     1829 
    1908     1842     1679     1637     1725     1732     1578     1401 
    1321     1305     1270     1223     1237     1325     1413     1421 
    1337     1212     1060      881      730      631      540      419 
     261      109       67      182      353      472      576      770 
    1005     1136     1131     1047      951      903      934     1003 
    1058     1096     1100     1048     1011     1107     1285     1334 
    1223     1124     1090      986      811      722      734      718 
     662      672      750      780      688      542      418      315 
     252      272      351      398      391      396      437      445 
     437      506      588      522      340      214      162       44 
    -163     -318     -324     -220     -126     -140     -243     -334 
    -388     -449     -526     -587     -592     -553     -533     -518 
    -417     -251     -112       -9       87      148      176      257 
     395      493      523      540      581      635      683      747 
     870     1008     1104     1167     1201     1213     1247     1337 
    1441     1495     1528     1579     1610     1630     1677     1677 
    1553     1394     1327     1312     1260     1200     1197     1259 
    1341     1355     1256     1143     1142     1252     1343     1297 
    1196     1215     1339     1387     1293     1169     1185     1374 
    1583     1655     1606     1568     1580     1580     1528     1451 
    1418     1448     1505     1570     1622     1653     1723     1858 
    1952     1925     1844     1794     1777     1734     1587     1344 
    1155     1140     1230     1286     1329     1449     1617     1807 
    2029     2218     2296     2272     2196     2107     2004     1863 
    1656     1429     1286     1305     1441     1518     1468     1402 
    1345     1224     1034      801      521      234        4     -184 
    -349     -471     -566     -653     -673     -602     -519     -495 
    -483     -402     -256     -178     -295     -518     -631     -583 
    -531     -603     -715     -715     -623     -589     -695     -868 
    -981     -994     -977     -955     -853     -633     -387     -229 
    -143        2      286      629      919     1173     1452     1776 
    2153     2528     2808     2992     3157     3314     3439     3547 
    3653     3757     3836     3850     3797     3732     3724     3802 
    3928     4051     4128     4132     4083     4013     3893     3669 
    3400     3218     3103     2907     2625     2400     2303     2245 
    2116     1944     1852     1871     1892     1814     1642     1472 
    1393     1404     1420     1391     1341     1328     1382     1499 
    1657     1858     2098     2382     2720     3006     3079     2967 
    2839     2740     2584     2380     2272     2343     2500     2614 
    2648     2625     2581     2558     2624     2776     2907     2941 
    2899     2799     2600     2350     2143     2010     1953     1982 
    2052     2060     1954     1809     1737     1781     1892     1982 
    1971     1821     1572     1300     1009      689      409      198 
      -5     -228     -437     -646     -877    -1085    -1251    -1424 
   -1578    -1629    -1543    -1398    -1352    -1457    -1603    -1647 
   -1583    -1502    -1431    -1327    -1155     -969     -873     -893 
    -958    -1009    -1048    -1065    -1053    -1046    -1105    -1213 
   -1290    -1290    -1258    -1252    -1266    -1247    -1171    -1053 
    -907     -711     -486     -313     -203      -94        8       25 
     -44     -152     -265     -340     -355     -332     -287     -240 
    -207     -166      -45      135      261      346      525      766 
     873      801      749      880     1142     1401     1620     1826 
    2006     2147     2289     2392     2386     2347     2442     2721 
    3026     3163     3122     3024     2920     2763     2540     2336 
    2205     2133     2120     2180     2261     2288     2222     2076 
    1922     1831     1821     1858     1911     1927     1861     1725 
    1571     1447     1409     1486     1606     1690     1763     1906 
    2043     1996     1744     1412     1080      764      496      337 
     253      125      -90     -317     -464     -506     -477     -419 
    -337     -198      -11      143      255      391      504      469 
     306      163       90       13     -122     -261     -364     -437 
    -383     -125      122       99     -144     -365     -453     -451 
    -409     -315     -120      178      440      503      357      128 
     -27      -22      109      301      552      859     1084     1071 
     918      845      897     1007     1152     1318     1451     1495 
    1412     1251     1124     1043      938      800      702      676 
     575      298       16      -94      -74       16      180      344 
     364      232      122      236      595     1035     1368     1520 
    1574     1655     1736     1711     1628     1649     1796     1937 
    2012     2092     2211     2354     2492     2546     2474     2344 
    2289     2292     2226     2092     2056     2189     2355     2421 
    2423     2454     2569     2755     2926     3002     2936     2758 
    2617     2605     2658     2727     2829     2933     3036     3217 
    3478     3694     3770     3786     3840     3919     4014     4162 
    4369     4688     5151     5594     5772     5661     5445     5223 
    4947     4615     4338     4240     4337     4515     4603     4552 
    4452     4367     4278     4140     3959     3809     3717     3569 
    3261     2886     2660     2658     2732     2755     2763     2844 
    2984     3078     3046     2884     2633     2349     2031     1653 
    1256      886      504       91     -279     -561     -777     -943 
   -1017     -987     -938     -954    -1050    -1185    -1306    -1387 
   -1443    -1459    -1420    -1332    -1217    -1117    -1097    -1194 
   -1358    -1479    -1513    -1485    -1325     -949     -464      -52 
     237      425      525      542      499      429      407      517 
     761     1024     1239     1491     1825     2147     2359     2427 
    2404     2415     2504     2535     2400     2232     2168     2104 
    1960     1885     1984     2166     2365     2610     2844     2901 
    2727     2428     2079     1680     1252      818      396       63 
    -128     -207     -282     -441     -657     -843    -1004    -1171 
   -1286    -1296    -1259    -1274    -1372    -1493    -1554    -1548 
   -1482    -1329    -1123     -992    -1023    -1127    -1170    -1150 
   -1101    -1026     -922     -772     -607     -535     -606     -684 
    -634     -483     -301      -86      184      502      850     1158 
    1341     1431     1472     1457     1445     1535     1732     1915 
    2008     2056     2126     2235     2369     2451     2413     2289 
    2155     2039     1935     1848     1818     1914     2151     2420 
    2538     2436     2212     1927     1561     1189      984     1007 
    1185     1425     1606     1644     1628     1671     1688     1539 
    1267     1032      903      808      668      517      469      542 
     610      556      442      383      332      190        1      -89 
     -14      155      307      407      495      649      950     1345 
    1638     1714     1609     1389     1112      807      464      144 
     -23      -18       63      141      180      149       47      -67 
    -149     -236     -344     -406     -369     -276     -211     -210 
    -210     -144      -49      -18     -118     -274     -318     -220 
    -102      -58      -74      -95      -71      -18       -1      -10 
     -22      -81     -176     -232     -225     -160       -5      248 
     553      826      974      959      877      861      915      990 
    1046     1028      953      855      724      587      511      510 
     545      595      654      702      728      735      679      525 
     330      211      253      450      676      784      801      826 
     820      706      532      405      391      484      561      545 
     506      500      511      572      780     1132     1476     1717 
    1912     2096     2173     2101     1946     1752     1553     1448 
    1494     1602     1657     1628     1505     1329     1232     1279 
    1399     1512     1617     1723     1781     1772     1691     1497 
    1210      931      676      407      184      139      299      548 
     720      739      610      400      241      190      164      133 
     148      205      238      216      118      -71     -330     -579 
    -739     -810     -838     -847     -785     -648     -556     -616 
    -756     -845     -854     -795     -645     -425     -245     -168 
    -102       60      266      409      496      583      670      734 
     741      710      720      823      994     1139     1125      961 
     792      704      681      681      664      656      687      685 
     569      351      109      -23       11      112      178      276 
     451      571      487      236      -23     -211     -333     -414 
    -461     -464     -433     -414     -415     -415     -427     -475 
    -542     -595     -621     -677     -785     -841     -765     -612 
    -429     -233      -81        5       72      155      256      369 
     460      483      459      425      352      229      117       47 
       4        8       89      160       95      -99     -299     -419 
    -481     -517     -496     -365     -143       43       86       39 
      40      139      266      336      344      341      376      450 
     483      407      325      357      449      518      637      838 
     965      927      911     1128     1497     1783     1892     1908 
    1939     1989     1975     1868     1783     1863     2065     2196 
    2232     2309     2451     2562     2565     2458     2328     2274 
    2273     2215     2046     1825     1680     1655     1665     1652 
    1656     1698     1722     1679     1567     1405     1251     1159 
    1124     1089     1046     1031     1071     1155     1232     1286 
    1344     1408     1457     1466     1420     1394     1451     1493 
    1390     1175      977      868      861      936     1042     1121 
    1163     1201     1239     1202     1053      866      730      645 
     569      515      537      629      681      612      468      359 
     334      360      373      363      349      337      324      318 
     279      203      157      160      168      160      124       60 
      40      109      190      238      352      526      596      542 
     496      457      336      168       55        5      -22      -20 
      47      159      259      324      342      321      287      257 
     232      234      263      279      270      279      299      302 
     346      496      696      869     1008     1111     1147     1140 
    1171     1282     1424     1521     1561     1615     1738     1880 
    1960     2003     2072     2185     2323     2412     2361     2204 
    2087     2066     2092     2107     2088     2065     2073     2107 
    2126     2076     1930     1764     1694     1732     1753     1656 
