Origin Time       2016/04/16 01:25:00
Lat.              32.753
Long.             130.762
Depth. (km)       12
Mag.              7.3
Station Code      EHM003
Station Lat.      33.9266
Station Long.     133.0843
Station Height(m) 4
Record Time       2016/04/16 01:26:18
Sampling Freq(Hz) 100Hz
Duration Time(s)  69
Dir.              E-W
Scale Factor      7845(gal)/8223790
Max. Acc. (gal)   11.349
Last Correction   2016/04/16 01:26:19
Memo.             
[...]
    4557     4352     4101     3844     3624     3456     3331     3250 
    3210     3206     3248     3345     3495     3666     3821     3975 
    4156     4314     4391     4387     4310     4167     3983     3785 
    3600     3450     3350     3322     3341     3376     3434     3526 
    3674     3883     4106     4329     4571     4837     5100     5346 
    5572     5740     5827     5860     5852     5831     5852     5919 
    6008     6083     6110     6099     6070     6039     6019     6008 
    6019     6087     6208     6354     6515     6666     6767     6808 
    6812     6804     6794     6786     6782     6826     6936     7065 
    7182     7291     7406     7526     7627     7696     7749     7803 
    7842     7825     7728     7534     7264     6979     6697     6389 
    6039     5684     5386     5169     5011     4887     4777     4668 
    4553     4452     4382     4340     4320     4318     4318     4301 
    4263     4213     4159     4097     4043     4023     4041     4101 
    4175     4222     4232     4202     4153     4106     4043     3931 
    3767     3582     3450     3414     3420     3396     3342     3331 
    3420     3577     3740     3883     4008     4091     4102     4045 
    3974     3924     3863     3753     3642     3589     3584     3593 
    3619     3662     3709     3734     3742     3789     3882     3977 
    4043     4085     4107     4109     4085     4047     4009     4005 
    4063     4149     4217     4266     4336     4460     4618     4735 
    4791     4838     4923     5035     5140     5242     5333     5373 
    5305     5148     4989     4872     4738     4544     4299     4059 
    3879     3821     3919     4147     4460     4806     5143     5456 
    5744     5999     6216     6378     6490     6586     6682     6754 
    6774     6741     6669     6559     6400     6193     5949     5678 
    5414     5184     4994     4880     4837     4822     4824     4868 
    4961     5057     5100     5076     4993     4900     4865     4909 
    5008     5128     5208     5161     4994     4846     4833     4914 
    4997     5032     5026     4993     4947     4923     4962     5012 
    4988     4850     4633     4399     4197     4020     3847     3705 
    3636     3662     3762     3875     3969     4052     4149     4271 
    4433     4641     4846     4980     5011     4953     4860     4781 
    4693     4550     4364     4159     3946     3751     3609     3547 
    3603     3781     4012     4256     4529     4784     4942     4976 
    4887     4704     4492     4311     4163     4008     3821     3631 
    3466     3353     3319     3350     3411     3511     3661     3827 
    3973     4055     4083     4098     4129     4202     4330     4480 
    4619     4748     4878     4996     5084     5157     5240     5333 
    5425     5526     5655     5805     5953     6083     6188     6273 
    6313     6290     6230     6141     6003     5848     5755     5800 
    5965     6170     6384     6606     6821     7015     7179     7299 
    7365     7344     7225     7052     6856     6631     6358     6031 
    5722     5509     5401     5377     5409     5459     5517     5579 
    5637     5670     5663     5601     5495     5382     5266     5162 
    5097     5035     4936     4835     4803     4899     5119     5386 
    5629     5846     6038     6224     6426     6628     6826     7011 
    7141     7179     7130     7022     6875     6701     6527     6400 
    6354     6401     6517     6637     6739     6839     6925     6972 
    6970     6903     6805     6714     6635     6590     6590     6586 
    6512     6353     6124     5871     5632     5436     5292     5212 
    5201     5217     5215     5174     5070     4887     4617     4301 
    4048     3943     4001     4159     4314     4395     4380     4283 
    4137     3997     3892     3788     3627     3406     3165     2952 
    2811     2786     2905     3150     3465     3811     4156     4438 
    4615     4688     4689     4654     4588     4460     4252     3987 
    3711     3454     3246     3122     3080     3084     3134     3261 
    3468     3721     4012     4363     4739     5082     5364     5602 
    5805     5946     6015     6057     6093     6099     6048     5961 
    5899     5888     5922     5972     6016     6046     6018     5895 
    5683     5414     5105     4760     4410     4122     3956     3924 
    4013     4191     4399     4596     4766     4899     5011     5139 
    5285     5404     5459     5440     5395     5417     5524     5649 
    5741     5793     5815     5810     5803     5809     5818     5818 
    5778     5710     5701     5769     5854     5915     5946     5961 
    5965     5930     5875     5863     5873     5863     5856     5892 
    5975     6077     6160     6178     6093     5919     5715     5529 
    5389     5309     5309     5412     5634     5949     6274     6554 
    6781     6955     7102     7229     7285     7244     7096     6848 
    6544     6235     5935     5638     5351     5090     4903     4868 
    5001     5259     5579     5902     6199     6462     6658     6737 
    6681     6520     6301     6008     5625     5184     4720     4266 
    3838     3470     3207     3064     2998     2990     3048     3175 
    3357     3563     3771     3993     4205     4369     4467     4483 
    4437     4372     4352     4429     4588     4804     5058     5317 
    5559     5752     5898     6049     6212     6328     6323     6172 
    5927     5660     5405     5188     5015     4850     4669     4519 
    4440     4455     4579     4804     5078     5347     5579     5767 
    5922     6052     6156     6231     6266     6270     6262     6257 
    6278     6336     6413     6482     6529     6577     6633     6659 
    6612     6488     6322     6147     5960     5738     5467     5148 
    4806     4499     4302     4228     4248     4329     4406     4418 
    4349     4243     4168     4159     4213     4301     4378     4437 
    4486     4502     4468     4384     4271     4149     4024     3925 
    3912     3998     4168     4387     4591     4739     4841     4928 
    5008     5057     5039     4958     4854     4766     4722     4741 
    4819     4899     4923     4899     4857     4796     4720     4644 
    4548     4411     4220     3971     3700     3437     3217     3088 
    3056     3103     3241     3465     3728     3998     4286     4556 
    4773     4916     4942     4828     4615     4368     4145     3973 
    3861     3836     3924     4110     4329     4552     4796     5051 
    5298     5539     5769     5995     6212     6385     6521     6646 
    6744     6806     6801     6729     6625     6520     6448     6394 
    6292     6129     5946     5784     5633     5478     5348     5259 
    5185     5128     5108     5147     5252     5393     5562     5756 
    5929     6065     6186     6303     6393     6411     6346     6237 
    6130     6061     6029     6010     6003     6034     6137     6330 
    6600     6909     7215     7481     7682     7807     7844     7819 
    7766     7722     7740     7824     7894     7894     7811     7676 
    7560     7512     7522     7553     7566     7535     7470     7406 
    7360     7329     7307     7285     7241     7179     7107     7010 
    6867     6686     6504     6322     6115     5906     5718     5557 
    5433     5329     5217     5059     4843     4594     4330     4081 
    3869     3690     3526     3346     3129     2902     2720     2616 
    2606     2675     2802     2980     3187     3402     3608     3780 
    3910     3987     3991     3943     3877     3827     3842     3943 
    4149     4471     4851     5204     5478     5680     5810     5850 
    5833     5833     5877     5950     6018     6079     6164     6277 
    6388     6484     6567     6629     6659     6679     6687     6664 
    6613     6542     6465     6381     6266     6143     6042     5945 
    5825     5683     5541     5435     5359     5275     5177     5078 
    4994     4950     4936     4907     4842     4722     4558     4417 
    4345     4360     4490     4738     5049     5360     5643     5869 
    6035     6141     6189     6226     6295     6394     6493     6569 
    6624     6650     6639     6623     6640     6717     6817     6872 
    6903     6961     7059     7186     7329     7465     7593     7713 
    7821     7924     8019     8056     7998     7850     7631     7371 
    7110     6872     6679     6546     6459     6408     6366     6290 
    6162     6008     5845     5672     5483     5244     4945     4621 
    4283     3946     3650     3410     3202     2994     2778     2583 
    2452     2389     2377     2398     2428     2454     2488     2533 
    2551     2486     2338     2142     1958     1849     1836     1915 
    2077     2285     2509     2785     3127     3511     3899     4236 
    4518     4783     5030     5235     5379     5432     5364     5184 
    4970     4810     4747     4800     4914     5034     5147     5238 
    5275     5202     4966     4571     4062     3496     2948     2474 
    2083     1773     1561     1452     1436     1512     1682     1939 
    2230     2517     2816     3132     3424     3622     3726     3834 
    3948     4052     4218     4437     4646     4845     5027     5211 
    5437     5702     5940     6141     6338     6488     6542     6540 
    6516     6488     6469     6460     6496     6585     6687     6777 
    6855     6914     6949     6955     6943     6936     6932     6934 
    6976     7063     7156     7236     7321     7442     7589     7709 
    7788     7817     7777     7646     7434     7164     6821     6372 
    5829     5246     4672     4116     3601     3152     2729     2297 
    1837     1333      778      189     -399     -961    -1466    -1906 
   -2292    -2610    -2840    -2978    -3026    -3005    -2934    -2813 
   -2647    -2454    -2224    -1962    -1699    -1431    -1144     -830 
    -430       90      739     1532     2442     3418     4442     5471 
    6462     7411     8289     9066     9737    10312    10801    11214 
   11546    11757    11834    11767    11556    11241    10845    10404 
    9977     9589     9254     8999     8847     8811     8865     9001 
    9205     9420     9633     9863    10069    10233    10361    10420 
   10411    10311    10084     9742     9304     8757     8101     7376 
    6640     5952     5408     5088     5004     5143     5462     5871 
    6272     6615     6917     7173     7319     7349     7295     7140 
    6906     6644     6323     5926     5478     5001     4558     4205 
    3970     3902     3993     4159     4356     4538     4641     4677 
    4664     4563     4406     4233     4055     3928     3883     3912 
    3998     4093     4178     4317     4513     4684     4812     4891 
    4877     4791     4714     4676     4666     4642     4541     4379 
    4187     3970     3762     3582     3402     3207     3013     2816 
    2578     2284     1975     1684     1421     1224     1177     1358 
    1763     2381     3180     4099     5090     6083     7021     7938 
    8808     9566    10187    10652    10939    11049    10976    10712 
   10270     9690     9013     8281     7522     6741     5952     5159 
    4390     3708     3137     2678     2380     2236     2196     2253 
    2407     2632     2915     3237     3582     3905     4168     4386 
    4591     4826     5103     5386     5652     5884     6044     6120 
    6139     6079     5886     5539     5038     4421     3719     3001 
    2342     1745     1271      984      846      873     1096     1474 
    1987     2593     3148     3563     3851     4002     4031     3983 
    3908     3850     3865     3989     4205     4515     4911     5359 
    5834     6295     6709     7103     7480     7809     8082     8260 
    8337     8360     8352     8379     8494     8730     9143     9686 
   10305    11038    11796    12456    13027    13477    13709    13679 
   13374    12841    12133    11321    10520     9796     9198     8737 
    8347     8077     7943     7890     7963     8152     8364     8606 
    8868     9093     9292     9490     9671     9811     9894     9902 
    9864     9817     9741     9640     9560     9528     9537     9586 
    9672     9780     9904    10042    10161    10245    10296    10346 
   10412    10449    10408    10269    10014     9629     9137     8579 
    7950     7253     6552     5902     5305     4730     4190     3774 
    3514     3388     3407     3558     3798     4079     4333     4550 
    4750     4896     4927     4842     4662     4371     3983     3568 
    3173     2816     2527     2358     2305     2358     2477     2602 
    2697     2702     2605     2484     2405     2400     2421     2405 
    2366     2295     2115     1781     1282      622     -172    -1055 
   -1941    -2799    -3615    -4334    -4928    -5424    -5793    -5988 
   -5973    -5698    -5164    -4425    -3487    -2400    -1251      -58 
    1142     2319     3466     4527     5471     6278     6912     7396 
    7763     8010     8132     8106     7909     7596     7210     6679 
    5975     5220     4504     3798     3095     2489     2039     1711 
    1509     1491     1651     1930     2334     2882     3569     4431 
    5506     6720     8013     9333    10592    11772    12862    13817 
   14632    15309    15811    16140    16339    16490    16676    16880 
   17049    17155    17128    16883    16410    15720    14805    13740 
   12649    11583    10604     9796     9134     8586     8191     7974 
    7960     8182     8602     9178     9898    10669    11408    12105 
   12726    13221    13572    13818    14019    14212    14442    14696 
   14883    14895    14658    14131    13321    12278    11021     9576 
    8000     6401     4930     3658     2655     1956     1516     1286 
    1237     1290     1348     1350     1305     1305     1424     1664 
    1969     2255     2500     2702     2836     2905     2909     2844 
    2740     2639     2533     2412     2282     2154     2029     1867 
    1610     1264      872      451       65     -176     -222      -79 
     160      370      479      453      245     -184     -756    -1375 
   -2025    -2631    -3076    -3342    -3424    -3308    -3099    -2896 
   -2706    -2587    -2551    -2513    -2421    -2200    -1819    -1379 
    -957     -585     -306     -144     -108     -159     -243     -297 
    -297     -306     -353     -383     -382     -370     -303      -95 
     241      658     1155     1705     2269     2849     3458     4097 
    4773     5485     6161     6767     7361     7938     8456     8914 
    9297     9620     9888    10121    10413    10817    11279    11709 
   12052    12343    12569    12649    12550    12276    11805    11122 
   10204     9022     7607     6083     4553     3083     1752      626 
    -261     -881    -1196    -1233    -1051     -616       58      893 
    1856     2884     3909     4897     5740     6405     6910     7195 
    7292     7272     7126     6907     6643     6293     5869     5366 
    4827     4337     3917     3569     3299     3098     2945     2826 
    2740     2685     2659     2716     2878     3136     3541     4105 
    4764     5470     6145     6727     7198     7515     7719     7873 
    7964     8063     8179     8236     8237     8156     7985     7769 
    7546     7356     7198     7061     6982     6961     7025     7195 
    7418     7689     7993     8230     8430     8675     8972     9351 
    9774    10154    10459    10642    10674    10571    10324     9991 
    9653     9342     9103     8989     8982     9018     9027     8965 
    8816     8587     8309     8002     7703     7456     7250     7075 
    6903     6678     6408     6103     5751     5389     5031     4648 
    4251     3817     3284     2654     1938     1166      418     -259 
    -828    -1248    -1539    -1715    -1788    -1786    -1718    -1594 
   -1405    -1139     -801     -336      298     1062     1899     2728 
    3472     4110     4653     5127     5574     5972     6285     6529 
    6689     6743     6705     6586     6417     6246     6143     6147 
    6247     6424     6617     6793     6929     6987     6980     6891 
    6671     6339     5883     5289     4625     3925     3226     2587 
    1985     1399      880      448      118      -79     -171     -191 
    -140      -20      187      488      828     1166     1466     1679 
    1821     1942     2066     2205     2362     2505     2623     2751 
    2902     3100     3366     3653     3923     4194     4452     4710 
    4984     5251     5533     5834     6126     6426     6777     7180 
    7586     7956     8286     8581     8853     9142     9508     9936 
   10389    10828    11163    11313    11237    10932    10443     9864 
    9296     8787     8363     8035     7747     7456     7173     6898 
    6617     6312     5967     5628     5344     5115     4935     4780 
    4595     4351     4039     3682     3339     3067     2863     2718 
    2632     2590     2573     2542     2466     2350     2215     2079 
    1915     1736     1595     1521     1557     1740     2046     2498 
    3044     3557     3975     4243     4317     4230     4001     3642 
    3217     2771     2380     2114     1965     1938     2041     2238 
    2535     2936     3387     3844     4230     4430     4401     4176 
    3800     3312     2781     2232     1665     1127      666      338 
     183      189      372      720     1128     1548     1991     2425 
    2830     3192     3481     3642     3611     3384     3040     2647 
    2258     1960     1807     1772     1846     2020     2280     2644 
    3087     3585     4144     4739     5359     6019     6743     7534 
    8357     9153     9850    10354    10624    10706    10633    10430 
   10156     9856     9517     9124     8683     8198     7676     7152 
    6640     6142     5682     5259     4866     4563     4383     4347 
    4455     4661     4930     5242     5566     5871     6158     6465 
    6782     7059     7272     7422     7462     7383     7236     7079 
    6921     6752     6563     6343     6119     5952     5853     5823 
    5864     5962     6100     6218     6237     6151     5952     5636 
    5262     4884     4523     4220     4009     3854     3757     3782 
    3921     4145     4476     4936     5544     6265     7041     7834 
    8596     9270     9840    10334    10790    11223    11635    12020 
   12309    12439    12433    12282    11996    11642    11246    10809 
   10359     9917     9463     8993     8522     8031     7504     6971 
    6446     5944     5464     4989     4506     3927     3198     2405 
    1638      932      297     -292     -837    -1317    -1767    -2182 
   -2496    -2681    -2755    -2781    -2847    -2988    -3203    -3466 
   -3734    -3970    -4164    -4303    -4386    -4450    -4549    -4689 
   -4887    -5148    -5437    -5745    -6070    -6334    -6473    -6471 
   -6313    -6044    -5680    -5202    -4662    -4088    -3456    -2787 
   -2139    -1560    -1086     -720     -440     -202       32      272 
     502      702      893     1078     1251     1436     1634     1822 
    2004     2199     2420     2688     2995     3316     3666     4062 
