Origin Time       2016/04/16 01:25:00
Lat.              32.753
Long.             130.762
Depth. (km)       12
Mag.              7.3
Station Code      EHM014
Station Lat.      32.9453
Station Long.     132.5047
Station Height(m) 1
Record Time       2016/04/16 01:25:35
Sampling Freq(Hz) 100Hz
Duration Time(s)  108
Dir.              N-S
Scale Factor      7845(gal)/8223790
Max. Acc. (gal)   26.566
Last Correction   2016/04/16 01:25:35
Memo.             
[...]
   -2669     -945     1219     1977     1722     2432     3867     4091 
    3991     4525     4263     3620     3836     3354     1189     -550 
    -352      877     2211     3419     3991     3449     2022      645 
     -20      -13      576     1084      814      461      294      410 
    2363     5034     5055     3573     3824     5039     4996     3519 
    1771     1188     1544     1189      618     1393     2896     4145 
    4974     4622     2817      807       64     1256     2824     1912 
    -724    -1676    -1021     -540      561     2629     4106     4421 
    4167     4009     4147     3573     1815      568      487     -180 
   -1482    -1672     -508     1530     3667     4700     5166     5853 
    5433     3820     3362     4603     5721     5081     2397     -301 
    -870     -232      170      429     -101    -1389     -982     1579 
    3457     3200     2284     2628     4058     4614     4192     4025 
    3125      896     -553     -143     1374     3392     4575     3929 
    2528      831     -901     -800      661     1313     1813     2933 
    3744     3936     2806     -225    -2667    -1676     1412     3322 
    3636     4040     4333     3107     1371     1081     1809     2520 
    2995     2651     2234     3099     3508     2218     1580     2201 
    2247     1502      484     -209       91      827     2111     4230 
    5113     4517     4956     5791     5022     3935     3809     4021 
    4376     4538     3697     2384     1282     -206    -1776    -2177 
   -1710     -957      756     3078     4352     4387     4189     3824 
    2795     1124     -610    -1475     -492     2235     4444     3964 
    2012     1431     2593     3537     3294     2600     2029     1675 
    1464     1227     1382     1556        9    -2278    -1989      712 
    3084     4218     4730     5262     5215     3339     1138      955 
    1247      382      843     3096     3446     1938     1775     2616 
    2896     2428     1312     1405     3723     5040     3643     2542 
    2755     1813     -399    -1869    -1817     -332     1823     3669 
    4294     2961     1441     1480     1333      662     1204     1985 
    1903     1807     2060     2555     2768     2639     3283     3897 
    3281     3150     3773     3227     2312     2374     2525     2382 
    2107     1395      805     1044     1911     3232     4411     4340 
    3613     3440     3025     1993     1366      715     -237     -700 
   -1305    -1873     -488     2358     4410     4866     3923     2798 
    3315     4649     4107     1718     -295    -1088     -853      315 
    1968     3464     4055     3840     3885     3503     1921     1063 
    1281      619      -51      893     2142     3046     4178     3890 
    1244     -783       14     1876     3194     4455     5410     4914 
    3188     2273     2994     3001     1624     1732     3272     3589 
    2991     1979      -28     -882      537     1638     1551     1854 
    2817     3430     3433     3503     3547     2852     1665      548 
    -249     -344      289     1350     2008     1363      778     1486 
    1463      454     1088     2474     2111     1264     1522     1863 
    1729     1737     2084     2830     3379     2671     1898     2835 
    4012     3892     3971     4854     5071     4598     4147     3489 
    2978     2301      221    -1460     -463     1302     1661     1242 
    1206     1826     2579     3681     5209     4963     2644     1684 
    2835     3388     2759     2119     1535     1286     1752     1817 
    1287     1705     2835     2889     1779      766      421      587 
    1026     1534     2319     3528     4232     3908     3743     4243 
    4271     3006      457    -1543       13     3665     4811     4033 
    4132     3423      929     -456      333     1217      432    -1285 
   -1251      850     2416     3017     3721     3581     2482     1645 
     461     -747      129     2085     2941     3561     4218     3831 
    3541     4036     3500     1333     -573      224     3557     5919 
    5629     4020     1809     -203    -1047     -929      577     3431 
    4926     3565     2106     2870     3672     2463     1220     1394 
    1919     2708     3662     3511     2982     3284     3217     2370 
    2069     2147     1688      654     -942    -2323    -1945      -64 
    1526     2114     2388     3003     3802     4477     4747     3483 
     639     -626     1358     3168     2659     1938     1586     1136 
    1661     2392     2254     2747     4450     6315     7535     7288 
    5572     3186      390    -1930    -2177     -945     -523    -1102 
    -704     1439     3547     4078     3778     3231     2349     2046 
    2454     2826     3300     3161     1100    -1551    -2324    -1294 
     -54      822     2019     3901     4563     2461      222      395 
    1366     1733     2431     3006     2196     1354     2259     3626 
    3357     2095     1597     2034     2821     2906     1641      895 
    1742     2301     2192     2816     3443     2470     1057     1278 
    2871     4307     4197     3107     3542     4726     3969     2627 
    2792     3429     3454     3015     2147     1138      558       -9 
    -922    -1036      -13      884     1521     2617     3619     3990 
    4261     4077     2768     1803     2644     3600     2525      594 
    -136       32      415     1146     1864     2247     2153     1723 
    2300     4311     5967     6011     4989     3578     1725     -386 
   -1630    -1286     -137     1263     2983     3991     3786     3561 
    3763     3592     2355      795      843     2454     3584     3457 
    2166      -74    -1836    -2023     -708     2072     5339     7433 
    8094     7456     5250     2466      549     -571    -1391    -1688 
   -1273     -251     1080     1953     2280     3312     5135     6297 
    6239     4976     3308     3011     3728     3700     3007     2317 
    1435      282     -378      457     2061     2376     1775     2570 
    4156     4036     2411      849     -405    -1374    -1351      272 
    2513     3423     3057     3129     3962     4675     4788     3746 
    1460     -338     -579     -359      103     1494     2724     2616 
    1944     1768     1880     1602     1179      769      -63     -828 
   -1233    -1314      -93     1640     1791     1121     1129     1568 
    2001     1898     1543     2224     3275     3307     2839     2384 
    2467     3963     5805     6781     7074     6137     4233     3176 
    3045     2805     2340     1744     1336     1742     2871     3573 
    2799     1399     1112     2155     3433     3865     3334     2384 
    1275      263     -596    -1178     -415     1888     4418     6165 
    6540     5497     3690     1956     1652     2799     2922     1065 
    -727    -1239    -1281    -1236     -571      252      594     1544 
    3449     4907     5610     5432     3419      449    -1505    -1792 
    -720      677     1652     2999     4843     5665     5232     4723 
    3971     2181      336       89     1206     1999     1732     1316 
    1665     1995     1097      126      804     2381     3543     3866 
    3369     2797     2116      673     -463       13     1645     3317 
    4155     3796     2601     1390     1171     1949     2151     1078 
     190      679     2014     2778     2354     1881     1903     1462 
     842     1050     1617     1457      468      172     1626     3129 
    3229     3029     3395     3842     4079     4330     4573     3975 
    2276      880      561      383     -310     -689      453     2322 
    2957     3095     4679     6477     5992     3515     1414     1332 
    2411     2646     1895      795     -808    -1989    -1637     -245 
    1563     3248     4535     6068     7195     6620     5117     3589 
    2061      859     -346    -1320     -253     2313     3453     3090 
    3712     5250     5623     4816     3842     2592      847    -1318 
   -3503    -4687    -4104    -1849      905     2357     2098     1524 
    1210      668      118     -318     -695     -303     1009     2818 
    4807     6112     6353     6284     6619     7344     7186     5171 
    3213     3026     2685     1117      410      816      738      550 
    1000     1463     1405      908      476      475      394     -191 
    -702     -182     1509     3283     4220     4414     3505      969 
   -1765    -2409     -864      882     1760     2442     2929     2144 
     486     -209      720     2326     3678     4495     4889     5097 
    4375     1710    -1665    -3437    -2871     -731     1371     2261 
    2347     2517     2986     3315     3264     3103     2743     2232 
    2119     2015     1250      538      673     1440     2899     4868 
    5786     5279     5181     6038     6442     5614     3605      868 
   -1489    -2882    -3522    -3678    -3854    -3623    -1748     1129 
    3086     3601     3369     2921     2397     1996     1831     1752 
    2053     3424     5765     7423     6404     3095      148     -970 
   -1395    -2327    -2802    -1552      248      532     -396     -756 
    -155     1042     3038     5167     6262     6228     5386     4332 
    3705     3435     3763     4571     4027     1279    -1691    -2863 
   -2249     -611     1301     2254     1939     1622     1323      -82 
   -1794    -2253    -1470     -322      556     1258     1982     2581 
    3161     3254     2026      251     -503      793     4283     7855 
    8959     8059     6463     3645     -114    -2381    -1814      361 
    2517     3624     3388     2810     2265      719    -1350    -2025 
   -1185     -715    -1383    -1772    -1433    -1721    -2301    -1499 
      16      413      -45     -328     -514     -502      -87      430 
    1559     3246     3935     3759     4072     4629     5240     6334 
    7203     7206     6922     6878     6566     4693     1127    -2184 
   -3986    -5017    -5603    -5000    -3127     -433     3190     7105 
    9525    10116    10435    11181    11075     8938     5638     3001 
    1471      -89    -1965    -2139      602     3869     4862     3889 
    2413      881     -170     -178      144     -415    -2066    -3705 
   -4426    -4930    -5759    -5518    -2929     1109     4776     7198 
    8676     9775    10191     8900     5935     3090     1877     1973 
    2713     3773     4379     4808     6853    10636    13643    13891 
   11722     8619     5998     4448     3792     3694     3526     3399 
    4369     6164     7946     9636    10573    10154     8324     4981 
     874    -2833    -5448    -6301    -4811    -1205     2874     5736 
    7603     9397    10971    12131    13008    12383     9088     4839 
    1502    -1055    -1682       79      899     -537    -1512     -170 
    2830     5275     5976     5788     4993     3472     1891      568 
    -178      236     1371     2370     3439     5312     7770     9622 
   10412    10909    11037     9458     5738     1632      159     1960 
    3703     3200     2154     1764     1144     -438    -3157    -6231 
   -8116    -8818    -9675   -10794   -11284   -10407    -7744    -4069 
   -1123       70     -109     -396      153      943      459    -1183 
   -2691    -3898    -4657    -4266    -2539       22     1498      346 
   -2241    -5000    -7905    -9722    -9286    -7774    -6122    -3489 
     284     3142     3117     1271     -360    -1443    -1460      311 
    2700     4002     3611     1605    -1235    -3727    -5475    -6814 
   -7141    -5317    -1760     2551     6647     8322     6970     4604 
    2064     -205    -1215    -1621     -661     3562     8286     9968 
    9539     8132     5179     1267    -2610    -6147    -8206    -8502 
   -8565    -8215    -6257    -2932     1809     7763    12796    14720 
   12970     9320     7215     7716     8352     7295     4054    -1864 
   -8757   -13405   -14106   -10809    -5320      225     5494     9957 
   12182    11187     6781     1169    -2144    -2323      171     5394 
   11290    14914    16066    16046    15361    13948    11377     6867 
    1657     -677      616     2941     4843     4779      822    -4765 
   -8494   -10527   -10386    -5568     3200    11936    17018    17334 
   14481     9560     3738      487      -51    -1161    -2577    -2884 
   -2844    -2813    -1490     2604     8024    11061    10169     7285 
    4752     1798    -2648    -5579    -5287    -5179    -5674    -3315 
    1262     5454     8654    10042     9127     6724     3523      598 
   -1129    -2608    -3527    -1449     3611    10216    17861    24279 
   26222    22797    15118     5683    -1013    -2986    -5221   -10193 
  -12268   -10203    -8644    -8472    -7821    -4117     3130    10280 
   15749    19978    22011    21286    17706    12152     6103      124 
   -4348    -6864    -9796   -13220   -14207   -12104    -8352    -3678 
     815     3407     4630     6774     9768    12028    14010    16301 
   17424    15638    10987     5768     2384      695     -924    -2629 
   -2412     1663     9139    17103    21327    19506    13743     6531 
   -1350    -7832   -12042   -15506   -16918   -13759    -7088     -325 
    2519     1065      664     4178     9312    14158    17120    15915 
   10211     3005    -2083    -4247    -4205    -2420     -256     1517 
    4360     8000     9382     7334     3002    -2419    -7368   -10411 
  -11043    -8762    -3279     3866    10299    16213    23247    29347 
   29971    24543    16669     9238     3631      765      178      309 
    -488    -2992    -6847   -11673   -15778   -15471    -9065      476 
    7836    10578    10673     8387      851   -10358   -18839   -21493 
  -19981   -15257    -6889     3065    11379    16012    14450     5651 
   -7110   -17724   -22022   -21277   -16112    -5250     5713     9506 
    6919     3416     4159     9934    16395    20938    24235    26652 
   28324    26554    15961    -1822   -16892   -23052   -22530   -18199 
   -9509     1649     8905     8222     1339    -7704   -14413   -15178 
  -12396   -10476    -7121    -1092     1763     -892    -4186    -3708 
     236     4877     9073    13126    16538    19030    20837    20291 
   15188     6670    -1517    -6126    -6885    -5193     -298     6301 
    9182     7372     3877      325    -2995    -6841   -10995   -13389 
  -12310    -6632     2485     9297    10372    11502    17523    23210 
   23380    19232    13174     8550     7042     5164     2370     2895 
    6723    10239    11769    11450    10547     9963     9859    10975 
   12322    12091    11512    11160     8866     5190     2234     -889 
   -3690    -2963      496     2300      282    -4429    -6928    -2039 
    6744    11329    10350     6808     2450    -1410    -3230    -2236 
   -1155    -4197    -9859   -12158    -9022    -4145    -1671    -3321 
   -8259   -11934    -9915    -3692     2679     7614    11335    15047 
   18399    17957    11881     2281    -6809   -11529   -11115    -8106 
   -4598     -205     5898    12258    15638    14115     9069     3842 
    1244     1628     2651     3168     4727     8098    11801    12160 
    7564     3188     3778     6851     8729     9459     9722     9167 
    7368     4266     1053    -1559    -4074    -6193    -7740    -7923 
   -5297    -1154     2659     5271     4403       63    -3786    -5093 
   -4693    -2891     1185     7426    12089    11686     8280     4550 
    -425    -6596   -11983   -15576   -16306   -13770   -10617    -8846 
   -5994      677     9346    15696    16563    11304     3816      976 
    3403     3643     -999    -4777    -4642    -2247     1310     4546 
    5632     5389     6133     7665     8013     7392     6230     3565 
    1000     1197     2899     3399     3608     6400    10547    11449 
    8648     5386     2859     1579     2087     2382      710    -2270 
   -5678    -8780   -10066    -8129    -4923    -5027    -7130    -5090 
      89     2712     2687     2053      900      770     2890     5977 
    9620    13671    16137    16058    13641     8166     1790     -665 
     263      291     -903    -2030    -3365    -4120    -3746    -4158 
   -6598    -9452    -9968    -6729     -693     5630     9275     8177 
    3063    -2374    -4136    -2151     -784    -2249    -3399    -2097 
      59     1277      -64    -3832    -6779    -7631    -7087    -3663 
    2246     5867     4941     3593     5621     9398    12272    12864 
   10422     7506     7793    10975    13683    12626     7597     2340 
    -379    -1783    -3152    -3767    -3574    -3449    -2851     -591 
    2304     3090     1055    -1237    -1563     -292     1116     1468 
    1549     3435     5790     5621     4814     7121    11155    13211 
   12874    10728     6165      513    -3557    -5177    -4276     -618 
    4806     9844    13128    14133    11790     6642     3109     4463 
    8156    11272    14260    15363    11728     5626      221    -3643 
   -4492    -2795     -819     1900     5752     8212     6952     1898 
   -3898    -6197    -5007    -2792      758     5377     8086     8160 
    7427     7302     8328     8536     5128     -271    -3573    -3987 
   -3011    -1120      460    -1385    -6836   -11657   -13242   -12124 
   -7674      167     7003     9036     8095     6957     5015     1389 
   -2361    -4461    -4178    -1953      461     2257     3160     2578 
    1547     1439     2124     2652     2227     1239      364     -934 
   -2982    -4192    -2636     1055     3551     2114    -1952    -4546 
   -3700     -595     3470     8060    12155    13431    10288     4332 
    -990    -3842    -4951    -5907    -7079    -6914    -4125      112 
    3867     5925     6137     6312     7349     7574     6540     5495 
    4401     2025    -1507    -3735    -3319    -2961    -5358    -8684 
   -9697    -7778    -3399     2681     7652     8431     5273     1036 
   -2000    -2837    -2249    -2316    -2319      -47     2613     2810 
    1225     -764    -2862    -4519    -4514    -2093      814     1260 
    -515    -1752    -1125     -612    -2533    -5857    -7860    -7172 
   -4266     -973      918     1193     1039     1185     1055     -116 
   -2378    -4689    -5655    -5258    -4564    -4233    -3928    -2330 
     508     1671      151     -920     -102     1093     2367     3416 
    3219     3721     6768     9104     7414     3007    -1710    -5351 
   -7299    -8383    -8472    -5807     -989     3055     4422     3161 
     896     -583    -1451    -2964    -4388    -3828    -1374     1348 
    2762     2211     1000      773      730     -648    -2138    -1972 
   -1436    -2046    -2613    -2322    -1953    -1305      -13     1308 
    2856     4819     6210     6551     5938     4556     3572     3613 
    3627     3395     3728     4133     3975     3433     2230      895 
     668     1088     1480     1993     2219     1987      872    -2029 
   -5317    -6567    -5787    -4284    -2798    -2027    -2173    -2077 
    -924     1044     3465     4888     4051     2442     1305     -272 
   -1883    -2143    -1360      156     2475     4147     3959     2898 
    2292     2100     1763     1647     2855     5583     8167     8032 
    4677      868     -483      751     2448     3383     4133     4220 
    3203     2783     3507     4509     5647     5714     3484      706 
