Origin Time       2016/04/16 01:25:00
Lat.              32.753
Long.             130.762
Depth. (km)       12
Mag.              7.3
Station Code      EHM010
Station Lat.      33.4512
Station Long.     132.6882
Station Height(m) 190
Record Time       2016/04/16 01:25:41
Sampling Freq(Hz) 100Hz
Duration Time(s)  109
Dir.              E-W
Scale Factor      7845(gal)/8223790
Max. Acc. (gal)   9.373
Last Correction   2016/04/16 01:25:41
Memo.             
[...]
   -7411    -7560    -7881    -8240    -8444    -8298    -7688    -6673 
   -5448    -4261    -3341    -2820    -2768    -3289    -4375    -5772 
   -7163    -8290    -9026    -9424    -9591    -9618    -9648    -9798 
  -10061   -10296   -10323   -10114    -9837    -9678    -9621    -9494 
   -9185    -8723    -8186    -7623    -7069    -6600    -6332    -6361 
   -6701    -7221    -7761    -8289    -8787    -9177    -9425    -9603 
   -9763    -9875    -9847    -9625    -9235    -8649    -7823    -6828 
   -5833    -5017    -4531    -4379    -4446    -4626    -4870    -5185 
   -5590    -6054    -6508    -6914    -7276    -7635    -8064    -8565 
   -9069    -9494    -9768    -9849    -9748    -9543    -9340    -9223 
   -9192    -9193    -9162    -9062    -8919    -8777    -8660    -8600 
   -8608    -8586    -8370    -7898    -7304    -6793    -6448    -6218 
   -6026    -5883    -5853    -5968    -6180    -6392    -6552    -6713 
   -6970    -7391    -8031    -8868    -9707   -10262   -10384   -10153 
   -9753    -9364    -9092    -8887    -8630    -8303    -7933    -7524 
   -7099    -6685    -6285    -5914    -5609    -5422    -5427    -5647 
   -6075    -6718    -7506    -8233    -8711    -8945    -9057    -9090 
   -9003    -8806    -8545    -8251    -7994    -7885    -7951    -8113 
   -8245    -8224    -8039    -7909    -8101    -8630    -9312   -10003 
  -10627   -11051   -11124   -10812   -10239    -9586    -8955    -8391 
   -7927    -7591    -7427    -7456    -7565    -7580    -7430    -7150 
   -6815    -6523    -6389    -6540    -7006    -7623    -8122    -8360 
   -8376    -8232    -7959    -7673    -7531    -7597    -7854    -8244 
   -8671    -9011    -9170    -9137    -8943    -8630    -8298    -8090 
   -8106    -8384    -8877    -9378    -9598    -9381    -8820    -8189 
   -7736    -7562    -7647    -7946    -8418    -9023    -9625   -10010 
  -10041    -9807    -9481    -9177    -8937    -8721    -8451    -8120 
   -7758    -7365    -6983    -6714    -6577    -6505    -6438    -6346 
   -6246    -6168    -6133    -6195    -6412    -6790    -7294    -7850 
   -8390    -8935    -9481    -9877    -9975    -9787    -9450    -9069 
   -8668    -8252    -7839    -7447    -7105    -6808    -6531    -6299 
   -6191    -6254    -6431    -6681    -7029    -7443    -7842    -8187 
   -8436    -8509    -8385    -8163    -7966    -7860    -7843    -7860 
   -7902    -8025    -8236    -8456    -8571    -8464    -8120    -7612 
   -7064    -6613    -6366    -6361    -6616    -7064    -7547    -7936 
   -8229    -8513    -8853    -9227    -9563    -9779    -9861    -9828 
   -9617    -9166    -8525    -7842    -7248    -6779    -6411    -6103 
   -5829    -5640    -5601    -5746    -6115    -6666    -7250    -7799 
   -8361    -8896    -9300    -9516    -9540    -9366    -8978    -8372 
   -7572    -6616    -5595    -4731    -4248    -4178    -4410    -4869 
   -5506    -6238    -6947    -7530    -7933    -8120    -8118    -8058 
   -8037    -8044    -8023    -7921    -7649    -7113    -6336    -5456 
   -4629    -3973    -3620    -3705    -4282    -5283    -6521    -7717 
   -8658    -9267    -9547    -9537    -9364    -9215    -9185    -9221 
   -9200    -9031    -8715    -8318    -7916    -7488    -6955    -6355 
   -5867    -5613    -5572    -5664    -5825    -6041    -6345    -6747 
   -7165    -7460    -7578    -7581    -7545    -7538    -7651    -7909 
   -8232    -8502    -8660    -8696    -8622    -8460    -8235    -7944 
   -7626    -7380    -7326    -7514    -7892    -8398    -8981    -9520 
   -9857    -9917    -9720    -9329    -8843    -8394    -8120    -8021 
   -7940    -7755    -7473    -7122    -6774    -6569    -6569    -6659 
   -6739    -6853    -7065    -7376    -7771    -8208    -8587    -8829 
   -8922    -8887    -8750    -8579    -8460    -8375    -8226    -7944 
   -7519    -7001    -6486    -6065    -5748    -5522    -5432    -5532 
   -5841    -6313    -6870    -7430    -7947    -8370    -8623    -8691 
   -8638    -8543    -8431    -8294    -8159    -8056    -7993    -7989 
   -8063    -8186    -8319    -8459    -8579    -8610    -8510    -8332 
   -8132    -7962    -7897    -8007    -8272    -8540    -8664    -8634 
   -8506    -8340    -8208    -8185    -8283    -8421    -8463    -8311 
   -7966    -7542    -7198    -7018    -6972    -7001    -7060    -7155 
   -7302    -7477    -7627    -7723    -7774    -7879    -8136    -8537 
   -8993    -9385    -9607    -9629    -9420    -8969    -8391    -7840 
   -7340    -6848    -6365    -5945    -5692    -5715    -6038    -6574 
   -7211    -7869    -8447    -8819    -8943    -8922    -8889    -8914 
   -8969    -9000    -8961    -8808    -8548    -8271    -8044    -7831 
   -7576    -7322    -7173    -7233    -7560    -8066    -8527    -8792 
   -8881    -8868    -8804    -8769    -8835    -9043    -9374    -9711 
   -9903    -9861    -9567    -9031    -8316    -7569    -6993    -6737 
   -6840    -7214    -7685    -8109    -8441    -8729    -8993    -9202 
   -9342    -9441    -9513    -9504    -9335    -8982    -8464    -7838 
   -7244    -6883    -6862    -7125    -7539    -8007    -8483    -8914 
   -9217    -9358    -9420    -9518    -9679    -9849    -9963    -9971 
   -9871    -9709    -9504    -9194    -8748    -8281    -7919    -7642 
   -7420    -7304    -7338    -7510    -7776    -8078    -8337    -8482 
   -8482    -8329    -7987    -7447    -6821    -6305    -6027    -6011 
   -6243    -6709    -7348    -8002    -8486    -8737    -8823    -8822 
   -8748    -8587    -8351    -8098    -7936    -7964    -8143    -8333 
   -8444    -8437    -8301    -8050    -7749    -7537    -7538    -7759 
   -8137    -8600    -9036    -9319    -9416    -9385    -9235    -8941 
   -8569    -8243    -7994    -7763    -7481    -7105    -6632    -6118 
   -5656    -5356    -5309    -5570    -6088    -6729    -7330    -7754 
   -7933    -7919    -7813    -7716    -7677    -7663    -7592    -7473 
   -7450    -7596    -7776    -7835    -7784    -7723    -7677    -7550 
   -7272    -6949    -6756    -6678    -6543    -6285    -6048    -6038 
   -6327    -6781    -7203    -7533    -7840    -8149    -8375    -8496 
   -8646    -8959    -9377    -9690    -9745    -9528    -9101    -8543 
   -7959    -7473    -7222    -7306    -7668    -8122    -8543    -8942 
   -9332    -9647    -9830    -9926   -10008   -10115   -10300   -10555 
  -10698   -10521   -10002    -9263    -8440    -7647    -6983    -6515 
   -6250    -6130    -6079    -6058    -6031    -5958    -5888    -5914 
   -6048    -6264    -6551    -6879    -7221    -7548    -7812    -7947 
   -7919    -7751    -7482    -7132    -6720    -6285    -5944    -5821 
   -5923    -6164    -6486    -6912    -7449    -8039    -8590    -9070 
   -9475    -9817   -10114   -10324   -10386   -10293   -10062    -9709 
   -9274    -8799    -8286    -7738    -7145    -6488    -5860    -5445 
   -5316    -5364    -5481    -5663    -5938    -6303    -6728    -7169 
   -7573    -7900    -8111    -8186    -8111    -7888    -7555    -7184 
   -6845    -6581    -6381    -6255    -6259    -6412    -6637    -6801 
   -6762    -6508    -6207    -6027    -5992    -6035    -6151    -6412 
   -6836    -7348    -7854    -8264    -8533    -8731    -8961    -9185 
   -9294    -9265    -9167    -9073    -8939    -8680    -8313    -7912 
   -7520    -7165    -6868    -6635    -6459    -6353    -6370    -6538 
   -6768    -6944    -7051    -7163    -7310    -7444    -7565    -7711 
   -7893    -8078    -8243    -8363    -8395    -8329    -8237    -8179 
   -8147    -8135    -8149    -8189    -8168    -7962    -7553    -7078 
   -6697    -6463    -6336    -6315    -6405    -6538    -6627    -6656 
   -6689    -6798    -6978    -7109    -7040    -6766    -6447    -6200 
   -5967    -5707    -5559    -5714    -6184    -6755    -7194    -7437 
   -7570    -7690    -7846    -8068    -8376    -8752    -9103    -9255 
   -9071    -8567    -7858    -7126    -6535    -6107    -5786    -5590 
   -5572    -5717    -5995    -6421    -7002    -7673    -8297    -8688 
   -8746    -8490    -8095    -7796    -7705    -7773    -7878    -7870 
   -7665    -7279    -6732    -6048    -5398    -5120    -5468    -6376 
   -7524    -8600    -9447   -10034   -10327   -10191    -9551    -8604 
   -7730    -7226    -7186    -7504    -7996    -8464    -8685    -8487 
   -7901    -7132    -6462    -6122    -6238    -6836    -7716    -8460 
   -8769    -8752    -8814    -9221    -9792   -10085    -9818    -9096 
   -8257    -7581    -7229    -7275    -7682    -8365    -9121    -9613 
   -9595    -9018    -8007    -6905    -6077    -5711    -5822    -6312 
   -7017    -7708    -8051    -7755    -6853    -5809    -5281    -5621 
   -6581    -7641    -8569    -9522   -10597   -11455   -11512   -10574 
   -9180    -8100    -7576    -7233    -6720    -6241    -6303    -7023 
   -8043    -9100   -10263   -11507   -12441   -12611   -11936   -10800 
   -9845    -9595   -10091   -10921   -11595   -11772   -11286   -10131 
   -8484    -6677    -5115    -4220    -4205    -4824    -5522    -6066 
   -6720    -7663    -8645    -9333    -9625    -9518    -9115    -8642 
   -8302    -8191    -8275    -8436    -8645    -8931    -9132    -8885 
   -8016    -6862    -6002    -5702    -5757    -5850    -5950    -6184 
   -6470    -6597    -6547    -6556    -6941    -7777    -8752    -9467 
   -9832   -10080   -10450   -10879   -11110   -11022   -10694   -10276 
   -9890    -9495    -8904    -8071    -7169    -6351    -5651    -5121 
   -4946    -5363    -6384    -7699    -8974   -10039   -10778   -11153 
  -11250   -11214   -11163   -11075   -10863   -10521   -10064    -9409 
   -8467    -7349    -6421    -6064    -6319    -6736    -6718    -6210 
   -5798    -6004    -6772    -7697    -8533    -9267    -9823   -10064 
  -10037    -9867    -9562    -9124    -8642    -8217    -7928    -7723 
   -7340    -6559    -5466    -4368    -3596    -3385    -3792    -4692 
   -5900    -7242    -8649   -10030   -11047   -11299   -10774    -9913 
   -9159    -8603    -8175    -8013    -8413    -9396   -10447   -10922 
  -10687   -10068    -9450    -9074    -9020    -9236    -9607   -10022 
  -10386   -10589   -10513   -10133    -9668    -9495    -9695    -9922 
   -9765    -9196    -8596    -8185    -7756    -7188    -6727    -6818 
   -7719    -9100   -10323   -11037   -11226   -10986   -10447    -9726 
   -8854    -7785    -6562    -5474    -4942    -5192    -6049    -7079 
   -7896    -8340    -8414    -8240    -8104    -8297    -8797    -9315 
   -9632    -9756    -9728    -9421    -8795    -8111    -7573    -7074 
   -6586    -6363    -6604    -7175    -7746    -8058    -8118    -8151 
   -8182    -7959    -7431    -6926    -6751    -6919    -7302    -7771 
   -8213    -8530    -8694    -8769    -8870    -9080    -9351    -9439 
   -9038    -8125    -7065    -6246    -5717    -5278    -4864    -4618 
   -4585    -4623    -4696    -4882    -5150    -5382    -5494    -5514 
   -5590    -5842    -6214    -6582    -6944    -7447    -8091    -8546 
   -8486    -7939    -7187    -6458    -5764    -5044    -4448    -4232 
   -4363    -4491    -4391    -4175    -4036    -4067    -4252    -4529 
   -4847    -5224    -5751    -6443    -7157    -7727    -8081    -8245 
   -8355    -8594    -9003    -9359    -9406    -9208    -8999    -8826 
   -8633    -8467    -8414    -8543    -8874    -9335    -9877   -10517 
  -11227   -11904   -12406   -12621   -12518   -12159   -11674   -11199 
  -10856   -10748   -10848   -11029   -11133   -11006   -10557    -9794 
   -8899    -8172    -7774    -7609    -7585    -7825    -8457    -9328 
  -10193   -11076   -12124   -13301   -14449   -15385   -15830   -15530 
  -14524   -13113   -11630   -10320    -9292    -8561    -8132    -7933 
   -7789    -7573    -7244    -6880    -6678    -6812    -7275    -7836 
   -8141    -7913    -7123    -5923    -4531    -3312    -2678    -2667 
   -2932    -3229    -3682    -4437    -5354    -6242    -7119    -8182 
   -9576   -11160   -12518   -13240   -13063   -11925   -10068    -8040 
   -6447    -5555    -5174    -4989    -4897    -4874    -4797    -4534 
   -4167    -3948    -4072    -4611    -5535    -6774    -8217    -9587 
  -10580   -11068   -11002   -10376    -9304    -7973    -6519    -4984 
   -3419    -2008    -1047     -800    -1285    -2257    -3483    -4819 
   -6081    -7142    -8033    -8815    -9516   -10121   -10574   -10833 
  -10908   -10741   -10204    -9306    -8310    -7539    -7122    -7009 
   -7160    -7584    -8213    -8899    -9504    -9991   -10446   -10866 
  -11086   -11097   -11094   -11140   -11086   -10804   -10265    -9516 
   -8673    -7824    -6939    -5962    -4951    -4069    -3485    -3246 
   -3281    -3496    -3813    -4153    -4496    -4878    -5323    -5800 
   -6238    -6569    -6774    -6858    -6886    -6945    -7053    -7144 
   -7110    -6912    -6659    -6520    -6579    -6833    -7209    -7520 
   -7593    -7442    -7257    -7196    -7276    -7460    -7682    -7815 
   -7750    -7507    -7188    -6902    -6705    -6596    -6581    -6713 
   -7086    -7756    -8654    -9621   -10566   -11512   -12505   -13475 
  -14203   -14548   -14608   -14546   -14401   -14077   -13416   -12380 
  -11130    -9837    -8556    -7287    -6103    -5082    -4256    -3707 
   -3550    -3838    -4495    -5310    -6069    -6790    -7592    -8397 
   -8926    -8941    -8486    -7784    -7013    -6367    -6044    -6021 
   -6139    -6318    -6535    -6840    -7348    -8139    -9223   -10597 
  -12208   -13932   -15577   -16845   -17529   -17703   -17459   -16753 
  -15576   -14052   -12370   -10623    -8841    -7109    -5489    -4000 
   -2682    -1630     -984     -803    -1015    -1551    -2438    -3732 
   -5381    -7180    -8884   -10268   -11151   -11507   -11445   -11099 
  -10590    -9981    -9316    -8654    -8028    -7327    -6424    -5383 
   -4324    -3257    -2282    -1575    -1166    -1060    -1331    -1917 
   -2648    -3419    -4248    -5167    -6096    -6898    -7501    -7874 
   -7950    -7632    -6871    -5783    -4675    -3831    -3289    -2872 
   -2469    -2208    -2300    -2783    -3461    -4116    -4784    -5610 
   -6552    -7479    -8299    -8922    -9319    -9551    -9691    -9759 
   -9730    -9587    -9251    -8553    -7429    -6014    -4533    -3200 
   -2147    -1498    -1433    -2034    -3109    -4294    -5278    -5883 
   -6158    -6343    -6590    -6860    -7048    -7188    -7406    -7635 
   -7753    -7855    -8106    -8487    -8820    -8924    -8746    -8257 
   -7375    -6106    -4645    -3295    -2412    -2309    -3033    -4387 
   -6160    -8073    -9752   -10872   -11217   -10720    -9559    -8044 
   -6473    -5046    -3767    -2558    -1489     -697     -184      136 
     303      257      -99     -816    -1823    -2965    -4090    -5046 
   -5645    -5831    -5752    -5623    -5611    -5753    -5954    -6156 
   -6430    -6843    -7338    -7769    -8035    -8198    -8382    -8602 
   -8804    -8974    -9165    -9481    -9964   -10530   -11092   -11601 
  -12006   -12295   -12564   -12910   -13273   -13502   -13491   -13170 
  -12459   -11302    -9786    -8206    -6902    -6006    -5447    -5093 
   -4834    -4608    -4421    -4245    -4000    -3601    -3071    -2590 
   -2377    -2533    -3025    -3812    -4994    -6690    -8808   -11098 
  -13242   -14897   -15830   -15978   -15369   -14138   -12580   -11115 
  -10141    -9771    -9856   -10156   -10412   -10438   -10164    -9594 
   -8854    -8215    -7897    -7985    -8431    -9038    -9559    -9845 
   -9875    -9653    -9194    -8567    -7893    -7249    -6573    -5768 
   -4911    -4287    -4162    -4599    -5541    -6832    -8174    -9319 
  -10206   -10918   -11558   -12106   -12513   -12860   -13288   -13857 
  -14526   -15173   -15685   -15998   -16083   -15912   -15473   -14870 
  -14314   -13973   -13875   -13915   -13960   -13863   -13478   -12769 
  -11853   -10908   -10025    -9228    -8592    -8259    -8322    -8715 
   -9174    -9412    -9374    -9227    -9113    -9018    -8856    -8645 
   -8510    -8548    -8727    -8991    -9332    -9728   -10064   -10206 
  -10133    -9929    -9617    -9054    -8139    -7032    -5948    -4926 
   -3883    -2816    -1826    -1081     -688     -587     -603     -561 
    -429     -298     -221     -202     -311     -687    -1391    -2295 
   -3219    -4149    -5151    -6181    -7088    -7761    -8181    -8367 
   -8387    -8378    -8473    -8795    -9405   -10230   -11086   -11705 
  -11811   -11292   -10238    -8802    -7200    -5691    -4441    -3537 
   -3028    -2895    -3078    -3487    -4003    -4510    -4905    -5121 
   -5169    -5139    -5161    -5346    -5686    -6039    -6254    -6288 
   -6158    -5863    -5481    -5127    -4781    -4379    -3965    -3704 
   -3716    -3948    -4332    -4923    -5825    -7044    -8349    -9375 
   -9922   -10095   -10162   -10368   -10832   -11504   -12218   -12804 
  -13128   -13124   -12827   -12351   -11747   -10957    -9988    -8959 
   -8014    -7312    -6955    -6897    -7003    -7176    -7399    -7682 
   -8068    -8658    -9471   -10327   -10991   -11371   -11468   -11241 
  -10646    -9780    -8861    -8048    -7310    -6494    -5560    -4768 
   -4480    -4793    -5495    -6268    -6837    -7068    -6961    -6551 
   -5927    -5294    -4887    -4873    -5300    -6060    -7013    -8075 
   -9159   -10176   -11097   -11927   -12653   -13242   -13618   -13684 
  -13317   -12439   -11132    -9617    -8167    -6979    -6150    -5727 
   -5659    -5763    -5879    -5971    -6064    -6290    -6858    -7782 
   -8781    -9518    -9857    -9855    -9504    -8662    -7321    -5742 
   -4276    -3186    -2606    -2523    -2806    -3300    -3817    -4187 
   -4374    -4500    -4785    -5391    -6351    -7624    -9147   -10805 
  -12337   -13370   -13728   -13540   -12997   -12218   -11341   -10563 
  -10098   -10068   -10377   -10712   -10771   -10486    -9987    -9425 
   -8926    -8638    -8692    -9043    -9482    -9833   -10033   -10060 
   -9923    -9668    -9337    -9036    -8870    -8804    -8737    -8640 
   -8550    -8527    -8552    -8467    -8083    -7357    -6439    -5506 
   -4669    -4035    -3682    -3631    -3883    -4429    -5184    -6000 
   -6752    -7402    -7982    -8553    -9204   -10029   -11024   -12046 
  -12928   -13564   -13892   -13868   -13451   -12626   -11488   -10289 
   -9367    -8942    -9015    -9526   -10400   -11445   -12421   -13149 
  -13501   -13417   -12954   -12245   -11412   -10582    -9915    -9471 
   -9159    -8877    -8581    -8253    -7909    -7580    -7315    -7258 
   -7570    -8237    -9065    -9863   -10535   -11080   -11577   -12089 
  -12577   -12987   -13294   -13455   -13416   -13178   -12769   -12177 
  -11346   -10368    -9493    -8873    -8479    -8294    -8328    -8509 
   -8814    -9312    -9985   -10597   -10844   -10563    -9778    -8668 
   -7466    -6351    -5428    -4714    -4202    -4036    -4379    -5179 
   -6226    -7300    -8284    -9175    -9983   -10689   -11367   -12096 
  -12762   -13171   -13181   -12703   -11794   -10697    -9680    -8972 
   -8661    -8648    -8808    -9130    -9605   -10154   -10643   -10839 
  -10589   -10031    -9475    -9196    -9297    -9713   -10326   -10995 
  -11605   -12136   -12561   -12765   -12638   -12208   -11623   -11001 
  -10374    -9780    -9278    -8877    -8579    -8424    -8401    -8487 
