Origin Time       2016/04/16 01:25:00
Lat.              32.753
Long.             130.762
Depth. (km)       12
Mag.              7.3
Station Code      EHM006
Station Lat.      33.6410
Station Long.     133.0082
Station Height(m) 552
Record Time       2016/04/16 01:25:51
Sampling Freq(Hz) 100Hz
Duration Time(s)  103
Dir.              N-S
Scale Factor      7845(gal)/8223790
Max. Acc. (gal)   6.513
Last Correction   2016/04/16 01:25:51
Memo.             
[...]
  -13825   -13726   -13614   -13509   -13378   -13224   -13055   -12861 
  -12658   -12514   -12465   -12490   -12548   -12606   -12600   -12550 
  -12580   -12708   -12808   -12822   -12822   -12849   -12921   -13070 
  -13228   -13274   -13215   -13144   -13088   -13065   -13124   -13198 
  -13176   -13113   -13144   -13238   -13277   -13285   -13331   -13383 
  -13456   -13613   -13787   -13909   -14053   -14247   -14396   -14426 
  -14337   -14148   -13932   -13801   -13736   -13647   -13533   -13436 
  -13343   -13248   -13212   -13212   -13146   -13030   -12964   -12962 
  -13007   -13129   -13319   -13479   -13541   -13558   -13585   -13597 
  -13570   -13541   -13548   -13598   -13671   -13743   -13829   -13948 
  -14056   -14079   -14003   -13891   -13775   -13666   -13620   -13603 
  -13509   -13333   -13157   -13038   -13014   -13080   -13165   -13203 
  -13182   -13112   -13016   -12958   -12968   -12988   -12954   -12880 
  -12822   -12791   -12771   -12762   -12754   -12730   -12725   -12764 
  -12831   -12916   -13030   -13207   -13409   -13508   -13456   -13355 
  -13281   -13219   -13177   -13207   -13317   -13470   -13609   -13703 
  -13768   -13802   -13756   -13605   -13444   -13408   -13441   -13435 
  -13408   -13382   -13338   -13289   -13251   -13204   -13162   -13165 
  -13197   -13217   -13225   -13232   -13185   -13046   -12908   -12839 
  -12781   -12730   -12764   -12876   -13028   -13217   -13389   -13478 
  -13544   -13672   -13817   -13869   -13846   -13826   -13810   -13788 
  -13795   -13806   -13768   -13676   -13535   -13360   -13234   -13180 
  -13111   -12991   -12947   -13062   -13203   -13240   -13228   -13242 
  -13285   -13367   -13471   -13529   -13524   -13514   -13512   -13446 
  -13298   -13124   -12947   -12772   -12650   -12584   -12533   -12537 
  -12649   -12814   -12993   -13208   -13367   -13402   -13400   -13436 
  -13489   -13524   -13563   -13620   -13662   -13653   -13586   -13504 
  -13468   -13452   -13367   -13189   -13019   -12943   -12937   -12949 
  -12964   -12937   -12816   -12623   -12425   -12320   -12339   -12414 
  -12514   -12673   -12857   -13000   -13124   -13247   -13316   -13298 
  -13203   -13061   -12950   -12941   -13034   -13177   -13293   -13342 
  -13370   -13460   -13643   -13853   -14023   -14133   -14181   -14195 
  -14222   -14265   -14268   -14199   -14080   -13944   -13825   -13803 
  -13879   -13927   -13863   -13695   -13467   -13238   -13103   -13078 
  -13053   -12988   -12987   -13077   -13176   -13266   -13380   -13489 
  -13564   -13616   -13635   -13618   -13575   -13485   -13346   -13200 
  -13092   -13024   -12957   -12879   -12816   -12734   -12613   -12555 
  -12614   -12713   -12788   -12800   -12726   -12645   -12676   -12779 
  -12812   -12738   -12630   -12529   -12429   -12348   -12286   -12204 
  -12117   -12102   -12172   -12286   -12424   -12573   -12694   -12758 
  -12756   -12668   -12522   -12422   -12434   -12518   -12596   -12653 
  -12725   -12850   -12997   -13077   -13057   -13011   -13020   -13059 
  -13084   -13117   -13113   -13019   -12926   -12921   -12977   -13053 
  -13126   -13174   -13196   -13207   -13238   -13290   -13323   -13319 
  -13271   -13177   -13088   -13085   -13196   -13404   -13621   -13726 
  -13706   -13617   -13520   -13482   -13494   -13506   -13537   -13610 
  -13686   -13749   -13841   -13979   -14094   -14104   -14011   -13907 
  -13867   -13879   -13867   -13817   -13782   -13761   -13730   -13668 
  -13522   -13302   -13100   -12966   -12888   -12846   -12804   -12752 
  -12737   -12808   -12961   -13123   -13216   -13271   -13363   -13500 
  -13660   -13811   -13896   -13872   -13740   -13563   -13413   -13296 
  -13181   -13049   -12892   -12776   -12762   -12792   -12806   -12816 
  -12811   -12787   -12810   -12906   -13039   -13159   -13246   -13298 
  -13281   -13211   -13163   -13129   -13077   -13073   -13128   -13116 
  -13001   -12873   -12779   -12742   -12772   -12807   -12814   -12868 
  -13039   -13271   -13451   -13525   -13522   -13493   -13486   -13500 
  -13474   -13408   -13387   -13460   -13563   -13629   -13657   -13640 
  -13567   -13483   -13439   -13446   -13513   -13635   -13761   -13853 
  -13884   -13799   -13630   -13520   -13501   -13510   -13498   -13437 
  -13363   -13340   -13371   -13383   -13319   -13227   -13201   -13275 
  -13416   -13598   -13838   -14090   -14281   -14351   -14295   -14173 
  -14033   -13845   -13630   -13467   -13369   -13306   -13266   -13262 
  -13323   -13387   -13339   -13170   -12996   -12927   -12973   -13020 
  -12988   -12957   -12999   -13089   -13219   -13355   -13379   -13279 
  -13165   -13054   -12949   -12926   -12988   -13047   -13096   -13172 
  -13255   -13308   -13339   -13363   -13377   -13374   -13319   -13165 
  -12969   -12879   -12947   -13090   -13172   -13084   -12839   -12610 
  -12538   -12606   -12718   -12808   -12873   -12941   -13007   -13049 
  -13076   -13096   -13082   -13009   -12921   -12900   -12970   -13104 
  -13266   -13412   -13451   -13339   -13163   -13046   -13018   -13058 
  -13126   -13151   -13092   -13012   -13034   -13247   -13574   -13775 
  -13711   -13483   -13248   -13061   -12964   -13009   -13155   -13248 
  -13165   -12950   -12791   -12807   -12976   -13144   -13111   -12870 
  -12684   -12739   -12934   -13096   -13172   -13174   -13135   -13081 
  -13009   -12993   -13112   -13270   -13350   -13419   -13582   -13801 
  -13968   -13994   -13895   -13787   -13714   -13606   -13456   -13366 
  -13371   -13383   -13281   -13096   -12961   -12927   -12943   -12924 
  -12800   -12613   -12526   -12633   -12792   -12825   -12749   -12683 
  -12702   -12831   -12993   -13100   -13178   -13238   -13232   -13220 
  -13355   -13605   -13784   -13798   -13676   -13483   -13319   -13265 
  -13297   -13321   -13246   -13049   -12873   -12935   -13228   -13487 
  -13527   -13410   -13262   -13171   -13213   -13367   -13478   -13400 
  -13134   -12803   -12590   -12581   -12665   -12672   -12610   -12557 
  -12518   -12486   -12505   -12623   -12795   -12847   -12664   -12436 
  -12472   -12787   -13126   -13286   -13271   -13198   -13136   -13090 
  -13078   -13135   -13235   -13313   -13352   -13423   -13621   -13926 
  -14156   -14208   -14192   -14189   -14164   -14098   -13999   -13913 
  -13977   -14224   -14459   -14535   -14527   -14550   -14624   -14717 
  -14729   -14559   -14295   -14133   -14123   -14126   -14038   -13899 
  -13770   -13668   -13612   -13598   -13594   -13586   -13595   -13636 
  -13703   -13770   -13763   -13675   -13598   -13582   -13585   -13555 
  -13452   -13302   -13259   -13366   -13455   -13402   -13259   -13073 
  -12876   -12781   -12845   -12969   -13050   -13120   -13250   -13377 
  -13396   -13351   -13293   -13177   -13030   -12926   -12834   -12768 
  -12816   -12942   -13026   -13073   -13115   -13055   -12849   -12583 
  -12363   -12260   -12351   -12613   -12870   -12985   -13015   -13061 
  -13119   -13159   -13165   -13134   -13112   -13109   -13066   -12993 
  -13011   -13153   -13254   -13198   -13039   -12847   -12722   -12810 
  -13126   -13463   -13601   -13571   -13583   -13706   -13787   -13684 
  -13500   -13489   -13695   -13822   -13667   -13404   -13255   -13190 
  -13126   -13045   -12935   -12829   -12749   -12631   -12550   -12680 
  -12949   -13104   -13081   -12999   -13007   -13161   -13320   -13296 
  -13119   -13003   -13034   -13096   -13089   -13066   -13122   -13232 
  -13316   -13351   -13380   -13508   -13763   -13971   -13979   -13883 
  -13855   -13853   -13772   -13680   -13653   -13606   -13483   -13397 
  -13470   -13608   -13578   -13328   -13062   -12968   -13073   -13265 
  -13356   -13308   -13261   -13338   -13504   -13608   -13514   -13286 
  -13109   -13030   -12962   -12861   -12766   -12787   -12926   -13027 
  -13018   -13030   -13128   -13172   -13063   -12907   -12862   -12943 
  -13027   -13028   -12970   -12938   -12991   -13069   -13050   -12910 
  -12756   -12672   -12617   -12536   -12439   -12357   -12314   -12329 
  -12370   -12352   -12248   -12136   -12096   -12112   -12079   -11955 
  -11843   -11846   -11959   -12145   -12318   -12355   -12237   -12144 
  -12244   -12476   -12684   -12822   -12873   -12830   -12775   -12785 
  -12798   -12688   -12453   -12249   -12197   -12285   -12474   -12727 
  -12946   -13065   -13100   -13073   -13015   -12931   -12807   -12746 
  -12820   -12866   -12754   -12625   -12638   -12748   -12799   -12733 
  -12627   -12580   -12571   -12540   -12496   -12494   -12514   -12491 
  -12429   -12410   -12463   -12537   -12598   -12647   -12692   -12744 
  -12783   -12775   -12738   -12717   -12725   -12760   -12779   -12727 
  -12611   -12447   -12271   -12179   -12214   -12305   -12356   -12313 
  -12188   -12121   -12188   -12270   -12248   -12150   -12046   -12050 
  -12249   -12556   -12760   -12756   -12629   -12509   -12482   -12515 
  -12505   -12478   -12571   -12766   -12912   -12984   -13036   -13030 
  -12901   -12706   -12590   -12638   -12779   -12884   -12951   -13070 
  -13208   -13285   -13351   -13451   -13512   -13489   -13440   -13427 
  -13458   -13510   -13597   -13691   -13670   -13462   -13167   -12926 
  -12779   -12696   -12676   -12752   -12881   -12968   -12981   -12993 
  -13050   -13093   -13054   -12977   -12953   -13011   -13117   -13221 
  -13292   -13377   -13521   -13664   -13751   -13817   -13909   -14041 
  -14200   -14327   -14389   -14439   -14539   -14681   -14779   -14755 
  -14642   -14555   -14538   -14565   -14642   -14762   -14886   -14970 
  -14960   -14823   -14638   -14551   -14580   -14588   -14453   -14238 
  -14135   -14234   -14399   -14386   -14113   -13760   -13552   -13567 
  -13734   -13880   -13888   -13869   -13994   -14161   -14160   -14045 
  -14021   -14138   -14295   -14415   -14539   -14723   -14928   -15066 
  -15082   -14998   -14902   -14866   -14837   -14713   -14516   -14369 
  -14308   -14276   -14227   -14202   -14265   -14401   -14499   -14505 
  -14494   -14555   -14678   -14787   -14839   -14816   -14712   -14600 
  -14586   -14663   -14744   -14827   -14947   -15060   -15122   -15151 
  -15178   -15201   -15178   -15101   -15043   -15061   -15132   -15168 
  -15088   -14904   -14709   -14561   -14416   -14261   -14130   -13991 
  -13794   -13609   -13527   -13520   -13500   -13410   -13286   -13186 
  -13144   -13177   -13262   -13375   -13495   -13576   -13601   -13554 
  -13379   -13123   -12914   -12756   -12509   -12128   -11695   -11240 
  -10764   -10331    -9957    -9607    -9329    -9209    -9180    -9062 
   -8820    -8622    -8565    -8560    -8520    -8460    -8411    -8433 
   -8588    -8854    -9157    -9487    -9868   -10258   -10602   -10897 
  -11179   -11479   -11770   -11980   -12066   -12071   -12104   -12186 
  -12262   -12313   -12357   -12402   -12445   -12455   -12418   -12372 
  -12294   -12151   -12005   -11917   -11875   -11828   -11745   -11663 
  -11608   -11462   -11159   -10837   -10627   -10530   -10534   -10574 
  -10562   -10514   -10489   -10498   -10534   -10594   -10686   -10821 
  -11037   -11340   -11681   -12005   -12324   -12650   -12945   -13219 
  -13558   -13963   -14351   -14696   -15040   -15439   -15886   -16295 
  -16594   -16767   -16842   -16849   -16803   -16741   -16745   -16883 
  -17145   -17436   -17647   -17714   -17659   -17560   -17509   -17509 
  -17478   -17370   -17227   -17127   -17104   -17140   -17161   -17064 
  -16837   -16563   -16289   -16059   -15946   -15908   -15857   -15792 
  -15735   -15691   -15678   -15691   -15665   -15584   -15496   -15421 
  -15341   -15229   -15041   -14752   -14423   -14110   -13767   -13308 
  -12750   -12213   -11751   -11311   -10863   -10447   -10103    -9864 
   -9744    -9661    -9575    -9530    -9522    -9470    -9336    -9155 
   -8966    -8780    -8615    -8444    -8232    -8083    -8136    -8291 
   -8382    -8446    -8615    -8888    -9184    -9454    -9667    -9847 
  -10072   -10334   -10536   -10636   -10683   -10716   -10732   -10748 
  -10773   -10758   -10716   -10739   -10893   -11146   -11418   -11678 
  -11971   -12341   -12773   -13203   -13582   -13913   -14179   -14358 
  -14496   -14714   -15037   -15329   -15430   -15326   -15184   -15182 
  -15268   -15245   -15006   -14608   -14143   -13679   -13286   -12989 
  -12727   -12456   -12181   -11902   -11620   -11331   -11034   -10760 
  -10543   -10395   -10358   -10438   -10567   -10708   -10862   -11005 
  -11114   -11183   -11207   -11191   -11157   -11103   -11017   -10910 
  -10791   -10655   -10524   -10442   -10427   -10446   -10473   -10557 
  -10743   -11001   -11280   -11589   -11962   -12421   -12987   -13625 
  -14222   -14732   -15211   -15661   -16040   -16382   -16744   -17097 
  -17358   -17483   -17483   -17398   -17300   -17211   -17089   -16908 
  -16684   -16454   -16244   -16078   -15972   -15931   -15944   -15969 
  -15904   -15736   -15603   -15584   -15583   -15541   -15542   -15593 
  -15643   -15684   -15673   -15587   -15543   -15610   -15716   -15811 
  -15896   -15994   -16090   -16113   -16042   -15903   -15720   -15533 
  -15380   -15261   -15196   -15201   -15215   -15209   -15263   -15434 
  -15620   -15731   -15761   -15691   -15526   -15361   -15295   -15337 
  -15462   -15673   -15892   -16011   -16070   -16162   -16255   -16293 
  -16282   -16225   -16143   -16112   -16147   -16167   -16160   -16220 
  -16370   -16548   -16774   -17123   -17562   -18023   -18523   -19052 
  -19492   -19751   -19870   -19938   -20004   -20077   -20110   -20017 
  -19795   -19529   -19257   -18985   -18747   -18557   -18369   -18165 
  -17975   -17822   -17655   -17400   -17049   -16616   -16155   -15754 
  -15430   -15151   -14949   -14833   -14728   -14598   -14484   -14407 
  -14354   -14310   -14268   -14215   -14090   -13902   -13732   -13583 
  -13380   -13131   -12881   -12671   -12523   -12447   -12434   -12469 
  -12561   -12723   -12901   -13072   -13273   -13485   -13670   -13824 
  -13944   -14022   -14046   -13983   -13817   -13601   -13405   -13281 
  -13230   -13228   -13329   -13563   -13894   -14314   -14797   -15236 
  -15534   -15618   -15454   -15126   -14755   -14350   -13879   -13397 
  -12973   -12594   -12260   -12032   -11859   -11610   -11291   -11029 
  -10845   -10682   -10512   -10257    -9846    -9410    -9096    -8827 
   -8499    -8232    -8168    -8274    -8463    -8710    -9007    -9371 
   -9864   -10465   -10993   -11304   -11441   -11497   -11519   -11578 
  -11719   -11875   -12023   -12210   -12366   -12401   -12402   -12464 
  -12568   -12737   -13028   -13429   -13911   -14423   -14851   -15107 
  -15226   -15310   -15426   -15583   -15782   -16038   -16349   -16698 
  -17015   -17255   -17443   -17617   -17748   -17799   -17779   -17732 
  -17691   -17671   -17675   -17666   -17554   -17308   -17027   -16806 
  -16648   -16528   -16474   -16513   -16576   -16603   -16579   -16460 
  -16225   -15955   -15695   -15396   -15074   -14782   -14489   -14156 
  -13806   -13451   -13069   -12676   -12332   -12083   -11940   -11934 
  -12122   -12444   -12764   -13030   -13252   -13408   -13478   -13421 
  -13188   -12845   -12583   -12521   -12631   -12792   -12852   -12750 
  -12618   -12594   -12685   -12846   -13069   -13347   -13671   -14046 
  -14490   -14958   -15371   -15715   -15959   -16015   -15873   -15696 
  -15618   -15645   -15757   -15892   -15946   -15924   -15896   -15822 
  -15655   -15498   -15424   -15417   -15493   -15680   -15912   -16108 
  -16240   -16301   -16298   -16276   -16249   -16167   -16078   -16119 
  -16301   -16494   -16592   -16582   -16452   -16205   -15913   -15685 
  -15545   -15489   -15561   -15739   -15938   -16092   -16101   -15911 
  -15654   -15464   -15327   -15160   -14935   -14744   -14662   -14658 
  -14697   -14731   -14661   -14486   -14291   -14065   -13780   -13487 
  -13220   -12923   -12559   -12155   -11705   -11199   -10697   -10230 
   -9780    -9382    -9104    -8953    -8892    -8922    -9034    -9150 
   -9246    -9382    -9545    -9651    -9684    -9679    -9662    -9699 
   -9842   -10058   -10258   -10397   -10503   -10613   -10733   -10852 
  -10957   -11072   -11230   -11403   -11518   -11502   -11356   -11176 
  -11068   -11051   -11044   -10936   -10755   -10629   -10573   -10488 
  -10326   -10131    -9991    -9930    -9925    -9964   -10060   -10230 
  -10476   -10732   -10910   -10980   -10972   -10944   -10974   -11082 
  -11176   -11183   -11142   -11118   -11078   -10959   -10773   -10597 
  -10532   -10621   -10827   -11070   -11277   -11414   -11500   -11573 
  -11668   -11799   -11931   -12059   -12205   -12328   -12390   -12482 
  -12673   -12858   -12954   -13032   -13132   -13223   -13316   -13439 
  -13540   -13602   -13690   -13763   -13757   -13768   -13880   -14026 
  -14118   -14154   -14153   -14134   -14107   -14046   -13944   -13861 
  -13878   -13976   -14090   -14253   -14499   -14755   -14931   -14994 
  -14998   -15021   -15091   -15194   -15279   -15330   -15392   -15433 
  -15334   -15106   -14852   -14580   -14265   -13933   -13572   -13211 
  -12976   -12888   -12802   -12617   -12410   -12274   -12197   -12093 
  -11913   -11680   -11437   -11217   -11062   -11018   -11114   -11325 
  -11576   -11846   -12186   -12629   -13136   -13617   -14029   -14366 
  -14594   -14709   -14771   -14806   -14800   -14733   -14604   -14443 
  -14338   -14377   -14551   -14757   -14924   -15003   -14955   -14810 
  -14677   -14604   -14531   -14407   -14229   -13971   -13644   -13339 
  -13142   -13051   -13063   -13147   -13238   -13328   -13458   -13613 
  -13734   -13792   -13763   -13644   -13501   -13428   -13474   -13608 
  -13752   -13859   -13909   -13910   -13886   -13819   -13702   -13629 
  -13691   -13825   -13915   -13930   -13907   -13869   -13805   -13691 
  -13529   -13400   -13416   -13532   -13651   -13829   -14108   -14368 
  -14505   -14561   -14581   -14561   -14517   -14465   -14337   -14123 
  -13932   -13824   -13768   -13745   -13725   -13626   -13421   -13204 
  -13061   -12993   -13004   -13069   -13108   -13108   -13124   -13144 
  -13117   -13054   -13004   -12973   -12937   -12946   -13062   -13261 
  -13489   -13691   -13768   -13706   -13598   -13493   -13366   -13224 
  -13104   -13030   -13008   -13042   -13128   -13220   -13230   -13113 
  -12912   -12677   -12453   -12307   -12302   -12445   -12684   -12895 
  -12968   -12904   -12748   -12499   -12158   -11790   -11496   -11304 
  -11169   -11060   -10996   -10976   -10939   -10841   -10628   -10268 
   -9883    -9587    -9381    -9256    -9157    -8991    -8760    -8565 
   -8510    -8571    -8627    -8596    -8440    -8174    -7912    -7735 
   -7626    -7573    -7603    -7709    -7857    -8005    -8131    -8264 
   -8469    -8749    -9042    -9238    -9279    -9252    -9269    -9358 
   -9525    -9760   -10026   -10327   -10665   -10970   -11171   -11273 
  -11318   -11352   -11414   -11524   -11680   -11855   -11962   -11896 
  -11692   -11499   -11387   -11308   -11200   -11057   -10908   -10781 
  -10693   -10629   -10578   -10563   -10605   -10636   -10593   -10535 
  -10559   -10670   -10833   -11014   -11184   -11333   -11491   -11688 
  -11888   -12048   -12167   -12266   -12402   -12606   -12768   -12776 
  -12665   -12536   -12438   -12368   -12295   -12202   -12069   -11896 
