Origin Time       2016/04/16 01:25:00
Lat.              32.753
Long.             130.762
Depth. (km)       12
Mag.              7.3
Station Code      EHM016
Station Lat.      33.7654
Station Long.     132.7089
Station Height(m) 3
Record Time       2016/04/16 01:25:44
Sampling Freq(Hz) 100Hz
Duration Time(s)  157
Dir.              N-S
Scale Factor      7845(gal)/8223790
Max. Acc. (gal)   17.956
Last Correction   2016/04/16 01:25:44
Memo.             
[...]
   -8692    -8820    -8910    -9023    -9162    -9288    -9363    -9404 
   -9468    -9585    -9732    -9853    -9910    -9913    -9872    -9810 
   -9761    -9711    -9621    -9466    -9243    -8964    -8655    -8355 
   -8118    -7977    -7884    -7778    -7624    -7435    -7244    -7041 
   -6798    -6496    -6147    -5841    -5648    -5571    -5587    -5670 
   -5788    -5945    -6173    -6512    -6945    -7392    -7794    -8141 
   -8441    -8727    -9034    -9362    -9695   -10000   -10243   -10436 
  -10605   -10767   -10933   -11095   -11257   -11426   -11569   -11634 
  -11607   -11491   -11315   -11101   -10818   -10470   -10118    -9823 
   -9636    -9549    -9475    -9325    -9086    -8793    -8500    -8239 
   -8009    -7840    -7774    -7827    -7985    -8189    -8395    -8575 
   -8708    -8815    -8923    -9045    -9178    -9285    -9310    -9238 
   -9078    -8863    -8688    -8650    -8754    -8918    -9042    -9120 
   -9211    -9328    -9460    -9602    -9738    -9865    -9979   -10058 
  -10088   -10079   -10075   -10096   -10142   -10197   -10227   -10204 
  -10139   -10083   -10072   -10098   -10121   -10116   -10061    -9944 
   -9787    -9614    -9435    -9274    -9146    -9040    -8969    -8957 
   -9036    -9189    -9359    -9514    -9652    -9747    -9753    -9652 
   -9481    -9296    -9117    -8962    -8866    -8850    -8892    -8949 
   -9001    -9066    -9188    -9394    -9664    -9953   -10228   -10473 
  -10670   -10825   -10978   -11153   -11381   -11668   -11970   -12275 
  -12575   -12854   -13111   -13343   -13575   -13826   -14085   -14331 
  -14539   -14696   -14805   -14859   -14858   -14790   -14650   -14445 
  -14192   -13888   -13539   -13180   -12849   -12556   -12301   -12063 
  -11815   -11521   -11142   -10655   -10058    -9378    -8680    -8027 
   -7447    -6955    -6547    -6249    -6075    -6006    -6004    -6034 
   -6092    -6183    -6304    -6451    -6625    -6821    -7044    -7304 
   -7609    -7956    -8326    -8681    -8995    -9279    -9570    -9896 
  -10258   -10602   -10825   -10862   -10737   -10504   -10212    -9898 
   -9576    -9248    -8905    -8548    -8213    -7955    -7808    -7758 
   -7778    -7820    -7827    -7777    -7699    -7652    -7670    -7728 
   -7786    -7807    -7761    -7645    -7466    -7248    -7006    -6764 
   -6579    -6507    -6562    -6741    -7006    -7294    -7581    -7852 
   -8077    -8248    -8411    -8625    -8912    -9244    -9580    -9900 
  -10203   -10501   -10808   -11080   -11240   -11233   -11065   -10798 
  -10497   -10199    -9903    -9648    -9505    -9495    -9570    -9676 
   -9794    -9913   -10007   -10039   -10003    -9899    -9737    -9547 
   -9354    -9188    -9070    -9000    -8992    -9043    -9104    -9140 
   -9169    -9204    -9256    -9332    -9437    -9579    -9765   -10012 
  -10332   -10698   -11064   -11361   -11541   -11628   -11654   -11607 
  -11475   -11245   -10939   -10584   -10200    -9807    -9404    -8985 
   -8595    -8286    -8091    -8020    -8016    -7997    -7944    -7875 
   -7819    -7823    -7875    -7909    -7906    -7893    -7917    -8020 
   -8202    -8414    -8587    -8687    -8704    -8655    -8592    -8549 
   -8502    -8421    -8286    -8110    -7939    -7819    -7771    -7773 
   -7786    -7817    -7871    -7919    -7936    -7959    -8048    -8217 
   -8414    -8576    -8644    -8633    -8595    -8590    -8654    -8760 
   -8851    -8888    -8877    -8878    -8939    -9053    -9193    -9340 
   -9487    -9629    -9760    -9903   -10057   -10192   -10266   -10249 
  -10162   -10061   -10002   -10017   -10088   -10177   -10215   -10181 
  -10121   -10073   -10034    -9995    -9944    -9877    -9783    -9672 
   -9560    -9433    -9290    -9147    -9012    -8900    -8830    -8787 
   -8765    -8749    -8707    -8630    -8519    -8428    -8436    -8542 
   -8716    -8938    -9163    -9369    -9568    -9751    -9884    -9960 
   -9996   -10041   -10127   -10261   -10428   -10586   -10694   -10750 
  -10771   -10797   -10835   -10841   -10808   -10766   -10728   -10714 
  -10754   -10841   -10995   -11226   -11472   -11677   -11790   -11777 
  -11661   -11488   -11303   -11128   -10979   -10887   -10833   -10751 
  -10633   -10490   -10318   -10133    -9944    -9757    -9593    -9458 
   -9350    -9274    -9227    -9216    -9235    -9251    -9265    -9293 
   -9335    -9387    -9435    -9456    -9458    -9483    -9580    -9740 
   -9895    -9971    -9923    -9803    -9680    -9586    -9502    -9396 
   -9248    -9092    -8995    -9020    -9157    -9339    -9528    -9702 
   -9853    -9991   -10119   -10235   -10342   -10411   -10417   -10345 
  -10169    -9888    -9530    -9146    -8761    -8390    -8046    -7727 
   -7414    -7109    -6848    -6667    -6597    -6650    -6798    -6990 
   -7164    -7287    -7356    -7378    -7353    -7277    -7179    -7117 
   -7119    -7171    -7267    -7406    -7569    -7743    -7927    -8117 
   -8305    -8469    -8612    -8737    -8815    -8830    -8785    -8706 
   -8629    -8550    -8424    -8252    -8077    -7911    -7770    -7655 
   -7538    -7411    -7298    -7245    -7302    -7444    -7619    -7825 
   -8097    -8426    -8789    -9120    -9366    -9547    -9722    -9941 
  -10242   -10585   -10905   -11184   -11410   -11561   -11614   -11521 
  -11292   -10944   -10503   -10054    -9680    -9391    -9175    -9011 
   -8877    -8779    -8711    -8669    -8685    -8764    -8854    -8934 
   -9012    -9067    -9074    -9038    -8989    -8957    -8943    -8918 
   -8873    -8816    -8738    -8650    -8579    -8550    -8572    -8630 
   -8707    -8789    -8869    -8966    -9092    -9213    -9293    -9319 
   -9329    -9381    -9482    -9605    -9733    -9840    -9899    -9927 
   -9981   -10088   -10200   -10255   -10260   -10266   -10301   -10341 
  -10372   -10392   -10397   -10382   -10341   -10307   -10328   -10400 
  -10467   -10498   -10482   -10405   -10242    -9989    -9647    -9234 
   -8806    -8391    -7962    -7524    -7148    -6851    -6600    -6384 
   -6222    -6118    -6052    -6030    -6127    -6382    -6739    -7142 
   -7580    -8029    -8482    -8924    -9321    -9636    -9877   -10103 
  -10365   -10646   -10920   -11199   -11475   -11704   -11842   -11862 
  -11776   -11583   -11287   -10968   -10727   -10566   -10428   -10308 
  -10250   -10233   -10199   -10168   -10176   -10189   -10126    -9941 
   -9672    -9377    -9085    -8843    -8703    -8676    -8692    -8685 
   -8669    -8687    -8711    -8664    -8523    -8352    -8191    -8075 
   -8047    -8085    -8144    -8214    -8303    -8403    -8473    -8494 
   -8482    -8453    -8395    -8309    -8241    -8218    -8228    -8267 
   -8341    -8453    -8611    -8829    -9103    -9420    -9722    -9902 
   -9903    -9787    -9618    -9412    -9186    -8988    -8884    -8916 
   -9051    -9204    -9288    -9292    -9294    -9367    -9489    -9589 
   -9612    -9563    -9514    -9529    -9589    -9629    -9648    -9672 
   -9728    -9803    -9879    -9917    -9864    -9702    -9463    -9177 
   -8876    -8607    -8368    -8127    -7890    -7669    -7452    -7267 
   -7184    -7217    -7350    -7612    -7987    -8384    -8769    -9178 
   -9616   -10058   -10504   -10935   -11277   -11457   -11468   -11388 
  -11313   -11269   -11222   -11175   -11126   -11017   -10841   -10663 
  -10514   -10408   -10362   -10416   -10588   -10794   -10910   -10897 
  -10800   -10656   -10465   -10242   -10049    -9906    -9734    -9502 
   -9278    -9100    -8958    -8883    -8939    -9127    -9329    -9462 
   -9596    -9823   -10087   -10243   -10215   -10021    -9709    -9319 
   -8916    -8600    -8424    -8345    -8280    -8194    -8127    -8105 
   -8144    -8262    -8411    -8457    -8306    -8029    -7817    -7742 
   -7696    -7609    -7557    -7647    -7905    -8247    -8537    -8688 
   -8712    -8684    -8672    -8708    -8808    -8954    -9104    -9211 
   -9275    -9339    -9421    -9562    -9809   -10108   -10338   -10438 
  -10442   -10396   -10289   -10098    -9864    -9671    -9535    -9421 
   -9277    -9080    -8873    -8708    -8577    -8473    -8397    -8310 
   -8185    -8070    -8029    -8048    -8058    -8035    -8059    -8220 
   -8477    -8687    -8764    -8708    -8503    -8151    -7761    -7482 
   -7366    -7369    -7457    -7650    -7939    -8275    -8611    -8893 
   -9058    -9093    -9049    -8989    -8955    -8955    -8989    -9104 
   -9369    -9752   -10157   -10490   -10687   -10740   -10716   -10683 
  -10670   -10671   -10655   -10588   -10493   -10442   -10469   -10530 
  -10527   -10426   -10281   -10164   -10130   -10192   -10282   -10312 
  -10262   -10193   -10191   -10280   -10434   -10643   -10897   -11117 
  -11234   -11280   -11317   -11315   -11260   -11236   -11352   -11645 
  -12046   -12383   -12529   -12509   -12437   -12414   -12448   -12480 
  -12492   -12492   -12488   -12495   -12519   -12522   -12444   -12254 
  -11979   -11654   -11295   -10953   -10729   -10670   -10692   -10694 
  -10673   -10662   -10679   -10721   -10759   -10782   -10791   -10768 
  -10681   -10500   -10247   -10007    -9852    -9759    -9657    -9567 
   -9575    -9670    -9709    -9609    -9416    -9188    -8920    -8604 
   -8253    -7857    -7410    -6983    -6686    -6602    -6725    -6972 
   -7269    -7568    -7813    -7998    -8155    -8245    -8167    -7917 
   -7638    -7458    -7361    -7234    -7041    -6836    -6644    -6453 
   -6242    -5994    -5727    -5535    -5498    -5618    -5834    -6056 
   -6210    -6301    -6376    -6465    -6597    -6744    -6848    -6870 
   -6808    -6690    -6567    -6486    -6459    -6442    -6350    -6137 
   -5853    -5628    -5556    -5621    -5727    -5792    -5811    -5819 
   -5849    -5917    -6006    -6088    -6183    -6336    -6531    -6714 
   -6874    -7023    -7160    -7246    -7253    -7192    -7122    -7096 
   -7123    -7195    -7256    -7234    -7160    -7137    -7195    -7291 
   -7387    -7473    -7560    -7672    -7847    -8085    -8364    -8645 
   -8873    -9023    -9101    -9108    -9061    -8966    -8811    -8638 
   -8510    -8428    -8378    -8379    -8411    -8444    -8490    -8546 
   -8590    -8592    -8525    -8397    -8251    -8116    -7960    -7716 
   -7340    -6883    -6447    -6114    -5880    -5644    -5308    -4914 
   -4604    -4455    -4418    -4388    -4305    -4176    -4036    -3931 
   -3909    -4003    -4199    -4464    -4780    -5105    -5377    -5567 
   -5689    -5788    -5875    -5914    -5899    -5868    -5872    -5926 
   -6011    -6134    -6345    -6659    -7028    -7392    -7746    -8113 
   -8510    -8961    -9474   -10015   -10525   -10989   -11434   -11902 
  -12409   -12942   -13505   -14088   -14654   -15169   -15637   -16059 
  -16437   -16753   -16969   -17064   -17032   -16920   -16825   -16822 
  -16926   -17132   -17428   -17793   -18179   -18528   -18835   -19098 
  -19315   -19538   -19811   -20108   -20387   -20665   -20986   -21386 
  -21837   -22237   -22503   -22620   -22616   -22543   -22412   -22187 
  -21903   -21602   -21261   -20876   -20497   -20170   -19880   -19561 
  -19174   -18740   -18334   -18017   -17788   -17618   -17498   -17420 
  -17370   -17356   -17388   -17396   -17285   -17015   -16540   -15803 
  -14860   -13867   -12951   -12183   -11597   -11168   -10813   -10482 
  -10208   -10041    -9987    -9984    -9958    -9904    -9857    -9823 
   -9780    -9705    -9574    -9402    -9263    -9167    -9065    -8943 
   -8820    -8688    -8559    -8471    -8418    -8367    -8293    -8143 
   -7893    -7595    -7310    -7056    -6802    -6509    -6186    -5842 
   -5452    -5034    -4653    -4348    -4113    -3905    -3670    -3415 
   -3171    -2924    -2691    -2536    -2506    -2658    -3006    -3516 
   -4175    -4955    -5727    -6416    -7132    -8000    -8972    -9925 
  -10800   -11585   -12263   -12792   -13159   -13387   -13468   -13378 
  -13139   -12787   -12330   -11804   -11232   -10616    -9963    -9251 
   -8441    -7553    -6605    -5587    -4521    -3434    -2376    -1435 
    -630       94      747     1312     1818     2281     2671     3007 
    3326     3611     3827     3986     4159     4326     4392     4283 
    3958     3443     2783     1939      913     -224    -1447    -2759 
   -4120    -5476    -6786    -8016    -9147   -10153   -10975   -11584 
  -11962   -12091   -11919   -11379   -10498    -9358    -8016    -6606 
   -5270    -4074    -3105    -2404    -1919    -1622    -1463    -1352 
   -1254    -1179    -1125    -1096    -1121    -1236    -1440    -1696 
   -1935    -2119    -2277    -2419    -2574    -2810    -3133    -3496 
   -3828    -4055    -4172    -4199    -4151    -4098    -4125    -4252 
   -4469    -4776    -5131    -5445    -5640    -5638    -5382    -4885 
   -4207    -3372    -2417    -1436     -492      349      985     1372 
    1502     1356      954      306     -584    -1629    -2733    -3878 
   -4999    -5952    -6667    -7169    -7454    -7562    -7538    -7344 
   -7014    -6646    -6268    -5965    -5911    -6199    -6805    -7665 
   -8726    -9989   -11445   -13049   -14735   -16426   -18081   -19641 
  -21041   -22272   -23329   -24198   -24844   -25207   -25304   -25215 
  -25004   -24659   -24124   -23375   -22391   -21197   -19893   -18582 
  -17351   -16243   -15223   -14278   -13450   -12804   -12432   -12399 
  -12717   -13313   -14119   -15130   -16303   -17575   -18939   -20339 
  -21706   -23037   -24293   -25380   -26298   -27097   -27679   -28015 
  -28194   -28151   -27785   -27186   -26454   -25637   -24806   -23965 
  -23051   -22061   -21011   -19869   -18665   -17462   -16279   -15156 
  -14139   -13204   -12306   -11457   -10693   -10042    -9512    -9112 
   -8888    -8877    -9077    -9447    -9902   -10395   -10956   -11584 
  -12235   -12870   -13394   -13651   -13562   -13143   -12472   -11685 
  -10936   -10368   -10062    -9968   -10021   -10246   -10636   -11151 
  -11739   -12294   -12745   -13016   -12969   -12668   -12272   -11799 
  -11234   -10530    -9629    -8543    -7314    -6042    -4847    -3719 
   -2621    -1610     -715       79      704     1112     1404     1677 
    1873     1868     1629     1192      553     -306    -1387    -2646 
   -4009    -5431    -6898    -8463   -10166   -11967   -13819   -15616 
  -17188   -18470   -19427   -20000   -20254   -20243   -19881   -19140 
  -18138   -17007   -15880   -14908   -14137   -13532   -13050   -12633 
  -12239   -11877   -11547   -11236   -10971   -10795   -10709   -10791 
  -11083   -11425   -11708   -12073   -12630   -13251   -13814   -14354 
  -14816   -15102   -15253   -15303   -15236   -15039   -14704   -14247 
  -13686   -13069   -12492   -11998   -11546   -11107   -10665   -10220 
   -9778    -9301    -8787    -8248    -7668    -7060    -6427    -5709 
   -4897    -4016    -3122    -2334    -1684    -1133     -689     -364 
    -144      -52     -133     -429     -916    -1540    -2238    -2926 
   -3530    -3998    -4386    -4814    -5323    -5895    -6527    -7156 
   -7720    -8241    -8781    -9382   -10058   -10764   -11381   -11778 
  -11911   -11772   -11373   -10818   -10282    -9840    -9436    -9040 
   -8645    -8224    -7807    -7458    -7195    -7006    -6919    -7002 
   -7219    -7416    -7586    -7862    -8251    -8727    -9310    -9899 
  -10385   -10771   -11070   -11299   -11434   -11381   -11133   -10717 
  -10181    -9599    -8929    -8085    -7102    -6112    -5217    -4426 
   -3727    -3117    -2509    -1833    -1138     -440      263      872 
    1327     1671     1988     2338     2633     2710     2543     2181 
    1640      929       60     -966    -2195    -3674    -5359    -7138 
   -8905   -10566   -12070   -13387   -14548   -15619   -16587   -17446 
  -18241   -18941   -19557   -20121   -20559   -20818   -20953   -21020 
  -21070   -21095   -21055   -20929   -20699   -20444   -20258   -20124 
  -20025   -19889   -19614   -19203   -18685   -18135   -17686   -17359 
  -17120   -16937   -16727   -16480   -16258   -16019   -15685   -15264 
  -14800   -14328   -13875   -13436   -13001   -12602   -12272   -12017 
  -11843   -11746   -11706   -11777   -12032   -12451   -12988   -13628 
  -14284   -14897   -15500   -16113   -16657   -17064   -17370   -17612 
  -17771   -17965   -18343   -18831   -19288   -19642   -19839   -19946 
  -20025   -19992   -19850   -19695   -19475   -19117   -18627   -17968 
  -17174   -16430   -15876   -15468   -15167   -14928   -14585   -14038 
  -13281   -12314   -11246   -10227    -9322    -8533    -7821    -7145 
   -6458    -5746    -5047    -4392    -3781    -3242    -2844    -2636 
   -2605    -2698    -2857    -3067    -3298    -3538    -3797    -4009 
   -4090    -4079    -4021    -3901    -3742    -3618    -3576    -3653 
   -3916    -4399    -5027    -5691    -6365    -7075    -7789    -8451 
   -9076    -9705   -10372   -11142   -12019   -12900   -13684   -14341 
  -14823   -15009   -14894   -14605   -14185   -13649   -13069   -12513 
  -12033   -11689   -11523   -11472   -11438   -11431   -11488   -11596 
  -11757   -11914   -11954   -11886   -11774   -11569   -11290   -11005 
  -10665   -10239    -9724    -9134    -8571    -8128    -7831    -7672 
   -7619    -7641    -7682    -7711    -7708    -7647    -7528    -7393 
   -7275    -7210    -7304    -7635    -8147    -8760    -9420   -10022 
  -10488   -10829   -11051   -11079   -10859   -10399    -9729    -8892 
   -7956    -6972    -5940    -4878    -3842    -2859    -1899     -961 
     -94      608     1074     1300     1247      892      318     -391 
   -1225    -2141    -3127    -4241    -5429    -6582    -7701    -8829 
   -9960   -11065   -12122   -13093   -13933   -14634   -15195   -15554 
  -15672   -15592   -15399   -15159   -14874   -14477   -13891   -13062 
  -12019   -10862    -9691    -8583    -7558    -6559    -5514    -4423 
   -3310    -2154    -1024      -36      832     1642     2400     3132 
    3820     4388     4784     4950     4866     4625     4293     3869 
    3437     3059     2644     2163     1698     1243      746      183 
    -459    -1167    -1934    -2774    -3689    -4684    -5737    -6774 
   -7749    -8654    -9462   -10157   -10751   -11264   -11682   -11950 
  -12043   -11969   -11734   -11385   -11017   -10687   -10400   -10119 
   -9818    -9486    -9146    -8918    -8888    -8985    -9108    -9250 
   -9439    -9713   -10096   -10493   -10755   -10922   -11080   -11134 
  -10983   -10659   -10239    -9796    -9401    -9093    -8829    -8598 
   -8456    -8387    -8363    -8398    -8492    -8653    -8910    -9220 
   -9521    -9814   -10095   -10346   -10601   -10868   -11124   -11368 
  -11557   -11651   -11691   -11669   -11515   -11218   -10833   -10412 
  -10018    -9680    -9350    -9007    -8655    -8224    -7673    -7037 
   -6350    -5649    -4972    -4299    -3647    -3090    -2682    -2473 
   -2446    -2486    -2532    -2582    -2625    -2679    -2731    -2743 
   -2779    -2947    -3291    -3776    -4320    -4873    -5414    -5895 
   -6393    -6995    -7596    -8166    -8770    -9305    -9690    -9958 
  -10120   -10230   -10370   -10565   -10827   -11178   -11635   -12214 
  -12895   -13609   -14324   -15001   -15569   -16021   -16421   -16846 
  -17348   -17892   -18396   -18793   -19039   -19099   -18936   -18530 
  -17928   -17205   -16420   -15641   -14893   -14158   -13485   -12942 
