Origin Time       2016/04/16 01:25:00
Lat.              32.753
Long.             130.762
Depth. (km)       12
Mag.              7.3
Station Code      EHM007
Station Lat.      33.9621
Station Long.     132.7722
Station Height(m) 1
Record Time       2016/04/16 01:25:46
Sampling Freq(Hz) 100Hz
Duration Time(s)  119
Dir.              N-S
Scale Factor      7845(gal)/8223790
Max. Acc. (gal)   10.182
Last Correction   2016/04/16 01:25:47
Memo.             
[...]
   -3392    -3546    -3832    -4186    -4494    -4656    -4656    -4522 
   -4256    -3916    -3620    -3470    -3511    -3730    -4079    -4533 
   -5019    -5447    -5780    -5983    -5989    -5810    -5525    -5219 
   -4936    -4706    -4546    -4413    -4252    -4068    -3882    -3735 
   -3672    -3665    -3703    -3801    -3915    -3990    -4027    -4003 
   -3890    -3704    -3473    -3226    -3013    -2882    -2828    -2808 
   -2814    -2847    -2866    -2809    -2663    -2478    -2336    -2278 
   -2250    -2224    -2246    -2316    -2442    -2656    -2933    -3229 
   -3507    -3763    -4032    -4307    -4523    -4661    -4731    -4761 
   -4781    -4780    -4726    -4600    -4395    -4131    -3869    -3700 
   -3719    -3954    -4293    -4634    -4956    -5228    -5409    -5528 
   -5620    -5699    -5809    -5967    -6119    -6214    -6247    -6212 
   -6127    -6004    -5796    -5478    -5049    -4533    -4023    -3626 
   -3400    -3322    -3319    -3349    -3350    -3248    -2999    -2629 
   -2235    -1953    -1849    -1906    -2057    -2241    -2397    -2486 
   -2548    -2606    -2586    -2442    -2207    -1958    -1806    -1822 
   -2010    -2332    -2718    -3087    -3385    -3620    -3844    -4064 
   -4255    -4444    -4646    -4831    -5005    -5182    -5377    -5601 
   -5793    -5886    -5895    -5886    -5887    -5873    -5793    -5630 
   -5408    -5154    -4880    -4596    -4295    -3955    -3584    -3261 
   -3073    -3041    -3126    -3262    -3388    -3485    -3600    -3775 
   -3993    -4243    -4537    -4831    -5065    -5201    -5219    -5123 
   -4950    -4761    -4626    -4558    -4519    -4460    -4353    -4218 
   -4097    -3994    -3917    -3878    -3894    -3971    -4091    -4200 
   -4241    -4187    -4024    -3750    -3410    -3041    -2668    -2344 
   -2134    -2079    -2184    -2413    -2708    -3017    -3295    -3503 
   -3627    -3672    -3676    -3705    -3797    -3932    -4091    -4238 
   -4322    -4338    -4338    -4355    -4383    -4440    -4575    -4796 
   -5040    -5233    -5359    -5458    -5552    -5582    -5428    -5053 
   -4507    -3883    -3329    -2965    -2824    -2890    -3119    -3433 
   -3757    -4036    -4228    -4320    -4309    -4197    -4029    -3834 
   -3609    -3395    -3256    -3218    -3260    -3346    -3445    -3530 
   -3580    -3615    -3682    -3775    -3854    -3932    -4013    -4044 
   -4002    -3882    -3692    -3499    -3387    -3342    -3288    -3190 
   -3064    -2934    -2824    -2764    -2786    -2863    -2967    -3127 
   -3361    -3628    -3888    -4114    -4294    -4422    -4509    -4604 
   -4757    -4893    -4934    -4918    -4860    -4716    -4538    -4399 
   -4302    -4236    -4220    -4275    -4375    -4469    -4522    -4490 
   -4318    -4013    -3665    -3322    -2953    -2579    -2273    -2081 
   -2007    -2039    -2184    -2420    -2704    -2982    -3172    -3206 
   -3099    -2932    -2813    -2829    -3005    -3299    -3672    -4095 
   -4509    -4852    -5111    -5254    -5240    -5060    -4760    -4401 
   -4058    -3834    -3755    -3735    -3738    -3834    -4055    -4336 
   -4564    -4676    -4696    -4645    -4484    -4218    -3932    -3727 
   -3653    -3724    -3943    -4298    -4707    -5065    -5346    -5567 
   -5672    -5595    -5391    -5150    -4880    -4563    -4245    -3951 
   -3599    -3154    -2758    -2548    -2532    -2652    -2860    -3095 
   -3272    -3315    -3202    -2974    -2729    -2554    -2446    -2396 
   -2451    -2662    -2994    -3331    -3569    -3677    -3639    -3415 
   -3044    -2658    -2390    -2335    -2485    -2740    -3010    -3264 
   -3473    -3653    -3867    -4063    -4098    -3927    -3639    -3400 
   -3399    -3705    -4147    -4452    -4507    -4376    -4171    -3993 
   -3889    -3855    -3870    -3925    -4001    -4098    -4245    -4428 
   -4523    -4425    -4156    -3840    -3655    -3747    -4107    -4596 
   -5077    -5481    -5798    -6064    -6319    -6569    -6739    -6732 
   -6550    -6269    -5934    -5545    -5109    -4669    -4301    -4058 
   -3991    -4095    -4293    -4499    -4627    -4590    -4392    -4166 
   -3977    -3703    -3249    -2727    -2274    -1895    -1584    -1440 
   -1521    -1721    -1856    -1830    -1713    -1638    -1653    -1694 
   -1658    -1512    -1348    -1332    -1551    -1965    -2431    -2801 
   -3007    -3082    -3111    -3188    -3369    -3639    -3921    -4118 
   -4151    -4031    -3905    -3915    -4082    -4347    -4571    -4658 
   -4680    -4746    -4839    -4918    -5022    -5164    -5282    -5331 
   -5333    -5302    -5143    -4789    -4336    -3959    -3757    -3763 
   -3973    -4298    -4619    -4855    -4982    -5017    -4974    -4822 
   -4591    -4360    -4151    -4008    -4059    -4283    -4430    -4375 
   -4320    -4483    -4788    -5003    -5005    -4796    -4414    -3996 
   -3754    -3765    -3898    -4010    -4060    -4086    -4139    -4243 
   -4395    -4492    -4402    -4079    -3632    -3296    -3232    -3325 
   -3312    -3141    -2920    -2718    -2614    -2688    -2868    -2990 
   -2991    -2926    -2855    -2818    -2847    -2941    -3037    -3046 
   -3014    -3144    -3565    -4214    -4956    -5664    -6185    -6380 
   -6239    -5896    -5483    -4994    -4406    -3863    -3559    -3555 
   -3856    -4398    -4918    -5125    -4970    -4560    -3963    -3311 
   -2862    -2783    -2995    -3308    -3638    -3969    -4225    -4367 
   -4469    -4587    -4611    -4440    -4163    -3960    -3897    -3959 
   -4149    -4402    -4573    -4702    -4950    -5273    -5478    -5514 
   -5483    -5466    -5429    -5313    -5164    -5078    -5111    -5277 
   -5464    -5459    -5177    -4725    -4233    -3798    -3440    -3105 
   -2779    -2496    -2258    -2111    -2130    -2259    -2361    -2373 
   -2365    -2416    -2524    -2648    -2802    -3033    -3369    -3761 
   -4101    -4353    -4542    -4656    -4599    -4336    -3973    -3653 
   -3478    -3492    -3658    -3879    -4051    -4151    -4185    -4120 
   -3974    -3836    -3742    -3688    -3689    -3747    -3892    -4159 
   -4549    -5051    -5617    -6081    -6301    -6268    -6049    -5749 
   -5464    -5232    -5067    -4993    -4992    -4989    -4934    -4803 
   -4568    -4220    -3840    -3537    -3322    -3138    -2991    -2920 
   -2866    -2687    -2365    -2046    -1854    -1795    -1848    -2011 
   -2282    -2598    -2803    -2786    -2620    -2525    -2679    -3086 
   -3623    -4159    -4577    -4835    -5008    -5173    -5327    -5448 
   -5481    -5293    -4858    -4332    -3947    -3863    -4082    -4441 
   -4727    -4827    -4765    -4600    -4365    -4086    -3763    -3350 
   -2811    -2224    -1771    -1593    -1713    -2019    -2367    -2675 
   -2875    -2907    -2806    -2720    -2748    -2818    -2878    -3061 
   -3457    -3901    -4209    -4426    -4657    -4897    -5108    -5262 
   -5343    -5366    -5355    -5287    -5070    -4650    -4112    -3551 
   -3067    -2855    -3011    -3407    -3894    -4421    -4999    -5575 
   -5975    -6081    -5910    -5476    -4855    -4248    -3850    -3757 
   -3932    -4218    -4517    -4776    -4837    -4571    -4112    -3726 
   -3554    -3626    -3909    -4280    -4603    -4830    -4959    -4966 
   -4831    -4606    -4390    -4205    -4036    -3931    -3963    -4132 
   -4357    -4595    -4797    -4826    -4608    -4278    -4002    -3819 
   -3726    -3771    -3912    -3962    -3850    -3715    -3615    -3391 
   -2945    -2440    -2052    -1794    -1648    -1615    -1680    -1826 
   -2050    -2377    -2830    -3373    -3893    -4263    -4477    -4657 
   -4828    -4843    -4691    -4584    -4612    -4677    -4722    -4777 
   -4868    -4970    -5071    -5186    -5273    -5270    -5189    -5074 
   -4900    -4606    -4164    -3608    -3006    -2465    -2107    -1995 
   -2130    -2470    -2918    -3403    -3874    -4271    -4558    -4698 
   -4680    -4560    -4426    -4388    -4477    -4537    -4379    -3977 
   -3487    -3109    -2902    -2817    -2872    -3068    -3289    -3450 
   -3528    -3510    -3377    -3148    -2895    -2690    -2559    -2565 
   -2751    -2984    -3100    -3102    -3118    -3296    -3672    -4120 
   -4521    -4826    -5040    -5246    -5509    -5810    -6058    -6099 
   -5836    -5325    -4688    -4068    -3620    -3349    -3105    -2817 
   -2570    -2442    -2363    -2201    -1958    -1726    -1505    -1267 
   -1127    -1243    -1642    -2261    -3038    -3842    -4479    -4819 
   -4822    -4599    -4364    -4202    -4044    -3866    -3712    -3586 
   -3465    -3343    -3213    -3060    -2874    -2678    -2528    -2448 
   -2401    -2307    -2111    -1868    -1656    -1501    -1412    -1398 
   -1399    -1324    -1181    -1115    -1263    -1602    -2020    -2448 
   -2835    -3122    -3291    -3393    -3500    -3595    -3600    -3480 
   -3257    -2963    -2621    -2303    -2115    -2121    -2262    -2409 
   -2496    -2544    -2601    -2701    -2851    -3028    -3204    -3330 
   -3335    -3242    -3161    -3203    -3429    -3871    -4502    -5138 
   -5485    -5485    -5400    -5463    -5644    -5822    -5988    -6161 
   -6272    -6303    -6389    -6625    -6937    -7213    -7399    -7501 
   -7481    -7295    -7013    -6774    -6597    -6336    -5938    -5539 
   -5243    -5096    -5164    -5456    -5853    -6176    -6273    -6124 
   -5831    -5463    -5026    -4558    -4117    -3730    -3380    -3018 
   -2643    -2335    -2169    -2166    -2296    -2454    -2551    -2620 
   -2716    -2799    -2816    -2774    -2697    -2560    -2349    -2160 
   -2097    -2150    -2278    -2466    -2695    -2938    -3122    -3165 
   -3156    -3280    -3582    -3913    -4101    -4102    -3979    -3796 
   -3578    -3399    -3279    -3137    -2951    -2770    -2641    -2597 
   -2601    -2586    -2560    -2517    -2473    -2505    -2643    -2863 
   -3153    -3445    -3693    -3955    -4279    -4660    -5055    -5408 
   -5724    -6042    -6356    -6635    -6897    -7119    -7245    -7264 
   -7248    -7264    -7360    -7487    -7553    -7515    -7365    -7084 
   -6700    -6295    -5949    -5653    -5351    -5111    -5073    -5256 
   -5601    -6052    -6516    -6848    -6948    -6799    -6438    -5917 
   -5308    -4684    -4113    -3681    -3476    -3514    -3773    -4166 
   -4479    -4556    -4396    -4062    -3612    -3159    -2837    -2708 
   -2733    -2906    -3246    -3715    -4236    -4772    -5313    -5838 
   -6319    -6725    -7034    -7253    -7423    -7568    -7704    -7901 
   -8212    -8569    -8835    -8969    -9047    -9104    -9096    -8972 
   -8723    -8361    -7933    -7522    -7226    -7111    -7098    -7018 
   -6840    -6659    -6528    -6450    -6404    -6361    -6354    -6438 
   -6573    -6605    -6453    -6208    -5996    -5868    -5829    -5896 
   -6041    -6137    -6081    -5868    -5547    -5174    -4764    -4306 
   -3832    -3396    -3067    -2898    -2905    -3065    -3288    -3404 
   -3304    -3026    -2695    -2479    -2473    -2656    -2956    -3254 
   -3469    -3578    -3530    -3295    -2945    -2579    -2192    -1715 
   -1193     -780     -540     -411     -302     -168        4      207 
     346      344      272      184       32     -206     -525     -877 
   -1193    -1449    -1698    -1961    -2227    -2448    -2544    -2466 
   -2243    -1929    -1509     -929     -190      648     1471     2154 
    2641     2972     3271     3653     4140     4675     5184     5616 
    5913     5973     5722     5223     4590     3888     3213     2647 
    2196     1837     1540     1262      945      553      102     -437 
   -1148    -1981    -2752    -3335    -3747    -4072    -4422    -4918 
   -5622    -6459    -7292    -8005    -8520    -8802    -8846    -8658 
   -8268    -7716    -7060    -6399    -5782    -5238    -4820    -4529 
   -4338    -4294    -4414    -4634    -4874    -5158    -5616    -6300 
   -7094    -7844    -8469    -8957    -9320    -9572    -9763    -9949 
  -10095   -10143   -10084    -9892    -9545    -9034    -8352    -7576 
   -6793    -6012    -5263    -4619    -4116    -3757    -3484    -3144 
   -2644    -1968    -1115     -178      707     1493     2180     2779 
    3300     3740     4097     4380     4627     4860     5039     5131 
    5066     4742     4133     3287     2281     1251      322     -471 
   -1194    -1946    -2775    -3688    -4662    -5676    -6693    -7628 
   -8444    -9193    -9787   -10061   -10017    -9717    -9163    -8371 
   -7384    -6247    -5011    -3747    -2565    -1553     -715      -14 
     566      992     1254     1405     1470     1456     1393     1320 
    1247     1102      822      403     -178     -929    -1791    -2721 
   -3596    -4260    -4734    -5050    -5131    -4953    -4618    -4293 
   -4055    -3889    -3846    -3991    -4256    -4433    -4352    -4014 
   -3514    -2889    -2205    -1594    -1101     -715     -471     -395 
    -502     -805    -1248    -1748    -2270    -2782    -3253    -3775 
   -4479    -5358    -6270    -7082    -7770    -8387    -8901    -9277 
   -9566    -9832   -10060   -10227   -10345   -10450   -10582   -10712 
  -10767   -10770   -10779   -10782   -10786   -10759   -10600   -10314 
   -9941    -9491    -9007    -8421    -7668    -6810    -5880    -4855 
   -3770    -2685    -1695     -841      -72      637     1243     1713 
    2053     2178     1904     1215      203    -1182    -2945    -4882 
   -6790    -8596   -10242   -11627   -12707   -13539   -14188   -14588 
  -14658   -14451   -14002   -13290   -12355   -11214    -9860    -8424 
   -7145    -6158    -5528    -5267    -5292    -5478    -5682    -5792 
   -5838    -5833    -5727    -5574    -5431    -5309    -5219    -5127 
   -5017    -4915    -4824    -4800    -4892    -5044    -5197    -5286 
   -5217    -4981    -4629    -4197    -3740    -3308    -2934    -2674 
   -2565    -2559    -2623    -2795    -3071    -3377    -3649    -3850 
   -3998    -4117    -4189    -4205    -4258    -4431    -4723    -5131 
   -5661    -6239    -6739    -7040    -7102    -6924    -6516    -6003 
   -5567    -5305    -5286    -5556    -6089    -6815    -7623    -8406 
   -9142    -9871   -10639   -11479   -12337   -13117   -13749   -14141 
  -14187   -13917   -13455   -12841   -12091   -11241   -10292    -9246 
   -8116    -6906    -5602    -4256    -2965    -1775     -737       44 
     506      714      741      583      222     -299     -954    -1769 
   -2713    -3657    -4480    -5150    -5752    -6374    -6987    -7538 
   -8031    -8463    -8753    -8850    -8845    -8865    -8908    -8868 
   -8648    -8162    -7411    -6525    -5601    -4742    -4125    -3821 
   -3715    -3647    -3544    -3518    -3742    -4241    -4974    -5904 
   -6947    -8040    -9130   -10112   -10901   -11407   -11556   -11392 
  -10990   -10408    -9782    -9215    -8706    -8239    -7766    -7240 
   -6654    -5991    -5265    -4544    -3866    -3225    -2604    -2022 
   -1528    -1171     -935     -660     -167      588     1505     2459 
    3380     4155     4652     4872     4946     4946     4858     4679 
    4405     4027     3544     2979     2388     1802     1221      654 
     109     -441     -969    -1387    -1705    -2010    -2307    -2608 
   -2947    -3298    -3674    -4074    -4409    -4695    -5017    -5324 
   -5579    -5846    -6135    -6413    -6677    -6832    -6787    -6559 
   -6204    -5850    -5634    -5613    -5863    -6401    -7101    -7908 
   -8854    -9868   -10790   -11495   -11963   -12252   -12386   -12345 
  -12185   -11965   -11618   -11039   -10164    -8951    -7466    -5899 
   -4461    -3299    -2474    -2006    -1865    -1903    -1961    -1992 
   -1989    -2018    -2141    -2315    -2502    -2706    -2903    -3125 
   -3454    -3861    -4261    -4591    -4766    -4758    -4618    -4415 
   -4233    -4082    -3851    -3459    -2924    -2200    -1220     -109 
     884     1602     2030     2239     2315     2335     2300     2143 
    1852     1414      769      -55     -954    -1888    -2857    -3813 
   -4756    -5736    -6743    -7661    -8298    -8561    -8509    -8213 
   -7843    -7692    -7873    -8203    -8477    -8621    -8575    -8255 
   -7673    -6983    -6366    -5926    -5748    -5861    -6162    -6521 
   -6875    -7145    -7264    -7283    -7273    -7256    -7261    -7284 
   -7273    -7210    -7083    -6818    -6323    -5630    -4861    -4120 
   -3511    -3126    -2964    -2992    -3146    -3326    -3473    -3589 
   -3685    -3755    -3834    -3979    -4126    -4167    -4126    -4064 
   -3971    -3774    -3420    -2944    -2416    -1910    -1498    -1223 
   -1167    -1391    -1772    -2130    -2386    -2506    -2488    -2417 
   -2377    -2405    -2533    -2774    -3111    -3530    -3974    -4340 
   -4563    -4600    -4386    -3942    -3429    -2986    -2654    -2471 
   -2489    -2681    -2982    -3353    -3744    -4106    -4382    -4549 
   -4683    -4839    -4997    -5135    -5266    -5344    -5268    -5019 
   -4621    -4102    -3578    -3154    -2843    -2650    -2589    -2652 
   -2817    -3025    -3180    -3249    -3267    -3254    -3249    -3304 
   -3406    -3537    -3692    -3842    -3981    -4088    -4180    -4348 
   -4631    -4966    -5333    -5805    -6416    -7127    -7858    -8540 
   -9139    -9540    -9664    -9567    -9329    -8999    -8637    -8305 
   -7997    -7663    -7264    -6791    -6313    -5956    -5852    -6006 
   -6218    -6285    -6176    -5877    -5341    -4623    -3865    -3137 
   -2474    -1875    -1328     -895     -622     -549     -741    -1107 
   -1451    -1682    -1795    -1811    -1783    -1791    -1896    -2087 
   -2308    -2486    -2584    -2608    -2556    -2435    -2263    -2038 
   -1699    -1197     -588        9      442      573      427      139 
    -229     -668    -1090    -1386    -1507    -1468    -1327    -1159 
   -1053    -1124    -1386    -1780    -2293    -2872    -3403    -3846 
   -4212    -4510    -4785    -5120    -5580    -6158    -6797    -7464 
   -8122    -8696    -9162    -9567    -9926   -10215   -10477   -10721 
  -10893   -10957   -10882   -10600   -10066    -9352    -8645    -8090 
   -7680    -7354    -7060    -6721    -6280    -5710    -4997    -4170 
   -3230    -2151     -940      361     1668     2875     3896     4657 
    5131     5339     5331     5157     4855     4488     4125     3828 
    3611     3416     3184     2896     2531     2073     1564     1036 
     480      -78     -595    -1084    -1572    -2019    -2411    -2756 
   -3026    -3217    -3362    -3478    -3561    -3632    -3659    -3573 
   -3362    -3017    -2524    -1987    -1548    -1300    -1223    -1189 
   -1120    -1060    -1070    -1163    -1354    -1667    -2096    -2606 
   -3146    -3646    -4107    -4580    -5062    -5524    -5927    -6250 
   -6500    -6635    -6592    -6409    -6176    -5953    -5733    -5422 
   -4947    -4291    -3477    -2567    -1694    -1032     -696     -707 
   -1034    -1557    -2116    -2592    -2921    -3071    -3003    -2718 
   -2332    -1941    -1559    -1248    -1113    -1192    -1420    -1664 
   -1779    -1669    -1275     -599      209      973     1564     1898 
    1989     1887     1574     1081      480     -218     -965    -1632 
   -2133    -2417    -2506    -2474    -2323    -2056    -1767    -1572 
   -1567    -1788    -2176    -2617    -3029    -3334    -3515    -3692 
