Origin Time       2016/04/16 01:25:00
Lat.              32.753
Long.             130.762
Depth. (km)       12
Mag.              7.3
Station Code      EHM012
Station Lat.      33.2217
Station Long.     132.5727
Station Height(m) 37
Record Time       2016/04/16 01:25:38
Sampling Freq(Hz) 100Hz
Duration Time(s)  108
Dir.              N-S
Scale Factor      7845(gal)/8223790
Max. Acc. (gal)   20.676
Last Correction   2016/04/16 01:25:23
Memo.             
[...]
    3053     1984     1016      526      812     1949     3805     6089 
    8281     9811    10467    10401     9973     9386     8523     7376 
    6103     4837     3863     3393     3267     3284     3519     4060 
    4731     5223     5377     5238     5027     4996     5131     5251 
    5188     4932     4615     4232     3717     3315     3246     3470 
    4050     4899     5529     5606     5192     4604     4223     4094 
    4060     4168     4279     3944     3113     2191     1520     1277 
    1443     1861     2457     3127     3730     4222     4568     4731 
    4757     4737     4738     4702     4602     4564     4571     4521 
    4491     4560     4769     5188     5671     5949     6104     6416 
    6797     6952     6777     6320     5757     5306     5030     5019 
    5363     5826     6108     6200     6173     6049     6095     6438 
    6567     6146     5448     4661     3796     2929     2177     1872 
    2209     2843     3426     3925     4245     4266     4058     3742 
    3499     3553     3913     4407     4710     4495     3896     3355 
    3192     3595     4338     4947     5360     5701     6015     6393 
    6791     7072     7042     6582     5895     5177     4500     4045 
    3835     3712     3630     3527     3302     3033     2938     3061 
    3284     3569     3935     4477     5228     5833     5972     5672 
    5039     4434     4233     4266     4274     4293     4431     4622 
    4544     4274     4310     4579     4716     4870     5205     5556 
    5811     5884     5652     5279     4974     4658     4433     4486 
    4553     4445     4253     3963     3666     3535     3528     3568 
    3697     4081     4861     5873     6799     7523     7865     7548 
    6739     5883     5169     4638     4266     3996     3893     4067 
    4542     5169     5564     5498     5062     4349     3466     2739 
    2419     2330     2293     2500     3136     4091     5004     5499 
    5568     5508     5597     5923     6232     6106     5529     5012 
    4982     5232     5329     5227     4946     4438     3979     3800 
    3747     3674     3618     3653     3909     4395     4882     5135 
    5113     4874     4572     4438     4476     4509     4442     4299 
    4476     5374     6644     7747     8553     8942     8862     8565 
    8155     7472     6579     5764     5139     4677     4390     4266 
    4357     4623     4822     4918     4977     4764     4136     3364 
    2608     1802     1063      594      550     1093     2234     3784 
    5394     6705     7553     7796     7398     6664     5904     5215 
    4560     3736     2758     2074     1944     2282     2947     3638 
    4329     5347     6353     6700     6551     6384     6322     6241 
    5898     5215     4386     3634     3094     2809     2786     2922 
    3092     3406     4036     4918     5809     6493     6872     7007 
    7071     7200     7231     6768     5752     4654     4050     4278 
    5164     6184     7069     7771     8121     8047     7685     7140 
    6453     5733     5031     4302     3677     3438     3757     4523 
    5285     5580     5350     4818     4248     3835     3607     3518 
    3530     3504     3306     3049     2914     2803     2681     2866 
    3469     4145     4504     4364     3989     3908     4268     4950 
    5813     6504     6681     6342     5788     5367     5206     5205 
    5162     5008     4881     4946     5324     5923     6392     6589 
    6764     7020     7150     7025     6677     6161     5570     5059 
    4704     4372     3937     3497     3253     3346     3709     4033 
    4117     4131     4260     4414     4594     5012     5490     5420 
    4575     3362     2343     1829     1787     2025     2436     3068 
    4000     5268     6629     7657     8344     8792     8704     7997 
    6979     5826     4660     3524     2366     1413      946      976 
    1478     2303     3180     4128     5177     6070     6650     7006 
    7038     6451     5277     3828     2366     1239      753      715 
     838     1235     2061     3321     4934     6663     8314     9740 
   10681    10916    10293     8873     6998     4945     2894     1119 
    -106     -702     -723     -106     1150     2728     4266     5518 
    6354     6844     7115     7272     7290     7020     6484     5826 
    5130     4450     3825     3325     3136     3375     3935     4739 
    5655     6351     6725     6893     6809     6531     6250     5875 
    5259     4546     3875     3245     2795     2654     2747     3113 
    3828     4656     5266     5545     5549     5433     5335     5213 
    4895     4233     3210     2069     1235      996     1444     2438 
    3407     3875     4121     4517     4893     5123     5301     5363 
    5343     5476     5837     6315     6561     6130     5152     4155 
    3446     3256     3508     3638     3465     3438     3839     4552 
    5251     5610     5555     5296     5163     5312     5579     5703 
    5518     5055     4656     4675     4982     5113     4808     4213 
    3775     3867     4396     4953     5247     5169     4699     4023 
    3508     3407     3669     4044     4372     4718     5117     5578 
    6133     6547     6531     6204     5869     5742     5705     5410 
    4963     4764     4839     4958     4799     4041     2945     2215 
    2104     2361     2782     3314     3954     4743     5672     6588 
    7192     7219     6782     6269     5922     5838     5942     5926 
    5694     5475     5416     5487     5485     5263     5042     5177 
    5699     6247     6426     6123     5609     5286     5205     5208 
    5266     5313     5336     5366     5080     4247     3299     2662 
    2276     2100     2189     2315     2270     2222     2447     2980 
    3492     3578     3422     3634     4336     5158     5892     6465 
    6789     6881     6640     5896     4747     3464     2539     2505 
    3235     4218     5131     5725     5956     5976     5817     5582 
    5462     5481     5663     6052     6524     6879     6979     6822 
    6590     6366     6006     5539     5098     4634     4194     3978 
    4025     4215     4461     4850     5502     6332     7190     7901 
    8201     7936     7215     6346     5602     5059     4672     4345 
    3977     3599     3377     3447     3723     3997     4360     5016 
    5652     5877     5802     5623     5408     5213     5032     4914 
    4928     4963     4904     4812     4822     5005     5283     5436 
    5316     5022     4747     4606     4714     5128     5665     6012 
    5876     5179     4279     3555     3096     3034     3461     4052 
    4418     4564     4648     4729     4905     5205     5435     5448 
    5255     4843     4353     3967     3581     3204     3153     3620 
    4494     5377     5822     5686     5080     4271     3634     3339 
    3319     3516     3920     4571     5633     7002     8109     8515 
    8244     7510     6564     5667     5011     4611     4313     4052 
    3855     3672     3534     3569     3809     4266     4993     5949 
    6867     7450     7676     7589     7099     6250     5244     4329 
    3828     3813     3956     3958     3910     4140     4716     5227 
    5294     5119     5015     4861     4550     4332     4357     4530 
    4903     5637     6571     7279     7461     7056     6181     5051 
    3924     2994     2393     2273     2596     3106     3651     4148 
    4564     4965     5304     5574     5971     6527     6928     6825 
    6214     5456     4892     4522     4162     3835     3699     3893 
    4511     5186     5329     5065     4922     5144     5753     6388 
    6444     5931     5359     4943     4707     4739     4936     5103 
    5197     5194     5105     4970     4752     4495     4225     3890 
    3736     4025     4523     4935     5147     5020     4602     4174 
    3909     3723     3499     3329     3275     3176     3114     3449 
    4233     5140     5822     6161     6185     5840     5185     4581 
    4263     4263     4581     4899     4835     4621     4622     4756 
    4943     5235     5524     5732     5817     5694     5416     5043 
    4568     4187     4147     4353     4484     4263     3604     2844 
    2629     3227     4305     5329     5853     5779     5394     5027 
    4831     4615     4001     3042     2311     2274     2998     4191 
    5352     6178     6725     7142     7454     7476     6906     5585 
    3704     1867      696      291      479     1053     1610     1921 
    2227     2928     4258     5968     7429     8307     8588     8317 
    7765     7188     6498     5733     5300     5377     5694     6110 
    6723     7454     8124     8604     8796     8595     7974     7207 
    6613     6119     5616     5306     5306     5526     5967     6605 
    7267     7805     8221     8623     9104     9558     9636     9053 
    7954     6777     6000     5892     6193     6284     5823     5093 
    4554     4463     5035     6177     7338     8266     9074     9636 
    9757     9460     8816     7977     7245     6777     6396     5831 
    4908     3726     2714     2187     2107     2405     3079     3991 
    4974     6077     7292     8268     8665     8379     7578     6766 
    6363     6460     7044     7940     8880     9703    10278    10597 
   10885    11219    11491    11684    11808    11875    11871    11581 
   10858     9784     8577     7566     6793     5938     4882     3688 
    2415     1271      353     -436     -924     -789     -137      687 
    1576     2467     3033     2833     1598     -510    -2868    -4846 
   -6238    -7160    -7726    -7871    -7474    -6627    -5562    -4506 
   -3807    -3603    -3597    -3615    -3732    -3807    -3692    -3504 
   -3234    -2648    -1509      246     2450     4851     7018     8428 
    9132     9622    10150    10594    10655    10141     9018     7254 
    5124     3316     2315     1973     1880     1865     2000     2473 
    3459     4699     5518     5602     5246     4896     4923     5467 
    6107     6120     5344     4275     3291     2342     1426      776 
     453      349      421      666     1084     1532     1815     2069 
    2586     3435     4693     6272     7416     7447     6470     4903 
    3078     1177     -633    -2079    -3029    -3399    -2991    -1742 
     141     2442     5154     8294    11658    14732    16653    16865 
   15730    13740    11079     8295     5961     3951     2016      301 
    -895    -1329     -877      751     3874     8062    12303    15639 
   17409    17393    15781    13139    10285     7766     5788     4395 
    3346     2565     2475     3242     4564     6188     7657     8275 
    7913     7106     6427     6110     5877     5312     4368     3353 
    2554     1960     1470     1150     1236     2004     3241     4367 
    5382     6455     7094     6727     5229     3052      955     -803 
   -2224    -3242    -4202    -5220    -5742    -5368    -4009    -1780 
     847     3307     5347     7304     9616    12071    14017    14651 
   13259    10318     7325     5065     3562     2786     2323     1695 
    1197     1468     2501     3915     5727     8047    10829    14022 
   17090    19071    19500    18871    18017    17023    15388    12980 
    9859     6054     2119     -938    -2351    -1819      448     3547 
    6393     8552    10034    10659    10118     8361     5786     2913 
     -40    -2943    -5368    -6798    -6960    -5834    -3549     -380 
    3280     7088    10883    14617    18072    20745    22360    22864 
   22063    20166    17784    15126    12023     8316     4062      -40 
   -2770    -3561    -2641     -144     3520     7410    10820    13343 
   14466    13680    10968     6937     2513    -1437    -4318    -5744 
   -5733    -4689    -2890     -274     3619     9147    15484    21027 
   24671    25828    24196    19909    13597     6554      168    -4887 
   -8303   -10064   -10678   -10463    -9246    -6669    -2427     2855 
    7593    10878    12987    14193    14243    12784     9732     5755 
    2064     -769    -2783    -3757    -3353    -1398     2281     7321 
   12363    16285    19010    20407    20094    18143    14586     9414 
    3420    -2242    -6976   -10474   -12340   -12614   -11865   -10523 
   -8792    -6677    -3782      218     4658     8233    10080     9887 
    8193     6319     4904     3873     2956     1606      172     -268 
     506     2281     4876     7824    10882    14054    16899    18835 
   19614    19035    17058    14255    11521     9533     8712     8888 
    9271     9315     8764     7603     6458     5813     5332     4423 
    2851     1100      -21     -212      232      761      791       62 
   -1182    -2328    -2708    -2335    -1942    -1848    -1655    -1094 
    -317      653     2007     3480     4595     5381     5800     5397 
    4002     2074      498      -62      229      949     2033     3316 
    4633     6297     8646    11595    14466    16063    15768    13967 
   11061     7083     2091    -3369    -8085   -11011   -11963   -11152 
   -8865    -5533    -1701     1819     4063     4571     3800     2490 
     818    -1297    -3634    -5435    -5656    -3940     -724     3336 
    7360    10517    12696    14111    14382    13073    10546     7242 
    3342     -641    -4299    -7743   -10843   -13116   -14273   -14096 
  -12379    -9166    -4865     -522     2701     4695     6102     7244 
    7835     7184     4467     -715    -7408   -13363   -16705   -16872 
  -14110    -9418    -4336      259     4347     8164    11936    15275 
   17146    17061    15296    11900     7065     1736    -3056    -6446 
   -8017    -8067    -6891    -4807    -2407      128     2899     5682 
    8228    10471    12290    13493    13971    13772    12912    11232 
    8727     5872     3526     2482     2666     3164     3470     4078 
    5709     8604    12536    16649    19481    19969    18023    14219 
    9518     4893     1042    -1729    -3831    -5725    -6691    -5734 
   -3021      657     4502     7703     9745    10643    10660     9958 
    8672     6960     4795     2254     -190    -1888    -2228     -942 
    1583     4411     6482     7202     6856     6161     5393     4612 
    4255     4356     3969     2311     -311    -2871    -4105    -3005 
     375     4675     8166    10170    11465    13051    14982    16702 
   17528    16623    13636     9251     4514      -32    -4074    -6723 
   -7068    -5262    -2006     2076     6228     9877    12852    15016 
   16345    17035    17180    16611    14725    10894     5475     -353 
   -5197    -7558    -6806    -3678      558     4558     7321     8733 
    9185     8889     7746     5756     3317      699    -2001    -4305 
   -5691    -6002    -5200    -3211      -13     3932     7391     9188 
    9163     7971     6525     5483     4638     3434     1869      121 
   -2037    -4855    -7804    -9509    -8851    -5767     -909     4882 
   10427    14619    17392    18833    18376    15909    11855     6540 
     707    -4212    -6793    -6809    -5205    -2752       47     2875 
    6126     9729    12609    14251    15051    15344    14820    12857 
    9783     6845     4552     2347     -307    -3362    -6164    -7701 
   -7118    -4348     -364     3645     7307    10937    14463    17174 
   18476    18004    15508    11450     6898     2671     -873    -3404 
   -4357    -3354     -579     3638     9000    14613    19129    21786 
   22437    21293    18987    15975    12347     8131     3291    -1917 
   -6679   -10133   -11866   -11663    -9300    -5035      506     6863 
   13309    18536    21270    21161    18825    14978    10157     5004 
      39    -4320    -7368    -8490    -7550    -4542      257     5965 
   11283    14929    16370    15993    14486    12322     9556     6288 
    3157      595    -1440    -2658    -2720    -1856     -337     1658 
    3750     5651     7078     7466     6609     5059     3369     1540 
    -329    -1876    -3154    -4192    -4428    -3435    -1516      811 
    3380     6166     9123    12023    13896    13612    11240     7879 
    4725     2546     1267      599      776     1755     3025     4332 
    5548     6643     7869     9309    10643    11257    10443     7955 
    4405      872    -1942    -3983    -5290    -5860    -5730    -4753 
   -2782     -214     1935     2930     2955     2600     2323     2172 
    2027     2305     3272     4330     5128     5786     6037     5815 
    5593     5404     4882     4082     3510     3350     3068     2319 
    1748     2111     3223     4430     5506     6481     7160     7294 
    6980     6564     6126     5590     5115     4899     5015     5621 
    6858     8471    10158    11873    13184    13375    12641    11946 
   11726    11661    11295    10388     9101     7938     7236     6901 
    6612     6201     6011     6706     8403    10270    11348    11348 
   10514     8988     6658     3765      926    -1358    -2658    -2579 
   -1028     1728     5208     8861    11940    13574    13269    11237 
    8267     5225     2717      990     -187    -1000     -962      214 
    2023     3855     5256     5940     5985     5640     5205     4938 
    5022     5649     6619     7484     8172     8559     8384     7852 
    7080     5736     3929     2551     2489     3981     6444     8885 
   10763    12193    13462    14615    15255    14936    13532    11075 
    7858     4599     2121      903      820     1298     1761     2031 
    2421     3180     4152     5188     6219     7167     8028     8835 
    9528     9813     9150     7227     4431     1668     -225     -929 
    -831     -646     -669     -576      411     2937     6477     9695 
   11909    13223    13767    13531    12623    11242     9404     7150 
    4909     3109     1622      194     -958    -1498    -1355     -702 
     198     1277     2389     3010     2936     2619     2365     2057 
    1675     1414     1460     1973     3059     4577     6135     7195 
    7304     6679     6089     5864     5856     5940     5864     5552 
    5410     5617     5817     5613     4864     3897     3284     3203 
    3499     4215     5401     6762     7865     8500     8826     9085 
    9328     9661    10135    10172     9104     7268     5713     5093 
    5223     5225     4232     2330      611      114      877     2060 
    2953     3497     3978     4621     5337     5773     5603     4760 
    3619     2740     2357     2295     2209     1838     1377     1506 
    2619     4483     6655     8500     9536     9886     9544     8341 
    6781     5479     4568     3931     3059     1459     -411    -1658 
   -2000    -1524     -314     1499     3765     6046     7770     8742 
    9107     9184     9093     8371     6732     4621     2601     1042 
     126     -128      464     2076     4337     6610     8579    10211 
   11373    11861    11611    10636     9076     7322     5817     4752 
    3958     3103     2195     1520     1132      932      940     1146 
    1528     2157     2992     3919     4723     5042     4665     3645 
    2114      498     -603     -969     -749     -251      180      390 
     454      642     1205     2073     3009     3812     4284     4407 
    4238     3769     3219     3015     3395     4310     5389     6034 
