Origin Time       2016/04/16 01:25:00
Lat.              32.753
Long.             130.762
Depth. (km)       12
Mag.              7.3
Station Code      EHM001
Station Lat.      33.9810
Station Long.     133.5490
Station Height(m) 63
Record Time       2016/04/16 01:25:59
Sampling Freq(Hz) 100Hz
Duration Time(s)  116
Dir.              N-S
Scale Factor      7845(gal)/8223790
Max. Acc. (gal)   8.105
Last Correction   2016/04/16 01:25:59
Memo.             
[...]
   -2658    -2635    -2633    -2648    -2694    -2748    -2756    -2727 
   -2702    -2688    -2675    -2650    -2602    -2542    -2488    -2452 
   -2419    -2357    -2295    -2281    -2326    -2397    -2457    -2482 
   -2490    -2490    -2479    -2484    -2517    -2571    -2656    -2770 
   -2879    -2979    -3079    -3163    -3204    -3211    -3217    -3248 
   -3308    -3379    -3438    -3496    -3569    -3650    -3712    -3727 
   -3694    -3666    -3669    -3684    -3694    -3711    -3738    -3769 
   -3785    -3778    -3748    -3696    -3619    -3535    -3456    -3387 
   -3333    -3289    -3254    -3248    -3284    -3349    -3407    -3431 
   -3423    -3407    -3392    -3354    -3289    -3203    -3109    -3026 
   -2948    -2844    -2717    -2582    -2424    -2234    -2030    -1841 
   -1674    -1522    -1401    -1327    -1282    -1263    -1274    -1312 
   -1374    -1463    -1588    -1741    -1895    -2034    -2143    -2226 
   -2296    -2349    -2370    -2378    -2407    -2458    -2515    -2551 
   -2558    -2558    -2571    -2597    -2617    -2632    -2655    -2685 
   -2728    -2790    -2844    -2868    -2874    -2874    -2871    -2876 
   -2903    -2938    -2974    -3032    -3122    -3221    -3310    -3379 
   -3418    -3446    -3496    -3570    -3651    -3724    -3766    -3774 
   -3754    -3721    -3681    -3630    -3599    -3612    -3634    -3649 
   -3669    -3677    -3661    -3643    -3639    -3662    -3711    -3753 
   -3771    -3762    -3724    -3686    -3673    -3700    -3784    -3897 
   -4009    -4110    -4192    -4260    -4330    -4413    -4510    -4611 
   -4693    -4737    -4741    -4708    -4644    -4548    -4431    -4313 
   -4205    -4101    -3984    -3848    -3708    -3580    -3478    -3403 
   -3335    -3277    -3232    -3213    -3208    -3192    -3150    -3114 
   -3102    -3106    -3117    -3107    -3084    -3071    -3060    -3049 
   -3046    -3064    -3117    -3187    -3246    -3288    -3308    -3308 
   -3288    -3253    -3213    -3145    -3041    -2920    -2789    -2659 
   -2548    -2452    -2389    -2386    -2425    -2486    -2570    -2666 
   -2763    -2874    -3003    -3144    -3279    -3384    -3459    -3522 
   -3555    -3565    -3569    -3566    -3572    -3593    -3618    -3628 
   -3618    -3578    -3522    -3458    -3400    -3354    -3331    -3336 
   -3362    -3402    -3442    -3468    -3468    -3434    -3362    -3277 
   -3207    -3161    -3138    -3145    -3183    -3230    -3269    -3295 
   -3294    -3249    -3176    -3098    -3006    -2906    -2814    -2733 
   -2652    -2575    -2521    -2516    -2554    -2614    -2690    -2759 
   -2801    -2813    -2806    -2790    -2783    -2791    -2811    -2836 
   -2862    -2891    -2928    -2979    -3049    -3134    -3222    -3294 
   -3341    -3369    -3391    -3427    -3497    -3604    -3742    -3875 
   -3990    -4079    -4136    -4168    -4183    -4171    -4159    -4178 
   -4214    -4241    -4256    -4271    -4288    -4293    -4276    -4240 
   -4186    -4118    -4031    -3904    -3746    -3581    -3406    -3226 
   -3076    -2959    -2870    -2801    -2745    -2704    -2678    -2651 
   -2602    -2529    -2459    -2411    -2366    -2309    -2249    -2196 
   -2170    -2189    -2265    -2370    -2471    -2562    -2628    -2668 
   -2713    -2762    -2802    -2851    -2917    -2986    -3053    -3105 
   -3117    -3102    -3082    -3053    -3030    -3032    -3071    -3148 
   -3241    -3326    -3399    -3462    -3520    -3576    -3622    -3663 
   -3684    -3677    -3665    -3663    -3665    -3676    -3708    -3757 
   -3796    -3819    -3825    -3811    -3781    -3736    -3680    -3615 
   -3522    -3392    -3249    -3088    -2905    -2720    -2546    -2384 
   -2223    -2058    -1896    -1738    -1576    -1428    -1308    -1230 
   -1205    -1212    -1243    -1294    -1356    -1429    -1502    -1574 
   -1672    -1802    -1939    -2069    -2176    -2263    -2342    -2403 
   -2434    -2466    -2519    -2589    -2674    -2766    -2836    -2879 
   -2909    -2941    -2979    -3002    -3013    -3017    -3029    -3060 
   -3094    -3121    -3146    -3164    -3161    -3149    -3133    -3102 
   -3063    -3034    -3017    -3007    -3005    -3007    -3017    -3051 
   -3107    -3146    -3150    -3127    -3079    -3019    -2960    -2905 
   -2863    -2837    -2835    -2867    -2924    -2992    -3065    -3122 
   -3159    -3191    -3207    -3202    -3202    -3207    -3218    -3258 
   -3329    -3410    -3496    -3572    -3611    -3591    -3541    -3508 
   -3485    -3445    -3387    -3310    -3219    -3138    -3071    -3009 
   -2953    -2905    -2859    -2813    -2745    -2655    -2559    -2474 
   -2416    -2376    -2342    -2349    -2400    -2471    -2563    -2664 
   -2755    -2855    -2978    -3092    -3180    -3240    -3287    -3346 
   -3424    -3520    -3619    -3707    -3781    -3848    -3908    -3963 
   -4014    -4062    -4101    -4122    -4117    -4082    -4045    -4013 
   -3973    -3932    -3917    -3928    -3959    -3998    -4036    -4074 
   -4117    -4159    -4220    -4306    -4401    -4517    -4656    -4795 
   -4926    -5055    -5179    -5282    -5352    -5398    -5435    -5471 
   -5499    -5498    -5462    -5402    -5327    -5247    -5171    -5090 
   -4997    -4899    -4796    -4681    -4546    -4387    -4222    -4074 
   -3951    -3856    -3792    -3742    -3707    -3678    -3646    -3612 
   -3582    -3551    -3515    -3470    -3412    -3316    -3184    -3046 
   -2914    -2801    -2725    -2685    -2659    -2616    -2540    -2457 
   -2393    -2351    -2331    -2308    -2258    -2196    -2143    -2091 
   -2038    -1984    -1922    -1846    -1755    -1648    -1528    -1399 
   -1269    -1167    -1105    -1081    -1093    -1121    -1169    -1259 
   -1377    -1487    -1595    -1723    -1875    -2053    -2254    -2442 
   -2608    -2786    -2986    -3172    -3322    -3431    -3499    -3532 
   -3526    -3480    -3411    -3346    -3311    -3302    -3292    -3281 
   -3269    -3257    -3268    -3302    -3319    -3315    -3304    -3258 
   -3149    -3002    -2839    -2656    -2478    -2315    -2160    -2015 
   -1892    -1779    -1648    -1493    -1324    -1162    -1026     -907 
    -777     -629     -479     -352     -256     -191     -171     -187 
    -230     -303     -402     -513     -634     -754     -864     -953 
   -1021    -1070    -1092    -1090    -1069    -1031     -997     -972 
    -958     -959     -969     -992    -1046    -1132    -1251    -1401 
   -1563    -1726    -1878    -2018    -2160    -2293    -2411    -2524 
   -2625    -2721    -2820    -2918    -3022    -3159    -3357    -3618 
   -3901    -4186    -4459    -4706    -4938    -5159    -5367    -5568 
   -5763    -5946    -6119    -6252    -6334    -6372    -6378    -6385 
   -6405    -6430    -6475    -6567    -6686    -6808    -6932    -7048 
   -7136    -7206    -7268    -7300    -7279    -7215    -7132    -7020 
   -6879    -6723    -6554    -6382    -6238    -6143    -6087    -6037 
   -5985    -5922    -5822    -5675    -5481    -5232    -4954    -4699 
   -4500    -4353    -4245    -4182    -4155    -4132    -4107    -4094 
   -4072    -4039    -4006    -3964    -3902    -3834    -3762    -3676 
   -3573    -3457    -3322    -3171    -3017    -2870    -2733    -2608 
   -2494    -2392    -2307    -2250    -2218    -2195    -2185    -2204 
   -2238    -2267    -2299    -2331    -2353    -2366    -2363    -2326 
   -2266    -2215    -2173    -2138    -2120    -2120    -2126    -2126 
   -2119    -2083    -1991    -1863    -1725    -1582    -1436    -1281 
   -1125     -986     -857     -738     -639     -564     -513     -495 
    -526     -603     -715     -866    -1044    -1213    -1344    -1414 
   -1448    -1470    -1468    -1445    -1431    -1447    -1516    -1645 
   -1810    -1985    -2157    -2308    -2423    -2496    -2542    -2578 
   -2629    -2701    -2792    -2884    -2970    -3053    -3149    -3258 
   -3377    -3511    -3681    -3889    -4125    -4393    -4699    -5026 
   -5354    -5676    -5989    -6308    -6637    -6949    -7202    -7373 
   -7469    -7507    -7506    -7473    -7414    -7329    -7215    -7076 
   -6897    -6659    -6366    -6044    -5711    -5374    -5050    -4760 
   -4514    -4325    -4189    -4094    -4043    -4027    -4036    -4060 
   -4078    -4093    -4109    -4113    -4101    -4074    -4047    -4012 
   -3960    -3865    -3719    -3546    -3349    -3107    -2835    -2573 
   -2336    -2130    -1964    -1826    -1721    -1664    -1665    -1714 
   -1795    -1921    -2097    -2319    -2578    -2844    -3080    -3296 
   -3500    -3673    -3812    -3913    -3969    -3996    -4008    -3994 
   -3964    -3951    -3993    -4094    -4263    -4499    -4765    -5040 
   -5305    -5517    -5634    -5648    -5571    -5427    -5215    -4955 
   -4673    -4380    -4095    -3835    -3597    -3369    -3137    -2872 
   -2562    -2215    -1859    -1530    -1264    -1073     -947     -895 
    -919    -1015    -1151    -1308    -1479    -1653    -1836    -2045 
   -2274    -2535    -2844    -3191    -3572    -4012    -4507    -5038 
   -5578    -6110    -6605    -7036    -7403    -7717    -7963    -8152 
   -8297    -8382    -8407    -8388    -8336    -8274    -8221    -8191 
   -8164    -8089    -7952    -7761    -7515    -7240    -6957    -6660 
   -6369    -6099    -5838    -5570    -5289    -4985    -4638    -4248 
   -3842    -3416    -2971    -2532    -2111    -1696    -1291     -896 
    -490      -55      398      861     1334     1775     2144     2455 
    2712     2907     3053     3138     3153     3094     2959     2759 
    2515     2254     1989     1734     1507     1312     1136      967 
     785      579      351      118      -97     -272     -414     -550 
    -693     -849    -1030    -1221    -1399    -1554    -1677    -1755 
   -1763    -1714    -1632    -1535    -1459    -1417    -1389    -1374 
   -1398    -1474    -1611    -1815    -2088    -2430    -2818    -3213 
   -3576    -3856    -4031    -4120    -4159    -4176    -4190    -4213 
   -4263    -4360    -4506    -4676    -4847    -5005    -5097    -5082 
   -4985    -4824    -4592    -4303    -3978    -3628    -3288    -3010 
   -2825    -2735    -2725    -2789    -2926    -3122    -3357    -3623 
   -3912    -4236    -4619    -5040    -5451    -5813    -6091    -6261 
   -6323    -6295    -6207    -6091    -5948    -5780    -5599    -5405 
   -5182    -4930    -4644    -4314    -3947    -3549    -3125    -2673 
   -2192    -1696    -1204     -715     -236      225      672     1089 
    1476     1813     2079     2272     2388     2412     2346     2196 
    1962     1663     1323      963      596      233      -94     -380 
    -634     -864    -1092    -1341    -1638    -1984    -2376    -2816 
   -3303    -3831    -4365    -4862    -5317    -5740    -6133    -6485 
   -6771    -6997    -7191    -7364    -7539    -7754    -8014    -8305 
   -8598    -8868    -9101    -9294    -9462    -9606    -9728    -9834 
   -9907    -9934    -9913    -9828    -9686    -9516    -9346    -9212 
   -9113    -9018    -8914    -8793    -8657    -8513    -8345    -8139 
   -7884    -7570    -7229    -6879    -6521    -6153    -5779    -5427 
   -5117    -4858    -4665    -4554    -4537    -4599    -4708    -4839 
   -4984    -5125    -5262    -5379    -5454    -5472    -5445    -5368 
   -5243    -5084    -4905    -4734    -4579    -4437    -4311    -4189 
   -4036    -3848    -3620    -3372    -3115    -2853    -2600    -2309 
   -1952    -1614    -1362    -1125     -881     -670     -453     -211 
       9      244      504      760      984     1140     1198     1154 
    1026      835      591      297      -29     -368     -693     -981 
   -1216    -1408    -1553    -1645    -1694    -1723    -1722    -1669 
   -1591    -1505    -1391    -1227    -1008     -745     -448     -137 
     147      364      472      437      280       29     -315     -741 
   -1201    -1617    -1945    -2178    -2323    -2409    -2501    -2625 
   -2803    -3065    -3418    -3848    -4336    -4835    -5306    -5727 
   -6083    -6380    -6628    -6813    -6928    -6990    -7014    -6987 
   -6899    -6756    -6564    -6313    -5992    -5605    -5158    -4668 
   -4164    -3690    -3279    -2922    -2601    -2299    -1989    -1675 
   -1363    -1062     -805     -611     -473     -387     -344     -333 
    -357     -418     -542     -737     -974    -1242    -1509    -1728 
   -1891    -1985    -1992    -1914    -1750    -1520    -1266    -1016 
    -789     -615     -503     -469     -532     -676     -884    -1150 
   -1440    -1736    -2022    -2266    -2451    -2573    -2632    -2655 
   -2697    -2786    -2938    -3153    -3416    -3732    -4098    -4477 
   -4838    -5179    -5508    -5827    -6160    -6525    -6926    -7342 
   -7736    -8060    -8284    -8390    -8390    -8326    -8210    -8059 
   -7894    -7693    -7472    -7252    -6999    -6698    -6359    -5985 
   -5597    -5231    -4928    -4716    -4596    -4564    -4618    -4735 
   -4864    -4994    -5143    -5286    -5424    -5583    -5755    -5919 
   -6076    -6226    -6374    -6507    -6612    -6697    -6751    -6755 
   -6716    -6629    -6502    -6373    -6266    -6161    -6053    -5958 
   -5869    -5776    -5684    -5579    -5447    -5271    -5024    -4704 
   -4321    -3873    -3360    -2785    -2150    -1485     -827     -195 
     390      924     1422     1898     2344     2747     3095     3369 
    3563     3677     3727     3755     3794     3861     3973     4124 
    4294     4494     4715     4930     5131     5290     5370     5371 
    5306     5188     5049     4907     4774     4662     4573     4498 
    4395     4228     3978     3642     3226     2759     2281     1817 
    1394     1026      702      410      133     -151     -451     -769 
   -1093    -1424    -1767    -2110    -2442    -2778    -3094    -3362 
   -3580    -3738    -3828    -3859    -3883    -3921    -3958    -4006 
   -4063    -4112    -4147    -4153    -4135    -4110    -4078    -4036 
   -3967    -3858    -3738    -3620    -3489    -3362    -3246    -3149 
   -3094    -3078    -3075    -3079    -3098    -3136    -3199    -3322 
   -3524    -3773    -4051    -4352    -4630    -4849    -5008    -5115 
   -5177    -5196    -5185    -5147    -5081    -4985    -4852    -4681 
   -4483    -4255    -4005    -3750    -3503    -3258    -3028    -2844 
   -2721    -2660    -2674    -2745    -2863    -2999    -3123    -3246 
   -3375    -3511    -3692    -3924    -4205    -4535    -4881    -5231 
   -5580    -5907    -6184    -6396    -6538    -6617    -6635    -6582 
   -6480    -6355    -6219    -6069    -5890    -5655    -5344    -4986 
   -4611    -4225    -3869    -3557    -3289    -3096    -2988    -2949 
   -2961    -3001    -3061    -3133    -3196    -3253    -3284    -3268 
   -3226    -3177    -3118    -3049    -2992    -2967    -2965    -2933 
   -2856    -2763    -2646    -2492    -2323    -2154    -2003    -1908 
   -1884    -1914    -1979    -2049    -2102    -2134    -2130    -2098 
   -2070    -2066    -2079    -2104    -2150    -2211    -2297    -2409 
   -2506    -2581    -2648    -2671    -2646    -2593    -2512    -2416 
   -2332    -2290    -2293    -2303    -2293    -2278    -2267    -2263 
   -2251    -2192    -2079    -1914    -1674    -1375    -1044     -688 
    -332       -9      249      423      515      550      544      490 
     403      289      159       39      -74     -198     -342     -511 
    -692     -868    -1051    -1240    -1412    -1560    -1696    -1837 
   -1984    -2142    -2340    -2598    -2901    -3249    -3647    -4059 
   -4475    -4891    -5270    -5599    -5890    -6127    -6301    -6427 
   -6498    -6531    -6566    -6600    -6617    -6620    -6602    -6546 
   -6446    -6309    -6134    -5929    -5709    -5476    -5215    -4915 
   -4571    -4178    -3738    -3245    -2688    -2065    -1399     -722 
     -59      558     1107     1583     1989     2323     2600     2833 
    3033     3213     3369     3478     3535     3547     3537     3514 
    3478     3439     3407     3383     3354     3310     3230     3109 
    2964     2798     2619     2459     2327     2209     2111     2019 
    1929     1846     1750     1625     1468     1275     1042      764 
     436       58     -357     -797    -1277    -1814    -2404    -3034 
   -3689    -4340    -4951    -5519    -6054    -6539    -6959    -7302 
   -7553    -7700    -7763    -7747    -7663    -7534    -7361    -7157 
   -6945    -6716    -6450    -6157    -5861    -5574    -5292    -5012 
   -4734    -4441    -4140    -3861    -3604    -3365    -3169    -3046 
   -3009    -3060    -3176    -3308    -3420    -3522    -3618    -3728 
   -3882    -4071    -4275    -4484    -4691    -4880    -5027    -5131 
   -5201    -5240    -5263    -5281    -5263    -5173    -5012    -4797 
   -4556    -4314    -4093    -3882    -3677    -3516    -3407    -3323 
   -3252    -3194    -3152    -3126    -3119    -3118    -3119    -3129 
   -3146    -3169    -3207    -3250    -3271    -3261    -3229    -3156 
   -3026    -2866    -2705    -2548    -2397    -2251    -2115    -1988 
   -1880    -1794    -1729    -1683    -1651    -1626    -1598    -1563 
   -1524    -1482    -1466    -1505    -1584    -1713    -1911    -2157 
   -2405    -2623    -2787    -2915    -3036    -3150    -3253    -3355 
   -3478    -3622    -3796    -4023    -4283    -4550    -4814    -5062 
   -5256    -5393    -5494    -5570    -5618    -5663    -5711    -5759 
   -5798    -5822    -5834    -5834    -5810    -5775    -5726    -5655 
   -5552    -5404    -5185    -4920    -4648    -4372    -4104    -3879 
   -3693    -3534    -3429    -3375    -3348    -3345    -3380    -3462 
   -3584    -3762    -4012    -4305    -4610    -4914    -5201    -5456 
   -5680    -5888    -6075    -6228    -6354    -6440    -6481    -6502 
   -6546    -6616    -6701    -6779    -6813    -6781    -6679    -6497 
   -6239    -5923    -5580    -5247    -4928    -4626    -4352    -4093 
   -3840    -3573    -3260    -2928    -2627    -2355    -2106    -1888 
   -1694    -1498    -1289    -1074     -862     -643     -433     -251 
     -91       47      157      230      251      220      143       13 
    -162     -355     -546     -720     -858     -928     -920     -864 
    -801     -769     -800     -901    -1081    -1318    -1566    -1815 
   -2079    -2343    -2584    -2805    -3001    -3175    -3338    -3508 
   -3692    -3896    -4116    -4330    -4533    -4729    -4920    -5104 
   -5278    -5443    -5595    -5734    -5863    -5975    -6064    -6122 
   -6157    -6170    -6142    -6058    -5918    -5715    -5462    -5193 
   -4939    -4720    -4534    -4382    -4263    -4148    -4028    -3886 
   -3697    -3478    -3250    -3005    -2752    -2502    -2238    -1977 
   -1755    -1574    -1443    -1378    -1389    -1471    -1601    -1736 
   -1857    -1954    -2029    -2093    -2173    -2285    -2423    -2574 
   -2724    -2851    -2949    -3009    -3017    -2986    -2945    -2905 
   -2872    -2851    -2830    -2808    -2783    -2743    -2678    -2593 
   -2486    -2343    -2162    -1942    -1688    -1416    -1136     -868 
    -626     -415     -233      -81       47      167      255      278 
     240      170      101       64       78      126      182      241 
     307      357      382      368      292      172       47      -85 
