Origin Time       2016/04/16 01:25:00
Lat.              32.753
Long.             130.762
Depth. (km)       12
Mag.              7.3
Station Code      EHM001
Station Lat.      33.9810
Station Long.     133.5490
Station Height(m) 63
Record Time       2016/04/16 01:25:59
Sampling Freq(Hz) 100Hz
Duration Time(s)  116
Dir.              E-W
Scale Factor      7845(gal)/8223790
Max. Acc. (gal)   10.433
Last Correction   2016/04/16 01:25:59
Memo.             
[...]
    7441     7357     7244     7098     6943     6799     6673     6556 
    6458     6385     6323     6264     6197     6134     6102     6124 
    6174     6218     6214     6122     5944     5751     5609     5540 
    5540     5589     5656     5710     5741     5778     5825     5869 
    5910     5953     6008     6069     6127     6186     6249     6309 
    6377     6465     6577     6694     6815     6940     7059     7163 
    7242     7294     7331     7361     7376     7364     7329     7288 
    7280     7314     7354     7362     7333     7279     7213     7146 
    7088     7056     7051     7047     7026     6993     6959     6932 
    6901     6863     6828     6795     6760     6714     6643     6540 
    6416     6289     6164     6035     5915     5802     5687     5583 
    5512     5474     5458     5451     5460     5498     5559     5636 
    5741     5859     5973     6077     6178     6284     6372     6405 
    6377     6323     6297     6305     6327     6336     6326     6304 
    6293     6315     6365     6421     6471     6528     6609     6721 
    6848     6967     7061     7138     7207     7271     7326     7378 
    7446     7553     7693     7839     7960     8039     8067     8056 
    8024     7981     7931     7870     7794     7697     7570     7426 
    7280     7144     7028     6936     6858     6797     6744     6698 
    6662     6644     6646     6660     6678     6702     6735     6771 
    6806     6833     6867     6924     6998     7083     7159     7195 
    7198     7202     7203     7177     7111     7023     6929     6835 
    6735     6635     6547     6462     6380     6315     6265     6205 
    6135     6072     6022     5984     5954     5942     5945     5952 
    5962     5964     5930     5852     5746     5643     5574     5560 
    5582     5611     5626     5611     5578     5543     5517     5514 
    5525     5547     5602     5701     5822     5944     6038     6107 
    6178     6258     6338     6407     6462     6513     6575     6652 
    6724     6775     6828     6902     6988     7080     7180     7281 
    7385     7501     7622     7731     7825     7903     7973     8040 
    8098     8116     8093     8055     8016     7969     7908     7834 
    7765     7715     7674     7642     7619     7595     7566     7553 
    7572     7614     7668     7712     7727     7707     7662     7622 
    7588     7530     7425     7275     7117     6987     6889     6801 
    6718     6647     6585     6511     6421     6346     6305     6303 
    6327     6361     6388     6393     6361     6308     6257     6204 
    6153     6119     6095     6066     6037     6002     5945     5886 
    5856     5872     5917     5965     6016     6072     6123     6172 
    6214     6241     6262     6307     6373     6436     6490     6540 
    6592     6647     6723     6814     6889     6924     6919     6885 
    6832     6787     6777     6794     6810     6802     6777     6755 
    6739     6720     6691     6659     6631     6617     6612     6601 
    6597     6613     6650     6691     6733     6789     6862     6929 
    6990     7038     7063     7072     7092     7136     7188     7229 
    7249     7245     7233     7238     7264     7318     7399     7472 
    7515     7542     7562     7584     7619     7669     7709     7707 
    7646     7557     7465     7366     7252     7129     6999     6860 
    6723     6598     6474     6332     6192     6084     6015     5985 
    5996     6035     6080     6099     6087     6065     6039     6016 
    6023     6068     6133     6205     6273     6326     6373     6430 
    6500     6579     6642     6673     6689     6689     6685     6683 
    6681     6655     6615     6579     6558     6547     6540     6531 
    6507     6474     6455     6458     6469     6463     6427     6361 
    6259     6130     5992     5864     5769     5725     5726     5752 
    5784     5811     5823     5833     5842     5857     5890     5940 
    6011     6115     6247     6367     6465     6562     6662     6768 
    6880     6984     7064     7122     7186     7277     7393     7519 
    7630     7713     7789     7860     7906     7931     7946     7942 
    7917     7875     7825     7781     7735     7676     7609     7547 
    7487     7437     7398     7356     7300     7214     7088     6936 
    6763     6574     6369     6138     5900     5679     5476     5294 
    5135     4999     4877     4784     4750     4758     4773     4777 
    4747     4680     4599     4515     4444     4403     4383     4376 
    4388     4402     4403     4395     4378     4359     4355     4382 
    4445     4557     4716     4909     5112     5316     5518     5721 
    5925     6134     6343     6556     6777     6993     7196     7387 
    7561     7723     7875     7994     8068     8105     8117     8127 
    8149     8176     8195     8197     8172     8127     8056     7963 
    7865     7777     7690     7616     7555     7499     7447     7393 
    7327     7249     7173     7101     7025     6948     6878     6817 
    6763     6711     6642     6536     6413     6289     6164     6046 
    5930     5823     5730     5629     5522     5418     5304     5177 
    5054     4954     4884     4831     4784     4733     4687     4671 
    4684     4720     4780     4852     4934     5015     5093     5189 
    5316     5472     5648     5827     5973     6072     6151     6245 
    6373     6529     6686     6822     6939     7038     7130     7206 
    7250     7269     7256     7225     7196     7155     7101     7051 
    6987     6910     6841     6786     6739     6698     6666     6646 
    6643     6662     6705     6758     6789     6798     6797     6789 
    6779     6781     6789     6791     6794     6808     6822     6836 
    6837     6820     6786     6736     6673     6619     6585     6577 
    6585     6583     6578     6582     6589     6601     6628     6648 
    6655     6666     6697     6735     6760     6775     6805     6859 
    6939     7051     7183     7299     7393     7465     7501     7507 
    7487     7438     7371     7296     7222     7156     7087     6983 
    6843     6694     6559     6430     6285     6112     5921     5733 
    5578     5468     5391     5333     5300     5294     5320     5377 
    5448     5525     5614     5718     5826     5926     6004     6066 
    6122     6170     6223     6284     6338     6378     6388     6347 
    6268     6169     6058     5952     5867     5803     5767     5757 
    5769     5795     5827     5880     5960     6062     6173     6280 
    6372     6450     6525     6613     6709     6801     6891     6982 
    7052     7094     7113     7105     7059     6980     6890     6820 
    6775     6728     6663     6589     6501     6409     6336     6282 
    6242     6224     6214     6210     6219     6251     6297     6349 
    6396     6442     6493     6558     6637     6737     6856     6994 
    7150     7315     7477     7638     7793     7936     8073     8209 
    8341     8467     8576     8649     8667     8640     8595     8536 
    8453     8357     8264     8172     8060     7924     7785     7657 
    7555     7481     7438     7430     7453     7493     7547     7614 
    7682     7749     7805     7847     7869     7870     7863     7858 
    7846     7813     7755     7678     7600     7533     7482     7443 
    7411     7381     7352     7325     7298     7267     7221     7150 
    7069     6988     6910     6826     6729     6624     6527     6450 
    6384     6308     6212     6099     5987     5883     5790     5703 
    5617     5541     5486     5455     5454     5471     5490     5503 
    5512     5532     5563     5576     5567     5552     5557     5589 
    5634     5698     5776     5856     5934     6026     6139     6273 
    6424     6594     6779     6968     7149     7302     7435     7561 
    7677     7780     7869     7950     8023     8098     8175     8239 
    8294     8359     8421     8464     8483     8469     8431     8398 
    8387     8391     8404     8408     8388     8348     8293     8222 
    8144     8077     8014     7951     7888     7824     7759     7692 
    7628     7570     7503     7427     7349     7263     7148     6990 
    6777     6513     6218     5902     5571     5215     4850     4500 
    4189     3931     3721     3544     3397     3277     3165     3038 
    2886     2710     2527     2363     2243     2163     2119     2115 
    2142     2181     2232     2304     2404     2531     2681     2863 
    3088     3341     3611     3889     4170     4450     4731     4997 
    5243     5464     5651     5814     5980     6158     6339     6507 
    6647     6766     6871     6970     7075     7192     7319     7452 
    7576     7670     7723     7728     7685     7616     7547     7495 
    7474     7477     7466     7431     7387     7357     7376     7460 
    7591     7736     7875     8005     8124     8241     8351     8434 
    8497     8564     8650     8769     8919     9094     9301     9537 
    9776     9979    10120    10201    10216    10173    10087     9968 
    9836     9713     9603     9505     9420     9344     9288     9252 
    9201     9100     8937     8703     8421     8131     7852     7599 
    7369     7150     6933     6727     6531     6336     6164     6019 
    5884     5759     5647     5529     5402     5285     5188     5113 
    5070     5051     5027     4969     4865     4726     4587     4491 
    4464     4496     4564     4652     4768     4927     5138     5397 
    5724     6123     6563     7015     7468     7898     8286     8630 
    8932     9217     9508     9811    10137    10466    10768    11032 
   11267    11460    11587    11649    11641    11558    11402    11181 
   10929    10677    10430    10201    10004     9817     9624     9423 
    9207     8993     8812     8667     8548     8437     8314     8171 
    8009     7824     7619     7373     7075     6727     6332     5902 
    5458     5031     4653     4314     3981     3623     3206     2721 
    2203     1687     1197      749      364       51     -182     -329 
    -405     -430     -422     -395     -344     -268     -162      -22 
     149      355      603      901     1246     1642     2092     2582 
    3092     3595     4063     4506     4926     5332     5730     6124 
    6515     6885     7221     7535     7834     8114     8382     8634 
    8866     9070     9244     9385     9483     9535     9553     9556 
    9545     9525     9497     9452     9390     9320     9256     9217 
    9224     9273     9337     9400     9450     9475     9452     9375 
    9255     9094     8911     8712     8492     8256     8014     7778 
    7557     7358     7203     7110     7094     7169     7342     7581 
    7843     8091     8302     8446     8525     8557     8559     8550 
    8550     8557     8568     8563     8500     8368     8191     7998 
    7813     7657     7519     7380     7236     7107     7023     6980 
    6970     7001     7072     7163     7267     7373     7465     7538 
    7596     7639     7674     7705     7738     7782     7846     7919 
    7974     7983     7931     7807     7614     7381     7146     6944 
    6790     6685     6632     6644     6724     6853     6997     7119 
    7207     7248     7217     7098     6901     6647     6370     6110 
    5892     5734     5640     5580     5510     5408     5270     5103 
    4927     4769     4635     4526     4438     4364     4289     4199 
    4086     3946     3780     3599     3419     3244     3079     2922 
    2759     2596     2430     2270     2135     2034     1961     1907 
    1865     1833     1811     1773     1713     1651     1606     1605 
    1661     1788     1999     2297     2681     3161     3727     4336 
    4951     5540     6073     6563     7033     7495     7947     8356 
    8688     8912     9009     8981     8847     8645     8417     8199 
    8012     7858     7736     7645     7576     7526     7480     7400 
    7252     7052     6836     6612     6389     6181     5977     5790 
    5643     5555     5548     5648     5864     6178     6567     6998 
    7435     7842     8189     8467     8703     8924     9153     9381 
    9591     9763     9869     9903     9882     9828     9764     9726 
    9744     9833     9991    10185    10382    10550    10660    10710 
   10700    10635    10542    10442    10362    10334    10372    10503 
   10728    11016    11313    11593    11838    12023    12145    12221 
   12271    12317    12380    12469    12587    12725    12866    13007 
   13136    13236    13290    13300    13269    13215    13131    12982 
   12756    12453    12071    11605    11057    10422     9699     8912 
    8090     7264     6469     5715     5009     4337     3685     3053 
    2425     1792     1174      560      -58     -660    -1247    -1821 
   -2371    -2884    -3336    -3713    -3986    -4121    -4109    -3967 
   -3746    -3497    -3246    -2986    -2691    -2330    -1884    -1370 
    -831     -299      198      650     1053     1414     1757     2104 
    2459     2830     3222     3618     4014     4422     4846     5297 
    5768     6219     6616     6947     7203     7410     7601     7803 
    8028     8299     8633     9034     9486     9972    10485    11024 
   11580    12143    12696    13228    13740    14245    14746    15236 
   15695    16101    16449    16748    17001    17209    17373    17485 
   17541    17560    17539    17460    17328    17146    16915    16606 
   16180    15688    15210    14675    14014    13316    12590    11793 
   10976    10158     9347     8587     7892     7276     6743     6284 
    5902     5568     5242     4923     4611     4275     3946     3649 
    3358     3071     2768     2427     2056     1656     1244      841 
     450       99     -207     -506     -795    -1039    -1215    -1308 
   -1294    -1166     -961     -697     -394      -90      202      477 
     719      949     1177     1394     1595     1740     1813     1837 
    1840     1857     1927     2070     2282     2544     2847     3167 
    3483     3789     4077     4340     4581     4818     5047     5260 
    5451     5607     5730     5844     5965     6092     6234     6403 
    6593     6814     7059     7306     7553     7796     8009     8177 
    8271     8264     8179     8060     7935     7827     7761     7754 
    7819     7954     8105     8236     8329     8349     8322     8290 
    8245     8206     8179     8144     8098     8037     7946     7815 
    7627     7392     7146     6917     6728     6596     6517     6477 
    6439     6361     6212     5967     5603     5148     4658     4175 
    3751     3407     3126     2896     2706     2527     2373     2258 
    2178     2158     2214     2358     2625     3015     3518     4118 
    4772     5435     6076     6652     7136     7535     7878     8215 
    8591     9008     9450     9910    10341    10675    10887    10955 
   10876    10708    10509    10332    10210    10127    10075    10038 
    9987     9913     9832     9742     9651     9548     9432     9321 
    9224     9140     9080     9032     8981     8932     8883     8815 
    8739     8673     8631     8631     8673     8737     8811     8878 
    8935     8991     9038     9066     9080     9077     9042     8962 
    8823     8618     8359     8068     7778     7524     7315     7123 
    6941     6768     6606     6482     6417     6399     6413     6432 
    6427     6423     6431     6446     6471     6511     6551     6586 
    6602     6598     6573     6513     6430     6335     6242     6158 
    6075     5976     5854     5702     5509     5279     5016     4734 
    4452     4178     3910     3628     3314     2965     2586     2185 
    1771     1344      909      492      112     -221     -484     -665 
    -780     -823     -804     -758     -711     -675     -637     -576 
    -506     -430     -340     -248     -144        2      198      438 
     722     1044     1386     1732     2085     2463     2880     3335 
    3807     4295     4799     5312     5840     6388     6951     7501 
    8020     8487     8884     9215     9493     9713     9900    10096 
   10304    10507    10689    10839    10948    11028    11082    11121 
   11149    11151    11121    11065    10971    10827    10644    10438 
   10235    10048     9850     9636     9402     9144     8896     8704 
    8583     8533     8522     8506     8467     8404     8326     8229 
    8108     7960     7804     7666     7565     7496     7433     7344 
    7225     7086     6924     6759     6609     6459     6315     6196 
    6096     6015     5958     5913     5867     5823     5792     5788 
    5814     5875     5965     6081     6230     6407     6596     6782 
    6956     7102     7240     7368     7460     7518     7543     7504 
    7410     7277     7094     6868     6606     6304     5987     5671 
    5358     5069     4823     4622     4472     4372     4307     4256 
    4220     4222     4263     4337     4461     4634     4847     5103 
    5354     5552     5701     5819     5933     6066     6219     6373 
    6493     6571     6624     6664     6694     6714     6729     6737 
    6751     6804     6910     7072     7306     7604     7933     8272 
    8596     8883     9116     9293     9420     9510     9575     9637 
    9707     9786     9880     9998    10129    10265    10393    10507 
   10621    10750    10889    11033    11160    11236    11253    11196 
   11048    10809    10481    10066     9582     9042     8474     7902 
    7333     6763     6191     5629     5105     4653     4301     4051 
    3890     3807     3773     3775     3820     3889     3973     4085 
    4222     4376     4552     4747     4942     5121     5289     5436 
    5552     5652     5746     5823     5869     5877     5842     5771 
    5672     5541     5363     5127     4834     4500     4159     3842 
    3537     3237     2959     2712     2488     2296     2155     2072 
    2070     2162     2313     2484     2623     2704     2745     2774 
    2787     2790     2781     2755     2718     2686     2681     2731 
    2841     3003     3192     3365     3497     3585     3612     3576 
    3501     3418     3341     3291     3261     3232     3196     3154 
    3114     3080     3059     3068     3109     3159     3219     3291 
    3366     3440     3511     3609     3769     3977     4228     4537 
    4901     5300     5710     6095     6434     6731     6979     7183 
    7368     7551     7739     7933     8135     8329     8492     8607 
    8669     8685     8668     8655     8673     8716     8783     8854 
    8901     8914     8892     8851     8822     8808     8800     8784 
    8746     8694     8623     8510     8343     8122     7855     7558 
    7264     6998     6767     6597     6497     6448     6436     6442 
    6423     6369     6297     6224     6178     6189     6276     6446 
    6678     6936     7194     7422     7631     7846     8078     8338 
    8627     8935     9259     9603     9950    10284    10604    10897 
   11153    11372    11550    11689    11778    11800    11742    11618 
   11457    11279    11091    10899    10719    10566    10461    10399 
   10349    10299    10250    10189    10106    10010     9915     9819 
