Origin Time       2016/04/16 01:25:00
Lat.              32.753
Long.             130.762
Depth. (km)       12
Mag.              7.3
Station Code      EHM009
Station Lat.      33.6324
Station Long.     132.7963
Station Height(m) 250
Record Time       2016/04/16 01:25:44
Sampling Freq(Hz) 100Hz
Duration Time(s)  109
Dir.              E-W
Scale Factor      7845(gal)/8223790
Max. Acc. (gal)   6.942
Last Correction   2016/04/16 01:25:45
Memo.             
[...]
    7758     7703     7461     7171     7067     7203     7461     7712 
    7860     7869     7765     7586     7345     7021     6670     6455 
    6492     6710     6903     6886     6664     6411     6269     6257 
    6339     6460     6546     6542     6471     6397     6338     6246 
    6085     5935     5954     6223     6679     7191     7612     7774 
    7605     7241     6885     6606     6377     6192     6095     6162 
    6411     6708     6907     7015     7094     7157     7180     7175 
    7153     7084     6957     6844     6801     6818     6932     7196 
    7589     7967     8148     8052     7782     7497     7285     7190 
    7190     7176     7074     6903     6686     6427     6164     5962 
    5876     5902     6029     6252     6520     6725     6801     6751 
    6646     6563     6528     6524     6543     6550     6511     6458 
    6424     6421     6451     6442     6340     6224     6189     6228 
    6280     6288     6214     6080     5964     5937     5975     6008 
    5977     5879     5772     5730     5767     5840     5922     6037 
    6199     6385     6539     6627     6673     6673     6604     6527 
    6519     6547     6579     6681     6913     7219     7477     7614 
    7624     7506     7277     7025     6847     6805     6855     6876 
    6825     6725     6605     6534     6543     6579     6628     6751 
    6968     7196     7302     7240     7045     6764     6478     6318 
    6320     6399     6539     6791     7080     7285     7384     7388 
    7281     7048     6701     6308     5983     5792     5752     5895 
    6222     6648     7065     7380     7550     7601     7538     7361 
    7195     7184     7311     7457     7538     7534     7454     7339 
    7226     7099     6960     6914     7051     7326     7624     7820 
    7804     7565     7168     6713     6327     6102     6064     6216 
    6519     6901     7285     7551     7616     7510     7300     7056 
    6867     6777     6808     6987     7254     7423     7331     7009 
    6640     6356     6164     6068     6147     6457     6936     7458 
    7896     8111     7990     7541     6952     6481     6257     6228 
    6307     6434     6538     6555     6502     6436     6400     6435 
    6581     6820     7071     7275     7420     7476     7391     7214 
    7072     7037     7079     7102     7022     6858     6689     6564 
    6473     6393     6382     6561     6960     7411     7693     7678 
    7368     6909     6509     6258     6148     6172     6331     6635 
    7021     7345     7501     7482     7377     7318     7333     7362 
    7391     7437     7466     7398     7160     6770     6361     6147 
    6224     6515     6879     7242     7588     7875     8035     8055 
    7985     7865     7722     7558     7372     7168     6944     6720 
    6561     6500     6494     6496     6543     6727     7078     7481 
    7743     7743     7530     7248     6968     6666     6370     6207 
    6241     6382     6509     6608     6702     6814     7013     7287 
    7488     7523     7427     7269     7121     7011     6909     6843 
    6924     7195     7569     7903     8120     8209     8168     8040 
    7919     7863     7889     7967     8058     8141     8177     8101 
    7912     7676     7434     7233     7179     7337     7662     8010 
    8224     8244     8100     7789     7291     6686     6154     5788 
    5562     5455     5499     5694     6006     6336     6585     6693 
    6640     6467     6274     6142     6076     6030     5965     5918 
    5968     6102     6205     6227     6224     6288     6462     6758 
    7134     7435     7550     7568     7619     7701     7761     7805 
    7840     7811     7723     7695     7761     7838     7877     7859 
    7778     7684     7638     7639     7624     7550     7453     7396 
    7444     7626     7854     7993     8000     7913     7749     7508 
    7226     6952     6735     6531     6264     5949     5702     5609 
    5661     5788     5904     5971     6038     6153     6313     6475 
    6550     6471     6274     6060     5902     5850     5960     6242 
    6598     6921     7175     7302     7218     6930     6569     6322 
    6309     6513     6782     6956     6990     6975     6952     6916 
    6914     6988     7087     7196     7365     7572     7719     7739 
    7639     7493     7395     7414     7562     7782     7952     8016 
    8032     8012     7905     7723     7512     7346     7346     7510 
    7674     7695     7539     7268     6998     6813     6708     6651 
    6659     6799     7088     7403     7568     7487     7260     7115 
    7177     7387     7639     7830     7923     7986     8032     7951 
    7728     7523     7472     7507     7492     7422     7375     7418 
    7553     7688     7726     7712     7766     7950     8193     8324 
    8208     7871     7526     7415     7618     7973     8264     8403 
    8428     8372     8245     8037     7781     7557     7433     7447 
    7614     7852     8024     8078     8085     8105     8132     8075 
    7855     7550     7333     7249     7242     7246     7146     6843 
    6374     5922     5680     5706     5913     6259     6701     7074 
    7268     7322     7292     7210     7075     6914     6860     6968 
    7177     7503     7952     8370     8575     8460     8091     7735 
    7581     7551     7504     7429     7393     7468     7647     7840 
    7964     8001     7927     7739     7538     7406     7307     7164 
    6990     6837     6763     6856     7142     7470     7650     7696 
    7742     7819     7886     7964     8014     7903     7699     7581 
    7510     7385     7321     7349     7335     7240     7182     7219 
    7252     7195     7084     6960     6840     6721     6596     6569 
    6741     6971     7028     6944     6949     7119     7365     7627 
    7832     7850     7634     7252     6843     6597     6593     6654 
    6600     6504     6459     6336     6088     5926     5983     6169 
    6331     6334     6234     6289     6596     6934     7042     6831 
    6354     5834     5578     5659     5880     6029     6033     5976 
    5962     6044     6242     6382     6226     5961     6016     6420 
    6853     7086     7137     7217     7429     7543     7319     6799 
    6201     5803     5771     5907     5918     5892     6096     6451 
    6687     6779     6815     6700     6319     5898     5845     6214 
    6725     7264     7744     7908     7735     7406     6980     6608 
    6527     6690     6844     6844     6744     6691     6739     6754 
    6586     6288     6048     5999     6070     6043     5899     5917 
    6212     6473     6412     6166     6064     6315     6913     7479 
    7588     7322     6964     6681     6669     6949     7218     7267 
    7164     7060     7049     7011     6686     6146     5826     5922 
    6224     6462     6469     6235     5976     5976     6385     7064 
    7628     7820     7726     7520     7323     7217     7225     7276 
    7238     7030     6729     6492     6384     6363     6394     6523 
    6791     7141     7435     7492     7194     6586     5773     5009 
    4646     4684     4864     5186     5713     6193     6421     6523 
    6575     6430     6104     5906     6034     6358     6590     6555 
    6312     6106     6106     6188     6093     5876     5867     6089 
    6211     6102     5984     6018     6183     6389     6501     6540 
    6782     7222     7565     7750     7855     7831     7727     7657 
    7535     7330     7217     7190     7132     7109     7167     7217 
    7094     6677     6129     5760     5674     5803     5954     5877 
    5626     5509     5706     6203     6860     7358     7411     7176 
    7072     7219     7377     7377     7283     7179     6960     6561 
    6282     6450     6853     7056     7056     7084     7111     7040 
    6913     6744     6593     6601     6763     6955     7086     7078 
    7001     7040     7144     7121     6971     6782     6652     6656 
    6717     6689     6594     6619     6795     6874     6686     6413 
    6303     6430     6739     7078     7322     7535     7692     7492 
    6814     6026     5593     5674     6073     6515     6948     7353 
    7480     7252     6974     6889     7007     7171     7101     6754 
    6404     6168     6044     6166     6489     6759     6881     6928 
    6937     6905     6777     6493     6006     5363     4811     4560 
    4563     4698     4819     4833     4846     5019     5401     5818 
    6015     6145     6555     7175     7744     8114     8025     7410 
    6720     6394     6415     6551     6662     6825     7142     7457 
    7624     7769     7938     7909     7534     6937     6415     6204 
    6169     5902     5355     4931     4916     5255     5725     6133 
    6405     6546     6596     6617     6534     6210     5715     5246 
    4858     4576     4473     4492     4460     4321     4156     4087 
    4203     4442     4652     4797     4915     4951     4878     4797 
    4789     4831     4868     4916     5085     5343     5508     5467 
    5219     4885     4708     4770     4909     5012     5104     5281 
    5709     6420     7175     7731     7974     7838     7457     7105 
    6878     6805     7002     7420     7782     7929     7985     8139 
    8408     8668     8783     8703     8519     8410     8473     8615 
    8699     8762     8961     9322     9622     9560     9081     8497 
    8213     8280     8453     8583     8625     8484     8217     8081 
    8139     8199     8171     8097     8028     8010     7993     7931 
    7888     7830     7712     7565     7333     7013     6768     6691 
    6791     7048     7360     7619     7785     7862     7924     8006 
    8012     7848     7568     7296     7118     7091     7227     7398 
    7476     7473     7360     7146     7005     6966     6951     7022 
    7113     7006     6724     6389     6110     6052     6242     6500 
    6701     6913     7242     7574     7642     7315     6701     6115 
    5827     5768     5813     6048     6397     6624     6737     6801 
    6793     6868     7160     7595     8063     8430     8559     8502 
    8364     8201     8077     7993     7929     7951     8141     8563 
    9140     9648     9961    10177    10451    10827    11236    11561 
   11639    11379    10808    10041     9282     8646     8102     7766 
    7770     7969     8197     8509     8911     9227     9366     9352 
    9186     8947     8804     8822     8919     8949     8789     8464 
    8101     7756     7387     6990     6696     6619     6656     6670 
    6678     6711     6777     6867     6858     6717     6644     6721 
    6791     6809     6886     7114     7480     7906     8294     8604 
    8849     9028     9198     9425     9688     9879     9876     9653 
    9342     9058     8730     8257     7726     7311     7083     6993 
    6868     6544     6118     5792     5536     5240     4938     4671 
    4444     4275     4176     4168     4320     4633     5026     5503 
    6191     7098     7935     8324     8176     7651     6875     5917 
    4965     4171     3557     3225     3215     3322     3466     3748 
    4107     4429     4669     4838     5084     5501     5962     6426 
    6957     7457     7730     7685     7387     6976     6556     6210 
    6023     6054     6323     6717     7026     7145     7071     6826 
    6477     6100     5842     5872     6189     6666     7254     7985 
    8845     9744    10567    11233    11653    11726    11448    10912 
   10253     9667     9344     9306     9377     9388     9413     9603 
    9867     9973     9915     9826     9678     9344     8849     8316 
    7816     7384     7026     6694     6347     5958     5521     5193 
    5140     5292     5506     5737     6014     6409     6924     7420 
    7705     7713     7585     7411     7092     6597     6085     5709 
    5540     5597     5734     5707     5493     5235     5038     5009 
    5171     5375     5557     5773     5994     6178     6366     6528 
    6567     6385     5927     5277     4596     3931     3254     2687 
    2444     2698     3492     4627     5767     6705     7319     7461 
    7102     6405     5610     4900     4247     3541     2872     2380 
    2077     1942     1934     2045     2296     2640     3021     3470 
    4059     4787     5549     6243     6825     7263     7581     7848 
    8083     8298     8563     8912     9246     9393     9305     9042 
    8627     8090     7493     6930     6527     6342     6300     6328 
    6469     6804     7352     8050     8826     9691    10669    11703 
   12650    13313    13555    13354    12731    11813    10875    10173 
    9783     9684     9834    10180    10659    11068    11125    10775 
   10126     9209     8152     7240     6646     6347     6218     6072 
    5919     5968     6299     6848     7480     7987     8324     8607 
    8785     8738     8496     8167     7840     7632     7655     7979 
    8579     9292     9926    10380    10594    10540    10234     9617 
    8635     7447     6351     5609     5377     5675     6467     7643 
    8914     9952    10627    10972    11005    10651     9810     8424 
    6623     4757     3164     2007     1341     1140     1308     1726 
    2280     2914     3527     3944     4222     4677     5427     6305 
    7152     7882     8430     8776     8988     9235     9726    10537 
   11547    12521    13258    13756    14107    14258    14113    13697 
   13055    12247    11398    10593     9917     9478     9250     9136 
    9093     9023     8806     8464     8113     7820     7612     7493 
    7420     7362     7344     7368     7364     7244     7006     6681 
    6245     5748     5377     5235     5244     5323     5491     5755 
    6021     6211     6297     6224     6025     5823     5649     5497 
    5476     5643     5881     6089     6178     6049     5740     5405 
    5150     5093     5401     6072     6918     7723     8329     8623 
    8483     7821     6791     5724     4812     4133     3789     3869 
    4332     5009     5697     6216     6529     6759     7055     7512 
    8172     8961     9694    10199    10434    10504    10478    10289 
    9915     9448     8928     8314     7616     6901     6201     5584 
    5157     4989     5206     5859     6667     7298     7631     7619 
    7253     6678     6119     5742     5584     5656     5984     6477 
    6972     7333     7426     7198     6785     6416     6247     6312 
    6542     6863     7268     7744     8272     8912     9682    10508 
   11373    12191    12738    12907    12742    12254    11503    10678 
    9960     9408     9034     8819     8716     8644     8542     8413 
    8241     8023     7852     7831     7881     7851     7696     7447 
    7113     6625     5913     5054     4245     3615     3254     3198 
    3349     3547     3653     3555     3230     2755     2293     2060 
    2227     2855     3825     4842     5584     5946     6002     5840 
    5543     5270     5174     5256     5447     5760     6216     6731 
    7187     7547     7900     8298     8662     8945     9155     9259 
    9147     8739     8089     7349     6625     5992     5552     5377 
    5466     5718     5930     5937     5722     5337     4791     4116 
    3420     2816     2415     2344     2597     3032     3549     4139 
    4822     5545     6123     6397     6401     6313     6265     6245 
    6162     5987     5760     5590     5647     5975     6413     6789 
    7015     7094     7159     7318     7507     7614     7592     7426 
    7113     6693     6247     5800     5316     4827     4436     4172 
    4041     4162     4625     5313     6034     6631     6999     7186 
    7299     7340     7261     7132     7079     7098     7134     7203 
    7314     7395     7392     7254     6968     6639     6384     6228 
    6199     6393     6907     7730     8725     9729    10616    11230 
   11422    11161    10593    10039     9801     9876    10134    10547 
   11067    11561    11913    12002    11774    11412    11151    11026 
   10953    10862    10720    10531    10305    10035     9709     9282 
    8772     8356     8163     8095     8048     8064     8235     8641 
    9248     9841    10172    10143     9832     9388     8896     8384 
    7900     7507     7240     7086     6987     6844     6531     6011 
    5339     4558     3719     2953     2408     2196     2353     2778 
    3296     3747     4054     4222     4282     4228     4164     4263 
    4560     4984     5425     5738     5898     5998     6066     6102 
    6154     6228     6269     6219     6006     5614     5212     4980 
    4935     5011     5103     5104     5030     4989     4985     4897 
    4668     4326     3955     3685     3634     3820     4205     4703 
    5228     5779     6323     6713     6845     6737     6486     6257 
    6196     6320     6551     6841     7113     7250     7256     7153 
    6874     6431     5940     5458     5055     4849     4822     4885 
    4986     5049     5000     4869     4715     4568     4540     4762 
    5259     5968     6794     7622     8344     8846     9001     8776 
    8247     7526     6736     6056     5684     5756     6245     6949 
    7616     8110     8385     8356     7948     7234     6356     5471 
    4795     4509     4595     4903     5286     5622     5834     5888 
    5767     5499     5184     4896     4676     4550     4488     4445 
    4482     4679     4973     5235     5413     5481     5402     5131 
    4693     4220     3850     3651     3645     3807     4066     4306 
    4393     4305     4106     3851     3623     3544     3665     3956 
    4374     4850     5309     5656     5849     5962     6118     6367 
    6710     7059     7256     7257     7217     7302     7560     7931 
    8275     8457     8494     8451     8322     8102     7888     7777 
    7851     8175     8700     9275     9761     9983     9757     9094 
    8201     7318     6648     6313     6335     6629     7074     7560 
    8004     8332     8494     8447     8235     8010     7865     7763 
    7674     7584     7460     7310     7184     7150     7315     7695 
    8143     8506     8768     8981     9180     9346     9428     9466 
    9560     9742     9979    10233    10442    10532    10458    10157 
    9578     8795     7967     7242     6732     6528     6678     7098 
    7581     7913     7989     7788     7338     6735     6127     5623 
    5300     5235     5441     5769     6039     6176     6181     6029 
    5659     5101     4506     4062     3950     4301     5062     5976 
    6737     7186     7339     7323     7268     7195     7049     6829 
    6594     6389     6212     6037     5818     5541     5244     4962 
    4716     4519     4376     4333     4492     4892     5437     5984 
    6411     6667     6787     6872     7015     7236     7512     7843 
    8230     8648     9035     9306     9369     9146     8658     8035 
    7372     6685     5979     5333     4926     4943     5413     6104 
    6633     6735     6411     5783     4989     4228     3676     3423 
    3505     3943     4683     5464     5917     5831     5250     4401 
    3582     2982     2633     2497     2482     2496     2528     2627 
