Origin Time       2016/04/16 01:25:00
Lat.              32.753
Long.             130.762
Depth. (km)       12
Mag.              7.3
Station Code      EHM011
Station Lat.      33.4496
Station Long.     132.4336
Station Height(m) 10
Record Time       2016/04/16 01:25:38
Sampling Freq(Hz) 100Hz
Duration Time(s)  122
Dir.              E-W
Scale Factor      7845(gal)/8223790
Max. Acc. (gal)   21.017
Last Correction   2016/04/16 01:25:38
Memo.             
[...]
    8451     8056     8016     8244     8691     9322    10042    10754 
   11411    12051    12873    14052    15400    16453    16875    16645 
   16025    15435    15148    15007    14643    13948    13082    12124 
   11109    10185     9440     8806     8179     7604     7395     7755 
    8321     8583     8487     8283     8229     8460     8851     9194 
    9477     9771    10054    10296    10612    11137    11755    12191 
   12317    12233    12190    12271    12164    11646    11025    10709 
   10652    10494     9934     8895     7592     6435     5726     5540 
    5869     6621     7489     8073     8267     8447     9043     9999 
   10835    11190    11140    11034    11064    11025    10640     9880 
    8951     8172     7769     7785     8143     8646     9026     9031 
    8655     8237     8056     8081     8225     8490     8853     9265 
    9693    10127    10550    10937    11283    11541    11682    11808 
   12019    12260    12367    12221    11908    11618    11426    11257 
   10991    10532     9927     9439     9227     9035     8569     7889 
    7207     6651     6323     6370     6806     7395     7933     8525 
    9306    10099    10516    10399     9995     9747     9976    10619 
   11171    11214    10881    10586    10517    10530    10382     9972 
    9370     8677     7983     7391     6902     6488     6427     7132 
    8529    10150    11661    12744    13007    12563    12037    11765 
   11576    11219    10623     9919     9297     8842     8557     8394 
    8255     8082     7896     7749     7592     7273     6760     6207 
    5864     6083     7042     8368     9466    10224    10971    11935 
   12985    13772    14073    13896    13394    12756    12143    11672 
   11372    11244    11414    11874    12328    12650    12846    12613 
   11813    10824    10039     9543     9215     8988     8896     8919 
    9094     9493    10014    10535    11092    11651    11916    11616 
   10955    10385     9991     9574     9201     9104     9298     9616 
    9842     9815     9462     8856     8271     7940     7793     7761 
    8005     8662     9613    10547    11311    12024    12838    13768 
   14743    15593    16065    16001    15523    14897    14285    13676 
   12933    11994    11052    10350     9938     9753     9628     9401 
    9165     9194     9644    10384    11122    11688    12121    12495 
   12819    13109    13423    13780    14095    14231    14100    13744 
   13336    13051    12910    12827    12798    12845    12888    12761 
   12328    11684    11157    10970    11038    11175    11277    11356 
   11414    11338    11082    10808    10727    10847    10939    10763 
   10372    10007     9734     9466     9261     9252     9501    10058 
   10858    11587    11939    11951    11936    12105    12463    12947 
   13385    13540    13454    13370    13230    12764    11988    11245 
   10881    10932    11057    10897    10358     9499     8406     7210 
    6091     5271     4955     5138     5617     6262     7137     8341 
    9764    11028    11854    12406    13032    13864    14769    15464 
   15777    15850    15958    16204    16413    16254    15512    14246 
   12657    10916     9162     7538     6112     4888     3875     3144 
    2771     2745     2986     3372     3766     4233     5027     6226 
    7657     9104    10476    11781    13028    14079    14767    15195 
   15653    16190    16463    16127    15218    14057    12987    12212 
   11659    11043    10278     9680     9439     9301     8969     8368 
    7580     6805     6270     6076     6161     6435     6870     7495 
    8401     9648    11090    12388    13248    13555    13443    13129 
   12735    12307    11927    11669    11558    11566    11537    11233 
   10593     9759     8872     8012     7294     6851     6716     6874 
    7360     8101     8989    10164    11632    12942    13713    14017 
   14030    13844    13549    13257    12978    12625    12170    11729 
   11384    11024    10461     9667     8857     8334     8235     8401 
    8553     8576     8545     8567     8734     9096     9603    10184 
   10782    11367    11967    12610    13215    13702    14095    14424 
   14700    14986    15169    14922    14185    13292    12583    12197 
   12052    11881    11429    10710     9958     9293     8673     8133 
    7769     7570     7524     7657     7900     8149     8375     8608 
    9032     9877    11126    12560    13909    14823    15122    14993 
   14744    14526    14270    13861    13378    12930    12449    11909 
   11404    10974    10578    10216     9919     9637     9256     8839 
    8611     8779     9417    10339    11213    11871    12328    12587 
   12591    12283    11700    11038    10559    10432    10654    11119 
   11666    12062    12131    11916    11580    11192    10739    10170 
    9504     8841     8253     7831     7705     7893     8237     8619 
    9076     9632    10156    10571    11005    11488    11873    12178 
   12560    12950    13196    13374    13610    13882    14131    14314 
   14354    14169    13720    13112    12518    11970    11381    10720 
   10054     9443     8873     8332     7873     7566     7438     7452 
    7528     7700     8063     8599     9279    10096    10903    11546 
   12025    12388    12658    12803    12768    12629    12495    12321 
   12131    12122    12301    12441    12463    12375    12062    11404 
   10453     9441     8594     7955     7496     7203     7056     7083 
    7406     8100     8974     9721    10239    10689    11209    11659 
   11772    11427    10748    10053     9753    10046    10754    11578 
   12345    12888    13028    12707    12033    11198    10318     9423 
    8600     7996     7753     7912     8351     8934     9599    10284 
   10952    11572    12037    12270    12241    11978    11585    11188 
   10886    10770    10843    11013    11194    11294    11234    11041 
   10762    10329     9790     9454     9522     9823    10129    10372 
   10531    10629    10837    11259    11742    12091    12235    12066 
   11484    10639     9864     9421     9388     9601     9810     9979 
   10134    10160     9949     9508     8993     8739     9007     9691 
   10430    11011    11510    11947    12258    12484    12675    12825 
   12970    13049    12934    12647    12226    11637    10936    10254 
    9734     9460     9324     9092     8645     8078     7546     7167 
    7109     7481     8095     8623     8877     8896     8932     9283 
    9953    10620    11024    11237    11488    11877    12283    12444 
   12188    11618    11026    10687    10601    10507    10179     9617 
    9047     8814     9202    10172    11186    11604    11353    10866 
   10474    10242    10173    10211    10269    10427    10805    11295 
   11612    11620    11445    11246    11028    10696    10141     9370 
    8598     8104     7996     8172     8446     8711     9005     9344 
    9618     9705     9566     9312     9159     9243     9586    10143 
   10804    11434    11940    12289    12534    12753    12934    12928 
   12622    12074    11415    10808    10422    10239    10115    10055 
   10214    10639    11129    11352    11113    10496     9768     9167 
    8785     8592     8451     8284     8267     8610     9219     9829 
   10316    10712    10994    11091    11053    10959    10768    10574 
   10667    11156    11880    12653    13319    13737    13846    13711 
   13547    13498    13431    13113    12507    11743    10999    10485 
   10289    10263    10157     9822     9296     8780     8490     8447 
    8515     8646     8972     9591    10469    11481    12363    12777 
   12730    12609    12645    12793    12991    13170    13263    13205 
   12912    12456    12056    11813    11706    11645    11496    11303 
   11207    11151    10951    10571    10168     9946     9913     9895 
    9764     9478     9040     8567     8245     8179     8284     8407 
    8505     8654     8957     9478    10161    10793    11178    11304 
   11412    11824    12548    13248    13620    13562    13181    12762 
   12548    12491    12312    11893    11433    11128    11032    11080 
   11062    10816    10369     9813     9281     8916     8772     8866 
    9136     9451     9821    10319    10897    11470    11925    12179 
   12330    12494    12677    12877    12978    12812    12472    12237 
   12171    12141    12116    12052    11772    11306    11005    11048 
   11179    11067    10782    10694    10962    11422    11919    12367 
   12631    12634    12429    12109    11817    11651    11524    11335 
   11155    11115    11211    11283    11219    10971    10489     9886 
    9425     9262     9325     9423     9421     9312     9173     9150 
    9339     9670    10026    10399    10843    11307    11630    11766 
   11811    11819    11785    11800    12058    12657    13443    14067 
   14265    14064    13663    13176    12573    11874    11234    10824 
   10605    10342     9936     9576     9516     9686     9737     9558 
    9375     9316     9312     9289     9157     8984     9134     9829 
   10670    11062    10962    10751    10728    10920    11175    11449 
   11881    12468    12964    13022    12444    11492    10728    10368 
   10146     9883     9771     9994    10369    10513    10305    10010 
    9809     9660     9562     9401     9103     9009     9472    10296 
   10984    11387    11877    12764    13849    14760    15238    15048 
   14175    13030    12077    11348    10557     9612     8858     8553 
    8546     8725     8974     8892     8388     8007     8127     8352 
    8064     7472     7365     7890     8698     9668    10732    11840 
   12803    13131    12968    13104    13676    14137    14049    13489 
   13115    13506    14316    14584    13887    12536    11097    10220 
    9983     9659     8811     7611     6295     5209     4741     5057 
    6114     7528     8916    10208    11165    11496    11400    11203 
   11095    11269    11777    12514    13235    13555    13362    12920 
   12455    12109    11861    11354    10458     9501     8739     8251 
    8044     7973     7982     8214     8746     9433    10006    10255 
   10069     9491     9008     9312    10559    12295    13869    14638 
   14501    14204    14173    14017    13652    13369    13100    12739 
   12432    12275    11978    10933     9262     8083     7981     8460 
    8892     8854     8243     7422     6782     6556     6902     7747 
    8814     9779    10493    11053    11485    11703    11497    10689 
    9718     9317     9602    10212    10669    10663    10436    10368 
   10540    10894    11214    11283    11026    10554    10195    10002 
    9667     9197     8863     8914     9521    10532    11620    12361 
   12318    11840    11616    11516    11352    11389    11460    11322 
   11476    12499    14215    15824    16690    16769    16330    15780 
   15390    14904    14053    13011    11892    10980    11028    11942 
   12644    12870    13147    13350    13221    13267    13930    14856 
   15434    15354    14835    14524    14832    15622    16463    16774 
   16348    15826    15763    15673    14870    13616    12595    11898 
   11275    10812    10675    10667    10458     9899     9023     8149 
    7827     8082     8172     7614     6777     6285     6462     6937 
    6852     6037     5331     5394     5957     6207     5753     5136 
    5051     5674     6794     7954     8814     9421     9846     9954 
    9566     8673     7622     6789     6188     5730     5470     5360 
    5200     4862     4388     3993     3828     3712     3508     3284 
    3009     2789     2799     2913     3046     3505     4716     6718 
    8966    10940    12614    14007    14831    14891    14287    13347 
   12556    12247    12367    12395    11842    11024    10654    10839 
   11038    10716     9919     9173     8669     8125     7492     6984 
    6497     6034     6262     7497     9232    11263    13630    15877 
   17648    19059    20151    20729    20710    20529    20702    20942 
   20628    19739    18612    17423    16220    15031    13927    12997 
   12213    11538    11097    10868    10638    10517    10794    11330 
   11834    12382    13385    15110    17090    18430    18862    18694 
   18048    17138    16556    16444    16121    15043    13514    12012 
   10422     8612     6940     5709     4852     4278     4122     4419 
    4828     5108     5292     5359     5420     5844     6906     8519 
   10239    11734    13059    14308    15453    16416    17010    17030 
   16454    15404    14029    12441    10578     8334     6021     4166 
    2959     2396     2542     3271     4369     5884     7735     9520 
   11065    12502    13852    15051    16201    17597    19406    21382 
   23048    23996    24079    23458    22200    20082    17169    13872 
   10377     6766     3094     -727    -4410    -7353    -9397   -10635 
  -11119   -11083   -10646    -9645    -8152    -6448    -4403    -1636 
    1841     5726     9836    14029    18092    21656    24287    25809 
   26339    26137    25469    24432    23006    21026    18146    14315 
    9868     5189      807    -2623    -4858    -6359    -7601    -8139 
   -7236    -5093    -2546     -160     2111     4851     8337    12135 
   15869    19568    23139    26256    28818    30908    32263    32478 
   31600    29853    27252    24023    20568    16776    12352     7520 
    2795    -1394    -4758    -7149    -8707    -9875   -10843   -11283 
  -11001   -10191    -8939    -7188    -5038    -2663     -195     2513 
    5938     9973    13682    16534    18878    21126    23238    24846 
   25610    25465    24551    23186    22029    21487    21016    19938 
   18607    17729    16880    15041    12259     9216     6058     2801 
    -340    -3221    -5620    -7184    -7581    -6685    -4880    -2610 
     116     3019     5405     7134     8625    10157    11682    13020 
   14351    16141    18412    20663    22437    23641    24367    24602 
   24386    23957    23364    22459    21375    20266    18704    16332 
   13695    11493     9668     7865     6106     4568     3167     1891 
    1229     1552     2494     3657     5155     6948     8723    10440 
   11998    13049    13617    14058    14488    14891    15399    16209 
   17392    18624    19426    19795    20021    20158    20040    19367 
   17907    15807    13570    11786    10694    10041     9509     9137 
    9460    10833    12764    14458    15473    15753    15639    15731 
   16252    16866    17265    17455    17594    17832    18175    18547 
   18945    19269    19290    18885    17977    16355    13965    11265 
    8908     7207     6255     6104     6465     6828     6929     6907 
    7101     7608     8108     8357     8548     9018     9972    11353 
   12827    14160    15345    16553    18095    19990    21705    22608 
   22438    21475    20166    18662    17072    15576    14095    12518 
   11016     9907     9451     9614    10134    10712    11128    11407 
   11759    12258    12768    13270    13999    15113    16538    18218 
   20098    21982    23646    24980    25848    26046    25401    23978 
   22090    19973    17714    15326    12811    10482     8654     7236 
    6139     5363     4712     4031     3334     2798     2616     2671 
    2751     2739     2608     2623     3137     4309     6033     7885 
    9486    10746    11574    11944    11978    11803    11615    11479 
   11113    10430     9683     9031     8677     8756     8920     8876 
    8769     8815     9165     9826    10673    11619    12402    12730 
   12773    12819    12861    12760    12384    11592    10328     8895 
    7832     7276     6879     6438     5988     5572     5414     5605 
    5721     5398     4870     4693     5337     6859     8810    10642 
   12077    13069    13771    14466    15221    15681    15412    14258 
   12371    10245     8509     7280     6289     5474     4787     4097 
    3414     2771     2259     1852     1341      954     1242     2490 
    4710     7479    10021    11861    13032    14017    15329    16817 
   17983    18616    18797    18739    18554    18112    17289    16093 
   14593    12923    11145     9185     7215     5667     4685     4062 
    3562     3211     3264     3762     4464     5142     5638     6196 
    7335     9086    11079    13054    14818    16305    17544    18258 
   18103    17167    15693    13923    12353    11277    10504     9833 
    9161     8368     7482     6696     6069     5506     5027     4621 
    4276     4238     4599     5164     5902     6947     8484    10616 
   13070    15453    17618    19442    20891    22153    23261    24093 
   24570    24505    23741    22264    20156    17590    14821    12145 
    9688     7218     4561     1972     -209    -1859    -2860    -3179 
   -3063    -2710    -2066     -987      595     2504     4453     6440 
    8577    10854    13232    15574    17691    19469    20686    21035 
   20578    19658    18387    16837    15249    13645    12062    10739 
    9578     8171     6552     5192     4168     3227     2398     1863 
    1710     1949     2465     3175     4166     5601     7528     9764 
   12035    14189    16147    17741    18817    19408    19591    19449 
   19098    18436    17227    15484    13433    11361     9479     7696 
    5919     4228     2662     1224      -44     -936    -1223    -1060 
    -641      255     1780     3681     5726     7747     9443    10727 
   11920    13428    15302    17165    18605    19531    20067    20331 
   20331    20017    19273    18019    16503    15149    14008    12764 
   11134     9078     6826     4737     3123     2316     2322     2589 
    2739     2786     2698     2538     2378     2096     1680     1294 
    1217     1804     3160     4974     6756     8218     9393    10384 
   11311    12235    13042    13730    14335    14685    14581    13953 
   13009    12167    11635    11384    11392    11635    11927    11943 
   11614    11253    10966    10455     9578     8482     7438     6856 
    6961     7447     8019     8612     8980     9078     9184     9296 
    9165     8454     7082     5363     3678     2401     1582      882 
     237       -8      472     1632     3132     4567     5698     6637 
    7651     8822    10002    10940    11577    12108    12723    13408 
   14010    14435    14751    15014    14958    14276    13065    11564 
    9899     8332     7335     7234     7974     9221    10597    11878 
   13008    14050    14955    15553    15751    15526    14868    13803 
   12465    11272    10584    10289    10230    10557    11290    12067 
   12418    12019    10839     9119     7281     5879     5323     5636 
    6540     7636     8634     9634    10921    12510    14134    15414 
   15969    15777    15234    14602    14014    13626    13410    13316 
   13416    13683    14071    14646    15338    15712    15211    13757 
   11929    10234     8586     6845     5178     3805     2979     3033 
    4003     5589     7546     9626    11376    12480    12921    12781 
   12307    11897    11604    11234    10828    10593    10550    10507 
   10415    10336    10012     9147     7948     6795     5756     4716 
    3676     2770     2170     1996     2430     3680     5751     8212 
