Origin Time       2016/04/16 01:25:00
Lat.              32.753
Long.             130.762
Depth. (km)       12
Mag.              7.3
Station Code      EHM013
Station Lat.      33.3924
Station Long.     132.1141
Station Height(m) 18
Record Time       2016/04/16 01:25:33
Sampling Freq(Hz) 100Hz
Duration Time(s)  99
Dir.              N-S
Scale Factor      7845(gal)/8223790
Max. Acc. (gal)   17.915
Last Correction   2016/04/16 01:25:33
Memo.             
[...]
    -777      -74      552     1086     1642     2219     2675     3061 
    3516     4016     4460     4774     4820     4482     3954     3559 
    3445     3713     4245     4604     4623     4517     4457     4504 
    4704     5062     5451     5667     5583     5135     4459     4041 
    4225     4866     5644     6162     6108     5786     5784     6097 
    6234     5879     5217     4747     4638     4594     4357     4029 
    3947     4375     5337     6574     7501     7604     6910     5900 
    5005     4261     3570     2960     2403     1680      629     -409 
    -633      271     1624     2493     2494     1912     1491     1791 
    2489     2811     2643     2624     3230     4136     4787     5185 
    5460     5385     5001     4789     4903     5123     5362     5512 
    5452     5371     5490     5687     5510     4826     4293     4309 
    4352     3975     3316     2671     2330     2440     3034     4172 
    5489     6120     5694     4665     3651     3061     2970     3144 
    3336     3414     3173     2470     1628     1308     1837     2943 
    4261     5568     6583     7030     6635     5324     3889     3373 
    3663     3979     3908     3402     2894     2959     3331     3307 
    2866     2498     2412     2478     2490     2253     1929     2045 
    2678     3291     3565     3615     3692     4117     5023     5850 
    5733     4665     3709     3588     3919     4006     3433     2205 
     903      332      935     2382     3631     3828     3071     2115 
    1533     1440     1738     2147     2404     2605     2893     3121 
    3083     2694     2199     2174     2870     3882     4535     4437 
    3901     3499     3289     3125     3175     3631     4352     4962 
    5054     4500     3642     2953     2756     3069     3481     3669 
    3762     3924     4110     4126     3959     3883     3880     3630 
    3191     2679     1877     1051      795     1063     1686     2573 
    3003     2475     1464      595      352     1039     2162     2839 
    2915     2949     3422     4294     5103     5435     5197     4526 
    3727     3022     2340     1736     1534     1891     2668     3632 
    4482     4868     4664     4202     4013     4280     4588     4383 
    3578     2629     2253     2887     4199     5383     5857     5487 
    4591     3775     3481     3712     4236     4706     4630     3740 
    2478     1601     1437     1769     2272     2745     2945     2743 
    2524     2717     3171     3399     3348     3613     4266     4522 
    4232     3721     2918     2062     1696     1825     2041     2147 
    2290     2386     2137     1790     1583     1065      144     -724 
   -1310    -1318     -423     1100     2565     3429     3719     3839 
    3839     3655     3535     3442     3073     2612     2312     1954 
    1431      953      594      417      621     1255     2070     2679 
    2890     2893     3159     4086     5410     6315     6407     5899 
    5073     4333     4064     4041     3863     3775     4005     4074 
    3682     3164     2731     2394     2326     2570     3090     3928 
    4544     4170     3346     3331     4317     5659     6781     7094 
    6264     4634     2933     2011     2570     4338     6138     6806 
    5737     3418     1331      646     1300     2196     2160     1201 
     498      797     1587     1952     1725     1645     2222     2895 
    3013     2891     3079     3453     3665     3631     3272     2633 
    2165     2255     2930     3831     4215     3645     2662     2173 
    2392     2988     3861     4880     5566     5503     4800     4045 
    3721     3711     3561     3024     2331     1952     2096     2463 
    2779     3331     4222     4756     4243     2783     1090       -1 
      16     1023     2281     3060     3153     2720     2236     2238 
    2825     3916     5412     6897     7622     6944     4969     2586 
     980      804     1391     1626     1474     1705     2542     3373 
    3708     3738     3836     4236     5005     5572     5131     3967 
    3013     2565     2467     2578     2830     3375     4171     4803 
    5080     5026     4649     4450     5077     6162     6573     5864 
    4791     4270     4480     5077     5587     5724     5665     5714 
    5822     5567     4575     3303     2641     2762     3299     3847 
    3973     3715     3492     3537     4006     4864     5424     5080 
    4320     4168     4745     5177     4889     4220     3774     3854 
    4428     5158     5580     5463     5082     4903     4976     5158 
    5547     5902     5479     4357     3657     3802     4158     4473 
    5069     5738     5906     5629     5290     4688     3574     2540 
    2228     2466     2986     3595     3828     3811     4145     4747 
    5071     4918     4633     4541     4506     4330     3983     3631 
    3719     4321     5050     5918     7160     8390     8699     7805 
    6531     5622     5098     4928     4982     4888     4635     4464 
    4428     4438     4270     3792     3369     3429     3842     4001 
    3554     2965     2771     2922     3323     3902     4334     4495 
    4477     4317     4321     4807     5387     5435     4846     3987 
    3229     2683     2542     3080     4044     4881     5344     5266 
    4816     4600     4583     4284     3964     3996     4213     4576 
    5076     5305     5131     5040     5271     5462     5328     4837 
    3899     2961     2816     3186     3184     2811     2442     2137 
    2056     2389     3013     3715     4449     4985     4795     3682 
    2241     1528     2101     3426     4502     4741     4337     3942 
    3811     3963     4552     5235     5298     4668     3937     3577 
    3659     3910     3746     2936     2019     1483     1397     1885 
    2844     3707     4033     3821     3426     3164     2895     2533 
    2301     2137     1933     1944     2381     3262     4360     5152 
    5240     4537     3395     2646     2627     2909     3154     3159 
    2805     2593     3055     3789     4098     3958     3630     3122 
    2373     1545     1105     1386     2052     2493     2592     2533 
    2347     2207     2427     2907     3289     3476     3663     3894 
    3909     3753     3693     3547     3238     3325     4045     4800 
    5073     4936     4577     4120     3775     3686     3775     3673 
    3051     2165     1513     1301     1615     2299     3041     3885 
    4770     5247     5190     4892     4507     4000     3422     3022 
    2910     2839     2677     2512     2205     1554      677     -172 
    -675     -521       89      718     1371     2102     2639     2758 
    2490     2231     2393     2709     2775     2886     3217     3311 
    3065     2818     2502     1917     1345     1262     1615     1979 
    2444     3369     4519     5433     5956     6145     6196     6087 
    5625     5001     4411     3757     3242     3256     3631     3820 
    3589     3046     2489     2417     2961     3437     3402     3323 
    3402     3073     2079      972      546     1123     2498     4170 
    5381     5722     5687     5833     5860     5254     4133     3086 
    2605     2659     2928     3287     3685     4124     4498     4421 
    3936     3721     4232     5275     6076     5795     4391     2623 
    1302      953     1668     2890     3877     4510     5039     5454 
    5560     5164     4217     3172     2714     2943     3250     3092 
    2664     2398     2272     2308     2610     2759     2494     2286 
    2565     3230     3910     4243     4095     3626     3053     2605 
    2373     2224     2251     2501     2513     2176     1952     1946 
    2057     2455     3078     3445     3279     2743     2303     2362 
    2747     2971     3026     3177     3264     2983     2597     2596 
    2960     3397     3801     4005     3738     3117     2482     1975 
    1749     1888     2074     1993     1825     1888     2091     2133 
    1956     1611     1212     1097     1393     1977     2772     3277 
    3053     2502     2134     2211     2855     3665     4152     4240 
    3908     3271     2669     2243     2128     2656     3705     4727 
    5344     5458     5232     4909     4608     4414     4091     3362 
    2740     2671     2806     3160     3912     4445     4395     4176 
    3904     3250     2308     1603     1321     1221     1290     1744 
    2489     3051     3013     2413     1737     1624     2285     3113 
    3388     3142     2903     2998     3379     3700     3780     3897 
    4176     4399     4411     4129     3701     3554     3944     4693 
    5256     5246     4864     4502     4434     4858     5499     5598 
    4803     3580     2513     1944     2126     2740     2940     2474 
    1871     1744     2247     2844     3055     2991     2797     2431 
    2126     2238     2759     3407     3863     3910     3740     3761 
    4072     4568     5031     5158     4878     4336     3766     3404 
    3153     2782     2370     2246     2732     3776     4777     4974 
    4372     3984     4388     5020     5235     4793     3801     2814 
    2363     2430     2508     2121     1374      890     1340     2647 
    3805     4017     3366     2439     2026     2531     3634     4693 
    5070     4660     4055     3661     3345     3277     3885     4850 
    5502     5682     5431     5013     4833     4787     4793     5022 
    5201     5074     4847     4602     4248     3906     3757     3804 
    3885     3785     3497     3260     3117     2911     2764     2963 
    3539     4252     4796     5070     5125     4951     4772     4851 
    4878     4535     4035     3640     3501     3593     3596     3289 
    2778     2270     1942     1880     2087     2512     2971     3109 
    2740     2073     1479     1356     1907     2787     3406     3456 
    3071     2678     2558     2663     2964     3532     4155     4431 
    4475     4641     4700     4356     3989     3893     3726     3254 
    2799     2794     3368     4220     4765     4739     4467     4357 
    4422     4359     3991     3345     2562     2154     2633     3723 
    4552     4584     4199     4067     4166     4132     3913     3647 
    3604     3994     4484     4502     3927     3025     2068     1314 
     928      820      943     1255     1556     1850     2215     2440 
    2385     2269     2374     2679     2963     3034     2792     2363 
    1979     1803     2074     2735     3207     3177     2868     2570 
    2497     2755     3232     3662     3738     3518     3372     3447 
    3774     4356     4789     4621     3948     3225     2855     3105 
    3893     4762     5375     5625     5524     5425     5629     5954 
    6093     5961     5764     5683     5456     4781     3861     3206 
    2980     2972     3173     3723     4414     4953     5304     5427 
    5279     5030     4791     4568     4550     4776     4934     4942 
    4968     4950     4803     4618     4511     4599     4772     4688 
    4368     4109     3986     3937     3919     3935     4135     4525 
    4830     4900     4889     4920     4949     4988     4997     4814 
    4506     4325     4307     4405     4770     5456     5904     5585 
    5044     5090     5563     5845     5724     5289     4649     3975 
    3600     3796     4479     5305     5960     6261     6085     5590 
    5339     5648     6147     6490     6832     7136     6983     6386 
    5691     5067     4756     4956     5620     6571     7358     7692 
    7838     7805     7179     5938     4517     3296     2520     2397 
    2891     3576     3867     3476     2748     2415     2936     4303 
    6083     7641     8520     8484     7619     6573     5980     5806 
    5786     5871     5988     6197     6698     7187     7064     6210 
    4947     3703     2882     2740     3173     3784     4318     4679 
    4748     4677     4729     4746     4537     4386     4476     4448 
    4074     3785     3997     4476     4764     4657     4256     3879 
    3731     3800     3905     3798     3433     2918     2357     1814 
    1264      803      727     1178     1912     2713     3574     4297 
    4630     4741     4797     4707     4587     4588     4648     4876 
    5277     5441     5292     5123     4870     4345     3684     3223 
    3396     4293     5405     6303     7160     8113     8687     8484 
    7736     6940     6373     5869     5227     4707     4685     5171 
    5780     6137     6272     6367     6475     6563     6299     5476 
    4595     4064     3840     3974     4392     4857     5268     5518 
    5822     6598     7543     8201     8507     8349     7971     7947 
    8473     9593    11005    11838    11797    11334    10758    10335 
   10146     9779     9197     8830     8688     8594     8579     8444 
    8109     7915     7688     6945     5953     5362     5479     6203 
    7072     7709     8098     8228     8000     7473     7034     7145 
    7877     9024    10339    11254    11308    10837    10312     9884 
    9788     9817     9301     8272     7163     5873     4282     2628 
     966     -568    -1273     -708      577     1648     1878     1093 
    -238    -1188    -1256     -441     1158     2940     3890     3689 
    3187     3411     4502     6039     7492     7992     6881     4421 
    1305    -1683    -3804    -4972    -5784    -6763    -7893    -8824 
   -9525   -10478   -11796   -12873   -13321   -13347   -13347   -13697 
  -14467   -15190   -15286   -14527   -13101   -11703   -11072   -10890 
  -10214    -8977    -7756    -6698    -5854    -5751    -6798    -8658 
  -10382   -11183   -10779    -9127    -6662    -4144    -1904     -126 
     849      851        1    -1227    -2226    -2724    -3001    -3466 
   -4003    -4158    -3643    -2432     -743     1034     2544     3882 
    5337     6578     6928     6037     4270     3036     3544     5383 
    7400     8996    10335    11696    12607    12644    12279    11731 
   10712     9308     7785     6615     6332     6934     8132     9460 
   10609    11738    12733    13347    13740    13671    12455    10536 
    9209     8533     7651     6548     5782     5217     4511     3954 
    3395     2022        5    -1653    -2928    -4517    -6430    -8199 
   -9464    -9694    -8700    -7396    -6184    -4016     -963     1416 
    3087     5076     6644     6669     5671     4136     2628     2157 
    2031     1556     1439     1282      391     -383     -344     -317 
   -1279    -2519    -2960    -2875    -2779    -3369    -5046    -6637 
   -7068    -5815    -2849      -99     1205     2656     4974     6949 
    8262     9232     9873    10959    13100    15163    15803    15109 
   13473    11446    10832    11797    11819    10774    10781    11421 
   11669    12463    13971    14991    15331    15612    15651    15110 
   14047    12464    11330    11253    11198    10752     9900     8569 
    7302     6222     5495     5070     4044     2917     2876     3133 
    3204     4685     7276     8237     7264     5653     3491     1806 
    1742     2169     1746      746      383      992     1752     2739 
    4200     5961     8540    11045    12224    12854    13252    13498 
   13446    11551     8826     7920     7942     7415     7123     6994 
    6554     7038     9018    10404     8883     5351     2646     1263 
     346      475     1209     1630     3028     4735     4351     2822 
    2037     2478     3740     4378     4521     5005     4220     2062 
    1152     1209       74    -2052    -4248    -5651    -5401    -4434 
   -3915    -3967    -4538    -5431    -6502    -7410    -8275    -8781 
   -7824    -6798    -7222    -8356    -9915   -11186   -11167   -10412 
   -9224    -7696    -7357    -9049   -11118   -11712   -10485    -8029 
   -5279    -2583      569     3511     4086     2710     2589     4087 
    4382     2046    -1796    -5370    -8233    -9795    -8428    -4716 
     422     6852    10837    10054     8324     8390     8903     8224 
    6647     5713     5287     4865     5310     5923     5826     5818 
    5417     3767     1606     -473    -2470    -4401    -6038    -6343 
   -5161    -4247    -4147    -3874    -3669    -3719    -3481    -3226 
   -2759    -1516       86     1443     1240     -737    -1059     1282 
    2940     4475     8059    11371    13633    15759    15774    13678 
   11455     8648     5421     3346     2619     3559     5910     7609 
    8398     8914     8367     7344     6937     6571     5800     4387 
    2371      315    -2091    -4413    -6223    -8672    -9948    -7566 
   -4410    -3331    -3109    -3037    -3034    -1671      598     1763 
    1906     1705     1582     2496     4009     4865     4502     3109 
    2390     3304     4849     6804     8785     9197     8102     6548 
    4379     2058     1225     2317     3823     3989     2496      457 
    -942    -1333     -804      114     1259     3061     4542     4302 
    2317     -846    -4170    -6875    -8630    -8770    -7461    -5760 
   -4040    -2434    -1718    -1954    -2130    -1796     -648     1171 
    2331     2929     3769     3899     3414     3663     4860     7245 
   10554    13088    14166    13856    11800     8594     5493     4039 
    5224     7248     7819     6465     3524      882      402     1642 
    3440     4066     2323      -64    -1270    -1435     -837      626 
    2778     4708     5818     6528     6853     6886     7219     7468 
    7091     6559     6232     5381     3434     1274     -484    -2224 
   -3875    -5310    -6826    -8418    -9563    -9958   -10187   -10501 
  -10272    -9514    -8568    -7209    -5224    -3102    -1848    -1507 
   -1412    -1409    -1308    -1209    -1252     -854     -472    -1625 
   -3969    -5285    -4731    -3820    -3507    -2743    -1000     1107 
    3265     4689     4792     3904     1966     -704    -3200    -4993 
   -5171    -2915      575     3095     4986     7601     8753     6693 
    3842     1395    -1467    -3859    -5050    -5598    -5510    -4464 
   -3184    -2853    -2801    -1788     -436      951     2776     4318 
    5367     6389     6400     4830     2930     1476      618      180 
    -425     -535      338      945     1005     1300     1908     3280 
    5539     7655     9273     9718     7690     4799     3765     4584 
    6496     8729     9953     9922     8868     7188     5744     4852 
    5366     7317     8239     7415     6320     4878     3111     2420 
    2848     3099     2732     2355     2998     5306     8100     9656 
   10269    10596     9813     7627     5486     4615     4855     5996 
    7715     8721     8159     6555     5032     4405     4599     4930 
    4588     3257     2331     3145     4455     5069     5472     5782 
    5625     5268     5807     7524     8650     7823     6150     5231 
    5371     6195     7145     8006     8718     8407     6758     4969 
    4051     3921     3804     2884     1098     -820    -1628     -488 
    1833     4001     5491     6037     5506     5044     6077     7892 
    8789     8785     8783     9007     9408     9732     9441     8653 
    7956     6921     4955     3503     3861     4302     3295     2532 
    3279     3824     3198     2656     2490     2015     1514     1109 
     202    -1003    -1644    -1266      244     2619     5027     6924 
