Origin Time       2016/04/16 01:25:00
Lat.              32.753
Long.             130.762
Depth. (km)       12
Mag.              7.3
Station Code      FKI004
Station Lat.      35.9789
Station Long.     136.4865
Station Height(m) 175
Record Time       2016/04/16 01:28:09
Sampling Freq(Hz) 100Hz
Duration Time(s)  60
Dir.              E-W
Scale Factor      7845(gal)/8223790
Max. Acc. (gal)   0.700
Last Correction   2016/04/16 01:28:10
Memo.             
[...]
    4333     4327     4324     4322     4313     4301     4297     4297 
    4295     4294     4294     4297     4298     4299     4299     4298 
    4298     4306     4320     4330     4330     4330     4341     4355 
    4360     4368     4378     4390     4405     4414     4419     4428 
    4437     4450     4468     4483     4496     4509     4521     4538 
    4553     4567     4588     4611     4626     4635     4649     4665 
    4683     4703     4718     4725     4726     4737     4752     4757 
    4762     4764     4764     4768     4765     4761     4757     4750 
    4750     4748     4741     4737     4730     4720     4718     4716 
    4714     4710     4707     4698     4688     4685     4684     4680 
    4676     4668     4658     4654     4649     4644     4638     4631 
    4630     4627     4619     4608     4599     4598     4599     4594 
    4591     4584     4581     4587     4583     4575     4575     4568 
    4558     4560     4558     4550     4544     4540     4533     4525 
    4517     4509     4507     4499     4487     4483     4480     4472 
    4464     4453     4436     4429     4428     4422     4409     4393 
    4386     4379     4368     4353     4337     4325     4314     4301 
    4283     4263     4247     4232     4213     4191     4171     4149 
    4135     4120     4098     4078     4060     4045     4032     4016 
    4000     3986     3974     3959     3942     3928     3920     3917 
    3912     3899     3889     3880     3875     3874     3873     3870 
    3873     3871     3867     3867     3869     3874     3877     3880 
    3888     3896     3909     3921     3931     3942     3960     3982 
    4003     4021     4039     4063     4091     4116     4139     4164 
    4185     4205     4228     4251     4271     4291     4310     4330 
    4347     4359     4371     4384     4395     4403     4414     4426 
    4430     4433     4440     4442     4445     4452     4456     4455 
    4453     4450     4444     4440     4441     4438     4430     4421 
    4409     4402     4398     4388     4378     4368     4355     4342 
    4340     4333     4315     4305     4302     4294     4289     4289 
    4286     4282     4280     4280     4286     4291     4293     4294 
    4301     4310     4318     4329     4336     4340     4351     4363 
    4375     4387     4396     4409     4426     4440     4449     4460 
    4476     4490     4500     4510     4527     4542     4550     4561 
    4567     4572     4590     4604     4610     4614     4621     4633 
    4649     4656     4658     4660     4664     4673     4684     4687 
    4689     4700     4706     4714     4723     4727     4738     4745 
    4743     4748     4760     4765     4769     4770     4774     4783 
    4789     4788     4789     4792     4791     4791     4796     4795 
    4791     4789     4785     4783     4785     4789     4787     4780 
    4779     4777     4777     4777     4773     4769     4769     4764 
    4761     4764     4761     4753     4748     4747     4745     4745 
    4741     4734     4729     4729     4731     4729     4720     4718 
    4719     4720     4719     4718     4718     4718     4719     4725 
    4725     4723     4729     4735     4739     4743     4743     4739 
    4742     4743     4739     4741     4741     4737     4735     4727 
    4714     4710     4708     4695     4680     4672     4665     4654 
    4638     4622     4604     4591     4584     4572     4553     4535 
    4519     4504     4490     4475     4460     4444     4428     4414 
    4402     4386     4367     4353     4342     4333     4325     4317 
    4303     4293     4286     4283     4286     4288     4282     4276 
    4275     4275     4282     4288     4286     4287     4289     4291 
    4297     4302     4302     4302     4306     4309     4306     4302 
    4299     4297     4291     4293     4291     4286     4283     4283 
    4274     4266     4266     4271     4278     4275     4268     4266 
    4270     4274     4282     4284     4286     4294     4299     4299 
    4302     4306     4310     4321     4327     4326     4332     4337 
    4337     4344     4356     4363     4368     4375     4382     4391 
    4399     4402     4410     4423     4434     4446     4459     4471 
    4479     4483     4494     4513     4529     4538     4545     4553 
    4561     4572     4585     4596     4603     4604     4602     4610 
    4622     4630     4634     4635     4637     4645     4650     4649 
    4646     4649     4658     4668     4672     4669     4662     4657 
    4661     4669     4679     4688     4691     4684     4683     4691 
    4703     4712     4718     4716     4718     4729     4741     4745 
    4746     4752     4757     4765     4770     4776     4776     4781 
    4793     4795     4793     4797     4796     4797     4803     4800 
    4799     4804     4804     4800     4793     4787     4787     4791 
    4785     4773     4766     4760     4752     4741     4723     4704 
    4692     4680     4660     4634     4604     4576     4557     4538 
    4513     4483     4455     4423     4388     4357     4329     4305 
    4280     4252     4220     4190     4163     4140     4116     4094 
    4074     4058     4048     4036     4017     4001     3993     3990 
    3986     3978     3973     3971     3971     3970     3971     3977 
    3987     3993     3998     4003     4010     4023     4032     4040 
    4054     4066     4077     4097     4113     4124     4136     4152 
    4170     4185     4192     4205     4228     4248     4263     4266 
    4270     4280     4301     4318     4326     4330     4344     4364 
    4376     4383     4390     4401     4413     4422     4433     4452 
    4469     4480     4492     4502     4518     4540     4556     4565 
    4577     4594     4614     4634     4650     4656     4658     4680 
    4707     4716     4719     4730     4753     4773     4779     4781 
    4792     4806     4818     4828     4835     4838     4847     4858 
    4862     4868     4874     4880     4884     4880     4872     4873 
    4881     4882     4877     4862     4847     4847     4847     4839 
    4828     4814     4808     4804     4792     4784     4779     4768 
    4760     4756     4753     4746     4734     4726     4725     4723 
    4719     4715     4710     4706     4699     4699     4700     4698 
    4692     4689     4688     4684     4684     4685     4683     4677 
    4675     4680     4685     4685     4683     4685     4688     4691 
    4695     4698     4698     4696     4699     4704     4708     4710 
    4714     4710     4706     4710     4718     4719     4715     4710 
    4712     4718     4720     4718     4716     4716     4720     4723 
    4722     4720     4720     4723     4729     4729     4727     4727 
    4726     4726     4727     4727     4729     4726     4723     4725 
    4723     4715     4708     4706     4702     4696     4692     4688 
    4681     4672     4662     4652     4641     4637     4630     4618 
    4608     4598     4585     4576     4568     4564     4560     4549 
    4545     4548     4541     4535     4535     4537     4540     4542 
    4541     4541     4544     4546     4552     4560     4563     4564 
    4572     4576     4575     4580     4591     4598     4603     4604 
    4599     4600     4611     4615     4606     4604     4606     4606 
    4603     4595     4591     4587     4587     4590     4579     4561 
    4554     4550     4544     4533     4519     4514     4514     4502 
    4486     4475     4467     4464     4464     4452     4433     4428 
    4425     4418     4407     4399     4398     4393     4387     4382 
    4374     4372     4376     4379     4372     4367     4372     4379 
    4374     4367     4374     4382     4384     4387     4387     4390 
    4396     4401     4399     4402     4409     4418     4426     4429 
    4433     4444     4460     4475     4487     4495     4502     4518 
    4542     4565     4585     4606     4621     4633     4661     4688 
    4707     4729     4748     4773     4803     4826     4838     4854 
    4884     4909     4928     4947     4969     4989     5004     5017 
    5035     5057     5074     5089     5103     5115     5130     5147 
    5159     5167     5178     5193     5206     5216     5221     5224 
    5229     5242     5254     5255     5254     5250     5251     5254 
    5248     5239     5238     5228     5217     5212     5200     5185 
    5174     5162     5148     5134     5116     5101     5088     5067 
    5044     5027     5003     4978     4962     4938     4908     4884 
    4868     4849     4824     4796     4772     4748     4733     4718 
    4693     4673     4661     4652     4641     4631     4617     4606 
    4608     4618     4622     4623     4622     4630     4646     4658 
    4666     4683     4708     4731     4748     4768     4788     4810 
    4838     4865     4889     4915     4936     4958     4984     5008 
    5030     5053     5080     5103     5116     5128     5150     5174 
    5186     5193     5205     5219     5227     5232     5232     5228 
    5228     5228     5220     5213     5206     5190     5175     5159 
    5143     5128     5104     5073     5046     5019     4989     4965 
    4936     4905     4873     4841     4810     4780     4750     4720 
    4699     4677     4646     4618     4596     4576     4557     4538 
    4523     4518     4510     4496     4486     4482     4483     4484 
    4488     4491     4495     4506     4514     4518     4535     4556 
    4568     4585     4598     4615     4639     4660     4676     4696 
    4719     4741     4761     4777     4789     4807     4833     4854 
    4868     4873     4881     4901     4923     4934     4942     4947 
    4955     4968     4974     4973     4978     4988     4996     4997 
    4997     4996     4997     5000     4996     4993     4996     4996 
    4989     4986     4985     4978     4972     4974     4976     4970 
    4963     4958     4959     4961     4956     4954     4955     4956 
    4959     4961     4962     4968     4973     4981     4992     4994 
    4994     5008     5022     5027     5034     5044     5057     5070 
    5084     5093     5104     5116     5130     5144     5150     5151 
    5166     5186     5196     5197     5200     5208     5215     5217 
    5216     5212     5215     5223     5223     5213     5204     5200 
    5197     5192     5184     5169     5162     5159     5155     5146 
    5136     5128     5123     5119     5108     5096     5092     5088 
    5077     5067     5060     5049     5038     5027     5016     5005 
    5000     4993     4977     4961     4954     4942     4927     4918 
    4908     4892     4872     4858     4847     4834     4824     4814 
    4797     4780     4768     4754     4742     4729     4710     4693 
    4687     4673     4653     4635     4619     4604     4592     4579 
    4560     4538     4522     4509     4491     4473     4456     4434 
    4418     4407     4390     4369     4355     4342     4334     4324 
    4303     4291     4287     4278     4271     4268     4266     4256 
    4252     4252     4253     4253     4256     4266     4278     4276 
    4279     4289     4299     4310     4320     4327     4341     4352 
    4360     4369     4379     4392     4410     4423     4436     4449 
    4457     4461     4477     4498     4513     4525     4538     4550 
    4565     4577     4587     4596     4611     4627     4641     4645 
    4648     4653     4660     4664     4662     4652     4642     4639 
    4637     4629     4619     4606     4587     4576     4564     4537 
    4514     4504     4488     4457     4429     4407     4386     4372 
    4352     4321     4297     4286     4275     4255     4225     4202 
    4191     4183     4170     4153     4136     4118     4110     4110 
    4104     4093     4093     4093     4090     4087     4090     4095 
    4101     4107     4114     4117     4122     4136     4149     4162 
    4176     4197     4217     4233     4253     4275     4298     4321 
    4340     4359     4387     4417     4440     4459     4480     4509 
    4541     4568     4587     4603     4626     4650     4673     4689 
    4706     4725     4737     4746     4756     4765     4773     4785 
    4793     4789     4789     4792     4795     4792     4781     4766 
    4758     4754     4743     4729     4715     4698     4683     4668 
    4644     4619     4604     4587     4567     4544     4514     4487 
    4464     4441     4417     4395     4374     4352     4330     4307 
    4283     4266     4248     4232     4220     4200     4180     4171 
    4162     4151     4143     4139     4140     4140     4135     4133 
    4135     4137     4152     4167     4171     4172     4183     4199 
    4213     4223     4236     4251     4270     4284     4294     4303 
    4320     4341     4357     4360     4363     4372     4387     4396 
    4401     4405     4410     4414     4415     4410     4405     4407 
    4410     4411     4407     4395     4384     4378     4368     4360 
    4356     4355     4351     4334     4321     4313     4299     4288 
    4284     4271     4253     4243     4236     4215     4194     4178 
    4168     4156     4139     4117     4099     4082     4066     4054 
    4036     4014     3998     3979     3959     3942     3928     3919 
    3912     3898     3879     3861     3856     3856     3855     3846 
    3834     3831     3838     3842     3840     3840     3848     3861 
    3869     3875     3883     3893     3909     3925     3939     3951 
    3963     3982     4001     4009     4017     4036     4059     4074 
    4085     4093     4106     4122     4140     4152     4163     4178 
    4194     4205     4215     4225     4233     4243     4253     4261 
    4271     4282     4289     4302     4307     4305     4306     4315 
    4321     4321     4325     4329     4329     4330     4333     4336 
    4336     4336     4334     4334     4337     4337     4341     4340 
    4333     4334     4337     4337     4336     4329     4327     4334 
    4340     4334     4327     4320     4311     4310     4313     4309 
    4301     4298     4293     4282     4275     4274     4268     4261 
    4258     4248     4233     4228     4225     4220     4215     4205 
    4200     4199     4194     4186     4182     4178     4178     4187 
    4183     4171     4168     4170     4171     4180     4182     4171 
    4170     4178     4180     4176     4172     4172     4175     4178 
    4172     4162     4158     4159     4159     4159     4148     4139 
    4136     4129     4118     4112     4112     4113     4113     4104 
    4093     4087     4086     4090     4091     4086     4083     4082 
    4086     4094     4098     4102     4112     4122     4131     4136 
    4144     4159     4176     4197     4210     4218     4233     4247 
    4261     4280     4294     4306     4320     4329     4338     4351 
    4360     4371     4383     4386     4388     4395     4402     4411 
    4417     4419     4429     4434     4434     4437     4440     4445 
    4455     4463     4468     4469     4467     4467     4468     4472 
    4479     4484     4486     4488     4490     4487     4494     4507 
    4513     4515     4521     4521     4529     4546     4557     4563 
    4571     4581     4595     4606     4612     4622     4637     4652 
    4665     4673     4675     4685     4702     4710     4715     4723 
    4725     4727     4734     4737     4735     4737     4737     4731 
    4729     4726     4719     4714     4703     4691     4687     4679 
    4662     4648     4630     4618     4611     4595     4577     4561 
    4542     4529     4515     4499     4483     4464     4444     4428 
    4411     4398     4380     4359     4342     4329     4313     4299 
    4287     4275     4263     4252     4241     4233     4225     4217 
    4210     4207     4205     4200     4205     4205     4199     4195 
    4205     4220     4228     4228     4232     4241     4256     4271 
    4284     4293     4306     4324     4341     4359     4372     4387 
    4407     4428     4449     4468     4484     4498     4514     4531 
    4552     4571     4581     4591     4604     4618     4633     4646 
    4649     4653     4662     4668     4673     4677     4679     4685 
    4688     4685     4683     4683     4683     4685     4683     4676 
    4679     4683     4683     4679     4672     4668     4676     4683 
    4675     4664     4658     4660     4666     4665     4656     4650 
    4650     4654     4660     4652     4642     4645     4650     4646 
    4642     4646     4649     4648     4646     4652     4661     4662 
    4660     4662     4664     4671     4680     4687     4685     4683 
    4684     4692     4704     4714     4718     4715     4716     4731 
    4743     4743     4747     4756     4758     4764     4776     4781 
    4781     4784     4791     4803     4812     4816     4816     4819 
    4827     4835     4843     4850     4854     4860     4866     4869 
    4876     4885     4885     4887     4895     4899     4901     4907 
    4911     4912     4918     4923     4922     4918     4923     4932 
    4938     4943     4945     4941     4943     4951     4959     4965 
    4974     4982     4984     4982     4985     4997     5019     5027 
    5026     5031     5044     5062     5073     5074     5081     5097 
    5113     5119     5116     5119     5128     5139     5146     5146 
    5142     5138     5136     5140     5136     5128     5124     5117 
    5111     5100     5080     5069     5065     5054     5036     5016 
    5003     4989     4970     4950     4935     4922     4907     4888 
    4865     4842     4824     4812     4800     4787     4772     4752 
    4738     4729     4722     4720     4714     4700     4695     4700 
    4702     4695     4699     4703     4699     4707     4720     4729 
    4735     4741     4747     4761     4774     4787     4799     4810 
    4820     4834     4850     4864     4880     4893     4900     4914 
    4938     4955     4961     4966     4977     4994     5007     5013 
    5023     5030     5036     5049     5054     5051     5049     5057 
    5069     5070     5063     5065     5070     5070     5066     5065 
    5062     5062     5067     5065     5053     5049     5053     5054 
    5054     5046     5038     5039     5040     5038     5036     5035 
    5032     5030     5030     5027     5020     5020     5024     5022 
    5013     5007     5003     4997     4992     4985     4976     4968 
    4961     4949     4928     4914     4909     4899     4874     4858 
    4847     4833     4816     4796     4772     4752     4734     4719 
    4699     4673     4649     4631     4621     4604     4579     4550 
    4525     4510     4502     4480     4452     4438     4430     4413 
    4387     4365     4363     4360     4341     4317     4298     4287 
    4286     4283     4271     4256     4253     4256     4256     4247 
    4233     4237     4252     4260     4260     4252     4247     4260 
    4271     4275     4282     4293     4301     4309     4317     4321 
    4326     4344     4357     4360     4367     4379     4390     4406 
    4415     4422     4433     4448     4463     4476     4486     4499 
