Origin Time       2016/04/16 01:25:00
Lat.              32.753
Long.             130.762
Depth. (km)       12
Mag.              7.3
Station Code      FKI010
Station Lat.      35.4904
Station Long.     135.5510
Station Height(m) 2
Record Time       2016/04/16 01:27:39
Sampling Freq(Hz) 100Hz
Duration Time(s)  78
Dir.              N-S
Scale Factor      7845(gal)/8223790
Max. Acc. (gal)   2.577
Last Correction   2016/04/16 01:27:40
Memo.             
[...]
   -9082    -9065    -9051    -9036    -9016    -8999    -8986    -8972 
   -8957    -8949    -8941    -8928    -8923    -8923    -8919    -8916 
   -8920    -8928    -8935    -8945    -8959    -8970    -8980    -8996 
   -9007    -9012    -9024    -9034    -9036    -9043    -9053    -9058 
   -9065    -9078    -9090    -9100    -9116    -9135    -9151    -9170 
   -9188    -9205    -9224    -9242    -9252    -9263    -9275    -9282 
   -9285    -9288    -9283    -9277    -9271    -9266    -9258    -9246 
   -9231    -9217    -9202    -9190    -9177    -9158    -9142    -9131 
   -9116    -9099    -9086    -9074    -9057    -9043    -9032    -9015 
   -8999    -8988    -8978    -8969    -8964    -8954    -8943    -8942 
   -8941    -8935    -8935    -8939    -8941    -8941    -8943    -8946 
   -8946    -8950    -8957    -8964    -8968    -8976    -8984    -8993 
   -9004    -9018    -9030    -9038    -9054    -9067    -9082    -9101 
   -9116    -9124    -9139    -9155    -9163    -9171    -9180    -9188 
   -9194    -9205    -9212    -9213    -9220    -9229    -9231    -9231 
   -9236    -9239    -9240    -9248    -9251    -9251    -9258    -9261 
   -9259    -9262    -9262    -9259    -9259    -9258    -9252    -9246 
   -9242    -9235    -9227    -9219    -9217    -9212    -9202    -9197 
   -9192    -9178    -9166    -9155    -9142    -9128    -9117    -9103 
   -9086    -9078    -9073    -9057    -9047    -9045    -9038    -9028 
   -9023    -9020    -9022    -9026    -9026    -9024    -9028    -9032 
   -9035    -9042    -9050    -9054    -9058    -9061    -9063    -9065 
   -9067    -9069    -9067    -9070    -9076    -9074    -9070    -9071 
   -9076    -9074    -9071    -9073    -9073    -9067    -9069    -9070 
   -9063    -9062    -9066    -9061    -9057    -9061    -9062    -9061 
   -9069    -9076    -9080    -9090    -9103    -9111    -9123    -9142 
   -9155    -9169    -9188    -9205    -9217    -9229    -9246    -9259 
   -9273    -9288    -9297    -9304    -9317    -9332    -9342    -9351 
   -9362    -9370    -9374    -9377    -9378    -9381    -9377    -9366 
   -9355    -9350    -9339    -9320    -9297    -9278    -9256    -9231 
   -9205    -9180    -9150    -9121    -9097    -9062    -9026    -9001 
   -8970    -8938    -8916    -8896    -8876    -8860    -8851    -8841 
   -8833    -8827    -8820    -8816    -8822    -8829    -8833    -8838 
   -8846    -8856    -8869    -8880    -8888    -8904    -8927    -8943 
   -8955    -8977    -9004    -9026    -9047    -9077    -9104    -9123 
   -9146    -9166    -9178    -9192    -9212    -9225    -9228    -9236 
   -9246    -9251    -9254    -9262    -9267    -9273    -9283    -9294 
   -9301    -9309    -9315    -9319    -9333    -9348    -9351    -9351 
   -9358    -9358    -9350    -9344    -9339    -9329    -9324    -9315 
   -9293    -9271    -9255    -9227    -9194    -9173    -9153    -9126 
   -9097    -9071    -9050    -9030    -9007    -8982    -8961    -8949 
   -8939    -8927    -8916    -8911    -8907    -8904    -8901    -8896 
   -8891    -8889    -8888    -8883    -8880    -8877    -8874    -8877 
   -8880    -8878    -8877    -8885    -8895    -8896    -8903    -8916 
   -8927    -8938    -8957    -8976    -8995    -9016    -9038    -9065 
   -9096    -9124    -9153    -9184    -9215    -9246    -9273    -9300 
   -9332    -9355    -9373    -9393    -9414    -9433    -9452    -9466 
   -9475    -9486    -9497    -9504    -9509    -9517    -9520    -9520 
   -9522    -9520    -9506    -9499    -9494    -9474    -9454    -9440 
   -9413    -9382    -9358    -9331    -9294    -9258    -9225    -9188 
   -9147    -9107    -9065    -9024    -8985    -8949    -8908    -8866 
   -8834    -8803    -8766    -8741    -8723    -8700    -8683    -8673 
   -8661    -8660    -8669    -8675    -8681    -8699    -8718    -8734 
   -8758    -8791    -8815    -8843    -8881    -8914    -8947    -8991 
   -9027    -9059    -9101    -9143    -9175    -9205    -9239    -9270 
   -9300    -9327    -9351    -9373    -9393    -9412    -9427    -9437 
   -9450    -9458    -9460    -9467    -9477    -9477    -9477    -9481 
   -9479    -9468    -9464    -9459    -9447    -9433    -9418    -9401 
   -9381    -9360    -9339    -9315    -9294    -9273    -9243    -9213 
   -9190    -9165    -9139    -9115    -9089    -9065    -9047    -9027 
   -9005    -8988    -8966    -8943    -8926    -8910    -8884    -8856 
   -8838    -8820    -8795    -8775    -8760    -8745    -8733    -8729 
   -8729    -8727    -8730    -8739    -8752    -8770    -8793    -8816 
   -8838    -8863    -8891    -8918    -8951    -8980    -9001    -9035 
   -9070    -9090    -9111    -9139    -9158    -9173    -9189    -9202 
   -9212    -9225    -9236    -9240    -9246    -9255    -9258    -9258 
   -9262    -9265    -9262    -9263    -9265    -9261    -9256    -9252 
   -9246    -9236    -9228    -9216    -9198    -9185    -9180    -9166 
   -9147    -9140    -9134    -9120    -9116    -9112    -9099    -9089 
   -9085    -9076    -9065    -9058    -9045    -9028    -9024    -9019 
   -9003    -8992    -8986    -8972    -8959    -8958    -8950    -8934 
   -8929    -8928    -8916    -8904    -8895    -8887    -8880    -8873 
   -8865    -8857    -8853    -8854    -8853    -8849    -8850    -8851 
   -8849    -8850    -8856    -8860    -8869    -8881    -8888    -8895 
   -8910    -8923    -8938    -8958    -8978    -8993    -9018    -9043 
   -9063    -9088    -9116    -9139    -9163    -9198    -9234    -9261 
   -9293    -9331    -9363    -9393    -9425    -9458    -9486    -9514 
   -9541    -9563    -9583    -9602    -9612    -9618    -9626    -9628 
   -9628    -9628    -9622    -9614    -9606    -9599    -9587    -9570 
   -9559    -9549    -9529    -9510    -9497    -9477    -9454    -9437 
   -9417    -9394    -9370    -9340    -9309    -9282    -9256    -9225 
   -9190    -9159    -9124    -9088    -9051    -9018    -8984    -8953 
   -8920    -8888    -8861    -8835    -8807    -8781    -8761    -8739 
   -8716    -8695    -8680    -8668    -8658    -8655    -8654    -8652 
   -8654    -8662    -8669    -8676    -8685    -8695    -8706    -8726 
   -8743    -8753    -8769    -8793    -8814    -8835    -8862    -8883 
   -8903    -8935    -8969    -8997    -9028    -9063    -9093    -9121 
   -9150    -9177    -9201    -9228    -9255    -9277    -9298    -9320 
   -9342    -9360    -9381    -9398    -9416    -9436    -9452    -9464 
   -9479    -9494    -9504    -9512    -9520    -9522    -9520    -9521 
   -9522    -9518    -9510    -9501    -9486    -9468    -9454    -9436 
   -9412    -9386    -9360    -9332    -9310    -9293    -9269    -9240 
   -9223    -9207    -9190    -9178    -9163    -9146    -9137    -9135 
   -9128    -9124    -9121    -9112    -9108    -9111    -9112    -9113 
   -9116    -9120    -9127    -9140    -9155    -9166    -9180    -9194 
   -9209    -9223    -9238    -9259    -9283    -9306    -9327    -9348 
   -9374    -9405    -9431    -9447    -9466    -9494    -9518    -9536 
   -9556    -9572    -9586    -9602    -9612    -9614    -9620    -9626 
   -9624    -9617    -9612    -9603    -9587    -9570    -9551    -9528 
   -9506    -9485    -9454    -9428    -9406    -9382    -9355    -9332 
   -9309    -9288    -9263    -9243    -9223    -9201    -9186    -9166 
   -9135    -9108    -9088    -9067    -9051    -9034    -8991    -8939 
   -8939    -8966    -8932    -8872    -8863    -8863    -8838    -8833 
   -8829    -8797    -8792    -8806    -8795    -8787    -8792    -8791 
   -8795    -8814    -8820    -8819    -8843    -8866    -8873    -8881 
   -8889    -8907    -8927    -8941    -8950    -8959    -8970    -8984 
   -8995    -9000    -9009    -9022    -9032    -9043    -9055    -9070 
   -9092    -9119    -9142    -9159    -9182    -9211    -9240    -9275 
   -9306    -9333    -9363    -9388    -9413    -9444    -9474    -9486 
   -9494    -9520    -9540    -9543    -9552    -9563    -9559    -9556 
   -9560    -9553    -9547    -9544    -9533    -9516    -9505    -9491 
   -9470    -9452    -9443    -9428    -9404    -9382    -9370    -9358 
   -9344    -9331    -9315    -9301    -9293    -9282    -9263    -9250 
   -9240    -9224    -9211    -9202    -9189    -9175    -9170    -9159 
   -9143    -9137    -9136    -9132    -9135    -9139    -9134    -9135 
   -9146    -9153    -9153    -9158    -9166    -9169    -9174    -9180 
   -9180    -9173    -9170    -9171    -9169    -9163    -9159    -9147 
   -9136    -9130    -9116    -9097    -9085    -9077    -9059    -9040 
   -9031    -9019    -9005    -8995    -8984    -8974    -8972    -8970 
   -8966    -8969    -8977    -8977    -8980    -8993    -9000    -9001 
   -9011    -9024    -9031    -9038    -9047    -9051    -9058    -9069 
   -9076    -9078    -9084    -9090    -9094    -9104    -9113    -9120 
   -9128    -9140    -9147    -9154    -9162    -9173    -9178    -9180 
   -9186    -9192    -9188    -9182    -9180    -9173    -9165    -9161 
   -9150    -9136    -9127    -9113    -9097    -9084    -9070    -9058 
   -9050    -9042    -9030    -9024    -9023    -9012    -9005    -9008 
   -9011    -9011    -9016    -9026    -9036    -9050    -9063    -9076 
   -9093    -9115    -9132    -9147    -9167    -9188    -9197    -9208 
   -9227    -9240    -9252    -9269    -9286    -9300    -9312    -9332 
   -9347    -9355    -9377    -9397    -9412    -9427    -9437    -9451 
   -9475    -9499    -9508    -9510    -9524    -9536    -9540    -9547 
   -9549    -9543    -9537    -9530    -9514    -9497    -9481    -9454 
   -9428    -9408    -9375    -9339    -9310    -9282    -9243    -9204 
   -9169    -9134    -9096    -9063    -9036    -9005    -8977    -8958 
   -8935    -8908    -8889    -8872    -8850    -8829    -8807    -8787 
   -8765    -8746    -8721    -8691    -8671    -8655    -8634    -8617 
   -8602    -8583    -8571    -8571    -8571    -8568    -8572    -8581 
   -8592    -8607    -8629    -8645    -8667    -8700    -8730    -8757 
   -8792    -8830    -8863    -8900    -8939    -8978    -9013    -9049 
   -9081    -9111    -9143    -9170    -9189    -9209    -9227    -9239 
   -9246    -9258    -9267    -9270    -9275    -9279    -9275    -9273 
   -9275    -9273    -9265    -9259    -9254    -9242    -9232    -9223 
   -9202    -9186    -9177    -9159    -9136    -9116    -9094    -9067 
   -9045    -9020    -8989    -8961    -8934    -8901    -8869    -8842 
   -8812    -8780    -8754    -8733    -8711    -8691    -8677    -8665 
   -8652    -8644    -8648    -8652    -8655    -8667    -8680    -8694 
   -8715    -8742    -8766    -8792    -8819    -8846    -8880    -8916 
   -8946    -8977    -9013    -9050    -9081    -9112    -9140    -9163 
   -9188    -9213    -9234    -9252    -9269    -9277    -9285    -9301 
   -9310    -9312    -9315    -9317    -9312    -9302    -9297    -9286 
   -9271    -9258    -9242    -9220    -9194    -9166    -9136    -9104 
   -9071    -9038    -8999    -8957    -8923    -8883    -8837    -8793 
   -8748    -8699    -8655    -8611    -8553    -8496    -8449    -8398 
   -8352    -8316    -8266    -8210    -8163    -8121    -8086    -8063 
   -8037    -8005    -7974    -7959    -7950    -7942    -7947    -7956 
   -7960    -7981    -8021    -8058    -8095    -8137    -8186    -8248 
   -8313    -8371    -8433    -8510    -8590    -8654    -8729    -8816 
   -8887    -8954    -9043    -9124    -9192    -9271    -9351    -9421 
   -9495    -9570    -9636    -9699    -9767    -9828    -9877    -9929 
   -9981   -10022   -10060   -10098   -10127   -10146   -10164   -10183 
  -10187   -10187   -10189   -10183   -10164   -10146   -10126   -10099 
  -10068   -10033    -9995    -9957    -9919    -9877    -9833    -9795 
   -9759    -9714    -9674    -9640    -9603    -9568    -9541    -9513 
   -9485    -9464    -9447    -9428    -9420    -9413    -9405    -9404 
   -9408    -9410    -9418    -9433    -9450    -9466    -9490    -9517 
   -9543    -9568    -9599    -9634    -9671    -9705    -9740    -9774 
   -9809    -9847    -9883    -9918    -9957    -9994   -10027   -10065 
  -10104   -10135   -10164   -10203   -10238   -10268   -10299   -10328 
  -10353   -10377   -10405   -10427   -10440   -10454   -10465   -10471 
  -10477   -10480   -10474   -10469   -10462   -10449   -10431   -10415 
  -10395   -10372   -10349   -10323   -10293   -10262   -10230   -10196 
  -10157   -10119   -10079   -10033    -9984    -9938    -9888    -9830 
   -9775    -9715    -9652    -9587    -9522    -9456    -9388    -9322 
   -9255    -9189    -9132    -9070    -9004    -8949    -8901    -8850 
   -8807    -8770    -8726    -8685    -8658    -8626    -8591    -8568 
   -8548    -8525    -8509    -8497    -8490    -8487    -8490    -8496 
   -8500    -8510    -8533    -8545    -8567    -8604    -8629    -8661 
   -8708    -8749    -8787    -8834    -8881    -8935    -8991    -9045 
   -9100    -9155    -9213    -9270    -9325    -9378    -9429    -9475 
   -9516    -9560    -9599    -9633    -9672    -9709    -9736    -9761 
   -9790    -9813    -9833    -9853    -9864    -9868    -9875    -9873 
   -9861    -9847    -9825    -9792    -9757    -9717    -9661    -9598 
   -9535    -9462    -9381    -9297    -9208    -9109    -9008    -8907 
   -8799    -8685    -8576    -8469    -8351    -8233    -8125    -8010 
   -7889    -7777    -7665    -7547    -7434    -7327    -7221    -7118 
   -7025    -6933    -6847    -6771    -6697    -6629    -6573    -6520 
   -6480    -6454    -6431    -6412    -6404    -6407    -6416    -6435 
   -6467    -6507    -6551    -6609    -6675    -6744    -6825    -6921 
   -7018    -7122    -7240    -7361    -7481    -7609    -7744    -7882 
   -8020    -8160    -8303    -8446    -8586    -8726    -8860    -8988 
   -9121    -9246    -9359    -9468    -9575    -9674    -9760    -9840 
   -9907    -9972   -10033   -10080   -10118   -10153   -10174   -10187 
  -10197   -10199   -10191   -10177   -10157   -10127   -10093   -10057 
  -10012    -9963    -9907    -9846    -9779    -9703    -9621    -9535 
   -9441    -9344    -9244    -9139    -9035    -8932    -8826    -8716 
   -8615    -8517    -8414    -8321    -8239    -8159    -8082    -8019 
   -7958    -7897    -7859    -7832    -7793    -7770    -7765    -7751 
   -7749    -7769    -7786    -7809    -7847    -7888    -7938    -7993 
   -8044    -8109    -8186    -8263    -8338    -8417    -8506    -8592 
   -8667    -8749    -8838    -8916    -8996    -9080    -9155    -9224 
   -9300    -9371    -9429    -9487    -9548    -9598    -9641    -9684 
   -9718    -9742    -9774    -9798    -9803    -9807    -9811    -9807 
   -9802    -9787    -9761    -9736    -9709    -9668    -9622    -9580 
   -9530    -9474    -9416    -9359    -9298    -9232    -9165    -9101 
   -9038    -8978    -8916    -8853    -8793    -8742    -8696    -8648 
   -8606    -8572    -8540    -8519    -8509    -8503    -8506    -8513 
   -8532    -8556    -8584    -8634    -8684    -8721    -8783    -8853 
   -8916    -8995    -9080    -9165    -9254    -9343    -9433    -9528 
   -9624    -9711    -9799    -9891    -9975   -10054   -10131   -10201 
  -10263   -10329   -10392   -10438   -10482   -10530   -10570   -10601 
  -10633   -10658   -10674   -10687   -10697   -10697   -10687   -10677 
  -10662   -10633   -10601   -10566   -10520   -10467   -10412   -10345 
  -10266   -10187   -10104   -10007    -9903    -9798    -9686    -9563 
   -9445    -9324    -9196    -9071    -8949    -8823    -8700    -8586 
   -8472    -8364    -8264    -8174    -8087    -8013    -7946    -7882 
   -7831    -7793    -7755    -7722    -7701    -7684    -7666    -7665 
   -7670    -7672    -7676    -7689    -7707    -7723    -7739    -7761 
   -7784    -7811    -7846    -7882    -7920    -7958    -8004    -8059 
   -8105    -8144    -8198    -8263    -8321    -8370    -8424    -8487 
   -8553    -8615    -8681    -8746    -8802    -8865    -8932    -8980 
   -9030    -9086    -9128    -9163    -9201    -9236    -9262    -9278 
   -9290    -9301    -9308    -9305    -9301    -9296    -9286    -9274 
   -9259    -9246    -9239    -9225    -9211    -9198    -9188    -9174 
   -9163    -9154    -9142    -9130    -9117    -9101    -9089    -9078 
   -9062    -9045    -9028    -9011    -8985    -8959    -8939    -8915 
   -8887    -8862    -8841    -8820    -8802    -8780    -8758    -8743 
   -8735    -8727    -8718    -8715    -8715    -8718    -8727    -8746 
   -8764    -8781    -8806    -8830    -8854    -8885    -8919    -8951 
   -8988    -9023    -9055    -9090    -9128    -9163    -9197    -9238 
   -9277    -9310    -9350    -9391    -9425    -9460    -9499    -9533 
   -9568    -9610    -9651    -9693    -9740    -9788    -9834    -9887 
   -9942    -9996   -10046   -10096   -10147   -10199   -10250   -10300 
  -10336   -10369   -10405   -10432   -10446   -10459   -10467   -10466 
  -10455   -10444   -10428   -10404   -10376   -10347   -10311   -10276 
  -10241   -10197   -10153   -10111   -10061   -10007    -9958    -9907 
   -9847    -9794    -9742    -9683    -9622    -9566    -9497    -9432 
   -9373    -9302    -9228    -9161    -9090    -9008    -8929    -8853 
   -8768    -8687    -8611    -8533    -8451    -8382    -8321    -8260 
   -8193    -8135    -8093    -8055    -8021    -7989    -7958    -7942 
   -7939    -7938    -7938    -7943    -7950    -7967    -7996    -8019 
   -8035    -8060    -8094    -8111    -8135    -8175    -8206    -8233 
   -8271    -8303    -8329    -8367    -8404    -8426    -8457    -8502 
   -8527    -8550    -8592    -8622    -8642    -8673    -8706    -8733 
   -8764    -8789    -8808    -8830    -8860    -8887    -8901    -8911 
   -8924    -8937    -8937    -8935    -8938    -8935    -8924    -8912 
   -8899    -8887    -8877    -8858    -8838    -8827    -8811    -8787 
   -8773    -8758    -8738    -8721    -8704    -8680    -8657    -8637 
   -8611    -8583    -8557    -8525    -8487    -8453    -8418    -8380 
   -8341    -8295    -8245    -8209    -8172    -8128    -8083    -8035 
   -7987    -7954    -7917    -7869    -7824    -7794    -7763    -7726 
   -7695    -7666    -7636    -7612    -7584    -7557    -7541    -7522 
   -7497    -7484    -7477    -7466    -7461    -7460    -7458    -7456 
   -7458    -7460    -7461    -7466    -7472    -7481    -7491    -7491 
   -7496    -7510    -7520    -7531    -7546    -7562    -7574    -7584 
   -7599    -7609    -7616    -7624    -7628    -7626    -7623    -7619 
   -7614    -7604    -7593    -7581    -7569    -7557    -7548    -7539 
   -7528    -7526    -7523    -7514    -7512    -7519    -7520    -7524 
   -7537    -7545    -7553    -7566    -7581    -7600    -7623    -7643 
   -7661    -7688    -7722    -7750    -7780    -7813    -7848    -7881 
   -7919    -7959    -7985    -8009    -8044    -8082    -8120    -8155 
   -8177    -8201    -8229    -8253    -8278    -8311    -8351    -8383 
   -8411    -8444    -8480    -8522    -8561    -8598    -8641    -8684 
   -8726    -8773    -8819    -8866    -8919    -8965    -9008    -9055 
   -9097    -9143    -9193    -9234    -9275    -9320    -9354    -9387 
   -9427    -9456    -9479    -9504    -9522    -9536    -9549    -9560 
   -9563    -9567    -9568    -9566    -9558    -9544    -9529    -9512 
   -9489    -9466    -9437    -9400    -9359    -9325    -9288    -9243 
