Origin Time       2016/04/16 01:25:00
Lat.              32.753
Long.             130.762
Depth. (km)       12
Mag.              7.3
Station Code      FKI008
Station Lat.      35.5479
Station Long.     135.9084
Station Height(m) 13
Record Time       2016/04/16 01:27:54
Sampling Freq(Hz) 100Hz
Duration Time(s)  61
Dir.              E-W
Scale Factor      7845(gal)/8223790
Max. Acc. (gal)   1.127
Last Correction   2016/04/16 01:27:55
Memo.             
[...]
   17235    17224    17243    17257    17240    17232    17240    17236 
   17234    17251    17261    17247    17238    17246    17248    17239 
   17231    17234    17234    17227    17225    17225    17213    17211 
   17232    17244    17227    17217    17224    17224    17228    17248 
   17253    17235    17227    17238    17247    17250    17255    17262 
   17258    17251    17265    17282    17267    17253    17265    17265 
   17251    17253    17243    17221    17212    17212    17200    17190 
   17197    17186    17153    17149    17184    17197    17176    17177 
   17199    17196    17188    17204    17224    17225    17234    17257 
   17259    17246    17267    17304    17297    17277    17294    17316 
   17324    17334    17338    17319    17324    17366    17390    17374 
   17356    17367    17390    17385    17367    17381    17394    17385 
   17389    17404    17389    17373    17385    17392    17382    17386 
   17390    17366    17343    17351    17355    17343    17338    17336 
   17321    17305    17309    17320    17311    17292    17289    17290 
   17282    17280    17286    17277    17259    17267    17275    17258 
   17247    17250    17242    17236    17247    17251    17238    17230 
   17236    17240    17238    17239    17251    17250    17235    17238 
   17242    17228    17228    17234    17219    17205    17207    17197 
   17174    17159    17150    17134    17119    17112    17095    17064 
   17047    17047    17041    17020    17008    17011    16998    16980 
   16975    16981    16984    16989    16992    16981    16975    16995 
   17008    16995    16992    17015    17027    17018    17011    17015 
   17023    17027    17037    17038    17030    17031    17031    17007 
   16997    17018    17027    17018    17020    17037    17044    17043 
   17046    17058    17081    17119    17151    17143    17113    17122 
   17166    17196    17213    17236    17238    17209    17193    17217 
   17248    17247    17227    17217    17224    17236    17239    17216 
   17178    17167    17204    17251    17258    17213    17169    17172 
   17208    17230    17213    17193    17204    17219    17201    17190 
   17213    17231    17211    17180    17190    17216    17189    17140 
   17136    17173    17209    17225    17192    17136    17118    17138 
   17157    17167    17169    17153    17123    17101    17103    17116 
   17127    17136    17138    17115    17089    17084    17084    17086 
   17109    17127    17109    17084    17074    17061    17057    17084 
   17118    17122    17098    17078    17080    17095    17111    17131 
   17151    17159    17161    17169    17173    17182    17217    17251 
   17259    17267    17281    17281    17286    17320    17346    17347 
   17359    17377    17377    17377    17400    17437    17460    17464 
   17471    17483    17482    17483    17509    17541    17555    17567 
   17567    17550    17540    17566    17595    17608    17613    17614 
   17598    17586    17597    17613    17618    17622    17624    17613 
   17591    17579    17582    17577    17560    17552    17544    17521 
   17497    17477    17456    17433    17420    17405    17374    17343 
   17331    17309    17263    17230    17213    17185    17149    17123 
   17097    17058    17024    17007    16987    16957    16943    16938 
   16903    16866    16860    16869    16857    16843    16840    16825 
   16803    16809    16826    16820    16817    16840    16843    16822 
   16826    16854    16862    16860    16879    16895    16889    16889 
   16908    16912    16908    16926    16952    16946    16931    16954 
   16981    16977    16966    16958    16946    16958    17003    17044 
   17050    17034    17027    17027    17034    17064    17115    17155 
   17172    17176    17181    17190    17223    17266    17282    17281 
   17302    17329    17334    17342    17373    17394    17406    17416 
   17396    17348    17334    17375    17437    17474    17463    17419 
   17366    17344    17362    17396    17431    17455    17433    17379 
   17355    17375    17393    17389    17397    17425    17428    17402 
   17396    17405    17398    17405    17448    17466    17431    17394 
   17385    17398    17433    17467    17470    17433    17388    17377 
   17409    17440    17450    17442    17413    17377    17373    17392 
   17402    17405    17412    17410    17392    17388    17405    17410 
   17404    17420    17446    17458    17478    17502    17500    17486 
   17513    17566    17599    17622    17645    17655    17658    17682 
   17722    17752    17768    17790    17807    17803    17798    17815 
   17836    17848    17855    17863    17855    17844    17849    17857 
   17847    17836    17836    17821    17788    17766    17755    17737 
   17716    17695    17666    17631    17606    17587    17552    17517 
   17502    17478    17442    17413    17385    17350    17323    17304 
   17285    17258    17228    17205    17176    17138    17116    17100 
   17070    17044    17032    17018    16992    16974    16965    16954 
   16946    16946    16946    16935    16920    16922    16926    16918 
   16915    16923    16918    16903    16903    16909    16899    16895 
   16903    16895    16883    16886    16883    16869    16863    16865 
   16860    16848    16839    16837    16831    16820    16816    16812 
   16803    16803    16809    16803    16794    16797    16800    16797 
   16803    16820    16829    16829    16845    16866    16869    16875 
   16906    16926    16935    16952    16972    16980    16989    17010 
   17027    17032    17038    17054    17058    17050    17058    17072 
   17074    17069    17069    17072    17064    17058    17061    17057 
   17044    17043    17041    17023    17007    16998    16989    16966 
   16942    16929    16908    16880    16866    16848    16816    16794 
   16780    16753    16727    16717    16699    16671    16654    16654 
   16646    16627    16625    16629    16621    16616    16633    16644 
   16641    16649    16665    16672    16672    16691    16717    16721 
   16722    16745    16767    16769    16783    16814    16825    16829 
   16862    16892    16900    16915    16942    16954    16965    16989 
   17012    17018    17021    17038    17050    17050    17054    17064 
   17064    17061    17070    17077    17064    17061    17078    17081 
   17067    17077    17092    17084    17084    17104    17118    17111 
   17115    17122    17112    17111    17130    17145    17131    17112 
   17116    17120    17116    17123    17131    17119    17107    17116 
   17112    17084    17074    17084    17074    17049    17038    17037 
   17011    16984    16984    16978    16949    16932    16926    16903 
   16879    16869    16860    16834    16814    16806    16788    16757 
   16748    16750    16725    16703    16705    16692    16664    16664 
   16671    16653    16642    16653    16653    16641    16648    16661 
   16656    16657    16687    16708    16703    16713    16750    16771 
   16776    16803    16839    16857    16883    16926    16961    16981 
   17018    17064    17097    17122    17159    17201    17225    17251 
   17294    17327    17347    17379    17417    17437    17455    17489 
   17521    17536    17556    17590    17613    17624    17647    17676 
   17687    17695    17720    17745    17756    17768    17793    17809 
   17817    17836    17857    17859    17865    17886    17896    17895 
   17902    17917    17915    17910    17918    17925    17913    17905 
   17911    17902    17884    17880    17878    17855    17836    17832 
   17811    17775    17756    17747    17718    17689    17678    17658 
   17621    17599    17589    17567    17541    17527    17512    17490 
   17469    17460    17454    17428    17413    17419    17406    17386 
   17394    17402    17386    17379    17390    17390    17381    17389 
   17400    17390    17382    17393    17393    17379    17377    17389 
   17382    17362    17359    17361    17340    17329    17334    17320 
   17290    17281    17278    17257    17236    17227    17211    17181 
   17163    17161    17139    17111    17100    17087    17058    17037 
   17026    17003    16975    16961    16942    16914    16888    16869 
   16852    16826    16806    16789    16768    16746    16737    16727 
   16707    16690    16691    16687    16672    16676    16688    16682 
   16681    16700    16714    16722    16744    16765    16771    16788 
   16817    16839    16856    16880    16909    16929    16945    16969 
   16997    17015    17038    17069    17087    17104    17127    17155 
   17180    17205    17239    17268    17285    17313    17350    17375 
   17396    17427    17462    17486    17505    17529    17552    17575 
   17605    17632    17647    17664    17680    17687    17695    17710 
   17725    17736    17743    17748    17748    17744    17745    17756 
   17760    17752    17749    17749    17733    17713    17710    17705 
   17683    17666    17658    17641    17618    17602    17593    17574 
   17556    17551    17539    17513    17501    17498    17486    17481 
   17486    17479    17459    17443    17439    17442    17443    17443 
   17431    17398    17377    17373    17358    17331    17320    17315 
   17289    17259    17247    17227    17194    17189    17194    17172 
   17139    17132    17130    17107    17092    17103    17109    17096 
   17097    17118    17122    17126    17151    17173    17173    17186 
   17216    17231    17231    17239    17251    17251    17253    17259 
   17253    17231    17216    17207    17182    17151    17134    17107 
   17058    17018    16995    16957    16906    16875    16843    16797 
   16760    16734    16694    16646    16621    16599    16559    16522 
   16503    16479    16440    16413    16398    16370    16336    16318 
   16298    16264    16243    16237    16220    16197    16189    16187 
   16167    16150    16154    16157    16140    16132    16139    16131 
   16116    16121    16124    16109    16104    16119    16119    16110 
   16116    16123    16123    16124    16140    16157    16163    16173 
   16198    16218    16236    16270    16309    16332    16362    16406 
   16443    16468    16515    16573    16615    16649    16692    16734 
   16768    16803    16845    16877    16891    16912    16938    16945 
   16946    16969    16981    16966    16957    16964    16960    16945 
   16938    16937    16920    16899    16892    16891    16875    16865 
   16875    16872    16857    16869    16892    16891    16892    16920 
   16945    16949    16969    17004    17018    17027    17053    17080 
   17092    17107    17138    17159    17166    17182    17204    17209 
   17215    17235    17242    17234    17239    17244    17231    17217 
   17217    17212    17193    17178    17170    17155    17134    17124 
   17109    17078    17050    17041    17018    16983    16965    16955 
   16926    16897    16891    16883    16857    16849    16865    16863 
   16857    16875    16895    16899    16920    16960    16988    17008 
   17047    17090    17115    17146    17196    17240    17273    17316 
   17363    17398    17429    17473    17513    17536    17559    17593 
   17620    17633    17658    17687    17701    17710    17729    17741 
   17743    17752    17771    17779    17782    17793    17801    17802 
   17807    17810    17806    17801    17799    17795    17786    17774 
   17764    17755    17740    17721    17703    17682    17658    17640 
   17621    17597    17574    17559    17543    17516    17493    17479 
   17456    17435    17423    17402    17377    17362    17346    17323 
   17304    17293    17281    17265    17246    17230    17215    17199 
   17184    17174    17158    17139    17130    17115    17087    17070 
   17067    17055    17037    17027    17020    17004    16992    16989 
   16984    16974    16972    16975    16972    16968    16972    16981 
   16981    16988    17007    17018    17024    17046    17067    17076 
   17090    17116    17126    17130    17150    17173    17177    17189 
   17213    17225    17231    17250    17268    17277    17286    17307 
   17320    17321    17329    17344    17346    17338    17343    17351 
   17342    17328    17324    17311    17288    17273    17262    17234 
   17204    17185    17158    17116    17078    17049    17012    16969 
   16937    16903    16852    16803    16773    16737    16691    16654 
   16629    16591    16545    16515    16494    16457    16428    16417 
   16395    16362    16348    16339    16313    16298    16301    16289 
   16267    16266    16267    16251    16239    16244    16243    16225 
   16222    16231    16225    16216    16223    16233    16227    16225 
   16240    16245    16236    16245    16268    16278    16285    16309 
   16326    16330    16351    16388    16411    16424    16452    16487 
   16507    16534    16576    16606    16629    16667    16705    16727 
   16748    16786    16823    16849    16880    16920    16949    16974 
   17012    17050    17076    17111    17161    17197    17224    17265 
   17317    17354    17383    17429    17475    17504    17537    17585 
   17620    17640    17675    17717    17739    17759    17793    17826 
   17847    17871    17905    17929    17945    17977    18010    18029 
   18053    18090    18118    18138    18171    18204    18229    18252 
   18281    18300    18311    18330    18357    18368    18368    18376 
   18382    18372    18364    18373    18372    18347    18335    18335 
   18316    18295    18292    18280    18246    18223    18211    18184 
   18148    18125    18104    18068    18027    18002    17972    17925 
   17890    17864    17820    17770    17741    17703    17647    17599 
   17566    17518    17463    17420    17382    17331    17284    17251 
   17212    17161    17124    17098    17058    17012    16984    16960 
   16918    16883    16860    16831    16796    16774    16756    16718 
   16684    16672    16652    16613    16588    16578    16553    16522 
   16511    16501    16471    16451    16449    16436    16416    16414 
   16424    16421    16418    16437    16451    16452    16471    16506 
   16526    16540    16571    16600    16619    16645    16684    16711 
   16729    16761    16794    16808    16826    16856    16875    16883 
   16899    16923    16938    16946    16961    16975    16983    16995 
   17015    17027    17031    17044    17073    17092    17104    17132 
   17162    17180    17207    17247    17278    17300    17336    17379 
   17409    17436    17473    17505    17528    17556    17591    17620 
   17644    17675    17705    17721    17741    17771    17793    17807 
   17833    17863    17883    17895    17913    17930    17938    17949 
   17964    17968    17967    17975    17979    17968    17963    17961 
   17945    17925    17914    17899    17871    17849    17834    17806 
   17772    17752    17729    17699    17682    17672    17655    17631 
   17614    17606    17597    17589    17587    17585    17577    17577 
   17590    17598    17605    17622    17640    17655    17672    17694 
   17717    17734    17756    17786    17803    17815    17834    17838 
   17834    17851    17879    17887    17890    17896    17890    17878 
   17883    17902    17907    17896    17901    17906    17890    17880 
   17890    17887    17876    17876    17883    17880    17871    17867 
   17867    17859    17855    17861    17863    17848    17836    17840 
   17841    17838    17848    17853    17836    17832    17849    17861 
   17868    17891    17911    17913    17919    17941    17953    17957 
   17975    17994    18000    18011    18033    18041    18044    18058 
   18077    18087    18095    18112    18123    18125    18134    18150 
   18150    18143    18150    18152    18134    18126    18126    18110 
   18088    18076    18064    18040    18014    17996    17976    17940 
   17913    17895    17864    17829    17807    17784    17753    17725 
   17706    17682    17651    17632    17624    17604    17581    17571 
   17567    17554    17543    17547    17543    17533    17539    17548 
   17545    17544    17563    17579    17578    17586    17608    17613 
   17614    17635    17648    17640    17641    17656    17651    17632 
   17632    17640    17618    17597    17604    17597    17562    17548 
   17550    17528    17498    17490    17475    17439    17416    17406 
   17381    17346    17327    17308    17271    17242    17230    17202 
   17163    17138    17123    17095    17058    17038    17023    16984 
   16951    16938    16918    16880    16860    16857    16829    16803 
   16800    16794    16769    16758    16765    16758    16744    16750 
   16764    16756    16754    16777    16786    16780    16794    16814 
   16819    16823    16848    16869    16872    16883    16915    16931 
   16937    16966    17000    17014    17027    17066    17093    17107 
   17140    17184    17205    17219    17257    17292    17305    17327 
   17365    17389    17400    17427    17456    17466    17477    17504 
   17520    17521    17531    17551    17558    17560    17578    17594 
   17595    17606    17633    17645    17647    17666    17693    17705 
   17714    17743    17767    17774    17790    17820    17838    17845 
   17865    17887    17891    17898    17915    17919    17913    17921 
   17929    17918    17906    17905    17895    17872    17856    17844 
   17817    17786    17767    17744    17703    17670    17648    17616 
   17572    17543    17517    17477    17436    17413    17388    17346 
   17315    17302    17278    17247    17231    17224    17201    17182 
   17185    17186    17177    17178    17185    17185    17184    17196 
   17207    17208    17215    17234    17246    17251    17268    17293 
   17301    17311    17339    17358    17365    17385    17412    17421 
   17425    17442    17454    17456    17466    17478    17481    17478 
   17483    17483    17478    17474    17477    17471    17458    17447 
   17440    17424    17406    17400    17388    17361    17342    17334 
   17317    17298    17290    17281    17261    17246    17240    17230 
   17219    17221    17225    17217    17211    17219    17227    17225 
   17238    17257    17262    17268    17290    17311    17323    17339 
   17366    17382    17390    17412    17437    17439    17442    17462 
   17470    17464    17470    17477    17466    17456    17462    17463 
   17447    17437    17435    17424    17410    17409    17408    17396 
   17385    17382    17373    17356    17348    17346    17332    17315 
   17307    17296    17274    17262    17253    17230    17204    17186 
   17167    17138    17112    17097    17074    17041    17018    16995 
   16958    16923    16906    16886    16856    16826    16809    16783 
   16752    16735    16727    16704    16677    16667    16653    16627 
   16615    16614    16595    16575    16573    16569    16549    16534 
   16528    16513    16491    16484    16479    16454    16434    16430 
   16417    16391    16384    16383    16365    16345    16337    16329 
   16318    16313    16313    16302    16285    16283    16286    16275 
   16267    16272    16270    16259    16263    16271    16266    16259 
   16270    16282    16279    16285    16302    16309    16306    16320 
