Origin Time       2016/04/16 01:25:00
Lat.              32.753
Long.             130.762
Depth. (km)       12
Mag.              7.3
Station Code      FKI010
Station Lat.      35.4904
Station Long.     135.5510
Station Height(m) 2
Record Time       2016/04/16 01:27:39
Sampling Freq(Hz) 100Hz
Duration Time(s)  78
Dir.              E-W
Scale Factor      7845(gal)/8223790
Max. Acc. (gal)   1.790
Last Correction   2016/04/16 01:27:40
Memo.             
[...]
   -1553    -1525    -1502    -1490    -1486    -1485    -1489    -1499 
   -1512    -1533    -1563    -1593    -1632    -1676    -1725    -1779 
   -1836    -1894    -1952    -2008    -2068    -2124    -2177    -2230 
   -2278    -2319    -2362    -2397    -2425    -2458    -2488    -2506 
   -2520    -2533    -2543    -2543    -2542    -2542    -2538    -2531 
   -2528    -2521    -2513    -2509    -2504    -2492    -2482    -2473 
   -2459    -2446    -2431    -2412    -2389    -2369    -2346    -2317 
   -2292    -2269    -2243    -2219    -2196    -2172    -2147    -2126 
   -2114    -2100    -2092    -2097    -2107    -2116    -2134    -2161 
   -2188    -2215    -2250    -2286    -2324    -2371    -2415    -2455 
   -2501    -2550    -2598    -2648    -2695    -2739    -2787    -2833 
   -2870    -2906    -2949    -2988    -3022    -3057    -3092    -3126 
   -3160    -3194    -3222    -3250    -3283    -3314    -3341    -3369 
   -3397    -3418    -3434    -3453    -3469    -3476    -3476    -3472 
   -3462    -3445    -3418    -3385    -3349    -3308    -3262    -3210 
   -3153    -3095    -3033    -2967    -2898    -2825    -2755    -2688 
   -2624    -2559    -2498    -2440    -2388    -2342    -2303    -2269 
   -2236    -2209    -2192    -2176    -2166    -2165    -2165    -2166 
   -2177    -2193    -2207    -2224    -2249    -2274    -2301    -2332 
   -2363    -2398    -2440    -2479    -2523    -2574    -2623    -2677 
   -2733    -2787    -2844    -2910    -2974    -3036    -3096    -3156 
   -3213    -3264    -3311    -3357    -3399    -3435    -3466    -3488 
   -3503    -3516    -3522    -3516    -3514    -3511    -3496    -3477 
   -3465    -3445    -3416    -3393    -3369    -3336    -3307    -3277 
   -3238    -3202    -3169    -3133    -3092    -3053    -3014    -2975 
   -2940    -2902    -2857    -2817    -2778    -2732    -2685    -2643 
   -2600    -2552    -2505    -2461    -2420    -2374    -2334    -2297 
   -2261    -2224    -2193    -2165    -2137    -2111    -2092    -2073 
   -2062    -2056    -2052    -2053    -2060    -2072    -2091    -2118 
   -2147    -2178    -2219    -2265    -2309    -2358    -2412    -2466 
   -2519    -2569    -2619    -2663    -2705    -2748    -2783    -2813 
   -2844    -2874    -2896    -2921    -2947    -2970    -2998    -3026 
   -3052    -3084    -3119    -3149    -3176    -3204    -3231    -3253 
   -3273    -3294    -3308    -3314    -3312    -3303    -3288    -3273 
   -3252    -3222    -3192    -3161    -3123    -3084    -3046    -3002 
   -2956    -2913    -2868    -2818    -2771    -2725    -2678    -2631 
   -2582    -2538    -2493    -2447    -2408    -2370    -2331    -2299 
   -2266    -2230    -2196    -2170    -2141    -2114    -2089    -2066 
   -2047    -2027    -2003    -1982    -1968    -1952    -1937    -1925 
   -1910    -1898    -1891    -1884    -1877    -1876    -1878    -1884 
   -1891    -1908    -1930    -1956    -1987    -2020    -2058    -2102 
   -2150    -2196    -2245    -2296    -2347    -2397    -2447    -2500 
   -2546    -2587    -2631    -2667    -2700    -2729    -2752    -2767 
   -2779    -2787    -2790    -2789    -2786    -2785    -2778    -2766 
   -2754    -2733    -2705    -2682    -2656    -2623    -2592    -2563 
   -2525    -2489    -2455    -2415    -2370    -2330    -2285    -2242 
   -2200    -2155    -2107    -2066    -2026    -1985    -1946    -1914 
   -1883    -1850    -1823    -1802    -1780    -1761    -1752    -1750 
   -1753    -1761    -1775    -1798    -1830    -1863    -1900    -1945 
   -1989    -2033    -2079    -2126    -2174    -2222    -2267    -2313 
   -2357    -2396    -2436    -2473    -2502    -2531    -2556    -2577 
   -2592    -2605    -2614    -2620    -2625    -2628    -2628    -2628 
   -2628    -2623    -2620    -2619    -2614    -2610    -2610    -2606 
   -2601    -2598    -2597    -2597    -2596    -2596    -2596    -2592 
   -2587    -2584    -2575    -2567    -2563    -2555    -2551    -2554 
   -2551    -2550    -2558    -2565    -2570    -2582    -2597    -2605 
   -2610    -2623    -2633    -2640    -2648    -2656    -2659    -2664 
   -2664    -2656    -2650    -2643    -2628    -2612    -2594    -2570 
   -2546    -2520    -2486    -2448    -2407    -2362    -2312    -2258 
   -2205    -2150    -2089    -2027    -1965    -1906    -1846    -1784 
   -1723    -1671    -1620    -1567    -1520    -1483    -1449    -1412 
   -1386    -1370    -1354    -1344    -1347    -1350    -1356    -1374 
   -1398    -1424    -1456    -1495    -1535    -1583    -1641    -1698 
   -1753    -1819    -1885    -1946    -2012    -2085    -2150    -2211 
   -2274    -2336    -2397    -2455    -2506    -2554    -2601    -2641 
   -2677    -2710    -2736    -2752    -2763    -2768    -2766    -2755 
   -2737    -2716    -2687    -2647    -2600    -2548    -2489    -2420 
   -2349    -2269    -2181    -2088    -1992    -1892    -1792    -1694 
   -1591    -1487    -1393    -1308    -1225    -1150    -1075    -1008 
    -951     -903     -857     -823     -803     -780     -760     -754 
    -756     -753     -764     -785     -801     -826     -864     -897 
    -934     -978    -1024    -1075    -1133    -1190    -1252    -1320 
   -1385    -1452    -1522    -1593    -1664    -1741    -1819    -1894 
   -1964    -2037    -2107    -2172    -2232    -2290    -2342    -2386 
   -2425    -2461    -2489    -2509    -2523    -2531    -2529    -2525 
   -2515    -2496    -2477    -2452    -2421    -2389    -2355    -2322 
   -2286    -2253    -2218    -2182    -2149    -2121    -2095    -2070 
   -2052    -2033    -2014    -2001    -1991    -1987    -1985    -1981 
   -1977    -1981    -1992    -2000    -2007    -2022    -2037    -2050 
   -2068    -2084    -2102    -2126    -2150    -2169    -2192    -2218 
   -2243    -2267    -2295    -2319    -2343    -2371    -2400    -2420 
   -2439    -2458    -2474    -2488    -2494    -2500    -2502    -2497 
   -2496    -2493    -2481    -2470    -2461    -2446    -2430    -2415 
   -2393    -2373    -2355    -2335    -2313    -2295    -2272    -2247 
   -2230    -2218    -2200    -2180    -2162    -2149    -2137    -2123 
   -2110    -2095    -2084    -2074    -2066    -2060    -2053    -2046 
   -2041    -2039    -2042    -2043    -2046    -2053    -2060    -2068 
   -2081    -2097    -2107    -2124    -2147    -2169    -2193    -2222 
   -2247    -2273    -2304    -2338    -2367    -2400    -2438    -2474 
   -2512    -2552    -2592    -2631    -2675    -2713    -2749    -2792 
   -2833    -2867    -2901    -2928    -2955    -2976    -2986    -2991 
   -2991    -2986    -2978    -2957    -2925    -2894    -2856    -2808 
   -2759    -2708    -2644    -2579    -2517    -2448    -2374    -2297 
   -2219    -2141    -2068    -1991    -1908    -1831    -1760    -1684 
   -1614    -1549    -1489    -1433    -1382    -1334    -1293    -1252 
   -1213    -1183    -1162    -1144    -1132    -1127    -1128    -1138 
   -1151    -1173    -1201    -1235    -1273    -1320    -1370    -1421 
   -1478    -1537    -1601    -1664    -1732    -1804    -1880    -1956 
   -2034    -2110    -2184    -2263    -2335    -2398    -2466    -2529 
   -2586    -2644    -2695    -2740    -2779    -2816    -2848    -2876 
   -2899    -2917    -2930    -2940    -2944    -2937    -2928    -2917 
   -2898    -2871    -2843    -2811    -2772    -2732    -2691    -2647 
   -2600    -2550    -2500    -2448    -2400    -2351    -2301    -2255 
   -2215    -2182    -2150    -2119    -2088    -2062    -2042    -2025 
   -2010    -2004    -2006    -2006    -2011    -2025    -2038    -2053 
   -2072    -2097    -2123    -2149    -2181    -2219    -2255    -2296 
   -2338    -2384    -2430    -2474    -2520    -2565    -2609    -2650 
   -2690    -2729    -2766    -2798    -2828    -2852    -2872    -2891 
   -2907    -2915    -2917    -2911    -2895    -2876    -2862    -2844 
   -2818    -2791    -2766    -2732    -2694    -2659    -2616    -2565 
   -2517    -2479    -2442    -2401    -2362    -2319    -2280    -2243 
   -2207    -2174    -2149    -2126    -2106    -2095    -2089    -2089 
   -2092    -2098    -2110    -2126    -2147    -2173    -2196    -2222 
   -2250    -2280    -2308    -2338    -2371    -2400    -2430    -2461 
   -2493    -2524    -2552    -2575    -2598    -2621    -2641    -2662 
   -2683    -2701    -2710    -2720    -2732    -2739    -2743    -2754 
   -2759    -2758    -2759    -2764    -2766    -2764    -2764    -2770 
   -2778    -2787    -2792    -2792    -2798    -2808    -2814    -2824 
   -2840    -2852    -2859    -2874    -2890    -2906    -2922    -2934 
   -2944    -2959    -2978    -2991    -3002    -3018    -3036    -3045 
   -3055    -3067    -3075    -3079    -3084    -3087    -3084    -3080 
   -3075    -3068    -3063    -3055    -3042    -3032    -3024    -3007 
   -2986    -2974    -2960    -2938    -2918    -2905    -2887    -2863 
   -2841    -2822    -2797    -2766    -2733    -2698    -2662    -2623 
   -2579    -2535    -2496    -2455    -2408    -2361    -2316    -2273 
   -2230    -2188    -2144    -2102    -2062    -2026    -1992    -1956 
   -1927    -1904    -1883    -1865    -1850    -1836    -1825    -1818 
   -1817    -1819    -1825    -1831    -1841    -1859    -1881    -1904 
   -1935    -1973    -2014    -2056    -2104    -2157    -2214    -2270 
   -2328    -2389    -2451    -2517    -2584    -2655    -2728    -2797 
   -2863    -2941    -3014    -3083    -3156    -3227    -3294    -3361 
   -3430    -3492    -3553    -3612    -3669    -3724    -3770    -3812 
   -3854    -3892    -3923    -3944    -3959    -3973    -3983    -3983 
   -3971    -3958    -3940    -3912    -3875    -3836    -3794    -3746 
   -3688    -3627    -3563    -3492    -3420    -3350    -3273    -3192 
   -3113    -3037    -2960    -2880    -2808    -2735    -2658    -2589 
   -2527    -2463    -2407    -2359    -2315    -2273    -2239    -2211 
   -2187    -2172    -2165    -2161    -2160    -2168    -2182    -2201 
   -2227    -2258    -2293    -2335    -2389    -2446    -2502    -2573 
   -2650    -2725    -2805    -2893    -2980    -3071    -3169    -3262 
   -3354    -3454    -3551    -3638    -3726    -3812    -3886    -3951 
   -4021    -4081    -4125    -4164    -4197    -4220    -4237    -4248 
   -4245    -4233    -4217    -4190    -4148    -4105    -4059    -3996 
   -3931    -3866    -3790    -3711    -3630    -3542    -3451    -3365 
   -3273    -3176    -3080    -2988    -2895    -2802    -2716    -2635 
   -2554    -2478    -2409    -2343    -2285    -2238    -2189    -2147 
   -2118    -2097    -2079    -2062    -2056    -2058    -2064    -2074 
   -2091    -2110    -2141    -2181    -2219    -2261    -2313    -2367 
   -2420    -2484    -2548    -2604    -2662    -2727    -2785    -2840 
   -2898    -2949    -2997    -3048    -3094    -3134    -3173    -3207 
   -3238    -3265    -3289    -3311    -3334    -3352    -3361    -3365 
   -3365    -3365    -3358    -3346    -3336    -3319    -3289    -3257 
   -3226    -3188    -3145    -3099    -3052    -3002    -2952    -2898 
   -2843    -2790    -2739    -2682    -2628    -2575    -2521    -2470 
   -2424    -2378    -2332    -2289    -2250    -2214    -2187    -2162 
   -2139    -2119    -2106    -2098    -2095    -2095    -2096    -2101 
   -2115    -2130    -2150    -2182    -2218    -2253    -2295    -2343 
   -2392    -2442    -2501    -2565    -2632    -2702    -2775    -2851 
   -2928    -3005    -3080    -3154    -3231    -3306    -3373    -3438 
   -3504    -3563    -3618    -3669    -3716    -3757    -3792    -3817 
   -3840    -3856    -3866    -3866    -3854    -3838    -3817    -3789 
   -3750    -3711    -3667    -3609    -3546    -3483    -3418    -3352 
   -3280    -3204    -3129    -3051    -2964    -2880    -2802    -2720 
   -2636    -2555    -2471    -2382    -2301    -2226    -2149    -2070 
   -1998    -1929    -1858    -1792    -1744    -1699    -1656    -1624 
   -1594    -1568    -1553    -1547    -1548    -1557    -1572    -1593 
   -1618    -1649    -1686    -1728    -1771    -1815    -1867    -1923 
   -1980    -2039    -2100    -2161    -2224    -2292    -2355    -2417 
   -2478    -2540    -2604    -2664    -2720    -2771    -2820    -2866 
   -2907    -2945    -2979    -3011    -3041    -3065    -3084    -3098 
   -3109    -3115    -3118    -3113    -3103    -3094    -3073    -3041 
   -3009    -2974    -2928    -2874    -2821    -2762    -2691    -2620 
   -2544    -2461    -2377    -2290    -2196    -2101    -2006    -1911 
   -1818    -1723    -1632    -1547    -1460    -1377    -1298    -1224 
   -1155    -1093    -1035     -984     -943     -901     -864     -841 
    -822     -803     -796     -796     -800     -815     -837     -861 
    -897     -942     -992    -1050    -1120    -1194    -1275    -1364 
   -1453    -1548    -1648    -1752    -1856    -1960    -2066    -2174 
   -2276    -2373    -2470    -2565    -2652    -2736    -2817    -2887 
   -2952    -3017    -3071    -3117    -3165    -3207    -3238    -3273 
   -3300    -3316    -3336    -3355    -3361    -3358    -3358    -3352 
   -3333    -3311    -3284    -3249    -3211    -3169    -3114    -3053 
   -2994    -2926    -2849    -2770    -2686    -2594    -2498    -2404 
   -2301    -2196    -2100    -1998    -1888    -1786    -1686    -1580 
   -1479    -1383    -1290    -1198    -1115    -1036     -958     -886 
    -828     -773     -724     -684     -649     -625     -614     -607 
    -606     -614     -634     -662     -699     -745     -799     -861 
    -932    -1012    -1098    -1197    -1304    -1414    -1533    -1660 
   -1786    -1918    -2057    -2196    -2338    -2478    -2616    -2748 
   -2879    -3007    -3126    -3241    -3353    -3453    -3542    -3624 
   -3696    -3755    -3802    -3842    -3871    -3888    -3888    -3878 
   -3858    -3827    -3788    -3738    -3676    -3603    -3523    -3435 
   -3339    -3237    -3125    -3005    -2882    -2755    -2623    -2490 
   -2355    -2219    -2087    -1954    -1822    -1696    -1579    -1466 
   -1356    -1255    -1163    -1077     -997     -927     -864     -812 
    -770     -734     -702     -691     -688     -687     -695     -715 
    -743     -776     -822     -877     -936    -1005    -1089    -1175 
   -1270    -1374    -1482    -1593    -1709    -1823    -1939    -2066 
   -2196    -2319    -2446    -2571    -2690    -2805    -2920    -3025 
   -3130    -3234    -3329    -3412    -3489    -3562    -3626    -3677 
   -3719    -3754    -3782    -3805    -3815    -3808    -3796    -3775 
   -3743    -3701    -3655    -3600    -3537    -3469    -3388    -3299 
   -3211    -3114    -3005    -2896    -2787    -2673    -2550    -2428 
   -2307    -2181    -2061    -1948    -1833    -1719    -1611    -1506 
   -1405    -1318    -1235    -1152    -1080    -1019     -967     -924 
    -893     -869     -854     -853     -858     -869     -896     -932 
    -973    -1021    -1078    -1147    -1227    -1310    -1397    -1487 
   -1583    -1686    -1791    -1898    -2007    -2118    -2227    -2335 
   -2442    -2554    -2660    -2764    -2863    -2960    -3052    -3145 
   -3232    -3315    -3395    -3466    -3530    -3591    -3642    -3688 
   -3728    -3761    -3782    -3797    -3807    -3811    -3808    -3797 
   -3778    -3754    -3731    -3700    -3665    -3630    -3591    -3544 
   -3495    -3445    -3391    -3335    -3284    -3231    -3169    -3106 
   -3045    -2980    -2914    -2851    -2781    -2709    -2640    -2567 
   -2490    -2420    -2350    -2276    -2204    -2138    -2069    -1998 
   -1935    -1878    -1823    -1773    -1726    -1683    -1648    -1620 
   -1593    -1572    -1559    -1545    -1532    -1533    -1544    -1551 
   -1566    -1593    -1622    -1649    -1686    -1726    -1768    -1813 
   -1863    -1912    -1964    -2022    -2079    -2138    -2195    -2254 
   -2312    -2371    -2431    -2482    -2532    -2587    -2639    -2685 
   -2732    -2778    -2818    -2859    -2899    -2930    -2963    -2995 
   -3022    -3041    -3060    -3079    -3095    -3109    -3123    -3132 
   -3133    -3140    -3145    -3144    -3142    -3144    -3138    -3129 
   -3123    -3111    -3094    -3080    -3063    -3040    -3018    -2999 
   -2971    -2936    -2906    -2875    -2837    -2802    -2767    -2724 
   -2679    -2639    -2597    -2552    -2506    -2459    -2408    -2354 
   -2307    -2262    -2211    -2157    -2104    -2053    -2006    -1958 
   -1911    -1867    -1826    -1788    -1752    -1722    -1695    -1672 
   -1658    -1649    -1642    -1644    -1652    -1665    -1682    -1709 
   -1742    -1780    -1825    -1877    -1930    -1984    -2045    -2111 
   -2181    -2250    -2323    -2396    -2469    -2542    -2613    -2690 
   -2766    -2836    -2905    -2974    -3036    -3098    -3159    -3217 
   -3271    -3321    -3366    -3407    -3443    -3474    -3501    -3523 
   -3537    -3547    -3558    -3562    -3561    -3553    -3543    -3530 
   -3511    -3488    -3462    -3429    -3393    -3362    -3322    -3276 
   -3232    -3184    -3127    -3073    -3025    -2972    -2914    -2859 
   -2803    -2748    -2695    -2650    -2598    -2548    -2505    -2463 
   -2423    -2389    -2362    -2338    -2315    -2292    -2277    -2269 
   -2266    -2266    -2272    -2278    -2290    -2311    -2334    -2357 
   -2385    -2421    -2461    -2501    -2544    -2586    -2631    -2681 
   -2733    -2783    -2832    -2882    -2937    -2988    -3033    -3082 
   -3133    -3173    -3208    -3248    -3281    -3311    -3339    -3365 
   -3384    -3403    -3419    -3426    -3431    -3435    -3433    -3426 
   -3418    -3407    -3388    -3366    -3352    -3330    -3298    -3267 
   -3235    -3198    -3161    -3123    -3082    -3045    -3007    -2963 
   -2920    -2882    -2841    -2797    -2756    -2718    -2679    -2641 
   -2609    -2577    -2539    -2506    -2479    -2451    -2425    -2405 
   -2385    -2369    -2361    -2355    -2351    -2355    -2365    -2370 
   -2381    -2403    -2423    -2442    -2467    -2497    -2525    -2551 
   -2582    -2613    -2647    -2681    -2710    -2737    -2766    -2790 
   -2811    -2832    -2851    -2866    -2874    -2880    -2886    -2887 
   -2886    -2882    -2879    -2874    -2862    -2847    -2836    -2824 
   -2806    -2782    -2758    -2735    -2712    -2688    -2663    -2635 
   -2608    -2579    -2548    -2517    -2490    -2463    -2434    -2407 
   -2381    -2349    -2322    -2301    -2277    -2250    -2227    -2205 
   -2182    -2165    -2154    -2139    -2124    -2111    -2097    -2092 
   -2088    -2077    -2076    -2077    -2072    -2073    -2081    -2084 
   -2087    -2091    -2095    -2098    -2107    -2120    -2133    -2142 
   -2153    -2170    -2187    -2201    -2220    -2242    -2258    -2274 
   -2295    -2315    -2336    -2359    -2380    -2397    -2419    -2438 
   -2455    -2475    -2497    -2515    -2532    -2546    -2559    -2575 
   -2589    -2604    -2614    -2623    -2633    -2641    -2650    -2656 
   -2656    -2656    -2660    -2654    -2647    -2651    -2648    -2641 
   -2635    -2629    -2624    -2616    -2609    -2605    -2598    -2593 
   -2590    -2586    -2583    -2583    -2581    -2575    -2573    -2570 
   -2565    -2558    -2554    -2546    -2533    -2520    -2505    -2486 
   -2471    -2455    -2434    -2413    -2397    -2373    -2349    -2328 
