Origin Time       2016/04/16 01:25:00
Lat.              32.753
Long.             130.762
Depth. (km)       12
Mag.              7.3
Station Code      FKI008
Station Lat.      35.5479
Station Long.     135.9084
Station Height(m) 13
Record Time       2016/04/16 01:27:54
Sampling Freq(Hz) 100Hz
Duration Time(s)  61
Dir.              N-S
Scale Factor      7845(gal)/8223790
Max. Acc. (gal)   2.743
Last Correction   2016/04/16 01:27:55
Memo.             
[...]
    3217     3222     3225     3234     3234     3237     3248     3252 
    3253     3256     3245     3231     3227     3226     3219     3207 
    3199     3200     3198     3180     3157     3142     3138     3138 
    3121     3103     3096     3080     3059     3040     3019     3007 
    2992     2967     2948     2933     2917     2901     2882     2862 
    2855     2853     2848     2840     2832     2837     2852     2855 
    2849     2849     2853     2857     2866     2870     2863     2860 
    2872     2890     2891     2882     2882     2893     2899     2903 
    2910     2920     2925     2929     2937     2941     2941     2952 
    2970     2980     2982     2972     2967     2980     2998     2998 
    2983     2971     2975     2983     2978     2961     2944     2938 
    2944     2947     2934     2920     2917     2911     2899     2891 
    2887     2886     2889     2886     2878     2872     2870     2868 
    2879     2894     2906     2910     2911     2917     2933     2952 
    2959     2964     2983     3006     3014     3010     3018     3038 
    3044     3046     3053     3051     3053     3060     3053     3046 
    3051     3053     3040     3022     3019     3022     3009     2992 
    2984     2970     2951     2943     2936     2917     2895     2875 
    2857     2840     2833     2837     2821     2785     2763     2759 
    2749     2744     2745     2740     2727     2717     2724     2733 
    2736     2740     2752     2764     2774     2785     2801     2810 
    2809     2816     2839     2863     2875     2875     2880     2890 
    2899     2907     2918     2930     2932     2929     2938     2943 
    2934     2936     2938     2932     2936     2945     2932     2913 
    2913     2915     2909     2898     2894     2902     2907     2889 
    2870     2880     2899     2903     2901     2902     2903     2901 
    2898     2903     2918     2932     2934     2929     2930     2948 
    2965     2965     2964     2978     2997     3005     3015     3022 
    3017     3024     3046     3056     3057     3064     3059     3051 
    3059     3071     3071     3061     3056     3065     3071     3063 
    3057     3064     3065     3060     3069     3078     3067     3061 
    3069     3076     3087     3095     3084     3075     3082     3094 
    3100     3103     3106     3109     3109     3114     3130     3142 
    3130     3113     3121     3138     3148     3148     3138     3121 
    3115     3125     3127     3117     3100     3094     3094     3088 
    3076     3071     3069     3060     3048     3036     3026     3034 
    3037     3010     2991     2995     3001     2999     3002     3005 
    2999     2999     3017     3028     3022     3032     3053     3051 
    3046     3064     3080     3084     3088     3090     3087     3098 
    3109     3099     3078     3068     3076     3083     3064     3034 
    3019     3011     2997     2983     2965     2938     2915     2901 
    2887     2874     2863     2851     2828     2801     2785     2776 
    2767     2752     2739     2731     2721     2716     2706     2688 
    2678     2685     2688     2682     2682     2686     2675     2671 
    2685     2694     2695     2702     2713     2721     2732     2751 
    2772     2783     2789     2802     2828     2847     2857     2870 
    2889     2903     2909     2911     2925     2940     2941     2938 
    2933     2933     2947     2959     2957     2951     2945     2943 
    2941     2941     2943     2940     2941     2951     2947     2929 
    2925     2938     2944     2936     2926     2924     2925     2918 
    2905     2887     2875     2878     2878     2857     2837     2825 
    2813     2806     2799     2779     2762     2763     2771     2767 
    2755     2752     2764     2776     2782     2797     2825     2849 
    2866     2886     2910     2937     2967     2991     3001     3011 
    3032     3056     3071     3071     3068     3069     3082     3090 
    3086     3067     3055     3052     3040     3018     3006     2997 
    2976     2960     2956     2947     2933     2928     2928     2925 
    2925     2926     2922     2926     2945     2956     2952     2964 
    2986     2999     3007     3028     3053     3073     3090     3107 
    3126     3144     3171     3200     3217     3229     3253     3277 
    3288     3307     3339     3361     3377     3396     3414     3435 
    3462     3492     3515     3522     3532     3553     3566     3578 
    3595     3605     3608     3600     3589     3591     3600     3604 
    3592     3559     3526     3515     3527     3530     3515     3484 
    3445     3416     3424     3445     3435     3385     3336     3327 
    3335     3326     3298     3264     3234     3217     3213     3198 
    3156     3115     3102     3100     3087     3049     2999     2963 
    2947     2944     2933     2903     2863     2826     2805     2809 
    2821     2805     2744     2693     2698     2720     2706     2667 
    2631     2610     2600     2584     2567     2555     2528     2494 
    2479     2477     2461     2434     2413     2411     2405     2388 
    2369     2350     2336     2340     2349     2346     2338     2338 
    2340     2340     2347     2363     2366     2359     2370     2394 
    2404     2408     2425     2442     2442     2452     2479     2498 
    2502     2516     2544     2573     2593     2612     2639     2669 
    2697     2732     2770     2797     2821     2853     2887     2925 
    2961     2991     3013     3033     3064     3094     3114     3136 
    3154     3157     3163     3184     3202     3206     3213     3223 
    3229     3235     3246     3260     3275     3292     3308     3319 
    3327     3349     3377     3392     3403     3424     3445     3458 
    3476     3491     3499     3519     3546     3557     3561     3576 
    3593     3595     3592     3607     3624     3626     3627     3638 
    3640     3638     3649     3659     3653     3650     3659     3665 
    3655     3653     3663     3665     3657     3658     3661     3653 
    3639     3628     3620     3611     3605     3597     3574     3539 
    3510     3495     3487     3472     3450     3420     3388     3369 
    3361     3343     3325     3310     3292     3276     3265     3252 
    3238     3232     3231     3232     3232     3225     3213     3208 
    3210     3223     3235     3231     3219     3207     3196     3194 
    3194     3194     3188     3169     3142     3125     3121     3111 
    3090     3067     3042     3022     3013     2999     2978     2948 
    2909     2874     2863     2879     2884     2856     2816     2789 
    2779     2781     2770     2732     2694     2690     2702     2694 
    2659     2617     2587     2590     2616     2609     2550     2493 
    2488     2520     2544     2542     2508     2446     2401     2416 
    2461     2488     2469     2424     2390     2376     2382     2390 
    2378     2361     2354     2342     2312     2278     2258     2253 
    2263     2281     2273     2215     2149     2126     2144     2169 
    2181     2174     2147     2110     2091     2107     2138     2165 
    2182     2174     2154     2155     2185     2230     2270     2292 
    2292     2284     2297     2342     2392     2431     2465     2485 
    2496     2521     2565     2609     2646     2679     2705     2731 
    2766     2801     2826     2852     2882     2906     2920     2933 
    2947     2963     2984     2998     2994     2983     2974     2978 
    2984     2978     2960     2944     2928     2913     2902     2896 
    2882     2863     2853     2837     2818     2811     2809     2802 
    2794     2787     2782     2778     2782     2790     2798     2803 
    2809     2816     2818     2824     2839     2849     2849     2851 
    2856     2860     2856     2851     2844     2833     2821     2818 
    2809     2791     2774     2755     2733     2709     2691     2677 
    2659     2640     2625     2606     2590     2582     2577     2573 
    2571     2571     2573     2577     2583     2596     2604     2612 
    2628     2647     2656     2660     2674     2695     2708     2717 
    2739     2748     2743     2751     2772     2778     2779     2791 
    2803     2808     2817     2833     2843     2852     2872     2895 
    2909     2925     2951     2974     2994     3017     3045     3073 
    3100     3130     3160     3184     3213     3245     3273     3298 
    3329     3358     3380     3406     3435     3459     3481     3504 
    3526     3539     3554     3574     3593     3604     3623     3643 
    3653     3665     3686     3704     3713     3730     3755     3773 
    3784     3802     3827     3838     3851     3875     3896     3908 
    3925     3944     3954     3964     3983     3997     4003     4009 
    4016     4017     4020     4020     4017     4009     3998     3990 
    3983     3971     3960     3950     3937     3924     3910     3905 
    3898     3890     3885     3875     3861     3859     3861     3855 
    3848     3850     3854     3852     3844     3835     3828     3825 
    3821     3817     3801     3782     3774     3771     3762     3755 
    3743     3727     3713     3703     3699     3700     3696     3684 
    3674     3667     3673     3674     3663     3661     3667     3672 
    3669     3662     3657     3659     3663     3669     3669     3661 
    3651     3645     3638     3631     3618     3607     3595     3574 
    3559     3546     3527     3504     3478     3453     3426     3400 
    3380     3352     3322     3298     3268     3232     3207     3184 
    3153     3121     3095     3069     3037     3007     2980     2948 
    2911     2882     2856     2821     2786     2759     2728     2687 
    2650     2614     2574     2533     2498     2461     2417     2370 
    2335     2303     2262     2226     2191     2151     2116     2088 
    2058     2026     1998     1977     1960     1941     1927     1922 
    1917     1917     1925     1934     1941     1958     1984     2010 
    2039     2074     2115     2155     2196     2243     2289     2335 
    2392     2450     2501     2558     2623     2682     2744     2811 
    2875     2936     2999     3063     3122     3176     3226     3283 
    3336     3384     3431     3474     3511     3549     3585     3619 
    3651     3681     3708     3731     3748     3766     3778     3785 
    3796     3804     3807     3809     3807     3800     3793     3789 
    3786     3778     3763     3747     3731     3713     3701     3689 
    3670     3651     3636     3620     3605     3593     3578     3566 
    3559     3549     3539     3530     3518     3510     3503     3492 
    3488     3487     3477     3469     3465     3464     3465     3466 
    3466     3465     3464     3462     3461     3453     3447     3443 
    3435     3423     3407     3391     3375     3362     3348     3331 
    3308     3284     3265     3249     3230     3208     3194     3175 
    3154     3137     3121     3103     3087     3071     3055     3037 
    3018     3006     2990     2971     2956     2941     2924     2906 
    2890     2871     2852     2839     2824     2799     2782     2771 
    2755     2729     2708     2694     2673     2648     2632     2616 
    2587     2565     2554     2528     2497     2477     2454     2419 
    2381     2351     2317     2280     2247     2214     2165     2120 
    2089     2050     2007     1969     1935     1902     1865     1833 
    1802     1769     1748     1734     1715     1695     1683     1674 
    1664     1663     1669     1677     1680     1684     1694     1709 
    1732     1761     1784     1796     1814     1849     1884     1910 
    1939     1975     2004     2030     2060     2084     2102     2128 
    2158     2184     2205     2231     2261     2285     2309     2334 
    2357     2384     2417     2444     2466     2494     2532     2565 
    2584     2608     2640     2671     2698     2724     2745     2762 
    2781     2808     2828     2837     2848     2860     2871     2887 
    2906     2922     2930     2937     2949     2965     2979     2998 
    3021     3037     3053     3075     3095     3115     3144     3171 
    3194     3219     3244     3267     3291     3314     3335     3358 
    3377     3395     3414     3426     3434     3443     3454     3464 
    3474     3483     3488     3492     3495     3496     3500     3505 
    3511     3515     3511     3511     3516     3515     3510     3514 
    3518     3505     3492     3491     3489     3483     3474     3469 
    3458     3439     3427     3414     3392     3372     3357     3335 
    3314     3298     3279     3252     3231     3222     3210     3194 
    3184     3180     3173     3165     3173     3183     3183     3191 
    3206     3213     3226     3244     3265     3284     3302     3325 
    3343     3364     3392     3418     3439     3458     3481     3507 
    3530     3554     3580     3600     3623     3655     3680     3701 
    3730     3767     3802     3828     3865     3906     3942     3979 
    4024     4068     4110     4156     4205     4255     4303     4355 
    4407     4457     4510     4563     4612     4662     4714     4765 
    4818     4872     4926     4978     5031     5089     5147     5202 
    5259     5317     5373     5425     5481     5536     5584     5632 
    5679     5724     5764     5795     5821     5846     5864     5877 
    5891     5892     5884     5879     5864     5838     5813     5783 
    5742     5703     5656     5602     5547     5486     5421     5360 
    5296     5225     5154     5084     5009     4931     4858     4785 
    4708     4634     4560     4477     4399     4326     4245     4159 
    4082     4001     3916     3834     3748     3658     3570     3484 
    3397     3307     3218     3130     3044     2956     2868     2782 
    2698     2613     2531     2451     2369     2289     2218     2146 
    2074     2006     1944     1878     1817     1763     1711     1656 
    1603     1557     1514     1475     1440     1408     1379     1356 
    1339     1324     1310     1304     1305     1308     1316     1328 
    1345     1366     1391     1425     1460     1497     1543     1588 
    1629     1680     1742     1800     1858     1923     1988     2053 
    2124     2201     2273     2343     2423     2505     2575     2650 
    2732     2810     2882     2960     3038     3106     3175     3252 
    3325     3387     3451     3523     3586     3643     3703     3757 
    3809     3856     3904     3944     3977     4009     4039     4060 
    4078     4094     4104     4109     4113     4116     4114     4106 
    4095     4090     4079     4063     4045     4029     4013     3994 
    3975     3956     3937     3919     3897     3874     3852     3831 
    3809     3785     3759     3736     3711     3688     3665     3642 
    3620     3601     3581     3559     3538     3522     3503     3484 
    3466     3449     3429     3407     3385     3365     3343     3317 
    3291     3264     3235     3208     3179     3145     3114     3078 
    3041     3009     2970     2932     2902     2866     2829     2799 
    2767     2732     2706     2681     2648     2624     2604     2582 
    2560     2546     2532     2520     2511     2505     2506     2512 
    2519     2535     2554     2573     2598     2627     2658     2694 
    2737     2781     2821     2867     2915     2959     3006     3060 
    3111     3156     3200     3244     3281     3316     3360     3402 
    3431     3457     3487     3511     3537     3566     3589     3607 
    3631     3655     3674     3690     3711     3734     3757     3776 
    3797     3819     3836     3856     3882     3902     3917     3936 
    3950     3954     3960     3975     3981     3975     3974     3974 
    3963     3951     3944     3932     3919     3904     3888     3866 
    3844     3827     3809     3786     3762     3743     3724     3701 
    3680     3657     3634     3613     3591     3561     3528     3497 
    3466     3431     3393     3355     3311     3260     3211     3165 
    3111     3053     2995     2933     2870     2809     2749     2686 
    2616     2550     2490     2428     2361     2299     2241     2174 
    2111     2057     1996     1938     1885     1833     1780     1729 
    1679     1632     1590     1548     1509     1474     1437     1404 
    1372     1343     1317     1300     1285     1269     1255     1251 
    1250     1247     1252     1260     1269     1282     1294     1308 
    1332     1356     1379     1408     1436     1463     1493     1525 
    1559     1594     1630     1664     1699     1738     1775     1810 
    1846     1885     1922     1956     1991     2026     2058     2098 
    2142     2173     2200     2234     2267     2297     2331     2366 
    2394     2424     2463     2500     2531     2565     2605     2644 
    2681     2721     2764     2799     2839     2886     2925     2957 
    2999     3041     3073     3103     3136     3169     3198     3222 
    3246     3265     3283     3303     3315     3322     3333     3343 
    3343     3341     3343     3341     3334     3331     3331     3326 
    3319     3319     3316     3312     3308     3308     3306     3299 
    3296     3298     3289     3276     3267     3253     3226     3202 
    3180     3150     3113     3076     3037     2991     2943     2895 
    2844     2789     2737     2687     2625     2569     2517     2458 
    2400     2354     2307     2258     2211     2165     2126     2089 
    2057     2034     2014     1989     1972     1960     1945     1939 
    1941     1939     1937     1934     1933     1933     1937     1944 
    1946     1945     1944     1946     1946     1939     1930     1925 
    1912     1898     1888     1877     1863     1845     1829     1813 
    1796     1777     1759     1738     1718     1707     1695     1674 
    1655     1634     1609     1594     1583     1566     1541     1516 
    1493     1475     1466     1456     1445     1437     1425     1416 
    1414     1414     1426     1445     1459     1476     1501     1533 
    1571     1613     1660     1715     1773     1831     1896     1956 
    2018     2088     2163     2232     2304     2377     2442     2502 
    2571     2644     2710     2772     2835     2893     2947     2998 
    3049     3095     3140     3183     3223     3256     3287     3326 
    3355     3377     3404     3427     3439     3451     3470     3484 
    3485     3488     3492     3491     3487     3487     3480     3468 
    3454     3439     3422     3402     3381     3360     3333     3304 
    3277     3245     3210     3179     3144     3099     3056     3019 
    2978     2928     2882     2841     2798     2756     2718     2681 
    2641     2609     2584     2555     2525     2509     2492     2466 
    2450     2438     2419     2401     2389     2374     2355     2334 
    2317     2299     2274     2254     2232     2207     2178     2151 
    2126     2092     2057     2026     1992     1956     1922     1892 
    1856     1822     1792     1760     1733     1711     1687     1665 
    1649     1634     1620     1611     1606     1599     1597     1598 
    1598     1605     1610     1617     1628     1640     1652     1665 
