Origin Time       2016/04/16 01:25:00
Lat.              32.753
Long.             130.762
Depth. (km)       12
Mag.              7.3
Station Code      FKI003
Station Lat.      36.0444
Station Long.     136.2279
Station Height(m) 9
Record Time       2016/04/16 01:28:10
Sampling Freq(Hz) 100Hz
Duration Time(s)  62
Dir.              N-S
Scale Factor      7845(gal)/8223790
Max. Acc. (gal)   3.047
Last Correction   2016/04/16 01:28:11
Memo.             
[...]
   -3763    -3823    -3888    -3958    -4027    -4102    -4185    -4268 
   -4360    -4455    -4545    -4639    -4746    -4852    -4955    -5066 
   -5178    -5292    -5410    -5526    -5643    -5765    -5881    -5992 
   -6112    -6226    -6334    -6447    -6554    -6658    -6768    -6870 
   -6968    -7068    -7159    -7246    -7337    -7418    -7495    -7573 
   -7641    -7703    -7766    -7816    -7860    -7908    -7944    -7974 
   -8005    -8023    -8035    -8055    -8064    -8063    -8063    -8058 
   -8048    -8040    -8020    -7994    -7973    -7943    -7903    -7870 
   -7831    -7785    -7738    -7685    -7631    -7574    -7514    -7449 
   -7380    -7306    -7230    -7149    -7061    -6975    -6883    -6786 
   -6686    -6583    -6480    -6378    -6273    -6160    -6052    -5945 
   -5833    -5722    -5611    -5501    -5398    -5296    -5189    -5090 
   -4999    -4904    -4818    -4741    -4664    -4592    -4534    -4477 
   -4423    -4382    -4347    -4314    -4293    -4278    -4263    -4261 
   -4261    -4261    -4271    -4293    -4309    -4332    -4365    -4399 
   -4436    -4476    -4517    -4561    -4608    -4653    -4703    -4757 
   -4807    -4858    -4909    -4953    -5000    -5051    -5093    -5134 
   -5175    -5211    -5242    -5273    -5301    -5324    -5346    -5362 
   -5375    -5389    -5398    -5405    -5416    -5422    -5429    -5441 
   -5452    -5460    -5475    -5491    -5505    -5524    -5541    -5559 
   -5583    -5605    -5626    -5653    -5678    -5701    -5727    -5753 
   -5779    -5810    -5840    -5863    -5890    -5922    -5946    -5967 
   -5988    -6008    -6027    -6044    -6060    -6073    -6081    -6091 
   -6097    -6102    -6104    -6107    -6103    -6095    -6087    -6077 
   -6069    -6058    -6043    -6030    -6014    -5994    -5976    -5956 
   -5933    -5915    -5899    -5876    -5854    -5834    -5814    -5795 
   -5776    -5753    -5732    -5713    -5694    -5676    -5656    -5638 
   -5623    -5607    -5589    -5571    -5559    -5548    -5537    -5526 
   -5513    -5501    -5497    -5491    -5483    -5479    -5478    -5475 
   -5472    -5471    -5471    -5471    -5474    -5478    -5481    -5486 
   -5494    -5503    -5513    -5521    -5530    -5539    -5545    -5552 
   -5552    -5552    -5552    -5552    -5549    -5544    -5544    -5539 
   -5525    -5516    -5510    -5498    -5489    -5485    -5475    -5466 
   -5458    -5443    -5433    -5431    -5421    -5409    -5405    -5398 
   -5391    -5394    -5393    -5387    -5390    -5391    -5390    -5393 
   -5398    -5401    -5405    -5409    -5409    -5406    -5406    -5404 
   -5400    -5397    -5391    -5381    -5370    -5358    -5341    -5324 
   -5302    -5275    -5248    -5221    -5192    -5163    -5131    -5096 
   -5065    -5031    -4993    -4962    -4931    -4896    -4868    -4845 
   -4820    -4803    -4788    -4774    -4772    -4774    -4781    -4792 
   -4806    -4823    -4852    -4880    -4911    -4950    -4988    -5024 
   -5069    -5109    -5150    -5197    -5244    -5289    -5337    -5385 
   -5427    -5474    -5521    -5562    -5603    -5645    -5687    -5727 
   -5765    -5800    -5838    -5872    -5904    -5940    -5968    -5996 
   -6027    -6057    -6084    -6110    -6139    -6170    -6201    -6228 
   -6259    -6290    -6322    -6356    -6397    -6438    -6484    -6531 
   -6579    -6631    -6686    -6744    -6805    -6866    -6929    -6993 
   -7056    -7122    -7191    -7254    -7321    -7387    -7449    -7510 
   -7570    -7626    -7682    -7734    -7776    -7821    -7865    -7898 
   -7929    -7956    -7974    -7992    -7997    -7996    -7993    -7981 
   -7956    -7931    -7903    -7865    -7823    -7774    -7722    -7668 
   -7608    -7542    -7476    -7406    -7334    -7261    -7187    -7110 
   -7029    -6945    -6864    -6789    -6708    -6627    -6548    -6462 
   -6372    -6293    -6210    -6120    -6038    -5952    -5863    -5779 
   -5692    -5603    -5521    -5440    -5358    -5279    -5204    -5128 
   -5058    -4993    -4928    -4866    -4811    -4757    -4707    -4664 
   -4623    -4584    -4552    -4523    -4495    -4473    -4456    -4436 
   -4423    -4419    -4414    -4413    -4419    -4430    -4440    -4456 
   -4480    -4506    -4533    -4568    -4606    -4650    -4695    -4746 
   -4803    -4861    -4920    -4985    -5054    -5127    -5200    -5273 
   -5348    -5431    -5513    -5594    -5676    -5756    -5831    -5906 
   -5980    -6053    -6119    -6181    -6239    -6293    -6342    -6384 
   -6420    -6454    -6484    -6504    -6523    -6539    -6546    -6547 
   -6547    -6539    -6527    -6516    -6501    -6481    -6465    -6446 
   -6424    -6405    -6382    -6356    -6332    -6307    -6277    -6251 
   -6227    -6197    -6166    -6137    -6104    -6069    -6038    -6006 
   -5972    -5933    -5896    -5861    -5826    -5791    -5753    -5715 
   -5676    -5636    -5598    -5562    -5525    -5486    -5448    -5418 
   -5387    -5356    -5327    -5300    -5273    -5252    -5233    -5221 
   -5215    -5209    -5206    -5208    -5212    -5223    -5239    -5256 
   -5278    -5309    -5337    -5366    -5406    -5448    -5495    -5548 
   -5602    -5656    -5717    -5776    -5838    -5906    -5971    -6034 
   -6103    -6172    -6237    -6300    -6367    -6432    -6498    -6567 
   -6632    -6696    -6762    -6821    -6876    -6937    -6995    -7047 
   -7102    -7155    -7202    -7254    -7304    -7354    -7406    -7454 
   -7496    -7542    -7585    -7623    -7662    -7699    -7732    -7763 
   -7792    -7816    -7835    -7852    -7869    -7878    -7888    -7894 
   -7893    -7888    -7881    -7870    -7859    -7848    -7832    -7813 
   -7796    -7773    -7749    -7723    -7693    -7662    -7632    -7597 
   -7561    -7524    -7481    -7437    -7395    -7346    -7294    -7241 
   -7184    -7125    -7061    -6994    -6926    -6856    -6782    -6709 
   -6632    -6552    -6478    -6405    -6323    -6247    -6178    -6108 
   -6037    -5968    -5902    -5841    -5783    -5729    -5678    -5625 
   -5579    -5537    -5498    -5463    -5432    -5398    -5367    -5346 
   -5320    -5296    -5275    -5254    -5233    -5215    -5188    -5164 
   -5147    -5121    -5093    -5074    -5050    -5023    -5003    -4977 
   -4951    -4930    -4903    -4874    -4850    -4827    -4801    -4779 
   -4758    -4737    -4720    -4708    -4691    -4676    -4666    -4653 
   -4644    -4635    -4630    -4629    -4625    -4615    -4614    -4615 
   -4612    -4615    -4615    -4614    -4618    -4621    -4621    -4626 
   -4630    -4633    -4642    -4652    -4657    -4664    -4673    -4681 
   -4688    -4699    -4714    -4730    -4745    -4762    -4779    -4795 
   -4814    -4833    -4849    -4866    -4884    -4901    -4922    -4939 
   -4954    -4968    -4985    -5003    -5017    -5030    -5042    -5057 
   -5070    -5081    -5097    -5116    -5131    -5147    -5167    -5189 
   -5211    -5235    -5260    -5286    -5312    -5339    -5374    -5404 
   -5435    -5470    -5499    -5530    -5566    -5597    -5630    -5665 
   -5694    -5726    -5763    -5791    -5815    -5846    -5875    -5899 
   -5926    -5950    -5971    -5994    -6012    -6027    -6042    -6054 
   -6061    -6066    -6066    -6064    -6057    -6049    -6039    -6022 
   -6002    -5981    -5953    -5921    -5887    -5849    -5807    -5767 
   -5719    -5672    -5625    -5570    -5513    -5460    -5406    -5348 
   -5289    -5229    -5171    -5116    -5058    -5000    -4941    -4884 
   -4828    -4769    -4710    -4653    -4598    -4541    -4488    -4438 
   -4388    -4338    -4291    -4243    -4197    -4155    -4112    -4068 
   -4032    -3996    -3960    -3928    -3896    -3869    -3846    -3820 
   -3804    -3792    -3775    -3766    -3761    -3755    -3755    -3763 
   -3771    -3782    -3800    -3820    -3847    -3877    -3905    -3940 
   -3982    -4023    -4068    -4117    -4167    -4223    -4283    -4342 
   -4407    -4473    -4542    -4614    -4688    -4764    -4842    -4922 
   -5005    -5093    -5177    -5259    -5348    -5433    -5513    -5597 
   -5680    -5759    -5837    -5917    -5996    -6072    -6142    -6211 
   -6277    -6343    -6407    -6465    -6524    -6578    -6631    -6683 
   -6729    -6770    -6809    -6844    -6870    -6897    -6921    -6937 
   -6948    -6957    -6961    -6959    -6955    -6947    -6930    -6909 
   -6886    -6858    -6821    -6781    -6736    -6687    -6633    -6574 
   -6511    -6443    -6374    -6301    -6224    -6139    -6054    -5968 
   -5876    -5779    -5683    -5584    -5479    -5377    -5273    -5166 
   -5059    -4951    -4841    -4733    -4625    -4513    -4407    -4305 
   -4197    -4094    -3994    -3897    -3801    -3708    -3619    -3532 
   -3446    -3368    -3295    -3222    -3156    -3092    -3028    -2970 
   -2917    -2870    -2826    -2786    -2748    -2716    -2687    -2663 
   -2646    -2629    -2617    -2613    -2610    -2613    -2621    -2632 
   -2646    -2666    -2686    -2712    -2747    -2781    -2816    -2859 
   -2907    -2956    -3009    -3065    -3122    -3184    -3256    -3326 
   -3395    -3474    -3558    -3640    -3726    -3813    -3901    -3994 
   -4088    -4182    -4283    -4387    -4484    -4583    -4683    -4781 
   -4881    -4981    -5073    -5164    -5256    -5344    -5427    -5509 
   -5584    -5659    -5730    -5793    -5854    -5911    -5962    -6011 
   -6057    -6096    -6131    -6164    -6189    -6211    -6230    -6247 
   -6262    -6273    -6278    -6281    -6280    -6276    -6270    -6262 
   -6250    -6239    -6231    -6218    -6197    -6180    -6164    -6143 
   -6127    -6110    -6085    -6060    -6039    -6014    -5987    -5965 
   -5940    -5911    -5884    -5857    -5834    -5809    -5779    -5753 
   -5729    -5694    -5667    -5644    -5617    -5590    -5567    -5537 
   -5509    -5483    -5459    -5433    -5405    -5375    -5346    -5316 
   -5283    -5251    -5217    -5179    -5142    -5103    -5063    -5026 
   -4984    -4939    -4900    -4858    -4812    -4769    -4727    -4681 
   -4637    -4598    -4556    -4511    -4468    -4429    -4391    -4351 
   -4311    -4274    -4238    -4203    -4168    -4137    -4109    -4082 
   -4055    -4036    -4016    -3993    -3974    -3960    -3946    -3931 
   -3923    -3915    -3908    -3902    -3899    -3898    -3896    -3894 
   -3893    -3894    -3897    -3902    -3908    -3912    -3916    -3925 
   -3932    -3942    -3951    -3963    -3977    -3994    -4013    -4031 
   -4051    -4074    -4102    -4131    -4156    -4189    -4223    -4261 
   -4301    -4337    -4374    -4418    -4463    -4504    -4548    -4596 
   -4646    -4693    -4745    -4797    -4847    -4901    -4958    -5015 
   -5069    -5124    -5179    -5235    -5290    -5347    -5404    -5456 
   -5509    -5564    -5618    -5671    -5729    -5787    -5842    -5900 
   -5961    -6019    -6076    -6135    -6196    -6255    -6315    -6374 
   -6431    -6489    -6546    -6598    -6651    -6701    -6750    -6795 
   -6839    -6881    -6925    -6961    -6990    -7022    -7051    -7074 
   -7091    -7107    -7118    -7127    -7134    -7134    -7134    -7132 
   -7122    -7110    -7094    -7074    -7049    -7023    -6995    -6964 
   -6930    -6894    -6858    -6815    -6768    -6723    -6677    -6621 
   -6566    -6511    -6447    -6386    -6328    -6264    -6196    -6131 
   -6065    -5995    -5921    -5848    -5773    -5698    -5622    -5544 
   -5464    -5390    -5317    -5242    -5166    -5093    -5023    -4951 
   -4880    -4811    -4746    -4681    -4618    -4554    -4491    -4431 
   -4378    -4322    -4266    -4215    -4167    -4118    -4072    -4029 
   -3987    -3951    -3916    -3883    -3856    -3831    -3802    -3782 
   -3770    -3761    -3753    -3748    -3750    -3757    -3766    -3776 
   -3800    -3828    -3858    -3892    -3935    -3979    -4032    -4091 
   -4148    -4213    -4287    -4357    -4431    -4515    -4599    -4684 
   -4774    -4866    -4962    -5059    -5155    -5255    -5354    -5458 
   -5562    -5663    -5764    -5864    -5962    -6058    -6156    -6250 
   -6340    -6430    -6515    -6598    -6678    -6752    -6826    -6899 
   -6967    -7034    -7099    -7159    -7214    -7271    -7327    -7380 
   -7427    -7473    -7519    -7561    -7599    -7635    -7672    -7705 
   -7735    -7766    -7793    -7811    -7830    -7851    -7863    -7873 
   -7884    -7890    -7893    -7889    -7881    -7874    -7862    -7843 
   -7823    -7799    -7770    -7736    -7699    -7657    -7611    -7558 
   -7504    -7443    -7376    -7311    -7236    -7157    -7079    -6990 
   -6898    -6809    -6709    -6605    -6509    -6408    -6304    -6199 
   -6089    -5979    -5872    -5764    -5656    -5551    -5443    -5339 
   -5240    -5135    -5035    -4941    -4843    -4753    -4668    -4583 
   -4504    -4434    -4365    -4295    -4236    -4185    -4135    -4091 
   -4055    -4017    -3989    -3969    -3951    -3940    -3932    -3929 
   -3932    -3942    -3951    -3967    -3987    -4012    -4044    -4078 
   -4112    -4152    -4199    -4248    -4303    -4357    -4418    -4487 
   -4554    -4623    -4695    -4773    -4860    -4945    -5031    -5124 
   -5219    -5314    -5417    -5519    -5628    -5737    -5844    -5957 
   -6072    -6181    -6300    -6420    -6534    -6652    -6774    -6890 
   -7010    -7126    -7234    -7349    -7462    -7568    -7674    -7780 
   -7874    -7969    -8058    -8139    -8224    -8301    -8364    -8430 
   -8490    -8540    -8590    -8629    -8658    -8688    -8710    -8721 
   -8729    -8729    -8725    -8718    -8699    -8676    -8648    -8610 
   -8569    -8525    -8474    -8417    -8355    -8286    -8214    -8135 
   -8048    -7958    -7862    -7761    -7657    -7555    -7446    -7333 
   -7214    -7096    -6978    -6853    -6732    -6619    -6498    -6376 
   -6261    -6142    -6025    -5915    -5805    -5692    -5589    -5489 
   -5389    -5297    -5208    -5121    -5040    -4966    -4893    -4824 
   -4760    -4706    -4657    -4608    -4565    -4526    -4491    -4467 
   -4445    -4423    -4410    -4399    -4390    -4392    -4396    -4402 
   -4415    -4428    -4444    -4467    -4486    -4507    -4538    -4568 
   -4600    -4638    -4673    -4708    -4747    -4785    -4826    -4868 
   -4908    -4950    -4997    -5047    -5098    -5147    -5196    -5250 
   -5305    -5356    -5416    -5478    -5535    -5595    -5655    -5711 
   -5775    -5834    -5888    -5950    -6011    -6072    -6135    -6189 
   -6241    -6299    -6350    -6394    -6446    -6488    -6525    -6566 
   -6601    -6631    -6664    -6690    -6709    -6729    -6739    -6744 
   -6752    -6747    -6739    -6736    -6721    -6704    -6687    -6658 
   -6625    -6592    -6548    -6508    -6467    -6419    -6369    -6320 
   -6265    -6208    -6153    -6092    -6030    -5968    -5904    -5844 
   -5779    -5713    -5652    -5593    -5533    -5479    -5431    -5382 
   -5337    -5294    -5254    -5220    -5182    -5146    -5119    -5093 
   -5071    -5055    -5039    -5023    -5009    -5003    -4999    -4993 
   -4989    -4993    -4999    -5003    -5008    -5016    -5023    -5031 
   -5042    -5054    -5069    -5086    -5098    -5113    -5135    -5157 
   -5179    -5202    -5225    -5250    -5279    -5312    -5341    -5375 
   -5406    -5435    -5470    -5502    -5530    -5567    -5603    -5637 
   -5674    -5707    -5742    -5780    -5815    -5852    -5887    -5923 
   -5962    -6002    -6033    -6064    -6096    -6126    -6154    -6183 
   -6208    -6237    -6265    -6285    -6307    -6327    -6342    -6356 
   -6370    -6380    -6389    -6396    -6400    -6400    -6400    -6396 
   -6389    -6378    -6365    -6347    -6327    -6301    -6278    -6252 
   -6222    -6192    -6160    -6119    -6080    -6038    -5995    -5953 
   -5907    -5856    -5811    -5767    -5718    -5671    -5621    -5568 
   -5519    -5472    -5427    -5379    -5332    -5286    -5244    -5204 
   -5169    -5131    -5092    -5057    -5027    -4997    -4969    -4946 
   -4923    -4903    -4887    -4864    -4846    -4837    -4822    -4812 
   -4810    -4803    -4797    -4795    -4788    -4785    -4789    -4789 
   -4791    -4797    -4796    -4796    -4803    -4804    -4804    -4808 
   -4803    -4801    -4804    -4796    -4789    -4785    -4774    -4768 
   -4761    -4748    -4739    -4725    -4708    -4698    -4683    -4665 
   -4653    -4637    -4617    -4599    -4583    -4564    -4546    -4530 
   -4510    -4490    -4469    -4452    -4436    -4415    -4396    -4380 
   -4363    -4349    -4337    -4320    -4303    -4294    -4284    -4274 
   -4263    -4256    -4251    -4247    -4243    -4243    -4243    -4245 
   -4253    -4260    -4268    -4283    -4303    -4325    -4344    -4369 
   -4399    -4430    -4468    -4507    -4545    -4591    -4641    -4693 
   -4748    -4807    -4870    -4936    -5001    -5066    -5134    -5201 
   -5273    -5352    -5425    -5498    -5572    -5644    -5715    -5791 
   -5864    -5938    -6015    -6084    -6148    -6218    -6284    -6347 
   -6413    -6470    -6523    -6577    -6628    -6677    -6720    -6756 
   -6791    -6824    -6848    -6871    -6897    -6914    -6924    -6930 
   -6937    -6940    -6934    -6922    -6909    -6894    -6875    -6855 
   -6829    -6799    -6767    -6731    -6689    -6647    -6604    -6558 
   -6512    -6459    -6405    -6350    -6290    -6230    -6168    -6099 
   -6029    -5960    -5886    -5813    -5741    -5664    -5584    -5506 
   -5424    -5341    -5263    -5181    -5096    -5015    -4932    -4846 
   -4768    -4687    -4602    -4523    -4448    -4367    -4291    -4218 
   -4147    -4081    -4016    -3950    -3893    -3838    -3780    -3727 
   -3678    -3632    -3596    -3557    -3520    -3496    -3466    -3437 
   -3420    -3407    -3392    -3388    -3388    -3388    -3395    -3404 
   -3418    -3445    -3468    -3489    -3523    -3557    -3593    -3639 
   -3684    -3731    -3786    -3840    -3896    -3958    -4017    -4078 
   -4147    -4215    -4279    -4347    -4417    -4483    -4550    -4615 
   -4679    -4747    -4819    -4884    -4945    -5004    -5066    -5124 
   -5178    -5232    -5286    -5336    -5385    -5433    -5476    -5517 
   -5562    -5601    -5636    -5671    -5703    -5732    -5760    -5787 
   -5811    -5837    -5863    -5883    -5899    -5914    -5930    -5949 
   -5962    -5979    -5999    -6012    -6027    -6044    -6057    -6072 
   -6091    -6108    -6123    -6142    -6158    -6172    -6189    -6208 
   -6223    -6239    -6254    -6266    -6280    -6295    -6308    -6322 
   -6332    -6338    -6343    -6350    -6354    -6356    -6355    -6355 
   -6354    -6349    -6339    -6331    -6319    -6303    -6289    -6274 
   -6259    -6241    -6216    -6189    -6168    -6146    -6122    -6097 
   -6069    -6042    -6016    -5984    -5952    -5921    -5886    -5853 
   -5823    -5784    -5745    -5711    -5679    -5645    -5613    -5580 
   -5544    -5510    -5478    -5447    -5417    -5389    -5360    -5339 
   -5317    -5290    -5270    -5254    -5238    -5229    -5223    -5215 
   -5215    -5215    -5215    -5221    -5228    -5238    -5252    -5266 
   -5278    -5294    -5312    -5331    -5354    -5375    -5398    -5418 
   -5435    -5454    -5472    -5487    -5502    -5517    -5530    -5541 
   -5548    -5552    -5559    -5563    -5559    -5556    -5552    -5543 
   -5530    -5518    -5502    -5485    -5467    -5448    -5427    -5404 
