Origin Time       2016/04/16 01:25:00
Lat.              32.753
Long.             130.762
Depth. (km)       12
Mag.              7.3
Station Code      FKI004
Station Lat.      35.9789
Station Long.     136.4865
Station Height(m) 175
Record Time       2016/04/16 01:28:09
Sampling Freq(Hz) 100Hz
Duration Time(s)  60
Dir.              N-S
Scale Factor      7845(gal)/8223790
Max. Acc. (gal)   1.157
Last Correction   2016/04/16 01:28:10
Memo.             
[...]
  -13329   -13321   -13320   -13314   -13314   -13321   -13316   -13309 
  -13309   -13298   -13284   -13281   -13285   -13278   -13270   -13266 
  -13255   -13246   -13246   -13242   -13236   -13238   -13235   -13227 
  -13223   -13216   -13212   -13211   -13201   -13193   -13185   -13177 
  -13171   -13172   -13167   -13158   -13153   -13151   -13150   -13146 
  -13132   -13123   -13124   -13123   -13120   -13115   -13109   -13106 
  -13101   -13095   -13092   -13093   -13092   -13086   -13080   -13069 
  -13063   -13065   -13061   -13053   -13043   -13035   -13030   -13024 
  -13019   -13016   -13009   -13001   -12997   -12989   -12978   -12970 
  -12969   -12969   -12964   -12954   -12950   -12950   -12953   -12954 
  -12947   -12945   -12954   -12961   -12958   -12961   -12968   -12972 
  -12973   -12978   -12982   -12989   -13000   -13003   -13004   -13011 
  -13018   -13030   -13046   -13055   -13062   -13066   -13073   -13085 
  -13099   -13111   -13122   -13132   -13143   -13151   -13161   -13172 
  -13188   -13207   -13224   -13232   -13242   -13255   -13271   -13288 
  -13293   -13297   -13313   -13332   -13343   -13344   -13351   -13365 
  -13377   -13385   -13393   -13396   -13394   -13397   -13400   -13402 
  -13400   -13390   -13387   -13387   -13380   -13370   -13355   -13338 
  -13329   -13319   -13301   -13289   -13267   -13238   -13220   -13204 
  -13182   -13162   -13142   -13115   -13084   -13058   -13041   -13023 
  -12995   -12961   -12933   -12908   -12885   -12865   -12843   -12818 
  -12789   -12768   -12753   -12733   -12715   -12702   -12683   -12667 
  -12654   -12642   -12631   -12626   -12622   -12611   -12594   -12586 
  -12592   -12598   -12594   -12587   -12590   -12594   -12596   -12599 
  -12599   -12602   -12609   -12614   -12617   -12618   -12623   -12633 
  -12636   -12631   -12630   -12630   -12633   -12633   -12631   -12633 
  -12627   -12621   -12622   -12619   -12610   -12603   -12596   -12590 
  -12584   -12573   -12569   -12564   -12548   -12534   -12522   -12510 
  -12501   -12488   -12472   -12453   -12437   -12424   -12410   -12399 
  -12388   -12376   -12361   -12349   -12344   -12336   -12326   -12320 
  -12313   -12306   -12305   -12306   -12307   -12314   -12314   -12313 
  -12324   -12333   -12340   -12351   -12360   -12370   -12380   -12388 
  -12398   -12413   -12432   -12453   -12461   -12465   -12487   -12511 
  -12526   -12544   -12563   -12579   -12599   -12622   -12642   -12664 
  -12685   -12710   -12735   -12761   -12784   -12807   -12837   -12868 
  -12892   -12920   -12949   -12982   -13018   -13046   -13073   -13104 
  -13139   -13180   -13212   -13232   -13254   -13288   -13328   -13363 
  -13392   -13421   -13452   -13481   -13509   -13537   -13562   -13594 
  -13635   -13664   -13686   -13709   -13737   -13768   -13792   -13819 
  -13848   -13869   -13898   -13925   -13937   -13946   -13969   -13999 
  -14018   -14021   -14025   -14035   -14046   -14054   -14062   -14075 
  -14087   -14092   -14089   -14085   -14089   -14094   -14092   -14090 
  -14089   -14087   -14083   -14080   -14076   -14064   -14050   -14040 
  -14031   -14017   -13991   -13965   -13942   -13929   -13914   -13880 
  -13846   -13826   -13803   -13773   -13744   -13713   -13683   -13664 
  -13641   -13606   -13570   -13541   -13518   -13495   -13468   -13437 
  -13410   -13385   -13358   -13325   -13298   -13281   -13255   -13216 
  -13182   -13155   -13127   -13101   -13076   -13041   -13005   -12977 
  -12950   -12923   -12892   -12854   -12822   -12799   -12773   -12745 
  -12712   -12677   -12649   -12625   -12595   -12561   -12534   -12511 
  -12487   -12457   -12424   -12395   -12371   -12345   -12318   -12290 
  -12266   -12244   -12221   -12198   -12172   -12152   -12135   -12116 
  -12101   -12083   -12066   -12055   -12044   -12029   -12017   -12006 
  -11998   -11996   -11992   -11986   -11977   -11974   -11983   -11996 
  -12000   -12000   -12005   -12023   -12039   -12052   -12073   -12094 
  -12110   -12131   -12164   -12198   -12229   -12259   -12297   -12339 
  -12383   -12426   -12472   -12522   -12569   -12614   -12667   -12723 
  -12779   -12831   -12883   -12933   -12988   -13053   -13115   -13169 
  -13215   -13265   -13321   -13378   -13432   -13483   -13529   -13574 
  -13621   -13668   -13709   -13748   -13788   -13828   -13864   -13899 
  -13930   -13952   -13977   -14011   -14034   -14050   -14072   -14089 
  -14102   -14113   -14127   -14139   -14154   -14164   -14160   -14148 
  -14146   -14153   -14152   -14137   -14125   -14118   -14110   -14096 
  -14073   -14047   -14031   -14021   -14003   -13973   -13941   -13918 
  -13900   -13871   -13837   -13817   -13791   -13756   -13734   -13709 
  -13666   -13637   -13621   -13597   -13563   -13536   -13512   -13489 
  -13471   -13446   -13423   -13409   -13396   -13380   -13362   -13339 
  -13324   -13321   -13317   -13298   -13281   -13274   -13265   -13257 
  -13244   -13228   -13212   -13203   -13190   -13176   -13163   -13146 
  -13126   -13112   -13095   -13066   -13042   -13023   -13003   -12977 
  -12946   -12920   -12900   -12876   -12847   -12814   -12779   -12756 
  -12739   -12710   -12676   -12650   -12631   -12613   -12583   -12556 
  -12536   -12513   -12491   -12474   -12456   -12439   -12422   -12410 
  -12398   -12384   -12375   -12363   -12353   -12351   -12347   -12344 
  -12340   -12334   -12336   -12339   -12340   -12341   -12344   -12347 
  -12347   -12353   -12363   -12370   -12376   -12383   -12388   -12396 
  -12406   -12418   -12429   -12442   -12455   -12465   -12479   -12494 
  -12507   -12528   -12542   -12548   -12565   -12591   -12609   -12621 
  -12634   -12650   -12664   -12677   -12691   -12707   -12725   -12734 
  -12742   -12758   -12775   -12787   -12799   -12807   -12811   -12815 
  -12822   -12834   -12845   -12847   -12843   -12842   -12845   -12845 
  -12842   -12839   -12833   -12833   -12835   -12827   -12814   -12807 
  -12804   -12796   -12791   -12783   -12772   -12766   -12762   -12756 
  -12746   -12741   -12741   -12739   -12731   -12722   -12717   -12721 
  -12722   -12719   -12711   -12708   -12708   -12699   -12690   -12685 
  -12683   -12683   -12680   -12675   -12668   -12663   -12656   -12652 
  -12650   -12644   -12633   -12623   -12618   -12617   -12617   -12611 
  -12606   -12602   -12596   -12592   -12592   -12592   -12591   -12588 
  -12584   -12583   -12581   -12579   -12575   -12576   -12581   -12586 
  -12588   -12594   -12602   -12611   -12618   -12625   -12638   -12649 
  -12657   -12676   -12695   -12710   -12731   -12754   -12768   -12785 
  -12814   -12837   -12854   -12876   -12898   -12919   -12935   -12953 
  -12972   -12993   -13011   -13024   -13035   -13050   -13066   -13077 
  -13085   -13096   -13103   -13106   -13116   -13122   -13120   -13120 
  -13119   -13117   -13112   -13105   -13096   -13082   -13068   -13051 
  -13036   -13026   -13009   -12984   -12957   -12934   -12910   -12880 
  -12850   -12822   -12793   -12760   -12727   -12700   -12671   -12638 
  -12613   -12586   -12552   -12523   -12495   -12467   -12449   -12429 
  -12401   -12382   -12366   -12345   -12332   -12326   -12320   -12316 
  -12314   -12314   -12320   -12328   -12339   -12352   -12359   -12375 
  -12402   -12425   -12448   -12476   -12507   -12540   -12575   -12611 
  -12650   -12691   -12727   -12769   -12814   -12853   -12893   -12942 
  -12987   -13026   -13068   -13112   -13159   -13205   -13250   -13297 
  -13340   -13379   -13419   -13460   -13501   -13536   -13571   -13605 
  -13630   -13657   -13691   -13721   -13736   -13748   -13765   -13787 
  -13796   -13801   -13809   -13813   -13810   -13810   -13809   -13801 
  -13787   -13779   -13776   -13757   -13738   -13728   -13709   -13683 
  -13671   -13652   -13617   -13585   -13562   -13539   -13516   -13487 
  -13454   -13428   -13404   -13373   -13342   -13312   -13286   -13265 
  -13238   -13207   -13182   -13155   -13131   -13113   -13090   -13065 
  -13049   -13036   -13023   -13011   -12996   -12980   -12976   -12977 
  -12966   -12957   -12954   -12953   -12951   -12957   -12962   -12964 
  -12966   -12972   -12973   -12972   -12980   -12992   -12997   -12996 
  -12993   -12995   -12999   -13001   -13001   -12996   -12992   -12992 
  -12988   -12978   -12969   -12961   -12954   -12946   -12928   -12908 
  -12892   -12873   -12853   -12834   -12812   -12791   -12766   -12737 
  -12708   -12680   -12657   -12627   -12598   -12571   -12541   -12507 
  -12480   -12455   -12425   -12393   -12367   -12348   -12325   -12302 
  -12285   -12266   -12245   -12229   -12216   -12205   -12197   -12185 
  -12174   -12167   -12166   -12167   -12172   -12174   -12172   -12172 
  -12177   -12187   -12204   -12221   -12235   -12239   -12247   -12266 
  -12285   -12299   -12318   -12343   -12363   -12378   -12396   -12420 
  -12444   -12471   -12494   -12514   -12537   -12563   -12588   -12611 
  -12637   -12660   -12680   -12703   -12717   -12731   -12756   -12776 
  -12787   -12798   -12810   -12820   -12827   -12830   -12829   -12830 
  -12833   -12833   -12829   -12819   -12808   -12806   -12803   -12793 
  -12783   -12771   -12758   -12750   -12738   -12726   -12719   -12712 
  -12703   -12692   -12680   -12673   -12673   -12673   -12669   -12667 
  -12658   -12661   -12672   -12676   -12677   -12684   -12691   -12703 
  -12717   -12727   -12739   -12760   -12779   -12791   -12798   -12812 
  -12833   -12860   -12883   -12893   -12907   -12928   -12953   -12974 
  -12989   -13007   -13030   -13050   -13068   -13086   -13109   -13134 
  -13155   -13171   -13185   -13200   -13219   -13242   -13254   -13263 
  -13277   -13285   -13298   -13311   -13313   -13320   -13324   -13329 
  -13343   -13346   -13339   -13343   -13350   -13347   -13350   -13355 
  -13356   -13355   -13356   -13358   -13356   -13360   -13366   -13370 
  -13373   -13371   -13371   -13375   -13385   -13390   -13393   -13400 
  -13408   -13412   -13413   -13416   -13420   -13427   -13436   -13443 
  -13446   -13451   -13460   -13471   -13477   -13479   -13482   -13486 
  -13497   -13506   -13508   -13512   -13520   -13524   -13528   -13532 
  -13536   -13543   -13547   -13545   -13547   -13552   -13554   -13548 
  -13544   -13544   -13541   -13541   -13543   -13539   -13533   -13532 
  -13531   -13532   -13529   -13522   -13521   -13520   -13518   -13520 
  -13517   -13513   -13508   -13504   -13502   -13502   -13498   -13493 
  -13487   -13477   -13467   -13468   -13471   -13463   -13451   -13443 
  -13441   -13443   -13440   -13432   -13427   -13423   -13420   -13413 
  -13410   -13406   -13401   -13397   -13393   -13392   -13392   -13385 
  -13377   -13374   -13371   -13363   -13355   -13350   -13347   -13340 
  -13327   -13314   -13312   -13304   -13294   -13284   -13273   -13261 
  -13251   -13242   -13231   -13221   -13205   -13188   -13174   -13162 
  -13151   -13139   -13124   -13112   -13099   -13082   -13069   -13058 
  -13046   -13034   -13024   -13012   -13000   -12992   -12985   -12981 
  -12976   -12970   -12970   -12972   -12970   -12973   -12977   -12982 
  -12988   -12995   -13003   -13012   -13022   -13030   -13042   -13054 
  -13068   -13080   -13092   -13100   -13108   -13123   -13142   -13153 
  -13158   -13161   -13165   -13177   -13188   -13190   -13190   -13188 
  -13190   -13197   -13192   -13185   -13189   -13192   -13188   -13181 
  -13171   -13165   -13165   -13163   -13154   -13142   -13135   -13136 
  -13135   -13128   -13123   -13120   -13117   -13116   -13113   -13112 
  -13115   -13119   -13124   -13122   -13113   -13119   -13134   -13144 
  -13147   -13149   -13155   -13165   -13172   -13184   -13190   -13193 
  -13203   -13219   -13228   -13228   -13236   -13257   -13273   -13278 
  -13285   -13300   -13309   -13312   -13320   -13331   -13340   -13351 
  -13359   -13360   -13360   -13360   -13365   -13370   -13374   -13375 
  -13363   -13351   -13350   -13346   -13340   -13338   -13327   -13313 
  -13301   -13285   -13265   -13248   -13243   -13236   -13219   -13194 
  -13172   -13157   -13147   -13132   -13112   -13096   -13085   -13063 
  -13045   -13039   -13030   -13015   -12999   -12988   -12984   -12978 
  -12964   -12953   -12953   -12949   -12934   -12921   -12921   -12920 
  -12910   -12897   -12888   -12885   -12885   -12881   -12866   -12852 
  -12846   -12842   -12838   -12833   -12822   -12816   -12811   -12804 
  -12795   -12787   -12781   -12784   -12788   -12783   -12773   -12771 
  -12772   -12777   -12779   -12779   -12784   -12795   -12799   -12800 
  -12812   -12835   -12855   -12874   -12893   -12907   -12921   -12951 
  -12988   -13018   -13042   -13068   -13101   -13142   -13181   -13215 
  -13247   -13281   -13323   -13365   -13402   -13437   -13473   -13514 
  -13555   -13593   -13626   -13664   -13706   -13740   -13768   -13803 
  -13837   -13861   -13899   -13934   -13945   -13960   -13991   -14014 
  -14029   -14038   -14052   -14067   -14077   -14080   -14076   -14079 
  -14080   -14077   -14071   -14060   -14050   -14041   -14031   -14025 
  -14017   -14003   -13988   -13971   -13957   -13948   -13940   -13933 
  -13926   -13911   -13896   -13892   -13892   -13887   -13888   -13887 
  -13878   -13878   -13891   -13899   -13903   -13911   -13915   -13926 
  -13946   -13956   -13965   -13988   -14011   -14031   -14056   -14075 
  -14087   -14102   -14119   -14131   -14146   -14166   -14189   -14210 
  -14222   -14229   -14235   -14245   -14261   -14274   -14272   -14268 
  -14270   -14277   -14281   -14274   -14260   -14254   -14251   -14242 
  -14229   -14214   -14197   -14191   -14181   -14161   -14141   -14123 
  -14102   -14084   -14058   -14025   -13999   -13983   -13967   -13941 
  -13902   -13863   -13839   -13821   -13792   -13765   -13736   -13707 
  -13687   -13662   -13625   -13602   -13581   -13552   -13529   -13502 
  -13477   -13458   -13440   -13425   -13406   -13382   -13369   -13359 
  -13346   -13333   -13323   -13321   -13325   -13317   -13304   -13304 
  -13308   -13311   -13316   -13321   -13327   -13332   -13339   -13347 
  -13355   -13362   -13373   -13386   -13393   -13396   -13402   -13409 
  -13413   -13423   -13428   -13425   -13425   -13431   -13431   -13428 
  -13427   -13429   -13432   -13425   -13416   -13412   -13413   -13413 
  -13413   -13409   -13406   -13401   -13400   -13404   -13400   -13394 
  -13397   -13402   -13404   -13400   -13396   -13397   -13401   -13397 
  -13392   -13394   -13397   -13400   -13398   -13394   -13394   -13398 
  -13404   -13404   -13401   -13402   -13406   -13406   -13412   -13420 
  -13420   -13423   -13436   -13437   -13437   -13444   -13451   -13460 
  -13468   -13471   -13478   -13487   -13493   -13494   -13497   -13508 
  -13518   -13522   -13521   -13524   -13531   -13532   -13535   -13539 
  -13540   -13539   -13533   -13531   -13533   -13529   -13522   -13518 
  -13512   -13505   -13493   -13477   -13464   -13458   -13446   -13427 
  -13410   -13398   -13380   -13360   -13340   -13325   -13312   -13292 
  -13267   -13247   -13234   -13216   -13194   -13174   -13162   -13150 
  -13132   -13113   -13100   -13090   -13080   -13068   -13050   -13041 
  -13038   -13020   -13000   -12992   -12989   -12987   -12981   -12966 
  -12953   -12943   -12934   -12924   -12919   -12907   -12892   -12885 
  -12879   -12868   -12860   -12847   -12839   -12839   -12837   -12822 
  -12808   -12811   -12812   -12799   -12796   -12804   -12804   -12799 
  -12793   -12785   -12784   -12796   -12806   -12806   -12796   -12789 
  -12792   -12795   -12800   -12806   -12807   -12808   -12811   -12815 
  -12819   -12822   -12829   -12842   -12853   -12854   -12858   -12869 
  -12881   -12896   -12912   -12923   -12931   -12946   -12964   -12981 
  -13000   -13022   -13045   -13068   -13088   -13106   -13132   -13163 
  -13192   -13215   -13236   -13266   -13297   -13324   -13351   -13383 
  -13413   -13437   -13460   -13491   -13518   -13536   -13555   -13576 
  -13595   -13613   -13626   -13639   -13649   -13653   -13660   -13667 
  -13667   -13670   -13671   -13664   -13659   -13659   -13651   -13631 
  -13620   -13608   -13597   -13581   -13555   -13529   -13510   -13491 
  -13463   -13431   -13402   -13377   -13347   -13311   -13274   -13238 
  -13205   -13174   -13136   -13096   -13058   -13026   -12995   -12960 
  -12923   -12892   -12866   -12838   -12806   -12772   -12745   -12725 
  -12700   -12676   -12652   -12625   -12611   -12600   -12584   -12567 
  -12556   -12548   -12544   -12540   -12533   -12528   -12529   -12537 
  -12540   -12538   -12546   -12555   -12564   -12575   -12586   -12602 
  -12623   -12637   -12644   -12652   -12671   -12698   -12715   -12722 
  -12729   -12739   -12756   -12775   -12787   -12791   -12796   -12804 
  -12814   -12820   -12825   -12825   -12819   -12814   -12814   -12808 
  -12800   -12796   -12787   -12772   -12758   -12748   -12737   -12721 
  -12702   -12683   -12664   -12645   -12627   -12604   -12581   -12561 
  -12538   -12518   -12499   -12484   -12468   -12441   -12421   -12411 
  -12394   -12375   -12366   -12355   -12340   -12321   -12307   -12305 
  -12301   -12297   -12290   -12280   -12275   -12276   -12276   -12275 
  -12275   -12272   -12274   -12280   -12276   -12274   -12283   -12297 
  -12303   -12306   -12310   -12320   -12329   -12340   -12348   -12351 
  -12355   -12367   -12379   -12384   -12388   -12393   -12403   -12418 
  -12424   -12424   -12433   -12444   -12455   -12465   -12465   -12467 
  -12476   -12484   -12490   -12490   -12490   -12499   -12505   -12507 
  -12509   -12505   -12501   -12505   -12505   -12496   -12486   -12482 
  -12475   -12465   -12456   -12442   -12429   -12422   -12411   -12398 
  -12383   -12370   -12360   -12348   -12333   -12318   -12302   -12289 
  -12279   -12263   -12247   -12239   -12231   -12220   -12204   -12190 
  -12185   -12181   -12171   -12155   -12137   -12131   -12131   -12127 
  -12116   -12106   -12100   -12101   -12106   -12105   -12101   -12108 
  -12118   -12125   -12129   -12129   -12135   -12152   -12167   -12178 
  -12188   -12202   -12221   -12239   -12252   -12268   -12291   -12314 
  -12326   -12340   -12361   -12384   -12413   -12436   -12447   -12464 
  -12488   -12510   -12533   -12556   -12573   -12594   -12622   -12646 
  -12660   -12675   -12694   -12712   -12730   -12744   -12760   -12779 
  -12793   -12807   -12820   -12827   -12838   -12853   -12862   -12866 
  -12869   -12873   -12880   -12891   -12896   -12897   -12896   -12893 
  -12896   -12898   -12897   -12898   -12901   -12904   -12900   -12892 
  -12888   -12888   -12883   -12874   -12868   -12860   -12853   -12849 
  -12842   -12830   -12819   -12807   -12793   -12784   -12776   -12768 
  -12756   -12738   -12725   -12718   -12712   -12706   -12698   -12688 
  -12680   -12680   -12676   -12673   -12672   -12668   -12660   -12652 
  -12649   -12650   -12646   -12640   -12637   -12636   -12633   -12629 
  -12622   -12618   -12614   -12610   -12598   -12591   -12590   -12586 
  -12575   -12567   -12563   -12553   -12550   -12555   -12550   -12542 
  -12536   -12536   -12540   -12540   -12533   -12529   -12529   -12532 
  -12536   -12538   -12538   -12542   -12548   -12552   -12552   -12555 
  -12561   -12569   -12569   -12568   -12571   -12571   -12575   -12583 
  -12581   -12573   -12571   -12573   -12573   -12571   -12569   -12564 
