Origin Time       2016/04/16 01:25:00
Lat.              32.753
Long.             130.762
Depth. (km)       12
Mag.              7.3
Station Code      FKI003
Station Lat.      36.0444
Station Long.     136.2279
Station Height(m) 9
Record Time       2016/04/16 01:28:10
Sampling Freq(Hz) 100Hz
Duration Time(s)  62
Dir.              E-W
Scale Factor      7845(gal)/8223790
Max. Acc. (gal)   2.386
Last Correction   2016/04/16 01:28:11
Memo.             
[...]
    1459     1421     1381     1337     1287     1233     1177     1121 
    1063      999      938      876      808      749      691      631 
     575      517      464      414      359      310      265      225 
     191      160      129      103       83       67       51       39 
      29       27       29       31       32       40       52       67 
      85      106      129      153      182      210      237      272 
     303      332      364      395      422      449      475      495 
     514      538      557      568      576      577      571      561 
     544      522      500      471      437      396      349      303 
     255      202      147       87       32      -27      -90     -148 
    -205     -259     -309     -357     -406     -449     -487     -521 
    -552     -577     -599     -612     -618     -619     -616     -607 
    -588     -565     -540     -511     -477     -440     -394     -338 
    -283     -225     -166     -105      -41       22       87      155 
     224      292      360      427      492      553      616      679 
     738      789      841      889      936      980     1019     1055 
    1090     1123     1150     1174     1198     1212     1225     1242 
    1250     1258     1262     1260     1264     1266     1259     1250 
    1242     1228     1213     1198     1181     1156     1133     1109 
    1081     1055     1021      986      954      920      881      843 
     805      770      734      696      658      619      585      553 
     517      481      448      418      392      363      333      309 
     280      251      224      194      163      133      101       65 
      29       -5      -41      -82     -121     -162     -206     -248 
    -286     -328     -367     -403     -441     -476     -513     -548 
    -572     -594     -614     -627     -642     -652     -656     -657 
    -657     -650     -641     -630     -614     -599     -583     -561 
    -538     -511     -483     -456     -427     -396     -367     -338 
    -309     -278     -244     -209     -178     -152     -121      -89 
     -62      -32       -5       22       52       78      102      125 
     148      170      189      206      225      241      255      263 
     276      288      295      302      306      307      306      303 
     301      297      291      282      268      257      246      232 
     220      205      187      172      153      135      120      102 
      79       58       37       17       -5      -28      -49      -74 
    -101     -125     -147     -174     -202     -230     -261     -292 
    -321     -349     -378     -403     -429     -456     -477     -500 
    -523     -545     -562     -579     -591     -602     -614     -622 
    -622     -623     -625     -621     -614     -607     -596     -579 
    -560     -540     -519     -492     -464     -437     -405     -370 
    -342     -309     -274     -241     -205     -171     -141     -112 
     -81      -52      -27       -1       20       39       54       63 
      74       81       83       83       76       70       60       43 
      23        5      -13      -39      -63      -89     -117     -144 
    -176     -205     -233     -265     -297     -325     -355     -379 
    -406     -429     -449     -472     -491     -508     -526     -540 
    -552     -561     -565     -569     -571     -569     -565     -558 
    -546     -538     -532     -518     -502     -490     -472     -450 
    -432     -414     -395     -373     -359     -348     -330     -315 
    -305     -291     -282     -278     -270     -265     -268     -271 
    -275     -282     -289     -301     -315     -330     -344     -365 
    -391     -410     -433     -463     -490     -521     -557     -587 
    -615     -649     -680     -711     -741     -769     -795     -826 
    -854     -874     -896     -920     -938     -957     -974     -986 
   -1000    -1009    -1013    -1021    -1024    -1024    -1028    -1026 
   -1020    -1016    -1012    -1004     -992     -982     -970     -955 
    -942     -924     -905     -889     -872     -849     -823     -799 
    -773     -739     -706     -670     -631     -588     -540     -493 
    -440     -382     -325     -263     -199     -131      -60       11 
      85      159      232      306      383      453      523      596 
     662      724      789      846      897      946      985     1024 
    1060     1086     1109     1131     1146     1155     1158     1155 
    1154     1150     1140     1129     1115     1098     1081     1059 
    1034     1009      985      958      926      896      866      831 
     793      754      708      661      615      562      504      446 
     383      313      241      172       97       14      -68     -152 
    -241     -332     -417     -504     -599     -691     -777     -864 
    -953    -1036    -1116    -1200    -1279    -1356    -1433    -1506 
   -1574    -1640    -1702    -1763    -1821    -1871    -1919    -1968 
   -2010    -2046    -2079    -2110    -2134    -2153    -2170    -2177 
   -2178    -2178    -2172    -2161    -2147    -2126    -2102    -2073 
   -2038    -2004    -1962    -1917    -1868    -1815    -1761    -1702 
   -1641    -1584    -1518    -1448    -1383    -1313    -1240    -1169 
   -1090    -1013     -936     -855     -770     -683     -599     -511 
    -421     -330     -241     -148      -56       36      131      225 
     319      417      513      606      702      796      885      974 
    1063     1148     1230     1312     1387     1459     1528     1591 
    1651     1703     1749     1794     1831     1863     1887     1906 
    1918     1921     1919     1914     1899     1880     1856     1826 
    1791     1746     1699     1648     1593     1533     1464     1391 
    1320     1246     1163     1077      989      899      804      712 
     619      523      430      337      244      149       59      -28 
    -116     -197     -275     -353     -427     -495     -558     -618 
    -675     -726     -770     -812     -851     -884     -911     -936 
    -959     -977     -992    -1000    -1009    -1019    -1019    -1016 
   -1016    -1015    -1013    -1011    -1004     -994     -985     -976 
    -965     -951     -938     -924     -911     -895     -874     -854 
    -835     -815     -793     -769     -743     -715     -687     -658 
    -626     -595     -560     -518     -476     -433     -387     -340 
    -289     -237     -184     -133      -76      -17       43      103 
     167      234      299      361      427      491      553      615 
     676      733      788      841      888      935      976     1007 
    1039     1069     1088     1107     1119     1121     1121     1119 
    1113     1100     1080     1059     1039     1011      981      951 
     916      877      842      804      762      722      681      641 
     599      556      515      471      429      387      342      299 
     257      214      171      131       90       47       11      -22 
     -62     -101     -137     -171     -199     -232     -265     -291 
    -313     -336     -355     -369     -383     -394     -405     -410 
    -413     -419     -419     -415     -414     -411     -402     -392 
    -383     -365     -344     -322     -302     -278     -244     -212 
    -178     -140     -102      -60      -16       29       75      124 
     176      229      280      336      388      440      492      545 
     602      660      714      769      824      877      935      986 
    1039     1098     1152     1206     1260     1308     1362     1412 
    1456     1502     1545     1587     1626     1658     1692     1721 
    1745     1772     1791     1800     1814     1823     1819     1817 
    1814     1804     1792     1772     1745     1722     1692     1658 
    1624     1580     1541     1497     1443     1398     1348     1290 
    1235     1178     1119     1059      992      928      868      804 
     743      675      606      544      476      410      346      283 
     224      162       98       37      -22      -81     -133     -186 
    -240     -289     -337     -383     -427     -469     -508     -548 
    -587     -619     -652     -683     -706     -727     -751     -770 
    -785     -799     -808     -814     -818     -816     -812     -808 
    -797     -781     -765     -747     -724     -696     -666     -637 
    -598     -557     -518     -475     -432     -379     -321     -271 
    -217     -155      -95      -32       29       89      155      224 
     288      355      422      490      558      630      699      767 
     831      893      958     1017     1074     1128     1177     1223 
    1266     1304     1336     1362     1382     1398     1409     1412 
    1412     1409     1393     1375     1359     1328     1290     1256 
    1215     1171     1125     1074     1021      969      911      855 
     799      738      679      622      561      500      440      379 
     322      263      201      144       93       39      -13      -65 
    -117     -163     -203     -240     -278     -314     -344     -372 
    -396     -417     -434     -448     -456     -467     -472     -469 
    -461     -453     -441     -425     -409     -387     -361     -334 
    -303     -268     -233     -191     -144      -98      -47        5 
      60      117      178      244      309      372      442      513 
     579      650      722      792      864      938     1007     1077 
    1148     1216     1282     1348     1409     1470     1528     1580 
    1632     1682     1722     1759     1792     1817     1833     1849 
    1858     1864     1863     1857     1846     1826     1802     1779 
    1745     1706     1669     1626     1576     1526     1471     1413 
    1356     1293     1230     1166     1098     1031      962      890 
     818      746      672      598      526      451      379      313 
     241      171      103       35      -29      -89     -152     -211 
    -268     -321     -373     -425     -471     -515     -560     -599 
    -634     -670     -702     -724     -747     -770     -791     -810 
    -827     -841     -854     -866     -876     -884     -893     -895 
    -897     -901     -900     -896     -895     -892     -889     -885 
    -877     -869     -854     -838     -824     -804     -785     -769 
    -741     -714     -688     -657     -627     -598     -564     -526 
    -496     -468     -433     -398     -364     -326     -288     -256 
    -222     -187     -152     -121      -90      -59      -32       -9 
      13       39       60       78       99      118      135      151 
     163      174      187      198      207      216      222      228 
     232      234      240      240      237      236      234      230 
     228      224      220      218      212      210      209      195 
     187      183      171      162      157      148      139      129 
     124      118      112      102       95       89       78       68 
      63       56       51       44       31       22       18       10 
       1       -5      -10      -17      -21      -28      -36      -43 
     -52      -60      -68      -81      -91      -99     -109     -122 
    -136     -144     -157     -172     -189     -207     -224     -238 
    -257     -276     -297     -319     -341     -363     -386     -411 
    -433     -453     -476     -503     -526     -548     -572     -591 
    -602     -619     -639     -650     -660     -670     -677     -688 
    -693     -693     -693     -689     -687     -683     -670     -660 
    -653     -639     -625     -614     -594     -575     -558     -538 
    -519     -498     -473     -456     -434     -410     -386     -360 
    -334     -310     -287     -259     -233     -210     -184     -160 
    -136     -103      -79      -55      -31      -10       16       44 
      65       91      117      135      155      174      190      206 
     222      236      248      259      271      279      287      292 
     299      305      303      305      305      301      299      303 
     297      289      284      275      263      257      248      233 
     222      211      198      183      171      156      139      117 
      97       76       55       36       17       -5      -27      -41 
     -60      -79      -95     -114     -129     -144     -160     -171 
    -180     -195     -205     -209     -218     -228     -236     -245 
    -253     -259     -270     -280     -287     -297     -309     -324 
    -342     -364     -382     -400     -425     -456     -487     -518 
    -548     -581     -615     -649     -688     -727     -765     -805 
    -841     -876     -916     -953     -989    -1028    -1062    -1096 
   -1129    -1162    -1192    -1219    -1244    -1269    -1291    -1310 
   -1323    -1341    -1356    -1358    -1363    -1368    -1372    -1372 
   -1364    -1351    -1337    -1318    -1297    -1277    -1247    -1217 
   -1185    -1146    -1101    -1058    -1011     -961     -905     -846 
    -785     -720     -653     -585     -514     -440     -367     -291 
    -212     -136      -58       25      106      186      270      349 
     429      513      598      681      761      842      927     1009 
    1090     1171     1252     1329     1404     1483     1564     1637 
    1710     1784     1857     1927     1996     2061     2124     2187 
    2245     2300     2357     2408     2452     2493     2525     2551 
    2579     2600     2609     2614     2614     2608     2593     2570 
    2544     2511     2465     2416     2358     2293     2227     2151 
    2069     1982     1888     1790     1691     1583     1474     1364 
    1247     1125     1007      886      761      637      515      392 
     271      149       28      -87     -201     -311     -418     -523 
    -623     -718     -812     -901     -982    -1062    -1139    -1206 
   -1267    -1324    -1372    -1412    -1447    -1478    -1505    -1525 
   -1537    -1540    -1533    -1524    -1509    -1490    -1459    -1420 
   -1381    -1336    -1282    -1228    -1169    -1105    -1035     -959 
    -885     -804     -720     -639     -553     -464     -376     -288 
    -202     -116      -31       55      140      217      292      370 
     445      513      573      635      697      756      810      861 
     909      954      992     1024     1053     1080     1104     1121 
    1135     1148     1155     1155     1152     1144     1129     1116 
    1100     1075     1047     1016      981      942      895      850 
     807      758      706      652      596      540      479      419 
     363      305      245      183      120       64        8      -55 
    -112     -171     -228     -282     -336     -387     -441     -493 
    -542     -592     -637     -677     -722     -764     -801     -838 
    -872     -901     -929     -954     -977     -999    -1015    -1028 
   -1038    -1044    -1048    -1051    -1050    -1046    -1039    -1030 
   -1019     -999     -977     -957     -931     -900     -866     -832 
    -799     -760     -714     -669     -625     -576     -525     -469 
    -411     -356     -301     -240     -180     -124      -65       -8 
      52      116      174      232      291      346      399      450 
     500      549      598      642      684      723      760      793 
     827      859      888      918      943      965      985     1000 
    1016     1036     1048     1058     1067     1074     1074     1069 
    1063     1058     1050     1039     1026     1009      992      973 
     950      920      892      864      838      808      777      747 
     714      679      646      612      577      548      515      484 
     456      427      400      378      356      334      318      307 
     297      280      272      268      263      263      261      263 
     266      271      278      286      294      301      311      319 
     328      336      342      351      359      365      369      373 
     376      376      378      375      372      369      367      364 
     361      355      344      332      319      305      294      283 
     268      252      238      221      201      182      162      144 
     128      106       86       64       44       23        1      -18 
     -39      -60      -79     -103     -126     -147     -168     -190 
    -207     -224     -237     -255     -274     -288     -303     -315 
    -322     -328     -337     -344     -346     -351     -351     -344 
    -337     -332     -326     -310     -294     -284     -268     -248 
    -232     -209     -184     -167     -143     -116      -89      -58 
     -28       -2       25       55       82      110      140      166 
     187      210      232      253      274      292      307      321 
     333      341      349      356      360      365      369      370 
     370      369      365      357      351      351      346      334 
     324      314      301      288      275      257      246      237 
     221      202      184      167      153      137      121      108 
      93       75       59       47       35       20        5       -8 
     -17      -27      -40      -47      -52      -60      -70      -76 
     -83      -90      -95      -99     -101     -103     -102     -103 
    -108     -105     -101     -101      -99      -98      -93      -86 
     -83      -76      -67      -58      -47      -36      -27      -13 
       0       16       36       54       68       90      112      131 
     153      175      194      217      243      265      283      303 
     322      342      359      373      394      413      425      441 
     451      464      475      481      491      500      506      511 
     514      518      519      517      518      521      517      517 
     519      515      506      498      492      484      475      463 
     453      442      427      415      403      387      372      357 
     341      321      302      283      266      251      229      207 
     193      174      155      135      116       97       79       58 
      37       21        5      -13      -32      -52      -71      -89 
    -106     -126     -144     -162     -180     -199     -216     -233 
    -246     -257     -270     -282     -291     -301     -306     -309 
    -309     -309     -306     -299     -287     -275     -263     -251 
    -229     -205     -182     -155     -128     -103      -72      -40 
      -9       21       58       98      141      176      211      251 
     289      329      364      402      440      476      514      548 
     575      602      634      662      684      706      727      745 
     764      784      799      811      820      826      828      824 
     820      819      816      808      797      785      776      762 
     746      730      715      706      691      680      666      648 
     635      625      608      596      587      577      566      556 
     545      537      526      515      506      495      484      475 
     467      456      444      433      422      410      396      382 
     369      356      341      330      318      305      291      274 
     257      238      218      199      183      168      152      133 
     116       97       74       54       32       14       -4      -23 
