Origin Time       2016/04/16 01:25:00
Lat.              32.753
Long.             130.762
Depth. (km)       12
Mag.              7.3
Station Code      FKO014
Station Lat.      33.1491
Station Long.     130.8182
Station Height(m) 330
Record Time       2016/04/16 01:25:14
Sampling Freq(Hz) 100Hz
Duration Time(s)  261
Dir.              E-W
Scale Factor      3920(gal)/6182761
Max. Acc. (gal)   91.491
Last Correction   2016/04/16 01:25:14
Memo.             
[...]
  -24480   -24478   -24483   -24492   -24498   -24490   -24486   -24496 
  -24489   -24473   -24485   -24501   -24495   -24482   -24482   -24493 
  -24492   -24486   -24494   -24495   -24485   -24478   -24477   -24495 
  -24510   -24487   -24469   -24483   -24500   -24503   -24488   -24471 
  -24481   -24499   -24495   -24482   -24479   -24487   -24502   -24504 
  -24483   -24464   -24482   -24510   -24503   -24472   -24464   -24494 
  -24517   -24498   -24473   -24468   -24481   -24506   -24513   -24484 
  -24463   -24483   -24508   -24501   -24478   -24478   -24496   -24497 
  -24484   -24481   -24487   -24492   -24489   -24485   -24486   -24492 
  -24496   -24487   -24479   -24483   -24489   -24496   -24498   -24484 
  -24472   -24483   -24500   -24495   -24478   -24478   -24495   -24500 
  -24484   -24478   -24490   -24490   -24482   -24493   -24501   -24489 
  -24483   -24484   -24484   -24488   -24495   -24494   -24481   -24476 
  -24494   -24499   -24480   -24478   -24490   -24487   -24486   -24498 
  -24501   -24487   -24476   -24483   -24492   -24487   -24488   -24497 
  -24490   -24478   -24482   -24494   -24503   -24494   -24480   -24484 
  -24485   -24486   -24498   -24496   -24480   -24479   -24491   -24501 
  -24500   -24484   -24473   -24480   -24494   -24505   -24494   -24476 
  -24481   -24495   -24490   -24480   -24487   -24500   -24493   -24478 
  -24482   -24495   -24494   -24483   -24483   -24489   -24490   -24493 
  -24495   -24486   -24479   -24484   -24492   -24498   -24496   -24487 
  -24482   -24482   -24488   -24497   -24493   -24483   -24482   -24487 
  -24494   -24497   -24488   -24477   -24482   -24495   -24495   -24487 
  -24486   -24489   -24487   -24485   -24492   -24493   -24482   -24483 
  -24493   -24491   -24487   -24490   -24487   -24482   -24486   -24500 
  -24503   -24484   -24472   -24481   -24494   -24500   -24494   -24482 
  -24478   -24484   -24493   -24495   -24485   -24480   -24489   -24495 
  -24495   -24490   -24482   -24478   -24487   -24500   -24501   -24488 
  -24479   -24482   -24486   -24491   -24493   -24487   -24486   -24492 
  -24494   -24489   -24478   -24476   -24492   -24496   -24487   -24487 
  -24488   -24485   -24488   -24493   -24491   -24489   -24494   -24489 
  -24475   -24484   -24508   -24500   -24471   -24469   -24494   -24504 
  -24491   -24480   -24480   -24488   -24499   -24496   -24478   -24476 
  -24492   -24504   -24492   -24474   -24481   -24501   -24499   -24484 
  -24476   -24481   -24495   -24504   -24491   -24473   -24480   -24502 
  -24502   -24481   -24473   -24485   -24495   -24494   -24490   -24483 
  -24481   -24491   -24501   -24493   -24475   -24473   -24492   -24504 
  -24490   -24474   -24488   -24503   -24490   -24480   -24485   -24487 
  -24486   -24486   -24485   -24477   -24470   -24477   -24481   -24450 
  -24419   -24437   -24484   -24518   -24492   -24398   -24375   -24510 
  -24596   -24439   -24203   -24231   -24516   -24541   -24202   -24134 
  -24458   -24578   -24277   -23889   -23927   -24509   -24932   -24606 
  -24067   -24287   -25028   -25067   -24373   -23920   -24133   -24865 
  -25245   -24705   -24310   -24896   -25468   -24790   -23645   -23474 
  -24029   -25000   -25213   -22903   -21245   -23188   -25410   -26181 
  -26107   -24760   -24360   -25480   -24990   -22495   -20738   -23331 
  -28587   -28776   -24230   -22515   -23849   -24193   -23168   -22082 
  -23485   -26948   -25908   -21082   -21682   -26561   -27713   -26944 
  -28231   -27177   -22867   -22100   -24919   -26155   -25747   -25179 
  -25640   -25898   -21750   -18111   -22625   -28328   -25805   -19811 
  -21371   -29620   -31673   -25176   -20817   -20687   -19428   -21053 
  -28717   -30253   -21680   -17730   -22809   -27317   -26073   -22606 
  -24993   -31707   -31021   -22528   -18739   -23706   -27139   -23935 
  -22451   -26549   -29295   -25892   -21539   -24095   -27442   -19672 
   -9064   -12709   -25680   -31151   -28924   -27793   -29478   -31047 
  -27775   -23883   -26559   -25661   -19138   -23785   -33148   -28762 
  -20325   -22271   -28841   -28289   -19069   -14849   -22760   -26154 
  -15855   -10895   -23789   -39273   -40506   -26337    -9369    -7342 
  -18190   -25814   -30926   -37274   -34870   -21938   -12460   -17176 
  -30983   -37655   -27179   -10287    -8365   -21856   -29911   -29168 
  -30703   -29557   -20822   -14979   -23557   -41692   -42071   -19097 
   -6568   -14764   -27553   -40796   -42161   -27935   -22000   -20516 
   -8379    -9075   -26934   -29318   -13928    -5346   -16674   -43477 
  -53801   -23766     6326    -8396   -36778   -33611   -16263   -17479 
  -27769   -25156   -15266   -17220   -31721   -40002   -36840   -36574 
  -37960   -28360   -16561   -17640   -21118   -10831    -4486   -24840 
  -46695   -38146   -16632   -10323   -22636   -37500   -23735     8890 
    4422   -29261   -40799   -38480   -40581   -39077   -35711   -25270 
   -9206    -7390   -15359   -18883   -24282   -33319   -33267   -25374 
  -27453   -35874   -28196    -9083      527    -2984   -17022   -29628 
  -25920   -22289   -33249   -42375   -41890   -37352   -30068   -20395 
   -6281     6813     5017   -10302   -29891   -53372   -65226   -46539 
  -22579   -22834   -27695   -15402     2154     5144   -13840   -35413 
  -35501   -29351   -36324   -40021   -33499   -29959   -24032   -11509 
   -6098    -6176    -6872   -24488   -52815   -54317   -27700   -12351 
  -16458    -9515    11670    14865    -8331   -35029   -47839   -45754 
  -42150   -42676   -31950    -7079     7468    -6665   -31562   -45865 
  -52905   -41739   -13115    -7083   -18757    -9647      141   -19438 
  -41396   -38535   -28053   -31009   -40229   -38051   -19054     5265 
   14594    -8395   -55211   -78279   -51300    -9237    16832    18028 
  -12456   -40628   -33824   -22046   -16792     4059    13596   -12079 
  -38028   -42561   -42043   -46313   -38600    -1973    29085     9128 
  -35230   -53802   -38316    -5673    -3376   -59752   -99994   -59650 
    4316    29465    15726   -22577   -59529   -71982   -54631   -10038 
   23386    10823   -12113   -22815   -41717   -46938   -28878   -26485 
  -34892   -30811   -24652   -21483   -25586   -30680   -16469   -10126 
  -33256   -46136   -32824    -7850    24764    33816     -359   -30871 
  -32409   -35761   -35332   -12469    -7951   -38053   -48973   -27208 
  -16049   -19792   -21082   -37580   -67386   -61652   -15088    11988 
    2170   -16322   -37107   -39712   -16628    -2956       91     -109 
  -16167   -27013   -14309    -3017   -13518   -33447   -41265   -36962 
  -44331   -56786   -40147   -20689   -33345   -41741   -32259   -23971 
   -4423     6422   -18942   -36754   -16920     3203   -13562   -59058 
  -86132   -53580     9437    21239   -24045   -39726   -12151   -16719 
  -45548   -24590    26223    25763   -30538   -71025   -54626   -21049 
  -17507   -31856   -39568   -35534   -23546   -22912   -19432     9557 
   15078   -24478   -56149   -45610     9209    58121    36417   -14366 
  -27015   -34501   -77526  -108359   -69722     5814    32357   -12714 
  -54495   -32506    12384     3564   -66140  -122688   -94592     7976 
   84319    57795    -6734   -17104   -13553   -59313   -93180   -82215 
  -83948   -59860     3297     2631   -16860    31330    50360    -3419 
  -48982   -73186   -92462   -88193   -46011     7279     5669   -12624 
   44912    81454     7996   -46340   -32699   -35271   -44602   -46470 
  -64681   -52988     1033    15889   -21997   -34570    -9742    -2737 
  -29906   -64311   -73398   -54176   -36967   -29589   -14125    -7793 
  -22155   -24370   -21814   -18430    23951    48521    -7104   -53387 
  -36599   -38688   -67594   -52534   -28441   -47876   -68454   -63086 
  -32462     2056   -16269   -46229   -30183   -25683   -30789    -6769 
    -666     4103    50909    58139    -4082   -30696    -7918   -13058 
  -46971   -79746   -82982   -31048    14837    -6354   -39397   -30211 
  -29101   -65912   -64348    -7583    15053   -13220   -44328   -63162 
  -51889   -18558   -19886   -58593   -65647   -14322    22862    -2344 
  -29579   -25191   -28649   -35357   -18463    -3805    -8555   -23172 
  -45272   -40233    -4145    -4975   -25774     2504    21955   -36667 
  -97431   -85816   -40661     2668    19532   -26729   -72608   -60770 
  -50587   -55899   -45539   -18813    16855     8343   -32428   -27311 
  -24185   -50185   -39034   -21625   -27456   -24834   -32936   -44391 
  -23823     7724    15898   -16740   -58489   -44250    16633    43170 
   -8000   -62308   -25467    24622    -9003   -30473     2724    -5184 
  -32341   -29790   -38616   -28441    26071    36294   -22571   -78674 
 -106075  -107834   -66600    -4526    16628   -12461   -45920   -61861 
  -67043   -62304   -37973      799    19325     5892   -21538   -55714 
  -73259   -54373   -35100   -44212   -53978   -39759   -16895   -10942 
  -25690   -52090   -70637   -47594     -847    17070    14080    12015 
   10444    21359    30642     4777   -44095   -69597   -43229    14528 
   38805    -9466   -63639   -38828      858   -24669   -35471   -10632 
  -36987   -67670   -48515   -43530   -46841   -21167   -12914   -30713 
  -28388   -16424   -24567   -33155   -30104   -41709   -66699   -67485 
  -36312    -6628   -12955   -47385   -58196   -29869     -530    11010 
    6850   -16052   -43680   -45018   -26462   -34888   -57142   -39793 
  -13828   -23186   -33889   -27516   -31817   -48787   -57679   -57638 
  -48113   -13042    27763    24404   -18565   -48329   -55970   -66384 
  -68656   -61708   -68593   -59953   -18528     2357    -2020    10660 
   15502   -16919   -50454   -61015   -49723   -23210   -19884   -27520 
    1897    10814   -31112   -38144   -13448   -26063   -53866   -61108 
  -62064   -57485   -36877   -25938   -28877   -14038   -13904   -45929 
  -40215    -5349    -3753   -18911   -42062   -67722   -50456   -13343 
   -7606    -8095     5904     4979   -18040   -41734   -49223   -33898 
  -16926   -13674     2284    15636   -17108   -45500   -23644   -13180 
  -43574   -69311   -73042   -64136   -56397   -72342   -91200   -63530 
  -10381    -6642   -50866   -72725   -59496   -32341     4628    18131 
   -1513    -7491     4728     3102    -1579     8519    16811    16301 
   16935     5516   -32607   -71638   -82588   -66054   -23138    22409 
   29277    18522    13729   -14722   -47990   -49048   -41316   -26857 
   13129    46976    54362    64296    80771    73431    52003    52195 
   61607    52598    32123    18306    28626    56000    55574    12975 
  -27868   -41673   -55496   -78516   -90239   -99972  -112482  -113826 
 -126612  -142453  -106338   -44895   -21727   -17286     3062    25759 
   44391    65749    62224    15375   -24391   -35493   -68850  -112033 
 -105999   -60779   -16080      860   -16744   -44233   -57515   -41770 
   -7393     5373   -12693   -26401   -14213    -9234   -33928   -40406 
  -13876    -2928   -12991   -13722     1457    18673    17753   -11963 
  -51153   -64741   -55749   -59204   -69915   -56295   -39438   -54418 
  -74999   -81254  -101993  -129825  -124222   -95231   -77808   -65356 
  -31865    12047    13816   -46588  -108997  -123248  -101242   -58350 
  -24574   -33182   -48450   -45615   -63704   -96510   -98515   -72251 
  -47874   -34824   -30090   -41850   -61445   -48950     8889    71172 
   89662    62372    22369   -13499   -38352   -31664    -7977   -21167 
  -66808   -92348   -88875   -70761   -43007   -10654    25861    52218 
   43838     4750   -43367   -86581   -99243   -52883    23265    49629 
    4191   -38803   -28806   -12002   -27948   -38917   -13970    28744 
   65570    53677   -18932   -69019   -70307   -85020   -80962   -21083 
   10180   -10032   -12364     2500       75    -8901   -15624   -33966 
  -56811   -50016   -12914     9635     4075    -7321   -29180   -66824 
 -101678  -114193   -79992   -16964     5998   -17255   -23312     1122 
   12342    -2284   -18622   -16831     8791    38916    51246    58463 
   73376    80117    69485    39917   -14040   -69059   -77638   -36743 
   -2933    -2307    -8740   -22693   -56797   -84883   -86429   -68791 
  -38447   -11173     7489    40949    69572    47423     2633   -21052 
  -35002   -32954      -50    25895    19322    -1361   -21250   -30491 
  -27269   -34234   -66367   -86745   -48510    10601    16111   -22027 
  -48511   -45821   -30922   -28216   -31809   -29439   -36360   -40630 
  -28798   -34903   -53841   -40207    -4300    14546     4099   -26943 
  -55922   -60309   -42478   -25345   -25433   -39884   -42574   -31397 
  -50143   -83666   -77614   -53336   -26636    12525    17302    -7374 
    5734    32224    23771    12523    21834    38389    57292    47503 
   -9359   -51078   -42889   -35736   -43782   -30176      323    26531 
   45162    32465   -18740   -58831   -74201  -109342  -140779  -117803 
  -89525   -96024   -88241   -43789     5165    27281    11007   -15453 
  -27233   -50485   -86149   -90412   -63099   -34329    -4030    37302 
   80216   105559    91624    37158    -7225   -17727   -54082  -115827 
 -116390   -61795   -24138    -3032     9787   -16052   -57052   -61608 
  -45294   -37902   -24298     5538    35445    54305    61109    52679 
   28345    -9346   -48689   -59532   -34361    -3732     4844   -22745 
  -70086   -94413   -96568  -108343  -116207   -85694   -21051    49456 
   94116    80017    20210   -22120   -24669   -32400   -69167   -89908 
  -66891   -46153   -52546   -41326    22743   101808   119793    68927 
   20926    13013     6827   -26505   -42770      333    56518    72055 
   64897    62573    68093    72842    55309    14934   -15289   -28354 
  -48280   -63334   -45557    -2126    44770    73684    69735    40039 
    3038   -37021   -84206  -120511  -131990  -139620  -142295  -112960 
  -70905   -58364   -66820   -52276   -18039    -7603   -12116    -9332 
  -19692   -27674   -12575    -5456     1243    18431    -1539   -44560 
  -44154   -15505    -7663   -11399   -10491    -8248    16689    57937 
   68584    56320    40037     5416   -25251   -40640   -67242   -89895 
  -80346   -48680   -25187   -29522   -44934   -52620   -59218   -65897 
  -70732   -74324   -68809   -60834   -62689   -56969   -30943   -16739 
  -37043   -64491   -78735   -81269   -67544   -46999   -34146   -34378 
  -47192   -54832   -58473   -69779   -66965   -50101   -44069   -43726 
  -48331   -57770   -43391   -17992   -23171   -26062    15331    53566 
   47849    29726    11161   -28289   -72721   -98349  -102455   -80096 
  -49533   -36983   -21986     8905    27287    30183    40917    59674 
   58109     9484   -56920   -87571   -84901   -67240   -32606     1391 
   16415    13637    -9152   -37536   -45885   -43008   -41479   -36494 
  -39917   -50078   -41803   -21764   -17889   -35003   -58075   -70923 
  -62062   -31421     2530    16328     7430    -3748     -638    10352 
   14079    12791    14104    13949     9225    -7500   -32259   -36770 
  -23080   -17851   -18725   -23463   -41751   -52447   -37306   -29203 
  -47196   -49939   -21936   -12023   -38427   -59850   -57282   -55850 
  -69050   -82759   -91226   -99667   -93993   -64094   -33933   -13227 
   14531    30398    12019    -4618     7695    25013    28273    16433 
   -2160      278    35682    69380    74368    73767    82684    73232 
   37877     8488   -13371   -43952   -54834   -35713   -26441   -30869 
  -25741   -20890   -26994   -35212   -39792   -32408   -15333   -16733 
  -37145   -37103   -12081     4006     6451    10531     9199    -8938 
  -37653   -54433   -32669    13465    29692     4418   -24348   -40319 
  -46470   -42338   -32495   -16007    -2113    -6160    -8513     1613 
    -487   -15142   -24849   -31770   -35395   -34061   -43380   -60817 
  -64476   -60454   -61509   -61124   -63625   -65300   -48935   -37214 
  -50087   -57010   -44251   -28563   -19073   -25789   -44930   -56731 
  -59867   -55101   -38332   -28628   -37797   -47568   -49256   -47254 
  -43229   -40593   -31000   -12075    -1874    -3010   -12551   -32099 
  -46747   -51194   -54083   -58134   -64346   -62133   -43388   -20071 
   -9371   -22333   -46252   -66227   -85970   -94572   -85171   -65564 
  -37669   -23795   -28317   -17676      208    -1988   -14059   -26528 
  -37866   -33402    -9761     9371     3154   -16926   -32943   -42867 
  -40507   -28812   -27694   -32897   -19504     5944    14491    12674 
   17851    10705   -16266   -46666   -79601  -101660   -96327   -77642 
  -56059   -38517   -32487   -23452    -4228    11763     9404   -15018 
  -34344   -26977   -14091   -12282   -13680   -14439   -16227   -20069 
  -21668   -15220    -7721    -3102     8569    21585    18843     6224 
   -4225   -13438   -16082   -11343   -12457   -14937    -7009     -554 
   -7036   -23610   -45231   -58620   -53196   -36957   -24958   -20565 
  -11614    -2059   -13071   -34362   -42960   -38360   -20053     3137 
   13118    15258    17445    12811      308   -11319   -15198   -19483 
  -30398   -29658   -14045    -6443    -9063   -15773   -29656   -47560 
  -64511   -66927   -51612   -42537   -46152   -55972   -74116   -84922 
  -78200   -71774   -75724   -77257   -62657   -41834   -31045   -28966 
  -33354   -44836   -60780   -74021   -77561   -80806   -90062   -97985 
 -104094  -102074   -87017   -75823   -73089   -68378   -68500   -77627 
  -83473   -78187   -63697   -49492   -39617   -26178   -14880   -22982 
  -46088   -65783   -79895   -92409   -92530   -74794   -55984   -49960 
  -52876   -54772   -50231   -51312   -69803   -81973   -68937   -60446 
  -69790   -68390   -57682   -57441   -59567   -63842   -75210   -74212 
  -65149   -72632   -76133   -54858   -35072   -30843   -31721   -35290 
  -35107   -27342   -26706   -38653   -49953   -54655   -55728   -51168 
  -39790   -27111   -14722     2083    17764    16348    -5116   -31871 
  -44260   -32764   -12251     2506    16751    28260    28407    16939 
   -2048   -14599   -14717    -9355     1533    13257    20903    27054 
   26073    20879    24698    33073    34697    29774    20954     8653 
   -4379   -13617   -13055      262    19366    36046    43474    36112 
   23795    15863     9472     9113     9122    -3528   -13159    -9199 
   -7332    -7653      350    13234    27268    42671    50660    36442 
    3495   -22372   -26993   -18185    -6032     2946    10885    20443 
   17598    -3579   -24983   -33813   -33309   -33923   -45541   -58433 
  -55278   -43177   -32685   -19451    -7667    -4117    -2155     -256 
  -13018   -40893   -58638   -56571   -40666   -17593   -10575   -19208 
  -16092    -3750     4928     3447    -9925   -11651     4529    10613 
   -1847   -18392   -28938   -29643   -18922    -4303     1924     3837 
    6599      675   -13602   -29522   -46881   -56124   -50309   -42485 
  -39715   -36887   -36247   -35189   -31263   -37994   -49789   -44987 
  -34345   -35361   -39455   -45378   -60166   -74646   -81568   -84542 
  -83762   -78789   -73277   -67877   -60151   -52386   -49023   -47431 
  -41124   -30026   -21504   -22723   -29728   -33997   -38916   -46531 
  -49677   -44812   -34001   -29718   -36828   -38836   -33329   -29903 
  -24287   -14831    -5013     1484    -6396   -23731   -25696   -10674 
   -1359    -2394      126     6366    -1116   -26418   -45553   -47374 
