Origin Time       2016/04/16 01:25:00
Lat.              32.753
Long.             130.762
Depth. (km)       12
Mag.              7.3
Station Code      FKO007
Station Lat.      33.5610
Station Long.     130.2024
Station Height(m) 4
Record Time       2016/04/16 01:25:23
Sampling Freq(Hz) 100Hz
Duration Time(s)  114
Dir.              E-W
Scale Factor      3920(gal)/6182761
Max. Acc. (gal)   42.929
Last Correction   2016/04/16 01:25:23
Memo.             
[...]
    6033     5367     6155     7458     7849     6654     4612     3632 
    3937     3676     3166     4335     5778     4622     1300    -1546 
   -1724      634     2649     3220     4807     8129    10568    10682 
    9584     8556     8585     9755     9534     5872      763    -3035 
   -4463    -3021      144     3649     7868    11017    10433     7959 
    6410     6132     7314     9504    10926    10939    10553    10465 
   10301     9680     8475     6656     5394     5347     3950       20 
   -2193      219     3971     4971     2844      410      188     1873 
    4597     6866     6445     4268     2399      994      550      950 
    1421     3638     8520    13119    14869    14292    13163    12164 
   10689     9066     8135     6974     5008     4153     5232     6653 
    8061     8676     6349     2540      258      -36     1070     1697 
    -201    -3482    -4730    -2485      477     2147     4498     7407 
    8784     9882    11577    12210    12136    12728    12873    11286 
    8860     6706     4923     3415     1784      126       59     1973 
    3922     4635     4639     5479     7816     9557     8355     5138 
    2408      963      666     1405     2305     3033     4215     5450 
    5486     4547     4959     7778    10325     9536     5149     -361 
   -3141    -1584     1475     2882     3895     6953    10916    13342 
   13280    11321     9105     7121     4273      997     -122     1992 
    5649     9162    11404    11509    10558     9699     7600     3787 
    1050     1461     3380     4966     6348     6974     6839     7306 
    7397     5850     3800     2587     3598     6305     7188     5207 
    3146     3170     4721     5258     3008     -481    -2644    -3708 
   -4609    -4002    -1417     1265     3551     6270     9063    11738 
   14768    17133    17364    16897    17872    18416    16470    14581 
   14902    15691    14525    10026     3822      349      -74    -1199 
   -3345    -4542    -4536    -3253    -1183     -339    -1147    -1966 
   -2892    -5335    -8388    -9812    -8360    -4115     1136     5291 
    7894    10045    12553    14563    15336    15233    14554    14207 
   15199    16111    14691    12068    11407    13175    15694    17905 
   19240    19195    17484    14023     9107     4276     1470     -156 
   -2687    -5584    -8117   -10776   -11933    -9275    -4064     -170 
    -217    -3023    -5032    -5075    -4589    -3979    -2690     -177 
    4108     8728    11095    11998    14041    16723    18834    20936 
   22030    20092    15883    11515     7744     4799     2919     2362 
    3227     4044     3246     1314     -339     -612      689     2694 
    4208     5438     7967    10717    10376     7301     4882     4269 
    4135     3728     3901     5491     7730     8795     7655     5480 
    4740     6044     7152     6160     3832     2044     1768     2872 
    3956     3185     1103     -120     -243        8      785     2240 
    4700     7893     9774     8707     5695     4260     6670     9967 
    9914     7046     5063     6082     9456    12902    14488    14398 
   13243    10198     5425     1283     -653    -1031    -1397    -2689 
   -3744    -2678      204     3728     7324     9912    11182    11645 
   10458     7938     6944     8579    10824    11247     8860     4579 
     676    -1045    -1177    -1485    -2036    -1092     2615     7459 
    9997    10187    11582    13918    12644     7679     4056     4097 
    5899     7004     5859     2495    -1232    -3024    -2150     -206 
    1314     2765     4461     6199     8191    10023    10813    10353 
    8494     5765     3821     3233     3605     5229     7702     9558 
   10379    10297     8712     5928     4184     5532     9120    11919 
   12383    10890     8646     7683     7693     6404     5022     5810 
    7424     8164     7718     5283     1617     -333      200     1533 
    3250     5459     6949     7107     6610     5939     5475     5975 
    7459     8462     8015     7378     7940     8859     8596     7199 
    5602     4504     4136     3899     3154     1968     1132     2194 
    5469     8581     9206     7893     6654     6035     5286     3935 
    2077      754     1102     2203     2001      616       13      277 
     105       96     1672     4733     7121     6432     3940     2750 
    3821     7050    10569    12222    14109    18269    21605    20708 
   17446    16034    17093    18624    18643    14783     6551    -2798 
   -8898   -10458   -10190   -10283    -9950    -8530    -6423    -4018 
   -2691    -3387    -4723    -5397    -5125    -3987    -2790     -751 
    4615    12746    19824    23439    23993    22729    20433    17064 
   12885     9922     9250     9178     8372     6569     3883     1366 
    -609    -2890    -5430    -5946    -2284     3062     4926     2751 
    1365     4574    11379    17989    21433    21490    19490    16686 
   14229    11673     7411     2669      -84    -1613    -3443    -4713 
   -3963     -820     2812     4070     3355     2763     2569     3206 
    5357     7990    10279    12536    14401    15109    14522    12646 
    9710     6708     4479     2875     2000     2213     2312     1274 
      70     -405      556     3098     5234     6011     6886     8531 
   10182    10900    10146     8372     6776     6128     6493     7172 
    6482     3620      131    -1470      -58     2211     2175      462 
     285     2280     3892     3115     1058      248     1276     2608 
    2587     1117      369     1806     3990     6144     8603     9716 
    8618     6948     5361     3762     2518      913    -2081    -5700 
   -7304    -4787     1114     8265    14826    19416    21912    22682 
   21802    20082    18426    16439    13338     9893     7544     6252 
    5608     5900     7344     9475    10425     8700     5675     3465 
    2571     2436     2339     3079     5764     8121     6873     2990 
     970     2991     5792     5380     3079     3127     6026     9256 
   10649     8509     4677     3304     3775     3254     2104      824 
    -859    -1155     1375     5490     9576    12018    10798     6728 
    3672     3493     4621     4981     4062     3435     4105     4102 
    1910     -145      758     3780     6765     9024    10063     9886 
    9291     8326     7058     6267     6189     6284     5801     4088 
    1567      -71     -246     -203     -314      583     3087     5977 
    7674     8471     9369    10301    11678    14058    14639    10224 
    3500     -698    -1336     -228      -10    -1385    -2302    -1047 
    2117     4881     5678     5785     6067     6340     6954     7326 
    6757     6241     6589     7395     8246     8546     7812     6689 
    5542     4207     3371     3822     5850     8683    10605    11523 
   11872     9958     4831    -1028    -4306    -4545    -3987    -4028 
   -4228    -4426    -4544    -3232      796     6283    10383    12646 
   14825    17162    18369    17830    16028    14150    13344    13390 
   13114    12584    13046    14722    15854    14719    12675    11923 
   11415     9406     6061     2367      263      912     2157     1102 
   -1871    -4102    -4535    -3869    -2848    -2101    -1057     1014 
    2645     2590     1986     2428     4206     6403     7665     7398 
    7063     7843     7936     6264     4360     2888     1920     2264 
    4137     7465    11613    14672    15943    16842    17678    17288 
   16900    18929    22041    22841    20044    15083    10828     8138 
    5035      753    -3175    -5872    -7776    -9079    -9834   -10161 
   -9078    -5849    -2150     -388    -1686    -5004    -6637    -4240 
    -387     2063     4011     6794     9692    11140    10470     9707 
   11067    12952    12478     8475     1269    -6434   -10778   -10419 
   -6949    -1771     5101    11918    15016    13754    11340    10614 
   11552    12167    11494    11241    13245    16410    18177    17589 
   14906     9964     2653    -5214   -10457   -12377   -12315   -10086 
   -6773    -5398    -5109    -2776     1954     7263    10603    11081 
   10098     8547     7212     7226     8013     7890     6921     6579 
    6168     4578     4209     6519     8989    10104    10665    11223 
   11778    11861    11112     9689     8120     7229     6555     5424 
    5002     5504     5443     5200     7384    13273    21282    28972 
   34151    35543    33783    29853    23998    17106    10944     7036 
    6569     9325    11636     9422     2678    -5098    -9709   -10058 
   -9297   -10782   -15424   -21910   -27616   -30429   -29745   -25600 
  -17638    -6466     4271    10183    10768     8906     7058     6890 
    9373    13757    18438    22656    27617    34005    39594    42712 
   43804    43082    40722    37943    36293    36057    35699    33796 
   31140    29259    27504    23688    17401    10362     3298    -3594 
   -8417   -10391   -11412   -13367   -17264   -22415   -25401   -24183 
  -21038   -18438   -16277   -12869    -6388     2168     9101    12562 
   13657    14313    16362    20750    26711    32173    34748    31913 
   22855    11492     3092    -1465    -4939   -10327   -18535   -27715 
  -35054   -38142   -35533   -27343   -16113    -7338    -5209    -8318 
  -12965   -17285   -21138   -24396   -26176   -26030   -23444   -17091 
   -7440     2514     9885    13929    15996    17648    19237    19867 
   18389    15402    13453    15076    21575    31925    42161    47888 
   47038    39324    25347     8515    -4106    -8539   -10582   -15664 
  -18417   -15528   -13006   -14357   -18085   -21112   -20244   -16432 
  -11886    -5862     1803     9030    14233    17468    19893    23571 
   28906    32605    32491    31274    32228    35347    38327    38347 
   33477    23910    12900     5701     5979    13679    25609    36783 
   42981    43376    38572    28245    14309      518   -11474   -19586 
  -21381   -18266   -12607    -6024     -836     4256    13270    24837 
   33158    34426    28775    20281    13437     8642     5214     4086 
    4115     3840     6625    15375    25783    31987    33727    33868 
   34094    34228    33402    31873    30820    30930    31381    29386 
   23283    14911     6579     -645    -6122   -10041   -12947   -15112 
  -16980   -19785   -24719   -30513   -35070   -38101   -39079   -36501 
  -29890   -21984   -17508   -16564   -14885   -11377    -7842    -4299 
     982    10061    23008    35357    41436    38931    29365    18765 
   14065    14021    11776     7317     4227      676    -2320      952 
    8582    13584    12818     5769    -4740   -12621   -14974   -13682 
  -11444    -9320    -7612    -8296   -14032   -24958   -37918   -47674 
  -50229   -44744   -30799    -9758    10348    20059    18230    10717 
    3376      932     5554    12670    14780     7288   -10029   -29664 
  -41061   -41895   -34888   -20457    -2339    11131    16855    18420 
   18293    16291    15050    19310    29142    39922    47144    49820 
   50594    50576    47521    40472    31394    23437    20205    22725 
   26856    29470    32870    38196    42477    43117    38353    26784 
   11528      777      -54     7374    19999    34036    40778    35505 
   24101    11035    -4883   -21383   -34424   -44072   -50598   -51609 
  -46758   -40433   -36022   -31749   -25629   -19719   -16951   -15384 
   -9888      458    13372    25802    31992    29757    24210    20295 
   19227    19551    19811    21617    25663    29053    29343    25469 
   17140     6153    -4545   -11942   -13663   -10333    -4051     4100 
   10540     9993     3902     -498     -770     1061     4922     8194 
    4819    -5187   -14840   -18675   -16833   -11867    -5444     1228 
    7390    12290    13728    10768     6175     3115     2191     1607 
   -1051    -4459    -3828     1746     9002    16264    22790    27052 
   27615    23091    14063     3753    -4906    -9836    -9983    -6987 
   -4034    -3620    -6966   -13188   -19250   -22775   -23542   -21889 
  -19029   -17329   -16903   -15506   -12471    -8643    -3394     5031 
   15813    25920    34867    43164    48636    50754    52507    55615 
   59520    62917    64770    64989    63425    60255    56392    52363 
   48654    45590    42399    37103    27798    15757     5746     1157 
     418     -212    -1944    -3840    -5759    -7899    -9679   -11405 
  -14576   -19520   -24956   -29627   -33462   -37477   -41759   -44387 
  -43246   -37610   -28881   -20152   -13226    -7010     -700     3372 
    3300     1170     -753    -3357    -7840   -13459   -18885   -23071 
  -25041   -24795   -23810   -24031   -26658   -31500   -37588   -43639 
  -47264   -46014   -39431   -28236   -13897    -1353     3793     4338 
    7404    11916    13781    14949    17933    23053    30545    38856 
   45839    50805    52646    48970    39285    27058    15639     5514 
   -2894    -7956    -8840    -6951    -3897      993     9243    20889 
   33095    41265    44146    44488    43097    38080    29232    19106 
   12165    11245    13101    13365    12376    10482     6430     1062 
   -5175   -13233   -21825   -28301   -31237   -30181   -25296   -17790 
   -9180      137    10194    19906    27820    33324    35132    31266 
   23075    13629     2173   -11019   -19162   -17022    -6662     7531 
   21420    31967    40247    48620    55993    61007    63981    63398 
   58684    52349    44889    35689    26197    17045     7736     -261 
   -5245    -9498   -17083   -28705   -41902   -53422   -60454   -62204 
  -61038   -60340   -60129   -57772   -53023   -47622   -41857   -34643 
  -23707    -8098     7296    16699    20933    23517    25199    25430 
   24867    26266    31735    38836    42988    41783    35156    24387 
   12181     1903    -4920    -8040    -7082    -4302    -2964    -3341 
   -5204    -8213   -10356   -10414    -8193    -3955      384     2030 
    -847    -6981   -12155   -13730   -12935   -12498   -14272   -18227 
  -22782   -25999   -25894   -21100   -12559    -3414     3457     7063 
    8336     9741    13718    21015    30504    39866    46905    50330 
   50140    47979    45491    42805    39401    34779    28552    20780 
   12269     4477    -1914    -7177   -10938   -12869   -13487   -13635 
  -15006   -18543   -22184   -22872   -19170   -11484    -1553     8023 
   14468    15725    11916     6783     5210     8108    12082    14121 
   14117    13470    13392    13855    14478    15945    17908    17602 
   12514     3607    -3930    -5343    -1256     5130    11391    14651 
   13050     7559     -401    -9352   -17344   -23710   -28427   -31213 
  -32395   -32216   -30320   -26683   -22215   -18412   -15635   -12716 
   -8753    -4343    -1663    -2163    -4051    -3848      207     6570 
   12893    18307    21010    19129    14517    10543     8306     7306 
    8349    13428    21870    30276    36357    38829    36202    29168 
   21191    16041    15486    17309    17537    15434    12781    10655 
    9465     9274     9788    10557    10599     9238     7301     6235 
    5920     4854     2741      185    -2710    -5093    -5814    -4995 
   -2879      257     2310     1212    -2058    -5600    -8965   -11757 
  -13362   -13886   -13474   -11737    -8546    -4626     -503     3714 
    6978     8625    10370    13967    18344    20763    19818    16598 
   13304    11613    11850    12879    13646    14002    13386    10685 
    5593     -754    -6835   -12384   -17596   -21495   -22887   -21637 
  -18097   -12634    -6452    -1860     -175     -173     -239      168 
    1838     5166     9188    13117    17220    22016    27010    30807 
   33000    34537    36174    37911    40037    42950    45413    45338 
   42766    39481    35996    31581    26084    20236    15225    11458 
    8303     5230     1910    -1119    -3070    -4982    -7809   -10747 
  -12858   -13530   -13267   -13790   -15293   -15873   -13769    -8896 
   -3012      892      413    -3102    -5303    -4181     -701     4895 
   12497    20140    25694    28280    28093    26606    25866    26430 
   27024    26740    25178    20566    11855     2028    -3705    -2376 
    4326    11780    15708    13422     5103    -6269   -17411   -24903 
  -26619   -24281   -20165   -15254   -11823   -11085   -10205    -5846 
    1859     9660    14320    14823    12092     8769     7760     9787 
   14341    20478    25806    27493    23467    14212     4872     1146 
    2845     5056     4376      958    -3861    -9026   -13677   -16325 
  -15473   -11555    -5954     -418     2056     -611    -7795   -16680 
  -23255   -25125   -23598   -21123   -17930   -13381    -8374    -4082 
    -541     2550     5037     6802     8180     9441    10603    11416 
   11790    12282    13409    15929    20202    24655    28388    32208 
   35481    36256    32875    24169    11390     -357    -5935    -5999 
   -4711    -3321    -2805    -5384    -9148   -11037   -11292   -10694 
  -10095   -10295   -10616    -9639    -5997      234     7306    14135 
   20779    27668    35048    41846    46552    48995    50093    50707 
   50899    50318    48279    44104    39063    35385    33282    31434 
   28891    25443    21048    15446     8584      739    -7944   -17179 
  -25578   -30936   -32238   -30538   -28079   -26858   -26950   -27487 
  -28547   -29615   -29660   -29054   -28026   -26222   -23903   -20910 
  -16614   -11099    -4857     1731     8078    13548    17811    20360 
   20747    20153    21111    24647    29643    34993    39540    41323 
   39406    34583    27754    19610    11601     5463     1579     -906 
   -2347    -2924    -4264    -7899   -12759   -16576   -18392   -17985 
  -15171   -11450    -9855   -11492   -13792   -13705   -10716    -5191 
    2389     9992    15575    18610    18871    16078    11051     5806 
    2083      737     1693     3567     5113     6383     7802     9733 
   12472    15558    17405    16827    14386    11012     7182     3497 
     694     -485     -182      120     -499     -948      -18      970 
    -388    -4096    -8220   -11939   -15624   -18628   -19280   -16746 
  -11707    -5223     2330    10751    19511    27677    33544    35357 
   33120    29258    26301    24284    21972    18974    15795    13164 
   10904     8391     6529     6461     7447     8485     9735    11236 
   12389    13086    13083    11048     6594     1254    -3059    -4996 
   -4694    -3461    -2423    -2826    -5425    -8949   -11519   -12293 
  -10749    -7010    -2563     1438     5077     8458    11568    14478 
   16516    17004    16236    14571    12610    11280    10224     8715 
    7467     7619     9318    11268    11038     6967      105    -6460 
   -9980    -9501    -5785     -497     4553     8262    10885    13516 
   16633    19428    21101    21666    21080    19587    18298    18117 
   19095    20453    21201    21161    20249    17700    13712    10169 
    8514     8445     8997     9088     7574     4533     1107    -1700 
   -2748    -1756     -247      518     1130     3148     7094    11547 
   14997    17291    18853    20351    22554    25148    26522    25631 
   22970    19019    13730     7698     2213    -1653    -3818    -4571 
   -3596    -1519     -833    -2924    -6235    -8586    -9783   -11122 
  -13107   -14839   -15095   -13203    -9356    -4725    -1068      358 
