Origin Time       2016/04/16 01:25:00
Lat.              32.753
Long.             130.762
Depth. (km)       12
Mag.              7.3
Station Code      FKO013
Station Lat.      33.2252
Station Long.     130.5607
Station Height(m) 32
Record Time       2016/04/16 01:25:15
Sampling Freq(Hz) 100Hz
Duration Time(s)  300
Dir.              N-S
Scale Factor      3920(gal)/6182761
Max. Acc. (gal)   145.081
Last Correction   2016/04/16 01:25:15
Memo.             
[...]
  -19233   -19233   -19238   -19245   -19251   -19251   -19246   -19242 
  -19242   -19243   -19244   -19244   -19246   -19247   -19245   -19241 
  -19240   -19247   -19254   -19252   -19253   -19253   -19242   -19236 
  -19242   -19246   -19242   -19242   -19248   -19253   -19253   -19246 
  -19236   -19232   -19239   -19243   -19238   -19238   -19244   -19244 
  -19244   -19250   -19247   -19241   -19242   -19244   -19245   -19247 
  -19249   -19253   -19253   -19250   -19248   -19247   -19242   -19238 
  -19242   -19246   -19249   -19250   -19247   -19244   -19244   -19243 
  -19242   -19242   -19242   -19243   -19243   -19242   -19243   -19242 
  -19243   -19244   -19242   -19241   -19240   -19239   -19237   -19230 
  -19218   -19210   -19204   -19196   -19185   -19177   -19165   -19150 
  -19139   -19136   -19155   -19183   -19172   -19097   -18989   -18907 
  -18884   -18902   -18895   -18813   -18683   -18599   -18631   -18717 
  -18759   -18728   -18609   -18438   -18346   -18348   -18337   -18296 
  -18210   -18085   -18068   -18177   -18312   -18461   -18620   -18886 
  -19371   -19883   -20129   -20098   -20107   -20271   -20261   -20069 
  -19995   -19953   -19775   -19539   -19407   -19415   -19503   -19823 
  -20354   -20969   -21833   -22622   -22875   -22950   -22964   -22603 
  -21980   -21021   -19669   -18316   -16857   -15348   -14743   -15114 
  -15373   -15266   -15085   -14761   -14950   -16362   -18392   -20153 
  -21538   -22579   -22940   -22924   -22945   -22550   -22007   -21810 
  -21204   -20184   -20004   -20797   -21111   -20258   -19226   -18314 
  -17363   -16968   -16439   -15301   -14810   -14859   -14822   -15694 
  -17689   -19284   -19870   -20865   -22653   -23405   -22858   -22003 
  -20484   -19412   -20228   -21062   -20609   -19925   -19635   -20215 
  -21643   -22058   -20324   -18547   -18456   -18242   -16742   -15241 
  -13985   -12752   -12510   -13424   -14794   -17164   -19952   -20675 
  -20300   -20778   -20337   -19112   -19488   -20539   -20986   -21208 
  -20688   -19566   -18744   -17575   -15273   -13037   -12384   -13163 
  -15218   -17625   -18067   -17588   -18896   -20307   -20103   -20403 
  -21228   -20419   -18443   -16276   -13803   -11664   -10494   -10596 
  -12720   -16412   -20894   -26015   -29698   -31465   -33056   -33470 
  -33072   -32714   -29884   -25066   -20409   -15922   -11727    -7650 
   -4935    -4940    -6431    -9144   -12847   -16088   -18560   -19917 
  -21525   -25290   -28576   -29709   -29752   -28309   -26802   -25907 
  -23593   -21282   -21529   -23367   -24350   -23432   -21070   -18093 
  -15329   -11668    -5427     2032     7519     7461     1544    -5770 
  -12330   -18613   -23733   -28039   -32755   -37141   -38807   -37647 
  -37608   -38916   -36573   -29844   -22082   -14572    -8611    -6528 
   -7333    -8739   -10755   -13224   -16987   -21930   -22502   -17791 
  -14318   -13790   -14581   -15659   -13771   -10211    -9595   -11598 
  -15666   -21290   -26523   -30822   -32896   -33049   -31761   -27730 
  -22726   -17842   -12821    -9329    -7156    -5293    -4228    -4741 
   -9061   -16618   -21698   -22936   -23158   -22249   -20885   -19791 
  -16606   -11992   -10016   -11021   -13071   -17640   -23929   -25730 
  -22349   -20251   -21302   -21619   -20661   -22100   -26856   -31440 
  -34129   -34869   -31099   -24184   -18973   -15558   -12386    -8533 
   -4262    -3007    -6345   -13022   -21945   -29049   -29850   -26958 
  -25522   -26413   -26615   -23484   -20018   -18131   -15462   -14576 
  -17574   -19849   -18595   -16125   -16258   -19071   -19287   -13730 
   -6639    -5778   -10987   -14064   -14325   -14729   -13296   -13048 
  -16594   -19575   -22596   -25953   -25447   -25313   -29258   -32059 
  -32455   -32482   -31853   -31088   -30417   -29495   -26810   -20295 
  -11432     -100    12695    18758    16975    11073     -321   -11299 
  -17928   -26370   -33574   -34490   -32147   -25659   -15313    -8620 
  -10312   -17507   -23586   -25011   -24103   -25264   -30505   -35612 
  -33722   -27265   -22875   -18035   -11343    -6436     -806     6090 
    8748     5864    -1810   -12673   -21106   -24153   -24964   -27870 
  -34486   -42407   -45321   -37354   -21402    -8383    -5309    -9149 
  -12392   -11755   -10578   -12462   -16185   -19288   -21260   -20592 
  -15552    -9160    -4359     -279      319    -5373   -12799   -18541 
  -24796   -29739   -27730   -20944   -17260   -19677   -24008   -25106 
  -24220   -23948   -22031   -20056   -23176   -29663   -36015   -39812 
  -38041   -33559   -29649   -24097   -16174    -8944    -5298    -2982 
    1407     4526     3387    -1153    -8074   -11949   -10919   -12916 
  -20545   -28901   -34265   -33740   -29543   -28241   -29161   -27461 
  -25646   -28298   -32869   -34464   -33508   -32674   -28402   -17894 
   -6936     2872    10878     8187    -4114   -17087   -28668   -34688 
  -34185   -31694   -25155   -17659   -16981   -18653   -16457   -14320 
  -14086   -10678    -7925   -12050   -13328    -6042      -82      958 
    2645     5139     2832     -922      885      543    -6095   -11863 
  -17844   -23216   -23381   -22926   -22181   -18283   -19386   -28411 
  -35629   -38667   -39149   -34829   -30794   -28077   -18909    -6635 
     195     -186    -4786    -6811    -5242    -4390    -6134   -13621 
  -22812   -25626   -25928   -25860   -21907   -16843   -13441   -12948 
  -15601   -20023   -29249   -41052   -44777   -37418   -20784      276 
   11810     9226    -2117   -18980   -31374   -37507   -44489   -42183 
  -28092   -18579   -14394   -10332   -10016    -8197     -719     4299 
    5140     7857    12181    12326     5408    -4180   -12419   -19997 
  -23773   -22909   -25165   -34730   -49795   -66871   -79292   -81798 
  -76320   -66078   -52846   -42228   -32018   -12842     4607     4073 
   -6853   -18761   -30698   -35268   -33310   -31553   -26471   -25257 
  -35588   -42436   -40608   -38801   -37423   -38697   -45182   -55268 
  -64647   -67232   -65440   -58736   -43400   -25326    -3940    17783 
   26123    24935    22370    14479     5526     2366    -1640   -12682 
  -27933   -44995   -57860   -58038   -50061   -37473   -12600    17491 
   33587    31111    19040     6069    -6472   -20220   -32472   -42810 
  -54188   -62221   -62113   -54975   -39024   -15786     7782    30493 
   47348    46725    32286    15595    -2449   -17940   -25057   -28093 
  -31156   -33610   -31200   -21163   -11596   -10018   -12074   -13768 
  -17240   -22973   -32635   -45276   -51104   -49006   -43748   -34092 
  -26697   -25723   -23576   -18777   -11311    -2365    -1782    -4375 
    5402    19443    25651    27252    20371     4899    -6733   -17227 
  -32786   -43179   -46290   -47488   -39902   -23689    -9376     1085 
    5512     -798   -10717   -14153   -14408   -16570   -18738   -24527 
  -35492   -44795   -54257   -63884   -58935   -33979    -2292    18190 
   20151    15620    14518     9566    -3398   -18642   -32593   -44287 
  -52875   -58411   -61133   -61221   -54464   -36547   -15031     2286 
   14689    15385     2563   -12286   -22976   -31522   -39884   -46680 
  -44268   -30146   -13353     1032    10205    10771     8160     3054 
   -5236   -10699   -13921   -15702   -22649   -39194   -49847   -55904 
  -68721   -74790   -68985   -62514   -54979   -43086   -27461   -10513 
   -1700    -2889    -4835    -6861   -10536    -7931     3149    11334 
    8668    -1396   -13044   -20484   -18121    -6920     3069     4669 
    -733   -14482   -32129   -38614   -34459   -30213   -22968   -14618 
  -14921   -21016   -28759   -37009   -41656   -42863   -38789   -29591 
  -25418   -27315   -26527   -22174   -19226   -19491   -17329    -9971 
   -4803    -3106     -733    -1288    -6659   -12756   -19907   -29596 
  -38604   -43024   -41163   -36024   -30370   -26755   -31045   -38788 
  -40423   -38578   -38786   -40821   -44553   -49425   -53376   -55036 
  -49382   -39494   -36876   -32500   -12852    13098    33230    40975 
   32930    18010     7521      252    -8272   -17385   -26428   -34431 
  -37443   -34223   -29219   -24594   -19790   -18252   -20407   -20929 
  -19376   -18536   -17250   -14928   -11750    -4966     4687    10272 
    7501     4659     8506     7880      643     -796     1150     2441 
    7237    10384     8070     3599    -4113   -14384   -21517   -25914 
  -33251   -40170   -42418   -48179   -56997   -58705   -60234   -70448 
  -78200   -71603   -53439   -33571   -19455    -9797    -1087     1708 
   -4001   -15932   -36910   -60613   -75071   -83155   -88934   -88664 
  -79230   -60119   -39299   -25768   -12827     7504    24610    30839 
   34479    35140    25293     6621   -15445   -36297   -50020   -48784 
  -32518   -11578     4121     8906     9928    21687    38823    45118 
   39149    22074    -6838   -33793   -47554   -54083   -53699   -40987 
  -26195   -17675    -4587    14576    26697    30664    30891    26122 
   19413    16295    15302     8342   -11089   -36957   -56494   -68178 
  -77257   -82412   -79102   -67251   -52964   -41350   -29565   -18232 
  -18600   -32877   -49970   -62934   -68810   -65182   -53486   -33139 
   -4114    20241    30686    39265    46081    36808    19613     5898 
   -8686   -27189   -49487   -67032   -68293   -55400   -37025   -20415 
  -11257    -8827    -4355     3657     3862    -6388   -15977   -14301 
   -2009    13117    31170    50416    62059    63066    48823    21100 
   -4028   -22791   -43814   -70420   -99688  -121787  -132342  -133920 
 -118783   -84273   -44862   -10722    13905    24398    23704    17803 
    9377    -1524   -14025   -22039   -29323   -49152   -74971   -90202 
  -95480   -94386   -83100   -67437   -58340   -57638   -62749   -66372 
  -61040   -46154   -21019    10917    38354    53919    57977    52864 
   43982    40555    47156    61508    78025    88330    87956    79937 
   64065    39213    15657     2677    -2386    -5988   -13769   -24769 
  -35915   -52220   -73003   -88102   -92932   -85525   -62804   -28519 
    7004    33446    45500    47583    48014    43437    24195    -8482 
  -45260   -75466   -89636   -86998   -75987   -64216   -52441   -41177 
  -35567   -36147   -38628   -47166   -68820   -99140  -127124  -145101 
 -151460  -149794  -141596  -124629   -97671   -61041   -19129    24317 
   65763    95643   113720   124857   124088   112727    94072    60484 
   10585   -42099   -80403   -98877  -100469   -81441   -43480    -5887 
   10160    -1454   -27927   -45230   -32623    12132    69542   117827 
  142724   130406    86765    42685    15051    -1987   -17942   -42133 
  -75906  -106377  -116530   -98982   -63188   -29571   -15107   -25478 
  -51710   -74605   -81709   -76719   -74669   -83418   -96891  -111382 
 -121022  -114650   -92156   -59998   -24759     5063    23962    29682 
   26178    22895    20350    14644    10941     9863     2002   -11828 
  -21416   -26852   -33115   -37692   -40146   -42820   -44916   -47538 
  -48405   -39682   -15899    19643    55219    88323   123047   151708 
  166283   166535   154888   135973   107482    63085     9156   -39851 
  -74402   -90574   -88107   -68962   -38852    -8347    14902    26205 
   16669   -15561   -56421   -88454  -103187  -105103  -102272   -97637 
  -94303   -93114   -87775   -71173   -42270    -8577    17261    25316 
   11332   -21068   -54687   -73329   -75934   -65101   -50723   -47679 
  -54436   -60240   -55391   -37697   -21603   -18862   -25178   -36470 
  -54985   -74773   -85475   -90030   -94321   -96907   -93168   -74001 
  -38167      639    27660    32496    11542   -20696   -38396   -32946 
  -15822    -2440    -3838   -13391   -18494   -22651   -34422   -55612 
  -74599   -70466   -42817   -14320     1609     7018      733   -19833 
  -47496   -73612   -92387   -96264   -87228   -71117   -42258    -3624 
   31133    62159    93608   116240   121112   107774    74888    31537 
    -453   -11800    -6361     9494    21726    17480     2619    -6210 
    -708    15063    31004    37902    29899    12156     -540    -2843 
    2275     6541    -5154   -32611   -59415   -75704   -78512   -63462 
  -31013     3828    21664    20390    15731    18562    19779     4511 
  -29609   -74715  -117895  -148029  -163173  -162194  -139139   -96723 
  -52714   -19841     3005    17080    22624    21317    16819    10471 
   -3670   -22360   -35817   -44999   -52351   -56903   -57520   -53595 
  -48800   -48255   -51124   -47066   -30890   -12405     -898      575 
   -3207     1217    19673    45975    72773    99331   123417   133303 
  126426   110816    90189    67224    39293     1342   -40480   -74626 
  -90981   -86076   -69668   -54166   -44216   -38300   -36371   -50078 
  -87612  -133727  -171251  -200923  -224224  -232419  -218912  -183483 
 -132629   -85918   -52184   -14280    32462    72027    97764   107582 
   97874    73621    41854     8381   -22141   -48730   -66678   -68779 
  -52566   -25984   -10442   -18107   -31615   -30009   -16002    -2714 
    4723    11551    24806    41704    51894    53628    59285    73064 
   85742    95950   105421   109817   106746    98721    91661    88773 
   85872    78363    69634    64321    57935    45411    28786     9092 
  -17746   -51541   -80041   -93276   -95951   -93242   -83882   -68436 
  -50563   -37435   -36604   -46462   -56440   -57150   -47598   -31386 
  -15920   -12820   -20362   -27343   -35924   -52978   -80580  -116775 
 -155602  -195277  -230039  -248084  -246725  -227576  -193197  -152319 
 -113649   -78478   -42119    -7195    14453    16749     3320   -13885 
  -21366   -17575    -7196     9868    32015    51149    66134    87620 
  114703   131452   127843    97024    38716   -23896   -67331   -90749 
  -94027   -73539   -43953   -27001   -24997   -25501   -22250   -15641 
   -5148     6017    14886    24223    33919    41781    50476    61839 
   71212    73170    65913    49719    28109     4709   -17189   -32456 
  -42502   -53299   -68531   -85337   -92768   -88320   -77755   -64175 
  -54249   -52990   -58767   -68588   -78138   -83338   -79410   -62876 
  -37705    -9727    16709    36209    46780    49635    46040    39461 
   34988    33671    29771    20457     9914     -465    -8464    -7584 
     792    10218    17978    20940    18498    11937    -3652   -30573 
  -60038   -78570   -79240   -66438   -45897   -25658   -20247   -31346 
  -47949   -62753   -64389   -45851   -23705   -13907   -13974   -20859 
  -27197   -19409    -1585     7966    -3060   -30916   -56102   -64509 
  -59465   -48504   -36778   -31328   -37513   -52984   -68388   -73887 
  -68997   -57280   -38535   -20288   -10812    -4843      649     3695 
    6008     5723     3190     4313     7284     6801     4497     2065 
    -200     1841     4816     2782     3380     9035    14925    23497 
   31157    33415    33999    32164    23609     6985   -11079   -20408 
  -23034   -22452   -15929    -9129    -5533      -51     9233    21791 
   32531    36652    33807    22106     4421   -13118   -26385   -32884 
  -36272   -40700   -48451   -62466   -80623   -98803  -113610  -121996 
 -124884  -120194  -104081   -83593   -67372   -51279   -28865    -2165 
   24583    43836    45090    27710    -2497   -37044   -58642   -55589 
  -35885   -15816    -5986    -7976   -14710   -18845   -20351   -21461 
  -23889   -26849   -28948   -33342   -35402   -25205    -6459    10644 
   19362    17931    12129     8117     8670    12021    10842      136 
  -18530   -37691   -51693   -60742   -60887   -48955   -31574   -17954 
  -11727    -8081    -1958     5623     9837     5386    -6098   -21623 
  -40581   -52823   -50039   -37020   -14792    13045    29475    28652 
   16936    -5334   -31040   -46123   -48506   -43071   -34010   -27010 
  -23015   -17633   -11653    -9374   -11141   -14610   -15062    -8111 
    7090    25747    36739    36409    29915    20157    12871    12677 
   13785     9748     2128    -4520    -9417   -15948   -24886   -31636 
  -37062   -46286   -54535   -54976   -50682   -48397   -49978   -49955 
  -43462   -34843   -32076   -37198   -45561   -53045   -58396   -59108 
  -55329   -47799   -31214    -6010    18352    35194    43520    46362 
   46012    43826    42147    37318    23089      893   -23066   -44185 
  -60202   -71157   -78953   -81526   -71965   -49158   -20251     6808 
   27008    39504    45454    43750    34094    22954    18113    19236 
   19588    17106    18767    27471    37696    45307    44867    30451 
    5318   -20901   -41438   -59061   -79320   -97624  -108855  -115705 
 -119302  -119905  -116914  -108235   -98568   -92195   -86915   -83121 
  -80755   -75151   -67118   -61404   -57701   -54398   -49682   -42467 
  -35939   -32592   -31910   -29564   -19866    -3531    14388    31056 
   43657    46348    35501    11655   -18259   -42063   -57864   -69494 
  -71158   -59873   -44312   -31846   -24260   -21205   -18664   -13058 
   -2951    12550    27060    32835    33366    35138    40049    46998 
   47025    30497     1250   -29562   -56083   -75814   -81054   -67677 
  -46490   -29115   -17941   -11421    -3556    11362    29498    40589 
   37807    21248    -3137   -24153   -33560   -33276   -28005   -21209 
  -18973   -21798   -22403   -18548    -9898     2540     8966     4654 
   -4845   -12381   -12148    -6366    -1966     -768     -469     1050 
    4951    12580    21226    25122    24375    22191    20126    20076 
   19767    13902     5748     2478     1876    -3191   -14983   -30301 
  -44836   -55322   -58268   -53965   -46867   -39335   -33164   -28489 
  -22460   -16966   -15132   -14872   -15337   -17263   -20312   -26292 
  -34621   -39903   -38841   -32303   -25027   -23554   -31190   -47780 
  -66924   -78232   -81254   -81555   -80948   -83438   -91713  -101118 
 -104344   -96761   -82831   -72525   -69517   -70194   -69633   -65569 
  -57827   -45551   -30388   -18305   -12763   -13397   -18753   -24485 
  -28346   -33433   -39449   -42107   -38076   -23811    -3937     8773 
   12913    13322     8729      720    -8822   -20048   -29551   -34172 
  -29539   -13980     5638    23174    34156    34217    24487     7807 
  -13078   -32639   -46167   -51386   -49170   -45314   -44910   -49829 
  -58215   -61963   -56210   -43410   -27117   -12358    -1738     5813 
    8809     6341     2634     3157     7850     9984     5050    -3807 
  -12702   -19190   -18562    -9341     5417    21496    32523    36645 
   36364    30652    18346      417   -20751   -39934   -51590   -54611 
  -52763   -49912   -48228   -47203   -44074   -41295   -45306   -56018 
  -66343   -71462   -71882   -67421   -58303   -47649   -35207   -20570 
   -8651    -3941    -8969   -21767   -32776   -35244   -29238   -15761 
     348    10618    12977    12996    15168    18849    18366     6310 
  -15336   -33749   -40028   -34577   -22227   -10856    -5149    -1367 
    2792     4025     2921     1313    -1222    -3842   -10392   -22664 
  -31095   -30442   -25634   -20361   -16247   -15221   -17687   -21406 
  -22376   -22772   -29178   -37584   -39713   -36103   -30309   -26883 
  -28362   -30065   -29910   -30089   -31369   -35355   -41075   -44108 
  -41983   -33591   -20146    -8390    -4424    -7373   -14522   -22563 
  -25230   -21515   -17056   -13949   -10955    -9509   -11386   -17700 
