Origin Time       2016/04/16 01:25:00
Lat.              32.753
Long.             130.762
Depth. (km)       12
Mag.              7.3
Station Code      FKO006
Station Lat.      33.5969
Station Long.     130.3985
Station Height(m) 3
Record Time       2016/04/16 01:25:26
Sampling Freq(Hz) 100Hz
Duration Time(s)  100
Dir.              N-S
Scale Factor      3920(gal)/6182761
Max. Acc. (gal)   57.398
Last Correction   2016/04/16 01:25:26
Memo.             
[...]
   12126    12828    13332    13257    12731    12695    13467    14637 
   15646    15744    15305    15679    16912    18328    19835    20642 
   19855    18426    17844    18277    18972    19264    18861    17600 
   16247    16126    16620    16347    15841    15737    15501    15045 
   14511    13722    12904    12247    11704    11397    11001    10304 
    9839     9599     9165     8738     8690     9191    10033    10789 
   11476    12089    12274    12240    12563    13178    13515    13270 
   12787    12679    13050    13875    15410    16864    17122    17334 
   19090    21668    23736    24568    23677    22079    21738    23018 
   24767    25545    24232    21492    19407    18539    17859    16929 
   15686    14069    12640    11905    11691    11102     9222     6850 
    5441     4718     4422     5455     6924     6899     6129     6200 
    6819     8056    10533    12829    13399    13022    12772    13041 
   13981    14813    14660    13655    12699    12953    14531    16452 
   18085    19055    19208    19226    19630    20139    20350    20150 
   19884    20011    20802    22279    23661    24146    24015    23617 
   22917    22066    21026    19552    17540    15412    14252    14409 
   15021    15300    14878    13647    12166    11456    11571    11415 
   10593     9553     8513     7837     7783     7589     6527     5326 
    5192     6353     8629    11579    13757    14549    14951    14805 
   13638    13033    13859    14819    15378    16468    18668    21375 
   23159    23220    22503    22023    21236    19861    18730    17624 
   15940    14630    14254    13968    13135    11466     9467     8741 
    9652    10691    10654     9590     8720     9592    12086    14621 
   16465    17905    18823    18919    18827    19415    20632    21924 
   22474    21721    20229    18495    16522    15363    16049    17541 
   18267    18199    18005    18095    18480    17924    15425    13137 
   13325    14287    14491    14755    13678    10254     8151     9418 
   11700    13250    13056    10721     8347     7037     5551     3803 
    2348      941       32      489     2061     3785     5133     6467 
    8493    11114    13671    16209    18530    19415    19344    20580 
   22875    24098    24295    24113    22705    20521    19555    20056 
   20702    21047    21692    22583    22694    21792    20802    20476 
   20510    19177    15152    10164     6850     5525     6094     8064 
    8141     5026     1851      202     -177      824     1327     -142 
   -1556     -943     1365     4337     7001     8250     7914     7631 
    9136    13024    18114    20883    19625    17439    17101    18276 
   20655    23426    24871    25503    25768    24581    23009    21142 
   17179    13520    12382    11035     8420     6037     4248     4267 
    7014    10255    11714    11195     9475     8729    10945    13938 
   13731    10626     7470     5073     3982     5236     7342     8214 
    8177     7825     7335     7640     9033    10952    13065    15018 
   16732    18128    18996    19938    21259    23503    27685    30746 
   28859    24822    22453    21032    19663    18465    16704    14069 
   11789    11601    13027    13028    10458     7820     7237     8259 
    9602    10291     9723     7689     4647     2520     3377     6480 
    8967     9098     7320     5496     5276     6241     6531     5923 
    6501     8862    10561    10279     9428     8912     8910    10186 
   12627    15436    18244    20472    22090    23797    25310    26096 
   26435    26692    27645    29623    30788    29552    26641    23340 
   21138    20968    21094    19927    19018    20211    22690    24223 
   24512    24668    23726    21569    21424    23937    26117    26361 
   24708    22093    19861    18072    16538    14853    11777     8354 
    7128     7917     9290    10325     9991     9106     9705    11702 
   13675    14194    12085     8344     5177     2993     1844     2751 
    4865     5979     6544     8026     9032     8068     6785     6920 
    8249    10614    13660    15801    16104    15322    15352    18217 
   23422    27830    29842    30709    31431    32012    33139    35175 
   36645    35849    33571    32691    33670    33576    31107    27484 
   22917    17171    11366     5967      153    -5210    -8022    -8717 
   -9578   -11449   -13958   -15934   -15297   -12345    -9646    -7759 
   -6489    -6067    -4912    -2294      465     3419     6314     7443 
    7871    10142    14089    18679    22907    25127    25815    26947 
   28983    31427    33379    34464    35411    35698    34472    33166 
   33280    34352    35071    34551    33336    32180    30161    26929 
   24364    23699    23240    19809    12945     5922      581    -3920 
   -7417    -9947   -12736   -15144   -16343   -17385   -17912   -17267 
  -17531   -19379   -19914   -16962   -11702    -7339    -5275    -3117 
    1398     6719    10453    12986    15542    18155    20478    22147 
   23724    26156    28425    29873    32031    35133    38094    40637 
   41774    40797    39717    40010    39646    36835    33114    30080 
   27086    23930    21605    19860    17019    12552     8256     5274 
    2402     -714    -3115    -5256    -7937   -10763   -13561   -16314 
  -18124   -18432   -17746   -16546   -14832   -12405    -9183    -5779 
   -2808      357     4141     7896    11847    16110    19422    21750 
   23734    24704    25010    25907    27063    28065    29532    31307 
   32629    33530    33822    32902    31457    29938    27461    25058 
   24693    24978    23679    21519    19578    17234    14421    12063 
   10689    10488    10037     6771     1865    -1092    -2585    -4761 
   -6187    -5075    -2615     -641      235      499     1489     3944 
    6507     7838     8717     9245     8037     6103     6039     7857 
    9774    10684    10506    10418    12151    15653    18930    20653 
   20866    20282    20524    22896    26445    28581    27947    26117 
   25283    26000    28047    30410    31128    30030    29131    29013 
   28494    27075    24395    20326    16334    13454    11505    10620 
   10079     8510     6451     5491     5558     5223     4325     3947 
    3676     2772     2587     3496     3259      989    -1934    -4075 
   -4018    -1627      642      783     -661    -2151    -2076      434 
    4343     7808    10346    12765    15024    16113    16411    17039 
   17333    16645    16316    17574    20562    24602    27610    28186 
   28072    29691    32519    34559    35199    34250    31570    28678 
   27628    28286    28338    26465    23947    21698    18913    15745 
   13067    10104     5982     1855     -860    -2330    -3258    -4318 
   -6329    -8986   -11296   -12856   -12546    -9887    -7103    -5265 
   -3100    -1014     -103      573     2136     4521     7277     9829 
   12100    14603    17337    20455    24670    29035    31706    33105 
   34498    35753    37074    39289    41733    42841    42246    40738 
   39622    39722    39430    36986    34101    32321    30322    27456 
   24339    21537    19780    18765    17265    14570    10888     7355 
    4257      945    -1471    -1995    -2387    -3864    -5497    -6976 
   -8429    -8999    -8516    -7811    -7307    -6968    -5907    -3466 
    -812     1590     4443     6905     8535    10821    13808    16224 
   18505    21332    24327    27443    29748    30122    30297    31334 
   31149    29574    28345    27033    25284    24067    22934    21179 
   19427    17679    14958    11007     7622     7404     9290     9510 
    7570     4887     1398    -1891    -2990    -2107    -1293    -1836 
   -3004    -3615    -3327    -2071     -284      956     1269     1688 
    3281     5492     6860     7135     7660     9387    12237    16658 
   22747    28656    32614    34518    35163    35327    34588    32629 
   31384    31744    31574    30428    30020    29578    27180    23966 
   22050    20604    18149    15479    13118    10529     8185     6203 
    3759     1151     -588     -804      575     2566     4338     6289 
    8237     8919     8358     8341     9762    11296    11809    11985 
   12597    13839    15556    16560    16552    17132    18142    17976 
   17104    16033    14367    13288    13919    16209    20504    25820 
   29188    29330    27916    27263    27825    27936    27256    27376 
   27511    25455    21847    18421    15552    13188    11371    10535 
   10901    11270    10374     8494     6852     6439     6867     6928 
    6962     7997     9131     9389     9367     9138     8889     9953 
   11978    13349    14379    15872    17120    17696    17785    16946 
   15499    14751    14923    15635    16602    17000    16513    15496 
   13981    12769    12774    12555    10914     9984    11366    13208 
   13816    13589    13009    12313    12086    12513    13536    15338 
   17477    19185    20394    20754    19703    18460    18637    19683 
   20568    20822    19321    16194    13340    11118     9261     8926 
    9490     8728     7338     6912     6720     6366     5792     4344 
    3480     4598     5879     6411     7918    10389    11798    12148 
   13306    15705    18277    20448    22710    25677    29053    32224 
   34681    35728    36379    38589    40889    41023    40533    40665 
   40308    39274    36709    31173    24892    20590    17684    15408 
   13062     9197     4650      952    -2647    -5909    -7287    -8112 
   -9897   -10340    -8022    -5391    -3832    -2244     -476     1497 
    4796     8806    11663    13117    13621    13581    13769    14005 
   13454    12254    10605     8526     7767    10225    14851    19028 
   20841    20041    18836    19450    21612    24697    28639    31787 
   32235    30740    29265    28682    28998    29051    27471    25073 
   23079    21488    21036    21809    21565    19099    15538    12246 
   10017     8787     8324     8519     8194     6718     5059     3626 
    2357     1350      211     -760     -578     1056     4177     7962 
   10548    11642    12688    14845    18174    21052    21846    20903 
   18777    16113    14979    16028    17409    17846    17412    16734 
   16488    16756    17506    18345    18430    17972    17574    16637 
   14609    12427    10986     9653     8158     7353     6888     6508 
    8013    11650    15650    20022    24501    27079    28612    31464 
   34308    35266    34993    33996    32821    32195    30979    28694 
   26608    24146    20919    19371    19847    19353    16721    13007 
    8975     5670     3823     2373      562     -815    -1792    -3579 
   -6277    -8623    -9413    -8645    -6968    -4062     -103     3278 
    5967     9367    13896    19106    24091    27756    30263    32901 
   35721    36909    35439    32046    27310    21692    16265    11896 
    8967     6918     4498     1806      655     2325     5712     8943 
   12322    16847    21416    25206    29417    33599    35508    35534 
   35545    34616    30733    24472    17559    10535     4083     -810 
   -5209   -10515   -15714   -20323   -24856   -27476   -26656   -23223 
  -17089    -8862    -1921     3266     9090    13396    13772    14142 
   16271    15788    11825     8073     5342     2916     1961     2244 
    2199     1679      690     -177      850     4163     9204    15628 
   21953    27126    32755    40297    48376    55532    62311    68321 
   71572    72326    72656    72718    71671    69107    63302    53313 
   42062    31556    20587    10842     4804     -532    -7483   -13528 
  -17300   -19098   -18424   -16324   -14710   -13167   -10870    -8556 
   -6165    -3398    -2194    -3696    -5551    -5730    -4992    -4005 
   -2829    -2280    -2185     -962     2079     6202    10426    13840 
   15773    16882    18407    20606    23374    26192    27929    28593 
   29376    31075    33821    37192    40731    44549    48295    50882 
   52172    52760    52074    49023    44166    38853    33093    26898 
   21252    16145    11323     7232     2681    -4013   -11867   -18947 
  -24777   -29035   -30782   -30460   -30072   -30537   -31160   -31238 
  -30402   -28270   -25174   -22515   -20931   -19564   -17886   -15791 
  -12186    -6072     1229     7315    11250    12638    11780    11402 
   13445    16483    19204    21612    23050    24146    26597    28952 
   29153    28729    29721    32088    34556    35059    33350    32735 
   35083    37782    38563    38480    38615    37639    34748    32511 
   33106    34829    35670    35627    34908    33401    31091    28765 
   26414    21503    14162     9004     7576     7662     8839    10879 
   11927    11709    11279    10742    10443    11057    11658    11383 
   11702    13766    15793    15778    14203    11652     7367     2130 
   -1951    -5063    -8602   -12179   -15254   -18280   -20698   -21372 
  -20272   -17655   -13573    -9277    -7080    -7147    -6916    -5569 
   -4495    -2838     1234     6385    10675    15122    21658    30399 
   39172    45198    47964    48988    50086    52463    54697    54648 
   53238    51411    48370    44728    41652    38362    33273    26857 
   20801    14302     6262    -1313    -6663   -10619   -14791   -20189 
  -26977   -35099   -43706   -50718   -55313   -58307   -59923   -59477 
  -56291   -51228   -46522   -42694   -38560   -33196   -25755   -16697 
   -7178     3629    15667    26470    35409    43891    52602    61799 
   70656    77062    82013    88651    95667   100348   103354   104617 
  103751   102324   100092    96395    92129    86308    78017    68523 
   58091    46665    36150    27783    20018    11689     3757    -3360 
   -9669   -13659   -14066   -12540   -12548   -15498   -20317   -26045 
  -30753   -31544   -29408   -28902   -31806   -35887   -38593   -38263 
  -34428   -28620   -22494   -16474   -11113    -6665    -2215     2595 
    6771     9722    12727    17135    22822    29724    36536    40416 
   41487    41601    40563    38541    36441    33749    30535    28052 
   27122    28639    32822    37660    40211    38937    34291    27462 
   19512    11664     5226     1109     -936    -2049    -2660    -3083 
   -4300    -6057    -6372    -3654     1437     6821    11115    13485 
   13516    12071    10711    10427    10080     7344     2412    -2820 
   -7347   -10104   -10735   -10683   -10656    -9892    -8057    -4940 
     263     7339    14500    20860    27555    35366    43397    50505 
   55736    57982    57372    55788    54108    50504    44199    37976 
   33099    27561    21861    18439    16688    14913    13165    11685 
   10051     8607     9258    13273    19568    26774    33933    39641 
   43740    47175    49808    50686    49147    45895    42768    40845 
   40227    40022    38285    34153    28643    22766    16687    10752 
    5254     -736    -7537   -13817   -19505   -25719   -32005   -37055 
  -40461   -42406   -42776   -41601   -40411   -41408   -44620   -47356 
  -47474   -45800   -44134   -43195   -43051   -42865   -40743   -35764 
  -28921   -21155   -12589    -3518     6771    20323    37360    55179 
   70397    80881    86639    89393    90321    88543    83388    76335 
   68274    58037    45584    33631    24662    18614    14332    10727 
    7157     4586     4165     5041     5888     7082     9496    12327 
   14712    17909    22261    25297    25387    23018    19245    15499 
   12273     8885     5410     1953    -1585    -3842    -3903    -2666 
    -978      211      442     1411     4282     8155    12764    18522 
   24911    31217    36362    38441    36884    32939    27050    18930 
    9845     1874    -4143    -8217   -10306   -11064   -11617   -11566 
   -9186    -3894     2901     9314    14588    18488    20261    19912 
   18732    17261    14872    12120    10982    12164    14751    17910 
   20718    22439    23558    24608    25335    25887    26773    27291 
   25900    22420    18081    13541     8640     3860     -172    -4491 
  -10092   -15509   -19358   -22075   -23806   -24666   -24984   -23632 
  -20210   -16721   -13828   -10340    -6919    -4529    -1836     1907 
    5898    10094    14404    18262    22505    27564    31693    34130 
   36081    38137    40096    42277    45055    48064    51260    55275 
   59500    62525    64485    65977    66502    65690    63674    60274 
   55580    50490    45877    42277    39885    37713    34657    31190 
   27665    23679    20151    17730    14758    10316     5634     1659 
   -1781    -5413    -9339   -12755   -16032   -20372   -25471   -30230 
  -33926   -36171   -37431   -38558   -39454   -39171   -36737   -31676 
  -24419   -15782    -6330     2969    11027    18037    24101    28134 
   30556    33381    37275    41536    45641    49259    51873    53829 
   56135    58631    60870    63180    64902    64668    63089    61875 
   60397    56652    50904    44684    37963    30516    23257    16392 
    9284     1450    -7660   -17583   -26749   -34611   -41543   -47111 
  -50149   -50561   -49808   -48788   -47168   -44911   -41976   -37649 
  -31682   -24503   -16218    -6346     4917    15640    24201    31385 
   38616    45760    52005    57300    61813    65377    67938    69455 
   69633    68316    66066    63774    61112    56855    51133    45217 
   39544    33817    28342    23657    19922    17914    18191    19134 
   18917    18035    17305    16216    14910    13840    11623     7105 
    1304    -4508    -9765   -14240   -17978   -20828   -23261   -26268 
  -29139   -30318   -29765   -28231   -25712   -21191   -13737    -4225 
    4860    11406    15451    18481    20827    22296    23638    24337 
   23262    21062    17529    11909     6043     1493    -2245    -5310 
   -7090    -7157    -6160    -5756    -6671    -8223    -9844   -10868 
   -9697    -5558      185     5787    11245    17904    26125    34477 
   41607    47317    51859    55848    59934    63796    66961    69726 
   72143    73972    75319    75633    73808    70164    66382    63259 
   59684    54319    47096    38292    28147    17688     8526     1902 
   -2596    -6715   -10730   -12940   -12591   -10641    -8350    -7103 
   -7766    -9633   -11095   -10663    -8147    -5394    -3722    -2253 
    -573     1049     3359     6058     7569     7888     8238     9149 
   10457    12252    14889    18018    21006    23919    26662    28358 
   28170    26283    24040    22500    21755    22150    23909    25964 
   27557    29304    31641    34204    36350    37684    38301    38340 
   37748    36488    34792    33001    31092    28924    26508    23995 
   21451    18424    14531    10334     6761     4054     2123     1049 
     588      608     1602     3464     5228     6727     8720    10867 
   11241     8560     3799    -1036    -4881    -7750   -10126   -12467 
  -14447   -15708   -16533   -16371   -14097   -10078    -5670    -1248 
    3610     8534    12666    16274    19824    22562    24114    25252 
   26326    26966    26890    26194    24749    22231    19336    16765 
   14285    12585    12832    14609    17048    19975    23016    25831 
   28474    30223    30215    29261    28612    28169    27654    27300 
   26525    23985    19186    12988     6835     2160     -210     -953 
   -1798    -3508    -5608    -8020   -10400   -11275   -10439    -9101 
