Origin Time       2016/04/16 01:25:00
Lat.              32.753
Long.             130.762
Depth. (km)       12
Mag.              7.3
Station Code      FKO005
Station Lat.      33.6519
Station Long.     130.6962
Station Height(m) 28
Record Time       2016/04/16 01:25:23
Sampling Freq(Hz) 100Hz
Duration Time(s)  137
Dir.              E-W
Scale Factor      3920(gal)/6182761
Max. Acc. (gal)   95.867
Last Correction   2016/04/16 01:25:23
Memo.             
[...]
    1974     2611     3156     3254     3199     3315     3988     5075 
    5241     3834     2264     2094     3240     4160     3732     3153 
    3812     4644     4526     4115     3589     2270      690      217 
    1312     3540     5906     6965     6315     5181     4348     3406 
    2372     1707     1511     2021     3263     4587     5812     6748 
    5931     2904       42     -326     1212     2395     2261     1902 
    2352     2918     2628     1996     1751     1946     3105     4912 
    5417     4400     3528     2985     2523     3092     4143     4048 
    3708     4498     5381     5613     5764     5476     4394     3977 
    5451     7550     7980     6284     4089     2412      743     -645 
    -610      555     1637     2166     1980      958      -37      493 
    2286     2725      593    -1380     -185     3408     6095     5735 
    3838     3556     5002     6040     6437     7106     7593     7290 
    6684     6033     5066     3727     1976      436      742     3128 
    4739     3054      323     1136     5902    10284    10887     8567 
    6384     6056     6200     3956    -1220    -5763    -5797    -2884 
   -1707    -2363    -1373     1234     2570     2598     3540     5153 
    5248     3758     2208      991      646     2805     7406    11408 
   11502     8159     5586     5809     6476     6206     6243     6269 
    4345     1132     -157     1424     2631      516    -2986    -3499 
    -654     1532     1663     2888     5746     6645     5102     4417 
    5159     4760     2545      885     1388     2307     1805      958 
    1107     2607     5668     8816    10398    10339     7314     1587 
   -1840    -1025      545     1425     2129     1877     1148     1633 
    2992     4145     5449     6888     7650     7279     4852     1205 
     500     3989     7389     7933     7279     6260     3207    -1517 
   -4023    -2132      842     1190      743     3008     7211    10319 
   10673     7723     2285    -2617    -4382    -4237    -5141    -6100 
   -2830     4928    12596    17483    19621    17393     9067    -2212 
  -10029   -11314    -7734    -1236     7113    13577    13957    10349 
    7037     3046    -2615    -6377    -5871    -2475     2728     9575 
   15760    17762    14561     8820     4233      435    -5645   -11535 
  -11448    -6323     -401     6018    11571    12160     7097     -218 
   -4634    -2752     1964     3334     1869     2758     7451    12994 
   16377    15684    10403     3807      626     1236     3328     6069 
    8115     8433    10687    17397    21321    13509    -2924   -15892 
  -18799   -16462   -15030   -12481    -7522    -5756    -6629    -3105 
    2140     1436    -3396    -7357   -10323   -11315    -6137     5752 
   15892    15217     9177    11391    22277    29492    26768    19463 
   14238    13196    15728    17792    14594     8353     5162     6448 
    9997    12022     7042    -6202   -19746   -22492   -13049    -3121 
   -4435   -15214   -22761   -19471    -9687      601     8293     9804 
    4269    -2495    -1251    10772    23478    23562    12269     5262 
   11093    21475    25018    19431    11273     6650     3433     -828 
   -1909     2120     6165     5670     1366    -4194    -8645    -9368 
   -7600    -6399    -3774     2014     6388     5479     3525     5500 
    6269    -1479   -12837   -15987    -9781    -4055    -1589     4117 
   12890    17105    16269    17546    20278    16200     8481     8191 
   11532     8012     4332    11765    22687    24674    18905     9619 
   -2100   -12859   -19452   -20978   -19240   -19569   -23303   -24749 
  -20572   -12077     -690     9656    12971     6793    -6400   -16074 
   -9486     8904    21366    21674    18693    21017    28896    37322 
   40206    33438    19180     5465      964    10021    25731    32015 
   21695     3535   -11764   -19603   -19085   -15659   -17638   -25330 
  -31811   -28755   -15671    -5941    -7021    -8512    -4549    -2264 
   -5463   -11363   -13671    -3922    16880    37293    47831    43637 
   28732    17926    18694    22625    21248    17221    16655    18495 
   18710    17502    16777    15766     9338    -4103   -15882   -19578 
  -20277   -24540   -32427   -39532   -40337   -34012   -26144   -20496 
  -16564   -13538    -9389    -4990    -7565   -15452   -11598     9507 
   28578    31726    28119    29119    34399    37529    33877    28409 
   28933    31556    30195    30167    35876    40970    37539    23574 
    5315    -8982   -20570   -32282   -38506   -37626   -34822   -27335 
  -10087     6044     2589   -19435   -36810   -34287   -22446   -17140 
  -17680   -14708    -6559     3098    16528    35176    47981    45956 
   36618    30049    28232    30106    33191    34407    31987    25574 
   18378    15011    15701    17384    15876     5307   -16989   -43586 
  -59191   -55485   -41110   -28539   -20006   -12227    -4864    -1694 
   -4013    -8371   -13074   -16419   -14794    -8573      782    12848 
   23321    28811    30737    30966    32116    33667    28066    14646 
    6008     8311    12134    11182     9432     4920   -10018   -30444 
  -41231   -37649   -29444   -24407   -19194    -8730     4205    13214 
   18078    21666    19839     9685      660     1415     7530    12058 
   16226    22329    25196    21006    14764    10654     4431    -9690 
  -24974   -25685   -10148     9076    24822    34708    34738    27203 
   21524    21884    21043    10374    -7113   -21240   -25437   -16505 
    2626    17847    16741     5022     -930     5170    13653    13888 
    7918     1161    -7875   -15859   -12061     1545     8152      729 
  -10556   -16347   -15969   -12026    -7763    -6321    -8935   -12512 
  -11229    -1850    12245    22171    23280    20058    17588    16444 
   15707    14705    14112    16070    19824    21314    19512    15848 
   11198     9003    11388    13901    11635     4131    -5854   -12761 
  -12170    -7416    -5466    -6976    -7422    -4219     1254     7053 
   14161    20610    17862     4377    -9025   -15460   -19712   -25256 
  -26006   -18740   -10407    -4688     3209    16068    28013    28081 
   13657    -3050   -10088    -8648    -4274     1827     7781    10532 
   12600    19045    28398    34160    34169    32136    28910    19579 
    2217   -16745   -27319   -25162   -17423   -15184   -17857   -14910 
   -5518    -1171    -5872    -9748    -5984       81     2309     2273 
    5688    15377    27224    34808    34586    26881    17669    13173 
   12765    12544     9331     2737    -3049    -4872    -4912    -7281 
  -14054   -21682   -22597   -15181    -6337    -2073    -3209    -7201 
   -7502      198     9612    13264    11850     6249    -4526   -16922 
  -24451   -21134    -5792    12590    23891    28470    29394    27052 
   24686    21290    11500     1363       25     3066     4505     5879 
    4709    -2727    -9998   -11263   -10258   -10236   -10302    -9143 
   -5751    -1293     3613    13879    31448    44542    40536    24073 
    7078    -6176   -14504   -17363   -18880   -24215   -32399   -34666 
  -23744    -6599     1018    -4446   -10680    -8777    -1840     5886 
   13524    20607    27884    33481    34025    33159    33898    29979 
   16101    -4405   -23840   -34343   -31319   -18927    -8414    -6504 
   -8889    -6629     4075    19164    32820    41090    37616    20637 
    3910     -797    -1027    -4797    -5769     1052     7462     2896 
   -8570   -10677    -1262     2431    -4114    -6393     -208     7180 
   15045    23542    27171    25372    23896    23777    21697    17835 
   12584     2096   -12487   -21069   -18696   -12184    -9520   -11424 
  -11914    -7065    -3733    -9639   -18184   -16554    -2787    14639 
   25909    23911    10406       22     5396    21123    32075    29818 
   18299     8371     6120     9338    11246     5868    -2738    -4871 
    -489     3216     3116     -814    -9602   -21551   -30390   -33390 
  -32990   -26881   -10866     8959    22057    25800    22634    16651 
   13812    14551    14797    14655    13727     9628     5680     3658 
   -2406   -13156   -19564   -15436    -4354     5049     9049    12975 
   21967    30170    27283    15517     6818     5708     9275    15424 
   19687    14480     -419   -14261   -15599    -4383     5618     1946 
  -10106   -15902   -10175      197     4901     -914   -12274   -19101 
  -16517    -8037      873     7522    12040    14937    14014     8748 
    5395     8014    11432    12125    13546    16844    19668    21558 
   22812    22200    16588     4735    -6670    -9805    -7254    -6309 
   -7498    -6323    -1185     5503    11439    14908    13276     5128 
   -4447    -4629     5072     8036    -5344   -21147   -22589   -12201 
   -2639     1733     2588     -359    -4599    -3777     4310    15576 
   24772    28949    25583    13984      755    -6164    -7668    -8180 
   -7240    -2065     7426    17033    22711    24042    20200    10446 
   -1644   -11720   -18670   -20533   -12747     5207    25640    36174 
   30520    15915     2102    -8966   -16827   -21400   -26168   -30704 
  -27963   -13076     6925    17025    15026    11787     8527      268 
   -7519    -7940    -4759    -3675    -2358     4695    16498    25744 
   28259    26089    20875    11372    -1465   -10910   -10394    -2716 
    4432     9377    14129    18814    23480    27301    27160    22229 
   16121    11908     8442     3688     -832    -2950    -5127    -9553 
  -11071    -4640     4439     8150     8589    11797    13769     5488 
  -10820   -21925   -21015   -14355    -7974    -2983    -2657    -6780 
   -8824    -7263    -6044    -5890    -4765    -2451      139     2524 
    4355     7024    10790    12267    13821    23049    36534    42529 
   38724    30278    19254     7216    -3370   -10832   -13427   -13953 
  -16817   -18335   -13945    -7306    -3871    -5005    -8655   -12740 
  -15333   -10815     2037    13623    18293    20582    21412    15517 
    2474   -11481   -20464   -22677   -18714    -9084     2972    10381 
   11424    13117    20503    29708    30745    18749     5736     7185 
   18657    24773    21723    15924    12698    11713     7768       -6 
   -6943   -13268   -19835   -21604   -15995    -5738     4701    11505 
   15301    16323    10371    -1360   -10821   -12900    -8310    -3110 
   -2977    -6164    -8885    -8992    -4882      610     3914     7259 
   13389    19845    21606    17938    14964    17129    21424    22723 
   18522    11572     7382     5725     3729     3140     2820    -2560 
   -9368    -8086     1542    12691    20761    23190    18623     8217 
   -4235   -13339   -17120   -19645   -24019   -26955   -23385   -12824 
    -299     9127    15712    20522    19556     9519    -6040   -20370 
  -27813   -26160   -18709    -9182     4091    21935    38677    46969 
   42754    29586    17247    10418     5553    -1071    -8106   -10776 
   -7172      991    12749    23901    26794    22052    16638    10848 
    1068   -10689   -18384   -18934   -14167    -9002    -8174    -9031 
   -3892     5558    11115    12892    13916    11408     5416     2173 
    5090    10638    13747    13199     9446     3963     1585     2851 
    -315   -10953   -20818   -24661   -24322   -17866    -3942    10135 
   16850    14343     6519     2723     6553     9173     3761    -5491 
  -13687   -16561    -6053    17415    38460    41719    25906     2655 
  -14791   -21970   -22840   -18781    -5672    10889    17107    15645 
   18820    22414    16098     3432    -5677    -7192    -2081     8075 
   19536    25778    26580    28755    32147    30006    23411    21061 
   26901    34046    31640    17117    -4197   -26562   -42846   -47427 
  -42494   -34515   -29490   -27198   -19057    -4031     5921     6741 
    6113     7900    11783    14574     9010    -3285   -10393    -8533 
   -2660     7027    21434    36228    46487    50003    49402    47720 
   41139    27330    12859     5455     8376    17627    20157     6145 
  -17050   -33392   -38055   -38252   -37532   -35442   -38057   -49331 
  -58437   -50803   -25641     3014    18973    19867    20186    33410 
   54654    65755    56663    36983    23422    25172    41375    62468 
   79374    88109    81625    53770    11469   -28077   -54733   -73174 
  -84494   -78009   -50525   -17016     -979   -10825   -30382   -41891 
  -39650   -27927   -19269   -21680   -31775   -39143   -34436   -19639 
   -2947     6297     2238    -1005    16143    47124    68051    65354 
   45479    29994    39244    69681    96304   100926    79130    33424 
  -18387   -51823   -61710   -57382   -41549   -19262    -5265     1895 
   19812    48144    62307    37307   -21038   -72966   -88578   -75247 
  -59884   -59831   -64613   -50753   -13960    27462    57154    75083 
   86887    92967    87921    59224     1153   -63308  -100370  -101043 
  -74537   -26764    30402    72339    83706    69767    43429    19224 
    8048     3702    -6691   -23807   -40460   -43664   -21586    18443 
   59368    87312    90736    71143    38489    -4849   -55572  -101045 
 -125582  -118614   -86525   -52999   -34780   -24375    -6913    20073 
   48029    62625    55565    36784    26240    37110    61458    73894 
   57064    14402   -34250   -62401   -55171   -19572    20827    43830 
   50760    56742    64068    70027    77636    79184    58591    18095 
  -18021   -29641   -22236   -16999   -21038   -20814    -8045     7200 
   12034     2339   -23486   -64126  -106731  -136547  -147806  -140323 
 -118512   -87226   -49020    -9292    29600    67256    91757    97529 
  100671   108178   106936    87669    48675    -5089   -53640   -75322 
  -66438   -40170   -20937   -27219   -42392   -30903    11247    53794 
   74815    78531    75125    70277    67663    61587    45974    30098 
   24907    30109    38781    40236    29731    13725    -2587   -14988 
  -18292   -20785   -34456   -53077   -65125   -72359   -80130   -84750 
  -78760   -61581   -41454   -29883   -29694   -26766   -11381      143 
   -8522   -27772   -41468   -44493   -35880   -19564    -5652     3713 
   14276    24289    28384    31068    39302    47075    44163    35073 
   32876    42904    60424    75032    81537    86185    95023   107311 
  120882   132251   135385   127869   112991    90562    58818    26629 
    1700   -24529   -58098   -88246  -106285  -117440  -127816  -135101 
 -135062  -125449  -103434   -71460   -40143   -18172    -8523   -10560 
  -15636   -10301     9738    35253    53432    60990    63846    63744 
   57699    47606    38517    31952    26493    24674    31370    42235 
   49863    57309    66149    68487    65537    70278    85009    97059 
   95317    75924    40834     1153   -32567   -64011   -97990  -125173 
 -135636  -132201  -122233  -107927   -88223   -65867   -46357   -30851 
  -19729   -15905   -14862    -6158    10735    27131    39561    50799 
   59867    63360    63855    67723    76009    79978    69739    43194 
    3303   -37953   -62305   -67369   -62948   -47037   -12810    32389 
   71053    93312   102705    98137    74079    42553    14882   -17773 
  -56316   -85391   -96386   -91135   -72577   -43860   -14919     3378 
   13029    19780    20822    12516    -3517   -22412   -38984   -50304 
  -53762   -45261   -24330      604    18225    26466    30037    28048 
   16184    -4058   -24371   -32351   -19926     7937    37972    60782 
   74118    73852    57227    38112    33898    42051    47987    42546 
   25608     4819    -8939   -14130   -21473   -35228   -45581   -45777 
  -39770   -33715   -30556   -29072   -25258   -14763     2578    20056 
   33763    46908    58145    60349    51154    33834    12111    -8869 
  -21941   -27242   -34147   -45829   -53445   -49326   -36090   -21746 
  -12999   -12803   -16574   -16240   -12388   -10207    -8113    -2305 
    8776    27181    49146    62831    63203    57392    51085    43009 
   33499    27150    22404     7995   -17584   -35691   -31667   -14279 
   -2037    -1601    -5377    -4421     3013    11121    10363    -2518 
  -17697   -21893   -13302    -1264     5679     7371     9014    12728 
   16211    16578     9640    -5106   -17166   -20290   -23854   -28455 
  -17761     9731    33464    43279    50760    62286    70363    72767 
   68539    50789    23234    -1535   -18015   -26673   -29701   -29791 
  -26524   -18598    -9959    -7777   -14482   -25114   -31776   -30479 
  -22249    -7429    12516    28786    34600    36212    39481    38013 
   27867    14087     1290    -4151     3975    18647    23429    11016 
   -9780   -25861   -32244   -29478   -18599    -3861     8523    15072 
   12795     -672   -19513   -33090   -39005   -40925   -38149   -28270 
  -10847    13061    35325    45193    43387    40106    44205    57296 
   70820    75029    70382    59873    41972    19310    -2177   -22814 
  -43569   -58248   -62002   -58548   -52614   -44804   -37004   -33958 
  -36604   -36435   -20516    12535    45758    62531    64548    60833 
   55406    51847    49043    38304    19102     2513    -6243   -14078 
  -27045   -41308   -48855   -46087   -36028   -25014   -16305    -5837 
   10604    27010    35177    37847    42517    50630    56993    54962 
   45128    36946    36568    38506    34390    22956     5594   -18100 
  -43594   -61707   -70893   -76826   -78362   -70381   -56532   -43337 
  -33006   -28754   -32868   -37969   -31410   -12312     5248    11131 
    9900     9603    12701    20070    32014    44663    52721    53112 
   44487    29118    14597     8268     9462    10004     5300     2009 
    9329    26596    44131    53109    52536    48156    46803    51421 
   57996    58244    48284    31660    13919    -1195   -12959   -23522 
  -33553   -41789   -48326   -50824   -47292   -45491   -51274   -55516 
  -49990   -41381   -38556   -40507   -42849   -44462   -45573   -46769 
  -47931   -45276   -33840   -14278     6846    24615    39744    53644 
   64019    68483    68105    65617    63897    64204    64247    60605 
   52757    45673    46823    55466    60552    55494    45498    36060 
   26438    14915     -126   -19028   -36812   -48474   -53010   -48884 
  -37346   -26111   -20721   -20034   -22488   -29686   -41925   -55071 
  -65578   -74674   -85258   -96893  -103173   -94435   -67006   -29045 
    6552    34827    60052    84038   103276   116049   120073   111621 
   93178    71745    52373    38048    28016    16635     4111     1145 
   10763    21004    21775    11673    -6126   -25350   -41273   -53756 
  -66258   -81519   -94151   -93383   -75572   -49506   -28986   -21227 
  -23795   -31084   -38195   -41397   -41560   -41279   -36624   -21516 
    2944    31283    60204    85984   100167    99284    92662    87285 
   79701    69131    55663    32468     3583   -10728    -4787     4034 
    5779     6059     6229     3720      870    -3941   -16071   -31783 
  -42000   -43368   -39104   -35577   -34825   -32803   -30272   -31761 
  -35127   -35755   -31454   -19684    -2777     8615     7755      849 
    -634     8645    24041    37370    46801    56079    65854    71960 
   72349    70612    69306    65647    58455    51248    44579    32502 
   10384   -15073   -30242   -32856   -35270   -45524   -56487   -56579 
  -43980   -28149   -21820   -29446   -40644   -43256   -38275   -33431 
