Origin Time       2016/04/16 01:25:00
Lat.              32.753
Long.             130.762
Depth. (km)       12
Mag.              7.3
Station Code      FKO001
Station Lat.      33.8425
Station Long.     130.5086
Station Height(m) 24
Record Time       2016/04/16 01:25:26
Sampling Freq(Hz) 100Hz
Duration Time(s)  184
Dir.              E-W
Scale Factor      3920(gal)/6182761
Max. Acc. (gal)   65.538
Last Correction   2016/04/16 01:25:27
Memo.             
[...]
  -11451    -9293    -6188    -2366     1154     3349     3952     2963 
    -140    -5447   -11125   -14908   -16897   -18998   -22186   -25888 
  -29407   -31996   -32036   -28607   -23331   -18699   -15436   -12617 
   -9286    -5468    -2119     -186      301      446     1305     2357 
    2759     3059     3686     3681     2142     -466    -2620    -3018 
   -1438     1170     2782     2042      -50    -1946    -3219    -3491 
   -2328     -525      134    -1331    -4123    -6757    -8206    -7695 
   -5011    -1734     -802    -3637    -8356   -11809   -12361   -10376 
   -7409    -5228    -5134    -7917   -13292   -19084   -22454   -22225 
  -19334   -15605   -12485   -10534    -9705    -9443    -8942    -8103 
   -7702    -8600   -10908   -13168   -13025    -9839    -5709    -3307 
   -3979    -7430   -11260   -12329   -10340    -7608    -4781     -507 
    4668     8051     8311     6250     3080      391       66     2104 
    4159     4136     1954    -1108    -3669    -4933    -4824    -3759 
   -2448    -1793    -2567    -4888    -7838   -10132   -11271   -11099 
   -9483    -7431    -6313    -5874    -5182    -4239    -3051    -1149 
     981     1722      263    -2526    -5523    -8591   -12490   -18207 
  -25678   -32698   -36138   -34775   -29991   -23742   -16729    -8603 
      83     6823     8897     5743     -427    -6188    -9368    -9924 
   -8834    -7341    -6903    -8096    -9934   -11180   -11008    -8743 
   -4720     -515     2229     2726     1548      -25    -1144    -1541 
   -1829    -3189    -6076   -10217   -14727   -17503   -16397   -11463 
   -4873     1065     4476     3664     -970    -5853    -8112    -8715 
   -9492    -9879    -8526    -5895    -3564    -2024     -741      -64 
   -1251    -4347    -7826   -10204   -10603    -9092    -7120    -6360 
   -7630   -10697   -14204   -16889   -18729   -20267   -21685   -22333 
  -20870   -16543   -10538    -5559    -3385    -3594    -4891    -6114 
   -6228    -4591    -1407     2224     5062     6255     5145     1941 
   -1512    -3255    -3072    -1894     -444      971     1930     1906 
    1238      822      482     -569    -2410    -4975    -7817    -9314 
   -8689    -7627    -8119   -10042   -11682   -11732   -10089    -7443 
   -5047    -4582    -6878   -10197   -11276    -8794    -4371     -425 
    1563     1205    -1359    -5736   -11176   -16817   -22085   -26361 
  -28467   -27441   -23782   -19454   -16673   -16390   -17631   -18359 
  -16808   -12548    -6928    -1647     2854     6373     8083     8239 
    8720    10950    14451    17239    17459    15017    11123     6527 
    1270    -4105    -8114    -9208    -7096    -3690    -2013    -3142 
   -5381    -7006    -7991    -8886   -10051   -11485   -12445   -12339 
  -11754   -12058   -14331   -18248   -22129   -24381   -24225   -21486 
  -17014   -12759   -10266    -9475    -9124    -8041    -6106    -4103 
   -2897    -2875    -3929    -5387    -6148    -6054    -6480    -8256 
  -10169   -10288    -7672    -2962     2004     5166     4994     1585 
   -2997    -6666    -8725    -9211    -8345    -6619    -4405    -1203 
    3337     7254     7852     5280     1578    -2297    -6088    -9001 
  -10290    -9994    -8749    -7224    -6158    -6290    -7492    -8948 
  -10117   -10439    -9293    -7117    -5359    -4998    -5732    -6691 
   -7383    -7592    -7270    -6940    -7181    -7833    -8412    -8563 
   -7647    -5182    -2373    -1412    -2707    -5064    -7952   -10874 
  -12315   -11548    -9333    -6639    -4441    -3438    -3369    -3685 
   -4221    -4992    -6050    -7661   -10258   -13716   -17294   -20354 
  -22184   -21812   -18765   -13917    -9433    -6961    -5991    -5000 
   -3546    -2211    -1441    -1706    -3518    -6066    -7524    -7424 
   -7280    -8270    -9445    -9260    -7724    -5967    -4778    -4007 
   -2772     -557     1442     1284    -1006    -3351    -3899    -2229 
     728     3306     4170     3069      653    -2303    -5160    -6923 
   -6650    -4726    -2268      435     3369     5876     7383     7866 
    7388     5810     2742    -2035    -7765   -13172   -17817   -21768 
  -24697   -26731   -28508   -29727   -29270   -26352   -20988   -14372 
   -8684    -5449    -4338    -4227    -4508    -4964    -5278    -5205 
   -4896    -4428    -3554    -2600    -2458    -3014    -3188    -3036 
   -3581    -4319    -3385     -470     2524     3793     2952      526 
   -2764    -6290    -9161   -10316    -9694    -8454    -7731    -8037 
   -9382   -11110   -12402   -13374   -14897   -17281   -19597   -20347 
  -19101   -16958   -14917   -13498   -13413   -13991   -12756    -8936 
   -4896    -2537    -1138      348     1854     3518     5950     9067 
   12011    13708    13360    11097     7911     5175     3925     3716 
    3296     2393     1289     -320    -2897    -6159    -9242   -11773 
  -13934   -15528   -16091   -15462   -13607   -10796    -8197    -7353 
   -8481    -9904    -9914    -8550    -6967    -6350    -8069   -12834 
  -18761   -22365   -22304   -20118   -17135   -13143    -8365    -4561 
   -3115    -3325    -3928    -4714    -5445    -5118    -3224     -478 
    1976     3152     2483      310    -2389    -4971    -7857   -11657 
  -15040   -15521   -12768    -8877    -5856    -4512    -4812    -6240 
   -8246   -10518   -12729   -14210   -14239   -12867   -10730    -8031 
   -4863    -1980     -246      -57     -964    -1321      259     3203 
    5657     5990     3656     -182    -3060    -3380    -1832      -72 
     651     -763    -4747    -9972   -14311   -16711   -17070   -15249 
  -11584    -7730    -5761    -6503    -9238   -12866   -16692   -19982 
  -21848   -21905   -20227   -17216   -14193   -12913   -13595   -14464 
  -14178   -13267   -12254   -10572    -8092    -5404    -2553      502 
    3100     5102     7462    10726    14412    17989    21040    22806 
   22454    19598    14700     9045     4008      298    -2024    -3143 
   -3529    -4056    -5787    -9336   -14010   -18281   -21153   -22507 
  -22795   -22569   -21808   -20097   -17605   -15206   -13632   -12835 
  -11797    -9314    -5870    -3642    -3939    -6015    -8317    -9756 
  -10186   -10117    -9842    -9123    -7976    -7128    -6967    -6963 
   -6816    -6814    -6951    -7049    -7242    -7744    -8787   -10332 
  -11838   -12885   -13244   -12553   -10723    -8022    -4966    -2245 
    -208     1089     1587     1492     1320     1435     1529      985 
     -33     -604     -115      928     1194        1    -2047    -4056 
   -5494    -6043    -5603    -4301    -2652    -1901    -3168    -6029 
   -9047   -11218   -12147   -12026   -11971   -13326   -16357   -19913 
  -22368   -23095   -22623   -21495   -20037   -18389   -15890   -12151 
   -8688    -7257    -7487    -7920    -7951    -7874    -8250    -9395 
  -10857   -11400    -9997    -7195    -4763    -3448    -2444    -1020 
    1221     4627     8447    10784    10087     6257     1058    -2562 
   -2885    -1115      203     -353    -2551    -5146    -6731    -6739 
   -5919    -5620    -6550    -8434   -10631   -12521   -13547   -13785 
  -14138   -15063   -15964   -16169   -15533   -14363   -13052   -11697 
  -10397    -9705   -10211   -11519   -12299   -11507    -8957    -5174 
   -1325     1338     2472     2675     2426     1581     -186    -2802 
   -5339    -6665    -6887    -7180    -8141    -9420   -10763   -12230 
  -13805   -15560   -17592   -19429   -20019   -18628   -15508   -11426 
   -7079    -3275     -712      709     1800     3576     6613    10316 
   13409    15203    15814    15657    15151    14622    13849    11767 
    7650     2273    -2906    -7116   -10498   -13247   -15122   -16122 
  -16536   -16198   -14932   -13474   -13100   -14330   -16349   -18019 
  -18767   -18344   -17013   -16004   -16630   -18908   -21925   -25399 
  -29409   -32979   -34625   -33706   -30394   -25337   -19746   -15171 
  -12578   -11271    -9388    -5837    -1206     2914     5268     5889 
    5879     6380     7373     7803     7502     7780     9735    13384 
   17944    22097    24444    24017    20831    15878    10180     4276 
   -1493    -6621   -10431   -12519   -12983   -12534   -12511   -13829 
  -16173   -19042   -22274   -25277   -27517   -29266   -30670   -30977 
  -29363   -26219   -23085   -20907   -19174   -17264   -15322   -13454 
  -11577   -10151    -9450    -8438    -5726    -1109     4507    10043 
   14687    17634    18388    17477    15800    13587    10912     8377 
    6513     5287     4594     4399     4234     3395     1687     -631 
   -3412    -6577    -9998   -13693   -17335   -19895   -20534   -19393 
  -17613   -16409   -15693   -14557   -12700   -10282    -7569    -5343 
   -4572    -5405    -6861    -7664    -7546    -7144    -6756    -6511 
   -6752    -7126    -6754    -5822    -5719    -7058    -8694    -9352 
   -8997    -8102    -6825    -5515    -4880    -5128    -5718    -6005 
   -5794    -5268    -4517    -3720    -3735    -5562    -8979   -12332 
  -14168   -14642   -14711   -14648   -14217   -13492   -12520   -10877 
   -8342    -5494    -3134    -1678    -1318    -2033    -3438    -4924 
   -5793    -5417    -3485     -374     2744     4863     6118     7125 
    7929     8146     7345     5193     1692    -2731    -7433   -11732 
  -15128   -17759   -19907   -20701   -18970   -15584   -13019   -12732 
  -14119   -15206   -14037   -10379    -5885    -2296      101     2162 
    4457     6536     7369     6177     2995    -1636    -6845   -10832 
  -11732    -9534    -5836    -2066      963     2606     2699     1945 
    1226      645     -341    -2033    -4139    -6198    -7940    -9127 
   -8995    -6611    -2559      943     2424     2514     2282     1490 
    -744    -4587    -8993   -12306   -14018   -15087   -16058   -16819 
  -17775   -19295   -20862   -21863   -22379   -22654   -22705   -22866 
  -23310   -22910   -20252   -15668   -11101    -8183    -7124    -7374 
   -8315    -9216    -9491    -9114    -8429    -7684    -6937    -6176 
   -4777    -1236     5201    12907    19180    22946    25083    26651 
   27966    28761    28334    25913    21250    14970     8595     3575 
     -19    -3121    -6499   -10675   -16040   -22532   -29534   -35881 
  -40176   -41508   -39636   -34926   -28606   -22395   -17830   -16086 
  -17615   -21923   -27719   -33327   -38071   -42679   -47415   -51038 
  -51704   -47838   -38708   -25225   -10194     3053    12623    18174 
   20210    20217    20092    21307    24272    27416    29011    29274 
   28938    28903    30358    32762    34381    33852    29800    22379 
   14766    10794    11615    14784    17258    18115    17226    14497 
   10267     4544    -2994   -12373   -22640   -32060   -39658   -45000 
  -47544   -47653   -46121   -42677   -36648   -29070   -23066   -21142 
  -22602   -24578   -24913   -23188   -19971   -16212   -12768   -10130 
   -8778    -9120   -10755   -12102   -10772    -5015     4350    14069 
   21165    24612    24264    20082    13172     5870     -134    -5362 
  -12076   -21800   -33357   -43612   -50084   -52689   -52688   -50866 
  -46897   -39648   -28556   -14745     -821    10305    17260    20750 
   21741    20755    19162    17688    14847     9846     3595    -2963 
   -8882   -13993   -19006   -23954   -28529   -32486   -34909   -34736 
  -31738   -25831   -16548    -4504     8700    22386    36031    47173 
   51713    46812    33836    18148     5196    -3788   -10693   -15752 
  -17549   -15855   -11417    -4359     5990    18785    30928    40332 
   47078    51605    54114    54563    52340    46178    34549    16832 
   -5759   -30310   -52908   -70273   -81302   -86561   -86236   -78803 
  -62446   -38821   -15098     -378      510   -10913   -28731   -45737 
  -57258   -62785   -63587   -60643   -55177   -48916   -43659   -40309 
  -37876   -34445   -27943   -16046     1846    22258    39096    48237 
   50206    47685    41303    30465    16429     1549   -11376   -19283 
  -20784   -15878    -4813    11353    30185    48011    62044    71963 
   78116    79734    75126    62588    42324    17442    -8450   -33126 
  -54138   -68222   -74111   -73598   -69239   -64141   -61956   -63406 
  -65745   -65885   -61651   -52407   -39929   -27253   -16178    -6985 
    -448     3161     5119     5668     4695     3654     3867     6415 
   12076    19001    23776    24868    23085    19723    15474    11029 
    7375     5034     4229     4923     6561     9347    13619    17592 
   19377    19460    18773    17454    15280    11242     4720    -3465 
  -12860   -23930   -35880   -45111   -46625   -37794   -20727    -1006 
   15249    24220    26299    24542    21125    16671    11148     4052 
   -4713   -14221   -23506   -32066   -39150   -43257   -42942   -38692 
  -32578   -25966   -19905   -16539   -18118   -25034   -35007   -44604 
  -51858   -56909   -60440   -62222   -61055   -55648   -45716   -33115 
  -21625   -14021   -10030    -8133    -6970    -4679      107     7418 
   17684    31227    45990    58960    68292    72949    72576    67525 
   58616    47720    36330    24094    11598     1494    -4276    -5650 
   -3991    -1323      774     1594     1407     1269     1437      147 
   -4970   -14660   -27534   -41134   -52928   -60837   -64145   -63939 
  -62106   -59814   -57025   -53688   -50680   -49118   -49054   -48553 
  -44847   -37142   -27284   -17764    -9848    -3719      402     3104 
    6234    10372    14719    19278    23666    26895    30009    34939 
   42284    52369    64953    78083    89236    95976    96839    92361 
   83192    68854    49080    25065      122   -21263   -35294   -39566 
  -33999   -21948    -8802      917     4669     1834    -6120   -16830 
  -28738   -40868   -52224   -61818   -68580   -71816   -71684   -68640 
  -63080   -56334   -50924   -48437   -48049   -47808   -46325   -42839 
  -36623   -27402   -15938    -4101     5574    11663    15010    17335 
   19567    21133    20148    14976     5756    -5365   -14702   -18365 
  -14768    -5608     6112    17628    26774    32108    32634    28879 
   23450    18610    14603    10503     5518      125    -4024    -5494 
   -3202     3499    13100    22051    26779    24920    16745     5490 
   -5544   -15297   -23837   -30747   -35095   -35871   -32554   -26334 
  -20284   -17303   -18801   -25121   -34988   -45508   -54489   -61379 
  -65838   -67119   -64884   -59589   -51768   -41601   -29917   -18905 
  -10729    -6260    -5523    -7733   -10533   -10778    -7254    -1566 
    4304     9148    11498    10775     8949     8894    12352    19702 
   30123    42065    53764    63857    71797    77023    78436    75312 
   68206    58835    48978    39635    31019    22871    15385     9433 
    5139     1096    -4598   -12662   -22054   -31117   -38831   -45152 
  -50942   -57357   -64866   -73212   -81908   -89965   -96129   -99562 
  -99490   -95350   -87887   -78905   -69927   -61892   -55315   -49739 
  -43986   -37213   -28818   -18339    -6524     4840    14768    23449 
   31270    38626    45296    50122    52775    53543    51907    47862 
   42112    35195    28225    22045    16280    10176     3106    -4784 
  -12411   -18663   -23092   -26348   -29355   -32083   -34322   -36837 
  -40924   -46714   -52222   -55260   -55165   -51804   -45023   -35297 
  -23591   -10620     3197    17067    29652    39397    44780    45410 
   42601    37950    33026    29670    28575    29087    30359    32156 
   34915    37962    39692    39998    39316    37143    33456    29573 
   27088    26080    25124    23312    20360    15616     8637     -242 
   -9853   -18856   -26986   -34819   -42763   -50584   -57327   -61782 
  -63269   -62535   -61572   -62486   -66751   -74061   -82197   -89536 
  -95985  -101174  -104045  -103199   -97145   -86115   -72781   -59789 
  -47238   -33359   -17377     -325    16618    32398    45719    56063 
   63615    68933    73231    77112    80466    82956    83128    79868 
   73588    65586    58546    54684    53793    54867    56340    56106 
   53171    47282    38596    28332    17588     6594    -4211   -13602 
  -20160   -23620   -25487   -28046   -33079   -41248   -51943   -63162 
  -72275   -77639   -78959   -76556   -71475   -66081   -62735   -61372 
  -60290   -58517   -55705   -51590   -46396   -40656   -34963   -29619 
  -24085   -17516    -9680    -1136     6945    13408    17997    21384 
   24562    28120    31900    35520    38780    41604    43531    43584 
   41406    37356    32060    26651    21664    16836    12447     9181 
    7354     6366     4937     2437    -1240    -6529   -13394   -20589 
  -26574   -30805   -34005   -37239   -40516   -42691   -42911   -41408 
  -39118   -36650   -33670   -30163   -27187   -25472   -24750   -24230 
  -22815   -19702   -15323   -11434    -9654    -9900   -11189   -12895 
  -14356   -15153   -15867   -17115   -18483   -18893   -17512   -14241 
   -9425    -3503     2732     8230    12372    14958    15878    15434 
   14236    12360     9255     4277    -2926   -11744   -20409   -27017 
  -30206   -29334   -24977   -18447   -10565    -1643     7910    17863 
   28618    39981    49938    55985    56974    53161    45260    34650 
   24152    16143    10354     5052    -1239    -9402   -19356   -29843 
  -38971   -45120   -47719   -47163   -44228   -40270   -37141   -35983 
  -37077   -40742   -47001   -54635   -61598   -66527   -69101   -69184 
  -66994   -63506   -59541   -55167   -50362   -45355   -40040   -33873 
  -26508   -18193    -9456     -394     9182    18911    27949    35397 
   40281    42285    42593    43323    45984    50119    53949    56113 
   55834    53483    50906    49162    47821    46307    44254    41603 
   38440    35035    31871    28645    24711    20161    15194     9628 
    3040    -4973   -14419   -24845   -35198   -44546   -52915   -60634 
  -67780   -74378   -80527   -86097   -90498   -93069   -93336   -91243 
  -87549   -83105   -77846   -71239   -62875   -52443   -40535   -28842 
  -18523    -9664    -2325     3566     8631    13157    17182    21328 
   25599    29065    31811    34228    35418    34835    33346    32100 
   31620    31272    30174    28697    27800    27924    28646    28790 
   27571    24577    18997    10415     -574   -12590   -23995   -33681 
  -41052   -45508   -46401   -43915   -39673   -35618   -33059   -32463 
  -33064   -33706   -34280   -35584   -38197   -41668   -44380   -44795 
  -43160   -40574   -36890   -32048   -27009   -21713   -15979   -10403 
   -4391     2284     7842    10914    11548    10583     9540     9640 
   11070    13457    16213    18801    21283    23611    25019    25064 
   23470    19792    14730     9720     5466     1938    -1334    -4770 
   -8452   -12282   -15824   -18724   -20994   -22642   -23855   -25180 
  -27589   -31726   -36491   -39985   -41361   -40408   -36663   -29919 
  -21191   -12378    -4677     1917     7812    13245    18040    21567 
   23382    24089    24834    26347    28937    32340    35520    37345 
   37261    35340    31743    26062    18015     8526    -1228   -11018 
  -20708   -29330   -35758   -39689   -41755   -42965   -44250   -46171 
  -48714   -51396   -53900   -56217   -57899   -58164   -56827   -54419 
  -51498   -48298   -44904   -40939   -35540   -28659   -21621   -15890 
  -12040    -9709    -7850    -5188     -792     5539    13292    21687 
