Origin Time       2016/04/16 01:25:00
Lat.              32.753
Long.             130.762
Depth. (km)       12
Mag.              7.3
Station Code      FKO010
Station Lat.      33.4235
Station Long.     130.6689
Station Height(m) 60
Record Time       2016/04/16 01:25:18
Sampling Freq(Hz) 100Hz
Duration Time(s)  178
Dir.              E-W
Scale Factor      3920(gal)/6182761
Max. Acc. (gal)   80.046
Last Correction   2016/04/16 01:25:18
Memo.             
[...]
   -9533    -9532    -9531    -9532    -9534    -9533    -9530    -9531 
   -9532    -9534    -9535    -9531    -9531    -9532    -9532    -9532 
   -9531    -9531    -9532    -9534    -9533    -9530    -9532    -9532 
   -9529    -9532    -9533    -9531    -9531    -9528    -9526    -9530 
   -9533    -9536    -9537    -9533    -9530    -9531    -9532    -9528 
   -9527    -9529    -9527    -9529    -9534    -9533    -9531    -9530 
   -9528    -9531    -9532    -9532    -9533    -9533    -9534    -9535 
   -9534    -9532    -9530    -9532    -9534    -9535    -9537    -9538 
   -9537    -9537    -9539    -9540    -9535    -9505    -9450    -9405 
   -9420    -9502    -9584    -9568    -9427    -9258    -9207    -9333 
   -9525    -9573    -9398    -9169    -9098    -9207    -9343    -9332 
   -9145    -9006    -9217    -9720   -10039    -9897    -9569    -9391 
   -9346    -9316    -9328    -9402    -9584    -9998   -10431   -10346 
   -9753    -9409    -9718   -10263   -10709   -10924   -10471    -9478 
   -8965    -9316    -9861    -9969    -9518    -9027    -9107    -9458 
   -9744   -10258   -10441    -9375    -7872    -7351    -7589    -7768 
   -8144    -8716    -8845    -9242   -10650   -11703   -11356   -10347 
   -9561    -9811   -11057   -11281    -9491    -7734    -7611    -8216 
   -8572    -8886    -9414   -10421   -11989   -12749   -11677   -10112 
   -9044    -7949    -7279    -7697    -8261    -8410    -8971   -10117 
  -10935   -10885   -10370   -10313   -10997   -11367   -10522    -8815 
   -7266    -7644   -10391   -12214   -10451    -7105    -5640    -7444 
  -10853   -12062    -9301    -5433    -4571    -7559   -11754   -13885 
  -12858   -10273    -8558    -9094   -10835   -10990    -8727    -6339 
   -5945    -7210    -8383    -8527    -8406    -9071   -10224   -10888 
  -11348   -12593   -13757   -13244   -11363    -9119    -7346    -6802 
   -6995    -7511    -9110   -11332   -11886    -9337    -5439    -3769 
   -5602    -8706   -10267    -9893    -9527   -10429   -11868   -13136 
  -14024   -13807   -12678   -12108   -12425   -12740   -12267   -10370 
   -7347    -4602    -3278    -4024    -6930   -10408   -11596    -9761 
   -7618    -6863    -6475    -6814    -8718   -10325   -10344   -10157 
  -11046   -12582   -13256   -12131    -9534    -6728    -6267    -9292 
  -12262   -11514    -8819    -7419    -6908    -6041    -5595    -5857 
   -5943    -6705    -9653   -12762   -12777   -11216   -12122   -15689 
  -18875   -19081   -15786   -10929    -6627    -3677    -2626    -2790 
   -2286    -1892    -4605    -9741   -13742   -15707   -15397   -12351 
  -10119   -11690   -14351   -14911   -13390   -10668    -6888    -3630 
   -4141    -7589    -9092    -6941    -3512    -1453    -1726    -3237 
   -5237    -8650   -13615   -18575   -21251   -19854   -15500   -11380 
   -8410    -5127    -2267    -3066    -7430   -11167   -12285   -11551 
   -8925    -6203    -7028   -10208   -11410   -10630   -10565   -11451 
  -11620   -10362    -8921    -8542    -8993    -9951   -10854   -10713 
   -9205    -6118    -3202    -3669    -6148    -7564    -9445   -12744 
  -14939   -15507   -14992   -12605   -10005    -9388    -8724    -6748 
   -7130   -11078   -13936   -13768   -12977   -11474    -8817    -7602 
   -7517    -4847    -1049    -1492    -5798   -10110   -13386   -14096 
  -11564    -9326    -8846    -8763    -9068    -8565    -6407    -4993 
   -5112    -5760    -7564   -10132   -11772   -12152   -11242    -8668 
   -5575    -5594    -9771   -13053   -13737   -15787   -17824   -16101 
  -12278    -8163    -4656    -4302    -6541    -8121    -9191   -11195 
  -12216   -10169    -6647    -4547    -4240    -4060    -4709    -8152 
  -12180   -14032   -14388   -13289   -11233   -11206   -13425   -15210 
  -15250   -13040    -8623    -4179    -2676    -4600    -7283    -8391 
   -8507    -9453   -11245   -10949    -5531     3061     8579     7913 
    3250    -2874    -9696   -17646   -26562   -32407   -30549   -23143 
  -15855    -9693    -3596     1549     4380     2576    -3977   -11285 
  -17222   -21481   -22450   -20305   -17321   -13088    -5399     3470 
    8079     6077     -683    -7656   -10928   -11261   -12079   -13749 
  -14022   -12822   -11586   -11620   -14712   -19931   -23062   -20277 
  -10643      218     2925    -3745   -10618   -11889   -11287   -11262 
  -10159    -8932    -8068    -6241    -6351   -11540   -17821   -19259 
  -15562    -9579    -2553     4327     8396     7151    -1474   -14951 
  -23890   -23184   -17086   -10392    -5666    -3740    -1369     3334 
    5873     1803    -8055   -18791   -25063   -25467   -21982   -18694 
  -18001   -14943    -6697      288      870    -4046    -9464   -10919 
  -11606   -14500   -15827   -14984   -13161    -6923     1034     1763 
   -3094    -6138    -8109    -8665    -2131     8955    13778     7130 
   -5728   -16889   -21929   -19919   -15911   -17320   -23994   -30171 
  -31084   -24533   -13636    -6792    -9909   -17731   -18295    -7070 
   10675    26939    33996    28566    15971     3905    -4142    -6808 
   -6554    -9821   -18244   -29234   -38943   -39619   -29648   -17831 
  -10937   -10861   -15910   -20009   -18248   -10364    -4050    -9610 
  -22385   -29429   -26899   -15106      945     8854     3133    -9229 
  -16646   -12250      -66     9744    10304     3779      676     7910 
   17799    19003    12926     5706    -2286   -10278   -16764   -23816 
  -32796   -41314   -47174   -49481   -43545   -27467   -10927    -1087 
    3564     1122    -9015   -19218   -22205   -17623   -10705    -4464 
    1137     2856      160    -2493    -5051   -10164   -15897   -17056 
  -11363    -4213    -2874    -6629   -10254   -11953   -13356   -16189 
  -20192   -24314   -25550   -20636   -15402   -17596   -22940   -23044 
  -14818    -1225    10729    18306    21374    17554     8150    -4561 
  -19488   -29842   -30639   -27025   -25743   -27376   -26974   -21075 
  -11654      -87    10065     9993      969    -4399    -1213     4517 
    5060    -2396   -12221   -16136   -10384     1533    10407    11767 
    8998     3935    -5723   -20383   -36232   -49730   -58276   -57067 
  -45025   -29368   -16250    -3334    12445    24465    23699    13097 
    1915    -6251   -11039   -12546   -12612   -11605    -8833    -8302 
  -13171   -16790   -13183    -5999       40     1573    -2630    -7003 
   -7026    -5185    -4998    -6570    -6037       -7     8627    12755 
    8433    -1082    -9713   -15225   -20587   -28246   -33884   -31860 
  -21814    -8520    -2323    -8539   -17148   -18284   -16121   -17878 
  -23490   -29194   -30957   -25707   -16447    -9839    -6022     -590 
    7330    14933    19002    17515     9125    -2519    -7422    -4211 
   -3704    -9593   -14846   -16043   -16047   -17378   -19861   -23157 
  -26088   -25390   -21350   -16257    -9702    -4823    -5389    -6406 
   -2205     4142     5819      -22    -9229   -15194   -15706   -11984 
   -6732    -4471    -7807   -15148   -21181   -21237   -19988   -24184 
  -29665   -28400   -16987      573    13267    15968    12554     6429 
     -80    -7225   -16220   -22137   -21598   -18196   -16146   -18935 
  -24107   -23564   -16889    -8539     -305     3984     3161     2533 
    2695    -2522   -13010   -19959   -20357   -19294   -15632    -5699 
    3422     5329     4880     3952    -2439   -11785   -16080   -14987 
  -14178   -17824   -24074   -24481   -16391    -9480   -11934   -19884 
  -22422   -15350    -6488    -2323     -803      -32    -1204    -4876 
  -10386   -15704   -17569   -15371   -13264   -13713   -13686   -11333 
   -8525    -7109    -8898   -15282   -24495   -29841   -23066    -6013 
    8036    11189     7834     4567     5016     8347     6906    -2076 
  -10003   -13619   -16884   -19386   -20427   -19611   -15889   -13225 
  -13618   -12971   -10924   -10338    -9554    -7214    -7021    -9647 
  -10033    -7709    -7878    -9749    -8222    -5022    -5446   -10293 
  -16238   -17863   -13125    -9569   -13221   -16432   -12143    -6431 
   -4868    -4994    -6406   -10686   -15509   -17738   -16133   -10918 
   -3622     2465     4218     2297    -1321    -6203   -11311   -15274 
  -18266   -20856   -21587   -18661   -15126   -15803   -19934   -23878 
  -25208   -21879   -14340    -6096      413     4957     8624    12532 
   14884    13457     8466     -855   -13209   -23939   -32287   -38423 
  -41391   -43790   -44711   -37904   -24025   -12121    -7855    -7417 
   -4813      193     3384     1177    -3868    -4558       10     2970 
     355    -5197    -9637   -11427   -11642   -12462   -14963   -15681 
   -8610     3860     9486     3539    -4077    -5384    -2775     -723 
   -1817    -5950   -10158   -12062   -11982   -13583   -18047   -19663 
  -15610    -9634    -4792    -2467    -3572    -8627   -17016   -25483 
  -31516   -34062   -31338   -24077   -14733    -4941     1812     3751 
    3600     3291     3503     3817     1927    -2510    -8489   -14609 
  -18078   -18738   -18089   -16528   -15854   -17433   -20258   -21963 
  -20248   -15940    -9967    -2021     4113     5638     5537     5476 
    3747    -2250   -12431   -19601   -18409   -12936    -6840     -304 
    3689     1464    -6256   -14241   -19652   -24574   -27939   -27354 
  -25726   -25009   -23043   -18396   -10768    -1881     2641      945 
     259     5706    13583    19430    20423    14769     5931    -1653 
   -8204   -14798   -20406   -24435   -29289   -34367   -33795   -29483 
  -28964   -29921   -26132   -17669    -8588    -3833    -4272    -5641 
   -5874    -7297   -10652   -14240   -19341   -25229   -24630   -16424 
   -8306    -4616    -5270    -9216   -14342   -18551   -20973   -22396 
  -22395   -19131   -13244    -5509     4515    13577    17273    16731 
   15326    13549    11355     9479     8189     7592     5678    -1515 
  -13346   -22728   -24887   -24714   -29116   -34972   -33911   -25273 
  -16021   -11642   -11733   -11021    -4999     2993     6884     8031 
    8977     5475    -2708    -7180    -7394   -10351   -12845   -10503 
  -10642   -15591   -16711   -13581   -16776   -27817   -34405   -30140 
  -22068   -16943   -15415   -16001   -14619    -7438     1862     7451 
   11159    14388    11310     1680    -6247    -9844   -14631   -24138 
  -34181   -38175   -35422   -29638   -24251   -20973   -18721   -16596 
  -14349   -10474    -6499    -4204     -264     5388     5929     -780 
   -7215    -8334    -8609    -9780    -6301     1529     6633     8058 
   10503    13255    12556     9484     5657      724    -4161    -7121 
   -6581    -3759    -2827    -5159    -9773   -15173   -18201   -17018 
  -13761   -13528   -17484   -20841   -23058   -26280   -26928   -22295 
  -15609   -10823    -8435    -7549    -9714   -15026   -20400   -25315 
  -29292   -27926   -20023   -12771   -13015   -16442   -15280   -10884 
   -5919     1699    10367    17792    26644    36141    39933    34877 
   22966     8118    -4513   -12025   -14951   -12948    -6916     -908 
    2325     3928     8639    15985    16222     5631    -8736   -20414 
  -25596   -23308   -17989   -15594   -18595   -23825   -25493   -20503 
   -9592     1344     4025    -1168    -4292     -344     5370     6999 
    2705    -5745   -11933   -11212    -6452    -2589    -3892   -15423 
  -35108   -50942   -54864   -49392   -39736   -28998   -19690   -14044 
  -12154   -13195   -16621   -18381   -12279     1241    15267    26242 
   35161    39267    33571    20973     8464    -4805   -23706   -43607 
  -54808   -58893   -61180   -56730   -41330   -18288     9146    37867 
   63853    83786    93791    92233    81181    62855    41227    21430 
    6601     -184     -801    -6139   -22979   -44755   -60876   -65121 
  -59911   -55868   -55546   -50573   -41225   -35167   -31169   -26016 
  -23078   -18941    -5989     9289    15867    13652     5261    -8462 
  -22448   -34749   -49399   -60553   -55529   -36353   -18824   -13061 
  -14143   -11412    -4783    -1165     1063     5727    11437    17558 
   21721    19117     7956   -10090   -28542   -37692   -34792   -25353 
  -13269    -2081     4015     6553     5853     1271    -1451    -2949 
   -7012    -6860    -4465   -10968   -19727   -18753   -12178   -10109 
  -16873   -28434   -38216   -44150   -43667   -34677   -21968   -12277 
   -8564    -7961    -6157    -3677    -1284      546    -1709    -9563 
  -20548   -30689   -35437   -31583   -19623    -1284    22628    46063 
   59366    60193    46204     9998   -35924   -63041   -69387   -70043 
  -63786   -51304   -38967   -21445    -1849     7280     4672    -6770 
  -18983   -19177   -11761   -12485   -20462   -21279   -10890     3324 
   14640    18911    17699    18122    19388    11028   -10553   -36720 
  -58635   -78193   -97473  -103231   -90817   -76853   -61987   -30808 
   13544    54168    82811    98580    96467    81280    72170    70624 
   61699    41257    12340   -21383   -51705   -70180   -75147   -74232 
  -77665   -84466   -82112   -65365   -43888   -26664   -11754     6649 
   29968    54553    75798    90170    93913    84893    66161    44739 
   21925    -8667   -45372   -76692   -96168  -106277  -113624  -119457 
 -117052  -103020   -76814   -39023    -1233    27267    52740    75674 
   86557    88345    88896    81419    59197    32603    16271    11420 
    7472    -2789   -15224   -23286   -30948   -47465   -71463   -93403 
 -106694  -109279  -100770   -78108   -39507     6964    48642    78972 
  100130   114937   116720    97198    58623    13384   -22796   -46703 
  -67125   -83187   -88069   -81793   -64927   -44543   -35211   -37129 
  -41949   -52588   -68625   -74779   -60001   -26204    16596    51198 
   71123    87301   101028   103266    95156    81257    61313    35129 
    5439   -19868   -34908   -44110   -51813   -54018   -50186   -48461 
  -51292   -50780   -40747   -23200    -4171    13796    33342    55238 
   72968    79752    76736    65008    41709    11153   -17731   -42869 
  -65222   -81429   -86374   -80277   -67967   -52059   -35462   -23464 
  -16843   -11322    -5350    -4315   -13216   -27579   -39240   -46659 
  -51477   -51349   -43537   -28937    -9568    12049    32411    47093 
   49696    35055     5128   -29861   -58934   -79456   -90241   -82847 
  -55826   -24093    -2043     9372    16003    18807    16077    13926 
   15033    11630     6100     8353    16032    22060    25400    25373 
   18807     7762     1398     3423     7317     6827     1604    -6027 
  -14453   -21700   -24457   -24028   -25769   -31262   -40231   -52039 
  -63241   -70890   -73158   -68457   -57833   -44092   -27132    -3638 
   22342    37401    36729    27835    14626    -2125   -15754   -22166 
  -24982   -24787   -19061    -9900      651    12954    22587    22382 
   13301     4444      693    -3495   -13741   -26897   -40300   -54748 
  -64228   -62247   -54046   -49646   -51562   -53378   -47126   -29040 
      30    29902    43664    41080    40281    45766    44244    30244 
   11527    -6024   -23850   -38877   -43571   -42920   -49879   -62709 
  -67200   -59397   -45824   -28685    -8323    13573    35605    52761 
   62660    70510    78622    81435    73906    59298    43865    26378 
    2811   -22681   -43272   -58298   -66814   -64507   -51599   -31164 
   -6282    14218    22138    19042     8996    -4785   -17705   -29602 
  -41289   -48835   -51699   -51467   -43856   -25797    -4041    10993 
   16089    14177     6058    -9407   -27752   -38477   -36569   -27368 
  -16107    -4025     6641    14712    19832    19732    16513    15021 
   12982     6694    -1311    -8803   -18199   -33111   -51295   -62417 
  -61717   -55395   -45107   -28077    -8853     8624    25577    38568 
   42571    38960    30615    17877     2376   -10314   -16002   -18413 
  -21341   -22346   -23013   -28365   -34800   -36563   -37203   -40000 
  -39672   -31494   -15450     4719    20803    30195    40382    53978 
   63364    61773    48942    31157    17796    12309     9776     6719 
    5143     3576    -2687   -15134   -33436   -55089   -76976   -96666 
 -108822  -108895   -96557   -74915   -51588   -33535   -21981   -15593 
  -12185    -9120    -5321    -1396     1322     4210    11908    25623 
   41681    55446    62084    58378    44590    24637     5916    -7481 
  -20754   -39855   -61990   -81125   -94058   -95819   -81457   -55651 
  -30380   -12110     5165    29807    56715    73487    77005    69769 
   52698    30311     8329   -11491   -27592   -40003   -51541   -60065 
  -59462   -48834   -32127   -14057     1596    14428    24979    32058 
   34360    32403    31570    36854    42854    41398    34235    26662 
   19248    12166     5728    -4186   -20714   -37458   -46171   -48722 
  -50966   -53169   -51834   -45270   -35608   -24787   -15269   -13303 
  -19246   -23936   -22029   -15757    -7622     1694    12127    21227 
   24296    19706     8614    -6313   -20087   -30800   -39989   -44900 
  -41420   -32564   -25329   -22606   -21418   -18619   -15907   -13718 
   -8206      724     9119    12892     9140      187    -8626   -14869 
  -20023   -26656   -33918   -39458   -42247   -40332   -35014   -32330 
  -32854   -29512   -18611    -4568     8541    20552    29267    32405 
   32101    29990    23370     8691   -12718   -33949   -48996   -55841 
  -54709   -50062   -49516   -54702   -57162   -47657   -27541    -6190 
   10853    24649    35369    38298    28662     8621   -14126   -34936 
  -51144   -54264   -38150   -11311    12382    29037    42532    52262 
   51815    40318    23747     4164   -19260   -41624   -57115   -65636 
  -67774   -63380   -53884   -39942   -22842    -6290     5761    11648 
   13061    12369    11222    10544    10729    10783     6253    -2316 
   -6545    -3891      890     3932     3729      980    -2602    -6851 
  -15364   -29463   -42114   -48192   -48935   -42922   -29279   -14000 
   -1890     7398    13619    15862    14805    13412    15739    19811 
   18404    10122    -1924   -18429   -39074   -59233   -75626   -86043 
  -88402   -81518   -65395   -46475   -32786   -21318    -6155     8165 
   15671    17988    19502    23237    28069    30635    30365    28454 
   26290    23342    17669    11066     5197    -4001   -18358   -31328 
  -37168   -37470   -34977   -30210   -24289   -18869   -15004   -12769 
  -10036    -4127     4741    13766    20383    25077    29756    30461 
   18756    -4743   -28031   -42498   -48928   -47934   -38349   -24859 
  -12732     -178    12700    20601    22767    22694    22171    20820 
   16507     7936    -2659   -12294   -20091   -26424   -31710   -35179 
  -35419   -32579   -28128   -23708   -19493   -14091    -7574     -829 
    6660    14888    21816    24475    20230     8603    -5973   -15451 
  -16943   -16655   -20578   -28728   -38347   -45002   -45930   -43374 
  -39525   -33297   -24114   -14219    -6009     -420      712    -4287 
  -12445   -17529   -16424   -10944    -3586     3699     7630     6698 
    2552    -3769   -12291   -22210   -31320   -37695   -40590   -39261 
  -35427   -32930   -31896   -30615   -29946   -29731   -28314   -27428 
  -30634   -37074   -41626   -40694   -34689   -27125   -21834   -19054 
  -16127   -11565    -5749      489     5142     6161     4354     2111 
    1286     1207    -2523   -11934   -22717   -30799   -36385   -40293 
