Origin Time       2016/04/16 01:25:00
Lat.              32.753
Long.             130.762
Depth. (km)       12
Mag.              7.3
Station Code      FKO009
Station Lat.      33.4952
Station Long.     130.5163
Station Height(m) 34
Record Time       2016/04/16 01:25:20
Sampling Freq(Hz) 100Hz
Duration Time(s)  122
Dir.              E-W
Scale Factor      3920(gal)/6182761
Max. Acc. (gal)   63.782
Last Correction   2016/04/16 01:25:20
Memo.             
[...]
   12435    12358    12307    12342    12422    12474    12497    12527 
   12571    12620    12663    12715    12826    12958    13002    12956 
   12901    12866    12817    12799    12909    13047    12975    12775 
   12783    13070    13352    13328    12989    12640    12534    12593 
   12588    12436    12265    12227    12223    11977    11412    10756 
   10473    10981    11928    12369    12065    11686    11840    12526 
   13252    13573    13479    13158    12836    12787    12899    12757 
   12548    12877    13481    13513    12851    11913    11194    11231 
   11859    12364    12440    12078    11632    11776    12456    13146 
   13612    13440    12584    12225    13072    14169    14629    14699 
   14804    14999    15135    15031    14549    13547    12217    11334 
   11270    11348    11031    10565     9974     9036     7922     7034 
    7064     8261     9665    10966    12865    14564    14721    14058 
   13810    14016    14596    15356    15502    14915    14426    14542 
   15058    15254    14419    13078    12606    13214    13807    13456 
   12274    11464    11688    11921    11341     9924     7682     6018 
    6530     8579    10901    12483    12853    13403    14830    15753 
   15746    15395    14904    14963    16042    17066    17034    16437 
   15618    14081    12008    10290     9481     9576    10571    12594 
   14416    13933    11276     8557     7107     7088     8279     9945 
   11007    11201    11431    12293    13003    12963    13034    13594 
   13789    13847    14890    16385    16760    15995    15067    13754 
   11604     9690     9118     9559    10336    10787     9994     8425 
    8025     9517    11829    13550    14096    14408    15076    14942 
   14140    14584    16093    16797    16481    16067    15580    14686 
   13965    13999    14535    15527    16695    16587    14521    11636 
    9368     8523     8754     8921     8870     9014     8698     7310 
    5573     4821     6178     9090    11163    11872    12902    13795 
   13468    13611    14632    14360    13140    12645    12371    12591 
   14272    15394    14497    14264    16678    19083    17707    13383 
   11185    13184    16232    17867    17754    15221    11216     8114 
    6156     4740     4313     5260     8218    13505    18814    20913 
   19647    16940    13660    10809     9508     9200     9970    11597 
   11364     9413     9428    12373    16106    18444    18497    16684 
   13817    11175    10030    10542    11597    11189     9130     7535 
    6555     5261     5417     8107    10830    11855    12969    15530 
   18022    19634    21002    21373    20444    19330    18036    16612 
   15386    13456    11630    11524    10873     8192     7152     8800 
    9076     7355     6189     5376     4213     2933     1588     1674 
    3282     3858     4478     8363    13956    18048    20427    21635 
   21965    22509    24083    26552    28947    29758    28081    23618 
   17204    11923     9570     8088     6057     5579     7964     9989 
    8298     4838     3029     2889     3256     3747     5408    10126 
   15407    16079    12755     9535     8292     9658    12318    14528 
   17237    19101    16944    13387    12558    13762    15271    15738 
   14039    11833    11014    11306    11653    10461     8827     9888 
   11434     9944     7072     4099     1697     2157     4459     7114 
   11206    15277    17979    21581    26133    28534    27715    24677 
   20501    16696    14298    13495    15078    18947    22475    23194 
   21091    17663    13343     7311     1852     1045     3386     4109 
    2286      450     1466     5085     7642     8010     8157     7866 
    5794     3358     3859     7796    11674    14742    19853    25683 
   27849    25321    21300    20005    20541    18422    14121    11298 
   10853    11946    13257    12447     8161     3879     4070     6288 
    6807     7022     7228     6260     5284     5349     7339    10726 
   11597     8957     7099     8864    12823    16446    18761    19447 
   18145    16855    18799    23504    26099    22614    15987    12138 
   11196    10620    10350    10256    10045     8972     6522     6407 
   10459    14738    19048    25248    28839    26019    19677    13961 
   10969    10245     9272     7156     5510     4884     4071     3473 
    4211     4804     5442     8169     8968     4838     2316     4269 
    4647     1150    -2233    -1184     4535    10753    16871    23826 
   25395    20206    17679    21046    26109    30520    30670    24587 
   16461    10074     7967    12448    18592    18587    13207     6684 
    1070      666     6191    12585    19078    25407    29635    35447 
   40522    34359    18666     2211   -12194   -18125   -10584     2348 
   12552    17917    15733     8880     4680     3086     1752     3154 
    7554    12090    16040    18471    18058    16384    15256    14969 
   15557    15960    15583    16107    18548    21885    23787    21054 
   14740    10723     9443     6126     1736     -482    -2665    -4850 
   -1774     5384     8115     5273     3840     5948     8490    10706 
   14767    21175    25644    24253    19909    18709    21330    22737 
   22372    23778    24335    21768    20959    23943    27544    29168 
   25616    14869     2761    -2207    -1176    -1511    -3447    -1578 
    2569     1665    -4383    -8627    -7945    -4469     -548     3242 
    7156    11874    18672    25499    28277    28656    29403    29411 
   29267    28735    26549    25650    24920    20679    17856    18879 
   17858    13109     5911    -2558    -8832   -12846   -14192    -8508 
    1599     9097    12919    14846    15958    15142     9199     1004 
    -899     4832    12080    18764    25794    30633    32222    32461 
   30891    28163    27416    27816    26839    25256    23515    19936 
   14073     8189     5151     4703     3909     1188    -3641    -9329 
  -11243    -6036     1710     4726     4681     7418    10719    11742 
   12721    12202     9566     9223    11155    12739    13279    11227 
    8348     8831    11621    14145    16810    19103    19934    20776 
   21770    20045    17002    18137    22864    24214    18577    10367 
    7065     8811     9878    12522    19484    20884    13444     8836 
   11237    13908    12334     7434     3959     4662     6853     6878 
    3748      273    -1256    -3386    -6308    -5168     1269    10319 
   19246    24697    28095    34398    39498    37916    36303    37780 
   34648    26586    19256    13414    11591    15388    17670    13910 
    6461    -3329   -11109   -11626    -8844    -7764    -6977    -5622 
   -3405      797     4412     5105     4598     3169      113    -1863 
     387     6876    14110    19359    26177    36713    43698    42797 
   40648    40649    36443    25247    13396     6165     2418      255 
     330     2595     5885     9485    11912    13120    15338    18199 
   20168    20520    16377     8587     3194      486    -1798    -1060 
    2734     6935    11790    17665    24231    28202    24419    16376 
   10999     7357     5885    11869    23003    31743    35547    33659 
   26185    18287    13189     7456     -347    -6704   -10293   -11966 
   -9308    -1221     6255     8037     7388     9288    13169    14690 
   11412     5177      745     2827     9788    14126    13739    13039 
   13605    13135    10722     9396    11600    13606    13267    16915 
   26648    33764    32470    26283    21400    20631    21553    22114 
   22733    20484    14232    10033     9641     7319     1614    -2768 
   -1467     6065    14746    18202    16991    15771    15263    14450 
   13730    12407     9699     6529     4430     5489    11088    19182 
   25124    26881    26040    22909    18498    16267    16218    17124 
   18506    16175     7982    -1987    -9485   -12578   -11794    -9399 
   -7083    -5790    -2898     5665    15258    17539    14893    14855 
   16518    14890    11933    14716    24906    34989    38778    39220 
   38218    33014    25922    20284    14819    10356     7983     6192 
    6862    10695    13609    15459    17292    14893     6284    -3920 
   -9656    -8691    -4353    -1878    -2901    -3699       75     7448 
   15008    22101    29246    35525    36934    30455    21698    17114 
   15569    16482    19755    20884    19064    17189    14548    11703 
   11251     9368      776    -9378   -11972    -9038    -8646    -9559 
   -5322     4394    15765    25161    31077    34066    31530    21220 
    9219     2121    -1020    -1884      953     7258    14147    19345 
   21774    19855    13880    10024    12916    16477    15105    13053 
   11690     7218     2652     2329     4072     7337    14293    23317 
   32076    38524    37832    28519    15577     4886      920     3007 
    4000     1161     -562     2272     9600    17736    19605    14903 
   10385     7892     5918     6059     8501     9107     5166     1433 
    4982    13850    21234    26150    29182    29140    27767    27033 
   24975    19313    11881     7695     8714    10141     7182     2968 
    3658     8676    12658    13819    13542    12463    12711    17039 
   23060    25694    23201    16749    10797    10815    15146    18938 
   21165    20486    18749    20477    20726    15159     9362     3136 
   -6109   -11663   -11050    -8512    -4291      466     3789     7908 
   11103     9907     9043    11998    14793    16945    20669    22711 
   20342    15445    10240     7928     9951    12766    16405    24102 
   31874    34835    34972    33757    30058    23872    16045     9789 
    8836    13038    20918    29078    30013    21938    13147     9992 
   10527    10589     9922    11338    13775    10917     1742    -4235 
   -1148     3033     2070     2317     7771    12506    12225     8498 
    3339    -2363    -8479   -14183   -15349   -10222    -4445    -1872 
      61     3072     7223    13594    20453    22970    21608    21674 
   21493    17125    15398    21643    28524    31398    33302    34669 
   35307    36038    35123    32481    29617    25804    22770    22108 
   18919    12326     8032     5394     2208     1366     1502     -283 
   -1462    -1212    -2174    -6000   -12649   -17387   -13287    -2267 
    7188    13564    19938    24252    23422    18647    14236    15340 
   21262    24585    22676    20869    22799    27719    34075    37154 
   32274    24489    21321    21144    19691    14529     4094    -6262 
   -9359    -7675    -6702    -5589     -917     7893    16993    20957 
   18243    12018     7497     7284     8199     7675     8081     9706 
    9505     7574     5964     5696     8169    12659    15990    18877 
   24137    29487    31772    31825    28401    19136     8737     3234 
    2003     3754     9114    15422    19905    24769    30943    32720 
   27192    21158    19351    17437    12760     7883     4391     4045 
    8240    13286    15441    15208    12398     7597     5168     5500 
    4341     1396    -1148    -1502     2788     9056    11429    11591 
   13368    14889    17189    24411    32488    32880    24027    11478 
    1880    -2468    -4125    -2943     4708    15884    23998    30798 
   39705    44618    38899    26994    19543    20510    23042    21060 
   17932    16526    13334     8509     6658     6215     1338    -6887 
  -10581    -6469     1147     9142    15083    13800     7950     7317 
   13006    19128    22323    21218    18526    19746    24504    29113 
   32510    34143    35037    36663    35829    30084    22201    14327 
    7859     5280     4458     1193    -3122    -6164    -7223    -3448 
    2733     3221     -176     -380     -224    -1663     1639     9884 
   17124    23190    30951    40416    49131    52286    47678    39293 
   29470    17393     6619      108    -5785   -11857   -13672   -10450 
   -2870    10520    27327    41063    46234    42175    34100    25294 
   14984     6689     4719     6982     9895    12088    13367    14631 
   16545    17686    13897     2289   -11992   -18996   -15744    -9131 
   -7043   -11237   -18115   -23029   -23243   -16544    -1884    15019 
   24833    25138    19917    11258    -1267   -14996   -22163   -16040 
    1735    23819    43308    55458    59305    56523    50122    46434 
   48958    51148    44911    32667    23829    21420    19233    12421 
    3574    -3628   -10908   -20045   -26756   -28171   -27579   -26805 
  -24806   -20811   -11410     6986    30136    48090    55343    54856 
   52657    50232    44615    36853    32824    32432    29384    22758 
   16837    13713    12684    11678    11770    18204    30139    40429 
   45887    45075    35433    19023       12   -19325   -33951   -38509 
  -33761   -22893    -9912    -1867    -2578    -7948   -11631   -11400 
   -9154    -7898    -9943   -14894   -18568   -15654    -4455    10133 
   21702    29907    37096    40763    36438    26303    18339    15883 
   15711    17259    23875    34603    43629    47668    47672    45705 
   43880    42865    41574    39742    37607    33192    22345     5077 
   -9754   -14582   -13433   -13448   -13944   -10304    -2952     1703 
   -1732   -10209   -12802    -1840    17510    32627    35262    25066 
    7652    -8714   -20310   -29309   -35365   -34959   -28441   -17574 
   -1628    16160    27713    29843    25269    16300     4131    -9768 
  -23279   -33644   -37349   -31826   -19511    -4788    10577    26002 
   44300    67668    89622   104141   111694   113146   110879   106026 
   94233    73223    45507    16761    -5489   -20483   -31461   -33717 
  -23408    -8639     2197     9142    12939    12455     9028     3097 
   -6967   -16421   -18332   -16472   -17254   -17618   -13516    -7426 
   -3482    -3053    -2420     1658     2016    -7846   -18910   -20422 
  -11289     7704    30560    45612    51046    51084    43296    29919 
   21777    19520    15255    11646    17768    33926    51889    61299 
   55855    38821    16807    -6898   -22376   -15648     5547    17946 
   17998    17917    20390    22355    23964    24742    22628    16448 
    8974     6595    11930    21745    32024    37209    32558    22846 
   17155    18176    21950    22634    20062    18267    16882    14809 
   12565     8671     3074    -5753   -20900   -34590   -37606   -36230 
  -36721   -33692   -24999   -14594    -4647     2806     7135     9385 
    8613     7828    13226    24355    38609    54898    66448    65970 
   56197    45022    37310    35647    38849    39707    35588    34304 
   39712    43161    35861    21423     9953     3960    -1676    -9647 
  -16304   -17927   -18971   -25436   -32532   -31019   -18908      392 
   22933    45709    65504    76228    73231    58167    35967    13089 
   -1762    -2179     8810    20343    25756    28392    31497    29490 
   16780     -821   -12174   -14397   -13130   -13407   -16547   -20946 
  -23582   -24060   -23059   -18781   -10830    -2137     5125    10611 
   12574     8153     -386    -5774    -5877    -4610    -1914     5029 
   13531    18353    18330    16473    17217    22958    31237    36682 
   35409    26276    11962      963     2724    16540    29239    30857 
   26614    24720    24274    21862    17990    14871    13530    13814 
   16823    24779    36721    46282    46591    38124    28160    20737 
   12827     3898     -142     2909     8272    11948    13885    15999 
   18441    16763     7597    -5685   -18463   -29015   -35100   -34045 
  -26466   -16155    -5946     4018    12906    17917    17859    15130 
   14256    18279    24106    25101    20526    15949    14707    15077 
   14165    11906    10544    10802    12069    15152    21265    28174 
   29461    21144     6984    -6019   -13390   -14411   -11358    -6967 
   -2964      909     8615    23679    42098    53759    51691    39232 
   26732    19022    13236    11455    19981    36655    53905    67762 
   77620    83591    81818    65151    36394    10172    -6601   -20563 
  -34890   -45822   -52936   -57526   -57887   -52332   -41169   -25398 
   -8779     1166     1506     -662     3067    10269    11256     6975 
    8186    14495    16014    13305    15723    25629    36005    40501 
   41082    43168    44543    37302    22874    13458    14510    19047 
   20450    18616    15894    12614     5877    -4055    -9556    -5152 
    2849     4204     -781    -2598     4222    16101    27071    33495 
   33502    28476    21525    14222    10031    13256    22558    32222 
   37040    34264    23751     7089   -10407   -20078   -20424   -19581 
  -21120   -20378   -15904   -10957    -6075      275     6848     9057 
    2620    -9791   -19942   -24777   -25928   -21893   -11793     1227 
   13880    22730    26178    27033    26504    23751    21400    21764 
   24714    32013    42388    47907    45065    38000    28024    13911 
      96    -5917    -3027     1514      988    -3501    -6658    -6471 
   -5054    -2986     1222     5147     4218      766     3087    13273 
   24304    31268    36533    43408    50458    52490    47136    37603 
   27622    19816    18499    26717    40528    50836    51929    45671 
   35775    22744     9197     3174     9178    21414    29622    28717 
   21613    12926     3723    -5200   -10716    -9958    -3320     3867 
    5496     1305    -4517    -8185    -8103    -5555    -4121    -6821 
  -11721   -13253   -10720    -8682    -9196   -11195   -13723   -15593 
  -14590    -7427     6062    17489    19105    15635    15125    19789 
   30084    42268    48833    48849    45541    37989    26795    19110 
   19105    21840    22235    18973     9991    -2112    -9636   -11423 
   -9960    -3820     5877    14120    17831    14700     4247    -6893 
  -12000   -13747   -16112   -16738   -13867    -8884    -2191     5838 
   13884    20051    20687    15468    12226    17120    25703    31451 
   34840    39274    44768    48867    49939    46543    37341    23479 
    8117    -3034    -3043     6175    14866    20766    27052    29920 
   25083    15706     6006    -2150    -7547    -8669    -2845     8175 
   15275    12691     3862    -5482   -11457   -13298   -13899   -14234 
  -11873    -6107     2888    15100    26421    31027    28572    23593 
   20569    21540    25581    30430    33743    32311    23402     8816 
   -4123    -9554    -8601    -4432      939     4527     4917     4746 
    7546    13610    20320    26071    28647    24313    15813     9895 
    6956     5337     5819     7326     8431     9869    13569    21840 
   32427    36697    29524    15771     2567    -6462    -8335    -3773 
    1344     6698    16868    28965    36469    37655    32386    22223 
   12600     5936     -943    -7664    -7966     1493    17077    30850 
   36270    34295    30474    26901    21006    10897     1072    -1723 
      81    -1560    -6586    -8204    -3110     5837    14535    22957 
   31221    34013    27728    16727     5667    -5134   -14579   -19932 
  -19829   -15379    -9514    -2974     6255    17063    25793    32332 
   37959    41025    40415    38562    37530    34918    27837    18962 
   13276    12438    15241    18182    16512     9847     3836     2867 
    5962    10965    15295    15348    11930     8966     6524     4123 
    4058     5362     4211     1070     -376     1254     3203     1377 
