Origin Time       2016/04/16 01:25:00
Lat.              32.753
Long.             130.762
Depth. (km)       12
Mag.              7.3
Station Code      FKO008
Station Lat.      33.5716
Station Long.     130.8539
Station Height(m) 91
Record Time       2016/04/16 01:25:22
Sampling Freq(Hz) 100Hz
Duration Time(s)  138
Dir.              N-S
Scale Factor      3920(gal)/6182761
Max. Acc. (gal)   63.341
Last Correction   2016/04/16 01:25:22
Memo.             
[...]
   -6396    -6367    -6337    -6328    -6299    -6257    -6251    -6267 
   -6278    -6314    -6378    -6426    -6464    -6540    -6637    -6700 
   -6689    -6579    -6411    -6266    -6166    -6151    -6256    -6382 
   -6430    -6428    -6436    -6516    -6703    -6895    -6915    -6707 
   -6366    -6117    -6138    -6281    -6279    -6123    -5952    -5861 
   -5918    -6134    -6490    -6908    -7181    -7208    -7095    -6945 
   -6844    -6729    -6404    -5941    -5605    -5577    -5909    -6367 
   -6593    -6545    -6400    -6229    -6080    -6101    -6337    -6689 
   -7024    -7163    -7101    -7034    -7023    -6992    -6778    -6231 
   -5625    -5407    -5575    -5845    -6109    -6444    -6825    -7090 
   -7200    -7235    -7209    -7152    -7066    -6812    -6320    -5774 
   -5400    -5182    -4943    -4756    -4958    -5522    -5912    -5942 
   -6156    -6993    -8079    -8571    -8005    -6923    -6269    -6108 
   -5826    -5214    -4584    -4331    -4566    -5031    -5423    -5640 
   -5709    -5753    -6093    -6933    -7902    -8467    -8521    -8139 
   -7591    -7302    -7203    -6908    -6335    -5500    -4475    -3705 
   -3679    -4334    -5219    -6090    -6977    -8032    -9235    -9820 
   -9018    -7450    -6266    -5759    -5779    -6004    -5866    -5324 
   -4955    -5159    -5882    -6595    -6666    -6192    -5848    -6057 
   -6725    -7248    -6959    -6001    -5240    -5256    -5788    -6176 
   -6110    -5696    -5259    -5205    -5352    -5120    -4559    -4084 
   -4100    -4954    -6339    -7717    -8796    -9154    -8786    -8083 
   -6856    -5077    -3597    -3087    -3461    -4319    -5455    -7026 
   -8843   -10082   -10262    -9605    -8652    -8101    -8055    -7673 
   -6559    -5435    -5000    -5121    -5150    -4776    -4489    -4691 
   -5011    -5135    -5363    -5935    -6436    -6283    -5673    -5230 
   -5058    -5027    -5237    -5852    -6847    -7717    -7870    -7374 
   -6778    -6573    -6855    -7010    -6381    -5491    -5513    -6652 
   -7845    -7908    -6818    -5642    -5190    -5534    -6521    -7762 
   -8565    -8508    -7823    -6935    -5994    -5132    -4641    -4698 
   -5335    -6300    -7108    -7739    -8381    -8546    -7789    -6386 
   -4671    -3141    -2654    -3375    -4559    -5613    -6647    -8121 
  -10028   -11272   -10736    -8832    -6724    -5070    -4357    -4828 
   -5813    -6087    -5108    -3546    -2343    -1768    -1642    -1949 
   -2923    -4756    -7152    -9051    -9468    -8577    -7245    -6139 
   -5235    -3776    -1971    -1458    -2568    -3962    -4629    -3893 
   -2090    -1065    -1679    -3517    -6461    -9286    -9833    -8051 
   -5734    -4513    -5153    -6269    -5122    -1379     2171     2909 
     567    -3395    -6754    -7800    -7349    -8003   -10926   -14511 
  -15735   -12700    -6178     1053     5790     6228     3444      417 
   -1434    -3771    -8432   -14505   -19293   -20620   -17584   -10841 
   -2920     3139     6121     6711     5764     3881     1543     -871 
   -2730    -3830    -4569    -5062    -5481    -5953    -6500    -7893 
  -10194   -11833   -11375    -8256    -3437      437     1213    -1395 
   -5326    -7250    -6590    -5844    -6292    -7340    -8457    -9116 
   -9153    -8837    -8315    -8147    -7841    -5283     -392     3768 
    4115     -190    -7850   -16247   -22820   -27429   -31139   -32131 
  -27541   -18406    -9128    -3854    -3822    -6362    -7462    -6047 
   -4158    -3457    -3404    -1886     2234     6985     9932    10385 
    7393     1518    -2079      681     6821    11021    11962    11031 
    9520     8471     6750     1661    -5416   -10626   -13633   -14711 
  -12824   -10763   -12793   -17979   -21819   -21045   -16188   -10244 
   -4088     2867     8399     9347     5928      625    -4854   -10301 
  -16533   -23157   -27335   -26295   -19477    -9500    -1514     1575 
    1853     2467     3363     1798    -4170   -12904   -19657   -21079 
  -18955   -16360   -14266   -14829   -17758   -15854    -5409     7432 
   15061    14694     9078     4136     1971     -222    -2321     -666 
    5544    14647    24477    31243    31924    26148    14966     1579 
  -10299   -19587   -24165   -20363   -11512    -6637    -8718   -13876 
  -19065   -23493   -27476   -32706   -39211   -44231   -46295   -45075 
  -38576   -26721   -14557    -7543    -7855   -13861   -18211   -14317 
   -5632      827     3399     3213     1289    -1638    -5892   -11991 
  -17896   -19261   -15140    -8895    -1960     6635    15784    21297 
   19218    11555     6337     8120    12543    14376    13693    10857 
    5566      380    -2405    -3043    -2863    -4173    -8926   -15825 
  -19471   -15585    -6989     -260      895    -1952    -4674    -7433 
  -13149   -18467   -17587   -12846   -11158   -15779   -25313   -33068 
  -31981   -24733   -20303   -22120   -26519   -28927   -28112   -25621 
  -22737   -19378   -14883    -9005    -2068     5409    12193    16698 
   17895    15011     8967     3787     2549     3031     1231    -2724 
   -4788    -1786     4360     8472     9262    11012    15813    18541 
   14485     7163     2912     3476     6888     9231     6334    -1663 
  -10428   -16513   -20176   -24137   -28403   -29291   -26006   -20692 
  -14518   -10244    -9795   -10008    -8855    -7977    -7785    -8554 
  -11422   -15388   -18996   -22192   -24210   -23561   -19530   -12985 
   -7092    -4688    -4406    -2944     -794    -1121    -2686    -1193 
    2756     5131     4334      821    -4093    -8161   -10503   -12438 
  -14087   -13119    -7872     1140    12169    23594    34689    42368 
   39924    25726     7935    -5524   -14967   -24449   -34934   -42788 
  -43362   -35842   -24204   -12920    -3190     4554     7704     4534 
   -1919    -6301    -7780   -11069   -19490   -30589   -37859   -35900 
  -26442   -16944   -12084   -10367    -8060    -3345     1472     1300 
   -5048   -12365   -16523   -19116   -22988   -27036   -27204   -22631 
  -16477    -9994    -1786     8346    18589    26259    30183    31715 
   30877    26339    20071    14659     9745     5661     3699     2058 
   -1716    -5838    -7402    -6436    -3628       50     2591     4265 
    6675     8377     7076     3722     1401     1809     3885     5686 
    5568     3001     -264    -2945    -6094   -11302   -19849   -29922 
  -35715   -34501   -29785   -24728   -18920   -11875    -5002    -1481 
   -4086   -10727   -15929   -17145   -15491   -13707   -14584   -17121 
  -18043   -17333   -15697   -11762    -6244    -2061      133     2547 
    6648     9765     7655      415    -7411   -11733   -11897    -9014 
   -4199      343     4142    10194    17426    20061    16329     9260 
    2580    -2353    -7562   -14398   -22312   -30625   -37040   -38317 
  -34018   -27847   -24065   -23076   -23246   -23784   -24072   -24862 
  -27836   -31924   -35146   -37517   -38179   -35206   -28855   -21253 
  -14949   -10810    -6833    -2942    -2346    -5577    -9991   -12471 
   -9285      170    11079    18572    21401    21271    20672    19798 
   17286    14228    12907    11883     9081     6995     7571     8416 
    7247     3754     -744    -3491    -3632    -3108    -3686    -5729 
   -8155    -9399    -9052    -7442    -5073    -2531     -435     -673 
   -5316   -13251   -20805   -26175   -30749   -35359   -38167   -36824 
  -30981   -23383   -17582   -13568    -8340     -830     6281     9030 
    5423    -2775   -11769   -18878   -22769   -23286   -21606   -18316 
  -13100    -5706     4173    15083    23601    27636    26749    21816 
   16410    13347    11209     8202     5202     3750     4690     7717 
   10273     9205     4979     1263     -355     -594     1015     3634 
    4225     2315    -1719    -8432   -15457   -20961   -26458   -31264 
  -34014   -36240   -38048   -38263   -36992   -33816   -29282   -25529 
  -23338   -22424   -21788   -20485   -19734   -20297   -20527   -19555 
  -18068   -15906   -12214    -7743    -4519    -2305     1059     4787 
    5110     -178    -8784   -15392   -18336   -20917   -24349   -26880 
  -27355   -25132   -20225   -12656    -2709     6657    12585    15308 
   16069    15924    14245     8643      -57    -7483   -10779    -9534 
   -5000     -106     3419     6495     9809    12558    13306    11122 
    6937     1577    -5610   -13392   -19169   -23008   -26599   -30850 
  -35671   -39497   -40037   -36148   -28299   -18131    -8436    -3390 
   -5781   -12523   -17589   -19692   -21904   -25195   -27262   -26775 
  -24210   -20004   -16147   -15007   -15281   -14376   -10546    -2235 
    7860    13287    11969     8007     5739     5001     3263     1191 
    1441     3727     6155     8526    10657    10798     8517     5716 
    4157     5482    10734    17726    22646    23432    20886    17613 
   14605    11158     7266     2954    -1474    -4788    -6689    -8359 
  -10983   -14493   -18105   -21783   -25563   -28806   -31150   -32352 
  -32334   -31969   -32261   -33671   -35744   -36887   -36272   -33933 
  -28857   -20844   -12580    -7593    -6856    -7986    -8893   -10808 
  -15496   -20669   -21888   -18917   -14444    -8911    -2688     1499 
    1190    -4145   -12285   -18819   -22275   -24884   -26595   -25904 
  -22671   -15265    -4260     4724     8922     9287     5286    -2195 
   -9377   -14315   -17605   -19164   -18346   -15967   -12872    -8468 
   -3051      984     1507    -1074    -3976    -4630    -3647    -3194 
   -3298    -4421    -8863   -15272   -19675   -21371   -20968   -17909 
  -12985    -7757    -2276     3261     6910     6716     3220    -1235 
   -5748   -10054   -11503    -8168    -2977     -634    -2519    -6124 
   -8042    -7038    -4258    -1232      399    -1013    -5137    -9847 
  -13296   -14800   -14362   -13032   -13656   -16255   -15942   -10718 
   -4235     -878    -2468    -6132    -7500    -6554    -5266    -3313 
     248     4807     8431     9344     9245    12137    16049    13274 
    2769    -7074    -9685    -6075     -387     4630     8333    10587 
   10435     7047     1732    -2365    -3387    -2604    -2665    -4669 
   -7300    -8750    -9215   -10500   -12388   -11841    -7730    -2919 
    -162      136    -1384    -3311    -4628    -6158    -8562   -10987 
  -12650   -13122   -12413   -11490   -10043    -6830    -4114    -5521 
   -9473   -11756   -12365   -13381   -14581   -15345   -15790   -15834 
  -15682   -14846   -12177    -8183    -4215     -604     2138     2834 
    2106     2148     3229     4405     5669     6183     4397      107 
   -6111   -13428   -20962   -27858   -32074   -32046   -29146   -25087 
  -20306   -15624   -11140    -6352    -2429       66     2546     5594 
    8298     8462     3959    -3215    -9070   -13592   -18600   -22798 
  -22558   -16038    -6047     2373     6888     9188    12298    16294 
   17700    14210     7095    -1297    -9669   -17529   -23535   -25313 
  -22838   -19644   -17763   -14039    -5139     6353    15335    20186 
   21868    21240    18999    15819    12090     7224      251    -7778 
  -14189   -16963   -15546   -11007    -4864     1888     8400    15035 
   22748    29594    31626    27017    17215     6683      319    -1482 
   -1603     -944     1789     7510    14373    18075    17515    15760 
   13907    10731     6146      748    -4124    -5994    -3927     -229 
    1392     -676    -5229   -10965   -16708   -20411   -20578   -17659 
  -14263   -11757    -7618    -1577     1315    -1982    -9466   -17820 
  -24211   -27345   -28493   -29756   -31058   -29753   -24352   -17752 
  -14196   -13730   -13030   -10866    -8650    -6703    -4708    -4069 
   -5932    -9670   -14368   -18067   -17937   -14045    -9305    -5373 
    -873     5957    13676    19113    20245    15766     6373    -4699 
  -14906   -22383   -25191   -23733   -19359   -11944    -2548     5957 
   11956    15742    17921    17507    12280     1842   -12556   -29606 
  -46302   -58682   -65207   -66568   -63399   -55378   -41863   -22781 
     510    23411    39259    44711    41668    34074    24678    13101 
   -2785   -21531   -37281   -46051   -48325   -46275   -42375   -38278 
  -33152   -23639    -6657    15683    36115    48304    50213    43246 
   29953    11210   -12362   -36903   -56487   -65502   -61516   -48297 
  -31804   -14485     4482    26599    48871    61475    56853    37871 
   13653    -8802   -28881   -48862   -66040   -73889   -70643   -60026 
  -46826   -35399   -27808   -22122   -13818     1406    22812    43004 
   56320    63599    66840    67989    69205    69088    63706    50394 
   29126     4584   -14324   -21573   -19376   -14195   -10023    -6520 
   -1904     2295     2611     -803    -5709    -9816    -9967    -6924 
   -7506   -17154   -33493   -48665   -55605   -50994   -36429   -19409 
   -7420     1005    11541    22986    30050    30308    23074     8576 
   -8727   -20902   -24661   -24091   -24043   -26047   -27866   -24822 
  -13921     3341    22310    39008    50654    53459    45115    28166 
    7468   -13207   -31840   -47984   -60775   -67456   -66793   -61963 
  -56475   -51938   -51193   -54737   -56500   -51103   -39880   -26497 
  -12210     3358    19777    34548    42545    37558    17612   -11304 
  -39600   -60802   -71070   -66827   -48446   -22975      397    15850 
   21564    17980     7455    -7595   -27099   -49148   -67698   -78592 
  -80593   -72281   -53767   -27239     4920    39221    69440    88551 
   93477    87030    74027    57530    39874    24001    13565    11930 
   17767    25222    30735    34637    38999    45549    51165    50601 
   44629    37198    28400    17322     5238    -6914   -17936   -26546 
  -33532   -39605   -45737   -53512   -61533   -68037   -74109   -79924 
  -83300   -81862   -74583   -63334   -51817   -42228   -33587   -23884 
  -15118   -11422   -11513   -10822    -7892    -2785     4997    14929 
   25292    33903    38899    39717    37024    32498    28456    26635 
   27275    29124    30384    29890    27558    23085    15550     6167 
   -2942   -13285   -27649   -44526   -58509   -65530   -64864   -57962 
  -49765   -45545   -44314   -42635   -42020   -45577   -51413   -54511 
  -51635   -43006   -31703   -19715    -5208    13505    34368    53316 
   65940    69499    65940    59290    51509    42888    33591    25056 
   19239    15627    11620     5587    -3281   -16432   -33555   -51409 
  -66756   -77433   -81542   -77942   -67293   -51756   -33853   -16932 
   -4985      908     2965     3010     2106       30    -5205   -13022 
  -19887   -23132   -21432   -15268    -7218      480     6999    12632 
   19260    28657    39278    45886    42632    28433     8245   -13762 
  -37549   -62092   -83680   -98815  -104700  -100565   -88993   -73490 
  -56905   -40226   -22547    -5515     6519    11803    12413    11925 
   12449    12177     8200     1588    -3253    -2869     2161     8172 
   13378    19452    27931    37663    45294    48236    47468    45552 
   43044    38735    31588    21541     8772    -7398   -27075   -45791 
  -56121   -55902   -49388   -41349   -34556   -29009   -21865   -10831 
    2616    14607    22820    27074    26600    19523     5628   -11451 
  -26669   -37543   -43528   -44401   -39617   -27398    -7292    17232 
   40585    58570    70723    78098    78977    70034    50980    25912 
     548   -22099   -41199   -54503   -60914   -62150   -60301   -58258 
  -57015   -53632   -46914   -38773   -30562   -22662   -15269   -10217 
  -10745   -17153   -26783   -37767   -48921   -58411   -63990   -63498 
  -55596   -40905   -23057    -6589     6700    16970    23362    24664 
   20722    11787     -430   -13147   -25396   -36488   -43598   -44186 
  -38682   -30163   -22405   -17046   -13044   -10285   -10450   -12931 
  -14624   -14013   -11971    -9628    -7065    -3081     4069    14799 
   27712    40543    49765    51960    47915    42234    37268    30745 
   21397    12711     8476     8483    10254    11911    13055    15298 
   20308    25523    25685    19456    10476     2443    -4751   -12550 
  -18708   -19332   -13091    -1280    12454    24045    31743    35285 
   34051    27761    18065     8252     1113    -3433    -7653   -12852 
  -18308   -22316   -23696   -22401   -18417   -12138    -5420     -371 
    1485     -909    -6805   -13673   -20132   -25678   -29043   -30240 
  -29766   -26441   -20145   -13508    -9594    -9889   -14047   -20619 
  -28088   -35371   -40753   -40933   -33738   -21693   -10579    -4389 
   -2716    -3027    -3504    -4143    -7110   -14057   -22896   -29426 
  -31317   -28926   -24004   -19668   -18734   -21311   -26049   -30670 
  -31726   -28630   -25344   -25594   -28843   -30953   -29098   -25102 
  -21459   -17187   -10847    -4710    -2040    -1475     1886    10529 
   22182    31850    35847    35203    34030    34143    33433    30065 
   25698    23692    25633    29929    33972    37325    40792    43436 
   43482    40448    34356    25315    14692     4277    -5256   -13986 
  -21768   -27000   -27567   -24091   -20081   -19395   -23765   -31377 
  -39199   -45814   -50086   -50035   -44472   -34409   -23643   -16355 
  -12809    -9655    -3765     5210    14904    22604    27333    29968 
   30768    27425    18349     5389    -8697   -21577   -30789   -35415 
  -35921   -31754   -23637   -16244   -14264   -17858   -23370   -27041 
  -27820   -27290   -27670   -29639   -31566   -31555   -29966   -28433 
  -27499   -27560   -29878   -34100   -38178   -41546   -44956   -48378 
  -50984   -51628   -48732   -41588   -31447   -19201    -5204     8115 
   18467    26211    31301    32144    28606    23103    19590    21548 
   28692    36943    43617    49860    56868    63329    67180    67994 
   66761    63967    59477    53458    46462    39355    32754    26666 
   21277    17025    14604    15043    17308    18222    16802    14596 
   12196     8464     1758    -8031   -18419   -27004   -33383   -37558 
  -38888   -37147   -32828   -26141   -17815   -10039    -4764    -2515 
   -3600    -8398   -15828   -23677   -30480   -36299   -41911   -46687 
  -48386   -45955   -40463   -33229   -25407   -18325   -12664    -8675 
   -6978    -8290   -12240   -16659   -19511   -21150   -22886   -23997 
  -22568   -19068   -16115   -15332   -15988   -15566   -12724    -9287 
   -7147    -5982    -4778    -2276     2277     7219    10410    12132 
   13639    15568    17899    18729    15460     7781    -3096   -15767 
  -28329   -38763   -45231   -46458   -42525   -34458   -23581   -11115 
    1925    13081    19096    19564    16517    11664     5401    -2973 
  -12890   -21638   -27381   -30238   -30764   -29210   -24909   -17457 
   -8977    -2346     1165     1380     -372    -1620    -1111     1086 
    4973    11043    19178    27666    35084    41394    45956    46953 
   42952    34854    26280    19684    13872     7778     2796      370 
     530     1859     2343     2006     2916     6374    12483    20613 
   28994    35305    37766    35708    29684    21344    12361     2932 
   -6996   -16087   -23318   -28220   -29524   -27079   -22710   -18190 
  -14965   -14290   -16237   -19788   -23669   -27338   -31937   -38505 
  -45266   -49130   -48740   -44838   -39123   -33078   -27642   -23563 
  -20773   -18264   -15488   -12256    -8366    -5254    -5124    -7666 
