Origin Time       2016/04/16 01:25:00
Lat.              32.753
Long.             130.762
Depth. (km)       12
Mag.              7.3
Station Code      FKO007
Station Lat.      33.5610
Station Long.     130.2024
Station Height(m) 4
Record Time       2016/04/16 01:25:23
Sampling Freq(Hz) 100Hz
Duration Time(s)  114
Dir.              N-S
Scale Factor      3920(gal)/6182761
Max. Acc. (gal)   44.007
Last Correction   2016/04/16 01:25:23
Memo.             
[...]
    4210     1321    -2760    -7873   -12276   -14326   -13263    -9288 
   -4125      404     3339     3960     2973     2608     3133     3045 
    2368      855    -2910    -7927   -12414   -16628   -19836   -20093 
  -17420   -12591    -5077     5095    14996    20305    19436    14521 
    8822     4440      981    -2877    -6959   -10805   -13790   -14166 
  -11939    -9038    -5768    -2063      318      460     -167      -16 
     884     1281     -107    -2966    -5729    -7918    -9316    -8330 
   -4651      122     5553    11299    14948    14919    12799    11013 
    9895     7409     1808    -5325   -10207   -11306   -11330   -13445 
  -16649   -17732   -16070   -13680   -12342   -11723   -10139    -7091 
   -3454      299     3693     5416     5172     4228     2663     -494 
   -3854    -4559    -2645     -880     -440     -197       19     -714 
   -2468    -5039    -8094   -10455   -11491   -11303    -8873    -3493 
    2699     6833     7878     5899     2424      381      378      251 
   -1122    -3290    -5746    -7994    -9778   -10820   -10143    -7586 
   -5060    -4721    -6853    -9486   -10514   -10522   -11219   -12878 
  -14815   -15449   -13708   -10985    -8603    -6711    -6046    -5908 
   -4344    -1962      -77     1288     1199    -1166    -4913    -8161 
   -8644    -5763    -1175     2782     4129     3672     4422     6589 
    7298     5251     1955    -1892    -7796   -14727   -17820   -15433 
  -11278    -8007    -5090    -2476    -1622    -3239    -5653    -6343 
   -5291    -4714    -4924    -3900    -1742     -596     -715    -1697 
   -3494    -4388    -3521    -1962     1144     6759    11743    13099 
   12195    10158     6124     1203    -3273    -7902   -11214   -10773 
   -8269    -6709    -6292    -5575    -2770     1712     3751      929 
   -3895    -7610   -10525   -14252   -18910   -21120   -17442   -10356 
   -4078      704     3079     1600    -2613    -8075   -13808   -16678 
  -13294    -4878     3612     8557     9359     7274     4012      542 
   -2412    -4150    -4240    -2308      251      360    -2012    -3437 
   -3263    -4186    -6716    -8966    -9872    -9458    -7834    -5462 
   -3467    -2250    -1527    -2952    -8176   -13348   -13898   -12197 
  -11150    -8786    -4250     -362      262    -1676    -3769    -5350 
   -6413    -5169      275     7865    12837    14009    13708    12889 
   11076     8391     4745       39    -3111    -2069     1496     5259 
    8162     8095     4309     -991    -5566    -8704   -10637   -11600 
  -11493   -11057   -10823    -8686    -4032    -1072    -2240    -4010 
   -3784    -4692    -9043   -13820   -15809   -14953   -12384    -8695 
   -4487     -890     2244     6203     9724     9930     8192     8783 
   12088    15458    16540    12674     4477    -1911    -2908    -1539 
      44     3132     6815     8700     8732     6974     2490    -4511 
  -12579   -20436   -27058   -30338   -28177   -21646   -15304   -12864 
  -12737   -11460    -9552    -8956    -8864    -7762    -5889    -4512 
   -4924    -6709    -7110    -5008    -2007     1635     5142     4851 
     843    -2020    -1950     -881     -677    -1807    -2759    -3209 
   -4363    -5244    -5695    -7526    -9768   -10022    -8141    -5433 
   -2392     1356     4280     4526     3700     3412     2591      -86 
   -4976   -10516   -14177   -15387   -14889   -12923   -10376    -9310 
  -10092   -10697   -10299    -9683    -8426    -6356    -4740    -2750 
     877     3340     1778    -2118    -4653    -4179    -2482    -1311 
     764     4208     6733     8103     9057     8255     6335     5541 
    4132     -781    -7849   -13881   -17984   -20824   -22094   -21231 
  -18498   -13706    -7489    -2904    -2378    -4763    -6363    -5224 
   -3295    -2095     -396     1947     3164     3316     4549     7329 
    9833    11431    13389    15330    14624    10516     4784    -2016 
   -9310   -13808   -14181   -12757   -10785    -8909    -8383    -8866 
   -9456    -9462    -7553    -3889     -954     -229    -1243    -3984 
   -7988   -10714   -10157    -6431    -1363     1514      255    -3334 
   -7717   -12378   -15127   -15084   -14402   -14019   -13293   -13121 
  -14170   -15035   -14480   -11517    -5319     2151     7574    10279 
   11710    12500    11924     9089     3645    -3302    -9024   -11497 
  -11021    -9109    -7726    -8936   -12554   -15566   -15592   -12711 
   -8715    -6287    -7026    -9486   -10238    -7495    -2743     1507 
    4306     6528     8890    11483    14861    17509    16077    10593 
    2931    -5921   -13165   -16548   -17022   -14945   -11057    -8523 
   -7307    -4587    -1495     -734    -1897    -3191    -3017     -114 
    4651     7990     8038     6119     3062    -1621    -6870   -10601 
  -11738   -11256   -11576   -13486   -15965   -18360   -19587   -18110 
  -13766    -7547     -861     4536     6992     5299      396    -2798 
    -558     3471     4342     3897     5543     7431     7400     7216 
    7353     5707     1954    -3175    -8935   -13261   -14649   -13266 
  -10141    -6290    -1731     2674     4902     4784     3834     2862 
     904    -3350    -8631   -12489   -14545   -15078   -14060   -12947 
  -12960   -12497    -9248    -3478     1855     4055     2611    -2200 
   -9475   -15457   -15646   -11073    -6795    -4272    -2874    -3818 
   -6477    -8546    -9813    -9942    -8191    -5836    -3490     -462 
    2256     3189     2223     -116    -2493    -3260    -2659    -2192 
   -2267    -2890    -4694    -6944    -7612    -7073    -7061    -7000 
   -6540    -7526    -9986   -11291    -9950    -6539    -2014     2487 
    5198     5197     3694     1836     -676    -3345    -4808    -4418 
   -2045      967     2370     2411     2491     1490    -2030    -6522 
   -9669   -11115   -11428   -11067    -9959    -6165     1630     9653 
   12595    10739     7724     3168    -5030   -13027   -15382   -12958 
   -8577    -2887     2093     3572     2597     2715     4393     5341 
    5171     5670     7247     8011     7625     7923     8387     6481 
    1747    -3465    -6603    -8001    -9621   -11027   -10635    -9697 
  -10333   -11861   -13058   -14580   -16314   -16352   -14097   -10785 
   -7528    -5656    -5801    -5991    -4202     -607     3142     5146 
    5746     6933     8520     8173     4890      806    -1547    -2531 
   -4071    -7396   -12767   -19209   -24713   -27565   -26851   -22238 
  -14412    -5056     3910    11307    17045    20894    22051    20005 
   15069     8523     2529    -1124    -3342    -5381    -5574    -4154 
   -4879    -8437   -12615   -17296   -21865   -22318   -16813    -8414 
    -199     5902     7418     4206     -136    -2515    -2663    -1516 
    -133     1072     1629      441    -1528    -2120    -1359      -20 
    1056      182    -2227    -3664    -4146    -5776    -8777   -11461 
  -12071    -9818    -5230     -154     3065     4065     3846     1924 
   -1995    -6414    -9871   -12017   -13435   -14056   -12643    -8820 
   -3154     2877     6302     6135     5057     5096     5119     3444 
     479    -2332    -4814    -7631   -11021   -14475   -15935   -13900 
  -10327    -7190    -4474    -3184    -3573    -3799    -4090    -5311 
   -5674    -4869    -4755    -4608    -2727     -248     1455     3585 
    7325    11406    13384    11527     5872    -1623    -8255   -12136 
  -13509   -14387   -15169   -13946   -10022    -3760     4274    11806 
   16020    14356     6980      270    -1371    -2757    -7742   -13087 
  -16015   -16468   -15055   -12906   -10239    -7649    -6914    -8521 
  -11259   -12723   -10873    -6994    -4609    -4338    -3122     -563 
    -112    -1616    -1391      277      741      730     2283     4707 
    5379     3690     2090     2462     4559     7151     7946     4809 
   -1302    -6690    -8918    -9134    -9497    -9645    -8591    -7273 
   -6010    -4107    -1846      641     3321     4930     4710     4163 
    4629     4841     3267    -1047    -9201   -18479   -22990   -21346 
  -17000   -11842    -5945     -718     3069     6157     8106     6971 
    1288    -6320   -10377    -9459    -6406    -3382      245     5511 
    9798    10546     9950     9769     8500     5452     1263    -2896 
   -4618    -3464    -2811    -4348    -5151    -3044     -407     -840 
   -4355    -7829    -9299    -8869    -7126    -5409    -5083    -5603 
   -5316    -3570    -1210     -349    -3442   -10740   -18722   -22825 
  -21506   -16201    -8873    -1167     4802     6606     4335     1717 
    2086     4244     4684     3587     4196     6487     7393     6004 
    3593      463    -2994    -3830     -302     3747     3591     -353 
   -5448   -10827   -15328   -16969   -15982   -14774   -15467   -18097 
  -19836   -17538   -11380    -3528     4921    12650    18131    22143 
   24462    22873    19468    17556    15017    10945     9492    11669 
   13111    10422     4713    -1034    -6591   -13454   -20819   -26961 
  -31724   -34419   -31891   -22241    -9213     1080     6552     8677 
    7810     4498     2718     4317     5279     2722    -2354    -9616 
  -18285   -24073   -23377   -18149   -13161   -10249    -8087    -5600 
   -2516     1448     5063     4901     -506    -7650   -11917   -11996 
   -9023    -3974     1929     6369     7974     7021     4092      710 
    -457      194    -1884    -7348   -10004    -5891      956     4369 
    3616     1275    -1481    -3029    -1901      681     3696     6414 
    6010      779    -7319   -14493   -17593   -16689   -14406   -12073 
   -9048    -4795     -352     2070     1467    -1876    -7542   -13802 
  -18031   -18310   -13638    -4185     8069    18421    22664    22217 
   20745    18266    12806     3973    -6067   -13683   -16988   -17119 
  -15504   -11856    -5747     1921     9211    13355    12820     8435 
    1125    -6665    -9543    -5493      535     3369     1889    -4059 
  -12182   -17136   -17423   -15044   -11043    -7793    -7488    -7345 
   -3788     2384     9755    17733    23775    27080    29596    30757 
   28935    24214    16436     6350    -2457    -7482   -10728   -12998 
  -10925    -6167    -6290   -13829   -24787   -34353   -39452   -39405 
  -35838   -32642   -32904   -34062   -30977   -22458   -10504     2458 
   13371    19755    21314    19582    17790    18683    21217    23274 
   24043    21267    13882     5196    -2498    -9936   -16065   -18221 
  -16756   -15362   -17203   -21853   -26163   -28212   -28982   -29429 
  -27794   -22313   -15447   -11996   -14015   -19182   -22404   -19111 
   -8395     6412    19238    25169    24939    22532    19506    17217 
   18537    21486    20334    14636     7969     1585    -3273    -3869 
   -2159    -4605   -13291   -23468   -29165   -27893   -21660   -14453 
   -9622    -9600   -13759   -18173   -20881   -22184   -21200   -18307 
  -15451   -10797     -470    13982    26667    33776    34122    27632 
   17418     9762     8191     9791     9501     4341    -5512   -15128 
  -17908   -12372    -3322     1559    -2795   -12449   -19163   -22955 
  -27030   -26686   -19856   -12867    -7545     -693     7853    17072 
   26999    37042    44980    47925    45402    39520    31419    21218 
   11122     4178    -1276   -10379   -22185   -30009   -32445   -32691 
  -30143   -23019   -13628    -5917    -3019    -6914   -16488   -26869 
  -31972   -28900   -20699   -12394    -6125    -1461     3726    10075 
   13937    12548     7449     1907     -839     -662     -793    -1424 
    -378      627      -79      395     3870     7638     7481     1095 
   -9523   -19866   -28196   -35506   -40207   -39041   -33170   -26630 
  -21901   -20852   -22227   -20682   -14669    -6866     1039     5960 
    4283    -1639    -3579     4580    19537    32975    40388    39962 
   31529    19856    10555     4674      708    -3698   -12392   -26111 
  -39125   -46294   -47335   -43424   -37074   -31089   -25303   -17901 
   -8664    -1590    -2303   -10263   -18910   -23326   -23021   -19326 
  -12350    -1438    11764    24170    34228    41205    44090    43674 
   43000    43775    44498    42447    35749    24120     9560    -4053 
  -14467   -22674   -29708   -35127   -38064   -38077   -36439   -35143 
  -34341   -33914   -36273   -42866   -48318   -44415   -28531    -2846 
   25608    44339    49207    47068    38623    23285    11777    10768 
   14074    16001    15535    11332     3479    -4039    -9490   -16396 
  -25657   -33224   -34884   -28262   -16530    -8460    -9200   -15554 
  -20031   -16882    -6828     4448    12575    17495    21392    25304 
   28513    29776    27053    18847     7376    -3103   -10266   -13840 
  -15430   -19233   -28177   -38398   -42349   -38003   -30538   -25657 
  -24769   -26108   -28152   -29807   -29181   -26044   -23513   -24322 
  -26254   -23730   -14777    -2833     9295    22177    35623    46635 
   52319    52201    48584    45966    46907    48439    46820    42897 
   37980    29291    14050    -5606   -24653   -39366   -46955   -44171 
  -31998   -19633   -16048   -19884   -24436   -27088   -28177   -27381 
  -25232   -23917   -25915   -31837   -38170   -39773   -34420   -22960 
   -8081     6174    15551    17492    13431     8039     4461     1312 
   -4300   -12171   -18675   -19756   -15323    -9957    -6181    -2089 
    2424     4651     3420       -1    -2899    -3485    -2895    -2772 
   -4360    -9993   -19153   -26139   -26919   -22962   -15734    -3679 
   13986    34273    51381    61340    65474    66172    62755    54973 
   46484    41422    39402    38122    36419    31445    21770    11135 
    2288    -5483   -12083   -17116   -21820   -26664   -30378   -32892 
  -36562   -42491   -48344   -52457   -55720   -57990   -56890   -50675 
  -40915   -31020   -22230   -13283    -4316     1373     1755     -488 
   -2482    -5128   -10084   -16186   -19520   -17331   -11171    -3719 
    3215     6197     2273    -7086   -17453   -24781   -27909   -28588 
  -27776   -24340   -17791    -9464    -2038     1774     1668      141 
    -276      492     1598     4255    10032    17092    22209    25803 
   30331    35397    39835    44527    48493    47702    39688    25880 
   11240     1508    -3153    -7889   -13499   -15808   -15631   -17820 
  -21478   -21187   -15924   -10312    -9055   -13295   -20474   -26059 
  -25998   -19009    -7285     6467    20810    32082    34673    25898 
    5936   -20475   -41450   -50005   -52405   -52906   -46746   -34487 
  -23007   -14790    -8987    -4059     1594     6870    10696    13989 
   17126    19629    19979    16447    10542     6398     5856     6512 
    5375     2225    -1963    -6218    -8944    -9330    -6735      881 
   13427    26317    34312    35560    30309    17827       -6   -14840 
  -20582   -20873   -19520   -14262    -6277    -1742    -1938    -2991 
   -3775    -6858   -11910   -14248   -11264    -4518     3902    12222 
   18466    21951    23238    22286    17943     9341    -1990   -12951 
  -22308   -30694   -37222   -39402   -37091   -33179   -30262   -29851 
  -32406   -36202   -39864   -43935   -47496   -48147   -45148   -39088 
  -30698   -21301   -12554    -5635     -164     6344    15452    25141 
   32597    37202    39810    41581    43651    46388    48918    49150 
   44325    34147    23434    17313    13870     7182    -3367   -12956 
  -18054   -18520   -16150   -14229   -16372   -23055   -30507   -34697 
  -34169   -29549   -23603   -20147   -20004   -20543   -20943   -22750 
  -24498   -22517   -16285    -8057       41     5892     7585     5561 
    2539     -216    -4188    -9926   -15211   -17668   -17339   -16707 
  -18813   -24362   -29748   -29575   -21451    -7015     9325    22266 
   29877    34448    37978    41013    43866    45843    46315    45251 
   42094    36658    29171    19792     9570      990    -2373      730 
    6017     7714     3972    -4400   -16006   -26804   -31415   -28978 
  -22842   -15649    -9241    -4991    -2322    -1182    -3194    -7996 
  -12585   -15099   -16816   -19827   -24927   -32468   -41463   -48365 
  -50705   -49335   -45909   -42312   -40733   -41140   -41405   -39446 
  -33642   -24141   -13285    -3476     4548    12005    19304    23850 
   23682    20547    17659    16993    19011    23351    28125    30182 
   28406    24354    20430    18621    18177    16713    13578     9590 
    6023     3631     2324     2500     3782     3924     1389    -3676 
  -10251   -16198   -19772   -20973   -19566   -15246   -10335    -8305 
   -9666   -11355   -10566    -8055    -5922    -4756    -4992    -7125 
   -9827   -11201   -11678   -12783   -14443   -16265   -18102   -18420 
  -15970   -11989    -8333    -5482    -3355    -1942     -739     1219 
    4117     6481     6541     3760    -1049    -6003    -9271   -10164 
   -9004    -6493    -3231      367     4207     8681    13571    17152 
   17879    15886    12535    10251    10721    12415    12932    12267 
   11632    11897    13809    16691    17605    14748    10010     5878 
    2590      218      273     2874     5319     5829     5775     7017 
    9374    11301    11376     8482     3330     -117     1959     8622 
   14358    14386     8982     1565    -4910    -8699    -9615    -9281 
   -9617   -11890   -16689   -23180   -29635   -34757   -38107   -40263 
  -41549   -40704   -36204   -28295   -19208   -11628    -7466    -7217 
   -9335   -11375   -11346    -8171    -2881     1871     3867     2689 
     280     -756      460     2611     3401     2434     1871     3072 
    5490     8761    12687    16089    18011    18999    19873    20124 
   18436    14639     9965     6110     5038     6546     6292      468 
   -9663   -20244   -28533   -33411   -34577   -32313   -28842   -28172 
  -31191   -33928   -33774   -32655   -32459   -32568   -32181   -30391 
  -25455   -17403    -8300      731     9771    18470    25534    29433 
   29672    27122    23027    18185    14044    12467    12379    11099 
    8758     6896     6151     6494     6401     4370     1358    -1859 
   -6084   -10727   -14425   -17209   -18901   -18721   -16444   -11954 
   -6432    -3367    -4270    -6647    -9074   -12188   -14255   -12124 
   -5690     1489     5497     6325     7556    10733    13943    16130 
   17435    16907    14165    10771     8600     8022     7264     4724 
     861    -3461    -6350    -4670     1043     6112     7396     5977 
    4567     4117     4507     5526     5339     2465    -1106    -1630 
    2083     6880     8308     3850    -5755   -16070   -22797   -25737 
  -26396   -25475   -24105   -23279   -22252   -19609   -14636    -8151 
   -2052     2773     6129     7021     4764      410    -3675    -5759 
   -6627    -8335   -11062   -13487   -15415   -16962   -17712   -18419 
  -19716   -20366   -19467   -17227   -13426    -7916    -2603     -261 
    -378     -348      131      656     1708     2396     1316     -645 
    -895     1837     6777    12124    14765    11947     3833    -6627 
  -14288   -14666    -8676    -1331     3751     5449     4138     2090 
    1616     3120     6647    11904    16063    15448     9609     1227 
   -7118   -13773   -17016   -16645   -14969   -13831   -13799   -15808 
  -20122   -24849   -26999   -25802   -23911   -23767   -25529   -27661 
  -27184   -22740   -16382    -9492     -758    10257    21382    30637 
