Origin Time       2016/04/16 01:25:00
Lat.              32.753
Long.             130.762
Depth. (km)       12
Mag.              7.3
Station Code      FKO012
Station Lat.      33.3319
Station Long.     130.7939
Station Height(m) 50
Record Time       2016/04/16 01:25:17
Sampling Freq(Hz) 100Hz
Duration Time(s)  181
Dir.              E-W
Scale Factor      3920(gal)/6182761
Max. Acc. (gal)   53.338
Last Correction   2016/04/16 01:25:17
Memo.             
[...]
   -2723    -2747    -2779    -2786    -2752    -2715    -2715    -2757 
   -2810    -2808    -2732    -2696    -2792    -2877    -2803    -2703 
   -2709    -2762    -2790    -2753    -2666    -2676    -2825    -2890 
   -2743    -2542    -2463    -2564    -2742    -2750    -2543    -2361 
   -2361    -2490    -2657    -2771    -2678    -2392    -2269    -2590 
   -3051    -3097    -2778    -2499    -2312    -2401    -2909    -3119 
   -2685    -2404    -2577    -2720    -2778    -2837    -2717    -2547 
   -2410    -2286    -2762    -3606    -3402    -2464    -2337    -2746 
   -3000    -3439    -3350    -2263    -1952    -2717    -2762    -2472 
   -2917    -2873    -2085    -2204    -2932    -3120    -3348    -3474 
   -2746    -2203    -2488    -2640    -2662    -3179    -3276    -2182 
   -1348    -2064    -3170    -3106    -2128    -1527    -1861    -2531 
   -2901    -3016    -3123    -3006    -2791    -3364    -3952    -3356 
   -3350    -4162    -2866    -1133    -2794    -4719    -3251    -2023 
   -3231    -3401    -2258    -2404    -2958    -2984    -3243    -3405 
   -3430    -3373    -2718    -2149    -2078    -1541     -623     -617 
   -1493    -2194    -2748    -3251    -2900    -1961    -1834    -2690 
   -3637    -4482    -5080    -4639    -3331    -2553    -2693    -2897 
   -2988    -2926    -2022     -918    -1169    -2275    -2520    -2146 
   -2324    -2208    -1095    -1070    -2948    -4064    -3417    -2962 
   -3145    -3054    -3155    -3576    -2961    -1666    -1196    -1130 
   -1921    -4278    -5064    -3080    -1910    -2419    -2387    -1861 
   -2336    -3259    -2656    -1173    -1674    -3697    -4000    -2590 
   -2210    -3179    -3334    -2122    -1304    -1702    -2418    -2851 
   -3230    -3529    -3254    -2810    -3098    -4264    -5688    -5811 
   -4091    -2321    -2315    -3572    -3313    -1551    -2081    -4129 
   -3220     -840    -1380    -2793    -1596     -473    -1245    -1466 
   -1188    -2101    -3828    -4978    -3993    -1288      -95    -1830 
   -4037    -4529    -3357    -1155      604     -294    -3309    -5322 
   -5517    -4634    -2434    -1177    -3471    -5394    -3434    -2339 
   -4254    -3842    -1012     -675    -1845    -1920    -2311    -2692 
   -1646     -923     -782     -109    -1478    -5953    -8797    -7319 
   -4957    -3541    -2113    -2760    -4898    -3433     -188     -386 
   -1768    -1872    -1783      580     3410     -138    -6072    -6032 
   -3808    -3727    -2127     -546    -4354    -9075    -7423    -3328 
   -2976    -3391    -1521      -29      -41      186     -384    -3377 
   -5054    -3044     -169     2437     2424    -2874    -7569    -6209 
   -2920    -1459    -1656    -4665    -7535    -4472      304     -266 
   -3949    -7938   -10770    -8341    -2912     -985    -2466    -4548 
   -6504    -6748    -3988    -1246    -2485    -6421    -8868    -7561 
   -2249     4595     7602     3946    -2192    -4258    -1292     1927 
    1584     -722    -1603    -1231      266     3439     3602    -1946 
   -8166   -11373   -10473    -5086    -1465    -6236   -12107    -7961 
     444     3016     3116     3243    -1081    -6919    -6875    -3327 
   -3214    -5227    -5742    -4888    -1703      976    -1542    -3971 
   -1740    -1777    -8093   -12457    -8234    -3143    -3783    -2239 
    3429     3614    -1648    -4895    -4438    -3428    -4922    -6076 
   -1568     5949     9029     6037       27    -7188   -11833    -8706 
   -1070     2116      -81     -717     3191     6311     2682    -5008 
   -8526    -4843     -309    -4287   -12895   -10775     -774     -201 
   -6127    -6140    -4228    -6481    -8495    -6060    -1805      163 
    -480    -2358    -4891    -8208   -10604    -8528    -2571     1109 
   -4510   -17097   -20828    -9385      286    -2359    -6219    -3973 
    2544    13365    17191      -60   -21257   -19934    -4311     4593 
    7441     8601      818   -12826   -17816   -15535   -16799   -22167 
  -28337   -26656   -10411     2704    -3368   -11145    -1612    11656 
    9568     3701     9376    14050     9089     6364    10950    19268 
   27297    22230    -1853   -21248   -13810     3726     7218     1376 
   -4962   -17081   -28094   -23786   -13223   -11633   -17912   -22520 
  -19892   -13848    -7132    -1014      762     1226     2939     3945 
    7539    13457    14450    15674    24994    26680    10304    -2320 
    1720     5077    -3894   -15463   -18715   -13727    -7145    -6146 
  -13353   -26533   -40495   -42718   -26479    -7429      734     2598 
    1493     -722     4476    16094    20358    16549    15154    11621 
    6212    13230    21162    10168    -8067   -20182   -28918   -28396 
  -14314    -3168    -4342    -7173    -9067   -10168      -31    13600 
    8588    -9995   -17911   -10389     -608     2980    -1795   -14177 
  -29133   -36722   -27311   -10217    -2661    -1398      937     4643 
   14401    27037    29100    15900    -3371   -17639   -20429    -6166 
   14976    16417    -1553    -9024     1634    10983    11742     8937 
    1752    -6299    -5316     5008    12989     6302   -10606   -20766 
  -22697   -24807   -25150   -22612   -19673   -16384   -16714   -18890 
  -12514     3977    21085    25663    16884    15338    29533    37858 
   28987    19611    17248     9176    -4470    -9015    -9685   -23079 
  -34598   -19328     4022     2710   -12357   -13432     -456    14149 
   24505    22496     3290   -15299   -14339    -6723    -6860    -6965 
  -11729   -30443   -41603   -29281   -17717   -26618   -35555   -24465 
   -9253    -6657    -7132     1436    17362    25524    14495    -3425 
  -12175    -8333     4493    11148     -341   -17040   -18953   -11353 
  -10693   -10079    -4414    -7862   -14454    -8373     1385     3457 
    2031     5121    11452     8013    -3014    -1990     8557    11348 
    5123    -2004     -240    11166    16119     7925      902     5268 
   12904    11234      119   -12960   -21455   -18668    -9617    -7528 
   -9077    -8392   -14464   -26596   -28487   -14880      774     6900 
    4188    -4382    -9702     -241    13485    12200     -919    -8094 
    -845     9606     6849    -5361   -10743    -6615    -2832    -1659 
    3156     6591      852    -3735       -9     1211    -2937     -802 
    8263    11502     5961     3501    11798    19842    16226     7311 
   -1399    -9446    -8409      948     2491    -4450    -1979     8181 
    6468    -3612    -8333   -11720   -15738   -19902   -27696   -29763 
  -21142   -11852    -3925     2916     -649   -12061   -12546    -1188 
    4357     1346    -4041   -12941   -18221    -8563     5009     4663 
   -5508   -15279   -19755   -12151      370    -2576   -19663   -28970 
  -25618   -22391   -24186   -26511   -24488   -19543   -15572    -6243 
    8509    11710      716    -8898   -10644    -2704    19028    40741 
   41134    28443    22690    20157    12063     2440    -5028   -12112 
  -19530   -21655   -14908    -8273   -11185   -17258   -12644    -1168 
    1600    -2537    -4738    -6900    -8081    -3920      266     -301 
     470     2555    -1168    -4672    -2195     -932     1191     8862 
    9947     1089    -3979    -3168    -2528    -1715    -2696    -6538 
   -6292     -112     2761    -1386    -5087    -5727    -4225     1243 
    3911      -22     2265    16940    30622    29378    16205     4062 
    -278     4164    11525     9166    -2685   -11976   -16669   -19481 
  -18393   -15818   -13059    -5622     1017     -182    -2082    -1186 
   -1794      284     5513     1196   -11916   -16797   -15486   -21310 
  -24564   -17615   -17315   -26900   -27295   -13192    -1234    -3679 
   -9461    -5577      584      -46    -2140     -134    -1884   -10744 
  -12826    -6526    -6026   -12430   -18920   -21360   -14824    -3136 
    2257     3122     7286     8801     8194    15914    24299    23404 
   18016    11387     6737     9616    15825    17285    13721     3094 
  -15129   -22356    -9539      180    -7377   -20320   -27095   -23661 
  -13350    -6837    -8279   -11881   -12925   -10802    -3366     9336 
   16500    10985     1790    -3685    -4467     1082     5200     -675 
   -7543    -6120    -4572    -7951    -6308      -51    -1544    -8922 
  -12475   -11458   -10324    -9389    -2076     7261     2889   -10544 
  -14581    -6924     3141     7576     5176     3222     5784     8448 
    9453    10665     7473    -3099   -11531   -10221    -6486   -11505 
  -22389   -25203   -16710    -6042      833     -364   -12378   -22652 
  -15760     -884     2806    -2491    -5407   -10111   -19789   -21992 
  -16502   -17536   -19568   -11941    -6087    -7633    -5516      427 
    2594     3242     7176    10401     7024     1383     -238      -28 
   -3071   -10485   -12573    -4248    -2978   -15567   -22915   -17904 
   -9598    -1904     1188    -2843    -1865    12287    26418    31478 
   30617    20873     5752      233     2810    -4293   -20560   -22565 
   -4050    10258     4495    -5997    -3661     5905    10960    12196 
   10939     4539    -3430    -8725   -11964   -12045   -11591   -19467 
  -32088   -35245   -27922   -19618   -17058   -23077   -29667   -25808 
  -17625   -15652   -17866   -20118   -22691   -26608   -28885   -22968 
  -11269    -5202    -8405   -11550    -5694     3498     8399    15276 
   24226    24824    21096    18883    10790      497     2245    13596 
   17897     9153     -882    -2266     1002     4388    11839    21473 
   21645    15520    17911    19643     4946    -7226     4287    26245 
   41285    42584    26946     6348    -4673    -1743    14672    29896 
   31089    25440    18794    12748    10525    10826    14911    21295 
   23665    24269    24824    23316    22930    25222    30665    39369 
   44639    42052    35215    28635    25932    27031    23805    13384 
    7790    11273     8524    -6027   -15959   -13817    -9237    -4895 
    -664    -8600   -34556   -58698   -57508   -36168   -22069   -29921 
  -42644   -39519   -25807   -13758    -7388    -6421    -2519     7872 
   16950    25202    37223    43873    34557    14301    -3637   -15115 
  -28774   -45449   -50273   -43145   -44721   -58724   -62567   -44977 
  -27793   -27692   -21817     9716    44575    60491    65913    68151 
   63420    54881    49608    46590    36614    20481    12745    14311 
   10930     1669    -2015    -4822   -25295   -59702   -82612   -83163 
  -68885   -49917   -37850   -36377   -34866   -29988   -29911   -29865 
  -17164     4247    18509    18268     9767     2950     -779   -10215 
  -28293   -44539   -53944   -61841   -67223   -66605   -63378   -58325 
  -51236   -48085   -46271   -33375   -12087     1292     1728    -5155 
  -15668   -24374   -23495   -12688     -855     5330    10436    16650 
   15593     8556     6117    10417    23267    44200    59335    61848 
   58431    51230    44783    45650    44552    37356    39885    49818 
   45330    31450    27283    25948    16569     7840     6312    10264 
   20593    31918    30671    12172   -10389   -16113    -3967    -2540 
  -26695   -48894   -47385   -39030   -39956   -45634   -51238   -54332 
  -49470   -36358   -26556   -28405   -32855   -34494   -40950   -48331 
  -45606   -38170   -34175   -30419   -28878   -32163   -27698   -10678 
    3315     6348     4568     -711    -6074      320    13099    14950 
   12117    16250    17222    10740     7224     5641     -132    -5959 
  -10516   -16421   -17635   -11778    -7813    -7819    -8495   -14072 
  -22122   -19684    -6141     8319    19717    23393    12811    -5639 
  -18085   -20942   -21541   -27359   -39437   -48675   -44342   -34270 
  -35039   -42164   -40536   -30407   -19024    -9138    -1952     4279 
   12189    20795    26842    28518    29005    31334    31621    24724 
   12606     3281     3950    15980    32454    42029    40714    34476 
   28995    25940    25640    25131    19753    12289     9890    10072 
    6543      -21   -10816   -25668   -33466   -30458   -27237   -25162 
  -16317    -4110     4737    13799    25727    37717    49830    60815 
   64886    61565    56191    52394    52022    50416    38112    21895 
   18707    25080    24907    14371    -1028   -15884   -24323   -20019 
   -6652     -175    -3650    -1038    13319    26718    27911    17505 
    4042    -1851     4501    12812    10822     5577     6926     8316 
    8759    18271    32787    42428    49133    50892    42549    31967 
   22502     9707     2124     2204    -3891   -13234   -12941   -11835 
  -19653   -25450   -22907   -18410   -13048    -6736    -3989    -7201 
  -12675    -9592     3140     9044     3071    -1930    -2796    -7036 
  -12080    -9914    -7261   -12815   -14962    -3773     8231     7398 
   -3134   -10660    -9364    -6064    -4629    -2180    -2938    -8767 
   -8281     2239     7359    -3740   -16006   -10369     3740     8703 
   10148    18571    27909    28380    21967    15712     7948    -3043 
   -7250     2236    16487    21683    14882     5057    -1298    -5715 
   -8708    -9451   -10993   -15076   -15984    -8043     2858     5357 
   -2341   -13550   -20330   -14500     2017    13305    11390     7873 
   15408    28765    31706    20562    10239    11067    13011     7863 
    5241     6752     -268   -13695   -20603   -19473   -14282    -9908 
  -14284   -28329   -40806   -38104   -22053   -11413   -16014   -24350 
  -24864   -20167   -12794     -734     9325     9261     2970    -2827 
   -8189   -17211   -33039   -52399   -66828   -74317   -80870   -86845 
  -86575   -79938   -70350   -59307   -47986   -37049   -27617   -23020 
  -22967   -21105   -18454   -24089   -32674   -30084   -19875   -12471 
   -7617    -4689    -5086    -7358    -9871   -10396    -9107    -7976 
   -5322    -1404     2021     6613     9498     7066     6424    13733 
   22953    26513    24508    22423    25998    33008    32002    18676 
    1270   -15992   -33265   -45494   -50314   -50967   -49435   -45129 
  -34886   -19509    -7558    -2965     -128     6425    17143    25948 
   21734     4086   -11155   -16268   -19487   -23708   -26848   -31462 
  -33057   -22923    -6560     3600     6019     7468    12620    20175 
   22591    14057     2281    -2014    -4645   -14042   -22620   -22837 
  -21016   -26138   -36658   -43852   -45664   -43842   -35962   -24789 
  -16458   -11626   -11521   -13570   -10232    -3426     3208    11935 
   17696    14935    10177     9487    11175    14425    20809    29965 
   40376    49135    49896    41764    33460    29366    27733    27349 
   21820     7274    -4474     -465    14917    26637    28135    25541 
   24704    26620    31753    37986    42026    44209    43827    38994 
   33179    27215    16327     4060    -2919    -8149   -15424   -23048 
  -32665   -44025   -47289   -36599   -21323   -12574    -9011    -7350 
  -11067   -15241    -7631     9507    23084    26761    22271    14607 
    7920     2280    -1386     1073     7900    13845    17774    16255 
   10074     8339    10796    12830    17624    24058    25794    24187 
   23628    19947    10709     3626    -1161   -11034   -20430   -20099 
  -15361   -13480    -9199     1321     8537     4392    -4716    -8407 
   -9395   -17566   -28573   -30398   -22988   -12503    -1207     7966 
    8397      485    -4379     -989     3349     2387    -4028   -16267 
  -33400   -45238   -42452   -31429   -25471   -32141   -48121   -60350 
  -62342   -60944   -62392   -65271   -65473   -61317   -52216   -37856 
  -23419   -13863    -6835     -218     4160     4728     4805     7759 
    7436     1241    -1967     -103      464    -4347   -13847   -20601 
  -22693   -29500   -39370   -40389   -35796   -37204   -41152   -35325 
  -20899    -9847    -4787    -1742    -2407    -5044      622    15630 
   24700    18984     9980    10297    20369    36134    50086    52887 
   44744    35023    30174    27846    21511     9019    -4812   -12585 
  -10829    -2716     6806    13403    14242    12005    10306     9986 
   11624    12272     8425     3071     -419    -2085     1226    12366 
   23722    25430    20473    16701    14093    12081    12933    15578 
   17953    16845     9248     1700     1252     2928     2672     3952 
    5262     1395    -6688   -15589   -24549   -32857   -38928   -41965 
  -42952   -44594   -47821   -48356   -41030   -26685   -11761    -2841 
   -1776    -6851   -17471   -30166   -37346   -37737   -34618   -27502 
  -19942   -18878   -18411    -8338     5341    13676    22051    34446 
   42125    38652    29235    20686    12294     2030    -5896    -7095 
   -4433    -4519    -9541   -14006   -11656    -4375     2463     8341 
   13231    14512    13415    14088    14513     9500     2759     1577 
    4236     8222    15093    18762    13827     6677      141    -7338 
  -10482    -8476    -7423    -7736    -6956    -5109    -3137    -3308 
   -5347    -4475    -1244    -2873    -8423   -10754   -14022   -25023 
  -36485   -39025   -34691   -31033   -30885   -29891   -24593   -17559 
  -11704    -6390     -488     4477     7298     9599    10421     6960 
    3583     5945     8758     4134    -5171   -11396   -13385   -15949 
  -21374   -26532   -27422   -24746   -24142   -27139   -28123   -25851 
  -25340   -26761   -24573   -17486   -13261   -17242   -21588   -21372 
  -24202   -28901   -26597   -23166   -25520   -23544   -11732    -1129 
    3773    10090    18239    23757    26490    27815    30859    37212 
   41086    37582    29177    20329    14278    11513     8773     4581 
    1411    -2030   -10757   -22163   -28280   -28946   -29844   -32532 
  -35155   -37988   -41258   -40395   -31904   -20749   -14019   -11982 
  -10297    -8265    -9806   -14363   -16104   -14033   -12413   -13752 
  -16209   -16749   -16971   -20190   -24899   -28253   -30383   -31746 
  -30982   -27834   -24958   -23723   -22109   -19453   -18273   -18390 
  -15408    -9038    -4124    -1136     3880    10629    13936    11487 
    7238     4877     3404     1180    -1064    -1459     -611    -1705 
   -3946    -4093    -3397    -3037    -1573      -41     -146    -1260 
   -2955    -7001   -14119   -20003   -19813   -14039    -7017    -2116 
    1994     7240    10178     7956     4469     3639     3587     2282 
     919    -1905    -8671   -15352   -17207   -16335   -15267   -13878 
  -13842   -15407   -15004   -12133   -11211   -14419   -17421   -14841 
   -8272    -3542    -1997    -1503    -3809   -11743   -20312   -22438 
  -20303   -20154   -23061   -26302   -27333   -25752   -23566   -22908 
  -23810   -24068   -21185   -16229   -14012   -15434   -14944   -11029 
   -9157   -11044   -13242   -14330   -15153   -16449   -17098   -14754 
  -11612   -12164   -13699   -10239    -3848     -321     1719     6485 
   12434    16535    20157    24875    27767    25618    21254    21211 
   25760    27987    25714    22795    20151    17630    17199    18356 
   18923    19539    21134    22562    24579    28609    31831    32497 
   33433    34226    32521    31720    34061    35911    36322    37040 
   36738    34238    30924    26993    21250    14850    10402     8648 
    8383     7174     4370     3129     4548     6262     8350    11568 
   14502    17698    23484    31163    37459    41451    45414    50027 
   53183    54034    53600    52249    49761    46727    43917    40879 
