Origin Time       2016/04/16 01:25:00
Lat.              32.753
Long.             130.762
Depth. (km)       12
Mag.              7.3
Station Code      FKO015
Station Lat.      33.1627
Station Long.     130.4052
Station Height(m) 3
Record Time       2016/04/16 01:25:15
Sampling Freq(Hz) 100Hz
Duration Time(s)  300
Dir.              E-W
Scale Factor      3920(gal)/6182761
Max. Acc. (gal)   206.729
Last Correction   2016/04/16 01:25:16
Memo.             
[...]
  -16451   -16446   -16446   -16453   -16450   -16441   -16439   -16442 
  -16444   -16446   -16446   -16444   -16446   -16451   -16448   -16443 
  -16443   -16444   -16445   -16451   -16457   -16452   -16446   -16447 
  -16446   -16443   -16445   -16451   -16455   -16457   -16453   -16447 
  -16455   -16463   -16451   -16451   -16467   -16467   -16472   -16492 
  -16492   -16483   -16489   -16494   -16494   -16498   -16509   -16535 
  -16576   -16603   -16585   -16535   -16502   -16517   -16541   -16505 
  -16448   -16477   -16592   -16661   -16585   -16463   -16469   -16533 
  -16488   -16371   -16299   -16317   -16363   -16374   -16369   -16319 
  -16226   -16176   -16224   -16345   -16419   -16404   -16289   -16184 
  -16344   -16530   -16369   -16086   -16075   -16467   -16799   -16637 
  -16476   -16570   -16542   -16373   -16182   -16189   -16580   -17005 
  -17052   -16765   -16633   -16704   -16344   -15860   -16132   -16703 
  -16561   -15789   -15404   -16086   -17163   -17181   -15784   -14586 
  -15130   -16343   -16453   -16106   -16211   -16407   -16641   -16687 
  -16701   -17167   -17284   -16646   -15965   -16085   -16920   -17199 
  -17099   -17516   -18081   -18423   -18229   -17563   -17210   -17441 
  -17458   -16633   -15973   -16180   -16966   -17926   -17724   -16499 
  -16087   -16697   -16979   -16076   -15641   -16920   -17972   -17332 
  -15578   -14669   -16037   -17920   -17920   -16428   -15697   -16055 
  -15751   -14931   -14932   -16112   -17414   -16784   -14870   -14259 
  -15167   -16190   -16109   -15108   -14980   -16108   -16982   -17232 
  -17113   -16722   -16894   -16971   -15763   -14228   -13775   -15304 
  -17495   -17740   -16707   -16210   -16312   -16472   -16583   -17295 
  -18305   -18866   -18347   -16071   -14547   -15847   -17135   -16382 
  -15337   -15977   -17035   -15558   -13222   -14283   -17426   -18639 
  -17909   -16941   -16578   -16747   -16492   -16188   -16717   -17555 
  -17824   -17500   -17776   -18579   -17497   -14636   -13861   -15197 
  -14814   -14008   -15687   -17470   -17089   -16505   -17837   -18880 
  -17112   -15459   -16860   -19281   -19838   -18767   -18434   -19551 
  -19936   -18250   -17500   -19540   -21562   -22506   -21742   -17959 
  -13748   -11448   -11723   -13730   -13411   -10795   -10144   -11483 
  -11830   -11241   -11358   -10916    -9729   -10236   -12422   -14487 
  -14859   -14018   -14149   -16092   -20009   -24217   -26503   -28040 
  -29473   -29681   -28843   -26995   -24706   -24478   -25936   -23995 
  -18323   -16145   -18931   -20625   -18489   -14236   -11725   -12155 
  -12196   -11815   -11592    -9623    -7578    -7597    -8396    -7483 
   -4860    -3829    -5329    -7375    -9077   -11139   -14078   -17685 
  -21946   -25294   -26704   -25914   -20926   -15545   -16031   -19336 
  -19631   -16994   -15384   -18035   -22369   -22379   -18371   -15710 
  -16534   -19664   -21868   -20460   -17651   -16401   -16607   -18211 
  -20679   -20951   -18105   -16155   -17733   -19497   -17205   -12513 
   -9397    -8241    -9443   -12134   -12125   -10132   -10836   -14008 
  -14114   -10108    -9075   -12777   -16874   -20352   -22371   -25300 
  -31506   -34633   -33084   -31139   -27873   -24831   -24756   -24593 
  -22518   -19860   -15748    -8266    -1732    -2200    -6883    -9966 
  -10709   -12773   -16755   -18194   -18309   -19468   -18943   -16160 
  -12346   -11538   -15763   -18742   -18329   -18745   -20367   -20852 
  -19063   -17260   -19736   -22891   -19223   -12790   -10758   -10022 
   -6603    -4461    -7504   -10859    -8372    -3847    -4415    -7535 
   -6950    -4713    -5156    -7774   -10820   -14357   -18762   -20456 
  -18653   -20726   -27807   -32853   -33788   -33053   -31471   -28163 
  -24560   -24356   -28117   -32340   -34459   -35888   -36618   -34386 
  -30277   -24695   -17784   -13413   -12323   -11282    -7377    -1433 
    2581     5080     6029     3439      729     -886    -4061    -9202 
  -15663   -19692   -17116   -11085    -9031   -13211   -17794   -17088 
  -14149   -15141   -18570   -18965   -16013   -13159   -13321   -16220 
  -20535   -27261   -33568   -35529   -35407   -35279   -34979   -33445 
  -29761   -26580   -24812   -22695   -20262   -17488   -15353   -14568 
  -13842   -14538   -17747   -19999   -20110   -21292   -21717   -16982 
  -10509    -7202    -6135    -4132     -278     1393    -2250    -6668 
   -6710    -4675    -5301    -9168   -12487   -12437   -14562   -21982 
  -24862   -18607   -11784   -12115   -18466   -22616   -21355   -20960 
  -25459   -31919   -36694   -39188   -39359   -37245   -36068   -38728 
  -42040   -40013   -33425   -29999   -29711   -23427   -10824      271 
    9057    16340    18306    16384    14315    12459    11088     5871 
   -5732   -15429   -18911   -20481   -22497   -27060   -33172   -34834 
  -32886   -32248   -31619   -30374   -31865   -35141   -37126   -37846 
  -37551   -35627   -31625   -24273   -11307     5323    19381    27977 
   31330    31251    29153    23856    15635     4229    -7591   -13657 
  -16634   -22005   -32060   -44856   -51798   -52218   -51134   -48582 
  -47375   -49690   -52177   -51439   -46667   -41715   -40845   -40960 
  -35799   -26627   -19397   -14251    -8823    -3600     1522     6353 
    9001    10478    13595    16110    14408    10378     6979     2143 
   -9587   -26929   -40045   -43841   -41812   -38112   -33546   -26806 
  -17496   -10855   -13568   -20410   -21208   -16066   -10752    -8496 
   -9064   -12498   -19805   -27571   -30543   -30541   -32283   -33084 
  -29679   -24541   -19154   -15646   -16015   -16852   -16552   -15426 
  -11688    -7886    -7539    -7584    -5977    -5696    -6512    -4371 
    3844    13337    13333     6806     2051    -3537    -8709   -11417 
  -15618   -24869   -40559   -50475   -45122   -37039   -34939   -37250 
  -40858   -37712   -30674   -28346   -26067   -23898   -25746   -25360 
  -22795   -22598   -21456   -16928   -13608   -15137   -15246   -10942 
  -11068   -16513   -17100    -8365     3066     7736     5149     1317 
     842     3681     5004     2036    -5405   -12778   -12666    -9877 
  -11431   -12692   -12141   -15019   -20377   -23046   -24401   -27276 
  -29180   -31623   -38660   -46737   -48893   -42508   -30821   -16670 
   -2749     7185    15952    25754    31899    30046    23068    18872 
   17646    15658    11639     3799    -4248   -10936   -18429   -24340 
  -32449   -43061   -49304   -54963   -59913   -57773   -49302   -37739 
  -28482   -21905   -16396   -15604   -16638   -16610   -17204   -19329 
  -26735   -36543   -44870   -51734   -49087   -37388   -24447    -8616 
    8909    22628    27430    20760     9358      316    -6443   -13790 
  -22207   -27592   -26321   -19033   -11395   -11086   -16750   -18033 
   -9034     5327    14298    15541    16805    19665    19208    11807 
    -112    -7758   -12076   -21182   -32129   -39935   -48741   -60930 
  -72734   -78404   -72811   -61522   -54616   -50862   -42754   -26702 
   -9308     -739     1070     4268     5890     1656     1646    11567 
   21126    23589    19696    13431    12689    16763    19618    20529 
   18387    13736     7100    -2249   -11873   -23994   -38624   -48931 
  -55777   -61337   -62373   -59688   -55964   -54245   -55985   -55010 
  -48962   -44482   -45501   -47472   -42748   -33389   -25927   -16514 
   -1521    13956    26518    35785    40848    41694    36581    23997 
    9215    -2340   -12208   -21137   -27907   -34559   -39821   -39730 
  -38627   -42192   -45583   -43779   -40843   -41810   -43541   -38085 
  -25924   -13068    -2915     5668    21698    41077    47527    45264 
   41752    31569    16127     -559   -15485   -26556   -40733   -56985 
  -62632   -56828   -47373   -35893   -23189   -12652    -5415    -2658 
   -4363    -6662    -8358   -10724   -14766   -18468   -16444   -12195 
  -12386   -13259   -10448    -6873   -10755   -24579   -35195   -34317 
  -33904   -42689   -51014   -47423   -34321   -23234   -17044   -10314 
   -3970     2510    11869    15436    10264     7331    10460    16236 
   21005    22263    23114    25837    32050    40796    40895    30947 
   22900    16226     2832   -15513   -34091   -54790   -78270  -100214 
 -118244  -128496  -129848  -127541  -118436   -97677   -72103   -49247 
  -33892   -27869   -21421    -5324    15819    33867    45738    55618 
   69343    81673    86958    88867    87436    83394    81254    77947 
   68084    47960    19552    -3763   -15585   -25215   -38093   -50864 
  -62792   -73951   -81892   -87212   -93153  -101858  -111663  -115795 
 -111446  -105044   -99916   -90652   -76122   -63183   -52991   -42535 
  -36870   -38939   -40211   -34306   -24187   -12259     5053    29652 
   53058    65327    72168    82656    90968    90179    80003    60437 
   33105     3465   -15997   -17009    -9016    -5275    -5529    -2660 
    3508     9985    10788    -1136   -19231   -32426   -35792   -30994 
  -30482   -39161   -45343   -45034   -44603   -44694   -44263   -40464 
  -30236   -19150    -9428     -633     2852     1290    -4404   -13731 
  -21380   -27626   -37048   -49361   -63102   -73135   -73924   -68032 
  -58481   -47745   -38514   -28211   -13847      727     6807      525 
  -17545   -42711   -60396   -61761   -52109   -38598   -29906   -30442 
  -32886   -32423   -30367   -28136   -29538   -34293   -37649   -36497 
  -27078   -14194   -11229   -16711   -15994    -5475     4406     7580 
   10668    13930     8195     -658      439     7696    10300     6760 
    3041     1139    -5998   -19069   -27491   -26755   -21545   -16010 
  -10501    -6136    -5879    -7358    -6203    -5138    -7779   -13258 
  -21882   -31720   -37271   -39389   -43513   -47988   -43285   -26131 
   -5018    13127    29631    44132    48803    40226    27579    18363 
   10462     5037     6359     9390     1664   -21101   -45326   -55428 
  -54350   -58112   -69102   -70043   -53104   -26590      569    21744 
   38390    56269    75024    94251   113084   128169   142097   151377 
  147915   142468   140433   128600   107519    83295    50017    12645 
  -13982   -31326   -44260   -49853   -50865   -48865   -41588   -31810 
  -24138   -19101   -17443   -27394   -50770   -77862  -105825  -131784 
 -149491  -162262  -169562  -166302  -155523  -144240  -138600  -136603 
 -133511  -129186  -122336  -119402  -127431  -132480  -123175  -104376 
  -76237   -38931     6015    52129    84762   105711   125337   144131 
  153757   152015   152403   155309   155564   157843   154356   142311 
  134267   130354   118736    95677    66401    37950    19183    10273 
    2904    -6001   -19868   -38003   -50084   -56076   -64946   -75453 
  -83186   -87764   -86554   -84101   -86834   -88437   -89633   -99590 
 -113749  -126014  -139316  -149994  -152528  -151945  -148162  -135581 
 -122080  -110163   -87039   -52887   -15933    20746    49929    65906 
   70485    70237    70716    71449    70381    66498    60424    57102 
   61269    66315    63307    55551    43192    20652    -1564    -8303 
   -8824   -21980   -45575   -70086   -97343  -122309  -133914  -135161 
 -125881  -102024   -77589   -61779   -49946   -43769   -46436   -56212 
  -70617   -89631  -107916  -116853  -120419  -122450  -123053  -124641 
 -119080  -101954   -78099   -47665   -12578    26611    66003    94014 
  113778   133900   149900   159936   166422   167681   170199   179023 
  181270   174371   165611   146434   118274    92563    62273    20454 
  -23774   -61490   -95441  -130004  -157203  -164070  -150791  -126953 
  -93555   -50061    -7435    26686    58224    90959   120070   148417 
  182850   217027   242304   258861   269168   269965   251132   204596 
  131250    49413   -15661   -70016  -134368  -191605  -215096  -212618 
 -199698  -183486  -172191  -164271  -152199  -139677  -131096  -117585 
  -88721   -50714   -25031   -18545   -21272   -41040   -77153   -99417 
 -105468  -116989  -134001  -148001  -152337  -144435  -134390  -133520 
 -143473  -154418  -158538  -162432  -166646  -161058  -149846  -143016 
 -138802  -134039  -128760  -125217  -122910  -114167   -98023   -80720 
  -65642   -55016   -50755   -57865   -81318  -115236  -146207  -165952 
 -175416  -178243  -171772  -143503   -93718   -44028     1013    52751 
  102045   134716   157183   176812   190819   196702   185312   154199 
  117989    79366    35408    -4350   -39534   -75950  -106297  -127469 
 -143978  -149934  -142752  -132482  -125045  -117787  -106625   -92419 
  -75703   -46344    -1305    42838    78833   116188   150306   165821 
  167217   164668   154887   145807   143474   133233   120327   121556 
  129417   135025   138251   132164   111022    82137    58605    44613 
   35840    37314    55500    71219    69877    62992    44304     7154 
  -26605   -51172   -72531   -84589   -92927  -106389  -119057  -126507 
 -127303  -116218   -95057   -72376   -57134   -52606   -46696   -31439 
  -14285     3372    20202    30677    42706    62618    81071    88004 
   81090    66857    52728    33726     4069   -28609   -56913   -83345 
 -113395  -146774  -170583  -176730  -175630  -170166  -156407  -144084 
 -136900  -126427  -110578   -95452   -85426   -80348   -85966  -105520 
 -124936  -129553  -122569  -116661  -117868  -126169  -137620  -143947 
 -144387  -141198  -128439  -109178   -91819   -67929   -36486   -10280 
   16737    53544    94413   140168   190950   233876   263925   286672 
  302176   309597   308623   293230   264807   231280   184164   114324 
   44807     -624   -41777   -98650  -150541  -182796  -201304  -202622 
 -188988  -176728  -171230  -164165  -153065  -143926  -139406  -136302 
 -132030  -128512  -120707   -98332   -66754   -38181   -17289    -5152 
    2582     7780     4625    -4751   -10325   -14685   -27824   -41335 
  -43538   -38987   -26880    -4476    16696    27126    29496    33213 
   42622    50857    54178    54224    47494    35656    25862    14832 
   -2554   -23520   -42066   -53493   -62193   -76831   -98265  -120013 
 -135571  -147721  -162854  -179363  -195964  -210693  -215751  -211353 
 -200876  -182581  -162131  -147604  -134535  -113531   -84977   -56558 
  -30204      281    39338    84650   128339   163511   191853   215264 
  232015   242924   248221   244333   225982   195438   161660   129654 
  100622    73227    49825    35797    30913    34625    46211    62999 
   79929    86325    81141    73442    63504    51694    41936    27462 
    2690   -25104   -48406   -67814   -86561  -102307  -107921   -98848 
  -78040   -53319   -27786    -1638    19698    32422    39576    46090 
   55856    68049    78284    84514    87816    90290    92755    97006 
  103936   110114   115263   116192   102070    72525    34881    -7868 
  -48947   -81610  -104149  -113645  -112177  -105956   -98295   -90905 
  -83143   -79877   -85656   -89720   -86378   -83785   -77001   -56623 
  -33350   -18141   -14695   -23848   -33895   -43717   -62195   -82728 
 -100569  -117249  -128787  -136512  -144607  -147905  -142254  -130485 
 -112182   -89565   -72107   -62873   -61802   -72560   -88789  -100625 
 -111615  -123674  -129331  -126914  -120291  -110109   -93936   -71910 
  -51408   -37750   -29241   -30789   -46523   -65642   -81769  -102051 
 -127891  -147525  -148986  -130687   -99667   -68851   -45018   -22093 
    2575    27196    50346    67394    78802    87821    94661   101756 
  111240   123121   136145   144714   146474   148490   149779   139045 
  115319    82687    44045     5612   -34613   -80712  -124268  -157457 
 -177645  -180859  -176140  -176868  -176577  -168474  -155234  -136570 
 -113353   -85153   -53784   -23538     7739    34625    50169    59678 
   62998    62812    72846    90443   106918   127223   149943   168648 
  185712   201357   209585   208367   200329   184083   159844   135807 
  113361    87868    64014    43559    19502    -5283   -18819   -13546 
    1970     5924    -6274   -17084   -18641   -22155   -34292   -46645 
  -51359   -49647   -47723   -49394   -55600   -65334   -71601   -74514 
  -82025   -91000   -93877   -92605   -91050   -85701   -77849   -77632 
  -83819   -87719   -90044   -95665  -107134  -118772  -121354  -119412 
 -117987  -111202  -102057   -97118   -95269   -97351  -102191  -106677 
 -111180  -115989  -122344  -128897  -132046  -131644  -127716  -118278 
 -101926   -83093   -68949   -59855   -53454   -49804   -46348   -40641 
  -36798   -36152   -34221   -31239   -27648   -20450    -8151     6049 
   13813    17320    25192    31272    29153    21215     6407   -17239 
  -47895   -78066  -103590  -129060  -151631  -165579  -173803  -177907 
 -177306  -171163  -156909  -135859  -109883   -76577   -36916     1411 
   31309    52340    70435    89712   107372   124206   144023   162488 
  177003   189761   199302   203403   199582   188003   168674   138245 
  103007    70597    41198    21590    12620     1857   -11276   -21584 
  -31952   -40910   -47800   -54933   -57571   -52078   -43732   -40801 
  -41951   -41184   -39472   -34125   -21170    -4659    12084    24630 
   30988    40061    54647    66309    76746    97023   121532   138369 
  150912   158097   159943   163742   159836   146060   134876   121710 
  101911    80142    53668    22583    -7733   -36192   -62833   -89904 
 -115689  -132209  -139397  -140117  -138683  -142043  -143576  -139465 
 -136473  -127266  -108041   -89318   -72303   -51993   -24438     8886 
   37001    55042    68225    82478    97186   105355   107933   108979 
  104513    95421    87481    79024    65361    48758    38645    39142 
   43178    46307    53685    66081    76330    83141    85204    76466 
   61186    43159    18125    -9307   -36844   -69017  -100373  -127605 
 -152811  -173215  -187771  -192584  -187675  -186153  -188144  -183371 
 -179277  -181833  -178191  -165600  -153578  -140033  -124764  -113993 
 -104233   -94160   -84770   -68313   -42567   -12924    16042    38989 
   56233    69877    74452    68340    55050    36291    15417    -5663 
  -24895   -37202   -41872   -41924   -37921   -28657   -15050      385 
   16279    33939    55528    78072    95780   105476   104219    93423 
   79260    62433    43848    27519    13239       53   -17142   -37352 
  -44605   -40146   -38379   -35070   -27143   -21222   -12740     1541 
   15449    28647    41317    51758    60725    65335    65127    64488 
   65141    64282    59035    51792    44465    39179    40292    43723 
   42949    39453    36396    35796    38502    42155    44023    43330 
   41201    37445    27963    10528   -10754   -29080   -42694   -57009 
  -74239   -88872   -94776   -89482   -76166   -60981   -47405   -36822 
  -28422   -18097    -5089     5304     9104     5433    -3607   -13783 
  -26265   -42728   -58741   -73073   -89625  -109286  -128496  -143655 
 -156115  -171278  -188182  -197093  -192996  -177386  -152805  -129408 
 -115066  -102250   -85900   -73683   -70431   -71550   -72126   -69344 
  -59504   -44793   -30710   -15724    -1288     5739     7209     7271 
    4000    -3195   -13150   -26225   -43058   -63008   -83424  -100816 
 -112308  -116276  -109613   -86525   -47227    -4723    27671    50323 
   67662    77185    75015    61258    36206      788   -32596   -49382 
  -54257   -58401   -60086   -55415   -45892   -31560   -16001    -8036 
