Origin Time       2016/04/16 01:25:00
Lat.              32.753
Long.             130.762
Depth. (km)       12
Mag.              7.3
Station Code      FKO009
Station Lat.      33.4952
Station Long.     130.5163
Station Height(m) 34
Record Time       2016/04/16 01:25:20
Sampling Freq(Hz) 100Hz
Duration Time(s)  122
Dir.              N-S
Scale Factor      3920(gal)/6182761
Max. Acc. (gal)   61.681
Last Correction   2016/04/16 01:25:20
Memo.             
[...]
  -10646   -10651   -10649   -10643   -10641   -10637   -10625   -10626 
  -10642   -10647   -10642   -10643   -10649   -10645   -10638   -10640 
  -10646   -10645   -10641   -10646   -10652   -10649   -10638   -10628 
  -10626   -10631   -10637   -10641   -10642   -10642   -10647   -10649 
  -10640   -10629   -10631   -10641   -10639   -10635   -10637   -10631 
  -10618   -10604   -10591   -10576   -10559   -10547   -10532   -10499 
  -10470   -10456   -10434   -10402   -10369   -10339   -10300   -10255 
  -10236   -10257   -10286   -10289   -10259   -10225   -10234   -10304 
  -10405   -10483   -10523   -10578   -10686   -10793   -10868   -10942 
  -11009   -11043   -11060   -11054   -11038   -11053   -11089   -11104 
  -11086   -11073   -11126   -11229   -11318   -11376   -11357   -11158 
  -10828   -10557   -10435   -10432   -10454   -10392   -10291   -10179 
   -9863    -9296    -8776    -8683    -9149    -9738    -9873    -9755 
  -10051   -10833   -11614   -12135   -12497   -12822   -13148   -13286 
  -12986   -12434   -11903   -11421   -11136   -10895   -10136    -8978 
   -8041    -7558    -7705    -8453    -9168    -9431    -9436    -9477 
   -9680    -9993   -10329   -10715   -11260   -12084   -13033   -13495 
  -13180   -12702   -12618   -12729   -12757   -12668   -12286   -11510 
  -10636    -9821    -9119    -8822    -8531    -7704    -6935    -6524 
   -5958    -5697    -6728    -8773   -10785   -12086   -12455   -12232 
  -12045   -12153   -12490   -12936   -13428   -13805   -13747   -13111 
  -11838    -9963    -8087    -7008    -6760    -6826    -7436    -8972 
  -10593   -11397   -11152    -9858    -8622    -8503    -8653    -8712 
   -9511   -10697   -11810   -12885   -13000   -11590    -9730    -8874 
   -9383   -10570   -11749   -12506   -12750   -12838   -13038   -13249 
  -13251   -12878   -12016   -10902   -10244   -10281   -10675   -11263 
  -11537   -10889    -9717    -8655    -7693    -7095    -7694    -9439 
  -11271   -12125   -11359    -9757    -9172   -10203   -11443   -11400 
  -10562   -10163   -10308   -10930   -12150   -13397   -13928   -13519 
  -12108    -9839    -7530    -6257    -6739    -8390    -9144    -8279 
   -7309    -6938    -6788    -7507    -9688   -12244   -13861   -14346 
  -14224   -14231   -14493   -14327   -13456   -12627   -12481   -12639 
  -12403   -11434   -10334   -10126    -9812    -7830    -5886    -6140 
   -7129    -7355    -7810    -8562    -9200   -10666   -12167   -11935 
  -11151   -10890    -9731    -8162    -8420   -10166   -11725   -12665 
  -13104   -13171   -12953   -12105   -10548    -8640    -7025    -7125 
   -8823    -9309    -7566    -5802    -5534    -7168   -11244   -16427 
  -19746   -19602   -16421   -12233    -9407    -8362    -8306    -8622 
   -8080    -6291    -5088    -5497    -6351    -7696   -10947   -14691 
  -16161   -15061   -11805    -8005    -7066    -8725    -9648    -9423 
  -10065   -12300   -14454   -15079   -15009   -15684   -17751   -19667 
  -18659   -15223   -11685    -8368    -5584    -4233    -3794    -3198 
   -1739      783     2634     1204    -3487    -9318   -14801   -18505 
  -19385   -19158   -19579   -19084   -17102   -15988   -15724   -14604 
  -14129   -15782   -16926   -15379   -12667   -10292    -8076    -5143 
   -1369      853      689     1159     2612     2147     -356    -2915 
   -4928    -6641    -7691    -7811    -8200   -10666   -15274   -19967 
  -22917   -23510   -21619   -18307   -15325   -13535   -12989   -13332 
  -13852   -12852    -9260    -5581    -4520    -5016    -5490    -5977 
   -6573    -7617    -8625    -8130    -7089    -6605    -5522    -5229 
   -7797   -11370   -14690   -17892   -18721   -16322   -13121    -9877 
   -6289    -3741    -2538    -1130      606      -15    -4594   -10020 
  -13269   -14914   -14702   -12018    -9046    -7804    -9395   -13706 
  -16375   -15025   -13846   -14631   -14677   -13341   -11703   -10649 
   -9889    -7012    -1809     2034     1853    -1998    -7391   -11832 
  -14525   -15641   -14501   -11931   -10785   -11797   -13948   -17082 
  -20147   -20886   -17881   -11494    -4697     -917     -832    -4077 
   -9804   -14480   -15261   -13863   -13445   -14170   -13502   -10565 
   -7525    -6087    -6576    -8609   -10795   -13110   -15740   -16563 
  -16625   -18941   -20760   -19127   -17117   -16988   -15677   -11196 
   -6344    -2367     2179     6135     8347     9498     8908     5880 
    -230    -9836   -18898   -21968   -18618   -12872    -9031    -8242 
   -8952    -9848   -10722   -11612   -12136   -11883   -11497   -12154 
  -13700   -14839   -14190   -11344    -8383    -7776    -8665    -6854 
    -252     6672    10259    12231    11308     4210    -6923   -17976 
  -25562   -27452   -26330   -25203   -21867   -16251   -12495   -10351 
   -7362    -5640    -7366    -9763    -9672    -8585    -7353    -3889 
    -749    -1581    -3976    -4613    -3018    -1619    -2706    -3735 
   -3719    -6439    -9618    -7809    -5482    -7386    -9354   -11070 
  -16869   -24530   -27850   -25120   -20491   -16772   -11183    -3448 
    1019     1228     1665     1819    -1204    -5834   -11050   -15150 
  -14557   -12684   -13702   -14872   -16786   -21195   -22882   -20299 
  -18960   -20768   -23573   -25065   -22551   -16235    -8915    -2285 
     584    -2231    -5747    -4620       47     3914     3447    -1440 
   -7789   -13751   -17801   -17740   -15567   -15010   -15863   -18734 
  -25995   -34585   -39222   -40906   -41746   -38827   -32121   -25690 
  -19027   -10139    -1201     4540     5264     1457    -2638    -2123 
    1581     4224     6844     9092     6757     1735    -1332    -4522 
  -11276   -18216   -22076   -25413   -27453   -25616   -23338   -22610 
  -20829   -17093   -13302   -10760    -8748    -7625    -8594   -10824 
  -12291   -11548   -10023   -10079    -9959    -6703    -2041     -447 
   -2434    -5524   -10687   -17802   -21304   -18014   -10416    -2890 
    2774     7634     9594     6720     1661    -5132   -13630   -19334 
  -19527   -14591    -6074      684     2137      341    -2979    -6462 
   -9836   -14035   -16027   -16270   -18909   -20259   -18100   -17682 
  -18993   -17292   -13040   -10500   -11491   -14550   -16694   -16363 
  -15805   -15992   -14034    -9743    -6441    -5978    -7669    -9253 
   -9600   -10051   -10365    -8134    -4398    -2349    -1218     -350 
   -3645   -11848   -18540   -19588   -18314   -16845   -13200    -8162 
   -4184    -2659    -4582    -8253   -12870   -19778   -25936   -28731 
  -29954   -28833   -24011   -16887    -8798    -2816    -2725    -7321 
  -10972    -9918    -4913     1264     6199     9521    11030     9022 
    3780    -2304    -8442   -14178   -16499   -16078   -18066   -19814 
  -17165   -15847   -18822   -22233   -23960   -22950   -20338   -17824 
  -13490    -7768    -4510    -4068    -3181     -981     -132      184 
    3117     4010    -2633    -9285    -7972    -4836    -4770    -3916 
   -2951    -3938    -5847   -11352   -19336   -23356   -24985   -27406 
  -26703   -23101   -19490   -12826    -4338       47     1522     2211 
   -1119    -7670   -11349   -10579    -9300   -10148   -11749   -11890 
  -10707    -8947    -6991    -5688    -4117    -1445     -596    -3533 
   -8568   -15215   -23350   -28738   -27999   -24137   -21181   -18887 
  -14043    -5545      503    -2336   -10471   -15587   -15393   -14072 
  -13924   -12811   -11006   -10297    -8842    -5443    -3381    -5483 
  -10203   -14009   -14438   -13443   -13114    -9975    -5675    -5855 
   -7669   -10264   -17408   -23753   -23284   -21408   -23364   -25466 
  -24350   -21316   -18674   -18822   -21343   -23496   -24822   -25763 
  -25285   -20983   -12331    -4653    -2207    -2644    -3420    -4255 
   -5256    -5923    -5348    -4500    -4915    -7667   -12166   -14651 
  -14037   -12598   -10730    -8305    -4986     -504     2390     2525 
    2730     2238    -3111   -12213   -18736   -18734   -15670   -14972 
  -13835    -7636     -982     1133     -903    -6988   -14196   -17974 
  -18961   -18931   -16347    -8967      590     3958    -3157   -13746 
  -17514   -13744   -10386   -11489   -12828   -10330    -6923    -7476 
  -10931   -13955   -16297   -17120   -15085   -11656    -8399    -6223 
   -7147   -12029   -18867   -25081   -29081   -30327   -29453   -26509 
  -21161   -16718   -16713   -16735   -11046    -2650     3131     4149 
     287    -4717    -7625    -8878    -7686    -5020    -6217   -10748 
  -12123   -11150   -13372   -18264   -22196   -23515   -23471   -25951 
  -30406   -31170   -27916   -23305   -17310   -13571   -15294   -17589 
  -14448    -6676    -1075      118     3099     7803     5094    -4184 
   -8488    -5908    -3395    -3070    -4987    -9309   -10771    -6146 
   -3979    -9866   -14721   -14511   -17041   -23594   -28959   -30103 
  -23767   -10453      455     1598    -1527    -1127     -112    -3553 
   -8526   -11087   -11687   -11687   -12894   -15632   -17320   -17616 
  -17519   -16407   -14870   -13288   -10013    -5245    -2053    -1704 
   -1833    -1782    -5308   -12820   -16895   -14275   -12100   -13363 
  -12716    -8860    -4920    -3063    -5229    -9948   -12439   -11336 
   -8243    -5381    -5266    -7716   -11698   -17572   -23337   -26009 
  -26784   -27611   -25718   -19663   -13828   -10194    -6961    -4853 
   -5855    -9750   -13353   -13571   -11322    -8884    -7609    -8262 
   -8375    -6123    -5952    -9513   -11870   -11843   -12044   -13888 
  -16961   -18522   -18969   -22305   -26550   -25282   -18568   -11667 
   -7507    -6953    -8933   -10185    -9404    -7664    -6626    -7571 
   -8952    -9075   -10429   -14598   -17950   -17100   -12971    -8972 
   -7702    -9382   -12540   -13434    -9548    -4523    -2718    -4984 
   -9548   -10755    -6693    -3235    -1478     1628     3024     1204 
   -1086    -4467    -8164   -10955   -16430   -22843   -23755   -20138 
  -15825   -11260    -7544    -5984    -5156    -4177    -3747    -2426 
     148     1311      909    -1735    -9724   -20908   -29397   -31889 
  -28118   -20898   -14587   -11747   -13143   -17913   -22709   -25472 
  -26097   -23323   -18654   -15262   -12401   -10119   -10912   -14535 
  -18697   -21217   -20774   -18793   -17431   -15733   -11189    -4276 
    1449     2965     -121    -4907    -7599    -7446    -6537    -6095 
   -4814    -4158    -8272   -13809   -14458   -13573   -16881   -22099 
  -24214   -22007   -16856   -10189    -4191     -414     1359      958 
     554     1848      892    -2411    -3720    -5213    -8366    -7153 
   -2301    -2874    -8488   -12868   -16325   -17646   -13882    -9228 
   -7926    -9331   -12448   -16513   -20705   -23752   -23451   -19911 
  -17143   -17920   -19757   -20572   -21371   -20700   -16526   -10083 
   -3642     1169     4721     7648     8603     7038     4537     3047 
    2394      553    -2528    -5993   -10331   -13519   -12252    -8459 
   -6968    -9050   -11944   -12436   -11220   -11505   -12932   -12906 
  -11724   -12602   -17505   -23208   -25169   -22251   -15006    -6549 
   -2050    -2172    -4627   -10304   -18209   -24199   -28678   -31338 
  -27973   -21997   -20723   -21200   -16166    -7156      -73     3464 
    2099    -5046   -12229   -14594   -13891   -10751    -4295     1054 
   -1185    -9651   -16729   -19678   -20372   -18821   -14911    -9653 
   -4230    -1131    -1316    -2712    -6012   -13890   -23006   -27356 
  -25992   -21492   -17529   -15623   -13178   -10529   -11506   -15098 
  -17591   -18742   -18678   -15754   -10276    -4767     -554     2224 
    2607       85    -4846   -10874   -14221   -12416    -7987    -4017 
    -657     1731      132    -5817   -11611   -14573   -16374   -18263 
  -17183   -13001   -14282   -23803   -30682   -26689   -17549   -11426 
   -4646     9119    22932    26506    22069    15540     6507    -3513 
   -9063    -8804    -6166    -5079    -5231    -3476    -1321     -994 
    -123     1204      276    -2323    -4483    -5078    -5206    -8044 
  -13792   -17890   -18061   -16501   -13508    -9402    -7530    -6737 
   -3391    -1558    -5888   -12414   -18392   -25719   -31512   -31641 
  -27905   -23361   -17945   -10366    -1974     2382      981    -1186 
   -2014    -5833   -13486   -21256   -26999   -30668   -32723   -32759 
  -29346   -21775   -13078    -7591    -3792     1410     6222     8861 
    9217     7704     7302    10220    15065    19574    23056    26299 
   27783    25386    22349    21389    19802    15271     7054    -5349 
  -21122   -38432   -53835   -63721   -67213   -64823   -57047   -45464 
  -32713   -21185   -12800    -9703   -13158   -21880   -32556   -40435 
  -41608   -36671   -28770   -22320   -23652   -32964   -42211   -45883 
  -42981   -32474   -15879      249     9080     8498     -474   -13205 
  -21161   -20519   -15017    -9428    -3931     5494    18387    29827 
   39802    50478    59561    63218    61424    57483    53709    50237 
   44993    34795    20649     9754     8991    16237    22705    25257 
   27758    31080    29608    16291    -9051   -37609   -61231   -79588 
  -95012  -104629  -102660   -89329   -72089   -57635   -44632   -30505 
  -21182   -18351   -12662    -2984     2596     3035     1033    -3779 
  -10942   -18751   -26795   -33741   -36188   -35117   -35598   -37814 
  -39466   -40859   -42734   -46402   -51903   -55031   -51680   -45008 
  -41356   -37160   -24642    -7635     4528    11306    20503    36525 
   54595    68384    76972    83086    86644    84296    75779    61801 
   42057    21212     6645      891      614     1519     2149       63 
   -8747   -23106   -37894   -49772   -57035   -60139   -62120   -66506 
  -75760   -87317   -94538   -94155   -86758   -73520   -56215   -37001 
  -17604      -77    13491    23402    29573    29630    24743    18513 
   11056     1117    -9145   -13871   -10095    -2737      623    -1897 
   -4283    -1587     2348     2396    -3079   -15458   -30363   -38371 
  -38698   -37445   -35974   -33765   -31235   -26060   -17250    -8330 
   -3301    -2336     -532     4902     9450    10376    12382    19309 
   28449    33704    29052    12748    -9094   -29829   -49304   -65586 
  -73223   -74708   -75842   -73041   -60460   -40343   -17962     1720 
   12889    17021    22024    28466    31220    27001    15069     1622 
   -6267   -12103   -20624   -26906   -25030   -16262    -5680     1076 
    1320    -1764    -6277   -15766   -29693   -39901   -42440   -42526 
  -42424   -37095   -25939   -17390   -18817   -22989   -13571     9120 
   28167    36126    37598    36065    31921    24691    15128     6444 
     934    -1613    -2463    -4538    -8187    -9559   -10486   -14632 
  -16745   -13578    -9117    -4421     -676    -2001    -8529   -18646 
  -31252   -42243   -46548   -40166   -22333     1510    23582    35922 
   33178    21763    12371     3702    -7475   -13016    -8239    -2222 
   -4249   -13104   -19164   -16824   -13460   -14765   -15317   -14330 
  -19205   -31871   -46907   -57780   -60732   -57869   -52770   -42843 
  -23984    -2352     7744     2501    -5643    -8355   -12719   -24609 
  -37291   -43251   -42684   -38402   -33541   -30026   -26127   -21983 
  -19537   -15723    -8700    -3312    -3747    -9950   -19869   -29427 
  -32042   -26026   -18576   -12714    -3590     8774    18063    20048 
   16845    13828    12999    14222    17967    20275    15192     4428 
   -4982    -9348    -9910    -8360    -2656     8787    20998    26764 
   24031    15938     5138    -7997   -22097   -36134   -49703   -59690 
  -64105   -64133   -59100   -49992   -43777   -42970   -43532   -46639 
  -54809   -63943   -69428   -68395   -57656   -36795   -10286    14675 
   33324    45583    51718    51167    46457    41747    40143    43823 
   49972    52237    50066    47798    47414    46899    41874    30283 
   14277    -3051   -16007   -18122   -13408   -11763   -12734   -12488 
  -16687   -29206   -42749   -49433   -48810   -43930   -36618   -29859 
  -30166   -39445   -50353   -55486   -54296   -51979   -53256   -54525 
  -49611   -42535   -41145   -43110   -43204   -44283   -46953   -44403 
  -35159   -23166    -8597     8310    23705    34161    37337    33556 
   28649    27201    25622    19384    10321     1122    -8605   -18184 
  -24989   -27493   -24461   -14220     -155     9116     9687     5315 
    -680    -9609   -23196   -39345   -50592   -48416   -34037   -18386 
   -9789    -7919    -8365   -10328   -14399   -14901    -5505    12043 
   30314    43337    50426    51059    42999    29645    16361     4200 
   -4829    -9274   -12253   -14417   -13136   -10918   -13484   -21137 
  -29728   -37372   -45850   -55935   -63857   -65068   -61007   -57632 
  -56082   -51393   -40880   -27691   -17432   -11965    -7363    -1420 
    4176    10882    21942    36308    48184    49981    41236    31751 
   27706    24951    20081    16216    16338    16933    10664    -4636 
  -24035   -41955   -54789   -61584   -64573   -64217   -58602   -48976 
  -38884   -30615   -24915   -20754   -15873    -8682     -306     5165 
    5154     2551     1443     1073    -1372    -4832    -7143   -11407 
  -21076   -30635   -31686   -25312   -18646   -12727    -3676     5493 
    6106    -2413   -12398   -19789   -25100   -28166   -28387   -24294 
  -14722    -3439     4603     9819    14128    15690    13484    12461 
   16782    22951    26339    26314    22368    14273     5092    -2618 
   -8620    -9617    -2346     8824    16307    16633    12423     8161 
    1703   -12062   -30342   -46585   -58875   -66010   -64820   -55165 
  -40787   -25419   -10492     2219     7502     2754    -6382   -13081 
  -16253   -16757   -15561   -16821   -22678   -29321   -34425   -39857 
  -45565   -46856   -40506   -29906   -19168    -8782     2113    14030 
   22922    22535    13675     2414    -6158   -10143   -11672   -11177 
   -5594     3417     9383     8595     3274      -37     1714     3250 
     -21    -5968   -13065   -22378   -32414   -40704   -45312   -43237 
  -34904   -26658   -22984   -21687   -18945   -12685    -3471     3243 
    4130     4712     8504    10992     8927     2483    -6017   -11132 
  -12511   -15600   -18998   -17029   -10572    -3021     3617     6328 
    4135    -1150    -8738   -17027   -21850   -21570   -18236   -11861 
   -1569     8474    12884    12592    11749     9888     4320    -2332 
   -5342    -5076    -4639    -5929    -8540    -8569    -5058    -3769 
   -7013   -11823   -16797   -19083   -15972   -10871    -5853      364 
    3440    -1116    -8969   -14027   -14786   -13022   -11446    -8800 
   -2807     2162     1601    -1805    -4963    -8959   -13119   -12644 
   -5670     2977     7017     4437    -1829    -8398   -14999   -21512 
  -26669   -31753   -38284   -42650   -40901   -34059   -24100   -13561 
   -7584    -7828   -10209   -13256   -19915   -28398   -31757   -28222 
  -23207   -20102   -15791    -7984      319     4282      106    -8984 
  -14872   -17062   -18185   -15241    -7628     -207     2935      175 
   -7236   -14549   -17871   -18880   -19362   -17454   -15062   -15124 
  -13790    -7327     1197     6700     8629     9137     9484    11864 
   16831    22036    25887    25372    18108     8108     -459    -8203 
  -13981   -13986    -7931      230     5629     4847    -1509    -6867 
