Origin Time       2016/04/16 01:25:00
Lat.              32.753
Long.             130.762
Depth. (km)       12
Mag.              7.3
Station Code      FKO001
Station Lat.      33.8425
Station Long.     130.5086
Station Height(m) 24
Record Time       2016/04/16 01:25:26
Sampling Freq(Hz) 100Hz
Duration Time(s)  184
Dir.              N-S
Scale Factor      3920(gal)/6182761
Max. Acc. (gal)   61.949
Last Correction   2016/04/16 01:25:27
Memo.             
[...]
    6967     5256     2430    -2758    -9583   -15843   -19814   -21314 
  -20961   -19655   -18567   -18290   -18424   -18298   -17569   -16338 
  -14852   -13411   -12838   -13530   -13843   -11775    -7429    -1975 
    3580     7514     7912     4630     -661    -5920   -10185   -14306 
  -18957   -22569   -23137   -20313   -15086    -9348    -5289    -3999 
   -5115    -7622   -10410   -12875   -15033   -16220   -15135   -11738 
   -7682    -5239    -5944    -9362   -13858   -18311   -21956   -23928 
  -24137   -23345   -21890   -19560   -16558   -13008    -8713    -4584 
   -2143    -1989    -4629   -10511   -18119   -24254   -26642   -25437 
  -22079   -17517   -12500    -8341    -5885    -5184    -6333    -8709 
  -10777   -11824   -12037   -11680   -11333   -11199   -10546    -9286 
   -8611    -9499   -11678   -13889   -14995   -14996   -14371   -12958 
  -10864    -9419    -9980   -12608   -15937   -18099   -18198   -16658 
  -14411   -12454   -11462   -11186   -10858   -10356   -10387   -11608 
  -13807   -15753   -16035   -14520   -12788   -12776   -14911   -17480 
  -18520   -18247   -18031   -17820   -16650   -14509   -11886    -8844 
   -5760    -3392    -1865    -1139    -1802    -4178    -7534   -10586 
  -12564   -13819   -15021   -16053   -16343   -15925   -15206   -13552 
  -10004    -5723    -3089    -2496    -2287    -1518    -1439    -3789 
   -8159   -11937   -12974   -11420    -8562    -5348    -2826    -2277 
   -3893    -6168    -7532    -8370   -10322   -13874   -17834   -20531 
  -21173   -20846   -21261   -22172   -21863   -19872   -17745   -17490 
  -19152   -20326   -19434   -18002   -18364   -21036   -24970   -28743 
  -31157   -31457   -29080   -23837   -17020   -11093    -7472    -5921 
   -5781    -6002    -5398    -4211    -3821    -4495    -4609    -2753 
     234     2607     3997     4942     5181     3869      996    -2724 
   -6341    -8167    -6701    -2278     3398     8300    10378     8551 
    3568    -2773    -8629   -12738   -15250   -17152   -18523   -18725 
  -17782   -16600   -16543   -18403   -20977   -21874   -20298   -17756 
  -16248   -16642   -17779   -17224   -14122   -10478    -8693    -9042 
  -10631   -13199   -16136   -18047   -19068   -20727   -22858   -23719 
  -22713   -20628   -18353   -16803   -16879   -18840   -22365   -26758 
  -30585   -32328   -31841   -30138   -27740   -24141   -19203   -14029 
   -9479    -5143     -522     4020     7284     8101     7056     6290 
    7008     8590    10215    12007    14329    17067    19833    21908 
   22363    20912    18007    14030     9071     3365    -2528    -8209 
  -13739   -19194   -24178   -28015   -30398   -31895   -33695   -36388 
  -39317   -41366   -41577   -39664   -36691   -34092   -32279   -30853 
  -29086   -26332   -22829   -19491   -17044   -15839   -15357   -13769 
   -9806    -4982    -2293    -3022    -5825    -8396    -9804   -11098 
  -12965   -14367   -14421   -13319   -11262    -8688    -6854    -6511 
   -6811    -6241    -3688      763     5142     7382     7994     9116 
   11461    13690    14338    12951     9475     4232    -1885    -8250 
  -14270   -18648   -20847   -22345   -24610   -26758   -26772   -24108 
  -19780   -15020   -10795    -7745    -6123    -5655    -5472    -5016 
   -4472    -3971    -4061    -5925    -9527   -13688   -18014   -22481 
  -26399   -29190   -30772   -30846   -28763   -24315   -18534   -13044 
   -8787    -6171    -5452    -6402    -8720   -12350   -16455   -19337 
  -19866   -18030   -14966   -12629   -11908   -11854   -11518   -10923 
  -10239    -9573    -9088    -8280    -6275    -3201       80     3079 
    5456     6458     5313     2247    -1578    -5583   -10037   -14557 
  -17773   -18803   -18132   -16660   -14614   -12049    -9610    -8123 
   -7709    -7747    -8211   -10119   -13521   -16670   -18009   -17362 
  -15264   -12305    -8882    -5614    -3933    -4863    -7429    -9892 
  -11493   -12128   -11987   -11491   -10508    -8625    -6289    -4474 
   -3553    -3286    -3550    -4949    -8502   -14122   -20222   -25503 
  -29537   -31741   -31622   -28987   -23404   -15425    -7227     -167 
    6083    11282    14129    14053    11835     9027     7241     7102 
    7743     7679     6215     3884     1294    -1942    -6400   -11684 
  -17077   -22621   -28334   -33031   -35067   -33900   -30335   -25681 
  -21216   -17986   -16373   -15778   -15072   -13779   -12627   -12416 
  -13046   -13913   -14158   -13048   -11191   -10006    -9411    -8005 
   -5436    -2632     -240     1581     2532     2210      483    -2104 
   -4593    -6742    -9110   -11812   -14228   -15851   -16664   -16941 
  -17106   -17462   -17762   -17427   -16522   -15747   -15064   -13579 
  -11063    -8126    -5337    -3326    -2699    -3500    -5374    -7840 
  -10195   -11611   -11822   -11689   -12268   -13368   -13768   -12441 
   -9262    -5424    -3013    -3526    -7031   -12194   -16631   -18328 
  -17008   -13752    -9717    -5264     -352     4383     7655     8381 
    6485     3328      578    -1396    -3254    -5532    -8465   -12065 
  -15785   -18844   -21171   -23545   -26621   -29758   -31404   -30908 
  -28879   -25956   -22392   -18379   -14166    -9928    -5574    -1276 
    1746     2117      228    -1772    -2265    -1374      261     2275 
    3940     4495     4010     2868     1105    -1016    -2678    -3711 
   -5218    -7963   -11375   -14576   -16634   -16270   -13562   -10888 
  -10466   -12352   -15341   -18191   -19864   -19745   -18381   -17477 
  -18140   -19483   -20065   -20129   -20942   -22708   -24729   -26370 
  -27024   -26503   -25529   -24943   -24414   -22480   -18596   -14406 
  -11614    -9723    -7408    -4501    -1323     2082     5494     8619 
   11255    12760    12168     9279     5190     1387    -1448    -3341 
   -3941    -2816    -1018     -236     -635    -1647    -3573    -7087 
  -12317   -18283   -23494   -27743   -31540   -34205   -35125   -35324 
  -35461   -34336   -30823   -25778   -21422   -19331   -19584   -21574 
  -24202   -25752   -25204   -22941   -19700   -15799   -11367    -6996 
   -3679    -1442      995     4343     7810    10437    11890    11988 
   10980    10010    10042    10627    10536     9207     6912     3664 
   -1097    -7170   -12984   -17550   -21652   -26028   -30043   -32693 
  -33548   -32785   -30932   -28642   -26790   -25998   -25623   -24476 
  -22715   -21619   -21441   -20839   -18644   -15196   -11907   -10206 
  -10602   -12251   -13471   -13078   -11496   -10497   -11484   -13859 
  -15379   -14297   -11077    -7780    -5875    -5213    -4777    -3861 
   -2909    -2852    -3645    -4522    -5196    -5785    -5961    -4873 
   -1944     2431     6790     9379     9312     6827     2802    -1490 
   -4707    -6221    -6656    -7432    -9457   -12185   -14475   -16329 
  -18632   -21353   -23667   -25382   -26915   -28340   -29150   -28959 
  -27933   -26160   -23542   -20627   -18372   -17128   -16712   -16888 
  -17041   -16139   -13994   -11838   -10717   -10436   -10560   -10884 
  -10851    -9944    -8496    -7220    -6232    -5191    -4196    -3708 
   -3403    -2509    -1466    -1475    -2675    -4323    -6120    -8312 
  -10646   -11937   -11395    -9485    -6810    -3655     -587     1851 
    3475     3836     2313     -727    -3864    -5981    -7116    -7813 
   -8107    -7711    -6427    -4187    -1922    -1565    -4116    -8678 
  -13570   -17588   -20179   -21159   -20833   -19716   -17825   -15377 
  -13518   -13314   -14962   -17846   -20578   -21719   -20848   -19042 
  -18149   -18881   -20182   -20574   -19193   -16186   -12585    -9157 
   -6006    -3535    -2664    -4125    -7788   -12488   -16995   -20688 
  -22898   -23060   -21581   -19225   -16294   -12983    -9716    -6893 
   -4678    -3197    -2651    -2742    -2377     -574     2384     5095 
    6415     6011     3807      295    -3121    -5333    -6484    -7267 
   -7898    -8162    -8253    -8835   -10204   -11876   -12856   -12172 
   -9617    -6202    -3676    -3563    -6575   -12308   -19250   -25754 
  -31283   -35711   -37699   -35930   -31061   -24730   -18471   -13756 
  -11438   -11509   -13322   -15948   -18650   -20332   -19451   -15173 
   -7711     1538    10121    16082    18377    16482    10962     3395 
   -3658    -7148    -5933    -1419     4399     9877    13601    14915 
   14543    14077    14025    12520     6708    -4884   -21113   -38639 
  -53948   -64697   -69500   -67825   -59957   -46877   -30500   -13501 
    1216    11124    15262    14593    10632     4556    -2966   -12063 
  -22888   -35127   -47960   -59271   -67137   -71240   -70813   -64473 
  -52463   -37148   -21815    -8339     3872    15476    25264    31850 
   35335    36449    35680    33556    30820    27777    24397    21353 
   19645    19237    18527    15466     9695     2729    -4085   -10640 
  -17376   -24306   -30955   -37208   -43321   -48706   -51975   -52416 
  -50177   -45443   -38695   -31318   -24859   -19819   -15558   -10831 
   -4006     6453    19874    32173    39061    39881    36411    29528 
   19585     7474    -6280   -21234   -36533   -50866   -62594   -71406 
  -77867   -81110   -79592   -72926   -61947   -47883   -31589   -13425 
    6596    27639    46444    59487    66671    69585    67474    58251 
   42177    22219     2121   -14638   -25797   -31738   -35414   -38957 
  -40969   -39581   -35583   -31342   -29888   -33285   -39941   -46212 
  -49730   -49603   -45790   -39002   -30542   -22179   -15824   -12240 
  -10621   -10322   -10477    -8992    -4371     3853    15768    29814 
   41794    46588    41608    28258    11133    -4184   -15210   -23269 
  -29768   -34736   -38403   -41143   -41693   -38530   -33066   -28566 
  -26382   -24607   -20097   -11627    -1439     6394     9498     8677 
    6686     5661     4835     3075     2103     3146     4209     3479 
    1619     -792    -4556    -9328   -13667   -17056   -19726   -22766 
  -27057   -31899   -36665   -40699   -42236   -40569   -36467   -29523 
  -18509    -4685     7974    16489    20926    22819    23681    24334 
   23892    20549    14162     6441    -1053    -7486   -12042   -13876 
  -13200   -11625   -10284    -8771    -6433    -2958     2139     8833 
   16109    23017    28454    29813    24012    10299    -7890   -24222 
  -34365   -38211   -36814   -31380   -25243   -22851   -26349   -34073 
  -42250   -47751   -49589   -48970   -47761   -46077   -42294   -35642 
  -27041   -17909    -9735    -4315    -3556    -8024   -16109   -25682 
  -35321   -44269   -52463   -59745   -64935   -66754   -65226   -61232 
  -55498   -48477   -40780   -33655   -28051   -23536   -18842   -12600 
   -3841     7613    20913    34316    46576    57728    68129    77203 
   83347    86035    86451    85187    82076    77857    73922    70669 
   66172    57204    42362    23415     3773   -13745   -28217   -40052 
  -49730   -57890   -65570   -73142   -79563   -82982   -81832   -75750 
  -66153   -55824   -47341   -41810   -38903   -37554   -36478   -34244 
  -29667   -22627   -14146    -6001     -645     -298    -5141   -13398 
  -23139   -32573   -39813   -43944   -45564   -45672   -44208   -40237 
  -33802   -26912   -22127   -20237   -19873   -19355   -18144   -16449 
  -14800   -14465   -16377   -18953   -18714   -13524    -4381     5709 
   14280    20874    26036    29880    31969    32309    32190    32642 
   32633    30405    25415    18486    11514     6922     5764     6267 
    5540     2376    -2220    -7127   -12953   -20429   -28638   -36453 
  -43140   -47472   -48455   -46199   -41553   -35490   -28890   -22144 
  -14843    -7202    -1326      522    -2104    -8627   -18544   -30223 
  -39928   -43932   -41921   -37526   -35027   -35950   -38676   -40263 
  -38677   -33951   -27491   -20326   -12685    -5159     1560     7829 
   14632    23027    33804    46073    56946    63764    65744    63267 
   57259    49573    42611    38027    35360    32276    26750    18809 
   10508     3899     -988    -5296    -9746   -14817   -21393   -30034 
  -39438   -46987   -50846   -50550   -46989   -42248   -38127   -35027 
  -32721   -31432   -31754   -34085   -37898   -41155   -41976   -41184 
  -41440   -44203   -48280   -51303   -52399   -52395   -52387   -52646 
  -51832   -47983   -40682   -31788   -23823   -17962   -14615   -14479 
  -17525   -22408   -27675   -32561   -36049   -36476   -32892   -25824 
  -16705    -6940     2465    10559    16503    19854    20725    19929 
   18509    17444    17878    20428    24340    28275    31504    33908 
   35651    37108    38412    39429    39917    38912    35372    29659 
   22938    16090     9721     3979    -1722    -8531   -17503   -28618 
  -40422   -50577   -57006   -59100   -57913   -55330   -52548   -49090 
  -43900   -36779   -28514   -20480   -13893    -8987    -5283    -2708 
   -1824    -2842    -4904    -6262    -5591    -3769    -3470    -6514 
  -12315   -18589   -22946   -24381   -23913   -23323   -23178   -22972 
  -22435   -21443   -19533   -16297   -12285    -9235    -8310    -8723 
   -9275    -9588    -9561    -9609   -10750   -13224   -15876   -17240 
  -16936   -16113   -16359   -17904   -19218   -18944   -17430   -15728 
  -14620   -14422   -14192   -12056    -6993      122     7238    12567 
   15020    14167    10773     7329     7186    11823    19658    28349 
   36542    43268    47832    50177    49982    46231    38709    29056 
   19563    10966     2064    -8755   -22573   -39002   -55805   -70765 
  -82904   -92121   -98978  -104053  -107408  -108714  -107003  -101190 
  -91225   -78391   -64779   -51709   -39075   -27140   -17618   -12241 
  -10777   -10983   -10305    -7119     -973     7747    18199    28907 
   38217    45487    50878    54418    56200    56471    55285    52661 
   48459    42488    35008    25935    15057     3882    -5335   -11876 
  -16129   -18550   -19577   -19522   -18732   -17885   -17914   -19630 
  -23196   -28375   -35181   -43301   -51428   -57865   -61382   -61544 
  -58695   -53717   -47650   -41002   -33427   -24637   -14967    -4944 
    4481    12353    18300    21709    22243    20706    18024    14719 
   11149     7398     3650      493    -1692    -2739    -2487    -1475 
    -603     -291     -631    -1136    -1286    -1520    -2435    -3983 
   -6021    -8819   -12692   -17785   -24102   -30695   -35993   -39320 
  -40855   -40717   -39047   -36529   -34002   -31958   -30721   -30240 
  -29848   -28898   -27613   -26842   -26905   -27436   -27831   -27122 
  -24537   -20429   -15764   -11274    -7310    -3832     -817     1412 
    2715     3238     2903     1742      513      -96     -490    -1413 
   -3137    -5694    -9056   -13382   -19287   -27202   -36081   -43390 
  -46970   -46615   -43768   -39898   -35320   -29521   -22014   -12636 
   -1520    10379    20755    26921    27684    24062    18311    12664 
    8777     7220     7299     7964     8527     8659     8486     8463 
    8841     9533    10419    11270    11560    10763     8648     5582 
    2893     2209     3903     6443     7868     7656     6310     3795 
    -366    -5802   -11223   -15975   -20725   -26166   -31920   -36842 
  -40097   -42013   -43365   -44280   -44875   -45975   -48367   -51593 
  -53795   -53500   -50979   -47076   -42313   -37923   -35991   -37397 
  -40643   -43183   -43163   -39957   -33999   -26381   -17832    -8699 
    -348     5692     9805    13451    16994    19510    20487    20828 
   22148    25654    31334    37792    42938    44975    43289    38858 
   33273    27484    21928    16609    10894     4359    -2311    -7553 
  -10099   -10117    -9007    -8194    -8592   -10543   -13741   -17951 
  -23340   -29686   -36116   -41431   -44667   -45536   -44157   -41404 
  -38841   -36993   -35295   -33819   -33486   -35122   -38232   -40682 
  -40444   -36872   -30439   -22586   -15378   -10486    -8167    -7189 
   -6140    -4570    -2838    -1603    -1428    -1976    -2253    -2055 
   -1500     -331      914     1344     1255     1765     3589     5981 
    6933     6065     5032     3506      243    -3881    -7877   -10505 
  -10401    -8428    -6094    -3829    -1321     1847     5379     8309 
    9779     9582     8240     6364     3801      135    -4631   -10057 
  -14810   -17416   -17768   -16547   -14226   -11123    -7431    -3718 
    -949      276     -429    -2707    -5134    -7181    -9553   -12468 
  -15289   -17240   -18194   -18425   -18052   -17407   -16945   -17219 
  -18832   -21494   -24441   -27551   -30618   -33070   -34853   -36158 
  -37118   -38109   -39518   -41551   -44235   -47077   -48749   -47767 
  -43721   -37221   -29084   -20260   -11628    -3633     3660    10426 
   16653    21795    25233    26753    26467    24907    23212    22329 
   22111    21810    21017    20223    20589    22585    25318    27372 
   27754    26289    23566    20466    17551    14658    10896     5411 
   -1568    -8870   -15394   -20778   -25589   -30700   -36161   -41105 
  -44912   -48025   -51410   -55340   -59049   -61723   -63212   -63710 
  -63447   -62518   -60563   -56942   -51536   -45084   -38315   -30961 
  -22277   -12180    -1511     8154    15436    20354    23481    24358 
   22206    17747    13214    10336     9080     8570     8259     7859 
    7094     6079     5426     5554     6117     6175     4951     2314 
   -1233    -4755    -7619   -10015   -12648   -16391   -21502   -27101 
  -32025   -35589   -37685   -38516   -38056   -36262   -33503   -30412 
  -27521   -25073   -23551   -23595   -24951   -26866   -29124   -31620 
  -33711   -34512   -33464   -30646   -26605   -21852   -16698   -11421 
   -6365    -1985     1387     3958     6126     7701     8177     7489 
    5977     4124     2392     1085      549     1039     2175     3398 
    4664     5940     6716     6487     5229     3226      679    -2244 
   -5222    -7866    -9783   -10837   -11252   -11345   -11705   -13144 
  -15881   -19285   -22655   -25589   -27610   -28416   -28319   -27939 
  -27869   -28408   -29324   -30199   -30859   -31323   -31628   -31747 
  -31515   -30606   -28574   -25279   -21282   -17345   -13957   -11507 
  -10206    -9672    -9155    -8299    -7196    -5763    -3791    -1700 
    -463     -326     -280      810     2975     5294     7047     8152 
    8660     8368     6633     2874    -2394    -7631   -11571   -14212 
  -16338   -18281   -19669   -20110   -19576   -18206   -16007   -13054 
  -10272    -9235   -10650   -13722   -17042   -19702   -21734   -23465 
  -24858   -25755   -26205   -26362   -26042   -24600   -21599   -17476 
  -13371   -10212    -8003    -6236    -4755    -3817    -3568    -3702 
   -3714    -3559    -3726    -4517    -5782    -7293    -8782    -9694 
   -9507    -8322    -6904    -6090    -6150    -6882    -7905    -8582 
   -8447    -7772    -7348    -7883    -9537   -11904   -14369   -16278 
  -17166   -17153   -16757   -16337   -15976   -15782   -16163   -17500 
  -19680   -22209   -24551   -26367   -27526   -27894   -27265   -25466 
  -22666   -19610   -17094   -15204   -13533   -11781    -9652    -6756 
   -3041      934     4071     5160     4038     2150      960      409 
    -400    -1787    -3184    -4158    -5350    -7784   -11343   -14625 
  -16709   -17980   -18650   -18147   -16388   -14172   -12328   -10912 
   -9535    -8895   -10222   -12567   -13414   -12184   -10346    -8426 
