Origin Time       2016/04/16 01:25:00
Lat.              32.753
Long.             130.762
Depth. (km)       12
Mag.              7.3
Station Code      FKO002
Station Lat.      33.8263
Station Long.     130.7053
Station Height(m) 2
Record Time       2016/04/16 01:25:27
Sampling Freq(Hz) 100Hz
Duration Time(s)  185
Dir.              N-S
Scale Factor      3920(gal)/6182761
Max. Acc. (gal)   57.723
Last Correction   2016/04/16 01:25:27
Memo.             
[...]
   20799    19530    18526    17585    16428    14978    13323    11566 
    9769     7879     5918     4221     3068     2195     1374      892 
     473     -740    -2623    -4477    -6433    -8537   -10107   -11147 
  -12466   -14292   -16235   -18126   -19778   -20515   -19787   -17887 
  -15443   -12501    -9011    -5353    -1702     1741     4428     6237 
    7325     7601     7393     7334     7356     7265     7627     8619 
    9384     9461     9231     8877     8390     8189     8747    10063 
   11876    13931    15914    17535    18735    19727    20802    21898 
   22631    22713    21861    19777    16503    12658     9093     6315 
    4660     4361     4939     5548     5832     5607     4754     3770 
    3050     2143      700    -1160    -3598    -6609    -9441   -11429 
  -12187   -11312    -9005    -5884    -2227     1711     5499     8943 
   11835    13642    14214    13867    12677    10927     9430     8607 
    8446     9038    10029    10668    10817    10707    10250     9552 
    9075     8839     8201     6646     4394     2169      796      938 
    2510     4447     5780     6534     6939     7090     7580     8699 
    9830    10697    11527    12037    11886    11323    10613     9973 
   10057    11197    12641    13543    13744    13027    11111     8646 
    6678     5527     4993     4671     3980     2740     1464      695 
     530      918     1618     2021     1948     1743     1298      424 
    -347     -554     -365       55      662     1254     1816     2417 
    2741     2490     1770      685     -903    -2980    -5262    -7439 
   -9011    -9398    -8594    -6987    -4611    -1342     2684     7260 
   11947    15895    18464    19571    19331    18072    16444    14793 
   12883    10607     8192     5831     3959     3146     3403     4415 
    5894     7314     8277     8985     9719    10555    11691    13080 
   14242    14904    15081    14802    14440    14599    15373    16521 
   17898    19126    19568    18717    16389    12947     9161     5746 
    3186     1655      979      811      864     1072     1530     2367 
    3824     6037     8640    11049    12781    13408    13005    12109 
   10916     9550     8386     7376     6303     5521     5345     5550 
    6013     6897     8053     9073     9888    10444    10398     9960 
    9786     9864     9993    10407    10893    10949    10731    10326 
    9153     7050     4606     2342      646     -124     -180     -229 
    -603    -1152    -1675    -1855    -1396     -410      766     1948 
    3101     4215     5187     5666     5413     4833     4556     4719 
    5051     5329     5347     4617     2918      920     -864    -2725 
   -4602    -6040    -7201    -8368    -9284    -9649    -9461    -8696 
   -7103    -4712    -2027      622     3107     5181     6858     8533 
   10525    12926    15644    18287    20383    21926    23144    23986 
   24340    24176    23583    22987    22753    22821    23095    23485 
   23643    23125    21583    19055    16155    13572    11591    10287 
    9798    10215    11257    12447    13529    14380    15058    15983 
   17329    18647    19516    20021    20318    20126    18997    16986 
   14633    12363    10195     7974     5884     4301     3332     3211 
    4186     5776     7362     8712     9567     9999    10613    11622 
   12618    13200    13070    11983    10161     8256     6824     6238 
    6558     7270     7689     7438     6439     4862     3103     1522 
     227     -789    -1716    -3059    -4995    -6905    -8187    -8871 
   -8968    -8269    -7029    -5697    -4248    -2663    -1198      305 
    2092     3680     4609     5138     5484     5596     5641     5518 
    4709     3243     1659      357     -126      777     3007     6040 
    9378    12679    15764    18644    21345    23662    25338    26440 
   27396    28690    30281    31481    31658    30524    28071    24841 
   21533    18346    15116    11750     8260     4650      853    -3309 
   -7582   -11081   -13307   -14388   -14465   -13750   -12582   -11212 
   -9823    -8432    -6766    -4599    -2092      388     2543     4207 
    5447     6565     7795     9081    10151    10720    10783    10776 
   11169    11855    12312    12321    12008    11683    12098    13827 
   16515    19700    23369    26959    29256    29895    29642    29107 
   28481    28146    28266    28346    27902    26815    24952    22165 
   18782    15573    12826    10084     7010     3483     -753    -5517 
  -10082   -14138   -17932   -21498   -24591   -27012   -28425   -28401 
  -27140   -25557   -24182   -22849   -21475   -19868   -17803   -15662 
  -13789   -12516   -12329   -12727   -12724   -11950   -10241    -7467 
   -3770      467     4632     8066    10562    12527    14638    17449 
   21124    25289    29258    32453    34568    35621    36077    36556 
   37348    38343    39083    38974    37742    35553    32821    30083 
   27706    25803    24228    22473    20377    18484    17178    16578 
   16671    16934    16825    16172    14783    12466     9324     5798 
    2467     -255    -2230    -3451    -4091    -4806    -6291    -8469 
  -10862   -13253   -15336   -16715   -17512   -18043   -18234   -17996 
  -17493   -16568   -14939   -13087   -11546   -10162    -8971    -8066 
   -6867    -5030    -2943     -737     1691     3976     5930     7914 
    9781    10868    11249    11367    10990    10049     9177     8664 
    8444     8802    10020    12012    14418    16610    18121    19007 
   19506    19955    20706    21588    22311    23101    24119    25063 
   25703    25848    25147    23749    22195    20463    18269    15725 
   12997    10211     7788     5974     4458     3062     1862      604 
    -826    -2048    -2764    -2835    -2199    -1147      -71      994 
    2179     3602     5459     7873    10703    13461    15316    15420 
   13462    10050     6257     2712     -411    -3032    -5314    -7513 
   -9445   -10676   -11042   -10636    -9773    -9000    -8624    -8466 
   -8251    -7877    -7312    -6685    -6342    -6288    -6069    -5435 
   -4438    -3035    -1288      551     2440     4361     6026     7325 
    8546     9844    11087    12459    14338    16643    19008    21021 
   22176    22356    21992    21476    20898    20215    19427    18802 
   18842    19772    21170    22423    23477    24568    25559    26329 
   27096    27819    28156    27819    26284    23024    18457    13646 
    9150     5383     2928     1473      321     -575    -1487    -2681 
   -3696    -4442    -5302    -6143    -6746    -7228    -7443    -7043 
   -6097    -4851    -3185     -796     2394     6272    10703    15377 
   19737    23192    25203    25277    23277    19555    14554     8818 
    3229    -1597    -5538    -8315    -9711   -10099    -9774    -8756 
   -7666    -7397    -8039    -9035    -9611    -9040    -7250    -4859 
   -2582     -802      524     1454     1563      372    -1753    -4137 
   -6624    -8900   -10237   -10267    -8939    -6233    -2675      738 
    3506     5731     7544     9112    10587    11681    11769    10480 
    8079     5523     4047     4443     6932    11235    16403    21301 
   25443    28707    30673    31246    31083    30914    31153    31981 
   33845    37221    41577    45821    49012    50277    49160    45647 
   39938    32520    24043    15304     7109     -276    -7020   -12778 
  -16715   -18422   -17736   -14614    -9937    -5338    -2178    -1100 
   -1987    -4171    -6748    -8803    -9884   -10396   -11035   -11918 
  -12445   -11718    -9298    -5540    -1165     2954     6131     8342 
    9845    10327     8898     5178     -237    -6111   -10989   -14082 
  -15579   -15524   -13314    -9113    -3805     2571    10185    18860 
   27977    36183    42664    46803    47633    45311    40694    34573 
   28050    22076    17196    14144    13917    16582    20734    25209 
   29780    33295    33856    31363    26839    20588    12991     4720 
   -3520   -10980   -17234   -21702   -23981   -24260   -22485   -18534 
  -13069    -7100    -1301     3374     6257     7919     8830     9137 
    9509     9997     9496     7239     3703     -198    -3947    -6763 
   -7549    -6247    -3544       54     3866     7190     9308     9645 
    8749     7397     5516     2985      239    -1625    -1300     1797 
    6894    11982    15262    16460    16445    15701    13735    10349 
    6243     2072    -1787    -4958    -7519    -9922   -12329   -14500 
  -15725   -15355   -13411   -10223    -6393    -2965     -948     -993 
   -3233    -6929   -10600   -12875   -13127   -11351    -8030    -4289 
   -1233     1161     3583     6522    10892    17651    26354    35737 
   44613    51772    56244    57812    57200    55302    52543    49269 
   45920    42755    39714    36647    33631    31000    28880    26795 
   24469    22098    19388    16033    12243     7821     2526    -3073 
   -8336   -13026   -16657   -18601   -18963   -18390   -17254   -15754 
  -14145   -12372   -10160    -7522    -4631    -1823       48      270 
    -993    -3288    -6100    -8515   -10111   -11105   -11457   -11456 
  -11589   -11645   -11370   -10728    -9580    -8103    -7306    -8306 
  -11067   -15099   -20338   -26036   -30911   -34618   -37596   -40314 
  -42651   -44217   -45121   -45006   -43122   -39446   -33663   -25039 
  -14024    -1789    10728    21975    30542    36953    42250    46497 
   49814    52642    55102    57235    59269    61211    62598    62938 
   61942    59840    57552    55334    52540    49229    45905    42674 
   39166    34566    29263    24444    20182    16977    15986    17117 
   19312    21217    21557    19993    17126    13452     9199     5169 
    2010     -563    -2702    -4348    -5772    -7164    -8695   -10506 
  -12377   -13982   -14979   -15138   -14826   -14721   -14953   -15468 
  -17087   -20324   -23863   -25980   -26901   -29320   -31737   -27806 
  -25748   -33886   -28255    -5034     2368     3129    15946    21077 
   20381    23653    23518    22838    22486    20386    18039    13849 
    8364     2460    -3818    -9690   -14794   -18318   -20645   -22185 
  -21669   -19116   -15517   -10409    -3267     4192     9315    12161 
   14312    16126    18446    21748    25287    29546    34261    37492 
   38939    39480    39777    41054    43921    46978    48166    46466 
   42248    36910    31217    24680    17679    11211     5569     1386 
    -923    -1822    -1644     -565     1371     4327     8251    12916 
   17865    22224    25533    28111    30150    31672    32671    32837 
   32100    30769    29171    27830    26925    25893    24048    19917 
   12809     6005      563    -7662   -17443   -25169   -32362   -37802 
  -39858   -40495   -39453   -37145   -35278   -33575   -32132   -31398 
  -31087   -30493   -28621   -25095   -20525   -16050   -12612   -10588 
  -10122   -11306   -13825   -16873   -20109   -23765   -27243   -29451 
  -30330   -30265   -29269   -27531   -25055   -21412   -16648   -11176 
   -5485     -468     3187     5668     7522     9156    11086    14071 
   18549    24132    30005    35487    40236    44316    47847    50678 
   52564    53269    52579    50452    47027    42671    38060    33827 
   30263    27598    25950    25086    24895    25478    26415    26831 
   26472    25809    25226    25065    25529    25964    25434    23635 
   20632    16653    12197     7812     3854      445    -2575    -5597 
   -8789   -11785   -14168   -15971   -17279   -17974   -18196   -18151 
  -17536   -16116   -14224   -12284   -10578    -9539    -9701   -10876 
  -12081   -12345   -10992    -7880    -3418     1629     6170     9206 
   10493    10426     9567     8806     8684     8932     9673    11361 
   13858    16858    20380    24353    28297    31812    34747    36849 
   38169    39188    39845    39390    37333    33975    30118    26307 
   22264    17431    11789     5597    -1029    -7763   -13712   -17936 
  -20181   -20680   -19762   -17945   -15726   -13253   -10113    -5513 
     927     8800    17113    24573    30176    33757    35984    37773 
   39569    41115    41761    40824    37871    33262    28071    23282 
   19503    16719    14528    13235    12660    11317     9203     7507 
    6196     5216     4849     4503     3381     1074    -2593    -7415 
  -12776   -17804   -21773   -24528   -26241   -27063   -27393   -27685 
  -27818   -27596   -27272   -26767   -25570   -23645   -21082   -17826 
  -14378   -11433    -9204    -7512    -6211    -5610    -6005    -7050 
   -8137    -8836    -8852    -8171    -7168    -6086    -4734    -2954 
    -753     1967     5232     8738    12059    15009    17562    19893 
   22532    25763    29318    32984    36660    39742    41403    41231 
   39204    35923    32531    29626    27073    24813    22832    20890 
   18994    17422    16346    15916    16091    16300    15704    13733 
   10604     7261     4654     3311     3110     3400     3683     3868 
    4219     5286     7357    10223    13383    15951    16966    16073 
   13407     9438     5171     1569    -1099    -2949    -4132    -4910 
   -5574    -6310    -7238    -8333    -9419   -10473   -11512   -12391 
  -13283   -14545   -16139   -18086   -20671   -23890   -27454   -31044 
  -34431   -37658   -40759   -43451   -45396   -46266   -45872   -44532 
  -42521   -39672   -35885   -31153   -25299   -18198   -10009     -804 
    9756    21691    34314    46837    58736    69609    78709    85343 
   89834    92931    95029    96469    97491    97805    96599    93449 
   88892    83307    76748    69968    63176    55559    47497    39757 
   32051    24453    17169    10219     3866    -2116    -8010   -13733 
  -19431   -25123   -30385   -35316   -40547   -45989   -51171   -56014 
  -60162   -63052   -64829   -65998   -66801   -67256   -67113   -65970 
  -63769   -61070   -58457   -55628   -51736   -46930   -42219   -37510 
  -32251   -26631   -20167   -12347    -3756     5424    14950    23506 
   30390    36096    40915    44662    47615    50463    53269    55514 
   57065    58170    58512    57534    55573    53410    51661    51005 
   51971    54274    56595    58004    58505    58127    57339    56727 
   56166    55560    55024    54425    53814    53337    52252    49664 
   45891    41348    35439    27983    19969    12405     6016     1271 
   -1718    -2834    -2577    -1974    -1625    -1916    -2517    -2670 
   -2768    -3205    -3427    -3486    -3996    -5086    -6805    -9404 
  -12464   -14967   -16508   -17214   -17165   -16761   -16780   -17693 
  -19200   -20700   -21995   -23391   -25105   -26428   -27310   -29547 
  -32360   -32311   -30389   -28767   -24983   -18659   -11977    -4049 
    2520     1358    -1152     7516    17241    15478    16053    21502 
   19156    17288    20724    21581    22660    24539    23596    22280 
   21379    20439    19963    19443    19005    18555    17971    17756 
   17871    18241    18706    18756    18081    16368    13272     8588 
    2686    -2869    -7151   -11364   -16057   -20172   -23789   -27546 
  -30167   -29875   -26753   -22632   -19460   -17730   -17040   -17305 
  -18665   -20358   -20761   -19752   -17986   -15095   -11218    -6977 
   -2682     1432     5588    10154    15149    20265    25314    30386 
   35520    40582    44949    48295    50943    52848    54212    55405 
   56015    56271    56918    57252    56636    55645    54205    52052 
   49965    48456    47281    46393    45461    43466    40228    36524 
   32679    28660    24632    20608    16093    10662     4599    -1492 
   -7257   -12689   -17733   -22248   -26513   -30878   -35416   -40167 
  -44818   -48752   -51810   -54043   -55235   -55526   -55393   -54854 
  -53697   -51759   -48590   -44092   -39068   -34242   -29790   -25719 
  -21854   -18284   -15423   -13202   -11459   -10334    -9538    -8583 
   -7285    -5424    -2894      129     3611     7505    11580    15712 
   19835    23965    28208    32468    36648    40875    45083    48941 
   52215    54781    56690    58134    59061    59407    59479    59457 
   59111    58116    56249    53514    50036    46053    41849    37360 
   32600    28039    23929    20189    16784    13482    10076     6702 
    3364      -48    -3441    -6645    -9559   -12122   -14164   -15543 
  -16441   -17292   -18364   -19488   -20387   -20911   -20882   -20323 
  -19534   -18607   -17424   -16062   -14605   -12774   -10511    -8422 
   -6864    -5585    -4590    -4102    -3811    -3339    -3220    -4301 
   -6409    -8712   -10736   -12084   -12221   -11107    -9050    -6135 
   -2524     1402     5334     8996    12345    15754    19393    23045 
   26567    29797    32634    35111    36834    37422    37059    35695 
   33132    29830    26453    23348    20896    19384    18639    18606 
   19455    20969    22752    24515    26065    27449    28572    29264 
   29893    30504    30544    30072    29183    27444    25108    22954 
   21023    18975    16858    14669    12070     8944     5378     1184 
   -3606    -8388   -12713   -16383   -19056   -20741   -22077   -23354 
  -24490   -25659   -26694   -27379   -27713   -27071   -25348   -23730 
  -22461   -20585   -18275   -16559   -15638   -14955   -14292   -14049 
  -14152   -14159   -14216   -14678   -15611   -16790   -17926   -18749 
  -18775   -17574   -15114   -11752    -8083    -4599    -1522     1043 
    2926     3965     4263     4308     4679     5469     6401     7328 
    7968     7940     7387     6655     5655     4285     2621      811 
    -618    -1423    -2152    -2951    -3332    -3427    -3550    -3274 
   -2521    -1701     -580     1050     2784     4438     5924     6754 
    6827     6456     5575     4439     3847     3848     4165     5067 
    6300     7063     7136     6854     6971     7884     8700     8852 
    8931     9232     9881    11108    12718    14555    16404    17846 
   19054    20407    21742    22812    23666    24395    24970    25531 
   26469    27738    28720    29001    28612    27622    26210    24852 
   23824    22849    21555    19940    18100    15908    13456    10952 
    8025     4427      751    -2575    -5730    -8878   -12122   -15634 
  -19485   -23319   -26288   -27885   -28351   -28103   -27644   -27609 
  -28163   -28862   -29138   -28600   -27145   -24984   -22384   -19374 
  -15921   -12300    -8758    -5213    -1646     1995     5936    10117 
   14359    18660    22946    27141    31193    34814    37839    40548 
   42874    44280    44792    44821    44534    44251    44332    44521 
   44333    43593    42074    39841    37450    34829    31457    27564 
   23927    20835    17815    14601    11509     8603     5640     2465 
    -640    -3115    -5018    -6532    -7511    -8361    -9464   -10556 
  -11612   -12727   -13482   -13622   -13352   -12743   -11714   -10126 
   -7880    -5090    -1761     1991     5474     8131    10288    12484 
   14677    16839    19164    21303    22843    23992    25172    26526 
   27921    29329    30648    31380    31157    30027    28103    25637 
   23117    20669    17991    15047    12020     8941     5868     2827 
    -196    -3112    -6007    -9055   -12198   -15237   -18028   -20548 
  -22829   -24940   -27031   -29171   -31105   -32396   -32739   -32212 
  -31266   -30198   -28849   -26971   -24612   -21923   -18711   -14840 
