Origin Time       2016/04/16 01:25:00
Lat.              32.753
Long.             130.762
Depth. (km)       12
Mag.              7.3
Station Code      FKO014
Station Lat.      33.1491
Station Long.     130.8182
Station Height(m) 330
Record Time       2016/04/16 01:25:14
Sampling Freq(Hz) 100Hz
Duration Time(s)  261
Dir.              N-S
Scale Factor      3920(gal)/6182761
Max. Acc. (gal)   97.351
Last Correction   2016/04/16 01:25:14
Memo.             
[...]
    1801     1810     1815     1814     1806     1806     1809     1801 
    1800     1800     1793     1801     1811     1810     1811     1808 
    1803     1810     1804     1787     1797     1811     1808     1806 
    1804     1808     1815     1800     1791     1811     1814     1799 
    1807     1814     1800     1794     1794     1800     1812     1810 
    1804     1804     1801     1811     1821     1807     1792     1799 
    1804     1803     1805     1804     1805     1814     1809     1795 
    1797     1808     1808     1800     1801     1810     1814     1803 
    1792     1801     1809     1809     1815     1808     1798     1799 
    1795     1802     1815     1808     1799     1807     1813     1806 
    1798     1798     1803     1809     1809     1802     1801     1805 
    1802     1802     1807     1810     1810     1806     1798     1799 
    1807     1809     1802     1798     1804     1812     1812     1805 
    1797     1804     1812     1805     1800     1807     1812     1806 
    1803     1805     1804     1807     1803     1796     1803     1807 
    1806     1808     1806     1810     1812     1803     1799     1800 
    1805     1812     1805     1800     1810     1812     1799     1794 
    1799     1806     1812     1809     1804     1805     1807     1803 
    1796     1794     1803     1815     1817     1807     1800     1804 
    1806     1800     1799     1807     1813     1809     1804     1804 
    1807     1809     1804     1800     1803     1804     1804     1809 
    1810     1806     1803     1802     1807     1807     1802     1805 
    1805     1799     1803     1810     1806     1804     1806     1804 
    1805     1809     1804     1801     1806     1804     1804     1808 
    1800     1801     1812     1805     1796     1806     1812     1810 
    1804     1793     1800     1818     1814     1797     1800     1811 
    1811     1806     1800     1800     1809     1807     1804     1807 
    1803     1803     1807     1806     1806     1810     1810     1801 
    1797     1804     1806     1809     1813     1802     1795     1802 
    1809     1812     1803     1799     1809     1807     1799     1804 
    1810     1807     1807     1807     1806     1806     1804     1801 
    1805     1807     1805     1808     1806     1804     1809     1811 
    1805     1799     1804     1810     1806     1803     1805     1806 
    1805     1802     1806     1809     1806     1806     1802     1801 
    1810     1808     1807     1811     1804     1801     1802     1798 
    1805     1814     1809     1809     1813     1808     1803     1800 
    1794     1799     1810     1809     1805     1807     1810     1805 
    1799     1800     1808     1813     1808     1799     1798     1804 
    1806     1805     1806     1807     1802     1804     1812     1804 
    1800     1810     1807     1804     1808     1802     1796     1806 
    1813     1809     1802     1800     1804     1810     1805     1802 
    1810     1807     1800     1805     1807     1806     1806     1801 
    1803     1805     1805     1807     1804     1806     1812     1805 
    1798     1800     1805     1805     1799     1806     1813     1806 
    1801     1798     1799     1809     1813     1808     1805     1804 
    1808     1809     1803     1804     1807     1804     1804     1806 
    1806     1812     1809     1797     1801     1812     1811     1810 
    1805     1798     1807     1812     1805     1804     1806     1806 
    1805     1806     1805     1805     1809     1806     1800     1805 
    1808     1809     1809     1801     1795     1804     1812     1806 
    1801     1803     1806     1808     1810     1807     1803     1796 
    1795     1808     1817     1810     1799     1800     1809     1810 
    1804     1803     1805     1809     1811     1807     1803     1802 
    1800     1806     1809     1803     1806     1809     1801     1803 
    1806     1805     1806     1805     1807     1812     1806     1801 
    1804     1801     1803     1811     1808     1807     1808     1803 
    1806     1813     1809     1801     1800     1802     1805     1808 
    1807     1804     1806     1807     1802     1804     1805     1801 
    1808     1813     1807     1807     1808     1802     1803     1806 
    1809     1809     1807     1803     1802     1806     1808     1802 
    1801     1808     1810     1807     1806     1806     1804     1805 
    1807     1805     1803     1801     1803     1810     1811     1805 
    1800     1801     1809     1807     1803     1808     1811     1805 
    1802     1802     1806     1810     1807     1802     1803     1811 
    1810     1799     1797     1806     1811     1809     1803     1803 
    1809     1806     1802     1802     1809     1815     1806     1798 
    1803     1807     1807     1809     1807     1804     1805     1804 
    1802     1802     1805     1810     1807     1802     1810     1823 
    1822     1809     1817     1851     1882     1903     1906     1866 
    1815     1802     1838     1893     1891     1817     1783     1874 
    2046     2139     2067     1981     2031     2218     2414     2452 
    2423     2412     2186     1839     1734     1797     1817     1723 
    1385      926     1088     2061     2396     1423      649      775 
    1254     1866     1786      700      406     1729     2814     2988 
    3643     4344     4397     4271     2142     -933     -189     1748 
     599     -702     -514      366     1553     1278      135      207 
    2294     6397     8378     4661       37      -74     2991     6094 
    6330     2303    -1489    -1566    -1957    -4065    -2475     2294 
    2928      175       18     1293     2346     4194     4595     3782 
    4339     5359     3992    -1456    -5216    -1636     3336     5512 
    6795     5766     2681        0    -2100    -3046    -2614    -1382 
    2639     8588     8478     2793      791     -459    -4833    -5165 
   -2496    -1175     2458     5318     3956     5600    10800    10539 
    4642     1020     -105    -1593      155     3785     2938     1341 
    3995     5525     3825     2147     -147    -1664    -2329    -4666 
   -4235    -2001    -2455      868     5950     5216     5310     5324 
   -2328    -6962     -444     7802    12452    13181     6676    -1082 
   -1627      222     1806     4421     1371    -3303     -484      605 
   -1816     3488     9026     6290     3490     -129    -6695    -3960 
    4944     3821     1141    10239    18777    16853    10061    -1050 
  -12030   -13236    -8562    -3356      282    -1817    -3158     1271 
    5199     8920     9249    -1826    -7766     2143     6532     5334 
   12746    14420     5264      779     5151    13983    16955     4956 
   -9724   -10940    -6593    -8766    -9966    -2945     7732    20308 
   27302    14531    -7235   -14148   -12203   -18678   -23317   -11474 
    8600    23526    25819    19385    21761    30010    17695   -10840 
  -21750   -12338    -6239    -4598      558     5874    15833    23067 
    5958   -15633   -14047    -6085    -1726     1971    -2311    -4563 
    5670    18948    21746     8676    -2677      211      633   -10682 
  -25154   -26998    -6766    11793    13342    21053    36545    39668 
   28535     3561   -23309   -27690   -19376   -18061    -8550    15831 
   32570    35064    33372    25880     6476   -16783   -27430   -28123 
  -33421   -34125   -13793    16333    35289    37793    26519     8406 
   -4948   -12394   -19690   -21610   -11998     2580    15320    20131 
    7562    -8312     -810    19361    27156    29986    35621    23473 
   -7596   -21899   -15815   -18874   -21735    -6463    11649    23701 
   29999    23856     5071   -13601   -15303      815    15959    14222 
    8503    22207    35645    21637     3931    -3521   -20115   -33034 
  -21177     -114    15679    26172    29188    17844    -7679   -20399 
   -2596    14869     7318     3035    14146     5114   -20578   -23126 
    -543    33030    62899    60367    29076     2713    -8146    -9748 
  -17050   -33744   -30512    -3688    21521    37464    28032    -4399 
  -15848    -4836     -563     5533    12106    -2850   -25936   -31456 
   -8591    40091    76044    70581    50094    31342     4386   -23226 
  -43928   -53119   -37372   -15236   -11943    -6786    14879    35041 
   44897    45374    31297     -794   -34625   -33533     2278    22274 
   15244    15488    21731    15922    13011    18213    12019     3024 
    8803    15395    14616    13338    -3067   -37230   -56735   -58506 
  -52259   -17457    26561    33283    18680    23200    36605    35642 
   38168    46243    36007    25804    32128    37794    36486    18048 
  -20543   -44011   -38265   -32982   -31093   -13280     4917     5199 
    7730    37312    66626    48593    12726     6961    10935    16514 
   27714     6833   -30999   -32037   -16915   -16763   -11777     8257 
   32182    52112    44926     6984    -5193    24102    25931   -23290 
  -53586   -32233   -15695   -17530     6966    46974    63648    61623 
   56044    41162    17386    -3462   -21227   -37192   -32395    -2686 
   19917    24581    18307    -4844   -27676   -35661   -40317   -27679 
    2389    11502    16246    53124    93184    99480    66571    22529 
    -696   -20205   -42721   -43036   -20662     -423     5344    23582 
   38886    -4224   -55873   -42650   -34672   -87585   -92227   -26940 
    1073    27352    83948    74256    16049     1604    13552    17439 
   10060   -33771   -75674   -49929    20043    75503    70361    50048 
   76964    50235   -36625   -27346    18358   -29516   -81396   -68604 
  -44607   -17263    22040    49557    53798    35726    14131     8356 
    7007    -8110   -33333   -47454   -48537   -42567   -10756    29925 
   34973    24034    27248    28377    19348    -1925   -24245   -10461 
   10200   -13367   -20306    29671    58269    47174    43962    37005 
   16652    -8614   -35499   -33630   -16248   -22393   -17137    21085 
   39786    30705    42805    50497     9114   -19016     4654    16930 
  -10179   -44377   -57032   -39565   -21023   -21812    -2141    49472 
   69565    41232    20331     8171   -41149   -99279  -106197   -80047 
  -54633   -21197    13874    27438    25522    38942    59707    48331 
   24386    27177    30523     -805   -42351   -49248   -14204    25365 
   29455    11833    -5522   -31219   -35668     1454    18598    -1416 
   13466    53349    45748     8646   -32307   -73068   -70987   -34829 
   -2967    16008     9623     8396    30361    17904   -18145   -20745 
  -18644   -21879     -281     9447    -8774   -12342     3217    19244 
   18033    -1820    -9162     -810     9324    26644    49810    59258 
   31913     2300    12874      571   -56001   -51383     8970    22459 
   20180    35342     5361   -33536    -4635    45336    60913    61750 
   54952    30374     -191   -34390   -67513   -75941   -46497     1625 
   34965    58789    81062    70283    29672     3077    -9657   -34376 
  -46669   -21003     1413    -8263   -12912    12284    32544    31471 
   42795    40990     -644   -15627    -4350   -21677   -45113   -53370 
  -43270    -6272    26982    29368    23708    24577    11400   -11294 
  -24587   -31971   -18983    24335    52887    53616    71017    80270 
   44344    12436    -3582   -33737   -45979   -18748     9444    12106 
   -4924   -12763    12973    40725    36156    14226    -5233   -10334 
   -4387    -9166   -21330   -14196    11752    27775    28135    22463 
    9546    -2627   -13370   -16769     6799    29028    19965     1719 
   -9678   -11056    -2671      629     1262    17054    39966    47542 
   41483    39242    39634    21643   -10101   -25772   -30861   -36676 
  -26044    -8666     -413    15366    24745   -10016   -51543   -50644 
  -43887   -39757   -12119     6661    15853    33211    29701    29545 
   51852    28174   -28864   -34175   -15867   -25437   -25806     3409 
   28164    30290    26469    31644    41080    40859    18519    -9629 
  -23353   -45700   -69483   -53530   -27281   -29969   -38085   -29695 
   -9781     5760    -6185   -34642   -31018     -482    12665    14575 
   17790    14444    14320    11405    -5282    -7954     -941   -20795 
  -45151   -38729    -9291    20998    38455    50744    61394    60064 
   39910     4007   -18947   -32378   -67669   -72758   -15699    17971 
    -606    -4724    13999     6313   -27260   -46554   -47785   -61240 
  -84686   -76351   -39891   -16094    -3765    13911    32304    28630 
   -5777   -30271   -19374     4938    39622    79008    81274    47555 
   19876     -691   -26755   -48848   -67005   -86859   -94797   -83750 
  -73282   -59140   -25436     -471     5211    21749    47963    62925 
   73779    83360    76162    70638    74965    47065      791   -15291 
  -16467    -6074    31723    64772    84827   115204   138178   121884 
   73683    28032   -16749   -71772   -98293   -87691   -75379   -70874 
  -87939  -123990  -128139   -94609   -58680   -27817   -16758   -23935 
  -25287   -39802   -69993   -88650  -109380  -138738  -141618  -103203 
  -64243   -63597   -77125   -63900   -30295    -8251     2893    21723 
   32138    19101     9746    19488    21938     8463     2061    11996 
   30041    36155    23378    12461     3127   -23834   -61890   -84764 
  -74323   -36017     4754    31324    41405    19332   -24756   -37042 
  -18070    -9722      377    32444    63256    56194    -1552   -77769 
 -133159  -151739  -130935   -86131   -40857    -7449    10397    15333 
   14757      904   -31482   -49492   -41463   -48433   -85925  -125804 
 -136305  -112556   -84728   -62075   -18826    46611   103032   126350 
  124649   113149    85016    49527    41605    61261    72549    59254 
   38179    32232    41432    52736    76357   113866   122617    90358 
   61517    53600    56138    61527    39497     1998    11936    34823 
   -1410   -51947   -63443   -59898   -52983   -22322    23642    47524 
   49089    67234    91592    64865     4194   -22513   -29163   -46559 
  -46289   -22789     7146    30563    23447     2004    -5871   -23333 
  -47210   -34695      529    19879    27508    33946    32956    13348 
  -21234   -38306   -26806   -16756   -11200    14584    49333    61261 
   48425    36040    36675    35386    28331    24663    16504     3487 
   -3593     -805    15783    29807    26753    34848    66100    75821 
   42398    13746    11045     1086    -1662    34328    68731    56496 
   25616    13810     9035    17989    63687    94910    63680    18128 
    3562    -6912   -46609   -96916  -110729   -88353   -58254   -10414 
   37197    33803     -415   -14620    -6444     2978    -3194   -24921 
  -46476   -65516   -82685   -74838   -39885    -6000    33110    66945 
   49638    13705     3724   -10809   -36056   -48677   -47503   -28196 
   -2887    -1741   -17503   -22654   -19673   -17374   -20405   -49873 
  -89709   -96669   -81514   -64160   -30948    15701    54040    80800 
  107384   119645    92111    46354    18854    13494    36997    80028 
   95285    78208    63915    50980    27808     1961   -24988   -45103 
  -53565   -63841   -57006   -14767    22049    23391     8913     1598 
   -3913   -26785   -65076   -91760   -77065   -41871   -40120   -46790 
  -15790     1466   -28253   -39883   -11032      281   -14986    -6734 
   33384    60619    54557    46127    44758    26171    -2795   -21374 
  -30220   -41921   -60385   -64502   -48703   -37545   -30412   -11206 
    8366    19006    32260    42754    40190    38016    39723    37079 
   35082    29382    14235     -128   -19296   -49963   -70962   -72422 
  -69474   -58762   -23304    18957    39329    37745    17367    -6512 
    5364    42838    41606     6349     4041    24185     6234   -40515 
  -66700   -64570   -58359   -56123   -47846   -39830   -37864   -25463 
  -12490   -15299    -3332    33257    61663    79239    92338    79009 
   40149     4344   -20785   -35625   -29909   -13218    -2279     9453 
   22270    27403    42248    80170   101923    78014    43215     6960 
  -45873   -70794   -55338   -41828   -10710    44148    58126    31049 
   15508    12511     6967    -1862   -17196   -25737   -16460   -15599 
  -24143    -3816    29151    38659    39139    41559    35798    20459 
    4335   -10978   -33264   -45880   -32367   -11829     5568    30871 
   64177    93410   112443   117786   105117    91540    86182    74796 
   69733    69410    40829     4453    -9214   -19494   -28397   -22919 
  -12828   -11447   -29759   -48177   -36427   -21399   -26700   -28926 
  -26138   -25790   -14052    -4786   -14010   -10407    14864    30722 
   36714    43064    28829   -10478   -39754   -47046   -45798   -35504 
  -22805    -9272    16389    35205    23387     1187    -3870    -4738 
  -16711   -15907    12509    38040    42006    49393    70097    80064 
   66904    37731    13157    11331    12334     -429      211    21100 
   33686    34535    41438    54154    54180    41473    37697    31368 
   -3391   -47244   -78224  -103018  -110768   -87191   -50080   -15423 
   12780    26789    23201     2643   -27677   -58656   -86646  -100620 
  -94883   -82868   -66568   -41915   -26558   -14534    13787    21035 
  -16601   -43745   -32346   -25145   -26200     1285    30035    11998 
  -22633   -22938   -10092   -22123   -31893   -10443    19137    38276 
   45445    28841    -8115   -31608   -26160   -16177   -11328     1026 
   14246    23455    30848    23532     9635    15041    33203    38255 
   32771    43691    61537    56568    42534    34316    20967     4841 
    -136    12741    28843    28525    25767    45560    71339    67817 
   42836    24269     6920   -21705   -49180   -58479   -48243   -32649 
  -23913   -11750    13043    25983     8720    -8228     -925     5429 
   -4758   -10838    -5455    -5968   -15319   -17216    -7497     6678 
   24657    42988    49129    41256    33869    23367    -5493   -32948 
  -36433   -27214   -10733    17295    44535    60598    63899    52294 
   37211    31493    27384    21191    19071     9782   -10781   -16745 
    3386    25354    20459   -11687   -33263   -17419     9537    18654 
   13140     5178      782   -11177   -32005   -40739   -36110   -25319 
   -7020     9906    12747    -6697   -34431   -44540   -45751   -57420 
  -74323   -81585   -67387   -44698   -35190   -29649   -13859     8573 
   16379   -13951   -59845   -84875   -97938  -106061   -91246   -60979 
  -38057   -21733    -4855     9618    18694    20910    15751     8341 
     243   -12561   -21776   -17099    -3579     5501     6179    17623 
   39602    36893    13199     2182     3371     9352    21297    26641 
   19163    12476    15929    20191    19651    22946    29856    35722 
   38107    25954     3074   -12819   -21592   -26842   -21504    -2789 
   20041    31347    22450     7131     6603    11336     2431    -6537 
     168    10766    10931     3103      763    13239    32190    41984 
   43072    49125    63337    73567    71499    64521    60612    58292 
   57371    59640    67713    79961    86960    92044    93710    73895 
   45573    30265    19733    11744    14676    34417    68365    88462 
   76532    56787    45340    30048    14580    15517    34125    48909 
   46046    49970    59746    42061    15039     5282    -3810   -13495 
