Origin Time       2016/04/16 01:25:00
Lat.              32.753
Long.             130.762
Depth. (km)       12
Mag.              7.3
Station Code      FKO003
Station Lat.      33.8324
Station Long.     130.9014
Station Height(m) 16
Record Time       2016/04/16 01:25:26
Sampling Freq(Hz) 100Hz
Duration Time(s)  122
Dir.              N-S
Scale Factor      3920(gal)/6182761
Max. Acc. (gal)   36.991
Last Correction   2016/04/16 01:25:26
Memo.             
[...]
    -874    -1119    -1335    -1684    -2602    -3261    -2888    -2261 
   -2566    -3400    -3343    -2734    -3171    -4407    -4875    -4296 
   -3951    -5057    -6977    -7800    -7404    -7162    -6873    -5964 
   -5228    -5185    -5881    -6919    -7145    -6611    -6573    -7033 
   -6719    -5706    -5799    -6976    -7350    -6899    -6694    -6686 
   -6594    -6060    -4465    -2475    -1627    -1501     -530      794 
    1382     1368      529     -641     -365     1044     1923     2382 
    2674     2080      639    -1201    -2862    -3284    -3010    -3931 
   -6014    -7307    -6433    -4455    -3890    -4739    -4713    -3640 
   -3458    -5021    -7010    -7562    -7414    -9008   -11785   -12737 
  -11073    -8831    -7826    -7799    -7295    -5859    -4756    -4357 
   -3046     -755      790      950     -381    -1986    -1360       61 
    -742    -1355      616     2352     2393     2611     4197     6859 
    8181     6219     3505     2492     1739      365     -708    -1615 
   -2761    -3910    -5532    -7498    -7728    -6272    -6025    -6963 
   -7644    -8716    -8469    -4839    -1128     -353    -1373    -3051 
   -4930    -6056    -5623    -4181    -3638    -4239    -4543    -4187 
   -3133    -1752    -1834    -4313    -8502   -12802   -14996   -15503 
  -17689   -21405   -21524   -15876    -9129    -6081    -6133    -5649 
   -2295     2214     3887     2117     -432    -2925    -5178    -4614 
   -1134      965     1336     4354    10128    16045    21547    23260 
   19164    16113    16280    11872     4882     3462      614   -10651 
  -19137   -18332   -17994   -21218   -21066   -17165   -13554   -11237 
   -9777    -7025    -2197     -439    -5412   -10997    -9861    -6325 
   -8731   -13966   -14797   -14049   -17356   -22907   -25971   -25515 
  -24934   -25785   -23921   -18359   -13335    -8514    -1106     8534 
   20464    32074    35850    29834    19639     9400      386    -7891 
  -19299   -33978   -41934   -37201   -29846   -27499   -20930    -3211 
   16279    27544    32247    34970    36497    36419    34377    30015 
   21775     9820    -1720   -12496   -22013   -22729   -18433   -25930 
  -40614   -39702   -27562   -25713   -29129   -26178   -23257   -17639 
   -2862     7289     8877    14462    18654    16589    20071    23499 
   14482     5290     6798     7531    -3213   -19191   -25757   -18865 
  -13348   -19189   -23554   -18143   -13795   -13087    -9268    -6160 
   -6911    -6854    -5747    -5707    -5615    -3895    -1179     -980 
   -1914     5631    21949    31438    27730    23444    24384    20724 
    8495    -5268   -15291   -20449   -24679   -33517   -39537   -31537 
  -17485   -11466   -11056    -8411    -4508    -3932    -9461   -17435 
  -19034   -14435   -13614   -18128   -15165      801    13196    12394 
   14321    25062    30167    26543    19213     5064   -10248   -11771 
   -1309     5852     5265     2491    -1564    -7436    -8414    -1182 
    4875     3166    -2167   -10396   -22064   -27372   -22423   -20162 
  -25222   -25989   -19420   -12598    -6940    -3259    -5810   -12131 
  -16478   -20660   -25840   -26047   -20237   -14768   -12356    -9843 
   -4844      831     5025     5984     2655     2866    11582    13861 
    2582    -3870      748      141    -9280   -16545   -19334   -20749 
  -21397   -22238   -21509   -19463   -23071   -27801   -18268     2108 
   16624    23245    26101    22952    18155    18387    18753    18265 
   23832    27446    18508     8880     8232     5635    -2316    -6780 
   -9016   -12322   -13274   -15708   -23685   -28986   -27827   -24709 
  -17238    -5657     2073     6160     8217     4659     1162     3246 
    3161    -1490    -3206       20     7340    16560    19699    14980 
   10813    10787     7745    -4054   -17038   -22246   -24839   -30507 
  -35322   -37999   -40892   -42893   -42133   -38259   -32022   -25093 
  -17813    -8053     4649    13680    13164    11101    17563    25958 
   26895    25445    26212    23571    18260    19086    25478    28986 
   26927    20825    11469     3520     3162     7267     7468     4528 
    5546    10734    13698    12206    10866    11449    10604     8492 
    6001     -564   -11325   -19954   -22472   -23193   -28840   -36969 
  -40823   -42110   -42776   -35317   -17866    -3906    -2286    -4513 
   -3485    -3812    -6042    -5183    -5113   -11612   -18844   -19319 
  -15535   -11668    -8579    -8586    -8591    -2148     3276    -1945 
  -10037   -12342   -10484    -3771     5764     7322      535    -2010 
    2350     4919     3929     5280     9303    10030     5307     -214 
    -927     2021      509    -6670    -7474     3523    12089     6423 
   -3192    -4496    -5956   -18100   -30469   -29887   -23527   -23355 
  -25977   -23613   -16671    -9808    -8338    -9483    -1159    12383 
   12344     3069     1848     4060     1404       91      835    -1494 
   -6734   -15086   -21985   -20343   -15874   -12950    -5361     3011 
    4120     4394     8831    11711    13282    18824    24380    21446 
   10765     1396    -2680    -5573   -10223   -16254   -21382   -22132 
  -19130   -15446   -12819   -13832   -17009   -15779    -9768    -5953 
   -8516   -14120   -16903   -17005   -17279   -15636   -11533    -8744 
   -7015    -2349     6759    15019    14962    11363    13342    15356 
   12085     9744     8371     4002      189    -1540    -3671    -5788 
   -6940    -7213    -6983    -6663    -6631    -8818   -13361   -16081 
  -14029    -8731    -4307    -2869    -1178     3571     8925    11811 
   11395     7039     -715    -7956   -10731    -8884    -6586   -10259 
  -19226   -24164   -22907   -23581   -27692   -26749   -18438   -10968 
   -8550    -6713    -3779    -3336    -4912    -4663    -3186    -2800 
   -3111    -3560    -2258     3759    10569    11173     6758     1608 
   -1209     1691     4446    -1128    -8821   -12561   -15674   -15275 
   -8024    -1588     -515    -1300    -3464    -7904   -11754   -13628 
  -15860   -17862   -15873   -10531    -6905    -7883   -10061    -9102 
   -7055    -5456    -2968    -4071   -11110   -16731   -17086   -17415 
  -21083   -23862   -21693   -16996   -12018    -5353      138     -880 
   -5803    -8289    -5992     1053     8010     9446     9488    10717 
    7151     -640    -6134    -7937    -7733    -8701   -12567   -14463 
   -9311     -350     4772     6960    12707    15529     6774    -3758 
   -6606    -5046     -122     3712    -2349   -10532   -10355    -9422 
  -11073    -8289    -7150   -15800   -24006   -22664   -19494   -19443 
  -13563     1447    12820    12118     6144     1280    -2549    -6323 
  -11865   -17551   -18023   -13813    -9158    -2563     7834    15062 
   12940     7349     4164       78    -5295    -6923    -6305    -9037 
  -12319    -9803    -4353    -1806    -1039     -170     -928    -6089 
  -17585   -29205   -32004   -30581   -30088   -23615   -13490    -9797 
   -7489     -808     4057     7678    12373     9046    -1689    -6553 
   -6204    -8151    -7186     -935     1023    -5214   -15389   -25464 
  -29800   -27321   -25101   -23582   -17817   -12941   -14613   -16425 
  -12956    -8560    -8181   -10455    -8509      432     7500     7445 
    8743    14513    16360    11709     6423     4027     2697      381 
   -1828    -3793    -7984   -14827   -21630   -24563   -21224   -13877 
   -8511    -9315   -12945   -13488   -14408   -20355   -24573   -22228 
  -17827   -14100   -12046   -12964   -13213    -9976    -6624    -4591 
   -2151     1200     7136    14973    18623    16564    14479    12654 
    6859     1650      664    -3421   -10139   -10770    -8294    -6914 
   -2104     2844     1890     1901     7049     9687     8883    10938 
   13786    12432     8364     5105     2859    -3840   -17097   -27318 
  -28589   -26257   -23566   -22239   -26492   -32733   -32261   -25169 
  -17296   -10933    -6452    -3858     -951     3066     7090    11260 
   12635     8524     2893    -2307    -6006    -3269     1899     1992 
    1530     4111     3605    -1747    -5052    -1653     4441     6569 
    4252     1988     1851      755    -3201    -3495     5825    16923 
   19290    14883     9247     3310    -1150    -2968    -5690   -12189 
  -19778   -23160   -21205   -18345   -17132   -15545   -14302   -15955 
  -17477   -16702   -16963   -17871   -16288   -12857    -8594    -4825 
   -4411    -5940    -4327      980     5970     8781     9318     6046 
    -450    -5732    -7125    -6562    -6562    -6382    -3256     2427 
    5408     3164     1354     4265     7405     7635     7015     3569 
   -5322   -15383   -20469   -17974   -11817    -8730    -7789    -5333 
   -4291    -6633    -9443   -11681   -13564   -13223    -9450    -3386 
    2026     3923     3197     3087     5867    11357    13880     8060 
   -2336   -10317   -13243   -12374   -10537    -8665    -6925    -6073 
   -3247     3315     7028     2925    -3379    -4686       10     6933 
   10554     9661     9372    12488    14014     8890      -43    -6771 
  -10378   -13573   -15937   -14709   -12252   -14525   -20293   -22224 
  -18114   -11940    -9185   -12177   -15792   -15498   -14737   -15117 
  -12478    -7209    -3679    -2158    -1370     -621     1409     3495 
    3252     1652     1695     3121     2966     4452    11714    17110 
   15033    12939    13024    10386     9014    11249     9439     4736 
    4178     2395    -5117   -10292    -8654    -4475     -741      783 
   -2200    -8050   -13832   -19388   -21904   -18084   -13096   -12688 
  -14488   -16331   -18654   -18666   -14562   -10322    -9199    -7658 
   -1849     4983     8053     7665     7051     7410     5190    -2020 
   -9259   -11814   -11477   -10186    -6953    -2776     -702     -923 
   -2434    -5392    -6679    -2667     3388     6832     8247     8831 
    7630     4249     -277    -4208    -6061    -5491    -4106    -4132 
   -5538    -7886   -11607   -15381   -18777   -22959   -24795   -20849 
  -15047   -11105    -6502    -1738     -672    -2090    -5416   -12114 
  -16483   -13642    -8205    -3295     1654     2933     -183    -1869 
   -1288    -1179       59     3373     7287    11684    14697    13377 
   10912    11003     9292     5041     5055     8204     9899    12025 
   13031    10138     7160     4651      405    -1106     1390      786 
   -3056    -3808    -2953    -4361    -7014   -10256   -13068   -13761 
  -14441   -17041   -20592   -24834   -27783   -27019   -24998   -21798 
  -14009    -5541    -2959    -4648    -5412    -4492    -3377    -1954 
     219     2354     1501    -2501    -3605    -1906    -4385    -8415 
   -7529    -4726    -3140    -1009     1099     2384     3269     1628 
   -1761     -707     4766     6187     1877    -2006    -4582    -6271 
   -3473     2986     8198     9000     5555     1751     -919    -4274 
   -6819    -7809    -9443   -10226    -7707    -3206      342     -346 
   -6072   -12643   -15730   -16232   -17185   -17890   -16058   -12927 
  -11485   -11215    -7339     1527     8009     6268     1643      415 
     582       37     -968    -4773   -10407   -12844   -12488   -12764 
  -12350    -8266    -1861     1789      724     -607      565     1345 
    -446    -4811    -9315    -8817    -3595      596     2498     4003 
    4280     2149    -1939    -6575    -8821    -7344    -6162    -7882 
   -7517    -2260     2253     2711     1709     -797    -6283   -11874 
  -13607   -11487    -9341    -8174    -3879     2031     2055    -2952 
   -6139    -6522    -5978    -5374    -5715    -4906    -1257     -318 
   -5319    -8977    -7644    -8029   -11914   -12938    -8446    -2230 
      62    -1990    -1819     2625     5038     2828     1303     3074 
    2918    -2358    -8713   -11993   -11803   -10703   -10755   -10653 
  -11071   -15290   -21358   -22993   -17341    -7484      682     3439 
    1596    -2483    -5511    -1979     7516    14185    14425    10944 
    3985    -4774    -9306    -7549    -2685     2747     6408     6397 
    3311     -965    -3032     -212     5093     7275     3477    -3237 
   -6710    -5167    -4701    -9483   -14496   -15319   -13030    -8148 
   -1777     1314    -1088    -3679    -2613    -3481   -10219   -14630 
   -9954    -5026    -7642   -10087    -8284    -8330    -9653    -8363 
   -4848       56      699    -7417   -14921   -12370    -4484     1285 
    4413     4850     1040    -2504     -894      514    -2727    -5669 
   -6183    -7601    -9512    -8292    -3619     1160     4523     6197 
    4201      262    -2300    -4570    -3594     5621    15901    17684 
   13472     7481     -464    -6233    -4704      671     2960     1146 
   -2465    -7630   -14069   -19393   -20515   -16549   -10584    -6123 
   -4216    -5452    -9968   -15123   -16958   -14959   -12031   -10614 
  -11960   -14463   -14350   -11262    -7217    -3227      596     5666 
   12328    17841    20269    19494    16729    14982    12850     6675 
    1768     2540     1899    -3146    -6263    -5708    -5590    -9461 
  -17133   -22691   -22691   -22765   -26501   -29088   -27398   -21614 
   -9624     4868    11170     8733     6320     5395     2842     -123 
   -2689    -8262   -18013   -25781   -26682   -24639   -21775   -12560 
    2054    11364    14176    18789    19440     5235   -13118   -17955 
   -6805    13892    31693    34044    23601     8307   -10323   -24409 
  -22253    -7037     6692    10487     6876     1323    -5031   -14960 
  -30101   -47305   -60311   -62666   -50191   -28707   -10658     2529 
   14548    19886    16116     7633    -4361   -16491   -20735   -12252 
    3523    13159    14386    18199    26433    30399    26767    19018 
    9400     -846    -5007      122     3918      186    -3701    -8857 
  -23623   -36754   -28046    -4845     9550    15179    19857     9678 
  -19242   -40937   -41929   -33554   -21359    -7084     4605    18988 
   33439    27738     1187   -22133   -31860   -37308   -40273   -33057 
  -22415   -20997   -18958    -3024    15492    23017    24194    25911 
   27427    27314    27164    31611    41360    45116    31280     6215 
  -11956   -17152   -19009   -22695   -27086   -36756   -49335   -50553 
  -40743   -37067   -41797   -39365   -25841    -9380     7573    18976 
   16246     4869    -7423   -17730   -18055    -7736      266     1735 
    5314    10893     9928     4552     2537     5151    12156    21775 
   30441    36567    36327    26944    10085   -11014   -26941   -29139 
  -20007    -3625    11596     6924   -19287   -41685   -46850   -45667 
  -44893   -45174   -49067   -48891   -38086   -26287   -15029     3929 
   18789    15410     3551    -9849   -26959   -30555    -5040    28688 
   41603    33750    20744    10180     3423     1385     3417     7413 
   10234    12060    17502    25953    32872    38678    41083    30587 
    6700   -16104   -27567   -31723   -32879   -28982   -21737   -15468 
  -10168    -8489   -13079   -16521   -13614   -10560   -14217   -26654 
  -43952   -56610   -59087   -53444   -44582   -39206   -38869   -31935 
  -11707     8692    20862    30637    35189    27895    15545     9233 
   13161    23195    29634    26004    17011    13436    14369     9493 
    2751     4032     7556     5831     -730   -12476   -25717   -33549 
  -34525   -29376   -19241    -5839     9057    18669    18184    15331 
   17287    19250    16640    10607     1550    -7490   -11239   -11847 
  -16720   -26227   -27405   -11742     5714    11276    11800     9567 
    -110    -9811   -10837    -6286    -5247   -12824   -22602   -26656 
  -27686   -28859   -31235   -40167   -52961   -58200   -56175   -55165 
  -51436   -38528   -24398   -16364    -8542     2454    12012    19281 
   27353    37277    47878    51120    37261    15344     4620     7297 
   14783    22302    24940    19923    10981     2805     -898     1834 
    5538     1389    -9195   -17135   -21586   -25248   -21351    -7477 
    3125      803    -7585   -11439   -10532   -11419   -14587   -15250 
  -13795   -15212   -19203   -19787   -15720    -8777     3596    19158 
   27156    24569    21606    22828    17844     2344    -8798    -5134 
     -40    -8559   -23814   -33784   -38269   -36788   -26216    -9970 
    7022    19673    22058    18716    19473    22769    22863    20728 
   16807     8029    -4558   -15008   -21890   -29446   -35833   -35115 
  -29397   -25688   -28991   -39581   -49978   -52649   -51744   -55775 
  -59234   -47402   -21750     -842     5110     2674     1408     2734 
    3820     7752    18275    29135    34551    39590    46567    48904 
   44804    37663    29880    27012    29874    27511    13550    -7217 
  -25814   -29489   -18110   -13745   -26813   -40858   -45303   -46398 
  -44891   -35279   -24483   -24253   -26808   -16123     2991    14233 
   12985     4170    -5638    -9530    -5098     1889     6989    12143 
   11331    -5319   -29866   -45030   -42617   -24786    -4210     5227 
    4365     2416     2998     5328     4519    -4005   -12191   -11841 
   -9474   -10222   -10122   -10420   -17737   -27846   -28670   -22147 
  -19279   -16462    -3888    12184    19237    19443    24048    33531 
   36343    28602    19372    12383     4082     -986     3917    11765 
   10463      339   -11308   -22722   -32155   -34916   -33442   -34092 
  -36913   -39487   -39086   -30234   -15643    -8038    -9038    -8985 
   -7724   -10458   -14371   -14850   -13038   -11235    -8193    -3771 
   -3311   -11004   -21335   -23563   -12433     9473    32187    44513 
   47134    45785    37253    21507     9925     9060    13917    17416 
   17275    15778    12584     4442    -4456    -6621    -5322    -7312 
   -9420    -8631    -9928   -13584   -14066   -12570   -14990   -21128 
  -25602   -29263   -37395   -45823   -47230   -42307   -32523   -20304 
  -13451   -15637   -20765   -20925   -16393   -11493    -5661    -1336 
   -3513    -3817     8136    22935    26568    22710    18610    10774 
    2759     6552    18681    25708    23991    16877     8483     2200 
    -455     3166    13920    25503    30918    31485    33319    35061 
   28176    14188     6007     6918     8206     5573     -626    -8516 
  -12402   -14327   -22818   -34292   -42358   -51546   -61034   -59938 
  -45747   -26591    -9219     2634     5838     2673     1575     6963 
   14259    17981    18693    17398     9178    -5485   -14773   -15100 
  -13972   -11583    -6449    -4206    -5533    -6843    -9078   -11624 
   -9979    -3256     2199       29    -4683    -2692     2899     4223 
    1739    -4871   -19385   -36296   -46377   -48788   -43415   -28287 
  -11667    -5458    -6455    -5935    -6509   -10669   -11614    -3320 
   12467    26444    29439    22978    17032    17082    17057     8871 
   -3666   -11563   -16570   -23026   -24912   -19422   -14989   -16523 
  -22111   -29268   -33562   -33399   -32755   -30397   -19872    -1621 
   15628    22472    15600      417   -12070   -12170     1299    19705 
   30947    29071    18215     6230     -479      106     2680     1997 
   -1698    -8001   -17188   -27422   -34537   -33873   -24706   -10374 
    3697     8808      472   -12556   -18004   -12235      446    11024 
   14244    13521    10964     6723     5444     7260     6123     3402 
    4119     3215    -5433   -13930   -12627    -7487    -7209    -8239 
