Origin Time       2016/04/16 01:25:00
Lat.              32.753
Long.             130.762
Depth. (km)       12
Mag.              7.3
Station Code      FKO002
Station Lat.      33.8263
Station Long.     130.7053
Station Height(m) 2
Record Time       2016/04/16 01:25:27
Sampling Freq(Hz) 100Hz
Duration Time(s)  185
Dir.              E-W
Scale Factor      3920(gal)/6182761
Max. Acc. (gal)   46.267
Last Correction   2016/04/16 01:25:27
Memo.             
[...]
   14308    14568    13466    10726     6993     2921    -1061    -4191 
   -6072    -7262    -8412    -9565   -10617   -11861   -13559   -15409 
  -17018   -18038   -17846   -16460   -14836   -13249   -11230    -8956 
   -6683    -4013    -1226      599     1323     1395      681     -454 
   -1046    -1159    -1343    -1465    -1696    -2668    -3776    -3773 
   -2960    -2393    -1942    -1055      113     1614     3974     6961 
    9718    11751    12718    12394    11097     9283     7297     5782 
    5315     5612     5869     5310     2973    -1702    -7738   -13380 
  -17603   -20118   -21050   -20877   -19681   -17294   -14395   -11928 
  -10013    -8583    -7844    -7605    -7327    -6719    -5686    -4144 
   -2432    -1265     -777     -519     -470     -837    -1568    -2968 
   -5313    -7877    -9826   -11141   -11782   -11332    -9738    -7225 
   -3855      141     4216     7799    10323    11425    10974     8890 
    5488     1772    -1112    -2742    -3458    -3829    -4369    -5169 
   -6031    -7129    -8627   -10022   -10978   -11930   -13017   -13816 
  -14440   -15454   -16838   -17932   -18219   -17620   -16298   -14490 
  -12315    -9960    -7865    -6286    -5116    -4230    -3685    -3561 
   -3682    -3722    -3486    -3061    -2687    -2331    -1903    -1610 
   -1430    -1090     -553      207     1133     2002     3048     4479 
    5654     5900     5329     4291     2743      715    -1241    -2691 
   -3445    -3086    -1756     -541     -240    -1124    -3562    -7281 
  -11052   -14061   -16248   -17539   -18034   -18165   -18083   -17739 
  -17354   -17172   -17184   -17379   -17845   -18393   -18513   -18013 
  -17283   -16757   -16431   -16053   -15445   -14410   -12750   -10487 
   -7959    -5674    -3603    -1004     2136     4701     6316     7762 
    9271    10477    11409    12012    12096    12091    12384    12606 
   12560    12722    13254    13751    14340    15738    17761    19135 
   19168    18190    16475    14033    10939     7170     2840    -1593 
   -5758    -9448   -12397   -14443   -15857   -17255   -18827   -19989 
  -20301   -20020   -19583   -19130   -18505   -17624   -16627   -15622 
  -14810   -14520   -14998   -16464   -18734   -20776   -21538   -21032 
  -20077   -19212   -18427   -17753   -17246   -16620   -15553   -13965 
  -11754    -8891    -5756    -2754     -170     1617     2427     2190 
     884    -1001    -2736    -3762    -3703    -2777    -1698     -765 
     164      903     1273     1849     3262     5124     6462     6741 
    5849     3704      596    -2655    -5312    -6991    -7563    -7256 
   -6608    -6242    -6471    -7011    -7550    -8189    -8848    -9051 
   -8528    -7299    -5322    -2780     -390     1260     2206     2575 
    2676     3252     4524     6069     7618     8805     8921     7705 
    5685     3334      674    -2146    -4900    -7459    -9461   -10791 
  -12005   -13380   -14670   -16077   -18053   -20517   -22822   -23961 
  -23479   -22001   -20212   -18500   -17203   -16210   -15206   -14200 
  -13298   -12538   -11810   -10748    -9246    -7716    -6411    -5105 
   -3694    -2351    -1198     -448     -330     -672     -968     -691 
     392     2034     3934     6044     8083     9375     9615     9137 
    8177     6717     4954     3279     2053     1357      729     -494 
   -2342    -4055    -4884    -4588    -3317    -1666     -494     -213 
    -510    -1013    -1800    -2897    -3883    -4410    -4648    -4868 
   -5259    -6312    -8097    -9631   -10289   -10546   -10827   -11056 
  -11212   -11449   -11810   -12373   -13455   -14823   -15425   -14929 
  -14098   -13113   -11392    -8942    -6458    -4407    -2797    -1636 
    -975     -558      -26      702     1472     1959     2114     2342 
    2679     2997     3733     5125     6702     7672     7429     6166 
    4533     2730      650    -1503    -3448    -5100    -6193    -6466 
   -6134    -5529    -4800    -4047    -3407    -3206    -3828    -5308 
   -7317    -9506   -11829   -14398   -17048   -19262   -20410   -20014 
  -18049   -15135   -12106    -9084    -5847    -3181    -2226    -3076 
   -5277    -8156   -10522   -11650   -11809   -11423   -10764    -9958 
   -8898    -7525    -5879    -4172    -2760    -1428      350     2349 
    4121     5784     7354     8556     9476    10098     9879     8818 
    7673     6712     5843     5476     5603     5410     4891     4849 
    5406     6255     7264     7949     7679     6377     3995      354 
   -3790    -7259    -9933   -12093   -13269   -13069   -11948   -10474 
   -9066    -8272    -8194    -8524    -9435   -11261   -13754   -16298 
  -18293   -19554   -20368   -20713   -20390   -19741   -19015   -18063 
  -17084   -16384   -15935   -15962   -16899   -18544   -20180   -21206 
  -21223   -20134   -18173   -15618   -12723    -9721    -6749    -3824 
   -1018     1397     3046     3574     3028     2024     1025      227 
      44      598     1432     2253     3118     3760     3587     2849 
    2574     2950     3379     3680     3801     3436     2634     1622 
     187    -1745    -3602    -4946    -6074    -7450    -9173   -10934 
  -11969   -11712   -10533    -9000    -7207    -5385    -4264    -4460 
   -5749    -7261    -8382    -9152    -9909   -10774   -11487   -11749 
  -11472   -10606    -9163    -7414    -5789    -4687    -4331    -4468 
   -4407    -3679    -2326     -472     1903     4699     7647    10451 
   12614    13608    13757    14241    15680    17635    19635    21285 
   21809    20877    19128    17455    16621    17013    18137    18866 
   18237    15863    11964     6999     1171    -5347   -11831   -17402 
  -21761   -24797   -26108   -25497   -23184   -19567   -15420   -11711 
   -9047    -7699    -7766    -8974   -10552   -11893   -13456   -16131 
  -19858   -23855   -27540   -30470   -32187   -32361   -30632   -26813 
  -21151   -13997    -5951     1864     8611    14361    19060    21875 
   22401    21008    18035    14360    11233     8838     6928     5650 
    4857     4044     2676      583    -1447    -2393    -2115    -1237 
    -878    -2059    -4495    -6896    -8467    -9179    -9042    -8121 
   -7011    -6351    -6077    -5787    -5359    -4810    -4082    -3476 
   -3868    -6050   -10238   -16211   -23314   -30163   -35163   -37473 
  -36778   -32759   -25394   -15298    -3937     6615    14842    20306 
   22794    22305    19409    14459     7974     1231    -5040   -10907 
  -16301   -21096   -25013   -27226   -27150   -25228   -22220   -18688 
  -15374   -12830   -11363   -11651   -13820   -16742   -19352   -21334 
  -22639   -23285   -23447   -23270   -22383   -20122   -16299   -11263 
   -5475      556     6003     9595    10092     7098     1029    -7544 
  -17726   -27724   -35245   -38348   -35841   -27795   -16134    -3682 
    7862    17871    25353    29792    32082    32667    31106    28112 
   24753    20598    15177     8914     1917    -5571   -12056   -15782 
  -16411   -14865   -11996    -8684    -6352    -5826    -6244    -6565 
   -7269    -8502    -8939    -7853    -5809    -3646    -1603      645 
    3186     5962     8943    11656    13070    11793     6891    -1168 
  -10650   -19698   -27557   -34258   -39646   -43486   -45493   -45276 
  -42926   -38723   -32519   -24583   -16328    -9530    -5153    -3217 
   -3299    -4527    -6219    -8857   -13339   -19480   -25428   -28965 
  -29300   -26672   -21617   -14889    -6598     2921    11521    17239 
   20278    21572    21815    21684    21084    19222    15703    10702 
    5456     2204     1836     3141     5099     8023    12431    18098 
   24172    29370    32496    33227    31936    29472    26748    24223 
   22437    21540    20680    19238    17213    14590    11594     8534 
    5154     1266    -2605    -5907    -8912   -12662   -17562   -23011 
  -28657   -33926   -37434   -38475   -37715   -35999   -33461   -30420 
  -27992   -26998   -27481   -29010   -30905   -32849   -34705   -36051 
  -36506   -35572   -32637   -27543   -20424   -11666    -2551     5000 
   10078    13439    16119    18855    22583    27641    32844    36561 
   37937    36589    33227    30098    28439    27200    25315    22763 
   19831    17161    15357    14359    14144    14813    15659    15461 
   13557    10333     7062     4917     4145     4478     5361     5765 
    5224     4159     2761     1146     -261    -1179    -1632    -1759 
   -1806    -2389    -4033    -6987   -11436   -16746   -21934   -26797 
  -31206   -34831   -37580   -38752   -37296   -33482   -28473   -23234 
  -18798   -15854   -14297   -13691   -13450   -13332   -13494   -13512 
  -12686   -11030    -9086    -7575    -7284    -8531   -11095   -14790 
  -19110   -22560   -23556   -21487   -16538    -9706    -2987     1314 
    1384    -3547   -12786   -24098   -34712   -43226   -49387   -52499 
  -52351   -49777   -45462   -40940   -38415   -37638   -36367   -33210 
  -27922   -20863   -12767    -4485     3285    10658    17991    24800 
   30808    36740    43049    49176    52702    49392    40855    38047 
   46391    55879    52194    39968    37756    37629    27730    22576 
   20807    14867    11973     9605     6198     4935     4243     4635 
    6481     8047     8259     7388     5793     2900    -1153    -5801 
  -10890   -15650   -19075   -21569   -24624   -28436   -31433   -33090 
  -34487   -35919   -37202   -38662   -39901   -39837   -37525   -31780 
  -22299   -10819      624    10440    17128    20732    22839    24794 
   27100    29361    31073    32207    32127    30186    26686    21956 
   16575    11237     6132     2078      237      996     3920     7654 
   10903    13210    14217    13454    10329     4233    -4419   -13845 
  -21909   -27390   -30406   -31533   -31442   -31178   -31132   -30499 
  -29534   -30837   -35047   -38819   -40986   -42477   -41423   -37299 
  -32142   -26824   -22116   -18228   -14400   -11227    -9609    -9403 
  -10482   -12521   -14827   -17391   -20111   -22013   -22547   -21915 
  -20380   -18064   -14766   -10242    -4623     1795     8562    14793 
   19841    23772    26669    28554    29672    30151    29796    28118 
   24796    20316    15431     9986     3260    -4794   -13680   -22627 
  -30234   -35139   -36742   -35202   -31309   -26089   -20655   -16029 
  -12468    -9496    -6574    -3344      400     4705     9532    14619 
   19366    22947    24608    24429    23117    20924    17780    13878 
    9651     5719     2660      925     1008     3156     7037    11837 
   16566    20459    23200    24779    25125    23998    21322    17273 
   12077     6232      468    -4858    -9701   -13869   -17272   -20234 
  -23186   -26196   -28847   -30775   -32057   -32826   -33051   -32572 
  -31138   -28830   -25854   -22109   -18136   -15302   -14579   -16003 
  -18590   -20855   -22273   -23270   -23813   -23709   -23259   -22641 
  -21723   -20384   -18921   -18045   -18101   -18593   -18486   -16774 
  -12902    -7354    -1829     2087     4211     5247     5196     2964 
   -1703    -7013   -10977   -12921   -12878   -11443    -9717    -8557 
   -8475    -9529   -11177   -12570   -12767   -11439    -9216    -6856 
   -4989    -4302    -5114    -7183    -9933   -12708   -15244   -17822 
  -20720   -23878   -27009   -29611   -31013   -30779   -29410   -28032 
  -26677   -24048   -19397   -13500    -7324     -952     5003     9226 
   11465    11982    11133    10244    10480    12010    14676    17731 
   19790    19970    18575    16522    14649    13720    14434    16744 
   19668    22396    24454    25129    24458    23391    22302    20894 
   18874    16165    13324    11237    10219    10102    10765    12156 
   14173    16420    18015    18220    16886    14014     9732     4685 
    -144    -3953    -6466    -7909    -8595    -8669    -8211    -7488 
   -7210    -8060   -10035   -12810   -16103   -19465   -22217   -23409 
  -22329   -19451   -16228   -13987   -13429   -14661   -17148   -20189 
  -23589   -27093   -29975   -31778   -32239   -30812   -27176   -21379 
  -13661    -5155     2372     7931    11379    13263    15052    17814 
   21200    24368    26720    27771    27325    25702    23241    20061 
   16736    14158    12548    11517    10798    10344     9850     8555 
    5954     2437    -1288    -4850    -8140   -11430   -15327   -19878 
  -24343   -28429   -32724   -37459   -42185   -46857   -51653   -56166 
  -59827   -62207   -62873   -61784   -59457   -56341   -52487   -47815 
  -42115   -34911   -25614   -14122    -1448    10768    21171    29071 
   34501    37803    39522    40653    41901    43071    43647    43313 
   42120    40566    39275    38500    37849    36719    34934    32448 
   29098    25052    20971    17599    15027    12833    11008     9531 
    7784     5423     2742      -25    -2996    -6308    -9712   -12777 
  -15441   -17983   -20599   -23195   -25688   -28417   -31785   -35490 
  -38906   -42071   -45117   -47443   -48509   -48010   -45346   -40662 
  -35300   -30324   -25856   -21644   -17574   -13703    -9789    -5181 
     598     7478    14806    21392    26455    30151    32707    34763 
   37566    41183    44606    47244    48486    47469    43724    37048 
   27703    16850     5663    -5349   -15883   -25393   -33392   -39939 
  -45225   -49419   -53032   -56503   -59984   -63396   -66241   -68031 
  -68746   -68654   -68096   -67478   -67299   -67892   -68852   -69198 
  -68621   -67935   -67651   -66909   -64860   -62315   -60921   -61543 
  -64206   -68439   -73083   -76536   -77589   -75794   -71276   -64688 
  -56633   -47395   -37766   -28237   -18473    -9006     -527     7165 
   14124    20664    26890    31668    34338    35293    34895    33274 
   30490    26953    23528    20885    18852    17112    16595    18311 
   21094    23020    24635    27130    29133    29913    30906    31667 
   28759    21380    17112    18256    13764     5999     5714     5150 
    2170     4374     6608     6927     8577     8834     7808     6826 
    4861     2738     1166     -573    -2604    -4577    -6143    -6979 
   -7219    -7048    -6548    -6293    -6817    -7933    -9471   -11891 
  -15772   -21283   -27651   -32952   -35679   -36159   -35087   -32035 
  -27183   -22357   -18797   -16608   -15558   -13406    -7630       34 
    6834    13088    18692    22621    25351    27214    28174    28789 
   29362    30123    31309    32593    33763    34715    34576    32799 
   29866    26067    21624    17235    13639    11456    10679    10544 
   10336     9568     7923     5361     1832    -2188    -5975   -10154 
  -15022   -18895   -21047   -22733   -24907   -27590   -30347   -32946 
  -35734   -38688   -41234   -43286   -45275   -47320   -49209   -50877 
  -52273   -53254   -53777   -53516   -51774   -48186   -42866   -36142 
  -28494   -20439   -12601    -5419     1447     8548    15832    22906 
   29405    35142    39860    42894    43998    43800    43038    42158 
   41067    39506    37792    36035    33907    31558    29242    27023 
   25103    23638    22764    22382    22085    21747    21415    20957 
   20264    19243    17810    16123    14460    12904    11464    10146 
    8845     7547     6097     4040     1337    -1432    -3809    -5703 
   -7175    -8388    -9433   -10173   -10442   -10324   -10051    -9510 
   -8238    -6208    -4089    -2656    -2477    -3638    -5488    -7362 
   -9123   -10646   -11809   -12883   -14138   -15495   -16904   -18423 
  -19799   -20605   -21000   -21601   -22614   -24031   -26256   -29630 
  -33704   -37637   -40979   -43524   -45078   -45794   -45705   -44234 
  -41576   -39053   -37081   -35032   -33097   -32252   -32508   -32600 
  -31874   -30496   -27829   -23293   -17683   -12126    -7348    -3535 
    -383     2023     3526     4726     6271     8286    10329    11749 
   12763    13970    14948    15058    14695    14419    14005    13118 
   11933    10879    10324    10280    10334    10365    10681    11020 
   10971    10989    11355    11509    10926     9405     6842     2994 
   -2507    -8948   -14607   -19127   -23397   -27244   -30001   -31937 
  -33389   -34442   -35387   -36208   -36608   -36488   -35777   -34549 
  -33314   -32543   -32042   -31172   -29575   -26995   -22916   -17316 
  -10741    -3905     2041     6522    10055    12770    14726    17012 
   20557    25093    29763    34079    37932    40837    42249    42107 
   40414    37369    33564    29491    25263    20661    15572    10571 
    6544     3735     1778      571      232      405      408     -300 
   -1930    -4367    -7473   -10883   -13711   -15781   -18038   -20797 
  -23563   -26373   -29649   -33217   -36378   -38616   -39589   -39142 
  -37663   -35383   -32164   -28645   -25730   -22994   -19656   -16167 
  -12972    -9558    -5586    -1103     3753     8520    13016    17278 
   20685    22946    24807    26415    27270    27777    28348    28408 
   27857    27236    26508    25418    23798    21264    17861    14126 
   10563     7660     5389     3384     1805      564    -1032    -2964 
   -4628    -5852    -6538    -6504    -6114    -6002    -6389    -7218 
   -8398    -9525   -10037    -9780    -8818    -7239    -5492    -4066 
   -2989    -2109    -1396     -658      671     2880     5646     8802 
   12514    16468    20011    23081    25851    28157    30098    32035 
   33975    35662    36695    36799    36269    35324    33841    32079 
   30274    28132    25623    23046    20300    17106    13333     9059 
    4647      380    -3551    -6942    -9869   -12470   -14890   -17408 
  -19897   -21884   -23290   -24442   -25542   -26296   -26500   -26641 
  -26857   -26707   -26356   -25972   -25168   -23991   -22819   -21667 
  -20519   -19464   -18296   -16974   -15974   -15181   -13658   -10954 
   -7525    -4234    -1586      968     4200     7820    11253    14763 
   18597    22394    26033    29539    32647    35200    37041    37909 
   37730    36491    34173    30926    27024    22825    18868    15530 
   12780    10682     9189     7773     6137     4265     2049     -486 
   -3393    -6839   -10528   -13772   -16247   -18388   -20768   -23136 
  -24948   -26382   -27854   -29720   -32144   -34430   -36181   -37936 
  -39471   -40147   -40236   -39956   -39008   -37352   -35179   -32837 
  -30673   -28468   -26023   -23743   -21823   -20020   -18135   -16163 
  -14394   -12965   -11601   -10221    -9021    -7961    -6925    -6159 
   -6007    -6271    -6392    -6149    -5528    -4440    -2952    -1211 
     632     2217     3286     3968     4395     4472     4221     3847 
    3334     2525     1501      376     -700    -1507    -2297    -3639 
   -5621    -7924   -10318   -12524   -14055   -14808   -15306   -15758 
  -15738   -15190   -14606   -14146   -13532   -12538   -11036    -8962 
   -6725    -5094    -4136    -3221    -2172    -1293     -515      499 
    1618     2434     3003     3652     4427     5088     5324     5272 
    5519     6104     6630     7313     8677    10719    12974    14985 
   16489    17281    17169    16267    15011    13662    12351    11353 
   10550     9556     8359     6877     4819     2331     -166    -2660 
   -5555    -9027   -12724   -16288   -19853   -23635   -27293   -30282 
  -32567   -34279   -35190   -35201   -34676   -33856   -32697   -31250 
  -29624   -27905   -26169   -24547   -23269   -22373   -21623   -20907 
