Origin Time       2016/04/16 01:25:00
Lat.              32.753
Long.             130.762
Depth. (km)       12
Mag.              7.3
Station Code      FKO010
Station Lat.      33.4235
Station Long.     130.6689
Station Height(m) 60
Record Time       2016/04/16 01:25:18
Sampling Freq(Hz) 100Hz
Duration Time(s)  178
Dir.              N-S
Scale Factor      3920(gal)/6182761
Max. Acc. (gal)   66.505
Last Correction   2016/04/16 01:25:18
Memo.             
[...]
    3210     3210     3213     3213     3208     3205     3208     3213 
    3215     3217     3217     3213     3212     3210     3209     3213 
    3211     3208     3213     3214     3212     3212     3210     3208 
    3209     3207     3207     3212     3212     3212     3216     3212 
    3209     3216     3217     3214     3216     3213     3212     3213 
    3210     3210     3210     3210     3211     3207     3208     3213 
    3210     3210     3212     3212     3212     3213     3216     3216 
    3213     3215     3214     3212     3211     3209     3207     3209 
    3211     3212     3213     3214     3212     3211     3212     3213 
    3212     3208     3209     3213     3209     3211     3218     3215 
    3215     3213     3208     3215     3215     3208     3213     3212 
    3209     3212     3208     3209     3212     3210     3210     3210 
    3211     3211     3212     3215     3216     3217     3221     3216 
    3212     3213     3212     3210     3210     3209     3208     3206 
    3209     3213     3213     3216     3218     3217     3224     3233 
    3241     3254     3274     3311     3370     3423     3435     3402 
    3371     3410     3536     3650     3626     3515     3488     3607 
    3753     3786     3708     3633     3657     3808     3964     3877 
    3499     3111     2932     2872     2836     2910     3040     3050 
    3022     3072     2989     2659     2432     2567     2684     2409 
    2043     1839     1534     1287     1623     2235     2375     2240 
    2735     3925     4818     4936     4779     4513     3795     2993 
    3074     3989     4397     3693     3007     3329     4326     5306 
    5628     4757     3234     2455     2710     2872     2424     2112 
    2321     2533     2352     1964     1917     2541     3576     4762 
    5686     5291     3477     1927     1773     2443     3313     4111 
    4214     3484     2731     2517     2618     2815     3140     3180 
    2222      539     -449      141     1790     3640     5034     5468 
    5288     5460     6053     6053     4873     3067     1861     2517 
    4749     6124     5261     3781     3269     3361     3467     3438 
    3021     2333     1959     2252     3074     3910     4343     4311 
    3583     2436     2285     3486     4493     4237     3159     2325 
    2339     2476     2062     2201     3849     5890     6734     5920 
    4014     2258     2085     3724     5336     5229     4023     3071 
    2573     2089     1603     1445     1436     1186     1028     1531 
    2263     1618     -856    -2805    -1989     1132     4774     7380 
    8174     7462     6035     4704     3969     3783     4255     5216 
    5273     3681     1970     1583     1582      741      334     1946 
    4283     5799     7296     8572     7629     5208     4585     6071 
    6667     5610     5162     5640     5214     3959     3171     2442 
    1272     1185     2887     3963     2599      560     -159       37 
     426      958     1168      589      153     1401     3490     4158 
    3583     2711      860    -1050      134     4508     7546     6185 
    3167     2475     4015     5741     6621     6116     4983     5185 
    6479     6347     4349     3180     4203     5463     5747     5886 
    5442     2948    -1257    -4811    -4937     -510     6738    12946 
   14352    10933     6489     3088      335     -458     1998     5789 
    8260     8714     7516     4406     -563    -4946    -5925    -4177 
   -2482    -1849    -1543     -906      619     3861     8703    13125 
   14877    13902    11809     8876     4496      545     -818     -808 
    -932     -902     -863     -996     -976    -1691    -3576    -4456 
   -2851       34     3160     6268     8295     9026    10426    12889 
   13641    11442     8192     5543     4156     4474     5079     3275 
    -800    -3863    -3776    -1518     1194     4083     7079     8778 
    7984     5939     5222     6227     7444     8906    10945    12099 
   11663     9885     6666     3452     2281     2844     3999     5902 
    8415     9325     6746     2076    -2714    -7365   -10185    -8869 
   -4592      424     4881     6229     3916     1464     1095     2298 
    4319     6033     6297     4421      753    -1555      793     6440 
   10802    11637    11264    12374    13240    10557     5073      409 
   -1077      684     3532     5350     6857     9345    12252    13988 
   13584    12013    10298     7783     4286      824    -1603    -2047 
    -811      833     2815     4209     3348     2005     2913     5356 
    6481     4193     -228    -2514     -658     2528     3906     3947 
    4768     6819     8094     6625     3380      883      534     1742 
    2249      204    -4423   -10031   -13557   -12212    -7279    -3631 
   -2230      603     4989     7109     5139     1349     -619      100 
    2963     7772    11663    11994    11527    12420    11789    10002 
   12132    18618    23578    21708    14764     8677     4849     1460 
   -1112    -1846     -654     1927     4171     4565     3257     1643 
    2031     5008     8045     9282     8518     5521     1112    -2776 
   -4019     -769     5897    11235    12030     9994     8110     7619 
    7415     5716     6002    12505    19655    19591    13604     7457 
    4085     4109     7662    11620     9755     1540    -6653   -11373 
  -13719   -14069   -12905   -13103   -15502   -15119    -7167     5548 
   14338    13785     8888     8858    15114    22405    27562    29882 
   28169    22858    16983    14389    16308    18067    15433     8617 
   -1648   -10083   -10765    -8716   -10801   -15696   -20788   -24386 
  -24146   -19148    -8979     1684     3757     -769    -1867     3996 
   16390    31179    39089    36796    30647    26970    27463    31924 
   36548    34031    22842     9990     1790    -2203    -5479   -10673 
  -18553   -25774   -27656   -24089   -18353   -13164   -11145   -14535 
  -20330   -20875   -13133    -2680     5106    12077    19672    22962 
   19063    12925    10678    12166    11318     4669    -1410     -946 
    -927    -9497   -21662   -27851   -26532   -23324   -22606   -22773 
  -19983   -13596    -6706    -2332     1110     6722    13424    20565 
   29852    38228    40740    36881    27983    18191    14061    15322 
   14696     8896      722    -8137   -17317   -26110   -34836   -40322 
  -38001   -31401   -25827   -18759    -7025     7291    19726    25182 
   23045    19546    20773    27480    34956    38156    36713    31524 
   24449    20901    21148    16886     5452    -5339   -11194   -15648 
  -19966   -22657   -23553   -21911   -19831   -21442   -24431   -24192 
  -21193   -16482    -9138     -817     5438    10615    16430    20432 
   21026    20040    19006    19228    20274    19064    16368    16496 
   18548    17008    11246     7624    11664    21317    27647    23945 
   12506    -1140   -13400   -21084   -22714   -19824   -14079    -6587 
      47     3140     2664      620    -1045    -1352     -803    -1573 
   -4645    -6879    -4047     3250     9740    12851    15082    18167 
   21197    21759    16594     7114      420     -578     -146      139 
    2347     4116     2955      562    -3377    -9112   -13067   -13708 
  -12079    -8780    -5119    -1508     1945     3604     4439     8531 
   17795    28166    32202    27392    18714    12805    11238     9731 
    5951     1939    -2853    -8414    -9033    -4471    -2274    -3105 
   -1221     4532     9425     6252    -5950   -18475   -24870   -24869 
  -18839    -9593    -1523     3966     7291     8892     8748     8024 
   10178    14903    16248    11463     5446     3429     4386     5620 
    6751     7954    10582    15820    22871    28638    27281    18240 
    9585     3974    -4704   -15305   -19122   -15491   -11123    -9287 
   -8143    -5368    -1279     2600     5318     6437     6150     6022 
    9055    15408    19521    16841    10643     6972     6399     6698 
    7724     7811     3570    -4238   -11412   -15178   -16472   -17562 
  -16659   -11339    -5689    -3782     -783     9656    24098    32671 
   30825    24353    21156    19900    14530     5549    -2582    -7962 
  -10203    -8529    -2756     4118     7155     5334     1585    -2382 
   -5014    -2608     3831     6785     4847     5383    10955    15223 
   13078     7272     3652     3146     1174    -5153   -12191   -15164 
  -13856   -10367    -6854    -4273    -1124     3463     6567     5110 
     809    -3125    -6986   -11850   -15602   -14907    -9656    -3251 
     736      805    -1835    -4750    -6409    -6031    -3324     1213 
    5898     8864    10873    13899    17666    20351    20749    20273 
   21731    23837    21725    14647     8272     6417     4523    -1022 
   -4120    -1635    -1174    -6279   -11348   -11892    -7703    -2426 
      26     1726     6191    12390    16521    14651     7474     1294 
    -549    -2026    -7019   -12843   -14646   -11614    -7091    -6355 
  -10762   -14349   -12802    -9068    -5402     -243     6429    12672 
   16786    17227    14394    10979     9032     8972     8297     3826 
   -2021    -4719    -3998    -1864      239     2836     5798     5526 
    1821     -624     -416     1412     4710     7833     8937     8226 
    7205     7351     8577     9403     8973     7864     6626     5694 
    6342     7863     6714     1926    -2992    -5442    -6808    -8966 
  -11458   -12947   -13818   -15631   -17198   -15063    -9076    -2754 
    3170    10981    17686    18115    15111    13107    10680     7752 
    6539     6411     7968    13021    18751    20536    15744     5431 
   -4053    -8872   -12959   -17790   -18390   -13107    -4959     3879 
   11515    15861    16260    12949     6901      857    -2247    -2542 
   -1931       34     4114     7055     5456     1357     -242     3511 
   10933    16621    16725    12902     8886     5052     -792    -8247 
  -14342   -17493   -17105   -13156    -8363    -5779    -4659    -1971 
    2549     5365     5054     4800     5503     3287    -3461   -10662 
  -13625   -12963   -12769   -13265   -10799    -5063      457     3814 
    4957     4783     5112     5558     4046      809    -2192    -2969 
    -359     4483     9618    15083    20688    23570    22052    18348 
   15206    12764     9869     7469     7109     7273     5701     2289 
   -2334    -7391   -10507    -9126    -4250      397     2743     3365 
    3060     1386    -1910    -5138    -5393    -2455     -712    -2078 
   -1210     4600     8819     7825     8570    14385    19048    21202 
   24152    23889    16380     6884       31    -5791   -10414   -11565 
   -9246    -5289    -3607    -5626    -6847    -4990    -3526    -4519 
   -3638     5390    19379    26359    23315    18790    15981    11850 
    7701     5885     4548      -90    -9867   -19597   -21870   -19307 
  -18762   -18039   -12897    -7216    -5763    -6343    -4901    -2327 
   -1256      120     4746    11107    17293    23049    25037    21317 
   16377    13526     9500      862    -7626    -8990    -6078    -5595 
   -7193    -5987      210     7389    11676    15527    19805    20219 
   15639     8452      568    -4712    -5416    -5167    -7142    -8471 
   -4895     2830     9439    11642    10786     8971     7715     7808 
    6746     2362    -1607    -1561    -1361    -5160    -9483   -10179 
   -8879    -7558    -4897      360     6490     9572     8438     6491 
    6259     7397     9418    12419    16447    20175    21825    21344 
   19322    16146    12017     5886    -2682   -10087   -13524   -16928 
  -24084   -32306   -36180   -31851   -20505    -7798     2318     8564 
   10553    11759    16377    22344    24265    17408      436   -19385 
  -30883   -30576   -23626   -15277    -8464    -4817    -1737     3035 
    7082    10354    15772    21937    25007    23956    18670     9345 
   -1056    -8916   -12199   -10303    -3865     6362    16287    18620 
   14606    12881    14918    17063    18969    20489    19734    16622 
   13159    11187    11866    14366    14556    10098     5021     2545 
      80    -3132    -4888    -6389    -9335   -11685   -10909    -7490 
   -4281    -2425     -610      314     -878    -3084    -8516   -18264 
  -23783   -17946    -5774     3998     9515    14417    18221    13851 
       0   -12671   -14908    -5755    12711    31259    38855    39498 
   41734    43131    40531    35415    27581    17864     9991     3486 
   -3399    -6968    -5843    -4177    -4307    -4963    -3802      247 
    5619    10171    14895    22136    29461    32081    30951    28695 
   22111     9368    -3848   -12920   -22024   -36366   -51127   -58547 
  -58312   -51113   -34435   -12369     3690    11543    18876    27047 
   36316    50526    63171    67233    67108    62697    50142    33962 
   18889     5636    -4166    -9736   -12561   -14030   -11574      978 
   21916    36393    32000    13608    -4761   -16763   -23272   -25056 
  -27236   -34816   -40789   -37739   -30564   -25521   -19600    -5539 
   13894    24838    23578    20535    17199     6107    -8017   -15555 
  -16627   -10161     5462    21614    33540    46637    59313    62777 
   55573    41439    21911     2413    -9193   -15268   -22852   -27961 
  -22215    -9213     1333     5177     3767     3947     7892    10402 
   12891    18699    27259    40287    56125    66941    68788    64815 
   54857    35332    10368   -15388   -43945   -71647   -90730  -101376 
 -101680   -87995   -71554   -59834   -43487   -22677    -7795      179 
    5781    11809    18231    21798    22879    25975    31029    35549 
   39163    40811    39614    34609    22579     4286   -12628   -23629 
  -29873   -28994   -18928    -6597     -144    -1430    -6323    -6930 
   -2678    -2186    -5741    -4014     3986    10652    11288     6874 
    2223    -1232    -5961    -8354    -3327     5259     8650     2809 
   -6495   -13099   -21427   -34921   -46563   -49276   -41005   -22583 
     874    21804    35484    42838    45251    38714    21592     1624 
  -12971   -22297   -28056   -23588    -4676    16632    29497    38121 
   44286    43458    36575    24651     5268   -17146   -31501   -33753 
  -31920   -33546   -35764   -35483   -35214   -33036   -26989   -21740 
  -17953   -11778    -5011    -4190   -11222   -19301   -19910   -11483 
    1380    14476    25303    32411    36176    36931    36400    36549 
   33592    24980    16307    12242    12311    14396    16893    22360 
   33413    47009    58881    66534    69370    68031    61966    50497 
   33757    12619   -10703   -33491   -52741   -66245   -73641   -74469 
  -69922   -65463   -63295   -58069   -47999   -38932   -33003   -28072 
  -25666   -25413   -22847   -17526   -11472    -5649     -492     4642 
    9514    14127    19816    24973    26435    25207    24262    23222 
   19808    14265     9792     6512      546    -7554   -13794   -16358 
  -13967    -6411     3931    13682    21496    29630    38802    43692 
   39370    29025    17626     5363    -4579    -5747     1287    11088 
   20731    29723    38620    47664    54548    55979    50722    36338 
   10127   -21318   -46755   -63429   -73678   -75965   -69056   -57786 
  -44555   -27829   -13344    -4824     2787     9800    17409    31143 
   47070    57721    61245    59595    58269    59604    61705    64910 
   64767    51933    28975     8405    -7146   -26135   -50849   -72478 
  -81965   -76519   -59462   -37626   -16153     3658    19611    27194 
   26911    24988    26303    30956    35887    40270    44865    46492 
   42267    34728    25446    10252   -12141   -34263   -49951   -60203 
  -66627   -69369   -67515   -58870   -43974   -26578   -10571     1557 
    9885    15266    18107    20445    24241    29082    33782    37740 
   40979    42082    38802    31477    20605     5457   -13095   -32221 
  -47277   -53950   -51904   -43785   -31773   -18714    -9713    -5192 
     601    10204    22840    36376    43698    40729    32492    24253 
   17907    13854    11491    11643    14427    16861    16913    16347 
   17587    19162    18140    13841     7059       69    -5581    -9033 
   -8775    -7390    -8335    -9048    -5534     2290    10962    17162 
   20508    21207    20291    22065    27868    31189    27755    22267 
   18842    16558    15149    13223     6380    -5130   -15799   -23520 
  -30845   -37806   -37883   -25552    -5211    14368    29242    39258 
   43145    38172    24506     7227    -7238   -15554   -18523   -18470 
  -17140   -15283   -13074   -12200   -14336   -18234   -23112   -28619 
  -31419   -30523   -28497   -23936   -14133     -638    14266    28086 
   37172    41283    43474    44478    43156    40313    37049    33902 
   32138    30862    27395    22105    17141    12358     6174    -1397 
   -8306   -12693   -13653   -11386    -8535    -7074    -5347    -1443 
    5578    15312    23692    27658    28455    25803    18518     9944 
    3246    -2805    -9850   -18083   -26054   -31109   -32768   -31760 
  -26655   -16418    -3900     7729    19314    31082    40529    47924 
   54964    60535    62322    60470    57712    53937    46447    35188 
   21116     6205    -4859   -10754   -15194   -21691   -31013   -38545 
  -39458   -37642   -37381   -36038   -32230   -28443   -26707   -27035 
  -27437   -26156   -22421   -14505    -2373     9967    19057    24415 
   26209    24110    17475     7734      -79    -2324      201     6235 
   13389    16469    14761    13307    14257    16273    18996    21832 
   23287    23226    23310    24867    27572    30902    33600    33509 
   30367    24703    16998     9208     1853    -6231   -13948   -19795 
  -24623   -28357   -29203   -27770   -25541   -21081   -12410     -208 
   11335    18123    20801    22084    23852    26283    26410    22893 
   18855    16547    16190    17723    18754    16726    14313    15917 
   19838    21003    18497    13774     7576     2227      901     4981 
   13315    22886    30880    34916    34217    30809    24541    13110 
    -461   -11028   -18881   -25342   -29303   -31134   -29949   -22701 
  -12711    -5616     -149     3810     2920    -1717    -7724   -12664 
  -12899   -10055    -8628    -7821    -4993      -75     8432    19423 
   25646    25211    21858    16679    10973     5635     -714    -7532 
  -12418   -14045   -12512    -8561    -3088     3497     9875    13070 
   12623    10542     7522     3784       89    -1291     1984     7573 
   11573    13098    12643    11512     9463     4215    -2242    -5258 
   -5237    -6041    -8959   -11667   -11751   -10301    -9886   -10254 
   -9753    -8094    -5026     -376     4366     6989     6657     5368 
    5322     6009     6957     8703    10929    12495    11944     9537 
    7218     4663      173    -5028    -8268    -9203    -9722   -11431 
  -13469   -13179    -8860    -2072     3190     5280     6218     7908 
    9776    10037     9124     9323    11072    13071    14676    16023 
   15962    13021     8475     3573    -2122    -7710   -12458   -16450 
  -18633   -18941   -17430   -11954    -3230     3595     6810     8757 
    8551     4132    -3034   -10447   -15930   -18430   -18443   -15896 
  -11530    -6570     -309     7151    15264    24387    32239    36078 
   36407    33703    27890    21600    17301    13716     9570     5059 
