Origin Time       2016/04/16 01:25:00
Lat.              32.753
Long.             130.762
Depth. (km)       12
Mag.              7.3
Station Code      FKO013
Station Lat.      33.2252
Station Long.     130.5607
Station Height(m) 32
Record Time       2016/04/16 01:25:15
Sampling Freq(Hz) 100Hz
Duration Time(s)  300
Dir.              E-W
Scale Factor      3920(gal)/6182761
Max. Acc. (gal)   172.962
Last Correction   2016/04/16 01:25:15
Memo.             
[...]
   -6217    -6220    -6217    -6216    -6217    -6215    -6216    -6218 
   -6216    -6219    -6221    -6215    -6215    -6221    -6221    -6220 
   -6217    -6213    -6210    -6207    -6205    -6206    -6201    -6196 
   -6197    -6204    -6215    -6226    -6229    -6227    -6227    -6225 
   -6218    -6213    -6216    -6217    -6211    -6204    -6201    -6201 
   -6206    -6216    -6225    -6232    -6237    -6237    -6230    -6222 
   -6211    -6205    -6208    -6212    -6213    -6208    -6199    -6197 
   -6201    -6207    -6214    -6217    -6210    -6203    -6204    -6206 
   -6204    -6205    -6209    -6217    -6223    -6226    -6230    -6233 
   -6233    -6228    -6219    -6216    -6220    -6222    -6222    -6217 
   -6208    -6205    -6209    -6214    -6220    -6224    -6216    -6207 
   -6204    -6201    -6200    -6203    -6203    -6198    -6200    -6212 
   -6226    -6229    -6221    -6215    -6215    -6215    -6216    -6220 
   -6223    -6223    -6221    -6217    -6215    -6215    -6214    -6216 
   -6218    -6224    -6225    -6218    -6213    -6212    -6212    -6217 
   -6223    -6223    -6214    -6204    -6198    -6195    -6197    -6204 
   -6206    -6208    -6213    -6217    -6217    -6218    -6222    -6220 
   -6217    -6218    -6219    -6217    -6216    -6216    -6218    -6223 
   -6226    -6222    -6215    -6214    -6222    -6226    -6220    -6214 
   -6210    -6205    -6202    -6204    -6210    -6215    -6218    -6219 
   -6215    -6212    -6215    -6213    -6209    -6210    -6205    -6198 
   -6197    -6205    -6211    -6215    -6219    -6220    -6221    -6223 
   -6221    -6224    -6232    -6231    -6224    -6216    -6208    -6207 
   -6215    -6223    -6223    -6218    -6214    -6215    -6215    -6212 
   -6209    -6207    -6206    -6209    -6206    -6198    -6202    -6215 
   -6222    -6221    -6218    -6212    -6208    -6209    -6210    -6210 
   -6212    -6219    -6231    -6238    -6232    -6222    -6216    -6215 
   -6213    -6213    -6214    -6211    -6212    -6219    -6215    -6204 
   -6204    -6214    -6217    -6215    -6216    -6213    -6204    -6203 
   -6209    -6210    -6210    -6216    -6216    -6207    -6206    -6219 
   -6232    -6230    -6221    -6218    -6215    -6212    -6211    -6211 
   -6215    -6223    -6227    -6224    -6217    -6212    -6213    -6217 
   -6214    -6209    -6206    -6207    -6211    -6213    -6213    -6210 
   -6208    -6210    -6212    -6215    -6221    -6223    -6218    -6211 
   -6205    -6206    -6217    -6227    -6225    -6220    -6219    -6216 
   -6213    -6217    -6217    -6210    -6209    -6216    -6221    -6223 
   -6225    -6220    -6209    -6204    -6209    -6213    -6213    -6210 
   -6209    -6208    -6212    -6218    -6218    -6212    -6209    -6211 
   -6215    -6218    -6218    -6212    -6212    -6221    -6226    -6223 
   -6222    -6219    -6218    -6218    -6215    -6211    -6213    -6217 
   -6222    -6226    -6220    -6207    -6203    -6206    -6208    -6208 
   -6213    -6216    -6209    -6202    -6206    -6209    -6207    -6210 
   -6215    -6218    -6223    -6222    -6217    -6217    -6223    -6225 
   -6224    -6223    -6221    -6215    -6218    -6228    -6227    -6220 
   -6218    -6207    -6196    -6200    -6207    -6207    -6211    -6217 
   -6213    -6205    -6205    -6210    -6212    -6213    -6215    -6217 
   -6214    -6211    -6214    -6215    -6214    -6215    -6215    -6214 
   -6222    -6231    -6232    -6226    -6219    -6215    -6213    -6212 
   -6209    -6206    -6204    -6211    -6225    -6234    -6226    -6208 
   -6198    -6202    -6205    -6204    -6210    -6220    -6215    -6205 
   -6205    -6211    -6213    -6211    -6214    -6219    -6218    -6218 
   -6220    -6219    -6219    -6220    -6216    -6217    -6222    -6218 
   -6216    -6223    -6227    -6223    -6214    -6209    -6209    -6210 
   -6210    -6210    -6208    -6209    -6217    -6218    -6212    -6212 
   -6215    -6217    -6219    -6223    -6228    -6234    -6240    -6246 
   -6253    -6257    -6253    -6255    -6280    -6325    -6373    -6405 
   -6401    -6369    -6351    -6385    -6453    -6490    -6441    -6332 
   -6302    -6435    -6617    -6684    -6625    -6532    -6516    -6624 
   -6716    -6608    -6323    -6048    -5953    -6015    -6023    -5931 
   -5920    -6018    -6135    -6288    -6436    -6416    -6207    -5995 
   -5900    -5731    -5374    -5118    -5092    -5094    -5171    -5468 
   -5773    -5887    -6051    -6477    -6837    -6818    -6593    -6464 
   -6401    -6128    -5886    -6193    -6591    -6481    -6447    -6886 
   -7317    -7502    -7437    -7232    -7166    -6985    -6366    -5780 
   -5521    -5077    -4209    -3390    -3090    -3112    -3119    -3797 
   -5627    -7481    -8325    -8447    -8423    -8427    -8413    -8283 
   -7817    -6771    -5485    -5230    -6650    -7906    -7141    -5650 
   -5241    -5787    -6689    -7059    -6129    -4831    -4725    -5829 
   -6462    -5658    -4615    -4207    -4001    -4167    -5211    -6760 
   -7525    -6862    -6498    -7799    -9079    -8699    -7543    -7145 
   -7442    -7046    -5568    -4215    -4145    -5619    -7701    -8346 
   -6747    -5244    -6078    -8072    -9345    -9935   -10098    -9249 
   -7597    -6443    -5968    -5318    -4643    -3850    -2332    -1698 
   -3707    -6866    -8737    -9178    -9859   -10854   -10152    -7872 
   -6551    -6827    -6852    -5388    -3218    -1498     -554    -1018 
   -3420    -6617    -8627    -8112    -6020    -5301    -6183    -5636 
   -3908    -4247    -5850    -6061    -5295    -3795    -1624     -565 
   -1571    -4878    -9266   -12004   -13276   -14487   -15247   -15156 
  -12760    -6981     -959     2090     3449     5360     6333     3861 
    -823    -5699   -10242   -13465   -15611   -17430   -18027   -16887 
  -13975   -10286    -7900    -6160    -3481    -1060      333     1481 
    1322    -1492    -5208    -7930   -10024   -11550   -12080   -11225 
   -8105    -3380      562     1658      -36    -1462     -834     -854 
   -4268   -10326   -16505   -20579   -20930   -17522   -12998    -9497 
   -5869    -1463     1435     2242     3799     6127     5529     1943 
   -1817    -5392    -9136   -14162   -20167   -21864   -17901   -12444 
   -7291    -3977    -3644    -4900    -6320    -6406    -5872    -7282 
   -8989    -8188    -7049    -7472    -6137    -1647      524    -2502 
   -6032    -8345   -12048   -15053   -14040   -10560    -7421    -5206 
   -3040     -643      852      821     -237    -2739    -5934    -6265 
   -3282    -1275    -2909    -6681    -9829   -11195   -11890   -12790 
  -12375    -9337    -4396      401     2168     1371     1746     2305 
   -1071    -6719    -9405    -7665    -4493    -3226    -3336    -4015 
   -7493   -12011   -12819    -9709    -5926    -6432   -12239   -16051 
  -13935   -10571    -9260    -8947    -7529    -4641    -2912    -2664 
    -476     2531      954    -3667    -4502    -2386    -3411    -8871 
  -16360   -21463   -21318   -19377   -17209   -12930    -8717    -4801 
     929     4461     2158    -4278   -12050   -16179   -14311   -11599 
  -11977   -13927   -13709    -9939    -6879    -6494    -4855     1025 
   10884    19081    18931    11604      296   -13747   -24994   -27783 
  -24302   -20675   -18906   -16515   -12173    -7178    -2081     2864 
    6448     9215    11209     8460     -620   -11665   -19624   -21406 
  -18532   -16300   -16002   -15817   -15238   -12348    -5054     3640 
    6906     2637    -2529    -3041    -2537    -6277   -12641   -17569 
  -21135   -23566   -22127   -16551   -10567    -6537    -1782     5195 
    8333     4039     -675      413     3090     1761     -492     -227 
   -2065    -7941   -11452    -9349    -5413    -3928    -5469    -6377 
   -4497    -4150    -9303   -16164   -19097   -18043   -15014   -10439 
   -4730     1320     5724     4788    -3318   -14204   -19851   -18204 
  -13624    -7258     2889    14039    17210     6602   -10553   -22040 
  -23684   -18459   -11171    -4720      470     3996     5206     3916 
    1093    -1899    -6199   -14024   -20704   -16627    -4760      266 
   -4768    -8961    -6249    -4390   -10548   -17118   -17996   -19030 
  -19690   -14992   -10554   -11224   -12333   -12429   -16185   -20104 
  -13929    -1385     2871    -3317   -10199   -11690    -7929    -1123 
    5663     9813    10169     5597    -2472    -8847   -10833    -9508 
   -8142   -10307   -13137   -11442    -7753    -7043   -10548   -18567 
  -26012   -23617   -13454    -5498    -3278    -6142    -8943    -5199 
     107     -767    -7586   -16775   -20870   -17128   -12957   -10076 
   -5841    -3264    -3349    -3152     -705     3511     5958     4380 
   -1899   -13536   -24465   -25539   -17328    -8000      259    11781 
   21099    18227     8646     -838   -12924   -21976   -21862   -19368 
  -14308     -292    10758     2267   -20083   -35441   -30418   -12998 
    -488     3203     3582     3433     1825    -2314    -2530     7619 
   20933    25367    18644     7776    -1843   -11236   -20599   -24322 
  -19168   -12087    -9961   -11300   -12635    -9810    -1109     8125 
   16406    26760    31454    21424     2913   -15675   -29541   -32602 
  -29994   -27907   -19450    -6260     2007     4391      380    -7781 
   -9805    -2557     4020      339    -9906   -17265   -19898   -19222 
  -16788   -14381    -8830     -493     2937     1836     3039     5086 
    2632    -3118    -9290   -18296   -31189   -41960   -44325   -38015 
  -28588   -20814   -12930    -2410    11087    25897    35363    36217 
   31979    25076    18017     9744    -6493   -26789   -39411   -45898 
  -53433   -58223   -53589   -39725   -20395     1536    24366    42804 
   48631    42487    33445    23272     8945    -2826    -5069    -3655 
   -6290   -12948   -20359   -26688   -31236   -31155   -26586   -25402 
  -30624   -34634   -32164   -28279   -29175   -27306   -14164    -4058 
   -9275   -14190    -7505      719     3017     -804    -4692     2696 
   13629    10647     1045     -524     3514     6176     3783    -3623 
   -9048    -9915   -14013   -19624   -13680     2732    16097    23315 
   30527    35884    29429    13409     6069    13412    18279     9828 
   -3275   -14710   -24824   -27465   -16974    -1228     2940   -10231 
  -25204   -30561   -35388   -41654   -38535   -28524   -20527   -11879 
    1997    16826    20835     7084   -13290   -26841   -33671   -35112 
  -33195   -32733   -30911   -22753    -7419    12455    28704    32008 
   20410     2814   -15325   -38059   -57067   -56205   -35814    -6139 
   21226    34143    31137    18713     2442   -11964   -23001   -29474 
  -24197    -9450     -678    -2836    -4459      975     9149    18720 
   29798    33954    22547     -755   -24418   -40904   -48980   -49807 
  -44835   -30365    -3389    21495    26203    12979    -5104   -17362 
  -18650   -10587     2649    12209    10011     2939     2802     9505 
   13950     8615    -5474   -20970   -31670   -34966   -31228   -21936 
   -6877     9476    16632    12603     5114     2015     6007    11956 
   15304    14099     5551    -5713   -12270   -16215   -23041   -31059 
  -35349   -37303   -39664   -39924   -37983   -35958   -29439   -15101 
     378    12669    25167    35708    39107    35857    27580    17739 
   10907     9385    19462    43904    65707    61294    26407   -22644 
  -63116   -80725   -77927   -62539   -38680   -12012     8144    12071 
    2812    -7863   -20111   -36540   -50793   -53940   -38523    -5278 
   33251    59979    71088    75550    73344    61887    45241    23883 
    -786   -26960   -57358   -84416   -88329   -63716   -33146   -21191 
  -26963   -32415   -27596   -16923    -6016     3032     8932    11508 
   10424     9462    15767    28317    40782    49580    52503    50510 
   44241    29175     2057   -34372   -70774   -96689  -106942   -98973 
  -73910   -40367   -10832     7268    16367    21260    24044    25627 
   20664     1875   -24793   -46912   -59827   -61950   -54330   -43055 
  -32078   -25043   -24267   -25074   -28585   -40931   -51818   -45523 
  -26531    -9174     3333    15665    31056    51776    75277    91995 
   97826    96448    87368    66906    36722     4518   -21773   -41098 
  -54191   -54405   -36665    -7752    18504    30378    25058     6308 
  -23325   -57685   -81607   -86399   -75886   -50783   -12950    23178 
   45102    52078    47829    38054    25536     6279   -16806   -32787 
  -41317   -45064   -39262   -29826   -24995   -10401    25708    61853 
   69426    49037    27455    27866    44822    57220    59943    60479 
   60161    55182    43515    28381    13131    -3958   -25860   -53017 
  -76568   -86182   -83710   -71253   -49562   -27730   -14034   -13337 
  -25470   -37183   -37358   -29137   -18255    -9020    -3205     1164 
    3858    10143    30294    57980    72600    62569    34793     4096 
  -24201   -48074   -55898   -40920    -8706    33464    76439   109802 
  129523   137650   135195   119833    94994    70481    45167     7663 
  -40444   -81319   -98499   -88497   -63114   -37086   -11822    17161 
   41211    42667    19057   -16522   -52352   -77701   -88004   -88772 
  -83699   -73733   -59321   -40887   -21347    -4870     3450      990 
  -11841   -30846   -44620   -48960   -53598   -63898   -76216   -89109 
 -106685  -131678  -160070  -183879  -193769  -182039  -146204   -94688 
  -50849   -33236   -35779   -47096   -64117   -74513   -63451   -30329 
   21359    86610   154304   213153   252764   266579   257760   231413 
  194581   163719   150857   155053   168391   175553   158812   110399 
   45254    -9581   -46126   -67600   -70917   -56162   -25481     8402 
   18816    -5930   -56815  -115789  -164702  -200856  -215675  -176596 
  -87724    -7935    28132    25143    -6786   -46551   -76172   -88148 
  -71405   -30139    13867    44458    51900    35281    10789    -5669 
  -15073   -25621   -42119   -60693   -71492   -73590   -76662   -84593 
  -84964   -63586   -23405    19937    53858    79264    95385    92056 
   74988    57336    47626    60801    91906   116677   127400   127224 
  120807   113515   104765    93151    76723    50966    16430   -19276 
  -48527   -68925   -81525   -90291  -102012  -116732  -125432  -124327 
 -117929  -109341   -97303   -77610   -52800   -37949   -42329   -57413 
  -72375   -82111   -82140   -73972   -59736   -33041     3861    35109 
   49144    43222    19311   -14704   -45802   -64558   -67196   -50279 
  -19337     6351     9383   -13517   -49345   -73812   -70553   -43806 
   -3409    41460    71252    77643    80401    96325   123109   150726 
  167294   163745   137436    93859    42715    -6137   -39855   -47196 
  -29996   -10401   -16570   -52692   -96440  -124171  -127988  -110250 
  -77025   -44678   -22211     1430    24458    35886    42389    48045 
   49698    50517    50439    49400    53757    60316    53479    27109 
   -5445   -23273   -16816     4828    27250    35916    20446    -8819 
  -33645   -50410   -65849   -84314   -99744  -102458   -90992   -76807 
  -75443   -84267   -87408   -82136   -77425   -78195   -86637  -102432 
 -117071  -123023  -116931   -95285   -65472   -42380   -27535   -13765 
    -971     9744    18655    20156    11356       13    -2125    10374 
   30846    49340    64024    81153   106057   132768   150661   155939 
  147024   123803    93799    66841    46032    30445    20831    15052 
   10435    10052    14958    23524    36172    51676    65296    67140 
   49358    21570     3385      133     3266     6039     -799   -26960 
  -66184  -105622  -140894  -171171  -193905  -202064  -183646  -132877 
  -66173   -13025    18343    41663    57083    50521    21561   -14590 
  -39222   -39521   -18057    14238    49412    78311    92336    87647 
   62877    30012    12189    20010    46428    75475    90999    88233 
   75042    57810    33225    -2889   -47158   -88373  -111725  -107694 
  -80300   -48682   -35692   -45073   -58816   -66287   -74524   -90489 
 -113981  -139184  -159483  -169585  -162275  -138347  -107992   -72721 
  -29949     9556    34980    53160    73136    89925    95193    86362 
   65592    40710    21019    11133     7691     5974    10671    25351 
   41519    51629    58779    68108    79256    88339    90601    83396 
   69153    54055    43811    36205    21965     3073    -6056    -2121 
    6274    12316     8720    -9697   -36271   -58126   -68341   -67338 
  -58726   -44657   -27174   -15185   -14391   -18923   -27140   -43058 
  -64452   -85645  -101841  -111499  -117221  -120253  -115503   -95907 
  -64938   -34041    -1063    46265    97625   127848   134008   127952 
  114857    93441    59457    15388   -25954   -49449   -45641   -19071 
   18026    59250    98500   120906   111224    69297    16178   -20709 
  -34628   -37349   -31934   -16069    -4902   -19566   -53638   -76692 
  -73634   -54936   -36417   -32249   -48003   -71468   -91160  -110841 
 -127858  -127401  -102616   -56159     1820    56014    93505   104010 
   88008    59581    34257    16545     -793   -20452   -39103   -57198 
  -72268   -75213   -61144   -38842   -23511   -21393   -22932   -14880 
   -4069    -8642   -30746   -58729   -79236   -87218   -89794   -90910 
  -81573   -50006    -1441    39815    59920    66994    65992    51609 
   26718     5861     2253    13584    26088    37645    52347    60220 
   51194    29017     1477   -25118   -46973   -65806   -78672   -71280 
  -38769     5406    46512    77294    98948   111654   103216    61768 
   -4706   -63921   -87092   -76963   -42448     8192    46164    55899 
   44992    11122   -41371   -87724  -107686   -98897   -71286   -37467 
  -12099    -2769    -2011    -5524   -13879   -20402   -17716    -6290 
    6157    16579    25543    24839     8538   -16823   -39227   -49869 
  -49750   -44335   -38283   -38833   -47502   -50811   -33946      399 
   32960    44410    33368    15359     3107     -880     2039    10607 
   22262    31786    36326    34597    24175     8256    -3513    -3348 
    7130    19967    30318    33269    22502      802   -22532   -41756 
  -55158   -63316   -65507   -58406   -40097   -12717    14361    32036 
   42472    49364    49850    40970    24498     7545    -6791   -25353 
  -51832   -77282   -87799   -80022   -66273   -60599   -67540   -80100 
  -83139   -66402   -31186     8278    32507    39629    41581    45140 
   56372    77286    97817   106683    93054    48853   -10219   -53183 
  -73214   -83060   -81653   -65761   -47041   -37826   -44143   -60604 
  -69801   -61155   -40788   -24608   -23613   -31648   -33275   -19624 
    8295    42510    71286    85261    81705    65871    50552    46713 
   49487    44565    31104    20119    14843     9614      191   -13926 
  -32232   -49887   -55397   -37848     3447    49379    71232    59071 
   22627   -21549   -50280   -50510   -29396     2980    32871    44552 
   39601    25575     6014    -9562   -17476   -23671   -29401   -32175 
  -29792   -24757   -24793   -31571   -39864   -44016   -39710   -27889 
  -18003   -19431   -29383   -39511   -46666   -48835   -43011   -30085 
  -17377   -13951   -19782   -27714   -32559   -26196    -4465    19057 
   28870    24141    13259     3726    -5906   -22700   -45422   -61902 
  -62195   -47965   -28043   -10701       51     5563     9164    13275 
