Origin Time       2016/04/16 01:25:00
Lat.              32.753
Long.             130.762
Depth. (km)       12
Mag.              7.3
Station Code      FKO004
Station Lat.      33.7388
Station Long.     131.0095
Station Height(m) 4
Record Time       2016/04/16 01:25:24
Sampling Freq(Hz) 100Hz
Duration Time(s)  262
Dir.              E-W
Scale Factor      3920(gal)/6182761
Max. Acc. (gal)   105.577
Last Correction   2016/04/16 01:25:24
Memo.             
[...]
   16841    20829    14344     3022    -3258    -5520    -9090   -12906 
  -12822    -8385    -4755    -7521   -16361   -24390   -22341    -9150 
    2553     3367      411      763     3838    14574    33340    42508 
   29676     3132   -27911   -55848   -63935   -51642   -38481   -24443 
   -2107    15084    20081    21726    27833    41687    52715    48898 
   33894    11949    -8439   -17580   -25254   -33944   -32906   -27600 
  -21754   -10540      975     9378    14447    11754     3003    -2279 
    2457    16126    30989    30905    13130     3719    14019    25991 
   29801    23838     3247   -30381   -63198   -76322   -72414   -70867 
  -68583   -47932    -3474    54959    94723    91615    73028    66506 
   52198    18988   -18341   -61496  -103903  -118782  -106423   -86739 
  -65916   -46207   -27217     6925    62290   113633   132626   116121 
   80274    45951    28335    19481      958   -24787   -52301   -81403 
  -95222   -80026   -48032   -19093    -2870    -1852    -7995      771 
   33930    65041    62399    35504    15187    11423    24928    47352 
   50845    26514    -4662   -24207   -30729   -36039   -43749   -47106 
  -47302   -43866   -32390   -16051      775    15023    24687    29401 
   27007    22385    25232    31177    25230    -1475   -42895   -78949 
  -89735   -72459   -40429    -4305    28202    46668    54865    66303 
   82129    90200    76677    40641    -3851   -40252   -60472   -66207 
  -64310   -64183   -63143   -48772   -25394    -1468    23085    34412 
   15669   -15958   -22361       84    22022    27035    15318     3156 
   12142    32953    43824    36824    10202   -20022   -32050   -24705 
   -7415     3780     1403     -740      129    -3909    -9587   -15508 
  -24554   -35252   -39190   -27236   -10872    -9651   -18953   -23827 
  -19549    -6880     8798    23183    36491    46500    58034    75598 
   82656    67523    38734     6653   -16669   -29763   -41984   -48764 
  -50642   -60660   -70042   -60858   -37444   -11525    11058    21411 
   13396    -1851    -4683     9035    30807    50510    50257    29714 
   13371     6523     2231    -2006   -16194   -36359   -43848   -33124 
  -13082     6137    19736    22825    16847    20532    43170    61712 
   52528    16995   -27798   -60402   -74196   -79500   -85702   -91140 
  -81767   -51175    -8841    32028    56842    57796    40042    18806 
   11256    23568    43787    46197    25310     4518    -3936    -3709 
    -508    -1027    -5733   -13287   -22291   -28252   -31118   -32611 
  -31003   -24607   -12652     2125    15214    28604    43568    52949 
   53848    48773    34588     7806   -26014   -51502   -57584   -48471 
  -28735     2861    36721    51281    39884    22040    14753    14848 
   17405    21140    17004     2367   -10508   -17586   -27597   -43152 
  -58851   -68261   -67044   -57787   -43116   -25449   -15092   -12602 
   -4800    12187    31112    41137    36767    29472    24816    12055 
    -754     -488      -79    -7417   -11790    -4607    10983    21097 
   20778    16058     7080    -2306    -5524    -9618   -19470   -24915 
  -18280    -4904     7874    19418    24933    15075    -2851    -9502 
    1278    19708    28096    16336     -233    -5610    -6811    -8079 
   -4472      957     5053     7311     2588    -7208    -7928     6893 
   20649     8943   -24375   -48530   -54744   -57075   -52117   -35378 
  -22254   -18469   -11565      477     5247     3289     7485    18963 
   31723    40207    38580    30314    21296    13199     8203     4011 
     240      612    -1143   -11829   -19210    -7132    17246    32064 
   24771     3671    -6773      270     8654    15371    18215     6682 
   -8481   -20246   -33260   -30431   -10098      568     -152      496 
    -816    -7058   -17837   -29710   -31673   -21583    -9112     -100 
    5615     8969     9868     7545     2641    -3884   -13026   -24846 
  -32298   -27367   -16140    -8627    -3264     2028     4612     3353 
    -650    -4409    -5189    -1078     6196     8173     3800     6068 
   18809    30630    36174    36153    28002    17119    12413     5990 
   -7322   -13970    -9757    -3166     1790     3925     4772     6668 
   12333    24873    35485    30974    12777    -7283   -19878   -27239 
  -33475   -32538   -26143   -24482   -26797   -27892   -24794   -15107 
   -2705     5233     7458     5590    -1214   -11287   -21448   -27403 
  -20752    -5651     2808     5409    10825    16614    15993     8405 
   -1828   -14523   -27001   -29401   -22171   -14308    -8687    -5925 
   -4157     1378     6887     6412     6126    13596    22362    20789 
    9460    -5131   -18825   -20272    -5445     9788    15725    15891 
   12818    12534    19803    26658    28754    25476     9246   -11882 
  -20604   -17195    -9480    -3301    -1763    -2578    -5086    -9358 
   -9876    -5031    -2118    -4194    -6893    -9896   -15494   -18652 
  -13640    -6118    -3608    -1042     8446    23211    36801    37376 
   21766     2429   -13291   -22697   -23569   -22012   -23323   -31457 
  -46785   -57097   -52613   -35010    -9767    16174    33856    36172 
   26174    16066    10436     3638    -3818    -9623   -15171   -15890 
   -8910     2289    15220    23654    16879       -5    -5177      823 
    1069     2861    13378    23243    30757    32563    22098     5450 
   -5121    -7404   -10530   -12645    -7728    -7390   -16745   -24137 
  -26062   -27405   -27541   -22289   -11587      899    14032    26740 
   31911    26271    18185     9644    -4197   -14394   -15167   -14482 
  -16784   -24204   -31996   -31294   -24321   -14887    -4756     1356 
    2913     4126     7707    14281    21558    22869    18811    18738 
   21401    20074    17549    16676    13480     4489    -5041    -8301 
   -8360    -9188   -10365   -11673   -10441    -5938    -3023    -5284 
  -12477   -18664   -15037     -780    15906    22797     8349   -20673 
  -39891   -43340   -39066   -25309   -11072    -9042   -14334   -18283 
  -11989     6506    25521    32251    19149    -2585   -10898   -10683 
  -17643   -24944   -23646   -16539    -9029    -3454     1525     4786 
    8722    17003    22862    23341    24483    23076    13578     6528 
    9346    10906     7698    10613    23231    37060    38720    24535 
    8800     3642     6923    14111    19524    16508     5840    -8499 
  -23617   -35127   -37986   -30609   -20700   -17818   -21261   -24101 
  -22084   -17385   -13797   -11168    -9364   -11366   -16495   -15770 
   -6324      955     1552     2926     5679     3691    -1817    -8035 
  -19416   -33530   -37613   -32472   -28080   -20430    -6133     7037 
   16643    22837    19650     8214     1002     1792     4722     9419 
   15154    18927    22336    27697    30925    25621    17119    12594 
    8466     7044    15503    27176    31289    29659    26242    16803 
    2585    -7635   -18156   -37754   -52217   -45414   -29576   -20812 
  -17736   -17188   -18463   -18027   -14734    -9431    -1307     8638 
   14807    11899     2861    -2106      574     3547     3136     1253 
   -2390    -7303   -13193   -18597   -18576   -14915   -12364    -7572 
     573     5995     9223    15290    19457    16361    10575     5949 
    2394    -1351    -6747   -10133    -9768   -11079   -15529   -15223 
   -2900    13696    22661    26242    28346    25980    15800      370 
   -9180   -11679   -14022   -12319    -7478    -4855     -517     3499 
    -916   -13694   -26190   -28654   -26023   -30441   -35801   -30528 
  -15432     3838    19217    25935    24295    17176    12119     6815 
   -2114    -5516    -7828   -17427   -23590   -20791   -17766   -20031 
  -22483   -14148     8679    35830    51565    48473    36292    26173 
   11990    -8152   -23434   -31569   -32497   -25252   -14218    -2495 
    6051    11912    20804    26761    20805    11184    11201    17956 
   20749    20913    21784    17668    10261     6925     5784     2103 
   -2002    -1510     1563     1966    -1239    -8005   -15637   -19599 
  -19255   -14272    -5907    -1409    -6017   -16568   -24800   -26236 
  -27685   -34697   -38498   -31684   -18527    -6190     -179      743 
    1879     3034     2036    -1644    -7479   -10913    -6772      818 
    1343    -6189   -15842   -23122   -20309    -9339    -2489      796 
    6406    16379    32492    45650    46600    39799    29461    19309 
   16180    19951    23905    19567     7586     1748     6989    13097 
   11626     3492    -3753    -6827   -10388   -14820   -14678    -8022 
      33     1116    -5093   -10577   -11753   -12147   -16601   -20645 
  -14043    -6314   -15500   -31904   -33316   -20026    -6486     4114 
   15857    22542    13645    -3811   -11064   -10527   -12504    -9331 
   -3829    -4831    -4232    -1657    -3636    -5734    -3678    -2341 
   -7498   -14243   -14855   -10339    -2221     9942    20164    20682 
   14188    10549    11207    14982    27360    40577    38937    25618 
   11840     2899      378     -260    -6416   -19921   -33476   -34719 
  -20575    -2974     8790    15856    16419     6618    -7987   -20167 
  -27294   -22503    -9278    -4096    -5320    -6127   -13308   -21621 
  -18329    -9433    -5425    -1305     7581    11906     4710    -5389 
   -6296      102     6691    10838     5433    -4806    -3426     4975 
   11628    17886    13038    -4023   -14283   -14880   -12958    -5698 
    6110    15206    14230     4372      193     5691     9559    10838 
   11306     5035    -5554   -14151   -18111   -12017     2862    15571 
   22853    26338    21562    10154     -282    -8696   -19164   -32778 
  -41255   -42105   -40922   -31396   -11324     6639    14430    10669 
   -2220   -14197   -14950    -6498     1238     5175     8458     9064 
    2625    -3888    -4624    -7563   -13687   -16430   -18028   -20325 
  -19096   -12263    -3817    -1513    -7382   -14366   -16109   -12333 
   -5697      126     2641     3045     2810      641    -3042    -4320 
     970    13290    22601    16240     -215    -8698    -6347    -5965 
   -9358    -5860     6683    18925    20333    13474    12784    20208 
   23741    18015     6800    -6435   -19728   -26119   -19358    -8039 
   -3135    -1842       26      573     -353     -254     1038      615 
   -5125   -15533   -21050   -16630   -12294   -10809    -4035     2187 
   -2847   -21052   -50476   -76891   -88172   -91853   -88325   -70206 
  -46794   -28201   -16977   -16534   -20227   -17886   -12475    -9287 
   -4735     2700     7785     9689     9701     5771     -827    -8211 
  -16035   -19807   -15881    -5479     9777    28537    45971    56504 
   64794    75461    76664    66451    60223    57186    48134    33444 
   17620     6650      420    -2380     -261     3373     8172    16141 
   25404    39804    61786    79716    83543    77533    69390    57309 
   34751     8723    -5320    -8352   -17003   -38539   -59809   -63753 
  -46864   -23685   -16526   -27060   -34854   -31686   -27508   -27031 
  -24486   -17104    -9173    -1938     7724    20616    31882    27259 
   -2427   -43788   -77732   -91935   -83000   -67507   -60343   -58379 
  -55812   -43156   -14709    20959    51219    64603    62535    62122 
   64176    49190    13331   -32903   -74640   -86033   -61093   -26368 
   -4162     6105    19447    46846    75885    87105    82553    65772 
   38318    25005    38123    56520    66100    69075    67210    58877 
   44489    26665     2461   -29033   -55113   -56345   -27635     3476 
    6602    -9104   -24216   -38906   -47989   -39761   -14163    13982 
   22546     9898    -9605   -33988   -63972   -90100   -96403   -83469 
  -73395   -72259   -73099   -74565   -74047   -72697   -71432   -64296 
  -46144   -15905    24096    62831    75411    50494    17433     3054 
   -3148    -8950    -6354     3341    15111    29208    43033    47086 
   38607    28607    23871    20810    17403    16191    19378    31563 
   55810    76422    69345    34218    -2459   -16730    -7676    12524 
   26587    17173    -6980   -20098   -23434   -28728   -33179   -41221 
  -48604   -32835     2835    27143    21824     -273   -14794   -14036 
   -2923    13907    21662     6102   -17538   -32644   -51447   -78354 
 -100434  -116277  -123370  -112653   -90288   -69917   -52837   -28427 
    3761    26370    28654    17307    10094    16689    19734    13136 
   22305    46664    58952    56683    49475    35430    17764    12748 
   28901    51640    60382    52025    38103    29270    27109    27947 
   34616    48088    50242    24351   -19473   -57804   -74687   -70959 
  -64375   -67964   -73164   -69153   -59202   -48912   -40878   -39471 
  -45647   -48334   -34588   -10240     8035    14963    16867    23021 
   39470    54577    45413    15191   -15935   -45200   -68367   -71701 
  -53788   -23430     9437    34769    45307    41419    31954    27796 
   37195    65150   101607   126492   136305   134950   123018   107247 
   87783    60420    36879    28380    21179    -1161   -29704   -48767 
  -55586   -55033   -56842   -66883   -80209   -89561   -89187   -76154 
  -53150   -30298   -20581   -21903   -21427   -17585    -9961     9260 
   29975    27226      743   -29251   -56349   -75159   -69773   -45229 
  -19959    -2410    -2754   -20101   -39774   -57167   -69177   -71769 
  -68823   -64588   -60578   -55478   -47567   -35512   -16955     5874 
   29255    50210    61281    61135    58867    59881    68665    88476 
  106508   108311    99092    96913   112488   137119   156417   165263 
  162256   146324   119756    86025    49156    16782    -3734   -11040 
   -8380      -33    11446    23098    26805    17595     3559    -9980 
  -30635   -57945   -78979   -82618   -63639   -30063    -4472    -5902 
  -34852   -76854  -110084  -118579  -107177   -86008   -57141   -28299 
   -8306     4384    12588    17230    22669    33003    43781    45320 
   39209    32215    18998     -983   -17842   -30955   -42550   -48412 
  -48019   -47168   -47602   -41815   -25316    -8052     -533     2689 
   14213    37482    60947    72666    77121    77705    70960    66573 
   69224    61469    26575   -31111   -84266  -108606  -103687   -76493 
  -33898     9116    36143    43802    41535    36861    28207    13743 
    1734    -8200   -36148   -79606  -107383  -110245  -105871  -106028 
 -110743  -116910  -119049  -113750   -98686   -69898   -35115    -8867 
   12870    42977    71185    77943    68804    58787    50220    44646 
   41751    35558    27112    23053    27846    38698    46237    46384 
   42038    37026    34684    38075    50527    69813    82658    77024 
   57657    35663    12867    -9783   -25938   -31045   -24057   -12672 
  -14756   -36026   -59767   -69902   -66639   -57739   -47936   -39632 
  -35859   -37639   -45601   -57045   -58804   -45835   -34482   -37207 
  -47453   -51921   -44808   -34746   -29272   -21481    -8478     -595 
   -4689   -15392   -21613   -16164     -821    15310    20605    10798 
     854    10204    31776    48960    66118    85698    96440    96868 
   93453    88121    79206    66252    57702    62523    76129    90555 
  103437   112903   118925   122653   121460   112475    93864    63694 
   27795     -710   -15941   -22344   -24465   -24646   -24510   -20500 
  -12184   -10014   -15637   -17361   -11798    -6655   -10635   -26568 
  -51001   -78807  -100806  -108555  -102037   -84496   -64114   -53993 
  -55912   -58380   -51952   -36010   -20859   -22284   -39490   -52522 
  -52110   -48951   -51829   -58490   -64915   -72018   -81791   -91056 
  -96431   -97740   -92092   -75789   -50117   -22582    -3422     7655 
   21152    35958    42979    47418    56929    67950    79312    89099 
   91106    89139    87608    83350    77854    75213    75516    74215 
   65032    52365    49535    56980    60795    54594    44855    38770 
   38327    42108    47361    50392    46838    32807     9322   -14131 
  -27092   -28127   -24990   -27378   -36969   -48646   -61781   -77091 
  -90798  -100599  -104267   -96161   -71187   -32656      728    13011 
   12896    13391    11319     3366    -9011   -25550   -42451   -60836 
  -81972   -91884   -81106   -60515   -44501   -36105   -30211   -22439 
  -13846    -9385   -10000   -10021    -4557     5626    15531    17896 
    9464     1407     6564    17080    20237    16911    14007    20447 
   34601    38070    23443     7781     6862    16941    28047    37994 
   48298    56716    60257    59449    52186    34688    11592    -9446 
  -27827   -42280   -45383   -39291   -39167   -48047   -54752   -55974 
  -51436   -36161   -13564     2909     5391     1257     -846    -2199 
     830    13676    24130    19040     8568     7064     9077     6442 
    1755    -2562    -5900    -9193   -10710    -7218    -7928   -17680 
  -22230   -13226     -388     4962     3264     -568    -6330    -8932 
   -2069     4719     -736   -15260   -27287   -24430    -7759     4361 
    9361    17695    23861    28065    39258    49061    50146    45150 
   30819    11621     1423     4377    15807    25359    24279    14796 
    2115    -9691   -19234   -30897   -43817   -50793   -50463   -43978 
  -30917   -13778     1820    10387    12751    11351     4537    -3791 
  -10633   -17621   -17729   -12171   -13862   -20862   -25765   -28789 
  -31910   -38000   -42742   -39483   -31634   -22686   -11323     1759 
   13514    21435    24132    19677    10897     3615    -2011    -2274 
    7776    23136    36139    38562    29578    20246    16478    18413 
   24113    29245    33235    34116    31523    30744    30647    25781 
   20230    24124    35024    40405    36935    27425    15109     7969 
   10472    19393    29841    35303    32374    25006    18844    17955 
   18446     9341    -8265   -22216   -27921   -27560   -28468   -39390 
  -53056   -59240   -63329   -68205   -69649   -66733   -60340   -54559 
  -50527   -41989   -28791   -18832   -15707   -18155   -25629   -36003 
  -44040   -45681   -39660   -26259    -9763     1663     5716     8128 
   10024     7289     2231     -735    -1692     2835    13957    19615 
   12707     4181     3042     6082    13282    22977    23472    15602 
   11402    11451    12373    16592    25802    37871    48146    52339 
   49121    39382    27132    17080     6966    -7386   -22582   -33842 
  -39907   -40501   -38526   -35555   -28243   -18791   -14211   -14703 
  -16731   -20449   -25108   -25133   -18438   -14062   -22243   -38470 
  -51346   -59542   -64847   -63823   -54108   -36485   -16415    -2902 
    2985     7445    12287    16385    21501    28910    36171    41354 
   44130    43727    43798    46523    44100    32930    21390    16264 
   14104    10268     8471    12372    19033    24569    26178    24308 
   22750    20592    14743     9226     7316     3173    -6935   -16668 
  -19844   -18057   -15772   -16365   -19450   -19370   -13586    -7849 
   -8218   -14055   -20405   -23731   -23304   -19873   -16123   -15688 
  -21697   -34568   -47758   -54873   -56634   -52443   -43731   -39458 
  -38245   -27249    -6403    10983    17770    14474     3355    -5116 
   -2629     4616    15073    27249    30245    30973    38059    36299 
   21600     9820     9000    16978    23955    22332    19924    24728 
   35454    47243    52577    49283    40489    23892     -684   -21035 
