Origin Time       2016/04/16 01:25:00
Lat.              32.753
Long.             130.762
Depth. (km)       12
Mag.              7.3
Station Code      FKO015
Station Lat.      33.1627
Station Long.     130.4052
Station Height(m) 3
Record Time       2016/04/16 01:25:15
Sampling Freq(Hz) 100Hz
Duration Time(s)  300
Dir.              N-S
Scale Factor      3920(gal)/6182761
Max. Acc. (gal)   161.588
Last Correction   2016/04/16 01:25:16
Memo.             
[...]
  -14077   -14080   -14083   -14080   -14081   -14082   -14077   -14075 
  -14080   -14079   -14074   -14079   -14086   -14084   -14082   -14080 
  -14076   -14075   -14078   -14076   -14075   -14082   -14086   -14082 
  -14076   -14070   -14071   -14082   -14090   -14086   -14079   -14076 
  -14073   -14065   -14066   -14076   -14083   -14086   -14084   -14074 
  -14071   -14079   -14074   -14058   -14059   -14064   -14051   -14043 
  -14047   -14028   -14009   -14016   -14010   -13975   -13940   -13937 
  -13964   -13977   -13934   -13840   -13815   -13910   -13946   -13841 
  -13724   -13705   -13794   -13838   -13775   -13802   -13923   -13942 
  -13897   -13922   -14005   -14056   -14035   -13974   -13980   -14067 
  -14134   -14330   -14593   -14596   -14520   -14392   -14219   -14580 
  -15171   -15071   -14475   -14184   -14489   -14924   -14919   -14541 
  -14053   -13800   -14028   -14269   -14278   -14239   -13977   -13292 
  -12685   -13028   -13893   -14083   -13724   -13540   -13801   -14108 
  -13658   -13001   -13330   -14098   -14263   -13815   -13430   -14407 
  -16153   -16100   -14675   -14025   -14014   -13944   -14155   -15117 
  -15962   -15817   -15320   -14663   -14008   -13638   -13108   -12880 
  -13750   -14976   -14377   -11867   -10420   -11100   -12690   -13888 
  -13515   -11788   -10024    -9755   -11561   -13910   -14657   -13401 
  -12406   -13044   -13631   -13195   -12963   -14014   -14768   -13392 
  -11857   -12605   -14859   -15807   -14335   -12897   -12944   -13341 
  -13069   -11785   -11079   -12301   -13955   -15595   -17164   -16087 
  -12752   -11179   -12426   -15122   -17516   -17198   -14912   -14104 
  -15343   -16658   -17483   -18277   -18214   -17385   -17579   -18425 
  -18208   -16824   -15371   -14550   -13907   -13881   -14420   -13843 
  -13396   -13738   -12724   -12608   -15229   -15896   -12173    -8641 
   -9890   -13858   -15512   -14730   -14234   -13749   -12580   -12337 
  -13339   -14300   -15007   -15557   -15384   -14297   -13008   -11417 
  -10295   -13111   -18842   -20345   -16284   -14016   -15853   -16206 
  -14094   -13210   -13487   -12656   -10904   -10264   -10902   -10327 
   -8038    -7853   -11090   -13447   -12484    -9400    -7123    -8065 
   -9166    -8877    -9606    -9144    -5928    -3641    -4939    -8986 
  -13820   -17431   -17870   -16532   -15936   -16427   -18300   -19734 
  -19517   -19046   -18795   -21535   -27397   -30168   -28154   -25291 
  -24445   -25408   -25775   -24175   -20846   -16157   -11074    -7192 
   -4660    -1912     1600     4831     5818     2629    -1533    -1007 
    1059      -78     -741     -821    -4202    -7618    -6936    -5369 
   -7798   -11056   -12383   -16537   -22221   -26133   -30514   -32527 
  -28233   -22752   -21214   -20097   -17565   -15345   -13721   -14370 
  -14188   -11619   -12260   -14005   -13130   -14053   -17944   -19228 
  -15243   -10996   -11828   -16447   -21344   -25930   -30588   -34976 
  -37214   -35427   -32066   -28842   -22509   -13076    -6452    -4778 
   -2459     1743     1727    -2932    -7227    -7400    -4007    -3564 
   -8070   -10787    -8725    -6281    -4863    -3257    -5394   -10241 
  -12347   -15600   -21528   -25090   -24902   -21471   -17904   -15118 
  -11284    -8923    -7400    -5331    -4522    -4104    -5837    -9704 
  -11316   -10573    -8840    -9943   -14519   -15241   -12658   -12607 
  -15606   -19254   -19531   -16903   -14724   -13390   -12883   -12105 
  -10561    -9530    -8652    -6155    -1522     1628     -906    -7770 
  -16114   -24974   -30214   -27417   -19582   -16754   -23141   -26260 
  -19238   -13843   -15500   -18534   -21157   -25270   -28893   -28945 
  -28998   -32040   -34421   -33450   -32301   -34379   -36176   -35353 
  -34005   -30404   -23971   -17909   -13882    -9237     -432     8032 
   11521    13750    18038    22471    22435    18059    13213     8500 
    5789     5138     2718       42     -317      438      610     -429 
   -1570    -6075   -17920   -30119   -36196   -40327   -41858   -35130 
  -23411    -8911     5612     8295      528    -5179    -7403    -8613 
  -11206   -19998   -31789   -38489   -41033   -42845   -41509   -38548 
  -37003   -32552   -23277   -14641   -13524   -19832   -23739   -21722 
  -18954   -16607   -16290   -17919   -14079    -3369     5748     6707 
    -721   -12700   -21649   -22186   -19711   -20195   -19251   -12783 
   -4077     1457     1671      626     1314     -351    -4437    -4425 
    -396      573    -5184   -12478   -13870   -11374    -9354    -4524 
    2203     3696     -195    -7140   -15822   -22251   -30648   -45493 
  -53425   -45089   -30804   -20973   -16444   -10568     -311     5810 
    5691     4257       61    -4361    -2691     1249      769    -1936 
   -4951   -10605   -13161   -10627   -15930   -29638   -38972   -43815 
  -45204   -39079   -31644   -27437   -20822   -11577    -5035    -1367 
    1667     5652    10780    12664     8834     3197    -1314    -4398 
   -4083    -1129      820     2120     -158   -11131   -26273   -40484 
  -55328   -68890   -72030   -64089   -56063   -48178   -37672   -29008 
  -19796   -13028   -11432    -4912     5286    10902    13828    18635 
   25280    29777    32377    34594    33445    29525    25455    22384 
   23529    24906    15367    -3420   -18937   -25866   -26204   -24587 
  -23075   -18467   -15520   -20594   -25259   -23835   -23539   -29359 
  -37278   -38646   -29817   -16787    -8246    -7693   -11230   -13464 
  -17755   -27243   -31734   -25300   -17170   -15519   -21426   -33705 
  -45548   -47474   -40889   -33891   -30860   -32039   -30436   -21238 
   -8438     3900     9730     8424     9356    11908    10266     7201 
    1261    -9004   -14252   -13961   -20142   -33101   -40837   -38131 
  -31532   -27312   -25114   -26863   -31655   -34295   -35985   -30722 
  -18037   -16350   -21961   -14875     5083    26673    37291    32727 
   22233    13486     7901     5571     5033     1887    -9114   -25887 
  -36727   -34356   -24522   -19373   -24519   -28057   -22751   -22681 
  -31368   -37062   -37264   -35963   -34181   -28329   -19987   -19227 
  -25527   -26849   -22776   -22480   -23860   -25048   -33410   -44773 
  -49068   -48602   -48752   -44359   -28984   -10154     5297    19373 
   24712    15721     3628    -3574   -10733   -21648   -33048   -41413 
  -47078   -50174   -45675   -36048   -33780   -35262   -33766   -33910 
  -30304   -25157   -28223   -29305   -22786   -16883   -16079   -18272 
  -12660    -2127     -682    -4111    -7365    -9625    -5979      331 
    5591     8549    10819    17363    20984    18298    17588    16015 
    7567    -6688   -20594   -26459   -25841   -21628   -14662    -8113 
   -3993    -8629   -21429   -29815   -31115   -33610   -44456   -61669 
  -75988   -83631   -83509   -74649   -61484   -45999   -25264    -1008 
   17323    21013    13553     3439    -6459   -16580   -30721   -44858 
  -49578   -49771   -48150   -36594   -18008    -3575     2327     2525 
    4244    12532    20800    18202     6849     -387      319     2070 
    3211     5201     6143     3995    -3064   -11353   -13885   -15384 
  -25117   -37602   -41477   -38985   -38585   -38070   -34039   -29805 
  -25908   -21582   -15215    -7277    -4693    -7623    -9189    -5994 
    1005     7524    13368    20473    23971    23034    21769    19989 
   20672    22471    18416    13481    10548     4749     -608    -4756 
  -11185   -18538   -29521   -45574   -57066   -58170   -54683   -49191 
  -40580   -31298   -20978   -11771    -9551   -11115    -8351     -329 
    7549    14815    23807    29114    27761    26518    26227    21376 
   14226     1143   -25365   -50265   -62988   -78563  -101249  -117385 
 -120018  -113875  -104380   -92748   -82373   -72179   -55531   -37751 
  -26975   -19365   -11285    -3802     1099     2324     5419    13073 
   18625    22641    30814    37281    36796    33946    31092    29828 
   27478    18630    11687     7873    -4231   -18118   -22827   -21844 
  -19790   -16807   -11133    -3255     2444     3160    -2949   -13270 
  -14597    -7732   -13486   -28693   -37063   -41767   -41264   -37829 
  -42009   -50261   -61240   -65545   -54320   -46136   -44750   -39289 
  -35619   -36986   -40685   -41733   -33380   -19991    -6504    11029 
   33186    55331    73242    83748    90285    97438    98078    86337 
   66026    39411    10102   -13455   -25216   -29137   -36908   -50047 
  -60096   -65072   -69391   -73952   -73572   -69175   -63842   -52296 
  -36009   -20290    -5904     2504     6157     9384     8161     7216 
   14579    21231    19072    12070     3526    -4311    -9816   -15452 
  -22671   -26578   -21029    -9048     4529    21662    38647    48887 
   53134    52864    50608    48944    45309    40021    35149    21596 
   -4818   -25398   -33007   -44517   -59992   -65826   -63781   -62789 
  -65762   -69312   -66940   -59963   -55850   -50843   -42598   -36658 
  -27270   -13519    -5980    -8038   -15653   -22023   -26597   -32690 
  -38928   -44947   -53060   -64511   -76309   -83283   -82857   -77366 
  -68143   -54016   -44106   -44011   -43529   -39526   -36212   -33628 
  -33047   -34674   -38157   -39436   -27335    -6168    11267    26750 
   39597    47093    54342    62175    66365    63246    53444    38253 
   17507    -2349   -12223   -10060    -3284     -564     1759    11493 
   22840    24282    14164    -1912   -19265   -36369   -50582   -58613 
  -63793   -68420   -65519   -49684   -29595   -22104   -23726   -13553 
    5994    18757    26421    33675    38014    37829    32838    30845 
   38053    43620    39667    32808    30908    31904    23074     3863 
  -12688   -24863   -36462   -49079   -64003   -74402   -76232   -75362 
  -71490   -57543   -34837   -18286   -17073   -19256   -13677    -4402 
    4081    14550    28189    36768    33728    30339    41207    55872 
   55650    47215    43099    36532    20247    -3162   -31889   -63087 
  -94056  -126322  -154654  -168171  -169993  -170780  -162778  -138766 
 -116304  -102211   -83801   -64002   -47175   -24511     2430    24835 
   42574    60465    79454    98009   116080   130980   138116   129941 
  106807    86275    71939    49961    20519    -6166   -24015   -32224 
  -33585   -29982   -22775   -11792     2604    11286     9251     6427 
    6334      766    -8909   -12342    -7602    -1931    -1290     -498 
    8774    18571    22557    27045    26166    13212     -787    -8754 
  -16149   -23144   -30224   -45087   -62609   -69872   -64486   -53058 
  -46426   -47316   -49035   -51625   -57313   -59000   -53136   -44762 
  -34691   -19936     3163    31749    52722    62447    68169    70454 
   59925    32469     5205   -12237   -36773   -66873   -77778   -63715 
  -34763    -9972   -10303   -21997   -25724   -37295   -56568   -63327 
  -64630   -66500   -63380   -62168   -56994   -44530   -46743   -56992 
  -51089   -33166    -4596    32946    61561    78864    87145    80922 
   67220    52615    34796    13880    -9324   -36072   -62410   -73375 
  -73096   -80375   -85570   -85053   -83436   -60276   -18896    16879 
   39177    47651    50543    45989    31451    23844    26311    23817 
   15566    19686    37850    52690    62505    72106    77611    75107 
   64476    48277    28053     1660   -32166   -63530   -83879   -97714 
 -111572  -134680  -161373  -172835  -179893  -196748  -209560  -210952 
 -206880  -199796  -187576  -169362  -148617  -125957  -101033   -77742 
  -56755   -33547   -12480    -5055    -7820    -5294    10758    34286 
   54561    70827    86593   100937   107338    99637    88574    88897 
   96221   100965   104911   113918   120755   110944    89775    71274 
   50393    19815    -7179   -18860   -23467   -23827   -12535     5666 
   21763    34660    44995    53072    60914    65357    54648    32944 
   20665    18717    21388    31601    40484    43816    50333    59580 
   65912    68686    71325    72243    58000    20969   -20551   -44901 
  -68277  -110586  -147836  -168977  -194526  -214238  -214836  -213498 
 -213218  -209004  -207314  -204019  -195622  -187238  -174157  -152707 
 -125611   -94584   -71819   -61577   -41284     -338    42536    74576 
  100958   124938   143851   151888   138539   102683    56905    14731 
  -17748   -41676   -56794   -67851   -79809   -83710   -79724   -72420 
  -59651   -57110   -71161   -86738   -96830   -93914   -82166   -77074 
  -72189   -64322   -66043   -71112   -76028   -94535  -112928  -114410 
 -113488  -116302  -120290  -127611  -127840  -116398  -106245   -98225 
  -81045   -59969   -42155   -21178    -1797    11893    27516    40545 
   51037    70232    95857   118867   135300   144321   146214   143447 
  138123   125006   100661    66589    25434    -2839    -4813    -5833 
  -20281   -27442   -18011     -327    21836    49714    83529   117749 
  147438   175151   198665   209907   208183   191537   156809   117050 
   84290    54018    22340   -13225   -49851   -74420   -90663  -108090 
 -116332  -113600  -108589   -99791   -93913  -101335  -112373  -114025 
 -103383   -82489   -65122   -62065   -66345   -68992   -60883   -42944 
  -28209   -14081     4171    17578    20833    19487    18489    10220 
   -7411   -27152   -48408   -70151   -92801  -113971  -120599  -107257 
  -78996   -40740     1884    43315    80525   112037   136355   149045 
  142934   111687    54284   -11137   -60426  -100421  -144014  -180158 
 -209368  -240542  -262569  -268957  -261851  -237586  -203954  -175946 
 -155963  -141022  -129234  -115012   -96609   -82879   -80331   -84321 
  -81488   -61446   -31265     1217    35836    64639    86488   105472 
  115145   118536   123756   128982   132238   132537   134372   140692 
  141779   135482   127821   118670   108722    96318    83057    80381 
   87264    94449   101070   102111    90896    77045    73618    74762 
   74331    80204    90211    89536    66326    22321   -21198   -48762 
  -65532   -70804   -55129   -24680     6369    32815    48828    47189 
   31959    12782    -8218   -30296   -47135   -59613   -72298   -80631 
  -83693   -83797   -78671   -71190   -60760   -41879   -19776     -676 
   16015    30307    38192    31618    12158    -7397   -27144   -52362 
  -69919   -71122   -72040   -84006   -95675   -99461  -101908  -104039 
  -99543   -85744   -66849   -48052   -25727     6688    46841    82733 
   99663    94977    82034    69509    50573    20392   -13488   -45987 
  -76987   -95572   -98986  -106390  -124685  -144537  -158544  -160591 
 -150314  -127079   -92457   -57007   -23035     9132    34165    53724 
   65245    67695    73158    80288    78624    75087    75934    78084 
   84215    94439   102962   109076   114115   113411    98975    65578 
   13293   -42601   -78753   -97255  -117258  -134280  -137796  -138399 
 -138595  -132591  -123786  -109015   -88753   -70261   -50308   -26655 
    1871    31022    42101    42099    50549    50186    40321    45705 
   56566    65139    74487    73963    71438    68063    53023    40151 
   35499    31202    27759    24925    22606    20256    16257    14402 
   15665    13661     1013   -19206   -32968   -38356   -42668   -48349 
  -64006   -87346  -102225  -113846  -128619  -138988  -150861  -163956 
 -167610  -167615  -165144  -151427  -130520  -109906   -92388   -80473 
  -68037   -45321   -15013    15652    45320    72392    93316   107152 
  116789   125428   131131   129327   118604    97945    66264    28378 
   -7455   -38983   -67967   -88156   -88325   -66088   -30946      -13 
   18649    33867    42828    36319    27403    18130    -2595   -22942 
  -39408   -61995   -82648   -95452  -103232  -106046  -107744  -106957 
  -97431   -82241   -69633   -66689   -76134   -91967  -104185  -111306 
 -119447  -126922  -127594  -123350  -117345  -109731  -101757   -92517 
  -80653   -65131   -43560   -19381     3915    27204    44537    50140 
   48055    40959    26577     3930   -28906   -67628   -91909   -87638 
  -67554   -49720   -32989   -10061    11892    24601    37271    58237 
   78910    94584   110193   125495   141513   159956   173165   177688 
  181209   187514   190311   183887   172846   162794   152152   138460 
  123922   117386   114227    95202    60695    20736   -17697   -42177 
  -57449   -75730   -90367   -98449  -106137  -113789  -123707  -134686 
 -138867  -141766  -150666  -151815  -137142  -120878  -108248   -90555 
  -66938   -42854   -22890    -8553     4593    19100    31640    40156 
   41149    31593    17270     3448    -9987   -20348   -25245   -27029 
  -27750   -30821   -41904   -58652   -73842   -88141  -105568  -121266 
 -123539  -116685  -115974  -114096  -103623   -96960   -95799   -95849 
 -100525  -107983  -113002  -113535  -105286   -88502   -74536   -65173 
  -53110   -38878   -22618    -6150     5305    13325    20070    24431 
   25844    21797    11822     3376      221    -2496    -7533   -15583 
  -22512   -21627   -19261   -23482   -30263   -37179   -45199   -50601 
  -50780   -46841   -39433   -27191    -9054    13067    35298    52703 
   61569    62592    58480    52778    54063    65329    76892    84277 
   90615    99363   111509   115131   105082    98935    93829    67443 
   34660    16557      393   -19201   -36537   -52342   -66570   -79099 
  -82219   -72065   -58556   -45282   -30609   -16403     -306    17830 
   29853    36378    39631    31098    16351     8045     -148   -15105 
  -31467   -41863   -41074   -32489   -22464    -9495     2583     3090 
  -10546   -33343   -55602   -72253   -90046  -110679  -129754  -151599 
 -174725  -187170  -189765  -191266  -190694  -180705  -156080  -117647 
  -72533   -32426    -3334    21396    46345    67412    85220   102142 
  115777   126777   135982   144616   155762   164228   163751   157948 
  154363   155466   156057   148796   133926   122923   119809   112916 
  102318    97444    88912    69848    51561    34802    17649     8721 
    5778     5786    12201    17312    14281     2434   -18735   -41860 
  -63298   -83921   -98986  -111249  -124176  -131842  -134598  -136748 
 -135923  -130252  -122030  -112420   -99135   -79198   -53995   -31484 
  -18906   -14898   -15466   -20609   -31571   -46226   -59562   -71933 
  -85671   -95037   -94224   -84818   -71974   -60411   -50447   -38035 
  -22787   -12304   -10820   -13772   -18131   -23442   -28917   -36838 
  -47731   -55483   -56700   -55920   -55802   -54467   -51503   -45758 
  -36930   -29801   -27534   -29410   -32905   -34888   -34839   -33703 
  -33812   -34139   -29397   -22830   -20213   -18719   -16302   -13604 
   -8695     -264     9851    17926    23327    28747    32345    30469 
   24043    16477    13440    17067    23405    31281    38527    42415 
   48428    58068    65232    68800    68690    65212    63219    63508 
   65405    69623    71437    70818    75423    85577    93137    90880 
   82050    77511    76416    67746    48604    19781   -16539   -46082 
  -61878   -77235   -95236  -105466  -110503  -116016  -116308  -111035 
 -107791  -104194   -95817   -90482   -90009   -85152   -75841   -67459 
  -61062   -56259   -51196   -46601   -45297   -46736   -49871   -52917 
  -52902   -50692   -48618   -47201   -48931   -55934   -64528   -69928 
  -72240   -74031   -75299   -73408   -66276   -52155   -30814    -8725 
