Origin Time       2016/04/16 01:25:00
Lat.              32.753
Long.             130.762
Depth. (km)       12
Mag.              7.3
Station Code      FKO011
Station Lat.      33.3235
Station Long.     130.5115
Station Height(m) 8
Record Time       2016/04/16 01:25:17
Sampling Freq(Hz) 100Hz
Duration Time(s)  121
Dir.              E-W
Scale Factor      3920(gal)/6182761
Max. Acc. (gal)   122.564
Last Correction   2016/04/16 01:25:17
Memo.             
[...]
   17446    17437    17429    17433    17434    17418    17408    17424 
   17430    17410    17395    17402    17413    17414    17412    17417 
   17421    17416    17408    17416    17434    17434    17424    17426 
   17428    17426    17428    17434    17445    17441    17420    17407 
   17402    17404    17420    17430    17428    17427    17426    17425 
   17424    17407    17390    17397    17416    17435    17438    17414 
   17395    17402    17423    17433    17423    17405    17406    17423 
   17436    17448    17462    17459    17442    17428    17422    17418 
   17407    17396    17400    17408    17390    17372    17401    17450 
   17464    17448    17435    17426    17409    17414    17436    17431 
   17415    17416    17419    17418    17403    17386    17413    17452 
   17445    17414    17403    17408    17403    17402    17420    17425 
   17420    17431    17436    17433    17442    17450    17441    17411 
   17379    17395    17438    17441    17419    17396    17386    17406 
   17421    17409    17398    17404    17435    17470    17455    17404 
   17386    17423    17458    17443    17411    17406    17425    17441 
   17432    17412    17412    17419    17418    17421    17416    17402 
   17416    17438    17419    17396    17417    17441    17429    17418 
   17433    17453    17440    17405    17395    17407    17406    17417 
   17460    17473    17429    17395    17405    17408    17392    17400 
   17416    17411    17418    17449    17457    17427    17391    17371 
   17383    17417    17450    17471    17463    17430    17411    17410 
   17404    17409    17425    17425    17414    17424    17455    17477 
   17460    17412    17377    17376    17387    17391    17392    17406 
   17442    17463    17448    17420    17385    17373    17401    17430 
   17443    17460    17470    17462    17439    17416    17404    17395 
   17394    17422    17451    17444    17418    17397    17386    17397 
   17422    17428    17418    17405    17388    17390    17414    17447 
   17468    17450    17421    17434    17450    17421    17386    17381 
   17398    17411    17418    17429    17438    17450    17455    17443 
   17432    17415    17392    17394    17408    17420    17438    17447 
   17438    17417    17403    17421    17429    17399    17389    17410 
   17420    17419    17424    17436    17429    17400    17397    17422 
   17424    17417    17437    17456    17445    17424    17421    17429 
   17423    17410    17413    17422    17409    17402    17425    17439 
   17446    17468    17480    17469    17454    17461    17484    17473 
   17423    17394    17409    17446    17484    17519    17568    17598 
   17529    17373    17226    17150    17154    17206    17262    17306 
   17303    17211    17084    17057    17197    17367    17353    17116 
   16766    16417    16144    15961    15892    16026    16373    16821 
   17233    17479    17446    17095    16618    16448    16802    17409 
   17881    18179    18403    18303    17670    16873    16534    17190 
   18898    20664    21148    20101    18580    17754    18088    19661 
   21918    23204    22174    19500    17148    16250    16570    17532 
   18319    18037    17023    16195    15592    15376    16190    17696 
   18722    18223    15872    13105    12287    13949    16408    17978 
   17985    16208    13441    12014    13523    17048    20404    21656 
   20674    19578    19408    18761    17333    16515    16541    16675 
   16920    17337    17035    15401    13454    12767    13623    14916 
   15703    15944    15674    15062    15149    16681    18581    19739 
   20863    22111    22240    21362    20838    21353    22477    22647 
   21290    20374    20808    20444    17841    14295    11523    10518 
   12120    15559    17751    16886    14255    11803    11253    13400 
   16043    16348    15210    15522    17371    19059    20894    23055 
   23572    22423    21863    21863    20917    19325    17832    16232 
   14843    13929    12438    10248     9011     8652     7521     6787 
    8710    12251    15613    19152    22995    25468    25101    22914 
   21688    22872    24932    25306    23788    22329    21820    21338 
   20060    19034    20118    22518    23821    24345    25511    25841 
   22800    16673    10460     6646     5721     7308    10640    14507 
   17144    16938    14918    14011    15489    18346    20356    20250 
   19191    18462    18768    20344    21103    18907    14225     8795 
    5298     5510     8131    11520    15038    17800    19075    18552 
   16657    14260    11861     9858     7760     5690     6701    12551 
   20723    28072    32265    30944    24705    18511    16470    18401 
   22192    25646    27725    29337    30477    28902    23709    16782 
    9670     3157      586     5274    14484    22179    24868    23069 
   21142    22089    23310    21946    18441    14361    11760    12408 
   16239    21675    27089    30531    28513    19589     7190    -4435 
  -12035   -12823    -6788     3295    14030    22773    27728    27145 
   21894    17049    16681    20394    25906    31527    35746    36355 
   32934    27668    20532    11013     3635     1401      660     -895 
   -1344      738     6368    15908    26962    36279    41084    39867 
   33533    24108    15896    14171    18482    23675    25765    24049 
   20857    18208    16319    15293    14798    14991    17018    19907 
   20400    16743    11302     8636    10497    14511    16952    15408 
    9921     1962    -5466    -7058      558    15165    30847    40617 
   40409    32833    24805    21098    20973    22228    24707    27284 
   27170    22795    15023     7217     2865     2377     3506     4289 
    4007     1608    -2661    -4468     -715     4979     8466    11207 
   15779    20688    21666    16355     8499     5603    11024    23380 
   40356    56314    64366    61981    50077    34556    24208    21097 
   21325    21060    17644    10614     1657    -6273   -11019   -12997 
  -12018    -6555     3237    15643    25547    25196    15293     7951 
   13978    33004    54864    68336    68130    55076    35651    19111 
   10200     7586     7292     4006    -5027   -16146   -23712   -25009 
  -21462   -18184   -17042   -13561    -5525     5051    17566    30675 
   41121    47500    48988    46499    44923    46162    46308    41733 
   32736    23683    18641    16922    15549    11987     5657    -1786 
   -9184   -13247    -8560     3088    14474    22895    28555    30417 
   28262    24743    24883    30266    34871    33137    27274    22144 
   18272    13860    11632    14206    15357     9476     2640     3623 
   11116    17578    20548    22309    25609    32603    41128    47769 
   51221    47559    36757    28754    29504    32514    30338    23887 
   15018     1380   -14614   -27029   -34817   -36936   -33027   -27568 
  -21592   -14171    -8908    -6251    -2423     3459     9910    14228 
   15463    17298    20350    20581    18692    19421    24647    32435 
   38976    43191    46223    42699    25863     2217   -14333   -17921 
  -10978     2529    16593    22743    18787    11779     9058    13683 
   24445    36374    44923    48089    46909    44977    44492    46725 
   52576    57882    56503    46987    31502    15381     5478     3541 
    7276    14923    22505    23545    16035     5438    -2457    -7313 
   -9126    -6532    -1900     2407     7537    12490    15464    19686 
   27022    31789    31009    29601    28175    20379     5849    -6096 
   -9078    -7498    -6059    -3164      127    -1271    -7417   -11392 
   -6236     6844    20501    31146    38756    43606    48382    54807 
   61169    63860    58967    47663    35375    26501    23049    21296 
   15994     9372     6600     8685    14143    22334    31828    35926 
   29719    18522     9167     6661    16421    33504    46174    53095 
   59117    60941    49204    25383     4103    -8034   -15870   -21993 
  -26857   -27431   -20478   -15540   -21931   -31713   -32422   -20826 
   -2877    12489    20797    20362    12705     8649    16884    31178 
   40661    40240    30343    16822     7466     6331    12781    23589 
   34463    39484    33635    19584     5293    -3295    -1034    12231 
   25118    26631    17777     5240    -7402   -18084   -20617   -11938 
     352    12053    28084    45522    53992    52745    50092    52189 
   58849    66081    70224    67579    57128    45414    38522    35349 
   33258    30387    23720    10386    -7192   -20635   -26669   -29456 
  -26377    -9444    15991    34214    39714    37812    32135    24023 
   15987    10252     8884    11485    11351     2080   -13252   -25426 
  -29295   -26734   -20997   -12372    -1196     7297     9706    12510 
   20984    33397    50756    72213    87789    88272    74874    55200 
   34442    16559     5229    -1818    -8173   -13978   -18894   -20065 
  -15804   -10479    -6350    -2215     2193     9064    20302    33314 
   42875    45765    44835    43552    40849    37598    37786    43549 
   53452    59610    54555    42377    30567    22400    20930    22505 
   17529     4982   -11140   -27361   -36002   -34175   -26167   -12029 
    7563    25743    37629    43802    47633    48745    43291    36459 
   35837    36582    30903    15614    -7651   -28092   -36499   -34885 
  -27297   -16779   -10321   -12042   -16058   -15712    -9320     5036 
   24512    37279    35620    25127    14839     6963     1304     -816 
    -338     1043     4540    10674    16029    18839    23658    35844 
   53796    67833    69255    57945    37244    12928    -3187    -4244 
    2993    10612    19187    27317    26697    16644     7869     8515 
   19807    37608    51671    54960    49780    40120    28588    19872 
   18900    24189    27193    22678    15276    12394    15333    20528 
   25470    27695    23942    15217     4493    -7518   -17157   -19410 
  -14717    -4014    12330    26506    28295    18485     8005     4862 
    8367    14079    18176    17994    13285     7054     1880    -1389 
    -538     4778    10748    14704    14641     8754     1619     2026 
   14703    35152    51666    58999    61655    60535    53334    43727 
   39792    46705    57878    60406    53639    47087    44646    42499 
   36104    27589    21124    12355    -1084   -10646   -11264    -6324 
     793     7309    10685     9996     4333    -4532    -9846    -7582 
   -1025     5030     7874     6235      527    -4495    -1959     6851 
   14469    19191    23161    26084    26147    21798    14795     9477 
    6366     4000     4175     5517      275   -14440   -31603   -41944 
  -40138   -25506     -900    26094    45141    52799    53407    51262 
   51670    59810    71170    74145    65141    52055    40845    30796 
   25541    32400    46156    50729    42868    32686    21502     6414 
   -5591    -8834    -6605    -2771      141    -2108   -11919   -25393 
  -34504   -34091   -25261   -10003    11036    31887    42121    39488 
   33613    32877    37109    42603    44893    42260    37962    34836 
   33264    31719    27056    19572    13479    11558    13206    13946 
    9073      727    -5952    -9753    -8547      581    14694    30304 
   45682    54028    49862    38863    32141    35942    46460    53982 
   53459    44761    28535    11286     4324    10099    18384    20042 
   14574     4571    -4829    -7778    -5730    -2646     2654    10061 
   14948    13481     4975    -6287   -12239    -8567     2729    17835 
   31985    38229    33603    23449    14767    11650    13776    14152 
    7158    -3429    -9846    -8478    -2698     1707     2377    -1632 
  -10326   -18502   -19280   -10730     4971    23578    40705    54408 
   62626    64345    64580    68106    72972    75576    74966    71281 
   63198    50146    37252    29377    24350    20552    17964    11122 
   -2477   -13432   -12172    -1547    10321    18461    17012     2356 
  -19095   -35583   -37690   -26518   -16172   -15927   -21175   -27433 
  -32942   -34177   -30469   -21998    -8077     7683    19209    23079 
   20796    17864    18415    22528    27898    30915    30099    28346 
   27362    26606    28655    34972    42944    53085    66226    76492 
   77525    70430    63435    63057    66473    69165    70537    66818 
   55350    42700    35317    33662    37448    45045    52267    56005 
   57333    59500    61417    60547    59605    60465    60106    55817 
   47056    36512    29810    28696    29044    27663    24507    18761 
    9479    -1416   -11353   -19841   -27728   -36129   -44142   -48336 
  -48948   -51346   -57239   -62847   -66453   -68917   -68518   -62073 
  -49022   -31168   -11554     5405    15731    18351    15631    11842 
   10977    16233    29179    47785    66917    80579    85231    82719 
   77501    72069    67219    63735    62323    63507    67834    74761 
   81328    84444    83438    78672    71509    64836    60751    60223 
   62359    63502    62131    59103    52516    40633    25839    14659 
   13577    19374    23494    23881    19943     8480   -10177   -31484 
  -49699   -61570   -67777   -68496   -65166   -65569   -76000   -92558 
 -107250  -116983  -123030  -126667  -127885  -125326  -118209  -109495 
 -102765   -98297   -95075   -91047   -83354   -71640   -57516   -43076 
  -30698   -21193   -13441    -4470     9631    30096    55047    81405 
  105572   124085   133248   133230   132374   138564   151387   167143 
  183866   199316   208973   210709   206354   195651   178892   160905 
  142126   119228    97496    85890    83643    82970    79422    72734 
   61992    47408    32895    21838    14427     9415     5924     3418 
    -336    -7524   -16729   -25114   -29479   -27344   -22411   -20483 
  -21205   -22118   -23927   -27521   -31592   -33374   -30198   -22520 
  -13796    -8005   -10390   -24547   -46390   -67634   -83036   -90475 
  -90218   -85019   -76216   -62927   -45710   -25825    -4553    14325 
   28330    41170    57896    79066   102527   125522   143034   149337 
  143147   129373   116540   110397   107242    98414    81507    60168 
   37479    15656    -3909   -21117   -35222   -45440   -51725   -54272 
  -54378   -53979   -53721   -52316   -49066   -46546   -48200   -54523 
  -62840   -69315   -71578   -69749   -64146   -54416   -42218   -30426 
  -19380    -8019     3658    15760    28478    41094    53647    66011 
   74816    76880    74597    72952    72685    69021    56375    34051 
    7933   -13208   -24043   -25109   -18259    -4184    13999    29743 
   36142    30062    16130     3713    -1972    -1752     2812    11745 
   24393    36912    43926    43658    38686    32647    28953    29181 
   32089    36177    40303    43162    44916    47367    52401    59668 
   66779    73224    79183    82234    81719    80212    76592    65563 
   45387    21398     1848    -7643    -5808     3309    11688    13934 
    9077    -2208   -16004   -26191   -30780   -32307   -32353   -30962 
  -30118   -31703   -33869   -33472   -28634   -19899   -12147   -10892 
  -15532   -19647   -17905   -10232     2123    18832    36439    49105 
   52604    45856    31832    15618     2349    -4400    -6989   -12199 
  -23913   -42245   -65054   -86439   -98522   -95655   -75752   -39931 
    2943    36480    53693    64540    79109    96837   113889   127129 
  132397   129640   124779   122494   123349   126452   130334   132205 
  130124   124716   114975    98396    76973    56371    41684    36286 
   39347    45499    51054    55007    53649    44054    30589    19790 
   12859     8721     9124    15602    24903    32043    35088    32888 
   24920    14745     5454    -3342   -11599   -19573   -28326   -36881 
  -44157   -50941   -56797   -59412   -58727   -56771   -54215   -51459 
  -51089   -57040   -69465   -83035   -93333   -99633  -102563  -103167 
 -101812   -97743   -90072   -78611   -63851   -46599   -29938   -18277 
  -10931    -4300     1884     8608    17845    28085    38268    48934 
   58491    64867    68584    71781    74778    76371    78034    83867 
   95974   112359   128721   140711   145523   142474   132043   116080 
  100971    95647   101519   110603   114786   110397    97319    77450 
   52587    25773     3482    -8173    -8765    -2653     5723    13732 
   18662    17495    10865     3009    -2963    -5323    -2569     3216 
    4522    -5243   -24781   -47731   -68761   -84843   -94776   -98425 
  -96126   -89706   -81852   -74892   -70892   -68620   -63529   -53906 
  -40703   -23270    -1121    24104    50145    73791    90505    97422 
   96403    93745    95128   100513   107208   114356   119934   119915 
  113984   105495    95661    84033    72401    63827    59573    58065 
   55631    47810    33045    15597      966    -8653   -13399   -15726 
  -19470   -25605   -32382   -41008   -55195   -73481   -89979  -102233 
 -110557  -113642  -110931  -105014   -99072   -94481   -89993   -81794 
  -66059   -42229   -12479    22014    61287   102774   142082   175817 
  199231   207136   199250   180224   156894   134658   112969    88807 
   63915    43111    26700     9089   -11797   -30570   -44845   -57321 
  -67045   -70916   -68456   -60929   -52450   -48387   -48825   -47880 
  -39088   -20211     4415    26806    42011    50343    54279    55316 
   52967    46918    38867    29492    17221     3455    -7064   -12474 
  -14135   -14099   -14813   -17336   -21785   -28682   -36892   -43816 
  -47746   -47580   -42064   -31662   -19998   -10870    -5130     -843 
    5523    17768    38130    63575    85714    99922   110037   119904 
  128425   133750   134911   132282   127816   121542   111203    95951 
   76977    56057    35854    18794     4898    -7316   -18944   -29364 
  -36399   -38223   -34935   -29123   -24341   -22985   -26339   -34270 
  -43650   -50634   -54387   -55405   -53506   -48990   -42496   -34156 
  -24562   -15675    -9758    -7849    -9255   -12584   -16631   -19072 
  -17742   -14135   -11810   -12854   -17720   -25710   -34985   -43601 
  -49810   -51273   -46041   -34526   -19604    -4298    10433    24779 
   38665    52683    68881    88911   111624   133262   149375   157558 
  158797   154324   144153   131598   122085   115223   107204    97511 
   85644    70408    54146    39407    25380    12312     3585      990 
    2828     6172     8292     7421     2535    -5449   -12541   -15977 
  -16678   -16299   -16597   -19636   -25228   -31086   -36176   -40564 
  -43607   -45289   -46783   -48642   -50076   -50270   -48910   -45620 
  -41017   -36591   -33091   -30422   -27105   -21022   -12910    -7202 
   -7851   -13945   -20350   -21819   -15954    -3502    13312    30778 
   43491    48859    48971    47286    48039    54874    67699    84332 
  103246   122638   139222   149557   151955   146243   133012   114728 
   96102    81511    71783    63853    53901    40130    22347      815 
  -22882   -43957   -56387   -59122   -56663   -53619   -53002   -56393 
  -62530   -67435   -67073   -60416   -48986   -34851   -20739    -9092 
    -371     6505    12673    18153    22800    27488    32475    37180 
   41689    46046    49971    52321    49498    39240    24507    10167 
    -824    -8417   -13806   -17397   -20839   -26696   -33990   -38409 
  -35649   -23267    -3841    15255    29091    39158    49248    60548 
