Origin Time       2016/04/16 01:25:00
Lat.              32.753
Long.             130.762
Depth. (km)       12
Mag.              7.3
Station Code      FKO006
Station Lat.      33.5969
Station Long.     130.3985
Station Height(m) 3
Record Time       2016/04/16 01:25:26
Sampling Freq(Hz) 100Hz
Duration Time(s)  100
Dir.              E-W
Scale Factor      3920(gal)/6182761
Max. Acc. (gal)   69.418
Last Correction   2016/04/16 01:25:26
Memo.             
[...]
    -125     -353     -762    -1995    -3801    -5453    -6370    -6145 
   -5141    -4082    -3080    -1948     -730      593     2861     7095 
   11125    11211     9644    10315    10731     9929     9967     9408 
    8391     8513     8545     8007     7184     6014     5099     4404 
    3645     2902     1811      494     -519    -1716    -4257    -7962 
  -10576   -10948    -9874    -7791    -6086    -5283    -3506    -1931 
   -2413    -3291    -3493    -2953    -2192    -2081    -1713     -707 
      30      445     1600     4515     7526     7696     6918     9077 
   11840    12177    12529    14171    15990    17468    17432    15465 
   12448     8890     5040     1543     -495    -1131    -2094    -3935 
   -4843    -3605    -1564     -421     -123       65      292      642 
    1540     3372     6162     9233    11433    11806    10447     9074 
    8780     7807     4662     1337     -275    -1733    -4748    -8256 
   -8971    -7119    -7933    -9222    -5300    -1472    -1376     -499 
    1219     3513     9581    16369    17611    16022    16807    15808 
   11788    10415     9625     6651     4262     1879     -580    -1461 
   -3086    -6616    -8409    -6166    -2789    -1520    -1621    -1778 
   -2348    -3369    -4474    -5216    -4916    -3746    -2384    -1005 
      -4      164       19      191      693     2186     5795     9560 
    8901     5749     7335    11696    13179    13863    13784    11512 
   10565    10818     9531     7873     6941     5520     3523     2120 
    1533     1641     1754      889     -231     -569     -757    -1799 
   -3680    -6383    -9912   -13076   -15154   -16582   -17024   -15891 
  -13128    -8881    -4230     -628     2331     8496    20664    31221 
   30567    25981    26420    25092    21057    20326    19299    15550 
   10934     6561     4305     3248     1600      -59    -1478    -3830 
   -7020    -8085    -6085    -3930    -2487    -1045     -364      -21 
     285       81       68       56     -355     -899    -2202    -4697 
   -7374    -7786    -4739    -1227     -227     -391       32     1003 
    3805     9316    13114    10305     5641     5929     7987     7607 
    5223     2150     1066     1016     -679    -2027    -2209    -2095 
   -1005     -223     -569     -402     -304    -1928    -5894   -12167 
  -17212   -17768   -17186   -18182   -17240   -13557   -10543    -8454 
   -6001    -3100     -333     1357     3214     7075    11079    12940 
   14415    16662    18123    18685    17397    13572     9907     7512 
    6648     7471     7892     8405    10788    13186    13342    11513 
    9754     9570    10238    11416    13500    14662    12525     7769 
    3522     1492      411    -1045    -3031    -5581    -7411    -6904 
   -5233    -4143    -3542    -3591    -3939    -3113    -1759    -1566 
   -2389    -3510    -4481    -4602    -3793    -2933    -2243    -1165 
     -82      260      322      983     3016     7325    12056    13149 
   13223    17511    21272    21145    21092    19640    17141    16462 
   13289     7611     4248     3159     2355      936       65      406 
     423      -23     -141     -153     -280     -623    -1593    -3079 
   -3984    -3527    -2313    -1094      172     1713     4746     9798 
   12699    10833     9595    11534    12116    10385     7906     4791 
    2064      123    -1108    -2483    -5678    -9124    -9837    -7968 
   -5002    -1496     1249     3104     6835    11116    10691     7623 
    6940     6063     4035     4155     4663     3658     2489     1643 
    1434     2132     3387     4453     4698     4166     2858      893 
    -468     -399     -666    -2935    -5969    -7197    -5250    -2435 
   -1900    -2113    -1091     -255      -30      266      598     1361 
    2486     2651     1310      841     2439     2622      788      367 
    1099     1288      837      -64     -184      783     2246     4754 
    7306     8123     7940     6919     4505     2474     1298      -39 
    -964    -2019    -4203    -5988    -6295    -6116    -5305    -3001 
    -707       51      259     1238     3902     8564    12434    12561 
   11501    11729    10863     9246     8783     7641     6124     5963 
    5620     4022     2182      824      -41     -262      -93     -314 
    -823    -1296    -1720    -1735    -1581    -2006    -3056    -4570 
   -6508    -8296    -9273    -9399    -8658    -6895    -4622    -2599 
    -888      613     2539     7097    13722    16219    13512    13532 
   16612    16121    14456    14759    14408    13937    14281    14657 
   15352    15613    14594    13118    13191    15123    15221    12010 
    9012     7208     4718     1839     -719    -3819    -9261   -17217 
  -23721   -26649   -29076   -31060   -29600   -25402   -20443   -15726 
  -12062    -8895    -5264    -1462     1207     3036     6373     9635 
    8967     8580    13877    19797    21761    22661    24068    24945 
   24931    24089    22210    19876    18499    18363    19180    20137 
   19861    18013    15274    12627    10191     7460     4843     2749 
     842     -760    -2030    -4079    -6982    -9003    -9779   -10027 
   -9725    -9691   -10568   -12125   -13852   -13842   -12309   -10591 
   -7505    -4720    -3956    -2849    -1316     -243     1283     4176 
    8871    12196    11997    12849    15003    14000    13361    15830 
   17394    17213    16197    15356    16047    15733    12388     8414 
    6298     5573     4266     2076      450     -182     -700    -1884 
   -3929    -6238    -8171    -9739   -10530   -10128    -9856   -10836 
  -11975   -12384   -12818   -13608   -13805   -12999   -12140   -11666 
  -10473    -7837    -4525    -1251     2185     7611    16921    25259 
   26280    24946    25688    24165    22565    23513    22420    19625 
   16776    13597    11711    10513     9067     7637     5918     4353 
    3144     2159     1657     1060       -8     -778    -2023    -5267 
   -8806   -10296   -10671   -11583   -12267   -11840   -12140   -13931 
  -14634   -13176   -11469   -11154   -11725   -10980    -7734    -3389 
    -157     1608     4702    10874    15035    12771    10448    12397 
   13135    12753    13833    13240    11886    11753    11638    11544 
   10663     8618     6870     5449     3386     1177      -39     -956 
   -3258    -7248   -10661   -11050   -10367   -10858   -10121    -7932 
   -7023    -6145    -3751    -1408     -112      343     1176     4171 
    8832    11297     9901     9847    13671    16574    17502    18455 
   19091    20666    23280    24856    25425    25194    23499    20210 
   16233    12951     9940     6058     1967    -1459    -5193   -10690 
  -15942   -17372   -16804   -16415   -13648   -10046    -9491    -9755 
   -8183    -6434    -5951    -5618    -4474    -2941    -1765    -1072 
     108     2498     6504    10973    12033    10369    11012    12510 
   12209    13014    14904    16179    17798    18892    18194    16098 
   12922     8991     5070     2297      771     -750    -3173    -7134 
  -11801   -13944   -13547   -13911   -14245   -13579   -14419   -15610 
  -14514   -12324   -10170    -8449    -7732    -6741    -4864    -3429 
   -2222     -608      819     3171     8698    15877    19906    20728 
   21735    21689    20703    20957    19353    15314    12220     9860 
    7167     4113     1273      -74     -407    -1477    -3788    -6067 
   -6310    -4647    -3691    -3356    -1138     2245     6350    12672 
   17138    16387    15686    15718    11930     7467     5091     2700 
     679     -985    -3614    -7358   -10750   -11557   -11481   -12286 
  -10348    -5465    -2944    -2523     -923      109       42     1445 
    4672     8485     9708     7465     7188    10403    13531    15442 
   15101    14133    15711    16320    13510    10539     8478     6235 
    3561     1276       57    -1579    -5698   -12530   -17775   -16217 
  -12916   -15259   -17179   -13149    -9148    -7456    -5312    -3422 
   -2425    -1530     -522     1013     4492    10758    16452    18293 
   20538    25120    25740    23005    22229    21659    20167    19603 
   20001    21112    22461    23293    23311    21992    18687    13624 
    8033     3252      -10    -2737    -8345   -18776   -27940   -28698 
  -26897   -30442   -34559   -34689   -31888   -25990   -19621   -15082 
  -10547    -5714    -1414     2010     5705    12010    16941    14862 
   11662    12742    12695    10491     8427     5635     4735     5939 
    6352     6614     7344     8773    11249    14038    16290    16623 
   14847    13276    12564    10738     8454     7661     7083     5469 
    3428     1633      615      138     -190     -379     -757    -1536 
   -2883    -4791    -6067    -5411    -3698    -2896    -2982    -2796 
   -2376    -1926    -1092     -188      188      246      603     1725 
    3719     5400     5176     4320     5013     6077     6439     7216 
    7841     6801     4194     1544      378      232       41     -321 
   -1674    -5319   -10669   -14202   -13787   -12747   -12978   -11315 
   -7859    -5342    -2864      202     3457     9492    18255    23570 
   24721    27237    28690    26330    24722    23073    19933    18431 
   18332    19514    22175    23719    23050    21244    19530    18295 
   16935    15046    12952    10751     7981     5041     3021     1593 
    -484    -3782    -8827   -14017   -14324   -10332    -8964    -8874 
   -5483    -3308    -3239     -489     2193     3168     6670    10504 
   11331    12210    13299    13137    14155    15707    14515    11044 
    7196     3776     1378       73     -884    -2675    -5815    -8788 
   -9282    -7012    -4004    -1955     -501     1538     6295    15693 
   24320    24664    22200    24014    24299    21159    19287    16528 
   12051     8328     4644     1506       77     -569    -2074    -5902 
  -10743   -12638   -11015   -10073   -10975   -10982   -10798   -12169 
  -14243   -17638   -22064   -24078   -24169   -25648   -27101   -27898 
  -29969   -30021   -26557   -22924   -19870   -16626   -10973    -4421 
   -1537      296     3428     7723    13775    17006    17143    20670 
   25641    26633    25630    24582    22590    19830    16388    13740 
   14112    16734    19649    22379    24692    24929    21867    16730 
   11276     6654     4022     3001     1674     -237    -1648    -3366 
   -7142   -12466   -16599   -17066   -16743   -20866   -24726   -21878 
  -15961    -8909     -719     5725    13383    23872    29436    29246 
   32972    38395    37989    36653    35741    32601    29419    25196 
   20156    16415    12857     9528     7726     7454     6948     4483 
    1162    -1787    -7223   -18920   -30522   -29648   -24087   -29536 
  -34536   -30768   -30042   -28760   -23500   -22183   -21112   -17010 
  -11493    -4175     2243     7876    16052    23547    25314    26853 
   32613    36268    38687    44122    48507    50827    51435    48442 
   42032    31271    16679     2349   -10160   -25096   -43443   -53514 
  -51247   -49117   -46068   -38752   -38309   -38795   -33234   -30790 
  -27997   -21920   -16976    -9853    -2033     1971     4745     9747 
   13799    10213     3096      401    -1395    -4092    -3818     -306 
    7865    21062    33777    38913    38396    40939    41694    35442 
   30322    27298    24590    24981    26458    28116    31850    36909 
   40552    40808    39123    37443    35079    31345    27316    24198 
   21771    19189    16641    14477    11556     6721      931    -5464 
  -16842   -35440   -50467   -51359   -46896   -48304   -50932   -49995 
  -49524   -49902   -48558   -46970   -45267   -40927   -33152   -26870 
  -24453   -19903   -15276   -13216    -8239    -2376     2123     8240 
   17029    26578    31751    35018    41632    46189    47649    49211 
   47277    43315    39886    33954    27304    23505    22511    23845 
   27206    32210    37266    38736    33787    23002     9278    -5312 
  -23156   -46497   -66311   -74992   -81271   -87667   -90312   -94431 
  -95220   -91404   -91349   -83809   -66087   -50995   -31322    -7134 
    3979     9434    24343    38921    44855    48906    54698    58070 
   59578    64584    70324    73652    76769    79114    80462    81380 
   80783    78759    75528    70410    62621    51713    38508    24855 
   13024     4272    -2979   -12060   -23470   -30514   -29586   -29875 
  -32851   -29352   -22758   -17659   -12253    -9187    -7007    -2578 
    2646     9387    18089    24613    26331    27948    31460    32960 
   34554    38776    43296    48096    52722    55560    56770    55981 
   52903    47713    39611    28279    15566     4316    -4754   -15389 
  -29780   -40434   -44866   -53452   -63003   -64675   -66917   -72486 
  -78192   -85389   -89076   -90362   -92964   -91608   -85992   -78485 
  -69446   -60121   -49281   -39089   -32822   -28587   -26053   -24979 
  -23394   -21259   -18609   -15502   -11941    -7105    -1564     2925 
    6056     9341    13424    15900    14977    14757    18750    24482 
   32202    43213    53880    62691    70003    75092    78565    79863 
   78291    75907    73653    70043    64846    58795    51640    43358 
   34169    24598    15969     8630     2304    -2754    -8176   -15891 
  -21275   -21056   -23778   -31970   -37211   -41347   -47770   -52750 
  -58225   -64740   -68856   -70074   -67378   -61690   -56034   -50716 
  -44679   -36775   -25528   -11677     1018    12271    28213    49909 
   67229    77592    90114   102378   107978   111211   112199   108479 
  101948    91882    77718    60787    42327    24533     9485    -1794 
  -11088   -21201   -28769   -29804   -29644   -31568   -33059   -35237 
  -35226   -32732   -34674   -36204   -33676   -33355   -33551   -32647 
  -33238   -33700   -32727   -30235   -25827   -19744   -12715    -5596 
     845     6258    14182    24921    28329    23786    23594    26187 
   24064    21202    18337    13505    10040     7750     4740     1478 
   -3078   -12097   -27602   -42617   -47091   -46950   -52278   -56555 
  -54292   -52126   -50879   -43310   -30504   -20685   -12008     -655 
    8568    17596    29800    37419    37339    36530    35189    29402 
   25323    26560    28736    31754    35416    37656    38713    38045 
   35665    33557    32391    31044    29352    27940    26070    22277 
   15560     6750    -1160    -7954   -17665   -29344   -36288   -39229 
  -40299   -34522   -26280   -20760   -13515    -9298    -9038    -4620 
     138     1084     1362     2987     5310     4617     1967     2112 
    2134    -1505    -7313   -18258   -31435   -33814   -30832   -35372 
  -36960   -31211   -28709   -25013   -17587   -12610    -7678    -2562 
      49     1064     2002     5488    10375    11451     9133     7865 
    6121     2355      388     -976    -5561   -11873   -15802   -14939 
  -13802   -14674   -11869    -6783    -4039    -2387    -2140    -3288 
   -4012    -4302    -3542    -1527      154     1135     3526     8885 
   13667    12787     9475    10217    13277    15849    19447    23548 
   27457    31555    35145    38811    42540    44582    44373    42566 
   40826    40168    39311    37538    35889    34971    33785    30651 
   25127    18496    12342     7530     4110     1471     -203      178 
    2455     6685    12580    15394    13202    11608    11802    10389 
    8917     8831     9160    10141    10902    11357    13214    15622 
   16208    14065     9890     5445     2125      233     -478     -894 
   -1628    -1899     -829     1477     5157     9677     9945     2922 
   -4707   -11614   -24798   -36683   -36993   -35731   -38213   -35433 
  -29800   -27402   -25512   -24620   -25516   -25486   -23864   -20836 
  -17369   -13668    -8231    -2583     1024     4936    11936    19087 
   20092    15936    13475    11085     6081     2522     -115    -3152 
   -6489   -12320   -16757   -16618   -16708   -17818   -17266   -17141 
  -18335   -18658   -18462   -18239   -16989   -14715   -11748    -8610 
   -5890    -3329    -1058      405     1768     5010    10910    16786 
   21530    28100    34772    38719    43559    48196    48701    47402 
   44405    38176    30173    21384    12735     5395      577    -1407 
   -3064    -7073   -11968   -14057   -14325   -15636   -15774   -14143 
  -14332   -15177   -14434   -14150   -14523   -14599   -15257   -15634 
  -14174   -11512    -8677    -6051    -3931    -2265    -1051     -482 
     195     2520     7730    14946    19893    21103    23117    25744 
   24368    21314    19775    17750    14440    10710     7294     5016 
    3554     2006      242    -1530    -5194   -13589   -23599   -28174 
  -28437   -30178   -31270   -29281   -27381   -24830   -20114   -15430 
  -10781    -5816    -2168      -62     2102     6356    12608    16641 
   16827    18514    22935    25896    28037    29998    29931    28233 
   24434    18445    12006     5908     1487     -248     -626    -1584 
   -4277    -8427   -11657   -10827    -7294    -6570    -7558    -5768 
   -4277    -3905    -1289     1290     3527     8534    13998    16519 
   18907    23652    26748    27850    30121    31380    31512    32877 
   33933    33712    32918    31944    31527    32060    33342    34662 
   34847    33045    29399    24850    19808    14013     7982     2934 
    -405    -2876    -7329   -14854   -21295   -24310   -28179   -33957 
  -38074   -40819   -42512   -42001   -41192   -40257   -37064   -32206 
  -27358   -22297   -16314   -11507    -9139    -6600    -4211    -3092 
    -967     1417     3713     9580    17479    21040    20661    20863 
   19532    15843    13491    10731     6368     2772     -285    -4009 
  -11096   -21984   -28797   -28118   -28859   -33216   -34460   -34745 
  -37071   -38010   -37502   -35826   -31896   -26905   -20515   -11825 
   -3266     2579     8877    20927    34570    41236    45019    53572 
   62080    67440    72790    75622    74745    72759    69412    64040 
   57406    50550    44167    38363    32219    25059    18067    11923 
    6044      800    -3517    -9017   -16762   -22430   -23615   -25083 
  -28567   -30756   -30683   -29015   -26807   -24616   -23345   -24948 
  -27296   -27485   -27429   -27251   -23943   -19192   -15094    -9732 
   -4373     -573     3476     9165    17110    21927    20397    21348 
   25012    24654    24964    26757    26225    25961    25543    23586 
   20936    16530    11176     6428     2249     -908    -4394   -11422 
  -20357   -25485   -28245   -33871   -39327   -42132   -44848   -46248 
  -46383   -47252   -46643   -43638   -40167   -36442   -31738   -26556 
  -23047   -21135   -17774   -13661    -9653    -3878     1527     5641 
   12573    22453    28947    30008    31803    34565    34406    34994 
   36837    36964    37375    37877    36998    35488    33389    30550 
   26194    20246    14236     8881     4497     1642      253     -520 
   -2137    -5604    -9411   -10787   -10711   -11471   -10987    -8509 
   -5857    -2287     1093     3842     9787    16410    16355    12601 
   12290    11712     9073     9003     8614     6770     6085     4104 
    1434      141    -1416    -4984   -12019   -19547   -21709   -20930 
  -22587   -23555   -21721   -20609   -19767   -17742   -14615    -9676 
   -6408    -6664    -5657    -3443    -2962    -2020     -612     -352 
