Origin Time       2016/04/16 01:25:00
Lat.              32.753
Long.             130.762
Depth. (km)       12
Mag.              7.3
Station Code      FKO004
Station Lat.      33.7388
Station Long.     131.0095
Station Height(m) 4
Record Time       2016/04/16 01:25:24
Sampling Freq(Hz) 100Hz
Duration Time(s)  262
Dir.              N-S
Scale Factor      3920(gal)/6182761
Max. Acc. (gal)   109.928
Last Correction   2016/04/16 01:25:24
Memo.             
[...]
   -7851    -7857    -7879    -7844    -7852    -7906    -7876    -7844 
   -7885    -7869    -7823    -7867    -7896    -7847    -7851    -7894 
   -7867    -7840    -7878    -7883    -7844    -7860    -7892    -7857 
   -7843    -7890    -7877    -7834    -7870    -7882    -7835    -7863 
   -7907    -7855    -7838    -7889    -7864    -7829    -7887    -7895 
   -7836    -7862    -7897    -7843    -7843    -7901    -7867    -7829 
   -7881    -7883    -7828    -7864    -7905    -7849    -7844    -7900 
   -7858    -7819    -7892    -7901    -7831    -7867    -7907    -7836 
   -7831    -7899    -7868    -7834    -7883    -7879    -7835    -7862 
   -7882    -7851    -7863    -7890    -7856    -7845    -7888    -7873 
   -7841    -7879    -7880    -7830    -7859    -7892    -7845    -7847 
   -7894    -7866    -7843    -7885    -7879    -7844    -7868    -7879 
   -7848    -7862    -7889    -7864    -7847    -7867    -7866    -7853 
   -7872    -7884    -7861    -7851    -7871    -7869    -7856    -7874 
   -7879    -7854    -7857    -7868    -7853    -7857    -7879    -7869 
   -7856    -7877    -7876    -7847    -7863    -7887    -7852    -7843 
   -7889    -7872    -7834    -7885    -7902    -7834    -7852    -7908 
   -7850    -7826    -7898    -7874    -7821    -7883    -7894    -7827 
   -7866    -7905    -7833    -7837    -7904    -7860    -7839    -7906 
   -7882    -7828    -7875    -7889    -7835    -7856    -7893    -7851 
   -7838    -7882    -7870    -7842    -7877    -7885    -7843    -7858 
   -7892    -7856    -7847    -7892    -7871    -7832    -7875    -7889 
   -7843    -7860    -7893    -7856    -7842    -7880    -7875    -7849 
   -7867    -7877    -7849    -7850    -7879    -7868    -7850    -7876 
   -7882    -7852    -7869    -7892    -7850    -7844    -7890    -7866 
   -7829    -7877    -7891    -7841    -7859    -7894    -7848    -7837 
   -7889    -7875    -7842    -7878    -7887    -7844    -7858    -7887 
   -7851    -7844    -7886    -7865    -7840    -7883    -7880    -7842 
   -7875    -7887    -7839    -7856    -7894    -7856    -7847    -7891 
   -7868    -7837    -7873    -7870    -7838    -7869    -7889    -7849 
   -7852    -7888    -7867    -7844    -7882    -7889    -7846    -7858 
   -7885    -7851    -7848    -7892    -7874    -7842    -7872    -7872 
   -7842    -7875    -7892    -7849    -7856    -7885    -7851    -7843 
   -7887    -7878    -7842    -7869    -7888    -7846    -7850    -7896 
   -7867    -7833    -7874    -7880    -7835    -7863    -7900    -7854 
   -7846    -7894    -7867    -7834    -7882    -7885    -7835    -7867 
   -7899    -7844    -7839    -7894    -7866    -7826    -7878    -7887 
   -7832    -7863    -7905    -7849    -7838    -7894    -7865    -7831 
   -7888    -7883    -7823    -7865    -7896    -7838    -7856    -7908 
   -7852    -7832    -7896    -7875    -7829    -7882    -7893    -7832 
   -7852    -7893    -7856    -7849    -7895    -7881    -7840    -7863 
   -7880    -7846    -7859    -7889    -7849    -7844    -7888    -7858 
   -7837    -7894    -7887    -7839    -7875    -7889    -7839    -7854 
   -7892    -7856    -7839    -7876    -7873    -7848    -7868    -7882 
   -7850    -7847    -7879    -7868    -7847    -7874    -7885    -7855 
   -7861    -7887    -7862    -7840    -7874    -7877    -7838    -7852 
   -7880    -7856    -7854    -7884    -7870    -7852    -7874    -7869 
   -7850    -7876    -7881    -7845    -7859    -7885    -7851    -7849 
   -7895    -7870    -7835    -7884    -7886    -7822    -7857    -7903 
   -7844    -7842    -7899    -7858    -7832    -7899    -7886    -7831 
   -7879    -7893    -7832    -7855    -7898    -7852    -7842    -7886 
   -7863    -7835    -7876    -7886    -7848    -7857    -7880    -7856 
   -7856    -7889    -7869    -7843    -7873    -7877    -7841    -7863 
   -7888    -7848    -7844    -7891    -7875    -7843    -7880    -7892 
   -7840    -7847    -7893    -7866    -7837    -7878    -7887    -7842 
   -7856    -7893    -7860    -7845    -7888    -7872    -7835    -7872 
   -7889    -7849    -7862    -7887    -7850    -7843    -7884    -7868 
   -7841    -7880    -7886    -7840    -7859    -7891    -7850    -7850 
   -7897    -7863    -7833    -7884    -7876    -7832    -7879    -7897 
   -7835    -7853    -7900    -7854    -7846    -7900    -7870    -7828 
   -7871    -7878    -7840    -7864    -7887    -7859    -7861    -7885 
   -7871    -7858    -7873    -7869    -7849    -7862    -7876    -7854 
   -7860    -7886    -7856    -7838    -7880    -7873    -7839    -7878 
   -7896    -7843    -7849    -7889    -7858    -7845    -7890    -7874 
   -7835    -7863    -7882    -7855    -7857    -7880    -7862    -7843 
   -7872    -7882    -7853    -7866    -7889    -7849    -7835    -7881 
   -7873    -7845    -7884    -7892    -7843    -7854    -7880    -7850 
   -7859    -7897    -7860    -7839    -7887    -7871    -7826    -7878 
   -7901    -7833    -7848    -7910    -7860    -7830    -7900    -7885 
   -7814    -7859    -7900    -7839    -7848    -7911    -7864    -7828 
   -7890    -7880    -7830    -7877    -7893    -7835    -7853    -7891 
   -7850    -7850    -7898    -7871    -7841    -7880    -7878    -7836 
   -7861    -7889    -7852    -7847    -7890    -7868    -7840    -7882 
   -7877    -7833    -7869    -7894    -7848    -7854    -7892    -7858 
   -7836    -7881    -7883    -7843    -7861    -7882    -7851    -7849 
   -7881    -7873    -7855    -7871    -7876    -7854    -7863    -7880 
   -7860    -7856    -7878    -7862    -7846    -7872    -7874    -7848 
   -7865    -7885    -7854    -7848    -7883    -7871    -7846    -7877 
   -7885    -7847    -7856    -7885    -7861    -7854    -7886    -7865 
   -7833    -7872    -7886    -7844    -7867    -7899    -7847    -7839 
   -7894    -7863    -7830    -7887    -7883    -7832    -7870    -7889 
   -7841    -7856    -7891    -7859    -7855    -7891    -7869    -7839 
   -7868    -7873    -7841    -7859    -7886    -7853    -7851    -7898 
   -7874    -7831    -7873    -7889    -7843    -7861    -7894    -7851 
   -7838    -7879    -7870    -7846    -7875    -7883    -7852    -7862 
   -7882    -7858    -7852    -7883    -7874    -7846    -7869    -7884 
   -7844    -7845    -7891    -7870    -7841    -7883    -7882    -7831 
   -7860    -7895    -7845    -7846    -7897    -7861    -7836    -7895 
   -7885    -7828    -7870    -7899    -7834    -7843    -7908    -7863 
   -7821    -7890    -7893    -7829    -7864    -7898    -7839    -7843 
   -7901    -7865    -7839    -7891    -7876    -7830    -7872    -7883 
   -7835    -7863    -7893    -7845    -7848    -7893    -7865    -7844 
   -7883    -7876    -7843    -7866    -7882    -7855    -7857    -7880 
   -7864    -7849    -7873    -7874    -7852    -7869    -7879    -7853 
   -7860    -7880    -7856    -7849    -7880    -7873    -7845    -7864 
   -7878    -7855    -7863    -7882    -7862    -7856    -7879    -7874 
   -7854    -7865    -7872    -7846    -7851    -7882    -7864    -7848 
   -7885    -7877    -7834    -7864    -7893    -7845    -7843    -7897 
   -7872    -7837    -7883    -7881    -7830    -7862    -7892    -7844 
   -7850    -7901    -7865    -7837    -7889    -7874    -7825    -7876 
   -7897    -7833    -7859    -7911    -7849    -7826    -7894    -7873 
   -7823    -7881    -7898    -7834    -7857    -7900    -7850    -7840 
   -7889    -7866    -7836    -7877    -7883    -7848    -7871    -7893 
   -7852    -7845    -7882    -7864    -7842    -7881    -7882    -7837 
   -7863    -7890    -7849    -7859    -7895    -7855    -7842    -7888 
   -7871    -7839    -7874    -7881    -7840    -7855    -7891    -7863 
   -7846    -7883    -7879    -7838    -7859    -7895    -7858    -7841 
   -7890    -7877    -7831    -7870    -7890    -7843    -7855    -7890 
   -7855    -7843    -7883    -7872    -7849    -7878    -7878    -7839 
   -7859    -7888    -7855    -7847    -7887    -7873    -7836    -7867 
   -7890    -7852    -7857    -7888    -7856    -7846    -7889    -7871 
   -7835    -7875    -7882    -7836    -7865    -7896    -7847    -7851 
   -7894    -7859    -7841    -7886    -7878    -7846    -7870    -7878 
   -7846    -7851    -7875    -7863    -7858    -7880    -7869    -7851 
   -7875    -7874    -7847    -7870    -7884    -7845    -7853    -7893 
   -7865    -7841    -7879    -7877    -7837    -7859    -7890    -7857 
   -7848    -7886    -7873    -7838    -7866    -7884    -7849    -7856 
   -7892    -7863    -7841    -7883    -7881    -7839    -7865    -7890 
   -7847    -7847    -7891    -7867    -7844    -7885    -7877    -7832 
   -7870    -7893    -7840    -7856    -7902    -7850    -7832    -7897 
   -7874    -7823    -7882    -7898    -7820    -7851    -7915    -7849 
   -7827    -7907    -7880    -7817    -7881    -7904    -7833    -7857 
   -7900    -7845    -7841    -7891    -7861    -7842    -7882    -7874 
   -7847    -7868    -7874    -7847    -7857    -7883    -7863    -7851 
   -7880    -7875    -7846    -7866    -7876    -7843    -7856    -7888 
   -7862    -7851    -7886    -7870    -7834    -7867    -7883    -7844 
   -7859    -7898    -7862    -7838    -7881    -7882    -7843    -7865 
   -7893    -7854    -7836    -7876    -7872    -7836    -7864    -7884 
   -7844    -7854    -7891    -7867    -7864    -7899    -7876    -7856 
   -7892    -7881    -7843    -7877    -7882    -7820    -7834    -7877 
   -7822    -7788    -7835    -7826    -7799    -7867    -7919    -7906 
   -7979    -8096    -8092    -8051    -8037    -7926    -7798    -7820 
   -7881    -7914    -7995    -7966    -7705    -7432    -7281    -7216 
   -7359    -7721    -8014    -8106    -8055    -7816    -7492    -7414 
   -7638    -7951    -8316    -8675    -8750    -8576    -8447    -8343 
   -8193    -8026    -7555    -6666    -5939    -5737    -5800    -6032 
   -6559    -7316    -8156    -8758    -8731    -8344    -8278    -8700 
   -9535   -10726   -11457   -10674    -8629    -6468    -5126    -5258 
   -6838    -8973   -10516   -10336    -7978    -4472    -1579     -690 
   -2750    -7540   -12388   -13894   -11603    -7921    -5194    -4890 
   -7587   -11545   -13407   -11821    -8199    -4380    -2195    -3177 
   -6795   -10799   -13117   -12813   -10761    -9283    -9605   -10515 
  -10588   -10037    -9560    -9079    -8089    -6030    -2742      603 
    2022      655    -2690    -6538    -9171    -9127    -6809    -4749 
   -5166    -7568    -9858   -11574   -13298   -14429   -15000   -15817 
  -15573   -12471    -7381    -2924    -1064    -1669    -3223    -4910 
   -6301    -6012    -4011    -2956    -4134    -6633   -10856   -16388 
  -19229   -16904   -11911    -7136    -3046     -360       43     -502 
    -572     -743    -1912    -4487    -8489   -13444   -17871   -18531 
  -13690    -7147    -5026    -9223   -16112   -20905   -21115   -16139 
   -7422      612     3829     2541     -338    -3141    -4903    -4522 
   -2734    -1785    -2788    -5689   -10170   -14662   -17042   -17359 
  -16825   -15602   -14109   -12340    -8964    -4190      504     3226 
    1007    -5187    -9273    -8907    -7414    -6030    -3768    -2295 
   -2028     -439      767    -3074   -11657   -20101   -23026   -17326 
   -5835     3642     5821     1329    -7372   -17812   -25030   -23925 
  -15944    -7849    -4468    -6643   -11286   -13392   -12486   -11724 
  -11127    -8438    -3537     1709     5015     4205     -697    -6773 
  -12330   -16629   -15544    -6885     3602     8592     4960    -7175 
  -22206   -29677   -25624   -16903   -11350   -12190   -17814   -21587 
  -19265   -13095    -5285     1333     1300    -4777    -9809    -9038 
    -676    13754    24881    22974    11406     1345    -2748    -2905 
   -2436    -5019   -11255   -18476   -24180   -25676   -21989   -16835 
  -14491   -15984   -19844   -21724   -17113    -7113     2813     8088 
    6788      494    -5749    -7371    -4273     -186      997    -1236 
   -4769   -10362   -19692   -28014   -30446   -28080   -19534    -4252 
    8300    10596     4573    -7924   -23246   -30436   -23493    -9779 
    1958     9890    12933     9844     3433    -2513    -6323    -7884 
   -7449    -3103     6017    14203    14495     5782    -8533   -21834 
  -24530   -11227    10162    23286    19857     2269   -25897   -54192 
  -63300   -46591   -15771    13137    24098    10697   -14908   -35353 
  -41263   -30908    -8429    16571    32326    28909     4091   -27708 
  -43444   -33288    -4782    26026    41648    33089     7536   -17268 
  -28997   -26576   -12646     7377    21222    15595    -7091   -26124 
  -28435   -20897   -13719   -11801   -15555   -19978   -17056    -1938 
   17837    26414    19269     6111    -3144    -2728     8527    20849 
   19730     3623   -17169   -34535   -43605   -42757   -39997   -44919 
  -54626   -59720   -55026   -38067   -15760    -8059   -22217   -42662 
  -57294   -58482   -28409    32626    83498    82600    36411    -7505 
   -6891    36430    80215    87907    58452    12120   -28736   -48705 
  -39630    -3947    28913    18238   -38343   -98241  -116781   -79357 
   -6927    57833    72012    19570   -58552   -95336   -70541   -13032 
   41486    61859    34841   -10401   -27082      254    55414   108369 
  126791   105266    61561     6087   -39090   -38178    -1475     9689 
  -32890   -86429  -113530  -127268  -135000  -122729   -93902   -65612 
  -56082   -78023  -109068  -105965   -61470    -5248    37067    52530 
   40038    30693    65160   128564   165519   153258   100445    21081 
  -43580   -49413   -21597   -23358   -62780  -106299  -129317  -112087 
  -55430     6147    39784    35773     2119   -37081   -55767   -50293 
  -32005   -10272     3308     3262     2792    16736    41490    60220 
   59051    42428    33465    44622    60327    62702    52993    40323 
   27801     9281   -20797   -52549   -72536   -77910   -68471   -52815 
  -51965   -73682  -103358  -124795  -130699  -117854   -84294   -30379 
   35157    89937   113140   107668    90000    71804    66166    80173 
   96456    85851    34915   -34194   -75652   -70655   -45189   -24850 
   -7964     2908    -8805   -37960   -59688   -61392   -47386   -32892 
  -32712   -43810   -50446   -45223   -32316   -14325     6127    22009 
   34675    45140    36007    -2724   -46233   -55700   -17878    40042 
   80529    91500    77452    43748     4292   -25939   -46021   -59862 
  -64689   -56777   -40913   -27988   -26973   -42885   -68796   -84930 
  -81794   -68445   -53509   -33236    -2045    28455    36936    18935 
  -10663   -27693   -10155    33337    65675    70322    60029    40107 
   12341    -5025     -895    17082    40654    52621    30304   -15563 
  -48319   -51853   -34832    -9627     9536    11513     -851   -23529 
  -55212   -78911   -74714   -39740    19352    78893   101564    81128 
   42844     2676   -22600    -9577    31697    62814    60255    20241 
  -48068  -111185  -133838  -116288   -78608   -40449   -20538   -18982 
  -20211   -20533   -29118   -48666   -68569   -79100   -80777   -73321 
  -53978   -29211   -12643   -11570   -18292   -18357    -9594    -3767 
   -7584   -10912    -1992    15950    39357    69389    88057    72576 
   35784    11674    13700    31403    47464    43637     8060   -46104 
  -83748   -82397   -43580    22078    85576   102319    62716     4993 
  -33539   -35084     2797    51416    72495    60458    31365     1721 
  -10066     2687    26662    45348    46172    19913   -27298   -71279 
  -90316   -81469   -56092   -27736    -3206    13642    13594    -4462 
  -24077   -34280   -40953   -48693   -51715   -44422   -30729   -20173 
  -20348   -32486   -48589   -58422   -58174   -43838   -12886    16570 
   19167     -103   -17470   -25830   -27701   -18575     6801    43182 
   70338    69337    41592      662   -37725   -56314   -47937   -22613 
   -1185     -480   -13420   -18995    -9528    12587    39045    45492 
   16405   -24763   -48275   -53274   -45501   -26561   -10195    -8811 
  -15129   -15682   -11555   -12546   -10569     8082    26567    23647 
   12099     8846     6907    -1861   -14480   -27703   -36208   -34698 
  -26823   -17428    -9239    -7154   -11730   -21782   -39367   -54346 
  -42307     4345    56801    78285    64184    34483     2565   -21628 
  -20078    13917    59714    85640    74845    36189    -4557   -24799 
  -17963     7031    30536    34121    18644     2517    -5836   -14432 
  -23845   -30900   -44258   -66922   -88975  -100847   -91268   -53541 
   -7299    11458    -8941   -45618   -71468   -74806   -58983   -33869 
   -4419    21240    24768     -115   -33316   -50601   -48869   -40467 
  -34791   -33588   -33942   -29766   -16907    -3829    -7176   -26379 
  -40807   -41026   -33654   -13863    22163    50325    50104    31563 
    9429    -9469   -14473     2963    36056    67383    83659    81531 
   67385    52483    36140    11253   -10298   -11797     1962    17671 
   29383    31541    22315    14138    17999    27700    31142    25083 
   14201     -237   -16646   -23663   -19596   -21171   -33422   -44404 
  -50057   -51712   -44900   -28712   -11316    -4517   -13904   -30890 
  -44764   -57413   -72228   -82997   -84366   -79472   -72470   -61414 
  -43851   -24765   -13232   -17793   -40399   -64224   -66125   -47969 
  -29012   -17657   -13182   -11224    -4869     2877     5059     9011 
   25475    45961    52478    42105    23528     3427    -9721    -6265 
    9712    21323    20541    15314    13725    14776    17344    25394 
   37846    43584    32977     6512   -25437   -41727   -28250     -891 
   17567    24710    23448    15099     5856    -2019    -8994   -11905 
  -13612   -21654   -34883   -47040   -53977   -53202   -46626   -38145 
  -29499   -23374   -21037   -17632    -9425    -1441     -515    -7413 
  -19059   -33339   -49682   -59812   -49525   -21054     8551    28027 
   30760    14986    -6444   -15698    -7526     8870    21409    25505 
   20114     3560   -17102   -31441   -43893   -62380   -76689   -72758 
  -56040   -39478   -23229    -3778    14272    24908    25085    16682 
    7511     1141    -1121     8552    27223    37698    34205    18444 
  -13005   -47618   -60178   -52651   -48344   -49592   -45067   -38532 
  -36100   -34929   -34979   -37823   -41353   -41250   -31963   -15563 
   -3388     2410     8524     9400     -820    -8429    -1794    12812 
   26891    34473    30820    24942    33389    54604    71916    75074 
   60135    26345   -14833   -43192   -46559   -30583   -12360    -3966 
   -9882   -34076   -69119   -94346   -96051   -70428   -25587    10130 
   17793    10278     1222    -7276    -8695    -3727    -2260    -2703 
     172     1832     2147     9661    22686    25784     6786   -32870 
  -76297  -101197  -103346   -93375   -73892   -47601   -29428   -32945 
  -54629   -70085   -59398   -34982   -20285   -18176   -14118     2796 
   23480    28583    14539     -310     1986    17807    35812    54994 
   71971    78659    75318    63903    45486    27238    15926    13988 
   17214    14977     8196     5563     -106   -17096   -33039   -34410 
  -27769   -26267   -27156   -20044   -10128    -8199    -8113    -1287 
    6114    10141    16586    25759    30524    26045    11679   -11164 
  -34429   -43745   -35280   -23738   -25044   -36768   -41063   -31373 
