Origin Time       2016/04/16 01:25:00
Lat.              32.753
Long.             130.762
Depth. (km)       12
Mag.              7.3
Station Code      FKO016
Station Lat.      33.0159
Station Long.     130.4471
Station Height(m) 24
Record Time       2016/04/16 01:25:13
Sampling Freq(Hz) 100Hz
Duration Time(s)  300
Dir.              E-W
Scale Factor      3920(gal)/6182761
Max. Acc. (gal)   144.958
Last Correction   2016/04/16 01:25:13
Memo.             
[...]
  -10765   -10760   -10768   -10763   -10768   -10775   -10761   -10754 
  -10765   -10770   -10769   -10771   -10774   -10778   -10772   -10771 
  -10771   -10758   -10749   -10750   -10764   -10766   -10747   -10768 
  -10801   -10785   -10763   -10768   -10771   -10767   -10761   -10748 
  -10745   -10765   -10792   -10793   -10763   -10742   -10752   -10783 
  -10800   -10772   -10745   -10749   -10765   -10783   -10786   -10757 
  -10725   -10754   -10810   -10787   -10741   -10750   -10777   -10794 
  -10767   -10742   -10772   -10782   -10763   -10754   -10753   -10787 
  -10788   -10736   -10740   -10799   -10812   -10747   -10708   -10782 
  -10828   -10754   -10716   -10767   -10798   -10784   -10749   -10743 
  -10780   -10778   -10756   -10763   -10758   -10768   -10789   -10767 
  -10750   -10772   -10790   -10769   -10730   -10735   -10786   -10804 
  -10763   -10735   -10766   -10798   -10786   -10762   -10747   -10757 
  -10790   -10775   -10738   -10758   -10768   -10750   -10777   -10802 
  -10784   -10765   -10754   -10750   -10767   -10776   -10753   -10748 
  -10789   -10801   -10758   -10752   -10776   -10759   -10737   -10752 
  -10776   -10792   -10799   -10777   -10744   -10749   -10779   -10783 
  -10751   -10723   -10752   -10814   -10820   -10751   -10700   -10751 
  -10827   -10808   -10730   -10716   -10782   -10820   -10777   -10725 
  -10740   -10792   -10801   -10764   -10734   -10752   -10794   -10776 
  -10731   -10774   -10813   -10756   -10732   -10763   -10789   -10792 
  -10748   -10731   -10785   -10801   -10757   -10726   -10748   -10803 
  -10793   -10744   -10766   -10796   -10770   -10749   -10758   -10774 
  -10759   -10736   -10761   -10792   -10787   -10768   -10766   -10789 
  -10785   -10743   -10742   -10777   -10764   -10736   -10765   -10801 
  -10791   -10762   -10738   -10754   -10813   -10792   -10707   -10734 
  -10806   -10793   -10761   -10757   -10781   -10790   -10727   -10721 
  -10801   -10797   -10754   -10769   -10782   -10774   -10758   -10754 
  -10768   -10759   -10758   -10773   -10756   -10757   -10785   -10788 
  -10772   -10749   -10757   -10790   -10770   -10741   -10758   -10780 
  -10800   -10784   -10725   -10727   -10788   -10796   -10756   -10751 
  -10774   -10783   -10776   -10767   -10774   -10765   -10732   -10751 
  -10805   -10789   -10734   -10746   -10789   -10784   -10769   -10760 
  -10746   -10763   -10780   -10766   -10775   -10784   -10754   -10738 
  -10767   -10802   -10787   -10733   -10746   -10802   -10782   -10743 
  -10752   -10766   -10787   -10792   -10754   -10750   -10781   -10763 
  -10740   -10763   -10787   -10770   -10748   -10771   -10799   -10774 
  -10745   -10759   -10784   -10769   -10749   -10773   -10770   -10739 
  -10759   -10788   -10783   -10775   -10764   -10756   -10777   -10795 
  -10761   -10721   -10748   -10801   -10795   -10751   -10745   -10775 
  -10786   -10776   -10750   -10739   -10772   -10788   -10774   -10765 
  -10746   -10756   -10795   -10780   -10738   -10750   -10791   -10780 
  -10739   -10752   -10784   -10774   -10754   -10758   -10781   -10791 
  -10759   -10739   -10769   -10792   -10763   -10751   -10778   -10768 
  -10745   -10764   -10784   -10765   -10744   -10774   -10808   -10772 
  -10730   -10753   -10793   -10786   -10746   -10731   -10775   -10799 
  -10758   -10757   -10782   -10759   -10764   -10789   -10765   -10750 
  -10752   -10759   -10786   -10772   -10741   -10774   -10793   -10763 
  -10751   -10745   -10765   -10821   -10811   -10777   -10827   -10918 
  -10987   -11048   -11191   -11429   -11635   -11686   -11507   -11074 
  -10408    -9652    -9199    -9483   -10725   -12623   -14361   -15319 
  -15158   -13698   -11396    -9149    -7708    -7420    -8079    -9102 
   -9854   -10154   -10528   -11537   -13510   -16305   -18434   -17944 
  -14290    -8538    -2614     1691     3222      992    -5318   -13904 
  -21247   -24301   -22346   -17317   -12096    -8630    -7025    -5438 
   -2980    -1436    -1940    -4755   -10441   -16526   -19189   -18961 
  -18710   -18219   -15015    -9594    -5245    -3532    -5087    -9283 
  -11568    -9376    -6041    -5979   -10829   -17465   -20746   -18215 
  -10681    -3217     -991    -3241    -7543   -13260   -19123   -22775 
  -21372   -13943    -3380     6042    10176     5470    -7568   -22678 
  -31626   -31294   -25448   -17190    -7693    -1288      729     2622 
    2599    -4751   -15497   -21651   -20316   -14021   -10062   -12340 
  -17212   -19152   -14737    -9091    -7367    -2862     5014     6615 
     869    -8436   -20068   -31548   -37225   -30025   -12558     3651 
   12629    10333    -5101   -22619   -30491   -27155   -17109    -8792 
   -5123    -5137   -10554   -14442   -12109   -11869   -12455    -7178 
    -913     1410    -3662   -17607   -28717   -27086   -18029   -10030 
   -8834   -13112   -12777    -6339    -3295    -5479    -9511   -16379 
  -21930   -18744    -9866    -2884     -711    -4932   -13946   -20796 
  -23331   -23689   -17945    -7037       62     4442     9157     7375 
   -3549   -17331   -26082   -28720   -30199   -26499   -13680    -2257 
     770    -1577    -6540    -9249    -6967    -5929    -7920    -4339 
    1791    -4418   -19705   -29861   -31219   -21372    -3968     6769 
    6651     1149    -6128   -13229   -21952   -31775   -32424   -19081 
   -3406     4905     6194     -721   -10331    -8819     2067     6742 
   -2491   -23172   -43834   -47063   -30465    -9671     4757    11421 
   10768     4913    -6522   -22755   -33277   -26095    -6206     9372 
   15308    10117    -9849   -28645   -31283   -27288   -22132   -13651 
   -9880   -14042   -17961   -16432   -13493   -16642   -19443    -9698 
    1707     4221    10456    17550     7819    -9973   -18940   -21880 
  -22684   -20051   -19211   -20417   -14519    -3840    -2096   -12709 
  -25063   -29981   -28509   -21775    -9202     -478    -3920   -11872 
  -13630    -7335      346      856    -5870   -13901   -21606   -25880 
  -19888    -9248    -5518    -8106   -11244   -11224    -7039    -2723 
   -3410    -8683   -10182    -5930    -8008   -18467   -27204   -33202 
  -31937   -11773    16770    28468    20489     7611    -8931   -33414 
  -51911   -49905   -36205   -22241    -1197    21439    20086    -1301 
  -13634   -11519    -6903    -6279   -10023   -13136   -16360   -25132 
  -32480   -30844   -21865    -5006    14481    22143     9902   -14976 
  -32376   -31885   -21698    -8127     4571     9952     9351     4012 
   -9730   -30097   -48267   -53063   -40360   -18279     3650    22037 
   32447    25346      678   -23666   -33291   -30763   -21511    -8303 
    1945     3673    -2024   -12407   -19415   -17004   -13306   -10734 
   -8741   -17162   -26764   -23109   -15931    -9964    -3827    -2363 
   -3399    -7401   -16798   -27683   -34748   -25262     3589    32711 
   45034    32017     -621   -34273   -60868   -72300   -56989   -26016 
   -2030     5601     4974     7263     5512    -6759   -14637    -8049 
    5991    17815    18460     1882   -29739   -59245   -64145   -46022 
  -21369     2867    17295    15123     4907    -8495   -23611   -31526 
  -28423   -19507   -12172   -10404   -12420   -14461   -10025     2554 
   12756    15492    13606     1520   -22963   -45196   -51333   -44583 
  -33087   -14375    10079    21732     9810   -12319   -29109   -35616 
  -29261   -15458    -7932    -4051     7703    13652    -2799   -26714 
  -37610   -32122   -14381     6930    20789    18772     1521   -19356 
  -37204   -50237   -50673   -37964   -21622    -8132    -1421      185 
    7388    21049    23363     5572   -16129   -27717   -34600   -41921 
  -45037   -39404   -23081      335    19254    18991    -7165   -43261 
  -64898   -67509   -55551   -24949    21033    61392    75503    60047 
   27586    -9549   -48290   -76986   -75524   -44642    -1124    39071 
   54736    36229     2548   -24487   -40338   -49511   -53768   -47660 
  -28379    -3961    11787    10309    -2253   -13007   -15034    -8353 
    3370    17708    31167    33231    12657   -29509   -75945   -98538 
  -77083   -30259     6019    31636    55523    61394    38093    -5931 
  -47136   -61431   -50016   -22478    11084    20702    -1091   -20830 
  -25031   -23397   -19391   -20636   -31377   -43167   -42791   -21060 
   11665    38206    54056    50927    25261     -546   -23070   -62954 
  -92319   -70149   -14102    47401    91879    83441    23959   -46730 
  -97830  -111238   -94826   -71302   -37718     9039    47894    66713 
   68528    51469    13614   -34217   -71326   -80870   -60393   -26001 
    1872    23134    43132    50106    35859     6887   -27874   -56514 
  -61352   -33616     3228    14175     3411    -2642    -2689    -3044 
    6157    23486    31129    25368    10305   -11620   -31758   -51625 
  -71977   -76920   -65527   -47568   -20463    10155    31339    42738 
   39347     6207   -45059   -77481   -74142   -41504     5959    44092 
   59848    61144    49861    16326   -30677   -63584   -71079   -55277 
  -24077    -4534    -9577   -21207   -26249   -18852    -1346     9128 
   13606    21692    18262    -4775   -34095   -61369   -73524   -45250 
   17943    66736    70360    38888   -11218   -58405   -89960  -110599 
 -103639   -56925     -532    42525    69183    65542    30633    -6444 
  -23038   -23666   -15299     2152    19947    27800    21062      262 
  -19998   -25638   -16032    -3269   -12841   -46291   -71342   -72677 
  -57034   -28780     9623    50370    74179    64606    22290   -39648 
  -93464  -106070   -68136    -5121    47371    75143    77103    43520 
  -13576   -45835   -33750    -3867    24981    42000    33380     3456 
  -33729   -66115   -81058   -70234   -32043    10463    19246    -1646 
  -19466   -25891   -20200    -1726    10275     4671    -9154   -31399 
  -57527   -58231   -23600    19328    45936    49761    40493    33852 
   27127    11939     2039    10604    27757    39751    36035     5455 
  -49618  -102027  -117871   -95081   -53329     2752    60272    87153 
   73677    34256   -15835   -56112   -66206   -47919   -21244    -2846 
   -3683   -24166   -42530   -44397   -42815   -38388   -15333    19588 
   43154    37758     6630   -21132   -26155    -9721    21804    43045 
   36741    24556    15804    -5892   -30729   -40182   -48130   -63776 
  -73663   -76438   -74109   -64580   -55523   -43278   -17206    14770 
   40250    53529    51485    37103    13941   -16896   -36319   -20492 
   13084    33143    38613    32081    12552   -15396   -51519   -82416 
  -88448   -74698   -55276   -41186   -44618   -56464   -51422   -26542 
    2743    22560    21706    10015     6256    -3164   -28195   -36926 
   -6749    38632    59284    49889    38110    26489     2557   -19634 
  -33448   -47654   -53245   -44076   -34758   -33492   -31564   -19393 
    2783    27294    47967    57333    42677    11160    -8324   -14959 
  -32624   -55184   -59065   -41190   -13918     6140    14888    19572 
   21496    32117    50779    39556    -1760   -24221   -17883    -5008 
    8324    15824     2569   -31635   -62209   -68086   -59808   -57652 
  -62778   -61841   -44811   -19350    -3503     -991      810     8093 
   16843    33347    63163    86060    82069    52092     2587   -49003 
  -81411   -95144   -92768   -67765   -34623   -12609    10645    43738 
   60724    52362    45236    48955    47960    31901     6164   -13200 
  -25743   -39380   -37265   -13072     6744    12184    16309    22707 
   23786    15204     9781    23788    43830    42533    15482   -29776 
  -86653  -133702  -145770  -117887   -59661    10042    66427    92748 
   80365    34781   -11311   -30432   -24429     6501    51521    63208 
   19534   -50615  -123177  -180097  -198108  -172112  -106200   -13998 
   73986   136784   157495   122152    58799    11544    -7817    -3395 
   15499    27506    13961   -18587   -42684   -49363   -48450   -34982 
   -4087    27939    36671     8419   -38682   -71338   -84310   -80990 
  -45425    20374    78564    93623    62853     8868   -46879   -88599 
  -96713   -61278     1985    60353    92444   100249    83786    39589 
  -14800   -55855   -70406   -51654    -9566    30492    47046    36390 
   14975     3693    10355    23299    18953    -9164   -44281   -80187 
 -119846  -145592  -140876  -114118   -67433     2959    72691   111088 
  111563    85405    51344    24467    13252    15164    12792     -762 
  -16520   -36901   -64101   -80145   -75530   -63698   -48850   -13884 
   43063    88471   100239    95396    81895    52089    26906    26709 
   34476    36422    37788    37403    31020    10648   -36456   -97033 
 -138060  -149689  -139397  -113256   -87097   -73195   -60333   -35927 
   -7737    13684    28228    30180    19834    15557    16608     9350 
    8025    29840    61742    80804    82909    76601    59334    24073 
  -18667   -47347   -52057   -43144   -36823   -37579   -40675   -43912 
  -48394   -48389   -34971   -16873   -11993   -18880   -24305   -22300 
  -20228   -34485   -63190   -91842  -121622  -146345  -152578  -148976 
 -140487  -120926   -98394   -79995   -60199   -34797    -3779    36777 
   91070   143076   165294   149798   106719    53043     5268   -33306 
  -66184   -94521  -117843  -134066  -147285  -161259  -165942  -147130 
  -93042    -4449    89466   153396   169127   126835    36256   -64234 
 -147040  -207466  -231450  -206210  -136086   -27357    95066   185391 
  217867   193448   127727    50057   -14355   -59564   -88970   -99350 
  -84364   -49099   -11466     2770   -15375   -39955   -45637   -32270 
  -11349      443    -5159   -11861     -397    20384    29768    20755 
  -12200   -67319  -119031  -145915  -144216  -109358   -42681    38561 
  112516   157099   154104   105041    32790   -38018   -93906  -123305 
 -120354  -100488   -70766   -15765    53209   102668   125741   130862 
  123034   109539    93284    73840    53753    32046     7065   -12927 
  -21241   -24421   -24677   -17595    -7954     1454    16304    32354 
   36523    31550    32573    32323     9188   -28613   -51733   -53859 
  -53206   -53505   -34076     9183    49816    66431    57363    27847 
  -13551   -54892   -85519   -98031   -88082   -58117   -21502     7038 
   23992    30788    30750    32168    32737    21470      736   -21189 
  -41986   -60473   -75382   -80889   -70011   -48849   -26779     -160 
   24526    22432    -3231   -22673   -29176   -29527   -21015   -10008 
  -14486   -39027   -68876   -89512   -96943   -92776   -75272   -30448 
   43933   111000   137196   127024    90554    46052    30700    43424 
   42826    18323   -10577   -36422   -58849   -77846   -97928  -112011 
 -101083   -63872   -24005    -3823   -10586   -37570   -61643   -66853 
  -70456   -90820  -119773  -146681  -163018  -154859  -119451   -62080 
   11496    85529   143727   174096   167121   137056   107545    78036 
   50479    41266    44011    35913     9157   -25976   -55623   -82025 
 -107837  -115662  -101119   -81078   -60806   -40332   -23881    -8386 
    7917    22166    29928    22529     4161   -11369   -29585   -59933 
  -90858  -111832  -123218  -117362   -88370   -49765   -18178    10508 
   46208    70129    60612    33552    12211     1235    -1302      -78 
      30    -4069   -10540   -13614   -12736    -7206    -2402   -14718 
  -39800   -56451   -63218   -61435   -38734     -928    27271    36929 
   34155    20389      156   -14419   -25175   -42781   -60522   -68819 
  -78994  -105369  -138840  -158232  -155345  -127843   -75893   -16893 
   34616    78975   107491   112177    96926    57908    -1650   -55592 
  -87494  -104305  -109330   -95879   -64381   -22909    18375    47000 
   58253    62133    68436    69404    55523    39242    31307    22599 
   11905     7431     9255    15494    21386    19727     6415   -21811 
  -56291   -78650   -79650   -61530   -37331   -17646      941    13675 
    8070   -11988   -36531   -55665   -55746   -42596   -33450   -26163 
  -20075   -26491   -37037   -31087    -6463    22829    41686    44031 
   29644    -2806   -40275   -59494   -59423   -56724   -58768   -54429 
  -30289      263    15130    20401    28119    31972    29909    34362 
   47529    49717    30938    11727     7543     7927     3599    -3049 
   -6836     1057    22431    39630    33485     -610   -53551   -97995 
 -110319   -99565   -79447   -45908    -9543     5815     4331     1282 
  -10782   -35233   -57834   -75119   -89640   -91875   -76787   -52934 
  -27942    -2472    25850    53935    71608    76169    72370    59988 
   42536    30896    24948    17763    13148     6999   -13409   -32926 
  -35539   -38646   -51107   -61230   -57443   -29440    10628    33869 
   32387    16506    -2808   -14455   -12059    -8540   -23364   -47678 
  -57992   -51802   -42111   -39737   -40154   -28602   -11162    -6581 
  -12618   -16822   -14316    -5718     3529     5840    -8215   -37837 
  -60477   -65073   -68605   -72223   -55669   -23099     1996    15622 
   28707    40295    37760    12652   -33087   -81923  -111622  -118896 
 -109606   -83741   -45131    -5530    20317    25629    16074    -1810 
  -19703   -26839   -21694    -8392     8310    24754    41930    53408 
   46106    18760   -16973   -42314   -42791   -23492     1032    26023 
   52107    68216    61420    38082     6283   -33871   -68829   -81150 
  -69355   -41085    -8152    12856    14823     9288     1950   -16929 
  -42763   -60759   -70946   -72916   -59521   -34484    -6346    20202 
   41250    58190    74746    82837    68431    37415    11332    -2793 
   -9446   -11619   -17932   -29735   -30711   -15214      702     4162 
   -2793   -11491   -16660   -18136   -14014    -5185     -144      985 
    7503    17516    21667    21056    19483    10077   -13599   -46314 
  -76657   -94660  -100346   -99894   -87431   -54667   -14642    16009 
   39701    56329    51452    22716   -11735   -34383   -45396   -53718 
  -50633   -22499    17150    46863    60527    52320    14264   -43428 
  -94579  -122711  -127456  -109353   -65032    -1637    55811    86232 
   94257    92667    79025    52735    24175    -5956   -40141   -69087 
  -82277   -75366   -53855   -31165    -9823    14310    28510    20819 
    4554    -6266   -11762   -10940    -8318   -12428   -16891   -14569 
   -9577    -2345    11715    32602    51672    59474    58108    52614 
   42686    32931    28736    20609    -3420   -31411   -43967   -47230 
  -50069   -41231   -20738    -3756     9492    26948    45854    56124 
   50762    32198     7086   -22694   -55366   -80450   -86828   -73395 
  -44908    -9312    21506    35163    26709     8813     -936    -4695 
  -15183   -32879   -47650   -50885   -44368   -35334   -23786   -11678 
   -5637    -3643    -3607    -4600     3804    29805    62819    76198 
   61042    39384    22566     2857   -17808   -31924   -35802   -27698 
  -12632    -2537    -8594   -29201   -46550   -46137   -30998   -11107 
    7525    24582    39368    46242    43444    32556    13551    -6726 
  -18917   -24467   -28985   -29684   -21528   -11156   -11183   -18623 
  -18933   -10828      535    13951    19336    10205    -5997   -25310 
  -40570   -38248   -21990    -5068     8795    16638    15317     9965 
    6303     3641      659    -1028    -1704    -5463   -14584   -23863 
