Origin Time       2016/04/16 01:25:00
Lat.              32.753
Long.             130.762
Depth. (km)       12
Mag.              7.3
Station Code      FKO012
Station Lat.      33.3319
Station Long.     130.7939
Station Height(m) 50
Record Time       2016/04/16 01:25:17
Sampling Freq(Hz) 100Hz
Duration Time(s)  181
Dir.              N-S
Scale Factor      3920(gal)/6182761
Max. Acc. (gal)   62.358
Last Correction   2016/04/16 01:25:17
Memo.             
[...]
   17450    17464    17465    17450    17464    17459    17448    17470 
   17461    17446    17466    17458    17450    17467    17457    17460 
   17469    17452    17462    17464    17450    17466    17461    17449 
   17464    17457    17455    17464    17458    17462    17457    17452 
   17464    17462    17461    17464    17463    17472    17478    17486 
   17500    17502    17504    17514    17513    17509    17512    17525 
   17576    17643    17653    17580    17508    17525    17605    17690 
   17722    17662    17610    17717    17842    17675    17397    17499 
   17798    17765    17572    17548    17557    17639    17821    17604 
   16969    16765    17264    17715    17566    17035    16637    16656 
   16929    17141    17181    17069    16920    17068    17628    18000 
   17729    17363    17388    17421    17366    17808    18358    17882 
   17220    17898    18516    17562    16847    17554    18009    17485 
   17087    17330    17872    18018    17367    17002    17631    17953 
   17817    18345    18246    16833    16841    18157    17727    17038 
   18204    18346    16738    16687    17707    17443    17571    18603 
   17681    15740    16093    17624    17819    17151    16368    15521 
   16005    18161    18915    16946    15819    17182    18013    17146 
   16453    16756    18014    19576    19531    18220    17816    17846 
   18189    19318    18369    16550    18524    19873    16577    16042 
   19801    19048    15340    16939    19537    17435    16392    18171 
   17334    15379    16619    18606    17985    16712    16939    16874 
   16156    16960    18731    19520    18782    17153    16423    16586 
   16686    18216    19860    18031    15713    16939    18675    18531 
   18803    19288    17675    16144    17423    18522    17481    17444 
   18323    16712    14447    15413    17563    17172    16158    17572 
   18638    16698    15978    18704    19347    16864    17521    20364 
   19166    16294    16743    18854    19890    19280    17083    14965 
   15129    16750    16741    16344    18916    20222    17135    17219 
   22111    22542    18507    18601    21302    19160    15586    18359 
   22534    19720    15402    16870    18433    15900    15926    19252 
   18884    16404    16250    15557    14248    16627    20273    19511 
   16532    16810    18766    18595    17657    17643    17054    15717 
   16420    19703    21167    17597    12826    13141    18054    21032 
   19418    16826    15651    14705    13963    15329    17749    18044 
   18711    22060    21525    16805    16934    19196    17603    19764 
   25390    22152    15968    19957    24110    19136    17707    23125 
   21923    15617    15654    18677    18534    19184    20871    18758 
   16264    17997    19081    18196    19644    17924    11083    11569 
   18471    17384    12386    15418    20176    17520    13680    16188 
   20033    18959    16821    17755    18343    16379    15260    17646 
   21102    20678    17488    17383    17416    12375    11640    21661 
   26227    17250    12959    18862    21160    20419    22589    22292 
   19653    21768    27917    30511    24513    16604    18190    24521 
   24256    21580    20881    17379    15664    19754    20891    19173 
   20677    19389    13481    12807    18024    19813    18781    20698 
   19063    11527    11592    18575    17382    12616    15867    20390 
   20223    20844    21220    16241    11394    13383    18775    21979 
   22077    18946    12483    10276    20980    33964    32206    22218 
   18932    17919    12174    12676    25599    33904    27411    22461 
   28595    31717    25050    19349    21201    25646    22163     9320 
    6348    20821    27482    19468    21084    28860    19911     6021 
   11024    24118    22374    14472    20004    27152    21247    19102 
   28258    28796    18595    15925    19705    16297     9832     8255 
    5097     2400     9048    10182    -2067     1473    23603    20447 
   -6939    -6615    18518    22655    15704    30287    46758    40949 
   31110    31464    29200    22129    26794    39659    38491    30492 
   35571    40622    34113    26336    11189   -12786   -14774    11342 
   30111    27978    21288    16878    14809    17459    19597    16667 
   15422    25052    43525    52050    38307    22212    25698    34884 
   28646    16550    15992    20142    19124    21954    27472    20843 
   10695     7478     1694     4810    25279    27868     7518     8602 
   24639     8760   -17432     2793    40817    30838     -252     1617 
    7818    -4075     4233    27222    22170     1343    -4625     2633 
   15431    27423    31396    31654    31690    21276     4956    10004 
   34374    43963    34568    32304    38584    36100    35107    42490 
   33111    13688    16418    23790    14451    18284    35876    23764 
     -94    11915    29829    15601     2137     9132    10691     8204 
   20874    36714    38599    30213    18839     9546     7611    12361 
   19662    23667    18083     5769    -4581    -6861     3450    21302 
   24792     4415    -7652     8087    15392     6051    19814    42549 
   29705     2141     2539    20717    24557    12732     6053    11067 
   13631    11651    21486    33200    22205    10229    30616    57277 
   49868    25321    21037    39352    56053    49275    29781    24363 
   23784    12878    10511    21368    24763    18337     8767    -4857 
  -10735     3701    21579    23516    17396     7900    -9340   -11993 
   14152    29024    10129     -306    14652    18928     7933     5004 
    4344    -2700    -2632    11139    20633     9906     2874    21431 
   31772    13892     2685     9355    11336    10855    22745    34916 
   23930     3195     7319    22291    14010     5480    23885    33153 
    8200    -9902    10170    38401    37056    14728     3665     9806 
   18749    28877    38716    32899    14566    13077    32652    40259 
   25762    12799     9574    10924    16584    14598    -1079    -4571 
   21684    48971    39646     1902   -21494    -9302    19780    35677 
   29314    14664     3720      450     3134     4385     5279     6285 
    5394     8540     4428   -15301   -19964     6442    27428    10767 
  -17897   -17505     1562    16471    31921    34748    15453     8394 
   23770    30290    24611    27920    40605    46505    38537    22608 
    5647     1188    24389    53516    49476    24266    17938    29175 
   34229    34983    42377    45826    32958    18387    19202    25093 
   25111    28177    34592    30069    18048    13753    12625     5674 
     547     3576     6489    -2496   -15214    -8210    10802    10390 
   -2180     3383    17748    15650    12375    26687    29167     3583 
   -4204    25212    37890    11993    -3184    11697    21957    15965 
   15544    20286    11528     3996    18012    25035     4963    -1705 
   24338    39963    29742    25192    30161    32070    38154    39120 
   24922    19828    28349    32060    38267    46335    38577    31308 
   43890    52254    43588    40169    40728    28583    18397    23108 
   24178    17209    20104    23502     9177    -5022    -1140     3682 
   -3264    -4006     9310    14043      348    -9443    -5456    -6114 
   -8123    10722    33181    31658    21186    18202    15397    17138 
   29986    34600    19428     9280    18547    23870    16001    16230 
   27688    31881    28245    27637    21855     3482    -7548     3019 
   14795     5947    -9203    -4701    10774    15651    15659    18770 
   17433    12183     9099     7468     8068    11541    14689    17471 
   18989    14435    11267    26288    48472    48007    32175    29639 
   37197    37541    30584    21646    12195     5201     4453     7837 
    5689    -6835   -20750   -24540   -14971    -1520    -5815   -27051 
  -27622    -1238    11703     7742    13978    19580    12301    16662 
   39067    47782    31030    19651    31175    37475    21191     6559 
    4489     2828     8394    23883    24757     7031     -222    12560 
   24163    26206    27955    25133    17037    20581    29707    24774 
   12978     7826    13372    25866    25152     8257     5898    21166 
   21145    10355    18333    32275    28596    17192    11803    11087 
    9965     7728    11403    19377    13307    -3663     -573    19877 
   22729    11869    14917    22151    14023     4930    17077    44121 
   56159    40166    25636    36119    45497    32932    22484    26532 
   20738      115    -7787     3044     6804    -7547   -18460   -12110 
   -7475   -15207   -17343    -6214     2811     -390    -5748    -1986 
    4948     9499    17877    26021    20944     8930     8293    21321 
   35402    36933    23419    10673     9152    12220    21885    36892 
   37954    25751    20810    25197    25053    17736    21401    42205 
   51090    34661    20626    18946    13237    13344    33836    50144 
   40884    24750    21677    26187    29843    33211    32253    21448 
   12258    16455    19880    12439    13062    26722    27265     9567 
    1286     7232     4269     -998    12133    18155    -2062    -7501 
   13817    14211    -9733   -12183    10022    21636    18924    23383 
   25463     7834    -3386    13047    26863    11777    -8965    -4547 
   11005     8293     -356     5401     4518   -12757   -11400    12205 
   14727    -3434      486    25025    35431    31245    29593    21106 
    5269    15559    48064    46343    10205     3277    26501    27993 
   19335    34555    41873    18339     4078    12992    13469     3460 
    4605    15838    21045    10471    -6107    -4046    12146     9198 
   -4081     4363    10599    -7873    -8763    20143    24950    -3025 
  -11104    11162    22038    10941     8817    23289    25892     5873 
  -10453    -5520     5119     8189    10135    13959    17418    22070 
   23259    17009    12285    15202    19484    20293    21070    24146 
   26292    25719    27700    37870    44503    27497     -248    -4937 
    7052     8261     6830    14441    15617     1830   -17147   -20751 
    1054    17246     5238    -5506     2701     8134     3187     6387 
   23386    33371    26139    21652    26495    20556     6414     7323 
   16982    12073    -3472   -10081    -3194    10502    25065    30125 
   17983    11665    35403    59170    53645    46394    51852    46366 
   37054    47766    53245    16853   -29474   -27332     3766     8630 
    3095    24035    49002    51280    51562    64915    67382    54108 
   56453    71394    62342    33015    17894    23702    30666    23784 
    7401     -488    10079    31481    47765    45064    27540    18158 
   30040    49068    50012    31249    21486    33134    38407    16374 
  -14429   -30515   -33290   -30174   -22295   -20838   -28840   -17686 
   16145    28141    10705     5792    19471    18002    -4182   -20679 
  -22761   -23149   -19946    -8426    -7264   -18702   -14555     6369 
   16114     8230    -1818    -3243     8874    32645    48112    36846 
   15585    14013    25832    24852    13242     9991    16692    25662 
   36161    47556    51064    41658    33348    39029    45089    36240 
   23924    27130    44755    54811    42425    23297    16353    17765 
   20132    16536     1183   -12046   -10372      896    18680    32426 
   25675    13572    18414    29001    31112    24451     7161    -7408 
     450    15522    16260    19730    38313    44882    24820     2748 
   -1628     4467    11665    24373    44412    58575    61588    64491 
   61714    39434    20233    30239    45355    37890    23063    16878 
   13536    11293    12203    12655    10576    11899    24840    36206 
   23261     -607    -9830   -12879   -19924   -19803   -12839    -6782 
    4070    15457    10865    -3214    -4472     7738    20868    33201 
   40279    41045    55909    84808    91850    66614    38487    28785 
   35120    44765    44666    32614    16742     5792     4395     7615 
    7581     7633    12139    16350    20661    29103    32187    21065 
    6873     -853    -7548    -9073     2957    12542     3448    -9167 
   -9730    -9327   -16627   -21294   -21121   -24952   -23556    -7177 
    4376    -1147    -7380    -5642      114    11650    30859    48392 
   47108    25963     9273    14618    33036    48656    51949    38581 
   15714     1390     7178    23851    30792    22231    12376    10699 
    9847     3827      805     6311    13117    19494    26831    23864 
    7919    -2917     1013     8753     9321     2920    -4232    -5231 
    1165     8752    12294    14110    18000    21505    22837    24389 
   25480    26979    32286    36690    33025    21635     9498     4100 
    3713     4989     8475     6365       43     6325    17087    10630 
   -1285     2095    13379    21075    28660    35928    35401    31825 
   37045    47899    55507    56048    44280    27508    19424    11413 
   -2572    -7113    -2948    -3897    -7739   -12178   -16635   -11881 
   -2719    -4540   -14471   -20954   -21178   -16131   -13221   -19318 
  -23010   -16746   -11572    -9632    -9365   -17375   -25684   -22602 
  -15927   -17103   -25610   -31329   -27181   -15776    -1428     7258 
     752   -12878   -15949    -4384    10230    16960    18723    20918 
   20969    23686    37041    48096    40112    24547    24097    35375 
   37026    29828    31681    40271    42042    39096    38877    37454 
   32313    38840    65035    89420    95281    89814    80762    73327 
   77368    94998   113045   115814   103605    90248    78888    60846 
   41116    33001    31433    24331    16518    14886     9690    -3503 
   -7896     4914    19646    21860    15702    18824    35751    45605 
   38788    31466    28814    20603     9119     3028     -661    -1588 
   11619    33252    41713    35337    29957    32128    38963    50009 
   62612    66514    60556    57538    57408    45481    25963    19337 
   25758    27705    21398    15998    14370    16255    22397    23652 
   11192    -2977    -2439    11095    28487    41022    39932    28332 
   16389     6649      123    -1689    -5244   -16467   -29747   -39686 
  -49736   -59432   -63103   -60296   -53964   -47915   -39568   -18208 
   10718    27879    33001    39273    48944    54901    51168    40030 
   30721    26950    23012    14575     3112   -10074   -21175   -21026 
   -9049     3230    10583    20020    34810    44493    43393    43848 
   47119    37332    21692    20665    24805    16607     6350     7090 
    8962    -1151   -18154   -24338   -10940    10749    27234    39449 
   50664    57976    62297    68434    75922    77877    70455    63740 
   69402    80601    85190    85271    86763    83228    65164    41836 
   30278    26463    17847     8808     6685     3474    -7576   -15210 
  -11209    -8890   -14876   -12969     1361    13450    18779    23684 
   32042    42503    50532    55617    57886    52796    40580    29327 
   25265    26805    27159    20008     6503    -3357    -6384    -8877 
   -7001     4290    15748    21483    25569    32030    41116    46082 
   44781    47207    55900    61114    55914    41914    29965    25644 
   16786       -8    -9756    -9878    -7957    -1821     9002    19326 
   27406    31261    31131    32251    34151    31753    26037    23166 
   26282    27182    17391     6242      912    -7694   -18350   -19851 
  -15058   -11221    -6615    -1555      748     3165     7864    10392 
    5817    -2055    -1636     5472     7712    10306    17175    15365 
    7815    10803    17948    13556     4843     5396     7559      878 
   -6565    -9073   -17156   -32972   -40091   -30702   -18038   -13537 
  -11012     -775    12463    19436    22654    23716    16776     8168 
   10881    20568    25661    27807    29907    25155    15447    12395 
   13628     8802     1896     4099    15017    24207    26677    27011 
   28533    28515    24547    20248    21669    27206    29925    29226 
   30492    36452    42626    45457    51419    64577    76169    79824 
   81027    80528    68846    49721    40086    40744    38950    32161 
   29235    35344    40336    35841    34321    39239    31995    14343 
    7580     7511    -4453   -21698   -26676   -25387   -33408   -42509 
  -36799   -27191   -28098   -25010    -7241     7776    11435    14636 
   18189    18880    23814    33158    37751    35805    33947    36000 
   39066    42306    46605    47418    45106    48186    56291    58224 
   49228    37294    29431    23999    22032    25910    27714    23977 
   25578    33104    32875    25016    19219    11262    -1359    -6097 
   -2174    -4079   -12857   -19279   -23931   -30040   -34662   -35900 
  -32570   -21652    -6610     3708     7852    10010     8570     2276 
   -1339     -216    -4362   -17571   -30005   -33709   -34051   -39063 
  -45289   -44772   -38592   -33559   -30495   -24999   -17578   -11627 
   -3215    11218    20390    14800     8811    15489    21220    16509 
   14073    17190    14995     8373     4856     1964    -4751   -10490 
   -8211    -1519     -540    -6182   -10367    -6553     6886    23148 
   32368    36449    42674    49498    53817    55830    52853    44998 
   40238    42566    44794    40902    35528    33075    30706    28126 
   28496    29701    26052    18294    15996    23138    30766    31898 
   28171    22556    16882    10506     2989     -930     1091     2914 
     100    -2720    -1631     -616    -2112    -4403    -8483   -13474 
  -14881   -12645   -10921   -11481   -11839   -10181    -7738    -5412 
   -4419    -5078    -3294     1075     1155    -1985      -51     4598 
    4917     4638     8771    13539    15305    15283    14393    14332 
   18764    25827    28171    24207    19948    19264    20451    21678 
   21793    18084    14259    19818    30017    31732    29592    33877 
   38465    36436    34676    37446    37241    31794    28636    29418 
   28956    26222    24372    23484    19768    13900    12023    14679 
   16698    18582    25386    35607    43070    48697    57839    68193 
   73036    72982    73478    74593    73517    72538    73919    72740 
   65320    56305    49474    43237    38311    37399    38277    37416 
   36111    36290    37588    39946    43006    45393    45475    42966 
   40618    39914    38284    35187    33264    31005    23996    13954 
    6825     3932     2664     1134     -446      244     3523     7201 
   12359    20934    28529    28678    24177    23343    25507    24737 
   21621    18440    14534    11678    12720    16334    17777    15127 
   14372    19778    24449    22915    20230    20584    22058    22309 
   17928     7944      290     -438     -926    -3284    -2021      233 
   -2216    -3441      671     -105    -7916    -7653     1745     2195 
   -7445   -10642    -6559    -6489    -8756    -6198    -2863    -3967 
   -3698     3172     9382     8528     7725    13003    17883    17914 
   18240    20313    20449    19649    19112    16883    15093    16904 
   18734    15652    10446    10119    14698    17726    18790    23654 
   30763    32648    30711    32419    36475    36413    32722    29835 
   28703    26363    19141     9537     4986     4476      308    -6039 
   -8438   -10597   -18683   -28341   -31261   -27986   -25841   -26685 
  -24384   -16135    -8304    -4981    -1153     4533     6546     6258 
