Origin Time       2016/04/16 01:25:00
Lat.              32.753
Long.             130.762
Depth. (km)       12
Mag.              7.3
Station Code      FKO005
Station Lat.      33.6519
Station Long.     130.6962
Station Height(m) 28
Record Time       2016/04/16 01:25:23
Sampling Freq(Hz) 100Hz
Duration Time(s)  137
Dir.              N-S
Scale Factor      3920(gal)/6182761
Max. Acc. (gal)   113.044
Last Correction   2016/04/16 01:25:23
Memo.             
[...]
    5004     4338     4202     3909     2689      884      -38      535 
    1335     1258     1081     2203     4676     7070     8098     8168 
    8624     9816    11135    12104    12277    11362     9937     8929 
    8397     7510     5746     3891     3611     5512     8273    10095 
    9889     8179     7136     7717     8306     7448     6061     6101 
    7422     7611     5551     2793     1020      461      624      933 
    1442     2757     4168     4336     3958     4413     5432     6459 
    7781     9542    11400    12762    12841    12196    13002    14875 
   14375    11046     8079     6972     6898     7009     6314     4610 
    3782     5205     8022    11200    13741    14079    12324    10327 
    8818     7444     6147     4653     2714      788    -1128    -3531 
   -5999    -7833    -8191    -5635     -946     2776     4596     5445 
    5303     4605     4713     6119     8726    11820    13582    13409 
   13112    14362    16687    18319    18137    16627    15670    16650 
   17920    16163    10693     4640     1648     2044     2892     2104 
    1510     3844     7692     9179     7563     5034     3078     2541 
    3564     3991     1859    -2026    -5510    -6173    -2789     1820 
    2771     -294    -2615    -1077     2437     4328     3868     4207 
    8080    13442    15369    12032     7381     7344    13350    20722 
   24692    25595    25868    25393    22926    18943    14215     8924 
    4347     1725      548     -320    -1912    -3972    -4112    -1707 
     121     -226     -364     1495     4267     5913     4262    -1555 
   -8054    -9447    -4910      302     1977     1345     2616     7491 
   12224    12871    12045    14982    21221    25656    25826    23196 
   18893    13808    10756    11024    12149    11893    10256     8179 
    7049     7526     8946    10868    13506    15712    13835     6080 
   -2895    -7401    -7711    -6639    -5885    -7206    -9545    -8743 
   -4170     1306     6218     9618    10047     8197     6978     7792 
    9475    11470    14391    17630    18596    14688     7876     4564 
    7621    12683    13969    11647    11474    16000    21245    23180 
   20959    15705    10045     5613     1245    -4971   -13046   -18977 
  -16500    -4958     7656    13272    11897     9202     9214    11095 
   11691    10470    10385    12982    16433    18111    16310    11811 
    6902     2280    -1372    -2441    -2331    -3638    -3848     1470 
   11239    20558    25989    27216    26038    22761    15689     5854 
   -3039    -9294   -12264    -9831    -2926     2154      925    -4562 
   -9372   -11097   -12023   -14078   -13310    -5347     8302    23309 
   34087    34180    24299    14187    10795    10673     5927    -4823 
  -13181   -10348     1769    11592    11341     6055     6376    17601 
   34994    45494    42035    34275    32595    33610    33263    34359 
   35919    34184    29533    22314    12793     4549    -1623    -9378 
  -19023   -27151   -30939   -28942   -24110   -21649   -20892   -18164 
  -13883    -9969    -7122    -7075   -12152   -20981   -26253   -20860 
   -7464     3207     4991     3444     9403    26459    44137    46287 
   30575    14390    15384    31891    48456    54662    51547    44045 
   35495    28819    25293    22609    18058     9797    -1285    -8133 
   -6078    -2121    -6771   -21407   -35710   -36574   -23004    -9086 
   -8168   -18701   -29254   -31598   -25148   -14754    -5679     2212 
   13243    28374    41918    47391    43825    36815    35642    41273 
   41988    32112    22009    22937    31991    37414    34613    27199 
   19730    16065    15381    11936      972   -17728   -37934   -51615 
  -56546   -54300   -46319   -37056   -32652   -31118   -23815    -9598 
    3264     8252     7193     7848    16447    30726    42301    48069 
   51769    55028    57573    57942    49934    31590    11374     -833 
     195    10863    17037     9046    -4476    -6659     5786    15083 
    2291   -29057   -57689   -65800   -52654   -33436   -22849   -21153 
  -18925    -8778    10316    31358    40660    31121    10561    -7802 
  -15511   -13217    -8141    -4262     1878    16788    39257    57498 
   64418    61872    53758    48284    50562    53233    46721    29181 
    6935    -6788    -4982    -2443   -17929   -43745   -57647   -54009 
  -44549   -40440   -41719   -38461   -20813     7785    30058    37016 
   37223    36235    32346    30060    32987    35377    34105    33524 
   34428    32424    26497    17733     4673    -9582   -14241    -5840 
    4613     7186     1769    -6188    -9540   -10059   -16927   -27497 
  -30393   -22653    -8950     2605     1922   -12114   -27728   -35491 
  -34731   -25277   -11555    -2994     1748    11104    25332    41397 
   56596    62507    55666    47428    46841    49137    47687    40454 
   28052    13963      270   -12654   -21665   -26038   -30186   -35886 
  -39869   -39406   -35876   -31118   -23024    -9323     7491    22279 
   32141    38174    41614    41874    40481    39404    36373    29945 
   25551    26831    27432    24437    24417    28154    31226    33364 
   31361    19096      192   -13964   -17553   -13247    -7920    -9424 
  -17934   -22871   -19230   -14393   -14302   -21322   -37031   -53309 
  -56392   -43238   -19944    10012    41166    60208    59847    48776 
   41053    42061    43553    35184    22817    21345    31271    40008 
   41301    37658    31538    26838    27293    29221    27208    21290 
   14265     8651     5373     3641     1601    -4870   -20774   -42544 
  -55327   -50949   -38568   -30249   -29385   -33771   -39799   -42013 
  -34668   -19231    -5350     -656    -2508     -432    12122    30541 
   45116    48102    39813    33781    41934    56822    62986    55058 
   40299    32021    34594    38546    37707    35116    31435    26005 
   21164    18484    19246    20459    13657    -1778   -17715   -29869 
  -38461   -43434   -46134   -49341   -52824   -54576   -56100   -57837 
  -53889   -42127   -29307   -19481   -10970    -3089     3625     8381 
    9233     5478     2805     9516    23057    33739    41026    50863 
   64524    76674    77586    62561    43057    37203    46529    53909 
   45944    26191     6630    -4647    -9366   -14710   -20174   -17023 
   -4061     7521     8162     -509   -10424   -14477   -15632   -25722 
  -43871   -53012   -44673   -26965   -11236    -5127   -10151   -16459 
   -9336    11068    26445    23706    10995     5116    13345    30490 
   45385    51341    54146    63539    76245    77696    60678    31223 
    1830   -14283   -16537   -18650   -25681   -30335   -31650   -36451 
  -46466   -51980   -42708   -22987    -6914    -3221    -5269     3022 
   22356    34168    28140    14954    11488    22236    35344    36794 
   25595    13617    11396    15922    14998     2464   -13811   -20841 
  -12340     8176    26853    29385    16761     1963    -4410    -1254 
    4274     5172     1641     -483     3646    12041    16880    13954 
    8436     4151    -3366   -12859   -14887    -8169     2189    15158 
   28210    36313    39210    38363    32566    19062    -3726   -29146 
  -42766   -38174   -24543   -12974    -6441    -4479    -5972    -8637 
   -9508    -5736     1279     6074     6221     4679     6472    13815 
   22535    25377    18089     3372    -7883    -5973     5463    15119 
   17256    15038    17759    28768    36590    32684    25278    23021 
   23150    19943    12441     6473     9531    16877    13465    -4234 
  -24620   -37765   -41460   -38138   -32480   -28223   -26979   -25861 
  -18907    -6289     5344    10852    11081    12683    18930    24407 
   25811    26736    28745    28255    23522    20189    25130    34765 
   36767    25303     7778    -5618   -12260   -15396   -17685   -17617 
  -10837     3146    15761    17807    11870     7098     6154     5949 
    7471    15446    27004    31499    25436    17265    13919    13749 
   11842     1365   -18589   -33355   -30152   -18068   -14948   -24299 
  -33717   -29727   -12196     5207    12158    12000    12567    17987 
   24725    21738     6409    -6379    -1821    17072    33325    35830 
   28691    18088     9230    10367    17110    13913     2290     -343 
   12438    31639    45121    46232    38550    30172    23967    17441 
    7743    -3824   -12612   -18077   -25028   -35426   -45552   -52731 
  -56713   -53730   -40179   -21366    -7044      419     5888    10598 
   10810     4793    -4558    -9043    -1409    13558    23205    21992 
   15908    14328    20222    29227    36026    38039    38410    44471 
   55525    61382    56796    44644    29626    18859    16393    13657 
    1141   -15805   -25540   -25394   -22941   -26093   -34597   -42438 
  -44521   -39920   -33571   -33225   -37821   -34843   -18663     -159 
   10005    13285    16923    26841    39411    40579    25509     7495 
      88     5317    16716    23193    19902    17424    27252    43369 
   51576    48736    40773    31870    22717    11526    -1045    -8292 
   -5438     3599     8933     3639    -9087   -21689   -30772   -37181 
  -41816   -42742   -39391   -34123   -25079    -7185    17184    36175 
   40901    33183    16944    -4509   -21923   -27016   -22024   -12972 
   -1285    14203    32705    50359    63227    68432    61993    44868 
   27619    19013    16420    12390     6060     2882     3670     4091 
    3696     2590    -3064   -13240   -24270   -33973   -37358   -31997 
  -26586   -27806   -28777   -22275   -13645   -10872   -11440    -8264 
   -1110     4797     6314     5793     9876    21752    33959    38206 
   37991    38973    39554    40199    43531    45841    44590    43817 
   44788    44254    40421    34067    29512    30577    32540    28282 
   17252     1356   -15255   -26142   -34286   -48409   -65859   -76177 
  -72389   -52615   -23187     2824    16350    17769    12630     5852 
      43    -5387   -12436   -18179   -16530    -5239    10694    21106 
   23664    26636    34951    47547    61408    72026    76505    73516 
   62761    48771    38345    31367    21882     8312    -6461   -19438 
  -26391   -26317   -22708   -16995   -10911    -5934     1372    10183 
   12687     5223    -9298   -24358   -32351   -33928   -38097   -44288 
  -41032   -26162    -8048     6780    14062    13786    13038    16771 
   22902    27536    27912    25050    26509    38159    51969    54925 
   47376    37271    29358    28952    35891    38926    30688    15074 
     -88    -7748    -8882   -12097   -18598   -22141   -21430   -18400 
  -13700    -8985    -6418    -6913   -10288   -15519   -20804   -23319 
  -21013   -15418    -8222     2676    16834    29001    37441    42253 
   39936    30217    19740    16694    25568    42258    54958    56753 
   52478    45459    30270     5506   -20237   -34823   -29228    -5730 
   19588    31831    32903    30411    21838     4484   -16738   -37005 
  -50603   -51498   -44082   -38041   -33638   -25378   -11721     4776 
   18227    23503    23198    24018    28352    31812    27604    16905 
    8543     6946    12257    25137    41529    52581    55145    55312 
   57010    54276    40672    18480    -4011   -19426   -25989   -25557 
  -20107   -11058     2767    20842    33236    27563     3064   -26448 
  -43874   -44500   -37236   -30628   -25074   -17494    -8187    -2324 
   -2682    -4135     -169     9180    18478    24784    30833    38327 
   44133    45766    45007    43298    40120    38603    42185    44590 
   34928    12758   -11250   -26167   -27732   -23397   -23775   -22956 
   -7426    17495    31206    23707     4043   -14631   -26868   -33159 
  -34734   -30970   -21990   -10574     1333    12266    21083    29996 
   36988    34726    26222    22389    24830    28489    32333    36201 
   37173    35261    33239    29387    21957    15114     8306    -3836 
  -17258   -24238   -22115    -9354     8037    16019    10887     3418 
    1624     2170     -526    -7878   -15212   -12226      119     3712 
   -9823   -26170   -29059   -15766     5742    21518    21685    14224 
   15556    27284    36508    32391    16959     5634    11090    28685 
   44388    47820    36623    15703    -6922   -25289   -38655   -45965 
  -39656   -16931    11726    35976    51520    52745    39029    20477 
    4604   -10313   -24615   -31826   -26711   -13507    -1232     6634 
   10959     9554     1189    -5705    -1029    12564    23728    25643 
   21230    21277    34553    55594    66003    49675    10271   -26711 
  -38099   -26788   -15915   -21211   -30771   -20042    13598    45692 
   53235    31931    -8602   -46234   -57256   -43197   -23839    -2980 
   26132    56119    70743    57730    20476   -15278   -25827   -12124 
   14500    44875    67616    78213    80258    68110    34061   -16251 
  -68497  -104515  -111430   -87760   -38303    17505    53871    67790 
   65437    42889     8438   -17667   -29103   -30443   -24690   -12866 
    7249    34711    52603    41670     6269   -30155   -48110   -49532 
  -49534   -47106   -32323   -12682     3372    24361    55129    82466 
   94201    92599    83472    74872    70398    50868    -2245   -70307 
 -112564  -112253   -85120   -41661    13482    57754    78250    84561 
   77398    48924     3896   -42766   -74914   -77269   -49564   -14540 
   15559    54118    95894   107496    75168    14807   -51434   -98561 
 -115404  -118623  -115260   -90780   -42567    18865    78612   124235 
  159326   184464   184886   151280    86929     5205   -66326  -101150 
 -102468   -93317   -85989   -81962   -74025   -50313   -19490    -3935 
   -5866    -7493     5333    29653    46903    42695    27317    24267 
   43310    73588    96676   102912    91156    58375     7994   -37277 
  -55377   -50505   -38518   -27693   -18443     -210    33137    69005 
   94264   103962    96041    74488    49101    25889     2323   -23316 
  -47478   -66855   -77136   -70834   -48116   -27950   -25163   -22959 
   -4584    15258    19638     6098   -23319   -52310   -60603   -53028 
  -46040   -44227   -49725   -61928   -65334   -46093    -8063    34863 
   68956    91847   110709   127046   136498   135075   122245   101428 
   73126    37025     -798   -32474   -52534   -59396   -57740   -51154 
  -37606   -18303    -2791    -2883   -18919   -37750   -51538   -62491 
  -67289   -55030   -21831    19806    50751    65021    68300    60447 
   43016    29117    22182     9513   -13478   -37717   -56986   -67645 
  -61896   -40872   -17922     -949    13542    31792    50886    58804 
   57402    65926    89354   111760   121169   115739    95936    66935 
   37510     8714   -23851   -54146   -71359   -79152   -85916   -86406 
  -74962   -60915   -55563   -56924   -54788   -45314   -34254   -23310 
   -3874    29760    69124    94635    89021    51976     1994   -37406 
  -54668   -52608   -36932   -14883       49     2332     4632    18581 
   39864    59314    75760    94041   115205   133793   144432   145862 
  138064   119906    90650    51250     6722   -32960   -57933   -61381 
  -42700   -15916    -3615   -12798   -28961   -39352   -46951   -59112 
  -77077   -95770  -104512   -97502   -86133   -83872   -85128   -75036 
  -50334   -22162    -3077     4046     2292    -7786   -27081   -51851 
  -71488   -74312   -55058   -16477    28776    67083   100497   133764 
  157631   165777   161719   144697   115797    89382    78879    81178 
   84476    78733    56559    19353   -20267   -51734   -75013   -93331 
 -106365  -110585  -100700   -76339   -48292   -28201   -16303    -5893 
    6970    18046    18406     5482   -16364   -39787   -53335   -52869 
  -47678   -42460   -32385   -16211     2293    17867    25477    27696 
   37130    63367   100635   135480   159297   167059   155402   127982 
   96333    69572    43586     9596   -29163   -61017   -78866   -84818 
  -87651   -92427   -96261   -96547   -90929   -73385   -44015   -13977 
    8428    23578    29719    21985     2573   -16767   -23548   -15693 
   -1666     9999    18732    30177    45147    54245    51195    43247 
   39130    38877    40154    41738    40112    31473    20334    21191 
   38220    49012    34209     9723     1577    10538    17663     6641 
  -21649   -51251   -70771   -84531   -96629   -95387   -66730   -17667 
   24457    44267    55183    64056    54879    25754    -4708   -24138 
  -28165   -16407     4337    27451    51338    71429    77699    65211 
   40490    18072     9838    10751     7961     4359     9954    22936 
   35793    41557    34356    16105    -6134   -30452   -56381   -77921 
  -91622   -99320   -99114   -86783   -62415   -31949    -4229    17562 
   33614    37545    27377    18488    27688    54214    85837   114227 
  136377   148604   147647   132624   104332    65573    22444   -14954 
  -38635   -49285   -51273   -45412   -31987   -15312      182    12900 
   21137    22511    17370     9343    -1546   -21997   -53690   -86013 
 -108019  -116896  -113542  -100853   -81797   -57560   -33118   -15288 
   -4514     3544    14783    33055    53135    67244    76963    86141 
   91768    91494    88028    81893    69823    51678    33904    23658 
   18192     5484   -19110   -45758   -62818   -66657   -60319   -46242 
  -22611     6854    30623    45841    60896    77413    87527    87881 
   80392    65172    41508    10549   -21692   -46122   -61957   -76105 
  -86870   -84041   -65761   -41398   -20391    -4891     8280    19975 
   27261    30098    32509    36468    41412    46287    46539    41742 
   42164    50090    53619    47035    33673    18358    10206    12574 
   13210     3173   -10487   -20724   -28432   -34221   -37744   -41206 
  -45076   -44685   -37126   -23280    -1419    27020    51688    65700 
   73501    80496    84443    79637    58835    14707   -43664   -90671 
 -115053  -123636  -118533  -100011   -72485   -40895   -16177    -7527 
  -12131   -23500   -34709   -36698   -23846      998    28987    54625 
   77014    94084   107315   120085   126676   120106   104107    87336 
   74130    64872    59960    56255    49330    43328    43030    44172 
   42009    36069    25208     5933   -22422   -52328   -73665   -82356 
  -79692   -70349   -61633   -57961   -56742   -52787   -45542   -38324 
  -33706   -33291   -35681   -37047   -38146   -41021   -39501   -25657 
   -2891    19027    37978    57126    74202    83876    83714    73286 
   55885    39190    28464    25539    34306    52308    63224    58818 
   52757    54892    55966    47554    32051    12702    -5482   -13076 
  -10047   -10435   -22282   -37701   -48080   -51408   -48345   -44147 
  -44617   -48235   -50160   -46982   -35922   -21075   -15049   -20676 
  -22962   -11018     9083    29884    50912    70758    86784    97908 
  101586    94108    74852    48440    20674    -5348   -24482   -28561 
  -15825     5552    25687    38714    41443    34662    22119     5317 
  -12518   -24519   -28576   -26594   -18686    -8253    -5550   -17325 
  -36742   -51224   -56935   -56170   -47695   -32606   -18109    -6274 
    6013    17272    23168    21095    13733    10461    15955    24080 
   29033    31028    33471    41147    54784    68532    75356    72172 
   62135    50768    37217    16057    -6779   -13022     2409    25424 
   46567    64983    75740    71859    51608    23194      828   -12310 
