Origin Time       2016/04/16 01:25:00
Lat.              32.753
Long.             130.762
Depth. (km)       12
Mag.              7.3
Station Code      FKO011
Station Lat.      33.3235
Station Long.     130.5115
Station Height(m) 8
Record Time       2016/04/16 01:25:17
Sampling Freq(Hz) 100Hz
Duration Time(s)  121
Dir.              N-S
Scale Factor      3920(gal)/6182761
Max. Acc. (gal)   122.000
Last Correction   2016/04/16 01:25:17
Memo.             
[...]
  -16570   -16566   -16535   -16542   -16573   -16563   -16540   -16555 
  -16582   -16575   -16538   -16520   -16525   -16514   -16517   -16561 
  -16588   -16560   -16527   -16527   -16536   -16547   -16586   -16621 
  -16614   -16596   -16580   -16564   -16553   -16543   -16540   -16548 
  -16549   -16534   -16517   -16517   -16524   -16519   -16525   -16547 
  -16550   -16530   -16514   -16501   -16499   -16541   -16643   -16754 
  -16794   -16728   -16574   -16402   -16310   -16342   -16429   -16493 
  -16537   -16565   -16521   -16386   -16275   -16312   -16434   -16484 
  -16419   -16297   -16164   -15994   -15769   -15590   -15587   -15744 
  -15873   -15903   -16096   -16557   -16815   -16418   -15604   -14938 
  -14581   -14506   -14967   -15851   -16385   -16147   -15503   -14978 
  -14974   -15792   -17007   -17525   -17173   -16920   -17096   -17141 
  -17015   -17295   -17804   -17687   -17105   -17049   -17815   -18904 
  -19598   -19569   -19079   -18277   -17371   -17136   -17975   -19455 
  -21103   -22491   -22933   -21809   -19161   -16079   -14110   -14081 
  -15282   -15807   -14875   -13669   -12875   -12311   -12401   -13317 
  -14332   -14698   -14477   -14853   -16399   -17912   -18444   -17931 
  -16418   -14941   -15079   -17020   -19025   -19357   -18737   -18328 
  -17134   -14885   -13538   -13935   -14886   -15494   -15781   -15436 
  -14000   -12765   -13909   -16910   -18758   -17738   -15039   -13184 
  -13678   -15967   -18419   -19927   -20231   -19554   -18662   -18570 
  -20081   -22588   -23079   -19664   -14766   -11216    -9181    -8994 
  -11466   -14035   -12250    -6630    -2379    -2145    -4962    -9690 
  -15104   -19889   -23300   -24708   -24343   -23399   -22229   -20337 
  -18223   -17811   -19959   -22672   -23820   -22872   -19460   -14567 
  -11040   -10507   -12280   -14372   -15131   -14695   -13668   -12062 
  -10647   -10791   -12364   -13726   -13840   -12955   -12760   -15466 
  -20034   -22989   -23581   -22874   -21093   -19925   -22239   -27673 
  -31804   -30867   -26446   -23132   -22493   -22289   -20004   -15689 
  -11001    -6367    -2314    -1106    -3657    -7542    -9810   -10487 
  -11686   -13882   -15932   -17930   -20879   -23711   -24230   -24001 
  -26831   -31482   -32908   -29714   -24188   -17536    -9549    -2552 
   -1014    -4480    -8241   -10966   -12795   -11680    -7382    -2954 
   -1172    -1944    -3705    -6051    -9250   -13432   -18390   -22533 
  -24576   -25395   -25707   -25424   -25534   -27361   -31126   -35036 
  -35634   -31428   -24228   -16512   -11143   -10828   -14136   -15914 
  -13510    -9567    -7660    -7022    -5547    -5220    -7435    -8990 
   -7712    -5283    -4661    -7198   -10475   -12151   -14872   -21017 
  -26393   -25625   -19966   -14863   -12575   -12072   -14496   -21391 
  -28267   -28566   -23295   -18598   -15605   -11560    -8158    -9374 
  -14422   -19138   -21153   -21290   -21200   -20483   -17153   -11808 
   -9727   -14947   -23795   -29447   -29852   -26811   -21653   -16003 
  -13499   -16631   -22810   -27077   -28600   -28588   -24303   -14731 
   -5073      397     1156    -1193    -4255    -8428   -14156   -18290 
  -19118   -18414   -17722   -17978   -20289   -24069   -26451   -25256 
  -21156   -15199    -7924    -2640    -3269    -8929   -14251   -14389 
   -9938    -5137    -3108    -5154    -9466   -12801   -16001   -21446 
  -27667   -31594   -32112   -30106   -28028   -28310   -30114   -30388 
  -28382   -25804   -24054   -22971   -21272   -17797   -11836    -3650 
    4401     9946    13126    15129    16771    18497    19394    17093 
    9880    -2095   -17500   -33336   -45853   -54019   -58057   -56104 
  -46987   -33812   -22119   -15110   -12309   -12295   -13289   -12147 
   -6424     2288     9127    11444    10787     7886     2469    -1914 
   -3294    -5611   -10562   -16303   -22230   -28362   -35684   -45120 
  -55263   -63490   -66214   -60443   -46093   -25843    -6614     2547 
    -998   -11158   -19535   -20768   -14162    -2235    11087    20013 
   20864    16394     9910     2219    -3808    -6517    -9198   -14449 
  -21573   -27341   -27756   -25436   -27269   -33254   -37980   -37292 
  -30668   -20109    -6717     3200    -2470   -22969   -40948   -42351 
  -29131   -13298    -2245     2472    -4181   -21655   -35475   -34713 
  -23524   -11993    -6888    -7576    -8619    -8138    -7449    -5753 
   -4225    -7658   -14773   -17109   -12298    -7611    -9391   -18394 
  -31837   -44050   -48380   -41773   -29518   -20682   -19091   -25871 
  -38421   -45163   -38950   -25792   -12517     -932     6070     3264 
   -8021   -15686   -10304     3360    14213    17964    16538     8740 
   -4669   -12067    -6164     2069     1020    -5452   -10023   -11067 
   -8512    -5054    -6402   -16222   -30062   -36096   -30356   -19916 
   -9394    -2270    -2607    -5130      -90    13826    28959    37730 
   39285    33541    18229     -890   -11657   -10482    -5617    -7424 
  -19069   -37048   -57662   -76450   -86713   -86113   -78827   -70077 
  -63324   -59468   -56742   -51187   -38166   -18349     2528    19968 
   28941    26214    18173    11554     2842    -9474   -15945   -10875 
   -3083    -3950   -12680   -20188   -22470   -21429   -18283   -13377 
   -9148   -12116   -25647   -40333   -44275   -36870   -23916   -10772 
   -1853      393    -7934   -27890   -44411   -40710   -21997    -6080 
   -2255    -4933    -7518   -13513   -22986   -30311   -36335   -43216 
  -48839   -51236   -51554   -52235   -51668   -48167   -43860   -37285 
  -27042   -19231   -20010   -27753   -33577   -29869   -16539     1797 
   15806    17885    12035     4156    -4664   -10297    -9334    -5676 
   -5261   -12050   -25952   -40180   -46572   -43306   -34732   -23406 
   -6744    13838    31143    39761    35711    19128    -1191   -16676 
  -26198   -31629   -32497   -28095   -25184   -31156   -40080   -43835 
  -45133   -46624   -45527   -41448   -36966   -31318   -19428    -2481 
    9043    11710    13137    18210    26450    34060    32300    16443 
   -5627   -22077   -27447   -20662    -4019    10369     4880   -22617 
  -54257   -75675   -83391   -72628   -44618   -15522    -1054    -2213 
   -8077    -8150    -1573     9276    23327    35365    42294    47976 
   53757    55044    43021    11454   -31124   -66869   -82076   -73386 
  -51831   -31273   -20016   -28388   -56405   -84833   -95468   -84971 
  -64458   -47011   -34366   -25705   -22116   -19442   -14979   -12024 
  -14364   -22945   -31553   -32339   -25991   -16334    -6091      797 
     887    -8766   -26417   -40871   -40380   -24065    -3395     5624 
   -5429   -30129   -51222   -54786   -40346   -16420     6381    18610 
   18016    10248     1273    -4134    -1787     5621    11019    14821 
   22942    33488    35888    25205     8462    -5924   -13799   -12362 
   -5167    -3102   -11260   -22925   -29968   -33109   -35398   -32038 
  -19763    -6122     -183    -5017   -17660   -29092   -30901   -23562 
  -15726   -17392   -28750   -39821   -45587   -47924   -48972   -51896 
  -56186   -56061   -48905   -37154   -25780   -20028   -18544   -15610 
  -11902    -9537    -3590     8811    20879    24936    23156    21255 
   15808     5109      560     6554    10482     3194   -11389   -24881 
  -34649   -48052   -68792   -85866   -89453   -81636   -64960   -40082 
  -15456    -4388    -9910   -19595   -19189    -8375     2792    10918 
   19383    24511    18286     2161   -12099   -18314   -24342   -35700 
  -46812   -53692   -56931   -58258   -60346   -61118   -58492   -57886 
  -59185   -51250   -30649   -11210    -7412   -15780   -21240   -18197 
  -12645    -6529     2812    12481    17526    17275    16067    19999 
   24796    19132     7339     3362     6084     6251     3094     1068 
    1747      -48    -9001   -18886   -22702   -24811   -29784   -32319 
  -27213   -19423   -20191   -33342   -47911   -54830   -59224   -63813 
  -62577   -52813   -37138   -21680   -11818    -6608    -4870    -6135 
   -5951    -3556    -2992    -4176    -3756      607     8035    14015 
   13671     3832   -12677   -25996   -29865   -25885   -15681      472 
   17269    23956    13501   -10517   -37588   -55502   -56648   -44874 
  -27925   -10231     2867     7404     2424    -8674   -16486   -16777 
  -10037     3436    15164    18805    19350    17634     7172   -13437 
  -35609   -50137   -57175   -57572   -48906   -38690   -41326   -58726 
  -75845   -79337   -73261   -66802   -60584   -54292   -50531   -47345 
  -39304   -26587   -13987    -6658   -11008   -25746   -36484   -30187 
   -9223    11271    18785    12293    -2635   -17513   -23398   -19276 
  -13267    -9298    -4468     -229     1093     1459     1538     2069 
    3343     1635    -5131   -12368   -11286     1060    13631    11235 
   -7965   -30972   -44225   -43670   -34017   -23193   -16580   -14920 
  -14613   -11088    -4222     2484     6530     5142    -5071   -18530 
  -23519   -20649   -18866   -21205   -29267   -42190   -52413   -56155 
  -55973   -54852   -54952   -53928   -49230   -47044   -51980   -56791 
  -52535   -37324   -16135     1083     7159     3834    -1464    -1880 
    4354    14342    24781    35214    45647    50033    41012    20919 
    -861   -14756   -15274    -5631     6244    13289    11255     2878 
   -5085    -7590    -2160     5305     3744    -6458   -15335   -19103 
  -20045   -19290   -18065   -17866   -16986   -13297    -7967    -3369 
     354     6038    12645    13597     7815    -2702   -19576   -37942 
  -47248   -44320   -34866   -28706   -33182   -45586   -54791   -52996 
  -43310   -34325   -31044   -33312   -39509   -45691   -44710   -34497 
  -22447   -16734   -17166   -17892   -18480   -22725   -27247   -26797 
  -24234   -23833   -25909   -28841   -29191   -25213   -19041   -13552 
  -10222    -5713     4316    14487    15480     7243    -5055   -18868 
  -30968   -35911   -32123   -24949   -19883   -15912   -11707   -10339 
  -13752   -22562   -37073   -52706   -62165   -63138   -59003   -51128 
  -36326   -16986    -3665    -2214    -9590   -20773   -28878   -25798 
  -10225    11353    28797    32132    21096     4398   -12851   -28659 
  -39577   -43327   -40858   -39377   -45370   -52842   -53671   -49296 
  -40674   -24506    -2661    17985    32104    40454    48512    55820 
   56501    51832    47303    43301    38563    34738    33902    34636 
   32186    23759    11551     -575   -11505   -24031   -40591   -58271 
  -72377   -82067   -87211   -84596   -71678   -52466   -36343   -28828 
  -27604   -28159   -27034   -20835    -7848     9385    25514    35312 
   34502    22256     4579   -10794   -22404   -29834   -28488   -19958 
  -14345   -17745   -28094   -41105   -55791   -69207   -71056   -58426 
  -41191   -26155   -15055    -9680    -8657    -7115     -193    10984 
   21354    32076    45432    55775    56554    48756    39349    31443 
   20021     3062   -15154   -32781   -47276   -51820   -44812   -33803 
  -27693   -29568   -37197   -47382   -58207   -68469   -76112   -79420 
  -79409   -78555   -79530   -84100   -87480   -80025   -60700   -36508 
   -9702    17697    36273    38617    27818    14275     6976     7878 
   13985    18760    12755    -8414   -39782   -72793   -98961  -111284 
 -106979   -89459   -68774   -56635   -58559   -71031   -85353   -93344 
  -91381   -82432   -70596   -55726   -39749   -28211   -22626   -19130 
  -10558     7571    30732    53289    73809    88450    93245    89262 
   81631    78324    83018    93007   106059   119215   128331   132630 
  133604   132538   128578   119785   107822    95341    80452    61708 
   43045    27030    12515     -697   -14282   -30845   -49490   -67834 
  -82008   -88148   -87339   -83229   -79615   -79953   -84814   -93801 
 -106421  -120040  -131818  -139456  -141536  -139738  -136541  -131779 
 -122262  -103846   -76275   -45263   -17398     5862    25117    36595 
   37220    32362    31101    36816    44664    47697    42639    28705 
    9229    -6341   -11122    -8056    -4944    -6335   -10767   -13480 
   -9989      731    13044    18858    15027     3662    -8658   -12941 
   -4517    11766    22640    16969    -4379   -32154   -58432   -81282 
 -100212  -110602  -109305  -100784   -93979   -96793  -110181  -127840 
 -143966  -156707  -164115  -161424  -145771  -122362  -101733   -90392 
  -86606   -85532   -82939   -74141   -56495   -31351    -1285    31370 
   64451    95270   119777   134616   139928   139745   137798   133839 
  128784   126406   125917   122632   114004    99521    78912    52071 
   23775     4771     1396    12384    33089    53992    63880    56708 
   33440     2769   -25014   -47592   -67331   -85031  -102075  -119872 
 -136686  -150555  -162313  -172776  -180417  -183013  -179930  -173548 
 -166985  -160732  -154703  -148850  -140613  -127468  -108438   -82808 
  -53645   -27499    -7513     7851    21014    33142    44173    52547 
   55436    53535    51257    49401    46239    42733    39709    35104 
   25780    12492     1757    -2620    -2724      -23     4067     7928 
   14437    27263    46156    69008    91453   106300   108599    98998 
   81827    60670    34492     1438   -33271   -59827   -74524   -79905 
  -77383   -70142   -64614   -63408   -67090   -77948   -95215  -113824 
 -126532  -125741  -109404   -82194   -50786   -21524     1377    16173 
   24777    35348    55357    83401   113841   141615   162083   173616 
  175795   166153   143669   109650    67941    27652    -2689   -21739 
  -32488   -38182   -41262   -44109   -49204   -58141   -71442   -88682 
 -107659  -122235  -125489  -115649   -95585   -72285   -55277   -49739 
  -53404   -59170   -59714   -51929   -39084   -29513   -29910   -38718 
  -49704   -60233   -71058   -81353   -89685   -96385  -100558  -100741 
  -98457   -95283   -91608   -87649   -82542   -75669   -66534   -54907 
  -42154   -31099   -26069   -28203   -32479   -32497   -23960    -8766 
    5357    13712    15386    10044     -670   -14105   -26411   -32741 
  -30218   -19081    -3681    10868    23786    35432    43859    47872 
   49172    50015    50369    49422    46996    41432    31879    22645 
   20045    24827    30485    30446    24419    16362     8541      253 
   -8532   -17627   -28759   -42686   -58040   -73477   -86762   -92400 
  -85665   -70556   -56871   -48582   -40875   -26158     -656    31863 
   64787    94707   117618   128061   126084   116997   105494    93782 
   82952    73685    65463    56785    45578    28903     5391   -21657 
  -46763   -66985   -81365   -89251   -92631   -95726  -100127  -104679 
 -108406  -109725  -106460   -96543   -78570   -56618   -38098   -23304 
   -7011    12034    31115    48410    63306    73710    76295    68683 
   50503    26025     2876   -15738   -32146   -47303   -59768   -70763 
  -83273   -98558  -118069  -141182  -161470  -173028  -174605  -166757 
 -151535  -132999  -115461  -100075   -84652   -66577   -43175   -15088 
   11731    32995    48209    57926    65738    75432    83862    82613 
   66691    39439     9846   -12872   -24183   -27568   -31287   -40428 
  -53173   -63774   -69307   -71233   -69141   -62003   -54884   -53222 
  -53568   -47219   -30533    -8086    13251    30181    43751    56698 
   69914    82596    94337   103616   107559   105828   101861    98355 
   94044    87382    77829    64188    47136    28408     8791    -9534 
  -24378   -36798   -50284   -68720   -92406  -115522  -131840  -138706 
 -135285  -123726  -108441   -93119   -80237   -69692   -60217   -52211 
  -45741   -39405   -30826   -17186     1197    19341    31983    36694 
   32989    24334    18633    20951    29332    37772    40541    35305 
   23486    10401     2879     2814     5953     7493     6658     5071 
    2247    -3773   -12194   -19883   -25287   -27865   -26568   -22689 
  -19319   -17344   -15479   -12045    -6910    -2533      -38     2782 
    6817     8888     4588    -7659   -26205   -47808   -69139   -88904 
 -105950  -117447  -122594  -123388  -121574  -118258  -114684  -111434 
 -107792  -102275   -93579   -82194   -70316   -59846   -51950   -46193 
  -40670   -34795   -28178   -19047    -7234     3787     9066     8731 
    8812    12836    20225    29483    37947    44291    49683    55102 
   60205    63560    63722    58739    45730    25455     4484   -10907 
  -19496   -23031   -22725   -18585   -10987    -1666     6939    13379 
   17918    21604    26230    33835    44464    54979    61595    64301 
   66316    68922    70299    68889    64204    55738    44700    34737 
   28660    25312    20014    10156     -697    -8911   -15703   -22091 
  -27780   -34477   -44131   -56078   -66894   -74592   -80359   -84410 
  -86425   -87115   -86861   -85452   -81359   -72854   -59632   -41728 
  -19783     3388    24005    39415    47557    47783    43005    36305 
   26407    10788    -9324   -30195   -49873   -70072   -93039  -116464 
 -134709  -144358  -144885  -137755  -127599  -120242  -119414  -124996 
 -132400  -136043  -134564  -130580  -125614  -118832  -110006  -100117 
  -89335   -73765   -46705    -8741    29147    58988    82434   101784 
  117128   129189   138349   145410   150160   149699   143293   133407 
  121679   108156    92245    73640    53589    35087    20646    10245 
    2414    -4723   -12179   -18679   -22845   -24484   -23628   -21635 
  -19985   -17349   -12304    -6215    -1599     -553    -3672   -10325 
  -19192   -27580   -32483   -31557   -24687   -16315   -12369   -16460 
  -28984   -45614   -60731   -71748   -77426   -78062   -76019   -73772 
  -72977   -72506   -69291   -62517   -54180   -46704   -41169   -37244 
  -33737   -29235   -23355   -16664   -10921    -9867   -14796   -21273 
  -25508   -28820   -33134   -37946   -42218   -45830   -48643   -49817 
  -48867   -45237   -38028   -28044   -17263    -6657     3559    11960 
   14739     9634      558    -6165    -8436    -8428    -7298    -3572 
    2178     7177    10093    10218     7496     4065     1934     1359 
    2298     3717     2734    -2295    -9250   -14630   -17729   -20346 
  -23566   -26751   -28421   -28523   -29011   -30683   -32349   -32939 
  -31661   -27998   -22153   -13758    -2322     9978    18264    18583 
   11590     2741    -1053     2846     9582    12983    12073     8232 
    2235    -4394    -9725   -13394   -16852   -21859   -28982   -37346 
  -44975   -48952   -47008   -39392   -28502   -17861   -10007    -4413 
     488     4769     6374     2708    -4821   -11592   -14930   -14883 
  -13830   -14669   -17806   -23319   -32626   -45890   -61418   -76396 
  -87410   -92468   -91163   -82896   -68167   -50583   -34679   -22436 
  -13307    -6435    -1100     3362     6136     4838    -2742   -16311 
  -31848   -44082   -49457   -46933   -38276   -27836   -21029   -21252 
  -27747   -36800   -44553   -49049   -50293   -49045   -46704   -45278 
  -45745   -47443   -48957   -48457   -44581   -37383   -28454   -20780 
  -16790   -16926   -20872   -27037   -31982   -34048   -34542   -34309 
  -33038   -30780   -27583   -23031   -17159   -11243    -6904    -3537 
    1455     9315    19927    32343    42776    46601    43055    36154 
   30848    28699    28134    26780    22996    16625     8104    -1549 
  -10367   -16744   -19638   -19129   -18012   -19732   -25371   -34091 
