Origin Time       2016/04/16 01:25:00
Lat.              32.753
Long.             130.762
Depth. (km)       12
Mag.              7.3
Station Code      FKO008
Station Lat.      33.5716
Station Long.     130.8539
Station Height(m) 91
Record Time       2016/04/16 01:25:22
Sampling Freq(Hz) 100Hz
Duration Time(s)  138
Dir.              E-W
Scale Factor      3920(gal)/6182761
Max. Acc. (gal)   78.876
Last Correction   2016/04/16 01:25:22
Memo.             
[...]
     259      103      -13       22      205      304      215       68 
     -81     -209     -222      -29      398      829      870      509 
     180      171      313      379      446      568      543      321 
      74     -133     -273     -233      -29      167      252      269 
     339      526      684      663      537      398      248       77 
    -129     -207       78      573      880      868      744      712 
     679      527      454      485      326        7     -148     -109 
      41      360      578      204     -567     -978     -743     -233 
     232      677     1102     1270      882      -31     -746     -524 
     305      872      879      442     -109     -318     -281     -338 
    -293      -21      153      268      733     1324     1378      952 
     763     1148     1537     1148      148     -724    -1264    -1404 
    -768      643     2034     2351     1461      295     -345     -301 
      45      -87     -693     -607      470     1432     1624     1222 
     500     -238     -600     -347       97      -59     -614     -634 
      33      890     1346     1003      216     -431     -699     -442 
      24       95     -100      -51      327      742      753      282 
    -150       91     1237     2591     2936     1972      425     -900 
   -1470    -1409    -1353    -1399    -1110     -463      127      575 
    1220     1903     1790      705     -468    -1014     -732      285 
    1299     1631     1514     1278      773      -95     -939    -1085 
    -393      421      640      408      502     1093     1428     1105 
     500     -127     -829    -1301     -878      490     1694     1556 
     313     -834     -999     -146      839     1113      931      962 
    1328     1701     1571      689     -446    -1048     -713      334 
    1157      923      -70     -842     -841     -269      350      679 
     644      444      522      920     1217     1378     1636     1850 
    1763     1197      138     -712     -765     -591     -731     -924 
    -778      -92      693      668      -25     -125      796     1931 
    2627     2621     1676      135    -1212    -1844    -1490     -588 
      36      705     1646     1719      410    -1390    -2497    -2133 
    -608      881     1178      145     -804     -510      196      159 
    -677    -1898    -2619    -1833      584     3864     6215     5875 
    3238      150    -1705    -1388      253      952     -324    -1870 
   -1489      705     3027     3849     2334     -621    -2782    -2311 
     470     2826     2579      358    -2139    -3420    -1987     1749 
    4986     6004     5450     4260     2915     1496     -311    -1614 
    -745     1762     4375     6418     6140     2003    -4328    -9681 
  -12839   -14708   -15022   -11742    -4664     3386     8465     7724 
    2244    -3233    -5673    -5647    -3786     -191     4233     8123 
   10385    10804     8934     4476     -368    -2867    -2444      109 
    3139     4342     1955    -3277    -7640    -8098    -4916      -25 
    4130     5488     4239     1968     -328    -1799    -1099     2636 
    8596    13799    15201    13587    12163    11522     9448     4031 
   -3621    -9280    -9653    -5636    -1562    -1709    -5968   -10236 
  -11354    -8254    -2105     1938     -764    -8889   -16705   -19041 
  -14858    -6112     3018     6917     5315     3111     1612      497 
    1916     4356     4541     4469     6028     6579     3990      806 
    1645     5200     4765     -436    -3771    -1305     4514     9252 
   10843    10752    10934    10574     6558    -1579    -7958    -6911 
    -174     6465     7912     1630    -9581   -18668   -19809   -11924 
    -523     5652     4204      293    -1166       64     -320    -5781 
  -11419    -7903     4870    16488    18209     8332    -8251   -21464 
  -24495   -19478   -11446    -3042     2943     4497     4073     4583 
    5637     6468     7452     7533     4014    -2180    -4981    -1503 
    4651    11215    17852    22045    22799    21968    20950    18602 
   13474     6905     -716    -8649   -11886    -8787    -4460    -4010 
   -9482   -19443   -27911   -28182   -18011       90    19541    31812 
   31313    19965     7782     2611     1100    -2271    -6970   -11640 
  -14491   -11074    -1132     7840     8824     3991     -780    -5937 
  -13231   -19452   -21170   -18453   -15764   -17091   -18462   -13456 
   -1881    10539    17141    18055    18812    20021    17258     7898 
   -4078    -8413     -735     9889    12607     6875      415    -1035 
     190     -859    -3541    -3043     1694     6172     6512     3930 
    2176     2905     6080    10985    15037    15590    10915     1006 
  -10466   -19324   -23080   -21371   -18117   -17425   -18661   -17679 
  -10982    -1609     3704     4918     7292    11957    15422    14123 
    6808    -2224    -7266    -9330   -10480    -9420    -6518    -2176 
    3742     8067     7077      576    -8211   -14246   -14260    -9785 
   -4948    -2332     -873     1269     1843     -139      281     5377 
   12159    17353    18819    18510    19173    17708    11809     5314 
    1089    -1440    -2119     -799      622     1116     2106     3023 
     492    -5318    -9000    -6046     1087     5434     4627     1046 
   -3818    -7913    -9404    -9598    -8268    -3724      526       75 
   -2952    -3998    -1549     1841     1921     -890    -2069      -64 
    3788     7837     9509     8314     6368     3049    -2061    -4708 
   -2908       53     1170     -678    -4577    -7038    -5771    -2424 
    -493    -1340    -1014     4317    10112    10179     5382     -217 
   -1413     5219    14226    18157    17959    17702    17431    14756 
    8142     -851    -8663   -14280   -19025   -22680   -23220   -20216 
  -17036   -15443   -13255   -11463   -12665   -14877   -14057    -7906 
    1826    10725    16291    17475    13266     5462     -518     -774 
    3134     7295     8377     4854     -406    -3849    -6665    -9943 
  -10718    -7970    -4388    -1625     -404    -1210    -2668    -2478 
     347     2641      720    -1058     4004    13753    21358    22866 
   18288    11515     5939      771    -4554    -8396    -9223    -5563 
     820     4267     2885     -911    -5098    -7273    -5881    -2381 
     226     -213     -964     3045    10688    16762    18032    14076 
    8385     4277     1746     1299     2033      372    -4088    -7690 
   -7706    -6030    -4849    -1290     5745    11778    14249    13191 
    8602     2874    -1079    -2468    -1260     1422     3322     2396 
   -1561    -4603    -2926     1334     3834     1528    -6239   -14461 
  -17188   -13902    -7689    -3230    -3410    -5829    -6701    -5200 
   -3148    -3178    -6462   -10623   -11047    -6892    -3573    -5907 
  -11839   -15334   -13370    -8185    -2524     3254     7428     7044 
    3333      360     -542     -159     1118     1993     1275      717 
    1493     1537      247    -1062    -2505    -3321    -1512     2524 
    6091     6604     3943     -163    -4345    -6292    -3354     4397 
   14200    21880    24417    23081    20654    16775    10965     6060 
    5255     8782    13184    14255    10675     4261     -859    -1655 
     573     2783     2773     -570    -6421   -12266   -15783   -16774 
  -16719   -16967   -17656   -16849   -13056    -7301     -845     4109 
    5080     3241       79    -4548    -8917   -11812   -13961   -15675 
  -17367   -18557   -18326   -17091   -13830    -8388    -4497    -3413 
   -3302    -4247    -5620    -4284     1299     8329    12532    13405 
   13090    12864    13986    16006    15272    11037     7274     6434 
    8246    11253    13396    13960    12430     9456     7500     5370 
     966    -3285    -4302    -1159     3782     6434     7924    12774 
   20901    27549    27323    19012     6361    -7724   -19392   -21495 
  -13476    -4368    -2329    -6827   -11142   -11863   -11777   -12777 
  -13897   -14769   -14794   -13779   -13228   -12678   -10709    -8990 
   -9594   -12432   -16070   -17826   -15691   -10626    -4849      540 
    3701     2030    -2181    -4066    -3584    -1615     1712     2708 
     835      531     1038    -1062    -4061    -4621    -1017     6415 
   15079    23159    29664    33280    34033    31569    25044    16550 
    8493     1503    -1621     2248     9210    10743     5321     -677 
   -3857    -6051    -7912    -8026    -6846    -7107   -10271   -15026 
  -18953   -20940   -22597   -25166   -26054   -22767   -17615   -15176 
  -16981   -19933   -20828   -19844   -17282   -12535    -6922    -2103 
    1852     5490     9410    12670    13674    11769     6005     -971 
   -3228     -322     4199     8732    12142    13246    12879    12794 
   13095    13605    14742    16197    18668    20979    17663     8055 
    -758    -2987     1615     9256    14894    18150    21479    21647 
   16643    13229    15599    19531    19259    13078     4582    -2418 
   -7381   -10339   -11057   -10205    -8730    -6382    -2916      176 
    1779     1721    -1505    -7958   -13402   -15268   -15884   -16200 
  -14083    -9034    -3178     1009     2291      656    -3655    -9202 
  -12896   -13307   -10948    -5777       40     1648    -2373    -9154 
  -14620   -14003    -6413     2248     6546     6111     3032     -232 
   -2550    -3324    -1361     1455     2014     1935     3827     7346 
   11573    15730    20157    25355    29239    30163    28592    24955 
   19229    10561     -229    -9010   -13283   -13660   -10306    -4747 
   -2315    -4979    -7017    -4422     -260     1093    -2209    -8952 
  -15656   -20433   -23617   -23821   -19553   -13868   -11706   -13515 
  -13687    -7822      374     5021     6325     8191    11736    12957 
    7639    -1019    -5884    -5739    -3767    -2006    -1374    -1207 
    -965    -2878    -8139   -13788   -16280   -14901   -10669    -4573 
    2832    11426    20078    26214    28347    26718    21498    13151 
    4201    -2448    -6493    -8148    -6447    -2838    -1186    -2967 
   -5725    -6176    -4652    -3967    -3811    -2362    -1060    -1955 
   -3792    -3818    -2215    -2620    -6622   -10599   -10666    -6865 
    -537     6775    12124    14976    18139    22064    24412    24027 
   21045    16636    13236    11357     9419     6903     3084    -2081 
   -4815    -2016     4817    12112    17186    20621    24421    27398 
   27109    23015    15213     5903     -866    -4758    -7841    -9885 
  -10229    -9688    -9367    -9103    -7653    -5256    -3802    -5224 
   -9685   -14072   -15829   -16546   -18377   -20979   -23970   -27469 
  -29969   -30281   -28497   -24177   -18678   -15813   -16061   -15063 
  -11435    -9163   -10178   -12139   -12638   -12398   -13624   -15580 
  -15957   -13727    -9708    -7505    -9016   -10300    -7294     -482 
    7681    13269    12428     7089     2144     -802    -1971    -2148 
   -1991     -522     3055     8221    12492    13427    13950    17398 
   20039    17969    13153     8627     4919      595    -4283    -6956 
   -6229    -1414     8753    21231    31595    37955    36894    25481 
    7598    -9266   -20810   -26556   -27679   -24305   -16123    -7508 
   -4621    -8911   -17584   -24206   -23395   -17498   -11575    -7076 
   -3910    -1709      962     4080     6010     8049    12428    17078 
   18954    17351    12383     4669    -6268   -20256   -31184   -32649 
  -25191   -11714     4327    16885    22448    22653    20159    16485 
   12457     8816     5336       58    -8033   -16980   -23011   -21787 
  -10875     7779    29951    51756    70195    84139    93656    98550 
   98039    91356    79620    64716    47347    29584    15521     6878 
     867    -6317   -14820   -21129   -22493   -19441   -14540   -10722 
   -9376    -9091    -8978   -11319   -17862   -27795   -39438   -49817 
  -54482   -49020   -31294    -5044    20642    39413    52155    60263 
   59948    45770    17222   -18064   -49118   -68788   -76388   -77593 
  -77044   -71167   -54302   -26357     4770    25749    29359    20565 
    9367     1182    -8329   -26787   -52907   -77648   -93901   -98877 
  -92471   -75459   -48325   -15065    16783    43041    62057    69883 
   66164    57637    47483    32918    16506     4499    -3752   -12363 
  -21548   -29546   -33159   -26344    -8373    11631    26434    35645 
   36398    25192     6631   -11675   -25719   -32941   -31340   -20187 
    -774    21027    36813    42038    37140    25195    11993     3835 
    2369     4702     7976    10438    11375    13852    22083    34931 
   47650    55797    54845    43185    25321     8695     -855    -2356 
   -1359    -4350    -9911   -11851    -9185    -5211    -2074     -544 
     -73      722     2534     4864     5449     2191    -3496    -7834 
   -8062    -4578     -572     2682     7123    12429    14839    11787 
    5142     -298    -2848    -5053    -8547   -13043   -18379   -26539 
  -41034   -60608   -78693   -89841   -91131   -82105   -64988   -42184 
  -16705     7427    28156    43410    48131    39441    20951      101 
  -16280   -25917   -30709   -32283   -31079   -27811   -21860   -11571 
    1972    16263    29788    39884    43750    40274    28594    10120 
  -10186   -28181   -41874   -50001   -54323   -58707   -63884   -67909 
  -69026   -65920   -59432   -51584   -42266   -32670   -27059   -27928 
  -35338   -46667   -55962   -59071   -53925   -39106   -18230     3514 
   25706    49300    72566    91894   105306   114378   121055   124661 
  122508   113090    97953    79723    61676    47447    38517    35323 
   37360    39570    36292    28331    21064    19077    22979    29730 
   36089    38716    34218    23457    11469     1923    -4311    -6351 
   -2658     7445    21683    34839    43392    48153    49908    47070 
   40291    33180    27395    22029    15402     6336    -3618   -12050 
  -18416   -22768   -26684   -32110   -37049   -39994   -43791   -50212 
  -58357   -67569   -77521   -87119   -95098  -101209  -104269  -101490 
  -91397   -74282   -52249   -29706   -10885     2860    13764    25410 
   39082    52907    63706    68753    66165    56631    44655    34823 
   30116    34163    47506    63334    73893    77634    76289    71085 
   63931    55917    44883    29976    15644     6212      989    -2207 
   -4044    -4059    -1238     3820     9717    16424    22612    24969 
   21164    11115    -2450   -14436   -20787   -21128   -16713    -9266 
   -1942     3816     9409    14964    19488    23066    25779    27773 
   28634    26214    20370    14131     8595     2574    -3610    -9434 
  -15676   -21296   -24375   -25827   -26850   -27265   -27679   -29252 
  -33976   -43056   -53656   -62268   -67005   -66201   -60784   -53801 
  -47324   -43126   -41715   -40804   -38520   -35324   -32011   -30133 
  -31975   -37165   -43512   -48858   -49747   -44648   -36585   -29397 
  -25835   -27332   -33002   -40373   -47023   -51964   -54678   -52940 
  -45092   -32661   -18200    -5142     1887     1943    -1078    -2109 
    3011    14379    27440    37719    43591    47308    53246    61998 
   70498    76893    79929    77766    71045    64121    61486    62745 
   63034    58886    49978    37893    25748    15396     7562     3695 
    2730     1282    -1891    -5985    -9792   -11833   -11632   -10357 
   -8482    -4944     -890       58    -2846    -6669    -8924    -8999 
   -7377    -6176    -7116    -7365    -3780     1785     7077    11195 
   12285     9526     3712    -3377   -10077   -15737   -17875   -14038 
   -5888     4413    15366    23915    29885    35364    36836    29115 
   13530    -4872   -21695   -34833   -44582   -50824   -52139   -47794 
  -39755   -31046   -21755    -9992     4371    18297    27201    28692 
   24323    17868    11318     2718    -9051   -20511   -27896   -30362 
  -28520   -23436   -16570    -9768    -4703    -2001     -912      319 
    2839     5814     7716     8820    10511    12593    12942     9379 
    2546    -3615    -4893      620    11375    23083    31713    36000 
   37036    36328    34534    30540    23393    16122    13391    15856 
   20713    25458    29481    34333    41011    46403    46316    40181 
   29826    17706     6294    -4047   -13369   -18498   -15729    -5580 
    7086    16679    20891    20587    17307    13304    11111    11042 
   11725    12650    13968    15866    19327    24884    30315    32532 
   31248    27579    21677    14519     7740     1568    -4090    -9709 
  -17415   -28452   -40918   -51824   -59874   -66060   -71990   -77120 
  -78677   -74599   -65789   -56100   -48710   -42839   -36954   -31866 
  -28160   -25211   -23429   -23087   -21903   -17293    -9382     -541 
    6319     9905    11505    12447    12308    11365    12514    18500 
   28296    37459    41685    39395    30759    16715     1345    -8636 
   -9259    -1605     9570    18819    24367    27473    28128    25510 
   19320     9644     -132    -5237    -6144    -5679    -3512     1576 
    9474    18838    27262    32545    34416    34808    35190    35943 
   36993    35686    30374    24066    18850    14505    11840    10759 
   10146    10796    14584    21562    28669    32129    30232    22273 
    8170    -9812   -27699   -42298   -52343   -58106   -60564   -60009 
  -55159   -45026   -32498   -23042   -18386   -16350   -15701   -15940 
  -16713   -19122   -22748   -24772   -24502   -23385   -21574   -18258 
  -13666    -9433    -6683    -4664    -2958    -3599    -9657   -21134 
  -33209   -41898   -47647   -50282   -48491   -43761   -37949   -31642 
  -26066   -21396   -15734    -8175     -206     6088     9822    11716 
   13315    15597    18122    19532    19089    17653    16422    15542 
   14371    12461    10663    10081     9874     8304     4558    -1359 
   -8564   -14969   -17424   -13527    -4552     5604    15103    24612 
   32926    37117    37141    35132    32004    28190    24199    20248 
   17045    14846    13611    14961    20234    28162    36194    41297 
   41162    36576    29829    21830    12915     3928    -4721   -13115 
  -20475   -25454   -27893   -28646   -28241   -26824   -24837   -23572 
  -24248   -26204   -27550   -27041   -24032   -18278   -10933    -3796 
    3143    10839    18592    25110    29739    31380    29104    23435 
   16189     9820     5310     1572    -1881    -5072    -8440   -11073 
  -12249   -13643   -16588   -20683   -25746   -31125   -34566   -34622 
  -31618   -26463   -21039   -17241   -15130   -14140   -14617   -17039 
  -20793   -24593   -27307   -28126   -27749   -28331   -30298   -31888 
  -32540   -33237   -34443   -36230   -38116   -38774   -37746   -35259 
  -31159   -26000   -20479   -14394    -8156    -2840      918     2733 
    3180     3640     3826     2138     -748    -2238    -1638      128 
    3203     8818    18134    30555    42779    51593    56000    55957 
   52733    48751    44549    39503    34782    31879    30210    27784 
   23311    17801    13540    11605    11384    11781    12416    13416 
   13945    12317     7621      652    -6177   -10164    -9950    -6216 
   -1044     4218     9221    12740    13874    13479    12331    10800 
    9001     6160     2353    -1402    -5411   -10643   -16607   -21328 
  -23187   -21879   -17836   -12092    -6020     -894     2191     3078 
