Origin Time       2016/04/16 01:25:00
Lat.              32.753
Long.             130.762
Depth. (km)       12
Mag.              7.3
Station Code      FKO003
Station Lat.      33.8324
Station Long.     130.9014
Station Height(m) 16
Record Time       2016/04/16 01:25:26
Sampling Freq(Hz) 100Hz
Duration Time(s)  122
Dir.              E-W
Scale Factor      3920(gal)/6182761
Max. Acc. (gal)   61.092
Last Correction   2016/04/16 01:25:26
Memo.             
[...]
   15720    23983    25503    13208      154      -49     6509     6177 
   -2677   -12352   -16155   -13415    -9252    -7280    -6954    -7525 
   -8243    -7199    -2765     3607     8053     8470     5094     -403 
   -5073    -7252    -8373   -10267   -10543    -5786      457     2523 
     405    -4431    -9583    -9741    -4458      326     1485     1227 
     624    -1711    -3299      337     8981    19248    26302    26574 
   21861    14903     6935     -691    -6537    -6127     1052     5054 
    1482    -2084    -1562    -1630    -6421   -11937   -11303    -4972 
    1177     4338     6732     8823     6460    -1354   -11819   -22166 
  -27188   -23306   -13169    -2446     2833     -386    -8749   -12930 
   -6141     6888    16822    19149    15090    10492     8356     6558 
    5937     9124    13565    14800    14771    16266    14046     6924 
    2090      227    -2442    -6983   -14021   -18236   -12486    -2531 
     855    -2103    -5232    -5425    -1258     5735    10535    11938 
   12286    11356     8130     4202     3415     6980     9549     5927 
   -1777    -7130    -8237    -9980   -13891   -15773   -13562    -7573 
     470     6910     7877      685   -10880   -17033   -14141    -7989 
   -2790     3103     9957    15214    17027    13412     4988    -2250 
   -3096     1589     7364    11409    13125    12238    10438    10469 
   12965    16648    18597    15658     7700    -1474    -7730   -11038 
  -13036   -13471   -12196    -9513    -5642    -2313    -1557    -4031 
   -9039   -13319   -11092     -410    10642    12558     6962     1001 
   -2823    -4507    -3529     -606     3277     8441    14598    20032 
   22513    20804    17162    15665    17384    17399     8731    -6302 
  -17548   -21264   -19738   -15303   -13091   -15573   -16860   -13628 
  -11115   -13385   -17191   -16345    -9345    -1561     2005     3029 
    5890    10223    12417    12628    13471    14793    13441     6789 
    -823    -2223     -120     -945    -2544     -278     5141     9593 
    9930     7396     6688     8744     7672     2170     -241     1484 
    1161     -593       15     1329      196    -3944    -7670    -5017 
    2734     7683     9827    13563    16319    15318    11735     6311 
    1750      135    -4034   -14328   -22546   -22068   -18137   -16138 
  -14716   -12123    -9171    -8041    -9161    -8827    -4896     -446 
    3165     7745    10574     7420     2111      905     3050     4491 
    3464     1505     1478     3511     5816     7939    10243    11951 
   11327     8155     3414    -1992    -4822    -2150     1323    -1302 
   -7056    -9148    -7458    -2969     3029     5717     4382     1637 
   -1634    -3339    -2607    -1648    -1384     -458     2394     5368 
    5350     2770      564      748     3309     6451     7881     5989 
    2054     1345     6361    10557     6606    -3257   -11745   -14157 
   -9161      158     6819     6648     2455    -1126    -2801    -2609 
   -1300    -1617    -4233    -6554    -8191    -9901    -7779     1832 
   13118    16091     9453      405    -4825    -4941    -2203      737 
    4242     8821    10819     8518     6061     5518     4969     3615 
    1043    -2971    -6621    -8621    -8994    -6579    -1139     4106 
    7125     9615    12398    14735    16028    14355     8945     2750 
   -1195    -2253    -1764    -1763    -2899    -5121    -8613   -12843 
  -17069   -20032   -18782   -11575    -2165     2804     1861     -318 
    -320      518     -284    -3392    -8644   -13922   -13911    -6481 
    3599     9796     9712     7662     8899    12805    15495    13734 
    7999     2781      598     1784     7201    14248    18172    17768 
   13789     7599     1328    -4262    -7405    -6852    -6453    -7965 
   -8257    -7226    -6646    -4406     1557     7247     8387     6022 
    1356    -4728    -9046    -9175    -6156    -3418    -1923    -1358 
   -3792    -7104    -5755    -1057      392    -4629   -12391   -16045 
  -11931    -1761     8324    12854    11462     6741     1898      -87 
    1787     4885     5018     2022     -770     -872     2236     6251 
    9030    11997    14474    12482     7521     4208     1423    -1894 
   -2355     -131     1691     1961    -1681    -7600    -6973      722 
    5913     5275     2367      782     3585     9231    11311     7600 
    2331    -1957    -5608    -7079    -6791    -7175    -6350    -3270 
    -557     1981     4063     2041    -3283    -7472   -10448   -13979 
  -16588   -16939   -15686   -11602    -2637     9083    18268    21083 
   18205    15401    16641    18321    16899    14050    11512     9320 
    6148     -104    -7652   -11939   -13504   -15454   -15569   -11399 
   -6027    -3299    -3593    -4075    -2700     -818      815     3787 
    8210    11898    13833    14593    13943    12146    10737     9462 
    7353     5138     2811      568       14     -899    -4925    -9213 
  -11515   -12225    -8591     -638     4105     2118     -723     -879 
   -1604    -4046    -6124    -5513      794    11243    19313    19799 
   11289     -799    -7560    -6594    -2977    -1874    -3362    -4778 
   -4498    -2580     -540     1194     2602     1367    -2199    -4313 
   -4677    -4537    -2974     -677     1704     5645     9835    11326 
    9454     4907     -303    -3913    -5321    -5356    -6456   -10343 
  -14264   -12318    -2049     9387    11654     4928    -2253    -4879 
   -4889    -6976   -10740   -10357    -4384     2088     5176     6159 
    7498     9162    10753    12870    15057    14716    10643     7541 
    9670    13099    12812     9058     3673     -627    -1043      676 
     951      770     3315     7518     9070     6772     2626    -3351 
  -12189   -20949   -24860   -24052   -22273   -20230   -16852   -13338 
  -10605    -7325    -2607     1883     4445     6383     8465     9020 
    8437     8816    11312    15810    18762    16733    11631     6604 
    3526     3825     5717     5742     3382      802      239     2264 
    5874     8416     6358      939     -711     4796    12149    15071 
   13504    11042     9044     6344     3102      939      196      765 
    2985     4124    -1261   -12907   -22963   -25817   -23175   -19680 
  -18431   -18795   -17733   -14400   -10647    -8014    -6889    -5707 
   -2740     -428    -1764    -4128    -3353     -177     2764     5947 
    9934    12142    10183     5767     4424     9613    18146    24595 
   26715    26037    25354    24430    21004    15410     9698     4667 
     667     -389     3178     9242    12804    10719     4257    -3275 
   -8735   -10098    -9126    -9382   -11988   -16520   -20769   -21417 
  -19672   -19398   -19786   -17920   -13395    -6771    -1700    -3894 
   -9927    -9123     -387     8254    14314    19525    21288    17284 
    9694     1463    -4185    -4993    -2986     -115     4857    10596 
   13086    12771    12773    12501    10659     8848     7246     4716 
    3902     6895     9901     9316     6373     4083     3494     2364 
   -1432    -6598    -9831    -9003    -5923    -4857    -7253    -9680 
   -9254    -8455    -9504   -10270    -9363    -7784    -5951    -3486 
   -1109      252     1865     4195     5341     6150     8815    10622 
    7274      -18    -6167    -8274    -6613    -3284     -683     2509 
    9124    16167    17629    12323     3652    -3427    -4699    -1284 
    1763     2889     3033     1553     -404     -532     -240     -919 
    -731      214      215      963     3439     5195     6569     8885 
    9406     7149     4463     1960      468     1599     3518     2899 
    -281    -3396    -4050    -1576     1855     4200     6091     5949 
    1195    -5077    -8624    -9156    -6935    -3769    -3585    -3862 
    1581     8945    10534     8096     6965     7798     8891     8547 
    5063    -1655    -8169    -9396    -5083    -1293     -843      708 
    5507    10152    12200    11465     8263     3980      237    -2140 
   -2222      693     4417     4877     1335    -3541    -6712    -5984 
   -3188    -2644    -4611    -5950    -4665    -1779     -359     -597 
     773     4105     5322     1155    -6579   -12189   -12601   -10464 
   -8738    -6841    -4103    -1638      820     5275    11305    15427 
   15256    11916     8350     5806     3548     2350     3910     6614 
    7222     5249     2201      490     2678     7235     8605     4477 
   -1332    -4111    -2399     1705     4128     3215      882    -1804 
   -5490    -9130   -10132    -8681    -7981    -9118   -10410   -10653 
   -9635    -8606    -9655   -12361   -13702   -12358   -11103   -11990 
  -12143    -8458    -1546     6177    12547    16410    17090    15362 
   14015    14105    14685    16022    18134    19262    19223    20429 
   23026    23794    20343    13301     6913     5066     5232     2413 
   -3005    -6617    -6401    -3237     1232     3248      227    -5125 
  -10289   -15402   -18773   -18609   -16475   -14197   -11498    -8655 
   -7620    -9213   -11535   -11208    -7220    -3798    -4571    -6525 
   -5837    -3744    -2829    -2746     -902     3044     4653     1343 
   -1804      -75     4030     7527    10484    12657    14254    15822 
   16312    14599    10705     6712     5972     7474     6156     1344 
   -2780    -4385    -5455    -7872   -10625   -10725    -6770    -1255 
    1249    -1431    -7298   -11973   -12923   -12404   -12657   -12909 
  -13566   -14915   -13761    -7766      -81     4221     5435     7650 
   10961    12446    12043    11696    12761    16315    20524    20250 
   15388    11775    10951    10021     8709     7801     6067     1709 
   -5601   -12951   -15105   -10938    -6666    -7434   -11200   -14059 
  -14284   -12214    -9674    -7162    -4109    -1616     -633    -1239 
   -3879    -7148    -8817    -8874    -7763    -6000    -4656    -5012 
   -9650   -18108   -24165   -23529   -18575   -14147   -11801    -7861 
     791     9280    10351     5979     3662     6311    12532    19255 
   22840    21550    16992    13728    14156    14211     9230      756 
   -6217    -9476   -10328    -9838    -7932    -4885     -818     4339 
    9160    10464     7037     2715     2613     8031    15826    21734 
   24346    24763    24037    21324    14511     5612     1039     2771 
    6836     9980     9694     3033    -8572   -18812   -22231   -17342 
   -8027    -3802    -9692   -17061   -15972    -8018     2238    14315 
   26793    36281    40059    36340    24108     4732   -14976   -26210 
  -28065   -27742   -28919   -28256   -24436   -20174   -15643    -8075 
    5156    22057    32507    30333    23266    19143    16679    13232 
    7015    -1489    -4330     3247    12324    14672    14197    17383 
   23768    25859    14459   -12530   -44991   -68079   -75046   -68171 
  -51156   -27474    -4006     9717    10411     4659    -1686    -9327 
  -17329   -18876    -9882     5847    22593    33738    33154    26628 
   28314    41063    51957    49446    38285    31298    31484    30078 
   18569      376    -9571    -2096    13992    24774    26491    22479 
   16075     7957    -2448   -12820   -22007   -32040   -39260   -39305 
  -38244   -37844   -23849     7883    33618    32557    13952    -3220 
  -13027   -14339    -6764     2108     6150     6877      661   -18617 
  -43095   -59723   -67879   -70700   -64742   -50724   -38592   -34036 
  -31706   -23652    -8029     6363     8165     1611     3985    22041 
   44490    60760    71654    76746    72223    62630    56573    56382 
   59641    62212    57132    38232     8570   -18649   -29482   -21685 
   -6723     4498     8708     4583    -5333   -15271   -23874   -30292 
  -31655   -31532   -36377   -44580   -50312   -51817   -51611   -52167 
  -50463   -41138   -27677   -19220   -17145   -20132   -29135   -35033 
  -29446   -23804   -29510   -39243   -39637   -24077     4029    31808 
   47461    52228    52071    44961    30093    14082     1658    -3996 
    1524    15969    31009    41524    45166    40323    29948    19739 
   13004    11100    14545    19489    19495    14908    11467    11695 
   13912    13347     6276    -4628   -14608   -23486   -34066   -46278 
  -58457   -70932   -79571   -74903   -52700   -17684    16670    32377 
   26142    16405    17555    24816    30758    32685    28822    23238 
   20476    16187     8751     7271    16821    30600    38885    35619 
   21055     1421   -17379   -31081   -32017   -17307     -715     4801 
    6211    12069    17199    15924     8583    -2468   -11425   -11594 
   -3532     3576      319   -11117   -18351   -16975   -14992   -17025 
  -18004   -10597     7265    28291    40393    39817    33583    27236 
   21270    17050    17822    24303    31409    35403    38006    38553 
   34784    28017    21221    17961    20125    24950    27291    25133 
   20586    13937     3572    -8846   -20009   -27161   -26971   -18377 
   -7740    -4596    -9963   -17032   -21817   -25555   -31073   -39887 
  -50743   -59824   -63298   -63119   -65391   -69384   -66717   -52117 
  -29778    -9595     4421    17649    31991    41202    43972    47944 
   57531    69042    78589    86195    91278    90238    81178    67199 
   52903    40104    28248    17997    12622    14361    19798    21789 
   17452    11029     8049    10190    16060    23840    29806    27494 
   16141     4547    -1403    -6436   -16196   -28085   -34330   -30892 
  -22111   -18437   -29412   -53243   -76296   -88467   -92247   -94117 
  -95486   -95223   -92412   -82642   -61627   -33221    -7021     7840 
    9603     6706     3903    -2487    -8114    -3316     8881    18190 
   22338    25635    30061    34894    39979    42803    40200    35850 
   34919    36230    36746    35365    32328    28479    24212    20149 
   17001    14781    14233    16697    19929    16108      430   -20206 
  -35327   -41342   -37403   -23260    -4861     8318     8347    -7341 
  -26619   -32246   -28264   -31143   -38773   -38048   -30482   -23719 
  -12972     5780    20161    19946    13603    11327    11754    14726 
   25366    40943    53776    63267    69717    67586    56772    46884 
   41404    34565    25604    18508    14009     8974     -143   -10370 
  -16205   -18799   -19652   -16845   -10746    -1504    10528    16765 
    8514    -9303   -27838   -46051   -61735   -67790   -63810   -57584 
  -54519   -54526   -55328   -53645   -46886   -34533   -19448    -8707 
   -4085     4167    21322    38205    45992    44712    37272    30899 
   35849    51398    67199    79182    88350    91148    83988    70871 
   57268    42431    27201    19098    19977    21117    16454     9369 
    4486     1533    -2269    -8619   -16584   -22390   -21620   -14922 
  -10385   -14215   -22875   -31088   -37546   -41185   -44659   -51644 
  -55640   -49776   -39501   -31336   -25921   -25323   -31000   -36969 
  -34941   -25336   -16735   -13595   -12526   -10006    -4031     6771 
   17319    20240    18737    21016    26952    31775    34139    35701 
   37876    40840    44691    47361    44960    39016    34662    31592 
   26144    19382    16037    15436    11620     3711    -4938   -12966 
  -17406   -14344    -6790    -3876    -8615   -13180   -13097   -11780 
   -8315     -495     6400     6895     2091    -3374    -6336    -8335 
  -11514   -12039    -5939     3037     9767    12952    11215     3061 
  -10020   -22126   -24153   -12351     4629    14509    15588    15613 
   18648    21389    21237    18337    13715    12735    19478    26082 
   22706    12687     4059    -2487    -7924    -9252    -5723    -3911 
   -9023   -15150   -14657   -10968   -10519   -11233   -10014    -9685 
  -12118   -16805   -22430   -24153   -19381   -12922    -9334    -7191 
   -3584     1994     8369    13250    16419    20399    24500    26323 
   25511    20749    12535     5325      694    -4703   -13516   -22718 
  -25571   -20443   -14206   -14423   -20147   -23296   -18785    -8772 
     301     1602    -5638   -14250   -16425   -10496    -1282     5904 
    9237     7178     1005    -1307     3247     6686     4877     2334 
    1486     4055    14069    26260    26895    13042    -3702   -11955 
  -10223    -5157    -3093    -4292    -5528    -3191     4144    10872 
   10137     6058     8318    18907    32827    42375    39279    23542 
    6681    -1743    -6082   -15279   -25852   -28491   -25267   -22718 
  -20620   -20614   -28800   -43092   -53641   -56745   -56228   -55669 
  -56477   -56828   -51999   -39102   -20088    -2002     9330    15870 
   18797    13760     3691    -1475      513     6076    13666    19813 
   20923    21924    28818    36029    36119    33271    34108    36887 
   37120    33784    28027    22160    19608    21351    22073    14989 
    2136    -6674    -7233    -5213    -5319    -6554    -8996   -13977 
  -19455   -21807   -19009   -13097    -9018    -7712    -5576       19 
    7735    11899     9011     2469    -4593   -12583   -20091   -24057 
  -24589   -23625   -19416   -10388    -2368    -1073    -3372    -4273 
   -3876    -3529    -2590     -408     3361     9578    16355    17927 
   11728     3608     1448     4822     6715     5641     6354     9688 
   12007     9564      246   -10755   -13564    -8603    -4307      637 
   12287    25523    32050    32077    27683    18880     9962     6469 
    6147     3632     -553    -2241      -13     2760     2251    -1247 
   -5984   -10723   -12550    -9591    -5222    -4938    -9078   -11105 
   -6453      459     2901     -588    -6286    -8285    -5227    -1340 
    1280     2176     -557    -5010    -6556    -5813    -6951   -10594 
  -13915   -14784   -14150   -14232   -13419    -8493    -1720     2963 
    6860    11502    14159    14340    14745    13484     6024    -5918 
  -14330   -13234    -5201     2840     8418    11526     9231     1060 
   -6897    -8531    -3992     1308     2956     1928     1438     1660 
     322    -2142    -2612     -857      384     -202    -1565    -2014 
   -1623    -2806    -6025    -7610    -6457    -6905    -9801    -9785 
   -4161     3743     8786     8657     6358     5597     6153     7989 
   11288    10990     3653    -3318    -1537     6018    11680    13639 
   14566    15903    16255    13918     9300     4524     1531      259 
    -955    -3399    -6995    -9413    -7208     -996     3470     3171 
     472    -3955    -9499   -11132    -8377    -6985    -6703    -2720 
    3097     5504     4346     1663    -2490    -7696   -12560   -16118 
  -17097   -16051   -16387   -18341   -18707   -17280   -14861   -10378 
   -5201     -952     3210     6187     8004    11055    13549    13293 
   12232    11661    11842    14220    18705    22719    24719    25429 
   25313    24766    25567    27682    27976    24141    15445     3050 
   -8049   -14120   -16820   -18356   -18848   -18752   -18821   -18834 
  -19498   -22316   -26249   -29063   -29316   -25672   -18845   -11745 
   -6239    -2303      921     3532     3106    -2802   -11700   -18397 
  -20553   -18489   -14372   -11576    -9530    -3900     3917     6806 
    3630     1241     4994    12330    16597    15216    10590     5498 
     810    -4505   -10779   -13806    -8580     1971     9741    11779 
   11227    12098    15679    19533    21178    21614    23173    25419 
   25736    23211    18401    11971     5572     1298     -498    -3277 
