Origin Time       2016/04/16 01:25:00
Lat.              32.753
Long.             130.762
Depth. (km)       12
Mag.              7.3
Station Code      FKO016
Station Lat.      33.0159
Station Long.     130.4471
Station Height(m) 24
Record Time       2016/04/16 01:25:13
Sampling Freq(Hz) 100Hz
Duration Time(s)  300
Dir.              N-S
Scale Factor      3920(gal)/6182761
Max. Acc. (gal)   138.741
Last Correction   2016/04/16 01:25:13
Memo.             
[...]
    8313     8231     8201     8267     8325     8298     8224     8198 
    8240     8292     8302     8257     8200     8217     8300     8324 
    8266     8214     8206     8233     8295     8339     8280     8170 
    8179     8309     8361     8256     8166     8218     8296     8295 
    8258     8240     8244     8247     8272     8307     8271     8211 
    8225     8283     8278     8222     8246     8309     8271     8214 
    8232     8276     8293     8266     8223     8214     8268     8336 
    8297     8185     8184     8280     8325     8288     8226     8223 
    8283     8307     8246     8174     8220     8347     8334     8184 
    8134     8277     8408     8301     8129     8174     8331     8357 
    8248     8192     8247     8273     8242     8250     8293     8287 
    8220     8195     8263     8330     8307     8227     8192     8241 
    8294     8283     8246     8247     8261     8261     8250     8235 
    8263     8295     8259     8221     8242     8293     8302     8243 
    8211     8250     8276     8247     8224     8278     8327     8259 
    8185     8239     8326     8309     8215     8171     8235     8325 
    8318     8239     8221     8255     8259     8271     8281     8245 
    8223     8253     8268     8253     8275     8296     8233     8192 
    8274     8330     8260     8185     8210     8299     8350     8286 
    8163     8159     8312     8390     8263     8140     8207     8346 
    8341     8207     8151     8256     8365     8314     8183     8178 
    8292     8342     8259     8178     8223     8300     8285     8242 
    8264     8286     8236     8204     8257     8318     8290     8198 
    8203     8307     8318     8238     8211     8263     8288     8233 
    8222     8287     8295     8238     8222     8281     8306     8239 
    8213     8269     8287     8237     8212     8273     8321     8273 
    8210     8222     8289     8284     8203     8218     8318     8326 
    8224     8176     8265     8327     8253     8187     8237     8311 
    8295     8239     8250     8294     8263     8210     8245     8279 
    8241     8243     8285     8272     8244     8266     8285     8230 
    8200     8286     8330     8229     8153     8256     8399     8328 
    8134     8125     8306     8400     8293     8174     8182     8261 
    8318     8300     8235     8201     8232     8291     8310     8283 
    8234     8186     8216     8328     8355     8234     8152     8235 
    8338     8318     8221     8182     8251     8311     8291     8256 
    8214     8193     8274     8357     8284     8174     8216     8323 
    8326     8236     8185     8226     8293     8308     8240     8193 
    8271     8340     8268     8180     8218     8296     8291     8254 
    8254     8265     8254     8233     8248     8287     8276     8236 
    8238     8268     8276     8259     8252     8261     8246     8238 
    8276     8306     8273     8206     8204     8270     8306     8286 
    8239     8215     8268     8305     8253     8223     8252     8262 
    8262     8272     8264     8246     8251     8282     8274     8209 
    8214     8307     8315     8225     8206     8279     8307     8257 
    8231     8261     8263     8236     8262     8300     8264     8214 
    8245     8296     8249     8202     8274     8336     8273     8190 
    8227     8314     8285     8217     8246     8292     8262     8220 
    8260     8306     8250     8197     8246     8299     8267     8244 
    8285     8263     8196     8233     8302     8294     8249     8222 
    8251     8293     8273     8247     8243     8240     8276     8289 
    8234     8241     8307     8287     8222     8252     8369     8446 
    8455     8495     8637     8838     8937     8838     8639     8372 
    7942     7537     7631     8365     9399    10325    10868    10858 
   10140     8821     7636     7237     7384     7692     8252     8820 
    8604     7740     7692     9012    10496    11306    11387    10214 
    7469     4129     2040     2375     4444     6991     9791    12469 
   13612    12420     9654     6688     4759     4676     5799     6020 
    5247     6571    10208    12282    12451    12885    11255     6181 
    3117     4968     6503     5339     6450    10635    12603    11697 
   10648     8818     6268     6043     8665    10236     7476     2113 
   -1857    -1350     5135    13942    18437    17601    15858    15316 
   12419     4346    -4268    -7473    -5281      753    10859    21423 
   23999    17236    11653    12165     9526      417    -4562    -1033 
    4515     9382    14094    16682    15851    10951     3776     1710 
    8842    16265    11989     1810     1124     5334     2670     2483 
   12403    19364    16881    15270    16741     9280    -5879    -9128 
    1950     9845    12081    17871    23689    19530     8029     4145 
    9924     9642     1919     -471     2583     5709     9060    13102 
   16122    12360     4080     6125    17777    19814     8612      386 
    4004    10981    10513     5113     5386    12516    18904    21736 
   20124     9130    -7152   -12654    -2149    12332    20153    20209 
   18315    20005    17681     2946    -9616    -4621     4751     3676 
    2796    12086    18388    12006     7011    11166    11629     5887 
    4005     6855    10858    11806     5661      825     6288    11224 
    6121     4743    13209    13615     3888      557     1776      685 
    6982    22569    30664    21451     7269     4045     7015     1826 
   -6849    -4712     2912     3386     1229     3398     7078    11545 
   18783    26640    27664    13806    -9068   -21242   -13648     3883 
   19129    25060    20818    16401    18804    15445    -2618   -17788 
  -16108    -7456     2496    13410    15895    15163    24415    31642 
   23745    13882    12606     6797    -8852    -9241    13508    22295 
    3730    -7548    -1616      501     1510    12406    23248    25622 
   20180     6446    -5132    -2360     1537    -4553     1513    29219 
   45613    31661    11873     3827    -3570   -11181    -5387     9664 
   16293     7851    -4400    -2604    12724    22286    21736    22883 
   21929     8807    -4855    -5423     -992    -1354    -2281     1798 
    9589    15961    14951     8947    12886    27667    30113    16973 
   10015     5661   -11351   -19996      685    22653    17332     6601 
   12464    14096     1994     1876    13376     9140    -3847    -1265 
    9404    10679     5652     6512    17382    25140    14194    -3361 
   -3874     6386     4850    -3837     2302    18701    23289    18386 
   17716    15219     4392    -5302    -5486     1610     5790     2234 
    1885    12913    27734    36053    31844    14385    -5716   -14946 
  -16475   -19513   -12777    14078    38807    38146    22718     9694 
   -4401   -20981   -23044    -3580    15931    17914    15514    21747 
   25809    22325    18211    12536     5651      531    -4358    -4009 
    5083    14996    17851    15079    16616    19392     5832   -18557 
  -27447    -9648    19420    32857    28490    26920    26698    13276 
   -3987    -5306     6139     7260    -1902     4892    23807    24673 
    6022   -10037   -12100    -3887     9680    27125    36842    27467 
   10328     -180    -3941    -3519    -1538     2719    14243    28008 
   30509    16478    -2667   -10028    -4098     4230     5558     -516 
    1268    16516    21243     7191     3230    19041    24476     7563 
   -4168      690       -3    -9691    -5839    13826    33375    46507 
   46676    29949    13475     6130   -10465   -34321   -32498    -2192 
   23385    30814    28902    17734    -3323   -18615   -10926    12189 
   25703    21303    15193    22963    34040    22836    -2263    -1903 
   20840    20091    -5611   -12611     1534     2570    -5883     3070 
   22160    28075    20723    13055     6752    -1063     2849    28897 
   52452    45325    19952     1577   -10623   -26141   -35970   -25148 
    -860    16931    27359    36642    32554    11220    -6214    -9608 
   -7026     1286    17844    34744    39207    25408     2790   -15451 
  -25664   -28966   -23688    -4327    25334    45344    40213    12776 
  -19016   -30463   -15764     2318     7000    10818    31810    56458 
   45870     -841   -31072   -21978    -8606    -8142      465    22039 
   33832    23706     7071    -5531   -23453   -31631    -2255    37311 
   40586    16597     5242    21739    39410    21256   -24590   -54439 
  -49488   -29447   -12788    12644    54216    74769    54493    37339 
   38112     9057   -49433   -79617   -66925   -36570     2375    47491 
   80892    78223    44530    18360    10335    -5941   -35460   -58694 
  -58395   -28029    12011    31307    31245    31310    29089    11685 
  -10858   -20825   -21723   -23389   -26671   -29881   -24527     -599 
   28593    34011    16271    11442    30566    38419    18283    -3870 
  -11515   -10277    -4413      203     1736     8969    18768    19751 
   14577     6873    -4061   -11918   -15203   -15924    -6883    13293 
   34072    50074    61441    60716    38613    -1144   -44338   -73161 
  -72800   -48647   -20033    10808    46893    67615    60731    45362 
   32298    17939     9430    10839    15105    13924     3419    -3769 
    4397    19723    37145    53671    52769    34468    20598     8411 
  -25899   -69461   -77917   -40709     8645    39660    54929    73639 
   85974    62668    16531   -18173   -42777   -60210   -48262    -9828 
   20716    28805    24720    17903    12691     5186   -10041   -20984 
  -10906    14959    31879    24009     8600    10475    21910    24259 
   19561    17498    24424    40467    50395    38915    13440    -7470 
  -17719   -24318   -32660   -35161   -13474    31430    60934    52022 
   33457    26502    16618      134   -10880   -14598   -10618      974 
    5484    -4059    -4705    18510    37938    30823    23094    32273 
   30362     9955    -2371    -4292    -1958    14333    30806    22343 
    -571   -15104   -16688    -2731    29386    66700    87971    81761 
   53702    16139   -26641   -70440  -100918  -107720   -94177   -69115 
  -42112   -23823   -20089   -25722   -29974   -29525   -27966   -19680 
    2602    27003    37757    32843    17842     5204     3454      904 
   -9760    -7547    16632    34521    33645    37525    56290    71641 
   65422    43961    30232    27823    25242    18843     5375    -2421 
   18951    47738    46383    36253    48508    58252    40918    14091 
   -6326   -21613   -30853   -33393   -29174   -15355     -951    -2834 
  -15635   -12078    16287    38156    29711    20366    37956    54909 
   47094    34212    30057    24079     9913    -9454   -25661   -30585 
  -28210   -22804   -10889      144    -2791   -15750   -23913   -24788 
  -35172   -58410   -56528    -8804    32908    26960    18052    46229 
   68464    46419    20636    34351    61023    63563    53320    44840 
   30862    15029     1122   -15988   -22136    -8422    -1731   -16360 
  -22826     -893    21048    11349   -12578   -17854   -13607   -22649 
  -29723   -14294     8606    19276    18056    12386    12538    28911 
   56152    66833    45827    23470    25739    23140   -11300   -48871 
  -56444   -42669   -25102    -2052    23085    28689     2849   -35805 
  -55976   -47102   -29926   -24547   -11478    38226    98394   117103 
   97760    77783    59054    24916   -16210   -42003   -43198   -34538 
  -34163   -26566     9820    49341    61311    63759    71408    60048 
   29120    16937    29666    33473    19622    16259    34807    48637 
   44058    45556    60508    64949    58635    60909    65504    50988 
   12633   -29698   -52650   -61615   -70957   -65297   -30232    10543 
   28838    25275     9656   -15912   -41632   -46125   -22112    15474 
   54868    91251   105850    85167    47604     8807   -36209   -72883 
  -78683   -67351   -54692   -27239    13535    43499    58291    71939 
   85761    80717    49300    19202     6329   -10808   -34351   -39331 
  -20700    14234    61736   103755   113806    87378    46377    12218 
  -12962   -40501   -67961   -64682   -21492    19492    34724    48486 
   62564    45731    -1231   -39706   -46699   -38188   -35310   -28850 
   -2034    33087    52383    51509    38744    18193    -2769   -15002 
  -22981   -32360   -34963   -25579   -11699     2110    22291    51430 
   75842    80876    66694    42354    21870    12019    -2719   -27412 
  -31281     -871    32119    51947    72538    83522    64917    30181 
    1033   -17239   -21014    -9198     5276    14359    31853    55937 
   52017    21174    12545    31303    34152    23135    37396    63812 
   56592    27766    22061    26809     6387   -17725   -16907   -12260 
  -19342   -24755   -24723   -18954    -3651    11680    26135    54331 
   87843    99175    81200    47496     9886   -28691   -70448  -112065 
 -140156  -149296  -147971  -134599  -102168   -67811   -48175   -20641 
   37412    98872   124683   121784   121970   124908   104799    66697 
   45842    48146    43696    18702    -7788   -17894   -20552   -35168 
  -60106   -73300   -65068   -49264   -37163   -23555    -3752    12486 
   16634    19807    32082    45323    57573    69850    62852    29773 
   -9227   -47957   -88524  -117625  -130479  -135884  -131926  -112360 
  -84663   -63238   -53357   -45967   -31750   -16009    -6425      516 
    9663    21931    40879    70760   109671   148977   177265   185923 
  170691   127478    55944   -35274  -129973  -197975  -210574  -178064 
 -131186   -80274   -30745     2897    14317     9165     1701     8046 
   29049    53377    76813    97577   105686    92093    55521     5486 
  -39891   -72000   -92951   -97390   -79300   -49666   -24908    -9699 
   -1759     4363    15243    23124    13051    -5388    -6656    12858 
   35563    47032    44178    32870    16869   -10127   -46020   -70224 
  -72283   -63176   -47897   -18428    21057    48462    51760    38255 
   18625    10149    29700    65745    95492   118976   139078   143031 
  126218    94725    53832    19041     5684     6088     2561   -10241 
  -20125    -8766    23604    60933    98825   133097   138533   101756 
   53218    31594    31795    22943    10504    27977    66020    78393 
   57381    33494    14444   -15208   -54929   -86741   -96057   -81236 
  -52419   -22354     3302    21736    25898    13926    -4296   -19101 
  -27543   -25180    -5967    25118    53202    70466    79994    84357 
   78583    59637    39107    28518    24349    28208    46843    63437 
   60493    52925    48337    23303   -26082   -68949   -88363   -96352 
 -101774   -96397   -69996   -28674     4606    15667    13984    11454 
    5062    -6954   -11377     1935    28697    60290    83130    84677 
   69678    47969    18846   -18124   -54693   -80797   -89660   -80227 
  -62258   -47545   -38720   -36540   -39367   -41963   -49397   -69408 
  -93631  -105209   -93036   -55904    -5829    38305    67795    86022 
   96356    98702    87357    58391    29895    21226    22300    24165 
   34876    45778    39676    23175    14559    15303     8091   -11974 
  -24343   -19195    -5534    17047    48621    73923    81049    71754 
   53195    28482    -2782   -31571   -46432   -53705   -60697   -59133 
  -50436   -45477   -36677   -16176       98     1952     8624    33326 
   53523    50109    39129    34787    27076    10031    -6712   -15144 
  -14752    -9337    -9801   -21275   -31083   -35521   -49932   -68428 
  -66314   -49821   -41057   -36495   -25067    -5798    20460    42337 
   42246    29500    29340    30960     3480   -41807   -70350   -85648 
 -106012  -113481   -87440   -45020    -7451    25001    54709    80185 
   97463    96594    73787    40607     7744   -22858   -43518   -45149 
  -33025   -16975        3    17569    36500    54285    59264    46750 
   33789    34478    40043    44479    57267    76475    84626    75004 
   53784    24600    -8813   -36182   -45364   -29883     3135    37026 
   61865    75241    72352    49019    11956   -21206   -39104   -42897 
  -31729    -6345    23209    47374    54849    39146    16053    -1286 
  -19824   -33112   -23265     1254    19321    31934    53779    81104 
   90094    77133    67305    67626    57963    36239    27989    40261 
   44400    27233    15982    22760    20418    -2094   -20027   -18597 
  -10950    -4540    15358    53254    87555   102513   103081    94829 
   75231    40819    -7222   -59734  -103493  -126726  -121095   -93052 
  -64081   -40446    -8461    27883    49310    56229    54150    35752 
    7444   -12994   -27807   -45995   -60663   -67610   -73948   -75310 
  -53403    -4649    47296    79946    95077    99776    91342    67766 
   30653   -12544   -42520   -47614   -45186   -52816   -53845   -31559 
   -4958     5757     6153     9427    21610    34468    35965    32728 
   36182    40342    36065    23179     1454   -27607   -51207   -56412 
  -49167   -43120   -35332   -12168    27154    63590    78695    73966 
   57221    29220    -2898   -22630   -26974   -31991   -38356   -21831 
   15180    33820    25188    21958    37250    50466    49437    46699 
   51769    54774    43946    21762     4243     2963     7765     3657 
   -5884   -12183   -22059   -44108   -65570   -65066   -41935   -11899 
   18798    52117    78049    78738    53808    25014    10527     8132 
    8683    13430    31067    57501    67525    49066    29671    32372 
   35615    16344    -6762   -11845   -10758   -15534   -17914   -14569 
  -13435   -21110   -35312   -42788   -34169   -18689    -8751     3272 
   30280    58084    59216    31730    -2362   -26258   -40738   -48860 
  -41895   -17300     5903    10669     1713   -11769   -30174   -49996 
  -59948   -56107   -38808    -5733    31550    50952    48938    39882 
   33653    27975    16951     6333     5605     7296     3742     2653 
    4221    -3048   -19193   -30796   -29301   -20385   -13618    -7366 
    7242    28625    45275    52978    49692    23805   -21991   -60539 
  -78634   -85526   -77241   -39004    20949    72814    99579   109422 
  104569    68674     4068   -57173   -94741  -113116  -108810   -71150 
  -12365    40657    72870    84678    80566    59990    25114    -9073 
  -29752   -37594   -31676    -9146    19472    39156    48297    53858 
   56658    51599    40967    37691    45182    48050    38051    24888 
   15570    10654     9391     3410   -10743   -20319   -21354   -26074 
  -34595   -35278   -28411   -21316   -11049     8444    29623    42734 
   56467    77645    87957    74929    56368    45542    29004     3078 
  -11170   -10698   -15420   -25430   -27164   -22834   -18206    -8962 
    9460    33641    54149    64244    63265    50910    27498      199 
  -17346   -16021    -2387    10478    20192    28401    26790     6835 
  -24764   -51431   -62923   -61331   -51208   -30513     3537    48253 
   94047   121357   113156    78112    43704    20883    -3226   -27248 
  -23999    11108    44117    52444    44347    30417    12468    -9062 
  -31170   -46356   -46174   -28907    -3225    19220    34119    38910 
   29134    10549    -4545   -13352   -19625   -21215    -8912    19005 
   46217    58402    62053    64808    57759    34042     7461    -5812 
   -9885   -10961    -2515    15155    34688    52299    59272    52442 
