Origin Time       2016/04/16 01:25:00
Lat.              32.753
Long.             130.762
Depth. (km)       12
Mag.              7.3
Station Code      GNM010
Station Lat.      36.2343
Station Long.     139.5331
Station Height(m) 22
Record Time       2016/04/16 01:29:38
Sampling Freq(Hz) 100Hz
Duration Time(s)  60
Dir.              E-W
Scale Factor      7845(gal)/8223790
Max. Acc. (gal)   1.432
Last Correction   2016/04/16 01:29:40
Memo.             
   13431    13421    13421    13394    13360    13369    13400    13400 
   13387    13400    13405    13390    13401    13432    13433    13421 
   13425    13413    13385    13393    13448    13477    13431    13386 
   13408    13458    13474    13463    13464    13475    13470    13460 
   13473    13489    13485    13479    13489    13513    13544    13560 
   13545    13540    13564    13579    13579    13578    13567    13567 
   13590    13628    13651    13651    13653    13657    13649    13637 
   13636    13652    13680    13725    13751    13733    13716    13734 
   13770    13778    13756    13757    13787    13821    13841    13834 
   13814    13815    13833    13848    13855    13853    13839    13832 
   13856    13899    13925    13915    13898    13900    13917    13938 
   13946    13917    13900    13922    13948    13963    13963    13960 
   13953    13950    13967    13983    13973    13954    13964    13977 
   13971    13973    13975    13963    13961    13973    13979    13973 
   13960    13945    13948    13960    13942    13932    13964    13975 
   13948    13942    13936    13909    13905    13914    13905    13902 
   13895    13880    13878    13895    13915    13902    13864    13832 
   13825    13844    13860    13848    13826    13817    13811    13802 
   13802    13803    13787    13761    13743    13733    13726    13724 
   13737    13756    13749    13724    13699    13675    13657    13656 
   13654    13656    13666    13668    13647    13625    13626    13626 
   13613    13593    13578    13587    13594    13576    13545    13531 
   13541    13537    13506    13486    13489    13501    13506    13494 
   13468    13456    13458    13452    13448    13439    13420    13417 
   13423    13410    13393    13404    13402    13356    13327    13340 
   13342    13338    13351    13352    13347    13356    13352    13333 
   13312    13294    13297    13302    13293    13297    13328    13336 
   13304    13297    13320    13314    13284    13277    13290    13294 
   13300    13309    13302    13298    13325    13343    13329    13320 
   13332    13354    13358    13346    13347    13352    13342    13350 
   13373    13382    13387    13393    13392    13392    13401    13410 
   13416    13417    13429    13441    13432    13436    13455    13444 
   13439    13467    13489    13485    13482    13491    13493    13482 
   13481    13500    13513    13504    13510    13532    13528    13528 
   13555    13555    13525    13516    13532    13548    13560    13567 
   13565    13559    13555    13565    13575    13570    13578    13595 
   13594    13593    13608    13606    13587    13593    13621    13635 
   13625    13605    13585    13585    13606    13631    13645    13636 
   13631    13639    13629    13614    13617    13621    13628    13644 
   13663    13651    13630    13643    13662    13659    13657    13652 
   13639    13640    13667    13693    13683    13654    13643    13639 
   13645    13671    13697    13695    13686    13697    13694    13663 
   13643    13653    13691    13729    13729    13690    13666    13676 
   13693    13705    13718    13721    13709    13693    13687    13697 
   13702    13690    13686    13705    13713    13697    13691    13703 
   13702    13695    13699    13693    13660    13643    13662    13686 
   13694    13680    13671    13676    13667    13654    13660    13659 
   13651    13644    13631    13621    13626    13636    13633    13621 
   13616    13595    13571    13576    13594    13598    13581    13560 
   13541    13531    13536    13541    13531    13522    13517    13500 
   13475    13466    13467    13462    13464    13478    13485    13478 
   13446    13404    13378    13366    13359    13382    13432    13441 
   13397    13354    13338    13327    13309    13308    13317    13308 
   13306    13325    13327    13304    13278    13246    13221    13228 
   13255    13286    13302    13274    13225    13204    13204    13212 
   13228    13250    13261    13242    13211    13194    13180    13174 
   13194    13215    13209    13194    13201    13224    13213    13182 
   13176    13185    13192    13208    13228    13221    13205    13209 
   13219    13219    13212    13205    13211    13221    13238    13278 
   13297    13267    13244    13252    13265    13284    13312    13333 
   13340    13325    13297    13288    13314    13358    13396    13423 
   13431    13405    13383    13390    13423    13463    13482    13487 
   13486    13489    13508    13539    13572    13594    13587    13591 
   13616    13618    13612    13635    13676    13705    13697    13695 
   13720    13749    13776    13782    13778    13806    13834    13849 
   13872    13878    13872    13891    13918    13944    13957    13950 
   13954    13990    14006    13991    14000    14033    14040    14052 
   14089    14098    14076    14075    14102    14127    14134    14126 
   14123    14150    14191    14207    14202    14184    14179    14210 
   14233    14212    14199    14208    14216    14237    14268    14270 
   14246    14231    14239    14245    14235    14227    14237    14255 
   14262    14260    14260    14249    14238    14235    14235    14230 
   14231    14250    14264    14241    14196    14172    14181    14191 
   14181    14181    14181    14143    14130    14164    14156    14116 
   14104    14102    14095    14095    14098    14069    14038    14050 
   14073    14060    14018    13977    13969    13986    14002    13984 
   13936    13905    13921    13946    13946    13929    13899    13855 
   13833    13855    13888    13865    13809    13784    13776    13787 
   13824    13829    13810    13786    13760    13751    13745    13726 
   13711    13707    13718    13748    13756    13743    13726    13684 
   13635    13624    13653    13706    13752    13737    13675    13628 
   13626    13644    13649    13652    13659    13674    13683    13671 
   13662    13653    13621    13613    13645    13683    13686    13652 
   13639    13654    13666    13671    13682    13693    13689    13689 
   13703    13686    13643    13628    13660    13705    13730    13730 
   13716    13710    13711    13701    13699    13716    13716    13720 
   13757    13773    13733    13716    13732    13740    13763    13784 
   13776    13765    13770    13775    13779    13790    13782    13752 
   13759    13809    13838    13829    13819    13806    13791    13784 
   13784    13794    13817    13838    13849    13838    13811    13798 
   13815    13829    13815    13815    13822    13806    13810    13839 
   13826    13772    13757    13786    13801    13806    13796    13763 
   13756    13786    13788    13768    13763    13744    13713    13713 
   13725    13730    13740    13732    13689    13664    13695    13714 
   13693    13674    13652    13636    13660    13683    13659    13628 
   13618    13613    13620    13633    13621    13601    13590    13585 
   13572    13548    13533    13540    13547    13539    13533    13536 
   13520    13494    13486    13468    13452    13485    13520    13504 
   13462    13432    13413    13404    13437    13475    13451    13406 
   13394    13380    13350    13344    13362    13380    13393    13385 
   13380    13392    13360    13312    13314    13344    13347    13342 
   13365    13373    13340    13333    13342    13317    13294    13281 
   13296    13350    13362    13309    13285    13284    13271    13296 
   13350    13356    13323    13309    13296    13278    13301    13323 
   13323    13335    13336    13301    13286    13300    13277    13254 
   13292    13308    13296    13300    13279    13248    13269    13313 
   13300    13257    13255    13269    13273    13278    13266    13259 
   13265    13255    13244    13236    13227    13230    13224    13217 
   13236    13231    13185    13174    13208    13223    13217    13221 
   13204    13166    13163    13181    13178    13184    13207    13207 
   13171    13134    13128    13139    13157    13178    13184    13159 
   13129    13123    13139    13149    13142    13134    13139    13165 
   13172    13162    13151    13143    13147    13149    13146    13157 
   13162    13158    13166    13178    13177    13166    13161    13167 
   13185    13198    13197    13197    13204    13198    13189    13211 
   13247    13258    13255    13258    13244    13228    13247    13286 
   13294    13289    13308    13320    13323    13342    13351    13336 
   13325    13350    13393    13406    13394    13400    13409    13398 
   13385    13402    13444    13446    13419    13429    13482    13500 
   13470    13459    13467    13456    13479    13551    13568    13520 
   13493    13525    13571    13579    13564    13558    13552    13531 
   13541    13616    13652    13609    13585    13595    13588    13601 
   13653    13674    13654    13651    13648    13654    13699    13726 
   13721    13729    13732    13705    13716    13780    13801    13779 
   13790    13809    13796    13796    13824    13839    13844    13859 
   13884    13888    13865    13871    13918    13960    13984    13995 
   13975    13940    13936    13973    14021    14047    14058    14079 
   14089    14062    14029    14040    14080    14141    14212    14200 
   14118    14089    14112    14141    14199    14253    14237    14204 
   14208    14211    14208    14233    14260    14254    14239    14235 
   14250    14288    14303    14270    14258    14281    14269    14247 
   14283    14311    14277    14247    14261    14284    14300    14316 
   14298    14238    14206    14222    14265    14304    14280    14220 
   14208    14219    14234    14268    14257    14189    14161    14177 
   14184    14185    14188    14165    14133    14146    14195    14179 
   14111    14076    14062    14062    14100    14129    14112    14096 
   14088    14035    13980    13992    14018    14011    14017    14037 
   14014    13973    13952    13929    13905    13922    13959    13971 
   13952    13913    13865    13839    13857    13878    13879    13884 
   13884    13853    13825    13829    13824    13795    13782    13790 
   13806    13821    13819    13805    13772    13740    13748    13782 
   13786    13771    13773    13773    13763    13744    13730    13740 
   13748    13747    13752    13763    13759    13740    13737    13743 
   13740    13755    13768    13752    13749    13767    13757    13740 
   13747    13748    13744    13753    13776    13815    13810    13755 
   13737    13763    13780    13788    13791    13782    13773    13787 
   13806    13799    13794    13795    13775    13759    13790    13845 
   13837    13786    13765    13771    13763    13763    13788    13803 
   13773    13751    13765    13759    13721    13724    13767    13773 
   13752    13744    13725    13676    13649    13694    13743    13724 
   13676    13651    13639    13644    13660    13656    13620    13581 
   13582    13605    13597    13565    13552    13535    13500    13498 
   13533    13517    13440    13404    13432    13450    13437    13409 
   13351    13289    13292    13340    13358    13308    13228    13176 
   13165    13190    13224    13205    13120    13051    13049    13068 
   13068    13054    13007    12938    12908    12927    12937    12901 
   12838    12784    12772    12788    12798    12762    12684    12626 
   12619    12625    12626    12623    12583    12522    12501    12502 
   12471    12426    12401    12387    12378    12370    12363    12355 
   12324    12275    12248    12254    12262    12240    12228    12245 
   12231    12190    12164    12150    12145    12155    12179    12210 
   12191    12129    12101    12125    12147    12139    12151    12182 
   12174    12162    12188    12193    12151    12148    12201    12228 
   12236    12270    12289    12272    12268    12291    12330    12356 
   12345    12349    12393    12415    12415    12452    12513    12526 
   12515    12553    12603    12614    12631    12680    12703    12675 
   12668    12713    12776    12847    12919    12935    12879    12839 
   12880    12946    13018    13089    13109    13086    13066    13088 
   13161    13223    13240    13234    13230    13252    13292    13355 
   13428    13431    13374    13380    13460    13516    13529    13540 
   13525    13495    13539    13640    13697    13689    13678    13691 
   13713    13747    13760    13743    13760    13802    13815    13838 
   13894    13896    13838    13845    13917    13941    13926    13948 
   13991    13995    13992    14029    14065    14061    14049    14057 
   14072    14067    14057    14098    14168    14187    14162    14149 
   14153    14161    14181    14219    14249    14239    14207    14193 
   14222    14272    14293    14281    14293    14330    14314    14257 
   14258    14319    14354    14366    14384    14378    14339    14315 
   14337    14373    14384    14384    14399    14423    14412    14369 
   14374    14412    14419    14413    14422    14430    14412    14392 
   14400    14409    14416    14426    14416    14420    14461    14470 
   14399    14364    14423    14443    14411    14447    14496    14442 
   14374    14392    14439    14459    14449    14420    14415    14455 
   14451    14422    14469    14465    14368    14370    14477    14519 
   14470    14438    14436    14412    14413    14465    14508    14508 
   14472    14453    14478    14499    14482    14472    14496    14500 
   14467    14461    14490    14503    14490    14504    14521    14499 
   14477    14472    14455    14467    14508    14500    14446    14436 
   14461    14465    14466    14461    14423    14384    14392    14407 
   14407    14419    14423    14380    14330    14314    14304    14311 
   14331    14311    14261    14250    14235    14208    14214    14215 
   14173    14143    14130    14080    14044    14052    14041    14006 
   13977    13940    13900    13900    13917    13891    13825    13773 
   13761    13740    13707    13706    13693    13631    13583    13563 
   13539    13491    13462    13473    13454    13404    13373    13333 
   13279    13258    13243    13205    13170    13153    13138    13113 
   13076    13015    12949    12939    12978    12993    12951    12872 
   12806    12787    12789    12788    12781    12760    12727    12700 
   12672    12641    12613    12603    12614    12638    12637    12591 
   12553    12530    12495    12501    12544    12544    12514    12499 
   12505    12523    12521    12490    12486    12505    12510    12519 
   12525    12525    12517    12505    12526    12545    12536    12552 
   12587    12596    12604    12625    12623    12611    12611    12625 
   12656    12694    12713    12707    12692    12702    12735    12781 
   12815    12814    12793    12815    12879    12901    12879    12877 
   12900    12918    12924    12939    12969    13008    13042    13045 
   13049    13059    13038    13059    13136    13176    13162    13146 
   13154    13163    13178    13219    13238    13231    13230    13238 
   13281    13325    13313    13284    13281    13306    13343    13358 
   13351    13355    13373    13360    13333    13367    13441    13440 
   13373    13362    13423    13446    13405    13378    13400    13417 
   13416    13436    13450    13408    13371    13408    13450    13428 
   13397    13405    13406    13382    13377    13408    13423    13380 
   13313    13286    13336    13412    13425    13370    13288    13221 
   13220    13289    13363    13354    13257    13171    13171    13209 
   13250    13298    13275    13153    13072    13131    13221    13211 
   13147    13112    13099    13096    13096    13089    13086    13068 
   13023    13015    13051    13058    13043    13030    12995    12960 
   12962    12989    13003    12969    12928    12938    12964    12973 
   12949    12908    12927    12946    12907    12930    12993    12972 
   12920    12923    12964    12991    12957    12914    12930    12961 
   12964    12982    13011    13012    13000    13004    13036    13058 
   13046    13036    13045    13069    13096    13109    13122    13139 
   13182    13216    13203    13196    13220    13227    13243    13297 
   13344    13359    13354    13375    13408    13387    13398    13502 
   13570    13555    13555    13594    13605    13602    13657    13711 
   13672    13645    13740    13838    13841    13826    13822    13822 
   13855    13930    14000    13999    13960    13960    13976    14019 
   14131    14218    14164    14052    14044    14116    14166    14214 
   14265    14265    14242    14238    14268    14311    14327    14300 
   14231    14202    14274    14370    14416    14388    14341    14350 
   14354    14349    14359    14364    14378    14382    14353    14342 
   14364    14376    14349    14342    14376    14384    14354    14337 
   14324    14316    14335    14354    14341    14318    14287    14268 
   14272    14231    14214    14274    14274    14212    14212    14247 
   14239    14204    14170    14156    14152    14149    14142    14112 
   14096    14125    14123    14058    14017    14030    14026    14000 
   14007    14027    14026    13991    13944    13914    13910    13938 
   13959    13929    13891    13871    13845    13814    13829    13894 
   13911    13859    13802    13763    13749    13752    13767    13795 
   13805    13780    13751    13732    13714    13711    13728    13728 
   13721    13722    13713    13701    13690    13689    13711    13724 
   13705    13680    13676    13690    13713    13743    13737    13709 
   13717    13718    13707    13729    13751    13744    13730    13743 
   13760    13763    13782    13806    13817    13818    13796    13801 
   13838    13851    13833    13836    13876    13884    13861    13911 
   13957    13926    13888    13888    13946    13996    13992    13998 
   14004    14006    14013    14021    14047    14060    14052    14076 
   14107    14106    14087    14112    14164    14164    14169    14193 
   14173    14156    14165    14168    14196    14247    14261    14242 
   14242    14241    14227    14242    14288    14310    14276    14265 
   14301    14293    14260    14281    14326    14328    14300    14283 
   14272    14262    14276    14308    14328    14319    14311    14308 
   14278    14258    14273    14274    14261    14270    14280    14246 
   14226    14269    14278    14230    14214    14212    14177    14168 
   14203    14207    14177    14183    14189    14156    14150    14169 
   14133    14088    14096    14106    14095    14102    14122    14102 
   14047    14031    14062    14068    14035    14023    14033    14029 
   14030    14044    14018    13973    13957    13954    13961    13994 
   14010    13959    13898    13900    13927    13936    13948    13950 
   13896    13846    13880    13929    13915    13892    13887    13861 
   13826    13832    13859    13855    13833    13818    13822    13856 
   13872    13837    13775    13743    13755    13788    13811    13806 
   13783    13759    13740    13730    13736    13740    13740    13744 
   13744    13730    13726    13738    13725    13690    13684    13710 
   13729    13722    13705    13693    13679    13672    13689    13713 
   13721    13697    13664    13656    13660    13678    13711    13702 
