Origin Time       2016/04/16 01:25:00
Lat.              32.753
Long.             130.762
Depth. (km)       12
Mag.              7.3
Station Code      GNM010
Station Lat.      36.2343
Station Long.     139.5331
Station Height(m) 22
Record Time       2016/04/16 01:29:38
Sampling Freq(Hz) 100Hz
Duration Time(s)  60
Dir.              N-S
Scale Factor      7845(gal)/8223790
Max. Acc. (gal)   1.542
Last Correction   2016/04/16 01:29:40
Memo.             
[...]
    5733     5780     5792     5756     5715     5689     5674     5688 
    5725     5736     5725     5738     5763     5773     5775     5755 
    5710     5682     5697     5722     5744     5769     5778     5768 
    5763     5756     5744     5744     5737     5714     5698     5694 
    5717     5764     5790     5779     5744     5694     5665     5656 
    5663     5697     5729     5741     5736     5721     5719     5709 
    5664     5618     5605     5614     5626     5628     5622     5626 
    5643     5664     5668     5633     5583     5552     5547     5564 
    5597     5610     5584     5537     5512     5526     5564     5590 
    5574     5526     5493     5486     5495     5498     5491     5489 
    5481     5470     5474     5481     5481     5485     5481     5462 
    5443     5435     5431     5448     5478     5483     5462     5440 
    5436     5431     5409     5394     5394     5412     5443     5452 
    5441     5437     5454     5460     5435     5406     5402     5410 
    5421     5437     5455     5464     5462     5462     5463     5443 
    5427     5445     5462     5458     5471     5503     5516     5503 
    5495     5491     5483     5481     5498     5522     5539     5539 
    5543     5578     5616     5607     5566     5532     5533     5572 
    5625     5645     5629     5607     5606     5628     5652     5671 
    5682     5683     5661     5636     5647     5688     5721     5707 
    5675     5689     5727     5738     5741     5740     5721     5707 
    5724     5744     5746     5755     5767     5759     5745     5746 
    5744     5737     5748     5771     5775     5773     5788     5784 
    5755     5734     5740     5752     5744     5726     5732     5767 
    5793     5798     5786     5746     5709     5702     5715     5736 
    5753     5752     5717     5687     5698     5721     5727     5727 
    5725     5714     5689     5671     5665     5656     5675     5709 
    5694     5652     5633     5640     5664     5682     5672     5636 
    5605     5614     5663     5686     5656     5620     5595     5593 
    5607     5625     5636     5644     5656     5656     5628     5582 
    5544     5559     5617     5660     5656     5616     5583     5583 
    5599     5607     5597     5599     5607     5603     5597     5601 
    5616     5618     5610     5618     5626     5626     5628     5625 
    5622     5622     5628     5641     5659     5660     5648     5661 
    5684     5689     5694     5689     5668     5660     5675     5699 
    5737     5778     5782     5752     5746     5764     5765     5760 
    5765     5765     5782     5840     5892     5894     5871     5845 
    5815     5822     5876     5917     5910     5904     5934     5952 
    5948     5954     5958     5942     5942     5977     6025     6061 
    6079     6065     6023     5983     5985     6044     6108     6126 
    6119     6110     6107     6120     6146     6150     6123     6099 
    6112     6158     6212     6238     6218     6174     6158     6177 
    6210     6238     6243     6223     6197     6195     6219     6232 
    6231     6250     6258     6231     6205     6200     6205     6214 
    6219     6214     6199     6196     6228     6250     6219     6172 
    6138     6137     6164     6176     6158     6130     6099     6092 
    6118     6133     6107     6060     6030     6030     6043     6053 
    6034     5985     5953     5946     5946     5945     5940     5937 
    5918     5875     5831     5798     5773     5780     5807     5818 
    5793     5737     5684     5671     5683     5692     5686     5656 
    5601     5552     5548     5562     5557     5545     5539     5526 
    5506     5481     5440     5393     5373     5368     5364     5370 
    5374     5363     5343     5323     5294     5266     5262     5263 
    5240     5216     5194     5161     5136     5146     5163     5169 
    5178     5174     5134     5078     5032     5001     4994     5017 
    5046     5069     5082     5066     5042     5030     5001     4959 
    4920     4901     4932     4978     4985     4966     4951     4968 
    4988     4961     4903     4868     4881     4928     4968     4954 
    4904     4901     4947     4958     4932     4907     4901     4936 
    4984     4980     4927     4892     4904     4942     4980     5012 
    5030     5009     4974     4963     4972     4984     5001     5022 
    5034     5043     5051     5035     5008     5026     5080     5117 
    5135     5143     5112     5074     5078     5097     5119     5171 
    5212     5190     5146     5128     5164     5244     5270     5201 
    5130     5130     5204     5305     5362     5321     5224     5166 
    5179     5266     5368     5394     5332     5239     5204     5263 
    5339     5387     5393     5358     5325     5331     5348     5339 
    5325     5332     5348     5374     5402     5402     5375     5344 
    5335     5363     5416     5445     5437     5397     5333     5310 
    5367     5431     5448     5429     5393     5374     5381     5393 
    5382     5356     5343     5356     5402     5437     5421     5375 
    5327     5304     5319     5359     5404     5428     5435     5422 
    5382     5317     5258     5254     5308     5373     5406     5408 
    5387     5344     5310     5319     5344     5359     5363     5358 
    5363     5379     5377     5352     5336     5327     5314     5336 
    5408     5467     5466     5422     5390     5386     5377     5370 
    5398     5445     5462     5463     5489     5502     5479     5467 
    5485     5510     5532     5541     5539     5528     5521     5551 
    5597     5610     5607     5628     5660     5683     5703     5705 
    5667     5645     5686     5760     5818     5829     5803     5778 
    5784     5825     5876     5914     5913     5886     5877     5902 
    5957     6018     6030     5987     5957     5989     6060     6112 
    6115     6089     6075     6110     6174     6205     6176     6142 
    6156     6193     6237     6285     6305     6268     6237     6257 
    6288     6313     6353     6373     6345     6328     6350     6377 
    6399     6415     6416     6404     6409     6444     6465     6460 
    6448     6419     6405     6438     6485     6521     6527     6505 
    6473     6448     6454     6465     6477     6477     6454     6458 
    6490     6500     6480     6458     6477     6492     6465     6459 
    6460     6416     6376     6373     6386     6389     6382     6389 
    6405     6403     6389     6374     6346     6312     6281     6268 
    6284     6305     6312     6295     6245     6212     6199     6174 
    6184     6219     6207     6166     6153     6145     6122     6107 
    6110     6102     6064     6022     6003     6000     6029     6068 
    6053     5988     5944     5925     5898     5884     5900     5908 
    5900     5888     5867     5838     5815     5805     5791     5780 
    5783     5767     5738     5733     5732     5729     5732     5703 
    5630     5578     5578     5587     5597     5628     5643     5602 
    5544     5495     5459     5459     5485     5495     5486     5455 
    5421     5408     5390     5368     5355     5351     5362     5360 
    5343     5321     5296     5278     5265     5247     5244     5240 
    5223     5211     5212     5212     5204     5193     5174     5157 
    5155     5152     5128     5115     5113     5101     5096     5097 
    5078     5059     5060     5070     5057     5027     5013     5022 
    5039     5047     5035     5027     5020     5005     4986     4951 
    4923     4949     4996     5027     5024     4978     4916     4891 
    4927     4986     5000     4965     4934     4918     4922     4923 
    4914     4916     4930     4946     4973     4988     4956     4897 
    4887     4938     4954     4926     4900     4872     4842     4862 
    4943     4999     4985     4947     4897     4847     4837     4865 
    4899     4920     4942     4950     4942     4932     4915     4904 
    4908     4914     4914     4922     4947     4949     4930     4938 
    4953     4950     4950     4965     4977     4962     4946     4958 
    4982     4982     4956     4954     5005     5077     5111     5081 
    5009     4935     4932     5023     5096     5088     5076     5093 
    5111     5107     5080     5043     5038     5093     5185     5233 
    5189     5107     5084     5108     5142     5189     5227     5219 
    5209     5231     5225     5196     5211     5265     5294     5282 
    5265     5266     5286     5319     5351     5348     5300     5282 
    5339     5401     5412     5400     5390     5377     5386     5433 
    5476     5452     5401     5421     5483     5510     5506     5498 
    5490     5503     5536     5529     5481     5478     5556     5630 
    5625     5562     5530     5556     5595     5643     5682     5653 
    5566     5521     5568     5656     5733     5771     5740     5667 
    5603     5579     5590     5637     5702     5737     5740     5725 
    5679     5647     5655     5672     5680     5688     5726     5780 
    5795     5752     5678     5633     5645     5672     5707     5760 
    5790     5773     5725     5692     5710     5713     5694     5718 
    5748     5749     5763     5773     5756     5717     5705     5741 
    5773     5780     5793     5810     5790     5737     5705     5727 
    5783     5823     5852     5864     5849     5807     5771     5780 
    5814     5822     5836     5873     5907     5927     5917     5884 
    5864     5854     5860     5902     5976     6012     5976     5921 
    5900     5935     6002     6039     6031     6019     6041     6053 
    6029     6043     6091     6096     6084     6110     6168     6188 
    6150     6147     6185     6191     6193     6239     6289     6301 
    6285     6278     6295     6309     6318     6332     6372     6434 
    6462     6455     6432     6405     6413     6448     6488     6538 
    6556     6528     6519     6559     6602     6609     6589     6574 
    6590     6639     6673     6677     6673     6666     6648     6670 
    6731     6741     6690     6673     6708     6731     6739     6758 
    6751     6710     6710     6789     6845     6813     6744     6689 
    6659     6696     6775     6808     6766     6716     6708     6718 
    6737     6756     6732     6673     6642     6655     6687     6723 
    6739     6704     6635     6600     6605     6598     6564     6536 
    6542     6573     6589     6588     6574     6531     6480     6438 
    6399     6381     6400     6413     6394     6373     6366     6342 
    6305     6274     6249     6227     6192     6165     6186     6203 
    6168     6118     6079     6039     6003     5988     6015     6030 
    5971     5886     5856     5860     5856     5853     5830     5769 
    5732     5733     5733     5698     5617     5548     5544     5584 
    5626     5620     5555     5466     5393     5386     5433     5460 
    5440     5362     5283     5278     5314     5336     5305     5211 
    5139     5158     5227     5246     5186     5116     5076     5049 
    5034     5039     5042     5040     5060     5082     5060     4984 
    4889     4858     4912     4989     5026     4981     4896     4854 
    4869     4914     4941     4881     4770     4741     4822     4905 
    4926     4873     4779     4735     4789     4872     4896     4827 
    4706     4649     4719     4830     4882     4858     4793     4760 
    4789     4823     4807     4768     4753     4783     4833     4862 
    4858     4845     4816     4783     4788     4826     4850     4849 
    4849     4869     4896     4914     4907     4893     4887     4872 
    4869     4882     4900     4942     4984     4984     4969     4962 
    4953     4959     4993     5027     5055     5054     5019     5001 
    5024     5043     5060     5105     5135     5116     5076     5053 
    5085     5128     5162     5208     5221     5189     5164     5167 
    5190     5213     5232     5243     5251     5258     5239     5225 
    5256     5320     5370     5360     5328     5320     5325     5320 
    5323     5368     5401     5377     5385     5443     5475     5466 
    5476     5495     5456     5425     5485     5564     5567     5519 
    5483     5514     5606     5660     5651     5618     5603     5621 
    5651     5717     5772     5740     5701     5698     5717     5787 
    5853     5840     5786     5795     5869     5919     5925     5911 
    5908     5944     6003     6048     6048     6030     6002     5977 
    6030     6104     6129     6151     6178     6183     6197     6239 
    6231     6166     6174     6265     6326     6372     6405     6363 
    6312     6340     6381     6397     6426     6459     6478     6486 
    6504     6540     6569     6573     6543     6527     6567     6613 
    6632     6664     6698     6673     6625     6652     6733     6785 
    6801     6795     6775     6763     6750     6768     6841     6886 
    6871     6844     6837     6906     6982     6966     6929     6916 
    6895     6913     6983     7055     7089     7071     7042     7028 
    6993     6990     7075     7169     7187     7146     7111     7091 
    7114     7164     7182     7186     7190     7179     7180     7206 
    7238     7233     7183     7155     7207     7277     7261     7215 
    7223     7241     7227     7206     7202     7210     7225     7256 
    7272     7234     7177     7163     7175     7187     7207     7227 
    7215     7167     7103     7064     7080     7115     7122     7107 
    7101     7094     7048     6988     6976     6985     6994     6990 
    6972     6939     6886     6860     6853     6826     6801     6791 
    6777     6756     6747     6736     6708     6652     6596     6593 
    6619     6602     6569     6540     6488     6440     6434     6434 
    6419     6382     6349     6346     6347     6328     6282     6227 
    6196     6166     6142     6146     6124     6085     6053     6018 
    5980     5933     5918     5953     5971     5940     5883     5827 
    5790     5760     5745     5730     5694     5645     5641     5684 
    5688     5622     5541     5506     5503     5491     5485     5476 
    5462     5441     5390     5346     5359     5373     5328     5268 
    5235     5233     5250     5243     5202     5155     5117     5116 
    5152     5178     5150     5076     5015     4984     4961     4978 
    5027     5023     4954     4911     4941     4974     4938     4860 
    4804     4800     4822     4852     4904     4897     4769     4645 
    4676     4797     4842     4777     4689     4625     4579     4625 
    4752     4787     4679     4556     4527     4592     4669     4700 
    4668     4583     4507     4509     4575     4641     4648     4584 
    4521     4518     4560     4595     4592     4572     4552     4517 
    4514     4581     4650     4650     4591     4550     4563     4577 
    4588     4627     4648     4633     4644     4666     4666     4666 
    4654     4642     4673     4719     4723     4726     4765     4784 
    4758     4723     4722     4766     4823     4861     4876     4854 
    4822     4820     4847     4882     4916     4942     4954     4958 
    4961     4958     4959     4970     4977     4997     5047     5092 
    5111     5115     5116     5104     5071     5078     5139     5186 
    5217     5248     5247     5213     5182     5194     5259     5316 
    5332     5333     5327     5347     5406     5433     5409     5363 
    5335     5397     5508     5552     5518     5452     5428     5495 
    5613     5721     5733     5620     5510     5502     5587     5722 
    5826     5814     5713     5675     5763     5849     5849     5791 
    5751     5784     5877     5971     6011     5987     5908     5845 
    5900     6018     6089     6108     6075     6035     6050     6089 
    6126     6160     6204     6232     6205     6184     6199     6228 
    6273     6304     6334     6361     6332     6303     6338     6385 
    6401     6407     6408     6409     6431     6442     6436     6459 
    6478     6490     6528     6548     6546     6525     6471     6457 
    6527     6605     6610     6567     6528     6496     6500     6554 
    6592     6593     6583     6567     6544     6543     6559     6555 
    6539     6536     6547     6552     6512     6470     6484     6508 
    6511     6512     6498     6460     6426     6419     6427     6424 
    6426     6421     6407     6372     6318     6295     6299     6308 
    6323     6322     6297     6250     6207     6208     6226     6218 
    6168     6104     6095     6108     6114     6119     6080     6006 
    5967     5984     6018     6006     5976     5950     5910     5868 
    5848     5829     5807     5813     5844     5837     5796     5741 
    5670     5630     5630     5643     5652     5623     5597     5593 
    5576     5548     5495     5440     5416     5402     5408     5414 
    5404     5382     5347     5323     5313     5310     5296     5250 
    5198     5175     5192     5204     5186     5185     5171     5115 
    5081     5084     5086     5077     5060     5050     5042     5040 
    5035     5016     5012     5023     5003     4946     4923     4958 
    4993     5007     5007     5000     4980     4936     4918     4928 
    4945     4965     4959     4926     4918     4955     4992     4988 
    4969     4949     4930     4932     4966     5007     4989     4951 
    4958     4966     4966     4997     5013     4974     4932     4947 
    4986     4999     5001     5007     4989     4986     4999     4992 
    4986     4985     4962     4943     4951     4982     5013     5004 
    4968     4941     4926     4915     4918     4941     4950     4965 
    4981     4950     4896     4865     4860     4873     4900     4926 
    4909     4860     4830     4831     4845     4847     4822     4776 
    4738     4743     4803     4843     4826     4797     4769     4722 
    4687     4699     4739     4748     4710     4685     4698     4729 
    4748     4715     4646     4617     4635     4671     4703     4712 
    4693     4666     4654     4646     4635     4639     4664     4688 
    4703     4714     4707     4681     4666     4672     4683     4712 
    4754     4756     4737     4743     4735     4731     4792     4843 
    4831     4807     4788     4787     4823     4882     4915     4893 
    4860     4868     4911     4970     5011     5011     4980     4949 
    4963     5035     5092     5093     5071     5051     5059     5119 
    5193     5209     5166     5139     5157     5198     5256     5293 
    5285     5256     5246     5279     5336     5354     5339     5331 
    5337     5383     5437     5443     5417     5405     5417     5441 
    5471     5499     5503     5494     5497     5505     5522     5543 
    5544     5543     5568     5593     5595     5590     5587     5595 
    5620     5644     5663     5663     5640     5626     5636     5665 
    5692     5694     5686     5691     5699     5706     5713     5702 
    5682     5684     5711     5741     5748     5724     5687     5684 
    5714     5729     5725     5718     5709     5701     5705     5715 
    5719     5717     5709     5707     5732     5740     5713     5686 
