Origin Time       2016/04/16 01:25:00
Lat.              32.753
Long.             130.762
Depth. (km)       12
Mag.              7.3
Station Code      HRS018
Station Lat.      34.3413
Station Long.     132.9068
Station Height(m) 2
Record Time       2016/04/16 01:25:55
Sampling Freq(Hz) 100Hz
Duration Time(s)  148
Dir.              N-S
Scale Factor      7845(gal)/8223790
Max. Acc. (gal)   14.840
Last Correction   2016/04/16 01:25:55
Memo.             
[...]
    -451     -561     -754    -1013    -1248    -1378    -1395    -1329 
   -1230    -1159    -1107    -1031     -905     -723     -511     -344 
    -284     -302     -340     -351     -303     -191      -23      178 
     405      658      919     1120     1217     1232     1232     1277 
    1379     1512     1632     1715     1763     1799     1867     1979 
    2126     2297     2481     2623     2664     2639     2619     2608 
    2567     2484     2359     2201     2022     1854     1706     1526 
    1237      838      410       45     -214     -351     -373     -360 
    -415     -592     -864    -1183    -1499    -1764    -1949    -2061 
   -2095    -2066    -2016    -1987    -2015    -2107    -2251    -2421 
   -2592    -2754    -2925    -3109    -3287    -3423    -3483    -3459 
   -3369    -3238    -3102    -3019    -3024    -3087    -3160    -3226 
   -3308    -3411    -3492    -3535    -3580    -3662    -3747    -3784 
   -3742    -3615    -3411    -3172    -2940    -2751    -2620    -2519 
   -2396    -2242    -2061    -1836    -1547    -1185     -788     -410 
     -58      313      758     1271     1795     2282     2720     3119 
    3499     3861     4210     4546     4865     5154     5382     5502 
    5470     5282     4989     4657     4353     4140     4050     4066 
    4159     4315     4515     4710     4837     4866     4828     4760 
    4673     4568     4431     4225     3902     3447     2903     2335 
    1745     1124      483     -178     -876    -1591    -2305    -2999 
   -3653    -4280    -4880    -5414    -5850    -6191    -6462    -6682 
   -6864    -7026    -7146    -7190    -7141    -7009    -6825    -6627 
   -6423    -6196    -5933    -5645    -5332    -4980    -4583    -4143 
   -3643    -3068    -2431    -1784    -1167     -584      -29      506 
    1036     1543     2011     2466     2924     3368     3780     4168 
    4542     4885     5197     5517     5886     6307     6731     7109 
    7423     7663     7830     7898     7863     7756     7609     7431 
    7218     6983     6752     6501     6176     5744     5188     4509 
    3746     2955     2168     1410      715      117     -391     -834 
   -1216    -1575    -1971    -2438    -2978    -3553    -4126    -4687 
   -5232    -5765    -6277    -6763    -7217    -7592    -7834    -7933 
   -7911    -7793    -7635    -7466    -7260    -6975    -6592    -6118 
   -5597    -5074    -4567    -4078    -3599    -3121    -2669    -2266 
   -1906    -1549    -1185     -843     -535     -245       55      392 
     791     1275     1852     2500     3173     3825     4402     4866 
    5243     5570     5859     6114     6309     6415     6432     6388 
    6289     6135     5942     5733     5517     5290     5043     4791 
    4533     4237     3886     3505     3111     2709     2300     1885 
    1467     1043      594      105     -398     -911    -1448    -1980 
   -2471    -2921    -3314    -3619    -3800    -3851    -3812    -3732 
   -3647    -3576    -3528    -3510    -3511    -3511    -3469    -3338 
   -3107    -2814    -2539    -2347    -2231    -2130    -2007    -1852 
   -1653    -1413    -1135     -822     -487     -143      197      495 
     719      889     1055     1244     1447     1620     1721     1737 
    1699     1674     1732     1877     2043     2165     2232     2263 
    2276     2277     2288     2327     2377     2401     2401     2439 
    2567     2776     3014     3230     3392     3500     3565     3570 
    3480     3277     2953     2546     2153     1848     1658     1578 
    1551     1501     1387     1205      945      619      291        0 
    -238     -411     -545     -649     -695     -691     -677     -660 
    -625     -594     -606     -665     -737     -765     -707     -564 
    -342      -49      306      697     1102     1525     1949     2357 
    2725     3019     3226     3379     3511     3636     3734     3770 
    3732     3642     3505     3317     3100     2884     2718     2633 
    2590     2523     2415     2289     2161     2047     1984     1977 
    2003     2046     2097     2155     2215     2262     2262     2191 
    2029     1760     1383      919      383     -210     -841    -1466 
   -2056    -2612    -3130    -3592    -3975    -4286    -4538    -4753 
   -4959    -5177    -5393    -5605    -5837    -6120    -6439    -6750 
   -7030    -7269    -7438    -7522    -7520    -7438    -7287    -7061 
   -6760    -6434    -6145    -5902    -5686    -5466    -5220    -4939 
   -4610    -4245    -3880    -3538    -3210    -2880    -2552    -2258 
   -2022    -1867    -1811    -1830    -1846    -1773    -1580    -1291 
    -926     -502      -47      446      984     1524     2026     2455 
    2778     2979     3065     3055     2992     2925     2857     2775 
    2700     2646     2598     2554     2519     2471     2389     2266 
    2115     1965     1841     1742     1664     1588     1479     1321 
    1121      882      618      342       79     -194     -502     -814 
   -1105    -1354    -1512    -1560    -1498    -1327    -1050     -704 
    -340       25      360      616      765      805      761      654 
     496      310      112      -99     -349     -610     -824     -970 
   -1048    -1057    -1000     -915     -866     -892     -992    -1166 
   -1375    -1568    -1760    -1977    -2219    -2485    -2764    -3017 
   -3207    -3308    -3322    -3257    -3096    -2810    -2378    -1807 
   -1117     -336      526     1452     2361     3188     3902     4479 
    4945     5355     5725     6054     6335     6519     6578     6548 
    6471     6405     6412     6496     6632     6789     6917     6978 
    6956     6839     6628     6359     6087     5861     5694     5543 
    5344     5067     4691     4223     3685     3111     2577     2153 
    1865     1703     1642     1651     1674     1663     1609     1535 
    1478     1440     1405     1370     1359     1385     1397     1354 
    1247     1062      797      475      120     -217     -500     -720 
    -868     -951    -1000    -1028    -1023     -972     -861     -707 
    -535     -367     -216      -95      -16       39       81       68 
     -49     -291     -615     -965    -1308    -1628    -1910    -2168 
   -2393    -2575    -2718    -2808    -2817    -2731    -2573    -2409 
   -2285    -2201    -2157    -2138    -2133    -2137    -2130    -2087 
   -2018    -1962    -1911    -1840    -1734    -1605    -1460    -1282 
   -1044     -743     -413      -94      183      438      702      982 
    1260     1533     1819     2144     2509     2880     3215     3492 
    3717     3913     4113     4324     4515     4666     4787     4868 
    4903     4889     4822     4680     4431     4074     3653     3221 
    2803     2404     2023     1668     1339     1063      864      727 
     603      440      224      -32     -338     -710    -1177    -1768 
   -2489    -3281    -4050    -4734    -5310    -5773    -6150    -6454 
   -6698    -6909    -7101    -7256    -7352    -7375    -7318    -7171 
   -6922    -6569    -6133    -5649    -5138    -4606    -4055    -3497 
   -2959    -2473    -2056    -1677    -1304     -927     -568     -259 
      -5      178      274      306      289      221       89     -129 
    -437     -828    -1320    -1900    -2527    -3149    -3719    -4197 
   -4548    -4780    -4892    -4891    -4788    -4603    -4383    -4152 
   -3898    -3619    -3288    -2868    -2342    -1725    -1080     -437 
     194      776     1266     1622     1806     1813     1644     1306 
     835      302     -224     -699    -1081    -1347    -1489    -1518 
   -1474    -1412    -1387    -1456    -1658    -1984    -2378    -2805 
   -3250    -3693    -4128    -4563    -5004    -5416    -5757    -6012 
   -6168    -6224    -6204    -6122    -6010    -5881    -5744    -5595 
   -5427    -5240    -5059    -4912    -4816    -4785    -4842    -4993 
   -5220    -5478    -5697    -5869    -6035    -6196    -6350    -6465 
   -6507    -6450    -6288    -6003    -5575    -4978    -4222    -3369 
   -2496    -1637     -841     -156      380      773     1055     1282 
    1509     1726     1903     2062     2277     2604     3053     3604 
    4228     4918     5656     6443     7284     8168     9030     9796 
   10428    10909    11253    11488    11651    11762    11831    11850 
   11813    11727    11539    11178    10642     9950     9146     8272 
    7342     6401     5483     4577     3709     2890     2083     1255 
     394     -487    -1370    -2247    -3126    -3986    -4785    -5508 
   -6137    -6648    -7026    -7273    -7431    -7537    -7581    -7547 
   -7418    -7211    -6971    -6724    -6480    -6234    -5989    -5753 
   -5545    -5383    -5263    -5162    -5055    -4947    -4869    -4823 
   -4777    -4700    -4561    -4338    -4029    -3615    -3073    -2451 
   -1809    -1132     -413      344     1167     2041     2911     3757 
    4548     5268     5944     6581     7195     7807     8395     8920 
    9383     9780    10102    10382    10621    10786    10863    10828 
   10685    10489    10258     9989     9703     9404     9076     8723 
    8376     8029     7636     7144     6482     5599     4522     3316 
    2068      845     -315    -1379    -2349    -3262    -4144    -5011 
   -5879    -6732    -7535    -8276    -8955    -9574   -10149   -10678 
  -11171   -11638   -12073   -12487   -12885   -13238   -13514   -13664 
  -13636   -13441   -13099   -12609   -12028   -11391   -10694    -9973 
   -9248    -8513    -7776    -7044    -6346    -5697    -5081    -4509 
   -4024    -3653    -3385    -3213    -3149    -3194    -3319    -3505 
   -3728    -3955    -4135    -4214    -4162    -3969    -3628    -3127 
   -2494    -1809    -1119     -453      157      695     1111     1387 
    1559     1667     1757     1838     1922     2045     2215     2424 
    2677     2983     3348     3789     4341     5009     5753     6505 
    7198     7767     8170     8380     8370     8143     7732     7164 
    6485     5740     4965     4189     3411     2678     2058     1570 
    1204      923      687      468      234      -47     -376     -731 
   -1105    -1471    -1788    -2030    -2188    -2293    -2388    -2457 
   -2481    -2469    -2434    -2425    -2500    -2687    -2982    -3342 
   -3709    -4013    -4200    -4260    -4225    -4174    -4162    -4232 
   -4407    -4675    -5023    -5398    -5719    -5937    -6004    -5892 
   -5634    -5286    -4852    -4297    -3578    -2693    -1675     -556 
     642     1872     3057     4140     5090     5888     6531     7006 
    7321     7534     7680     7726     7669     7533     7322     7053 
    6764     6493     6284     6162     6120     6153     6254     6394 
    6535     6631     6608     6416     6081     5638     5080     4429 
    3727     2970     2173     1355      503     -315     -972    -1420 
   -1679    -1796    -1858    -1930    -2068    -2313    -2641    -2997 
   -3366    -3736    -4094    -4486    -4927    -5362    -5744    -6056 
   -6297    -6486    -6658    -6835    -6974    -7017    -6966    -6852 
   -6677    -6424    -6102    -5675    -5071    -4252    -3244    -2121 
    -963      149     1136     1981     2705     3292     3742     4113 
    4436     4710     5011     5455     6085     6889     7827     8842 
    9859    10804    11614    12270    12845    13436    14017    14492 
   14839    15045    15078    14920    14551    13944    13103    12066 
   10908     9702     8469     7221     5987     4777     3622     2577 
    1686      978      409      -85     -535     -972    -1414    -1875 
   -2376    -2944    -3577    -4232    -4857    -5408    -5895    -6377 
   -6870    -7383    -7908    -8408    -8887    -9370    -9837   -10233 
  -10534   -10724   -10797   -10795   -10712   -10496   -10180    -9826 
   -9404    -8872    -8244    -7562    -6848    -6091    -5283    -4455 
   -3631    -2853    -2178    -1614    -1088     -508      159      872 
    1593     2369     3252     4233     5281     6303     7206     7974 
    8623     9124     9467     9688     9787     9710     9495     9300 
    9221     9197     9147     9057     8893     8669     8403     8027 
    7488     6837     6076     5198     4289     3377     2467     1606 
     751     -126     -980    -1802    -2624    -3459    -4333    -5219 
   -6096    -6985    -7852    -8622    -9248    -9678    -9922   -10057 
  -10104   -10073    -9992    -9863    -9705    -9552    -9398    -9213 
   -8943    -8564    -8086    -7518    -6897    -6243    -5525    -4720 
   -3839    -2891    -1919     -978      -51      901     1868     2843 
    3819     4748     5606     6407     7167     7898     8619     9348 
   10084    10778    11334    11715    11963    12093    12112    12037 
   11831    11530    11229    10967    10759    10612    10478    10288 
   10018     9624     9058     8365     7631     6910     6232     5628 
    5116     4666     4232     3769     3246     2700     2138     1501 
     747     -117    -1100    -2174    -3257    -4287    -5246    -6126 
   -6956    -7758    -8536    -9320   -10084   -10725   -11196   -11485 
  -11564   -11443   -11168   -10779   -10307    -9786    -9244    -8730 
   -8293    -7889    -7439    -6936    -6386    -5780    -5098    -4338 
   -3497    -2584    -1632     -631      436     1563     2745     3920 
    4985     5908     6717     7430     8068     8714     9444    10241 
   11059    11857    12575    13182    13680    14103    14520    14949 
   15325    15562    15651    15635    15529    15342    15084    14692 
   14125    13366    12384    11213     9921     8575     7223     5860 
    4438     2955     1486       90    -1170    -2207    -3025    -3663 
   -4109    -4374    -4464    -4453    -4495    -4658    -4912    -5300 
   -5836    -6405    -6949    -7456    -7889    -8299    -8718    -9071 
   -9333    -9479    -9463    -9285    -8946    -8460    -7875    -7245 
   -6604    -5908    -5134    -4301    -3456    -2636    -1841    -1090 
    -391      289      938     1526     2076     2624     3235     3932 
    4681     5497     6392     7329     8255     9154    10011    10768 
   11377    11832    12116    12210    12140    11963    11700    11358 
   10959    10537    10134     9738     9309     8820     8237     7515 
    6675     5733     4684     3546     2367     1210      151     -751 
   -1468    -1999    -2392    -2752    -3154    -3618    -4153    -4772 
   -5441    -6150    -6891    -7616    -8268    -8806    -9196    -9423 
   -9499    -9435    -9216    -8838    -8298    -7623    -6901    -6219 
   -5632    -5146    -4710    -4282    -3820    -3277    -2636    -1927 
   -1154     -311      552     1389     2168     2840     3388     3839 
    4205     4514     4795     5065     5335     5625     5957     6350 
    6791     7250     7708     8166     8610     9040     9471     9882 
   10241    10528    10724    10790    10716    10497    10120     9601 
    9000     8384     7809     7277     6766     6274     5771     5159 
    4369     3383     2219      996     -160    -1229    -2207    -3092 
   -3896    -4606    -5186    -5609    -5896    -6145    -6475    -6959 
   -7576    -8257    -8922    -9495    -9925   -10185   -10304   -10292 
  -10084    -9647    -9034    -8322    -7562    -6779    -5979    -5190 
   -4479    -3855    -3281    -2756    -2273    -1771    -1179     -463 
     337     1143     1942     2767     3618     4452     5235     5984 
    6744     7539     8309     9018     9639    10085    10308    10312 
   10120     9784     9371     8889     8351     7824     7345     6903 
    6500     6130     5767     5377     4903     4318     3646     2913 
    2130     1336      579     -114     -750    -1333    -1854    -2336 
   -2822    -3288    -3678    -3963    -4172    -4378    -4652    -5038 
   -5547    -6126    -6706    -7233    -7657    -7969    -8208    -8388 
   -8559    -8758    -8965    -9119    -9184    -9132    -8947    -8627 
   -8197    -7708    -7191    -6629    -6012    -5341    -4623    -3870 
   -3095    -2323    -1611    -1000     -460       44      518      981 
    1431     1864     2315     2828     3423     4090     4784     5431 
    5962     6374     6639     6718     6631     6415     6131     5831 
    5512     5178     4862     4560     4240     3898     3530     3086 
    2560     1987     1371      785      315      -20     -243     -418 
    -595     -783     -984    -1205    -1464    -1761    -2073    -2403 
   -2778    -3213    -3704    -4217    -4707    -5143    -5510    -5784 
   -5948    -5994    -5917    -5768    -5628    -5551    -5605    -5823 
   -6124    -6380    -6511    -6509    -6392    -6185    -5938    -5694 
   -5472    -5259    -5036    -4779    -4453    -4043    -3539    -2964 
   -2355    -1753    -1193     -691     -244      143      473      735 
     929     1105     1301     1507     1682     1786     1810     1799 
    1806     1836     1899     2018     2208     2493     2878     3346 
    3869     4384     4827     5154     5352     5443     5464     5479 
    5517     5544     5521     5404     5155     4789     4356     3906 
    3464     3041     2646     2242     1788     1262      665       13 
    -677    -1391    -2085    -2702    -3219    -3642    -3982    -4266 
   -4515    -4735    -4956    -5185    -5387    -5539    -5633    -5652 
   -5544    -5289    -4899    -4391    -3838    -3329    -2911    -2581 
   -2296    -2046    -1883    -1840    -1896    -2010    -2135    -2234 
   -2273    -2251    -2204    -2169    -2161    -2162    -2150    -2110 
   -2038    -1952    -1856    -1745    -1609    -1433    -1228    -1043 
    -928     -897     -938    -1038    -1144    -1205    -1209    -1165 
   -1093    -1019     -951     -922     -957    -1044    -1143    -1193 
   -1156    -1071    -1043    -1155    -1437    -1845    -2269    -2612 
   -2835    -2955    -3022    -3052    -3045    -3029    -3057    -3160 
   -3312    -3473    -3630    -3750    -3775    -3688    -3500    -3238 
   -2915    -2515    -2037    -1501     -920     -310      299      877 
    1414     1910     2361     2775     3141     3418     3582     3631 
    3569     3399     3121     2764     2361     1923     1441      884 
     237     -464    -1169    -1840    -2465    -3017    -3478    -3861 
   -4202    -4542    -4904    -5248    -5508    -5653    -5672    -5574 
   -5397    -5198    -5016    -4858    -4712    -4557    -4378    -4155 
   -3859    -3469    -3025    -2578    -2162    -1811    -1530    -1293 
   -1085     -927     -828     -753     -648     -464     -201      108 
     399      623      741      757      702      600      475      376 
     313      287      329      453      662      926     1175     1355 
    1449     1468     1437     1378     1297     1210     1162     1173 
    1220     1277     1344     1429     1544     1687     1826     1922 
    1937     1864     1701     1457     1154      805      425       32 
    -360     -724    -1021    -1271    -1526    -1815    -2141    -2455 
   -2720    -2930    -3069    -3083    -2949    -2708    -2411    -2104 
   -1829    -1617    -1480    -1417    -1436    -1564    -1791    -2064 
   -2336    -2587    -2798    -2921    -2905    -2745    -2474    -2124 
   -1761    -1457    -1260    -1185    -1198    -1255    -1344    -1451 
   -1520    -1505    -1382    -1162     -874     -573     -297      -72 
