Origin Time       2016/04/16 01:25:00
Lat.              32.753
Long.             130.762
Depth. (km)       12
Mag.              7.3
Station Code      HRS010
Station Lat.      34.5868
Station Long.     133.0488
Station Height(m) 338
Record Time       2016/04/16 01:26:01
Sampling Freq(Hz) 100Hz
Duration Time(s)  99
Dir.              N-S
Scale Factor      7845(gal)/8223790
Max. Acc. (gal)   4.063
Last Correction   2016/04/16 01:26:01
Memo.             
[...]
    2263     1952     1618     1329     1098      912      758      630 
     540      498      487      488      484      467      432      400 
     423      531      715      957     1227     1479     1687     1854 
    2010     2199     2436     2693     2918     3063     3106     3073 
    3041     3075     3191     3343     3450     3451     3330     3109 
    2851     2608     2401     2234     2096     1961     1806     1634 
    1478     1366     1294     1250     1242     1300     1445     1690 
    2029     2434     2851     3226     3522     3719     3819     3854 
    3847     3809     3750     3666     3551     3400     3222     3040 
    2874     2737     2646     2616     2658     2744     2832     2894 
    2929     2948     2974     3036     3137     3258     3361     3429 
    3481     3543     3615     3688     3754     3850     3993     4174 
    4352     4496     4606     4687     4735     4733     4661     4527 
    4360     4183     3989     3773     3555     3369     3246     3194 
    3207     3275     3387     3530     3677     3788     3835     3789 
    3650     3453     3248     3086     3003     2994     3037     3111 
    3186     3244     3280     3287     3275     3249     3211     3157 
    3086     3001     2906     2802     2708     2646     2625     2639 
    2659     2663     2656     2654     2655     2640     2574     2442 
    2255     2041     1825     1629     1460     1310     1189     1117 
    1107     1171     1305     1462     1605     1707     1750     1733 
    1663     1556     1429     1291     1148     1005      866      738 
     607      444      237       -9     -279     -560     -841    -1093 
   -1282    -1391    -1409    -1348    -1237    -1093     -924     -739 
    -552     -378     -243     -168     -178     -270     -406     -531 
    -629     -714     -808     -888     -905     -838     -697     -514 
    -340     -228     -189     -201     -211     -176      -94        9 
      97      139      125       62      -44     -178     -279     -275 
    -147       79      370      675      939     1136     1267     1368 
    1474     1588     1691     1763     1800     1796     1738     1630 
    1506     1404     1341     1320     1318     1323     1345     1408 
    1506     1617     1695     1709     1655     1541     1375     1166 
     928      676      425      206       36      -85     -155     -178 
    -162     -116      -37       64      178      284      372      444 
     490      483      417      314      186       22     -166     -349 
    -480     -519     -467     -337     -147       97      387      696 
     978     1215     1402     1530     1580     1534     1390     1179 
     963      772      621      537      538      622      780      963 
    1131     1274     1387     1459     1476     1428     1325     1201 
    1089     1011      987     1026     1135     1282     1429     1547 
    1630     1692     1750     1810     1872     1919     1930     1892 
    1787     1606     1363     1070      758      459      189      -20 
    -118      -82       68      287      513      677      730      637 
     409      110     -167     -348     -398     -332     -178       47 
     322      600      857     1085     1279     1436     1553     1618 
    1620     1551     1422     1278     1170     1113     1090     1063 
    1016      966      943      961     1026     1144     1301     1475 
    1628     1709     1677     1518     1240      892      540      230 
      -2     -128     -129      -22      184      471      780     1065 
    1305     1474     1556     1554     1471     1329     1170     1020 
     873      723      603      553      616      785     1016     1243 
    1428     1552     1610     1603     1539     1428     1279     1112 
     946      820      765      785      859      955     1035     1078 
    1074     1012      874      666      425      198        8     -124 
    -178     -162      -86       32      189      380      595      796 
     947     1024     1026      966      872      773      685      625 
     608      657      778      955     1163     1371     1551     1669 
    1710     1674     1567     1402     1202     1000      827      699 
     621      592      621      718      885     1107     1356     1602 
    1826     2027     2204     2369     2542     2729     2911     3052 
    3138     3184     3207     3234     3284     3331     3315     3207 
    2994     2694     2351     1998     1649     1314      986      657 
     352      112      -21      -23      116      386      741     1124 
    1494     1840     2142     2365     2474     2461     2362     2226 
    2084     1946     1804     1652     1497     1372     1318     1360 
    1513     1764     2062     2316     2439     2397     2209     1938 
    1668     1448     1290     1192     1142     1132     1173     1271 
    1418     1597     1779     1930     2042     2107     2134     2128 
    2079     1956     1742     1472     1206      990      842      749 
     688      646      630      646      689      756      843      947 
    1053     1129     1138     1060      912      719      511      314 
     144       20      -59     -114     -171     -218     -224     -174 
     -70       59      178      280      367      440      498      538 
     575      625      711      838      980     1092     1136     1111 
    1055     1011      990      976      928      818      635      409 
     209       95       86      175      334      510      676      838 
    1013     1217     1459     1721     1968     2157     2243     2214 
    2092     1910     1694     1453     1171      838      486      157 
     -94     -238     -263     -187      -37      136      289      409 
     491      540      558      550      502      395      240       60 
    -109     -246     -352     -433     -488     -517     -513     -453 
    -322     -112      156      457      762     1048     1291     1471 
    1574     1601     1560     1468     1355     1263     1244     1340 
    1545     1806     2038     2181     2215     2157     2034     1878 
    1722     1571     1412     1219      978      702      403       87 
    -214     -446     -544     -468     -241       70      411      749 
    1073     1387     1688     1975     2239     2446     2538     2481 
    2297     2041     1761     1499     1282     1123     1032     1020 
    1075     1174     1304     1475     1687     1917     2141     2353 
    2548     2706     2801     2830     2811     2772     2745     2759 
    2844     3006     3246     3542     3846     4099     4256     4330 
    4360     4392     4468     4563     4603     4527     4322     4029 
    3719     3456     3295     3264     3355     3511     3658     3724 
    3657     3456     3187     2934     2763     2694     2705     2747 
    2763     2732     2679     2635     2613     2608     2598     2575 
    2525     2454     2369     2300     2304     2425     2658     2955 
    3260     3523     3740     3925     4088     4232     4347     4414 
    4414     4333     4178     3983     3775     3565     3358     3169 
    3030     2970     2998     3092     3207     3306     3353     3300 
    3132     2872     2562     2255     1996     1804     1691     1667 
    1715     1814     1949     2121     2331     2571     2830     3094 
    3331     3518     3628     3661     3632     3554     3434     3292 
    3145     3014     2914     2853     2843     2898     3015     3144 
    3222     3221     3154     3055     2932     2766     2543     2263 
    1942     1599     1248      928      685      526      425      338 
     252      195      211      313      473      653      822      953 
    1032     1086     1159     1310     1567     1890     2208     2465 
    2636     2725     2747     2721     2682     2659     2647     2632 
    2601     2558     2532     2542     2563     2565     2516     2390 
    2188     1930     1651     1397     1215     1117     1094     1127 
    1223     1397     1644     1939     2243     2531     2794     3010 
    3160     3248     3312     3388     3495     3611     3727     3846 
    3955     4028     4047     4032     4035     4116     4291     4510 
    4703     4830     4865     4776     4549     4185     3717     3218 
    2762     2393     2143     2034     2058     2168     2309     2447 
    2579     2743     2974     3269     3582     3847     4013     4064 
    4010     3892     3771     3696     3663     3643     3586     3473 
    3335     3246     3273     3443     3728     4068     4376     4573 
    4618     4506     4275     3973     3647     3334     3034     2751 
    2513     2346     2247     2204     2189     2172     2142     2135 
    2174     2261     2384     2511     2606     2655     2655     2643 
    2662     2718     2789     2833     2820     2740     2593     2381 
    2115     1804     1466     1116      774      468      241      110 
      70       95      148      222      334      472      608      727 
     827      929     1035     1124     1183     1209     1208     1185 
    1133     1048      965      949     1034     1209     1436     1680 
    1939     2212     2473     2682     2802     2808     2702     2505 
    2242     1972     1765     1669     1728     1948     2285     2663 
    3002     3235     3339     3311     3156     2879     2496     2041 
    1567     1111      688      314       43      -63       41      344 
     780     1256     1679     1993     2214     2389     2567     2772 
    2990     3169     3262     3261     3215     3180     3172     3183 
    3204     3230     3253     3291     3369     3511     3713     3946 
    4178     4376     4507     4544     4494     4393     4294     4245 
    4280     4395     4552     4712     4851     4961     5039     5074 
    5035     4923     4766     4575     4356     4112     3839     3550 
    3264     3006     2787     2590     2396     2182     1941     1691 
    1483     1363     1341     1410     1559     1787     2077     2389 
    2663     2855     2949     2933     2787     2516     2138     1701 
    1294      990      828      812      913     1073     1246     1424 
    1614     1826     2061     2277     2439     2528     2538     2478 
    2365     2226     2106     2019     1960     1914     1856     1791 
    1733     1691     1680     1729     1848     1987     2092     2133 
    2118     2081     2046     2027     2034     2056     2074     2076 
    2058     2042     2060     2138     2289     2493     2705     2887 
    3022     3103     3132     3122     3092     3045     2974     2870 
    2737     2610     2548     2596     2759     3019     3338     3670 
    3969     4185     4289     4288     4197     4051     3873     3673 
    3468     3283     3123     2974     2801     2610     2438     2307 
    2232     2215     2265     2382     2548     2714     2820     2840 
    2783     2667     2517     2328     2077     1769     1428     1069 
     714      406      189       90      110      225      409      630 
     861     1073     1248     1409     1597     1802     1965     2011 
    1898     1640     1285      890      514      221       76      109 
     284      530      777      980     1124     1206     1223     1188 
    1138     1119     1174     1305     1471     1638     1777     1869 
    1917     1930     1915     1884     1864     1865     1872     1841 
    1745     1601     1440     1289     1142      985      842      778 
     869     1135     1525     1962     2366     2687     2896     2971 
    2893     2664     2324     1938     1580     1321     1204     1233 
    1390     1620     1844     2000     2073     2061     1971     1807 
    1570     1262      920      599      337      157       62       45 
      90      176      283      386      468      523      553      575 
     575      517      372      144     -120     -356     -506     -549 
    -517     -463     -423     -434     -526     -695     -862     -939 
    -877     -702     -471     -225        9      199      309      318 
     232       63     -178     -473     -783    -1060    -1274    -1395 
   -1417    -1345    -1210    -1059     -924     -816     -733     -643 
    -530     -403     -279     -176     -120     -106     -129     -182 
    -243     -299     -363     -454     -560     -648     -689     -675 
    -604     -515     -454     -473     -588     -762     -929    -1050 
   -1105    -1100    -1065    -1053    -1071    -1100    -1113    -1090 
    -997     -816     -553     -244       58      310      493      619 
     710      804      922     1053     1190     1328     1468     1599 
    1703     1767     1787     1767     1698     1576     1399     1181 
     958      772      634      540      493      496      552      661 
     793      912     1011     1101     1190     1278     1358     1422 
    1459     1440     1348     1188      978      766      607      513 
     481      495      513      530      587      710      895     1107 
    1297     1416     1459     1445     1402     1358     1318     1282 
    1259     1263     1291     1340     1389     1408     1374     1270 
    1084      828      546      289       95      -45     -166     -280 
    -380     -442     -449     -394     -292     -178      -93      -64 
    -118     -246     -423     -603     -745     -822     -842     -826 
    -800     -792     -830     -943    -1138    -1386    -1642    -1845 
   -1946    -1945    -1884    -1837    -1854    -1952    -2110    -2285 
   -2439    -2558    -2635    -2650    -2584    -2439    -2241    -2029 
   -1826    -1647    -1505    -1398    -1305    -1217    -1147    -1101 
   -1084    -1100    -1131    -1142    -1112    -1020     -843     -581 
    -251      121      484      788     1007     1138     1208     1240 
    1250     1259     1296     1345     1372     1360     1308     1246 
    1209     1227     1296     1393     1494     1587     1669     1746 
    1811     1846     1841     1804     1755     1713     1669     1601 
    1495     1387     1331     1379     1548     1796     2068     2319 
    2523     2663     2737     2744     2693     2597     2470     2349 
    2276     2266     2309     2386     2467     2527     2570     2610 
    2659     2712     2755     2767     2731     2651     2543     2415 
    2258     2053     1776     1443     1092      772      537      405 
     369      422      544      715      915     1100     1228     1294 
    1312     1285     1236     1206     1217     1281     1412     1576 
    1715     1786     1776     1696     1571     1412     1230     1058 
     923      837      783      758      778      847      945     1046 
    1128     1178     1210     1247     1286     1310     1314     1293 
    1259     1235     1246     1308     1413     1520     1601     1651 
    1669     1652     1590     1486     1359     1232     1123     1042 
     990      962      959      981     1005     1024     1036     1051 
    1081     1124     1165     1194     1210     1213     1217     1230 
    1251     1271     1266     1219     1144     1080     1073     1152 
    1302     1470     1595     1645     1632     1598     1593     1651 
    1776     1939     2121     2309     2485     2644     2798     2951 
    3083     3159     3157     3098     3021     2957     2917     2875 
    2813     2724     2624     2533     2467     2432     2415     2378 
    2299     2176     2041     1939     1918     1980     2074     2155 
    2205     2234     2265     2323     2405     2490     2562     2610 
    2635     2619     2554     2466     2373     2301     2281     2315 
    2388     2488     2593     2687     2781     2898     3067     3302 
    3574     3835     4044     4167     4185     4117     3993     3832 
    3650     3458     3265     3088     2932     2787     2651     2527 
    2439     2394     2382     2404     2470     2575     2697     2810 
    2889     2926     2944     2957     2971     2967     2936     2876 
    2799     2701     2584     2451     2308     2173     2042     1915 
    1806     1733     1722     1783     1898     2041     2188     2324 
    2438     2532     2619     2695     2758     2792     2795     2775 
    2737     2677     2571     2407     2205     2016     1887     1837 
    1854     1911     1993     2088     2176     2226     2228     2204 
    2182     2184     2205     2242     2277     2303     2323     2362 
    2451     2604     2805     3032     3252     3439     3570     3626 
    3612     3547     3464     3397     3360     3327     3280     3208 
    3105     2964     2795     2604     2409     2250     2135     2050 
    1977     1914     1869     1854     1878     1933     1996     2064 
    2141     2218     2293     2370     2447     2525     2606     2697 
    2787     2857     2882     2866     2829     2802     2787     2768 
    2743     2712     2671     2620     2556     2489     2434     2407 
    2416     2461     2531     2616     2700     2771     2821     2855 
    2886     2917     2934     2928     2891     2826     2733     2616 
    2492     2381     2290     2207     2100     1954     1780     1602 
    1443     1323     1240     1185     1136     1063      972      895 
     868      908      999     1102     1189     1236     1251     1248 
    1254     1291     1359     1443     1532     1624     1734     1887 
    2088     2326     2565     2776     2930     3021     3061     3071 
    3076     3113     3188     3277     3338     3333     3248     3109 
    2974     2884     2857     2879     2921     2967     3005     3019 
    3009     2971     2901     2792     2640     2434     2201     1992 
    1823     1702     1628     1583     1549     1520     1494     1472 
    1466     1486     1522     1549     1543     1501     1448     1399 
    1356     1321     1291     1263     1229     1185     1124     1059 
    1020     1034     1107     1227     1364     1491     1595     1663 
    1675     1610     1479     1308     1120      936      781      669 
     611      611      642      676      722      799      928     1123 
    1358     1610     1844     2022     2128     2155     2098     1984 
    1856     1742     1671     1656     1683     1715     1721     1703 
    1692     1725     1822     1961     2110     2247     2347     2392 
    2390     2346     2253     2116     1949     1777     1640     1551 
    1509     1501     1498     1470     1402     1298     1175     1074 
    1024     1019     1036     1059     1074     1080     1078     1081 
    1090     1104     1116     1131     1148     1166     1192     1237 
    1308     1408     1513     1599     1647     1644     1611     1570 
    1532     1513     1520     1553     1606     1669     1729     1786 
    1833     1876     1907     1921     1910     1878     1821     1744 
    1668     1615     1614     1669     1771     1895     2020     2121 
    2172     2157     2092     1999     1906     1826     1757     1701 
    1671     1668     1694     1753     1840     1933     1999     2000 
    1937     1840     1736     1645     1582     1541     1518     1499 
    1464     1414     1363     1332     1320     1298     1243     1150 
    1034      935      889      909      992     1107     1206     1255 
    1247     1205     1166     1165     1220     1316     1410     1471 
    1483     1452     1405     1362     1313     1246     1155     1062 
