Origin Time       2016/04/16 01:25:00
Lat.              32.753
Long.             130.762
Depth. (km)       12
Mag.              7.3
Station Code      HRS008
Station Lat.      34.6029
Station Long.     132.7201
Station Height(m) 207
Record Time       2016/04/16 01:25:51
Sampling Freq(Hz) 100Hz
Duration Time(s)  115
Dir.              E-W
Scale Factor      7845(gal)/8223790
Max. Acc. (gal)   8.941
Last Correction   2016/04/16 01:25:51
Memo.             
[...]
   -2496    -2427    -2215    -1927    -1628    -1381    -1232    -1182 
   -1233    -1386    -1595    -1792    -1960    -2139    -2385    -2745 
   -3194    -3615    -3888    -3964    -3894    -3757    -3600    -3465 
   -3396    -3388    -3423    -3497    -3593    -3693    -3797    -3880 
   -3886    -3740    -3414    -2947    -2440    -1991    -1632    -1360 
   -1179    -1092    -1105    -1227    -1417    -1622    -1825    -2037 
   -2285    -2593    -2943    -3276    -3532    -3680    -3759    -3851 
   -3963    -4055    -4109    -4106    -4032    -3889    -3700    -3519 
   -3384    -3269    -3119    -2937    -2778    -2655    -2536    -2398 
   -2249    -2093    -1917    -1709    -1507    -1359    -1270    -1224 
   -1188    -1165    -1224    -1431    -1772    -2209    -2690    -3150 
   -3569    -3937    -4223    -4399    -4455    -4399    -4256    -4078 
   -3935    -3890    -3921    -3956    -3978    -4008    -4040    -4047 
   -3982    -3790    -3426    -2870    -2178    -1453     -760     -157 
     275      519      553      336      -79     -608    -1219    -1861 
   -2471    -3007    -3446    -3807    -4112    -4344    -4477    -4507 
   -4464    -4417    -4421    -4504    -4648    -4764    -4754    -4557 
   -4185    -3747    -3372    -3105    -2928    -2781    -2578    -2296 
   -1989    -1703    -1447    -1242    -1120    -1124    -1290    -1613 
   -2027    -2432    -2727    -2866    -2882    -2867    -2918    -3055 
   -3229    -3369    -3393    -3246    -2955    -2601    -2274    -2039 
   -1904    -1850    -1868    -1954    -2104    -2309    -2548    -2813 
   -3095    -3362    -3596    -3801    -3955    -4047    -4121    -4215 
   -4327    -4422    -4452    -4407    -4333    -4255    -4168    -4079 
   -4006    -3932    -3812    -3619    -3341    -3005    -2652    -2301 
   -1944    -1606    -1325    -1128    -1039    -1053    -1113    -1182 
   -1237    -1271    -1331    -1491    -1779    -2188    -2687    -3186 
   -3589    -3854    -3947    -3861    -3676    -3508    -3453    -3553 
   -3763    -4001    -4223    -4406    -4504    -4495    -4392    -4217 
   -3977    -3673    -3316    -2960    -2666    -2466    -2374    -2365 
   -2370    -2347    -2288    -2193    -2062    -1900    -1733    -1611 
   -1578    -1669    -1910    -2227    -2475    -2601    -2643    -2643 
   -2652    -2721    -2866    -3064    -3271    -3424    -3492    -3480 
   -3406    -3284    -3098    -2814    -2436    -2008    -1617    -1327 
   -1143    -1058    -1084    -1220    -1448    -1759    -2134    -2552 
   -2976    -3325    -3499    -3466    -3280    -3038    -2847    -2792 
   -2925    -3204    -3549    -3908    -4245    -4473    -4517    -4384 
   -4132    -3819    -3514    -3246    -3022    -2844    -2687    -2489 
   -2195    -1821    -1447    -1151     -940     -800     -747     -804 
    -980    -1247    -1535    -1803    -2034    -2201    -2322    -2478 
   -2736    -3102    -3530    -3951    -4299    -4545    -4666    -4637 
   -4468    -4212    -3906    -3627    -3469    -3435    -3458    -3515 
   -3588    -3615    -3547    -3358    -3067    -2729    -2392    -2074 
   -1799    -1564    -1341    -1131     -969     -897     -940    -1086 
   -1308    -1586    -1887    -2178    -2461    -2752    -3044    -3277 
   -3418    -3524    -3646    -3757    -3856    -3969    -4044    -4032 
   -3951    -3835    -3716    -3640    -3613    -3608    -3607    -3596 
   -3578    -3572    -3589    -3627    -3685    -3738    -3732    -3631 
   -3456    -3222    -2913    -2548    -2170    -1822    -1528    -1287 
   -1094    -1000    -1067    -1310    -1675    -2074    -2457    -2799 
   -3071    -3242    -3326    -3369    -3388    -3352    -3250    -3114 
   -2980    -2857    -2762    -2714    -2702    -2717    -2782    -2926 
   -3152    -3396    -3561    -3630    -3673    -3740    -3842    -3970 
   -4101    -4197    -4207    -4124    -3987    -3832    -3662    -3458 
   -3165    -2756    -2307    -1934    -1706    -1640    -1695    -1788 
   -1846    -1846    -1811    -1761    -1706    -1642    -1572    -1517 
   -1518    -1601    -1776    -2041    -2369    -2749    -3167    -3555 
   -3855    -4064    -4175    -4199    -4222    -4324    -4487    -4644 
   -4747    -4804    -4834    -4812    -4702    -4504    -4263    -4021 
   -3780    -3510    -3202    -2878    -2567    -2288    -2042    -1842 
   -1728    -1729    -1861    -2114    -2442    -2774    -3032    -3171 
   -3191    -3113    -2955    -2748    -2546    -2419    -2428    -2565 
   -2778    -3028    -3273    -3472    -3601    -3649    -3634    -3627 
   -3689    -3851    -4117    -4422    -4638    -4680    -4542    -4263 
   -3904    -3539    -3210    -2898    -2573    -2242    -1966    -1829 
   -1877    -2079    -2342    -2560    -2650    -2579    -2367    -2047 
   -1698    -1425    -1287    -1328    -1580    -2006    -2512    -3022 
   -3478    -3850    -4129    -4299    -4351    -4325    -4283    -4261 
   -4276    -4307    -4301    -4236    -4128    -3970    -3748    -3487 
   -3180    -2802    -2351    -1867    -1391     -976     -614     -263 
      55      261      311      195      -76     -460     -870    -1200 
   -1379    -1451    -1521    -1664    -1917    -2293    -2766    -3287 
   -3817    -4270    -4546    -4612    -4479    -4185    -3821    -3510 
   -3339    -3350    -3503    -3696    -3817    -3792    -3612    -3360 
   -3127    -2964    -2880    -2828    -2767    -2700    -2621    -2573 
   -2659    -2920    -3294    -3686    -3998    -4143    -4112    -3969 
   -3767    -3534    -3308    -3140    -3056    -3052    -3090    -3126 
   -3154    -3187    -3207    -3194    -3161    -3152    -3199    -3292 
   -3395    -3470    -3485    -3407    -3229    -2975    -2668    -2307 
   -1858    -1331     -830     -479     -318     -336     -508     -787 
   -1120    -1471    -1804    -2091    -2284    -2327    -2207    -1968 
   -1703    -1541    -1572    -1806    -2182    -2613    -3007    -3333 
   -3591    -3751    -3788    -3738    -3631    -3445    -3183    -2918 
   -2702    -2560    -2511    -2536    -2606    -2701    -2803    -2913 
   -3029    -3129    -3207    -3291    -3392    -3487    -3566    -3627 
   -3630    -3519    -3294    -3019    -2776    -2600    -2481    -2380 
   -2255    -2084    -1865    -1632    -1460    -1408    -1472    -1602 
   -1771    -2000    -2299    -2621    -2917    -3134    -3225    -3188 
   -3095    -3007    -2924    -2835    -2755    -2710    -2710    -2762 
   -2889    -3122    -3426    -3703    -3896    -3991    -3984    -3894 
   -3757    -3615    -3516    -3466    -3407    -3327    -3291    -3342 
   -3470    -3638    -3808    -3964    -4093    -4167    -4178    -4148 
   -4090    -3997    -3838    -3603    -3334    -3069    -2792    -2466 
   -2088    -1713    -1422    -1281    -1305    -1475    -1728    -1969 
   -2100    -2079    -1922    -1696    -1493    -1399    -1491    -1819 
   -2361    -3024    -3681    -4195    -4491    -4561    -4448    -4251 
   -4094    -4058    -4190    -4483    -4835    -5119    -5275    -5293 
   -5175    -4963    -4699    -4388    -4005    -3523    -2941    -2288 
   -1613     -951     -337      197      656     1077     1455     1713 
    1781     1676     1435     1063      553      -99     -838    -1526 
   -2062    -2455    -2774    -3084    -3420    -3759    -4066    -4318 
   -4522    -4698    -4861    -5003    -5104    -5139    -5074    -4874 
   -4546    -4126    -3636    -3060    -2374    -1582     -743       18 
     568      824      793      532      109     -425    -1016    -1611 
   -2158    -2608    -2960    -3249    -3504    -3761    -4102    -4594 
   -5215    -5873    -6471    -6949    -7271    -7400    -7345    -7130 
   -6762    -6276    -5721    -5113    -4490    -3912    -3410    -2986 
   -2627    -2334    -2107    -1917    -1710    -1462    -1192     -946 
    -757     -616     -526     -521     -604     -750     -940    -1159 
   -1367    -1564    -1788    -2046    -2334    -2669    -3063    -3474 
   -3851    -4182    -4491    -4797    -5067    -5213    -5177    -4942 
   -4513    -3936    -3298    -2678    -2146    -1742    -1480    -1334 
   -1239    -1124     -989     -889     -849     -868     -950    -1081 
   -1217    -1350    -1516    -1740    -2015    -2324    -2646    -2975 
   -3322    -3670    -4001    -4336    -4719    -5158    -5634    -6123 
   -6558    -6851    -6940    -6812    -6511    -6112    -5668    -5194 
   -4689    -4140    -3550    -2941    -2349    -1802    -1304     -827 
    -375       18      337      561      664      619      418       67 
    -415    -1017    -1713    -2451    -3175    -3802    -4266    -4563 
   -4739    -4831    -4846    -4792    -4716    -4695    -4765    -4903 
   -5063    -5224    -5366    -5445    -5381    -5100    -4599    -3950 
   -3234    -2501    -1773    -1060     -398      151      566      889 
    1166     1439     1688     1871     2000     2092     2101     2006 
    1822     1528     1101      572      -22     -657    -1266    -1755 
   -2074    -2230    -2295    -2380    -2560    -2857    -3260    -3701 
   -4102    -4426    -4654    -4789    -4860    -4858    -4770    -4602 
   -4341    -3982    -3551    -3109    -2708    -2316    -1854    -1301 
    -724     -221      120      259      194      -76     -467     -804 
    -972     -962     -832     -679     -594     -638     -830    -1152 
   -1580    -2084    -2612    -3127    -3655    -4223    -4830    -5454 
   -6031    -6447    -6647    -6670    -6555    -6347    -6124    -5940 
   -5784    -5585    -5308    -5004    -4733    -4491    -4274    -4064 
   -3816    -3520    -3200    -2857    -2489    -2107    -1736    -1424 
   -1210    -1107    -1144    -1337    -1632    -1999    -2436    -2898 
   -3353    -3801    -4228    -4602    -4934    -5258    -5563    -5817 
   -6026    -6226    -6430    -6593    -6629    -6512    -6251    -5872 
   -5445    -5057    -4725    -4418    -4102    -3746    -3354    -2957 
   -2600    -2284    -1980    -1687    -1418    -1169     -908     -622 
    -333      -93       59      120      110       32     -101     -255 
    -415     -596     -807    -1055    -1350    -1692    -2079    -2498 
   -2913    -3310    -3740    -4253    -4822    -5377    -5863    -6238 
   -6453    -6459    -6282    -6000    -5674    -5308    -4858    -4279 
   -3570    -2791    -2020    -1354     -897     -702     -691     -702 
    -576     -263      168      627     1057     1401     1556     1425 
     976      241     -689    -1718    -2752    -3713    -4564    -5281 
   -5840    -6203    -6349    -6308    -6156    -5965    -5792    -5636 
   -5441    -5117    -4591    -3885    -3123    -2424    -1817    -1281 
    -788     -287      256      820     1363     1813     2068     2058 
    1779     1264      565     -274    -1236    -2293    -3346    -4256 
   -4931    -5355    -5555    -5539    -5333    -5058    -4888    -4949 
   -5290    -5904    -6716    -7588    -8333    -8772    -8787    -8332 
   -7408    -6093    -4502    -2755     -977      714     2211     3396 
    4197     4600     4606     4238     3588     2775     1873      893 
    -149    -1182    -2093    -2783    -3194    -3326    -3284    -3213 
   -3219    -3415    -3873    -4608    -5566    -6605    -7542    -8253 
   -8672    -8764    -8573    -8182    -7657    -7064    -6440    -5793 
   -5120    -4414    -3650    -2809    -1902     -982     -129      579 
    1093     1414     1582     1630     1615     1606     1651     1794 
    2053     2350     2529     2447     1998     1167       58    -1185 
   -2438    -3601    -4606    -5400    -5960    -6315    -6544    -6751 
   -7009    -7322    -7616    -7815    -7879    -7767    -7443    -6937 
   -6296    -5540    -4696    -3784    -2810    -1844     -943      -95 
     711     1445     2061     2498     2710     2706     2524     2196 
    1772     1287      757      190     -414    -1092    -1856    -2654 
   -3418    -4107    -4707    -5211    -5593    -5795    -5775    -5533 
   -5107    -4561    -3963    -3343    -2759    -2299    -2003    -1842 
   -1763    -1694    -1560    -1308     -927     -454       22      403 
     629      711      710      680      623      492      216     -253 
    -908    -1699    -2565    -3470    -4399    -5368    -6367    -7318 
   -8105    -8635    -8880    -8874    -8696    -8418    -8073    -7674 
   -7253    -6867    -6558    -6334    -6145    -5911    -5575    -5115 
   -4545    -3896    -3172    -2353    -1449     -540      295     1016 
    1606     2049     2312     2377     2261     1987     1570     1015 
     315     -549    -1582    -2764    -4029    -5266    -6345    -7152 
   -7647    -7885    -7944    -7863    -7643    -7288    -6843    -6369 
   -5898    -5402    -4839    -4182    -3459    -2759    -2178    -1763 
   -1483    -1266    -1036     -761     -430      -58      313      634 
     866     1000     1051     1017      854      521        1     -702 
   -1557    -2470    -3316    -4010    -4511    -4830    -5007    -5081 
   -5076    -4999    -4862    -4673    -4406    -4010    -3466    -2810 
   -2089    -1341     -615       21      544     1000     1460     1935 
    2380     2743     3003     3164     3202     3060     2708     2142 
    1395      557     -255     -938    -1449    -1825    -2128    -2432 
   -2816    -3353    -4071    -4931    -5856    -6762    -7557    -8159 
   -8513    -8565    -8266    -7616    -6679    -5535    -4280    -3024 
   -1840     -767      197     1084     1898     2621     3250     3813 
    4334     4828     5304     5760     6168     6460     6577     6492 
    6238     5864     5387     4807     4102     3235     2174      913 
    -526    -2092    -3692    -5238    -6662    -7911    -8922    -9620 
   -9944    -9886    -9485    -8773    -7750    -6442    -4949    -3412 
   -1934     -560      658     1644     2361     2839     3153     3365 
    3473     3457     3317     3082     2781     2412     1949     1399 
     761       -2     -931    -2042    -3299    -4600    -5833    -6901 
   -7742    -8338    -8694    -8823    -8797    -8708    -8588    -8394 
   -8014    -7339    -6340    -5076    -3655    -2234     -936      182 
    1101     1821     2335     2632     2724     2629     2358     1930 
    1393      772       99     -579    -1216    -1729    -2027    -2101 
   -2052    -2008    -2066    -2258    -2558    -2932    -3330    -3704 
   -4024    -4288    -4529    -4753    -4931    -5024    -5005    -4860 
   -4576    -4151    -3555    -2766    -1799     -774      135      789 
    1147     1252     1173      954      631      252     -133     -463 
    -668     -730     -688     -606     -569     -681     -976    -1428 
   -1981    -2555    -3082    -3550    -3965    -4317    -4608    -4842 
   -4996    -5043    -4950    -4723    -4449    -4233    -4129    -4114 
   -4122    -4097    -3990    -3744    -3333    -2783    -2199    -1715 
   -1421    -1345    -1468    -1717    -1981    -2153    -2158    -1998 
   -1699    -1258     -662       40      731     1264     1522     1433 
     989      270     -575    -1398    -2066    -2470    -2569    -2450 
   -2278    -2200    -2296    -2619    -3194    -4010    -5005    -6061 
   -7061    -7931    -8619    -9036    -9099    -8800    -8230    -7524 
   -6787    -6052    -5296    -4511    -3712    -2896    -2069    -1237 
    -413      394     1174     1888     2452     2790     2887     2787 
    2543     2181     1723     1212      707      225     -253     -727 
   -1163    -1524    -1788    -1966    -2128    -2358    -2691    -3129 
   -3680    -4344    -5084    -5840    -6527    -7048    -7333    -7352 
   -7111    -6685    -6214    -5815    -5490    -5159    -4714    -4106 
   -3393    -2664    -2004    -1494    -1159     -940     -715     -369 
     140      777     1476     2180     2839     3410     3835     4035 
    3915     3422     2579     1476      228    -1059    -2304    -3461 
   -4492    -5348    -5980    -6355    -6455    -6309    -6006    -5675 
   -5405    -5215    -5096    -5047    -5081    -5188    -5331    -5448 
   -5466    -5302    -4878    -4144    -3111    -1876     -581      637 
    1690     2519     3100     3439     3557     3481     3241     2840 
    2285     1624      920      220     -468    -1155    -1823    -2412 
   -2852    -3094    -3173    -3208    -3295    -3468    -3740    -4118 
   -4611    -5198    -5815    -6377    -6781    -6924    -6747    -6264 
   -5590    -4849    -4118    -3484    -3002    -2667    -2459    -2362 
   -2374    -2529    -2839    -3252    -3693    -4082    -4333    -4393 
   -4276    -4050    -3802    -3607    -3489    -3426    -3397    -3446 
   -3639    -3991    -4469    -5013    -5548    -5994    -6300    -6460 
   -6485    -6381    -6184    -5968    -5787    -5632    -5435    -5101 
   -4568    -3854    -3048    -2280    -1667    -1256    -1012     -854 
    -715     -591     -511     -518     -635     -868    -1209    -1686 
   -2357    -3225    -4200    -5178    -6091    -6889    -7535    -8001 
   -8257    -8286    -8104    -7749    -7275    -6739    -6151    -5475 
   -4708    -3923    -3215    -2685    -2411    -2396    -2559    -2809 
   -3082    -3310    -3437    -3445    -3338    -3136    -2856    -2505 
   -2111    -1772    -1613    -1686    -1972    -2424    -2980    -3584 
   -4215    -4860    -5494    -6087    -6590    -6939    -7029    -6777 
   -6197    -5371    -4409    -3418    -2451    -1566     -869     -459 
    -352     -529     -955    -1566    -2269    -2955    -3504    -3827 
   -3893    -3715    -3326    -2795    -2220    -1703    -1328    -1179 
   -1291    -1652    -2195    -2802    -3362    -3797    -4054    -4149 
   -4205    -4375    -4739    -5255    -5778    -6183    -6455    -6650 
   -6777    -6820    -6782    -6690    -6574    -6486    -6469    -6546 
   -6708    -6902    -7084    -7242    -7377    -7492    -7585    -7612 
   -7524    -7314    -6995    -6588    -6129    -5674    -5267    -4970 
   -4814    -4748    -4668    -4483    -4145    -3642    -2995    -2296 
   -1692    -1297    -1128    -1146    -1296    -1551    -1900    -2346 
   -2882    -3478    -4094    -4683    -5169    -5486    -5614    -5616 
   -5617    -5734    -5980    -6288    -6590    -6815    -6889    -6771 
   -6500    -6150    -5809    -5552    -5406    -5344    -5343    -5402 
   -5535    -5748    -6021    -6292    -6486    -6520    -6316    -5868 
   -5286    -4733    -4329    -4140    -4168    -4349    -4535    -4546 
   -4256    -3681    -2953    -2267    -1764    -1485    -1398    -1478 
   -1710    -2050    -2417    -2687    -2728    -2498    -2042    -1462 
    -908     -506     -289     -216     -224     -270     -310     -307 
    -263     -211     -197     -263     -477     -905    -1545    -2272 
   -2914    -3397    -3751    -4058    -4371    -4619    -4660    -4406 
   -3898    -3237    -2509    -1806    -1264    -1020    -1121    -1520 
   -2106    -2770    -3418    -3997    -4463    -4757    -4831    -4693 
   -4382    -3946    -3462    -3036    -2755    -2660    -2704    -2762 
   -2720    -2517    -2173    -1788    -1498    -1424    -1632    -2077 
   -2623    -3141    -3557    -3859    -4098    -4321    -4548    -4760 
   -4892    -4895    -4803    -4703    -4687    -4812    -5047    -5278 
   -5381    -5244    -4822    -4172    -3434    -2758    -2247    -1930 
   -1798    -1838    -2043    -2362    -2694    -2933    -2983    -2802 
