Origin Time       2016/04/16 01:25:00
Lat.              32.753
Long.             130.762
Depth. (km)       12
Mag.              7.3
Station Code      HRS015
Station Lat.      34.4849
Station Long.     133.3615
Station Height(m) 2
Record Time       2016/04/16 01:26:39
Sampling Freq(Hz) 100Hz
Duration Time(s)  60
Dir.              E-W
Scale Factor      7845(gal)/8223790
Max. Acc. (gal)   6.551
Last Correction   2016/04/16 01:26:40
Memo.             
[...]
    2092     2189     2235     2409     2600     2494     2385     2351 
    2178     2047     2020     2041     1949     1435      788      353 
     139      256      360       40     -340     -493     -666     -969 
   -1177    -1096     -876     -799     -832     -808     -757     -796 
    -872     -913    -1020    -1038     -801     -475     -144       39 
     -23       68      526      850      842      931     1197     1370 
    1459     1572     1621     1501     1324     1301     1402     1566 
    1833     1998     1904     1679     1480     1541     1903     2242 
    2285     2038     1637     1339     1334     1490     1691     1829 
    1699     1498     1395     1154      993     1278     1715     1982 
    2066     1917     1647     1609     1948     2388     2644     2801 
    2976     2979     2629     2150     1911     1965     2180     2447 
    2527     2317     2033     1750     1408     1190     1313     1614 
    1692     1390     1013      920      862      376     -230     -315 
     168      819     1197     1017      483      178      310      584 
     751      812      869     1007     1312     1634     1642     1433 
    1344     1343     1235     1000      788      754      868      985 
     973      812      544      175      -54       82      313      421 
     522      588      525      352      137      141      468      797 
     873      807      854      947      810      591      747     1333 
    1894     2187     2338     2317     2093     1952     1975     1899 
    1775     1767     1701     1605     1629     1637     1544     1391 
    1244     1204     1250     1287     1277     1228     1213     1236 
    1132      866      712      764      773      652      487      237 
     -35     -201     -352     -471     -473     -499     -560     -506 
    -287       68      266      -39     -577     -760     -546     -272 
     -45      194      461      669      693      481      140       32 
     365      858     1282     1579     1715     1684     1412     1116 
    1270     1759     1985     1741     1422     1464     1657     1552 
    1293     1300     1525     1621     1571     1556     1528     1371 
    1169     1158     1323     1316     1024      645      383      380 
     487      445      270      124      294      822     1171     1124 
    1120     1227     1138     1140     1719     2474     2594     2169 
    1903     1922     1987     2151     2515     3029     3346     3079 
    2592     2552     3003     3474     3607     3503     3419     3465 
    3701     3946     3874     3522     3129     2731     2382     2281 
    2370     2300     1965     1520     1039      600      279      106 
     140      143     -112     -421     -653     -849     -977     -942 
    -739     -537     -356     -282     -483     -544     -163      151 
     238      433      423       10      -41      457      673      332 
     -36     -129     -144     -128       91      363      421      278 
     103      199      637      859      697      831     1166      890 
     518      800      815      193      186      827      885      341 
      41      180      288      102      -98      -20      266      432 
     370      382      531      633      638      639      751      815 
     751      838      897      680      737     1071      859      340 
     144      101      283      669      830      942     1067      969 
     927     1177     1449     1513     1540     1606     1574     1601 
    1663     1372      877      602      471      342      368      556 
     535       71     -336     -295     -233     -265       17      566 
    1003     1171     1194     1163      990      796      855     1138 
    1499     1845     1895     1520     1111     1046     1279     1593 
    1844     1938     1934     2061     2344     2504     2382     2166 
    2091     2191     2262     2073     1749     1501     1352     1457 
    1813     2038     1953     1745     1572     1410     1260     1273 
    1455     1603     1617     1475     1156      919     1026     1325 
    1584     1714     1602     1275      969      818      728      676 
     708      761      796      797      660      405      180       98 
     170      330      490      538      526      517      407      270 
     325      568      770      778      600      386      378      502 
     481      383      391      464      438      206       18       65 
     168      396      750      835      673      525      506      820 
    1182     1166     1028      861      468      144       10     -129 
    -147     -131     -359     -522     -502     -479     -220      182 
     372      545      722      649      432      306      334      411 
     288       45       71      191       25     -112      -47      -87 
     -16      441      924     1138     1055      834      842     1086 
    1368     1615     1583     1236     1007     1055     1165     1151 
     909      646      664      826      857      633      282      144 
     310      565      708      731      673      584      595      639 
     606      522      449      493      683     1000     1320     1360 
    1274     1444     1779     1912     1773     1571     1459     1499 
    1669     1823     1729     1367     1107     1194     1412     1390 
    1035      827     1117     1436     1368     1305     1304     1012 
     974     1418     1652     1765     1971     1852     1499     1339 
    1448     1618     1732     1868     2025     2211     2470     2650 
    2674     2772     3057     3269     3271     3336     3628     3828 
    3736     3784     4010     3782     3284     2866     2366     2116 
    2151     2070     1981     1975     1868     1580     1313     1356 
    1568     1691     1764     1833     1864     1840     1792     1679 
    1426     1161     1062     1162     1059      568      286      319 
     232      -67     -451     -621     -515     -471     -614     -734 
    -633     -437     -270      -16      198      244      399      777 
    1154     1412     1588     1665     1597     1448     1331     1359 
    1524     1645     1649     1575     1455     1316     1117     1053 
    1483     2056     2052     1752     1846     2101     2177     2199 
    2077     1871     1757     1676     1682     1615     1230      820 
     697      746      720      487      246      236      240       51 
     -44      148      275       64      -78      162      382      521 
     951     1289     1224     1197     1259     1343     1598     1842 
    2012     2081     1873     1549     1278     1019      847      810 
     770      583      318      228      415      664      783      812 
     900     1073     1217     1266     1224     1104      900      658 
     421      216      155      155       65       56       67     -153 
    -352     -283     -126       71      337      425      284      191 
     328      591      738      718      588      454      515      741 
     974     1119     1155     1271     1625     2038     2340     2617 
    2855     2943     2949     2967     3096     3311     3310     3129 
    3061     2859     2247     1719     1794     1998     1725     1359 
    1194      996      815      710      714      838      814      762 
     841      893     1127     1475     1567     1487     1485     1746 
    2123     2353     2589     2743     2674     2594     2458     2393 
    2520     2311     1878     1829     1996     2114     1944     1375 
     976      785      510      379      257      -87     -430     -581 
    -688     -980    -1219    -1198    -1129    -1062     -942     -774 
    -584     -342      116      556      619      430      411     1026 
    1819     1788     1367     1495     1833     2027     2064     1687 
    1296     1244     1196     1090      864      318     -288     -616 
    -598     -446     -531     -890    -1139     -911     -544     -739 
   -1255    -1258     -741     -405     -571     -905     -907     -409 
     156      279       74      -54      -64      -11      268      602 
     689      819     1115     1354     1638     2003     2169     2058 
    1982     2249     2613     2636     2509     2606     2687     2459 
    2288     2573     2978     2986     2681     2431     2269     2003 
    1711     1545     1471     1440     1313      936      602      588 
     523      221       99      197      236      346      519      298 
    -122      -18      338      240      -79     -131       44      232 
     355      502      666      814      976     1154     1320     1302 
    1071     1016     1279     1433     1282     1116     1073     1129 
    1237     1230     1097      961      901      918      896      837 
     826      853      870      876      850      785      831     1000 
    1032      978     1077     1320     1637     1926     2143     2358 
    2512     2565     2619     2659     2597     2423     2185     1992 
    1919     1873     1737     1545     1431     1439     1435     1328 
    1089      785      696      746      565      236      -31     -375 
    -838    -1208    -1387    -1462    -1528    -1590    -1547    -1277 
    -770     -139      529     1185     1740     2211     2770     3440 
    3990     4220     4237     4302     4482     4626     4507     4225 
    4091     4033     3797     3464     3273     3175     2967     2669 
    2432     2257     1973     1539     1089      743      457      -20 
    -724    -1348    -1705    -1929    -2236    -2494    -2413    -2083 
   -1844    -1779    -1661    -1378    -1026     -654     -176      457 
    1055     1497     1923     2336     2628     2906     3262     3541 
    3628     3615     3563     3537     3605     3754     3958     4180 
    4360     4517     4672     4814     4963     5040     4931     4731 
    4600     4540     4413     4156     3927     3746     3459     3184 
    3133     3192     3161     3065     2960     2732     2411     2261 
    2239     2045     1784     1603     1267      812      523      332 
      56     -348     -828    -1228    -1525    -1809    -1995    -2039 
   -2057    -2041    -1917    -1768    -1680    -1553    -1394    -1377 
   -1300     -942     -680     -699     -695     -652     -731     -873 
    -961     -972    -1000    -1078    -1060     -982    -1009    -1086 
   -1063     -993    -1081    -1227    -1124     -854     -662     -519 
    -349     -183        9      311      689     1046     1296     1367 
    1317     1332     1605     2015     2200     2162     2098     1999 
    1885     1890     2065     2295     2397     2398     2486     2597 
    2502     2363     2396     2349     2041     1675     1378     1155 
    1032      962      872      818      890     1039     1277     1656 
    2060     2425     2782     3087     3302     3379     3392     3476 
    3505     3369     3213     3086     2875     2620     2404     2250 
    2199     2111     1907     1822     1825     1606     1281     1046 
     814      553      359      272      240      186      101       32 
      -5      -85     -201     -221     -164     -190     -344     -569 
    -715     -711     -731     -870    -1011    -1111    -1220    -1291 
   -1248    -1084     -830     -546     -280      -18      313      803 
    1410     1952     2363     2767     3226     3670     4032     4305 
    4490     4595     4579     4395     4195     4162     4205     4124 
    3888     3624     3459     3427     3499     3570     3528     3314 
    2947     2582     2371     2290     2290     2343     2350     2269 
    2188     2188     2269     2365     2386     2334     2270     2220 
    2133     1918     1640     1439     1247     1016      827      658 
     557      571      584      576      648      864     1255     1745 
    2155     2359     2465     2706     3061     3369     3588     3667 
    3636     3669     3808     3984     4167     4243     4125     3997 
    3989     3921     3707     3496     3265     2828     2305     1912 
    1605     1352     1151      920      707      564      387      205 
     184      298      379      402      406      383      332      251 
     225      287      271      171      144       97      118      526 
     920      928     1085     1575     1988     2192     2262     2242 
    2163     2085     1941     1605     1183      741      286       49 
    -159     -757    -1382    -1669    -1908    -2162    -2200    -2073 
   -2025    -2262    -2573    -2328    -1651    -1328    -1308    -1067 
    -704     -464     -210       74      197      344      672      962 
    1208     1394     1417     1738     2516     2952     2920     3123 
    3465     3524     3628     3902     3981     3917     3917     4009 
    4174     4295     4352     4383     4332     4168     3994     3924 
    3804     3510     3225     2980     2636     2196     1713     1235 
     862      484      -47     -518     -773    -1032    -1278    -1345 
   -1334    -1332    -1391    -1483    -1394    -1221    -1269    -1443 
   -1472    -1426    -1540    -1755    -1842    -1873    -1989    -2093 
   -2110    -2043    -1953    -1876    -1676    -1262     -764     -287 
     217      780     1340     1845     2230     2482     2652     2633 
    2327     1881     1426      866      198     -429    -1011    -1580 
   -2093    -2533    -2862    -3017    -3032    -3005    -2925    -2718 
   -2475    -2262    -1980    -1657    -1374    -1058     -677     -314 
      40      503     1086     1750     2555     3457     4289     5066 
    5845     6528     7071     7515     7812     7889     7777     7522 
    7171     6735     6176     5555     4989     4531     4194     3905 
    3630     3483     3476     3465     3383     3271     3133     2917 
    2614     2261     1787     1154      461     -275    -1090    -1881 
   -2567    -3194    -3769    -4215    -4515    -4708    -4823    -4838 
   -4737    -4540    -4309    -4077    -3839    -3638    -3495    -3357 
   -3180    -2974    -2772    -2565    -2338    -2120    -1871    -1568 
   -1277     -996     -743     -560     -409     -292     -225     -137 
      32      263      487      641      712      765      842      945 
    1048     1081     1017      939      877      783      660      531 
     430      395      370      363      398      421      486      672 
     854      992     1202     1480     1776     2184     2639     2956 
    3253     3690     4159     4541     4858     5169     5458     5671 
    5749     5659     5516     5429     5306     5042     4769     4519 
    4091     3600     3296     3037     2739     2536     2388     2211 
    2038     1829     1505     1162      949      778      526      353 
     360      337      233      162       63     -103     -301     -566 
    -928    -1332    -1741    -2162    -2560    -2868    -3087    -3284 
   -3404    -3273    -2982    -2700    -2354    -1935    -1534    -1109 
    -618     -149      252      614      929     1200     1351     1339 
    1251     1104      950      884      812      684      622      656 
     738      890     1086     1235     1320     1372     1401     1397 
    1341     1208     1036      907      808      657      441      228 
      54     -125     -305     -425     -490     -552     -662     -810 
    -927    -1030    -1143    -1266    -1387    -1459    -1509    -1624 
   -1729    -1729    -1663    -1572    -1440    -1279    -1163    -1077 
    -908     -675     -460     -191      157      488      795     1155 
    1567     1996     2447     2853     3157     3419     3657     3796 
    3820     3774     3681     3514     3240     2890     2500     2095 
    1675     1204      704      203     -324     -823    -1237    -1570 
   -1788    -1867    -1823    -1699    -1485    -1170     -837     -546 
    -259       17      261      513      778     1012     1173     1296 
    1390     1394     1433     1615     1802     1902     1992     2111 
    2227     2369     2539     2629     2641     2654     2693     2693 
    2593     2451     2288     2060     1810     1583     1285      853 
     461      140     -225     -566     -851    -1128    -1360    -1517 
   -1613    -1663    -1640    -1564    -1506    -1444    -1401    -1409 
   -1414    -1417    -1425    -1424    -1414    -1377    -1339    -1275 
   -1113     -919     -747     -546     -302      -39      230      533 
     870     1151     1395     1698     1988     2223     2501     2791 
    3002     3167     3304     3348     3244     3009     2688     2292 
    1826     1351      876      344     -206     -704    -1148    -1532 
   -1850    -2123    -2340    -2512    -2682    -2875    -3065    -3191 
   -3211    -3161    -3090    -3005    -2875    -2666    -2400    -2121 
   -1837    -1584    -1382    -1196    -1017     -841     -650     -456 
    -289     -131       55      266      459      607      743      855 
     899      912      915      854      737      637      557      441 
     329      276      232      182      190      222      201      166 
     148       74      -35     -118     -245     -461     -739    -1042 
   -1329    -1594    -1825    -2030    -2207    -2290    -2289    -2269 
   -2209    -2111    -2001    -1836    -1575    -1270     -976     -684 
    -421     -236      -79      114      301      417      515      634 
     699      706      714      700      614      496      409      329 
     251      206      189      171      170      203      236      270 
     363      498      630      766      905      990      984      916 
     781      572      367      202       43      -70      -83      -36 
      44      171      301      383      459      599      780      931 
    1077     1209     1256     1236     1193     1111      986      890 
     832      727      579      457      348      248      199      155 
      74       -5      -70      -97      -78      -54      -28       17 
      71      108       94       63       32      -72     -241     -355 
    -409     -456     -477     -473     -506     -587     -675     -783 
    -934    -1073    -1174    -1260    -1331    -1381    -1441    -1541 
   -1660    -1783    -1930    -2073    -2176    -2254    -2308    -2328 
   -2305    -2226    -2098    -1952    -1804    -1674    -1564    -1476 
   -1405    -1323    -1200    -1046     -858     -607     -305        9 
     360      778     1224     1656     2056     2386     2621     2774 
    2833     2756     2563     2299     1954     1575     1243      946 
     625      344      170       -5     -198     -283     -295     -338 
    -340     -225      -55      156      457      841     1266     1725 
    2196     2617     2982     3350     3684     3905     4050     4164 
    4192     4120     4052     4001     3886     3743     3613     3430 
    3191     2967     2720     2389     2031     1702     1387     1101 
     892      738      629      618      696      823     1021     1297 
    1606     1941     2290     2629     2965     3296     3573     3742 
    3804     3809     3776     3713     3643     3562     3468     3414 
    3442     3528     3642     3827     4083     4326     4538     4726 
    4833     4814     4720     4604     4418     4137     3834     3537 
    3218     2914     2655     2390     2141     1962     1830     1748 
    1736     1742     1728     1696     1647     1543     1387     1208 
    1013      803      577      333       89     -109     -274     -430 
