Origin Time       2016/04/16 01:25:00
Lat.              32.753
Long.             130.762
Depth. (km)       12
Mag.              7.3
Station Code      HRS016
Station Lat.      34.4198
Station Long.     133.1971
Station Height(m) 40
Record Time       2016/04/16 01:26:29
Sampling Freq(Hz) 100Hz
Duration Time(s)  69
Dir.              N-S
Scale Factor      7845(gal)/8223790
Max. Acc. (gal)   4.323
Last Correction   2016/04/16 01:26:29
Memo.             
[...]
    1921     1981     2053     2123     2181     2222     2257     2297 
    2316     2290     2235     2181     2155     2162     2184     2200 
    2193     2160     2104     2039     1968     1885     1800     1738 
    1715     1726     1763     1821     1902     1995     2083     2158 
    2230     2309     2393     2473     2538     2577     2592     2586 
    2562     2527     2489     2451     2408     2353     2301     2265 
    2224     2158     2074     1992     1930     1894     1876     1869 
    1858     1844     1840     1856     1891     1941     2004     2061 
    2098     2120     2135     2158     2185     2191     2170     2139 
    2110     2084     2052     2011     1984     1982     2007     2041 
    2062     2066     2053     2034     2020     2023     2047     2087 
    2128     2166     2211     2269     2330     2385     2444     2506 
    2559     2594     2612     2601     2548     2467     2381     2295 
    2209     2146     2111     2076     2012     1941     1908     1925 
    1958     1981     1989     1985     1960     1914     1868     1829 
    1787     1749     1729     1729     1733     1728     1710     1695 
    1699     1741     1809     1876     1923     1934     1910     1880 
    1865     1869     1875     1865     1871     1911     1953     1973 
    1988     2022     2084     2166     2253     2331     2386     2409 
    2390     2340     2295     2272     2259     2239     2200     2142 
    2079     2019     1958     1891     1826     1791     1779     1780 
    1795     1817     1852     1912     1966     1975     1952     1942 
    1962     1988     2008     2031     2060     2079     2089     2095 
    2095     2084     2076     2079     2085     2073     2025     1949 
    1876     1811     1748     1692     1661     1658     1680     1702 
    1694     1658     1640     1657     1692     1715     1722     1733 
    1755     1792     1844     1896     1964     2061     2160     2234 
    2286     2344     2409     2451     2448     2419     2384     2350 
    2304     2228     2133     2039     1961     1902     1859     1840 
    1842     1869     1915     1956     1971     1962     1948     1933 
    1923     1923     1917     1877     1813     1742     1687     1667 
    1688     1725     1746     1746     1745     1772     1823     1881 
    1937     1991     2047     2098     2120     2107     2091     2079 
    2050     1996     1937     1895     1861     1825     1798     1798 
    1830     1873     1892     1881     1877     1896     1926     1952 
    1980     2014     2053     2085     2107     2133     2168     2199 
    2209     2205     2207     2224     2241     2234     2215     2196 
    2155     2087     2015     1949     1890     1857     1864     1888 
    1885     1837     1755     1684     1660     1690     1750     1811 
    1857     1892     1930     1962     1973     1977     1992     2006 
    1993     1939     1865     1814     1810     1833     1846     1833 
    1826     1858     1904     1935     1948     1953     1949     1937 
    1937     1956     1988     2014     2043     2097     2162     2205 
    2224     2236     2262     2308     2359     2396     2413     2412 
    2381     2340     2319     2323     2332     2336     2340     2365 
    2390     2380     2342     2297     2249     2209     2195     2200 
    2223     2242     2236     2205     2184     2196     2234     2266 
    2289     2307     2308     2296     2286     2293     2316     2340 
    2369     2412     2470     2531     2574     2593     2610     2632 
    2629     2587     2533     2479     2434     2415     2434     2467 
    2481     2461     2427     2408     2403     2392     2369     2332 
    2288     2242     2184     2141     2144     2176     2193     2189 
    2178     2174     2174     2165     2141     2115     2104     2116 
    2135     2146     2162     2191     2209     2196     2177     2166 
    2163     2161     2165     2178     2187     2174     2163     2161 
    2143     2130     2155     2209     2262     2290     2282     2257 
    2232     2209     2182     2151     2130     2128     2130     2134 
    2157     2195     2227     2250     2265     2257     2208     2126 
    2053     2022     2027     2058     2118     2196     2254     2272 
    2272     2274     2295     2317     2305     2246     2168     2093 
    2023     1942     1841     1745     1686     1668     1668     1656 
    1624     1593     1593     1625     1663     1696     1718     1707 
    1669     1630     1597     1574     1580     1610     1642     1667 
    1698     1737     1776     1819     1865     1911     1966     2030 
    2070     2074     2052     2034     2050     2069     2081     2101 
    2118     2111     2098     2097     2111     2144     2189     2228 
    2246     2226     2182     2154     2162     2196     2236     2250 
    2238     2220     2215     2226     2249     2262     2251     2222 
    2178     2115     2023     1919     1837     1792     1776     1769 
    1755     1745     1752     1772     1802     1849     1906     1937 
    1930     1919     1929     1969     2033     2098     2154     2188 
    2205     2232     2278     2327     2370     2408     2432     2439 
    2424     2381     2311     2219     2123     2045     1979     1919 
    1871     1825     1783     1760     1761     1786     1823     1863 
    1908     1962     1993     1982     1953     1934     1929     1938 
    1968     2007     2038     2053     2052     2046     2039     2022 
    2001     1988     1979     1971     1971     1973     1975     1991 
    2030     2089     2161     2239     2324     2401     2457     2500 
    2544     2596     2655     2736     2839     2933     2979     2984 
    2999     3041     3095     3149     3194     3226     3241     3234 
    3200     3153     3115     3080     3036     2983     2911     2814 
    2705     2601     2515     2444     2373     2300     2238     2187 
    2139     2111     2111     2130     2165     2215     2253     2250 
    2199     2128     2072     2038     2025     2042     2085     2139 
    2178     2182     2166     2169     2185     2196     2209     2211 
    2192     2169     2161     2168     2191     2232     2290     2355 
    2435     2532     2619     2682     2751     2828     2884     2906 
    2906     2902     2886     2849     2795     2747     2721     2713 
    2693     2652     2596     2539     2488     2439     2394     2338 
    2261     2173     2091     2019     1956     1896     1833     1769 
    1703     1644     1590     1545     1517     1493     1457     1413 
    1379     1367     1363     1359     1375     1420     1471     1518 
    1566     1618     1668     1717     1773     1848     1927     1984 
    2000     1996     1989     1991     2012     2056     2098     2130 
    2143     2141     2135     2137     2147     2160     2158     2142 
    2121     2101     2083     2058     2023     1973     1908     1846 
    1815     1811     1787     1718     1637     1579     1549     1537 
    1520     1486     1449     1431     1420     1409     1393     1370 
    1351     1359     1405     1471     1524     1564     1613     1672 
    1757     1873     1989     2073     2118     2137     2153     2180 
    2214     2242     2253     2261     2276     2274     2228     2138 
    2033     1925     1815     1729     1699     1709     1711     1688 
    1657     1632     1621     1621     1641     1696     1788     1898 
    1999     2074     2135     2203     2290     2390     2478     2536 
    2573     2594     2594     2573     2543     2516     2497     2498 
    2508     2504     2492     2479     2455     2423     2407     2390 
    2338     2251     2168     2107     2066     2046     2043     2065 
    2114     2174     2230     2281     2343     2408     2444     2450 
    2454     2461     2463     2461     2482     2524     2555     2543 
    2486     2400     2322     2280     2277     2282     2257     2201 
    2146     2116     2126     2176     2239     2295     2338     2371 
    2389     2393     2386     2371     2350     2319     2278     2239 
    2212     2199     2196     2191     2181     2172     2172     2170 
    2147     2093     2020     1956     1917     1892     1872     1849 
    1813     1750     1669     1594     1541     1506     1480     1453 
    1414     1368     1339     1358     1436     1547     1656     1752 
    1833     1902     1962     2012     2056     2093     2121     2149 
    2188     2222     2239     2262     2299     2323     2322     2304 
    2282     2278     2299     2338     2386     2431     2485     2556 
    2631     2704     2772     2830     2884     2941     2997     3041 
    3065     3078     3079     3075     3063     3045     3038     3034 
    3005     2945     2875     2805     2743     2678     2601     2517 
    2438     2369     2322     2296     2286     2276     2254     2227 
    2200     2176     2151     2119     2084     2057     2037     2023 
    2015     2007     2004     2030     2092     2170     2242     2300 
    2338     2349     2343     2330     2319     2308     2288     2249 
    2177     2073     1962     1873     1810     1750     1671     1571 
    1474     1391     1318     1255     1212     1190     1167     1131 
    1107     1120     1169     1240     1318     1383     1422     1433 
    1422     1416     1428     1448     1472     1483     1467     1440 
    1444     1480     1520     1534     1518     1491     1472     1451 
    1413     1367     1328     1289     1244     1205     1169     1135 
    1107     1102     1117     1147     1198     1264     1324     1371 
    1414     1474     1556     1656     1750     1841     1949     2069 
    2182     2282     2367     2436     2494     2548     2593     2623 
    2641     2648     2648     2646     2641     2632     2602     2550 
    2494     2454     2444     2461     2478     2474     2448     2398 
    2336     2280     2241     2231     2255     2301     2350     2396 
    2436     2474     2517     2563     2597     2606     2604     2592 
    2577     2577     2592     2613     2636     2662     2682     2701 
    2721     2747     2752     2735     2706     2694     2714     2747 
    2770     2785     2791     2785     2756     2701     2631     2565 
    2509     2470     2451     2440     2427     2409     2381     2365 
    2396     2475     2582     2686     2763     2813     2847     2880 
    2917     2949     2970     2965     2944     2921     2903     2890 
    2874     2853     2835     2821     2802     2783     2775     2774 
    2766     2740     2706     2671     2633     2586     2521     2442 
    2349     2232     2092     1941     1800     1682     1574     1472 
    1383     1308     1240     1179     1129     1105     1107     1115 
    1109     1094     1090     1094     1107     1132     1170     1221 
    1286     1355     1421     1479     1528     1566     1602     1644 
    1690     1729     1761     1795     1838     1885     1930     1965 
    1981     1971     1933     1884     1846     1819     1799     1780 
    1760     1744     1745     1779     1854     1969     2102     2230 
    2330     2401     2457     2513     2578     2650     2706     2739 
    2756     2763     2758     2747     2740     2756     2783     2798 
    2783     2740     2690     2647     2617     2590     2548     2488 
    2427     2384     2349     2307     2258     2201     2143     2096 
    2070     2065     2064     2053     2034     2019     1988     1937 
    1871     1803     1746     1695     1647     1595     1541     1494 
    1456     1414     1366     1306     1242     1178     1119     1077 
    1055     1038     1026     1034     1069     1125     1175     1198 
    1206     1227     1270     1323     1360     1375     1379     1364 
    1325     1263     1192     1120     1047      966      873      781 
     706      657      625      594      562      546      544      545 
     545      538      525      517      523      540      545      540 
     540      542      545      565      610      639      618      550 
     467      382      306      238      172       98       21      -37 
     -62      -36       37      128      224      329      429      508 
     565      608      638      657      677      699      712      720 
     741      788      864      957     1059     1181     1316     1445 
    1560     1664     1769     1883     1985     2039     2037     2000 
    1958     1925     1904     1892     1884     1890     1925     2001 
    2114     2236     2343     2430     2506     2575     2627     2644 
    2628     2589     2543     2519     2525     2554     2597     2655 
    2724     2809     2909     3010     3094     3160     3235     3338 
    3445     3528     3574     3573     3538     3491     3431     3354 
    3272     3186     3083     2957     2811     2651     2482     2319 
    2185     2076     1984     1904     1823     1726     1624     1528 
    1435     1351     1287     1237     1198     1182     1202     1251 
    1317     1405     1521     1647     1746     1819     1892     1980 
    2061     2111     2149     2203     2278     2362     2434     2489 
    2539     2594     2654     2705     2747     2791     2852     2917 
    2980     3065     3194     3369     3586     3831     4081     4344 
    4612     4870     5115     5344     5549     5732     5891     6021 
    6130     6219     6285     6351     6435     6516     6569     6596 
    6594     6566     6505     6420     6343     6276     6211     6157 
    6115     6080     6057     6030     5991     5946     5894     5819 
    5714     5584     5437     5266     5067     4852     4631     4411 
    4195     4001     3851     3747     3670     3599     3528     3472 
    3442     3430     3427     3415     3357     3248     3115     2979 
    2843     2714     2593     2484     2394     2319     2249     2168 
    2079     1988     1883     1761     1626     1468     1282     1071 
     847      623      407      203       10     -166     -314     -444 
    -569     -695     -800     -864     -884     -880     -864     -835 
    -795     -756     -700     -600     -449     -255      -47      155 
     352      531      689      831      961     1085     1204     1293 
    1336     1347     1355     1370     1385     1395     1401     1404 
    1391     1352     1285     1189     1059      903      735      572 
     419      289      191      118       47      -35     -125     -217 
    -298     -344     -351     -344     -356     -398     -467     -540 
    -588     -592     -553     -487     -410     -321     -214      -93 
      45      193      348      504      642      743      805      830 
     832      832      832      814      747      634      506      386 
     275      190      139       97       51       11      -11      -16 
      -2       36      116      222      332      427      506      571 
     637      710      793      885      970     1043     1123     1225 
    1343     1467     1598     1748     1919     2100     2262     2384 
    2455     2488     2485     2439     2350     2235     2102     1956 
    1786     1587     1379     1193     1046      951      915      915 
     927      945      978     1035     1098     1152     1190     1208 
    1209     1198     1178     1152     1133     1124     1121     1109 
    1074     1034     1008     1004     1034     1101     1188     1266 
    1328     1381     1431     1466     1472     1456     1443     1449 
    1464     1480     1507     1548     1606     1687     1773     1833 
    1852     1848     1830     1788     1723     1642     1547     1437 
    1318     1201     1096     1007      929      866      831      830 
     857      905      965     1026     1089     1171     1297     1464 
    1655     1868     2098     2323     2520     2687     2835     2963 
    3068     3142     3183     3188     3153     3080     2991     2909 
    2841     2802     2797     2813     2824     2801     2725     2609 
    2463     2289     2089     1878     1692     1544     1435     1378 
    1364     1381     1440     1564     1748     1964     2177     2365 
    2524     2648     2735     2814     2915     3024     3117     3194 
    3271     3348     3415     3470     3515     3539     3519     3450 
    3362     3289     3231     3179     3138     3121     3133     3171 
    3213     3249     3279     3302     3315     3321     3316     3303 
    3284     3257     3223     3175     3096     2984     2853     2714 
    2581     2436     2242     1982     1667     1336     1028      754 
     522      328      155       -4     -144     -263     -361     -438 
    -483     -493     -479     -460     -464     -493     -526     -540 
    -508     -421     -309     -214     -155     -128     -120     -112 
    -102      -94      -83      -64      -36       -4       23       35 
      22       -8      -47      -90     -133     -162     -176     -194 
    -225     -265     -309     -338     -340     -297     -210     -101 
      20      153      291      430      560      676      769      832 
     869      892      908      928      958      997     1039     1081 
    1123     1161     1189     1200     1179     1129     1059      986 
     903      810      720      657      623      625      662      726 
     808      916     1058     1227     1405     1580     1741     1884 
    2019     2157     2299     2439     2582     2724     2848     2937 
    2980     2983     2956     2920     2882     2839     2782     2708 
    2623     2533     2434     2299     2114     1892     1665     1452 
    1254     1057      864      689      532      378      224       99 
      28        2        8       36       78      129      201      303 
     461      692      963     1237     1503     1755     1988     2208 
    2423     2641     2844     3001     3109     3176     3200     3187 
    3137     3055     2941     2803     2664     2532     2404     2272 
    2135     1995     1861     1750     1667     1614     1603     1620 
    1638     1665     1711     1773     1833     1880     1915     1946 
    1969     1984     1999     1993     1956     1894     1821     1752 
    1691     1630     1567     1503     1440     1364     1271     1167 
    1084     1035      999      939      855      772      707      662 
     635      626      622      611      599      607      641      692 
     757      850      974     1123     1302     1528     1800     2102 
    2424     2748     3056     3339     3599     3842     4077     4289 
    4477     4634     4754     4845     4923     5016     5128     5252 
    5368     5459     5522     5574     5621     5652     5655     5623 
    5551     5437     5305     5164     5016     4861     4704     4556 
    4436     4332     4215     4078     3924     3767     3604     3424 
    3231     3041     2859     2687     2533     2397     2266     2126 
    1984     1856     1744     1647     1574     1534     1522     1533 
    1567     1603     1618     1603     1553     1494     1464     1456 
    1445     1421     1399     1412     1457     1501     1535     1574 
    1621     1676     1722     1736     1706     1638     1557     1483 
    1413     1331     1228     1117     1028      976      947      919 
     874      824      793      791      812      854      909      962 
