Origin Time       2016/04/16 01:25:00
Lat.              32.753
Long.             130.762
Depth. (km)       12
Mag.              7.3
Station Code      HRS018
Station Lat.      34.3413
Station Long.     132.9068
Station Height(m) 2
Record Time       2016/04/16 01:25:55
Sampling Freq(Hz) 100Hz
Duration Time(s)  148
Dir.              E-W
Scale Factor      7845(gal)/8223790
Max. Acc. (gal)   11.518
Last Correction   2016/04/16 01:25:55
Memo.             
[...]
    1737     1594     1435     1287     1136      981      846      739 
     676      650      621      556      449      305      159       81 
     105      207      383      654     1003     1372     1738     2097 
    2434     2729     2992     3248     3527     3835     4164     4527 
    4923     5300     5589     5786     5954     6130     6278     6370 
    6420     6451     6467     6446     6353     6184     5968     5763 
    5611     5517     5464     5448     5468     5483     5440     5314 
    5121     4897     4665     4421     4137     3800     3442     3113 
    2852     2694     2623     2558     2428     2215     1968     1738 
    1543     1404     1345     1359     1417     1494     1593     1722 
    1842     1880     1800     1615     1350     1050      797      650 
     592      548      475      391      324      294      318      379 
     438      492      564      666      812     1008     1235     1506 
    1837     2188     2525     2853     3186     3518     3832     4114 
    4356     4534     4650     4743     4873     5082     5344     5605 
    5871     6148     6386     6558     6670     6673     6528     6274 
    5938     5566     5211     4881     4550     4225     3946     3744 
    3632     3580     3510     3372     3213     3090     3017     2997 
    3048     3138     3188     3191     3198     3221     3222     3194 
    3141     3055     2940     2825     2725     2641     2559     2501 
    2508     2584     2710     2826     2870     2824     2705     2569 
    2488     2451     2404     2344     2276     2163     2011     1878 
    1796     1765     1784     1848     1934     2039     2205     2440 
    2667     2813     2859     2802     2659     2504     2432     2466 
    2542     2609     2648     2658     2646     2617     2579     2542 
    2505     2471     2458     2500     2633     2852     3098     3300 
    3447     3588     3766     3983     4199     4367     4452     4461 
    4425     4353     4270     4232     4251     4297     4340     4368 
    4380     4390     4423     4484     4563     4683     4849     5017 
    5155     5251     5319     5363     5389     5414     5455     5513 
    5571     5610     5622     5597     5509     5358     5181     5004 
    4808     4603     4405     4178     3897     3577     3257     2925 
    2550     2121     1653     1179      735      328      -16     -259 
    -395     -446     -390     -209       49      340      653      974 
    1246     1428     1552     1683     1854     2085     2370     2662 
    2899     3026     3037     2978     2898     2848     2893     3049 
    3242     3388     3507     3673     3892     4090     4214     4243 
    4152     3963     3757     3619     3574     3613     3699     3786 
    3852     3908     3967     4039     4131     4232     4295     4289 
    4245     4213     4194     4167     4112     4008     3890     3831 
    3844     3894     3950     3997     4017     3994     3912     3774 
    3622     3496     3396     3311     3249     3194     3118     3015 
    2899     2805     2764     2768     2779     2772     2687     2461 
    2130     1819     1636     1584     1609     1648     1663     1658 
    1687     1760     1838     1925     2049     2205     2377     2571 
    2810     3100     3406     3677     3878     3971     3948     3861 
    3781     3719     3634     3505     3365     3241     3167     3164 
    3211     3218     3122     2955     2759     2554     2332     2070 
    1775     1489     1258     1117     1080     1133     1256     1455 
    1740     2093     2496     2930     3365     3754     4078     4336 
    4502     4581     4622     4669     4737     4820     4891     4899 
    4851     4774     4672     4568     4502     4476     4453     4423 
    4403     4417     4464     4530     4567     4548     4500     4486 
    4523     4595     4671     4718     4695     4595     4467     4367 
    4333     4360     4410     4475     4573     4698     4808     4855 
    4816     4692     4492     4255     4054     3935     3882     3835 
    3730     3561     3364     3145     2889     2586     2273     2003 
    1792     1603     1414     1219     1035      909      870      907 
     999     1105     1170     1173     1128     1065     1021     1019 
    1069     1177     1327     1505     1702     1899     2074     2236 
    2408     2583     2767     2979     3213     3451     3701     3973 
    4240     4459     4625     4756     4842     4888     4909     4896 
    4850     4807     4780     4761     4752     4743     4706     4633 
    4530     4393     4247     4140     4093     4052     3967     3828 
    3628     3376     3129     2937     2798     2717     2728     2816 
    2929     3048     3173     3303     3442     3588     3732     3866 
    3977     4043     4059     4044     4000     3916     3816     3723 
    3615     3488     3377     3298     3221     3140     3055     2951 
    2826     2714     2604     2458     2263     2019     1710     1372 
    1093      939      932     1047     1216     1364     1471     1578 
    1707     1841     1972     2111     2234     2295     2295     2288 
    2328     2421     2539     2636     2685     2669     2610     2558 
    2543     2539     2521     2523     2579     2678     2782     2852 
    2860     2821     2785     2792     2876     3051     3280     3489 
    3632     3730     3813     3888     3965     4047     4094     4090 
    4054     3991     3908     3856     3871     3921     3990     4066 
    4120     4170     4253     4340     4378     4376     4382     4428 
    4514     4618     4691     4708     4691     4672     4669     4673 
    4642     4550     4409     4240     4072     3905     3728     3543 
    3364     3217     3119     3045     2955     2833     2681     2532 
    2424     2362     2338     2347     2369     2373     2374     2425 
    2562     2786     3063     3350     3630     3886     4078     4164 
    4170     4155     4156     4176     4197     4209     4222     4240 
    4263     4288     4317     4333     4324     4266     4155     4029 
    3929     3846     3753     3649     3551     3481     3431     3384 
    3329     3262     3180     3094     3026     2992     2971     2948 
    2924     2874     2792     2710     2656     2623     2570     2474 
    2326     2138     1941     1732     1516     1325     1158      985 
     788      558      299       45     -149     -251     -246     -140 
      43      255      464      681      912     1128     1308     1428 
    1483     1514     1556     1588     1568     1482     1343     1194 
    1105     1088     1102     1138     1219     1368     1593     1876 
    2199     2538     2862     3150     3410     3650     3898     4172 
    4449     4716     4985     5273     5570     5840     6066     6234 
    6347     6442     6511     6521     6481     6431     6427     6504 
    6602     6663     6693     6709     6694     6635     6525     6388 
    6251     6110     5972     5859     5771     5701     5640     5576 
    5502     5420     5335     5255     5169     5060     4911     4710 
    4459     4163     3805     3345     2781     2157     1543      992 
     518      135     -148     -326     -396     -391     -382     -395 
    -432     -511     -631     -739     -773     -711     -568     -391 
    -234     -116      -27       25       18      -32      -56       13 
     221      575     1017     1490     1971     2440     2889     3331 
    3782     4230     4652     5039     5391     5698     5958     6192 
    6403     6578     6706     6766     6758     6718     6689     6685 
    6711     6768     6839     6914     7020     7167     7307     7395 
    7410     7354     7256     7148     7056     6998     6959     6891 
    6766     6613     6462     6297     6100     5884     5659     5432 
    5213     4973     4695     4405     4105     3798     3484     3126 
    2700     2231     1760     1297      815      289     -286     -888 
   -1495    -2083    -2596    -2980    -3215    -3283    -3196    -2995 
   -2717    -2381    -1998    -1575    -1143     -728     -330       41 
     342      571      735      838      918     1009     1132     1306 
    1553     1826     2056     2219     2357     2520     2721     2955 
    3202     3431     3638     3842     4058     4271     4486     4707 
    4931     5144     5341     5508     5634     5755     5886     5998 
    6077     6146     6214     6285     6366     6430     6446     6397 
    6295     6157     5981     5756     5455     5060     4590     4078 
    3570     3106     2681     2285     1922     1591     1306     1094 
     951      859      814      784      719      603      468      330 
     170      -23     -225     -425     -627     -828    -1021    -1193 
   -1323    -1408    -1479    -1553    -1602    -1584    -1489    -1308 
   -1043     -726     -425     -144      148      453      789     1193 
    1644     2111     2597     3094     3568     4005     4391     4700 
    4973     5281     5640     6035     6462     6889     7260     7547 
    7777     7978     8149     8271     8341     8356     8303     8177 
    7993     7798     7639     7512     7420     7378     7365     7383 
    7462     7603     7742     7825     7851     7846     7824     7809 
    7812     7805     7740     7604     7414     7203     7007     6839 
    6687     6543     6396     6216     5961     5620     5240     4866 
    4514     4200     3939     3699     3453     3222     3030     2867 
    2706     2531     2342     2155     1975     1788     1628     1545 
    1552     1622     1729     1836     1906     1938     1937     1908 
    1864     1822     1822     1887     2010     2181     2346     2469 
    2565     2658     2754     2866     2979     3080     3204     3372 
    3578     3842     4152     4468     4787     5105     5404     5674 
    5934     6201     6459     6690     6879     7005     7063     7063 
    7011     6930     6832     6697     6507     6268     5999     5682 
    5296     4834     4298     3705     3092     2485     1890     1343 
     884      529      280      147      120      156      209      259 
     287      249      129      -32     -206     -365     -508     -645 
    -765     -847     -876     -831     -714     -564     -419     -261 
     -55      202      503      827     1133     1397     1614     1765 
    1856     1929     2031     2169     2303     2397     2446     2461 
    2486     2546     2631     2717     2816     2937     3111     3373 
    3719     4116     4545     4985     5402     5798     6205     6604 
    6917     7092     7125     7028     6822     6528     6169     5775 
    5362     4956     4603     4313     4101     3997     4016     4159 
    4396     4648     4846     4970     5008     4947     4800     4587 
    4332     4077     3821     3537     3217     2866     2485     2093 
    1729     1391     1065      758      467      174     -112     -380 
    -626     -864    -1100    -1317    -1514    -1709    -1914    -2141 
   -2412    -2727    -3046    -3319    -3520    -3651    -3727    -3757 
   -3727    -3618    -3424    -3134    -2721    -2214    -1651    -1035 
    -368      336     1069     1795     2451     3026     3551     4036 
    4486     4880     5206     5463     5645     5746     5787     5806 
    5830     5856     5876     5881     5850     5792     5725     5647 
    5543     5416     5242     4985     4673     4360     4069     3798 
    3549     3325     3136     2986     2887     2844     2874     2976 
    3107     3202     3219     3161     3048     2890     2694     2458 
    2176     1875     1614     1436     1336     1291     1269     1230 
    1173     1101     1019      939      907      924      945      959 
     987     1055     1194     1410     1674     1945     2192     2423 
    2666     2926     3171     3360     3477     3541     3588     3677 
    3846     4088     4371     4664     4943     5186     5400     5602 
    5805     6019     6265     6531     6814     7123     7458     7788 
    8077     8326     8537     8687     8770     8779     8688     8499 
    8233     7942     7685     7472     7272     7072     6870     6646 
    6382     6092     5807     5543     5296     5069     4854     4638 
    4423     4225     4058     3940     3877     3863     3896     3967 
    4091     4266     4487     4754     5071     5439     5867     6355 
    6872     7377     7851     8276     8638     8939     9184     9358 
    9450     9458     9390     9252     9038     8750     8401     8035 
    7711     7474     7345     7302     7307     7333     7364     7362 
    7302     7207     7091     6944     6777     6623     6516     6498 
    6590     6777     7029     7298     7555     7801     8032     8264 
    8480     8629     8691     8637     8414     8039     7551     6983 
    6361     5710     5043     4364     3653     2906     2138     1350 
     556     -245    -1060    -1840    -2527    -3132    -3661    -4110 
   -4491    -4800    -5040    -5204    -5286    -5286    -5202    -5053 
   -4861    -4623    -4320    -3946    -3518    -3055    -2578    -2126 
   -1721    -1374    -1080     -842     -666     -511     -324      -82 
     202      481      711      872      955      981      973      931 
     855      756      641      515      387      306      333      483 
     741     1121     1665     2351     3132     3997     4923     5873 
    6820     7715     8519     9256     9950    10615    11290    12001 
   12731    13435    14067    14597    15007    15272    15345    15209 
   14872    14341    13625    12752    11735    10629     9491     8326 
    7123     5892     4626     3300     1912      477     -962    -2357 
   -3653    -4807    -5806    -6647    -7335    -7890    -8306    -8579 
   -8739    -8799    -8760    -8640    -8434    -8139    -7765    -7296 
   -6710    -6049    -5341    -4587    -3828    -3100    -2411    -1781 
   -1166     -519      126      733     1282     1745     2111     2427 
    2735     3005     3213     3400     3609     3882     4261     4774 
    5418     6156     6926     7659     8286     8792     9209     9567 
    9867    10123    10369    10628    10935    11337    11861    12474 
   13109    13711    14231    14615    14839    14943    14979    14979 
   14964    14922    14860    14800    14737    14642    14462    14181 
   13796    13278    12611    11807    10854     9751     8519     7196 
    5861     4576     3381     2327     1433      679       29     -544 
   -1058    -1528    -1949    -2272    -2469    -2554    -2544    -2465 
   -2338    -2188    -2019    -1826    -1603    -1366    -1115     -835 
    -540     -246       28      266      502      797     1217     1802 
    2540     3388     4260     5077     5827     6501     7068     7531 
    7884     8102     8215     8295     8374     8463     8563     8669 
    8791     8934     9124     9400     9726    10042    10322    10555 
   10744    10909    11057    11163    11214    11267    11326    11335 
   11257    11080    10766    10315     9775     9174     8537     7881 
    7180     6421     5621     4792     3955     3125     2301     1478 
     649     -202    -1120    -2120    -3184    -4283    -5359    -6366 
   -7269    -7997    -8494    -8753    -8803    -8698    -8494    -8252 
   -8035    -7867    -7711    -7538    -7325    -7020    -6593    -6054 
   -5398    -4618    -3754    -2843    -1933    -1074     -292      400 
    1031     1649     2262     2875     3492     4104     4714     5319 
    5904     6482     7037     7535     7962     8310     8583     8799 
    8984     9121     9163     9128     9031     8833     8529     8152 
    7722     7273     6794     6273     5764     5293     4835     4391 
    3950     3505     3084     2671     2234     1781     1312      814 
     291     -263     -846    -1391    -1840    -2181    -2435    -2602 
   -2659    -2569    -2342    -2057    -1768    -1490    -1240    -1023 
    -837     -657     -442     -175      136      502      909     1337 
    1764     2142     2440     2667     2841     2970     3057     3107 
    3125     3133     3159     3190     3200     3180     3145     3114 
    3098     3109     3175     3312     3532     3838     4191     4531 
    4839     5135     5410     5638     5814     5964     6122     6274 
    6399     6500     6574     6635     6673     6639     6539     6459 
    6421     6385     6326     6210     6012     5752     5421     4984 
    4402     3653     2806     1958     1189      550       71     -272 
    -548     -791     -978    -1092    -1136    -1086     -923     -657 
    -271      228      789     1385     2001     2594     3127     3593 
    3948     4147     4182     4079     3852     3477     2936     2272 
    1518      695     -103     -776    -1332    -1806    -2178    -2450 
   -2690    -2957    -3229    -3443    -3569    -3627    -3639    -3543 
   -3315    -2955    -2369    -1518     -517      552     1667     2813 
    3959     5046     6083     7071     7898     8564     9163     9674 
   10048    10301    10381    10230     9917     9489     8919     8226 
    7468     6724     6119     5692     5397     5228     5155     5125 
    5142     5178     5182     5196     5209     5147     5026     4874 
    4689     4530     4390     4215     4040     3893     3767     3653 
    3515     3358     3218     3042     2785     2427     1979     1486 
     976      456      -16     -403     -715     -959    -1147    -1320 
   -1507    -1707    -1900    -2069    -2188    -2234    -2193    -2076 
   -1873    -1566    -1128     -533      218     1089     1991     2809 
    3446     3846     3965     3824     3508     3118     2727     2389 
    2101     1826     1582     1370     1175     1016      896      793 
     720      695      702      730      760      753      673      549 
     430      351      370      506      702      903     1058     1125 
    1104     1004      869      750      670      670      800     1071 
    1453     1891     2330     2740     3129     3503     3828     4079 
    4248     4375     4509     4648     4769     4854     4877     4849 
    4831     4858     4927     5027     5157     5310     5470     5625 
    5798     5988     6154     6285     6369     6370     6278     6091 
    5809     5474     5143     4849     4573     4237     3765     3184 
    2565     1941     1334      764      238     -212     -616    -1016 
   -1390    -1722    -2034    -2316    -2546    -2731    -2821    -2771 
   -2583    -2300    -1984    -1668    -1381    -1155     -977     -800 
    -645     -525     -396     -221       10      303      683     1210 
    1898     2647     3364     4033     4599     4931     5044     5024 
    4908     4750     4576     4365     4145     3951     3793     3681 
    3673     3805     4041     4333     4637     4923     5216     5514 
    5784     5992     6129     6224     6292     6343     6416     6469 
    6443     6330     6134     5902     5645     5312     4877     4379 
    3874     3407     2991     2641     2357     2065     1725     1370 
    1005      619      217     -217     -675    -1115    -1512    -1856 
   -2141    -2365    -2579    -2863    -3227    -3611    -3943    -4145 
   -4189    -4106    -3939    -3717    -3465    -3199    -2917    -2602 
   -2265    -1930    -1579    -1178     -746     -282      225      776 
