Origin Time       2016/04/16 01:25:00
Lat.              32.753
Long.             130.762
Depth. (km)       12
Mag.              7.3
Station Code      HRS006
Station Lat.      34.6659
Station Long.     132.4077
Station Height(m) 371
Record Time       2016/04/16 01:25:53
Sampling Freq(Hz) 100Hz
Duration Time(s)  98
Dir.              N-S
Scale Factor      7845(gal)/8223790
Max. Acc. (gal)   4.207
Last Correction   2016/04/16 01:25:54
Memo.             
[...]
    5036     4972     4920     5001     5206     5404     5460     5333 
    5073     4819     4710     4748     4847     4942     5003     4994 
    4911     4812     4758     4748     4764     4803     4868     4946 
    5015     5097     5235     5366     5356     5196     4980     4800 
    4739     4806     4874     4861     4826     4862     4999     5204 
    5389     5448     5359     5217     5158     5256     5472     5665 
    5709     5568     5344     5185     5125     5069     4947     4831 
    4846     5047     5395     5721     5813     5651     5395     5147 
    4938     4827     4810     4800     4791     4858     5023     5205 
    5319     5323     5263     5220     5204     5150     5020     4834 
    4660     4567     4568     4660     4872     5179     5443     5521 
    5418     5254     5112     4968     4774     4572     4457     4507 
    4719     4980     5163     5263     5368     5526     5671     5698 
    5570     5348     5155     5096     5163     5266     5348     5402 
    5417     5398     5375     5348     5319     5305     5310     5348 
    5468     5649     5779     5811     5773     5663     5498     5389 
    5344     5239     5054     4884     4769     4710     4703     4668 
    4531     4353     4237     4190     4176     4186     4232     4364 
    4611     4927     5216     5381     5383     5308     5263     5279 
    5331     5367     5363     5341     5328     5325     5319     5290 
    5206     5062     4945     4953     5071     5162     5108     4982 
    4947     5030     5139     5205     5215     5202     5259     5416 
    5555     5552     5436     5320     5251     5167     5020     4865 
    4777     4776     4850     4953     5005     5015     5065     5194 
    5355     5475     5489     5377     5200     5076     5059     5078 
    5065     5049     5085     5171     5265     5351     5418     5445 
    5447     5458     5445     5379     5304     5259     5232     5193 
    5134     5067     5035     5086     5229     5412     5595     5748 
    5798     5687     5389     4949     4514     4245     4200     4341 
    4575     4831     5105     5383     5551     5494     5239     4909 
    4638     4529     4581     4708     4843     4978     5109     5208 
    5242     5228     5225     5254     5312     5383     5425     5400 
    5332     5279     5267     5281     5310     5356     5383     5371 
    5355     5352     5317     5235     5163     5167     5244     5341 
    5439     5539     5617     5656     5617     5475     5308     5231 
    5246     5281     5279     5259     5287     5406     5590     5765 
    5840     5810     5757     5737     5727     5671     5530     5341 
    5194     5136     5157     5206     5250     5298     5377     5472 
    5549     5563     5479     5309     5101     4942     4904     4976 
    5086     5185     5219     5179     5104     5000     4854     4708 
    4608     4561     4573     4662     4819     4976     5051     5063 
    5078     5093     5097     5092     5080     5067     5067     5047 
    4959     4862     4880     5046     5285     5510     5689     5784 
    5753     5613     5413     5197     5053     5088     5314     5602 
    5837     6025     6172     6243     6268     6311     6346     6311 
    6239     6210     6237     6262     6193     6004     5795     5694 
    5749     5880     5938     5819     5568     5309     5116     4959 
    4807     4715     4796     5062     5389     5634     5709     5611 
    5454     5359     5339     5327     5235     5049     4855     4734 
    4612     4406     4155     3946     3819     3811     3920     4059 
    4147     4172     4140     4082     4063     4122     4240     4401 
    4591     4762     4866     4900     4873     4803     4739     4737 
    4791     4862     4931     5017     5117     5189     5192     5144 
    5113     5121     5152     5204     5281     5374     5483     5598 
    5676     5705     5727     5783     5871     5981     6095     6191 
    6269     6311     6303     6276     6241     6162     6064     5991 
    5945     5950     6030     6122     6131     6053     5964     5904 
    5864     5854     5880     5872     5767     5602     5439     5263 
    5080     4941     4854     4811     4827     4903     5008     5082 
    5081     5022     4912     4750     4619     4585     4590     4537 
    4413     4258     4155     4172     4284     4407     4541     4738 
    4963     5136     5224     5216     5163     5146     5158     5146 
    5120     5108     5109     5108     5066     4966     4865     4835 
    4870     4926     4981     5038     5120     5259     5443     5589 
    5656     5710     5780     5818     5786     5668     5472     5259 
    5136     5161     5268     5356     5385     5366     5335     5316 
    5287     5238     5216     5262     5367     5505     5640     5742 
    5811     5831     5775     5644     5474     5302     5164     5101 
    5113     5166     5211     5219     5198     5179     5174     5200 
    5290     5422     5519     5559     5552     5470     5283     5055 
    4878     4806     4845     4942     5013     5031     5040     5059 
    5038     4947     4833     4757     4774     4872     4951     4939 
    4831     4649     4452     4365     4472     4719     5001     5232 
    5356     5375     5309     5121     4779     4380     4117     4078 
    4190     4355     4542     4714     4801     4788     4702     4631 
    4680     4870     5115     5301     5416     5535     5694     5848 
    5944     5962     5886     5752     5674     5687     5729     5740 
    5680     5525     5327     5194     5189     5263     5328     5336 
    5300     5250     5219     5185     5060     4827     4587     4429 
    4333     4251     4166     4071     3971     3889     3846     3836 
    3882     4009     4178     4349     4522     4648     4634     4498 
    4332     4158     3983     3878     3878     3943     4033     4152 
    4306     4484     4676     4843     4934     4941     4903     4846 
    4769     4666     4554     4488     4523     4680     4923     5179 
    5397     5541     5609     5611     5555     5462     5367     5292 
    5279     5386     5601     5831     5991     6056     6091     6193 
    6384     6550     6569     6460     6365     6372     6407     6353 
    6186     5975     5807     5729     5689     5622     5532     5467 
    5448     5443     5389     5248     5038     4776     4463     4140 
    3893     3794     3870     4072     4302     4467     4526     4502 
    4433     4327     4186     4059     4009     3996     3948     3879 
    3842     3890     4028     4194     4306     4347     4379     4438 
    4488     4499     4480     4480     4568     4734     4872     4936 
    4986     5054     5098     5111     5134     5171     5217     5323 
    5494     5644     5742     5853     5998     6130     6232     6322 
    6397     6415     6320     6143     5999     5940     5921     5834 
    5599     5266     5013     4955     5049     5209     5371     5499 
    5589     5626     5559     5360     5096     4889     4857     5036 
    5366     5718     6006     6222     6363     6393     6266     5960 
    5532     5151     4965     4984     5123     5282     5389     5441 
    5501     5597     5692     5740     5710     5611     5486     5391 
    5358     5350     5314     5248     5192     5179     5212     5238 
    5193     5074     4945     4858     4841     4896     4994     5100 
    5192     5248     5242     5173     5098     5060     5017     4893 
    4710     4535     4407     4338     4287     4163     3965     3793 
    3715     3719     3734     3685     3585     3492     3410     3272 
    3046     2747     2417     2144     1996     1965     2001     2049 
    2072     2073     2064     2049     2039     2034     1999     1885 
    1702     1490     1282     1142     1119     1219     1437     1764 
    2155     2515     2740     2794     2693     2490     2295     2224 
    2312     2524     2814     3111     3346     3481     3504     3440 
    3331     3192     3055     2971     2979     3078     3230     3377 
    3488     3600     3784     4013     4203     4337     4460     4590 
    4737     4885     4966     4949     4938     5066     5348     5689 
    6021     6343     6690     7072     7465     7786     7938     7909 
    7765     7551     7323     7175     7173     7337     7673     8139 
    8625     9030     9298     9402     9355     9219     9045     8851 
    8685     8598     8581     8599     8630     8668     8708     8757 
    8800     8779     8625     8316     7879     7373     6868     6434 
    6115     5923     5813     5726     5623     5483     5293     5060 
    4793     4515     4294     4186     4174     4197     4209     4195 
    4137     4036     3929     3811     3642     3431     3230     3071 
    2990     3019     3133     3218     3221     3203     3254     3387 
    3550     3701     3825     3924     4035     4218     4496     4838 
    5179     5448     5623     5764     5949     6196     6427     6538 
    6490     6370     6268     6219     6162     5995     5703     5390 
    5136     4953     4833     4781     4811     4974     5305     5744 
    6181     6548     6817     7013     7236     7584     8032     8474 
    8807     8951     8920     8806     8691     8587     8451     8275 
    8118     8014     7933     7858     7759     7592     7357     7103 
    6879     6752     6782     6943     7149     7340     7514     7696 
    7901     8093     8167     8040     7746     7389     7056     6812 
    6693     6697     6782     6922     7089     7260     7376     7353 
    7156     6845     6515     6208     5942     5724     5545     5408 
    5316     5247     5173     5101     5073     5073     5031     4903 
    4716     4568     4511     4522     4595     4762     5027     5333 
    5599     5753     5752     5634     5481     5348     5242     5144 
    5043     4949     4860     4734     4538     4305     4066     3832 
    3662     3618     3701     3831     3882     3778     3539     3232 
    2907     2579     2285     2079     2004     2058     2177     2284 
    2355     2415     2479     2552     2625     2690     2771     2924 
    3122     3241     3176     2938     2640     2458     2502     2721 
    2980     3176     3244     3161     2980     2782     2581     2381 
    2236     2212     2358     2663     3037     3380     3622     3709 
    3639     3451     3213     3015     2926     2957     3095     3325 
    3615     3919     4178     4322     4317     4240     4241     4360 
    4488     4527     4461     4317     4152     4020     3927     3875 
    3912     4069     4320     4594     4803     4901     4893     4793 
    4653     4556     4567     4695     4892     5093     5277     5421 
    5495     5499     5475     5455     5437     5382     5263     5115 
    4989     4943     5007     5154     5298     5374     5393     5401 
    5351     5151     4788     4342     3942     3713     3724     3927 
    4183     4360     4428     4433     4403     4360     4347     4417 
    4623     4969     5363     5678     5840     5861     5818     5790 
    5782     5748     5655     5481     5228     4922     4619     4399 
    4315     4375     4564     4843     5144     5381     5466     5354 
    5096     4819     4618     4534     4577     4734     4996     5347 
    5749     6143     6435     6523     6385     6133     5886     5676 
    5513     5414     5391     5475     5702     6058     6439     6710 
    6832     6851     6804     6698     6548     6361     6130     5871 
    5640     5503     5498     5638     5948     6409     6918     7357 
    7655     7756     7651     7418     7160     6968     6907     7030 
    7344     7777     8237     8644     8914     8996     8892     8635 
    8271     7863     7499     7221     7007     6844     6716     6586 
    6404     6143     5852     5606     5445     5352     5247     5055 
    4810     4604     4483     4402     4307     4222     4228     4371 
    4599     4814     4891     4758     4464     4099     3744     3454 
    3264     3180     3219     3392     3659     3902     4032     4074 
    4139     4297     4502     4617     4545     4314     4025     3757 
    3495     3202     2906     2740     2833     3202     3732     4223 
    4509     4556     4464     4352     4278     4232     4195     4194 
    4253     4340     4388     4363     4286     4236     4280     4403 
    4526     4580     4564     4521     4460     4348     4155     3910 
    3717     3646     3640     3604     3519     3420     3357     3372 
    3468     3626     3842     4074     4237     4260     4113     3824 
    3491     3252     3213     3381     3655     3928     4133     4220 
    4168     3978     3653     3230     2821     2543     2471     2606 
    2847     3048     3144     3169     3191     3231     3287     3339 
    3369     3400     3516     3761     4063     4311     4448     4498 
    4515     4546     4615     4688     4695     4638     4594     4622 
    4733     4895     5035     5105     5113     5109     5116     5105 
    5031     4903     4774     4704     4752     4903     5043     5047 
    4876     4565     4194     3893     3781     3880     4120     4409 
    4712     5013     5279     5481     5575     5525     5377     5209 
    5073     4962     4838     4652     4368     4020     3666     3311 
    2936     2551     2203     1948     1800     1718     1642     1505 
    1270      984      758      677      765      981     1279     1611 
    1917     2151     2328     2465     2577     2686     2829     3056 
    3375     3696     3901     3947     3854     3692     3557     3535 
    3669     3919     4197     4446     4656     4783     4733     4460 
    4055     3676     3450     3430     3532     3628     3674     3707 
    3750     3846     4036     4302     4591     4880     5148     5366 
    5510     5579     5570     5486     5402     5418     5556     5791 
    6095     6419     6696     6856     6852     6686     6423     6156 
    5971     5913     5988     6196     6500     6814     7068     7234 
    7307     7306     7236     7110     6987     6951     6998     7055 
    7076     7032     6907     6731     6524     6261     5934     5616 
    5401     5323     5352     5455     5625     5879     6197     6515 
    6762     6898     6936     6924     6895     6810     6592     6235 
    5856     5580     5437     5363     5260     5082     4868     4718 
    4693     4742     4757     4700     4612     4527     4460     4402 
    4320     4207     4126     4140     4261     4446     4664     4869 
    5007     5073     5128     5181     5164     5046     4876     4715 
    4591     4533     4538     4571     4603     4631     4618     4504 
    4307     4091     3890     3715     3554     3364     3142     2944 
    2798     2705     2655     2620     2565     2505     2473     2485 
    2551     2681     2860     3045     3194     3277     3311     3345 
    3399     3442     3476     3554     3704     3888     4062     4228 
    4392     4526     4587     4552     4440     4333     4320     4437 
    4634     4820     4926     4949     4920     4851     4741     4602 
    4463     4344     4266     4261     4352     4515     4660     4699 
    4629     4495     4334     4209     4195     4363     4761     5337 
    5930     6401     6700     6821     6810     6721     6581     6444 
    6386     6451     6640     6897     7126     7275     7360     7403 
    7403     7396     7443     7547     7659     7746     7830     7931 
    8006     7981     7812     7512     7177     6945     6895     6983 
    7091     7132     7064     6891     6635     6350     6118     6027 
    6115     6351     6660     6980     7238     7352     7277     7055 
    6758     6444     6169     5965     5817     5698     5622     5610 
    5644     5675     5682     5668     5640     5625     5663     5713 
    5699     5621     5524     5471     5498     5552     5532     5374 
    5090     4770     4513     4333     4205     4114     4074     4105 
    4212     4372     4518     4571     4545     4537     4608     4719 
    4768     4675     4434     4098     3732     3404     3183     3098 
    3133     3287     3549     3852     4106     4251     4278     4232 
    4176     4178     4284     4468     4680     4892     5074     5204 
    5327     5483     5640     5775     5925     6122     6374     6639 
    6817     6815     6633     6373     6168     6068     6043     6056 
    6069     6064     6052     6034     5962     5782     5512     5282 
    5208     5282     5432     5597     5713     5730     5701     5672 
    5621     5551     5528     5601     5787     6073     6399     6663 
    6775     6710     6501     6228     6018     5961     6076     6304 
    6582     6853     7036     7061     6929     6681     6394     6173 
    6120     6278     6608     7006     7353     7557     7572     7419 
    7175     6928     6762     6735     6883     7221     7717     8260 
    8667     8780     8569     8122     7557     6960     6411     6006 
    5814     5841     6043     6293     6430     6369     6173     5973 
    5876     5908     6070     6346     6658     6874     6910     6758 
    6457     6093     5772     5566     5494     5519     5606     5757 
    5931     6039     6048     5992     5917     5850     5796     5718 
    5585     5386     5116     4792     4471     4202     3973     3757 
    3566     3449     3483     3735     4168     4685     5196     5616 
    5899     6062     6115     6033     5802     5508     5277     5161 
    5104     5055     5011     4953     4893     4888     4984     5202 
    5582     6118     6741     7357     7894     8317     8602     8711 
    8575     8155     7538     6893     6347     5956     5722     5597 
    5510     5448     5437     5459     5502     5633     5949     6447 
    7022     7564     7993     8281     8431     8437     8295     8083 
    7933     7865     7770     7553     7231     6858     6489     6205 
    6080     6141     6353     6635     6875     6968     6898     6744 
    6597     6471     6356     6245     6173     6186     6252     6264 
    6135     5880     5579     5325     5175     5119     5093     5030 
    4931     4872     4887     4914     4862     4710     4500     4318 
    4253     4341     4538     4787     5069     5401     5738     5937 
    5896     5679     5414     5155     4901     4702     4637     4746 
    5007     5331     5572     5602     5427     5174     4973     4900 
    4982     5182     5413     5601     5706     5709     5602     5400 
    5155     4970     4945     5098     5351     5555     5594     5472 
    5265     5013     4726     4426     4178     4043     4059     4210 
    4421     4608     4735     4768     4664     4471     4329     4313 
    4390     4525     4702     4851     4912     4887     4761     4521 
    4245     4083     4128     4360     4689     5043     5360     5579 
    5667     5599     5359     5024     4761     4695     4846     5151 
    5468     5678     5757     5738     5668     5621     5629     5688 
    5798     5989     6231     6416     6438     6265     5927     5505 
    5107     4810     4635     4594     4695     4918     5198     5455 
    5628     5678     5589     5377     5113     4893     4807     4918 
