Origin Time       2016/04/16 01:25:00
Lat.              32.753
Long.             130.762
Depth. (km)       12
Mag.              7.3
Station Code      HRS004
Station Lat.      34.7262
Station Long.     132.2772
Station Height(m) 586
Record Time       2016/04/16 01:25:52
Sampling Freq(Hz) 100Hz
Duration Time(s)  99
Dir.              E-W
Scale Factor      7845(gal)/8223790
Max. Acc. (gal)   5.373
Last Correction   2016/04/16 01:25:53
Memo.             
[...]
    4072     4212     4392     4552     4630     4623     4568     4502 
    4441     4423     4499     4653     4797     4818     4653     4341 
    3993     3730     3620     3674     3899     4247     4546     4657 
    4575     4349     4048     3789     3696     3832     4180     4625 
    5005     5188     5089     4730     4251     3824     3570     3522 
    3680     4021     4426     4702     4748     4611     4384     4197 
    4149     4256     4522     4927     5350     5628     5672     5512 
    5221     4862     4531     4352     4393     4634     4958     5196 
    5243     5092     4810     4506     4293     4220     4271     4415 
    4581     4666     4621     4453     4205     3958     3796     3721 
    3743     3937     4309     4718     4986     5022     4847     4553 
    4243     4024     3974     4081     4245     4380     4421     4324 
    4148     4005     3947     4005     4203     4464     4634     4599 
    4338     3931     3530     3295     3303     3588     4152     4826 
    5270     5266     4876     4295     3732     3379     3348     3634 
    4131     4644     4969     4977     4681     4237     3839     3646 
    3747     4077     4477     4858     5113     5093     4780     4337 
    3946     3721     3688     3809     4036     4303     4522     4606 
    4492     4223     3929     3732     3674     3734     3904     4210 
    4606     4973     5198     5206     4988     4646     4322     4085 
    3982     4051     4245     4471     4669     4787     4750     4540 
    4222     3917     3753     3792     4017     4368     4743     5023 
    5130     5078     4969     4911     4961     5092     5215     5266 
    5220     5086     4882     4642     4460     4431     4552     4722 
    4838     4857     4822     4765     4669     4535     4378     4186 
    3964     3754     3615     3615     3766     4052     4434     4747 
    4785     4546     4228     3978     3812     3759     3932     4341 
    4811     5123     5161     4947     4637     4374     4209     4197 
    4383     4706     5036     5260     5294     5127     4854     4622 
    4515     4526     4619     4743     4858     4953     4999     4916 
    4680     4392     4162     4013     3950     3958     4020     4128 
    4230     4228     4101     3969     3950     4024     4124     4252 
    4436     4619     4680     4541     4276     4014     3819     3730 
    3808     4041     4321     4538     4638     4633     4565     4453 
    4286     4117     4060     4175     4423     4735     5026     5188 
    5143     4915     4595     4306     4151     4155     4270     4464 
    4680     4788     4706     4459     4112     3774     3589     3640 
    3943     4430     4911     5158     5093     4818     4486     4217 
    4071     4071     4207     4421     4617     4710     4677     4572 
    4472     4419     4419     4456     4533     4671     4822     4876 
    4784     4646     4595     4625     4650     4657     4669     4677 
    4688     4693     4687     4704     4760     4803     4793     4723 
    4590     4417     4245     4081     3906     3769     3742     3842 
    4009     4159     4237     4248     4192     4023     3782     3607 
    3595     3753     4027     4334     4606     4754     4664     4298 
    3766     3276     3028     3090     3400     3824     4220     4491 
    4591     4514     4309     4078     3936     3951     4105     4293 
    4437     4560     4688     4754     4684     4507     4341     4256 
    4260     4372     4568     4762     4907     4972     4911     4756 
    4560     4327     4114     3984     3912     3873     3912     4048 
    4217     4333     4349     4256     4098     3902     3707     3592 
    3627     3820     4095     4329     4433     4425     4324     4118 
    3870     3688     3624     3666     3774     3912     4036     4088 
    4035     3879     3643     3412     3302     3349     3505     3712 
    3927     4095     4135     4020     3832     3657     3537     3519 
    3646     3883     4121     4252     4251     4152     4003     3828 
    3646     3507     3485     3613     3821     4029     4240     4460 
    4604     4600     4460     4271     4128     4085     4156     4330 
    4567     4824     5047     5148     5088     4904     4699     4588 
    4572     4587     4642     4747     4831     4792     4596     4317 
    4071     3951     3977     4109     4307     4548     4811     5051 
    5158     5089     4976     4953     5017     5128     5266     5395 
    5509     5579     5512     5290     5049     4949     5031     5213 
    5424     5607     5652     5479     5130     4726     4417     4326 
    4487     4820     5169     5408     5517     5513     5418     5312 
    5273     5297     5351     5410     5412     5289     5057     4776 
    4496     4256     4083     3983     3948     3967     4016     4045 
    4017     3960     3874     3707     3480     3295     3211     3240 
    3366     3559     3757     3886     3910     3817     3627     3439 
    3353     3391     3551     3813     4078     4256     4318     4270 
    4140     4005     3954     4044     4243     4460     4642     4807 
    4968     5100     5174     5215     5292     5398     5447     5387 
    5227     4993     4730     4502     4390     4409     4511     4633 
    4692     4603     4353     4013     3686     3465     3397     3503 
    3773     4143     4496     4745     4872     4904     4888     4860 
    4839     4877     5027     5263     5505     5692     5786     5757 
    5611     5377     5108     4881     4762     4780     4914     5113 
    5329     5501     5549     5440     5201     4893     4600     4405 
    4345     4418     4598     4845     5130     5379     5502     5441 
    5205     4868     4514     4200     3994     3935     3987     4085 
    4140     4074     3912     3763     3689     3701     3820     4029 
    4232     4340     4355     4318     4223     4085     3978     3940 
    3963     4052     4191     4318     4402     4445     4414     4286 
    4122     4003     3937     3869     3784     3728     3730     3759 
    3781     3759     3690     3612     3581     3604     3657     3742 
    3873     4013     4098     4066     3921     3773     3711     3735 
    3809     3924     4074     4233     4359     4414     4401     4342 
    4266     4164     4045     4008     4124     4342     4564     4739 
    4893     5076     5297     5545     5782     5953     6065     6138 
    6145     6075     5991     5962     6012     6120     6227     6245 
    6151     5989     5810     5638     5503     5448     5506     5607 
    5623     5512     5321     5093     4877     4769     4810     4962 
    5171     5389     5548     5567     5395     5107     4827     4623 
    4525     4523     4596     4734     4887     4953     4865     4614 
    4217     3769     3416     3248     3267     3411     3596     3734 
    3731     3542     3229     2934     2802     2895     3165     3534 
    3904     4158     4199     4003     3642     3304     3172     3288 
    3576     3932     4228     4325     4182     3861     3466     3115 
    2925     2953     3169     3488     3774     3898     3819     3572 
    3215     2847     2558     2361     2249     2257     2367     2497 
    2604     2725     2860     2959     2990     2967     2928     2895 
    2882     2902     2957     3033     3109     3130     3064     2982 
    2979     3069     3226     3407     3562     3639     3622     3528 
    3396     3252     3125     3052     3032     3038     3051     3044 
    2963     2775     2525     2280     2097     2043     2163     2421 
    2755     3114     3459     3751     3954     4082     4176     4279 
    4444     4703     5013     5319     5589     5782     5837     5749 
    5598     5491     5518     5722     6084     6502     6855     7079 
    7164     7110     6960     6814     6743     6774     6924     7141 
    7314     7392     7375     7231     6957     6629     6358     6223 
    6255     6432     6682     6932     7159     7342     7437     7429 
    7362     7292     7264     7346     7570     7908     8286     8623 
    8829     8860     8750     8587     8471     8480     8629     8893 
    9202     9444     9541     9483     9282     8985     8673     8398 
    8162     7974     7836     7732     7614     7406     7055     6583 
    6043     5481     4969     4587     4364     4280     4295     4341 
    4349     4288     4129     3866     3558     3307     3175     3165 
    3227     3250     3109     2751     2231     1641     1078      631 
     359      246      217      193      133       47      -45     -153 
    -261     -313     -270     -136       32      166      224      225 
     206      187      183      240      403      654      947     1243 
    1482     1630     1702     1671     1509     1290     1125     1094 
    1246     1580     2033     2502     2878     3038     2917     2546 
    2046     1606     1389     1453     1792     2353     3013     3628 
    4081     4321     4384     4374     4391     4510     4754     5063 
    5339     5537     5679     5782     5868     6002     6232     6550 
    6894     7187     7365     7433     7453     7477     7510     7561 
    7674     7863     8064     8244     8401     8460     8352     8066 
    7595     6939     6232     5664     5308     5151     5167     5267 
    5333     5282     5040     4590     4041     3588     3343     3346 
    3627     4124     4606     4808     4580     3921     2986     2016 
    1227      754      639      820     1133     1390     1483     1410 
    1202      893      540      209      -37     -144      -71      152 
     450      751     1038     1351     1703     2029     2288     2512 
    2713     2880     2999     3042     2986     2826     2551     2138 
    1615     1105      750      615      715     1000     1350     1658 
    1859     1911     1838     1753     1787     2038     2539     3237 
    4008     4681     5108     5238     5082     4702     4256     3969 
    3963     4218     4629     5042     5287     5270     4989     4488 
    3867     3271     2817     2598     2687     3148     3963     4974 
    5962     6741     7140     7084     6640     5968     5316     4908 
    4831     5054     5499     6026     6450     6673     6723     6652 
    6564     6621     6930     7415     7888     8191     8286     8186 
    7915     7562     7290     7213     7339     7589     7835     7969 
    7962     7834     7626     7423     7353     7460     7639     7755 
    7739     7561     7229     6806     6419     6191     6168     6355 
    6704     7088     7378     7493     7406     7126     6673     6122 
    5616     5273     5116     5096     5190     5412     5749     6147 
    6523     6763     6798     6651     6436     6342     6542     7086 
    7848     8617     9209     9512     9471     9147     8700     8299 
    8073     8068     8236     8482     8702     8789     8657     8297 
    7805     7327     6971     6802     6810     6913     6970     6866 
    6594     6205     5776     5474     5458     5744     6214     6651 
    6829     6656     6153     5400     4546     3761     3230     3111 
    3422     4052     4855     5678     6361     6775     6868     6732 
    6543     6475     6633     6994     7411     7669     7597     7176 
    6481     5645     4861     4301     4064     4163     4507     4904 
    5113     4970     4459     3681     2806     2039     1580     1545 
    1896     2430     2880     3071     2953     2589     2073     1509 
    1019      673      487      460      592      905     1402     2001 
    2574     2965     3040     2786     2315     1780     1355     1198 
    1398     1960     2727     3395     3680     3473     2884     2166 
    1609     1431     1691     2270     2930     3420     3588     3426 
    3064     2693     2421     2272     2227     2280     2434     2650 
    2833     2893     2799     2617     2407     2172     1930     1750 
    1686     1740     1867     2016     2189     2408     2683     3015 
    3388     3794     4197     4557     4909     5294     5659     5915 
    6057     6135     6185     6208     6170     6002     5636     5065 
    4334     3586     3048     2901     3163     3709     4330     4757 
    4769     4352     3666     2886     2168     1694     1582     1800 
    2185     2529     2675     2544     2154     1638     1219     1107 
    1405     2065     2965     3931     4776     5367     5614     5510 
    5212     4932     4854     5111     5686     6420     7121     7612 
    7744     7481     6971     6458     6088     5906     5956     6264 
    6767     7326     7730     7763     7331     6507     5451     4388 
    3566     3137     3071     3213     3393     3483     3434     3302 
    3217     3272     3423     3566     3657     3670     3563     3348 
    3132     3044     3157     3487     3979     4527     5005     5298 
    5321     5084     4707     4359     4189     4256     4542     4984 
    5529     6110     6621     6963     7138     7238     7342     7489 
    7685     7917     8170     8431     8695     8955     9194     9373 
    9463     9451     9342     9137     8835     8460     8090     7805 
    7592     7403     7238     7064     6813     6512     6219     5948 
    5727     5610     5601     5672     5780     5852     5827     5722 
    5599     5528     5579     5793     6151     6566     6918     7125 
    7150     7006     6793     6737     7018     7607     8361     9147 
    9791    10088     9911     9270     8326     7372     6705     6512 
    6817     7504     8302     8881     9022     8708     8063     7277 
    6574     6119     5935     5973     6176     6430     6567     6475 
    6153     5665     5125     4668     4396     4330     4395     4472 
    4448     4263     3979     3736     3659     3785     4050     4334 
    4513     4499     4279     3897     3469     3172     3136     3379 
    3809     4256     4550     4604     4383     3924     3369     2951 
    2886     3240     3861     4502     4982     5184     5009     4433 
    3604     2809     2296     2166     2396     2896     3524     4094 
    4453     4549     4430     4243     4185     4368     4764     5251 
    5668     5898     5891     5638     5232     4884     4761     4866 
    5115     5402     5623     5699     5613     5402     5185     5115 
    5279     5644     6075     6413     6559     6482     6247     5985 
    5784     5659     5597     5566     5495     5296     4932     4486 
    4062     3738     3603     3717     4064     4568     5125     5590 
    5805     5671     5182     4449     3732     3334     3403     3878 
    4552     5175     5562     5611     5312     4774     4225     3897 
    3937     4325     4881     5331     5436     5117     4453     3604 
    2763     2107     1796     1939     2467     3138     3686     3932 
    3808     3341     2644     1927     1447     1371     1694     2292 
    3030     3751     4260     4434     4278     3856     3264     2627 
    2121     1927     2079     2461     2907     3288     3551     3688 
    3693     3607     3496     3426     3450     3581     3815     4126 
    4448     4702     4860     4900     4807     4626     4468     4446 
    4584     4800     4988     5098     5140     5161     5200     5242 
    5262     5271     5254     5117     4781     4288     3762     3315 
    3052     3030     3215     3492     3724     3823     3793     3707 
    3647     3676     3789     3950     4129     4324     4510     4615 
    4560     4332     4017     3738     3586     3615     3851     4283 
    4801     5216     5409     5387     5224     5043     4945     4958 
    5115     5456     5940     6439     6837     7034     6971     6704 
    6366     6081     5891     5784     5740     5733     5736     5767 
    5871     6053     6296     6559     6772     6876     6856     6739 
    6615     6579     6635     6709     6735     6673     6508     6238 
    5884     5518     5256     5161     5217     5394     5665     5968 
    6188     6208     6012     5694     5390     5212     5201     5319 
    5479     5607     5684     5697     5622     5459     5250     5057 
    4935     4918     4997     5131     5270     5401     5518     5595 
    5587     5495     5352     5197     5065     4985     4950     4936 
    4909     4843     4702     4430     4012     3518     3067     2775 
    2724     2936     3369     3886     4276     4364     4101     3562 
    2920     2389     2143     2270     2721     3339     3937     4336 
    4431     4238     3848     3410     3100     3024     3149     3379 
    3642     3865     3942     3823     3544     3191     2863     2678 
    2737     3063     3558     4058     4409     4527     4417     4126 
    3746     3400     3187     3142     3250     3449     3638     3711 
    3593     3291     2875     2455     2141     1980     1929     1925 
    1954     1987     1981     1921     1819     1680     1468     1166 
     834      585      506      608      835     1102     1371     1632 
    1854     1989     2034     2045     2087     2146     2192     2272 
    2431     2647     2886     3138     3377     3530     3500     3245 
    2822     2380     2064     1923     1925     2029     2193     2358 
    2466     2474     2385     2263     2235     2415     2816     3299 
    3678     3867     3848     3630     3283     2959     2781     2774 
    2840     2826     2677     2452     2207     1972     1795     1709 
    1719     1811     1927     1996     1988     1922     1852     1859 
    2018     2346     2790     3232     3539     3628     3505     3253 
    2988     2766     2571     2423     2357     2367     2416     2473 
    2525     2590     2700     2863     3042     3169     3213     3153 
    2963     2636     2272     2037     2052     2305     2668     2995 
    3180     3171     2961     2606     2185     1781     1453     1240 
    1181     1296     1563     1939     2365     2782     3142     3369 
    3368     3144     2824     2562     2431     2457     2619     2875 
    3150     3292     3167     2797     2322     1880     1591     1547 
    1784     2255     2832     3414     3970     4473     4885     5173 
    5309     5285     5134     4922     4737     4623     4577     4575 
    4590     4630     4715     4788     4754     4564     4260     3943 
    3684     3532     3547     3766     4136     4530     4855     5063 
    5093     4943     4650     4251     3856     3643     3685     3919 
    4240     4546     4792     4985     5089     5043     4868     4668 
    4563     4590     4714     4878     5012     5013     4792     4327 
    3713     3171     2874     2856     3096     3527     3954     4148 
    3974     3422     2663     2016     1786     2120     2978     4143 
    5279     6092     6388     6065     5219     4182     3334     2947 
    3140     3807     4689     5521     6042     6092     5729     5115 
    4399     3781     3435     3419     3715     4237     4833     5346 
    5634     5630     5363     4907     4359     3863     3554     3522 
    3782     4245     4702     4965     4973     4785     4542     4356 
    4263     4266     4347     4495     4703     4892     4955     4880 
    4745     4637     4592     4592     4619     4656     4638     4491 
    4243     4025     3908     3863     3886     4014     4207     4351 
