Origin Time       2016/04/16 01:25:00
Lat.              32.753
Long.             130.762
Depth. (km)       12
Mag.              7.3
Station Code      HRS013
Station Lat.      34.3768
Station Long.     132.4505
Station Height(m) 2
Record Time       2016/04/16 01:25:52
Sampling Freq(Hz) 100Hz
Duration Time(s)  115
Dir.              N-S
Scale Factor      7845(gal)/8223790
Max. Acc. (gal)   10.762
Last Correction   2016/04/16 01:25:52
Memo.             
[...]
   -1246    -1368    -1547    -1709    -1803    -1846    -1917    -2096 
   -2423    -2884    -3426    -3912    -4151    -3978    -3388    -2578 
   -1806    -1225     -847     -575     -318      -71      144      338 
     515      626      546      178     -423    -1101    -1721    -2224 
   -2571    -2725    -2691    -2567    -2475    -2444    -2401    -2265 
   -2015    -1721    -1464    -1290    -1178    -1031     -756     -359 
      45      294      282       36     -318     -670     -961    -1146 
   -1225    -1262    -1308    -1387    -1486    -1526    -1449    -1243 
    -920     -565     -315     -270     -459     -846    -1306    -1682 
   -1873    -1895    -1836    -1764    -1684    -1590    -1463    -1264 
    -959     -562     -183       56      131       47     -218     -661 
   -1232    -1849    -2431    -2922    -3268    -3406    -3311    -3064 
   -2814    -2668    -2636    -2698    -2859    -3078    -3218    -3172 
   -2953    -2677    -2461    -2370    -2412    -2504    -2517    -2363 
   -2019    -1539    -1058     -739     -649     -733     -892    -1085 
   -1294    -1468    -1556    -1570    -1560    -1551    -1526    -1467 
   -1368    -1247    -1158    -1150    -1189    -1208    -1158    -1003 
    -756     -471     -193       49      257      448      634      814 
     950      923      584      -81     -918    -1752    -2454    -2920 
   -3106    -3084    -2998    -2965    -3005    -3046    -3037    -2955 
   -2782    -2543    -2330    -2266    -2416    -2700    -2960    -3055 
   -2896    -2506    -2012    -1553    -1210    -1017    -1021    -1269 
   -1709    -2245    -2776    -3198    -3458    -3557    -3507    -3345 
   -3125    -2887    -2658    -2421    -2173    -1915    -1640    -1366 
   -1121     -886     -621     -332     -101      -23      -97     -198 
    -251     -280     -324     -387     -467     -549     -633     -733 
    -828     -832     -702     -521     -446     -548     -751     -915 
    -935     -812     -623     -442     -322     -340     -532     -849 
   -1158    -1317    -1248    -1015     -753     -562     -487     -557 
    -810    -1252    -1826    -2378    -2758    -2965    -3113    -3267 
   -3404    -3472    -3416    -3232    -2941    -2556    -2081    -1560 
   -1077     -695     -450     -367     -450     -715    -1148    -1642 
   -2049    -2289    -2374    -2338    -2208    -2004    -1794    -1683 
   -1746    -1969    -2218    -2330    -2243    -2012    -1744    -1543 
   -1447    -1444    -1509    -1593    -1599    -1456    -1167     -796 
    -476     -311     -295     -372     -461     -471     -390     -241 
     -44      186      425      604      646      553      380      156 
    -121     -454     -807    -1119    -1347    -1493    -1615    -1761 
   -1925    -2053    -2089    -2019    -1856    -1622    -1344    -1047 
    -800     -708     -804    -1030    -1305    -1552    -1729    -1842 
   -1877    -1831    -1717    -1505    -1202     -857     -498     -193 
     -64     -156     -413     -772    -1190    -1621    -2000    -2262 
   -2361    -2278    -2029    -1665    -1240     -797     -451     -338 
    -508     -908    -1420    -1894    -2215    -2338    -2301    -2165 
   -1979    -1779    -1609    -1517    -1551    -1729    -2047    -2442 
   -2813    -3051    -3113    -3018    -2799    -2505    -2199    -1937 
   -1771    -1732    -1819    -1988    -2158    -2247    -2207    -2053 
   -1849    -1677    -1624    -1737    -1993    -2295    -2519    -2590 
   -2524    -2363    -2153    -1937    -1740    -1580    -1474    -1435 
   -1466    -1532    -1561    -1498    -1317    -1005     -607     -237 
       0       62      -22     -176     -324     -434     -493     -483 
    -402     -274     -108      112      391      680      893      954 
     835      550      148     -291     -688     -997    -1206    -1306 
   -1306    -1210    -1011     -746     -484     -283     -209     -310 
    -566     -900    -1210    -1426    -1526    -1512    -1399    -1228 
   -1030     -850     -735     -711     -804    -1015    -1285    -1545 
   -1723    -1783    -1750    -1690    -1671    -1729    -1856    -2003 
   -2107    -2128    -2077    -2000    -1935    -1912    -1952    -2076 
   -2276    -2486    -2644    -2735    -2814    -2929    -3059    -3122 
   -3011    -2678    -2181    -1651    -1213     -938     -824     -819 
    -828     -726     -429       36      562     1004     1250     1259 
    1063      750      410       78     -256     -602     -913    -1127 
   -1192    -1093     -872     -627     -464     -433     -479     -473 
    -301       51      513      982     1336     1475     1394     1171 
     869      517      151     -211     -612    -1075    -1540    -1881 
   -1998    -1883    -1641    -1440    -1386    -1468    -1618    -1749 
   -1780    -1709    -1595    -1479    -1390    -1391    -1540    -1838 
   -2231    -2616    -2924    -3146    -3295    -3376    -3375    -3272 
   -3087    -2863    -2648    -2527    -2579    -2808    -3109    -3326 
   -3365    -3257    -3087    -2930    -2817    -2744    -2679    -2600 
   -2538    -2529    -2560    -2619    -2701    -2776    -2774    -2582 
   -2146    -1549     -945     -433       -4      387      719      932 
    1028     1053     1069     1177     1441     1806     2151     2386 
    2494     2505     2415     2182     1845     1521     1286     1119 
     958      777      566      334      116      -27      -44       71 
     246      338      263       21     -349     -757    -1093    -1339 
   -1530    -1695    -1826    -1914    -1952    -1979    -2022    -2077 
   -2191    -2407    -2681    -2947    -3157    -3238    -3148    -2967 
   -2879    -2979    -3199    -3414    -3585    -3809    -4191    -4657 
   -5019    -5182    -5175    -5032    -4725    -4220    -3537    -2759 
   -1980    -1266     -688     -333     -279     -522     -938    -1332 
   -1580    -1749    -1984    -2304    -2596    -2755    -2786    -2763 
   -2729    -2654    -2497    -2286    -2095    -1946    -1830    -1729 
   -1632    -1534    -1449    -1371    -1297    -1252    -1243    -1244 
   -1236    -1205    -1116     -931     -676     -400     -117      198 
     552      877     1067     1088      954      656      207     -349 
    -974    -1556    -1919    -1973    -1791    -1548    -1421    -1486 
   -1675    -1884    -2037    -2079    -1996    -1804    -1563    -1337 
   -1156    -1005     -905     -900     -997    -1107    -1073     -826 
    -481     -220     -112     -128     -248     -463     -723     -976 
   -1215    -1460    -1691    -1833    -1842    -1784    -1749    -1748 
   -1742    -1715    -1694    -1750    -1898    -2053    -2157    -2153 
   -2006    -1729    -1332     -868     -473     -253     -238     -406 
    -608     -673     -573     -382     -164       11       82        5 
    -201     -503     -885    -1347    -1831    -2234    -2470    -2524 
   -2421    -2228    -2019    -1825    -1667    -1595    -1632    -1749 
   -1872    -1966    -2068    -2201    -2323    -2374    -2350    -2297 
   -2278    -2322    -2408    -2489    -2546    -2623    -2755    -2978 
   -3346    -3797    -4117    -4121    -3797    -3271    -2666    -2003 
   -1282     -603     -101      175      263      216       65     -172 
    -533    -1046    -1663    -2253    -2625    -2632    -2284    -1728 
   -1156     -741     -587     -684     -919    -1125    -1174     -984 
    -552       18      579     1000     1209     1240     1177     1039 
     826      610      459      336      170      -81     -436     -862 
   -1269    -1570    -1683    -1520    -1078     -519      -52      159 
      72     -189     -515     -873    -1197    -1394    -1383    -1111 
    -688     -365     -328     -595    -1048    -1524    -1925    -2254 
   -2508    -2643    -2605    -2398    -2098    -1799    -1557    -1393 
   -1271    -1142    -1007     -939    -1012    -1228    -1540    -1910 
   -2307    -2698    -3060    -3314    -3385    -3311    -3159    -2924 
   -2609    -2254    -1884    -1530    -1285    -1229    -1351    -1525 
   -1595    -1480    -1215     -877     -506     -120      234      480 
     537      334     -112     -668    -1190    -1591    -1859    -2039 
   -2147    -2114    -1871    -1455     -931     -379       20       49 
    -334     -985    -1757    -2524    -3153    -3553    -3681    -3559 
   -3342    -3145    -2882    -2444    -1925    -1551    -1425    -1452 
   -1457    -1377    -1308    -1351    -1514    -1710    -1833    -1859 
   -1850    -1876    -1933    -1935    -1849    -1744    -1707    -1764 
   -1865    -1973    -2107    -2191    -2018    -1494     -776     -155 
     198      383      557      737      874      927      877      719 
     398      -87     -604     -984    -1154    -1159    -1116    -1163 
   -1362    -1683    -2052    -2400    -2660    -2748    -2636    -2405 
   -2160    -1972    -1865    -1800    -1699    -1505    -1244    -1039 
   -1000    -1092    -1209    -1262    -1220    -1113     -935     -653 
    -310       20      272      422      542      710      903     1023 
     957      685      288     -137     -531     -826     -959     -918 
    -760     -589     -464     -363     -241      -90       36       89 
     101      126      151      112       17     -108     -253     -417 
    -595     -793     -984    -1105    -1173    -1232    -1270    -1323 
   -1480    -1765    -2104    -2417    -2640    -2771    -2889    -3034 
   -3148    -3177    -3149    -3102    -3096    -3159    -3183    -3053 
   -2785    -2452    -2143    -1954    -1912    -1980    -2114    -2270 
   -2415    -2531    -2650    -2794    -2879    -2795    -2550    -2261 
   -2088    -2079    -2095    -1999    -1804    -1537    -1225     -953 
    -757     -637     -606     -634     -600     -373       95      737 
    1375     1811     1953     1836     1530     1127      728      417 
     229      148      143      195      259      291      283      244 
     195      160      189      329      521      664      741      801 
     870      958     1020      980      818      579      307       36 
    -218     -492     -845    -1291    -1783    -2262    -2663    -2903 
   -2960    -2879    -2732    -2602    -2578    -2656    -2802    -3015 
   -3280    -3562    -3840    -4069    -4228    -4384    -4610    -4899 
   -5179    -5329    -5321    -5279    -5309    -5385    -5397    -5246 
   -4918    -4469    -3898    -3186    -2388    -1603     -908     -390 
     -90       25       11      -59     -120     -143      -93       20 
     103       93       -5     -183     -448     -778    -1084    -1254 
   -1247    -1133    -1065    -1124    -1219    -1194     -990     -638 
    -234      108      303      321      209       36     -140     -236 
    -166       40      265      476      737     1062     1347     1443 
    1264      827      280     -163     -346     -206      187      619 
     843      715      256     -375     -973    -1437    -1784    -2072 
   -2366    -2650    -2803    -2791    -2718    -2718    -2844    -3052 
   -3242    -3304    -3152    -2727    -2066    -1351     -791     -491 
    -430     -533     -747    -1017    -1278    -1498    -1680    -1852 
   -2106    -2528    -3095    -3685    -4131    -4318    -4294    -4205 
   -4153    -4166    -4217    -4199    -3950    -3381    -2582    -1749 
   -1043     -488      -16      432      869     1260     1552     1721 
    1759     1677     1495     1267     1112     1120     1256     1389 
    1397     1254     1028      808      669      668      796      974 
    1102     1105      942      604      101     -533    -1202    -1757 
   -2139    -2366    -2446    -2427    -2384    -2338    -2262    -2124 
   -1964    -1933    -2157    -2578    -3009    -3319    -3491    -3569 
   -3605    -3607    -3569    -3524    -3518    -3584    -3796    -4180 
   -4671    -5177    -5613    -5864    -5805    -5359    -4598    -3738 
   -2964    -2353    -1934    -1701    -1609    -1611    -1668    -1690 
   -1567    -1239     -764     -294       74      369      649      928 
    1179     1356     1387     1213      858      437       95      -59 
     -35      128      456      877     1200     1341     1364     1348 
    1327     1294     1269     1328     1509     1726     1877     1921 
    1822     1576     1243      905      608      353      131      -52 
    -191     -317     -531     -897    -1354    -1769    -2062    -2236 
   -2335    -2389    -2412    -2415    -2442    -2577    -2863    -3276 
   -3740    -4151    -4403    -4457    -4310    -3983    -3565    -3169 
   -2890    -2768    -2817    -3045    -3418    -3863    -4294    -4639 
   -4884    -5011    -4970    -4750    -4398    -3983    -3573    -3187 
   -2833    -2536    -2303    -2107    -1956    -1838    -1677    -1370 
    -869     -218      503     1217     1877     2454     2902     3194 
    3411     3638     3851     3996     4077     4085     3987     3759 
    3388     2920     2446     2072     1891     1961     2273     2725 
    3168     3515     3754     3894     3919     3812     3609     3422 
    3368     3481     3690     3840     3763     3362     2613     1548 
     218    -1289    -2835    -4309    -5663    -6870    -7900    -8742 
   -9385    -9803   -10003   -10012    -9871    -9634    -9350    -9013 
   -8618    -8171    -7713    -7299    -6967    -6741    -6651    -6673 
   -6759    -6975    -7404    -7981    -8564    -9054    -9405    -9632 
   -9798    -9984   -10245   -10608   -11094   -11647   -12160   -12522 
  -12631   -12459   -12050   -11493   -10895   -10320    -9759    -9211 
   -8688    -8164    -7576    -6817    -5819    -4676    -3557    -2584 
   -1798    -1125     -480      129      657     1055     1313     1509 
    1729     1995     2258     2438     2504     2500     2497     2577 
    2787     3090     3411     3721     4059     4494     5063     5680 
    6151     6345     6297     6143     6000     5956     6068     6349 
    6743     7109     7329     7378     7298     7148     6936     6594 
    6130     5640     5198     4841     4584     4375     4078     3681 
    3346     3029     2589     2119     1609     1026      595      337 
     102      -94     -210     -222     -129      -62     -135     -305 
    -487     -687     -939    -1255    -1622    -2038    -2446    -2727 
   -2853    -2891    -2857    -2794    -2801    -2921    -3123    -3284 
   -3315    -3307    -3469    -3944    -4683    -5455    -6088    -6552 
   -6844    -6916    -6706    -6235    -5629    -4973    -4258    -3480 
   -2635    -1783    -1039     -450        0      314      552      784 
    1039     1355     1748     2180     2531     2643     2421     1854 
    1000       39     -818    -1412    -1656    -1583    -1350    -1115 
    -997    -1055    -1255    -1506    -1694    -1746    -1683    -1560 
   -1391    -1152     -804     -363      110      533      792      777 
     460     -133     -928    -1825    -2687    -3350    -3705    -3743 
   -3477    -2986    -2447    -1980    -1630    -1436    -1367    -1350 
   -1352    -1387    -1433    -1394    -1169     -815     -542     -564 
    -970    -1705    -2620    -3546    -4313    -4808    -4997    -4926 
   -4718    -4473    -4210    -3939    -3680    -3435    -3133    -2688 
   -2173    -1721    -1382    -1162     -987     -724     -321      178 
     702     1121     1317     1230      924      565      314      245 
     355      602     1013     1660     2489     3369     4180     4722 
    4814     4405     3547     2473     1486      769      415      449 
     801     1350     1896     2289     2533     2718     2924     3142 
    3287     3364     3446     3516     3500     3310     2920     2394 
    1818     1290      916      699      576      469      287      -63 
    -652    -1455    -2374    -3395    -4557    -5838    -7145    -8306 
   -9184    -9771   -10099   -10125    -9813    -9184    -8345    -7493 
   -6848    -6569    -6673    -7110    -7823    -8684    -9479   -10031 
  -10273   -10235   -10019    -9683    -9300    -8996    -8827    -8743 
   -8669    -8584    -8513    -8414    -8168    -7690    -6959    -6048 
   -5060    -4008    -2918    -1888     -905       82     1019     1740 
    2081     2061     1903     1817     1894     2162     2604     3177 
    3848     4565     5251     5810     6148     6219     6025     5618 
    5113     4635     4276     4118     4192     4457     4814     5181 
    5529     5823     5973     5908     5570     4918     3991     2852 
    1621      508     -289     -656     -619     -425     -333     -467 
    -896    -1625    -2550    -3523    -4406    -5105    -5585    -5836 
   -5872    -5730    -5475    -5235    -5077    -4962    -4822    -4614 
   -4409    -4349    -4506    -4807    -5097    -5206    -5062    -4748 
   -4421    -4197    -4147    -4275    -4496    -4729    -4945    -5131 
   -5273    -5319    -5213    -4978    -4691    -4431    -4255    -4144 
   -4003    -3716    -3168    -2303    -1192       18     1182     2137 
    2749     2975     2847     2494     2077     1709     1499     1502 
    1672     1923     2135     2158     1880     1275      454     -388 
   -1059    -1426    -1487    -1344    -1084     -774     -440      -45 
     391      838     1318     1844     2354     2747     2915     2810 
    2447     1880     1166      329     -627    -1705    -2852    -3996 
   -5098    -6148    -7118    -7969    -8660    -9165    -9497    -9698 
   -9780    -9705    -9441    -9005    -8449    -7765    -6910    -5904 
   -4814    -3774    -2978    -2540    -2454    -2727    -3317    -4062 
   -4768    -5273    -5535    -5688    -5911    -6230    -6561    -6833 
   -7015    -7110    -7173    -7203    -7068    -6637    -5907    -4973 
   -4017    -3211    -2612    -2196    -1859    -1483     -986     -329 
     405     1035     1466     1732     1907     2046     2137     2153 
    2110     2031     1958     1896     1796     1660     1575     1620 
    1804     2031     2142     2053     1777     1435     1197     1208 
    1560     2270     3198     4087     4719     5020     5070     4959 
    4707     4315     3762     3021     2163     1279      400     -454 
   -1228    -1791    -2079    -2193    -2282    -2448    -2710    -3071 
   -3584    -4253    -4993    -5737    -6413    -6913    -7213    -7381 
   -7470    -7524    -7578    -7618    -7652    -7696    -7713    -7688 
   -7631    -7555    -7458    -7310    -7127    -7011    -7059    -7330 
   -7807    -8410    -9099    -9826   -10513   -11105   -11541   -11762 
  -11728   -11350   -10624    -9701    -8750    -7884    -7148    -6550 
   -6069    -5610    -5076    -4445    -3763    -3157    -2743    -2552 
   -2567    -2710    -2895    -3078    -3226    -3339    -3424    -3393 
   -3144    -2656    -2001    -1368     -899     -552     -257       47 
     457      989     1603     2259     2806     3048     2945     2574 
    2039     1472     1024      785      702      710      770      801 
     832      953     1151     1487     2025     2631     3183     3600 
    3770     3732     3573     3295     2956     2636     2378     2166 
    1898     1463      847      171     -388     -785    -1067    -1252 
   -1389    -1549    -1765    -2089    -2565    -3138    -3680    -4033 
   -4071    -3812    -3397    -2959    -2614    -2436    -2404    -2428 
   -2393    -2280    -2209    -2313    -2639    -3119    -3634    -4153 
