Origin Time       2016/04/16 01:25:00
Lat.              32.753
Long.             130.762
Depth. (km)       12
Mag.              7.3
Station Code      HRS005
Station Lat.      34.7770
Station Long.     133.2807
Station Height(m) 480
Record Time       2016/04/16 01:26:02
Sampling Freq(Hz) 100Hz
Duration Time(s)  112
Dir.              N-S
Scale Factor      7845(gal)/8223790
Max. Acc. (gal)   3.023
Last Correction   2016/04/16 01:26:04
Memo.             
[...]
   -6455    -6435    -6494    -6635    -6822    -7022    -7192    -7315 
   -7392    -7431    -7464    -7504    -7553    -7597    -7605    -7584 
   -7574    -7586    -7607    -7623    -7612    -7541    -7418    -7288 
   -7160    -7011    -6821    -6623    -6462    -6363    -6351    -6424 
   -6556    -6728    -6930    -7142    -7354    -7551    -7697    -7767 
   -7785    -7784    -7770    -7716    -7597    -7422    -7213    -7006 
   -6820    -6654    -6511    -6413    -6419    -6561    -6825    -7176 
   -7545    -7838    -7997    -7998    -7854    -7635    -7437    -7279 
   -7127    -6968    -6801    -6640    -6527    -6493    -6513    -6554 
   -6631    -6764    -6941    -7160    -7435    -7720    -7916    -7967 
   -7898    -7750    -7560    -7326    -7047    -6808    -6682    -6654 
   -6717    -6844    -6972    -7080    -7165    -7236    -7302    -7337 
   -7307    -7234    -7177    -7180    -7226    -7283    -7358    -7468 
   -7581    -7661    -7705    -7735    -7728    -7619    -7404    -7134 
   -6851    -6592    -6388    -6285    -6323    -6484    -6750    -7064 
   -7360    -7622    -7831    -8001    -8136    -8172    -8078    -7855 
   -7523    -7175    -6876    -6651    -6551    -6610    -6791    -7014 
   -7213    -7383    -7542    -7661    -7680    -7595    -7453    -7269 
   -7059    -6886    -6764    -6632    -6486    -6407    -6419    -6453 
   -6504    -6620    -6799    -6990    -7172    -7375    -7562    -7663 
   -7661    -7550    -7344    -7059    -6709    -6366    -6137    -6100 
   -6210    -6361    -6571    -6848    -7107    -7275    -7358    -7399 
   -7391    -7310    -7173    -7051    -7007    -7032    -7096    -7227 
   -7399    -7519    -7547    -7508    -7430    -7327    -7200    -7028 
   -6841    -6678    -6523    -6413    -6411    -6529    -6741    -6985 
   -7253    -7543    -7798    -7928    -7869    -7645    -7315    -6937 
   -6601    -6366    -6232    -6181    -6200    -6281    -6417    -6585 
   -6750    -6886    -6995    -7065    -7092    -7075    -7020    -6943 
   -6874    -6837    -6835    -6864    -6895    -6883    -6859    -6874 
   -6912    -6947    -6979    -7007    -7026    -7023    -7007    -7003 
   -7014    -7013    -6985    -6943    -6881    -6809    -6727    -6627 
   -6539    -6482    -6465    -6525    -6656    -6812    -6941    -7005 
   -6997    -6917    -6777    -6647    -6564    -6486    -6380    -6285 
   -6243    -6249    -6285    -6358    -6480    -6639    -6804    -6930 
   -6984    -6971    -6918    -6847    -6755    -6647    -6556    -6502 
   -6486    -6529    -6655    -6860    -7123    -7398    -7618    -7739 
   -7753    -7661    -7473    -7214    -6902    -6566    -6269    -6062 
   -5988    -6052    -6207    -6432    -6711    -7001    -7254    -7425 
   -7493    -7491    -7437    -7321    -7134    -6895    -6619    -6331 
   -6080    -5908    -5849    -5931    -6150    -6432    -6704    -6959 
   -7198    -7391    -7510    -7543    -7501    -7376    -7184    -7003 
   -6871    -6789    -6755    -6755    -6781    -6841    -6939    -7049 
   -7148    -7230    -7285    -7311    -7315    -7285    -7214    -7089 
   -6897    -6675    -6477    -6330    -6257    -6269    -6351    -6513 
   -6727    -6910    -7028    -7094    -7107    -7053    -6934    -6809 
   -6721    -6686    -6727    -6812    -6903    -7006    -7137    -7276 
   -7365    -7377    -7311    -7155    -6957    -6795    -6681    -6619 
   -6615    -6666    -6782    -6929    -7061    -7188    -7307    -7400 
   -7454    -7460    -7392    -7268    -7142    -7017    -6907    -6870 
   -6886    -6945    -7063    -7238    -7472    -7712    -7882    -7977 
   -8002    -7917    -7730    -7485    -7213    -6943    -6706    -6525 
   -6439    -6469    -6600    -6808    -7048    -7253    -7384    -7423 
   -7375    -7250    -7052    -6815    -6590    -6413    -6316    -6293 
   -6339    -6477    -6700    -6964    -7230    -7453    -7601    -7649 
   -7592    -7479    -7350    -7200    -7009    -6809    -6660    -6621 
   -6690    -6820    -6979    -7140    -7290    -7453    -7607    -7700 
   -7713    -7651    -7519    -7337    -7153    -7006    -6910    -6886 
   -6945    -7047    -7152    -7256    -7346    -7398    -7403    -7369 
   -7284    -7152    -6983    -6793    -6635    -6534    -6471    -6446 
   -6457    -6509    -6601    -6698    -6782    -6870    -6976    -7084 
   -7137    -7101    -6963    -6760    -6550    -6354    -6191    -6115 
   -6154    -6285    -6505    -6798    -7099    -7361    -7553    -7676 
   -7747    -7777    -7759    -7701    -7592    -7423    -7233    -7063 
   -6939    -6874    -6860    -6894    -6948    -6995    -7061    -7159 
   -7257    -7315    -7325    -7314    -7287    -7241    -7190    -7125 
   -7036    -6951    -6899    -6872    -6845    -6801    -6744    -6710 
   -6725    -6798    -6910    -7003    -7053    -7084    -7103    -7082 
   -7021    -6952    -6880    -6793    -6710    -6667    -6662    -6687 
   -6777    -6928    -7083    -7200    -7264    -7272    -7222    -7129 
   -7003    -6866    -6743    -6669    -6655    -6689    -6774    -6917 
   -7088    -7253    -7378    -7446    -7441    -7334    -7134    -6906 
   -6708    -6551    -6458    -6431    -6427    -6423    -6427    -6471 
   -6567    -6701    -6858    -7021    -7172    -7300    -7378    -7404 
   -7404    -7404    -7392    -7326    -7169    -6917    -6588    -6227 
   -5898    -5671    -5564    -5574    -5713    -5980    -6334    -6720 
   -7078    -7352    -7510    -7558    -7519    -7406    -7260    -7121 
   -7011    -6951    -6964    -7036    -7126    -7229    -7339    -7441 
   -7539    -7627    -7659    -7631    -7539    -7377    -7186    -7034 
   -6966    -6993    -7072    -7153    -7230    -7326    -7450    -7595 
   -7738    -7850    -7885    -7812    -7634    -7368    -7056    -6751 
   -6525    -6439    -6481    -6647    -6933    -7276    -7600    -7857 
   -8023    -8070    -7998    -7842    -7641    -7406    -7163    -6949 
   -6771    -6619    -6523    -6513    -6612    -6818    -7078    -7354 
   -7619    -7827    -7981    -8078    -8095    -8058    -7982    -7839 
   -7635    -7418    -7242    -7148    -7150    -7246    -7368    -7457 
   -7518    -7546    -7553    -7580    -7616    -7669    -7742    -7786 
   -7771    -7695    -7562    -7406    -7269    -7163    -7055    -6943 
   -6856    -6813    -6821    -6870    -6928    -6994    -7074    -7156 
   -7223    -7260    -7271    -7264    -7241    -7200    -7150    -7118 
   -7117    -7130    -7144    -7153    -7144    -7122    -7114    -7118 
   -7127    -7148    -7148    -7102    -7010    -6874    -6728    -6600 
   -6488    -6389    -6313    -6278    -6313    -6436    -6609    -6771 
   -6885    -6936    -6934    -6918    -6909    -6906    -6899    -6875 
   -6848    -6840    -6839    -6825    -6814    -6836    -6902    -6979 
   -7026    -7051    -7082    -7107    -7091    -7038    -7001    -6978 
   -6943    -6901    -6868    -6863    -6881    -6902    -6918    -6944 
   -6972    -6978    -6951    -6917    -6863    -6767    -6650    -6527 
   -6443    -6446    -6540    -6731    -6982    -7203    -7354    -7429 
   -7427    -7372    -7307    -7254    -7217    -7213    -7200    -7159 
   -7119    -7074    -7010    -6974    -6964    -6959    -6944    -6907 
   -6860    -6831    -6817    -6821    -6856    -6925    -7023    -7138 
   -7240    -7323    -7398    -7446    -7453    -7400    -7269    -7096 
   -6910    -6718    -6555    -6432    -6367    -6393    -6507    -6694 
   -6925    -7157    -7371    -7545    -7674    -7743    -7728    -7642 
   -7492    -7302    -7115    -6972    -6897    -6863    -6874    -6936 
   -7015    -7094    -7177    -7258    -7311    -7342    -7377    -7411 
   -7446    -7474    -7499    -7518    -7512    -7499    -7520    -7578 
   -7634    -7668    -7681    -7657    -7569    -7430    -7302    -7227 
   -7182    -7157    -7179    -7226    -7263    -7290    -7302    -7285 
   -7241    -7195    -7175    -7194    -7267    -7384    -7507    -7609 
   -7685    -7727    -7719    -7641    -7477    -7219    -6922    -6656 
   -6455    -6339    -6276    -6245    -6252    -6296    -6389    -6524 
   -6673    -6839    -7006    -7169    -7342    -7495    -7558    -7515 
   -7437    -7358    -7291    -7258    -7240    -7187    -7110    -7038 
   -6997    -7007    -7052    -7096    -7155    -7214    -7249    -7258 
   -7238    -7179    -7102    -7055    -7067    -7121    -7194    -7261 
   -7307    -7327    -7295    -7222    -7137    -7034    -6906    -6750 
   -6571    -6407    -6296    -6273    -6365    -6564    -6833    -7126 
   -7387    -7550    -7580    -7503    -7354    -7144    -6912    -6694 
   -6513    -6389    -6373    -6501    -6755    -7078    -7396    -7655 
   -7819    -7855    -7782    -7647    -7487    -7344    -7244    -7195 
   -7184    -7177    -7179    -7213    -7281    -7371    -7454    -7515 
   -7523    -7460    -7330    -7156    -6990    -6871    -6794    -6724 
   -6646    -6575    -6517    -6463    -6432    -6450    -6516    -6593 
   -6640    -6658    -6664    -6683    -6709    -6733    -6771    -6840 
   -6924    -7005    -7106    -7246    -7404    -7541    -7624    -7642 
   -7586    -7447    -7254    -7061    -6895    -6770    -6708    -6732 
   -6852    -7047    -7299    -7591    -7889    -8171    -8424    -8612 
   -8719    -8737    -8641    -8437    -8166    -7858    -7562    -7322 
   -7119    -6952    -6859    -6847    -6902    -6990    -7072    -7115 
   -7099    -7060    -7009    -6934    -6848    -6786    -6781    -6843 
   -6943    -7079    -7248    -7418    -7555    -7659    -7728    -7747 
   -7716    -7634    -7497    -7311    -7094    -6890    -6739    -6635 
   -6579    -6597    -6704    -6859    -7032    -7240    -7480    -7726 
   -7933    -8048    -8050    -7927    -7677    -7337    -6967    -6616 
   -6327    -6150    -6099    -6133    -6227    -6376    -6562    -6744 
   -6901    -7032    -7132    -7192    -7202    -7175    -7130    -7083 
   -7044    -7014    -6975    -6914    -6839    -6767    -6711    -6667 
   -6600    -6489    -6365    -6258    -6186    -6180    -6237    -6340 
   -6496    -6682    -6856    -7002    -7122    -7219    -7279    -7283 
   -7233    -7119    -6936    -6696    -6438    -6196    -5989    -5861 
   -5845    -5944    -6124    -6354    -6637    -6944    -7223    -7442 
   -7574    -7623    -7585    -7469    -7327    -7203    -7114    -7053 
   -7020    -7028    -7083    -7176    -7277    -7353    -7418    -7466 
   -7476    -7452    -7400    -7349    -7342    -7383    -7457    -7553 
   -7659    -7746    -7794    -7821    -7831    -7799    -7730    -7623 
   -7485    -7340    -7223    -7140    -7071    -7030    -7061    -7141 
   -7219    -7254    -7245    -7222    -7209    -7192    -7146    -7078 
   -7003    -6916    -6805    -6689    -6598    -6563    -6592    -6678 
   -6809    -6939    -7034    -7065    -7023    -6934    -6822    -6727 
   -6689    -6704    -6752    -6815    -6889    -6978    -7083    -7183 
   -7258    -7311    -7335    -7322    -7281    -7221    -7144    -7055 
   -6947    -6832    -6713    -6590    -6469    -6347    -6242    -6177 
   -6157    -6188    -6280    -6430    -6620    -6843    -7071    -7253 
   -7362    -7388    -7318    -7159    -6919    -6631    -6336    -6053 
   -5822    -5683    -5620    -5607    -5617    -5630    -5644    -5686 
   -5776    -5904    -6077    -6300    -6552    -6822    -7102    -7381 
   -7624    -7784    -7863    -7894    -7874    -7761    -7580    -7352 
   -7072    -6786    -6504    -6212    -5952    -5755    -5628    -5580 
   -5621    -5759    -5968    -6208    -6460    -6750    -7055    -7322 
   -7543    -7704    -7782    -7801    -7754    -7626    -7403    -7089 
   -6756    -6436    -6129    -5877    -5698    -5589    -5574    -5637 
   -5748    -5902    -6088    -6276    -6448    -6604    -6720    -6795 
   -6845    -6890    -6939    -6988    -7063    -7159    -7258    -7349 
   -7395    -7388    -7337    -7230    -7080    -6944    -6858    -6802 
   -6789    -6889    -7107    -7393    -7711    -8033    -8319    -8502 
   -8579    -8569    -8444    -8210    -7912    -7604    -7315    -7086 
   -6966    -6967    -7096    -7321    -7591    -7877    -8139    -8338 
   -8457    -8510    -8515    -8463    -8359    -8226    -8106    -8013 
   -7927    -7892    -7931    -8006    -8124    -8276    -8454    -8649 
   -8797    -8880    -8928    -8912    -8792    -8575    -8289    -8009 
   -7803    -7697    -7689    -7754    -7875    -8028    -8164    -8243 
   -8243    -8143    -7943    -7677    -7364    -7015    -6667    -6351 
   -6110    -5980    -5962    -6058    -6259    -6509    -6770    -7036 
   -7277    -7456    -7566    -7603    -7569    -7484    -7339    -7150 
   -6916    -6625    -6342    -6127    -5987    -5976    -6134    -6409 
   -6750    -7113    -7443    -7663    -7717    -7631    -7456    -7206 
   -6921    -6656    -6446    -6282    -6160    -6104    -6114    -6127 
   -6114    -6100    -6093    -6084    -6079    -6064    -6057    -6112 
   -6223    -6388    -6605    -6820    -6978    -7051    -7040    -6948 
   -6752    -6492    -6218    -5962    -5771    -5697    -5756    -5913 
   -6164    -6531    -6990    -7497    -8028    -8540    -8968    -9239 
   -9333    -9271    -9066    -8743    -8356    -7987    -7693    -7474 
   -7311    -7214    -7214    -7331    -7555    -7836    -8139    -8444 
   -8683    -8795    -8791    -8684    -8513    -8364    -8306    -8359 
   -8509    -8731    -9022    -9358    -9676    -9938   -10129   -10227 
  -10228   -10127    -9933    -9686    -9433    -9242    -9159    -9209 
   -9393    -9632    -9856   -10027   -10123   -10130   -10057    -9917 
   -9705    -9417    -9073    -8721    -8382    -8058    -7793    -7591 
   -7465    -7446    -7507    -7650    -7890    -8190    -8513    -8846 
   -9178    -9443    -9575    -9559    -9388    -9073    -8641    -8163 
   -7746    -7450    -7306    -7306    -7392    -7514    -7635    -7726 
   -7798    -7896    -8000    -8055    -8095    -8158    -8228    -8297 
   -8352    -8398    -8426    -8410    -8360    -8274    -8135    -7944 
   -7739    -7574    -7460    -7391    -7393    -7457    -7538    -7619 
   -7700    -7784    -7886    -8004    -8139    -8267    -8340    -8360 
   -8318    -8222    -8135    -8063    -8009    -8017    -8083    -8172 
   -8263    -8326    -8357    -8363    -8329    -8255    -8172    -8093 
   -8004    -7919    -7838    -7754    -7690    -7657    -7643    -7643 
   -7663    -7678    -7655    -7601    -7520    -7404    -7269    -7129 
   -6993    -6889    -6836    -6839    -6902    -6998    -7079    -7114 
   -7087    -7010    -6902    -6763    -6625    -6527    -6469    -6463 
   -6516    -6612    -6721    -6818    -6902    -6949    -6928    -6847 
   -6717    -6531    -6323    -6119    -5917    -5748    -5653    -5628 
   -5634    -5633    -5618    -5620    -5640    -5632    -5603    -5587 
   -5585    -5614    -5665    -5714    -5733    -5701    -5632    -5555 
   -5491    -5455    -5463    -5537    -5680    -5877    -6077    -6247 
   -6399    -6540    -6677    -6794    -6880    -6940    -6959    -6925 
   -6825    -6633    -6376    -6092    -5811    -5594    -5512    -5576 
   -5776    -6069    -6392    -6701    -6952    -7109    -7146    -7041 
   -6791    -6438    -6031    -5617    -5259    -5015    -4918    -4992 
   -5224    -5576    -6003    -6455    -6880    -7242    -7524    -7704 
   -7754    -7677    -7503    -7260    -6997    -6764    -6583    -6477 
   -6465    -6528    -6627    -6747    -6870    -6963    -7047    -7122 
   -7173    -7195    -7184    -7146    -7089    -7023    -6971    -6944 
   -6917    -6845    -6744    -6619    -6434    -6214    -6022    -5881 
   -5802    -5791    -5859    -6031    -6311    -6631    -6955    -7256 
   -7499    -7707    -7870    -7973    -8067    -8151    -8203    -8248 
   -8290    -8313    -8318    -8322    -8337    -8378    -8446    -8533 
   -8614    -8653    -8653    -8635    -8612    -8590    -8527    -8407 
   -8252    -8087    -7964    -7915    -7919    -7981    -8086    -8198 
   -8313    -8414    -8446    -8384    -8248    -8105    -8016    -7990 
   -8035    -8141    -8268    -8378    -8460    -8515    -8522    -8467 
   -8349    -8172    -7987    -7815    -7661    -7535    -7437    -7419 
   -7515    -7692    -7903    -8131    -8351    -8536    -8665    -8733 
   -8756    -8743    -8676    -8579    -8479    -8382    -8309    -8270 
   -8294    -8367    -8444    -8517    -8552    -8532    -8480    -8394 
   -8241    -8020    -7804    -7636    -7482    -7317    -7148    -7017 
   -6944    -6930    -7005    -7165    -7402    -7696    -7987    -8240 
   -8410    -8446    -8349    -8139    -7857    -7545    -7217    -6893 
   -6621    -6436    -6338    -6293    -6289    -6338    -6440    -6583 
   -6760    -6951    -7127    -7294    -7434    -7515    -7551    -7573 
   -7601    -7623    -7619    -7581    -7528    -7477    -7418    -7369 
   -7389    -7493    -7647    -7805    -7940    -8024    -8013    -7905 
   -7709    -7435    -7132    -6843    -6582    -6361    -6183    -6061 
   -5999    -5995    -6052    -6148    -6247    -6334    -6404    -6465 
   -6528    -6600    -6652    -6650    -6569    -6420    -6224    -6010 
   -5811    -5656    -5566    -5539    -5529    -5502    -5466    -5424 
   -5375    -5364    -5458    -5675    -6004    -6412    -6855    -7287 
   -7652    -7894    -7996    -7923    -7654    -7246    -6759    -6255 
   -5826    -5526    -5393    -5447    -5663    -5971    -6288    -6567 
   -6748    -6770    -6617    -6322    -5945    -5555    -5223    -4992 
   -4841    -4733    -4689    -4725    -4797    -4895    -5027    -5158 
   -5290    -5468    -5697    -5965    -6249    -6527    -6775    -6940 
   -6985    -6885    -6604    -6196    -5788    -5443    -5196    -5135 
   -5281    -5557    -5930    -6373    -6809    -7145    -7342    -7378 
   -7246    -7009    -6706    -6370    -6092    -5923    -5859    -5902 
   -6010    -6114    -6227    -6349    -6423    -6460    -6500    -6531 
   -6554    -6569    -6547    -6463    -6400    -6431    -6543    -6713 
   -6943    -7192    -7404    -7564    -7636    -7603    -7468    -7221 
   -6928    -6660    -6442    -6323    -6293    -6285    -6300    -6340 
   -6419    -6508    -6569    -6608    -6620    -6586    -6516    -6426 
   -6334    -6261    -6223    -6235    -6307    -6431    -6574    -6711 
   -6817    -6910    -7015    -7099    -7122    -7049    -6868    -6609 
   -6296    -5965    -5676    -5456    -5331    -5309    -5394    -5606 
   -5935    -6331    -6754    -7184    -7599    -7939    -8143    -8186 
   -8070    -7816    -7458    -7025    -6594    -6214    -5877    -5643 
   -5540    -5537    -5605    -5729    -5925    -6164    -6363    -6477 
   -6509    -6467    -6339    -6158    -5971    -5775    -5578    -5395 
   -5258    -5198    -5242    -5395    -5647    -5940    -6204    -6403 
   -6512    -6515    -6442    -6277    -6027    -5769    -5526    -5282 
   -5081    -4977    -4923    -4880    -4872    -4865    -4874    -4946 
   -5049    -5174    -5332    -5510    -5711    -5906    -6057    -6139 
   -6124    -6048    -5954    -5827    -5665    -5493    -5287    -5036 
   -4789    -4599    -4469    -4375    -4317    -4313    -4375    -4500 
   -4683    -4884    -5098    -5331    -5566    -5815    -6081    -6335 
   -6563    -6756    -6872    -6874    -6775    -6605    -6378    -6114 
