Origin Time       2016/04/16 01:25:00
Lat.              32.753
Long.             130.762
Depth. (km)       12
Mag.              7.3
Station Code      HRS003
Station Lat.      34.8143
Station Long.     132.8418
Station Height(m) 156
Record Time       2016/04/16 01:26:02
Sampling Freq(Hz) 100Hz
Duration Time(s)  103
Dir.              E-W
Scale Factor      7845(gal)/8223790
Max. Acc. (gal)   3.933
Last Correction   2016/04/16 01:26:04
Memo.             
[...]
    3136     3123     3156     3225     3276     3261     3190     3114 
    3069     3084     3180     3353     3566     3773     3910     3960 
    3948     3901     3842     3805     3809     3846     3878     3847 
    3716     3510     3304     3163     3114     3180     3353     3561 
    3697     3685     3532     3335     3199     3191     3316     3526 
    3734     3867     3888     3802     3676     3585     3581     3659 
    3762     3840     3875     3848     3744     3573     3364     3160 
    3013     2937     2932     2971     3007     3001     2961     2918 
    2890     2895     2952     3073     3258     3484     3696     3834 
    3869     3817     3715     3601     3520     3520     3615     3751 
    3842     3839     3750     3639     3570     3586     3692     3850 
    4002     4098     4112     4051     3954     3873     3850     3880 
    3923     3935     3893     3785     3620     3445     3307     3215 
    3163     3157     3219     3343     3485     3573     3569     3481 
    3339     3184     3051     2952     2901     2898     2913     2910 
    2901     2917     2974     3063     3168     3288     3433     3592 
    3746     3870     3951     3981     3947     3867     3773     3704 
    3676     3673     3661     3597     3443     3199     2924     2697 
    2567     2546     2635     2822     3083     3369     3646     3877 
    4040     4124     4136     4085     3987     3873     3766     3684 
    3636     3646     3717     3805     3875     3928     3962     3954 
    3888     3755     3565     3350     3149     2998     2922     2948 
    3063     3234     3407     3520     3549     3522     3477     3430 
    3395     3377     3350     3283     3190     3125     3134     3231 
    3396     3593     3769     3867     3859     3767     3630     3488 
    3379     3322     3312     3329     3348     3379     3430     3473 
    3487     3481     3468     3449     3433     3450     3530     3662 
    3819     3951     4027     4040     3998     3906     3773     3605 
    3443     3329     3284     3306     3362     3439     3524     3589 
    3618     3631     3667     3738     3828     3932     4040     4125 
    4171     4182     4140     4027     3850     3653     3485     3366 
    3306     3291     3294     3298     3296     3295     3316     3366 
    3430     3489     3530     3538     3500     3419     3319     3258 
    3292     3430     3619     3776     3842     3807     3690     3530 
    3377     3273     3265     3364     3543     3759     3959     4078 
    4063     3916     3680     3418     3187     3025     2932     2895 
    2898     2925     2963     3013     3086     3187     3312     3447 
    3562     3636     3676     3686     3674     3665     3662     3634 
    3563     3476     3397     3308     3204     3114     3051     3015 
    3013     3034     3071     3126     3210     3325     3456     3572 
    3643     3657     3609     3519     3424     3362     3350     3369 
    3376     3354     3308     3242     3167     3109     3099     3118 
    3134     3132     3103     3051     2992     2975     3019     3106 
    3186     3200     3118     2961     2775     2616     2536     2552 
    2659     2830     3015     3157     3219     3203     3132     3021 
    2907     2829     2783     2751     2728     2718     2728     2759 
    2811     2856     2878     2863     2795     2667     2497     2324 
    2189     2133     2177     2312     2479     2625     2714     2740 
    2755     2825     2960     3109     3240     3349     3423     3450 
    3439     3411     3376     3336     3284     3222     3167     3130 
    3113     3117     3140     3184     3245     3311     3380     3447 
    3503     3526     3505     3458     3430     3458     3535     3615 
    3658     3659     3636     3608     3585     3573     3574     3580 
    3577     3555     3516     3470     3439     3431     3439     3443 
    3426     3381     3321     3267     3250     3276     3322     3381 
    3449     3519     3615     3755     3923     4093     4233     4297 
    4247     4105     3912     3712     3549     3454     3433     3451 
    3477     3480     3419     3257     3009     2728     2471     2284 
    2182     2150     2157     2172     2181     2191     2209     2247 
    2315     2411     2531     2660     2771     2862     2941     3018 
    3111     3246     3414     3574     3701     3767     3747     3653 
    3542     3458     3430     3462     3547     3658     3754     3800 
    3796     3771     3755     3769     3813     3871     3916     3923 
    3877     3784     3663     3539     3431     3348     3273     3198 
    3132     3107     3141     3227     3350     3485     3600     3692 
    3759     3797     3802     3781     3746     3707     3663     3608 
    3546     3489     3440     3393     3348     3310     3267     3202 
    3134     3084     3042     3014     3001     2992     2988     3001 
    3037     3096     3168     3244     3323     3419     3526     3634 
    3759     3905     4032     4098     4087     3993     3823     3626 
    3473     3373     3284     3190     3090     2978     2848     2718 
    2608     2539     2521     2542     2574     2606     2646     2706 
    2798     2922     3044     3145     3235     3304     3323     3296 
    3260     3253     3287     3345     3397     3426     3420     3375 
    3273     3127     2972     2837     2744     2705     2718     2771 
    2848     2932     3015     3083     3125     3157     3199     3232 
    3256     3264     3234     3180     3132     3098     3118     3223 
    3407     3624     3809     3917     3931     3858     3723     3555 
    3393     3279     3218     3186     3165     3167     3199     3281 
    3426     3623     3842     4047     4202     4287     4303     4294 
    4329     4444     4630     4862     5111     5339     5525     5641 
    5665     5599     5460     5266     5055     4845     4622     4376 
    4121     3874     3662     3518     3451     3447     3499     3585 
    3670     3735     3767     3750     3696     3639     3596     3563 
    3549     3554     3568     3577     3589     3607     3612     3582 
    3515     3433     3366     3326     3298     3272     3246     3219 
    3198     3184     3172     3154     3148     3160     3164     3136 
    3100     3078     3055     3030     3042     3102     3187     3284 
    3396     3518     3646     3767     3858     3917     3951     3965 
    3963     3940     3904     3877     3859     3836     3805     3761 
    3684     3551     3357     3125     2903     2729     2619     2590 
    2655     2789     2951     3125     3312     3523     3751     3973 
    4151     4263     4325     4356     4347     4283     4185     4072 
    3975     3909     3865     3835     3821     3817     3813     3817 
    3850     3916     4009     4113     4199     4251     4260     4228 
    4174     4124     4094     4099     4136     4197     4275     4353 
    4418     4463     4459     4383     4260     4117     3974     3842 
    3730     3630     3541     3472     3433     3416     3396     3343 
    3254     3129     2959     2740     2490     2241     2027     1894 
    1854     1894     1998     2147     2301     2416     2465     2458 
    2435     2446     2524     2695     2949     3237     3492     3685 
    3817     3896     3931     3936     3920     3892     3865     3854 
    3869     3906     3955     4008     4048     4052     4001     3908 
    3794     3672     3549     3445     3388     3388     3422     3450 
    3464     3451     3410     3358     3310     3269     3265     3316 
    3434     3604     3789     3950     4071     4129     4104     4013 
    3901     3784     3663     3554     3462     3379     3288     3191 
    3102     3028     2965     2928     2917     2922     2938     2964 
    2991     3010     3029     3052     3069     3076     3090     3144 
    3242     3366     3508     3665     3838     4003     4137     4220 
    4256     4263     4253     4251     4266     4283     4282     4248 
    4163     4014     3836     3678     3584     3586     3699     3885 
    4072     4195     4210     4104     3908     3692     3507     3372 
    3298     3280     3288     3291     3267     3192     3067     2882 
    2621     2309     2004     1749     1580     1514     1548     1676 
    1872     2084     2261     2381     2442     2463     2475     2527 
    2656     2879     3167     3456     3686     3816     3844     3797 
    3694     3550     3400     3275     3184     3125     3096     3103 
    3157     3265     3415     3591     3769     3916     4006     4055 
    4083     4074     4005     3901     3816     3800     3873     4031 
    4248     4490     4702     4806     4754     4554     4245     3865 
    3456     3061     2727     2477     2324     2257     2235     2234 
    2234     2212     2162     2104     2050     2026     2058     2153 
    2295     2473     2662     2841     3014     3192     3387     3611 
    3861     4106     4321     4502     4637     4712     4743     4757 
    4777     4807     4833     4839     4823     4779     4722     4676 
    4653     4645     4660     4703     4772     4854     4922     4953 
    4947     4915     4870     4843     4834     4816     4761     4650 
    4476     4261     4031     3811     3634     3518     3462     3457 
    3470     3472     3472     3491     3532     3578     3626     3670 
    3690     3674     3626     3559     3497     3457     3427     3410 
    3429     3487     3568     3649     3716     3770     3825     3892 
    3962     4008     3998     3928     3828     3723     3624     3547 
    3508     3511     3535     3532     3487     3391     3248     3082 
    2933     2837     2805     2826     2871     2886     2840     2752 
    2655     2583     2575     2629     2717     2818     2910     2972 
    3011     3053     3121     3207     3299     3379     3442     3497 
    3557     3620     3703     3807     3906     3981     4006     3951 
    3812     3615     3400     3194     3007     2836     2666     2481 
    2273     2039     1803     1610     1498     1480     1551     1683 
    1838     2004     2187     2401     2656     2957     3296     3649 
    3982     4258     4446     4553     4633     4696     4735     4748 
    4715     4606     4405     4109     3748     3364     3005     2721 
    2528     2421     2400     2432     2479     2506     2492     2438 
    2343     2211     2053     1875     1680     1489     1323     1215 
    1196     1260     1393     1578     1786     1981     2135     2238 
    2311     2394     2517     2690     2898     3119     3350     3595 
    3836     4068     4302     4527     4707     4807     4804     4695 
    4502     4274     4068     3940     3910     3969     4060     4112 
    4093     4014     3906     3808     3747     3735     3751     3751 
    3700     3581     3407     3227     3051     2895     2797     2739 
    2685     2624     2544     2439     2319     2201     2098     2041 
    2046     2115     2234     2397     2602     2862     3204     3640 
    4140     4668     5152     5521     5718     5730     5593     5355 
    5058     4747     4475     4271     4133     4021     3912     3800 
    3673     3532     3383     3221     3053     2875     2679     2520 
    2442     2430     2474     2562     2663     2786     2936     3087 
    3234     3383     3539     3693     3808     3874     3906     3901 
    3863     3813     3773     3770     3805     3858     3899     3901 
    3861     3798     3719     3630     3523     3379     3194     2988 
    2767     2558     2404     2322     2330     2442     2647     2913 
    3213     3550     3928     4309     4646     4927     5125     5193 
    5116     4889     4521     4081     3630     3200     2857     2627 
    2496     2467     2524     2639     2805     3011     3253     3524 
    3805     4074     4305     4463     4548     4567     4548     4525 
    4525     4573     4668     4768     4834     4855     4831     4770 
    4676     4554     4436     4306     4132     3912     3677     3472 
    3341     3295     3316     3392     3524     3667     3776     3878 
    4001     4167     4411     4698     4962     5175     5296     5296 
    5185     4980     4714     4433     4174     3986     3910     3951 
    4079     4252     4430     4581     4679     4720     4706     4646 
    4568     4492     4434     4392     4333     4236     4099     3912 
    3669     3391     3080     2725     2338     1949     1582     1273 
    1044      932      961     1097     1289     1509     1719     1906 
    2087     2263     2448     2652     2843     2990     3075     3090 
    3056     3006     2982     2990     3003     2999     2963     2862 
    2681     2438     2169     1902     1649     1418     1224     1085 
    1020     1050     1179     1424     1799     2282     2825     3372 
    3870     4295     4641     4908     5108     5242     5313     5352 
    5360     5298     5169     4986     4725     4407     4083     3761 
    3462     3210     2995     2826     2720     2687     2727     2813 
    2936     3095     3277     3457     3618     3746     3828     3840 
    3766     3586     3307     2975     2647     2377     2214     2170 
    2234     2385     2590     2806     3028     3248     3446     3649 
    3905     4233     4611     4992     5323     5567     5737     5848 
    5892     5913     5950     6019     6151     6346     6567     6813 
    7063     7285     7465     7570     7578     7492     7304     7029 
    6697     6359     6070     5844     5668     5556     5502     5483 
    5495     5517     5537     5563     5575     5576     5580     5552 
    5459     5283     5019     4671     4260     3848     3485     3179 
    2964     2887     2940     3078     3254     3418     3526     3563 
    3534     3457     3360     3288     3303     3440     3703     4055 
    4436     4781     5060     5258     5367     5420     5456     5481 
    5490     5498     5498     5481     5454     5418     5381     5359 
    5352     5351     5339     5301     5233     5143     5012     4849 
    4702     4604     4572     4617     4718     4799     4811     4764 
    4653     4452     4172     3848     3519     3235     3028     2880 
    2768     2674     2569     2432     2273     2110     1949     1807 
    1729     1733     1818     1995     2259     2562     2857     3144 
    3412     3653     3861     4036     4171     4263     4313     4309 
    4263     4187     4101     4029     3951     3861     3790     3753 
    3747     3797     3904     4054     4241     4450     4648     4831 
    5008     5193     5397     5598     5772     5937     6079     6178 
    6245     6285     6293     6252     6123     5864     5495     5098 
    4761     4530     4419     4426     4494     4541     4511     4406 
    4291     4228     4232     4302     4409     4491     4518     4496 
    4441     4374     4313     4276     4266     4241     4151     3994 
    3776     3511     3256     3046     2894     2797     2732     2682 
    2647     2641     2698     2844     3075     3376     3738     4153 
    4583     4932     5134     5202     5166     5012     4769     4496 
    4212     3931     3694     3499     3323     3169     3036     2913 
    2808     2721     2640     2578     2559     2602     2720     2876 
    2990     3011     2938     2795     2648     2559     2536     2562 
    2616     2679     2724     2739     2747     2775     2833     2928 
    3033     3096     3111     3127     3184     3306     3510     3766 
    4031     4280     4514     4714     4864     4969     5040     5078 
    5060     4965     4781     4509     4178     3840     3528     3271 
    3064     2880     2705     2540     2381     2228     2100     2022 
    2016     2091     2227     2412     2635     2911     3249     3649 
    4095     4529     4881     5108     5190     5139     4976     4737 
    4472     4220     4000     3790     3566     3319     3038     2721 
    2420     2192     2087     2124     2280     2500     2743     2974 
    3179     3379     3584     3801     4058     4360     4657     4882 
    4986     4936     4752     4469     4117     3736     3375     3069 
    2835     2666     2551     2473     2421     2403     2415     2442 
    2470     2506     2558     2635     2743     2859     2972     3107 
    3253     3393     3559     3754     3944     4104     4209     4248 
    4223     4153     4064     3983     3936     3944     4012     4137 
    4329     4599     4934     5289     5613     5880     6081     6219 
    6326     6442     6592     6748     6855     6881     6801     6588 
    6245     5798     5293     4783     4301     3861     3477     3180 
    2986     2868     2789     2732     2685     2644     2598     2525 
    2403     2205     1925     1583     1244      981      850      868 
    1017     1266     1568     1876     2161     2413     2643     2856 
    3041     3184     3261     3256     3190     3086     2963     2839 
    2704     2529     2319     2107     1919     1760     1625     1513 
    1428     1381     1370     1404     1494     1606     1713     1815 
    1927     2068     2270     2519     2759     2960     3090     3133 
    3136     3153     3253     3492     3842     4222     4556     4760 
    4795     4695     4510     4305     4136     4014     3902     3754 
    3532     3242     2910     2565     2246     1975     1764     1609 
    1475     1308     1071      757      413      109      -74      -98 
      16      214      437      638      800      931     1067     1239 
    1451     1667     1841     1933     1914     1788     1602     1418 
    1290     1248     1300     1426     1614     1844     2077     2265 
    2378     2424     2435     2442     2490     2608     2779     2952 
    3078     3125     3080     2967     2832     2735     2729     2828 
    2991     3172     3329     3411     3412     3372     3310     3223 
    3127     2995     2794     2524     2182     1813     1487     1221 
     989      766      538      307       87      -86     -144      -54 
     187      557     1020     1513     1953     2262     2412     2409 
    2289     2110     1927     1772     1667     1605     1559     1512 
    1466     1429     1435     1522     1715     2011     2397     2832 
    3237     3553     3789     3950     4058     4170     4314     4491 
    4704     4907     5031     5054     4943     4692     4345     3954 
    3566     3231     2979     2805     2674     2538     2384     2219 
    2061     1944     1892     1915     2012     2166     2336     2479 
    2597     2737     2913     3095     3265     3418     3537     3623 
    3699     3781     3854     3889     3883     3863     3858     3882 
    3937     3994     4010     3948     3782     3527     3213     2872 
    2532     2204     1887     1590     1308     1053      872      810 
     882     1073     1324     1560     1710     1755     1701     1576 
    1439     1362     1410     1620     1923     2208     2404     2475 
    2432     2334     2235     2161     2121     2104     2064     1972 
    1850     1752     1733     1825     2026     2293     2565     2792 
    2945     3028     3073     3100     3113     3115     3127     3160 
    3230     3353     3484     3593     3680     3716     3716     3723 
