Origin Time       2016/04/16 01:25:00
Lat.              32.753
Long.             130.762
Depth. (km)       12
Mag.              7.3
Station Code      HRS004
Station Lat.      34.7262
Station Long.     132.2772
Station Height(m) 586
Record Time       2016/04/16 01:25:52
Sampling Freq(Hz) 100Hz
Duration Time(s)  99
Dir.              N-S
Scale Factor      7845(gal)/8223790
Max. Acc. (gal)   3.297
Last Correction   2016/04/16 01:25:53
Memo.             
[...]
    4017     3994     3823     3576     3339     3171     3111     3164 
    3284     3395     3458     3495     3530     3570     3650     3776 
    3877     3898     3850     3755     3623     3481     3385     3375 
    3433     3520     3600     3649     3657     3620     3551     3495 
    3522     3651     3816     3954     4043     4064     4031     3983 
    3942     3880     3766     3597     3414     3258     3164     3154 
    3235     3336     3373     3348     3310     3276     3219     3145 
    3121     3177     3268     3349     3437     3523     3547     3489 
    3397     3326     3299     3298     3312     3350     3360     3281 
    3137     3041     3057     3150     3300     3523     3766     3919 
    3919     3792     3585     3334     3123     3059     3165     3411 
    3730     4024     4197     4205     4033     3740     3438     3238 
    3190     3268     3412     3554     3634     3650     3655     3713 
    3820     3909     3940     3910     3824     3711     3638     3618 
    3604     3582     3559     3526     3470     3410     3350     3272 
    3179     3130     3176     3314     3487     3622     3662     3599 
    3464     3323     3249     3269     3333     3388     3440     3492 
    3542     3599     3713     3921     4209     4498     4698     4781 
    4765     4665     4507     4351     4248     4202     4185     4168 
    4140     4121     4113     4077     3984     3861     3761     3731 
    3805     3983     4205     4384     4469     4423     4237     3984 
    3780     3674     3658     3738     3908     4094     4195     4194 
    4136     4059     3986     3913     3817     3730     3673     3612 
    3527     3456     3451     3530     3653     3786     3889     3901 
    3771     3528     3261     3036     2902     2914     3078     3300 
    3478     3569     3570     3507     3453     3492     3659     3910 
    4168     4341     4367     4251     4041     3797     3596     3499 
    3508     3574     3622     3607     3537     3443     3373     3354 
    3380     3433     3495     3553     3599     3640     3694     3765 
    3838     3894     3916     3894     3834     3738     3613     3527 
    3543     3655     3804     3940     4032     4058     3991     3850 
    3694     3555     3397     3223     3107     3087     3152     3300 
    3489     3636     3711     3765     3842     3923     3978     4014 
    4045     4074     4095     4112     4137     4155     4140     4113 
    4078     4023     3951     3893     3889     3947     4012     4043 
    4066     4090     4074     3991     3904     3889     3979     4137 
    4295     4391     4390     4298     4140     3963     3811     3723 
    3715     3771     3844     3879     3865     3820     3782     3786 
    3820     3828     3811     3798     3811     3846     3894     3928 
    3909     3821     3694     3574     3496     3443     3406     3416 
    3504     3631     3721     3738     3738     3771     3824     3859 
    3867     3832     3743     3627     3535     3504     3551     3670 
    3823     3940     3947     3828     3638     3443     3296     3221 
    3217     3265     3353     3453     3538     3578     3559     3474 
    3335     3176     3060     3048     3152     3330     3532     3719 
    3832     3820     3713     3558     3395     3277     3240     3267 
    3335     3430     3519     3581     3615     3646     3694     3757 
    3824     3888     3925     3937     3932     3904     3874     3893 
    3951     4002     4016     3994     3937     3874     3855     3898 
    3970     4032     4074     4095     4088     4040     3944     3832 
    3759     3776     3880     4025     4175     4303     4371     4342 
    4220     4052     3877     3738     3699     3789     3973     4163 
    4271     4260     4125     3912     3711     3611     3626     3712 
    3847     4028     4210     4298     4225     4023     3782     3549 
    3341     3227     3272     3450     3676     3886     4066     4182 
    4199     4152     4126     4151     4192     4232     4256     4256 
    4241     4222     4187     4110     3986     3874     3851     3912 
    3997     4093     4203     4297     4327     4326     4336     4330 
    4256     4105     3927     3766     3620     3495     3451     3547 
    3726     3879     3984     4039     4013     3919     3811     3736 
    3738     3840     4017     4203     4325     4359     4334     4289 
    4243     4200     4153     4095     4036     3954     3800     3588 
    3420     3395     3524     3774     4093     4382     4495     4380 
    4132     3878     3684     3589     3622     3769     3979     4197 
    4357     4425     4410     4322     4178     4048     4017     4071 
    4112     4083     3990     3825     3618     3451     3388     3392 
    3403     3431     3481     3500     3483     3504     3603     3712 
    3766     3780     3798     3828     3861     3901     3910     3811 
    3596     3365     3203     3118     3102     3130     3136     3109 
    3133     3244     3411     3588     3703     3708     3609     3447 
    3289     3187     3136     3100     3067     3051     3059     3059 
    3044     3083     3213     3404     3608     3754     3770     3639 
    3411     3159     2945     2843     2913     3140     3430     3672 
    3780     3699     3427     3069     2778     2632     2643     2787 
    2980     3105     3109     3024     2882     2767     2798     3018 
    3315     3537     3636     3657     3639     3650     3770     3991 
    4205     4298     4243     4094     3921     3757     3611     3507 
    3453     3450     3500     3588     3713     3858     3927     3836 
    3631     3457     3443     3645     4055     4580     4989     5066 
    4797     4315     3769     3289     3030     3119     3510     3951 
    4228     4297     4162     3851     3501     3299     3331     3510 
    3693     3828     3863     3738     3534     3393     3339     3317 
    3339     3442     3585     3667     3658     3605     3549     3523 
    3569     3658     3744     3838     3921     3925     3838     3709 
    3578     3446     3358     3423     3674     4025     4334     4467 
    4298     3836     3283     2875     2694     2716     2911     3215 
    3507     3716     3846     3888     3797     3585     3357     3217 
    3191     3276     3453     3618     3653     3535     3323     3086 
    2929     2957     3213     3626     4020     4225     4194     3969 
    3612     3219     2929     2833     2901     3087     3402     3784 
    4058     4124     4047     3888     3669     3470     3393     3500 
    3746     3994     4140     4149     4029     3805     3514     3237 
    3082     3059     3129     3307     3557     3776     3927     4003 
    3975     3819     3584     3373     3256     3227     3275     3377 
    3501     3634     3759     3835     3811     3653     3418     3240 
    3226     3407     3754     4125     4353     4341     4104     3742 
    3420     3276     3361     3636     3969     4190     4222     4118 
    3982     3869     3811     3851     3974     4104     4197     4256 
    4255     4155     3986     3811     3653     3542     3514     3589 
    3715     3828     3920     3956     3919     3840     3747     3650 
    3568     3535     3626     3832     4052     4222     4337     4363 
    4230     3944     3634     3433     3349     3352     3458     3653 
    3817     3863     3847     3840     3815     3785     3856     4031 
    4153     4132     4036     3955     3899     3890     3982     4185 
    4384     4436     4320     4117     3901     3690     3491     3358 
    3348     3423     3537     3665     3757     3771     3688     3519 
    3357     3310     3343     3372     3410     3488     3550     3523 
    3418     3283     3142     3034     3041     3202     3465     3748 
    3996     4192     4295     4266     4163     4036     3855     3615 
    3384     3215     3141     3196     3427     3827     4233     4433 
    4355     4093     3774     3458     3202     3138     3339     3694 
    4044     4311     4445     4409     4232     4005     3859     3902 
    4129     4426     4689     4872     4920     4801     4588     4406 
    4313     4293     4325     4422     4591     4772     4872     4846 
    4716     4545     4390     4237     4045     3824     3615     3430 
    3257     3176     3303     3615     3937     4136     4202     4145 
    3990     3846     3815     3867     3896     3865     3808     3759 
    3747     3778     3824     3858     3877     3883     3905     3954 
    3979     3898     3689     3446     3292     3307     3523     3906 
    4329     4629     4710     4585     4326     4027     3762     3565 
    3456     3477     3615     3784     3910     3946     3856     3712 
    3674     3824     4055     4209     4222     4118     3904     3615 
    3364     3261     3357     3595     3850     4029     4105     4067 
    3946     3851     3863     3960     4085     4186     4238     4209 
    4082     3915     3782     3735     3809     4008     4291     4579 
    4738     4692     4510     4271     4002     3755     3620     3632 
    3759     3919     4033     4087     4095     4050     3969     3898 
    3861     3859     3871     3882     3899     3927     3937     3954 
    4055     4252     4460     4610     4695     4739     4743     4661 
    4504     4374     4363     4480     4653     4814     4938     4974 
    4907     4787     4633     4450     4305     4268     4348     4514 
    4746     5015     5239     5363     5401     5337     5112     4757 
    4383     4071     3840     3703     3669     3694     3721     3742 
    3738     3650     3466     3248     3042     2884     2828     2894 
    3028     3168     3257     3254     3144     2953     2752     2623 
    2562     2529     2551     2617     2636     2567     2450     2309 
    2151     1998     1910     1966     2185     2502     2833     3121 
    3329     3453     3551     3692     3883     4125     4392     4595 
    4623     4437     4097     3757     3527     3443     3535     3792 
    4132     4433     4571     4527     4402     4301     4293     4376 
    4511     4642     4669     4515     4256     4025     3852     3732 
    3696     3762     3874     3942     3942     3932     3947     3984 
    4052     4162     4289     4348     4263     4054     3781     3499 
    3257     3122     3113     3159     3165     3109     3014     2874 
    2682     2497     2403     2454     2620     2806     2975     3148 
    3292     3345     3350     3396     3508     3686     3906     4104 
    4223     4237     4153     4028     3929     3915     4006     4178 
    4374     4529     4573     4509     4395     4276     4176     4144 
    4190     4240     4200     4072     3940     3835     3738     3688 
    3715     3766     3766     3689     3573     3470     3399     3369 
    3393     3435     3465     3504     3601     3762     3929     4047 
    4102     4095     4029     3948     3929     4000     4087     4121 
    4133     4189     4284     4375     4444     4487     4441     4278 
    4109     4029     4025     4055     4091     4067     3942     3732 
    3503     3317     3203     3156     3179     3289     3465     3630 
    3712     3704     3634     3520     3423     3400     3410     3402 
    3379     3354     3343     3380     3485     3661     3863     4021 
    4071     3978     3776     3538     3303     3130     3102     3204 
    3357     3510     3645     3757     3850     3935     4047     4192 
    4341     4460     4521     4538     4568     4635     4700     4727 
    4722     4720     4725     4685     4565     4382     4203     4081 
    4016     3984     3964     3939     3921     3932     3950     3964 
    3986     3974     3859     3662     3473     3365     3354     3430 
    3597     3808     3946     3943     3809     3555     3225     2943 
    2828     2879     3015     3180     3325     3364     3288     3160 
    2986     2772     2590     2505     2504     2535     2573     2610 
    2613     2567     2517     2521     2600     2740     2920     3103 
    3230     3258     3206     3090     2924     2772     2700     2691 
    2712     2764     2874     2975     2974     2898     2848     2863 
    2953     3153     3492     3901     4232     4419     4541     4641 
    4699     4738     4826     4985     5147     5219     5177     5031 
    4769     4444     4190     4093     4129     4241     4378     4469 
    4425     4233     3996     3817     3755     3831     4008     4172 
    4243     4200     4047     3812     3582     3442     3429     3527 
    3681     3819     3867     3761     3492     3148     2863     2712 
    2697     2802     2978     3102     3107     3038     2953     2860 
    2813     2917     3191     3511     3776     3987     4139     4205 
    4256     4421     4726     5119     5528     5857     6018     6006 
    5884     5717     5552     5451     5464     5580     5738     5900 
    6038     6077     5967     5764     5552     5383     5319     5363 
    5448     5501     5485     5366     5125     4818     4549     4409 
    4410     4491     4535     4444     4223     3971     3759     3615 
    3588     3686     3802     3821     3696     3402     2957     2477 
    2104     1910     1875     1917     1941     1881     1732     1507 
    1210      868      583      450      464      565      746     1000 
    1239     1368     1370     1221      950      657      425      292 
     272      356      499      658      795      854      810      702 
     608      561      556      599      700      819      939     1119 
    1390     1694     1915     1977     1887     1705     1490     1313 
    1233     1270     1399     1587     1780     1925     1998     2010 
    1999     2027     2163     2400     2685     2949     3152     3281 
    3335     3331     3325     3357     3445     3597     3765     3880 
    3948     3987     3993     3991     4051     4205     4409     4606 
    4788     4943     5024     5017     4939     4814     4706     4710 
    4893     5232     5655     6095     6475     6721     6799     6706 
    6501     6284     6095     5945     5869     5879     5942     6021 
    6095     6169     6224     6234     6207     6137     6025     5892 
    5746     5587     5452     5355     5267     5175     5082     4986 
    4918     4938     5073     5258     5374     5333     5125     4791 
    4387     4009     3797     3824     4028     4284     4455     4440 
    4205     3813     3393     3061     2853     2785     2876     3090 
    3298     3395     3358     3171     2813     2357     1934     1626 
    1437     1348     1363     1483     1665     1826     1921     1988 
    2126     2347     2613     2934     3291     3523     3492     3206 
    2781     2388     2209     2351     2766     3316     3875     4318 
    4556     4591     4467     4214     3906     3655     3557     3680 
    4055     4617     5219     5744     6120     6313     6346     6328 
    6386     6542     6723     6824     6747     6434     5942     5404 
    4905     4449     4023     3657     3402     3277     3272     3415 
    3757     4258     4807     5298     5663     5850     5846     5663 
    5354     5058     4916     4981     5242     5648     6084     6404 
    6535     6493     6315     6054     5798     5609     5464     5294 
    5038     4689     4291     3940     3735     3709     3871     4199 
    4591     4891     5016     4996     4876     4675     4459     4322 
    4263     4215     4164     4135     4095     4013     3908     3847 
    3898     4051     4220     4306     4248     4078     3883     3757 
    3721     3719     3653     3485     3252     2986     2729     2542 
    2434     2388     2420     2548     2740     2929     3083     3171 
    3134     2957     2683     2378     2089     1842     1672     1603 
    1594     1637     1836     2239     2731     3150     3384     3338 
    3003     2523     2098     1895     1962     2201     2413     2455 
    2305     2027     1755     1655     1850     2319     2841     3204 
    3373     3438     3495     3612     3805     4039     4266     4490 
    4762     5092     5366     5470     5390     5169     4843     4484 
    4190     4013     3967     4035     4140     4191     4117     3878 
    3510     3073     2600     2141     1790     1649     1799     2231 
    2802     3287     3495     3339     2867     2220     1606     1240 
    1262     1634     2173     2688     3096     3342     3341     3055 
    2578     2083     1749     1729     2026     2444     2755     2832 
    2651     2261     1775     1372     1228     1387     1729     2084 
    2326     2378     2246     2018     1800     1624     1462     1320 
    1248     1286     1433     1674     1977     2269     2486     2654 
    2817     3006     3249     3572     3964     4344     4598     4714 
    4725     4638     4469     4215     3856     3434     3029     2770 
    2817     3199     3759     4294     4652     4784     4750     4660 
    4585     4548     4549     4610     4762     5011     5282     5468 
    5497     5319     4908     4368     3889     3624     3631     3897 
    4359     4903     5374     5638     5670     5544     5379     5290 
    5377     5647     5980     6216     6223     5934     5390     4699 
    3993     3422     3092     3014     3125     3335     3553     3662 
    3584     3289     2767     2052     1312      800      734     1188 
    2015     2918     3619     4005     4112     4017     3824     3640 
    3500     3372     3238     3148     3198     3442     3800     4101 
    4238     4225     4131     4039     4014     4074     4195     4321 
    4405     4460     4538     4652     4760     4850     4969     5119 
    5206     5159     4993     4761     4568     4568     4834     5309 
    5867     6347     6616     6627     6420     6100     5803     5613 
    5481     5309     5065     4779     4502     4337     4403     4710 
    5084     5232     4986     4452     3858     3395     3202     3348 
    3767     4313     4807     5097     5127     4956     4692     4441 
    4287     4266     4356     4448     4398     4164     3785     3325 
    2894     2633     2594     2686     2749     2660     2377     1923 
    1386      918      654      656      915     1333     1737     1984 
    2019     1900     1775     1767     1898     2128     2366     2496 
    2455     2263     2012     1804     1707     1760     1949     2195 
    2389     2463     2423     2324     2232     2199     2226     2281 
    2370     2485     2544     2484     2332     2188     2089     2016 
    1980     1999     2026     1992     1895     1784     1752     1818 
    1890     1906     1934     2023     2110     2119     2062     1989 
    1960     2033     2257     2631     3055     3345     3384     3210 
    2938     2708     2652     2895     3485     4297     5011     5304 
    5051     4344     3429     2666     2390     2704     3435     4248 
    4779     4800     4348     3643     2978     2570     2484     2648 
    2920     3109     3063     2775     2404     2155     2203     2582 
    3152     3694     4060     4210     4212     4151     4047     3866 
    3601     3345     3262     3462     3932     4556     5101     5314 
    5085     4502     3824     3361     3296     3627     4197     4760 
