Origin Time       2016/04/16 01:25:00
Lat.              32.753
Long.             130.762
Depth. (km)       12
Mag.              7.3
Station Code      HRS014
Station Lat.      34.2869
Station Long.     132.2766
Station Height(m) 3
Record Time       2016/04/16 01:25:45
Sampling Freq(Hz) 100Hz
Duration Time(s)  113
Dir.              E-W
Scale Factor      7845(gal)/8223790
Max. Acc. (gal)   14.705
Last Correction   2016/04/16 01:25:45
Memo.             
[...]
     356     -344     -886    -1193    -1314    -1340    -1332    -1287 
   -1183    -1017     -757     -372       85      552      993     1344 
    1498     1381     1063      735      581      707     1053     1425 
    1726     1977     2149     2154     1899     1367      706      110 
    -349     -677     -908    -1107    -1340    -1711    -2236    -2759 
   -3161    -3412    -3496    -3431    -3275    -3063    -2802    -2494 
   -2110    -1593     -918     -112      764     1617     2358     2951 
    3352     3470     3261     2799     2286     1961     1921     2119 
    2457     2731     2737     2439     1891     1183      440     -240 
    -745    -1000    -1028     -899     -719     -621     -679     -893 
   -1232    -1647    -2069    -2398    -2486    -2238    -1711    -1074 
    -537     -246     -189     -271     -402     -490     -513     -499 
    -430     -240      137      681     1316     1996     2662     3232 
    3650     3861     3823     3472     2749     1729      599     -476 
   -1382    -2018    -2384    -2567    -2647    -2651    -2565    -2376 
   -2089    -1692    -1140     -391      526     1487     2322     2889 
    3121     3075     2863     2583     2305     2038     1718     1278 
     706       47     -558     -973    -1135    -1044     -765     -414 
    -140      -93     -309     -743    -1321    -1908    -2381    -2724 
   -2956    -3037    -2940    -2714    -2461    -2262    -2115    -1965 
   -1752    -1464    -1144     -851     -629     -448     -241       20 
     340      695     1017     1196     1175     1023      849      680 
     521      453      561      792     1023     1162     1163     1050 
     884      746      707      731      785      913     1132     1401 
    1664     1815     1725     1366      892      514      310      279 
     395      548      565      319     -202     -881    -1572    -2160 
   -2520    -2586    -2365    -1883    -1235     -631     -265     -202 
    -387     -707    -1060    -1381    -1615    -1748    -1757    -1621 
   -1368    -1038     -634     -201      174      425      553      610 
     688      857     1155     1564     2000     2374     2613     2687 
    2650     2574     2515     2458     2355     2215     2074     1964 
    1937     1977     1981     1852     1506      942      249     -484 
   -1152    -1653    -1907    -1884    -1698    -1543    -1570    -1875 
   -2470    -3221    -3851    -4109    -3920    -3399    -2717    -1972 
   -1185     -351      490     1229     1784     2130     2284     2262 
    2104     1956     1982     2170     2376     2504     2524     2408 
    2097     1624     1175      955     1065     1431     1792     1883 
    1594      945       32     -949    -1829    -2551    -3095    -3395 
   -3387    -3073    -2542    -1930    -1364     -850     -336      164 
     612      953     1101     1055      895      691      504      380 
     340      390      488      575      540      255     -248     -780 
   -1162    -1296    -1171     -877     -502      -62      446      934 
    1254     1347     1264     1117      985      884      796      685 
     537      400      337      303      171     -106     -457     -795 
   -1060    -1209    -1183     -984     -664     -265      129      425 
     639      812      899      855      714      526      334      195 
     175      225      228      176      133       99       63        5 
    -135     -461    -1071    -2025    -3242    -4492    -5501    -6096 
   -6216    -5860    -5182    -4487    -3967    -3534    -2983    -2266 
   -1499     -772     -112      453      951     1404     1799     2153 
    2473     2776     3090     3407     3724     4028     4233     4220 
    3908     3354     2770     2312     2007     1878     1956     2178 
    2327     2170     1682     1069      592      398      518      895 
    1366     1671     1593     1175      645      187     -112     -232 
    -206     -143     -160     -379     -911    -1728    -2656    -3523 
   -4186    -4549    -4587    -4360    -3956    -3437    -2909    -2465 
   -2012    -1300     -263      849     1761     2331     2527     2419 
    2116     1721     1340     1116     1185     1575     2154     2675 
    2934     2906     2712     2481     2182     1648      849       23 
    -600    -1044    -1439    -1798    -2025    -2107    -2064    -1842 
   -1509    -1274    -1344    -1787    -2367    -2728    -2764    -2656 
   -2590    -2635    -2752    -2822    -2710    -2365    -1837    -1232 
    -642     -141      249      571      773      753      450     -129 
    -853    -1502    -1919    -2011    -1823    -1483    -1098     -730 
    -342      159      776     1412     1968     2409     2748     2949 
    2933     2669     2184     1603     1119      758      433      105 
    -306     -947    -1826    -2733    -3442    -3812    -3715    -3210 
   -2668    -2421    -2459    -2538    -2438    -2106    -1649    -1181 
    -707     -186      344      766     1013     1058      723     -110 
   -1165    -2053    -2666    -3011    -3037    -2782    -2461    -2312 
   -2358    -2400    -2239    -1744     -861      248     1313     2269 
    3203     4104     4852     5321     5440     5270     4884     4309 
    3732     3459     3524     3666     3638     3343     2767     1917 
     932      109     -351     -445     -232      228      807     1333 
    1684     1773     1530      981      272     -441    -1081    -1617 
   -2023    -2245    -2238    -2061    -1892    -1921    -2226    -2766 
   -3430    -4039    -4422    -4483    -4186    -3611    -2921    -2236 
   -1586    -1016     -626     -369      -99      189      467      735 
     800      429     -319    -1242    -2160    -3014    -3821    -4504 
   -4997    -5278    -5277    -4953    -4288    -3267    -2034     -812 
     283     1181     1817     2153     2161     1842     1277      634 
      86     -252     -302      -39      421      842     1113     1386 
    1852     2467     2980     3191     3141     2937     2623     2266 
    1960     1741     1605     1452     1092      448     -367    -1278 
   -2335    -3464    -4367    -4862    -5097    -5393    -6026    -6968 
   -7809    -8162    -8007    -7553    -6922    -6085    -5040    -3883 
   -2700    -1570     -577      216      741     1060     1347     1626 
    1846     2053     2313     2669     3192     3924     4745     5440 
    5863     5950     5692     5167     4544     3967     3491     3084 
    2666     2177     1628     1050      484      -47     -599    -1135 
   -1480    -1530    -1328     -989     -689     -572     -673     -890 
   -1132    -1462    -1954    -2651    -3578    -4610    -5530    -6239 
   -6711    -6905    -6771    -6303    -5621    -4955    -4396    -3854 
   -3227    -2440    -1485     -459      434      963     1071     1000 
    1088     1471     2068     2712     3261     3618     3776     3846 
    3906     3971     4085     4252     4399     4502     4622     4746 
    4723     4423     3923     3373     2870     2377     1726      857 
     -40     -765    -1275    -1706    -2196    -2701    -3065    -3194 
   -3009    -2463    -1691     -950     -446     -299     -495     -845 
   -1117    -1212    -1165    -1017     -747     -326      202      683 
     892      738      342      -89     -348     -268       93      459 
     660      835     1179     1664     2165     2621     3075     3653 
    4380     5027     5374     5454     5410     5341     5262     5119 
    4887     4496     3859     3032     2172     1372      715      289 
     137      159       86     -259     -822    -1457    -1999    -2278 
   -2304    -2234    -2184    -2254    -2506    -2874    -3246    -3483 
   -3511    -3450    -3407    -3434    -3591    -3871    -4251    -4698 
   -5093    -5268    -5158    -4826    -4393    -3886    -3244    -2473 
   -1595     -602      434     1354     2038     2542     2947     3221 
    3292     3127     2790     2444     2227     2192     2371     2633 
    2747     2690     2505     2176     1776     1399     1132     1060 
    1131     1183     1092      797      274     -486    -1352    -2095 
   -2506    -2454    -1991    -1358     -733     -194      131      157 
     -58     -338     -483     -398     -155      149      456      688 
     710      364     -306    -1060    -1742    -2304    -2662    -2786 
   -2764    -2659    -2427    -2027    -1480     -827      -70      816 
    1826     2882     3859     4594     4847     4471     3563     2408 
    1344      634      287       95     -201     -707    -1324    -1884 
   -2211    -2168    -1806    -1302     -753     -202      284      699 
    1024     1158      929      246     -773    -1919    -3010    -3846 
   -4309    -4464    -4467    -4438    -4425    -4386    -4306    -4187 
   -4047    -3994    -4114    -4369    -4696    -5027    -5296    -5390 
   -5205    -4779    -4222    -3600    -2945    -2259    -1524     -711 
     190     1111     1975     2789     3574     4340     5055     5637 
    6046     6277     6292     6115     5792     5292     4606     3794 
    2940     2174     1602     1204      907      646      348      -28 
    -490    -1021    -1567    -2049    -2442    -2770    -3029    -3164 
   -3134    -2953    -2664    -2301    -1821    -1166     -370      490 
    1337     2037     2485     2685     2752     2862     3092     3458 
    3991     4618     5167     5676     6292     6916     7408     7740 
    7900     7969     8031     8073     8089     8067     7983     7827 
    7588     7279     6918     6475     5957     5413     4811     4136 
    3392     2519     1528      472     -649    -1946    -3565    -5451 
   -7416    -9315   -10980   -12282   -13155   -13522   -13252   -12245 
  -10557    -8461    -6252    -4013    -1831      114     1767     3114 
    4185     5098     5880     6450     6736     6687     6372     5987 
    5740     5682     5746     5883     6103     6488     7083     7796 
    8421     8773     8710     8148     7059     5506     3713     1965 
     394    -1019    -2377    -3770    -5167    -6494    -7720    -8770 
   -9543   -10071   -10469   -10755   -10889   -10889   -10806   -10629 
  -10318    -9837    -9107    -8141    -7159    -6210    -5227    -4294 
   -3492    -2918    -2688    -2641    -2509    -2274    -2070    -1944 
   -1902    -1991    -2093    -2033    -1949    -2043    -2201    -2249 
   -2153    -1919    -1644    -1408    -1170     -915     -626     -255 
     109      274      109     -421    -1209    -2061    -2890    -3669 
   -4271    -4571    -4590    -4456    -4306    -4266    -4415    -4726 
   -5181    -5853    -6739    -7731    -8658    -9275    -9386    -8985 
   -8104    -6795    -5275    -3800    -2556    -1771    -1603    -1965 
   -2563    -3028    -3102    -2758    -2092    -1202     -178      920 
    2091     3361     4710     6048     7256     8307     9278    10291 
   11360    12326    13030    13379    13331    12898    12050    10824 
    9377     7844     6431     5339     4533     3879     3299     2694 
    2015     1232      297     -796    -2004    -3150    -3932    -4248 
   -4217    -3958    -3600    -3353    -3369    -3682    -4263    -5032 
   -5856    -6616    -7207    -7566    -7651    -7371    -6642    -5464 
   -3921    -2263     -747      702     2215     3661     5015     6262 
    7225     7827     7969     7565     6782     5859     5007     4379 
    4017     3835     3645     3322     2852     2359     2045     1956 
    2089     2413     2762     2957     2914     2555     1848      815 
    -531    -2081    -3649    -5130    -6409    -7364    -7873    -7870 
   -7533    -7071    -6539    -5998    -5510    -5076    -4638    -4045 
   -3073    -1605      240     2228     4101     5675     6963     8070 
    8996     9670    10220    10812    11256    11439    11520    11462 
   11267    11009    10524     9840     9144     8464     7843     7287 
    6735     6197     5637     4976     4220     3358     2295      940 
    -724    -2639    -4698    -6744    -8540    -9923   -10891   -11323 
  -11028   -10106    -8907    -7817    -7163    -6983    -7045    -7056 
   -6714    -5819    -4421    -2706     -847      943     2459     3661 
    4561     5089     5201     4976     4554     4144     4001     4210 
    4677     5313     5884     6064     5674     4608     2922      938 
    -997    -2766    -4498    -6289    -7923    -9097    -9778   -10041 
   -9921    -9463    -8660    -7652    -6709    -5973    -5622    -5857 
   -6627    -7642    -8437    -8637    -8198    -7275    -6042    -4600 
   -3001    -1329      342     1972     3461     4741     5892     7047 
    8230     9325    10133    10551    10559    10161     9369     8186 
    6787     5387     3970     2600     1404      249     -997    -2232 
   -3343    -4360    -5297    -6161    -7021    -7893    -8694    -9324 
   -9705    -9749    -9463    -9001    -8483    -7971    -7568    -7315 
   -7207    -7127    -6794    -6064    -5060    -3951    -2808    -1630 
    -430      707     1719     2559     3153     3492     3640     3689 
    3666     3465     3082     2664     2276     1912     1638     1588 
    1878     2569     3620     4819     5846     6508     6739     6446 
    5582     4357     3075     1898      926      144     -625    -1440 
   -2226    -2922    -3395    -3543    -3469    -3372    -3431    -3713 
   -4074    -4245    -3982    -3272    -2273    -1009      530     2211 
    3910     5543     7009     8283     9454    10654    11900    13111 
   14150    14863    15196    15272    15310    15345    15218    14740 
   13780    12522    11242     9933     8603     7306     5945     4576 
    3272     1942      603     -681    -1904    -3036    -4176    -5439 
   -6770    -8052    -9121    -9834   -10199   -10265   -10141    -9938 
   -9618    -9240    -9013    -8889    -8681    -8364    -7974    -7572 
   -7188    -6725    -6035    -4963    -3388    -1472      360     1757 
    2612     2978     2937     2581     2077     1583     1107      643 
     349      464     1071     1999     3006     3929     4687     5305 
    5849     6234     6358     6212     5791     5154     4468     3951 
    3744     3775     3932     4116     4223     4270     4337     4490 
    4714     4865     4834     4604     4191     3547     2589     1323 
    -108    -1512    -2713    -3495    -3639    -3122    -2068     -604 
    1117     2914     4637     6235     7707     9020    10138    11051 
   11706    12012    11979    11662    11068    10261     9315     8278 
    7200     6162     5235     4367     3459     2555     1764     1156 
     791      680      784     1026     1210     1166      949      633 
     243     -186     -687    -1206    -1582    -1707    -1597    -1425 
   -1394    -1552    -1861    -2245    -2592    -2910    -3303    -3765 
   -4203    -4545    -4693    -4625    -4450    -4233    -3920    -3442 
   -2768    -1867     -743      522     1883     3254     4527     5703 
    6768     7628     8194     8404     8306     8009     7550     6982 
    6443     6006     5636     5325     5065     4845     4683     4514 
    4197     3661     2907     2003     1071      230     -400     -773 
   -1004    -1101    -1057    -1035    -1019     -936     -841     -634 
    -238      263      734     1017     1125     1230     1386     1506 
    1525     1424     1255     1154     1275     1746     2598     3721 
    4934     6043     6906     7395     7306     6588     5443     4067 
    2594     1128     -313    -1674    -2899    -4010    -4923    -5540 
   -5890    -5942    -5647    -5148    -4669    -4413    -4519    -4994 
   -5741    -6538    -7144    -7577    -7911    -8006    -7701    -6889 
   -5552    -3832    -1878      117     1906     3380     4565     5530 
    6356     7047     7574     7977     8310     8557     8612     8401 
    7924     7215     6289     5162     3874     2446      847     -940 
   -2840    -4617    -6073    -7130    -7771    -8124    -8271    -8127 
   -7728    -7179    -6498    -5782    -5027    -4147    -3241    -2397 
   -1557     -822     -330      -17      148      168      229      531 
    1123     1937     2886     3943     5098     6311     7433     8139 
    8144     7434     6193     4635     2949     1334       -9     -942 
   -1405    -1516    -1485    -1331    -1051     -791     -634     -693 
   -1132    -1927    -3007    -4313    -5771    -7364    -8946   -10288 
  -11272   -11817   -11890   -11564   -10910    -9992    -8843    -7512 
   -6102    -4706    -3419    -2386    -1677    -1323    -1379    -1791 
   -2346    -2849    -3186    -3315    -3283    -3148    -2893    -2598 
   -2477    -2496    -2469    -2424    -2389    -2257    -1962    -1470 
    -767      140     1190     2184     2903     3200     3036     2582 
    2130     1844     1755     1837     1926     1929     1948     2041 
    2226     2640     3388     4417     5626     6919     8149     9151 
    9780     9929     9571     8802     7809     6835     6048     5472 
    5057     4788     4649     4480     4175     3742     3007     1803 
     184    -1759    -3846    -5765    -7300    -8379    -9022    -9310 
   -9371    -9312    -9251    -9273    -9327    -9327    -9155    -8696 
   -7889    -6696    -5215    -3709    -2477    -1740    -1480    -1472 
   -1540    -1638    -1775    -1993    -2215    -2236    -2126    -1987 
   -1601    -1059     -549      141      864     1282     1476     1460 
    1165      781      537      472      523      604      638      585 
     522      594      842     1225     1683     2058     2215     2116 
    1752     1152      369     -533    -1482    -2428    -3387    -4326 
   -5146    -5757    -6048    -5883    -5262    -4375    -3557    -3052 
   -2810    -2664    -2559    -2504    -2540    -2739    -3095    -3578 
   -4164    -4764    -5312    -5811    -6293    -6764    -7109    -7248 
   -7281    -7288    -7182    -6725    -5734    -4248    -2425     -463 
    1466     3316     5080     6731     8213     9398    10199    10656 
   10840    10833    10746    10617    10331     9711     8739     7573 
    6332     5093     3921     2778     1606      373     -939    -2261 
   -3412    -4223    -4833    -5447    -6088    -6970    -8209    -9596 
  -11024   -12363   -13397   -13998   -14045   -13477   -12395   -10978 
   -9444    -8027    -6825    -5818    -4958    -4159    -3296    -2242 
    -961      459     1954     3483     4943     6272     7425     8374 
    9135     9639     9732     9331     8391     6980     5320     3615 
    1915      248    -1314    -2768    -4185    -5494    -6585    -7488 
   -8298    -9171   -10199   -11292   -12263   -12861   -13041   -13027 
  -12996   -13058   -13286   -13641   -13941   -13963   -13529   -12478 
  -10722    -8260    -5283    -2226      571     2851     4410     5323 
    5800     5976     5814     5081     3608     1535     -749    -2814 
   -4398    -5466    -6107    -6509    -6836    -7029    -6937    -6535 
   -5921    -5265    -4772    -4530    -4395    -4180    -3735    -2945 
   -1935     -942      -32      684     1016      958      666      353 
     164       14     -241     -549     -903    -1483    -2249    -3083 
   -4099    -5213    -6297    -7415    -8464    -9259    -9621    -9417 
   -8695    -7650    -6512    -5481    -4707    -4283    -4149    -4055 
   -3809    -3438    -3009    -2610    -2380    -2282    -2162    -1927 
