Origin Time       2016/04/16 01:25:00
Lat.              32.753
Long.             130.762
Depth. (km)       12
Mag.              7.3
Station Code      HRS021
Station Lat.      34.9529
Station Long.     133.1171
Station Height(m) 325
Record Time       2016/04/16 01:26:40
Sampling Freq(Hz) 100Hz
Duration Time(s)  66
Dir.              E-W
Scale Factor      7845(gal)/8223790
Max. Acc. (gal)   2.467
Last Correction   2016/04/16 01:26:41
Memo.             
[...]
    3516     3458     3459     3520     3603     3658     3653     3566 
    3440     3335     3262     3238     3284     3373     3458     3524 
    3547     3500     3423     3375     3361     3377     3400     3403 
    3368     3294     3222     3207     3262     3372     3500     3600 
    3636     3608     3570     3559     3568     3620     3705     3763 
    3788     3809     3835     3861     3888     3928     3970     3983 
    3971     3939     3883     3820     3763     3732     3715     3688 
    3673     3657     3611     3558     3523     3519     3544     3585 
    3631     3666     3681     3697     3728     3790     3885     4006 
    4116     4164     4149     4102     4029     3944     3867     3808 
    3747     3689     3650     3623     3581     3528     3483     3454 
    3469     3522     3580     3615     3611     3596     3586     3566 
    3569     3600     3605     3581     3532     3454     3380     3326 
    3304     3306     3289     3257     3241     3235     3250     3300 
    3364     3433     3510     3568     3600     3630     3659     3692 
    3724     3738     3769     3828     3875     3883     3851     3757 
    3627     3514     3449     3453     3487     3485     3446     3385 
    3316     3284     3325     3407     3516     3615     3643     3588 
    3491     3407     3387     3439     3526     3623     3678     3646 
    3561     3468     3395     3376     3396     3414     3427     3419 
    3377     3335     3303     3287     3310     3336     3336     3321 
    3283     3225     3187     3173     3179     3207     3242     3277 
    3321     3361     3384     3399     3422     3457     3524     3622 
    3709     3785     3840     3866     3878     3904     3955     4024 
    4093     4137     4147     4125     4087     4052     4017     3962 
    3877     3781     3685     3591     3508     3443     3396     3385 
    3407     3445     3472     3474     3453     3433     3434     3466 
    3544     3650     3730     3769     3774     3735     3638     3522 
    3430     3368     3338     3331     3315     3281     3240     3200 
    3168     3122     3069     3038     3017     3010     3040     3086 
    3115     3126     3138     3157     3196     3288     3424     3546 
    3595     3543     3411     3261     3145     3090     3090     3087 
    3026     2921     2775     2613     2505     2454     2454     2508 
    2569     2608     2614     2602     2632     2727     2874     3071 
    3268     3418     3527     3615     3709     3815     3912     3993 
    4047     4064     4083     4143     4212     4255     4288     4309 
    4307     4309     4317     4325     4351     4379     4398     4409 
    4414     4440     4500     4575     4656     4734     4787     4806 
    4811     4842     4905     4976     5015     4992     4914     4833 
    4814     4887     5027     5166     5244     5208     5062     4897 
    4792     4750     4768     4824     4860     4835     4747     4634 
    4544     4499     4514     4591     4687     4758     4808     4845 
    4855     4872     4938     5026     5092     5136     5150     5115 
    5059     5040     5067     5107     5142     5161     5144     5080 
    4961     4799     4619     4440     4288     4183     4106     4055 
    4045     4041     4032     4036     4058     4081     4086     4071 
    4058     4051     4051     4094     4168     4205     4205     4182 
    4133     4074     4024     3981     3962     3997     4040     4027 
    3964     3855     3721     3618     3523     3446     3431     3446 
    3465     3492     3503     3489     3458     3403     3350     3354 
    3422     3563     3774     3986     4180     4360     4469     4535 
    4645     4780     4905     5024     5105     5125     5077     4956 
    4792     4602     4398     4223     4086     3964     3869     3790 
    3688     3555     3422     3325     3291     3304     3339     3392 
    3438     3466     3501     3546     3593     3646     3677     3689 
    3708     3721     3740     3773     3784     3744     3657     3508 
    3329     3200     3125     3111     3173     3240     3281     3311 
    3312     3316     3360     3445     3582     3742     3882     3993 
    4062     4094     4122     4158     4205     4247     4243     4180 
    4069     3925     3769     3622     3496     3383     3232     3007 
    2727     2447     2236     2147     2172     2262     2384     2494 
    2565     2612     2669     2782     2932     3068     3159     3194 
    3180     3138     3115     3146     3211     3265     3291     3269 
    3184     3059     2930     2840     2808     2808     2811     2801 
    2752     2678     2612     2586     2640     2766     2895     2991 
    3090     3215     3348     3504     3659     3766     3840     3893 
    3929     3942     3901     3828     3762     3697     3658     3674 
    3732     3797     3846     3859     3854     3886     3997     4174 
    4371     4529     4602     4588     4523     4469     4476     4523 
    4575     4599     4563     4452     4294     4145     4055     4032 
    4074     4168     4251     4271     4247     4225     4228     4263 
    4367     4507     4619     4692     4729     4731     4745     4783 
    4818     4819     4773     4676     4538     4380     4247     4185 
    4195     4241     4307     4395     4502     4626     4761     4882 
    4955     4966     4938     4874     4757     4615     4502     4415 
    4348     4315     4287     4241     4199     4166     4126     4099 
    4102     4104     4078     4036     3993     3964     3958     3954 
    3977     4027     4058     4063     4054     4014     3939     3850 
    3757     3661     3569     3507     3461     3387     3298     3215 
    3130     3053     2992     2947     2913     2893     2895     2930 
    3015     3138     3280     3437     3592     3734     3858     3958 
    4039     4137     4253     4345     4392     4396     4347     4261 
    4189     4144     4107     4048     3950     3804     3612     3410 
    3245     3122     3014     2913     2810     2706     2616     2546 
    2497     2461     2424     2415     2459     2539     2636     2724 
    2764     2767     2794     2893     3049     3234     3427     3586 
    3672     3692     3676     3628     3549     3431     3271     3061 
    2832     2628     2475     2381     2355     2389     2454     2519 
    2536     2506     2492     2535     2636     2779     2910     2953 
    2906     2818     2736     2749     2882     3034     3111     3065 
    2860     2562     2282     2079     1993     2016     2049     2029 
    1937     1786     1665     1657     1749     1930     2169     2343 
    2397     2357     2258     2188     2208     2276     2346     2373 
    2305     2188     2088     2041     2088     2209     2336     2446 
    2508     2504     2482     2469     2463     2489     2546     2613 
    2690     2776     2844     2895     2952     3046     3183     3336 
    3477     3607     3707     3757     3769     3766     3738     3709 
    3705     3708     3732     3801     3866     3893     3863     3755 
    3578     3366     3157     2986     2875     2806     2745     2678 
    2604     2546     2548     2632     2768     2918     3045     3142 
    3229     3321     3446     3596     3719     3811     3898     3974 
    4062     4194     4348     4490     4584     4580     4483     4327 
    4178     4126     4183     4294     4426     4510     4482     4379 
    4266     4205     4258     4428     4650     4837     4920     4908 
    4841     4774     4781     4873     4980     5016     4953     4780 
    4522     4263     4069     3965     3925     3877     3789     3672 
    3532     3419     3379     3403     3476     3581     3685     3750 
    3767     3766     3753     3724     3707     3735     3793     3832 
    3820     3738     3586     3420     3311     3284     3330     3418 
    3505     3543     3523     3514     3570     3673     3811     3973 
    4118     4233     4313     4359     4369     4332     4248     4149 
    4040     3942     3875     3811     3692     3511     3302     3090 
    2884     2714     2567     2408     2232     2046     1881     1773 
    1732     1765     1845     1914     1962     2012     2058     2077 
    2068     2039     1991     1949     1953     1992     2026     2043 
    2038     2008     1975     1964     1975     1979     1949     1892 
    1813     1709     1610     1563     1570     1628     1729     1841 
    1930     2006     2079     2154     2238     2355     2500     2628 
    2695     2681     2584     2455     2338     2253     2168     2038 
    1878     1721     1576     1467     1413     1414     1441     1447 
    1431     1414     1410     1431     1455     1441     1389     1317 
    1255     1225     1244     1314     1414     1505     1567     1629 
    1695     1750     1826     1934     2023     2073     2074     2008 
    1907     1841     1871     2014     2226     2416     2513     2519 
    2482     2452     2471     2543     2619     2646     2582     2436 
    2278     2160     2092     2079     2092     2091     2058     1984 
    1877     1792     1765     1777     1809     1830     1804     1719 
    1582     1414     1264     1169     1150     1188     1233     1262 
    1256     1227     1200     1190     1210     1275     1366     1459 
    1528     1554     1533     1468     1375     1275     1198     1175 
    1200     1262     1377     1509     1617     1703     1741     1715 
    1657     1561     1451     1374     1312     1252     1204     1124 
    1015      951      943      946     1013     1194     1417     1641 
    1833     1926     1973     2053     2163     2313     2509     2686 
    2821     2905     2895     2851     2862     2902     2957     3053 
    3140     3179     3191     3150     3060     2982     2917     2863 
    2853     2870     2884     2910     2952     3019     3153     3354 
    3541     3659     3701     3677     3650     3663     3709     3769 
    3813     3798     3707     3572     3457     3419     3461     3526 
    3569     3573     3527     3422     3299     3230     3232     3291 
    3388     3508     3618     3685     3701     3639     3534     3488 
    3514     3559     3593     3581     3516     3429     3369     3383 
    3474     3603     3704     3728     3684     3626     3609     3650 
    3727     3797     3832     3821     3776     3748     3770     3800 
    3813     3804     3744     3634     3520     3437     3392     3369 
    3346     3345     3377     3400     3427     3451     3385     3213 
    2992     2751     2559     2504     2565     2687     2802     2825 
    2754     2639     2525     2478     2558     2740     2953     3122 
    3196     3179     3145     3154     3217     3300     3384     3456 
    3462     3369     3241     3133     3060     3041     3060     3069 
    3045     2995     2941     2906     2918     2992     3095     3169 
    3192     3186     3171     3176     3244     3360     3459     3489 
    3434     3315     3194     3154     3206     3273     3292     3232 
    3088     2889     2693     2559     2544     2643     2786     2902 
    2944     2909     2840     2789     2772     2809     2889     2982 
    3063     3099     3090     3088     3118     3177     3254     3302 
    3264     3169     3076     2974     2862     2776     2691     2579 
    2442     2285     2144     2095     2161     2317     2528     2740 
    2902     2988     3005     3006     3045     3096     3134     3156 
    3146     3117     3086     3061     3067     3103     3140     3154 
    3118     3033     2956     2929     2970     3068     3184     3269 
    3281     3187     2997     2767     2573     2478     2520     2656 
    2798     2884     2894     2832     2751     2721     2770     2863 
    2980     3105     3213     3294     3343     3373     3396     3427 
    3488     3585     3692     3784     3850     3878     3880     3867 
    3815     3727     3651     3626     3680     3811     3967     4090 
    4162     4178     4126     4036     3975     3983     4077     4247 
    4463     4676     4827     4885     4850     4730     4591     4518 
    4519     4565     4608     4598     4518     4413     4349     4371 
    4446     4498     4484     4411     4327     4313     4417     4595 
    4772     4903     4976     5001     5027     5093     5194     5314 
    5424     5476     5454     5363     5242     5146     5096     5096 
    5152     5260     5382     5491     5583     5664     5738     5802 
    5872     5945     5991     6015     6022     5987     5945     5913 
    5861     5788     5694     5599     5530     5487     5476     5490 
    5470     5373     5197     4959     4715     4529     4445     4452 
    4483     4486     4423     4276     4097     3963     3927     3991 
    4104     4205     4243     4192     4104     4045     4069     4175 
    4324     4456     4510     4492     4471     4491     4575     4748 
    4973     5150     5224     5192     5101     5027     5024     5117 
    5273     5418     5493     5481     5413     5333     5302     5371 
    5501     5607     5648     5576     5416     5281     5247     5308 
    5420     5514     5526     5441     5278     5101     4981     4936 
    4969     5062     5167     5233     5246     5219     5175     5131 
    5117     5142     5179     5215     5227     5202     5163     5138 
    5155     5213     5302     5421     5536     5614     5653     5674 
    5707     5775     5861     5958     6038     6068     6077     6085 
    6083     6085     6080     6023     5913     5786     5672     5602 
    5590     5617     5638     5613     5524     5412     5320     5251 
    5212     5202     5179     5119     5038     4932     4818     4738 
    4696     4689     4703     4700     4662     4580     4456     4330 
    4245     4222     4261     4320     4360     4360     4305     4215 
    4143     4088     4055     4054     4039     3984     3932     3885 
    3828     3767     3711     3670     3643     3627     3628     3643 
    3662     3685     3697     3692     3685     3701     3747     3807 
    3877     3954     4000     3991     3942     3856     3747     3663 
    3634     3634     3613     3561     3488     3411     3376     3388 
    3411     3430     3423     3396     3381     3379     3388     3412 
    3431     3434     3426     3429     3447     3484     3511     3501 
    3474     3453     3427     3426     3465     3511     3541     3532 
    3488     3433     3393     3399     3445     3500     3559     3600 
    3586     3523     3435     3361     3338     3366     3431     3510 
    3559     3554     3497     3423     3357     3334     3383     3447 
    3465     3440     3396     3400     3473     3469     3393     3395 
    3392     3349     3368     3426     3553     3736     3832     3913 
    4048     4125     4194     4329     4413     4372     4243     4093 
    3983     3924     3901     3924     3931     3852     3712     3535 
    3379     3325     3379     3505     3639     3697     3677     3615 
    3523     3458     3469     3522     3600     3669     3647     3554 
    3464     3396     3354     3343     3346     3334     3292     3199 
    3086     3017     3015     3067     3125     3113     3005     2847 
    2700     2613     2597     2624     2683     2736     2754     2790 
    2851     2878     2874     2867     2839     2813     2816     2832 
    2872     2938     2994     3024     3030     3011     3011     3059 
    3109     3157     3194     3169     3106     3057     3040     3073 
    3179     3315     3426     3476     3466     3433     3416     3468 
    3600     3754     3847     3856     3802     3719     3658     3657 
    3701     3755     3789     3801     3809     3823     3851     3902 
    3973     4032     4083     4151     4194     4187     4170     4125 
    4048     3982     3943     3932     3958     3993     4039     4081 
    4094     4129     4233     4364     4476     4554     4573     4538 
    4511     4534     4590     4661     4725     4741     4706     4627 
    4519     4409     4291     4190     4145     4132     4144     4190 
    4210     4172     4094     3987     3882     3805     3771     3784 
    3816     3835     3827     3781     3690     3592     3530     3519 
    3549     3608     3678     3721     3705     3651     3592     3541 
    3505     3491     3511     3530     3508     3462     3387     3276 
    3183     3109     3049     3034     3049     3051     3030     2972 
    2890     2825     2772     2762     2832     2929     3002     3045 
    3025     2938     2835     2743     2702     2737     2808     2882 
    2926     2905     2844     2786     2762     2810     2905     2986 
    3021     3003     2959     2917     2882     2862     2857     2847 
    2808     2736     2652     2583     2538     2521     2525     2511 
    2465     2377     2251     2144     2091     2107     2193     2292 
    2357     2369     2328     2259     2222     2250     2317     2376 
    2408     2403     2377     2367     2376     2388     2398     2393 
    2371     2349     2335     2324     2322     2324     2326     2322 
    2299     2253     2204     2172     2163     2191     2251     2307 
    2331     2311     2241     2165     2135     2161     2245     2354 
    2440     2478     2478     2477     2489     2528     2593     2644 
    2640     2575     2469     2357     2290     2308     2405     2523 
    2610     2659     2656     2623     2609     2641     2714     2801 
    2863     2889     2862     2817     2801     2813     2857     2930 
    3009     3071     3090     3083     3075     3075     3102     3164 
    3231     3271     3277     3272     3269     3271     3296     3335 
    3343     3306     3246     3203     3202     3238     3304     3361 
    3365     3338     3306     3275     3284     3345     3419     3488 
    3541     3596     3659     3715     3771     3838     3905     3982 
    4078     4175     4241     4283     4311     4305     4279     4256 
    4228     4200     4170     4131     4101     4071     4028     3987 
    3944     3896     3875     3896     3932     3975     4010     4017 
    3997     3990     4036     4121     4187     4197     4156     4071 
    3978     3932     3919     3901     3874     3838     3786     3712 
    3624     3539     3442     3348     3296     3288     3284     3268 
    3242     3206     3169     3154     3165     3194     3238     3287 
    3319     3322     3311     3333     3376     3400     3407     3414 
    3431     3457     3473     3476     3453     3380     3298     3250 
    3215     3175     3153     3129     3078     3040     3037     3037 
    3022     2994     2944     2882     2843     2847     2893     2945 
    2984     3002     2980     2944     2947     2992     3048     3090 
    3109     3087     3033     2991     2986     3019     3071     3113 
    3138     3141     3140     3172     3238     3322     3400     3446 
    3440     3404     3383     3406     3480     3574     3662     3731 
    3753     3727     3692     3669     3678     3753     3870     3973 
    4029     4017     3951     3870     3797     3762     3778     3807 
    3816     3807     3766     3696     3628     3577     3539     3507 
    3480     3454     3419     3380     3339     3283     3221     3192 
