Origin Time       2016/04/16 01:25:00
Lat.              32.753
Long.             130.762
Depth. (km)       12
Mag.              7.3
Station Code      HRS017
Station Lat.      34.4040
Station Long.     133.0832
Station Height(m) 16
Record Time       2016/04/16 01:26:26
Sampling Freq(Hz) 100Hz
Duration Time(s)  73
Dir.              N-S
Scale Factor      7845(gal)/8223790
Max. Acc. (gal)   3.734
Last Correction   2016/04/16 01:26:27
Memo.             
[...]
   -4012    -4050    -4055    -4028    -4001    -4013    -4063    -4131 
   -4189    -4207    -4178    -4140    -4118    -4105    -4083    -4077 
   -4106    -4136    -4097    -3998    -3917    -3904    -3960    -4086 
   -4236    -4298    -4243    -4166    -4131    -4120    -4081    -3975 
   -3821    -3713    -3738    -3848    -3923    -3947    -3978    -3993 
   -3925    -3792    -3653    -3534    -3470    -3523    -3653    -3732 
   -3711    -3627    -3542    -3544    -3634    -3708    -3754    -3825 
   -3888    -3879    -3828    -3820    -3899    -4013    -4066    -4074 
   -4122    -4189    -4162    -4052    -3971    -3924    -3851    -3778 
   -3782    -3896    -4055    -4163    -4215    -4258    -4263    -4159 
   -3969    -3823    -3805    -3844    -3847    -3819    -3794    -3775 
   -3774    -3796    -3813    -3811    -3842    -3987    -4207    -4353 
   -4345    -4247    -4147    -4095    -4068    -4009    -3940    -3939 
   -3983    -4008    -3990    -3896    -3712    -3544    -3484    -3504 
   -3551    -3608    -3661    -3701    -3738    -3755    -3743    -3767 
   -3879    -4014    -4093    -4124    -4125    -4054    -3890    -3734 
   -3709    -3844    -4041    -4175    -4191    -4124    -4012    -3870 
   -3757    -3746    -3819    -3885    -3885    -3844    -3820    -3809 
   -3771    -3709    -3663    -3655    -3678    -3715    -3753    -3762 
   -3703    -3601    -3565    -3632    -3750    -3861    -3962    -4055 
   -4083    -4002    -3878    -3790    -3757    -3790    -3893    -4006 
   -4058    -4044    -4012    -3983    -3958    -3920    -3866    -3815 
   -3778    -3738    -3688    -3655    -3653    -3661    -3661    -3685 
   -3748    -3815    -3861    -3937    -4064    -4183    -4237    -4205 
   -4090    -3947    -3834    -3755    -3732    -3788    -3897    -4002 
   -4077    -4112    -4093    -3997    -3861    -3747    -3673    -3628 
   -3608    -3603    -3620    -3646    -3643    -3634    -3657    -3701 
   -3747    -3811    -3899    -3967    -3954    -3869    -3757    -3672 
   -3662    -3753    -3923    -4113    -4217    -4174    -4059    -3987 
   -3974    -3956    -3912    -3878    -3889    -3940    -3991    -3987 
   -3910    -3807    -3769    -3832    -3923    -3944    -3901    -3863 
   -3827    -3740    -3627    -3576    -3626    -3700    -3724    -3721 
   -3717    -3701    -3658    -3588    -3537    -3555    -3615    -3661 
   -3696    -3750    -3832    -3916    -3981    -4024    -4060    -4114 
   -4205    -4280    -4261    -4140    -4000    -3932    -3978    -4078 
   -4162    -4189    -4152    -4088    -4039    -3984    -3874    -3734 
   -3653    -3676    -3759    -3855    -3936    -3986    -4017    -4069 
   -4132    -4140    -4077    -4017    -4039    -4110    -4159    -4163 
   -4126    -4052    -3964    -3919    -3943    -4002    -4010    -3927 
   -3813    -3715    -3620    -3532    -3492    -3551    -3676    -3747 
   -3689    -3554    -3435    -3400    -3449    -3501    -3515    -3546 
   -3636    -3744    -3802    -3793    -3753    -3721    -3715    -3738 
   -3773    -3762    -3697    -3645    -3659    -3709    -3736    -3724 
   -3693    -3676    -3670    -3659    -3649    -3653    -3653    -3624 
   -3570    -3524    -3504    -3507    -3519    -3518    -3474    -3373 
   -3246    -3167    -3187    -3294    -3442    -3562    -3586    -3553 
   -3563    -3628    -3676    -3676    -3653    -3636    -3658    -3696 
   -3697    -3666    -3632    -3577    -3515    -3515    -3596    -3678 
   -3670    -3581    -3519    -3563    -3678    -3770    -3796    -3802 
   -3848    -3899    -3852    -3690    -3528    -3489    -3593    -3746 
   -3840    -3861    -3894    -3989    -4093    -4114    -4023    -3896 
   -3831    -3823    -3815    -3801    -3798    -3789    -3744    -3680 
   -3645    -3646    -3645    -3631    -3627    -3630    -3636    -3646 
   -3638    -3609    -3585    -3578    -3572    -3555    -3554    -3595 
   -3661    -3709    -3721    -3716    -3731    -3770    -3823    -3889 
   -3969    -4010    -3977    -3905    -3858    -3848    -3852    -3840 
   -3804    -3770    -3770    -3790    -3809    -3825    -3831    -3815 
   -3796    -3782    -3774    -3782    -3786    -3751    -3717    -3742 
   -3788    -3807    -3821    -3861    -3905    -3929    -3928    -3915 
   -3909    -3920    -3927    -3906    -3885    -3898    -3928    -3910 
   -3825    -3700    -3582    -3523    -3532    -3544    -3532    -3534 
   -3550    -3573    -3642    -3762    -3871    -3936    -3978    -4012 
   -4025    -4002    -3932    -3865    -3861    -3899    -3908    -3869 
   -3798    -3717    -3645    -3569    -3497    -3474    -3500    -3503 
   -3447    -3414    -3489    -3631    -3732    -3757    -3743    -3742 
   -3798    -3880    -3886    -3771    -3615    -3511    -3483    -3524 
   -3601    -3658    -3701    -3763    -3805    -3771    -3670    -3543 
   -3450    -3437    -3485    -3542    -3588    -3620    -3604    -3528 
   -3454    -3419    -3404    -3383    -3343    -3310    -3308    -3325 
   -3329    -3325    -3327    -3336    -3341    -3321    -3284    -3261 
   -3275    -3346    -3468    -3578    -3609    -3553    -3470    -3431 
   -3456    -3491    -3465    -3358    -3191    -3010    -2880    -2848 
   -2917    -3052    -3194    -3310    -3377    -3403    -3399    -3372 
   -3334    -3294    -3267    -3287    -3383    -3541    -3707    -3821 
   -3856    -3836    -3790    -3716    -3601    -3492    -3461    -3496 
   -3558    -3601    -3582    -3532    -3514    -3530    -3547    -3561 
   -3597    -3647    -3689    -3715    -3715    -3700    -3721    -3809 
   -3929    -4008    -4010    -3965    -3913    -3888    -3906    -3936 
   -3910    -3817    -3701    -3618    -3581    -3586    -3595    -3534 
   -3397    -3287    -3284    -3385    -3547    -3721    -3856    -3921 
   -3940    -3959    -3970    -3951    -3919    -3890    -3874    -3875 
   -3870    -3859    -3894    -3990    -4098    -4172    -4215    -4248 
   -4278    -4302    -4342    -4429    -4526    -4560    -4530    -4517 
   -4585    -4703    -4774    -4730    -4585    -4446    -4376    -4341 
   -4297    -4240    -4200    -4218    -4294    -4376    -4423    -4431 
   -4444    -4504    -4588    -4622    -4561    -4418    -4271    -4210 
   -4222    -4258    -4297    -4330    -4340    -4307    -4261    -4255 
   -4287    -4313    -4279    -4189    -4117    -4129    -4223    -4351 
   -4446    -4495    -4517    -4529    -4550    -4573    -4552    -4464 
   -4341    -4220    -4135    -4094    -4104    -4174    -4280    -4360 
   -4378    -4341    -4299    -4266    -4258    -4299    -4367    -4417 
   -4418    -4329    -4158    -3987    -3899    -3902    -3943    -3969 
   -3958    -3898    -3809    -3736    -3707    -3712    -3717    -3697 
   -3658    -3631    -3624    -3605    -3544    -3480    -3447    -3433 
   -3407    -3385    -3381    -3391    -3411    -3447    -3469    -3438 
   -3397    -3392    -3399    -3400    -3411    -3414    -3407    -3431 
   -3469    -3504    -3580    -3686    -3747    -3723    -3638    -3535 
   -3488    -3543    -3632    -3651    -3609    -3581    -3570    -3546 
   -3508    -3462    -3411    -3366    -3339    -3333    -3331    -3275 
   -3117    -2906    -2733    -2612    -2524    -2508    -2579    -2686 
   -2759    -2767    -2716    -2659    -2662    -2755    -2924    -3117 
   -3260    -3341    -3410    -3478    -3520    -3549    -3619    -3757 
   -3937    -4121    -4276    -4393    -4455    -4433    -4351    -4275 
   -4268    -4324    -4368    -4376    -4401    -4468    -4527    -4542 
   -4509    -4464    -4464    -4510    -4526    -4463    -4330    -4189 
   -4095    -4045    -3989    -3909    -3817    -3713    -3588    -3451 
   -3338    -3264    -3227    -3231    -3271    -3310    -3322    -3314 
   -3308    -3312    -3295    -3231    -3192    -3283    -3477    -3649 
   -3746    -3813    -3888    -3959    -4003    -4014    -4008    -4017 
   -4045    -4059    -4043    -4001    -3929    -3856    -3840    -3912 
   -4010    -4051    -4045    -4074    -4143    -4185    -4178    -4151 
   -4126    -4126    -4163    -4214    -4241    -4205    -4122    -4041 
   -4012    -4006    -3973    -3913    -3865    -3848    -3861    -3888 
   -3928    -3975    -4013    -4033    -4063    -4112    -4128    -4052 
   -3910    -3797    -3765    -3771    -3750    -3688    -3595    -3472 
   -3339    -3240    -3198    -3199    -3221    -3250    -3276    -3268 
   -3221    -3172    -3134    -3098    -3083    -3122    -3208    -3316 
   -3404    -3427    -3396    -3357    -3321    -3312    -3355    -3418 
   -3472    -3532    -3585    -3618    -3651    -3678    -3649    -3580 
   -3537    -3550    -3597    -3642    -3658    -3653    -3653    -3650 
   -3623    -3565    -3505    -3508    -3576    -3655    -3732    -3828 
   -3946    -4055    -4120    -4144    -4197    -4310    -4425    -4471 
   -4444    -4378    -4314    -4280    -4276    -4288    -4326    -4378 
   -4392    -4325    -4205    -4112    -4048    -3954    -3813    -3659 
   -3523    -3453    -3487    -3600    -3743    -3889    -4020    -4128 
   -4217    -4271    -4266    -4225    -4187    -4171    -4167    -4159 
   -4137    -4117    -4120    -4145    -4171    -4171    -4133    -4055 
   -3951    -3856    -3817    -3861    -3969    -4083    -4158    -4200 
   -4228    -4215    -4166    -4125    -4087    -3993    -3808    -3589 
   -3449    -3437    -3492    -3537    -3541    -3530    -3534    -3524 
   -3485    -3427    -3373    -3333    -3302    -3272    -3244    -3215 
   -3180    -3136    -3083    -3048    -3044    -3063    -3086    -3082 
   -3037    -2991    -2983    -3006    -3061    -3157    -3283    -3420 
   -3541    -3626    -3684    -3735    -3785    -3820    -3827    -3792 
   -3684    -3510    -3338    -3208    -3122    -3057    -3013    -3041 
   -3175    -3348    -3466    -3508    -3514    -3505    -3451    -3338 
   -3208    -3088    -2982    -2898    -2821    -2710    -2592    -2506 
   -2442    -2384    -2311    -2188    -2053    -1995    -2006    -2019 
   -2033    -2053    -2093    -2191    -2346    -2496    -2600    -2686 
   -2770    -2816    -2805    -2759    -2687    -2600    -2542    -2552 
   -2623    -2725    -2840    -2943    -3042    -3188    -3366    -3510 
   -3595    -3646    -3672    -3647    -3550    -3418    -3308    -3250 
   -3246    -3289    -3353    -3406    -3442    -3468    -3478    -3473 
   -3472    -3497    -3558    -3645    -3724    -3763    -3792    -3879 
   -4043    -4215    -4348    -4461    -4564    -4627    -4656    -4703 
   -4807    -4961    -5146    -5335    -5495    -5617    -5707    -5760 
   -5802    -5879    -5996    -6122    -6245    -6359    -6443    -6493 
   -6547    -6628    -6720    -6798    -6844    -6831    -6774    -6747 
   -6786    -6883    -7029    -7177    -7264    -7298    -7304    -7263 
   -7167    -7044    -6893    -6725    -6585    -6469    -6358    -6266 
   -6212    -6178    -6145    -6102    -6031    -5923    -5790    -5671 
   -5593    -5566    -5599    -5682    -5772    -5831    -5831    -5748 
   -5603    -5468    -5393    -5367    -5359    -5336    -5273    -5185 
   -5120    -5092    -5096    -5112    -5096    -5019    -4904    -4800 
   -4738    -4715    -4715    -4715    -4679    -4587    -4442    -4255 
   -4032    -3842    -3735    -3647    -3488    -3279    -3109    -3036 
   -3053    -3088    -3084    -3075    -3083    -3048    -2965    -2889 
   -2836    -2811    -2836    -2917    -3034    -3140    -3179    -3159 
   -3152    -3173    -3161    -3118    -3090    -3071    -3075    -3125 
   -3179    -3191    -3192    -3208    -3208    -3156    -3040    -2840 
   -2575    -2338    -2208    -2169    -2205    -2304    -2427    -2524 
   -2559    -2517    -2424    -2313    -2204    -2143    -2182    -2293 
   -2400    -2475    -2571    -2758    -3034    -3354    -3665    -3923 
   -4095    -4182    -4214    -4253    -4344    -4455    -4530    -4580 
   -4652    -4719    -4734    -4699    -4619    -4498    -4360    -4222 
   -4064    -3925    -3865    -3865    -3861    -3831    -3770    -3651 
   -3466    -3237    -2991    -2745    -2529    -2392    -2355    -2396 
   -2461    -2506    -2539    -2612    -2727    -2818    -2832    -2772 
   -2677    -2579    -2502    -2457    -2452    -2463    -2448    -2431 
   -2421    -2362    -2215    -2010    -1784    -1571    -1412    -1317 
   -1266    -1244    -1258    -1287    -1327    -1381    -1433    -1457 
   -1462    -1459    -1453    -1448    -1455    -1498    -1583    -1703 
   -1859    -2027    -2170    -2280    -2344    -2335    -2251    -2130 
   -2008    -1925    -1921    -2006    -2133    -2250    -2326    -2340 
   -2295    -2226    -2174    -2168    -2215    -2300    -2390    -2461 
   -2502    -2511    -2493    -2466    -2415    -2307    -2141    -1949 
   -1771    -1606    -1455    -1367    -1385    -1489    -1620    -1740 
   -1849    -1935    -1968    -1945    -1904    -1888    -1911    -1962 
   -2046    -2196    -2428    -2714    -3003    -3260    -3465    -3607 
   -3681    -3712    -3724    -3742    -3782    -3850    -3954    -4112 
   -4315    -4535    -4761    -5005    -5247    -5437    -5530    -5512 
   -5433    -5377    -5391    -5472    -5594    -5729    -5857    -5940 
   -5958    -5938    -5908    -5880    -5872    -5910    -5988    -6079 
   -6154    -6230    -6316    -6400    -6486    -6594    -6714    -6828 
   -6905    -6929    -6917    -6889    -6864    -6870    -6907    -6961 
   -7025    -7113    -7236    -7371    -7469    -7539    -7600    -7655 
   -7705    -7739    -7730    -7674    -7581    -7462    -7331    -7210 
   -7102    -7005    -6930    -6898    -6905    -6905    -6855    -6768 
   -6708    -6694    -6666    -6594    -6511    -6432    -6353    -6282 
   -6228    -6188    -6153    -6112    -6064    -6025    -6011    -6002 
   -5953    -5852    -5736    -5634    -5560    -5510    -5463    -5404 
   -5336    -5262    -5169    -5078    -5035    -5038    -5026    -4945 
   -4785    -4592    -4436    -4334    -4251    -4170    -4107    -4083 
   -4122    -4228    -4360    -4488    -4598    -4652    -4635    -4594 
   -4564    -4554    -4572    -4587    -4541    -4422    -4268    -4101 
   -3932    -3785    -3670    -3576    -3465    -3339    -3234    -3176 
   -3180    -3250    -3353    -3496    -3704    -3923    -4064    -4107 
   -4074    -4013    -3975    -3978    -4027    -4118    -4243    -4387 
   -4506    -4573    -4600    -4599    -4568    -4538    -4521    -4500 
   -4476    -4457    -4440    -4399    -4309    -4178    -4054    -3935 
   -3801    -3630    -3369    -3014    -2658    -2401    -2262    -2254 
   -2389    -2608    -2830    -3009    -3114    -3144    -3133    -3109 
   -3076    -3053    -3083    -3176    -3295    -3406    -3466    -3453 
   -3415    -3404    -3418    -3462    -3516    -3522    -3477    -3430 
   -3415    -3456    -3580    -3773    -3983    -4186    -4374    -4495 
   -4513    -4477    -4468    -4504    -4568    -4673    -4822    -4959 
   -5073    -5198    -5333    -5463    -5594    -5701    -5752    -5776 
   -5806    -5844    -5881    -5911    -5911    -5853    -5725    -5547 
   -5339    -5131    -4949    -4787    -4664    -4590    -4506    -4363 
   -4172    -3947    -3713    -3508    -3342    -3223    -3159    -3141 
   -3160    -3230    -3357    -3485    -3543    -3538    -3519    -3503 
   -3492    -3511    -3539    -3538    -3510    -3465    -3403    -3331 
   -3260    -3207    -3202    -3253    -3316    -3330    -3273    -3192 
   -3152    -3194    -3333    -3530    -3719    -3877    -4024    -4159 
   -4282    -4417    -4564    -4710    -4851    -4970    -5051    -5062 
   -4941    -4679    -4360    -4093    -3905    -3775    -3724    -3773 
   -3889    -4025    -4114    -4124    -4088    -4043    -4009    -3998 
   -4008    -4027    -4040    -4055    -4102    -4175    -4253    -4321 
   -4360    -4390    -4446    -4496    -4459    -4313    -4129    -3997 
   -3955    -3986    -4041    -4074    -4107    -4186    -4287    -4356 
   -4396    -4421    -4417    -4405    -4419    -4477    -4568    -4652 
   -4702    -4765    -4861    -4951    -5016    -5077    -5169    -5293 
   -5424    -5543    -5606    -5575    -5476    -5367    -5263    -5181 
   -5128    -5071    -5005    -4963    -4958    -4985    -5019    -5036 
   -5038    -5047    -5070    -5080    -5027    -4889    -4688    -4461 
   -4255    -4143    -4162    -4280    -4448    -4634    -4814    -4935 
   -4976    -4965    -4920    -4857    -4816    -4831    -4891    -4942 
   -4947    -4939    -4981    -5098    -5268    -5448    -5620    -5765 
   -5831    -5805    -5759    -5718    -5563    -5319    -5171    -5116 
   -5093    -5107    -5066    -4908    -4668    -4402    -4152    -3950 
   -3798    -3692    -3632    -3612    -3597    -3558    -3489    -3437 
   -3464    -3550    -3638    -3734    -3855    -3936    -3916    -3820 
   -3697    -3581    -3523    -3558    -3655    -3755    -3815    -3809 
   -3736    -3613    -3497    -3433    -3433    -3514    -3677    -3870 
   -4041    -4171    -4251    -4282    -4286    -4303    -4351    -4396 
   -4402    -4351    -4243    -4118    -4024    -3970    -3969    -4033 
   -4156    -4305    -4480    -4684    -4845    -4880    -4831    -4834 
   -4968    -5198    -5433    -5610    -5729    -5793    -5771    -5589 
   -5220    -4787    -4491    -4380    -4353    -4324    -4256    -4149 
   -4060    -4044    -4074    -4114    -4203    -4368    -4553    -4695 
   -4754    -4712    -4610    -4518    -4450    -4421    -4456    -4533 
   -4603    -4637    -4600    -4472    -4284    -4088    -3920    -3809 
   -3757    -3705    -3581    -3383    -3172    -2991    -2835    -2712 
   -2655    -2668    -2743    -2863    -2976    -2997    -2882    -2647 
   -2367    -2176    -2123    -2157    -2254    -2394    -2498    -2505 
   -2430    -2338    -2289    -2313    -2408    -2527    -2640    -2762 
   -2863    -2909    -2937    -3026    -3200    -3426    -3631    -3750 
   -3744    -3615    -3399    -3152    -2909    -2678    -2461    -2295 
   -2192    -2169    -2235    -2344    -2415    -2396    -2269    -2039 
   -1752    -1451    -1144     -853     -616     -449     -341     -289 
    -279     -268     -255     -266     -286     -278     -246     -224 
    -228     -266     -361     -506     -666     -859    -1092    -1302 
   -1456    -1571    -1660    -1748    -1878    -2052    -2230    -2408 
   -2597    -2782    -2952    -3115    -3281    -3451    -3613    -3755 
   -3878    -4009    -4170    -4341    -4507    -4680    -4854    -5000 
   -5090    -5100    -5015    -4872    -4745    -4668    -4639    -4680 
   -4796    -4950    -5100    -5215    -5279    -5302    -5297    -5285 
   -5282    -5308    -5370    -5451    -5533    -5593    -5584    -5505 
   -5382    -5225    -5062    -4916    -4753    -4546    -4360    -4278 
   -4306    -4386    -4473    -4560    -4626    -4646    -4627    -4583 
   -4515    -4433    -4348    -4261    -4187    -4122    -4040    -3948 
   -3890    -3851    -3770    -3628    -3443    -3258    -3109    -3011 
   -2949    -2896    -2876    -2914    -2953    -2979    -3034    -3103 
   -3129    -3096    -3026    -2929    -2779    -2562    -2299    -2037 
   -1829    -1692    -1620    -1567    -1493    -1408    -1339    -1285 
   -1258    -1294    -1410    -1587    -1784    -1956    -2070    -2118 
   -2149    -2231    -2373    -2525    -2614    -2612    -2544    -2431 
