Origin Time       2016/04/16 01:25:00
Lat.              32.753
Long.             130.762
Depth. (km)       12
Mag.              7.3
Station Code      HRS013
Station Lat.      34.3768
Station Long.     132.4505
Station Height(m) 2
Record Time       2016/04/16 01:25:52
Sampling Freq(Hz) 100Hz
Duration Time(s)  115
Dir.              E-W
Scale Factor      7845(gal)/8223790
Max. Acc. (gal)   10.769
Last Correction   2016/04/16 01:25:52
Memo.             
[...]
   -1773    -2069    -2235    -2135    -1802    -1391    -1074     -911 
    -838     -791     -797     -939    -1225    -1587    -1942    -2261 
   -2527    -2708    -2821    -2936    -3129    -3464    -3929    -4444 
   -4943    -5464    -6077    -6802    -7581    -8245    -8614    -8638 
   -8383    -7973    -7520    -7072    -6590    -6023    -5383    -4735 
   -4191    -3871    -3838    -4101    -4619    -5270    -5902    -6381 
   -6610    -6628    -6546    -6446    -6350    -6265    -6230    -6334 
   -6635    -7083    -7548    -7873    -7911    -7605    -7036    -6309 
   -5479    -4630    -3890    -3339    -2991    -2786    -2648    -2535 
   -2442    -2442    -2623    -2991    -3489    -4001    -4406    -4646 
   -4714    -4603    -4322    -3935    -3528    -3167    -2924    -2836 
   -2816    -2737    -2532    -2236    -1942    -1707    -1543    -1451 
   -1422    -1439    -1456    -1489    -1642    -1935    -2241    -2469 
   -2635    -2839    -3169    -3578    -3901    -3994    -3838    -3537 
   -3271    -3186    -3284    -3481    -3690    -3883    -4059    -4233 
   -4434    -4627    -4720    -4646    -4414    -4099    -3802    -3626 
   -3612    -3738    -4013    -4414    -4838    -5192    -5441    -5634 
   -5875    -6219    -6613    -6932    -7134    -7225    -7195    -7072 
   -6886    -6644    -6370    -6115    -5935    -5868    -5902    -5950 
   -5864    -5571    -5143    -4766    -4583    -4545    -4540    -4537 
   -4544    -4558    -4604    -4665    -4653    -4529    -4324    -4072 
   -3798    -3551    -3424    -3495    -3734    -3990    -4083    -3927 
   -3595    -3245    -3025    -2961    -2960    -2928    -2855    -2814 
   -2876    -3048    -3350    -3816    -4401    -4989    -5448    -5665 
   -5629    -5401    -5081    -4795    -4615    -4491    -4340    -4189 
   -4139    -4243    -4449    -4641    -4757    -4833    -4922    -5001 
   -5020    -4935    -4742    -4496    -4274    -4063    -3804    -3469 
   -3102    -2790    -2609    -2579    -2674    -2848    -3040    -3218 
   -3419    -3686    -4010    -4299    -4450    -4467    -4464    -4545 
   -4764    -5124    -5544    -5880    -6029    -6008    -5934    -5908 
   -5946    -5964    -5850    -5587    -5298    -5159    -5256    -5528 
   -5829    -6085    -6332    -6596    -6798    -6815    -6620    -6313 
   -6053    -5946    -5987    -6083    -6153    -6154    -6039    -5787 
   -5409    -4955    -4529    -4232    -4126    -4222    -4488    -4857 
   -5235    -5568    -5864    -6146    -6378    -6494    -6470    -6326 
   -6076    -5726    -5283    -4743    -4090    -3346    -2571    -1833 
   -1223     -799     -535     -352     -133      201      606      962 
    1182     1242     1189     1096     1028     1035     1143     1336 
    1568     1742     1749     1513      996      279     -400     -811 
    -858     -607     -218      163      442      594      684      799 
     982     1252     1575     1896     2191     2457     2693     2853 
    2921     2948     2956     2917     2772     2428     1818      955 
     -98    -1267    -2452    -3561    -4507    -5250    -5810    -6264 
   -6686    -7107    -7541    -7964    -8313    -8533    -8596    -8440 
   -8035    -7461    -6890    -6493    -6419    -6759    -7469    -8384 
   -9324   -10120   -10693   -11014   -11102   -11053   -10982   -10962 
  -11033   -11200   -11388   -11496   -11507   -11493   -11510   -11546 
  -11530   -11321   -10797    -9956    -8915    -7902    -7155    -6777 
   -6735    -6944    -7331    -7838    -8375    -8845    -9155    -9225 
   -9022    -8567    -8027    -7673    -7528    -7481    -7551    -7672 
   -7665    -7416    -6878    -6089    -5173    -4310    -3667    -3272 
   -3078    -3071    -3184    -3321    -3470    -3662    -3909    -4209 
   -4455    -4495    -4297    -3944    -3570    -3307    -3221    -3280 
   -3424    -3620    -3802    -3866    -3743    -3388    -2786    -2008 
   -1224     -638     -419     -616    -1150    -1826    -2401    -2691 
   -2678    -2496    -2331    -2350    -2639    -3156    -3751    -4263 
   -4572    -4615    -4419    -4093    -3743    -3445    -3257    -3210 
   -3284    -3404    -3541    -3754    -4140    -4750    -5514    -6249 
   -6743    -6903    -6795    -6616    -6544    -6658    -6980    -7460 
   -7998    -8565    -9130    -9599    -9915   -10088   -10135   -10030 
   -9709    -9139    -8378    -7601    -7052    -6860    -7007    -7349 
   -7670    -7839    -7865    -7799    -7662    -7443    -7164    -6851 
   -6484    -6008    -5346    -4461    -3464    -2520    -1752    -1219 
    -918     -801     -816     -893     -974    -1015     -949     -741 
    -425      -52      334      706     1086     1482     1813     1989 
    1968     1737     1362      961      611      396      425      689 
    1043     1334     1475     1443     1242      893      399     -256 
   -1004    -1710    -2270    -2617    -2770    -2832    -2901    -3036 
   -3272    -3603    -3981    -4341    -4644    -4865    -4959    -4908 
   -4796    -4777    -4973    -5377    -5880    -6361    -6772    -7149 
   -7551    -7985    -8437    -8885    -9278    -9548    -9652    -9613 
   -9516    -9451    -9458    -9512    -9516    -9355    -8939    -8229 
   -7256    -6104    -4896    -3794    -2971    -2496    -2308    -2292 
   -2299    -2193    -1923    -1498     -972     -433       13      255 
     206     -126     -595     -978    -1147    -1085     -823     -409 
     141      877     1823     2857     3740     4283     4422     4212 
    3801     3357     2963     2621     2355     2219     2239     2396 
    2573     2602     2411     2019     1475      835      102     -760 
   -1703    -2574    -3213    -3569    -3738    -3879    -4110    -4456 
   -4857    -5262    -5661    -6048    -6389    -6600    -6666    -6704 
   -6852    -7187    -7677    -8228    -8804    -9414   -10033   -10557 
  -10828   -10801   -10605   -10411   -10335   -10428   -10663   -11003 
  -11425   -11846   -12140   -12252   -12190   -11936   -11483   -10881 
  -10214    -9545    -8885    -8263    -7750    -7423    -7339    -7460 
   -7638    -7704    -7512    -6997    -6176    -5082    -3811    -2523 
   -1368     -488       18      183      135       16      -40       56 
     315      669     1019     1274     1402     1422     1347     1190 
    1024      940      987     1140     1254     1182      901      460 
     -67     -581    -1004    -1248    -1242     -990     -518      125 
     816     1398     1699     1520      777     -368    -1610    -2664 
   -3384    -3828    -4153    -4457    -4768    -5032    -5130    -5019 
   -4811    -4658    -4685    -4982    -5566    -6372    -7276    -8102 
   -8688    -8920    -8784    -8387    -7921    -7548    -7361    -7364 
   -7456    -7518    -7489    -7357    -7164    -6932    -6643    -6319 
   -6042    -5902    -5949    -6207    -6683    -7321    -7992    -8537 
   -8791    -8640    -8075    -7183    -6153    -5215    -4498    -4021 
   -3744    -3591    -3453    -3235    -2901    -2442    -1921    -1456 
   -1089     -784     -538     -344     -182      -90     -117     -225 
    -351     -442     -437     -305      -58      289      702     1112 
    1433     1593     1547     1289      846      299     -230     -623 
    -787     -689     -353      175      812     1404     1795     1877 
    1624     1078      346     -467    -1312    -2172    -3019    -3856 
   -4712    -5547    -6239    -6687    -6906    -6998    -7059    -7103 
   -7096    -7053    -7075    -7250    -7561    -7892    -8085    -8027 
   -7736    -7322    -6886    -6488    -6150    -5900    -5783    -5809 
   -5891    -5844    -5570    -5179    -4843    -4645    -4556    -4438 
   -4149    -3676    -3121    -2583    -2115    -1748    -1498    -1375 
   -1397    -1554    -1755    -1859    -1723    -1262     -495      490 
    1583     2673     3688     4564     5233     5670     5927     6085 
    6148     6042     5732     5250     4652     3997     3348     2725 
    2098     1443      789      210     -209     -419     -400     -143 
     313      911     1621     2377     3052     3492     3532     3069 
    2150      990     -112     -947    -1463    -1768    -2042    -2398 
   -2844    -3342    -3805    -4203    -4577    -4922    -5169    -5251 
   -5134    -4831    -4428    -4077    -3890    -3893    -4106    -4531 
   -5159    -5954    -6831    -7695    -8520    -9336   -10147   -10897 
  -11530   -12043   -12409   -12617   -12711   -12687   -12449   -11967 
  -11290   -10463    -9568    -8688    -7821    -6956    -6214    -5737 
   -5583    -5765    -6196    -6679    -7017    -7064    -6759    -6146 
   -5360    -4553    -3835    -3227    -2709    -2296    -2011    -1814 
   -1617    -1344     -916     -274      518     1302     1946     2370 
    2550     2512     2316     2034     1760     1567     1478     1518 
    1702     2007     2436     3002     3595     4050     4256     4164 
    3824     3369     2863     2277     1570      731     -178    -1039 
   -1736    -2200    -2504    -2821    -3281    -3944    -4776    -5641 
   -6372    -6820    -6902    -6642    -6130    -5498    -4907    -4476 
   -4271    -4279    -4431    -4660    -4923    -5228    -5618    -6097 
   -6632    -7246    -7954    -8646    -9177    -9485    -9574    -9481 
   -9273    -9024    -8787    -8599    -8510    -8579    -8812    -9146 
   -9493    -9749    -9840    -9752    -9504    -9134    -8688    -8158 
   -7469    -6571    -5439    -4071    -2581    -1208     -170      427 
     610      538      402      361      517      855     1277     1583 
    1580     1247      724      141     -421     -886    -1185    -1248 
   -1023     -540       78      730     1351     1890     2319     2625 
    2764     2728     2546     2261     1938     1603     1206      673 
     -39     -932    -1968    -3055    -4093    -5027    -5796    -6334 
   -6593    -6589    -6394    -6119    -5880    -5767    -5837    -6115 
   -6588    -7241    -8073    -9005    -9894   -10592   -11028   -11265 
  -11469   -11793   -12302   -12962   -13659   -14297   -14843   -15241 
  -15379   -15163   -14604   -13740   -12613   -11300    -9941    -8653 
   -7523    -6625    -6015    -5715    -5706    -5894    -6158    -6430 
   -6670    -6837    -6897    -6859    -6808    -6820    -6899    -7010 
   -7141    -7283    -7474    -7726    -7927    -7948    -7693    -7157 
   -6467    -5780    -5200    -4811    -4635    -4608    -4623    -4546 
   -4301    -3908    -3442    -3011    -2704    -2546    -2563    -2787 
   -3229    -3874    -4684    -5539    -6235    -6627    -6693    -6543 
   -6319    -6046    -5664    -5185    -4692    -4260    -3978    -3888 
   -3902    -3924    -3878    -3693    -3338    -2867    -2428    -2223 
   -2421    -3100    -4145    -5268    -6180    -6666    -6617    -6076 
   -5196    -4168    -3194    -2425    -1985    -1988    -2407    -3098 
   -3879    -4486    -4687    -4473    -4012    -3530    -3237    -3218 
   -3442    -3827    -4293    -4762    -5190    -5513    -5645    -5536 
   -5194    -4714    -4243    -3897    -3705    -3674    -3846    -4238 
   -4793    -5435    -6129    -6866    -7578    -8182    -8662    -9061 
   -9456    -9923   -10466   -11041   -11618   -12177   -12698   -13108 
  -13292   -13139   -12621   -11846   -11064   -10478   -10142    -9979 
   -9834    -9574    -9175    -8672    -8078    -7416    -6710    -5940 
   -5131    -4429    -4014    -4040    -4557    -5413    -6293    -6940 
   -7264    -7307    -7153    -6858    -6440    -5898    -5285    -4703 
   -4268    -4066    -4048    -4074    -4002    -3732    -3273    -2713 
   -2128    -1535     -920     -332      147      453      532      391 
      91     -351     -978    -1833    -2878    -3948    -4826    -5367 
   -5575    -5512    -5238    -4860    -4483    -4132    -3844    -3712 
   -3767    -3973    -4237    -4453    -4557    -4529    -4364    -4074 
   -3699    -3310    -3005    -2895    -3079    -3541    -4170    -4811 
   -5316    -5616    -5826    -6172    -6781    -7614    -8482    -9111 
   -9309    -9103    -8661    -8135    -7624    -7132    -6593    -5957 
   -5242    -4618    -4326    -4406    -4627    -4673    -4365    -3755 
   -3017    -2293    -1655    -1128     -757     -668    -1015    -1836 
   -2999    -4274    -5375    -6073    -6257    -5972    -5439    -4932 
   -4644    -4656    -4972    -5564    -6311    -6975    -7290    -7089 
   -6409    -5421    -4295    -3164    -2144    -1358     -950    -1030 
   -1556    -2400    -3450    -4606    -5711    -6589    -7138    -7372 
   -7454    -7599    -7944    -8497    -9107    -9521    -9552    -9185 
   -8543    -7859    -7368    -7152    -7183    -7426    -7830    -8359 
   -8957    -9548   -10133   -10697   -11140   -11348   -11240   -10824 
  -10250    -9707    -9312    -9130    -9192    -9432    -9810   -10339 
  -10932   -11475   -11901   -12091   -12006   -11736   -11334   -10818 
  -10215    -9518    -8804    -8251    -7931    -7750    -7547    -7198 
   -6714    -6216    -5782    -5344    -4738    -3882    -2798    -1594 
    -436      526     1156     1305      943      143     -985    -2207 
   -3192    -3692    -3611    -3026    -2144    -1161     -198      592 
    1088     1275     1213     1021      838      791      985     1462 
    2126     2787     3277     3510     3461     3176     2735     2219 
    1679     1131      602      136     -274     -695    -1188    -1813 
   -2602    -3546    -4645    -5923    -7339    -8760   -10083   -11257 
  -12276   -13185   -14007   -14721   -15233   -15449   -15384   -15136 
  -14797   -14404   -13879   -13111   -12059   -10810    -9570    -8575 
   -7948    -7669    -7672    -7924    -8355    -8893    -9475    -9983 
  -10338   -10563   -10685   -10679   -10520   -10161    -9595    -8896 
   -8102    -7233    -6347    -5448    -4482    -3415    -2276    -1183 
    -309      228      415      325       85     -164     -342     -422 
    -359     -143      152      406      481      313      -62     -529 
    -901     -990     -723     -180      514     1255     2006     2718 
    3242     3451     3311     2824     2064     1206      425     -147 
    -414     -390     -245     -207     -411     -854    -1471    -2208 
   -2992    -3713    -4274    -4625    -4789    -4861    -4855    -4704 
   -4399    -4033    -3723    -3557    -3549    -3667    -3880    -4209 
   -4683    -5235    -5710    -6002    -6093    -6031    -5888    -5741 
   -5665    -5651    -5613    -5519    -5395    -5268    -5161    -5074 
   -5005    -4958    -4974    -5101    -5324    -5532    -5566    -5268 
   -4662    -3943    -3283    -2751    -2374    -2182    -2257    -2658 
   -3300    -3990    -4544    -4864    -4959    -4963    -5060    -5431 
   -6150    -7149    -8278    -9335   -10138   -10597   -10675   -10357 
   -9606    -8421    -6947    -5466    -4233    -3393    -2999    -3044 
   -3429    -3987    -4507    -4819    -4912    -4858    -4695    -4477 
   -4268    -4069    -3844    -3597    -3385    -3277    -3336    -3523 
   -3653    -3550    -3171    -2597    -1956    -1410    -1081    -1003 
   -1188    -1614    -2169    -2717    -3130    -3289    -3175    -2863 
   -2446    -2019    -1690    -1506    -1459    -1483    -1472    -1290 
    -832     -136      611     1204     1543     1609     1409     1050 
     706      477      382      410      553      792     1081     1339 
    1486     1545     1609     1748     1975     2207     2285     2089 
    1621     1012      438       -1     -340     -693    -1148    -1746 
   -2516    -3414    -4324    -5146    -5815    -6319    -6693    -6956 
   -7047    -6883    -6427    -5718    -4893    -4140    -3589    -3284 
   -3191    -3222    -3317    -3451    -3638    -3901    -4238    -4637 
   -5078    -5528    -5888    -6014    -5805    -5313    -4684    -4055 
   -3496    -2953    -2313    -1506     -579      322     1024     1387 
    1350      990      433     -225     -873    -1460    -1949    -2219 
   -2196    -1915    -1456     -963     -575     -326     -164      -28 
      64       54      -90     -360     -687     -978    -1221    -1448 
   -1709    -2046    -2421    -2698    -2758    -2567    -2184    -1726 
   -1321    -1003     -715     -379       35      473      830      981 
     893      670      467      391      450      545      548      382 
      -9     -675    -1610    -2737    -3958    -5162    -6230    -7098 
   -7722    -8051    -8101    -7939    -7670    -7437    -7321    -7268 
   -7145    -6876    -6543    -6338    -6434    -6879    -7539    -8195 
   -8707    -9119    -9572   -10133   -10717   -11195   -11487   -11561 
  -11449   -11187   -10770   -10197    -9472    -8587    -7562    -6471 
   -5400    -4425    -3612    -2961    -2446    -2023    -1642    -1287 
    -926     -540     -209      -20       -2     -129     -302     -432 
    -549     -657     -676     -565     -382     -163       95      407 
     764     1116     1375     1460     1345     1089      804      607 
     549      587      639      635      484      139     -368     -992 
   -1680    -2324    -2813    -3084    -3140    -3018    -2783    -2506 
   -2254    -2085    -2049    -2181    -2494    -2965    -3549    -4192 
   -4834    -5454    -6096    -6764    -7416    -8044    -8649    -9236 
   -9783   -10177   -10277   -10000    -9402    -8645    -7896    -7283 
   -6839    -6527    -6365    -6393    -6561    -6782    -6967    -7029 
   -6952    -6793    -6610    -6462    -6384    -6397    -6492    -6629 
   -6770    -6883    -6956    -6976    -6928    -6810    -6600    -6257 
   -5787    -5263    -4785    -4419    -4186    -4074    -4062    -4118 
   -4191    -4215    -4163    -4083    -4060    -4099    -4140    -4098 
   -3896    -3546    -3106    -2620    -2147    -1717    -1296     -890 
    -571     -376     -303     -332     -441     -607     -776     -884 
    -919     -929     -977    -1116    -1374    -1719    -2087    -2400 
   -2627    -2767    -2805    -2764    -2728    -2770    -2917    -3144 
   -3446    -3819    -4263    -4789    -5379    -5995    -6579    -7009 
   -7164    -7041    -6733    -6301    -5803    -5319    -4878    -4487 
   -4172    -3950    -3813    -3727    -3597    -3369    -3098    -2841 
   -2612    -2417    -2220    -1981    -1784    -1742    -1892    -2195 
   -2535    -2781    -2872    -2867    -2870    -2947    -3114    -3343 
   -3547    -3653    -3673    -3669    -3667    -3682    -3727    -3823 
   -4032    -4378    -4795    -5177    -5401    -5394    -5198    -4943 
   -4779    -4787    -4954    -5215    -5503    -5798    -6103    -6407 
   -6658    -6798    -6795    -6656    -6462    -6309    -6230    -6196 
   -6154    -6079    -5984    -5913    -5926    -6041    -6212    -6374 
   -6480    -6562    -6691    -6836    -6925    -6924    -6853    -6806 
   -6862    -7005    -7160    -7231    -7146    -6939    -6725    -6667 
   -6820    -7080    -7307    -7404    -7337    -7142    -6899    -6624 
   -6316    -5999    -5660    -5266    -4845    -4476    -4228    -4131 
   -4139    -4167    -4152    -4071    -3916    -3685    -3478    -3438 
   -3599    -3883    -4158    -4260    -4128    -3823    -3447    -3092 
   -2828    -2702    -2732    -2870    -3025    -3144    -3213    -3240 
   -3227    -3176    -3071    -2943    -2863    -2902    -3092    -3427 
   -3870    -4369    -4865    -5273    -5512    -5575    -5499    -5305 
