Origin Time       2016/04/16 01:25:00
Lat.              32.753
Long.             130.762
Depth. (km)       12
Mag.              7.3
Station Code      HRS021
Station Lat.      34.9529
Station Long.     133.1171
Station Height(m) 325
Record Time       2016/04/16 01:26:40
Sampling Freq(Hz) 100Hz
Duration Time(s)  66
Dir.              N-S
Scale Factor      7845(gal)/8223790
Max. Acc. (gal)   2.596
Last Correction   2016/04/16 01:26:41
Memo.             
[...]
    -376     -398     -380     -413     -533     -668     -789     -908 
    -949     -897     -834     -792     -758     -723     -697     -687 
    -643     -569     -522     -522     -544     -569     -598     -603 
    -575     -552     -538     -522     -513     -523     -556     -576 
    -576     -607     -652     -665     -681     -699     -662     -589 
    -538     -537     -561     -584     -615     -612     -545     -486 
    -477     -493     -522     -571     -614     -621     -622     -642 
    -662     -695     -746     -804     -862     -916     -976    -1043 
   -1098    -1129    -1151    -1178    -1183    -1163    -1154    -1152 
   -1135    -1128    -1151    -1155    -1117    -1078    -1044     -992 
    -959     -953     -932     -915     -886     -849     -832     -800 
    -753     -724     -691     -652     -660     -707     -749     -778 
    -788     -756     -710     -688     -711     -753     -784     -846 
    -947    -1020    -1070    -1105    -1053     -943     -858     -819 
    -826     -877     -926     -926     -872     -811     -796     -816 
    -842     -854     -805     -696     -568     -459     -421     -469 
    -548     -591     -596     -566     -502     -464     -499     -565 
    -629     -683     -704     -676     -625     -585     -540     -487 
    -463     -463     -471     -504     -549     -553     -517     -477 
    -457     -469     -514     -566     -626     -689     -730     -765 
    -811     -849     -893     -954     -994    -1012    -1019    -1004 
    -993    -1005    -1008    -1000     -985     -932     -869     -827 
    -791     -774     -792     -808     -807     -797     -791     -815 
    -864     -932    -1020    -1078    -1077    -1078    -1100    -1127 
   -1204    -1301    -1306    -1206    -1084     -977     -903     -886 
    -905     -900     -838     -738     -662     -639     -650     -677 
    -669     -596     -522     -510     -561     -666     -795     -897 
    -928     -881     -824     -834     -912    -1016    -1113    -1171 
   -1152    -1071    -1020    -1059    -1156    -1275    -1382    -1389 
   -1258    -1060     -881     -750     -724     -824     -946     -989 
    -957     -896     -857     -880    -1000    -1190    -1351    -1405 
   -1371    -1277    -1156    -1117    -1205    -1318    -1372    -1339 
   -1217    -1070     -958     -939    -1031    -1140    -1220    -1279 
   -1258    -1158    -1081    -1060    -1048    -1013     -939     -843 
    -720     -562     -446     -402     -359     -333     -344     -301 
    -193     -112      -75      -70     -122     -228     -356     -471 
    -544     -599     -645     -668     -733     -842     -890     -857 
    -789     -683     -553     -477     -473     -492     -490     -456 
    -398     -329     -288     -326     -434     -526     -546     -535 
    -515     -502     -576     -735     -892    -1011    -1081    -1097 
   -1060     -997     -953     -927     -881     -810     -735     -650 
    -533     -434     -395     -379     -360     -351     -325     -265 
    -218     -228     -301     -410     -532     -643     -677     -634 
    -614     -665     -762     -916    -1107    -1239    -1277    -1273 
   -1260    -1275    -1340    -1431    -1486    -1459    -1355    -1229 
   -1112    -1008     -940     -915     -881     -820     -776     -767 
    -789     -854     -940    -1036    -1147    -1229    -1285    -1347 
   -1387    -1431    -1517    -1537    -1470    -1410    -1333    -1213 
   -1098     -985     -877     -792     -720     -673     -641     -610 
    -633     -722     -803     -855     -905     -907     -877     -903 
    -972    -1053    -1158    -1212    -1197    -1177    -1146    -1116 
   -1146    -1206    -1254    -1278    -1263    -1205    -1125    -1043 
    -996     -985     -953     -884     -780     -623     -475     -400 
    -373     -383     -425     -425     -348     -251     -162     -108 
    -102      -93      -76      -74      -59      -74     -149     -207 
    -246     -294     -305     -279     -282     -329     -392     -472 
    -571     -660     -737     -793     -816     -814     -785     -734 
    -681     -630     -575     -558     -589     -625     -645     -654 
    -668     -691     -715     -753     -791     -792     -773     -765 
    -750     -739     -787     -842     -823     -784     -767     -762 
    -799     -877     -938     -947     -905     -823     -754     -706 
    -658     -662     -715     -756     -789     -822     -818     -776 
    -715     -670     -666     -688     -719     -745     -715     -657 
    -648     -675     -692     -719     -727     -662     -544     -429 
    -364     -363     -388     -409     -406     -338     -225     -163 
    -129      -81      -91     -143     -143     -139     -175     -217 
    -246     -278     -329     -388     -409     -427     -471     -479 
    -471     -496     -506     -469     -461     -498     -517     -523 
    -540     -550     -572     -595     -600     -610     -588     -532 
    -526     -553     -571     -623     -662     -616     -544     -508 
    -506     -526     -569     -611     -622     -571     -473     -399 
    -365     -349     -383     -457     -483     -461     -402     -291 
    -157      -54      -31      -83     -135     -152     -143      -97 
     -63     -124     -265     -410     -549     -673     -710     -657 
    -596     -573     -579     -608     -650     -645     -552     -407 
    -278     -195     -178     -236     -305     -305     -238     -147 
     -72      -49      -86     -171     -252     -253     -189     -141 
    -163     -249     -367     -483     -546     -550     -576     -666 
    -799     -974    -1208    -1437    -1606    -1745    -1859    -1906 
   -1898    -1890    -1863    -1787    -1706    -1648    -1566    -1455 
   -1395    -1412    -1448    -1478    -1501    -1494    -1449    -1416 
   -1426    -1453    -1466    -1478    -1501    -1513    -1528    -1586 
   -1679    -1768    -1845    -1910    -1938    -1930    -1914    -1899 
   -1859    -1781    -1682    -1572    -1439    -1277    -1107     -947 
    -808     -707     -676     -693     -706     -719     -734     -715 
    -677     -699     -814     -992    -1193    -1374    -1460    -1435 
   -1340    -1240    -1183    -1154    -1146    -1135    -1050     -908 
    -793     -724     -706     -751     -826     -873     -892     -908 
    -953    -1047    -1152    -1208    -1181    -1047     -816     -542 
    -263        1      194      305      380      444      493      500 
     438      344      222       72      -45     -139     -255     -368 
    -475     -594     -691     -731     -720     -673     -603     -533 
    -483     -450     -407     -318     -220     -176     -205     -298 
    -429     -510     -521     -503     -464     -442     -483     -540 
    -573     -577     -545     -491     -433     -380     -325     -256 
    -218     -206     -183     -197     -283     -375     -441     -526 
    -654     -797     -974    -1192    -1387    -1535    -1655    -1702 
   -1656    -1563    -1463    -1383    -1317    -1279    -1291    -1286 
   -1215    -1128    -1042     -963     -961    -1026    -1104    -1181 
   -1220    -1217    -1210    -1183    -1159    -1182    -1196    -1162 
   -1098     -994     -872     -796     -783     -789     -785     -754 
    -706     -660     -638     -677     -784     -854     -822     -745 
    -626     -460     -340     -297     -287     -286     -274     -236 
    -170      -99     -112     -245     -417     -562     -648     -573 
    -336      -54      217      444      584      660      704      745 
     815      849      791      710      608      464      383      402 
     429      419      372      275      131      -29     -171     -299 
    -427     -549     -665     -801     -974    -1136    -1250    -1343 
   -1409    -1409    -1409    -1470    -1549    -1628    -1736    -1841 
   -1890    -1884    -1868    -1877    -1894    -1917    -1984    -2023 
   -1982    -1954    -1982    -2011    -2043    -2101    -2123    -2074 
   -2031    -2053    -2143    -2293    -2481    -2646    -2709    -2651 
   -2546    -2473    -2434    -2438    -2501    -2558    -2542    -2455 
   -2328    -2189    -2091    -2100    -2245    -2459    -2671    -2830 
   -2895    -2863    -2801    -2782    -2798    -2816    -2844    -2840 
   -2727    -2508    -2278    -2120    -2061    -2115    -2267    -2423 
   -2485    -2452    -2373    -2272    -2192    -2187    -2219    -2223 
   -2205    -2181    -2160    -2150    -2169    -2219    -2261    -2265 
   -2289    -2362    -2420    -2470    -2544    -2586    -2542    -2435 
   -2324    -2243    -2166    -2081    -2006    -1922    -1849    -1825 
   -1791    -1705    -1603    -1530    -1528    -1606    -1755    -1948 
   -2091    -2168    -2228    -2277    -2311    -2330    -2316    -2270 
   -2196    -2101    -1995    -1867    -1691    -1487    -1314    -1182 
   -1104    -1104    -1125    -1107    -1062    -1019     -990    -1004 
   -1080    -1179    -1243    -1250    -1228    -1193    -1139    -1081 
   -1034     -978     -903     -811     -714     -630     -585     -591 
    -626     -652     -626     -553     -464     -360     -261     -211 
    -190     -170     -164     -160     -131      -98      -70      -64 
     -91     -112     -139     -212     -321     -481     -696     -873 
    -939     -913     -819     -688     -607     -603     -611     -584 
    -493     -317     -102       67      149      148      106       89 
     129      203      261      282      253      184      135      135 
     144      141      122       37     -128     -321     -467     -526 
    -521     -476     -432     -463     -588     -700     -734     -733 
    -664     -529     -475     -537     -626     -724     -811     -815 
    -726     -587     -442     -338     -303     -322     -386     -445 
    -410     -268      -76      131      288      321      259      186 
     163      195      245      282      278      211      151      153 
     143       71      -45     -228     -450     -618     -664     -616 
    -572     -608     -718     -881    -1050    -1105    -1043     -993 
   -1028    -1173    -1457    -1804    -2039    -2100    -2039    -1894 
   -1750    -1725    -1836    -2014    -2155    -2195    -2134    -1987 
   -1813    -1711    -1709    -1734    -1721    -1638    -1479    -1260 
   -1077    -1028    -1147    -1386    -1667    -1890    -1956    -1857 
   -1706    -1598    -1553    -1580    -1668    -1710    -1586    -1332 
   -1065     -823     -652     -627     -661     -581     -344       -1 
     373      669      760      608      309       10     -218     -342 
    -344     -325     -406     -577     -803    -1060    -1282    -1412 
   -1459    -1456    -1441    -1431    -1431    -1463    -1505    -1487 
   -1394    -1262    -1081     -876     -741     -684     -631     -553 
    -461     -382     -328     -349     -503     -724     -927    -1116 
   -1294    -1426    -1522    -1615    -1674    -1657    -1606    -1552 
   -1453    -1287    -1090     -912     -745     -583     -483     -433 
    -365     -298     -263     -225     -220     -289     -394     -488 
    -553     -588     -642     -751     -922    -1163    -1445    -1675 
   -1807    -1848    -1813    -1759    -1757    -1826    -1917    -1964 
   -1945    -1883    -1790    -1682    -1603    -1568    -1516    -1416 
   -1302    -1166    -1031     -982    -1011    -1031    -1000     -911 
    -735     -514     -332     -225     -186     -156      -94      -11 
      81      139      105       17      -81     -194     -289     -353 
    -405     -441     -459     -472     -473     -454     -403     -302 
    -162      -21       99      198      266      313      351      370 
     398      425      396      328      220       49     -103     -197 
    -271     -313     -311     -310     -302     -274     -251     -234 
    -228     -243     -212     -126      -63       -4       59       71 
      98      203      318      418      508      558      572      576 
     598      660      726      757      760      707      588      492 
     491      562      687      811      843      772      630      459 
     344      334      373      440      499      450      288      101 
     -70     -222     -309     -302     -248     -199     -136      -54 
     -20      -10       45      109      143      201      257      252 
     216      189      139       67       21        0      -14      -32 
     -58      -72     -117     -197     -249     -268     -266     -232 
    -225     -299     -417     -535     -618     -662     -715     -788 
    -881    -1035    -1256    -1467    -1645    -1837    -1991    -2050 
   -2083    -2130    -2163    -2208    -2315    -2424    -2446    -2416 
   -2407    -2417    -2412    -2397    -2392    -2350    -2277    -2234 
   -2211    -2181    -2185    -2250    -2317    -2359    -2396    -2438 
   -2466    -2459    -2442    -2425    -2370    -2281    -2196    -2101 
   -1975    -1845    -1744    -1637    -1524    -1426    -1327    -1204 
   -1074     -953     -847     -737     -654     -660     -708     -739 
    -772     -778     -700     -564     -425     -311     -220     -128 
     -14      151      380      610      780      905     1004     1030 
     996      981      951      837      679      506      263      -32 
    -311     -553     -783     -990    -1138    -1228    -1302    -1320 
   -1213     -993     -693     -326       54      383      670      943 
    1197     1431     1632     1792     1896     1942     1968     1987 
    1968     1917     1841     1738     1601     1441     1327     1282 
    1227     1109      967      814      637      500      464      467 
     437      399      369      337      361      504      710      876 
     980     1031      986      874      796      733      626      506 
     398      292      203      153      144      143      124      136 
     187      255      332      399      425      403      356      295 
     220      141       78       31       17       54      135      249 
     330      344      353      367      386      454      544      599 
     616      610      595      577      573      649      799      939 
    1038     1105     1116     1088     1109     1212     1339     1471 
    1580     1591     1524     1459     1428     1435     1470     1513 
    1543     1513     1399     1208      965      749      626      604 
     652      699      650      493      313      180      163      310 
     579      846     1032     1096     1024      918      899     1000 
    1163     1324     1417     1409     1321     1221     1213     1337 
    1532     1734     1859     1819     1651     1437     1235     1138 
    1173     1237     1235     1100      822      503      259      126 
     112      211      325      372      390      396      382      406 
     449      434      376      291      166       27      -99     -180 
    -164      -55       87      243      383      448      471      526 
     576      623      727      801      758      661      552      425 
     333      286      252      222      198      191      214      240 
     230      171       37     -193     -450     -648     -787     -896 
    -957    -1011    -1127    -1273    -1402    -1514    -1566    -1525 
   -1394    -1221    -1097    -1032    -1015    -1105    -1262    -1368 
   -1418    -1443    -1452    -1487    -1566    -1671    -1757    -1748 
   -1636    -1513    -1410    -1356    -1409    -1453    -1374    -1278 
   -1206    -1119    -1098    -1162    -1220    -1251    -1212    -1085 
    -945     -826     -757     -781     -824     -815     -792     -780 
    -808     -924    -1121    -1351    -1528    -1570    -1489    -1328 
   -1094     -857     -704     -600     -469     -337     -216      -86 
     -27     -118     -292     -453     -588     -696     -743     -695 
    -595     -511     -446     -440     -562     -745     -874     -958 
    -992     -934     -857     -864     -928     -992    -1031    -1036 
   -1021     -999    -1017    -1132    -1281    -1389    -1471    -1528 
   -1548    -1570    -1622    -1653    -1601    -1459    -1263    -1053 
    -859     -712     -650     -680     -746     -819     -873     -814 
    -631     -430     -289     -261     -382     -589     -753     -792 
    -710     -589     -535     -592     -765     -978    -1105    -1111 
   -1042     -911     -777     -747     -795     -820     -816     -783 
    -715     -685     -743     -854     -954     -992     -967     -926 
    -876     -845     -882     -959    -1028    -1077    -1065     -985 
    -868     -720     -594     -552     -571     -598     -581     -444 
    -207      -18       72       91       39      -20       -2      108 
     294      469      548      537      440      283      164      131 
     159      238      318      305      211       99        1        8 
     156      368      545      619      538      340      140       22 
      28      164      330      378      232      -82     -468     -815 
   -1034    -1102    -1090    -1065    -1044    -1048    -1100    -1183 
   -1258    -1308    -1337    -1327    -1267    -1188    -1125    -1109 
   -1161    -1269    -1368    -1404    -1375    -1341    -1356    -1431 
   -1541    -1645    -1691    -1644    -1528    -1413    -1333    -1324 
   -1405    -1524    -1602    -1622    -1571    -1433    -1262    -1128 
   -1060    -1053    -1081    -1135    -1202    -1277    -1348    -1431 
   -1507    -1530    -1512    -1483    -1447    -1417    -1424    -1471 
   -1507    -1489    -1451    -1445    -1463    -1505    -1567    -1578 
   -1498    -1408    -1374    -1395    -1462    -1541    -1598    -1601 
   -1563    -1543    -1541    -1525    -1516    -1543    -1560    -1534 
   -1512    -1499    -1455    -1409    -1420    -1466    -1532    -1615 
   -1680    -1691    -1668    -1672    -1738    -1868    -2047    -2232 
   -2363    -2401    -2378    -2376    -2434    -2552    -2709    -2863 
   -2956    -2965    -2952    -2984    -3037    -3082    -3126    -3106 
   -2986    -2852    -2779    -2754    -2774    -2870    -2986    -3052 
   -3069    -3064    -3036    -3009    -3030    -3132    -3258    -3345 
   -3384    -3381    -3312    -3217    -3171    -3164    -3160    -3200 
   -3292    -3366    -3381    -3357    -3315    -3242    -3153    -3087 
   -3005    -2862    -2683    -2486    -2249    -1975    -1721    -1553 
   -1466    -1412    -1390    -1389    -1352    -1336    -1424    -1606 
   -1848    -2118    -2371    -2520    -2524    -2448    -2357    -2293 
   -2313    -2430    -2571    -2631    -2590    -2501    -2374    -2259 
   -2253    -2327    -2359    -2305    -2168    -1945    -1675    -1445 
   -1331    -1327    -1372    -1431    -1490    -1502    -1485    -1524 
   -1609    -1682    -1755    -1830    -1861    -1831    -1775    -1744 
   -1759    -1819    -1941    -2087    -2166    -2153    -2118    -2088 
   -2056    -2074    -2137    -2142    -2060    -1927    -1784    -1677 
   -1636    -1677    -1768    -1817    -1821    -1821    -1773    -1691 
   -1657    -1660    -1636    -1583    -1516    -1433    -1343    -1290 
   -1317    -1390    -1472    -1564    -1647    -1709    -1772    -1854 
   -1930    -1964    -1965    -1948    -1945    -1992    -2066    -2144 
   -2195    -2161    -2052    -1925    -1806    -1725    -1736    -1798 
