Origin Time       2016/04/16 01:25:00
Lat.              32.753
Long.             130.762
Depth. (km)       12
Mag.              7.3
Station Code      HRS014
Station Lat.      34.2869
Station Long.     132.2766
Station Height(m) 3
Record Time       2016/04/16 01:25:45
Sampling Freq(Hz) 100Hz
Duration Time(s)  113
Dir.              N-S
Scale Factor      7845(gal)/8223790
Max. Acc. (gal)   15.370
Last Correction   2016/04/16 01:25:45
Memo.             
[...]
   -1336    -1509    -1799    -2182    -2548    -2813    -2986    -3133 
   -3304    -3508    -3724    -3924    -4020    -3955    -3757    -3485 
   -3198    -2894    -2551    -2239    -2091    -2155    -2366    -2629 
   -2817    -2810    -2605    -2235    -1695    -1057     -450       -4 
     176      153      135      229      380      460      422      365 
     340      324      338      399      444      427      369      299 
     191       22     -193     -484     -838    -1165    -1452    -1726 
   -1998    -2286    -2563    -2794    -3014    -3237    -3384    -3397 
   -3327    -3231    -3172    -3272    -3585    -3967    -4189    -4162 
   -3987    -3804    -3662    -3510    -3227    -2767    -2151    -1412 
    -623       74      561      797      862      889      911      915 
     946     1011     1098     1270     1584     1998     2374     2643 
    2826     2932     2941     2817     2488     1949     1263      515 
    -199     -853    -1426    -1854    -2130    -2362    -2671    -3065 
   -3437    -3678    -3802    -3905    -4054    -4241    -4436    -4599 
   -4653    -4522    -4205    -3707    -3063    -2396    -1786    -1201 
    -553      211     1017     1745     2374     2895     3223     3279 
    3086     2702     2079     1190      245     -453     -808     -929 
    -970    -1007    -1026    -1088    -1260    -1476    -1641    -1767 
   -1915    -2165    -2559    -3024    -3403    -3597    -3576    -3379 
   -3136    -2972    -2910    -2906    -2947    -2997    -2929    -2686 
   -2332    -1921    -1494    -1089     -697     -319       90      573 
    1057     1452     1718     1846     1899     1930     1938     1900 
    1775     1571     1356     1096      699      160     -471    -1116 
   -1698    -2182    -2539    -2733    -2781    -2712    -2567    -2405 
   -2254    -2100    -1939    -1781    -1668    -1620    -1632    -1755 
   -2030    -2390    -2755    -3055    -3256    -3402    -3510    -3547 
   -3518    -3468    -3465    -3534    -3605    -3599    -3457    -3163 
   -2759    -2295    -1746    -1073     -334      329      843     1225 
    1487     1653     1818     2065     2351     2559     2667     2749 
    2803     2733     2494     2110     1553      816      -20     -855 
   -1564    -2072    -2389    -2451    -2191    -1692    -1107     -583 
    -241     -101      -67       -5      157      325      338      103 
    -418    -1098    -1683    -2053    -2253    -2382    -2523    -2702 
   -2913    -3113    -3203    -3133    -2971    -2813    -2754    -2852 
   -3053    -3221    -3227    -3007    -2544    -1867    -1050     -171 
     673     1358     1776     1883     1729     1462     1182      926 
     693      430       98     -244     -540     -788     -987    -1112 
   -1097     -892     -514      -37      456      919     1362     1753 
    1984     2022     1896     1583     1071      446     -199     -841 
   -1453    -2006    -2494    -2893    -3129    -3145    -2920    -2452 
   -1784    -1050     -461     -187     -183     -305     -454     -561 
    -641     -869    -1364    -2022    -2685    -3269    -3699    -3850 
   -3646    -3186    -2664    -2203    -1825    -1507    -1230     -924 
    -493       32      540      962     1286     1509     1610     1584 
    1478     1359     1259     1201     1185     1190     1252     1395 
    1572     1749     1907     2000     1975     1780     1495     1254 
    1044      774      398      -86     -618    -1198    -1899    -2717 
   -3584    -4421    -5171    -5807    -6320    -6682    -6837    -6766 
   -6513    -6158    -5810    -5528    -5202    -4687    -4051    -3495 
   -3071    -2751    -2493    -2242    -1982    -1696    -1278     -702 
     -75      502      985     1377     1649     1788     1865     1980 
    2172     2366     2415     2308     2110     1755     1274      888 
     738      769      857      889      830      638      270     -206 
    -712    -1198    -1588    -1937    -2393    -3014    -3785    -4700 
   -5737    -6711    -7314    -7429    -7186    -6648    -5788    -4642 
   -3342    -2087     -985       29     1009     1885     2559     2986 
    3221     3287     3145     2852     2508     2174     1930     1722 
    1314      639      -11     -279     -120      234      610      893 
     919      623       72     -633    -1337    -1921    -2413    -2878 
   -3343    -3769    -3956    -3762    -3292    -2775    -2439    -2434 
   -2756    -3296    -3815    -4040    -4029    -4059    -4122    -3928 
   -3341    -2523    -1713    -1024     -506      -85      357      724 
     845      722      456      210      109       32     -180     -427 
    -448     -187       83       54     -326     -901    -1507    -2039 
   -2471    -2814    -3105    -3418    -3817    -4275    -4666    -4857 
   -4776    -4469    -3989    -3327    -2544    -1807    -1285     -962 
    -658     -375     -317     -545     -876    -1121    -1305    -1506 
   -1617    -1468    -1077     -625     -259       47      414      826 
    1123     1190     1063      895      749      557      311       89 
     -83     -255     -510     -862    -1229    -1587    -1960    -2290 
   -2524    -2671    -2754    -2813    -2903    -3022    -3105    -3069 
   -2920    -2808    -2882    -3094    -3276    -3352    -3343    -3238 
   -3010    -2743    -2573    -2582    -2732    -2832    -2608    -1842 
    -611      645     1448     1717     1755     1811     1838     1680 
    1413     1313     1439     1534     1479     1456     1563     1642 
    1575     1374     1013      409     -365    -1047    -1502    -1815 
   -2120    -2436    -2552    -2282    -1765    -1228     -672       17 
     892     1842     2601     2853     2392     1329       52    -1204 
   -2446    -3678    -4837    -5771    -6332    -6485    -6262    -5746 
   -5074    -4330    -3543    -2835    -2362    -2065    -1652     -965 
    -210      351      726      997     1182     1279     1266     1171 
     996      706      434      344      398      490      526      417 
     189       -1      -74     -159     -364     -529     -430      -67 
     338      502      255     -315     -935    -1410    -1845    -2461 
   -3322    -4220    -4830    -5035    -5030    -5044    -5066    -4889 
   -4486    -4090    -3831    -3588    -3187    -2527    -1610     -579 
     334      970     1340     1470     1339     1059      773      535 
     430      506      767     1258     1863     2327     2478     2250 
    1701      989      288     -205     -395     -396     -341     -263 
    -105      206      529      633      599      714     1034     1230 
     963      252     -670    -1549    -2173    -2619    -3079    -3466 
   -3576    -3380    -3117    -3069    -3213    -3315    -3240    -2894 
   -2188    -1262     -461      -47      -13     -125     -170     -214 
    -437     -861    -1428    -2116    -2825    -3388    -3773    -4087 
   -4395    -4654    -4903    -5281    -5806    -6346    -6750    -6856 
   -6573    -5950    -5057    -3963    -2783    -1561     -284      959 
    1999     2675     2909     2820     2693     2679     2745     2860 
    3038     3288     3586     3858     4048     4140     4068     3775 
    3281     2675     2102     1611     1119      588        5     -700 
   -1517    -2251    -2818    -3333    -3865    -4367    -4742    -4969 
   -5128    -5252    -5364    -5499    -5563    -5467    -5260    -4961 
   -4606    -4283    -4003    -3724    -3365    -2936    -2620    -2583 
   -2833    -3196    -3418    -3334    -2949    -2478    -2238    -2307 
   -2493    -2648    -2755    -2799    -2688    -2276    -1537     -589 
     398     1236     1919     2570     3238     3954     4583     4841 
    4677     4287     3792     3186     2497     1872     1483     1282 
     999      450     -297    -1053    -1690    -2123    -2353    -2469 
   -2493    -2420    -2381    -2523    -2830    -3194    -3511    -3713 
   -3828    -3990    -4287    -4633    -4893    -5039    -5077    -4992 
   -4754    -4253    -3387    -2286    -1260     -521      -54      302 
     604      799      954     1178     1463     1732     1918     2019 
    2057     2088     2195     2409     2743     3148     3407     3372 
    3187     3088     3099     3067     2893     2631     2358     2077 
    1746     1290      669       -5     -564    -1039    -1636    -2440 
   -3283    -3908    -4327    -4770    -5297    -5787    -6166    -6471 
   -6744    -6964    -7034    -6817    -6243    -5491    -4905    -4654 
   -4700    -4932    -5194    -5339    -5293    -5030    -4515    -3736 
   -2801    -1798     -702      392     1202     1567     1599     1462 
    1235      957      746      731      886     1102     1304     1470 
    1606     1726     1888     2126     2403     2617     2569     2150 
    1572     1202     1277     1656     1848     1575     1071      687 
     564      526      324        1     -288     -638    -1215    -1968 
   -2687    -3294    -3897    -4563    -5219    -5852    -6524    -7146 
   -7535    -7688    -7746    -7719    -7515    -7106    -6555    -6033 
   -5719    -5602    -5491    -5289    -5053    -4770    -4338    -3708 
   -2913    -2006    -1007      126     1453     2984     4638     6201 
    7452     8286     8739     8922     8874     8621     8305     7979 
    7584     7134     6696     6320     6081     5977     5900     5727 
    5328     4679     3925     3218     2612     2038     1433      859 
     400      131      120      333      743     1318     1873     2254 
    2474     2556     2508     2308     1946     1478      951      454 
      91     -163     -391     -649    -1036    -1655    -2484    -3348 
   -4024    -4437    -4668    -4814    -4899    -4851    -4612    -4143 
   -3480    -2813    -2305    -1914    -1525    -1109     -756     -598 
    -646     -699     -558     -294      -86       14       64      109 
      98      -81     -383     -625     -743     -823     -989    -1305 
   -1640    -1841    -1982    -2300    -2911    -3686    -4401    -5043 
   -5780    -6690    -7723    -8765    -9701   -10438   -10936   -11315 
  -11736   -12201   -12571   -12663   -12471   -12247   -12150   -12071 
  -11880   -11524   -11044   -10509    -9969    -9462    -8935    -8237 
   -7310    -6251    -5148    -4036    -2951    -1922    -1094     -618 
    -413     -330     -346     -463     -629     -788     -916     -997 
   -1031     -980     -803     -545     -220      170      540      843 
    1089     1325     1544     1669     1733     1841     2034     2278 
    2475     2571     2608     2700     2911     3198     3528     3919 
    4302     4484     4325     3951     3632     3410     3032     2358 
    1551      797      141     -398     -824    -1143    -1262    -1264 
   -1399    -1641    -1878    -2192    -2569    -2947    -3442    -4129 
   -4862    -5351    -5383    -5003    -4357    -3630    -3048    -2636 
   -2280    -2008    -1877    -1939    -2299    -2836    -3288    -3620 
   -3851    -3875    -3642    -3258    -2906    -2641    -2408    -2168 
   -1868    -1482    -1032     -526       29      558     1000     1418 
    1895     2466     3099     3766     4480     5190     5755     6031 
    5940     5571     5184     4947     4799     4576     4212     3816 
    3472     3061     2531     2000     1549     1237     1165     1368 
    1857     2590     3400     4116     4696     5240     5900     6658 
    7331     7780     7966     7892     7561     7038     6417     5798 
    5324     5098     5088     5107     5008     4773     4396     3855 
    3141     2282     1393      588     -163     -931    -1718    -2489 
   -3117    -3478    -3636    -3642    -3376    -2811    -2084    -1331 
    -634        8      616     1190     1744     2253     2655     2967 
    3272     3615     3977     4288     4502     4583     4548     4430 
    4107     3366     2317     1301      283     -984    -2350    -3541 
   -4467    -5004    -5136    -5046    -4881    -4708    -4548    -4494 
   -4734    -5285    -5956    -6562    -7082    -7547    -7979    -8401 
   -8707    -8704    -8341    -7723    -7020    -6401    -6026    -6016 
   -6377    -6916    -7430    -7803    -7890    -7659    -7211    -6588 
   -5873    -5263    -4958    -5027    -5327    -5705    -6089    -6355 
   -6513    -6751    -7134    -7609    -8035    -8209    -8040    -7592 
   -7082    -6744    -6463    -6022    -5637    -5493    -5368    -5186 
   -4887    -4225    -3245    -2069     -666      855     2322     3573 
    4490     5020     5182     5115     4934     4583     3977     3167 
    2366     1780     1463     1328     1227      986      392     -683 
   -2155    -3800    -5267    -6212    -6552    -6347    -5651    -4654 
   -3753    -3362    -3532    -3960    -4419    -4888    -5390    -5913 
   -6432    -6913    -7261    -7298    -6853    -5908    -4585    -3156 
   -1898     -868       35      899     1741     2475     3011     3419 
    3807     4135     4311     4380     4494     4688     4747     4452 
    3846     3164     2655     2403     2223     1892     1395      819 
     229     -341     -888    -1428    -2019    -2686    -3317    -3828 
   -4341    -5065    -6114    -7365    -8608    -9713   -10632   -11379 
  -11956   -12302   -12380   -12310   -12326   -12588   -13066   -13683 
  -14364   -14924   -15222   -15350   -15438   -15541   -15654   -15680 
  -15587   -15348   -14804   -13860   -12491   -10631    -8388    -5983 
   -3537    -1075     1417     3890     6207     8244     9971    11449 
   12726    13768    14503    14898    14967    14790    14590    14539 
   14477    14112    13406    12399    11034     9501     8135     7003 
    6033     5131     4202     3304     2488     1710     1039      552 
     245      229      545     1111     1822     2382     2525     2359 
    2052     1632     1171      704      151     -441     -938    -1370 
   -1811    -2322    -3044    -3924    -4684    -5186    -5366    -5182 
   -4868    -4715    -4872    -5400    -6133    -6735    -7052    -7126 
   -7087    -7130    -7271    -7339    -7258    -6952    -6297    -5370 
   -4383    -3468    -2727    -2130    -1547     -989     -453      207 
    1197     2691     4511     6087     7109     7827     8553     9346 
   10152    10831    11260    11515    11630    11438    10759     9591 
    8033     6099     3808     1402     -769    -2632    -4321    -5833 
   -7114    -8275    -9379   -10282   -10849   -11110   -11113   -10906 
  -10593   -10177    -9618    -8974    -8336    -7835    -7607    -7688 
   -8075    -8598    -8891    -8726    -8137    -7290    -6358    -5454 
   -4599    -3770    -3041    -2624    -2536    -2543    -2535    -2532 
   -2550    -2583    -2440    -1911    -1053       41     1304     2523 
    3601     4521     5209     5705     6035     6137     5938     5305 
    4159     2631      974     -576    -1896    -2961    -3713    -4152 
   -4387    -4442    -4409    -4482    -4653    -4885    -5260    -5830 
   -6597    -7508    -8469    -9477   -10537   -11504   -12205   -12552 
  -12587   -12414   -11986   -11259   -10347    -9333    -8283    -7250 
   -6245    -5437    -5015    -4865    -4831    -4889    -5001    -5130 
   -5232    -5173    -4792    -4052    -3049    -1826     -409     1100 
    2648     4167     5377     6034     6123     5705     4926     3993 
    3067     2281     1698     1223      714       90     -540    -1000 
   -1316    -1656    -2087    -2598    -3145    -3651    -4085    -4495 
   -4961    -5476    -5915    -6235    -6471    -6561    -6494    -6427 
   -6515    -6801    -7156    -7326    -7195    -6874    -6571    -6435 
   -6498    -6782    -7258    -7753    -8117    -8361    -8533    -8608 
   -8494    -8109    -7470    -6612    -5637    -4828    -4321    -4077 
   -4120    -4289    -4320    -4136    -3686    -2891    -1768     -418 
     882     1867     2656     3488     4228     4660     4700     4283 
    3477     2501     1640     1158     1089     1282     1591     1992 
    2639     3563     4482     5151     5564     5776     5831     5836 
    5907     6062     6264     6446     6508     6424     6219     5756 
    4901     3902     2922     1703      263    -1143    -2350    -3111 
   -3418    -3411    -3071    -2484    -1881    -1437    -1200    -1071 
    -981    -1021    -1198    -1452    -1904    -2687    -3792    -5093 
   -6372    -7485    -8387    -9027    -9405    -9553    -9451    -9086 
   -8437    -7485    -6335    -5101    -3808    -2481    -1166       79 
    1235     2397     3628     4812     5818     6619     7183     7588 
    7993     8376     8621     8622     8307     7771     7163     6492 
    5683     4635     3308     1852      523     -550    -1360    -1966 
   -2496    -2986    -3366    -3681    -4036    -4479    -5024    -5593 
   -6077    -6480    -6786    -6936    -6955    -6949    -6960    -6907 
   -6756    -6477    -5954    -5198    -4340    -3530    -2911    -2411 
   -1881    -1285     -560      225      997     1914     3028     4222 
    5486     6835     8131     9202     9976    10455    10652    10485 
    9900     9081     8214     7287     6249     5096     3831     2477 
    1081     -361    -1899    -3558    -5347    -7006    -8164    -8929 
   -9494    -9683    -9535    -9246    -8858    -8464    -7964    -7230 
   -6404    -5552    -4685    -3811    -2822    -1665     -365     1065 
    2548     3897     4941     5613     5940     5976     5823     5552 
    5198     4873     4585     4174     3584     2821     1833      675 
    -476    -1509    -2442    -3360    -4314    -5317    -6290    -7052 
   -7495    -7569    -7160    -6361    -5456    -4615    -3947    -3457 
   -3001    -2479    -1894    -1317     -872     -633     -552     -414 
     -79      386      940     1572     2246     3045     3969     4839 
    5575     6173     6556     6582     6099     5071     3689     2165 
     598     -889    -2130    -3105    -3763    -3905    -3681    -3547 
   -3634    -4028    -4807    -5585    -6103    -6471    -6693    -6750 
   -6744    -6758    -6829    -6922    -6902    -6567    -5833    -4891 
   -4009    -3311    -2833    -2501    -2238    -2115    -2177    -2361 
   -2612    -2853    -3037    -3227    -3450    -3634    -3689    -3566 
   -3260    -2778    -2180    -1598    -1080     -560      -11      602 
    1402     2417     3561     4714     5717     6485     7011     7277 
    7285     7082     6779     6519     6338     6212     6065     5831 
    5510     5058     4428     3704     2959     2163     1301      355 
    -630    -1576    -2461    -3213    -3719    -3898    -3684    -3084 
   -2226    -1275     -427      153      467      618      635      493 
     279      171      249      526     1031     1622     2010     2073 
    1927     1717     1486     1274     1240     1520     2033     2639 
    3252     3780     4172     4448     4600     4558     4363     4091 
    3670     3059     2253     1190      -70    -1425    -2820    -4109 
   -5128    -5863    -6312    -6423    -6214    -5787    -5339    -4993 
   -4608    -4088    -3524    -2844    -1806     -425     1009     2267 
    3258     3997     4475     4718     4900     5035     4985     4789 
    4594     4521     4642     4901     5150     5335     5475     5552 
    5644     5771     5752     5579     5358     5013     4579     4168 
    3776     3520     3435     3225     2651     1819     1013      337 
