Origin Time       2016/04/16 01:25:00
Lat.              32.753
Long.             130.762
Depth. (km)       12
Mag.              7.3
Station Code      HRS007
Station Lat.      34.7032
Station Long.     133.0946
Station Height(m) 382
Record Time       2016/04/16 01:26:32
Sampling Freq(Hz) 100Hz
Duration Time(s)  72
Dir.              E-W
Scale Factor      7845(gal)/8223790
Max. Acc. (gal)   3.439
Last Correction   2016/04/16 01:26:34
Memo.             
[...]
    4980     4941     4900     4860     4826     4804     4783     4746 
    4696     4633     4550     4453     4345     4236     4140     4063 
    3987     3905     3824     3753     3692     3645     3607     3581 
    3573     3574     3577     3582     3591     3596     3596     3589 
    3580     3591     3623     3665     3707     3748     3811     3912 
    4043     4178     4309     4428     4541     4656     4765     4860 
    4950     5046     5150     5263     5377     5490     5597     5688 
    5749     5769     5749     5702     5649     5602     5549     5481 
    5389     5270     5124     4955     4779     4606     4446     4297 
    4166     4055     3974     3927     3904     3901     3912     3935 
    3978     4050     4151     4271     4399     4529     4666     4801 
    4920     5016     5108     5221     5359     5501     5638     5776 
    5910     6027     6114     6170     6218     6261     6284     6266 
    6207     6112     6002     5895     5798     5718     5647     5574 
    5495     5413     5324     5216     5071     4891     4693     4507 
    4351     4222     4116     4020     3932     3866     3827     3804 
    3776     3742     3715     3709     3721     3740     3757     3784 
    3844     3944     4074     4220     4357     4484     4594     4676 
    4729     4746     4730     4687     4622     4553     4498     4460 
    4436     4422     4413     4417     4438     4467     4479     4469 
    4444     4414     4382     4336     4268     4183     4085     3989 
    3898     3812     3735     3670     3608     3544     3489     3440 
    3403     3387     3397     3430     3477     3527     3565     3585 
    3592     3585     3565     3542     3524     3520     3532     3566 
    3622     3690     3755     3807     3846     3875     3893     3898 
    3894     3885     3866     3827     3762     3669     3561     3459 
    3388     3360     3365     3391     3423     3457     3504     3573 
    3663     3767     3878     3997     4132     4280     4417     4513 
    4572     4608     4631     4644     4637     4615     4591     4579 
    4576     4576     4575     4565     4538     4495     4444     4382 
    4317     4263     4232     4218     4225     4253     4302     4375 
    4480     4617     4772     4927     5059     5159     5220     5229 
    5171     5042     4872     4708     4585     4509     4456     4411 
    4369     4338     4327     4344     4388     4459     4546     4641 
    4735     4831     4936     5057     5184     5300     5394     5470 
    5525     5552     5536     5481     5412     5348     5278     5190 
    5088     4984     4891     4810     4741     4689     4665     4677 
    4716     4770     4837     4909     4977     5036     5089     5139 
    5182     5212     5229     5238     5238     5229     5198     5144 
    5082     5026     4977     4932     4885     4827     4747     4645 
    4542     4468     4425     4399     4376     4351     4338     4356 
    4398     4446     4498     4548     4590     4622     4645     4654 
    4650     4637     4621     4602     4583     4558     4529     4511 
    4510     4506     4487     4457     4425     4387     4329     4256 
    4194     4171     4195     4256     4344     4444     4546     4639 
    4727     4827     4936     5042     5136     5225     5316     5417 
    5522     5626     5730     5837     5952     6065     6177     6303 
    6436     6562     6667     6739     6774     6770     6735     6679 
    6621     6571     6536     6512     6488     6455     6431     6431 
    6450     6458     6419     6318     6164     5987     5817     5664 
    5533     5428     5350     5294     5250     5201     5134     5040 
    4918     4783     4656     4550     4471     4422     4414     4463 
    4568     4710     4864     5000     5085     5097     5039     4926 
    4788     4661     4563     4494     4455     4433     4428     4442 
    4464     4479     4482     4480     4494     4541     4627     4757 
    4923     5100     5239     5308     5305     5255     5173     5070 
    4959     4845     4729     4610     4487     4379     4305     4263 
    4266     4306     4360     4428     4507     4588     4658     4692 
    4673     4617     4554     4502     4459     4421     4390     4378 
    4388     4415     4453     4502     4568     4657     4764     4882 
    5012     5146     5273     5395     5513     5628     5748     5877 
    6004     6110     6183     6224     6254     6288     6335     6385 
    6431     6469     6492     6494     6467     6413     6361     6328 
    6315     6305     6288     6251     6183     6069     5914     5732 
    5552     5408     5312     5255     5223     5216     5248     5325 
    5422     5512     5568     5583     5559     5499     5412     5313 
    5233     5185     5157     5134     5115     5107     5119     5152 
    5205     5270     5336     5404     5474     5535     5574     5584 
    5566     5506     5412     5292     5163     5053     4977     4922 
    4866     4796     4708     4626     4576     4571     4599     4638 
    4677     4718     4765     4826     4877     4895     4874     4812 
    4715     4577     4386     4133     3832     3527     3267     3071 
    2928     2814     2725     2662     2623     2606     2614     2644 
    2697     2785     2913     3071     3250     3437     3615     3786 
    3954     4117     4260     4368     4446     4514     4579     4646 
    4729     4835     4958     5073     5151     5181     5178     5155 
    5100     4994     4841     4671     4527     4433     4393     4417 
    4510     4661     4826     4943     4994     5003     5004     5008 
    4999     4970     4931     4896     4884     4888     4884     4874 
    4865     4850     4824     4806     4804     4835     4893     4961 
    5030     5101     5166     5206     5204     5157     5093     5027 
    4959     4888     4799     4693     4591     4502     4428     4363 
    4307     4263     4243     4263     4320     4388     4448     4499 
    4554     4611     4662     4706     4747     4793     4841     4876 
    4887     4868     4828     4787     4764     4768     4796     4830 
    4841     4818     4769     4691     4579     4434     4263     4086 
    3931     3804     3689     3589     3505     3433     3379     3354 
    3358     3400     3474     3558     3643     3738     3846     3965 
    4088     4197     4283     4347     4388     4425     4468     4513 
    4548     4554     4513     4430     4324     4205     4077     3932 
    3797     3696     3649     3640     3643     3639     3638     3655 
    3694     3757     3839     3925     4023     4137     4260     4367 
    4442     4483     4510     4553     4631     4762     4935     5134 
    5346     5557     5780     6027     6292     6547     6751     6874 
    6913     6881     6799     6685     6551     6407     6259     6107 
    5944     5769     5597     5448     5332     5250     5209     5211 
    5251     5312     5371     5406     5408     5387     5363     5344 
    5333     5335     5348     5368     5385     5390     5379     5363 
    5339     5302     5247     5186     5138     5121     5128     5135 
    5134     5136     5157     5190     5224     5262     5301     5327 
    5324     5278     5181     5051     4920     4796     4676     4544 
    4374     4172     3977     3801     3643     3484     3308     3136 
    3003     2936     2924     2947     3014     3134     3294     3468 
    3634     3770     3861     3902     3905     3874     3823     3767 
    3705     3640     3577     3520     3470     3430     3393     3355 
    3323     3312     3350     3449     3608     3816     4051     4294 
    4533     4743     4909     5031     5125     5201     5271     5351 
    5443     5552     5671     5768     5822     5826     5779     5691 
    5583     5467     5358     5256     5164     5080     5008     4961 
    4932     4905     4872     4843     4833     4841     4846     4827 
    4784     4748     4738     4739     4730     4704     4660     4599 
    4514     4396     4248     4091     3951     3856     3797     3743 
    3666     3557     3426     3284     3148     3024     2917     2832 
    2767     2721     2691     2677     2663     2636     2589     2523 
    2442     2336     2200     2047     1898     1772     1692     1667 
    1688     1736     1786     1826     1854     1867     1873     1880 
    1892     1921     1973     2045     2133     2223     2309     2397 
    2502     2627     2755     2870     2953     3005     3032     3041 
    3044     3049     3056     3073     3109     3160     3235     3333 
    3430     3510     3581     3661     3754     3850     3932     3998 
    4054     4097     4109     4081     4029     3982     3967     3994 
    4055     4129     4192     4232     4243     4228     4197     4159 
    4110     4048     3981     3920     3875     3847     3811     3748 
    3665     3577     3495     3418     3333     3226     3106     2991 
    2893     2803     2695     2551     2385     2226     2087     1966 
    1850     1728     1609     1524     1487     1486     1495     1487 
    1449     1399     1356     1321     1290     1271     1273     1297 
    1340     1404     1493     1617     1777     1958     2150     2346 
    2533     2710     2879     3057     3253     3433     3551     3589 
    3562     3523     3496     3485     3491     3523     3596     3708 
    3828     3919     3975     4008     4036     4083     4156     4263 
    4399     4549     4706     4842     4936     4992     5012     5005 
    4988     4977     4989     5027     5073     5116     5140     5138 
    5107     5050     4968     4869     4779     4706     4662     4656 
    4669     4684     4699     4706     4708     4710     4695     4648 
    4573     4477     4367     4240     4105     3973     3846     3730 
    3628     3535     3449     3360     3256     3134     2999     2879 
    2795     2749     2731     2721     2732     2771     2839     2922 
    3002     3067     3119     3171     3223     3271     3303     3327 
    3357     3396     3443     3480     3483     3461     3431     3399 
    3362     3327     3294     3271     3281     3335     3422     3516 
    3612     3719     3847     3977     4072     4109     4086     4031 
    3977     3948     3962     4010     4071     4129     4183     4238 
    4305     4388     4488     4596     4696     4772     4818     4837 
    4834     4816     4785     4743     4698     4641     4573     4506 
    4456     4430     4425     4431     4449     4467     4463     4417 
    4332     4220     4102     4012     3963     3944     3932     3910 
    3871     3820     3759     3677     3581     3501     3450     3423 
    3410     3396     3391     3419     3487     3566     3622     3638 
    3634     3630     3631     3634     3632     3630     3626     3628 
    3619     3576     3511     3453     3406     3368     3336     3312 
    3303     3304     3310     3317     3338     3380     3445     3524 
    3600     3666     3726     3781     3839     3906     3975     4036 
    4077     4101     4121     4143     4158     4162     4156     4156 
    4182     4232     4291     4347     4409     4488     4585     4689 
    4792     4885     4962     5024     5069     5098     5131     5182 
    5233     5273     5286     5278     5271     5270     5256     5209 
    5135     5050     4961     4864     4750     4615     4471     4326 
    4163     3956     3705     3419     3119     2844     2624     2450 
    2309     2196     2104     2029     1969     1927     1903     1900 
    1929     1980     2034     2079     2102     2097     2062     2010 
    1960     1939     1962     2020     2107     2219     2346     2484 
    2633     2785     2910     2991     3034     3075     3136     3217 
    3295     3368     3453     3557     3665     3747     3793     3808 
    3817     3836     3875     3940     4032     4129     4207     4256 
    4283     4314     4352     4378     4367     4310     4220     4126 
    4040     3948     3856     3788     3751     3740     3740     3740 
    3731     3711     3685     3667     3663     3673     3681     3678 
    3673     3676     3693     3732     3789     3850     3908     3955 
    3983     3994     3996     3986     3965     3948     3955     4000 
    4074     4162     4255     4352     4453     4548     4618     4662 
    4710     4773     4846     4920     4989     5051     5117     5202 
    5300     5400     5495     5585     5665     5732     5790     5837 
    5873     5913     5971     6061     6185     6313     6419     6494 
    6555     6600     6609     6578     6519     6440     6343     6216 
    6065     5902     5733     5575     5447     5362     5319     5297 
    5281     5273     5296     5348     5404     5432     5437     5439 
    5447     5443     5406     5329     5224     5100     4962     4818 
    4696     4625     4608     4626     4658     4712     4791     4880 
    4958     5023     5084     5144     5197     5233     5263     5301 
    5352     5410     5466     5508     5537     5560     5570     5564 
    5556     5548     5549     5572     5623     5706     5810     5929 
    6054     6174     6274     6346     6403     6481     6594     6737 
    6893     7045     7179     7291     7380     7449     7495     7522 
    7534     7527     7510     7489     7462     7429     7399     7377 
    7376     7399     7435     7479     7526     7580     7654     7747 
    7846     7940     8023     8081     8101     8078     8025     7947 
    7857     7756     7642     7523     7420     7344     7292     7256 
    7219     7176     7117     7036     6945     6853     6762     6678 
    6605     6534     6465     6399     6338     6288     6250     6219 
    6196     6180     6177     6177     6170     6147     6108     6069 
    6038     6025     6037     6069     6110     6127     6096     6041 
    6004     6000     6015     6031     6048     6070     6106     6137 
    6131     6089     6033     5976     5927     5873     5788     5672 
    5539     5394     5250     5113     4989     4874     4780     4710 
    4661     4645     4648     4646     4633     4610     4585     4567 
    4546     4522     4498     4490     4495     4486     4450     4393 
    4340     4317     4322     4327     4327     4330     4352     4383 
    4410     4436     4469     4525     4599     4676     4746     4800 
    4822     4803     4758     4710     4665     4617     4564     4525 
    4507     4513     4530     4542     4545     4544     4550     4568 
    4581     4581     4572     4565     4575     4612     4666     4726 
    4787     4850     4912     4963     4997     5012     5017     5026 
    5035     5046     5057     5062     5057     5046     5035     5023 
    4999     4954     4895     4831     4776     4743     4747     4780 
    4820     4849     4860     4860     4858     4849     4816     4764 
    4704     4645     4596     4557     4538     4546     4579     4633 
    4699     4772     4847     4922     4992     5066     5139     5201 
    5238     5238     5215     5186     5150     5090     5007     4923 
    4878     4885     4918     4951     4978     5003     5040     5097 
    5171     5251     5336     5421     5501     5572     5640     5711 
    5791     5880     5983     6083     6147     6168     6147     6099 
    6041     5976     5900     5834     5802     5803     5818     5829 
    5836     5845     5864     5890     5894     5872     5825     5759 
    5694     5644     5607     5584     5582     5595     5616     5633 
    5637     5617     5571     5498     5401     5293     5188     5103 
    5042     5011     5005     5007     4988     4943     4891     4843 
    4804     4772     4756     4762     4792     4833     4876     4912 
    4936     4954     4966     4982     5012     5060     5127     5190 
    5219     5205     5163     5120     5096     5093     5109     5140 
    5185     5242     5294     5327     5344     5348     5347     5359 
    5383     5402     5397     5364     5317     5273     5243     5216 
    5188     5152     5119     5090     5060     5019     4958     4880 
    4801     4731     4664     4594     4518     4434     4336     4228 
    4128     4048     3994     3970     3981     4024     4086     4152 
    4200     4225     4233     4228     4197     4158     4129     4125 
    4137     4149     4145     4125     4090     4040     3993     3967 
    3969     3998     4055     4135     4233     4337     4422     4469 
    4495     4523     4557     4592     4606     4592     4556     4499 
    4418     4315     4205     4114     4055     4020     4016     4043 
    4085     4120     4136     4140     4144     4159     4197     4241 
    4271     4284     4288     4303     4340     4393     4448     4490 
    4535     4596     4653     4685     4681     4653     4623     4606 
    4596     4587     4581     4588     4604     4622     4625     4600 
    4558     4502     4437     4369     4305     4256     4238     4230 
    4217     4205     4213     4243     4276     4276     4243     4195 
    4155     4120     4074     4012     3939     3861     3784     3708 
    3642     3589     3543     3489     3431     3395     3391     3407 
    3420     3414     3400     3404     3422     3435     3435     3424 
    3415     3414     3407     3369     3300     3208     3118     3041 
    2972     2910     2859     2824     2799     2778     2758     2740 
    2732     2731     2740     2772     2822     2893     2976     3056 
    3123     3187     3249     3299     3323     3329     3334     3349 
    3361     3360     3343     3316     3284     3248     3202     3156 
    3130     3134     3163     3210     3273     3350     3431     3504 
    3565     3622     3684     3748     3813     3873     3916     3940 
    3951     3958     3954     3931     3888     3851     3835     3842 
    3856     3861     3848     3828     3812     3805     3802     3801 
    3802     3801     3797     3790     3794     3827     3888     3965 
    4050     4125     4180     4213     4217     4200     4180     4166 
    4156     4155     4159     4166     4159     4136     4104     4062 
    4012     3955     3890     3828     3794     3790     3808     3834 
    3859     3885     3923     3982     4054     4116     4174     4233 
    4295     4364     4428     4475     4515     4552     4580     4598 
    4606     4615     4629     4637     4630     4618     4598     4565 
    4527     4483     4436     4384     4334     4299     4298     4329 
    4376     4414     4437     4442     4436     4421     4388     4336 
    4268     4192     4117     4045     3978     3913     3848     3781 
    3724     3690     3672     3653     3627     3600     3580     3569 
    3558     3535     3499     3468     3462     3483     3516     3544 
    3549     3535     3519     3496     3476     3469     3472     3480 
    3491     3495     3484     3464     3437     3392     3327     3260 
    3203     3157     3115     3071     3028     2988     2956     2937 
    2938     2951     2971     2994     3009     3018     3026     3036 
    3051     3067     3078     3076     3048     2995     2933     2868 
    2813     2778     2766     2787     2844     2929     3029     3134 
    3245     3361     3478     3596     3715     3820     3896     3947 
