Origin Time       2016/04/16 01:25:00
Lat.              32.753
Long.             130.762
Depth. (km)       12
Mag.              7.3
Station Code      HRS001
Station Lat.      35.0337
Station Long.     132.9018
Station Height(m) 566
Record Time       2016/04/16 01:26:07
Sampling Freq(Hz) 100Hz
Duration Time(s)  106
Dir.              N-S
Scale Factor      7845(gal)/8223790
Max. Acc. (gal)   2.924
Last Correction   2016/04/16 01:26:08
Memo.             
[...]
   -3169    -3291    -3420    -3550    -3653    -3703    -3719    -3743 
   -3778    -3809    -3834    -3861    -3883    -3889    -3859    -3788 
   -3685    -3565    -3434    -3314    -3226    -3184    -3190    -3230 
   -3284    -3353    -3435    -3514    -3576    -3618    -3632    -3622 
   -3604    -3601    -3615    -3636    -3651    -3647    -3619    -3576 
   -3527    -3488    -3469    -3457    -3435    -3400    -3360    -3331 
   -3334    -3369    -3422    -3457    -3466    -3457    -3433    -3396 
   -3362    -3346    -3349    -3362    -3373    -3384    -3411    -3481 
   -3595    -3726    -3838    -3902    -3913    -3885    -3836    -3785 
   -3731    -3680    -3636    -3589    -3527    -3464    -3429    -3443 
   -3511    -3604    -3677    -3685    -3615    -3484    -3329    -3187 
   -3079    -3015    -2995    -3013    -3069    -3180    -3352    -3565 
   -3774    -3935    -4023    -4028    -3958    -3835    -3678    -3511 
   -3365    -3253    -3186    -3157    -3165    -3207    -3284    -3391 
   -3488    -3544    -3543    -3507    -3476    -3481    -3516    -3551 
   -3566    -3572    -3577    -3581    -3581    -3569    -3539    -3485 
   -3410    -3327    -3258    -3229    -3258    -3342    -3453    -3555 
   -3646    -3740    -3846    -3959    -4052    -4093    -4079    -4016 
   -3901    -3754    -3601    -3472    -3381    -3336    -3339    -3392 
   -3492    -3628    -3769    -3879    -3935    -3932    -3892    -3838 
   -3784    -3727    -3659    -3580    -3492    -3415    -3362    -3353 
   -3406    -3511    -3630    -3711    -3719    -3639    -3487    -3312 
   -3161    -3051    -2984    -2979    -3053    -3194    -3369    -3539 
   -3672    -3759    -3815    -3835    -3824    -3794    -3761    -3732 
   -3705    -3661    -3597    -3534    -3489    -3465    -3445    -3411 
   -3364    -3323    -3307    -3329    -3400    -3510    -3632    -3748 
   -3832    -3878    -3890    -3877    -3865    -3867    -3865    -3839 
   -3792    -3726    -3659    -3615    -3591    -3572    -3553    -3524 
   -3483    -3433    -3387    -3361    -3364    -3392    -3442    -3514 
   -3615    -3738    -3865    -3967    -4031    -4033    -3962    -3808 
   -3582    -3326    -3087    -2921    -2862    -2915    -3068    -3287 
   -3530    -3778    -3996    -4143    -4197    -4159    -4058    -3931 
   -3811    -3699    -3604    -3542    -3539    -3599    -3690    -3770 
   -3807    -3796    -3757    -3707    -3653    -3608    -3589    -3592 
   -3593    -3573    -3530    -3477    -3420    -3369    -3319    -3281 
   -3267    -3267    -3268    -3284    -3330    -3406    -3492    -3578 
   -3640    -3658    -3608    -3492    -3327    -3145    -2979    -2856 
   -2802    -2830    -2920    -3034    -3150    -3261    -3360    -3426 
   -3449    -3434    -3407    -3403    -3426    -3454    -3473    -3481 
   -3476    -3442    -3376    -3291    -3218    -3180    -3172    -3169 
   -3157    -3130    -3111    -3132    -3207    -3341    -3508    -3659 
   -3781    -3871    -3925    -3943    -3920    -3848    -3723    -3569 
   -3435    -3364    -3380    -3477    -3632    -3807    -3963    -4068 
   -4106    -4077    -3989    -3874    -3759    -3669    -3611    -3592 
   -3615    -3678    -3761    -3819    -3827    -3797    -3750    -3693 
   -3632    -3565    -3481    -3369    -3241    -3126    -3067    -3079 
   -3146    -3231    -3296    -3321    -3299    -3248    -3196    -3152 
   -3107    -3059    -3005    -2945    -2884    -2832    -2808    -2840 
   -2917    -3001    -3064    -3094    -3095    -3075    -3046    -3029 
   -3048    -3121    -3257    -3453    -3693    -3964    -4238    -4471 
   -4603    -4611    -4509    -4342    -4143    -3931    -3753    -3666 
   -3700    -3856    -4085    -4303    -4452    -4506    -4455    -4306 
   -4099    -3875    -3667    -3485    -3333    -3213    -3150    -3165 
   -3254    -3383    -3505    -3584    -3591    -3511    -3346    -3127 
   -2914    -2767    -2721    -2778    -2922    -3132    -3375    -3609 
   -3790    -3885    -3885    -3789    -3600    -3348    -3071    -2816 
   -2616    -2506    -2515    -2654    -2899    -3203    -3501    -3735 
   -3873    -3909    -3846    -3712    -3559    -3434    -3369    -3387 
   -3483    -3627    -3784    -3919    -4010    -4047    -4031    -3969 
   -3861    -3719    -3558    -3404    -3292    -3249    -3292    -3426 
   -3603    -3753    -3820    -3771    -3636    -3465    -3298    -3148 
   -3032    -2955    -2911    -2899    -2926    -2978    -3030    -3073 
   -3100    -3115    -3138    -3187    -3254    -3330    -3410    -3496 
   -3582    -3674    -3781    -3899    -4025    -4128    -4159    -4090 
   -3935    -3736    -3541    -3388    -3299    -3268    -3267    -3269 
   -3273    -3302    -3377    -3516    -3703    -3886    -4002    -4005 
   -3906    -3763    -3638    -3569    -3574    -3630    -3693    -3732 
   -3731    -3690    -3634    -3597    -3599    -3638    -3696    -3751 
   -3793    -3813    -3809    -3797    -3789    -3773    -3723    -3618 
   -3447    -3219    -2960    -2702    -2478    -2307    -2196    -2155 
   -2208    -2367    -2609    -2889    -3160    -3393    -3573    -3693 
   -3742    -3707    -3597    -3439    -3275    -3146    -3076    -3068 
   -3111    -3191    -3303    -3438    -3570    -3672    -3742    -3804 
   -3875    -3964    -4055    -4125    -4144    -4101    -4017    -3920 
   -3825    -3738    -3658    -3593    -3562    -3558    -3565    -3573 
   -3585    -3611    -3655    -3713    -3773    -3817    -3835    -3812 
   -3730    -3581    -3383    -3168    -2979    -2844    -2778    -2786 
   -2866    -3003    -3164    -3307    -3400    -3434    -3430    -3412 
   -3388    -3364    -3339    -3308    -3269    -3232    -3219    -3254 
   -3342    -3465    -3601    -3727    -3809    -3823    -3778    -3701 
   -3624    -3578    -3585    -3632    -3684    -3705    -3693    -3669 
   -3647    -3619    -3578    -3527    -3468    -3412    -3381    -3391 
   -3446    -3543    -3662    -3766    -3821    -3820    -3769    -3667 
   -3514    -3322    -3117    -2932    -2797    -2717    -2679    -2685 
   -2724    -2795    -2910    -3060    -3221    -3375    -3511    -3615 
   -3662    -3627    -3501    -3315    -3107    -2915    -2771    -2701 
   -2721    -2836    -3013    -3196    -3339    -3412    -3424    -3396 
   -3350    -3312    -3306    -3339    -3407    -3483    -3553    -3623 
   -3693    -3761    -3824    -3882    -3944    -4005    -4058    -4099 
   -4120    -4112    -4081    -4036    -3998    -3977    -3986    -4013 
   -4036    -4041    -4013    -3917    -3746    -3515    -3264    -3041 
   -2882    -2790    -2758    -2783    -2886    -3075    -3316    -3544 
   -3700    -3751    -3694    -3543    -3333    -3126    -2983    -2934 
   -2979    -3090    -3232    -3384    -3514    -3611    -3690    -3761 
   -3820    -3842    -3820    -3757    -3682    -3622    -3600    -3626 
   -3703    -3819    -3946    -4052    -4117    -4126    -4086    -4016 
   -3948    -3910    -3916    -3950    -3984    -4002    -4000    -3974 
   -3931    -3871    -3802    -3736    -3674    -3626    -3603    -3609 
   -3640    -3688    -3731    -3753    -3742    -3689    -3612    -3535 
   -3466    -3410    -3362    -3310    -3234    -3138    -3046    -2994 
   -2988    -3015    -3049    -3068    -3063    -3028    -2967    -2906 
   -2866    -2856    -2882    -2955    -3079    -3241    -3418    -3588 
   -3721    -3786    -3780    -3715    -3622    -3535    -3483    -3457 
   -3446    -3447    -3468    -3523    -3615    -3716    -3796    -3842 
   -3855    -3840    -3793    -3715    -3609    -3497    -3420    -3404 
   -3446    -3510    -3566    -3611    -3640    -3647    -3619    -3544 
   -3427    -3273    -3096    -2925    -2794    -2729    -2755    -2882 
   -3079    -3303    -3508    -3659    -3743    -3771    -3759    -3726 
   -3680    -3611    -3497    -3336    -3146    -2960    -2820    -2756 
   -2772    -2848    -2957    -3086    -3221    -3352    -3468    -3559 
   -3626    -3661    -3665    -3636    -3581    -3508    -3434    -3375 
   -3339    -3346    -3404    -3491    -3574    -3639    -3680    -3697 
   -3703    -3701    -3693    -3667    -3601    -3488    -3346    -3211 
   -3115    -3078    -3094    -3138    -3184    -3207    -3204    -3206 
   -3229    -3269    -3317    -3364    -3391    -3392    -3369    -3338 
   -3327    -3345    -3383    -3424    -3470    -3530    -3613    -3716 
   -3827    -3939    -4051    -4162    -4260    -4344    -4406    -4441 
   -4456    -4442    -4371    -4248    -4105    -3967    -3836    -3709 
   -3599    -3542    -3574    -3708    -3916    -4155    -4392    -4610 
   -4795    -4935    -4997    -4951    -4800    -4561    -4256    -3929 
   -3632    -3431    -3366    -3418    -3543    -3716    -3920    -4120 
   -4286    -4405    -4475    -4506    -4513    -4504    -4491    -4480 
   -4484    -4502    -4518    -4495    -4406    -4263    -4109    -3984 
   -3899    -3838    -3781    -3719    -3665    -3639    -3658    -3724 
   -3821    -3917    -3994    -4048    -4078    -4091    -4094    -4088 
   -4064    -4012    -3924    -3817    -3727    -3685    -3713    -3817 
   -3967    -4109    -4205    -4251    -4248    -4215    -4168    -4124 
   -4088    -4054    -4005    -3948    -3898    -3873    -3888    -3946 
   -4043    -4159    -4271    -4364    -4437    -4494    -4531    -4530 
   -4473    -4355    -4185    -3996    -3836    -3748    -3744    -3815 
   -3928    -4040    -4107    -4106    -4040    -3932    -3802    -3649 
   -3465    -3253    -3029    -2820    -2651    -2556    -2555    -2643 
   -2797    -2967    -3099    -3167    -3173    -3149    -3134    -3146 
   -3177    -3207    -3223    -3230    -3235    -3242    -3246    -3242 
   -3221    -3163    -3059    -2929    -2826    -2792    -2825    -2896 
   -2975    -3038    -3073    -3082    -3067    -3046    -3044    -3063 
   -3064    -3011    -2903    -2768    -2651    -2594    -2620    -2713 
   -2851    -3025    -3225    -3438    -3662    -3878    -4062    -4185 
   -4222    -4170    -4044    -3877    -3694    -3516    -3355    -3219 
   -3113    -3025    -2952    -2903    -2893    -2921    -2976    -3030 
   -3048    -3002    -2889    -2727    -2529    -2319    -2123    -1969 
   -1898    -1935    -2076    -2299    -2575    -2875    -3175    -3468 
   -3740    -3979    -4183    -4341    -4433    -4449    -4419    -4392 
   -4386    -4378    -4365    -4344    -4306    -4248    -4149    -4009 
   -3842    -3659    -3470    -3284    -3115    -2980    -2907    -2913 
   -2988    -3119    -3281    -3434    -3532    -3566    -3549    -3492 
   -3400    -3253    -3037    -2771    -2504    -2299    -2208    -2251 
   -2423    -2693    -3003    -3300    -3547    -3724    -3828    -3851 
   -3778    -3612    -3372    -3090    -2802    -2533    -2323    -2208 
   -2196    -2277    -2427    -2624    -2844    -3064    -3262    -3418 
   -3519    -3559    -3554    -3528    -3497    -3474    -3461    -3454 
   -3449    -3440    -3424    -3402    -3362    -3296    -3199    -3073 
   -2932    -2794    -2683    -2612    -2589    -2610    -2662    -2732 
   -2808    -2875    -2933    -2970    -2967    -2934    -2882    -2849 
   -2875    -2972    -3137    -3354    -3589    -3804    -3986    -4147 
   -4302    -4456    -4592    -4695    -4761    -4788    -4769    -4707 
   -4615    -4502    -4386    -4283    -4215    -4192    -4213    -4270 
   -4352    -4442    -4517    -4553    -4540    -4472    -4355    -4200 
   -4024    -3840    -3669    -3532    -3438    -3375    -3335    -3315 
   -3321    -3375    -3487    -3642    -3835    -4055    -4284    -4506 
   -4720    -4923    -5097    -5232    -5321    -5358    -5324    -5194 
   -4974    -4703    -4442    -4256    -4175    -4183    -4253    -4342 
   -4411    -4448    -4457    -4455    -4468    -4517    -4602    -4704 
   -4784    -4799    -4727    -4583    -4391    -4174    -3954    -3743 
   -3550    -3379    -3222    -3083    -2979    -2933    -2972    -3117 
   -3373    -3708    -4045    -4301    -4402    -4327    -4101    -3766 
   -3375    -2970    -2597    -2307    -2139    -2128    -2295    -2635 
   -3115    -3680    -4240    -4703    -5004    -5135    -5123    -4994 
   -4774    -4488    -4163    -3828    -3530    -3329    -3267    -3348 
   -3526    -3732    -3928    -4106    -4256    -4363    -4417    -4393 
   -4271    -4036    -3700    -3314    -2945    -2648    -2455    -2377 
   -2397    -2475    -2569    -2658    -2735    -2809    -2886    -2956 
   -3002    -3018    -3005    -2961    -2894    -2805    -2709    -2636 
   -2608    -2616    -2639    -2650    -2628    -2573    -2490    -2405 
   -2358    -2390    -2516    -2717    -2951    -3172    -3335    -3397 
   -3316    -3076    -2724    -2334    -1956    -1606    -1304    -1092 
   -1024    -1135    -1397    -1753    -2151    -2555    -2930    -3238 
   -3435    -3491    -3415    -3253    -3053    -2856    -2694    -2592 
   -2570    -2624    -2720    -2814    -2870    -2863    -2806    -2733 
   -2675    -2643    -2635    -2636    -2636    -2639    -2647    -2671 
   -2705    -2727    -2731    -2739    -2759    -2792    -2847    -2917 
   -2997    -3094    -3226    -3407    -3647    -3923    -4183    -4369 
   -4445    -4414    -4310    -4180    -4078    -4047    -4125    -4309 
   -4554    -4806    -5042    -5267    -5490    -5699    -5867    -5973 
   -6004    -5953    -5822    -5628    -5418    -5254    -5152    -5084 
   -5005    -4895    -4756    -4611    -4487    -4405    -4406    -4535 
   -4808    -5192    -5602    -5972    -6265    -6465    -6574    -6601 
   -6544    -6411    -6219    -5988    -5753    -5551    -5410    -5366 
   -5435    -5579    -5734    -5841    -5872    -5846    -5792    -5725 
   -5647    -5560    -5459    -5335    -5192    -5050    -4949    -4915 
   -4947    -5019    -5093    -5142    -5148    -5112    -5051    -4988 
   -4938    -4912    -4901    -4888    -4837    -4716    -4518    -4263 
   -3987    -3724    -3507    -3360    -3279    -3237    -3199    -3150 
   -3096    -3048    -3024    -3032    -3059    -3083    -3060    -2952 
   -2764    -2535    -2317    -2157    -2065    -2029    -2025    -2039 
   -2069    -2101    -2123    -2120    -2087    -2027    -1977    -1975 
   -2043    -2187    -2381    -2600    -2818    -3015    -3176    -3302 
   -3388    -3426    -3407    -3357    -3315    -3323    -3415    -3613 
   -3917    -4270    -4583    -4776    -4803    -4660    -4375    -4006 
   -3634    -3323    -3113    -3022    -3068    -3242    -3519    -3858 
   -4209    -4530    -4801    -5017    -5174    -5256    -5259    -5200 
   -5107    -5008    -4938    -4923    -4977    -5076    -5179    -5247 
   -5251    -5197    -5112    -5019    -4926    -4841    -4788    -4785 
   -4843    -4955    -5092    -5208    -5267    -5251    -5142    -4945 
   -4687    -4410    -4149    -3917    -3719    -3573    -3485    -3465 
   -3510    -3627    -3838    -4140    -4491    -4806    -5015    -5090 
   -5047    -4915    -4739    -4553    -4375    -4213    -4069    -3925 
   -3776    -3661    -3605    -3619    -3688    -3762    -3786    -3728 
   -3593    -3410    -3229    -3079    -2960    -2856    -2754    -2648 
   -2546    -2461    -2416    -2413    -2432    -2452    -2478    -2517 
   -2586    -2686    -2802    -2911    -2991    -3042    -3080    -3117 
   -3154    -3163    -3099    -2948    -2721    -2455    -2212    -2062 
   -2046    -2165    -2390    -2686    -3010    -3329    -3613    -3824 
   -3923    -3886    -3709    -3422    -3092    -2794    -2593    -2515 
   -2538    -2620    -2716    -2797    -2878    -2986    -3138    -3319 
   -3505    -3676    -3798    -3861    -3896    -3950    -4050    -4189 
   -4332    -4452    -4541    -4594    -4595    -4538    -4425    -4291 
   -4178    -4131    -4170    -4283    -4433    -4585    -4720    -4831 
   -4923    -5011    -5074    -5078    -4992    -4808    -4550    -4266 
   -4006    -3808    -3685    -3636    -3634    -3639    -3626    -3597 
   -3584    -3613    -3686    -3775    -3842    -3875    -3879    -3873 
   -3877    -3898    -3927    -3943    -3939    -3901    -3846    -3809 
   -3815    -3866    -3955    -4058    -4170    -4293    -4418    -4542 
   -4676    -4827    -4999    -5169    -5300    -5352    -5314    -5182 
   -4978    -4748    -4534    -4359    -4247    -4220    -4287    -4442 
   -4653    -4864    -5027    -5111    -5104    -4994    -4781    -4494 
   -4195    -3963    -3831    -3775    -3757    -3747    -3762    -3828 
   -3929    -4025    -4078    -4066    -3982    -3834    -3642    -3454 
   -3334    -3310    -3357    -3426    -3466    -3468    -3456    -3454 
   -3466    -3491    -3538    -3611    -3699    -3780    -3821    -3819 
   -3790    -3757    -3724    -3697    -3673    -3627    -3559    -3505 
   -3503    -3572    -3705    -3871    -4039    -4168    -4210    -4129 
   -3932    -3658    -3362    -3107    -2929    -2837    -2830    -2878 
   -2925    -2934    -2890    -2797    -2664    -2482    -2227    -1903 
   -1559    -1263    -1089    -1081    -1237    -1528    -1898    -2251 
   -2511    -2636    -2619    -2486    -2272    -2014    -1768    -1588 
   -1501    -1516    -1628    -1830    -2107    -2432    -2751    -3030 
   -3253    -3406    -3477    -3454    -3310    -3051    -2731    -2421 
   -2173    -2008    -1917    -1887    -1915    -1995    -2101    -2219 
   -2350    -2504    -2674    -2848    -3006    -3132    -3213    -3237 
   -3179    -3046    -2866    -2652    -2430    -2211    -2015    -1869 
   -1790    -1784    -1848    -1962    -2116    -2297    -2474    -2627 
   -2744    -2832    -2909    -2972    -2998    -2955    -2849    -2720 
   -2621    -2594    -2644    -2759    -2934    -3164    -3433    -3715 
   -3986    -4236    -4441    -4573    -4606    -4526    -4349    -4126 
   -3898    -3669    -3426    -3184    -2976    -2833    -2782    -2844 
   -3013    -3237    -3454    -3613    -3686    -3673    -3595    -3505 
   -3459    -3457    -3447    -3385    -3268    -3140    -3055    -3037 
   -3083    -3169    -3271    -3376    -3483    -3604    -3770    -4005 
   -4284    -4526    -4621    -4506    -4199    -3792    -3385    -3064 
   -2867    -2792    -2824    -2948    -3138    -3380    -3665    -3977 
   -4279    -4511    -4614    -4561    -4360    -4040    -3653    -3257 
   -2913    -2659    -2511    -2477    -2562    -2758    -3022    -3281 
   -3485    -3626    -3713    -3761    -3769    -3750    -3721    -3689 
   -3634    -3514    -3310    -3060    -2830    -2679    -2636    -2685 
   -2781    -2891    -2992    -3090    -3213    -3391    -3615    -3828 
   -3958    -3978    -3897    -3730    -3485    -3192    -2889    -2625 
   -2424    -2276    -2157    -2072    -2052    -2126    -2284    -2470 
   -2636    -2762    -2833    -2860    -2870    -2891    -2936    -2992 
   -3041    -3079    -3134    -3245    -3399    -3555    -3689    -3789 
   -3842    -3816    -3677    -3442    -3194    -3032    -3014    -3142 
   -3357    -3577    -3734    -3794    -3762    -3653    -3507    -3350 
   -3191    -3037    -2890    -2735    -2579    -2447    -2371    -2386 
   -2486    -2639    -2790    -2890    -2914    -2849    -2709    -2528 
   -2340    -2176    -2058    -2019    -2079    -2234    -2451    -2701 
   -2941    -3126    -3210    -3180    -3064    -2896    -2716    -2550 
   -2411    -2319    -2293    -2346    -2492    -2732    -3038    -3355 
