Origin Time       2016/04/16 01:25:00
Lat.              32.753
Long.             130.762
Depth. (km)       12
Mag.              7.3
Station Code      HRS020
Station Lat.      34.3027
Station Long.     133.1693
Station Height(m) 4
Record Time       2016/04/16 01:25:58
Sampling Freq(Hz) 100Hz
Duration Time(s)  99
Dir.              N-S
Scale Factor      7845(gal)/8223790
Max. Acc. (gal)   7.153
Last Correction   2016/04/16 01:25:59
Memo.             
[...]
   -4012    -4153    -4283    -4360    -4415    -4450    -4414    -4326 
   -4271    -4271    -4305    -4345    -4372    -4387    -4425    -4502 
   -4608    -4752    -4911    -5001    -4942    -4743    -4482    -4202 
   -3928    -3731    -3673    -3754    -3975    -4314    -4681    -4988 
   -5201    -5336    -5427    -5476    -5472    -5443    -5386    -5235 
   -4951    -4541    -4074    -3643    -3289    -3051    -3006    -3186 
   -3501    -3863    -4248    -4634    -4961    -5179    -5296    -5332 
   -5310    -5292    -5339    -5448    -5566    -5636    -5648    -5645 
   -5676    -5713    -5687    -5564    -5346    -5043    -4669    -4240 
   -3798    -3392    -3051    -2816    -2732    -2802    -2997    -3260 
   -3555    -3883    -4247    -4606    -4880    -5032    -5103    -5117 
   -5069    -4950    -4792    -4648    -4560    -4548    -4594    -4679 
   -4797    -4911    -4935    -4843    -4668    -4441    -4172    -3871 
   -3577    -3329    -3095    -2874    -2721    -2662    -2671    -2743 
   -2867    -3018    -3192    -3361    -3488    -3591    -3684    -3759 
   -3842    -3955    -4118    -4322    -4548    -4808    -5107    -5428 
   -5775    -6142    -6515    -6876    -7187    -7375    -7384    -7183 
   -6833    -6454    -6070    -5660    -5233    -4807    -4406    -4058 
   -3730    -3393    -3105    -2920    -2833    -2814    -2826    -2829 
   -2832    -2879    -3019    -3287    -3659    -4062    -4444    -4781 
   -5035    -5186    -5259    -5293    -5306    -5310    -5343    -5410 
   -5468    -5476    -5421    -5321    -5216    -5142    -5115    -5111 
   -5119    -5169    -5267    -5360    -5425    -5481    -5532    -5539 
   -5490    -5421    -5346    -5233    -5080    -4938    -4835    -4710 
   -4544    -4386    -4266    -4205    -4220    -4275    -4398    -4641 
   -4931    -5167    -5341    -5478    -5549    -5519    -5394    -5169 
   -4835    -4413    -3932    -3445    -3014    -2659    -2405    -2290 
   -2297    -2374    -2492    -2609    -2713    -2829    -2945    -3011 
   -3001    -2926    -2844    -2811    -2828    -2856    -2872    -2876 
   -2859    -2813    -2751    -2679    -2578    -2454    -2351    -2273 
   -2176    -2070    -2047    -2168    -2396    -2664    -2948    -3238 
   -3516    -3759    -3978    -4182    -4334    -4384    -4330    -4223 
   -4105    -3993    -3897    -3834    -3812    -3850    -3958    -4151 
   -4423    -4722    -4973    -5138    -5250    -5373    -5532    -5711 
   -5875    -5988    -6021    -5956    -5798    -5552    -5235    -4899 
   -4610    -4444    -4413    -4419    -4359    -4191    -3948    -3727 
   -3623    -3685    -3920    -4283    -4704    -5142    -5575    -5977 
   -6346    -6686    -6957    -7107    -7142    -7094    -6919    -6566 
   -6072    -5535    -5040    -4592    -4178    -3861    -3693    -3631 
   -3646    -3744    -3898    -4031    -4114    -4212    -4382    -4599 
   -4788    -4922    -5035    -5164    -5312    -5410    -5433    -5429 
   -5418    -5355    -5220    -5070    -4943    -4835    -4754    -4729 
   -4773    -4880    -5026    -5197    -5385    -5530    -5575    -5514 
   -5379    -5189    -4959    -4698    -4428    -4187    -3970    -3748 
   -3532    -3361    -3281    -3312    -3446    -3696    -4059    -4479 
   -4895    -5251    -5526    -5755    -5964    -6146    -6265    -6295 
   -6237    -6103    -5925    -5745    -5590    -5464    -5358    -5265 
   -5217    -5271    -5414    -5543    -5583    -5552    -5478    -5371 
   -5244    -5116    -5042    -5058    -5107    -5131    -5147    -5177 
   -5200    -5188    -5113    -4978    -4806    -4626    -4484    -4438 
   -4518    -4700    -4918    -5143    -5405    -5665    -5848    -5952 
   -6012    -6057    -6087    -6080    -6002    -5823    -5532    -5142 
   -4704    -4248    -3771    -3289    -2860    -2538    -2370    -2366 
   -2457    -2584    -2772    -3051    -3400    -3789    -4202    -4627 
   -5042    -5401    -5670    -5848    -5926    -5902    -5822    -5746 
   -5726    -5769    -5833    -5867    -5827    -5702    -5505    -5246 
   -4947    -4676    -4479    -4337    -4215    -4140    -4172    -4341 
   -4669    -5090    -5505    -5907    -6313    -6608    -6662    -6531 
   -6315    -5996    -5582    -5134    -4683    -4301    -4079    -4002 
   -4045    -4199    -4406    -4633    -4878    -5098    -5242    -5302 
   -5312    -5292    -5251    -5212    -5181    -5154    -5115    -5058 
   -5030    -5073    -5147    -5182    -5163    -5117    -5055    -4961 
   -4818    -4648    -4479    -4318    -4187    -4082    -3981    -3909 
   -3898    -3901    -3882    -3848    -3792    -3686    -3518    -3275 
   -2982    -2682    -2389    -2126    -2003    -2124    -2490    -3056 
   -3794    -4672    -5621    -6550    -7339    -7921    -8275    -8361 
   -8154    -7668    -6951    -6104    -5209    -4286    -3364    -2523 
   -1849    -1366    -1053     -915     -963    -1152    -1370    -1554 
   -1703    -1825    -1934    -2037    -2118    -2191    -2299    -2469 
   -2697    -2961    -3219    -3429    -3574    -3653    -3649    -3573 
   -3468    -3379    -3329    -3326    -3410    -3615    -3929    -4286 
   -4634    -4954    -5235    -5463    -5623    -5684    -5598    -5329 
   -4855    -4194    -3447    -2751    -2182    -1773    -1539    -1459 
   -1464    -1503    -1598    -1776    -2018    -2284    -2544    -2813 
   -3113    -3420    -3692    -3912    -4105    -4280    -4406    -4459 
   -4428    -4288    -4074    -3865    -3685    -3532    -3404    -3277 
   -3154    -3079    -3087    -3221    -3538    -4059    -4733    -5463 
   -6164    -6795    -7331    -7727    -7908    -7846    -7589    -7184 
   -6656    -6061    -5481    -4963    -4477    -3954    -3372    -2724 
   -2000    -1235     -454      318      974     1382     1497     1337 
     919      209     -774    -1933    -3179    -4453    -5697    -6845 
   -7839    -8641    -9251    -9684    -9953   -10073   -10039    -9790 
   -9301    -8662    -7924    -7092    -6280    -5547    -4862    -4230 
   -3631    -3046    -2524    -2147    -1977    -2018    -2266    -2735 
   -3369    -4052    -4718    -5391    -6022    -6431    -6592    -6573 
   -6385    -6088    -5760    -5456    -5283    -5319    -5547    -5902 
   -6361    -6905    -7450    -7943    -8375    -8723    -8965    -9061 
   -9004    -8830    -8515    -8027    -7433    -6828    -6239    -5661 
   -5081    -4494    -3888    -3256    -2651    -2141    -1714    -1359 
   -1124    -1058    -1198    -1557    -2110    -2836    -3703    -4648 
   -5572    -6369    -7007    -7519    -7940    -8316    -8615    -8760 
   -8731    -8557    -8244    -7855    -7461    -7053    -6619    -6153 
   -5665    -5194    -4770    -4436    -4218    -4109    -4125    -4291 
   -4564    -4855    -5093    -5275    -5451    -5648    -5821    -5933 
   -5989    -5996    -5962    -5902    -5826    -5752    -5694    -5672 
   -5722    -5873    -6141    -6470    -6774    -7006    -7152    -7169 
   -7014    -6721    -6385    -6035    -5661    -5275    -4887    -4496 
   -4090    -3693    -3380    -3152    -2986    -2891    -2840    -2802 
   -2797    -2844    -2960    -3171    -3528    -4058    -4707    -5404 
   -6110    -6787    -7354    -7743    -7954    -8013    -7928    -7666 
   -7223    -6663    -6034    -5360    -4708    -4151    -3709    -3369 
   -3122    -2975    -2947    -3024    -3165    -3352    -3597    -3921 
   -4327    -4768    -5173    -5491    -5672    -5718    -5697    -5671 
   -5710    -5898    -6234    -6644    -7069    -7462    -7739    -7813 
   -7657    -7298    -6768    -6135    -5483    -4899    -4403    -3942 
   -3485    -3051    -2632    -2236    -1904    -1702    -1676    -1792 
   -2023    -2419    -2984    -3651    -4360    -5074    -5763    -6403 
   -6968    -7444    -7796    -7956    -7869    -7558    -7145    -6693 
   -6193    -5726    -5386    -5154    -5013    -4977    -5016    -5049 
   -5031    -5007    -5047    -5159    -5320    -5522    -5756    -5975 
   -6142    -6245    -6292    -6301    -6247    -6084    -5793    -5366 
   -4860    -4423    -4106    -3846    -3689    -3726    -3947    -4322 
   -4797    -5266    -5717    -6165    -6515    -6713    -6786    -6729 
   -6512    -6150    -5680    -5139    -4576    -4041    -3586    -3258 
   -3024    -2821    -2644    -2497    -2393    -2401    -2586    -2956 
   -3489    -4167    -4954    -5780    -6573    -7290    -7912    -8437 
   -8880    -9194    -9301    -9154    -8683    -7848    -6731    -5467 
   -4151    -2836    -1634     -677       23      533      849      955 
     828      368     -413    -1385    -2539    -3820    -5034    -6100 
   -6997    -7672    -8144    -8421    -8484    -8404    -8284    -8155 
   -7989    -7758    -7400    -6848    -6114    -5286    -4460    -3690 
   -2986    -2361    -1868    -1545    -1439    -1580    -1925    -2428 
   -3095    -3880    -4699    -5458    -6084    -6555    -6859    -6994 
   -6966    -6763    -6469    -6177    -5890    -5656    -5510    -5443 
   -5526    -5782    -6184    -6689    -7127    -7438    -7720    -7989 
   -8171    -8236    -8197    -8062    -7808    -7426    -6952    -6424 
   -5876    -5354    -4849    -4360    -3928    -3526    -3095    -2677 
   -2393    -2338    -2550    -2986    -3538    -4145    -4838    -5525 
   -6026    -6322    -6473    -6481    -6399    -6258    -6006    -5644 
   -5194    -4652    -4082    -3550    -3071    -2660    -2369    -2295 
   -2475    -2841    -3338    -3919    -4482    -4946    -5310    -5582 
   -5736    -5764    -5676    -5491    -5281    -5105    -4956    -4842 
   -4789    -4752    -4679    -4595    -4509    -4405    -4321    -4345 
   -4545    -4905    -5362    -5827    -6237    -6552    -6710    -6635 
   -6350    -5954    -5489    -4936    -4310    -3682    -3103    -2552 
   -2053    -1703    -1576    -1707    -2061    -2587    -3279    -4090 
   -4888    -5543    -6016    -6315    -6438    -6423    -6305    -6097 
   -5838    -5547    -5211    -4841    -4533    -4376    -4344    -4353 
   -4411    -4561    -4806    -5111    -5393    -5616    -5811    -5976 
   -6069    -6066    -5964    -5772    -5502    -5173    -4806    -4413 
   -4021    -3661    -3333    -3033    -2774    -2525    -2223    -1849 
   -1487    -1240    -1148    -1209    -1381    -1586    -1787    -1988 
   -2188    -2384    -2587    -2808    -3028    -3265    -3532    -3789 
   -4001    -4159    -4258    -4321    -4392    -4472    -4513    -4514 
   -4523    -4573    -4662    -4764    -4839    -4870    -4877    -4869 
   -4831    -4739    -4567    -4329    -4087    -3873    -3692    -3566 
   -3530    -3595    -3754    -4010    -4363    -4741    -5027    -5169 
   -5167    -5011    -4706    -4310    -3908    -3576    -3360    -3275 
   -3312    -3443    -3612    -3776    -3948    -4186    -4502    -4835 
   -5128    -5391    -5629    -5825    -5930    -5921    -5827    -5711 
   -5584    -5413    -5217    -5049    -4881    -4654    -4357    -3998 
   -3604    -3252    -2998    -2821    -2702    -2617    -2528    -2431 
   -2354    -2331    -2381    -2490    -2620    -2752    -2887    -2984 
   -3041    -3117    -3196    -3235    -3260    -3292    -3334    -3376 
   -3400    -3422    -3466    -3546    -3678    -3886    -4197    -4596 
   -4989    -5282    -5443    -5530    -5610    -5714    -5826    -5896 
   -5906    -5856    -5729    -5536    -5312    -5040    -4687    -4256 
   -3794    -3330    -2875    -2442    -2065    -1752    -1518    -1428 
   -1533    -1818    -2219    -2727    -3376    -4122    -4870    -5570 
   -6195    -6736    -7164    -7442    -7562    -7522    -7304    -6905 
   -6374    -5825    -5320    -4851    -4442    -4147    -3967    -3851 
   -3751    -3639    -3487    -3262    -2986    -2718    -2513    -2401 
   -2373    -2404    -2506    -2725    -3064    -3483    -3950    -4482 
   -5073    -5647    -6088    -6340    -6417    -6339    -6096    -5688 
   -5190    -4683    -4182    -3693    -3237    -2862    -2614    -2478 
   -2438    -2543    -2828    -3272    -3805    -4352    -4858    -5278 
   -5614    -5876    -6052    -6154    -6166    -6025    -5719    -5297 
   -4830    -4396    -4047    -3828    -3771    -3840    -4001    -4261 
   -4585    -4904    -5166    -5346    -5454    -5541    -5645    -5752 
   -5846    -5915    -5918    -5827    -5656    -5413    -5067    -4603 
   -4031    -3388    -2725    -2089    -1537    -1127     -890     -831 
    -940    -1232    -1705    -2322    -3056    -3892    -4747    -5537 
   -6238    -6759    -6968    -6832    -6389    -5738    -5005    -4309 
   -3753    -3350    -3049    -2870    -2882    -3090    -3437    -3834 
   -4185    -4411    -4464    -4317    -3970    -3424    -2725    -2011 
   -1412     -976     -693     -545     -562     -761    -1050    -1375 
   -1701    -1933    -2043    -2114    -2195    -2290    -2408    -2542 
   -2666    -2764    -2816    -2820    -2811    -2862    -2997    -3117 
   -3094    -2928    -2668    -2324    -1977    -1737    -1579    -1421 
   -1244    -1085     -993     -973    -1032    -1174    -1366    -1559 
   -1715    -1830    -1910    -1966    -2003    -2007    -2004    -2056 
   -2177    -2361    -2609    -2887    -3172    -3503    -3875    -4218 
   -4480    -4652    -4707    -4602    -4310    -3855    -3317    -2791 
   -2255    -1675    -1159     -804     -561     -411     -395     -548 
    -966    -1755    -2893    -4278    -5783    -7190    -8270    -8901 
   -9020    -8594    -7696    -6497    -5138    -3662    -2166     -841 
     216      985     1572     2308     2988     2860     2150     1648 
    1154      332     -612    -1544    -2317    -2887    -3360    -3719 
   -3975    -4194    -4386    -4511    -4498    -4356    -4077    -3589 
   -2928    -2187    -1428     -695       -8      626     1193     1632 
    1830     1696     1275      660     -105    -1000    -1972    -2906 
   -3647    -4155    -4535    -4792    -4768    -4423    -3892    -3281 
   -2647    -2049    -1575    -1340    -1385    -1674    -2169    -2731 
   -3206    -3612    -3939    -4082    -4045    -3927    -3816    -3746 
   -3701    -3669    -3632    -3628    -3712    -3890    -4148    -4448 
   -4696    -4796    -4688    -4365    -3852    -3187    -2438    -1732 
   -1192     -822     -583     -472     -496     -680    -1053    -1579 
   -2162    -2709    -3183    -3588    -3908    -4139    -4369    -4665 
   -4992    -5347    -5749    -6145    -6465    -6658    -6628    -6335 
   -5834    -5196    -4502    -3848    -3304    -2938    -2779    -2829 
   -3076    -3461    -3923    -4425    -4942    -5427    -5813    -6052 
   -6088    -5895    -5521    -5032    -4507    -4039    -3657    -3383 
   -3211    -3065    -2924    -2821    -2744    -2700    -2706    -2737 
   -2776    -2848    -2976    -3171    -3385    -3597    -3842    -4137 
   -4477    -4846    -5206    -5533    -5803    -5968    -6008    -5940 
   -5810    -5634    -5418    -5177    -4885    -4575    -4399    -4436 
   -4629    -4950    -5314    -5568    -5651    -5579    -5389    -5152 
   -4923    -4716    -4567    -4553    -4716    -4969    -5193    -5373 
   -5505    -5556    -5547    -5525    -5509    -5475    -5393    -5281 
   -5192    -5148    -5093    -4947    -4737    -4526    -4275    -3942 
   -3573    -3204    -2851    -2536    -2242    -1964    -1721    -1509 
   -1340    -1224    -1113     -954     -803     -814    -1019    -1281 
   -1534    -1823    -2130    -2430    -2705    -2903    -3005    -3044 
   -3033    -3040    -3167    -3430    -3789    -4182    -4525    -4789 
   -4994    -5174    -5363    -5580    -5834    -6134    -6474    -6802 
   -7028    -7056    -6833    -6386    -5823    -5290    -4896    -4695 
   -4656    -4718    -4830    -4954    -5071    -5192    -5306    -5400 
   -5481    -5541    -5526    -5433    -5306    -5136    -4927    -4746 
   -4654    -4656    -4777    -5047    -5440    -5888    -6307    -6687 
   -7099    -7523    -7913    -8276    -8599    -8803    -8792    -8499 
   -7947    -7241    -6498    -5782    -5088    -4411    -3786    -3276 
   -2902    -2652    -2496    -2417    -2440    -2579    -2847    -3241 
   -3763    -4430    -5179    -5875    -6470    -6994    -7454    -7835 
   -8093    -8218    -8218    -8078    -7813    -7466    -7080    -6717 
   -6416    -6185    -6050    -5985    -5894    -5737    -5571    -5424 
   -5302    -5228    -5193    -5189    -5228    -5325    -5508    -5776 
   -6083    -6392    -6656    -6802    -6805    -6718    -6608    -6488 
   -6347    -6201    -6061    -5925    -5790    -5682    -5656    -5752 
   -5946    -6207    -6511    -6806    -7041    -7183    -7227    -7214 
   -7227    -7338    -7547    -7804    -8067    -8330    -8568    -8712 
   -8711    -8559    -8281    -7892    -7398    -6855    -6340    -5845 
   -5354    -4930    -4627    -4464    -4444    -4553    -4776    -5058 
   -5321    -5524    -5660    -5744    -5809    -5852    -5854    -5861 
   -5919    -6029    -6156    -6261    -6316    -6320    -6278    -6178 
   -5987    -5709    -5389    -5058    -4764    -4565    -4431    -4311 
   -4247    -4311    -4522    -4823    -5121    -5350    -5516    -5678 
   -5873    -6108    -6380    -6637    -6789    -6779    -6644    -6421 
   -6099    -5640    -5082    -4554    -4156    -3902    -3807    -3899 
   -4151    -4488    -4872    -5300    -5798    -6376    -6952    -7491 
   -8029    -8529    -8853    -8997    -9042    -8986    -8841    -8652 
   -8428    -8199    -7959    -7630    -7202    -6701    -6129    -5566 
   -5108    -4822    -4764    -4927    -5208    -5494    -5764    -6021 
   -6235    -6440    -6709    -7047    -7402    -7723    -7969    -8139 
   -8243    -8262    -8206    -8102    -7964    -7789    -7570    -7317 
   -7047    -6782    -6573    -6438    -6363    -6351    -6405    -6489 
   -6529    -6481    -6361    -6197    -6018    -5867    -5780    -5759 
   -5780    -5829    -5873    -5864    -5757    -5517    -5175    -4830 
   -4558    -4409    -4418    -4571    -4810    -5108    -5445    -5814 
   -6196    -6547    -6848    -7092    -7287    -7469    -7627    -7696 
   -7641    -7457    -7145    -6744    -6320    -5917    -5564    -5316 
   -5184    -5147    -5197    -5287    -5362    -5416    -5448    -5447 
   -5443    -5512    -5660    -5860    -6095    -6374    -6698    -7026 
   -7304    -7514    -7627    -7616    -7506    -7327    -7056    -6732 
   -6467    -6308    -6230    -6212    -6249    -6347    -6498    -6656 
   -6797    -6929    -7036    -7086    -7061    -6949    -6762    -6554 
   -6338    -6089    -5829    -5602    -5448    -5421    -5533    -5749 
   -6006    -6255    -6450    -6528    -6475    -6355    -6199    -5980 
   -5698    -5367    -4994    -4602    -4223    -3889    -3624    -3453 
   -3369    -3358    -3397    -3469    -3597    -3785    -3983    -4122 
   -4159    -4098    -4017    -3974    -3956    -3965    -4021    -4087 
   -4136    -4205    -4297    -4342    -4303    -4191    -4055    -3932 
   -3817    -3711    -3604    -3474    -3300    -3064    -2787    -2515 
   -2276    -2068    -1891    -1755    -1665    -1606    -1579    -1578 
   -1602    -1671    -1763    -1836    -1926    -2089    -2350    -2721 
   -3180    -3689    -4214    -4689    -5082    -5382    -5541    -5524 
   -5328    -4961    -4457    -3875    -3262    -2664    -2121    -1661 
   -1293    -1035     -900     -896    -1034    -1304    -1663    -2093 
