Origin Time       2016/04/16 01:25:00
Lat.              32.753
Long.             130.762
Depth. (km)       12
Mag.              7.3
Station Code      HRS010
Station Lat.      34.5868
Station Long.     133.0488
Station Height(m) 338
Record Time       2016/04/16 01:26:01
Sampling Freq(Hz) 100Hz
Duration Time(s)  99
Dir.              E-W
Scale Factor      7845(gal)/8223790
Max. Acc. (gal)   3.911
Last Correction   2016/04/16 01:26:01
Memo.             
[...]
   -1356    -1224    -1133    -1140    -1217    -1300    -1366    -1420 
   -1455    -1472    -1501    -1557    -1622    -1640    -1578    -1447 
   -1304    -1192    -1120    -1111    -1185    -1318    -1470    -1628 
   -1780    -1912    -2012    -2042    -1992    -1883    -1710    -1501 
   -1316    -1197    -1132    -1063     -932     -762     -629     -599 
    -696     -899    -1165    -1451    -1717    -1930    -2077    -2158 
   -2188    -2172    -2096    -1937    -1688    -1399    -1159    -1032 
   -1019    -1086    -1188    -1274    -1337    -1412    -1514    -1636 
   -1750    -1826    -1833    -1771    -1674    -1583    -1535    -1530 
   -1543    -1568    -1618    -1701    -1833    -2018    -2214    -2385 
   -2519    -2581    -2539    -2421    -2292    -2195    -2158    -2191 
   -2269    -2365    -2452    -2528    -2594    -2631    -2608    -2515 
   -2370    -2214    -2073    -1969    -1914    -1926    -2012    -2149 
   -2301    -2452    -2597    -2710    -2764    -2755    -2714    -2662 
   -2579    -2459    -2335    -2243    -2185    -2141    -2069    -1939 
   -1775    -1613    -1479    -1394    -1344    -1298    -1252    -1228 
   -1224    -1228    -1230    -1232    -1230    -1225    -1228    -1264 
   -1370    -1557    -1804    -2066    -2313    -2527    -2677    -2743 
   -2720    -2601    -2400    -2158    -1921    -1722    -1580    -1501 
   -1482    -1502    -1520    -1528    -1544    -1568    -1602    -1648 
   -1706    -1771    -1833    -1867    -1854    -1798    -1718    -1625 
   -1505    -1340    -1150     -978     -870     -849     -908    -1019 
   -1144    -1248    -1316    -1334    -1304    -1236    -1170    -1143 
   -1170    -1230    -1306    -1412    -1549    -1699    -1836    -1942 
   -2007    -2022    -1985    -1915    -1844    -1788    -1745    -1702 
   -1661    -1634    -1651    -1737    -1883    -2031    -2121    -2134 
   -2088    -2015    -1933    -1867    -1822    -1783    -1745    -1718 
   -1690    -1647    -1575    -1474    -1358    -1244    -1142    -1093 
   -1116    -1178    -1247    -1294    -1312    -1324    -1345    -1367 
   -1378    -1382    -1408    -1490    -1620    -1788    -1982    -2187 
   -2376    -2519    -2581    -2529    -2363    -2126    -1888    -1705 
   -1628    -1651    -1710    -1748    -1746    -1718    -1684    -1657 
   -1647    -1676    -1740    -1806    -1857    -1902    -1945    -2004 
   -2095    -2211    -2323    -2405    -2454    -2484    -2521    -2589 
   -2700    -2843    -2976    -3052    -3041    -2972    -2899    -2828 
   -2740    -2635    -2516    -2438    -2428    -2446    -2452    -2446 
   -2401    -2312    -2201    -2088    -2001    -1949    -1906    -1852 
   -1779    -1692    -1614    -1560    -1539    -1563    -1615    -1663 
   -1687    -1684    -1665    -1653    -1667    -1714    -1792    -1902 
   -2052    -2242    -2427    -2567    -2643    -2632    -2546    -2431 
   -2323    -2266    -2261    -2262    -2241    -2191    -2135    -2110 
   -2133    -2204    -2284    -2332    -2346    -2355    -2378    -2413 
   -2439    -2432    -2397    -2317    -2178    -2003    -1826    -1687 
   -1613    -1599    -1615    -1647    -1687    -1746    -1852    -2003 
   -2150    -2253    -2282    -2235    -2147    -2060    -1987    -1914 
   -1798    -1606    -1367    -1131     -945     -858     -903    -1067 
   -1296    -1525    -1707    -1826    -1903    -1972    -2031    -2053 
   -2012    -1899    -1732    -1554    -1391    -1271    -1227    -1260 
   -1368    -1553    -1804    -2093    -2378    -2620    -2794    -2896 
   -2936    -2932    -2899    -2841    -2776    -2733    -2713    -2713 
   -2743    -2810    -2887    -2932    -2925    -2889    -2859    -2862 
   -2884    -2891    -2849    -2740    -2570    -2358    -2135    -1949 
   -1819    -1726    -1665    -1641    -1649    -1683    -1718    -1729 
   -1734    -1755    -1803    -1890    -2018    -2180    -2365    -2542 
   -2666    -2708    -2668    -2558    -2398    -2220    -2057    -1925 
   -1833    -1796    -1809    -1861    -1948    -2072    -2239    -2450 
   -2705    -2986    -3260    -3472    -3588    -3601    -3516    -3339 
   -3086    -2759    -2376    -1965    -1572    -1235    -1000     -903 
    -936    -1048    -1148    -1159    -1075     -954     -849     -791 
    -787     -830     -907     -999    -1094    -1206    -1347    -1502 
   -1653    -1765    -1817    -1823    -1821    -1831    -1887    -1992 
   -2111    -2204    -2239    -2207    -2107    -1956    -1803    -1688 
   -1620    -1588    -1591    -1622    -1671    -1707    -1709    -1672 
   -1606    -1503    -1360    -1185    -1000     -831     -715     -681 
    -710     -773     -845     -885     -880     -828     -734     -634 
    -569     -553     -584     -656     -741     -838     -963    -1116 
   -1291    -1475    -1624    -1684    -1641    -1543    -1464    -1451 
   -1483    -1503    -1471    -1410    -1356    -1327    -1345    -1417 
   -1497    -1540    -1526    -1468    -1404    -1359    -1339    -1344 
   -1363    -1370    -1364    -1359    -1354    -1343    -1308    -1239 
   -1151    -1086    -1059    -1084    -1181    -1348    -1559    -1781 
   -1995    -2168    -2282    -2328    -2299    -2193    -2033    -1856 
   -1715    -1642    -1644    -1717    -1838    -1961    -2039    -2065 
   -2070    -2077    -2047    -1938    -1755    -1543    -1348    -1206 
   -1124    -1090    -1077    -1055    -1016     -977     -974    -1038 
   -1169    -1347    -1544    -1722    -1833    -1857    -1811    -1740 
   -1680    -1655    -1663    -1674    -1675    -1677    -1705    -1780 
   -1908    -2062    -2215    -2335    -2407    -2451    -2511    -2601 
   -2708    -2801    -2868    -2910    -2933    -2930    -2868    -2710 
   -2444    -2107    -1781    -1533    -1405    -1408    -1498    -1636 
   -1794    -1949    -2097    -2241    -2362    -2477    -2581    -2643 
   -2660    -2656    -2646    -2656    -2702    -2766    -2811    -2810 
   -2758    -2666    -2550    -2427    -2303    -2195    -2141    -2172 
   -2288    -2470    -2697    -2943    -3184    -3403    -3591    -3735 
   -3811    -3807    -3740    -3649    -3576    -3551    -3566    -3576 
   -3526    -3387    -3167    -2905    -2639    -2396    -2196    -2049 
   -1942    -1858    -1795    -1779    -1829    -1933    -2068    -2200 
   -2299    -2371    -2439    -2504    -2548    -2536    -2442    -2293 
   -2130    -2014    -2001    -2110    -2300    -2531    -2763    -2967 
   -3123    -3213    -3229    -3168    -3051    -2914    -2791    -2687 
   -2601    -2527    -2465    -2436    -2442    -2457    -2439    -2374 
   -2274    -2181    -2126    -2107    -2104    -2104    -2087    -2029 
   -1938    -1852    -1804    -1809    -1849    -1900    -1941    -1953 
   -1929    -1864    -1759    -1632    -1522    -1439    -1374    -1308 
   -1224    -1121    -1039    -1020    -1074    -1185    -1304    -1375 
   -1386    -1358    -1329    -1339    -1393    -1444    -1431    -1333 
   -1196    -1062     -957     -889     -855     -832     -781     -687 
    -581     -526     -579     -751     -999    -1267    -1503    -1658 
   -1741    -1798    -1850    -1892    -1871    -1707    -1387     -978 
    -594     -352     -301     -405     -579     -747     -864     -954 
   -1057    -1188    -1325    -1440    -1520    -1583    -1653    -1729 
   -1784    -1768    -1640    -1393    -1057     -706     -418     -240 
    -186     -249     -414     -675    -1005    -1364    -1705    -1975 
   -2143    -2196    -2158    -2074    -1999    -1971    -1988    -2034 
   -2077    -2092    -2070    -2020    -1960    -1895    -1818    -1729 
   -1660    -1622    -1613    -1638    -1709    -1811    -1918    -2001 
   -2033    -1999    -1900    -1737    -1522    -1282    -1053     -859 
    -727     -658     -634     -635     -653     -715     -862    -1075 
   -1300    -1475    -1560    -1540    -1420    -1202     -909     -579 
    -261       16      244      421      530      548      454      268 
      49     -122     -207     -203     -128      -21       70      118 
     124      117      124      151      189      237      287      329 
     364      398      423      436      436      410      317       99 
    -272     -773    -1313    -1796    -2153    -2363    -2455    -2478 
   -2469    -2455    -2435    -2376    -2265    -2118    -1971    -1869 
   -1857    -1927    -2001    -1991    -1849    -1575    -1205     -805 
    -460     -246     -191     -263     -406     -550     -660     -737 
    -795     -831     -831     -784     -675     -500     -286      -97 
     -11      -86     -334     -720    -1151    -1530    -1791    -1902 
   -1880    -1780    -1669    -1609    -1632    -1740    -1918    -2160 
   -2450    -2767    -3094    -3418    -3719    -3977    -4155    -4223 
   -4163    -3967    -3639    -3200    -2682    -2107    -1491     -862 
    -256      270      646      818      730      359     -237     -945 
   -1657    -2317    -2882    -3315    -3580    -3650    -3541    -3298 
   -2965    -2586    -2181    -1742    -1270     -783     -317       49 
     241      229       45     -214     -456     -643     -789     -924 
   -1059    -1178    -1258    -1287    -1279    -1271    -1308    -1420 
   -1591    -1755    -1845    -1837    -1744    -1594    -1429    -1278 
   -1150    -1058    -1015    -1012    -1051    -1142    -1285    -1455 
   -1613    -1717    -1749    -1717    -1644    -1560    -1489    -1431 
   -1348    -1174     -869     -471      -60      278      491      576 
     560      473      334      137     -144     -521     -962    -1398 
   -1741    -1933    -1962    -1869    -1717    -1576    -1502    -1509 
   -1578    -1701    -1876    -2095    -2354    -2647    -2941    -3213 
   -3459    -3670    -3852    -4003    -4110    -4153    -4105    -3948 
   -3690    -3355    -2998    -2682    -2446    -2300    -2258    -2331 
   -2494    -2718    -2957    -3149    -3269    -3345    -3407    -3485 
   -3596    -3728    -3888    -4104    -4382    -4692    -4974    -5144 
   -5117    -4847    -4336    -3630    -2828    -2034    -1313     -715 
    -291      -93     -137     -378     -753    -1215    -1706    -2149 
   -2473    -2651    -2694    -2631    -2492    -2292    -2045    -1767 
   -1479    -1192     -931     -728     -589     -504     -471     -504 
    -621     -818    -1069    -1350    -1640    -1903    -2098    -2193 
   -2155    -1973    -1645    -1190     -670     -178      217      502 
     697      816      831      695      379      -93     -631    -1127 
   -1476    -1634    -1618    -1472    -1244     -973     -689     -421 
    -193      -10      141      275      382      442      423      309 
     112     -135     -398     -649     -900    -1196    -1571    -2010 
   -2448    -2805    -3003    -3011    -2852    -2584    -2259    -1902 
   -1537    -1204     -934     -761     -706     -750     -864    -1036 
   -1255    -1502    -1757    -1995    -2201    -2350    -2381    -2253 
   -1968    -1560    -1069     -540      -36      395      746      993 
    1100     1053      869      572      201     -195     -598    -1005 
   -1416    -1804    -2137    -2377    -2505    -2511    -2384    -2130 
   -1776    -1354     -907     -495     -159       94      265      353 
     367      311      180      -32     -326     -665     -997    -1278 
   -1497    -1653    -1740    -1744    -1667    -1509    -1278     -986 
    -677     -390     -143       58      214      329      391      365 
     198     -143     -631    -1159    -1629    -1982    -2209    -2327 
   -2369    -2347    -2247    -2057    -1795    -1498    -1198     -918 
    -657     -399     -143       94      268      322      229        9 
    -288     -612     -926    -1201    -1428    -1611    -1737    -1794 
   -1773    -1652    -1444    -1221    -1060    -1000    -1060    -1251 
   -1548    -1929    -2361    -2802    -3229    -3642    -4047    -4444 
   -4824    -5158    -5424    -5618    -5749    -5815    -5821    -5771 
   -5675    -5533    -5354    -5157    -4969    -4816    -4712    -4657 
   -4638    -4637    -4638    -4642    -4637    -4604    -4518    -4341 
   -4055    -3690    -3284    -2882    -2517    -2200    -1929    -1690 
   -1460    -1235    -1030     -882     -818     -808     -816     -815 
    -793     -795     -873    -1043    -1302    -1625    -1971    -2308 
   -2633    -2956    -3269    -3549    -3757    -3863    -3892    -3904 
   -3916    -3919    -3888    -3805    -3682    -3563    -3500    -3518 
   -3619    -3793    -4017    -4255    -4471    -4644    -4752    -4793 
   -4776    -4699    -4596    -4513    -4463    -4456    -4476    -4473 
   -4431    -4374    -4309    -4230    -4120    -3942    -3680    -3368 
   -3075    -2882    -2853    -2999    -3283    -3623    -3912    -4090 
   -4156    -4133    -4054    -3948    -3816    -3634    -3403    -3123 
   -2822    -2551    -2380    -2331    -2377    -2461    -2532    -2586 
   -2633    -2685    -2749    -2843    -2983    -3160    -3315    -3372 
   -3284    -3063    -2766    -2482    -2272    -2141    -2052    -1945 
   -1772    -1528    -1262    -1046     -912     -835     -774     -696 
    -602     -531     -538     -654     -873    -1132    -1327    -1358 
   -1185     -858     -495     -211      -76     -108     -280     -553 
    -890    -1239    -1552    -1811    -2033    -2215    -2347    -2411 
   -2409    -2366    -2327    -2358    -2517    -2824    -3235    -3681 
   -4086    -4407    -4648    -4849    -5046    -5259    -5493    -5726 
   -5910    -5988    -5935    -5741    -5417    -4993    -4511    -4017 
   -3553    -3154    -2836    -2604    -2470    -2436    -2500    -2669 
   -2930    -3227    -3499    -3692    -3770    -3746    -3649    -3503 
   -3342    -3192    -3044    -2863    -2646    -2424    -2286    -2309 
   -2520    -2886    -3323    -3715    -3958    -4001    -3828    -3445 
   -2886    -2226    -1544     -918     -429     -160     -144     -360 
    -761    -1250    -1702    -2047    -2273    -2405    -2494    -2565 
   -2621    -2658    -2667    -2650    -2641    -2682    -2768    -2882 
   -2999    -3092    -3152    -3200    -3271    -3393    -3574    -3801 
   -4045    -4283    -4484    -4621    -4687    -4687    -4612    -4445 
   -4171    -3813    -3416    -3015    -2624    -2250    -1899    -1572 
   -1277    -1026     -841     -739     -753     -901    -1181    -1566 
   -2014    -2481    -2932    -3311    -3569    -3678    -3620    -3388 
   -2994    -2447    -1798    -1139     -564     -144       86      131 
      31     -182     -506     -950    -1497    -2111    -2728    -3237 
   -3547    -3600    -3388    -2972    -2461    -1961    -1545    -1233 
   -1023     -913     -929    -1107    -1451    -1908    -2358    -2644 
   -2686    -2516    -2250    -2030    -1944    -2003    -2161    -2366 
   -2601    -2905    -3326    -3835    -4321    -4660    -4761    -4599 
   -4225    -3734    -3213    -2747    -2404    -2228    -2241    -2419 
   -2697    -3011    -3331    -3653    -3990    -4332    -4654    -4930 
   -5105    -5139    -5024    -4801    -4529    -4248    -3969    -3682 
   -3380    -3063    -2762    -2523    -2390    -2394    -2532    -2779 
   -3076    -3361    -3600    -3769    -3844    -3844    -3807    -3770 
   -3759    -3763    -3738    -3636    -3434    -3153    -2836    -2525 
   -2267    -2064    -1867    -1634    -1383    -1171    -1060    -1101 
   -1287    -1537    -1729    -1795    -1732    -1595    -1463    -1383 
   -1350    -1324    -1286    -1260    -1293    -1414    -1626    -1880 
   -2087    -2155    -2053    -1795    -1452    -1120     -890     -791 
    -791     -845     -916     -989    -1063    -1151    -1275    -1447 
   -1632    -1813    -1984    -2165    -2390    -2702    -3115    -3597 
   -4079    -4482    -4756    -4878    -4851    -4712    -4510    -4289 
   -4078    -3877    -3682    -3495    -3346    -3284    -3354    -3565 
   -3880    -4233    -4549    -4779    -4914    -4973    -4980    -4956 
   -4907    -4812    -4660    -4448    -4190    -3917    -3680    -3520 
   -3430    -3346    -3217    -3034    -2860    -2783    -2880    -3167 
   -3565    -3965    -4294    -4496    -4554    -4506    -4399    -4252 
   -4063    -3823    -3516    -3141    -2717    -2263    -1822    -1453 
   -1201    -1093    -1147    -1348    -1651    -1998    -2327    -2577 
   -2708    -2714    -2612    -2407    -2102    -1718    -1308     -967 
    -785     -796     -969    -1232    -1521    -1836    -2185    -2548 
   -2878    -3127    -3253    -3230    -3069    -2803    -2454    -2034 
   -1568    -1096     -658     -301      -64        8      -76     -263 
    -479     -670     -814     -905     -957     -980     -972     -929 
    -858     -764     -646     -513     -380     -284     -263     -340 
    -514     -745     -957    -1084    -1115    -1093    -1074    -1097 
   -1162    -1247    -1350    -1485    -1668    -1904    -2160    -2370 
   -2470    -2404    -2150    -1745    -1250     -746     -309       13 
     191      220      117      -65     -288     -506     -696     -846 
    -969    -1086    -1217    -1362    -1494    -1603    -1683    -1749 
   -1809    -1826    -1741    -1522    -1202     -858     -579     -402 
    -332     -359     -463     -621     -846    -1155    -1528    -1925 
   -2290    -2582    -2775    -2844    -2779    -2601    -2332    -1992 
   -1606    -1232     -928     -761     -750     -868    -1035    -1171 
   -1216    -1139     -955     -714     -491     -349     -324     -425 
    -635     -924    -1259    -1605    -1923    -2168    -2312    -2350 
   -2276    -2097    -1858    -1606    -1398    -1290    -1305    -1397 
   -1474    -1452    -1310    -1086     -849     -664     -565     -530 
    -499     -429     -337     -270     -244     -266     -336     -433 
    -548     -685     -846    -1021    -1198    -1351    -1437    -1435 
   -1348    -1209    -1059     -931     -838     -787     -756     -738 
    -745     -793     -874     -972    -1074    -1175    -1266    -1318 
   -1314    -1263    -1181    -1086    -1000     -939     -903     -876 
    -835     -785     -747     -739     -760     -810     -873     -915 
    -909     -854     -788     -769     -838    -1000    -1219    -1422 
   -1553    -1602    -1588    -1548    -1489    -1378    -1188     -923 
    -625     -368     -228     -234     -380     -621     -911    -1227 
   -1548    -1841    -2060    -2166    -2150    -2038    -1880    -1723 
   -1622    -1594    -1601    -1588    -1513    -1371    -1188     -982 
    -761     -533     -309      -98       65      155      164      110 
      14      -94     -180     -225     -237     -229     -206     -175 
    -129      -45       67      178      274      344      390      432 
     499      594      685      735      715      629      514      414 
     330      225       63     -159     -409     -604     -672     -592 
    -414     -206      -14      143      259      322      321      249 
     117      -58     -238     -390     -484     -504     -463     -402 
    -344     -299     -261     -225     -193     -153     -126     -139 
    -197     -288     -369     -395     -370     -338     -329     -344 
    -368     -382     -382     -383     -418     -506     -627     -726 
    -774     -801     -858     -981    -1147    -1271    -1277    -1139 
    -899     -642     -454     -355     -336     -386     -490     -637 
