Origin Time       2016/04/16 01:25:00
Lat.              32.753
Long.             130.762
Depth. (km)       12
Mag.              7.3
Station Code      HRS011
Station Lat.      34.5686
Station Long.     133.2364
Station Height(m) 28
Record Time       2016/04/16 01:26:32
Sampling Freq(Hz) 100Hz
Duration Time(s)  72
Dir.              N-S
Scale Factor      7845(gal)/8223790
Max. Acc. (gal)   3.162
Last Correction   2016/04/16 01:26:33
Memo.             
[...]
    2988     3103     3169     3215     3269     3260     3321     3468 
    3573     3638     3696     3781     3888     4000     4033     3936 
    3902     3932     3867     3734     3582     3483     3476     3491 
    3457     3392     3410     3424     3329     3202     2999     2774 
    2614     2415     2174     1953     1807     1748     1734     1749 
    1688     1660     1829     1975     2025     2138     2277     2323 
    2347     2424     2369     2257     2316     2311     2163     2085 
    2004     1867     1833     1852     1691     1520     1549     1503 
    1356     1270     1139     1039     1067     1058      949      911 
     984     1009     1058     1161     1181     1285     1518     1676 
    1768     1914     2106     2265     2425     2540     2556     2725 
    2991     3105     3227     3410     3522     3653     3875     4017 
    4032     4170     4383     4468     4546     4610     4585     4634 
    4747     4727     4594     4585     4608     4475     4369     4266 
    4063     3989     4013     3932     3824     3816     3800     3715 
    3701     3665     3530     3557     3672     3665     3651     3704 
    3742     3798     3951     4051     4079     4274     4507     4602 
    4710     4843     4908     4968     5024     4927     4703     4565 
    4414     4155     3960     3782     3565     3465     3440     3312 
    3145     3117     3134     3107     3109     3038     2903     2847 
    2767     2559     2335     2196     2050     1852     1711     1537 
    1339     1293     1293     1210     1127     1088     1060     1077 
    1142     1109     1048     1136     1205     1173     1150     1105 
    1042     1013      947      776      621      535      373      194 
      40     -197     -361     -387     -464     -603     -662     -635 
    -606     -525     -406     -348     -170      147      382      573 
     858     1165     1397     1620     1783     1786     1852     2001 
    1999     1938     1923     1891     1854     1869     1881     1795 
    1763     1869     1948     1965     1962     1985     2081     2166 
    2150     2062     2058     2095     1999     1888     1809     1691 
    1628     1625     1590     1509     1495     1566     1634     1740 
    1800     1777     1865     2000     2039     2029     2025     2053 
    2096     2107     2029     1939     1980     2019     2008     2029 
    2026     2053     2165     2253     2242     2201     2212     2215 
    2223     2212     2073     1971     1946     1806     1601     1445 
    1304     1154     1070      976      751      621      615      491 
     341      302      274      244      321      399      298      240 
     349      391      398      464      513      562      648      684 
     610      591      665      627      572      565      483      454 
     530      548      491      492      540      544      565      556 
     432      380      410      355      261      237      244      210 
     202      194      120      143      232      221      176      164 
     164      189      275      344      321      378      529      608 
     643      679      720      778      812      756      610      532 
     510      421      349      302      241      251      299      287 
     244      294      395      502      683      827      936     1162 
    1356     1408     1428     1468     1471     1471     1512     1443 
    1348     1452     1551     1533     1580     1679     1773     1942 
    2184     2319     2378     2584     2803     2913     3046     3134 
    3106     3082     3079     2961     2797     2767     2737     2627 
    2559     2481     2384     2386     2434     2385     2313     2381 
    2478     2563     2712     2756     2725     2802     2862     2790 
    2701     2688     2671     2660     2686     2608     2581     2728 
    2781     2737     2756     2768     2747     2785     2833     2732 
    2636     2687     2682     2639     2640     2594     2581     2679 
    2744     2674     2643     2739     2737     2682     2677     2583 
    2458     2400     2290     2085     1910     1787     1637     1532 
    1439     1242     1146     1171     1100      990      953      929 
     916      966      957      828      838      946      932      946 
    1034     1071     1135     1275     1320     1227     1219     1267 
    1215     1156     1092     1020     1036     1081     1085     1078 
    1154     1300     1433     1579     1684     1757     1898     1999 
    1991     1949     1949     1981     2003     2034     1985     1867 
    1811     1729     1579     1420     1248     1117     1008      857 
     687      596      622      629      657      757      788      864 
    1058     1167     1177     1236     1310     1306     1352     1424 
    1360     1363     1480     1472     1397     1389     1386     1345 
    1356     1321     1115      992      976      797      587      477 
     364      287      324      303      153      149      280      317 
     432      652      760      882     1140     1293     1246     1308 
    1470     1490     1553     1671     1649     1691     1842     1852 
    1748     1761     1861     1911     2018     2138     2150     2238 
    2380     2394     2390     2474     2558     2609     2708     2778 
    2762     2843     2990     3071     3146     3234     3317     3392 
    3437     3411     3341     3377     3468     3523     3624     3707 
    3782     3979     4210     4367     4541     4811     5031     5196 
    5373     5381     5321     5390     5354     5136     4932     4737 
    4441     4120     3823     3400     2959     2679     2384     2039 
    1771     1501     1216     1046      939      704      502      511 
     502      430      434      436      414      456      506      413 
     294      298      237       97        5     -116     -221     -225 
    -248     -363     -468     -503     -583     -665     -687     -761 
    -804     -734     -695     -714     -700     -614     -472     -263 
     -39      101      272      510      668      778      885     1005 
    1155     1308     1439     1497     1544     1628     1663     1630 
    1544     1483     1503     1503     1443     1360     1327     1363 
    1420     1513     1606     1706     1899     2111     2270     2397 
    2521     2636     2740     2886     2957     2934     3037     3165 
    3149     3109     3121     3137     3140     3173     3122     2930 
    2829     2786     2636     2490     2365     2189     2049     2007 
    1929     1790     1794     1885     1927     1980     2037     2133 
    2319     2497     2610     2693     2797     2876     2918     2960 
    2893     2751     2674     2584     2404     2157     1927     1759 
    1615     1460     1260     1133     1111     1032      959      972 
    1000     1081     1277     1518     1682     1813     1993     2133 
    2227     2253     2174     2176     2263     2258     2180     2176 
    2245     2304     2435     2571     2614     2778     3028     3137 
    3203     3325     3422     3492     3636     3715     3634     3662 
    3757     3682     3605     3588     3473     3348     3354     3306 
    3078     2983     3018     2898     2775     2747     2669     2614 
    2668     2669     2511     2420     2427     2319     2207     2137 
    1998     1929     1987     1981     1872     1867     1930     1911 
    1904     1883     1787     1794     1868     1844     1757     1723 
    1729     1740     1815     1896     1972     2201     2471     2654 
    2833     3015     3196     3424     3643     3701     3686     3770 
    3766     3630     3507     3311     3103     3022     2938     2768 
    2658     2662     2648     2688     2826     2818     2764     2849 
    2880     2803     2789     2863     2930     3033     3172     3200 
    3288     3544     3719     3838     4052     4253     4395     4587 
    4748     4699     4635     4710     4695     4622     4617     4571 
    4509     4526     4513     4363     4270     4337     4359     4352 
    4396     4387     4375     4468     4568     4540     4506     4556 
    4542     4513     4523     4464     4434     4515     4592     4590 
    4587     4642     4644     4591     4515     4357     4222     4133 
    3990     3821     3643     3505     3445     3387     3291     3202 
    3171     3145     3118     3109     2995     2848     2808     2751 
    2613     2515     2511     2494     2474     2528     2497     2434 
    2533     2644     2631     2617     2666     2720     2813     2949 
    2956     2953     3134     3272     3295     3388     3549     3692 
    3866     4094     4215     4280     4450     4565     4567     4545 
    4438     4301     4217     4079     3784     3483     3311     3127 
    2922     2766     2601     2496     2458     2393     2308     2242 
    2200     2149     2096     1987     1771     1614     1544     1436 
    1329     1267     1282     1378     1493     1578     1636     1773 
    1948     2060     2187     2274     2288     2334     2343     2214 
    2050     1980     1921     1819     1767     1671     1537     1561 
    1652     1644     1649     1818     2020     2204     2509     2781 
    2943     3246     3608     3828     4055     4360     4585     4754 
    5001     5123     5092     5208     5348     5293     5216     5194 
    5112     5027     5027     4922     4720     4692     4683     4514 
    4375     4276     4124     4012     3997     3956     3846     3844 
    3899     3861     3850     3869     3838     3859     3921     3874 
    3746     3712     3728     3676     3640     3578     3437     3353 
    3300     3169     3014     2902     2805     2705     2636     2527 
    2400     2397     2444     2455     2488     2582     2743     2945 
    3156     3311     3443     3630     3804     3936     4036     4086 
    4166     4263     4314     4332     4349     4371     4360     4334 
    4263     4105     4001     3973     3858     3663     3505     3373 
    3203     3061     2957     2801     2695     2690     2639     2560 
    2506     2420     2315     2273     2218     2043     1956     2025 
    2034     2049     2182     2331     2492     2743     2992     3156 
    3396     3717     3928     4121     4344     4460     4537     4629 
    4619     4467     4307     4195     4016     3769     3504     3250 
    3095     3003     2924     2882     2895     2964     3046     3119 
    3142     3134     3218     3342     3445     3530     3541     3522 
    3522     3456     3292     3111     2983     2821     2594     2386 
    2178     2004     1917     1840     1721     1625     1620     1634 
    1640     1665     1638     1634     1729     1784     1799     1883 
    1992     2065     2174     2301     2299     2277     2378     2425 
    2373     2336     2288     2223     2222     2228     2143     2098 
    2147     2130     2101     2142     2172     2246     2413     2567 
    2668     2857     3140     3348     3520     3676     3730     3817 
    3981     4074     4101     4137     4166     4155     4166     4140 
    4012     3967     4001     3962     3935     3929     3878     3832 
    3789     3640     3423     3306     3203     3013     2875     2759 
    2604     2517     2469     2365     2282     2322     2362     2338 
    2367     2336     2192     2143     2147     2043     1949     1996 
    2052     2079     2181     2224     2203     2327     2470     2481 
    2488     2535     2536     2527     2565     2506     2403     2447 
    2458     2342     2281     2243     2147     2069     2008     1857 
    1702     1677     1632     1530     1497     1475     1486     1611 
    1734     1732     1687     1714     1709     1609     1474     1267 
    1060      919      745      523      368      310      225      120 
      79        8      -56        5       63       36       28       68 
     102      144      207      201      201      283      340      375 
     388      363      395      460      442      369      380      425 
     375      333      287      163      147      243      238      171 
     206      289      328      415      498      483      561      700 
     681      585      575      588      540      506      461      357 
     346      430      473      535      664      814      992     1228 
    1402     1449     1599     1826     1888     1867     1885     1878 
    1836     1800     1732     1584     1467     1389     1259     1138 
    1000      831      772      805      803      788      869     1016 
    1143     1259     1291     1254     1296     1333     1258     1152 
    1085     1012      911      845      743      608      598      631 
     592      546      514      483      456      433      361      265 
     243      221      159      105       36       -2       21       39 
      17       14       63       98      148      210      170      148 
     222      221      122       54       29      -13      -22      -39 
    -182     -263     -201     -221     -306     -334     -353     -365 
    -299     -206     -175      -87       85      184      255      329 
     322      310      373      425      399      422      521      568 
     603      645      642      670      700      653      566      511 
     468      399      357      292      162      114      148      133 
     101      131      186      198      207      157       -5     -126 
    -245     -479     -711     -899    -1067    -1159    -1150    -1151 
   -1205    -1156    -1019     -911     -803     -710     -619     -450 
    -225      -43       82      244      437      621      828     1016 
    1189     1402     1586     1690     1755     1836     1903     1939 
    1948     1823     1644     1557     1456     1293     1148     1011 
     859      780      774      693      616      645      602      492 
     432      336      224      207      202       94       47      144 
     178      174      228      228      221      297      355      313 
     272      307      333      378      438      409      398      461 
     476      449      446      498      571      646      681      627 
     610      650      631      579      530      480      451      421 
     340      190       74       -5     -126     -209     -244     -257 
    -182      -51       51      126      245      378      460      542 
     561      523      568      621      576      510      511      540 
     565      677      791      855     1035     1262     1416     1568 
    1721     1865     2038     2218     2290     2303     2421     2548 
    2582     2612     2636     2641     2650     2651     2565     2415 
    2363     2344     2276     2196     2034     1852     1779     1732 
    1606     1479     1489     1540     1545     1566     1540     1532 
    1620     1668     1638     1609     1599     1563     1521     1516 
    1448     1398     1482     1564     1599     1628     1672     1768 
    1888     1985     2029     2115     2280     2386     2444     2467 
    2446     2486     2574     2641     2671     2697     2764     2829 
    2895     2913     2896     3029     3204     3242     3235     3307 
    3376     3339     3358     3406     3304     3232     3211     3086 
    2910     2698     2484     2362     2327     2243     2083     2068 
    2182     2235     2242     2246     2263     2303     2316     2272 
    2219     2269     2338     2349     2412     2439     2435     2552 
    2675     2704     2756     2893     2991     3052     3177     3208 
    3172     3280     3395     3373     3311     3275     3234     3171 
    3105     2959     2786     2697     2552     2340     2135     1908 
    1725     1617     1516     1348     1192     1181     1246     1310 
    1320     1282     1381     1552     1617     1665     1819     1996 
    2091     2230     2362     2316     2351     2525     2586     2589 
    2625     2658     2721     2884     2984     2895     2929     3109 
    3119     3090     3163     3207     3253     3392     3511     3523 
    3645     3839     3865     3879     3915     3820     3753     3809 
    3820     3713     3703     3831     3927     4045     4167     4214 
    4333     4510     4587     4595     4681     4796     4785     4762 
    4723     4565     4482     4498     4437     4330     4271     4232 
    4172     4143     4074     3919     3866     3890     3836     3754 
    3672     3599     3562     3551     3522     3476     3515     3586 
    3601     3601     3558     3518     3568     3620     3596     3558 
    3584     3618     3657     3748     3765     3767     3899     3998 
    3975     3950     3951     3913     3869     3867     3780     3666 
    3670     3631     3484     3345     3196     3045     2997     2978 
    2810     2650     2636     2565     2442     2419     2434     2484 
    2613     2752     2809     2882     3032     3109     3145     3211 
    3192     3149     3175     3169     3065     2980     2997     2991 
    2944     2928     2905     2944     3073     3192     3256     3287 
    3353     3427     3470     3468     3391     3369     3402     3358 
    3307     3258     3213     3240     3287     3265     3191     3183 
    3211     3207     3244     3234     3175     3246     3345     3315 
    3273     3331     3388     3426     3554     3630     3622     3751 
    3909     3946     3963     4001     4017     4039     4095     4074 
    3981     4002     4058     4036     4032     4036     4043     4094 
    4143     4081     3989     4020     4023     3913     3838     3762 
    3647     3570     3514     3380     3226     3191     3176     3127 
    3136     3095     3013     3044     3105     3073     3018     3036 
    3048     3009     2995     2965     2938     2999     3051     3017 
    2949     2899     2872     2851     2847     2828     2825     2860 
    2860     2856     2843     2789     2789     2826     2782     2666 
    2602     2598     2563     2535     2475     2371     2385     2451 
    2390     2289     2299     2319     2251     2259     2278     2147 
    2095     2137     2049     1914     1836     1732     1605     1547 
    1420     1200     1177     1256     1175     1121     1192     1223 
    1212     1270     1282     1171     1158     1210     1167     1161 
    1155     1094     1152     1256     1202     1111     1200     1308 
    1289     1332     1397     1370     1431     1552     1544     1507 
    1593     1648     1621     1696     1744     1667     1729     1900 
    1975     2008     2107     2235     2315     2369     2366     2351 
    2447     2529     2516     2505     2501     2516     2573     2641 
    2659     2655     2729     2814     2886     2965     2964     2998 
    3154     3248     3231     3265     3348     3325     3277     3275 
    3165     3078     3129     3090     2947     2867     2835     2752 
    2721     2751     2631     2513     2565     2556     2465     2435 
    2409     2362     2389     2417     2307     2284     2431     2446 
    2386     2405     2381     2334     2367     2400     2338     2317 
    2412     2461     2515     2612     2616     2644     2785     2853 
    2792     2791     2879     2856     2740     2594     2393     2243 
    2134     1972     1798     1656     1530     1401     1323     1255 
    1107     1043     1098     1146     1163     1146     1166     1282 
