Origin Time       2016/04/16 01:25:00
Lat.              32.753
Long.             130.762
Depth. (km)       12
Mag.              7.3
Station Code      HRS009
Station Lat.      34.4926
Station Long.     132.2794
Station Height(m) 219
Record Time       2016/04/16 01:25:47
Sampling Freq(Hz) 100Hz
Duration Time(s)  116
Dir.              N-S
Scale Factor      7845(gal)/8223790
Max. Acc. (gal)   10.288
Last Correction   2016/04/16 01:25:47
Memo.             
[...]
   -4332    -4344    -4401    -4463    -4558    -4770    -5139    -5622 
   -6139    -6562    -6755    -6654    -6290    -5773    -5254    -4818 
   -4482    -4247    -4114    -4085    -4183    -4488    -5047    -5786 
   -6536    -7125    -7422    -7346    -6917    -6273    -5617    -5164 
   -5031    -5161    -5387    -5555    -5580    -5497    -5377    -5212 
   -4973    -4714    -4535    -4525    -4676    -4900    -5112    -5256 
   -5335    -5397    -5443    -5397    -5204    -4909    -4606    -4391 
   -4379    -4665    -5221    -5861    -6397    -6723    -6764    -6497 
   -5949    -5192    -4347    -3527    -2822    -2338    -2163    -2317 
   -2735    -3325    -3963    -4538    -5038    -5517    -6019    -6555 
   -7092    -7558    -7858    -7892    -7604    -7018    -6219    -5341 
   -4518    -3836    -3336    -3036    -2922    -2998    -3292    -3798 
   -4457    -5200    -5926    -6488    -6763    -6690    -6293    -5706 
   -5101    -4563    -4095    -3709    -3465    -3477    -3796    -4340 
   -4961    -5525    -5940    -6165    -6222    -6143    -5967    -5737 
   -5481    -5169    -4739    -4210    -3716    -3423    -3414    -3646 
   -4010    -4391    -4725    -5043    -5417    -5837    -6235    -6564 
   -6782    -6832    -6652    -6234    -5671    -5138    -4797    -4727 
   -4897    -5213    -5584    -5938    -6177    -6243    -6173    -6021 
   -5792    -5478    -5109    -4735    -4382    -4036    -3699    -3406 
   -3218    -3173    -3310    -3657    -4159    -4710    -5192    -5483 
   -5493    -5221    -4765    -4241    -3743    -3358    -3165    -3207 
   -3480    -3956    -4590    -5306    -6002    -6574    -6980    -7217 
   -7283    -7176    -6928    -6588    -6211    -5846    -5518    -5174 
   -4734    -4192    -3640    -3206    -2964    -2905    -3014    -3300 
   -3731    -4236    -4769    -5289    -5737    -6079    -6289    -6349 
   -6255    -6041    -5725    -5294    -4766    -4263    -3937    -3856 
   -4000    -4310    -4710    -5154    -5623    -6108    -6586    -6980 
   -7190    -7165    -6893    -6373    -5687    -4950    -4243    -3623 
   -3146    -2801    -2567    -2509    -2718    -3206    -3879    -4625 
   -5374    -6070    -6632    -7011    -7190    -7152    -6895    -6446 
   -5854    -5184    -4515    -3982    -3673    -3543    -3495    -3511 
   -3640    -3924    -4384    -5027    -5769    -6420    -6779    -6779 
   -6492    -6021    -5487    -5059    -4881    -4972    -5233    -5522 
   -5710    -5769    -5752    -5689    -5541    -5273    -4950    -4656 
   -4372    -4069    -3823    -3743    -3874    -4199    -4649    -5115 
   -5517    -5831    -6066    -6268    -6473    -6623    -6589    -6299 
   -5779    -5111    -4382    -3705    -3192    -2909    -2909    -3241 
   -3828    -4495    -5131    -5746    -6366    -6956    -7398    -7589 
   -7499    -7184    -6754    -6285    -5798    -5282    -4725    -4194 
   -3809    -3591    -3458    -3354    -3288    -3314    -3516    -3913 
   -4438    -4997    -5472    -5806    -6026    -6188    -6290    -6276 
   -6118    -5879    -5607    -5282    -4909    -4560    -4275    -4006 
   -3751    -3597    -3574    -3639    -3776    -3984    -4214    -4421 
   -4622    -4849    -5086    -5292    -5455    -5632    -5902    -6299 
   -6793    -7281    -7601    -7641    -7400    -6874    -6075    -5215 
   -4518    -4002    -3639    -3481    -3553    -3851    -4376    -5081 
   -5829    -6396    -6629    -6579    -6326    -5869    -5320    -4880 
   -4629    -4506    -4436    -4363    -4266    -4182    -4194    -4345 
   -4560    -4757    -5015    -5458    -6011    -6443    -6609    -6555 
   -6403    -6210    -5957    -5649    -5325    -5011    -4710    -4446 
   -4263    -4213    -4347    -4645    -5000    -5314    -5562    -5732 
   -5806    -5802    -5806    -5891    -6011    -6084    -6120    -6145 
   -6137    -6135    -6156    -6073    -5845    -5617    -5503    -5435 
   -5283    -5043    -4823    -4714    -4710    -4747    -4820    -5003 
   -5329    -5748    -6151    -6420    -6555    -6683    -6813    -6779 
   -6515    -6130    -5771    -5522    -5355    -5179    -5013    -4928 
   -4955    -5063    -5103    -4955    -4710    -4441    -4131    -3916 
   -3939    -4118    -4333    -4639    -5134    -5742    -6259    -6554 
   -6687    -6817    -7047    -7365    -7607    -7539    -7146    -6644 
   -6154    -5583    -4819    -3936    -3173    -2646    -2246    -1912 
   -1717    -1755    -2091    -2687    -3397    -4063    -4642    -5213 
   -5819    -6385    -6860    -7314    -7781    -8177    -8391    -8364 
   -8132    -7753    -7222    -6569    -5961    -5521    -5105    -4564 
   -3993    -3542    -3288    -3302    -3563    -3958    -4417    -4963 
   -5585    -6129    -6443    -6558    -6601    -6660    -6696    -6605 
   -6393    -6150    -5930    -5738    -5582    -5472    -5371    -5151 
   -4746    -4197    -3566    -3005    -2787    -3111    -3942    -5012 
   -6022    -6855    -7488    -7834    -7921    -7936    -7954    -7870 
   -7609    -7230    -6808    -6361    -5898    -5416    -4926    -4417 
   -3854    -3248    -2666    -2222    -2162    -2698    -3701    -4791 
   -5634    -6106    -6214    -6021    -5651    -5254    -4897    -4664 
   -4608    -4576    -4351    -4000    -3840    -4112    -4819    -5813 
   -6872    -7744    -8257    -8444    -8461    -8367    -8124    -7666 
   -6886    -5744    -4399    -3148    -2322    -2098    -2363    -2851 
   -3369    -3820    -4101    -4167    -4131    -4162    -4309    -4460 
   -4477    -4378    -4360    -4587    -4989    -5431    -5876    -6315 
   -6701    -6947    -6941    -6639    -6115    -5491    -4882    -4391 
   -4094    -4036    -4190    -4445    -4746    -5096    -5447    -5753 
   -5999    -6142    -6188    -6224    -6311    -6377    -6312    -6104 
   -5846    -5611    -5398    -5174    -4908    -4617    -4363    -4187 
   -4099    -4116    -4278    -4669    -5281    -5929    -6448    -6808 
   -7030    -7132    -7089    -6859    -6388    -5649    -4706    -3712 
   -2830    -2150    -1723    -1628    -1896    -2461    -3246    -4205 
   -5171    -5899    -6311    -6529    -6710    -6875    -6886    -6697 
   -6426    -6153    -5876    -5583    -5254    -4936    -4742    -4639 
   -4525    -4467    -4631    -5038    -5576    -6110    -6444    -6446 
   -6185    -5784    -5282    -4745    -4295    -4003    -3870    -3877 
   -4023    -4297    -4634    -4977    -5275    -5412    -5304    -5005 
   -4642    -4367    -4330    -4580    -5008    -5474    -5886    -6143 
   -6139    -5888    -5519    -5080    -4533    -3897    -3279    -2826 
   -2631    -2721    -3145    -3882    -4753    -5533    -6079    -6318 
   -6284    -6126    -5948    -5688    -5231    -4615    -4031    -3645 
   -3535    -3721    -4145    -4664    -5092    -5265    -5107    -4681 
   -4203    -3882    -3713    -3538    -3281    -3046    -2970    -3056 
   -3306    -3785    -4431    -5088    -5653    -6089    -6432    -6763 
   -7067    -7225    -7075    -6496    -5549    -4455    -3424    -2675 
   -2376    -2467    -2768    -3136    -3476    -3792    -4106    -4391 
   -4629    -4852    -5096    -5309    -5375    -5273    -5138    -5070 
   -5066    -5105    -5185    -5283    -5352    -5387    -5459    -5597 
   -5692    -5655    -5533    -5343    -5027    -4707    -4599    -4747 
   -5049    -5389    -5675    -5913    -6176    -6465    -6731    -6948 
   -7080    -7118    -7105    -7030    -6824    -6501    -6165    -5823 
   -5368    -4727    -3973    -3292    -2821    -2548    -2434    -2512 
   -2841    -3393    -4045    -4691    -5298    -5817    -6115    -6114 
   -5875    -5522    -5117    -4673    -4217    -3825    -3589    -3543 
   -3676    -3959    -4380    -4926    -5526    -6037    -6323    -6354 
   -6205    -6048    -5973    -5902    -5772    -5641    -5522    -5333 
   -5085    -4936    -4999    -5202    -5398    -5530    -5634    -5714 
   -5738    -5694    -5595    -5436    -5169    -4800    -4411    -4025 
   -3615    -3231    -2978    -2911    -3030    -3306    -3719    -4195 
   -4606    -4941    -5254    -5510    -5660    -5763    -5860    -5876 
   -5786    -5764    -5965    -6354    -6771    -7006    -6966    -6755 
   -6515    -6346    -6312    -6331    -6311    -6297    -6297    -6168 
   -5853    -5530    -5333    -5217    -5181    -5286    -5437    -5448 
   -5275    -4958    -4590    -4299    -4143    -4102    -4137    -4159 
   -4102    -4012    -3971    -4005    -4140    -4390    -4676    -4914 
   -5085    -5220    -5356    -5479    -5540    -5552    -5547    -5525 
   -5481    -5420    -5472    -5795    -6353    -6999    -7622    -8029 
   -8043    -7755    -7373    -6951    -6555    -6340    -6326    -6401 
   -6446    -6373    -6192    -5929    -5528    -4978    -4320    -3578 
   -2884    -2421    -2218    -2173    -2241    -2450    -2820    -3362 
   -4048    -4827    -5633    -6332    -6802    -7037    -7074    -6883 
   -6420    -5686    -4774    -3901    -3226    -2736    -2447    -2448 
   -2725    -3198    -3785    -4340    -4719    -4897    -5007    -5242 
   -5714    -6370    -7037    -7562    -7862    -7933    -7840    -7609 
   -7264    -6912    -6624    -6408    -6219    -6004    -5736    -5456 
   -5229    -5050    -4811    -4487    -4180    -3944    -3781    -3735 
   -3855    -4144    -4568    -5070    -5584    -6114    -6654    -7122 
   -7458    -7634    -7632    -7506    -7333    -7103    -6702    -6062 
   -5298    -4626    -4202    -4032    -3991    -4000    -4083    -4284 
   -4626    -5127    -5760    -6465    -7176    -7747    -7971    -7723 
   -7056    -6174    -5263    -4407    -3615    -2860    -2187    -1707 
   -1483    -1568    -2001    -2686    -3447    -4102    -4472    -4540 
   -4477    -4484    -4608    -4785    -4951    -5086    -5189    -5259 
   -5289    -5293    -5337    -5481    -5661    -5691    -5435    -4959 
   -4495    -4194    -4021    -3871    -3689    -3459    -3149    -2709 
   -2205    -1779    -1514    -1466    -1655    -2004    -2458    -3032 
   -3678    -4218    -4476    -4457    -4322    -4162    -3956    -3684 
   -3321    -2853    -2290    -1696    -1179     -857     -819    -1115 
   -1745    -2631    -3697    -4907    -6133    -7203    -8024    -8587 
   -8932    -9049    -8904    -8560    -8148    -7763    -7456    -7217 
   -6988    -6751    -6539    -6385    -6332    -6443    -6731    -7129 
   -7518    -7777    -7836    -7695    -7465    -7292    -7219    -7244 
   -7380    -7561    -7652    -7618    -7538    -7493    -7501    -7545 
   -7595    -7647    -7692    -7654    -7515    -7426    -7491    -7581 
   -7541    -7392    -7269    -7267    -7381    -7541    -7642    -7576 
   -7326    -6980    -6597    -6239    -6044    -6120    -6460    -6948 
   -7465    -8009    -8622    -9263    -9829   -10238   -10484   -10571 
  -10498   -10314   -10080    -9815    -9524    -9227    -8947    -8710 
   -8533    -8424    -8332    -8144    -7759    -7169    -6470    -5810 
   -5313    -4986    -4792    -4722    -4783    -4958    -5178    -5343 
   -5393    -5321    -5107    -4712    -4145    -3443    -2605    -1652 
    -700       97      604      710      351     -373    -1244    -2074 
   -2751    -3161    -3176    -2759    -2049    -1254     -488      221 
     826     1230     1344     1127      611     -128    -1004    -1904 
   -2721    -3412    -3951    -4391    -4885    -5555    -6350    -7123 
   -7743    -8129    -8198    -7879    -7233    -6376    -5366    -4276 
   -3225    -2334    -1752    -1625    -2026    -2875    -3956    -5032 
   -5964    -6694    -7164    -7333    -7257    -7048    -6768    -6455 
   -6115    -5672    -5016    -4110    -3069    -2041    -1077     -225 
     398      699      625      221     -417    -1259    -2293    -3469 
   -4725    -5942    -6972    -7766    -8384    -8854    -9063    -8807 
   -8023    -6855    -5498    -4158    -3080    -2442    -2286    -2570 
   -3165    -3889    -4575    -5096    -5421    -5649    -5873    -6080 
   -6232    -6355    -6473    -6590    -6717    -6851    -6930    -6893 
   -6716    -6376    -5848    -5138    -4266    -3334    -2539    -2038 
   -1884    -2096    -2683    -3624    -4791    -5983    -7072    -7982 
   -8602    -8888    -8892    -8594    -7939    -6998    -5984    -5163 
   -4665    -4436    -4378    -4407    -4445    -4453    -4393    -4228 
   -3944    -3534    -3038    -2529    -2053    -1642    -1381    -1374 
   -1618    -2015    -2501    -3051    -3640    -4251    -4804    -5201 
   -5436    -5576    -5653    -5633    -5471    -5206    -4978    -4942 
   -5220    -5856    -6762    -7778    -8791    -9660   -10170   -10169 
   -9697    -8911    -7967    -7003    -6106    -5337    -4811    -4611 
   -4737    -5167    -5802    -6447    -6975    -7358    -7551    -7491 
   -7191    -6767    -6369    -6089    -5918    -5776    -5643    -5564 
   -5557    -5563    -5485    -5265    -4920    -4513    -4140    -3919 
   -3897    -4024    -4282    -4676    -5113    -5562    -6158    -7036 
   -8139    -9221   -10041   -10554   -10821   -10874   -10685   -10215 
   -9506    -8685    -7909    -7299    -6905    -6716    -6732    -6941 
   -7223    -7392    -7392    -7329    -7306    -7321    -7334    -7331 
   -7327    -7345    -7349    -7252    -7002    -6609    -6119    -5636 
   -5244    -4946    -4737    -4615    -4506    -4324    -4112    -4029 
   -4214    -4692    -5427    -6386    -7526    -8746    -9909   -10891 
  -11612   -12028   -12101   -11790   -11057    -9925    -8519    -6984 
   -5331    -3466    -1329      962     3087     4696     5555     5530 
    4603     2874      506    -2246    -5080    -7734    -9967   -11538 
  -12295   -12198   -11299    -9718    -7720    -5670    -3861    -2528 
   -1845    -1788    -2187    -2841    -3547    -4159    -4641    -4978 
   -5131    -5097    -4909    -4590    -4140    -3632    -3249    -3125 
   -3261    -3643    -4197    -4752    -5205    -5547    -5745    -5760 
   -5623    -5374    -5043    -4672    -4255    -3784    -3284    -2706 
   -1984    -1146     -283      490     1000     1073      672      -89 
   -1098    -2269    -3547    -4911    -6270    -7535    -8685    -9693 
  -10519   -11155   -11573   -11729   -11597   -11165   -10498    -9678 
   -8749    -7785    -6881    -6080    -5406    -4914    -4691    -4811 
   -5224    -5759    -6204    -6442    -6534    -6569    -6523    -6285 
   -5772    -5000    -4074    -3099    -2155    -1347     -805     -661 
   -1048    -2066    -3649    -5590    -7678    -9667   -11288   -12344 
  -12704   -12326   -11263    -9628    -7614    -5499    -3596    -2188 
   -1445    -1351    -1677    -2142    -2605    -3102    -3680    -4338 
   -5073    -5844    -6502    -6924    -7118    -7074    -6690    -6035 
   -5306    -4617    -3912    -3030    -1899     -727      174      587 
     445      -81     -724    -1347    -1921    -2461    -2972    -3488 
   -4066    -4715    -5327    -5703    -5674    -5243    -4587    -3921 
   -3358    -2941    -2758    -2875    -3238    -3736    -4253    -4635 
   -4733    -4522    -4098    -3584    -3094    -2768    -2740    -3028 
   -3532    -4168    -4852    -5458    -5891    -6189    -6463    -6754 
   -7053    -7360    -7659    -7946    -8158    -8147    -7789    -7083 
   -6154    -5221    -4429    -3782    -3252    -2816    -2490    -2349 
   -2457    -2828    -3504    -4510    -5665    -6673    -7444    -8014 
   -8293    -8118    -7438    -6408    -5377    -4700    -4573    -4999 
   -5837    -6875    -7898    -8768    -9433    -9917   -10242   -10384 
  -10305   -10010    -9560    -9058    -8573    -8106    -7650    -7272 
   -7106    -7236    -7569    -7920    -8197    -8374    -8407    -8306 
   -8195    -8203    -8397    -8785    -9278    -9737   -10053   -10142 
   -9989    -9691    -9358    -9040    -8792    -8637    -8454    -8071 
   -7450    -6706    -6025    -5557    -5362    -5412    -5605    -5809 
   -5980    -6232    -6700    -7383    -8229    -9205   -10227   -11134 
  -11728   -11828   -11398   -10528    -9343    -7959    -6517    -5148 
   -3958    -3022    -2381    -2061    -2120    -2616    -3550    -4823 
   -6195    -7383    -8222    -8726    -9018    -9189    -9227    -9070 
   -8641    -7852    -6660    -5144    -3470    -1833     -407      702 
    1457     1813     1694     1035     -156    -1757    -3547    -5248 
   -6629    -7596    -8175    -8454    -8537    -8487    -8345    -8120 
   -7813    -7437    -7015    -6632    -6430    -6517    -6889    -7423 
   -7915    -8167    -8120    -7885    -7626    -7396    -7141    -6813 
   -6446    -6110    -5845    -5682    -5643    -5719    -5879    -6025 
   -6064    -5952    -5638    -5112    -4429    -3693    -3026    -2504 
   -2149    -1934    -1838    -1939    -2343    -3096    -4140    -5335 
   -6520    -7515    -8139    -8301    -8024    -7449    -6725    -5927 
   -5140    -4386    -3604    -2802    -2070    -1567    -1452    -1800 
   -2602    -3727    -4973    -6201    -7335    -8324    -9062    -9396 
   -9286    -8799    -8009    -6987    -5823    -4661    -3657    -2896 
   -2361    -1987    -1750    -1698    -1875    -2236    -2740    -3372 
   -4036    -4638    -5121    -5441    -5645    -5864    -6214    -6727 
   -7311    -7854    -8291    -8579    -8669    -8480    -7998    -7288 
   -6401    -5428    -4487    -3696    -3191    -3056    -3288    -3790 
   -4407    -5036    -5590    -5957    -6103    -6097    -6079    -6212 
   -6527    -6928    -7366    -7824    -8252    -8583    -8723    -8586 
   -8127    -7389    -6490    -5518    -4538    -3627    -2818    -2116 
   -1548    -1138     -908     -847     -911    -1088    -1367    -1705 
   -2061    -2475    -3056    -3838    -4766    -5764    -6728    -7541 
   -8124    -8424    -8418    -8064    -7311    -6218    -4936    -3585 
   -2277    -1175     -436      -68      -25     -333    -1043    -2172 
   -3627    -5204    -6723    -8095    -9273   -10187   -10752   -10940 
  -10802   -10413    -9847    -9135    -8255    -7219    -6104    -5004 
   -4017    -3240    -2743    -2558    -2693    -3106    -3700    -4395 
   -5151    -5968    -6848    -7735    -8449    -8811    -8742    -8225 
   -7376    -6397    -5368    -4365    -3566    -3130    -3086    -3331 
   -3765    -4341    -5011    -5719    -6399    -6944    -7268    -7277 
   -6919    -6273    -5505    -4737    -4024    -3415    -2956    -2668 
   -2551    -2613    -2856    -3222    -3661    -4162    -4680    -5194 
   -5694    -6091    -6319    -6399    -6361    -6219    -5973    -5602 
   -5055    -4371    -3700    -3207    -2936    -2810    -2764    -2736 
   -2674    -2619    -2671    -2921    -3388    -4010    -4637    -5081 
   -5219    -5115    -4950    -4881    -5004    -5336    -5806    -6293 
   -6654    -6786    -6682    -6355    -5810    -5089    -4223    -3246 
   -2281    -1468     -880     -557     -553     -884    -1526    -2423 
   -3454    -4517    -5583    -6606    -7457    -7986    -8073    -7719 
   -7069    -6274    -5320    -4158    -2821    -1405      -72      989 
    1614     1671     1097      -68    -1644    -3300    -4769    -5984 
   -6998    -7807    -8344    -8612    -8650    -8510    -8349    -8301 
   -8345    -8379    -8278    -7952    -7371    -6539    -5501    -4327 
   -3111    -1923     -803      191     1000     1522     1615     1248 
     572     -275    -1209    -2151    -3056    -3805    -4270    -4513 
