Origin Time       2016/04/16 01:25:00
Lat.              32.753
Long.             130.762
Depth. (km)       12
Mag.              7.3
Station Code      HRS007
Station Lat.      34.7032
Station Long.     133.0946
Station Height(m) 382
Record Time       2016/04/16 01:26:32
Sampling Freq(Hz) 100Hz
Duration Time(s)  72
Dir.              N-S
Scale Factor      7845(gal)/8223790
Max. Acc. (gal)   3.656
Last Correction   2016/04/16 01:26:34
Memo.             
[...]
    3029     2971     2940     2934     2943     2961     3002     3068 
    3146     3217     3261     3288     3311     3341     3366     3369 
    3334     3272     3202     3136     3075     3021     2976     2948 
    2937     2940     2943     2940     2929     2907     2868     2813 
    2755     2710     2691     2698     2724     2758     2794     2832 
    2863     2893     2930     2984     3051     3125     3207     3298 
    3384     3450     3491     3518     3547     3582     3604     3595 
    3565     3523     3476     3429     3385     3341     3291     3244 
    3211     3199     3198     3188     3157     3115     3073     3048 
    3038     3032     3026     3037     3071     3117     3153     3177 
    3202     3238     3291     3352     3399     3438     3485     3542 
    3592     3622     3630     3634     3651     3670     3689     3704 
    3707     3694     3676     3663     3667     3681     3686     3670 
    3632     3580     3527     3477     3433     3402     3383     3369 
    3358     3339     3311     3281     3261     3248     3230     3207 
    3176     3148     3132     3134     3154     3187     3217     3235 
    3249     3258     3265     3271     3273     3280     3294     3316 
    3350     3385     3410     3426     3429     3415     3399     3388 
    3397     3423     3443     3445     3438     3429     3412     3392 
    3357     3307     3264     3244     3252     3284     3334     3393 
    3454     3501     3537     3566     3593     3613     3631     3661 
    3700     3738     3757     3744     3709     3667     3628     3586 
    3528     3451     3372     3306     3264     3256     3272     3296 
    3319     3341     3353     3349     3331     3312     3302     3311 
    3335     3380     3440     3501     3559     3613     3662     3708 
    3746     3784     3828     3871     3908     3932     3955     3983 
    4016     4045     4067     4082     4099     4114     4114     4087 
    4033     3950     3834     3700     3566     3440     3326     3229 
    3150     3092     3052     3015     2980     2957     2952     2951 
    2934     2891     2830     2775     2740     2720     2705     2690 
    2683     2693     2718     2767     2835     2911     2982     3029 
    3061     3095     3134     3160     3164     3164     3180     3215 
    3258     3283     3273     3241     3206     3176     3165     3180 
    3219     3264     3312     3368     3422     3468     3496     3505 
    3501     3495     3476     3438     3379     3310     3253     3225 
    3217     3211     3204     3191     3169     3141     3113     3099 
    3105     3117     3133     3161     3202     3241     3261     3271 
    3296     3357     3443     3526     3580     3595     3588     3585 
    3599     3619     3634     3640     3640     3643     3650     3643 
    3608     3559     3515     3483     3457     3429     3399     3368 
    3350     3361     3402     3462     3528     3584     3618     3624 
    3608     3577     3547     3538     3562     3611     3665     3716 
    3767     3805     3823     3817     3805     3797     3796     3790 
    3784     3788     3804     3812     3790     3738     3670     3604 
    3537     3449     3333     3194     3056     2951     2890     2862 
    2862     2882     2932     3011     3084     3119     3125     3115 
    3102     3095     3092     3090     3080     3056     3026     2997 
    2964     2924     2886     2866     2874     2906     2949     2991 
    3030     3059     3073     3088     3109     3118     3109     3095 
    3075     3059     3057     3061     3073     3098     3130     3157 
    3175     3188     3198     3200     3194     3169     3130     3083 
    3033     2986     2959     2961     3002     3075     3161     3230 
    3277     3315     3342     3358     3376     3396     3419     3447 
    3480     3519     3559     3585     3592     3599     3619     3651 
    3681     3699     3704     3707     3715     3719     3717     3726 
    3744     3769     3790     3789     3771     3751     3738     3734 
    3727     3711     3685     3653     3628     3620     3634     3665 
    3688     3684     3665     3657     3655     3655     3665     3678 
    3693     3707     3712     3708     3707     3723     3769     3828 
    3878     3910     3927     3928     3919     3904     3883     3855 
    3819     3786     3780     3812     3866     3917     3955     3990 
    4040     4098     4139     4155     4155     4151     4149     4145 
    4135     4121     4113     4124     4153     4180     4191     4189 
    4178     4152     4114     4069     4027     3981     3928     3856 
    3763     3658     3539     3402     3257     3119     2994     2878 
    2770     2669     2584     2508     2409     2288     2158     2025 
    1898     1788     1692     1611     1547     1490     1435     1379 
    1329     1285     1232     1167     1116     1100     1107     1119 
    1113     1094     1077     1074     1085     1105     1124     1146 
    1190     1264     1362     1478     1605     1728     1826     1902 
    1971     2047     2137     2239     2344     2450     2559     2663 
    2747     2814     2875     2933     2976     2995     2992     2984 
    2983     2986     2991     3002     3013     3019     3024     3030 
    3040     3052     3065     3078     3083     3087     3090     3083 
    3071     3069     3071     3075     3071     3061     3045     3033 
    3032     3046     3080     3126     3167     3188     3188     3171 
    3152     3152     3171     3187     3187     3173     3150     3126 
    3106     3079     3032     2972     2921     2889     2870     2862 
    2871     2913     2990     3082     3173     3257     3331     3388 
    3427     3445     3446     3438     3440     3464     3500     3527 
    3530     3511     3483     3447     3406     3358     3317     3289 
    3272     3265     3271     3276     3281     3284     3288     3300 
    3322     3348     3372     3391     3395     3387     3376     3364 
    3334     3277     3203     3134     3078     3022     2952     2866 
    2779     2708     2654     2619     2598     2589     2597     2627 
    2677     2749     2836     2924     3013     3100     3190     3275 
    3349     3414     3469     3520     3581     3658     3757     3889 
    4052     4241     4431     4599     4735     4846     4942     5019 
    5071     5101     5103     5084     5059     5034     5016     5013 
    5016     5000     4953     4866     4753     4629     4515     4418 
    4340     4282     4238     4205     4194     4197     4209     4228 
    4255     4286     4311     4320     4322     4338     4382     4461 
    4565     4680     4801     4923     5038     5142     5243     5343 
    5440     5528     5590     5628     5637     5625     5599     5568 
    5540     5510     5481     5451     5406     5339     5259     5177 
    5090     4992     4880     4760     4638     4518     4402     4293 
    4194     4117     4055     3997     3927     3850     3770     3704 
    3658     3630     3618     3627     3661     3717     3790     3870 
    3950     4017     4071     4101     4107     4107     4107     4101 
    4086     4077     4071     4068     4069     4072     4074     4083 
    4081     4058     4020     3974     3927     3874     3815     3751 
    3689     3632     3576     3523     3481     3439     3387     3330 
    3276     3226     3169     3099     3033     2984     2951     2917 
    2868     2798     2709     2620     2548     2500     2465     2431 
    2403     2388     2390     2413     2442     2461     2467     2458 
    2439     2421     2407     2388     2362     2338     2323     2315 
    2300     2265     2207     2130     2042     1941     1836     1737 
    1667     1637     1634     1642     1656     1677     1706     1729 
    1748     1764     1795     1842     1898     1958     2027     2110 
    2214     2338     2477     2608     2713     2776     2805     2821 
    2836     2847     2851     2844     2828     2799     2759     2705 
    2647     2602     2578     2567     2555     2531     2493     2452 
    2413     2381     2362     2363     2394     2444     2500     2559 
    2609     2639     2656     2674     2695     2721     2740     2749 
    2740     2709     2647     2569     2489     2404     2313     2214 
    2106     2004     1929     1872     1836     1822     1825     1830 
    1833     1844     1864     1903     1954     2010     2066     2133 
    2215     2324     2447     2563     2647     2695     2736     2787 
    2840     2870     2870     2853     2843     2844     2844     2822 
    2785     2751     2731     2716     2687     2640     2573     2490 
    2396     2293     2193     2116     2076     2084     2133     2215 
    2326     2450     2590     2740     2890     3019     3122     3188 
    3215     3206     3172     3133     3099     3076     3071     3092 
    3130     3167     3198     3229     3258     3275     3271     3256 
    3246     3249     3249     3244     3237     3230     3225     3229 
    3231     3232     3240     3252     3269     3294     3317     3348 
    3383     3419     3454     3487     3514     3532     3527     3487 
    3422     3355     3294     3235     3180     3130     3083     3028 
    2957     2882     2813     2758     2710     2659     2596     2520 
    2440     2373     2332     2315     2312     2322     2340     2376 
    2428     2494     2559     2609     2640     2644     2617     2570 
    2523     2484     2446     2403     2357     2308     2250     2169 
    2069     1956     1845     1750     1679     1621     1567     1503 
    1431     1350     1266     1194     1136     1084     1042     1024 
    1034     1065     1102     1139     1175     1206     1220     1215 
    1209     1221     1256     1304     1352     1397     1445     1513 
    1603     1714     1837     1954     2047     2107     2147     2185 
    2239     2312     2394     2489     2600     2721     2849     2959 
    3042     3099     3126     3129     3118     3106     3102     3103 
    3113     3130     3142     3150     3157     3160     3164     3163 
    3146     3123     3109     3103     3096     3090     3092     3103 
    3130     3171     3218     3276     3352     3440     3530     3618 
    3701     3776     3828     3846     3827     3782     3726     3651 
    3553     3437     3325     3231     3168     3126     3090     3045 
    2991     2943     2920     2920     2933     2957     2995     3036 
    3073     3106     3132     3148     3159     3164     3167     3172 
    3190     3210     3230     3241     3241     3234     3217     3179 
    3133     3096     3090     3123     3179     3237     3281     3311 
    3343     3387     3434     3477     3520     3565     3605     3630 
    3628     3600     3554     3507     3464     3420     3377     3331 
    3284     3249     3225     3213     3210     3192     3165     3138 
    3119     3109     3088     3051     3007     2978     2953     2933 
    2922     2913     2896     2880     2851     2801     2747     2700 
    2666     2641     2621     2616     2636     2685     2749     2821 
    2886     2937     2984     3040     3103     3161     3206     3242 
    3283     3336     3410     3488     3551     3600     3640     3677 
    3712     3743     3759     3747     3708     3639     3530     3392 
    3231     3064     2909     2786     2695     2631     2592     2582 
    2606     2659     2721     2778     2822     2863     2905     2949 
    3002     3063     3127     3194     3265     3331     3399     3477 
    3563     3649     3719     3780     3834     3889     3935     3974 
    4012     4054     4105     4170     4240     4314     4386     4453 
    4511     4554     4583     4590     4568     4511     4428     4327 
    4225     4126     4017     3883     3717     3535     3362     3204 
    3061     2929     2809     2709     2635     2587     2563     2546 
    2538     2529     2512     2482     2446     2409     2394     2412 
    2461     2544     2647     2752     2839     2893     2926     2964 
    3002     3025     3037     3046     3065     3103     3149     3192 
    3229     3256     3276     3294     3307     3311     3304     3291 
    3275     3262     3250     3238     3222     3192     3141     3071 
    2992     2915     2840     2764     2694     2650     2644     2681 
    2743     2818     2909     3015     3126     3234     3338     3443 
    3549     3642     3723     3801     3880     3958     4014     4041 
    4041     4031     4010     3984     3958     3929     3906     3892 
    3880     3874     3861     3823     3766     3704     3638     3574 
    3516     3458     3392     3312     3218     3105     2979     2867 
    2787     2736     2712     2714     2748     2814     2918     3052 
    3204     3375     3558     3746     3927     4085     4197     4248 
    4248     4205     4129     4039     3943     3844     3757     3678 
    3613     3557     3497     3430     3368     3322     3306     3325 
    3369     3433     3488     3523     3530     3510     3466     3419 
    3388     3369     3355     3343     3333     3336     3372     3437 
    3528     3645     3765     3869     3951     4016     4074     4147 
    4240     4340     4440     4537     4633     4731     4830     4938 
    5066     5220     5397     5589     5775     5945     6093     6228 
    6355     6463     6548     6623     6697     6774     6853     6933 
    6998     7045     7080     7106     7132     7159     7169     7155 
    7115     7061     7003     6939     6855     6735     6578     6396 
    6211     6038     5876     5717     5559     5401     5242     5085 
    4926     4750     4552     4329     4087     3828     3570     3321 
    3087     2875     2693     2539     2403     2276     2154     2052 
    1982     1949     1937     1946     1996     2083     2193     2319 
    2448     2567     2664     2745     2820     2903     3002     3102 
    3183     3241     3280     3299     3307     3322     3346     3385 
    3437     3500     3574     3646     3711     3763     3808     3847 
    3871     3890     3912     3954     4028     4131     4241     4348 
    4441     4517     4575     4614     4637     4656     4689     4756 
    4868     5017     5186     5348     5481     5575     5622     5614 
    5556     5462     5354     5255     5174     5109     5057     5019 
    5000     5000     5004     5008     5009     4999     4966     4920 
    4862     4807     4777     4777     4797     4827     4854     4862 
    4841     4803     4765     4729     4681     4619     4552     4502 
    4487     4496     4517     4533     4545     4561     4588     4627 
    4685     4757     4823     4876     4909     4920     4903     4870 
    4826     4764     4688     4612     4552     4518     4519     4542 
    4577     4610     4630     4642     4668     4715     4772     4818 
    4841     4839     4827     4810     4792     4785     4793     4812 
    4838     4864     4887     4916     4951     4981     4996     4994 
    4972     4934     4896     4865     4843     4819     4774     4703 
    4625     4546     4457     4338     4176     3986     3802     3642 
    3505     3369     3230     3096     2990     2929     2917     2933 
    2967     3015     3082     3176     3299     3434     3568     3681 
    3780     3875     3969     4055     4136     4195     4232     4243 
    4232     4205     4178     4156     4140     4122     4107     4110 
    4144     4202     4271     4334     4384     4429     4463     4476 
    4464     4414     4321     4202     4078     3962     3850     3738 
    3636     3537     3435     3335     3244     3165     3095     3034 
    2988     2959     2947     2959     3002     3083     3180     3261 
    3298     3283     3235     3183     3140     3109     3092     3098 
    3132     3194     3265     3308     3316     3307     3295     3291 
    3308     3342     3388     3442     3488     3516     3518     3500 
    3484     3487     3510     3549     3593     3628     3653     3667 
    3666     3658     3653     3661     3680     3704     3726     3738 
    3750     3757     3753     3743     3735     3728     3724     3723 
    3730     3742     3755     3767     3778     3780     3778     3780 
    3792     3828     3899     4005     4131     4256     4367     4463 
    4549     4626     4689     4735     4762     4762     4722     4642 
    4534     4417     4306     4205     4110     4016     3923     3840 
    3780     3746     3727     3708     3682     3653     3626     3593 
    3561     3547     3554     3570     3582     3574     3542     3483 
    3396     3291     3177     3080     3014     2970     2938     2918 
    2909     2928     2983     3075     3191     3317     3442     3558 
    3663     3751     3812     3844     3855     3858     3863     3874 
    3888     3906     3931     3955     3997     4068     4159     4248 
    4324     4382     4433     4480     4522     4560     4606     4681 
    4787     4899     5003     5092     5157     5194     5204     5188 
    5171     5178     5208     5250     5281     5286     5268     5235 
    5182     5117     5051     4989     4927     4852     4772     4689 
    4611     4540     4471     4409     4360     4324     4293     4252 
    4205     4153     4090     3994     3870     3740     3639     3578 
    3550     3538     3527     3510     3492     3480     3464     3442 
    3410     3361     3299     3222     3137     3060     2991     2928 
    2860     2782     2691     2593     2479     2344     2195     2052 
    1934     1848     1779     1710     1634     1570     1539     1557 
    1610     1683     1767     1848     1908     1944     1960     1975 
    2008     2062     2128     2195     2253     2297     2328     2349 
    2370     2397     2421     2439     2465     2496     2519     2542 
    2571     2606     2648     2695     2728     2737     2739     2748 
    2755     2754     2740     2725     2733     2776     2840     2906 
    2955     2978     2976     2961     2937     2896     2829     2743 
    2644     2552     2474     2400     2322     2246     2184     2133 
    2074     1988     1887     1791     1698     1593     1480     1364 
    1258     1167     1088     1013      939      869      804      741 
     672      599      517      425      329      233      144       71 
       9      -43      -86     -118     -136     -139     -124      -86 
     -23       56      151      248      336      405      454      490 
     517      556      626      723      846      992     1148     1297 
    1426     1532     1605     1653     1699     1736     1753     1753 
    1737     1723     1722     1725     1721     1703     1667     1610 
    1554     1520     1502     1501     1507     1502     1475     1428 
    1368     1305     1247     1194     1142     1086     1031      972 
     913      873      868      899      949     1000     1034     1050 
    1067     1100     1154     1227     1300     1354     1381     1385 
    1370     1340     1301     1256     1221     1213     1235     1281 
    1347     1431     1525     1613     1677     1721     1755     1792 
    1837     1895     1968     2052     2134     2203     2259     2315 
    2373     2435     2494     2548     2593     2627     2650     2655 
