Origin Time       2016/04/16 01:25:00
Lat.              32.753
Long.             130.762
Depth. (km)       12
Mag.              7.3
Station Code      HRS008
Station Lat.      34.6029
Station Long.     132.7201
Station Height(m) 207
Record Time       2016/04/16 01:25:51
Sampling Freq(Hz) 100Hz
Duration Time(s)  115
Dir.              N-S
Scale Factor      7845(gal)/8223790
Max. Acc. (gal)   7.605
Last Correction   2016/04/16 01:25:51
Memo.             
[...]
     369      746     1174     1653     2126     2508     2713     2690 
    2455     2098     1733     1440     1242     1116     1026      940 
     862      828      837      881      992     1139     1227     1217 
    1147     1077     1034      990      923      868      876      966 
    1116     1282     1441     1578     1711     1857     1996     2128 
    2270     2381     2436     2508     2655     2856     3040     3130 
    3090     2921     2620     2243     1891     1606     1390     1217 
    1050      843      584      292       22     -155     -206     -180 
    -189     -274     -388     -486     -552     -589     -585     -498 
    -328     -149        5      168      337      490      656      908 
    1296     1776     2242     2623     2899     3042     3032     2906 
    2725     2535     2358     2188     1988     1767     1576     1413 
    1217      955      622      255      -99     -430     -724     -888 
    -854     -672     -446     -282     -248     -348     -537     -761 
    -926     -967     -903     -780     -642     -518     -396     -259 
    -128      -25       65      170      298      453      642      890 
    1194     1483     1699     1850     1958     2025     2053     2039 
    1952     1783     1591     1479     1470     1494     1501     1440 
    1236      889      504      159     -110     -272     -344     -360 
    -307     -244     -294     -480     -731     -984    -1190    -1305 
   -1269    -1039     -627      -98      423      837     1105     1233 
    1247     1206     1178     1216     1339     1528     1768     2038 
    2285     2442     2467     2382     2246     2092     1934     1800 
    1729     1742     1852     2027     2165     2199     2151     2069 
    1968     1854     1714     1464     1046      526       32     -337 
    -565     -670     -669     -592     -483     -395     -386     -453 
    -538     -581     -568     -492     -342     -136      103      363 
     619      877     1167     1485     1800     2085     2269     2288 
    2178     2047     1962     1956     2039     2168     2251     2219 
    2056     1777     1405      962      483       13     -392     -676 
    -828     -905     -938     -909     -795     -579     -265      116 
     517      864     1074     1113     1055      982      920      919 
    1053     1336     1688     2034     2347     2640     2871     2956 
    2874     2693     2492     2269     1987     1652     1317      992 
     600      102     -423     -893    -1310    -1711    -2068    -2319 
   -2425    -2380    -2232    -2056    -1871    -1671    -1443    -1129 
    -634       60      864     1657     2355     2895     3223     3327 
    3284     3229     3226     3238     3199     3060     2789     2370 
    1840     1220      523     -183     -781    -1185    -1393    -1455 
   -1443    -1420    -1436    -1506    -1570    -1556    -1455    -1274 
   -1012     -685     -349      -72      106      186      178      131 
     128      236      468      760     1028     1221     1350     1439 
    1503     1568     1642     1733     1842     1938     1998     2045 
    2079     2047     1903     1611     1178      715      398      271 
     259      301      402      594      877     1189     1448     1593 
    1586     1405     1084      745      553      575      727      901 
    1059     1193     1277     1296     1269     1250     1300     1422 
    1590     1788     1980     2095     2106     2031     1884     1667 
    1386     1060      783      645      634      704      827      958 
    1055     1100     1100     1104     1156     1266     1393     1460 
    1431     1316     1125      864      557      246       -9     -191 
    -333     -446     -495     -477     -417     -322     -191        5 
     324      766     1289     1894     2596     3348     4047     4592 
    4915     5027     5016     4939     4796     4598     4367     4099 
    3794     3469     3123     2731     2277     1783     1287      815 
     392       22     -319     -649     -940    -1182    -1360    -1436 
   -1377    -1167     -819     -352      183      685     1080     1383 
    1645     1908     2214     2620     3159     3793     4421     4932 
    5270     5424     5400     5208     4857     4360     3761     3100 
    2394     1632      792      -90     -927    -1649    -2241    -2675 
   -2917    -2940    -2732    -2343    -1885    -1452    -1078     -777 
    -549     -338      -71      278      689     1138     1598     2022 
    2343     2529     2598     2601     2574     2532     2461     2342 
    2168     1956     1719     1444     1124      770      382      -47 
    -487     -895    -1271    -1605    -1842    -1956    -1961    -1892 
   -1800    -1729    -1701    -1702    -1696    -1668    -1622    -1522 
   -1351    -1129     -884     -631     -415     -263     -139      -11 
      95      191      325      495      660      776      784      643 
     378       49     -263     -496     -629     -666     -621     -511 
    -386     -298     -278     -291     -279     -211      -89       91 
     334      643      981     1305     1613     1891     2116     2311 
    2508     2714     2925     3153     3388     3561     3591     3456 
    3173     2814     2457     2111     1786     1497     1236     1008 
     850      807      911     1175     1590     2093     2617     3132 
    3613     4014     4313     4507     4567     4476     4228     3807 
    3262     2744     2419     2369     2551     2851     3145     3342 
    3388     3237     2855     2292     1671     1129      737      487 
     328      190       37     -116     -249     -361     -444     -498 
    -510     -418     -187      148      544      943     1267     1478 
    1584     1629     1702     1864     2087     2305     2452     2471 
    2381     2231     2045     1831     1594     1337     1043      662 
     197     -311     -830    -1310    -1698    -1934    -1966    -1813 
   -1521    -1107     -599      -67      453      981     1541     2130 
    2686     3163     3561     3883     4124     4279     4374     4471 
    4602     4747     4866     4918     4869     4680     4307     3762 
    3111     2425     1794     1308     1008      842      737      630 
     461      216      -45     -271     -456     -604     -712     -757 
    -702     -514     -172      311      911     1575     2208     2728 
    3113     3393     3603     3727     3715     3555     3280     2943 
    2616     2389     2347     2551     2941     3334     3573     3599 
    3391     2961     2374     1703     1023      375     -249     -832 
   -1324    -1741    -2104    -2363    -2466    -2407    -2215    -1979 
   -1761    -1533    -1243     -861     -344      349     1217     2172 
    3083     3856     4473     4950     5262     5339     5166     4797 
    4310     3743     3156     2623     2195     1885     1687     1554 
    1448     1345     1223     1078      957      897      895      922 
     949      892      691      382       35     -306     -607     -823 
    -911     -859     -706     -493     -259      -40      112      140 
       9     -265     -611     -915    -1084    -1084     -935     -672 
    -318       72      406      592      596      467      291      147 
      71       67       75       -1     -217     -537     -854    -1028 
    -951     -625     -106      506     1043     1320     1248      855 
     246     -425     -987    -1281    -1239     -915     -399      230 
     862     1368     1698     1849     1826     1665     1418     1147 
     918      737      529      245      -91     -486     -949    -1431 
   -1842    -2139    -2316    -2384    -2389    -2390    -2409    -2446 
   -2470    -2454    -2411    -2358    -2300    -2205    -2022    -1726 
   -1329     -830     -221      460     1150     1784     2286     2558 
    2570     2384     2118     1912     1875     2012     2282     2617 
    2925     3099     3061     2805     2396     1922     1417      884 
     334     -216     -762    -1321    -1900    -2471    -2918    -3098 
   -2947    -2539    -2018    -1491    -1000     -553     -143      270 
     776     1416     2150     2896     3553     4023     4287     4401 
    4402     4286     4060     3751     3365     2871     2249     1548 
     842      184     -373     -799    -1078    -1192    -1128     -912 
    -595     -236      118      483      926     1493     2149     2809 
    3373     3762     3943     3950     3877     3793     3678     3504 
    3300     3095     2902     2709     2494     2258     2018     1764 
    1495     1254     1044      797      460       37     -432     -896 
   -1331    -1781    -2277    -2759    -3150    -3419    -3570    -3603 
   -3496    -3235    -2821    -2282    -1719    -1228     -834     -508 
    -220       83      440      847     1296     1755     2212     2651 
    3019     3218     3180     2929     2543     2144     1881     1844 
    1972     2102     2083     1852     1429      866      243     -315 
    -700     -869     -850     -706     -518     -383     -368     -525 
    -903    -1490    -2153    -2700    -2964    -2889    -2546    -2061 
   -1548    -1084     -672     -272      148      610     1096     1506 
    1713     1661     1413     1073      764      577      523      599 
     800     1047     1240     1333     1312     1163      864      418 
    -116     -676    -1205    -1657    -2022    -2326    -2581    -2771 
   -2856    -2802    -2602    -2303    -2007    -1794    -1680    -1679 
   -1783    -1934    -2065    -2172    -2289    -2448    -2669    -2948 
   -3277    -3615    -3842    -3847    -3586    -3071    -2365    -1545 
    -708       37      611      974     1109     1059      951      901 
     949     1063     1154     1112      882      498       60     -283 
    -459     -476     -363     -176      -14       18     -160     -546 
   -1017    -1436    -1701    -1771    -1680    -1466    -1162     -851 
    -603     -390     -151      187      688     1305     1933     2489 
    2910     3154     3219     3117     2893     2658     2528     2536 
    2664     2824     2875     2729     2353     1736      929       72 
    -638    -1036    -1069     -764     -203      484     1142     1606 
    1775     1648     1294      823      330     -124     -502     -761 
    -896     -942     -954     -942     -862     -679     -396      -56 
     292      585      764      805      746      693      741      903 
    1139     1391     1613     1800     1954     2053     2073     1982 
    1740     1362      929      552      333      298      338      336 
     255       85     -197     -569     -920    -1094    -1011     -728 
    -414     -232     -256     -454     -715     -888     -862     -583 
     -20      846     1981     3262     4484     5491     6249     6804 
    7195     7414     7429     7234     6808     6081     5009     3626 
    2065      513     -862    -1956    -2729    -3199    -3437    -3515 
   -3524    -3559    -3685    -3866    -3975    -3901    -3646    -3302 
   -2951    -2619    -2280    -1904    -1462     -905     -164      805 
    1948     3138     4256     5205     5891     6296     6486     6556 
    6589     6617     6602     6484     6223     5764     5050     4074 
    2887     1603      355     -777    -1779    -2660    -3440    -4120 
   -4691    -5157    -5519    -5740    -5775    -5594    -5155    -4436 
   -3470    -2338    -1138       52     1182     2203     3038     3609 
    3870     3831     3582     3246     2898     2578     2351     2265 
    2315     2432     2501     2419     2162     1764     1254      664 
      70     -423     -767     -984    -1112    -1161    -1089     -873 
    -531     -118      287      641      940     1185     1370     1487 
    1533     1521     1464     1331     1069      679      228     -178 
    -442     -548     -537     -491     -500     -602     -764     -942 
   -1107    -1237    -1290    -1228    -1042     -749     -398      -17 
     392      811     1193     1502     1737     1914     2052     2173 
    2307     2444     2556     2614     2596     2509     2380     2232 
    2088     1972     1906     1887     1902     1971     2133     2380 
    2598     2636     2428     1988     1367      630     -129     -756 
   -1090    -1059     -696      -75      710     1518     2162     2498 
    2500     2254     1895     1549     1343     1341     1568     2026 
    2631     3240     3740     4090     4291     4382     4405     4375 
    4287     4155     4020     3932     3936     4033     4197     4360 
    4430     4324     3993     3461     2820     2161     1501      815 
      95     -600    -1147    -1431    -1470    -1364    -1188     -985 
    -783     -537     -167      361     1026     1764     2484     3118 
    3669     4176     4715     5358     6114     6922     7669     8247 
    8604     8734     8625     8283     7744     7052     6235     5323 
    4368     3447     2647     2008     1497     1011      459     -205 
    -953    -1668    -2230    -2575    -2656    -2424    -1911    -1240 
    -530      152      796     1414     1999     2548     3114     3747 
    4415     5039     5555     5927     6148     6249     6242     6097 
    5784     5309     4708     4027     3277     2417     1429      395 
    -562    -1391    -2083    -2636    -3080    -3434    -3689    -3832 
   -3866    -3816    -3709    -3505    -3095    -2390    -1377     -109 
    1339     2898     4450     5864     7040     7919     8492     8803 
    8923     8938     8889     8743     8437     7946     7307     6567 
    5757     4899     3975     3018     2126     1354      693      128 
    -360     -778    -1150    -1534    -1969    -2362    -2528    -2350 
   -1849    -1112     -225      706     1547     2215     2747     3235 
    3703     4086     4314     4374     4359     4393     4529     4761 
    5097     5522     5967     6336     6564     6610     6465     6157 
    5687     5035     4241     3429     2740     2272     2046     2010 
    2050     2042     1912     1649     1278      903      649      565 
     619      773      973     1127     1138      935      517      -21 
    -546     -959    -1236    -1393    -1487    -1618    -1821    -2022 
   -2115    -2061    -1919    -1780    -1656    -1476    -1192     -843 
    -500     -147      297      922     1759     2755     3766     4619 
    5182     5379     5208     4752     4151     3523     2948     2478 
    2128     1888     1710     1501     1152      587     -222    -1217 
   -2263    -3222    -3994    -4548    -4897    -5092    -5185    -5204 
   -5138    -4922    -4441    -3639    -2614    -1613     -838     -298 
     156      658     1252     1900     2540     3171     3811     4403 
    4858     5134     5224     5100     4698     4010     3138     2238 
    1472      928      575      344      186       -5     -309     -700 
   -1128    -1499    -1692    -1676    -1491    -1173     -776     -421 
    -230     -276     -519     -819    -1020    -1020     -800     -427 
       8      484     1048     1723     2457     3154     3759     4280 
    4762     5196     5481     5521     5341     5034     4623     4079 
    3411     2702     2074     1605     1285     1016      675      202 
    -344     -822    -1098    -1161    -1105     -976     -708     -283 
     197      589      789      793      669      498      368      387 
     627     1089     1744     2548     3433     4298     5067     5732 
    6340     6934     7488     7894     8040     7888     7472     6826 
    5965     4947     3893     2911     2029     1232      526      -43 
    -425     -637     -743     -746     -602     -276      203      739 
    1220     1609     1911     2111     2195     2187     2160     2223 
    2451     2811     3223     3631     3954     4072     3901     3470 
    2902     2354     1973     1858     1991     2232     2439     2538 
    2516     2412     2293     2239     2319     2528     2745     2844 
    2774     2571     2334     2135     2007     1953     1949     1949 
    1898     1742     1459     1071      634      189     -255     -673 
    -957     -963     -669     -171      413      987     1466     1784 
    1933     1949     1935     1999     2158     2335     2481     2636 
    2902     3338     3873     4367     4689     4737     4498     4074 
    3578     3099     2679     2309     1956     1583     1193      869 
     722      793     1026     1308     1552     1687     1692     1622 
    1564     1563     1586     1572     1467     1267     1012      733 
     467      243       44     -162     -361     -503     -542     -481 
    -367     -240     -118      -14      121      390      845     1439 
    2039     2498     2775     2925     2963     2821     2434     1799 
    1012      225     -451     -958    -1228    -1278    -1212    -1094 
    -932     -708     -396      -45      205      256      125     -120 
    -409     -668     -810     -754     -461       45      666     1252 
    1707     2008     2211     2384     2538     2631     2636     2575 
    2479     2331     2073     1665     1120      506      -79     -523 
    -728     -718     -592     -449     -379     -473     -766    -1209 
   -1695    -2089    -2278    -2222    -1973    -1625    -1252     -922 
    -675     -519     -446     -441     -475     -475     -356      -97 
     251      619      962     1239     1401     1416     1321     1192 
    1071      969      838      615      280     -152     -635    -1115 
   -1582    -2042    -2482    -2887    -3246    -3530    -3712    -3801 
   -3800    -3705    -3542    -3350    -3179    -3083    -3086    -3144 
   -3183    -3127    -2926    -2548    -1958    -1170     -294      499 
    1075     1405     1540     1571     1601     1672     1769     1852 
    1878     1826     1711     1535     1294      989      652      313 
      -5     -314     -684    -1201    -1864    -2559    -3153    -3577 
   -3836    -3951    -3927    -3781    -3549    -3275    -2986    -2679 
   -2330    -1933    -1548    -1258    -1089    -1015     -959     -847 
    -648     -373      -31      364      780     1166     1462     1602 
    1551     1318      935      461       20     -265     -330     -163 
     178      545      784      801      579      205     -164     -392 
    -432     -344     -271     -297     -379     -433     -409     -276 
     -14      391      963     1683     2474     3245     3889     4318 
    4492     4409     4088     3601     3059     2579     2230     2003 
    1836     1644     1359      970      521       83     -265     -510 
    -724    -1019    -1422    -1852    -2177    -2303    -2170    -1784 
   -1259     -761     -402     -182      -45       44      126      276 
     553      936     1329     1686     2023     2332     2529     2528 
    2355     2143     2019     2019     2097     2184     2195     2020 
    1602     1000      368     -124     -340     -288     -128      -37 
    -129     -407     -733     -929     -889     -577      -37      614 
    1254     1794     2184     2417     2506     2505     2523     2629 
    2802     2955     3005     2906     2691     2420     2107     1728 
    1262      735      221     -212     -560     -864    -1202    -1580 
   -1938    -2204    -2319    -2231    -1919    -1416     -820     -243 
     257      673     1036     1387     1732     2038     2251     2308 
