Origin Time       2016/04/16 01:25:00
Lat.              32.753
Long.             130.762
Depth. (km)       12
Mag.              7.3
Station Code      HRS020
Station Lat.      34.3027
Station Long.     133.1693
Station Height(m) 4
Record Time       2016/04/16 01:25:58
Sampling Freq(Hz) 100Hz
Duration Time(s)  99
Dir.              E-W
Scale Factor      7845(gal)/8223790
Max. Acc. (gal)   5.846
Last Correction   2016/04/16 01:25:59
Memo.             
[...]
    5609     5483     5332     5154     4994     4918     4909     4922 
    4950     5012     5119     5290     5494     5652     5730     5757 
    5749     5706     5665     5691     5825     6081     6455     6925 
    7414     7824     8109     8280     8332     8248     8054     7807 
    7565     7348     7130     6921     6771     6683     6627     6588 
    6548     6484     6385     6257     6095     5923     5798     5760 
    5796     5871     5968     6089     6249     6443     6664     6902 
    7145     7365     7523     7581     7519     7338     7084     6836 
    6627     6457     6315     6162     5973     5757     5530     5296 
    5077     4904     4810     4834     4993     5256     5582     5933 
    6273     6588     6839     6974     6995     6956     6898     6866 
    6874     6895     6934     7005     7069     7105     7130     7149 
    7160     7137     7041     6913     6813     6737     6689     6685 
    6717     6779     6897     7065     7249     7422     7550     7591 
    7588     7607     7655     7703     7689     7580     7406     7184 
    6918     6671     6485     6353     6264     6224     6224     6235 
    6245     6284     6370     6512     6710     6943     7186     7425 
    7619     7727     7740     7688     7616     7527     7378     7142 
    6844     6502     6112     5689     5260     4843     4490     4240 
    4071     3950     3894     3944     4066     4215     4418     4677 
    4963     5258     5533     5786     6062     6369     6655     6894 
    7060     7103     7018     6848     6620     6349     6081     5876 
    5749     5687     5659     5659     5709     5786     5845     5880 
    5918     5994     6095     6201     6319     6412     6432     6369 
    6273     6192     6102     6019     6039     6158     6293     6408 
    6488     6512     6516     6539     6575     6637     6744     6880 
    7013     7121     7211     7307     7393     7460     7497     7482 
    7420     7353     7296     7230     7160     7094     7017     6939 
    6914     6960     7038     7103     7127     7105     7036     6924 
    6790     6656     6535     6435     6350     6262     6176     6100 
    6035     5999     6004     6038     6089     6162     6238     6296 
    6319     6278     6166     6023     5883     5751     5655     5634 
    5727     5952     6270     6621     6956     7225     7400     7496 
    7522     7481     7392     7271     7123     6959     6782     6598 
    6405     6224     6093     6030     5996     5958     5922     5892 
    5887     5940     6061     6247     6475     6739     7060     7435 
    7811     8124     8316     8352     8260     8078     7824     7555 
    7350     7190     7034     6932     6902     6885     6824     6705 
    6550     6381     6224     6120     6093     6143     6227     6289 
    6322     6332     6316     6273     6223     6218     6284     6384 
    6496     6655     6855     7023     7126     7168     7169     7160 
    7186     7263     7368     7452     7488     7512     7535     7507 
    7425     7327     7200     7048     6910     6762     6586     6415 
    6274     6183     6141     6150     6191     6231     6264     6300 
    6354     6435     6539     6663     6787     6864     6868     6806 
    6697     6575     6462     6349     6269     6278     6378     6521 
    6691     6853     6952     6982     6964     6902     6774     6578 
    6351     6129     5914     5714     5541     5414     5360     5400 
    5532     5765     6079     6397     6643     6781     6821     6804 
    6744     6635     6500     6369     6235     6093     5968     5854 
    5727     5589     5451     5308     5188     5121     5128     5240 
    5455     5707     5902     5998     6010     5992     6002     6069 
    6199     6394     6639     6886     7115     7302     7396     7357 
    7183     6905     6548     6122     5675     5296     5016     4842 
    4774     4785     4841     4923     5022     5113     5219     5383 
    5616     5861     6076     6261     6426     6562     6686     6817 
    6966     7155     7366     7542     7645     7695     7704     7672 
    7646     7674     7738     7784     7761     7614     7302     6833 
    6292     5798     5443     5233     5155     5213     5371     5574 
    5811     6093     6400     6704     6990     7268     7553     7811 
    7981     8033     7981     7847     7668     7458     7236     7033 
    6867     6701     6544     6438     6363     6316     6300     6262 
    6184     6085     5954     5782     5599     5427     5267     5125 
    5011     4939     4928     4965     5024     5101     5215     5412 
    5718     6104     6528     6976     7411     7747     7893     7834 
    7631     7353     7038     6739     6488     6247     6002     5791 
    5634     5530     5481     5489     5529     5597     5679     5753 
    5784     5748     5655     5514     5305     5030     4750     4535 
    4428     4467     4675     5007     5414     5896     6411     6894 
    7346     7797     8256     8703     9085     9352     9483     9477 
    9354     9144     8860     8517     8171     7877     7641     7452 
    7287     7105     6880     6604     6285     5938     5540     5093 
    4656     4293     4091     4143     4426     4839     5305     5738 
    6030     6133     6054     5814     5467     5127     4899     4772 
    4695     4687     4752     4878     5123     5536     6077     6667 
    7269     7858     8406     8914     9366     9721     9957    10064 
   10029     9849     9552     9190     8833     8496     8144     7749 
    7302     6818     6301     5745     5155     4577     4021     3473 
    2983     2613     2365     2246     2281     2455     2759     3211 
    3769     4378     5016     5645     6207     6656     6967     7165 
    7296     7385     7481     7657     7946     8333     8766     9165 
    9470     9655     9707     9682     9694     9738     9693     9571 
    9474     9355     9185     9008     8799     8548     8256     7888 
    7474     7060     6642     6254     5937     5706     5579     5541 
    5602     5798     6139     6648     7339     8118     8892     9626 
   10257    10694    10902    10890    10708    10413    10025     9583 
    9169     8777     8395     8064     7770     7416     6955     6392 
    5752     5121     4606     4245     4104     4279     4779     5497 
    6295     7067     7753     8344     8808     9089     9169     9069 
    8779     8310     7776     7307     6983     6863     6960     7191 
    7441     7670     7894     8097     8255     8356     8380     8376 
    8374     8330     8237     8101     7903     7655     7399     7157 
    6898     6632     6420     6264     6130     6006     5869     5688 
    5478     5266     5036     4785     4598     4549     4662     4908 
    5224     5595     6037     6504     6941     7315     7557     7607 
    7481     7229     6891     6516     6137     5782     5502     5336 
    5285     5300     5316     5328     5371     5428     5481     5541 
    5625     5742     5880     5972     5983     5927     5825     5694 
    5528     5277     4942     4599     4289     4028     3874     3842 
    3882     3964     4055     4113     4176     4252     4336     4533 
    4901     5382     5902     6369     6720     6987     7164     7219 
    7231     7292     7365     7365     7290     7190     7105     7091 
    7203     7447     7813     8306     8914     9579    10226    10800 
   11259    11561    11701    11696    11554    11247    10767    10160 
    9510     8878     8303     7799     7344     6883     6393     5861 
    5250     4598     4044     3696     3619     3869     4431     5217 
    6096     6918     7572     8037     8340     8494     8573     8681 
    8881     9212     9643    10080    10447    10681    10724    10575 
   10265     9830     9324     8781     8271     7865     7562     7333 
    7145     6952     6705     6396     6039     5607     5097     4635 
    4337     4225     4342     4710     5204     5689     6124     6444 
    6633     6713     6637     6439     6227     6075     6048     6180 
    6416     6662     6836     6886     6782     6546     6250     5971 
    5773     5688     5702     5782     5904     6030     6120     6200 
    6289     6376     6462     6586     6782     7042     7338     7651 
    7942     8177     8359     8444     8382     8175     7842     7411 
    6984     6651     6436     6386     6554     6930     7454     8058 
    8716     9358     9833    10135    10322    10342    10185     9895 
    9497     9031     8469     7774     6995     6178     5366     4680 
    4241     4087     4195     4502     4895     5240     5460     5579 
    5663     5729     5764     5773     5755     5710     5714     5822 
    5995     6165     6273     6268     6156     5962     5715     5498 
    5472     5772     6350     7060     7807     8510     9108     9563 
    9857    10004     9998     9823     9504     9026     8376     7634 
    6889     6178     5524     4968     4521     4194     4041     4079 
    4278     4646     5209     5927     6710     7487     8225     8869 
    9333     9572     9613     9524     9339     9034     8600     8113 
    7651     7187     6659     6083     5487     4878     4327     3929 
    3721     3708     3859     4086     4322     4584     4899     5235 
    5584     5962     6342     6677     6952     7163     7298     7368 
    7399     7378     7288     7130     6905     6631     6335     6061 
    5864     5776     5827     6002     6237     6508     6797     7052 
    7219     7291     7292     7218     7045     6798     6488     6068 
    5510     4868     4228     3685     3304     3113     3133     3410 
    3912     4541     5231     5985     6829     7712     8519     9165 
    9672    10103    10446    10671    10820    10912    10895    10687 
   10243     9610     8877     8093     7245     6389     5679     5150 
    4766     4537     4425     4375     4375     4365     4278     4148 
    4063     4033     4055     4186     4455     4837     5233     5490 
    5535     5428     5235     4989     4737     4540     4457     4452 
    4441     4409     4395     4430     4527     4703     4972     5336 
    5792     6305     6840     7375     7881     8317     8626     8754 
    8712     8527     8190     7719     7169     6604     6089     5663 
    5358     5233     5331     5605     5948     6269     6554     6797 
    6947     6972     6897     6779     6681     6637     6652     6704 
    6772     6847     6894     6894     6858     6759     6589     6396 
    6232     6145     6189     6361     6593     6825     7007     7089 
    7056     6917     6710     6555     6520     6517     6457     6330 
    6110     5788     5431     5107     4862     4727     4704     4784 
    4973     5270     5634     6021     6416     6794     7122     7365 
    7481     7485     7418     7264     7018     6696     6332     5958 
    5568     5154     4746     4388     4085     3790     3499     3279 
    3180     3223     3429     3782     4213     4598     4864     5017 
    5057     5017     5024     5142     5400     5834     6401     6984 
    7510     7951     8297     8576     8835     9124     9475     9871 
   10254    10563    10748    10755    10523    10019     9279     8418 
    7541     6702     5976     5448     5158     5070     5130     5289 
    5505     5688     5748     5651     5445     5200     4956     4762 
    4668     4695     4847     5104     5408     5687     5879     5957 
    5902     5744     5580     5510     5551     5679     5875     6135 
    6443     6774     7083     7357     7627     7871     8009     8001 
    7839     7526     7086     6555     5958     5333     4730     4178 
    3649     3168     2848     2710     2682     2713     2778     2833 
    2851     2828     2775     2740     2821     3087     3519     4071 
    4734     5512     6370     7231     8019     8654     9071     9236 
    9178     8972     8688     8368     8035     7754     7600     7600 
    7728     7911     8082     8213     8232     8055     7677     7125 
    6443     5717     5053     4534     4225     4164     4349     4741 
    5281     5906     6551     7132     7580     7892     8116     8321 
    8553     8796     9004     9153     9235     9232     9147     9011 
    8851     8679     8503     8298     7958     7404     6690     5927 
    5225     4688     4368     4230     4182     4110     3987     3889 
    3842     3798     3793     3906     4148     4464     4777     5012 
    5103     5046     4926     4816     4730     4702     4733     4791 
    4895     5032     5120     5123     5047     4920     4865     4973 
    5173     5406     5698     6015     6313     6620     6941     7209 
    7329     7229     6909     6397     5717     4950     4205     3554 
    3049     2724     2625     2756     3017     3333     3661     3925 
    4126     4297     4488     4807     5292     5873     6467     6972 
    7311     7460     7411     7218     6937     6579     6193     5844 
    5518     5198     4872     4487     4036     3577     3156     2829 
    2641     2606     2744     3071     3542     4074     4546     4835 
    4911     4833     4615     4282     3927     3615     3336     3057 
    2866     2930     3237     3631     4039     4421     4766     5082 
    5328     5481     5568     5593     5505     5278     4911     4430 
    3947     3582     3348     3156     2879     2479     2068     1702 
    1278      807      479      370      419      598      855     1131 
    1440     1811     2255     2778     3321     3786     4164     4483 
    4753     4986     5148     5202     5182     5107     4977     4878 
    4941     5231     5765     6497     7302     8028     8546     8781 
    8718     8401     7908     7317     6737     6250     5811     5379 
    5042     4893     4939     5179     5611     6118     6538     6885 
    7256     7596     7817     7974     8089     8085     7969     7808 
    7641     7466     7244     7001     6804     6669     6593     6531 
    6405     6160     5771     5242     4635     4040     3514     3076 
    2771     2633     2643     2766     2965     3184     3414     3663 
    3890     4079     4237     4347     4440     4567     4707     4851 
    5027     5239     5489     5805     6211     6704     7254     7830 
    8395     8942     9487    10038    10547    10951    11244    11419 
   11408    11146    10635     9925     9109     8299     7560     6922 
    6399     5945     5498     5035     4553     4086     3724     3526 
    3522     3738     4159     4710     5337     5968     6484     6802 
    6952     6976     6890     6767     6682     6615     6512     6396 
    6345     6409     6575     6768     6918     7003     7029     7009 
    6952     6874     6831     6866     6903     6871     6777     6664 
    6556     6492     6502     6620     6860     7176     7480     7740 
    7958     8110     8163     8083     7865     7588     7349     7141 
    6951     6848     6886     6990     7041     6990     6825     6531 
    6142     5736     5381     5093     4835     4573     4298     4043 
    3856     3704     3549     3451     3477     3653     3983     4426 
    4907     5377     5806     6160     6417     6590     6671     6640 
    6558     6535     6612     6767     6959     7141     7299     7430 
    7515     7547     7531     7477     7406     7365     7411     7581 
    7865     8215     8556     8787     8868     8808     8649     8463 
    8338     8324     8398     8459     8394     8170     7825     7416 
    7029     6786     6750     6909     7213     7553     7789     7809 
    7592     7221     6813     6454     6251     6316     6605     6974 
    7365     7771     8152     8510     8802     8957     8997     8954 
    8851     8772     8749     8762     8815     8880     8904     8893 
    8853     8757     8631     8520     8437     8372     8319     8309 
    8329     8333     8318     8286     8217     8105     7963     7769 
    7515     7253     7053     6976     7018     7148     7334     7535 
    7711     7839     7896     7865     7782     7701     7661     7696 
    7815     7928     7924     7788     7574     7314     7014     6732 
    6573     6605     6828     7157     7472     7663     7668     7506 
    7252     6984     6774     6659     6643     6710     6839     7013 
    7236     7503     7789     8086     8407     8758     9097     9360 
    9517     9560     9475     9270     8988     8710     8513     8411 
    8371     8368     8371     8321     8174     7909     7562     7236 
    7011     6899     6895     7006     7203     7415     7585     7695 
    7754     7809     7877     7924     7950     7940     7858     7699 
    7457     7091     6635     6178     5767     5464     5385     5544 
    5850     6211     6575     6899     7099     7086     6862     6551 
    6301     6205     6285     6496     6729     6879     6922     6891 
    6814     6704     6555     6376     6204     6037     5853     5727 
    5751     5965     6413     7068     7785     8444     8974     9312 
    9435     9393     9256     9088     9000     9073     9267     9467 
    9585     9605     9528     9296     8876     8326     7749     7213 
    6744     6426     6330     6369     6471     6673     6932     7175 
    7398     7566     7704     7889     8101     8272     8406     8543 
    8714     8924     9165     9378     9513     9575     9593     9589 
    9585     9567     9497     9359     9170     8910     8564     8181 
    7835     7568     7373     7257     7253     7366     7551     7756 
    7939     8073     8164     8190     8141     8032     7869     7697 
    7597     7564     7551     7565     7604     7650     7735     7897 
    8098     8255     8299     8182     7919     7557     7098     6559 
    6030     5597     5309     5169     5107     5040     4973     4918 
    4895     4934     5049     5238     5493     5760     5998     6204 
    6394     6612     6922     7331     7798     8228     8497     8543 
    8379     8039     7591     7110     6635     6219     5973     5952 
    6093     6335     6647     6966     7250     7499     7688     7824 
    7920     7990     8073     8194     8370     8611     8861     9024 
    9096     9115     9103     9112     9178     9262     9325     9369 
    9364     9297     9171     8988     8760     8519     8281     8046 
    7797     7506     7167     6824     6540     6356     6274     6257 
    6285     6350     6415     6492     6642     6874     7142     7411 
    7655     7840     7971     8078     8162     8203     8162     8025 
    7827     7603     7371     7160     7026     6999     7053     7142 
    7227     7275     7267     7245     7269     7346     7462     7622 
    7789     7909     7939     7860     7670     7399     7099     6815 
    6559     6312     6065     5817     5567     5344     5204     5177 
    5259     5432     5632     5782     5853     5849     5786     5717 
    5722     5846     6085     6388     6669     6886     7047     7173 
    7306     7469     7655     7857     8052     8194     8247     8197 
    8031     7697     7145     6447     5744     5144     4722     4504 
    4453     4499     4568     4606     4591     4504     4368     4256 
    4223     4279     4413     4614     4830     4988     5063     5076 
