Origin Time       2016/04/16 01:25:00
Lat.              32.753
Long.             130.762
Depth. (km)       12
Mag.              7.3
Station Code      HRS019
Station Lat.      34.2530
Station Long.     132.5617
Station Height(m) 4
Record Time       2016/04/16 01:25:53
Sampling Freq(Hz) 100Hz
Duration Time(s)  92
Dir.              E-W
Scale Factor      7845(gal)/8223790
Max. Acc. (gal)   11.485
Last Correction   2016/04/16 01:25:54
Memo.             
[...]
   -1354    -1826    -2442    -2982    -3250    -3288    -3213    -3075 
   -2956    -2925    -2979    -3078    -3188    -3292    -3342    -3260 
   -2980    -2571    -2191    -1946    -1877    -1992    -2259    -2602 
   -2965    -3358    -3808    -4287    -4757    -5233    -5694    -6016 
   -6124    -5981    -5487    -4635    -3622    -2786    -2340    -2165 
   -2091    -2120    -2241    -2332    -2327    -2208    -1981    -1706 
   -1451    -1282    -1287    -1495    -1861    -2284    -2641    -2943 
   -3336    -3929    -4634    -5211    -5486    -5455    -5246    -5023 
   -4787    -4357    -3723    -3127    -2749    -2583    -2583    -2652 
   -2720    -2895    -3254    -3604    -3751    -3724    -3657    -3634 
   -3630    -3555    -3348    -2959    -2461    -2079    -2020    -2353 
   -2925    -3381    -3487    -3300    -2999    -2727    -2574    -2559 
   -2616    -2688    -2792    -2926    -3021    -3046    -3086    -3202 
   -3350    -3491    -3582    -3542    -3341    -3041    -2735    -2478 
   -2250    -2014    -1856    -1942    -2346    -2953    -3478    -3717 
   -3798    -3935    -4151    -4453    -4850    -5209    -5424    -5563 
   -5715    -5902    -6053    -6003    -5694    -5169    -4421    -3454 
   -2374    -1399     -751     -506     -537     -626     -673     -772 
   -1009    -1308    -1526    -1625    -1657    -1683    -1792    -2081 
   -2531    -2980    -3241    -3221    -2960    -2610    -2322    -2185 
   -2265    -2538    -2889    -3312    -3858    -4405    -4761    -4864 
   -4811    -4752    -4631    -4280    -3793    -3470    -3488    -3784 
   -4156    -4448    -4652    -4803    -4866    -4784    -4560    -4222 
   -3794    -3326    -2857    -2479    -2284    -2215    -2151    -2072 
   -2061    -2214    -2593    -3154    -3766    -4280    -4558    -4527 
   -4289    -4024    -3828    -3705    -3624    -3605    -3715    -3840 
   -3724    -3329    -2851    -2435    -2204    -2296    -2687    -3264 
   -3956    -4685    -5266    -5490    -5325    -4972    -4656    -4459 
   -4344    -4233    -3978    -3491    -2857    -2227    -1722    -1464 
   -1489    -1683    -1899    -2070    -2195    -2334    -2560    -2841 
   -3042    -3107    -3126    -3190    -3373    -3709    -4114    -4488 
   -4814    -5071    -5196    -5174    -5143    -5263    -5437    -5417 
   -5093    -4550    -4036    -3812    -3892    -4066    -4105    -3871 
   -3437    -3045    -2868    -2924    -3109    -3314    -3645    -4243 
   -4885    -5152    -5003    -4708    -4402    -4079    -3736    -3327 
   -2863    -2478    -2236    -2018    -1655    -1163     -714     -460 
    -457     -629     -895    -1274    -1722    -2052    -2139    -2006 
   -1745    -1543    -1549    -1773    -2218    -2902    -3715    -4437 
   -4865    -4903    -4718    -4662    -4874    -5217    -5506    -5667 
   -5796    -5989    -6177    -6238    -6075    -5672    -5134    -4598 
   -4109    -3622    -3141    -2683    -2231    -1781    -1305     -757 
    -178      301      573      606      427       89     -329     -761 
   -1291    -2020    -2841    -3555    -4063    -4463    -4947    -5463 
   -5717    -5584    -5215    -4830    -4519    -4214    -3896    -3677 
   -3596    -3524    -3364    -3148    -2978    -2978    -3230    -3682 
   -4166    -4487    -4571    -4468    -4152    -3572    -2902    -2407 
   -2199    -2293    -2592    -2844    -2847    -2613    -2366    -2328 
   -2466    -2583    -2562    -2376    -2077    -1856    -1894    -2158 
   -2469    -2678    -2764    -2863    -3064    -3199    -3088    -2839 
   -2725    -2930    -3372    -3757    -3913    -3947    -3951    -3892 
   -3773    -3655    -3592    -3591    -3563    -3384    -3038    -2598 
   -2195    -2072    -2389    -2992    -3559    -3894    -3978    -3844 
   -3534    -3130    -2759    -2489    -2262    -2000    -1742    -1513 
   -1291    -1113     -938     -679     -422     -361     -608    -1139 
   -1815    -2515    -3172    -3732    -4117    -4243    -4106    -3805 
   -3496    -3269    -3114    -3033    -3056    -3183    -3361    -3520 
   -3688    -3897    -4000    -3854    -3573    -3349    -3271    -3262 
   -3208    -3180    -3284    -3357    -3207    -2925    -2718    -2685 
   -2817    -3041    -3235    -3327    -3302    -3179    -3001    -2766 
   -2535    -2454    -2542    -2694    -2899    -3190    -3522    -3802 
   -3863    -3562    -2995    -2388    -1907    -1622    -1507    -1552 
   -1728    -1890    -1894    -1794    -1767    -1919    -2238    -2631 
   -3003    -3354    -3680    -3921    -4020    -3965    -3882    -3958 
   -4183    -4398    -4499    -4469    -4315    -4071    -3761    -3339 
   -2803    -2246    -1760    -1418    -1305    -1475    -1833    -2137 
   -2239    -2242    -2307    -2400    -2416    -2365    -2293    -2203 
   -2123    -2115    -2144    -2111    -2016    -1911    -1799    -1749 
   -1809    -1904    -1952    -1945    -1933    -1930    -1899    -1833 
   -1819    -2001    -2504    -3257    -3932    -4270    -4384    -4575 
   -4958    -5402    -5692    -5722    -5560    -5336    -5103    -4876 
   -4658    -4445    -4253    -4055    -3716    -3194    -2641    -2157 
   -1714    -1240     -708     -278     -186     -445     -877    -1324 
   -1705    -1985    -2101    -1996    -1810    -1904    -2505    -3396 
   -4153    -4552    -4656    -4652    -4652    -4664    -4703    -4841 
   -5050    -5111    -4822    -4176    -3267    -2243    -1325     -666 
    -271      -83      -52     -121     -270     -490     -727     -953 
   -1197    -1551    -2151    -2995    -3870    -4617    -5292    -5934 
   -6434    -6671    -6632    -6412    -6191    -6099    -6092    -6011 
   -5729    -5270    -4789    -4422    -4172    -3998    -3901    -3869 
   -3825    -3699    -3472    -3169    -2836    -2520    -2263    -2115 
   -2106    -2196    -2343    -2542    -2821    -3244    -3786    -4240 
   -4338    -4028    -3492    -2971    -2548    -2123    -1584    -1017 
    -615     -492     -661    -1071    -1597    -2076    -2392    -2513 
   -2540    -2668    -3001    -3501    -4087    -4687    -5238    -5702 
   -6057    -6276    -6377    -6376    -6211    -5859    -5414    -4976 
   -4571    -4143    -3549    -2712    -1729     -750      136      854 
    1368     1714     1869     1821     1668     1517     1362     1090 
     525     -418    -1613    -2799    -3819    -4699    -5505    -6200 
   -6686    -6893    -6817    -6564    -6285    -6014    -5698    -5343 
   -4984    -4637    -4401    -4367    -4464    -4526    -4438    -4205 
   -3915    -3618    -3338    -3106    -2926    -2849    -2947    -3122 
   -3132    -2928    -2698    -2578    -2601    -2835    -3289    -3848 
   -4409    -5012    -5676    -6264    -6577    -6540    -6231    -5825 
   -5516    -5402    -5440    -5555    -5656    -5528    -5007    -4288 
   -3757    -3565    -3604    -3763    -4014    -4337    -4669    -4949 
   -5162    -5308    -5405    -5544    -5771    -6006    -6166    -6227 
   -6120    -5825    -5478    -5212    -4999    -4753    -4460    -4139 
   -3817    -3522    -3213    -2849    -2458    -2079    -1765    -1595 
   -1614    -1757    -1865    -1854    -1800    -1817    -1929    -2085 
   -2230    -2288    -2215    -2064    -1887    -1676    -1468    -1358 
   -1418    -1638    -1906    -2093    -2141    -2052    -1861    -1628 
   -1456    -1418    -1445    -1362    -1124     -896     -803     -745 
    -598     -353      -51      238      444      575      680      741 
     638      268     -317     -939    -1448    -1822    -2089    -2253 
   -2353    -2451    -2539    -2565    -2505    -2350    -2133    -1956 
   -1903    -1949    -2065    -2274    -2624    -3109    -3649    -4135 
   -4556    -4953    -5343    -5741    -6165    -6573    -6880    -7036 
   -7032    -6889    -6605    -6164    -5609    -5065    -4606    -4170 
   -3667    -3118    -2602    -2207    -2012    -2042    -2220    -2376 
   -2346    -2107    -1810    -1620    -1578    -1622    -1688    -1822 
   -2116    -2535    -2986    -3483    -4027    -4619    -5347    -6293 
   -7392    -8463    -9316    -9786    -9788    -9386    -8698    -7808 
   -6798    -5786    -4908    -4214    -3595    -2928    -2257    -1719 
   -1417    -1371    -1485    -1626    -1752    -1876    -1979    -2023 
   -1964    -1783    -1530    -1286    -1129    -1119    -1242    -1444 
   -1621    -1586    -1230     -683     -164      131       62     -361 
    -982    -1676    -2416    -3184    -3935    -4637    -5286    -5857 
   -6382    -7002    -7819    -8807    -9801   -10542   -10817   -10575 
   -9882    -8838    -7531    -6011    -4342    -2673    -1179       47 
    1043     1885     2570     3025     3246     3265     3156     3052 
    3033     3001     2791     2334     1625      666     -498    -1764 
   -3015    -4191    -5242    -6058    -6624    -7099    -7647    -8305 
   -8974    -9497    -9771    -9795    -9602    -9204    -8525    -7461 
   -6033    -4433    -2929    -1718     -837     -198      284      649 
     986     1398     1784     1956     1885     1657     1368      977 
     341     -526    -1506    -2539    -3599    -4691    -5844    -6994 
   -8101    -9244   -10455   -11584   -12436   -12911   -13042   -12961 
  -12773   -12434   -11815   -10844    -9536    -8043    -6604    -5370 
   -4344    -3457    -2636    -1803     -928      -97      553      970 
    1150     1123     1012      994     1113     1258     1328     1305 
    1263     1298     1385     1439     1398     1171      711      147 
    -301     -542     -634     -685     -793    -1016    -1404    -2042 
   -2934    -3950    -4958    -5926    -6886    -7892    -8912    -9880 
  -10810   -11663   -12263   -12507   -12467   -12321   -12205   -12031 
  -11539   -10554    -9174    -7663    -6181    -4762    -3454    -2282 
   -1212     -180      866     1969     3114     4203     5112     5798 
    6301     6635     6798     6809     6704     6523     6282     5937 
    5413     4677     3835     3034     2285     1575      981      522 
     112     -373    -1053    -1927    -2921    -4036    -5256    -6409 
   -7234    -7565    -7481    -7284    -7256    -7408    -7533    -7441 
   -7107    -6608    -6043    -5491    -4968    -4500    -4175    -4021 
   -3932    -3751    -3380    -2887    -2477    -2232    -2007    -1609 
    -955     -128      641     1136     1345     1370     1289     1188 
    1117     1017      830      540      143     -356     -949    -1593 
   -2220    -2814    -3445    -4284    -5479    -6933    -8324    -9359 
   -9952   -10162   -10034    -9548    -8668    -7430    -6021    -4671 
   -3484    -2431    -1482     -652       54      672     1251     1804 
    2303     2686     2879     2816     2498     1981     1279      383 
    -639    -1688    -2688    -3522    -4039    -4237    -4266    -4233 
   -4156    -4021    -3848    -3672    -3478    -3136    -2439    -1354 
    -131      909     1626     2061     2232     1966     1120     -120 
   -1296    -1922    -1810    -1240     -619     -121      216      297 
     110     -168     -410     -608     -743     -789     -712     -461 
    -131       32     -128     -562    -1063    -1397    -1405    -1063 
    -504       31      396      558      514      301        4     -346 
    -791    -1293    -1759    -2124    -2397    -2682    -3138    -3811 
   -4587    -5283    -5775    -6099    -6273    -6124    -5516    -4534 
   -3361    -2151    -1005       31      976     1852     2581     3063 
    3365     3665     4029     4317     4322     3929     3150     2058 
     720     -730    -2154    -3474    -4621    -5567    -6361    -6987 
   -7393    -7585    -7619    -7677    -7900    -8182    -8298    -8144 
   -7674    -6801    -5539    -4008    -2350     -718      737     1926 
    2839     3532     4091     4550     4854     4869     4510     3820 
    2889     1817      693     -438    -1552    -2648    -3738    -4735 
   -5551    -6115    -6327    -6180    -5842    -5478    -5135    -4776 
   -4383    -3994    -3659    -3415    -3221    -2971    -2623    -2207 
   -1767    -1405    -1256    -1332    -1622    -2200    -2956    -3581 
   -3943    -4170    -4405    -4683    -4877    -4827    -4594    -4326 
   -4023    -3662    -3248    -2714    -2034    -1310     -684     -174 
     346     1024     1903     2818     3437     3532     3114     2380 
    1629     1113      881      846      920      977      780      106 
   -1073    -2536    -3928    -5047    -5923    -6652    -7241    -7570 
   -7487    -6957    -6148    -5285    -4379    -3277    -1980     -638 
     638     1811     2841     3645     4135     4303     4175     3740 
    2986     1917      589     -800    -2050    -3132    -4132    -5127 
   -6124    -7038    -7796    -8414    -8899    -9205    -9252    -8958 
   -8286    -7256    -5923    -4436    -2974    -1571     -184     1135 
    2285     3173     3693     3770     3468     2983     2467     1912 
    1235      414     -499    -1485    -2555    -3699    -4804    -5663 
   -6148    -6347    -6343    -6060    -5387    -4383    -3252    -2207 
   -1379     -826     -529     -421     -430     -425     -283      -43 
     135      105     -210     -801    -1603    -2512    -3353    -3982 
   -4406    -4683    -4796    -4680    -4288    -3673    -2983    -2350 
   -1849    -1490    -1173     -746     -106      803     1883     2891 
    3686     4332     4835     5039     4865     4396     3740     2963 
    2115     1224      246     -950    -2498    -4428    -6624    -8862 
  -10936   -12698   -14022   -14850   -15161   -14905   -14113   -12970 
  -11662   -10289    -8843    -7242    -5513    -3831    -2336    -1039 
     139     1266     2301     3125     3611     3704     3387     2652 
    1526       71    -1656    -3523    -5270    -6639    -7500    -7867 
   -7834    -7518    -7053    -6516    -5923    -5348    -4850    -4348 
   -3705    -2843    -1773     -629      367     1019     1198      873 
     180     -711    -1696    -2605    -3339    -4024    -4784    -5603 
   -6380    -7003    -7497    -8035    -8688    -9329    -9823   -10195 
  -10525   -10825   -11021   -11094   -11055   -10833   -10380    -9726 
   -8881    -7755    -6342    -4826    -3457    -2396    -1715    -1362 
   -1112     -843     -697     -766     -945    -1128    -1271    -1389 
   -1586    -1958    -2486    -3029    -3419    -3541    -3360    -2974 
   -2573    -2313    -2267    -2439    -2799    -3294    -3802    -4159 
   -4243    -4036    -3689    -3489    -3615    -3990    -4519    -5228 
   -6115    -7028    -7769    -8245    -8459    -8496    -8561    -8806 
   -9189    -9590    -9926   -10169   -10296   -10220    -9825    -9074 
   -8097    -7203    -6748    -6863    -7358    -7951    -8428    -8583 
   -8286    -7597    -6708    -5811    -5069    -4568    -4314    -4266 
   -4349    -4414    -4332    -4020    -3478    -2863    -2315    -1821 
   -1336     -932     -780     -957    -1371    -1838    -2111    -2020 
   -1606    -1097     -751     -792    -1308    -2209    -3366    -4623 
   -5759    -6578    -7037    -7253    -7408    -7560    -7576    -7323 
   -6853    -6268    -5593    -4934    -4417    -3993    -3524    -2828 
   -1814     -670      365     1255     2014     2627     3071     3267 
    3142     2698     1869      614     -929    -2513    -3987    -5427 
   -6949    -8467    -9736   -10601   -11097   -11327   -11368   -11203 
  -10841   -10431   -10106    -9825    -9450    -8849    -7974    -6910 
   -5756    -4542    -3317    -2205    -1386    -1004     -992    -1113 
   -1239    -1493    -2061    -2903    -3740    -4336    -4654    -4781 
   -4876    -5057    -5190    -5044    -4642    -4176    -3754    -3369 
   -2963    -2536    -2146    -1794    -1459    -1201    -1058     -958 
    -801     -583     -396     -328     -398     -619    -1038    -1719 
   -2659    -3685    -4598    -5333    -5933    -6524    -7240    -8060 
   -8857    -9485    -9818    -9714    -9086    -8033    -6763    -5478 
   -4313    -3310    -2401    -1433     -295      965     2215     3310 
    4088     4402     4212     3628     2778     1714      479     -892 
   -2396    -4003    -5564    -6804    -7462    -7543    -7311    -6967 
   -6508    -5923    -5273    -4685    -4340    -4338    -4519    -4606 
   -4525    -4471    -4665    -5150    -5803    -6462    -7001    -7388 
   -7626    -7601    -7099    -6026    -4606    -3257    -2296    -1804 
   -1687    -1826    -2147    -2560    -3067    -3813    -4785    -5680 
   -6313    -6777    -7160    -7454    -7622    -7614    -7447    -7196 
   -6941    -6696    -6388    -5934    -5347    -4710    -4059    -3302 
   -2405    -1561    -1013     -789     -770     -908    -1182    -1530 
   -1930    -2459    -3240    -4326    -5587    -6786    -7846    -8829 
   -9759   -10593   -11237   -11580   -11647   -11560   -11354   -10987 
  -10455    -9840    -9228    -8592    -7781    -6643    -5206    -3734 
   -2546    -1833    -1554    -1572    -1746    -1899    -1915    -1908 
   -2029    -2263    -2500    -2636    -2718    -2982    -3661    -4799 
   -6238    -7792    -9348   -10801   -12093   -13192   -13975   -14331 
  -14300   -13950   -13274   -12297   -11124    -9832    -8487    -7144 
   -5806    -4507    -3250    -1962     -606      715     1781     2448 
    2751     2801     2690     2497     2236     1821     1204      533 
       4     -376     -764    -1300    -2011    -2907    -4044    -5418 
   -6913    -8365    -9578   -10353   -10631   -10477    -9960    -9189 
   -8374    -7695    -7167    -6652    -6018    -5189    -4153    -3021 
   -1942    -1019     -364      -86     -168     -483     -812     -946 
    -812     -388      334     1193     1842     1993     1621      928 
     256     -103     -163     -168     -234     -314     -407     -566 
    -801    -1088    -1485    -2050    -2698    -3373    -4158    -5136 
   -6327    -7717    -9235   -10696   -11816   -12361   -12337   -11927 
  -11291   -10409    -9076    -7257    -5244    -3315    -1624     -344 
     500     1146     1818     2587     3459     4421     5394     6127 
    6282     5733     4739     3732     2922     2166     1248      176 
    -858    -1755    -2548    -3273    -3977    -4675    -5331    -5979 
   -6663    -7312    -7789    -8007    -7992    -7860    -7716    -7596 
   -7535    -7499    -7302    -6763    -5921    -5024    -4320    -3870 
   -3613    -3466    -3284    -2907    -2243    -1337     -361      594 
    1474     2150     2596     2872     2975     2872     2543     1930 
     999     -108    -1163    -2069    -2826    -3440    -3970    -4407 
   -4596    -4510    -4313    -4017    -3438    -2527    -1459     -475 
     245      691      974     1123     1089      874      476      -90 
    -648     -965    -1034    -1055    -1206    -1486    -1795    -2134 
   -2571    -3113    -3716    -4311    -4819    -5251    -5670    -6151 
   -6732    -7335    -7840    -8143    -8155    -7827    -7184    -6349 
   -5498    -4754    -4099    -3446    -2748    -1956    -1013        5 
     853     1304     1363     1188      920      595      206     -180 
    -493     -719     -859     -938     -993    -1088    -1275    -1549 
   -1830    -2025    -2079    -2030    -1949    -1848    -1736    -1709 
   -1769    -1798    -1732    -1583    -1412    -1394    -1726    -2466 
   -3469    -4444    -5139    -5472    -5474    -5202    -4747    -4247 
