Origin Time       2016/04/16 01:25:00
Lat.              32.753
Long.             130.762
Depth. (km)       12
Mag.              7.3
Station Code      HRS015
Station Lat.      34.4849
Station Long.     133.3615
Station Height(m) 2
Record Time       2016/04/16 01:26:39
Sampling Freq(Hz) 100Hz
Duration Time(s)  60
Dir.              N-S
Scale Factor      7845(gal)/8223790
Max. Acc. (gal)   6.345
Last Correction   2016/04/16 01:26:40
Memo.             
[...]
   -2052    -1895    -1991    -2107    -2016    -1859    -1810    -1723 
   -1421    -1194    -1269    -1410    -1603    -1776    -1713    -1526 
   -1337    -1306    -1513    -1709    -1779    -1840    -1914    -1953 
   -1979    -2072    -2241    -2401    -2600    -3038    -3580    -3855 
   -3906    -3987    -4199    -4627    -5111    -5356    -5509    -5790 
   -6062    -6148    -6088    -6056    -6146    -6257    -6219    -6033 
   -5798    -5582    -5454    -5436    -5466    -5447    -5296    -5155 
   -5167    -5215    -5205    -5131    -4938    -4588    -4147    -3828 
   -3807    -3897    -3839    -3651    -3524    -3492    -3360    -3126 
   -3040    -3002    -2862    -2917    -3264    -3462    -3412    -3491 
   -3730    -3904    -3997    -4093    -4233    -4318    -4317    -4387 
   -4513    -4510    -4376    -4340    -4526    -4598    -4233    -3770 
   -3632    -3638    -3379    -2972    -2853    -2860    -2552    -2199 
   -2255    -2506    -2651    -2828    -3094    -3353    -3666    -4091 
   -4537    -4899    -5252    -5711    -6176    -6525    -6766    -6912 
   -7011    -7094    -7134    -7109    -6970    -6666    -6397    -6385 
   -6520    -6589    -6432    -6018    -5563    -5235    -4976    -4734 
   -4514    -4243    -3878    -3581    -3399    -3188    -2999    -2910 
   -2774    -2508    -2241    -2037    -1861    -1718    -1563    -1358 
   -1259    -1334    -1385    -1414    -1521    -1543    -1491    -1554 
   -1701    -1859    -2096    -2436    -2724    -2826    -2925    -3199 
   -3572    -3970    -4326    -4496    -4436    -4256    -4105    -4024 
   -3925    -3735    -3503    -3206    -2879    -2771    -2687    -2340 
   -2184    -2319    -2307    -2226    -2187    -2107    -2185    -2614 
   -3242    -3712    -4024    -4326    -4428    -4386    -4549    -4954 
   -5266    -5189    -5017    -4985    -4742    -4315    -4020    -3910 
   -3879    -3588    -3140    -3021    -3121    -3179    -2990    -2461 
   -2204    -2439    -2740    -3059    -3210    -2991    -2806    -2895 
   -2924    -2691    -2425    -2205    -1910    -1571    -1225     -913 
    -629     -451     -635     -830     -486       -9      -75     -774 
   -1663    -2058    -1960    -2074    -2598    -3156    -3492    -3601 
   -3754    -4107    -4519    -4945    -5182    -5003    -4722    -4828 
   -5360    -5888    -5950    -5481    -5024    -5109    -5358    -5096 
   -4449    -4002    -3919    -3797    -3235    -2361    -1714    -1644 
   -1903    -1918    -1449     -846     -422     -225     -434     -943 
   -1138     -776     -257     -166     -903    -2066    -2567    -2004 
   -1294    -1590    -2636    -3173    -3076    -3102    -3175    -2870 
   -2639    -3136    -3927    -4072    -3595    -3366    -3686    -3977 
   -3905    -3638    -3497    -3730    -3856    -3253    -2523    -2535 
   -2727    -2300    -1671    -1304    -1277    -1895    -2590    -2046 
    -803    -1005    -2539    -3075    -2386    -2201    -2782    -3273 
   -3586    -4017    -4468    -4747    -4781    -4746    -4973    -5125 
   -4806    -4541    -4773    -5036    -4710    -3942    -3516    -3650 
   -3676    -3153    -2392    -1906    -1833    -1865    -1829    -1922 
   -2091    -2259    -2740    -3339    -3613    -3897    -4534    -5112 
   -5188    -5135    -5533    -6049    -6185    -6219    -6376    -6475 
   -6493    -6534    -6648    -6763    -6671    -6211    -5634    -5610 
   -6224    -6531    -5892    -4973    -4712    -5098    -5470    -5409 
   -5089    -4799    -4611    -4626    -4816    -5035    -5227    -5194 
   -4934    -4842    -5104    -5454    -5462    -5097    -4923    -5283 
   -5710    -5711    -5508    -5512    -5717    -5973    -6147    -6065 
   -5848    -5776    -5778    -5634    -5205    -4592    -4261    -4305 
   -4315    -4330    -4542    -4615    -4345    -4166    -4509    -5130 
   -5417    -5409    -5580    -5818    -5856    -5734    -5549    -5593 
   -5883    -5803    -5120    -4603    -4816    -5140    -4819    -4077 
   -3581    -3555    -3709    -3828    -3905    -3861    -3694    -3604 
   -3717    -3870    -3869    -3946    -4306    -4572    -4431    -4095 
   -3931    -4063    -4225    -4207    -4107    -4047    -3991    -3771 
   -3431    -3352    -3584    -3642    -3307    -3061    -3264    -3619 
   -3628    -3265    -3014    -3172    -3544    -3774    -3805    -3874 
   -4003    -4088    -4140    -4060    -3890    -3935    -4136    -4171 
   -4064    -3964    -3902    -3877    -3882    -3874    -3734    -3488 
   -3306    -3238    -3237    -3156    -2986    -2887    -2805    -2659 
   -2544    -2461    -2300    -2053    -1884    -1941    -2085    -2100 
   -1979    -1842    -1868    -2011    -2007    -1883    -1825    -1890 
   -1977    -1914    -1818    -1877    -1987    -2107    -2296    -2436 
   -2434    -2469    -2751    -3037    -3028    -2944    -3033    -3171 
   -3295    -3516    -3757    -3840    -3776    -3672    -3581    -3569 
   -3677    -3767    -3627    -3355    -3252    -3299    -3316    -3350 
   -3469    -3537    -3465    -3348    -3271    -3184    -2960    -2712 
   -2675    -2656    -2374    -2118    -2173    -2267    -2231    -2228 
   -2246    -2177    -2155    -2324    -2567    -2759    -2980    -3257 
   -3555    -3940    -4410    -4866    -5300    -5753    -6146    -6399 
   -6637    -6980    -7307    -7530    -7703    -7815    -7882    -7992 
   -8060    -8063    -8098    -8006    -7751    -7585    -7373    -6955 
   -6540    -6112    -5470    -4707    -4099    -3689    -3240    -2806 
   -2612    -2533    -2539    -2737    -2971    -3206    -3634    -4168 
   -4617    -5065    -5644    -6277    -6795    -7176    -7619    -8151 
   -8517    -8721    -8959    -9202    -9359    -9474    -9526    -9432 
   -9279    -9251    -9300    -9231    -9019    -8752    -8538    -8401 
   -8176    -7832    -7530    -7279    -7049    -6872    -6713    -6608 
   -6606    -6637    -6620    -6528    -6374    -6115    -5714    -5339 
   -5098    -4800    -4311    -3680    -2998    -2319    -1624     -962 
    -423       86      645     1192     1634     1933     2146     2346 
    2535     2608     2519     2425     2328     2084     1825     1641 
    1379     1077      886      738      503      225       14     -137 
    -314     -576     -936    -1305    -1695    -2214    -2754    -3222 
   -3754    -4320    -4756    -5138    -5599    -6091    -6633    -7211 
   -7591    -7894    -8383    -8792    -8997    -9244    -9493    -9571 
   -9495    -9304    -9004    -8673    -8352    -7939    -7481    -7150 
   -6852    -6494    -6200    -5929    -5606    -5337    -5109    -4810 
   -4375    -3840    -3342    -2875    -2438    -2161    -1900    -1528 
   -1348    -1460    -1429    -1125     -949     -990    -1028    -1097 
   -1262    -1431    -1645    -1984    -2323    -2597    -2826    -2921 
   -3017    -3315    -3515    -3496    -3636    -3834    -3798    -3761 
   -3782    -3761    -3825    -3715    -3190    -2813    -2875    -2805 
   -2496    -2435    -2520    -2455    -2502    -2712    -2740    -2664 
   -2714    -2848    -3029    -3040    -2713    -2509    -2648    -2574 
   -2192    -2031    -2037    -1849    -1638    -1610    -1591    -1386 
   -1143    -1148    -1236    -1142    -1086    -1198    -1306    -1437 
   -1675    -1969    -2257    -2465    -2614    -2768    -2844    -2740 
   -2523    -2371    -2350    -2301    -2189    -2253    -2528    -2792 
   -3057    -3470    -4031    -4587    -4963    -5298    -5841    -6459 
   -6906    -7223    -7586    -7996    -8301    -8509    -8692    -8814 
   -8895    -8985    -9104    -9250    -9250    -8951    -8550    -8280 
   -8032    -7659    -7207    -6786    -6458    -6156    -5802    -5377 
   -4888    -4421    -4009    -3570    -3154    -2813    -2393    -1904 
   -1526    -1282    -1100     -876     -608     -506     -606     -692 
    -666     -587     -535     -525     -510     -533     -634     -754 
    -900    -1132    -1513    -1993    -2425    -2813    -3202    -3591 
   -4017    -4374    -4568    -4661    -4684    -4672    -4631    -4568 
   -4537    -4436    -4222    -3983    -3712    -3492    -3304    -2896 
   -2374    -1988    -1709    -1448    -1139     -900     -881     -931 
    -993    -1125    -1274    -1452    -1628    -1719    -1864    -2182 
   -2546    -2828    -3071    -3364    -3659    -3874    -4068    -4268 
   -4411    -4527    -4664    -4791    -4881    -4911    -4914    -5001 
   -5219    -5445    -5598    -5742    -5933    -6181    -6528    -6936 
   -7264    -7507    -7755    -7962    -8044    -8033    -7946    -7735 
   -7450    -7233    -7082    -6826    -6361    -5883    -5687    -5697 
   -5594    -5262    -4866    -4492    -4027    -3530    -3088    -2525 
   -1852    -1325    -1069    -1011     -903     -561     -214     -203 
    -460     -733    -1013    -1341    -1680    -2170    -2855    -3399 
   -3686    -4024    -4467    -4707    -4699    -4712    -4835    -4860 
   -4638    -4289    -3975    -3719    -3430    -3011    -2620    -2382 
   -2001    -1447    -1177    -1163    -1003     -726     -469     -203 
     -31       37      139      144     -144     -515     -719    -1016 
   -1614    -2177    -2538    -2937    -3407    -3834    -4252    -4642 
   -4895    -5007    -5038    -5023    -5054    -5196    -5319    -5248 
   -5019    -4800    -4585    -4233    -3798    -3362    -2871    -2390 
   -2012    -1664    -1271     -868     -553     -317       -9      337 
     526      523      432      255      -23     -329     -656    -1074 
   -1560    -2069    -2584    -3061    -3480    -3869    -4266    -4680 
   -5013    -5196    -5316    -5499    -5736    -5940    -6115    -6277 
   -6404    -6531    -6697    -6899    -7080    -7102    -6933    -6701 
   -6460    -6166    -5795    -5360    -4877    -4383    -3892    -3377 
   -2851    -2384    -2029    -1790    -1651    -1610    -1652    -1738 
   -1831    -1896    -1930    -1965    -2006    -2003    -1954    -1911 
   -1875    -1768    -1554    -1289     -994     -662     -297      153 
     681     1174     1617     2025     2365     2620     2791     2903 
    2980     3030     3061     3040     2949     2832     2712     2609 
    2508     2371     2191     1922     1599     1281      907      427 
    -128     -712    -1313    -1952    -2596    -3235    -3940    -4681 
   -5381    -5998    -6494    -6897    -7231    -7472    -7631    -7756 
   -7831    -7780    -7601    -7333    -6918    -6323    -5632    -4936 
   -4248    -3586    -3011    -2546    -2185    -1939    -1792    -1677 
   -1586    -1549    -1522    -1498    -1533    -1603    -1675    -1771 
   -1925    -2137    -2358    -2548    -2683    -2759    -2808    -2867 
   -2928    -2934    -2875    -2829    -2802    -2725    -2631    -2575 
   -2559    -2574    -2636    -2766    -2894    -2970    -3018    -3013 
   -2971    -2960    -2967    -2992    -3028    -3025    -3014    -3017 
   -2999    -2953    -2863    -2725    -2542    -2307    -2047    -1771 
   -1503    -1282    -1086     -932     -874     -913    -1050    -1270 
   -1564    -1917    -2247    -2513    -2744    -2906    -2922    -2802 
   -2583    -2263    -1868    -1451    -1046     -650     -276       40 
     299      515      668      726      707      616      405      112 
    -182     -504     -881    -1259    -1595    -1876    -2085    -2242 
   -2342    -2336    -2219    -2011    -1717    -1355     -977     -650 
    -386     -180      -74      -70     -139     -309     -575     -886 
   -1205    -1501    -1788    -2088    -2380    -2656    -2917    -3142 
   -3334    -3462    -3524    -3527    -3429    -3246    -3034    -2786 
   -2542    -2349    -2180    -2065    -2020    -2033    -2126    -2273 
   -2446    -2671    -2937    -3206    -3468    -3716    -3919    -4036 
   -4087    -4099    -4095    -4094    -4086    -4036    -3954    -3896 
   -3852    -3785    -3685    -3543    -3353    -3153    -2976    -2820 
   -2679    -2601    -2600    -2624    -2685    -2799    -2917    -3017 
   -3130    -3221    -3254    -3279    -3302    -3283    -3232    -3157 
   -3037    -2902    -2790    -2688    -2602    -2606    -2697    -2798 
   -2941    -3154    -3350    -3496    -3639    -3759    -3802    -3793 
   -3800    -3828    -3831    -3765    -3653    -3555    -3474    -3393 
   -3326    -3279    -3234    -3202    -3217    -3268    -3296    -3280 
   -3246    -3210    -3188    -3199    -3256    -3339    -3383    -3349 
   -3261    -3100    -2847    -2569    -2324    -2096    -1902    -1764 
   -1661    -1584    -1539    -1518    -1516    -1528    -1567    -1651 
   -1783    -1952    -2144    -2338    -2512    -2641    -2678    -2614 
   -2502    -2357    -2147    -1895    -1656    -1443    -1266    -1183 
   -1205    -1264    -1379    -1578    -1788    -1996    -2242    -2484 
   -2666    -2836    -3059    -3326    -3603    -3846    -4000    -4035 
   -3940    -3727    -3410    -3010    -2554    -2079    -1632    -1263 
   -1007     -835     -704     -622     -591     -604     -687     -853 
   -1053    -1254    -1475    -1707    -1903    -2042    -2115    -2130 
   -2135    -2168    -2230    -2290    -2308    -2281    -2205    -2057 
   -1877    -1717    -1603    -1557    -1574    -1661    -1825    -2030 
   -2251    -2447    -2610    -2740    -2801    -2801    -2794    -2787 
   -2771    -2759    -2776    -2801    -2803    -2803    -2810    -2811 
   -2863    -3009    -3235    -3542    -3925    -4356    -4830    -5364 
   -5934    -6469    -6964    -7465    -7952    -8418    -8903    -9367 
   -9741   -10007   -10172   -10233   -10195   -10096    -9972    -9818 
   -9641    -9454    -9236    -8985    -8692    -8314    -7844    -7325 
   -6793    -6292    -5837    -5435    -5113    -4872    -4693    -4548 
   -4396    -4209    -3951    -3615    -3217    -2805    -2439    -2144 
   -1941    -1829    -1799    -1856    -1984    -2135    -2262    -2342 
   -2394    -2446    -2513    -2633    -2829    -3088    -3406    -3748 
   -4055    -4315    -4563    -4784    -5000    -5262    -5559    -5834 
   -6087    -6316    -6484    -6601    -6727    -6862    -6993    -7150 
   -7335    -7485    -7589    -7652    -7604    -7438    -7264    -7105 
   -6936    -6818    -6779    -6805    -6898    -7040    -7196    -7337 
   -7427    -7441    -7380    -7281    -7176    -7052    -6914    -6805 
   -6741    -6696    -6642    -6596    -6592    -6592    -6567    -6554 
   -6517    -6421    -6311    -6186    -6031    -5853    -5625    -5331 
   -5027    -4773    -4575    -4418    -4336    -4334    -4382    -4473 
   -4614    -4770    -4936    -5127    -5339    -5563    -5798    -6022 
   -6216    -6388    -6536    -6631    -6659    -6648    -6643    -6642 
   -6658    -6739    -6848    -6930    -7005    -7092    -7186    -7296 
   -7419    -7564    -7740    -7940    -8149    -8337    -8496    -8635 
   -8725    -8727    -8655    -8550    -8403    -8213    -8082    -8051 
   -8055    -8091    -8175    -8232    -8218    -8154    -8029    -7831 
   -7580    -7268    -6883    -6455    -5996    -5493    -4955    -4425 
   -3925    -3461    -3033    -2644    -2301    -2022    -1804    -1658 
   -1580    -1544    -1541    -1563    -1614    -1719    -1857    -2004 
   -2204    -2459    -2731    -3019    -3312    -3557    -3728    -3854 
   -3931    -3931    -3889    -3832    -3759    -3716    -3738    -3798 
   -3861    -3915    -3975    -4055    -4125    -4156    -4156    -4128 
   -4060    -3983    -3964    -4017    -4139    -4318    -4537    -4799 
   -5071    -5277    -5431    -5587    -5715    -5800    -5898    -6026 
   -6133    -6208    -6273    -6307    -6296    -6261    -6214    -6178 
   -6170    -6189    -6242    -6327    -6453    -6646    -6903    -7177 
   -7423    -7645    -7839    -7974    -8050    -8058    -7997    -7886 
   -7703    -7437    -7148    -6845    -6490    -6110    -5726    -5354 
   -5023    -4760    -4571    -4431    -4342    -4309    -4280    -4261 
   -4282    -4307    -4329    -4349    -4309    -4212    -4121    -4014 
   -3858    -3709    -3604    -3504    -3402    -3355    -3407    -3544 
   -3734    -3975    -4268    -4599    -4984    -5432    -5910    -6420 
   -6940    -7411    -7842    -8241    -8543    -8725    -8814    -8823 
   -8727    -8527    -8256    -7925    -7543    -7121    -6667    -6212 
   -5756    -5279    -4800    -4356    -3981    -3686    -3453    -3284 
   -3183    -3132    -3109    -3111    -3142    -3184    -3191    -3153 
   -3102    -3046    -2974    -2867    -2717    -2511    -2258    -1975 
   -1664    -1364    -1089     -832     -596     -370     -193      -89 
     -31      -28     -105     -237     -425     -685     -989    -1328 
   -1702    -2097    -2486    -2839    -3157    -3450    -3690    -3888 
   -4054    -4168    -4243    -4274    -4233    -4156    -4055    -3901 
   -3696    -3483    -3269    -3026    -2759    -2524    -2340    -2207 
   -2115    -2039    -1980    -1954    -1937    -1881    -1802    -1723 
   -1597    -1412    -1252    -1140    -1026     -929     -862     -773 
    -662     -626     -683     -761     -864    -1046    -1316    -1657 
   -2014    -2388    -2822    -3252    -3608    -3936    -4248    -4506 
   -4689    -4811    -4899    -4950    -4955    -4938    -4899    -4854 
   -4841    -4838    -4819    -4777    -4708    -4591    -4419    -4220 
   -3971    -3672    -3372    -3069    -2745    -2439    -2172    -1948 
   -1783    -1677    -1642    -1721    -1892    -2121    -2401    -2714 
   -3055    -3357    -3534    -3615    -3647    -3570    -3383    -3117 
   -2787    -2444    -2126    -1814    -1506    -1233    -1009     -815 
    -684     -607     -549     -568     -708     -929    -1204    -1534 
   -1894    -2239    -2555    -2824    -3041    -3218    -3364    -3508 
   -3667    -3821    -3959    -4074    -4136    -4156    -4178    -4209 
   -4222    -4212    -4176    -4124    -4059    -3996    -3936    -3878 
   -3836    -3805    -3769    -3738    -3730    -3734    -3728    -3708 
   -3688    -3651    -3582    -3485    -3339    -3157    -2980    -2822 
   -2664    -2492    -2353    -2255    -2139    -2031    -1949    -1845 
   -1732    -1615    -1463    -1291    -1119     -957     -815     -654 
    -457     -255      -68      106      265      386      464      492 
     487      530      615      670      720      789      838      866 
     918      994     1069     1139     1204     1229     1223     1175 
    1048      861      623      302      -97     -568    -1077    -1606 
   -2188    -2799    -3381    -3921    -4413    -4852    -5228    -5502 
   -5656    -5707    -5694    -5636    -5490    -5282    -5060    -4789 
   -4475    -4170    -3873    -3550    -3211    -2886    -2574    -2281 
   -2019    -1773    -1551    -1408    -1329    -1254    -1192    -1196 
   -1246    -1291    -1359    -1455    -1518    -1559    -1593    -1564 
   -1479    -1368    -1236    -1105     -993     -908     -851     -818 
    -819     -877     -982    -1117    -1294    -1509    -1746    -2012 
   -2289    -2538    -2752    -2941    -3087    -3177    -3222    -3237 
   -3240    -3229    -3186    -3099    -3005    -2952    -2917    -2875 
   -2844    -2818    -2797    -2799    -2808    -2821    -2855    -2878 
   -2860    -2820    -2772    -2706    -2616    -2524    -2427    -2293 
   -2123    -1942    -1775    -1615    -1439    -1255    -1081     -916 
    -735     -535     -344     -209     -120      -47        5       -5 
