Origin Time       2016/04/16 01:25:00
Lat.              32.753
Long.             130.762
Depth. (km)       12
Mag.              7.3
Station Code      HRS002
Station Lat.      34.8951
Station Long.     133.2755
Station Height(m) 306
Record Time       2016/04/16 01:26:44
Sampling Freq(Hz) 100Hz
Duration Time(s)  61
Dir.              E-W
Scale Factor      7845(gal)/8223790
Max. Acc. (gal)   2.399
Last Correction   2016/04/16 01:26:45
Memo.             
[...]
   -2636    -2659    -2643    -2602    -2573    -2555    -2558    -2587 
   -2606    -2589    -2563    -2551    -2555    -2589    -2646    -2688 
   -2710    -2725    -2756    -2821    -2903    -2971    -3022    -3071 
   -3113    -3125    -3090    -3036    -2997    -2980    -2956    -2899 
   -2828    -2771    -2745    -2751    -2776    -2786    -2768    -2759 
   -2794    -2839    -2860    -2860    -2844    -2817    -2775    -2740 
   -2739    -2783    -2849    -2909    -2961    -3015    -3071    -3102 
   -3102    -3107    -3136    -3175    -3200    -3198    -3175    -3141 
   -3099    -3061    -3038    -3029    -3021    -2998    -2953    -2889 
   -2826    -2801    -2824    -2868    -2898    -2895    -2878    -2852 
   -2813    -2778    -2778    -2822    -2872    -2889    -2872    -2855 
   -2848    -2855    -2880    -2925    -2972    -3005    -3033    -3059 
   -3059    -3029    -2994    -2965    -2953    -2965    -2982    -2960 
   -2896    -2825    -2786    -2801    -2875    -2961    -2998    -2963 
   -2879    -2795    -2759    -2783    -2840    -2905    -2949    -2957 
   -2924    -2879    -2863    -2880    -2914    -2943    -2943    -2909 
   -2852    -2795    -2763    -2759    -2771    -2787    -2810    -2825 
   -2797    -2720    -2636    -2608    -2647    -2717    -2774    -2789 
   -2754    -2694    -2652    -2667    -2744    -2832    -2880    -2878 
   -2852    -2825    -2805    -2789    -2768    -2739    -2704    -2681 
   -2679    -2687    -2693    -2691    -2682    -2683    -2712    -2744 
   -2756    -2754    -2749    -2756    -2782    -2818    -2844    -2863 
   -2891    -2918    -2914    -2882    -2847    -2803    -2755    -2713 
   -2690    -2693    -2694    -2660    -2613    -2579    -2565    -2571 
   -2589    -2617    -2651    -2677    -2674    -2659    -2678    -2724 
   -2752    -2747    -2714    -2674    -2655    -2675    -2721    -2778 
   -2813    -2791    -2751    -2754    -2802    -2872    -2926    -2955 
   -2986    -3028    -3051    -3065    -3083    -3087    -3048    -2970 
   -2896    -2870    -2878    -2884    -2874    -2851    -2817    -2775 
   -2740    -2716    -2691    -2650    -2596    -2560    -2565    -2606 
   -2663    -2713    -2733    -2716    -2698    -2718    -2779    -2849 
   -2903    -2941    -2974    -2999    -2997    -2952    -2894    -2862 
   -2862    -2879    -2889    -2889    -2886    -2882    -2895    -2944 
   -3007    -3044    -3055    -3046    -3017    -2982    -2975    -3002 
   -3028    -3018    -2975    -2918    -2879    -2863    -2860    -2870 
   -2889    -2886    -2848    -2798    -2762    -2752    -2762    -2768 
   -2754    -2709    -2662    -2651    -2686    -2735    -2754    -2739 
   -2714    -2705    -2724    -2758    -2791    -2822    -2825    -2787 
   -2758    -2778    -2826    -2863    -2866    -2836    -2795    -2774 
   -2772    -2779    -2787    -2786    -2770    -2733    -2687    -2663 
   -2664    -2677    -2705    -2740    -2766    -2768    -2747    -2724 
   -2717    -2735    -2766    -2797    -2822    -2822    -2785    -2728 
   -2695    -2712    -2763    -2822    -2870    -2907    -2937    -2944 
   -2929    -2894    -2851    -2826    -2833    -2875    -2945    -3017 
   -3071    -3103    -3114    -3094    -3046    -3002    -2976    -2959 
   -2910    -2825    -2733    -2651    -2583    -2544    -2521    -2494 
   -2466    -2438    -2420    -2440    -2508    -2579    -2625    -2658 
   -2678    -2686    -2709    -2740    -2755    -2744    -2712    -2681 
   -2679    -2693    -2698    -2688    -2666    -2631    -2612    -2633 
   -2682    -2713    -2721    -2736    -2770    -2813    -2843    -2853 
   -2863    -2860    -2817    -2748    -2694    -2664    -2656    -2659 
   -2654    -2636    -2628    -2640    -2662    -2690    -2724    -2728 
   -2697    -2662    -2666    -2705    -2739    -2763    -2786    -2797 
   -2805    -2801    -2782    -2766    -2764    -2783    -2822    -2884 
   -2945    -2982    -3018    -3069    -3098    -3088    -3060    -3034 
   -3013    -2976    -2918    -2871    -2849    -2818    -2747    -2654 
   -2570    -2502    -2457    -2450    -2463    -2463    -2451    -2439 
   -2432    -2440    -2465    -2502    -2548    -2593    -2609    -2606 
   -2616    -2639    -2663    -2683    -2681    -2652    -2609    -2562 
   -2528    -2532    -2563    -2581    -2570    -2555    -2565    -2602 
   -2635    -2641    -2633    -2616    -2592    -2551    -2511    -2489 
   -2466    -2417    -2367    -2346    -2338    -2326    -2327    -2338 
   -2338    -2330    -2354    -2408    -2442    -2440    -2434    -2444 
   -2467    -2500    -2515    -2501    -2493    -2500    -2509    -2539 
   -2584    -2610    -2609    -2610    -2627    -2648    -2678    -2714 
   -2754    -2791    -2837    -2899    -2974    -3055    -3148    -3217 
   -3253    -3284    -3306    -3294    -3256    -3215    -3164    -3083 
   -3003    -2957    -2932    -2898    -2851    -2797    -2758    -2759 
   -2798    -2855    -2914    -2959    -2952    -2902    -2851    -2820 
   -2822    -2855    -2887    -2875    -2806    -2713    -2647    -2632 
   -2656    -2697    -2735    -2762    -2786    -2826    -2875    -2909 
   -2929    -2959    -2995    -3033    -3073    -3113    -3140    -3152 
   -3160    -3146    -3084    -2982    -2886    -2822    -2775    -2739 
   -2717    -2704    -2697    -2691    -2685    -2691    -2721    -2766 
   -2813    -2866    -2926    -2986    -3030    -3049    -3045    -3025 
   -3011    -3015    -3019    -3019    -3037    -3090    -3180    -3265 
   -3319    -3360    -3400    -3462    -3553    -3632    -3676    -3707 
   -3738    -3759    -3757    -3712    -3615    -3480    -3326    -3163 
   -2986    -2810    -2644    -2519    -2459    -2444    -2447    -2466 
   -2502    -2552    -2600    -2629    -2636    -2627    -2619    -2643 
   -2708    -2783    -2848    -2891    -2920    -2959    -3018    -3084 
   -3161    -3232    -3268    -3260    -3229    -3207    -3199    -3194 
   -3211    -3234    -3246    -3258    -3269    -3254    -3237    -3240 
   -3256    -3275    -3295    -3306    -3291    -3257    -3204    -3127 
   -3032    -2945    -2879    -2822    -2754    -2679    -2616    -2584 
   -2592    -2604    -2574    -2508    -2444    -2417    -2430    -2475 
   -2529    -2550    -2531    -2506    -2502    -2529    -2584    -2652 
   -2704    -2727    -2713    -2667    -2620    -2614    -2648    -2690 
   -2735    -2762    -2743    -2701    -2669    -2667    -2697    -2720 
   -2718    -2704    -2687    -2694    -2727    -2759    -2779    -2781 
   -2779    -2797    -2843    -2902    -2960    -3002    -3014    -3010 
   -3001    -3001    -3021    -3036    -3014    -2947    -2837    -2721 
   -2648    -2624    -2636    -2666    -2694    -2708    -2721    -2768 
   -2852    -2924    -2937    -2902    -2852    -2821    -2836    -2901 
   -2991    -3071    -3129    -3164    -3171    -3164    -3148    -3107 
   -3033    -2915    -2792    -2724    -2727    -2759    -2778    -2754 
   -2669    -2558    -2466    -2381    -2289    -2239    -2228    -2231 
   -2274    -2346    -2408    -2477    -2529    -2554    -2593    -2658 
   -2728    -2791    -2843    -2906    -3003    -3137    -3291    -3445 
   -3582    -3688    -3731    -3701    -3634    -3577    -3537    -3492 
   -3433    -3338    -3198    -3026    -2841    -2654    -2493    -2388 
   -2334    -2297    -2239    -2158    -2088    -2066    -2088    -2116 
   -2128    -2128    -2107    -2053    -1993    -1948    -1915    -1896 
   -1898    -1896    -1868    -1788    -1665    -1548    -1462    -1385 
   -1305    -1235    -1163    -1070     -972     -893     -830     -766 
    -724     -735     -776     -796     -793     -780     -751     -707 
    -649     -596     -575     -591     -625     -670     -746     -838 
    -903     -926     -922     -927     -953     -967     -954     -928 
    -912     -935    -1007    -1101    -1205    -1310    -1410    -1524 
   -1664    -1814    -1923    -1953    -1904    -1821    -1755    -1728 
   -1721    -1715    -1710    -1713    -1717    -1714    -1721    -1746 
   -1780    -1807    -1840    -1902    -1985    -2072    -2174    -2300 
   -2431    -2570    -2729    -2880    -2986    -3068    -3107    -3065 
   -2959    -2825    -2704    -2639    -2654    -2727    -2817    -2903 
   -2974    -3007    -2995    -2951    -2893    -2825    -2754    -2673 
   -2567    -2438    -2319    -2253    -2228    -2222    -2223    -2246 
   -2301    -2373    -2434    -2470    -2489    -2516    -2567    -2636 
   -2728    -2820    -2872    -2882    -2857    -2825    -2810    -2822 
   -2860    -2911    -2948    -2953    -2928    -2875    -2826    -2798 
   -2758    -2706    -2674    -2655    -2623    -2565    -2509    -2467 
   -2438    -2423    -2438    -2477    -2517    -2565    -2647    -2767 
   -2906    -3036    -3150    -3269    -3388    -3503    -3612    -3713 
   -3809    -3913    -4029    -4156    -4275    -4345    -4342    -4271 
   -4159    -4047    -3959    -3875    -3778    -3676    -3580    -3499 
   -3424    -3339    -3238    -3132    -3037    -2964    -2899    -2833 
   -2775    -2725    -2669    -2593    -2494    -2393    -2295    -2195 
   -2126    -2116    -2165    -2249    -2353    -2461    -2556    -2629 
   -2700    -2774    -2844    -2899    -2914    -2906    -2905    -2893 
   -2849    -2787    -2728    -2691    -2675    -2673    -2698    -2767 
   -2848    -2896    -2913    -2924    -2959    -3051    -3180    -3310 
   -3397    -3429    -3419    -3399    -3399    -3438    -3499    -3551 
   -3568    -3530    -3458    -3379    -3325    -3319    -3348    -3373 
   -3399    -3437    -3488    -3554    -3627    -3690    -3754    -3815 
   -3870    -3920    -3955    -3973    -3982    -3981    -3979    -3967 
   -3915    -3825    -3726    -3613    -3484    -3342    -3183    -3003 
   -2803    -2602    -2415    -2232    -2038    -1826    -1613    -1431 
   -1304    -1221    -1162    -1105    -1046     -986     -939     -913 
    -901     -893     -913     -993    -1142    -1329    -1506    -1622 
   -1661    -1675    -1723    -1818    -1929    -2004    -1998    -1912 
   -1802    -1729    -1737    -1821    -1941    -2029    -2053    -2050 
   -2053    -2081    -2128    -2168    -2182    -2165    -2142    -2143 
   -2158    -2166    -2154    -2118    -2081    -2072    -2069    -2041 
   -1968    -1842    -1702    -1590    -1499    -1409    -1308    -1200 
   -1081     -989     -938     -908     -903     -945    -1031    -1155 
   -1323    -1540    -1776    -1993    -2177    -2328    -2465    -2616 
   -2787    -2953    -3082    -3168    -3230    -3280    -3325    -3372 
   -3410    -3396    -3317    -3194    -3055    -2928    -2809    -2678 
   -2554    -2446    -2332    -2196    -2062    -1965    -1908    -1876 
   -1852    -1837    -1830    -1845    -1884    -1944    -2015    -2091 
   -2191    -2324    -2451    -2533    -2579    -2624    -2694    -2799 
   -2917    -3005    -3040    -3036    -3025    -3042    -3113    -3225 
   -3350    -3481    -3630    -3774    -3888    -3964    -4006    -4006 
   -3973    -3948    -3965    -4024    -4097    -4140    -4122    -4067 
   -4024    -4017    -4059    -4136    -4215    -4255    -4241    -4189 
   -4114    -4047    -4028    -4059    -4099    -4113    -4071    -3991 
   -3921    -3883    -3866    -3848    -3819    -3798    -3816    -3882 
   -3987    -4093    -4148    -4137    -4093    -4036    -3983    -3942 
   -3904    -3842    -3755    -3657    -3563    -3478    -3392    -3288 
   -3149    -2980    -2816    -2673    -2546    -2435    -2358    -2335 
   -2371    -2446    -2519    -2575    -2614    -2633    -2639    -2640 
   -2646    -2656    -2673    -2683    -2682    -2682    -2690    -2713 
   -2759    -2825    -2886    -2940    -3002    -3069    -3123    -3157 
   -3173    -3180    -3180    -3175    -3168    -3172    -3194    -3230 
   -3265    -3281    -3271    -3258    -3262    -3272    -3283    -3291 
   -3289    -3298    -3323    -3365    -3404    -3424    -3427    -3423 
   -3415    -3412    -3416    -3399    -3319    -3194    -3068    -2979 
   -2949    -2952    -2938    -2884    -2805    -2728    -2681    -2663 
   -2658    -2639    -2592    -2511    -2394    -2270    -2184    -2166 
   -2211    -2267    -2297    -2301    -2297    -2295    -2301    -2330 
   -2367    -2385    -2363    -2289    -2157    -1980    -1810    -1695 
   -1648    -1636    -1625    -1617    -1606    -1575    -1540    -1526 
   -1541    -1576    -1628    -1680    -1728    -1775    -1822    -1873 
   -1952    -2083    -2265    -2466    -2636    -2759    -2853    -2953 
   -3069    -3184    -3275    -3333    -3377    -3442    -3543    -3662 
   -3754    -3775    -3719    -3636    -3586    -3574    -3573    -3547 
   -3485    -3392    -3291    -3204    -3144    -3084    -3013    -2951 
   -2909    -2882    -2876    -2879    -2878    -2887    -2921    -2972 
   -3022    -3056    -3078    -3086    -3064    -2991    -2859    -2697 
   -2573    -2524    -2538    -2567    -2565    -2506    -2427    -2396 
   -2440    -2532    -2623    -2678    -2691    -2681    -2679    -2716 
   -2790    -2872    -2945    -3002    -3057    -3138    -3244    -3342 
   -3420    -3489    -3554    -3639    -3757    -3897    -4033    -4117 
   -4132    -4120    -4148    -4252    -4423    -4599    -4699    -4702 
   -4648    -4596    -4594    -4633    -4676    -4696    -4695    -4712 
   -4779    -4887    -5009    -5101    -5146    -5167    -5197    -5239 
   -5271    -5266    -5215    -5144    -5101    -5104    -5142    -5193 
   -5235    -5259    -5262    -5251    -5255    -5286    -5323    -5341 
   -5319    -5242    -5151    -5103    -5119    -5179    -5238    -5251 
   -5204    -5124    -5051    -5007    -4986    -4968    -4934    -4904 
   -4897    -4934    -5016    -5115    -5188    -5224    -5238    -5227 
   -5177    -5093    -4984    -4847    -4699    -4549    -4413    -4305 
   -4222    -4159    -4109    -4078    -4074    -4094    -4095    -4069 
   -4050    -4077    -4164    -4266    -4321    -4309    -4248    -4192 
   -4205    -4306    -4450    -4553    -4546    -4440    -4287    -4159 
   -4126    -4205    -4340    -4417    -4364    -4200    -4010    -3888 
   -3878    -3963    -4077    -4133    -4098    -4010    -3921    -3861 
   -3847    -3850    -3839    -3828    -3838    -3855    -3856    -3847 
   -3858    -3896    -3937    -3963    -3956    -3915    -3865    -3847 
   -3893    -4001    -4135    -4263    -4374    -4471    -4549    -4596 
   -4608    -4580    -4510    -4422    -4344    -4295    -4268    -4233 
   -4175    -4109    -4082    -4114    -4185    -4233    -4215    -4129 
   -4016    -3929    -3885    -3873    -3866    -3842    -3798    -3747 
   -3693    -3649    -3628    -3646    -3686    -3705    -3685    -3626 
   -3535    -3419    -3299    -3208    -3153    -3111    -3065    -3009 
   -2943    -2871    -2817    -2809    -2857    -2944    -3015    -3029 
   -2992    -2951    -2918    -2894    -2882    -2896    -2967    -3092 
   -3213    -3296    -3330    -3326    -3314    -3300    -3280    -3264 
   -3284    -3352    -3420    -3449    -3450    -3451    -3469    -3497 
   -3505    -3491    -3462    -3424    -3400    -3399    -3402    -3424 
   -3454    -3464    -3470    -3496    -3539    -3582    -3597    -3581 
   -3561    -3554    -3570    -3603    -3620    -3620    -3615    -3601 
   -3589    -3608    -3653    -3721    -3785    -3811    -3804    -3793 
   -3784    -3757    -3696    -3608    -3539    -3508    -3495    -3464 
   -3399    -3322    -3273    -3258    -3232    -3163    -3064    -2980 
   -2951    -2992    -3069    -3117    -3107    -3060    -3018    -3014 
   -3034    -3044    -3019    -2984    -2984    -3040    -3127    -3194 
   -3188    -3122    -3037    -2964    -2913    -2849    -2758    -2658 
   -2558    -2461    -2377    -2305    -2241    -2185    -2144    -2110 
   -2061    -1971    -1831    -1683    -1595    -1602    -1679    -1764 
   -1779    -1692    -1584    -1556    -1647    -1830    -2022    -2139 
   -2174    -2182    -2218    -2296    -2397    -2493    -2548    -2558 
   -2578    -2646    -2728    -2790    -2818    -2832    -2857    -2890 
   -2915    -2933    -2933    -2925    -2929    -2967    -3042    -3126 
   -3183    -3196    -3184    -3171    -3171    -3213    -3298    -3388 
   -3458    -3497    -3527    -3573    -3628    -3681    -3724    -3750 
   -3755    -3738    -3694    -3630    -3581    -3574    -3604    -3632 
   -3626    -3604    -3584    -3581    -3622    -3676    -3688    -3661 
   -3622    -3595    -3593    -3607    -3624    -3642    -3640    -3615 
   -3574    -3530    -3491    -3447    -3388    -3307    -3202    -3078 
   -2963    -2880    -2825    -2779    -2731    -2678    -2628    -2604 
   -2625    -2688    -2737    -2718    -2644    -2552    -2501    -2504 
   -2524    -2535    -2519    -2471    -2407    -2316    -2214    -2126 
   -2058    -2007    -1985    -1988    -1982    -1937    -1861    -1804 
   -1795    -1821    -1852    -1858    -1849    -1850    -1859    -1865 
   -1876    -1908    -1962    -2025    -2049    -2010    -1948    -1910 
   -1899    -1896    -1881    -1871    -1883    -1890    -1873    -1844 
   -1815    -1831    -1908    -2008    -2070    -2077    -2060    -2031 
   -1993    -1948    -1890    -1826    -1787    -1777    -1783    -1776 
   -1765    -1776    -1800    -1823    -1842    -1845    -1848    -1896 
   -1973    -2019    -2004    -1930    -1845    -1783    -1759    -1752 
   -1740    -1711    -1669    -1630    -1593    -1557    -1541    -1570 
   -1647    -1759    -1880    -2015    -2172    -2332    -2463    -2551 
   -2602    -2644    -2700    -2758    -2806    -2833    -2822    -2785 
   -2732    -2671    -2610    -2544    -2451    -2327    -2205    -2128 
   -2104    -2107    -2111    -2092    -2058    -2061    -2137    -2269 
   -2398    -2482    -2517    -2542    -2586    -2639    -2650    -2584 
   -2458    -2327    -2253    -2238    -2246    -2223    -2130    -1973 
   -1794    -1652    -1571    -1518    -1462    -1398    -1328    -1260 
   -1193    -1098     -970     -830     -711     -649     -637     -646 
    -635     -581     -508     -454     -450     -498     -568     -630 
    -672     -710     -764     -824     -888     -955    -1026    -1085 
   -1119    -1124    -1097    -1032     -946     -884     -864     -882 
    -912     -924     -895     -827     -739     -665     -621     -614 
    -646     -700     -750     -774     -754     -702     -666     -668 
    -692     -720     -728     -712     -696     -687     -681     -689 
    -704     -712     -730     -773     -835     -896     -938     -963 
    -961     -935     -903     -874     -838     -807     -766     -726 
    -715     -745     -785     -814     -801     -743     -679     -639 
    -638     -662     -676     -656     -615     -588     -595     -629 
    -665     -684     -684     -676     -662     -642     -619     -619 
    -669     -772     -918    -1057    -1119    -1102    -1062    -1039 
   -1065    -1123    -1174    -1206    -1217    -1216    -1236    -1293 
   -1374    -1457    -1540    -1613    -1657    -1680    -1706    -1748 
   -1794    -1819    -1817    -1804    -1826    -1895    -1987    -2079 
   -2155    -2211    -2253    -2293    -2342    -2384    -2397    -2374 
   -2334    -2300    -2281    -2290    -2332    -2377    -2390    -2363 
   -2323    -2297    -2303    -2326    -2338    -2349    -2344    -2319 
