Origin Time       2016/04/16 01:25:00
Lat.              32.753
Long.             130.762
Depth. (km)       12
Mag.              7.3
Station Code      HRS012
Station Lat.      34.4276
Station Long.     132.7422
Station Height(m) 215
Record Time       2016/04/16 01:25:50
Sampling Freq(Hz) 100Hz
Duration Time(s)  109
Dir.              N-S
Scale Factor      7845(gal)/8223790
Max. Acc. (gal)   6.631
Last Correction   2016/04/16 01:25:50
Memo.             
[...]
   10450    10465    10574    10760    11037    11384    11772    12181 
   12540    12802    13039    13285    13408    13306    12997    12528 
   11990    11496    11091    10791    10619    10575    10602    10600 
   10530    10427    10301    10154    10006     9904     9918    10068 
   10312    10627    10991    11356    11684    11969    12195    12328 
   12344    12237    12024    11727    11383    10984    10493     9942 
    9454     9104     8889     8819     8918     9142     9402     9666 
    9952    10295    10729    11254    11808    12330    12788    13146 
   13373    13452    13435    13419    13456    13495    13468    13374 
   13259    13132    12938    12645    12289    11884    11418    10879 
   10304     9791     9390     9045     8721     8479     8379     8417 
    8557     8773     9062     9451     9985    10636    11299    11904 
   12413    12764    12919    12891    12725    12457    12109    11686 
   11175    10590    10027     9594     9363     9378     9601     9902 
   10164    10341    10458    10582    10733    10832    10805    10755 
   10824    10917    10852    10633    10407    10299    10345    10520 
   10818    11244    11747    12271    12814    13378    13917    14339 
   14577    14597    14391    13971    13402    12795    12271    11875 
   11580    11372    11265    11259    11313    11418    11601    11896 
   12264    12622    12953    13279    13574    13798    13932    13981 
   14010    14072    14116    14085    13957    13743    13482    13165 
   12671    11956    11168    10435     9748     9147     8787     8756 
    9024     9506    10121    10783    11381    11840    12152    12367 
   12576    12800    12964    13028    13024    12954    12803    12560 
   12236    11874    11527    11178    10816    10512    10289    10049 
    9740     9463     9316     9273     9298     9433     9699    10075 
   10542    11070    11597    12093    12567    13007    13343    13491 
   13487    13489    13563    13637    13656    13616    13540    13451 
   13331    13176    13012    12849    12677    12496    12312    12125 
   11939    11777    11668    11624    11627    11655    11739    11928 
   12191    12488    12845    13246    13562    13668    13568    13358 
   13115    12895    12748    12691    12699    12734    12766    12779 
   12814    12933    13117    13284    13410    13500    13514    13394 
   13099    12677    12252    11881    11545    11267    11128    11140 
   11230    11354    11526    11729    11920    12066    12162    12241 
   12363    12550    12756    12911    13022    13115    13151    13080 
   12888    12607    12260    11890    11583    11415    11377    11398 
   11452    11554    11688    11835    12015    12217    12367    12441 
   12480    12491    12432    12283    12081    11865    11678    11564 
   11507    11480    11503    11557    11595    11568    11430    11183 
   10876    10552    10246     9950     9624     9262     8927     8664 
    8426     8158     7865     7584     7311     7032     6810     6748 
    6805     6895     7049     7299     7607     7958     8367     8837 
    9343     9886    10469    11037    11551    12005    12347    12532 
   12559    12442    12244    12052    11904    11784    11677    11596 
   11526    11461    11441    11491    11600    11793    12110    12492 
   12811    12996    13062    13070    13059    13030    12976    12918 
   12861    12746    12523    12247    12009    11830    11713    11696 
   11774    11935    12167    12444    12738    13046    13343    13616 
   13895    14172    14362    14393    14273    14056    13747    13293 
   12672    12009    11506    11237    11118    11092    11222    11526 
   11875    12148    12344    12514    12663    12785    12916    13023 
   13045    12970    12772    12444    12096    11859    11786    11867 
   12064    12313    12561    12810    13047    13235    13336    13293 
   13063    12710    12314    11921    11615    11466    11450    11502 
   11581    11681    11757    11729    11599    11435    11294    11202 
   11149    11090    11037    11043    11102    11153    11165    11144 
   11076    10943    10750    10547    10430    10444    10579    10770 
   10979    11269    11674    12098    12417    12592    12704    12811 
   12852    12764    12618    12525    12498    12496    12526    12596 
   12660    12696    12777    12933    13054    13076    13080    13135 
   13242    13389    13552    13714    13869    13976    13981    13888 
   13733    13548    13335    13043    12657    12251    11924    11727 
   11672    11767    12050    12530    13178    13915    14619    15217 
   15704    16008    16023    15768    15348    14877    14450    14122 
   13871    13635    13378    13159    13057    13050    13090    13208 
   13456    13860    14335    14712    14964    15178    15317    15290 
   15126    14897    14629    14346    14045    13703    13347    13053 
   12869    12768    12672    12579    12522    12515    12550    12606 
   12687    12852    13108    13369    13514    13482    13279    12938 
   12482    11931    11323    10692    10061     9528     9224     9192 
    9350     9603     9921    10270    10588    10849    11084    11280 
   11369    11300    11059    10692    10300     9934     9568     9169 
    8730     8263     7781     7326     6943     6628     6376     6231 
    6245     6465     6919     7551     8275     9055     9877    10710 
   11502    12152    12536    12599    12410    12074    11642    11156 
   10697    10328    10062     9930     9965    10143    10388    10659 
   10955    11237    11480    11713    11940    12135    12312    12479 
   12617    12687    12656    12501    12231    11913    11611    11360 
   11168    11043    10990    10995    11014    11017    10960    10782 
   10503    10250    10112    10035     9940     9871     9926    10118 
   10350    10571    10870    11283    11712    12118    12519    12888 
   13184    13320    13224    12923    12526    12175    11962    11835 
   11705    11561    11430    11291    11052    10655    10147     9617 
    9163     8895     8861     9066     9481    10012    10537    10979 
   11318    11545    11657    11676    11593    11375    11032    10623 
   10174     9695     9251     8958     8899     9090     9504    10087 
   10763    11429    11975    12371    12625    12721    12660    12491 
   12240    11937    11663    11450    11200    10812    10346     9909 
    9505     9151     8927     8877     9018     9366     9899    10485 
   10943    11240    11449    11605    11742    11908    12089    12233 
   12312    12317    12236    12012    11612    11097    10539     9967 
    9406     8919     8563     8334     8203     8172     8257     8451 
    8738     9069     9347     9533     9705     9926    10137    10237 
   10223    10149    10050     9953     9892     9888     9948    10091 
   10358    10750    11214    11705    12185    12599    12870    12993 
   13066    13144    13207    13269    13373    13443    13356    13093 
   12722    12262    11692    11037    10372     9795     9333     8922 
    8522     8236     8148     8203     8289     8356     8474     8745 
    9180     9707    10250    10775    11268    11701    12067    12371 
   12571    12626    12534    12299    11880    11236    10444     9655 
    8920     8252     7723     7423     7334     7389     7543     7773 
    8052     8378     8746     9147     9575    10018    10447    10839 
   11183    11497    11788    12010    12127    12166    12202    12240 
   12210    12100    11925    11638    11206    10670    10076     9520 
    9186     9201     9518    10014    10605    11183    11600    11808 
   11830    11624    11171    10615    10168     9934     9900    10045 
   10350    10747    11167    11591    11978    12252    12402    12429 
   12276    11939    11546    11217    10916    10498     9952     9462 
    9147     8927     8735     8629     8637     8703     8768     8808 
    8858     9016     9320     9691    10071    10484    10983    11560 
   12155    12719    13193    13520    13678    13671    13502    13155 
   12653    12098    11605    11214    10883    10565    10257     9983 
    9763     9610     9517     9482     9556     9764    10030    10268 
   10480    10677    10836    10944    11021    11086    11148    11253 
   11402    11488    11458    11356    11236    11092    10874    10519 
    9979     9308     8637     8047     7553     7186     6983     7015 
    7304     7797     8496     9454    10635    11917    13219    14453 
   15490    16210    16533    16474    16104    15444    14521    13396 
   12096    10693     9327     8118     7107     6295     5672     5254 
    5065     5113     5390     5894     6604     7489     8515     9595 
   10579    11350    11865    12112    12151    12077    11950    11813 
   11706    11626    11545    11508    11618    11932    12390    12868 
   13266    13541    13694    13726    13593    13265    12806    12333 
   11928    11654    11564    11659    11901    12268    12692    13041 
   13244    13336    13329    13212    13016    12789    12555    12376 
   12305    12305    12384    12610    12964    13363    13701    13852 
   13744    13427    12976    12444    11880    11341    10868    10476 
   10147     9863     9625     9468     9391     9382     9417     9435 
    9391     9317     9305     9436     9736    10185    10770    11488 
   12236    12822    13159    13263    13203    13092    12978    12826 
   12626    12447    12372    12403    12505    12695    13030    13497 
   14004    14436    14667    14678    14569    14372    14008    13456 
   12783    12046    11280    10514     9818     9302     9036     8958 
    9013     9209     9517     9956    10636    11561    12580    13513 
   14218    14642    14787    14635    14179    13471    12586    11587 
   10551     9596     8854     8417     8345     8612     9124     9802 
   10579    11377    12108    12694    13116    13448    13784    14112 
   14312    14293    14068    13728    13363    13001    12661    12394 
   12244    12208    12236    12245    12218    12251    12426    12723 
   13109    13598    14204    14836    15388    15830    16135    16278 
   16245    16031    15688    15295    14868    14435    14033    13666 
   13379    13263    13387    13740    14207    14607    14800    14796 
   14674    14462    14181    13887    13667    13605    13660    13695 
   13606    13314    12799    12148    11495    10976    10710    10768 
   11148    11772    12561    13477    14463    15385    16093    16524 
   16702    16703    16563    16237    15670    14867    13918    12945 
   11986    11024    10103     9332     8792     8532     8614     9082 
    9891    10944    12131    13338    14467    15438    16133    16443 
   16332    15850    15076    14108    13039    11966    10994    10223 
    9734     9570     9687     9991    10388    10835    11364    11954 
   12491    12908    13196    13342    13389    13423    13468    13487 
   13481    13528    13656    13749    13687    13433    12991    12422 
   11842    11315    10866    10532    10386    10494    10825    11263 
   11723    12131    12406    12586    12758    12951    13147    13373 
   13662    13918    13971    13738    13240    12542    11734    10947 
   10338     9999     9936    10133    10590    11302    12167    13036 
   13829    14547    15183    15687    16015    16198    16259    16170 
   15859    15261    14458    13675    13049    12541    12112    11836 
   11847    12202    12814    13536    14243    14866    15390    15776 
   15971    15996    15873    15549    14962    14134    13198    12361 
   11739    11307    11041    10974    11119    11470    11970    12492 
   12945    13286    13420    13217    12636    11788    10905    10153 
    9559     9143     8946     8972     9262     9829    10554    11291 
   12039    12853    13675    14372    14858    15147    15292    15300 
   15118    14728    14130    13343    12496    11753    11173    10785 
   10635    10782    11217    11815    12428    12981    13487    14041 
   14679    15291    15750    16074    16336    16518    16526    16340 
   16027    15674    15321    14908    14364    13725    13061    12380 
   11619    10751     9837     8957     8189     7666     7488     7651 
    8167     9055    10224    11534    12881    14161    15253    16001 
   16232    15892    15099    14034    12849    11709    10717     9896 
    9289     8914     8721     8719     8993     9596    10469    11439 
   12359    13165    13760    14034    14034    13864    13502    12915 
   12181    11438    10798    10287     9917     9757     9869    10247 
   10800    11377    11881    12336    12754    13050    13144    13084 
   12962    12810    12579    12276    11986    11767    11623    11545 
   11566    11747    12063    12417    12756    13068    13347    13574 
   13649    13531    13332    13184    13128    13120    13066    12924 
   12700    12403    12050    11711    11480    11365    11296    11269 
   11364    11556    11712    11797    11901    12121    12448    12807 
   13138    13387    13514    13533    13520    13504    13416    13201 
   12852    12390    11853    11210    10438     9697     9229     9101 
    9221     9551    10095    10814    11668    12557    13294    13775 
   14022    14046    13806    13273    12511    11715    11018    10463 
   10098     9958    10112    10642    11500    12567    13751    14949 
   16062    17053    17883    18459    18674    18485    17922    17078 
   16092    15086    14104    13207    12461    11896    11573    11557 
   11739    11921    12063    12253    12557    12964    13433    13945 
   14454    14883    15182    15344    15391    15360    15287    15142 
   14874    14521    14181    13919    13788    13848    14106    14469 
   14801    15002    15041    14897    14524    13957    13363    12866 
   12448    12064    11742    11491    11259    10952    10509     9979 
    9533     9332     9427     9790    10372    11105    11929    12819 
   13697    14420    14870    15003    14862    14501    13878    12972 
   11935    10935    10092     9518     9227     9215     9495     9956 
   10503    11076    11477    11608    11639    11691    11695    11564 
   11329    11119    11018    11010    11037    11045    11071    11200 
   11391    11553    11670    11720    11680    11589    11558    11655 
   11794    11816    11657    11345    10870    10218     9467     8731 
    8086     7612     7375     7377     7641     8228     9120    10135 
   11084    11912    12577    13041    13293    13333    13198    13001 
   12829    12652    12376    11977    11492    10930    10305     9679 
    9119     8668     8356     8243     8385     8777     9354    10018 
   10685    11322    11875    12268    12515    12687    12802    12833 
   12707    12434    12179    12062    12042    12042    12048    12089 
   12114    12021    11786    11485    11160    10787    10401    10092 
    9909     9900    10118    10539    11113    11774    12390    12802 
   12915    12696    12221    11659    11076    10426     9717     9031 
    8418     7900     7520     7329     7330     7553     8027     8655 
    9301     9904    10471    11018    11547    12033    12428    12711 
   12904    12980    12879    12600    12204    11758    11308    10854 
   10389     9953     9605     9366     9252     9337     9726    10417 
   11263    12069    12719    13197    13506    13683    13772    13740 
   13545    13238    12954    12779    12653    12398    11943    11446 
   11053    10781    10617    10569    10578    10547    10400    10154 
    9913     9736     9571     9428     9381     9458     9633     9909 
   10296    10758    11236    11713    12159    12518    12789    12954 
   12969    12864    12680    12401    11951    11280    10420     9454 
    8519     7793     7356     7117     7023     7094     7314     7652 
    8078     8559     9078     9601    10073    10500    10924    11375 
   11884    12388    12761    12968    13046    12988    12745    12276 
   11607    10832    10039     9286     8625     8114     7812     7735 
    7900     8290     8820     9410     9999    10542    11013    11331 
   11394    11195    10844    10424     9979     9595     9354     9267 
    9312     9444     9591     9664     9580     9359     9170     9167 
    9305     9383     9290     9101     8978     8976     9023     9094 
    9224     9371     9464     9452     9309     9080     8877     8802 
    8907     9165     9470     9740    10003    10318    10632    10854 
   10999    11128    11200    11203    11253    11434    11682    11878 
   11928    11805    11545    11169    10670    10042     9342     8704 
    8298     8179     8284     8542     8919     9402     9957    10536 
   11159    11909    12737    13423    13794    13855    13740    13525 
   13117    12451    11614    10786    10152     9844     9886    10230 
   10821    11566    12329    12950    13328    13477    13470    13343 
   13122    12843    12536    12221    11912    11569    11188    10843 
   10605    10494    10513    10644    10843    11059    11241    11333 
   11300    11153    10913    10608    10332    10157    10045     9913 
    9771     9668     9610     9570     9567     9691    10044    10612 
   11259    11880    12505    13182    13776    14067    13948    13443 
   12656    11785    10980    10278     9756     9541     9633     9884 
   10139    10311    10403    10490    10651    10912    11269    11718 
   12218    12676    13007    13190    13228    13124    12904    12557 
   12122    11758    11580    11553    11607    11723    11873    11992 
   12052    12100    12131    12093    11973    11809    11647    11472 
   11190    10744    10173     9548     8961     8542     8347     8307 
    8437     8869     9568    10358    11180    12029    12792    13324 
   13606    13726    13707    13554    13323    13034    12675    12252 
   11772    11261    10790    10430    10239    10265    10517    10937 
   11430    11914    12314    12575    12688    12629    12402    12175 
   12136    12235    12286    12241    12191    12198    12244    12258 
   12205    12147    12186    12295    12353    12382    12532    12829 
   13165    13473    13730    13929    14054    14131    14216    14238 
   14052    13699    13296    12868    12414    11943    11503    11164 
   10925    10801    10867    11113    11411    11731    12155    12699 
   13271    13778    14172    14462    14666    14766    14729    14539 
   14200    13718    13113    12467    11907    11485    11164    10925 
   10791    10754    10800    10939    11186    11564    12062    12563 
   12950    13212    13362    13350    13147    12812    12414    12002 
   11592    11202    10902    10743    10716    10743    10790    10937 
   11196    11457    11635    11716    11745    11815    11955    12096 
   12197    12301    12409    12421    12251    11959    11642    11342 
   11107    10966    10889    10829    10754    10633    10465    10292 
   10160    10111    10234    10552    10956    11335    11688    12043 
   12410    12771    13108    13441    13792    14137    14405    14561 
   14604    14499    14176    13621    12904    12163    11538    11065 
   10682    10423    10376    10493    10687    10955    11273    11581 
