Origin Time       2016/04/16 01:25:00
Lat.              32.753
Long.             130.762
Depth. (km)       12
Mag.              7.3
Station Code      HRS016
Station Lat.      34.4198
Station Long.     133.1971
Station Height(m) 40
Record Time       2016/04/16 01:26:29
Sampling Freq(Hz) 100Hz
Duration Time(s)  69
Dir.              E-W
Scale Factor      7845(gal)/8223790
Max. Acc. (gal)   3.166
Last Correction   2016/04/16 01:26:29
Memo.             
[...]
   -2166    -2137    -2121    -2126    -2138    -2143    -2146    -2173 
   -2235    -2308    -2363    -2376    -2344    -2311    -2297    -2276 
   -2223    -2153    -2079    -2003    -1935    -1887    -1846    -1814 
   -1803    -1813    -1826    -1840    -1865    -1902    -1937    -1960 
   -1969    -1981    -1996    -1984    -1925    -1841    -1765    -1706 
   -1649    -1598    -1568    -1561    -1559    -1551    -1544    -1540 
   -1534    -1533    -1561    -1626    -1699    -1753    -1773    -1757 
   -1710    -1649    -1609    -1599    -1598    -1601    -1621    -1661 
   -1722    -1800    -1883    -1952    -1993    -2010    -2010    -2003 
   -1999    -1998    -1989    -1961    -1900    -1813    -1713    -1626 
   -1567    -1528    -1505    -1507    -1553    -1617    -1665    -1691 
   -1705    -1721    -1737    -1764    -1817    -1871    -1896    -1904 
   -1921    -1949    -1980    -1984    -1945    -1878    -1823    -1794 
   -1775    -1753    -1734    -1719    -1677    -1599    -1518    -1475 
   -1467    -1455    -1408    -1350    -1318    -1321    -1345    -1386 
   -1440    -1501    -1567    -1644    -1723    -1792    -1846    -1891 
   -1941    -1999    -2057    -2102    -2133    -2142    -2119    -2070 
   -2034    -2031    -2049    -2077    -2111    -2146    -2187    -2254 
   -2357    -2481    -2606    -2725    -2839    -2941    -3018    -3068 
   -3094    -3103    -3094    -3068    -3032    -2991    -2943    -2898 
   -2870    -2855    -2844    -2824    -2783    -2721    -2660    -2612 
   -2573    -2535    -2485    -2409    -2317    -2235    -2185    -2168 
   -2166    -2184    -2220    -2250    -2253    -2231    -2207    -2215 
   -2272    -2346    -2392    -2389    -2361    -2332    -2308    -2289 
   -2266    -2231    -2174    -2093    -1995    -1896    -1817    -1757 
   -1713    -1658    -1595    -1530    -1459    -1364    -1243    -1123 
   -1059    -1070    -1128    -1205    -1287    -1362    -1436    -1522 
   -1614    -1694    -1755    -1806    -1857    -1887    -1869    -1826 
   -1802    -1796    -1792    -1779    -1759    -1732    -1696    -1668 
   -1648    -1632    -1625    -1632    -1647    -1658    -1665    -1683 
   -1729    -1781    -1791    -1763    -1746    -1753    -1767    -1768 
   -1736    -1676    -1614    -1567    -1539    -1509    -1476    -1452 
   -1440    -1439    -1460    -1489    -1513    -1528    -1520    -1503 
   -1512    -1547    -1610    -1703    -1810    -1915    -2022    -2133 
   -2251    -2386    -2536    -2694    -2843    -2975    -3094    -3192 
   -3269    -3338    -3396    -3427    -3424    -3402    -3361    -3298 
   -3213    -3109    -3011    -2938    -2874    -2781    -2667    -2567 
   -2502    -2478    -2478    -2488    -2494    -2502    -2524    -2543 
   -2536    -2517    -2489    -2432    -2353    -2273    -2204    -2161 
   -2151    -2169    -2199    -2234    -2276    -2319    -2359    -2394 
   -2434    -2481    -2525    -2548    -2546    -2533    -2525    -2523 
   -2515    -2509    -2525    -2563    -2602    -2636    -2681    -2731 
   -2791    -2870    -2956    -3034    -3099    -3154    -3202    -3235 
   -3253    -3249    -3223    -3188    -3141    -3080    -3017    -2964 
   -2918    -2882    -2847    -2790    -2706    -2606    -2509    -2431 
   -2388    -2366    -2346    -2330    -2338    -2378    -2416    -2419 
   -2398    -2374    -2349    -2319    -2269    -2177    -2052    -1922 
   -1809    -1695    -1551    -1387    -1237    -1111     -999     -896 
    -811     -749     -710     -689     -685     -689     -693     -683 
    -645     -600     -562     -540     -530     -525     -518     -511 
    -506     -519     -553     -584     -591     -577     -571     -592 
    -610     -587     -537     -487     -461     -472     -498     -518 
    -544     -589     -666     -770     -880     -976    -1053    -1123 
   -1193    -1247    -1255    -1209    -1133    -1062    -1009     -984 
    -984    -1000    -1017    -1031    -1059    -1101    -1138    -1166 
   -1192    -1209    -1213    -1208    -1200    -1192    -1185    -1177 
   -1151    -1107    -1074    -1070    -1089    -1111    -1131    -1167 
   -1233    -1325    -1439    -1575    -1719    -1850    -1960    -2061 
   -2155    -2239    -2309    -2366    -2401    -2416    -2424    -2439 
   -2465    -2504    -2563    -2635    -2713    -2798    -2879    -2936 
   -2967    -2992    -3003    -3006    -3018    -3033    -3037    -3025 
   -3006    -3003    -3025    -3041    -3011    -2929    -2837    -2772 
   -2736    -2714    -2702    -2694    -2683    -2681    -2714    -2789 
   -2874    -2938    -2992    -3061    -3148    -3230    -3289    -3319 
   -3331    -3349    -3387    -3424    -3430    -3400    -3354    -3304 
   -3249    -3172    -3078    -2992    -2921    -2844    -2758    -2650 
   -2511    -2351    -2195    -2043    -1868    -1655    -1424    -1200 
    -992     -800     -629     -493     -418     -400     -442     -526 
    -618     -691     -758     -838     -945    -1057    -1147    -1212 
   -1263    -1302    -1320    -1318    -1308    -1304    -1328    -1383 
   -1449    -1509    -1547    -1567    -1582    -1587    -1568    -1535 
   -1507    -1499    -1518    -1567    -1632    -1707    -1788    -1885 
   -1991    -2085    -2174    -2281    -2427    -2612    -2809    -2983 
   -3134    -3283    -3443    -3619    -3801    -3960    -4083    -4191 
   -4302    -4419    -4529    -4608    -4657    -4685    -4703    -4704 
   -4687    -4661    -4635    -4612    -4585    -4556    -4531    -4510 
   -4483    -4445    -4375    -4271    -4140    -3970    -3759    -3555 
   -3395    -3269    -3148    -3029    -2914    -2801    -2697    -2597 
   -2490    -2370    -2239    -2106    -1987    -1878    -1752    -1586 
   -1395    -1219    -1067     -950     -886     -876     -895     -922 
    -946     -955     -946     -916     -886     -877     -864     -823 
    -751     -661     -558     -461     -386     -337     -306     -286 
    -284     -311     -365     -441     -540     -650     -758     -851 
    -924     -980    -1023    -1057    -1086    -1125    -1185    -1263 
   -1339    -1395    -1449    -1530    -1632    -1733    -1841    -1969 
   -2096    -2204    -2285    -2343    -2378    -2392    -2388    -2380 
   -2369    -2342    -2304    -2281    -2293    -2342    -2408    -2451 
   -2454    -2439    -2425    -2405    -2371    -2319    -2234    -2134 
   -2046    -1962    -1864    -1750    -1625    -1503    -1409    -1331 
   -1227    -1089     -953     -832     -706     -558     -396     -216 
     -23      152      292      406      508      608      685      724 
     738      747      753      731      683      616      529      427 
     357      329      314      287      252      230      228      206 
     151       90       36      -20      -78     -143     -214     -297 
    -399     -518     -662     -838    -1031    -1225    -1421    -1621 
   -1825    -2045    -2295    -2559    -2805    -3010    -3169    -3295 
   -3396    -3461    -3478    -3453    -3384    -3287    -3180    -3059 
   -2909    -2743    -2570    -2394    -2218    -2023    -1822    -1644 
   -1493    -1355    -1237    -1131    -1020     -912     -815     -737 
    -685     -670     -707     -785     -874     -970    -1092    -1233 
   -1377    -1509    -1617    -1696    -1745    -1759    -1765    -1794 
   -1838    -1881    -1907    -1895    -1846    -1788    -1736    -1668 
   -1572    -1452    -1331    -1233    -1175    -1148    -1135    -1113 
   -1067    -1000     -920     -831     -741     -661     -630     -660 
    -727     -815     -927    -1065    -1209    -1347    -1479    -1609 
   -1729    -1838    -1948    -2056    -2168    -2292    -2425    -2563 
   -2695    -2817    -2924    -3011    -3068    -3100    -3140    -3210 
   -3312    -3423    -3530    -3665    -3828    -3979    -4086    -4148 
   -4180    -4170    -4095    -3954    -3771    -3569    -3338    -3076 
   -2810    -2542    -2263    -1999    -1780    -1621    -1506    -1413 
   -1348    -1345    -1409    -1512    -1622    -1728    -1840    -1956 
   -2061    -2138    -2180    -2182    -2160    -2119    -2070    -2020 
   -1964    -1898    -1829    -1757    -1701    -1674    -1648    -1594 
   -1513    -1425    -1354    -1306    -1278    -1248    -1210    -1178 
   -1165    -1177    -1228    -1313    -1397    -1455    -1509    -1590 
   -1682    -1763    -1833    -1914    -2011    -2126    -2249    -2351 
   -2408    -2417    -2389    -2342    -2277    -2193    -2115    -2065 
   -2034    -2003    -1972    -1948    -1930    -1912    -1890    -1867 
   -1861    -1877    -1919    -1972    -2016    -2057    -2092    -2111 
   -2115    -2101    -2070    -2023    -1954    -1872    -1792    -1717 
   -1653    -1601    -1553    -1509    -1447    -1348    -1229    -1093 
    -939     -793     -666     -542     -402     -238      -74       63 
     178      275      346      413      490      565      631      665 
     662      646      631      621      606      557      459      302 
      89     -160     -413     -652     -872    -1081    -1294    -1503 
   -1707    -1906    -2101    -2286    -2447    -2583    -2695    -2766 
   -2775    -2731    -2651    -2548    -2427    -2289    -2158    -2066 
   -2026    -2039    -2087    -2135    -2166    -2180    -2187    -2187 
   -2182    -2191    -2228    -2297    -2400    -2535    -2677    -2814 
   -2959    -3115    -3275    -3427    -3562    -3653    -3672    -3612 
   -3496    -3346    -3179    -3015    -2876    -2762    -2658    -2546 
   -2428    -2309    -2182    -2045    -1914    -1803    -1699    -1572 
   -1409    -1228    -1055     -888     -730     -614     -549     -514 
    -488     -477     -492     -538     -603     -675     -731     -737 
    -684     -604     -530     -448     -326     -166       21      224 
     429      619      784      919     1023     1081     1089     1047 
     967      866      741      579      390      190       -2     -171 
    -303     -405     -480     -526     -556     -598     -666     -751 
    -854     -978    -1107    -1235    -1368    -1489    -1583    -1663 
   -1733    -1787    -1803    -1753    -1647    -1532    -1437    -1356 
   -1278    -1217    -1200    -1230    -1294    -1372    -1462    -1561 
   -1672    -1796    -1930    -2061    -2176    -2290    -2412    -2540 
   -2662    -2768    -2857    -2928    -2978    -3024    -3082    -3152 
   -3238    -3330    -3400    -3443    -3459    -3439    -3376    -3269 
   -3145    -3045    -2980    -2949    -2955    -2986    -3037    -3117 
   -3232    -3372    -3511    -3628    -3719    -3790    -3844    -3897 
   -3943    -3955    -3936    -3890    -3824    -3755    -3689    -3615 
   -3551    -3527    -3557    -3636    -3738    -3842    -3948    -4058 
   -4163    -4248    -4302    -4322    -4315    -4288    -4243    -4174 
   -4087    -3987    -3863    -3696    -3487    -3265    -3076    -2938 
   -2841    -2758    -2675    -2606    -2560    -2543    -2533    -2500 
   -2421    -2307    -2169    -2018    -1856    -1701    -1575    -1487 
   -1426    -1382    -1355    -1350    -1359    -1382    -1418    -1474 
   -1572    -1717    -1883    -2056    -2234    -2408    -2559    -2674 
   -2745    -2782    -2811    -2844    -2874    -2891    -2901    -2899 
   -2890    -2863    -2802    -2690    -2521    -2323    -2130    -1958 
   -1807    -1679    -1564    -1457    -1381    -1351    -1371    -1439 
   -1539    -1648    -1769    -1911    -2065    -2203    -2304    -2371 
   -2409    -2419    -2411    -2409    -2444    -2505    -2567    -2633 
   -2706    -2762    -2772    -2755    -2748    -2768    -2809    -2847 
   -2857    -2840    -2816    -2803    -2813    -2840    -2875    -2932 
   -3024    -3145    -3271    -3369    -3440    -3518    -3618    -3719 
   -3796    -3820    -3789    -3723    -3647    -3581    -3528    -3489 
   -3459    -3434    -3404    -3360    -3306    -3269    -3256    -3249 
   -3238    -3221    -3200    -3184    -3168    -3154    -3148    -3137 
   -3126    -3125    -3138    -3164    -3190    -3217    -3254    -3299 
   -3335    -3352    -3349    -3331    -3307    -3281    -3250    -3215 
   -3180    -3157    -3142    -3137    -3149    -3171    -3179    -3154 
   -3099    -3017    -2899    -2747    -2575    -2394    -2203    -1998 
   -1771    -1524    -1282    -1065     -862     -680     -537     -437 
    -372     -334     -334     -373     -422     -472     -526     -577 
    -604     -591     -538     -490     -480     -511     -566     -627 
    -684     -739     -797     -866     -955    -1063    -1183    -1294 
   -1389    -1480    -1574    -1661    -1749    -1837    -1906    -1944 
   -1956    -1973    -2018    -2091    -2195    -2343    -2519    -2685 
   -2817    -2918    -2992    -3030    -3022    -2986    -2943    -2898 
   -2853    -2808    -2759    -2701    -2631    -2560    -2506    -2481 
   -2486    -2508    -2535    -2560    -2583    -2593    -2589    -2593 
   -2614    -2631    -2610    -2563    -2527    -2519    -2536    -2554 
   -2559    -2565    -2593    -2654    -2756    -2878    -2979    -3055 
   -3126    -3204    -3280    -3339    -3383    -3415    -3429    -3422 
   -3404    -3388    -3377    -3377    -3388    -3407    -3449    -3527 
   -3638    -3757    -3869    -3942    -3951    -3915    -3854    -3782 
   -3704    -3618    -3522    -3429    -3350    -3302    -3283    -3289 
   -3308    -3338    -3395    -3488    -3608    -3740    -3874    -4000 
   -4106    -4197    -4294    -4418    -4561    -4698    -4807    -4892 
   -4976    -5082    -5201    -5304    -5350    -5320    -5232    -5135 
   -5053    -4978    -4905    -4835    -4773    -4704    -4608    -4496 
   -4392    -4303    -4228    -4168    -4109    -4020    -3886    -3727 
   -3576    -3458    -3380    -3322    -3264    -3194    -3115    -3044 
   -3005    -3006    -3026    -3038    -3018    -2967    -2901    -2822 
   -2740    -2667    -2605    -2539    -2461    -2380    -2300    -2232 
   -2188    -2155    -2141    -2157    -2195    -2215    -2219    -2205 
   -2168    -2100    -2025    -1966    -1934    -1922    -1927    -1954 
   -1988    -2000    -1985    -1960    -1948    -1973    -2039    -2126 
   -2208    -2281    -2350    -2420    -2488    -2551    -2605    -2636 
   -2631    -2578    -2485    -2371    -2249    -2134    -2043    -1968 
   -1898    -1850    -1840    -1846    -1869    -1904    -1938    -1966 
   -1998    -2057    -2153    -2269    -2385    -2498    -2606    -2720 
   -2857    -3026    -3218    -3415    -3596    -3743    -3863    -3977 
   -4090    -4207    -4348    -4523    -4716    -4878    -4985    -5039 
   -5043    -4993    -4897    -4780    -4668    -4571    -4468    -4330 
   -4167    -3993    -3823    -3686    -3612    -3604    -3642    -3692 
   -3734    -3769    -3798    -3831    -3863    -3889    -3890    -3844 
   -3750    -3638    -3530    -3430    -3339    -3269    -3226    -3194 
   -3148    -3071    -2980    -2879    -2759    -2647    -2551    -2461 
   -2359    -2234    -2095    -1979    -1894    -1833    -1811    -1829 
   -1869    -1912    -1935    -1935    -1925    -1898    -1846    -1776 
   -1687    -1593    -1516    -1462    -1431    -1439    -1495    -1599 
   -1729    -1854    -1958    -2034    -2096    -2144    -2178    -2215 
   -2267    -2323    -2359    -2380    -2407    -2459    -2538    -2640 
   -2759    -2882    -3017    -3154    -3292    -3426    -3544    -3620 
   -3653    -3678    -3707    -3717    -3692    -3634    -3538    -3399 
   -3227    -3049    -2882    -2732    -2598    -2486    -2407    -2359 
   -2316    -2269    -2224    -2174    -2107    -2020    -1926    -1846 
   -1783    -1719    -1641    -1553    -1464    -1387    -1336    -1308 
   -1277    -1216    -1128    -1047     -996     -978     -992    -1017 
   -1036    -1053    -1084    -1133    -1194    -1233    -1228    -1190 
   -1161    -1163    -1198    -1250    -1314    -1395    -1475    -1545 
   -1625    -1723    -1833    -1939    -2016    -2043    -2015    -1949 
   -1865    -1787    -1725    -1672    -1624    -1586    -1564    -1561 
   -1570    -1582    -1617    -1695    -1815    -1956    -2079    -2180 
   -2265    -2343    -2412    -2477    -2548    -2628    -2712    -2792 
   -2875    -2953    -3019    -3067    -3082    -3061    -3017    -2949 
   -2868    -2790    -2716    -2643    -2577    -2506    -2420    -2324 
   -2228    -2147    -2074    -1966    -1796    -1579    -1345    -1120 
    -920     -762     -648     -561     -480     -399     -337     -310 
    -332     -380     -430     -475     -498     -472     -387     -244 
     -68       93      220      310      367      396      417      425 
     409      355      268      180      103       39       -4      -32 
     -70     -129     -193     -244     -276     -302     -333     -372 
    -427     -500     -568     -608     -603     -552     -469     -388 
    -337     -336     -375     -425     -463     -464     -437     -388 
    -348     -351     -411     -511     -621     -710     -764     -787 
    -799     -828     -876     -928     -990    -1050    -1084    -1100 
   -1136    -1210    -1305    -1389    -1443    -1463    -1459    -1445 
   -1436    -1444    -1452    -1414    -1312    -1151     -950     -746 
    -564     -400     -245      -93       60      197      307      398 
     475      553      637      693      710      723      761      811 
     849      864      876      905      947      997     1050     1080 
    1062      992      899      834      814      808      793      772 
     745      727      741      800      873      940      996     1044 
    1090     1136     1178     1190     1147     1046      895      731 
     599      506      442      403      395      406      427      471 
     538      598      616      602      565      488      376      259 
     144       20     -112     -237     -357     -487     -626     -754 
    -877    -1026    -1190    -1312    -1387    -1453    -1532    -1629 
   -1733    -1792    -1788    -1755    -1725    -1698    -1669    -1642 
   -1632    -1634    -1648    -1683    -1737    -1800    -1869    -1930 
   -1964    -1949    -1888    -1795    -1702    -1632    -1603    -1590 
   -1545    -1480    -1429    -1375    -1314    -1263    -1227    -1198 
   -1165    -1124    -1092    -1073    -1043     -986     -907     -822 
    -754     -702     -660     -642     -649     -657     -666     -688 
    -706     -702     -692     -687     -702     -735     -772     -807 
    -834     -854     -885     -929     -966     -974     -945     -877 
    -792     -722     -685     -683     -704     -731     -751     -758 
    -764     -785     -822     -851     -864     -854     -800     -707 
    -606     -535     -519     -553     -623     -723     -849     -994 
   -1156    -1323    -1478    -1602    -1669    -1675    -1640    -1583 
   -1518    -1452    -1398    -1366    -1345    -1333    -1337    -1354 
   -1366    -1383    -1410    -1435    -1451    -1441    -1394    -1317 
   -1230    -1165    -1132    -1129    -1150    -1178    -1215    -1279 
   -1381    -1506    -1637    -1755    -1845    -1900    -1921    -1923 
   -1917    -1898    -1871    -1854    -1857    -1875    -1908    -1965 
   -2039    -2120    -2207    -2289    -2355    -2390    -2382    -2338 
   -2285    -2232    -2180    -2133    -2100    -2095    -2104    -2114 
   -2134    -2182    -2262    -2362    -2471    -2563    -2625    -2666 
