Origin Time       2016/04/16 01:25:00
Lat.              32.753
Long.             130.762
Depth. (km)       12
Mag.              7.3
Station Code      HRS006
Station Lat.      34.6659
Station Long.     132.4077
Station Height(m) 371
Record Time       2016/04/16 01:25:53
Sampling Freq(Hz) 100Hz
Duration Time(s)  98
Dir.              E-W
Scale Factor      7845(gal)/8223790
Max. Acc. (gal)   3.809
Last Correction   2016/04/16 01:25:54
Memo.             
[...]
    1965     2142     2304     2421     2520     2621     2708     2744 
    2725     2641     2478     2257     2056     1964     2026     2199 
    2398     2569     2669     2685     2621     2524     2438     2389 
    2386     2407     2403     2343     2226     2074     1938     1858 
    1841     1887     2003     2162     2323     2427     2436     2355 
    2236     2144     2110     2116     2133     2134     2100     2041 
    1979     1945     1966     2062     2226     2413     2538     2535 
    2408     2199     1987     1856     1857     2010     2285     2569 
    2729     2733     2658     2563     2442     2303     2200     2200 
    2285     2396     2513     2610     2643     2596     2496     2408 
    2380     2407     2470     2546     2581     2540     2435     2296 
    2153     2070     2110     2253     2419     2551     2633     2662 
    2593     2397     2126     1841     1586     1435     1445     1613 
    1888     2185     2407     2477     2377     2169     1954     1814 
    1811     1982     2266     2505     2587     2506     2349     2192 
    2052     1960     1964     2034     2111     2178     2231     2270 
    2297     2311     2324     2355     2388     2389     2371     2358 
    2354     2350     2319     2249     2161     2095     2060     2047 
    2057     2088     2124     2146     2137     2123     2166     2267 
    2349     2331     2211     2066     1991     2027     2138     2266 
    2398     2544     2679     2764     2787     2748     2647     2527 
    2457     2474     2581     2728     2863     2975     3034     2994 
    2851     2624     2349     2087     1903     1829     1887     2081 
    2346     2581     2705     2683     2579     2497     2475     2498 
    2554     2643     2762     2844     2810     2675     2489     2297 
    2144     2064     2064     2121     2170     2157     2085     2010 
    1975     1973     1980     1982     1965     1934     1941     2015 
    2126     2226     2270     2249     2191     2138     2120     2146 
    2207     2286     2357     2407     2435     2432     2404     2377 
    2362     2359     2380     2434     2505     2582     2671     2771 
    2847     2849     2776     2674     2579     2489     2409     2388 
    2455     2565     2646     2659     2613     2531     2432     2338 
    2300     2342     2446     2565     2633     2617     2536     2428 
    2309     2193     2118     2111     2173     2274     2376     2417 
    2354     2199     2025     1904     1880     1952     2069     2188 
    2301     2416     2501     2505     2407     2231     2046     1933 
    1948     2098     2324     2501     2523     2400     2242     2126 
    2053     2010     2042     2165     2309     2390     2393     2354 
    2292     2201     2110     2074     2095     2120     2124     2124 
    2161     2239     2286     2215     2037     1852     1738     1707 
    1748     1856     2004     2149     2220     2168     2001     1807 
    1672     1658     1818     2130     2502     2820     3015     3079 
    3037     2907     2728     2563     2461     2427     2424     2407 
    2355     2243     2073     1907     1779     1682     1629     1677 
    1836     1998     2061     2050     2011     1917     1760     1636 
    1656     1809     1992     2130     2174     2111     1966     1764 
    1557     1426     1418     1521     1706     1935     2102     2126 
    2015     1807     1584     1474     1584     1898     2272     2559 
    2708     2695     2506     2191     1902     1784     1861     2052 
    2280     2516     2700     2714     2504     2161     1863     1698 
    1652     1744     2001     2334     2544     2504     2285     2060 
    1876     1688     1530     1479     1534     1660     1819     1954 
    2012     1980     1894     1815     1779     1767     1775     1850 
    1995     2130     2223     2317     2432     2525     2567     2548 
    2432     2182     1887     1715     1729     1833     1908     1926 
    1895     1786     1568     1329     1228     1332     1594     1935 
    2274     2523     2635     2620     2513     2385     2322     2373 
    2511     2617     2610     2542     2471     2374     2227     2100 
    2079     2163     2273     2338     2376     2404     2408     2380 
    2309     2184     2057     2001     2026     2085     2115     2097 
    2084     2107     2107     2034     1933     1878     1888     1946 
    2053     2204     2373     2508     2596     2694     2821     2899 
    2871     2754     2593     2466     2409     2371     2311     2278 
    2330     2436     2520     2535     2467     2311     2107     1952 
    1904     1954     2037     2081     2091     2138     2224     2272 
    2227     2137     2073     2058     2073     2081     2072     2070 
    2101     2160     2218     2226     2147     2000     1876     1849 
    1948     2178     2496     2771     2860     2717     2417     2076 
    1755     1498     1390     1497     1771     2076     2324     2517 
    2643     2601     2363     2077     1896     1841     1864     1946 
    2093     2284     2444     2505     2477     2419     2370     2361 
    2377     2388     2363     2246     2038     1852     1764     1776 
    1899     2097     2270     2349     2362     2394     2455     2481 
    2427     2346     2316     2322     2299     2239     2177     2158 
    2238     2416     2620     2731     2669     2489     2312     2219 
    2212     2254     2297     2343     2393     2384     2288     2154 
    2030     1923     1849     1844     1953     2143     2267     2241 
    2151     2130     2176     2180     2104     2053     2120     2250 
    2335     2338     2278     2166     2047     1968     1908     1829 
    1729     1638     1595     1644     1775     1921     2027     2115 
    2199     2235     2196     2137     2110     2114     2115     2093 
    2058     2053     2107     2220     2365     2509     2632     2673 
    2590     2440     2303     2205     2146     2098     2062     2065 
    2104     2130     2111     2091     2128     2214     2276     2247 
    2123     1980     1907     1937     2025     2089     2039     1844 
    1576     1358     1297     1448     1752     2046     2222     2273 
    2238     2155     2056     1964     1918     1954     2079     2254 
    2363     2331     2199     2031     1871     1763     1744     1804 
    1890     1960     2042     2166     2309     2446     2558     2621 
    2614     2516     2324     2115     1992     2020     2161     2304 
    2377     2397     2376     2301     2193     2092     2060     2142 
    2316     2498     2613     2619     2517     2373     2251     2177 
    2161     2214     2328     2455     2524     2484     2324     2097 
    1878     1729     1694     1769     1900     2030     2130     2199 
    2286     2409     2508     2560     2579     2560     2494     2367 
    2189     2034     1968     2008     2143     2312     2425     2423 
    2303     2111     1903     1710     1578     1549     1624     1750 
    1864     1934     1968     1981     2026     2157     2351     2519 
    2605     2604     2536     2440     2331     2200     2066     1969 
    1926     1949     2033     2138     2224     2236     2137     1956 
    1755     1575     1466     1462     1559     1734     1948     2130 
    2235     2266     2232     2134     1979     1784     1582     1421 
    1332     1328     1414     1559     1703     1821     1894     1926 
    1925     1898     1881     1925     2010     2074     2098     2093 
    2087     2102     2126     2137     2111     2038     1937     1898 
    1954     2014     1998     1949     1927     1908     1867     1803 
    1737     1694     1687     1717     1795     1921     2031     2077 
    2087     2102     2116     2098     2045     1980     1938     1939 
    1977     2033     2081     2114     2150     2223     2342     2490 
    2660     2849     3010     3082     3082     3057     3033     3003 
    2947     2880     2856     2870     2863     2824     2772     2708 
    2639     2598     2592     2623     2713     2821     2853     2792 
    2702     2613     2513     2385     2228     2061     1923     1852 
    1837     1813     1773     1737     1703     1698     1763     1873 
    1962     1981     1941     1918     1945     1982     2026     2104 
    2182     2178     2069     1908     1779     1744     1817     1949 
    2092     2231     2366     2466     2516     2516     2450     2338 
    2211     2061     1911     1818     1815     1892     1987     2039 
    2030     1980     1919     1868     1861     1915     2015     2137 
    2241     2296     2284     2187     2006     1795     1637     1579 
    1595     1675     1859     2161     2497     2744     2832     2794 
    2698     2614     2587     2619     2697     2830     2986     3102 
    3126     3033     2828     2555     2284     2076     1949     1890 
    1887     1949     2043     2111     2081     1939     1757     1618 
    1551     1563     1645     1776     1918     1999     1975     1865 
    1723     1610     1566     1583     1667     1807     1942     2004 
    2020     2062     2149     2263     2403     2578     2774     2921 
    2936     2820     2629     2384     2091     1806     1614     1557 
    1602     1715     1892     2104     2303     2425     2427     2334 
    2247     2300     2520     2808     3041     3160     3138     2997 
    2783     2531     2292     2143     2115     2177     2284     2382 
    2446     2457     2403     2285     2096     1852     1637     1512 
    1489     1576     1773     2043     2312     2481     2508     2430 
    2301     2195     2185     2253     2304     2282     2184     2019 
    1826     1687     1682     1844     2120     2409     2639     2767 
    2772     2636     2359     2018     1780     1759     1917     2134 
    2300     2388     2463     2559     2664     2785     2924     3068 
    3222     3375     3454     3400     3223     2980     2740     2554 
    2446     2424     2461     2485     2417     2253     2092     2037 
    2077     2149     2231     2342     2478     2610     2681     2633 
    2463     2208     1930     1706     1601     1651     1825     2011 
    2097     2070     1977     1840     1665     1513     1471     1590 
    1826     2098     2334     2471     2474     2380     2241     2097 
    1991     1923     1888     1903     1962     2023     2031     1965 
    1878     1865     1953     2130     2377     2651     2884     2986 
    2905     2691     2438     2200     2023     1948     1961     2022 
    2069     2057     1993     1926     1896     1915     1971     2045 
    2130     2214     2253     2242     2222     2246     2357     2546 
    2737     2855     2874     2772     2583     2415     2354     2378 
    2411     2435     2440     2374     2223     2058     1939     1841 
    1728     1624     1574     1587     1645     1711     1753     1771 
    1773     1777     1772     1737     1723     1800     1923     2019 
    2085     2120     2107     2049     1956     1829     1703     1636 
    1642     1702     1786     1815     1734     1566     1381     1224 
    1081      919      739      592      504      471      464      438 
     361      263      224      280      383      440      429      413 
     410      407      436      510      598      680      765      882 
    1047     1189     1220     1150     1058     1005     1017     1120 
    1308     1549     1794     1987     2084     2056     1895     1683 
    1552     1574     1745     2030     2361     2687     2970     3133 
    3149     3100     3099     3191     3360     3563     3765     3935 
    4040     4066     4045     4005     3956     3951     4043     4218 
    4409     4546     4591     4567     4540     4560     4672     4897 
    5171     5414     5605     5737     5776     5717     5598     5481 
    5420     5436     5460     5390     5169     4835     4476     4159 
    3951     3925     4099     4396     4700     4909     4976     4885 
    4635     4278     3928     3697     3626     3705     3908     4158 
    4356     4403     4232     3844     3322     2779     2312     1996 
    1868     1869     1902     1906     1840     1669     1421     1155 
     909      724      648      675      753      827      870      885 
     862      799      737      731      765      784      778      778 
     815      884      945      972      946      843      666      464 
     274       74     -148     -382     -596     -766     -869     -918 
    -936     -908     -830     -772     -801     -920    -1071    -1206 
   -1275    -1233    -1051     -765     -467     -256     -171     -156 
    -109       44      317      653      961     1183     1340     1485 
    1630     1794     2011     2290     2623     2988     3329     3595 
    3759     3804     3769     3738     3719     3634     3451     3248 
    3102     3042     3052     3106     3188     3242     3221     3150 
    3100     3075     3036     2992     2980     3011     3098     3232 
    3369     3459     3483     3416     3275     3121     3022     3022 
    3113     3231     3294     3265     3148     2937     2650     2343 
    2076     1869     1717     1602     1501     1389     1291     1267 
    1345     1505     1669     1732     1632     1383     1050      710 
     434      256      174      155      137       71      -44     -175 
    -259     -295     -363     -532     -780    -1053    -1314    -1541 
   -1701    -1773    -1744    -1615    -1439    -1281    -1173    -1129 
   -1152    -1202    -1208    -1144    -1026     -861     -661     -448 
    -225       20      279      538      788     1030     1264     1474 
    1652     1858     2169     2592     3069     3546     4002     4395 
    4660     4753     4698     4572     4452     4384     4414     4560 
    4788     5042     5262     5390     5373     5196     4918     4644 
    4442     4345     4360     4438     4475     4380     4158     3890 
    3657     3480     3385     3397     3466     3484     3392     3194 
    2937     2682     2448     2232     2072     2022     2089     2263 
    2511     2763     2976     3149     3276     3343     3368     3375 
    3364     3330     3303     3315     3355     3395     3420     3456 
    3539     3650     3724     3716     3599     3365     3082     2844 
    2698     2619     2577     2570     2627     2762     2961     3192 
    3412     3603     3793     4009     4228     4440     4641     4822 
    4982     5117     5213     5297     5389     5432     5364     5212 
    5069     4996     4994     5044     5105     5107     4997     4792 
    4534     4279     4099     4043     4102     4225     4330     4338 
    4260     4156     4088     4101     4178     4288     4393     4445 
    4411     4295     4104     3877     3647     3416     3199     3034 
    2918     2811     2714     2698     2822     3042     3252     3373 
    3365     3180     2803     2295     1792     1433     1287     1404 
    1796     2338     2813     3099     3192     3145     3007     2836 
    2702     2662     2724     2889     3118     3338     3465     3427 
    3222     2930     2600     2215     1788     1372     1051      877 
     849      945     1111     1237     1255     1175     1034      858 
     672      522      472      546      715      932     1154     1343 
    1490     1615     1745     1878     1954     1890     1656     1312 
     963      711      612      665      827     1071     1362     1609 
    1691     1524     1146      688      234     -171     -444     -526 
    -473     -344     -153       49      182      224      234      266 
     325      405      515      670      846      992     1070     1115 
    1154     1183     1236     1347     1493     1622     1688     1656 
    1517     1274      951      623      403      359      473      689 
     928     1107     1167     1086      861      560      307      198 
     265      487      808     1173     1520     1772     1887     1912 
    1962     2134     2432     2775     3068     3252     3308     3248 
    3140     3103     3241     3538     3848     4021     4002     3800 
    3450     3049     2736     2605     2647     2766     2868     2898 
    2814     2602     2336     2166     2184     2378     2691     3042 
    3348     3561     3653     3651     3647     3699     3784     3834 
    3770     3591     3368     3171     3030     2903     2713     2494 
    2380     2434     2584     2695     2695     2619     2513     2405 
    2293     2195     2137     2096     2012     1890     1798     1806 
    1952     2236     2616     3009     3336     3563     3699     3781 
    3850     3956     4162     4504     4950     5375     5659     5745 
    5632     5328     4893     4460     4136     3917     3751     3613 
    3543     3574     3634     3624     3541     3470     3503     3659 
    3852     3959     3871     3569     3168     2857     2775     2918 
    3191     3508     3839     4163     4423     4558     4563     4491 
    4436     4490     4683     5005     5422     5825     6060     6026 
    5705     5169     4563     4033     3701     3607     3689     3804 
    3802     3624     3307     2932     2594     2384     2382     2647 
    3156     3782     4371     4816     5054     5053     4843     4504 
    4151     3909     3842     3943     4116     4240     4248     4159 
    4027     3908     3854     3890     3994     4129     4274     4391 
    4428     4321     4068     3761     3500     3306     3161     3064 
    3036     3071     3118     3145     3177     3252     3355     3459 
    3565     3658     3680     3599     3440     3261     3064     2839 
    2590     2316     2011     1703     1448     1275     1165     1069 
     958      864      842      911     1077     1364     1709     1939 
    1956     1804     1583     1350     1127      928      784      739 
     819      992     1197     1397     1548     1620     1624     1610 
    1628     1732     1933     2166     2384     2590     2756     2818 
    2764     2656     2575     2556     2586     2677     2863     3142 
    3443     3669     3775     3796     3790     3804     3838     3877 
    3924     4013     4176     4395     4595     4684     4606     4356 
    3969     3523     3123     2866     2814     2976     3296     3728 
    4205     4596     4785     4733     4473     4120     3793     3561 
    3438     3415     3465     3546     3620     3650     3586     3392 
    3073     2725     2475     2382     2438     2619     2886     3175 
    3407     3530     3555     3532     3505     3461     3366     3223 
    3068     2955     2901     2879     2868     2876     2901     2913 
    2895     2879     2936     3113     3368     3622     3848     4039 
    4144     4110     3969     3807     3682     3600     3547     3501 
    3427     3314     3152     2926     2647     2343     2053     1850 
    1792     1871     2038     2242     2436     2567     2570     2436 
    2245     2085     2012     2037     2150     2308     2417     2421 
    2311     2079     1741     1362     1039      838      728      666 
     668      778      984     1201     1379     1521     1648     1753 
    1795     1750     1653     1580     1591     1699     1878     2085 
    2253     2334     2331     2276     2188     2092     2027     2020 
