Origin Time       2016/04/16 01:25:00
Lat.              32.753
Long.             130.762
Depth. (km)       12
Mag.              7.3
Station Code      HRS011
Station Lat.      34.5686
Station Long.     133.2364
Station Height(m) 28
Record Time       2016/04/16 01:26:32
Sampling Freq(Hz) 100Hz
Duration Time(s)  72
Dir.              E-W
Scale Factor      7845(gal)/8223790
Max. Acc. (gal)   3.101
Last Correction   2016/04/16 01:26:33
Memo.             
[...]
     576      618      648      689      629      557      540      514 
     540      579      592      581      581      606      549      498 
     457      332      276      282      283      330      365      378 
     383      410      395      319      344      340      240      218 
     191      143      198      346      445      445      529      610 
     572      591      616      594      616      656      658      642 
     697      737      723      799      805      718      693      670 
     616      542      525      557      530      521      503      460 
     475      476      469      445      383      342      322      360 
     352      298      360      425      472      540      552      571 
     612      661      704      749      832      824      781      783 
     707      654      662      614      525      480      490      425 
     405      464      370      271      252      140       23      -17 
     -36      -70      -44        9      -29       10       93       54 
      98      199      193      184      275      344      274      244 
     279      229      249      314      302      326      398      437 
     434      515      631      610      618      665      612      581 
     589      553      446      361      359      328      306      265 
     144       62      -22     -112     -159     -216     -241     -245 
    -203     -143     -120       -2      144      234      333      418 
     499      575      666      765      805      857      854      810 
     814      728      630      604      523      387      263      206 
     156       90       82       45       18       62       85       91 
      74       58       37        1       25       -5      -43       32 
      45       18       11       -8       -9       16       70       94 
     131      206      184      191      278      322      394      495 
     591      660      735      855      876      868      885      785 
     675      615      535      415      284      217      143       64 
      13      -87     -175     -266     -346     -355     -383     -373 
    -341     -352     -325     -287     -225     -148      -70       36 
      86      156      249      246      246      266      282      286 
     265      272      222      164      148       59      -36     -108 
    -187     -243     -266     -211     -198     -240     -211     -198 
    -163      -52       43      114      197      325      386      402 
     530      615      635      676      684      708      767      855 
     884      835      823      728      602      577      522      469 
     513      565      544      506      566      569      537      618 
     642      622      637      614      548      461      421      379 
     330      370      355      298      310      294      243      210 
     237      284      336      430      461      514      648      720 
     822      950     1015     1055     1059     1039      987      967 
     992      953      954      978      915      866      855      864 
     869      892      980     1016     1031     1019      939      920 
     895      801      719      645      576      480      442      425 
     325      321      395      437      522      615      654      654 
     706      745      670      711      797      757      761      796 
     773      747      773      795      767      849      926      868 
     885      886      764      695      676      608      526      553 
     557      463      495      532      459      454      471      421 
     337      314      376      429      506      565      571      604 
     608      612      633      607      568      510      472      430 
     383      423      450      456      471      454      503      564 
     579      577      564      579      557      545      585      572 
     577      599      603      630      579      467      333      207 
      78     -124     -238     -266     -367     -434     -457     -461 
    -392     -261     -136      -70       31      129      160      259 
     355      390      445      514      602      645      677      739 
     733      734      741      699      684      668      642      616 
     612      641      645      711      793      805      850      912 
     977     1028     1026     1020      981      931      864      754 
     697      642      571      523      442      394      364      310 
     259      203      162       99      105      186      172      218 
     370      449      492      583      704      773      870     1038 
    1074     1104     1205     1185     1144     1169     1192     1204 
    1264     1334     1262     1196     1202     1119     1081     1104 
    1057     1017     1048     1098     1055     1008     1017      934 
     873      880      818      772      792      783      697      676 
     707      619      579      611      504      398      380      356 
     276      240      291      272      272      318      248      209 
     241      209      144      133      162      129      153      245 
     228      238      278      225      210      212      183      176 
     229      284      261      291      355      359      415      468 
     486      553      633      662      633      641      602      441 
     375      324      197      147      105       32      -21      -68 
    -156     -255     -251     -263     -321     -279     -252     -248 
    -197     -152     -105      -23      108      167      180      287 
     324      315      391      392      317      278      271      195 
     114      156      118       25       56       36      -47      -58 
      -5       11        1       93      159      168      266      334 
     379      456      502      526      530      569      607      599 
     653      681      670      708      750      784      772      783 
     858      920      976      963      924      934      912      907 
     873      789      731      642      549      479      427      409 
     386      415      437      437      513      568      596      621 
     588      556      522      506      444      326      283      194 
      70       41       16       -1       35       94      122      153 
     274      348      413      549      598      650      781      876 
     912      895      877      800      672      634      591      530 
     526      508      442      351      307      257      156       94 
     -25     -180     -298     -430     -515     -594     -657     -626 
    -579     -525     -463     -369     -255     -221     -178     -117 
     -90      -32       32       79       97      133      186      139 
     124      144       55      -13      -32      -78     -118      -86 
      14       86      211      370      418      495      589      579 
     557      579      594      549      561      583      479      430 
     429      359      338      360      378      409      469      473 
     369      395      463      378      400      537      575      585 
     689      788      788      874     1008     1016     1065     1109 
    1039     1023     1069     1055      953      916      916      785 
     704      699      615      553      546      537      535      604 
     677      665      692      714      630      573      525      457 
     383      294      251      222      205      166       74       43 
       4      -74     -110     -162     -232     -292     -287     -234 
    -178      -22      129      246      436      576      679      832 
     969     1032     1026     1020      982      912      876      796 
     727      693      606      548      523      475      405      341 
     322      253      225      315      336      360      460      533 
     615      751      895      935      950     1008      969      908 
     903      877      849      796      723      581      383      240 
      58     -126     -240     -352     -425     -448     -409     -372 
    -392     -340     -245     -155      -37       72      205      317 
     432      561      646      787      916      932      913      846 
     760      645      530      460      333      275      305      271 
     261      305      363      432      522      660      741      820 
     940      996     1065     1155     1206     1228     1260     1355 
    1385     1386     1457     1433     1354     1290     1206     1163 
    1173     1205     1189     1167     1208     1192     1189     1274 
    1320     1339     1364     1382     1329     1252     1255     1179 
    1046      996      936      870      831      814      805      785 
     788      766      762      811      803      823      877      916 
     992     1047     1081     1113     1147     1205     1221     1259 
    1298     1258     1235     1200     1116     1019      915      797 
     629      523      468      380      396      430      407      467 
     553      596      623      687      754      780      882      981 
    1008     1085     1154     1174     1190     1179     1113     1026 
    1028      967      793      722      630      425      284      201 
      60     -102     -139     -163     -249     -201     -159     -230 
    -241     -252     -338     -403     -395     -475     -648     -684 
    -730     -849     -800     -695     -675     -658     -598     -572 
    -588     -464     -334     -305     -160        0       68      186 
     333      434      502      627      751      807      907      949 
     903      899      882      835      757      680      631      552 
     492      427      367      390      373      318      306      322 
     363      409      522      665      785      923     1048     1209 
    1354     1387     1440     1498     1506     1516     1544     1602 
    1615     1630     1658     1621     1606     1575     1494     1433 
    1351     1275     1223     1177     1116      977      850      720 
     550      464      411      336      271      220      140      -22 
    -163     -313     -548     -715     -835     -932     -951     -911 
    -804     -719     -633     -483     -370     -241      -91       22 
     163      287      382      434      451      484      463      400 
     342      266      156      -10     -129     -237     -433     -604 
    -765     -987    -1229    -1424    -1551    -1683    -1729    -1692 
   -1709    -1675    -1590    -1552    -1490    -1364    -1220    -1105 
    -927     -702     -565     -402     -206      -87       25      122 
     164      178      224      246      147       82       49     -105 
    -198     -202     -228     -207      -82       89      224      425 
     665      784      905     1042     1086     1100     1111     1092 
    1007      939      912      808      747      760      737      741 
     776      807      838      911     1026     1101     1192     1290 
    1318     1368     1426     1470     1522     1566     1630     1688 
    1765     1845     1833     1823     1795     1709     1644     1567 
    1472     1363     1281     1235     1142     1086     1053      986 
     982      989      990     1038     1121     1236     1324     1409 
    1472     1497     1588     1667     1715     1800     1845     1809 
    1696     1609     1549     1443     1404     1370     1287     1266 
    1246     1224     1251     1300     1362     1447     1586     1664 
    1675     1752     1792     1759     1726     1665     1539     1374 
    1259     1100      869      745      633      499      475      499 
     532      610      781      943     1028     1177     1323     1385 
    1470     1549     1606     1655     1714     1738     1692     1721 
    1773     1795     1887     1975     2046     2124     2161     2146 
    2027     1900     1765     1545     1360     1188      992      828 
     675      535      367      201       79      -40      -83      -43 
      64      246      427      621      766      864     1004     1111 
    1181     1236     1259     1277     1277     1287     1289     1286 
    1343     1386     1440     1522     1549     1557     1586     1637 
    1651     1610     1609     1557     1424     1301     1154      993 
     857      756      664      579      550      510      492      579 
     646      726      861      994     1140     1294     1482     1660 
    1779     1876     1914     1939     1965     1953     1969     1973 
    1962     1985     2007     1996     1907     1825     1763     1618 
    1480     1337     1154      985      780      557      352      182 
      35     -147     -268     -356     -493     -592     -687     -822 
    -954    -1069    -1205    -1410    -1584    -1749    -1953    -2049 
   -2091    -2128    -2060    -1917    -1772    -1615    -1363    -1112 
    -955     -746     -558     -496     -450     -423     -450     -526 
    -598     -711     -903    -1023    -1158    -1364    -1464    -1521 
   -1601    -1630    -1574    -1499    -1480    -1372    -1246    -1244 
   -1196    -1127    -1119    -1078    -1011     -965     -958     -903 
    -815     -756     -598     -383     -201        8      210      415 
     611      796      985     1117     1228     1300     1313     1359 
    1359     1298     1244     1167     1084     1028     1059     1147 
    1262     1449     1637     1845     2092     2249     2319     2332 
    2284     2174     2018     1910     1798     1645     1514     1385 
    1282     1197     1136     1147     1193     1313     1507     1769 
    2123     2458     2792     3146     3414     3593     3690     3719 
    3665     3528     3384     3179     2948     2763     2546     2301 
    2058     1850     1645     1405     1230     1077      950      949 
     976     1030     1144     1278     1401     1501     1632     1733 
    1772     1840     1850     1806     1761     1682     1566     1397 
    1237     1047      793      639      544      440      395      410 
     461      480      519      584      572      600      676      735 
     837      981     1161     1340     1533     1687     1710     1719 
    1674     1509     1367     1227     1071      900      711      537 
     317      136       13     -149     -238     -270     -315     -324 
    -271     -190     -157      -75       93      210      373      615 
     845     1105     1401     1705     1935     2095     2232     2255 
    2218     2162     2014     1821     1605     1339     1020      723 
     492      241       23     -124     -245     -259     -184      -37 
     194      454      751     1039     1316     1570     1729     1845 
    1906     1903     1865     1771     1680     1570     1424     1275 
    1074      882      702      491      311      109     -102     -275 
    -442     -600     -745     -832     -895     -927     -838     -718 
    -566     -344     -137       58      207      324      429      471 
     525      550      535      565      569      568      589      614 
     652      648      650      654      615      612      579      496 
     449      422      391      376      432      479      463      506 
     533      486      469      469      432      368      379      425 
     419      526      711      842     1011     1209     1356     1468 
    1625     1794     1878     1989     2104     2128     2144     2115 
    2015     1883     1710     1509     1254     1011      777      490 
     236       -5     -261     -488     -706     -888    -1038    -1131 
   -1166    -1193    -1154    -1119    -1098     -972     -791     -584 
    -367     -180      -10       85      140      190      225      271 
     288      333      392      419      495      589      692      816 
     919     1026     1109     1190     1282     1305     1334     1347 
    1263     1154     1047      915      722      514      303       32 
    -187     -346     -469     -479     -427     -368     -325     -289 
    -194     -124      -45       97      224      349      461      533 
     571      564      550      473      360      287      193       91 
       4      -37      -35      -39       32      141      222      342 
     471      591      669      711      761      745      735      723 
     635      584      515      394      321      314      338      325 
     351      375      284      198       79     -112     -280     -463 
    -672     -877    -1026    -1158    -1339    -1405    -1397    -1439 
   -1404    -1302    -1243    -1219    -1155    -1092    -1120    -1080 
    -977     -967     -936     -877     -895     -939     -919     -838 
    -776     -615     -388     -259     -103       52       94      129 
     190      214      194      216      228      141      131      172 
     141      144      149      117       49      -59     -184     -387 
    -602     -791    -1000    -1165    -1312    -1444    -1543    -1648 
   -1707    -1738    -1737    -1675    -1584    -1421    -1240    -1073 
    -900     -807     -772     -781     -857     -969    -1142    -1318 
   -1498    -1717    -1930    -2165    -2366    -2519    -2654    -2709 
   -2713    -2664    -2555    -2407    -2151    -1863    -1590    -1305 
   -1060     -845     -646     -491     -379     -280     -114       55 
     246      538      793      982     1178     1371     1525     1628 
    1752     1826     1825     1890     1923     1869     1810     1729 
    1599     1410     1246     1096      900      745      576      365 
     186       -5     -211     -396     -513     -615     -757     -819 
    -868     -946     -950     -936     -928     -889     -808     -710 
    -668     -585     -456     -361     -255     -157      -99      -90 
    -103     -129     -216     -233     -180     -157      -47       99 
     201      286      346      405      409      402      429      395 
     376      394      398      438      496      556      583      602 
     646      621      579      564      517      472      399      317 
     206       32      -94     -214     -348     -438     -530     -626 
    -720     -772     -805     -881     -896     -877     -869     -830 
    -834     -870     -913     -970    -1031    -1111    -1113    -1070 
   -1069    -1047    -1013     -959     -886     -814     -714     -634 
    -544     -451     -399     -282     -121       54      263      459 
     658      805      899     1013     1116     1216     1285     1308 
    1308     1225     1121      993      805      615      423      268 
     153       90       98      106      189      310      363      484 
     669      814      919     1012     1100     1117     1148     1205 
    1161     1109     1036      862      687      540      386      190 
      27     -116     -369     -599     -773    -1007    -1233    -1445 
   -1649    -1811    -1891    -1877    -1857    -1776    -1611    -1491 
   -1360    -1185    -1044     -943     -818     -650     -540     -448 
    -336     -337     -400     -479     -629     -815     -982    -1119 
   -1291    -1471    -1601    -1771    -1933    -2068    -2230    -2351 
   -2425    -2463    -2493    -2513    -2467    -2409    -2324    -2200 
   -2089    -1961    -1848    -1763    -1695    -1676    -1625    -1520 
   -1366    -1147     -916     -689     -518     -398     -286     -224 
    -148      -36       71      205      346      529      691      770 
     819      760      625      488      294       51     -214     -445 
