Origin Time       2016/04/16 01:25:00
Lat.              32.753
Long.             130.762
Depth. (km)       12
Mag.              7.3
Station Code      HRS009
Station Lat.      34.4926
Station Long.     132.2794
Station Height(m) 219
Record Time       2016/04/16 01:25:47
Sampling Freq(Hz) 100Hz
Duration Time(s)  116
Dir.              E-W
Scale Factor      7845(gal)/8223790
Max. Acc. (gal)   10.330
Last Correction   2016/04/16 01:25:47
Memo.             
[...]
  -11349   -11191   -10968   -10714   -10497   -10380   -10392   -10507 
  -10638   -10693   -10636   -10474   -10243   -10035    -9972   -10115 
  -10432   -10868   -11360   -11835   -12252   -12613   -12888   -12997 
  -12891   -12594   -12131   -11507   -10712    -9795    -8961    -8444 
   -8352    -8635    -9103    -9499    -9701    -9757    -9771    -9783 
   -9790    -9821    -9913   -10096   -10354   -10646   -10974   -11327 
  -11630   -11804   -11847   -11790   -11673   -11516   -11310   -11034 
  -10674   -10250    -9857    -9591    -9499    -9578    -9757    -9956 
  -10126   -10250   -10366   -10557   -10912   -11466   -12168   -12885 
  -13456   -13749   -13710   -13378   -12839   -12182   -11530   -11016 
  -10683   -10508   -10461   -10513   -10629   -10771   -10893   -10960 
  -10952   -10894   -10886   -11032   -11331   -11669   -11897   -11919 
  -11723   -11371   -10974   -10638   -10372   -10100    -9755    -9351 
   -8972    -8710    -8652    -8868    -9358   -10017   -10736   -11512 
  -12343   -13115   -13660   -13848   -13631   -13090   -12383   -11665 
  -11036   -10540   -10154    -9846    -9617    -9460    -9352    -9301 
   -9342    -9530    -9915   -10458   -11017   -11458   -11726   -11827 
  -11797   -11661   -11453   -11242   -11074   -10939   -10795   -10631 
  -10474   -10372   -10358   -10455   -10660   -10922   -11157   -11306 
  -11334   -11256   -11128   -10984   -10820   -10632   -10438   -10273 
  -10160   -10145   -10268   -10481   -10683   -10821   -10908   -10982 
  -11075   -11183   -11271   -11286   -11191   -10989   -10708   -10396 
  -10126    -9988   -10066   -10357   -10740   -11075   -11299   -11403 
  -11372   -11237   -11039   -10790   -10537   -10347   -10177    -9918 
   -9540    -9104    -8726    -8564    -8749    -9262    -9921   -10494 
  -10851   -11010   -11098   -11221   -11384   -11554   -11700   -11786 
  -11788   -11712   -11570   -11334   -10974   -10523   -10085    -9769 
   -9593    -9470    -9344    -9252    -9255    -9373    -9593    -9913 
  -10347   -10874   -11414   -11897   -12299   -12596   -12735   -12652 
  -12299   -11719   -11048   -10422    -9929    -9606    -9431    -9362 
   -9385    -9522    -9810   -10246   -10762   -11213   -11466   -11497 
  -11371   -11192   -11062   -11037   -11086   -11136   -11156   -11190 
  -11264   -11335   -11296   -11062   -10679   -10288   -10021    -9938 
  -10046   -10309   -10655   -10968   -11144   -11140   -11001   -10827 
  -10681   -10534   -10315   -10046    -9823    -9725    -9798   -10042 
  -10396   -10795   -11223   -11638   -11950   -12082   -11998   -11715 
  -11299   -10854   -10486   -10235   -10049    -9852    -9637    -9454 
   -9379    -9478    -9774   -10207   -10670   -11053   -11286   -11341 
  -11214   -10902   -10476   -10085    -9830    -9728    -9771    -9929 
  -10131   -10332   -10546   -10825   -11209   -11701   -12247   -12731 
  -13058   -13215   -13247   -13154   -12880   -12399   -11753   -11016 
  -10293    -9690    -9277    -9077    -9070    -9217    -9478    -9776 
   -9995   -10049    -9929    -9701    -9493    -9437    -9566    -9796 
  -10029   -10234   -10462   -10739   -11037   -11311   -11496   -11541 
  -11483   -11438   -11488   -11608   -11681   -11595   -11323   -10948 
  -10574   -10251    -9992    -9792    -9655    -9603    -9641    -9755 
   -9967   -10299   -10698   -11048   -11261   -11318   -11253   -11133 
  -11010   -10863   -10629   -10315    -9976    -9652    -9402    -9321 
   -9466    -9821   -10318   -10897   -11519   -12104   -12511   -12654 
  -12555   -12306   -12016   -11757   -11530   -11271   -10930   -10542 
  -10181    -9892    -9714    -9722    -9942   -10282   -10613   -10848 
  -10955   -10945   -10848   -10675   -10412   -10079    -9791    -9684 
   -9810   -10112   -10514   -10943   -11307   -11589   -11862   -12183 
  -12540   -12864   -13022   -12865   -12348   -11543   -10561    -9536 
   -8626    -7905    -7372    -7059    -7041    -7366    -8037    -9035 
  -10273   -11538   -12602   -13340   -13695   -13636   -13177   -12401 
  -11435   -10399    -9363    -8413    -7689    -7317    -7307    -7635 
   -8251    -9053    -9933   -10813   -11649   -12388   -12934   -13178 
  -13043   -12550   -11862   -11173   -10577   -10087    -9690    -9393 
   -9250    -9283    -9427    -9601    -9774    -9945   -10150   -10416 
  -10720   -11010   -11226   -11329   -11364   -11416   -11470   -11404 
  -11142   -10686   -10057    -9359    -8769    -8407    -8275    -8336 
   -8596    -9112    -9890   -10817   -11722   -12429   -12831   -12984 
  -13062   -13128   -13159   -13186   -13169   -12943   -12455   -11780 
  -10982   -10116    -9324    -8735    -8340    -8037    -7854    -7950 
   -8403    -9117    -9918   -10659   -11259   -11681   -11912   -11989 
  -11985   -11928   -11850   -11786   -11705   -11557   -11350   -11113 
  -10847   -10540   -10219    -9957    -9844    -9940   -10230   -10638 
  -11055   -11356   -11475   -11469   -11443   -11465   -11596   -11853 
  -12172   -12483   -12741   -12843   -12660   -12198   -11641   -11121 
  -10662   -10323   -10156   -10057    -9913    -9729    -9535    -9331 
   -9173    -9161    -9298    -9539    -9875   -10322   -10879   -11514 
  -12122   -12626   -13014   -13275   -13432   -13544   -13574   -13343 
  -12796   -12091   -11416   -10889   -10562   -10408   -10378   -10447 
  -10594   -10771   -10889   -10878   -10795   -10712   -10580   -10409 
  -10326   -10362   -10412   -10455   -10584   -10802   -11016   -11226 
  -11466   -11646   -11704   -11706   -11678   -11515   -11136   -10592 
   -9991    -9494    -9246    -9267    -9478    -9711    -9757    -9602 
   -9444    -9425    -9533    -9721    -9968   -10270   -10651   -11125 
  -11622   -12006   -12208   -12252   -12212   -12168   -12183   -12247 
  -12291   -12241   -12075   -11834   -11628   -11550   -11506   -11377 
  -11256   -11164   -10897   -10370    -9786    -9343    -9127    -9288 
   -9926   -10897   -11946   -12864   -13423   -13466   -13014   -12166 
  -11117   -10195    -9651    -9497    -9590    -9810   -10116   -10426 
  -10648   -10758   -10766   -10714   -10628   -10486   -10316   -10199 
  -10212   -10423   -10844   -11346   -11732   -11902   -11844   -11584 
  -11225   -10917   -10692   -10485   -10255   -10000    -9771    -9668 
   -9744    -9967   -10268   -10585   -10897   -11221   -11510   -11649 
  -11626   -11547   -11496   -11462   -11422   -11352   -11207   -11057 
  -11084   -11259   -11310   -11118   -10833   -10588   -10422   -10450 
  -10763   -11230   -11654   -11954   -12083   -11985   -11701   -11365 
  -11065   -10829   -10670   -10523   -10332   -10227   -10404   -10872 
  -11410   -11757   -11766   -11422   -10881   -10362    -9971    -9710 
   -9576    -9518    -9475    -9490    -9644    -9950   -10399   -10945 
  -11488   -11971   -12366   -12587   -12555   -12271   -11866   -11496 
  -11229   -11036   -10859   -10712   -10706   -10871   -11080   -11213 
  -11211   -11034   -10725   -10390   -10088    -9845    -9714    -9767 
  -10019   -10366   -10621   -10719   -10731   -10689   -10596   -10493 
  -10407   -10334   -10300   -10382   -10578   -10752   -10770   -10624 
  -10415   -10249   -10174   -10212   -10341   -10447   -10431   -10351 
  -10338   -10417   -10543   -10724   -11028   -11448   -11871   -12206 
  -12403   -12393   -12152   -11709   -11074   -10314    -9586    -9097 
   -8982    -9189    -9562    -9971   -10292   -10462   -10565   -10687 
  -10817   -10947   -11145   -11427   -11769   -12152   -12496   -12704 
  -12779   -12762   -12594   -12243   -11780   -11242   -10602    -9894 
   -9254    -8816    -8619    -8660    -8928    -9366    -9873   -10347 
  -10697   -10914   -11097   -11368   -11767   -12241   -12712   -13078 
  -13185   -12982   -12613   -12216   -11800   -11369   -10959   -10559 
  -10131    -9644    -9132    -8716    -8507    -8563    -8939    -9661 
  -10627   -11618   -12448   -13041   -13366   -13416   -13240   -12887 
  -12382   -11850   -11477   -11330   -11338   -11408   -11442   -11372 
  -11229   -11133   -11210   -11493   -11908   -12341   -12696   -12852 
  -12718   -12367   -11935   -11475   -11039   -10658   -10274    -9844 
   -9370    -8881    -8414    -8032    -7799    -7717    -7743    -7898 
   -8256    -8860    -9698   -10693   -11700   -12567   -13181   -13487 
  -13500   -13279   -12908   -12468   -11986   -11455   -10957   -10571 
  -10287   -10088   -10035   -10173   -10458   -10779   -11064   -11294 
  -11433   -11458   -11439   -11410   -11263   -10980   -10702   -10501 
  -10426   -10590   -10993   -11487   -11946   -12279   -12445   -12522 
  -12583   -12555   -12328   -11863   -11181   -10388    -9637    -9046 
   -8684    -8565    -8634    -8802    -8969    -9112    -9293    -9548 
   -9856   -10169   -10444   -10686   -10922   -11148   -11322   -11408 
  -11362   -11152   -10793   -10316    -9765    -9221    -8775    -8494 
   -8418    -8525    -8780    -9198    -9783   -10443   -11076   -11574 
  -11789   -11676   -11361   -10984   -10598   -10274   -10102   -10052 
  -10084   -10269   -10658   -11209   -11854   -12528   -13093   -13365 
  -13259   -12849   -12268   -11635   -11013   -10436    -9917    -9402 
   -8877    -8513    -8523    -8931    -9574   -10277   -10953   -11518 
  -11869   -11974   -11873   -11600   -11218   -10858   -10615   -10463 
  -10365   -10346   -10355   -10268   -10110   -10031   -10118   -10416 
  -10912   -11480   -12036   -12523   -12793   -12753   -12438   -11873 
  -11134   -10449    -9923    -9414    -8877    -8463    -8210    -8066 
   -8073    -8221    -8394    -8553    -8758    -9054    -9454    -9944 
  -10431   -10835   -11165   -11445   -11669   -11848   -12009   -12163 
  -12285   -12359   -12382   -12313   -12154   -11980   -11834   -11692 
  -11515   -11265   -10998   -10818   -10689   -10543   -10488   -10608 
  -10806   -10994   -11130   -11137   -11045   -11022   -11133   -11296 
  -11433   -11446   -11242   -10831   -10289    -9694    -9120    -8626 
   -8294    -8214    -8430    -8946    -9734   -10678   -11587   -12276 
  -12653   -12735   -12641   -12499   -12402   -12418   -12505   -12492 
  -12221   -11668   -10926   -10164    -9493    -8968    -8625    -8451 
   -8371    -8356    -8490    -8854    -9447   -10208   -11068   -11975 
  -12869   -13662   -14324   -14870   -15260   -15418   -15250   -14686 
  -13773   -12711   -11716   -10914   -10299    -9755    -9169    -8530 
   -7917    -7411    -7040    -6814    -6774    -6955    -7339    -7886 
   -8567    -9327   -10055   -10683   -11173   -11521   -11809   -12112 
  -12415   -12637   -12660   -12411   -11950   -11379   -10747   -10099 
   -9524    -9073    -8712    -8441    -8336    -8441    -8770    -9270 
   -9788   -10206   -10508   -10736   -10957   -11221   -11492   -11676 
  -11705   -11583   -11367   -11211   -11254   -11476   -11808   -12224 
  -12613   -12793   -12688   -12339   -11844   -11356   -10975   -10717 
  -10586   -10551   -10482   -10268    -9971    -9760    -9745    -9987 
  -10497   -11165   -11812   -12287   -12460   -12235   -11653   -10948 
  -10411   -10177   -10184   -10329   -10600   -10976   -11415   -11927 
  -12534   -13197   -13848   -14492   -15142   -15714   -16078   -16183 
  -16015   -15583   -14912   -14071   -13157   -12195   -11244   -10477 
  -10012    -9837    -9883   -10022   -10147   -10233   -10299   -10423 
  -10698   -11092   -11457   -11695   -11766   -11637   -11367   -11110 
  -10971   -10995   -11240   -11723   -12363   -12995   -13441   -13620 
  -13586   -13474   -13339   -13159   -12930   -12618   -12093   -11259 
  -10180    -9009    -7881    -6878    -6097    -5668    -5640    -5950 
   -6502    -7165    -7840    -8509    -9142    -9664   -10019   -10187 
  -10189   -10088    -9949    -9748    -9393    -8845    -8166    -7464 
   -6844    -6413    -6249    -6290    -6389    -6485    -6606    -6790 
   -7037    -7291    -7441    -7422    -7275    -7059    -6763    -6343 
   -5791    -5152    -4491    -3880    -3437    -3267    -3397    -3774 
   -4298    -4897    -5560    -6293    -7098    -7974    -8892    -9787 
  -10585   -11210   -11597   -11718   -11612   -11383   -11111   -10848 
  -10673   -10639   -10701   -10782   -10835   -10813   -10693   -10547 
  -10531   -10786   -11348   -12118   -12954   -13707   -14197   -14314 
  -14090   -13630   -13011   -12301   -11596   -10994   -10547   -10272 
  -10169   -10207   -10342   -10558   -10875   -11317   -11896   -12619 
  -13513   -14569   -15677   -16672   -17428   -17890   -18073   -18053 
  -17880   -17575   -17103   -16368   -15350   -14184   -13027   -11988 
  -11161   -10611   -10312   -10195   -10234   -10465   -10918   -11550 
  -12208   -12702   -12919   -12876   -12708   -12565   -12486   -12448 
  -12406   -12280   -11993   -11561   -11133   -10883   -10876   -11084 
  -11468   -11963   -12484   -12954   -13339   -13594   -13672   -13637 
  -13624   -13705   -13822   -13867   -13784   -13617   -13425   -13220 
  -13035   -12961   -13027   -13231   -13614   -14183   -14806   -15309 
  -15549   -15454   -15020   -14238   -13109   -11695   -10120    -8575 
   -7234    -6203    -5562    -5393    -5725    -6497    -7564    -8731 
   -9845   -10829   -11676   -12376   -12901   -13208   -13250   -12999 
  -12495   -11817   -11051   -10319    -9733    -9316    -9057    -8950 
   -8957    -9016    -9086    -9182    -9337    -9547    -9787   -10017 
  -10147   -10145   -10107   -10156   -10380   -10897   -11774   -12951 
  -14315   -15757   -17202   -18613   -19924   -20979   -21582   -21586 
  -20915   -19596   -17814   -15809   -13757   -11819   -10142    -8787 
   -7793    -7223    -7094    -7372    -7992    -8866    -9891   -10955 
  -11973   -12912   -13724   -14287   -14509   -14386   -13963   -13284 
  -12447   -11601   -10854   -10187    -9562    -8945    -8226    -7338 
   -6413    -5648    -5169    -5038    -5240    -5707    -6384    -7230 
   -8185    -9215   -10368   -11677   -13101   -14532   -15777   -16578 
  -16744   -16222   -15057   -13360   -11329    -9134    -6901    -4781 
   -2922    -1464     -576     -403     -976    -2138    -3604    -5139 
   -6631    -8017    -9273   -10428   -11458   -12231   -12665   -12768 
  -12579   -12179   -11674   -11160   -10689   -10245    -9787    -9281 
   -8753    -8279    -7881    -7527    -7179    -6781    -6301    -5749 
   -5101    -4348    -3597    -3057    -2928    -3325    -4245    -5583 
   -7103    -8540    -9725   -10569   -11076   -11349   -11461   -11477 
  -11507   -11639   -11836   -11992   -11994   -11705   -11021   -10025 
   -8950    -8044    -7530    -7577    -8197    -9217   -10419   -11551 
  -12352   -12687   -12610   -12268   -11805   -11325   -10856   -10378 
   -9860    -9322    -8858    -8563    -8487    -8627    -8910    -9275 
   -9699   -10160   -10665   -11199   -11692   -12074   -12326   -12436 
  -12420   -12321   -12132   -11785   -11225   -10503    -9753    -9115 
   -8661    -8401    -8328    -8461    -8789    -9236    -9694   -10017 
  -10087    -9931    -9705    -9539    -9485    -9572    -9822   -10227 
  -10783   -11504   -12334   -13101   -13647   -13892   -13763   -13215 
  -12353   -11377   -10403    -9483    -8658    -7969    -7508    -7344 
   -7423    -7688    -8106    -8625    -9177    -9703   -10153   -10551 
  -10970   -11433   -11920   -12398   -12826   -13142   -13290   -13275 
  -13126   -12868   -12536   -12143   -11680   -11148   -10570    -9945 
   -9312    -8789    -8464    -8336    -8363    -8510    -8784    -9217 
   -9792   -10404   -10920   -11246   -11376   -11333   -11133   -10800 
  -10404   -10055    -9817    -9703    -9729    -9915   -10223   -10524 
  -10702   -10773   -10806   -10847   -10963   -11254   -11789   -12580 
  -13554   -14546   -15357   -15761   -15595   -14851   -13631   -12152 
  -10678    -9413    -8515    -8071    -8078    -8492    -9136    -9722 
  -10120   -10471   -10966   -11647   -12469   -13316   -14008   -14453 
  -14671   -14604   -14131   -13197   -11853   -10282    -8741    -7427 
   -6440    -5788    -5454    -5462    -5788    -6303    -6870    -7458 
   -8125    -8918    -9795   -10659   -11406   -11940   -12224   -12267 
  -12052   -11587   -11025   -10596   -10442   -10627   -11186   -12109 
  -13312   -14675   -16054   -17271   -18130   -18567   -18686   -18611 
  -18445   -18237   -17863   -17072   -15715   -13869   -11778    -9698 
   -7881    -6547    -5783    -5552    -5803    -6493    -7565    -8914 
  -10395   -11863   -13142   -14060   -14543   -14605   -14242   -13452 
  -12332   -11059    -9818    -8761    -7958    -7381    -6963    -6650 
   -6370    -6107    -6026    -6380    -7258    -8540   -10041   -11561 
  -12864   -13801   -14385   -14669   -14681   -14503   -14247   -13983 
  -13705   -13358   -12866   -12182   -11296   -10237    -9101    -8014 
   -7045    -6234    -5582    -4996    -4380    -3673    -2820    -1934 
   -1317    -1200    -1586    -2317    -3145    -3834    -4353    -4852 
   -5499    -6380    -7479    -8688    -9895   -11016   -11942   -12544 
  -12748   -12534   -11908   -10910    -9659    -8363    -7233    -6386 
   -5853    -5551    -5313    -5027    -4734    -4537    -4502    -4668 
   -5067    -5701    -6513    -7423    -8336    -9184    -9938   -10554 
  -10998   -11295   -11468   -11510   -11415   -11194   -10871   -10540 
  -10339   -10339   -10514   -10773   -10994   -11056   -10836   -10261 
   -9377    -8316    -7196    -6072    -4961    -3899    -2947    -2163 
   -1595    -1270    -1183    -1331    -1755    -2497    -3551    -4884 
   -6420    -8078    -9761   -11367   -12779   -13839   -14403   -14395 
  -13833   -12868   -11751   -10717    -9919    -9375    -9003    -8748 
   -8575    -8428    -8248    -7944    -7441    -6782    -6126    -5692 
   -5655    -6061    -6835    -7788    -8703    -9452   -10011   -10399 
  -10673   -10887   -11036   -11076   -11002   -10810   -10504   -10161 
   -9907    -9868   -10123   -10646   -11335   -12050   -12672   -13126 
  -13347   -13314   -13034   -12532   -11890   -11221   -10609   -10084 
   -9645    -9332    -9147    -9049    -9004    -9009    -9061    -9142 
   -9270    -9477    -9733    -9999   -10189   -10200    -9992    -9563 
   -8958    -8302    -7681    -7144    -6754    -6574    -6637    -6929 
   -7430    -8102    -8876    -9737   -10670   -11591   -12414   -13054 
  -13412   -13451   -13261   -12962   -12631   -12367   -12297   -12444 
  -12742   -13165   -13691   -14250   -14719   -14924   -14720   -14080 
  -13108   -11983   -10881    -9887    -9034    -8324    -7730    -7227 
   -6833    -6629    -6723    -7159    -7908    -8911   -10085   -11330 
  -12503   -13467   -14154   -14520   -14553   -14288   -13763   -13009 
  -12060   -11025   -10064    -9296    -8746    -8398    -8228    -8162 
   -8113    -8094    -8158    -8313    -8583    -9013    -9591   -10235 
  -10875   -11526   -12205   -12845   -13367   -13752   -14006   -14099 
  -14013   -13757   -13359   -12884   -12378   -11826   -11230   -10625 
  -10053    -9621    -9497    -9791   -10473   -11415   -12426   -13316 
  -13981   -14372   -14457   -14231   -13694   -12893   -11947   -10978 
  -10099    -9398    -8887    -8486    -8094    -7707    -7406    -7295 
   -7491    -8047    -8892    -9886   -10871   -11705   -12297   -12613 
  -12680   -12607   -12495   -12386   -12326   -12379   -12561   -12803 
