Origin Time       2016/04/16 01:25:00
Lat.              32.753
Long.             130.762
Depth. (km)       12
Mag.              7.3
Station Code      HRS012
Station Lat.      34.4276
Station Long.     132.7422
Station Height(m) 215
Record Time       2016/04/16 01:25:50
Sampling Freq(Hz) 100Hz
Duration Time(s)  109
Dir.              E-W
Scale Factor      7845(gal)/8223790
Max. Acc. (gal)   8.118
Last Correction   2016/04/16 01:25:50
Memo.             
[...]
    3507     3570     3608     3580     3508     3470     3550     3757 
    4017     4291     4596     4936     5262     5514     5694     5838 
    5958     6037     6048     5918     5579     5086     4594     4183 
    3825     3532     3350     3250     3137     2949     2740     2623 
    2648     2817     3119     3541     4010     4417     4710     4911 
    5038     5150     5323     5490     5509     5352     5105     4842 
    4573     4301     4064     3896     3805     3800     3871     3975 
    4069     4171     4333     4567     4814     4997     5104     5164 
    5186     5166     5116     5051     4988     4907     4766     4515 
    4143     3711     3325     3033     2813     2631     2485     2371 
    2327     2420     2666     3042     3519     4014     4403     4619 
    4669     4573     4368     4117     3866     3638     3442     3261 
    3098     2960     2830     2744     2762     2872     3026     3191 
    3319     3368     3372     3445     3643     3915     4195     4487 
    4800     5078     5242     5242     5086     4822     4490     4117 
    3738     3368     3005     2693     2474     2303     2121     1954 
    1892     2039     2447     3059     3780     4548     5333     6072 
    6632     6928     6978     6812     6443     5914     5310     4702 
    4140     3672     3292     2955     2640     2382     2239     2257 
    2439     2739     3100     3483     3893     4383     4986     5692 
    6409     7023     7506     7844     7944     7709     7140     6295 
    5283     4243     3244     2303     1489      890      537      403 
     472      737     1166     1675     2191     2713     3261     3788 
    4200     4498     4718     4862     4889     4769     4533     4274 
    4063     3912     3771     3604     3429     3258     3071     2855 
    2632     2430     2266     2128     2000     1925     1987     2166 
    2403     2720     3129     3561     3969     4315     4560     4688 
    4702     4600     4388     4114     3859     3631     3418     3283 
    3311     3492     3723     3866     3867     3825     3832     3789 
    3591     3287     2992     2787     2639     2409     2053     1723 
    1567     1551     1579     1661     1854     2101     2315     2513 
    2762     3040     3287     3514     3776     4121     4530     4932 
    5266     5547     5800     5985     6041     5968     5825     5649 
    5389     4970     4437     3877     3343     2902     2643     2608 
    2755     3007     3323     3708     4110     4433     4703     5026 
    5398     5733     5972     6106     6164     6158     6062     5890 
    5713     5582     5479     5377     5244     5042     4770     4500 
    4299     4212     4225     4298     4413     4556     4662     4704 
    4698     4657     4608     4544     4425     4253     4055     3854 
    3711     3717     3880     4117     4390     4695     4996     5277 
    5566     5853     6106     6343     6601     6810     6836     6619 
    6224     5788     5400     5058     4792     4665     4661     4703 
    4739     4757     4756     4752     4758     4757     4727     4653 
    4521     4349     4194     4101     4074     4090     4118     4129 
    4102     4047     3986     3908     3789     3632     3450     3254 
    3090     2995     2960     2988     3106     3273     3384     3420 
    3447     3492     3530     3534     3520     3528     3558     3546 
    3478     3430     3492     3666     3874     4044     4139     4159 
    4132     4060     3937     3767     3561     3343     3152     2990 
    2848     2803     2963     3322     3753     4118     4338     4348 
    4116     3730     3341     3055     2894     2792     2681     2567 
    2488     2436     2388     2323     2236     2165     2192     2343 
    2562     2803     3092     3420     3690     3811     3782     3678 
    3562     3488     3519     3703     4001     4327     4641     4943 
    5189     5293     5225     5027     4750     4407     4010     3639 
    3385     3273     3240     3167     3006     2805     2594     2380 
    2209     2163     2285     2574     2976     3412     3802     4094 
    4322     4583     4885     5158     5364     5514     5616     5656 
    5641     5603     5544     5395     5066     4525     3820     3042 
    2308     1732     1378     1282     1485     1962     2552     3017 
    3219     3186     3026     2848     2697     2587     2575     2700 
    2918     3122     3188     3071     2837     2565     2311     2128 
    2058     2128     2388     2833     3361     3790     3996     4003 
    3913     3815     3782     3855     4035     4356     4845     5429 
    5926     6135     5931     5377     4648     3850     3059     2385 
    1926     1755     1872     2177     2573     3007     3462     3925 
    4379     4797     5159     5462     5717     5945     6145     6270 
    6259     6070     5705     5235     4837     4645     4606     4587 
    4564     4595     4684     4738     4681     4542     4423     4418 
    4565     4865     5293     5830     6477     7190     7843     8317 
    8507     8332     7812     7089     6309     5559     4904     4452 
    4251     4218     4207     4132     3975     3747     3461     3149 
    2843     2570     2385     2326     2370     2473     2614     2767 
    2867     2894     2891     2929     3060     3334     3798     4455 
    5198     5860     6319     6546     6569     6462     6312     6191 
    6133     6145     6214     6315     6367     6304     6106     5792 
    5435     5121     4880     4710     4619     4579     4527     4434 
    4306     4153     3967     3775     3661     3713     3990     4477 
    5057     5545     5810     5809     5563     5120     4511     3815 
    3196     2775     2556     2524     2641     2852     3107     3330 
    3418     3310     3014     2643     2335     2137     2089     2293 
    2751     3350     4002     4611     5030     5184     5107     4850 
    4500     4153     3865     3655     3527     3468     3483     3550 
    3595     3609     3678     3871     4159     4450     4720     5005 
    5270     5452     5543     5521     5382     5154     4838     4426 
    3994     3659     3474     3400     3330     3145     2817     2408 
    1999     1664     1512     1647     2107     2863     3792     4689 
    5431     5991     6332     6404     6227     5864     5400     4950 
    4627     4473     4469     4541     4602     4587     4430     4102 
    3642     3159     2829     2824     3136     3643     4252     4868 
    5347     5560     5475     5205     4918     4698     4531     4372 
    4248     4247     4353     4445     4422     4225     3888     3530 
    3194     2836     2470     2224     2242     2567     3111     3700 
    4187     4517     4723     4876     4961     4927     4828     4789 
    4852     4958     4996     4899     4714     4529     4388     4288 
    4215     4209     4310     4504     4793     5186     5623     5998 
    6270     6450     6528     6497     6450     6547     6848     7225 
    7495     7548     7325     6785     5994     5120     4320     3693 
    3312     3176     3217     3388     3705     4172     4725     5243 
    5628     5850     5917     5849     5711     5549     5381     5265 
    5233     5244     5224     5093     4806     4409     4002     3657 
    3416     3322     3376     3544     3766     3990     4225     4473 
    4660     4699     4592     4437     4369     4475     4761     5177 
    5620     5944     6069     6030     5911     5823     5869     6068 
    6370     6698     6976     7156     7196     7051     6739     6382 
    6092     5895     5753     5599     5367     5035     4650     4271 
    3943     3690     3524     3477     3596     3892     4356     4973 
    5664     6332     6952     7565     8182     8745     9242     9670 
    9946    10027     9898     9491     8799     7927     6998     6070 
    5154     4270     3478     2817     2258     1760     1318      977 
     781      746      885     1240     1842     2668     3645     4645 
    5541     6315     6993     7527     7843     7931     7834     7595 
    7230     6697     5946     5027     4069     3172     2396     1806 
    1497     1568     2001     2617     3242     3858     4523     5225 
    5888     6482     7037     7557     7935     8048     7855     7387 
    6729     6015     5389     4934     4595     4255     3885     3530 
    3218     2959     2762     2613     2513     2519     2702     3067 
    3530     3998     4436     4860     5266     5605     5817     5849 
    5703     5410     4962     4329     3527     2648     1825     1177 
     780      648      764     1116     1680     2385     3100     3699 
    4178     4606     4962     5163     5127     4868     4542     4271 
    4040     3797     3511     3161     2756     2316     1894     1572 
    1441     1610     2168     3049     4055     5004     5860     6673 
    7447     8144     8773     9347     9779     9942     9717     9076 
    8143     7086     6031     5040     4120     3284     2525     1795 
    1158      751      664      912     1472     2286     3242     4233 
    5232     6264     7317     8293     9027     9413     9439     9104 
    8385     7284     5888     4367     2906     1606      508     -332 
    -903    -1247    -1386    -1334    -1097     -708     -268      160 
     661     1381     2370     3562     4841     6031     6957     7569 
    7938     8097     8019     7726     7273     6713     6115     5478 
    4727     3920     3175     2532     1984     1474      977      608 
     531      828     1474     2376     3429     4531     5599     6543 
    7254     7657     7761     7636     7300     6759     6064     5292 
    4504     3732     2952     2126     1244      379     -379     -984 
   -1371    -1476    -1277     -793      -91      697     1421     2006 
    2471     2862     3180     3406     3527     3605     3704     3834 
    3998     4217     4483     4716     4772     4495     3851     3011 
    2267     1837     1796     2115     2686     3330     3839     4058 
    3965     3676     3334     3059     2930     2979     3221     3665 
    4238     4824     5351     5765     6003     6018     5827     5502 
    5123     4706     4225     3728     3317     3071     2992     3042 
    3204     3492     3923     4522     5232     5906     6434     6782 
    6926     6820     6447     5811     4941     3928     2878     1848 
     903       60     -728    -1490    -2182    -2720    -3032    -3084 
   -2841    -2262    -1378     -309      826     1969     3076     4082 
    4954     5688     6282     6737     7040     7136     6993     6659 
    6197     5594     4806     3844     2781     1694      691     -125 
    -691     -889     -575      279     1554     3013     4364     5398 
    6060     6369     6365     6048     5412     4594     3811     3133 
    2467     1695      832       62     -460     -700     -673     -427 
     -43      453     1055     1684     2234     2644     2952     3253 
    3619     4024     4360     4535     4550     4468     4320     4054 
    3568     2836     1954     1074      322     -253     -687    -1015 
   -1213    -1242    -1070     -702     -159      575     1524     2617 
    3705     4649     5368     5860     6145     6235     6104     5722 
    5088     4238     3267     2299     1429      711      211       21 
     114      299      405      434      491      648      950     1429 
    2093     2925     3820     4675     5468     6169     6711     7028 
    7013     6623     5921     5027     4087     3198     2398     1750 
    1290      949      745      823     1210     1755     2266     2600 
    2702     2589     2247     1725     1228      980     1070     1444 
    1919     2319     2596     2755     2787     2702     2512     2234 
    1948     1707     1471     1159      741      317       97      217 
     662     1355     2200     3122     4068     4942     5640     6120 
    6365     6361     6137     5737     5161     4347     3281     2041 
     774     -310    -1021    -1260     -993     -205     1016     2425 
    3746     4847     5705     6228     6282     5854     5138     4390 
    3763     3287     2955     2778     2763     2952     3342     3730 
    3897     3874     3755     3554     3289     2957     2540     2180 
    2072     2267     2651     3071     3496     3928     4341     4756 
    5173     5478     5562     5417     5101     4680     4197     3732 
    3395     3221     3186     3241     3310     3284     3102     2876 
    2825     3055     3438     3755     3869     3763     3480     3051 
    2517     2046     1929     2317     2999     3577     3819     3742 
    3501     3264     3109     2983     2770     2451     2072     1594 
     978      363       -5       47      583     1480     2509     3468 
    4247     4843     5313     5633     5717     5559     5212     4727 
    4151     3507     2856     2353     2111     2118     2254     2374 
    2374     2224     1965     1694     1494     1398     1457     1742 
    2230     2817     3477     4279     5196     6019     6513     6573 
    6246     5709     5093     4388     3527     2482     1316      197 
    -704    -1308    -1556    -1441    -1081     -603     -109      229 
     307      249      284      585     1198     2037     2982     3931 
    4766     5377     5705     5757     5567     5169     4608     3889 
    2967     1818      519     -734    -1764    -2546    -3186    -3747 
   -4222    -4531    -4527    -4117    -3281    -2004     -373     1378 
    3038     4467     5579     6361     6886     7271     7539     7607 
    7439     7056     6423     5509     4356     3082     1919     1111 
     718      681      888     1178     1413     1520     1460     1221 
     876      631      707     1200     2085     3241     4523     5850 
    7115     8110     8679     8816     8517     7777     6752     5625 
    4471     3402     2548     1945     1513     1117      672      164 
    -348     -724     -837     -581      163     1375     2828     4237 
    5455     6516     7408     7967     8098     7873     7406     6814 
    6214     5679     5287     5130     5204     5428     5661     5711 
    5505     5136     4695     4248     3885     3689     3696     3892 
    4205     4525     4772     4946     5103     5296     5524     5697 
    5717     5584     5402     5266     5150     4986     4776     4523 
    4220     3885     3570     3404     3480     3780     4271     4887 
    5505     5981     6164     5988     5594     5243     5167     5437 
    5972     6621     7192     7495     7450     7102     6583     6092 
    5783     5725     5867     6068     6211     6185     5856     5239 
    4542     3963     3551     3253     3042     3034     3350     3973 
    4826     5817     6798     7608     8070     8023     7418     6353 
    5066     3901     3145     2851     2875     3028     3149     3138 
    2964     2671     2394     2290     2423     2751     3202     3670 
    4050     4310     4500     4681     4882     5107     5406     5877 
    6512     7141     7614     7951     8233     8437     8464     8247 
    7801     7221     6534     5698     4747     3771     2872     2178 
    1755     1586     1688     2088     2732     3504     4270     4946 
    5517     6010     6469     6886     7218     7472     7676     7817 
    7830     7661     7358     6967     6415     5655     4780     3915 
    3109     2403     1831     1408     1105      897      812      924 
    1263     1849     2720     3842     5093     6315     7377     8191 
    8662     8715     8363     7735     7001     6301     5701     5120 
    4515     3997     3651     3406     3126     2789     2524     2502 
    2806     3406     4199     5062     5910     6655     7146     7310 
    7213     6952     6659     6489     6511     6671     6798     6705 
    6350     5784     5076     4349     3788     3492     3431     3499 
    3624     3809     4040     4286     4583     4984     5462     5922 
    6265     6517     6737     6897     6976     6987     6936     6821 
    6589     6164     5503     4623     3686     2936     2515     2448 
    2706     3180     3719     4176     4457     4514     4306     3851 
    3317     2953     2887     3100     3487     3929     4388     4828 
    5116     5139     4955     4716     4529     4378     4207     4040 
    3920     3848     3820     3886     4114     4438     4695     4857 
    5027     5248     5487     5724     5927     6044     6034     5837 
    5393     4731     3994     3387     3083     3149     3572     4286 
    5117     5825     6264     6424     6358     6147     5899     5733 
    5734     5884     6085     6235     6258     6095     5741     5260 
    4756     4306     3947     3701     3607     3678     3920     4288 
    4652     4928     5152     5377     5598     5788     5942     6079 
    6284     6631     7040     7330     7373     7102     6561     5940 
    5377     4851     4348     3888     3497     3215     3056     3021 
    3141     3501     4128     4865     5475     5849     6022     6034 
    5915     5792     5809     5954     6114     6183     6133     6049 
    5980     5864     5694     5544     5460     5412     5331     5184 
    4994     4780     4541     4297     4047     3751     3384     3019 
    2828     2930     3315     3893     4537     5109     5529     5806 
    5962     5971     5834     5668     5582     5578     5659     5790 
    5836     5711     5424     4978     4436     3902     3426     3045 
    2855     2884     3069     3354     3701     3987     4120     4159 
    4220     4340     4494     4631     4764     4946     5186     5428 
    5556     5490     5227     4820     4336     3804     3231     2710 
    2392     2324     2469     2798     3250     3717     4135     4495 
    4833     5169     5528     5946     6427     6948     7497     7987 
    8214     7987     7263     6145     4772     3287     1917      842 
      86     -342     -425     -222      133      515      896     1341 
    1925     2654     3470     4309     5112     5823     6384     6693 
    6706     6528     6301     6034     5656     5169     4635     4125 
    3662     3248     2905     2628     2378     2168     2033     1968 
    1930     1925     2057     2434     3042     3813     4658     5458 
    6077     6427     6478     6245     5806     5316     4953     4830 
    4928     5142     5347     5410     5232     4843     4391     3982 
    3653     3501     3651     4068     4579     4994     5186     5146 
    4969     4764     4615     4564     4612     4756     4899     4909 
    4747     4423     3990     3563     3237     3055     3017     3056 
    3111     3206     3376     3580     3738     3836     3893     3899 
    3801     3581     3329     3144     3055     3051     3082     3067 
    2955     2752     2511     2286     2111     2007     2022     2154 
    2338     2548     2759     2856     2783     2617     2436     2257 
    2104     2061     2160     2367     2669     3021     3333     3546 
    3630     3591     3466     3300     3129     2972     2835     2717 
    2667     2754     2970     3206     3350     3368     3284     3164 
    3055     2917     2727     2552     2484     2515     2511     2361 
    2142     2034     2133     2382     2713     3107     3604     4203 
