Origin Time       2016/04/16 01:25:00
Lat.              32.753
Long.             130.762
Depth. (km)       12
Mag.              7.3
Station Code      HRS005
Station Lat.      34.7770
Station Long.     133.2807
Station Height(m) 480
Record Time       2016/04/16 01:26:02
Sampling Freq(Hz) 100Hz
Duration Time(s)  112
Dir.              E-W
Scale Factor      7845(gal)/8223790
Max. Acc. (gal)   2.872
Last Correction   2016/04/16 01:26:04
Memo.             
[...]
    -171     -183     -299     -526     -849    -1190    -1462    -1614 
   -1644    -1566    -1401    -1182     -970     -816     -735     -727 
    -788     -866     -923     -951     -961     -984    -1053    -1181 
   -1339    -1455    -1506    -1556    -1648    -1738    -1755    -1667 
   -1471    -1201     -920     -642     -376     -198     -168     -306 
    -591     -986    -1447    -1892    -2193    -2266    -2120    -1819 
   -1456    -1094     -756     -475     -302     -257     -317     -469 
    -675     -876    -1060    -1201    -1233    -1154    -1012     -857 
    -735     -691     -738     -823     -897     -954     -980     -955 
    -874     -750     -633     -544     -461     -388     -359     -376 
    -440     -553     -687     -803     -912    -1008    -1048    -1030 
    -949     -814     -654     -483     -301     -126      -13       -8 
    -126     -351     -649     -970    -1259    -1472    -1597    -1648 
   -1625    -1518    -1333    -1101     -886     -747     -693     -723 
    -804     -893     -973    -1030    -1059    -1080    -1107    -1173 
   -1298    -1459    -1609    -1718    -1748    -1660    -1485    -1282 
   -1101     -955     -868     -869     -949    -1069    -1209    -1383 
   -1609    -1858    -2088    -2246    -2273    -2111    -1763    -1282 
    -773     -288      141      479      679      712      579      297 
     -95     -571    -1089    -1598    -2031    -2309    -2396    -2307 
   -2091    -1822    -1524    -1159     -741     -361     -116      -25 
     -78     -259     -532     -851    -1162    -1397    -1525    -1574 
   -1579    -1559    -1491    -1389    -1286    -1167    -1035     -935 
    -873     -884    -1000    -1179    -1383    -1601    -1783    -1869 
   -1819    -1651    -1426    -1189     -996     -911     -929    -1017 
   -1161    -1332    -1468    -1525    -1512    -1459    -1391    -1312 
   -1196    -1059     -954     -870     -799     -769     -784     -830 
    -884     -890     -832     -750     -662     -588     -540     -518 
    -540     -610     -708     -815     -912    -1000    -1098    -1183 
   -1223    -1239    -1243    -1197    -1075     -874     -612     -315 
     -17      243      430      514      481      325       47     -297 
    -646    -1000    -1345    -1614    -1752    -1750    -1618    -1389 
   -1117     -854     -622     -437     -322     -272     -271     -330 
    -441     -579     -741     -922    -1077    -1163    -1163    -1065 
    -885     -679     -472     -307     -225     -209     -249     -375 
    -579     -801     -987    -1129    -1277    -1460    -1647    -1783 
   -1818    -1718    -1516    -1252     -982     -776     -633     -526 
    -468     -460     -506     -594     -685     -770     -828     -846 
    -855     -868     -859     -811     -741     -700     -719     -818 
    -972    -1097    -1159    -1177    -1166    -1147    -1125    -1086 
   -1026     -980     -977    -1000    -1013     -996     -929     -823 
    -723     -656     -625     -634     -670     -720     -780     -838 
    -912    -1016    -1121    -1194    -1248    -1278    -1260    -1192 
   -1057     -843     -581     -324     -105       55      131       89 
     -70     -280     -496     -710     -905    -1057    -1154    -1215 
   -1240    -1216    -1148    -1050     -908     -720     -503     -288 
    -117      -21       -5      -35      -91     -189     -324     -467 
    -602     -749     -908    -1057    -1169    -1219    -1198    -1116 
    -978     -799     -585     -334      -79      126      256      311 
     292      202       58     -102     -257     -417     -571     -685 
    -756     -796     -830     -877     -946    -1016    -1085    -1138 
   -1147    -1113    -1088    -1120    -1205    -1296    -1356    -1360 
   -1308    -1232    -1147    -1046     -934     -832     -773     -791 
    -893    -1059    -1230    -1354    -1414    -1414    -1331    -1155 
    -934     -738     -598     -515     -481     -481     -515     -585 
    -669     -753     -855     -963    -1048    -1100    -1120    -1109 
   -1081    -1050     -996     -905     -776     -616     -423     -205 
       2      167      246      194       22     -225     -503     -760 
    -966    -1102    -1169    -1185    -1154    -1071     -958     -834 
    -695     -575     -538     -600     -737     -903    -1050    -1142 
   -1159    -1081     -939     -787     -665     -596     -589     -645 
    -765     -929    -1102    -1267    -1412    -1517    -1567    -1522 
   -1378    -1171     -951     -758     -639     -633     -712     -841 
    -997    -1147    -1255    -1301    -1243    -1047     -753     -423 
     -95      178      336      367      282       89     -180     -483 
    -781    -1008    -1086    -1020     -866     -677     -492     -326 
    -178      -71      -22      -27      -74     -166     -324     -530 
    -733     -895     -999    -1043    -1026     -939     -810     -697 
    -623     -576     -544     -496     -396     -266     -160     -101 
     -81      -95     -159     -275     -433     -612     -766     -850 
    -832     -714     -553     -415     -321     -283     -310     -407 
    -564     -741     -888     -993    -1075    -1139    -1163    -1127 
   -1023     -872     -726     -607     -488     -357     -232     -120 
     -28       22       14      -35      -95     -133     -131     -131 
    -163     -178     -147     -135     -207     -364     -572     -774 
    -909     -966     -970     -942     -884     -818     -765     -734 
    -724     -750     -837     -962    -1074    -1133    -1163    -1192 
   -1197    -1165    -1096     -976     -824     -689     -619     -646 
    -780    -1013    -1344    -1732    -2084    -2313    -2380    -2286 
   -2076    -1767    -1379     -996     -704     -532     -471     -506 
    -653     -913    -1213    -1457    -1632    -1748    -1790    -1752 
   -1618    -1377    -1069     -766     -530     -417     -457     -630 
    -885    -1190    -1506    -1783    -1966    -2006    -1925    -1783 
   -1617    -1489    -1431    -1425    -1467    -1572    -1722    -1858 
   -1954    -1995    -1914    -1690    -1389    -1065     -733     -418 
    -163      -16      -28     -206     -510     -900    -1332    -1732 
   -2016    -2130    -2089    -1930    -1675    -1355    -1039     -801 
    -654     -618     -722     -942    -1230    -1559    -1888    -2157 
   -2292    -2274    -2115    -1829    -1467    -1115     -874     -814 
    -922    -1192    -1606    -2116    -2633    -3067    -3331    -3397 
   -3300    -3082    -2737    -2281    -1800    -1387    -1063     -820 
    -665     -599     -634     -757     -918    -1080    -1189    -1216 
   -1192    -1115     -955     -758     -583     -405     -209      -25 
     149      314      423      479      503      479      376      214 
      47      -76     -144     -214     -298     -372     -448     -526 
    -581     -611     -604     -531     -403     -266     -135      -44 
     -58     -151     -271     -409     -510     -506     -395     -233 
     -85       -2      -20     -166     -422     -700     -924    -1071 
   -1127    -1093     -980     -793     -538     -234       67      325 
     511      596      531      301      -93     -610    -1148    -1632 
   -2012    -2250    -2359    -2377    -2297    -2110    -1825    -1464 
   -1067     -700     -403     -183      -60      -51     -140     -307 
    -558     -877    -1178    -1377    -1472    -1495    -1431    -1282 
   -1104     -924     -764     -664     -649     -712     -837    -1003 
   -1162    -1279    -1366    -1441    -1502    -1535    -1554    -1572 
   -1576    -1516    -1372    -1179     -932     -639     -329      -16 
     259      450      545      537      432      265       62     -194 
    -493     -766     -973    -1096    -1136    -1121    -1062     -959 
    -799     -564     -278       20      272      440      533      552 
     490      386      253      118       16      -68     -108      -70 
      22      144      265      342      360      322      229      102 
     -49     -241     -422     -514     -487     -351     -131      112 
     353      610      877     1121     1334     1539     1713     1786 
    1715     1520     1244      959      731      587      546      633 
     830     1077     1308     1505     1660     1769     1819     1821 
    1772     1655     1471     1270     1043      784      566      423 
     356      376      448      550      706      900     1088     1250 
    1385     1468     1482     1416     1251      951      529       67 
    -349     -683     -866     -864     -706     -440     -153       79 
     265      405      453      367      163      -76     -314     -538 
    -720     -862     -989    -1097    -1188    -1271    -1340    -1391 
   -1402    -1343    -1254    -1171    -1086    -1032    -1053    -1139 
   -1277    -1439    -1557    -1626    -1657    -1617    -1520    -1416 
   -1328    -1282    -1271    -1298    -1364    -1431    -1463    -1456 
   -1414    -1331    -1201    -1023     -816     -621     -448     -315 
    -289     -411     -677    -1065    -1495    -1895    -2207    -2388 
   -2421    -2327    -2123    -1841    -1532    -1243    -1009     -841 
    -706     -581     -453     -310     -164      -65      -60     -195 
    -476     -843    -1235    -1588    -1836    -1939    -1885    -1669 
   -1333     -939     -538     -172      135      364      496      521 
     442      261      -22     -370     -715    -1003    -1177    -1232 
   -1188    -1055     -893     -760     -633     -499     -372     -270 
    -236     -302     -471     -722    -1021    -1359    -1695    -1958 
   -2116    -2174    -2126    -1989    -1811    -1628    -1445    -1281 
   -1142    -1023     -928     -880     -857     -837     -832     -862 
    -909     -977    -1075    -1181    -1306    -1448    -1553    -1598 
   -1556    -1397    -1102     -685     -221      193      500      648 
     611      425      129     -228     -569     -834    -1003    -1102 
   -1177    -1228    -1237    -1220    -1173    -1086    -1009     -972 
    -974    -1032    -1120    -1213    -1291    -1313    -1263    -1166 
   -1036     -907     -838     -861     -963    -1125    -1294    -1425 
   -1528    -1606    -1640    -1609    -1513    -1329    -1044     -724 
    -463     -319     -328     -487     -773    -1135    -1493    -1761 
   -1896    -1896    -1771    -1554    -1308    -1084     -874     -696 
    -606     -623     -789    -1120    -1520    -1918    -2308    -2639 
   -2859    -2952    -2896    -2664    -2276    -1759    -1136     -449 
     259      923     1428     1668     1601     1235      665       51 
    -502     -962    -1290    -1457    -1487    -1372    -1096     -739 
    -399      -79      190      348      387      318      152      -87 
    -341     -517     -579     -530     -390     -255     -199     -230 
    -344     -506     -660     -770     -818     -789     -699     -553 
    -369     -194      -65       22       97      162      222      288 
     333      299      149      -94     -388     -670     -849     -857 
    -658     -251      263      789     1273     1617     1748     1696 
    1528     1317     1144     1021      908      816      777      799 
     881     1000     1123     1197     1189     1107      945      712 
     451      207       52       37      144      326      513      666 
     766      797      762      646      430      116     -268     -689 
   -1113    -1467    -1675    -1718    -1625    -1449    -1242    -1030 
    -857     -751     -723     -772     -885    -1038    -1205    -1355 
   -1480    -1590    -1661    -1658    -1567    -1401    -1233    -1104 
   -1004     -936     -890     -857     -851     -877     -932    -1005 
   -1067    -1105    -1156    -1239    -1344    -1485    -1652    -1814 
   -1956    -2079    -2163    -2165    -2084    -1949    -1777    -1611 
   -1482    -1390    -1337    -1314    -1324    -1398    -1532    -1691 
   -1842    -1954    -1988    -1919    -1769    -1582    -1395    -1251 
   -1190    -1221    -1329    -1512    -1769    -2061    -2317    -2473 
   -2505    -2442    -2295    -2053    -1740    -1418    -1154     -982 
    -943    -1048    -1243    -1441    -1599    -1710    -1759    -1757 
   -1764    -1807    -1883    -2010    -2189    -2365    -2461    -2421 
   -2223    -1914    -1571    -1248    -1011     -923    -1011    -1289 
   -1710    -2173    -2601    -2913    -3009    -2866    -2525    -2038 
   -1472     -899     -376       44      309      360      186     -175 
    -672    -1161    -1507    -1696    -1728    -1632    -1490    -1327 
   -1166    -1102    -1119    -1100     -989     -761     -383       72 
     506      900     1229     1390     1324     1077      680      125 
    -500    -1081    -1571    -1907    -2046    -2011    -1833    -1535 
   -1158     -774     -480     -305     -248     -322     -484     -681 
    -907    -1143    -1360    -1520    -1602    -1663    -1777    -1960 
   -2196    -2444    -2614    -2674    -2647    -2531    -2340    -2118 
   -1883    -1630    -1391    -1237    -1204    -1289    -1503    -1852 
   -2272    -2633    -2874    -2990    -2978    -2852    -2656    -2425 
   -2200    -2010    -1857    -1753    -1705    -1713    -1795    -1949 
   -2135    -2292    -2370    -2361    -2284    -2177    -2079    -2000 
   -1960    -1966    -2030    -2149    -2250    -2319    -2405    -2496 
   -2571    -2673    -2841    -3051    -3248    -3429    -3597    -3748 
   -3856    -3890    -3802    -3588    -3307    -3010    -2748    -2582 
   -2496    -2444    -2430    -2467    -2552    -2648    -2752    -2893 
   -3064    -3240    -3415    -3586    -3705    -3773    -3823    -3846 
   -3802    -3681    -3495    -3279    -3076    -2914    -2805    -2739 
   -2682    -2621    -2550    -2466    -2381    -2234    -1981    -1690 
   -1408    -1155    -1008     -981    -1020    -1115    -1251    -1390 
   -1528    -1668    -1777    -1833    -1852    -1850    -1825    -1786 
   -1737    -1648    -1535    -1467    -1425    -1382    -1344    -1302 
   -1252    -1215    -1215    -1258    -1317    -1314    -1192     -990 
    -797     -650     -562     -545     -581     -635     -710     -793 
    -853     -903     -982    -1112    -1312    -1590    -1902    -2173 
   -2344    -2389    -2317    -2146    -1891    -1599    -1317    -1063 
    -861     -751     -737     -814     -978    -1193    -1421    -1657 
   -1883    -2053    -2146    -2163    -2134    -2085    -2043    -2038 
   -2074    -2153    -2259    -2363    -2440    -2465    -2430    -2349 
   -2238    -2119    -2034    -2016    -2074    -2207    -2381    -2569 
   -2783    -3030    -3288    -3511    -3632    -3584    -3341    -2934 
   -2457    -2003    -1602    -1264    -1023     -864     -767     -747 
    -781     -834     -903     -986    -1053    -1102    -1146    -1166 
   -1161    -1151    -1143    -1147    -1177    -1216    -1269    -1378 
   -1556    -1777    -1984    -2111    -2149    -2123    -2010    -1777 
   -1440    -1039     -638     -278      -18       85       41     -114 
    -402     -818    -1270    -1684    -2029    -2238    -2261    -2111 
   -1848    -1535    -1216     -893     -577     -297      -72       79 
     151      147       64     -122     -411     -781    -1189    -1564 
   -1868    -2076    -2133    -2030    -1822    -1528    -1192     -893 
    -697     -619     -665     -799     -966    -1151    -1381    -1663 
   -1949    -2203    -2393    -2477    -2439    -2285    -2039    -1737 
   -1416    -1136     -946     -857     -850     -890     -972    -1081 
   -1224    -1441    -1713    -1977    -2207    -2350    -2358    -2250 
   -2045    -1769    -1478    -1217    -1005     -857     -778     -737 
    -718     -743     -847    -1048    -1324    -1644    -1987    -2290 
   -2482    -2551    -2511    -2359    -2126    -1857    -1548    -1230 
    -989     -874     -909    -1109    -1440    -1861    -2344    -2836 
   -3253    -3511    -3593    -3547    -3392    -3126    -2806    -2479 
   -2142    -1829    -1605    -1470    -1417    -1447    -1509    -1575 
   -1675    -1823    -2026    -2284    -2560    -2828    -3032    -3109 
   -3028    -2791    -2442    -2041    -1647    -1318    -1074     -982 
   -1132    -1489    -1953    -2450    -2882    -3145    -3202    -3090 
   -2863    -2571    -2251    -1972    -1799    -1750    -1825    -1992 
   -2173    -2304    -2346    -2272    -2095    -1849    -1559    -1247 
    -961     -741     -631     -689     -927    -1294    -1718    -2077 
   -2313    -2484    -2606    -2666    -2688    -2640    -2481    -2265 
   -2020    -1729    -1420    -1131     -876     -650     -511     -502 
    -544     -592     -680     -777     -818     -797     -743     -645 
    -476     -274      -82      101      270      391      440      427 
     391      349      321      307      305      313      326      352 
     413      500      595      683      741      774      804      830 
     858      927     1071     1270     1468     1640     1767     1807 
    1728     1532     1259      946      637      402      280      272 
     355      510      707      881     1003     1081     1107     1088 
    1034      958      899      859      803      720      604      432 
     229       37     -147     -337     -523     -673     -734     -680 
    -542     -388     -274     -220     -225     -280     -357     -425 
    -498     -579     -594     -461     -220       37      259      411 
     459      425      383      346      263       95     -139     -386 
    -612     -810     -946     -978     -897     -712     -457     -176 
      95      328      493      602      657      633      518      336 
      91     -217     -565     -884    -1086    -1127    -1026     -827 
    -553     -233      129      496      784      931      926      776 
     531      256      -16     -238     -391     -500     -556     -531 
    -421     -210       86      446      855     1258     1583     1779 
    1838     1780     1626     1390     1084      745      423      151 
     -47     -131      -99      -11      121      341      614      873 
    1113     1341     1518     1618     1657     1637     1540     1397 
    1235     1026      772      549      395      289      246      278 
     344      433      542      660      756      789      761      714 
     683      680      696      715      714      693      660      612 
     556      495      461      476      519      577      660      738 
     769      751      702      602      434      210      -39     -263 
    -423     -499     -477     -341      -99      211      553      866 
    1092     1179     1097      845      491      144     -118     -263 
    -292     -256     -195      -94       76      326      616      861 
    1004     1031      942      773      556      284      -16     -265 
    -409     -414     -278      -40      217      437      603      712 
     772      801      787      666      438      164      -97     -291 
    -380     -360     -237       -5      311      633      866      969 
     918      733      481      234       32     -109     -166     -116 
      28      244      503      745      926     1047     1131     1177 
    1166     1096      982      835      704      657      691      795 
     997     1282     1584     1841     1985     1958     1772     1483 
