Origin Time       2016/04/16 01:25:00
Lat.              32.753
Long.             130.762
Depth. (km)       12
Mag.              7.3
Station Code      HRS002
Station Lat.      34.8951
Station Long.     133.2755
Station Height(m) 306
Record Time       2016/04/16 01:26:44
Sampling Freq(Hz) 100Hz
Duration Time(s)  61
Dir.              N-S
Scale Factor      7845(gal)/8223790
Max. Acc. (gal)   2.837
Last Correction   2016/04/16 01:26:45
Memo.             
[...]
   -5240    -5201    -5174    -5146    -5116    -5084    -5062    -5044 
   -5015    -4956    -4872    -4787    -4735    -4735    -4781    -4837 
   -4873    -4880    -4849    -4792    -4753    -4772    -4830    -4880 
   -4907    -4911    -4891    -4882    -4905    -4946    -4992    -5026 
   -5043    -5067    -5101    -5125    -5139    -5148    -5163    -5192 
   -5225    -5239    -5215    -5162    -5097    -5038    -4996    -4977 
   -4966    -4934    -4870    -4811    -4803    -4850    -4942    -5047 
   -5120    -5151    -5148    -5125    -5108    -5104    -5103    -5096 
   -5080    -5062    -5044    -5016    -4994    -5007    -5057    -5131 
   -5211    -5246    -5212    -5140    -5090    -5085    -5101    -5100 
   -5074    -5044    -5034    -5042    -5047    -5044    -5046    -5077 
   -5144    -5223    -5273    -5278    -5255    -5238    -5233    -5246 
   -5263    -5263    -5235    -5179    -5103    -5047    -5020    -4997 
   -4970    -4954    -4958    -4974    -4982    -4977    -4972    -4988 
   -5031    -5082    -5130    -5159    -5163    -5155    -5152    -5152 
   -5157    -5161    -5148    -5125    -5100    -5065    -5030    -5017 
   -5016    -5003    -4988    -4997    -5022    -5040    -5047    -5053 
   -5076    -5120    -5173    -5224    -5270    -5310    -5360    -5417 
   -5475    -5533    -5574    -5594    -5617    -5651    -5668    -5661 
   -5637    -5601    -5557    -5510    -5463    -5410    -5352    -5300 
   -5247    -5192    -5152    -5131    -5120    -5101    -5069    -5043 
   -5043    -5062    -5082    -5092    -5074    -5027    -4978    -4943 
   -4918    -4905    -4923    -4980    -5046    -5086    -5090    -5062 
   -5026    -5005    -5000    -4997    -4993    -4986    -4973    -4959 
   -4956    -4953    -4930    -4884    -4831    -4804    -4811    -4837 
   -4870    -4918    -4973    -5015    -5053    -5093    -5125    -5135 
   -5124    -5108    -5108    -5119    -5138    -5164    -5190    -5198 
   -5184    -5161    -5138    -5101    -5057    -5008    -4956    -4912 
   -4884    -4868    -4872    -4887    -4895    -4892    -4897    -4901 
   -4892    -4887    -4907    -4963    -5047    -5120    -5161    -5181 
   -5197    -5220    -5270    -5350    -5440    -5510    -5545    -5552 
   -5551    -5541    -5512    -5468    -5424    -5389    -5371    -5366 
   -5354    -5337    -5316    -5298    -5290    -5289    -5289    -5279 
   -5244    -5190    -5138    -5108    -5109    -5148    -5228    -5320 
   -5389    -5422    -5414    -5373    -5333    -5306    -5281    -5251 
   -5215    -5163    -5081    -4980    -4885    -4796    -4720    -4687 
   -4695    -4723    -4752    -4756    -4726    -4677    -4641    -4629 
   -4661    -4765    -4897    -4994    -5046    -5071    -5093    -5146 
   -5227    -5309    -5363    -5385    -5400    -5422    -5448    -5476 
   -5493    -5501    -5513    -5525    -5532    -5522    -5493    -5460 
   -5437    -5429    -5410    -5329    -5185    -5043    -4953    -4905 
   -4864    -4823    -4799    -4787    -4774    -4756    -4727    -4695 
   -4689    -4704    -4696    -4664    -4630    -4608    -4617    -4652 
   -4677    -4679    -4661    -4649    -4661    -4695    -4750    -4820 
   -4887    -4930    -4935    -4915    -4911    -4928    -4950    -4989 
   -5050    -5101    -5139    -5174    -5209    -5256    -5321    -5381 
   -5422    -5458    -5493    -5501    -5475    -5436    -5382    -5309 
   -5239    -5188    -5152    -5142    -5154    -5158    -5123    -5060 
   -4989    -4935    -4911    -4914    -4912    -4892    -4847    -4761 
   -4649    -4557    -4509    -4502    -4531    -4572    -4595    -4592 
   -4579    -4579    -4622    -4716    -4845    -4972    -5055    -5080 
   -5069    -5078    -5130    -5188    -5220    -5229    -5231    -5243 
   -5275    -5310    -5335    -5362    -5404    -5437    -5448    -5451 
   -5458    -5443    -5410    -5395    -5412    -5421    -5395    -5327 
   -5213    -5100    -5026    -4978    -4932    -4881    -4811    -4708 
   -4606    -4541    -4488    -4425    -4375    -4359    -4356    -4357 
   -4369    -4407    -4477    -4563    -4625    -4656    -4673    -4703 
   -4733    -4742    -4748    -4765    -4780    -4803    -4851    -4918 
   -4986    -5054    -5131    -5208    -5263    -5296    -5305    -5317 
   -5377    -5471    -5540    -5556    -5502    -5377    -5224    -5085 
   -4993    -4955    -4958    -4986    -5026    -5042    -5004    -4941 
   -4911    -4935    -4997    -5060    -5090    -5092    -5104    -5152 
   -5224    -5289    -5332    -5346    -5346    -5356    -5377    -5381 
   -5348    -5294    -5246    -5213    -5190    -5169    -5151    -5140 
   -5143    -5157    -5174    -5185    -5167    -5124    -5089    -5081 
   -5089    -5089    -5060    -4994    -4909    -4835    -4787    -4750 
   -4698    -4622    -4554    -4513    -4486    -4472    -4487    -4534 
   -4595    -4650    -4684    -4685    -4671    -4656    -4634    -4608 
   -4587    -4565    -4537    -4504    -4487    -4498    -4544    -4627 
   -4720    -4787    -4831    -4866    -4893    -4918    -4956    -5023 
   -5113    -5204    -5260    -5279    -5279    -5279    -5298    -5339 
   -5390    -5417    -5401    -5344    -5267    -5200    -5169    -5169 
   -5163    -5139    -5108    -5078    -5055    -5062    -5090    -5108 
   -5117    -5123    -5097    -5040    -4985    -4945    -4923    -4920 
   -4918    -4900    -4870    -4850    -4854    -4888    -4947    -5015 
   -5074    -5109    -5127    -5152    -5178    -5186    -5166    -5108 
   -5036    -5005    -5027    -5054    -5053    -5023    -4992    -5001 
   -5073    -5174    -5250    -5273    -5259    -5239    -5246    -5289 
   -5348    -5400    -5443    -5475    -5478    -5475    -5503    -5559 
   -5618    -5672    -5725    -5792    -5883    -5984    -6061    -6089 
   -6084    -6083    -6092    -6097    -6087    -6050    -5996    -5948 
   -5900    -5846    -5792    -5748    -5715    -5683    -5618    -5524 
   -5435    -5368    -5317    -5268    -5201    -5119    -5053    -5009 
   -4970    -4938    -4912    -4874    -4824    -4776    -4741    -4731 
   -4758    -4816    -4872    -4903    -4897    -4849    -4770    -4698 
   -4652    -4641    -4660    -4680    -4687    -4698    -4741    -4824 
   -4923    -5001    -5027    -4989    -4935    -4907    -4923    -4976 
   -5019    -5017    -4978    -4914    -4831    -4738    -4652    -4594 
   -4591    -4631    -4639    -4579    -4494    -4409    -4357    -4402 
   -4529    -4689    -4876    -5051    -5161    -5219    -5254    -5281 
   -5308    -5317    -5306    -5260    -5178    -5093    -5011    -4912 
   -4826    -4779    -4774    -4795    -4806    -4791    -4746    -4680 
   -4638    -4650    -4712    -4807    -4907    -5008    -5121    -5252 
   -5397    -5544    -5676    -5782    -5876    -5973    -6070    -6165 
   -6242    -6277    -6264    -6230    -6199    -6151    -6092    -6054 
   -6042    -6043    -6060    -6102    -6148    -6165    -6157    -6160 
   -6176    -6188    -6203    -6241    -6292    -6335    -6365    -6385 
   -6409    -6477    -6593    -6744    -6913    -7056    -7132    -7155 
   -7159    -7168    -7177    -7156    -7094    -7018    -6952    -6913 
   -6907    -6928    -6959    -6984    -7002    -7032    -7092    -7177 
   -7271    -7356    -7402    -7396    -7362    -7314    -7241    -7160 
   -7087    -7021    -6952    -6879    -6806    -6729    -6650    -6579 
   -6540    -6515    -6460    -6369    -6262    -6156    -6048    -5944 
   -5844    -5741    -5661    -5629    -5649    -5711    -5798    -5892 
   -5960    -5995    -6022    -6039    -6037    -6038    -6050    -6043 
   -6003    -5927    -5811    -5675    -5556    -5466    -5395    -5339 
   -5305    -5275    -5232    -5189    -5167    -5167    -5171    -5164 
   -5158    -5179    -5238    -5320    -5409    -5481    -5521    -5541 
   -5551    -5547    -5524    -5485    -5437    -5400    -5381    -5377 
   -5373    -5355    -5325    -5296    -5281    -5281    -5282    -5278 
   -5267    -5240    -5194    -5143    -5104    -5081    -5069    -5046 
   -5001    -4935    -4849    -4753    -4680    -4635    -4598    -4560 
   -4548    -4576    -4617    -4641    -4638    -4615    -4606    -4634 
   -4685    -4745    -4795    -4826    -4822    -4770    -4683    -4580 
   -4484    -4418    -4384    -4352    -4301    -4236    -4168    -4110 
   -4064    -4017    -3955    -3879    -3808    -3754    -3712    -3682 
   -3647    -3609    -3591    -3604    -3653    -3750    -3892    -4063 
   -4251    -4434    -4583    -4700    -4803    -4897    -4992    -5097 
   -5200    -5275    -5317    -5325    -5317    -5313    -5312    -5314 
   -5313    -5275    -5202    -5121    -5073    -5074    -5073    -5023 
   -4951    -4882    -4827    -4796    -4761    -4675    -4553    -4444 
   -4382    -4380    -4401    -4386    -4324    -4240    -4172    -4152 
   -4168    -4192    -4207    -4203    -4178    -4139    -4107    -4094 
   -4090    -4124    -4210    -4333    -4459    -4544    -4558    -4519 
   -4463    -4422    -4411    -4415    -4423    -4429    -4422    -4396 
   -4347    -4268    -4186    -4136    -4128    -4155    -4200    -4243 
   -4278    -4309    -4342    -4399    -4480    -4567    -4626    -4646 
   -4653    -4681    -4745    -4845    -4945    -5030    -5116    -5223 
   -5354    -5510    -5676    -5823    -5958    -6091    -6214    -6322 
   -6412    -6481    -6536    -6600    -6682    -6782    -6898    -7005 
   -7074    -7105    -7118    -7123    -7126    -7117    -7079    -7014 
   -6943    -6875    -6821    -6777    -6728    -6669    -6623    -6612 
   -6654    -6729    -6808    -6883    -6966    -7068    -7184    -7294 
   -7378    -7416    -7391    -7323    -7227    -7094    -6928    -6766 
   -6631    -6517    -6420    -6318    -6193    -6057    -5918    -5783 
   -5663    -5589    -5564    -5572    -5583    -5574    -5551    -5539 
   -5552    -5595    -5644    -5668    -5651    -5590    -5505    -5421 
   -5387    -5431    -5518    -5594    -5613    -5578    -5532    -5510 
   -5510    -5514    -5499    -5466    -5412    -5329    -5221    -5105 
   -5007    -4943    -4918    -4928    -4950    -4961    -4959    -4951 
   -4947    -4947    -4945    -4931    -4912    -4907    -4931    -4997 
   -5065    -5082    -5042    -4963    -4888    -4846    -4820    -4789 
   -4754    -4692    -4596    -4495    -4405    -4320    -4247    -4186 
   -4117    -4033    -3936    -3828    -3724    -3645    -3613    -3630 
   -3669    -3697    -3672    -3592    -3505    -3462    -3484    -3566 
   -3682    -3796    -3890    -3960    -4014    -4074    -4149    -4212 
   -4225    -4189    -4136    -4095    -4069    -4063    -4074    -4097 
   -4133    -4199    -4291    -4391    -4482    -4548    -4594    -4645 
   -4730    -4852    -4978    -5080    -5150    -5194    -5221    -5265 
   -5331    -5379    -5362    -5285    -5184    -5096    -5047    -5015 
   -4953    -4835    -4666    -4483    -4329    -4230    -4182    -4147 
   -4094    -4028    -3963    -3904    -3865    -3869    -3939    -4067 
   -4225    -4378    -4479    -4529    -4567    -4641    -4770    -4918 
   -5024    -5069    -5070    -5057    -5044    -5027    -4988    -4928 
   -4881    -4847    -4793    -4720    -4660    -4641    -4691    -4792 
   -4864    -4855    -4779    -4688    -4641    -4666    -4754    -4852 
   -4920    -4963    -5004    -5057    -5134    -5216    -5268    -5293 
   -5312    -5348    -5420    -5503    -5547    -5541    -5517    -5502 
   -5526    -5593    -5665    -5711    -5729    -5741    -5768    -5807 
   -5842    -5857    -5849    -5823    -5821    -5867    -5946    -6011 
   -6021    -5985    -5945    -5921    -5923    -5940    -5953    -5957 
   -5977    -6035    -6108    -6151    -6143    -6084    -6011    -5957 
   -5918    -5863    -5765    -5623    -5456    -5296    -5162    -5054 
   -4953    -4847    -4739    -4642    -4575    -4553    -4575    -4612 
   -4639    -4657    -4683    -4725    -4787    -4869    -4961    -5054 
   -5144    -5229    -5301    -5346    -5360    -5374    -5409    -5463 
   -5519    -5548    -5516    -5420    -5304    -5212    -5158    -5107 
   -5007    -4860    -4708    -4591    -4515    -4452    -4378    -4288 
   -4190    -4095    -4021    -3975    -3970    -4005    -4071    -4136 
   -4149    -4097    -4016    -3947    -3913    -3913    -3921    -3912 
   -3874    -3828    -3794    -3780    -3770    -3761    -3761    -3767 
   -3782    -3805    -3805    -3757    -3676    -3568    -3453    -3360 
   -3289    -3225    -3168    -3111    -3052    -3019    -3032    -3083 
   -3167    -3250    -3306    -3341    -3384    -3462    -3584    -3721 
   -3839    -3929    -3991    -4017    -3997    -3939    -3875    -3828 
   -3815    -3839    -3874    -3880    -3821    -3693    -3543    -3433 
   -3373    -3343    -3300    -3215    -3103    -2997    -2914    -2855 
   -2803    -2759    -2744    -2779    -2878    -3009    -3126    -3218 
   -3300    -3395    -3507    -3634    -3767    -3898    -4009    -4072 
   -4093    -4081    -4054    -4045    -4071    -4121    -4170    -4195 
   -4197    -4190    -4180    -4176    -4176    -4163    -4128    -4074 
   -4000    -3909    -3825    -3775    -3773    -3835    -3951    -4064 
   -4125    -4124    -4074    -4008    -3948    -3928    -3964    -4036 
   -4098    -4105    -4059    -3983    -3901    -3831    -3778    -3731 
   -3678    -3623    -3574    -3526    -3465    -3381    -3267    -3132 
   -2997    -2879    -2786    -2716    -2643    -2536    -2394    -2246 
   -2135    -2088    -2111    -2195    -2312    -2420    -2492    -2504 
   -2471    -2454    -2484    -2546    -2605    -2647    -2687    -2762 
   -2876    -3003    -3103    -3183    -3267    -3361    -3445    -3491 
   -3499    -3497    -3507    -3516    -3510    -3496    -3491    -3507 
   -3547    -3586    -3604    -3627    -3689    -3790    -3912    -4040 
   -4158    -4241    -4288    -4314    -4327    -4348    -4390    -4441 
   -4477    -4487    -4475    -4445    -4396    -4330    -4248    -4171 
   -4106    -4045    -3978    -3901    -3831    -3801    -3823    -3871 
   -3924    -3965    -3996    -4016    -4035    -4058    -4074    -4081 
   -4095    -4140    -4218    -4303    -4369    -4407    -4438    -4487 
   -4546    -4583    -4598    -4622    -4653    -4699    -4773    -4852 
   -4920    -4972    -5004    -5020    -5036    -5081    -5152    -5235 
   -5323    -5409    -5497    -5580    -5643    -5664    -5651    -5613 
   -5566    -5505    -5427    -5347    -5292    -5270    -5259    -5217 
   -5139    -5051    -4980    -4932    -4911    -4918    -4959    -4997 
   -4994    -4955    -4908    -4885    -4900    -4927    -4939    -4934 
   -4909    -4865    -4812    -4765    -4737    -4726    -4714    -4677 
   -4612    -4544    -4502    -4500    -4534    -4604    -4700    -4792 
   -4845    -4837    -4770    -4665    -4544    -4440    -4375    -4349 
   -4341    -4338    -4348    -4372    -4396    -4406    -4388    -4344 
   -4303    -4293    -4309    -4332    -4341    -4341    -4345    -4364 
   -4393    -4417    -4428    -4444    -4480    -4521    -4553    -4600 
   -4673    -4752    -4806    -4818    -4807    -4824    -4900    -4996 
   -5084    -5157    -5216    -5262    -5277    -5265    -5266    -5305 
   -5381    -5460    -5509    -5517    -5510    -5535    -5606    -5684 
   -5718    -5689    -5636    -5620    -5668    -5769    -5876    -5935 
   -5925    -5876    -5841    -5849    -5904    -5992    -6081    -6138 
   -6147    -6110    -6042    -5977    -5942    -5940    -5962    -5989 
   -6014    -6025    -6029    -6042    -6053    -6048    -6041    -6050 
   -6072    -6091    -6088    -6060    -6034    -6030    -6050    -6096 
   -6143    -6174    -6178    -6151    -6096    -6015    -5929    -5876 
   -5872    -5884    -5871    -5818    -5742    -5697    -5715    -5776 
   -5827    -5833    -5780    -5714    -5682    -5684    -5699    -5697 
   -5653    -5590    -5537    -5512    -5524    -5570    -5637    -5715 
   -5790    -5842    -5849    -5800    -5725    -5675    -5676    -5703 
   -5705    -5643    -5530    -5429    -5368    -5317    -5219    -5067 
   -4903    -4789    -4764    -4808    -4880    -4938    -4956    -4926 
   -4865    -4806    -4783    -4814    -4892    -4980    -5043    -5051 
   -5000    -4918    -4839    -4791    -4774    -4773    -4768    -4750 
   -4739    -4761    -4828    -4926    -5015    -5063    -5066    -5062 
   -5119    -5250    -5412    -5557    -5649    -5687    -5688    -5668 
   -5640    -5623    -5626    -5645    -5664    -5661    -5645    -5638 
   -5664    -5725    -5800    -5849    -5856    -5856    -5892    -5967 
   -6052    -6115    -6142    -6145    -6150    -6188    -6261    -6335 
   -6380    -6386    -6388    -6419    -6478    -6547    -6593    -6575 
   -6498    -6415    -6381    -6420    -6502    -6581    -6613    -6593 
   -6544    -6502    -6490    -6509    -6544    -6590    -6635    -6656 
   -6655    -6648    -6637    -6633    -6656    -6706    -6760    -6793 
   -6781    -6711    -6609    -6527    -6507    -6529    -6554    -6551 
   -6519    -6475    -6451    -6442    -6417    -6369    -6309    -6284 
   -6336    -6443    -6538    -6569    -6531    -6463    -6434    -6471 
   -6554    -6628    -6660    -6662    -6656    -6666    -6690    -6727 
   -6766    -6791    -6812    -6843    -6880    -6906    -6907    -6894 
   -6895    -6917    -6921    -6868    -6751    -6596    -6457    -6370 
   -6327    -6285    -6216    -6106    -5992    -5917    -5884    -5864 
   -5831    -5787    -5771    -5809    -5890    -5972    -6025    -6039 
   -6042    -6060    -6102    -6156    -6186    -6170    -6115    -6052 
   -6006    -5987    -5984    -5980    -5979    -5980    -5981    -5979 
   -5971    -5961    -5960    -5980    -6006    -6016    -6010    -5998 
   -5995    -6004    -6010    -5985    -5940    -5908    -5918    -5965 
   -6042    -6122    -6173    -6216    -6284    -6381    -6494    -6596 
   -6667    -6731    -6798    -6866    -6944    -7022    -7082    -7127 
   -7159    -7176    -7200    -7225    -7234    -7230    -7219    -7203 
   -7182    -7145    -7091    -7029    -6975    -6943    -6929    -6930 
   -6941    -6952    -6943    -6897    -6831    -6782    -6768    -6793 
   -6839    -6860    -6837    -6794    -6766    -6759    -6762    -6755 
   -6732    -6711    -6733    -6806    -6902    -6982    -7026    -7055 
   -7091    -7121    -7132    -7132    -7141    -7156    -7160    -7150 
   -7107    -7041    -6982    -6929    -6866    -6795    -6706    -6598 
   -6498    -6415    -6322    -6200    -6062    -5935    -5834    -5756 
   -5698    -5656    -5629    -5606    -5584    -5555    -5508    -5443 
   -5379    -5333    -5300    -5268    -5239    -5211    -5185    -5173 
   -5185    -5215    -5231    -5204    -5138    -5058    -4986    -4935 
   -4916    -4918    -4916    -4909    -4907    -4895    -4885    -4885 
   -4880    -4865    -4833    -4769    -4666    -4545    -4444    -4369 
   -4305    -4255    -4223    -4220    -4245    -4260    -4248    -4238 
   -4245    -4280    -4334    -4360    -4344    -4307    -4260    -4192 
   -4124    -4086    -4074    -4082    -4093    -4101    -4114    -4148 
   -4195    -4232    -4252    -4286    -4338    -4398    -4453    -4494 
   -4513    -4537    -4579    -4621    -4646    -4638    -4606    -4572 
   -4557    -4561    -4560    -4546    -4534    -4517    -4479    -4426 
