Origin Time       2016/04/16 01:25:00
Lat.              32.753
Long.             130.762
Depth. (km)       12
Mag.              7.3
Station Code      HRS001
Station Lat.      35.0337
Station Long.     132.9018
Station Height(m) 566
Record Time       2016/04/16 01:26:07
Sampling Freq(Hz) 100Hz
Duration Time(s)  106
Dir.              E-W
Scale Factor      7845(gal)/8223790
Max. Acc. (gal)   2.900
Last Correction   2016/04/16 01:26:08
Memo.             
[...]
   -5783    -5652    -5503    -5358    -5235    -5164    -5151    -5185 
   -5235    -5270    -5267    -5227    -5152    -5060    -4972    -4899 
   -4851    -4839    -4869    -4945    -5063    -5220    -5398    -5583 
   -5779    -5975    -6145    -6254    -6280    -6214    -6069    -5868 
   -5643    -5418    -5227    -5098    -5055    -5086    -5169    -5294 
   -5455    -5629    -5792    -5922    -6002    -6026    -6011    -5964 
   -5890    -5802    -5715    -5649    -5621    -5628    -5659    -5710 
   -5780    -5844    -5872    -5852    -5779    -5670    -5557    -5474 
   -5440    -5448    -5481    -5509    -5503    -5460    -5391    -5310 
   -5233    -5164    -5103    -5044    -4993    -4945    -4903    -4882 
   -4908    -4985    -5092    -5204    -5292    -5339    -5352    -5355 
   -5352    -5341    -5331    -5327    -5336    -5364    -5404    -5445 
   -5499    -5571    -5652    -5725    -5786    -5842    -5891    -5914 
   -5899    -5844    -5769    -5711    -5686    -5692    -5718    -5741 
   -5756    -5775    -5798    -5818    -5823    -5807    -5771    -5734 
   -5709    -5694    -5691    -5701    -5717    -5722    -5710    -5702 
   -5722    -5771    -5810    -5784    -5686    -5544    -5387    -5244 
   -5131    -5058    -5047    -5116    -5235    -5371    -5495    -5603 
   -5705    -5802    -5873    -5890    -5845    -5755    -5626    -5468 
   -5304    -5166    -5082    -5042    -5020    -5007    -5013    -5039 
   -5071    -5093    -5101    -5092    -5076    -5060    -5042    -5016 
   -4996    -5004    -5051    -5124    -5198    -5243    -5238    -5178 
   -5080    -4968    -4874    -4826    -4823    -4861    -4934    -5020 
   -5108    -5196    -5275    -5339    -5374    -5370    -5320    -5235 
   -5128    -5015    -4918    -4852    -4820    -4827    -4874    -4961 
   -5070    -5192    -5316    -5425    -5498    -5517    -5483    -5417 
   -5346    -5293    -5262    -5240    -5220    -5215    -5240    -5298 
   -5381    -5479    -5590    -5713    -5834    -5942    -6025    -6068 
   -6069    -6034    -5964    -5875    -5798    -5763    -5787    -5867 
   -5996    -6156    -6296    -6361    -6338    -6250    -6138    -6049 
   -6012    -6033    -6091    -6158    -6205    -6205    -6153    -6069 
   -5977    -5888    -5810    -5740    -5672    -5601    -5522    -5435 
   -5337    -5239    -5154    -5104    -5105    -5167    -5286    -5436 
   -5595    -5745    -5869    -5942    -5949    -5898    -5811    -5713 
   -5622    -5552    -5517    -5519    -5548    -5580    -5629    -5718 
   -5853    -6018    -6188    -6331    -6423    -6457    -6439    -6386 
   -6320    -6262    -6218    -6172    -6120    -6069    -6027    -6000 
   -5971    -5914    -5827    -5709    -5556    -5381    -5204    -5046 
   -4938    -4904    -4947    -5046    -5178    -5329    -5510    -5732 
   -5977    -6216    -6426    -6577    -6652    -6660    -6623    -6564 
   -6509    -6465    -6431    -6405    -6392    -6384    -6367    -6334 
   -6269    -6169    -6050    -5944    -5860    -5792    -5732    -5675 
   -5618    -5552    -5463    -5347    -5228    -5134    -5067    -5024 
   -4989    -4968    -4963    -4985    -5034    -5108    -5213    -5350 
   -5498    -5638    -5749    -5807    -5803    -5736    -5609    -5458 
   -5328    -5238    -5189    -5190    -5235    -5316    -5421    -5526 
   -5614    -5683    -5718    -5714    -5679    -5630    -5579    -5516 
   -5420    -5273    -5088    -4891    -4712    -4581    -4523    -4557 
   -4696    -4928    -5228    -5575    -5960    -6351    -6709    -6987 
   -7152    -7177    -7049    -6766    -6351    -5864    -5385    -4970 
   -4657    -4460    -4376    -4387    -4464    -4585    -4745    -4932 
   -5128    -5310    -5447    -5513    -5509    -5454    -5377    -5302 
   -5255    -5250    -5294    -5389    -5524    -5668    -5798    -5892 
   -5922    -5880    -5790    -5686    -5611    -5609    -5682    -5805 
   -5949    -6085    -6178    -6214    -6184    -6091    -5944    -5738 
   -5474    -5152    -4812    -4511    -4306    -4236    -4293    -4452 
   -4689    -4970    -5251    -5494    -5670    -5764    -5784    -5746 
   -5676    -5583    -5459    -5325    -5213    -5131    -5069    -5011 
   -4950    -4888    -4823    -4741    -4635    -4519    -4415    -4334 
   -4274    -4223    -4186    -4176    -4212    -4297    -4428    -4588 
   -4757    -4893    -4953    -4922    -4835    -4742    -4689    -4707 
   -4795    -4923    -5066    -5194    -5287    -5358    -5436    -5532 
   -5633    -5718    -5769    -5798    -5823    -5854    -5898    -5952 
   -6015    -6092    -6178    -6257    -6311    -6334    -6320    -6270 
   -6184    -6070    -5958    -5871    -5802    -5737    -5653    -5530 
   -5355    -5138    -4909    -4719    -4622    -4634    -4730    -4862 
   -4986    -5069    -5093    -5054    -4966    -4851    -4715    -4568 
   -4419    -4293    -4223    -4243    -4345    -4487    -4635    -4780 
   -4930    -5100    -5293    -5494    -5683    -5840    -5940    -5975 
   -5958    -5919    -5880    -5852    -5836    -5833    -5846    -5880 
   -5919    -5946    -5960    -5961    -5937    -5886    -5819    -5744 
   -5663    -5578    -5485    -5391    -5309    -5254    -5248    -5301 
   -5405    -5541    -5674    -5776    -5859    -5948    -6068    -6216 
   -6380    -6527    -6620    -6639    -6578    -6459    -6323    -6199 
   -6077    -5949    -5810    -5675    -5579    -5541    -5557    -5629 
   -5768    -5964    -6177    -6346    -6432    -6448    -6436    -6430 
   -6430    -6417    -6382    -6339    -6297    -6255    -6207    -6151 
   -6104    -6083    -6099    -6156    -6252    -6377    -6500    -6586 
   -6616    -6582    -6507    -6431    -6382    -6365    -6359    -6335 
   -6284    -6201    -6088    -5945    -5773    -5593    -5441    -5360 
   -5360    -5431    -5535    -5643    -5741    -5830    -5921    -6003 
   -6066    -6108    -6122    -6091    -6008    -5881    -5736    -5595 
   -5466    -5343    -5217    -5081    -4911    -4687    -4402    -4074 
   -3757    -3500    -3330    -3231    -3176    -3150    -3133    -3100 
   -3049    -2997    -2967    -2972    -2988    -2995    -2998    -3015 
   -3061    -3126    -3184    -3229    -3281    -3357    -3443    -3504 
   -3508    -3457    -3375    -3284    -3202    -3136    -3100    -3114 
   -3177    -3275    -3387    -3511    -3649    -3793    -3923    -4017 
   -4078    -4121    -4170    -4214    -4236    -4222    -4191    -4180 
   -4222    -4317    -4436    -4544    -4614    -4623    -4575    -4502 
   -4430    -4393    -4422    -4514    -4648    -4797    -4941    -5063 
   -5159    -5219    -5224    -5167    -5053    -4904    -4756    -4633 
   -4552    -4526    -4540    -4550    -4527    -4469    -4392    -4327 
   -4301    -4322    -4402    -4540    -4727    -4945    -5171    -5391 
   -5583    -5709    -5748    -5697    -5584    -5454    -5339    -5258 
   -5216    -5217    -5262    -5324    -5366    -5350    -5268    -5151 
   -5026    -4901    -4793    -4726    -4723    -4785    -4889    -4996 
   -5066    -5086    -5071    -5044    -5022    -5005    -4996    -4993 
   -5003    -5031    -5096    -5208    -5347    -5475    -5568    -5632 
   -5689    -5755    -5817    -5856    -5853    -5802    -5702    -5567 
   -5433    -5335    -5290    -5298    -5336    -5370    -5386    -5400 
   -5443    -5530    -5647    -5742    -5772    -5722    -5625    -5525 
   -5463    -5476    -5585    -5782    -6031    -6268    -6421    -6462 
   -6401    -6273    -6112    -5958    -5850    -5827    -5904    -6048 
   -6200    -6305    -6335    -6301    -6232    -6142    -6038    -5926 
   -5791    -5599    -5337    -5032    -4748    -4556    -4496    -4561 
   -4704    -4877    -5046    -5186    -5301    -5416    -5560    -5742 
   -5935    -6091    -6164    -6129    -6004    -5831    -5653    -5509 
   -5429    -5408    -5421    -5452    -5490    -5517    -5521    -5499 
   -5459    -5416    -5385    -5371    -5382    -5427    -5505    -5602 
   -5686    -5713    -5656    -5548    -5422    -5298    -5161    -4982 
   -4772    -4572    -4441    -4428    -4548    -4776    -5062    -5368 
   -5670    -5938    -6166    -6361    -6520    -6637    -6694    -6673 
   -6578    -6427    -6246    -6075    -5944    -5853    -5806    -5811 
   -5891    -6056    -6261    -6427    -6505    -6489    -6417    -6316 
   -6192    -6038    -5849    -5633    -5400    -5163    -4934    -4735 
   -4588    -4507    -4482    -4487    -4498    -4518    -4557    -4608 
   -4648    -4639    -4548    -4360    -4097    -3804    -3532    -3325 
   -3202    -3163    -3184    -3240    -3312    -3407    -3544    -3732 
   -3951    -4171    -4363    -4509    -4612    -4681    -4718    -4719 
   -4676    -4594    -4495    -4398    -4309    -4228    -4151    -4074 
   -4006    -3964    -3975    -4058    -4207    -4393    -4575    -4720 
   -4830    -4918    -4997    -5055    -5066    -5005    -4878    -4692 
   -4455    -4183    -3924    -3716    -3573    -3511    -3555    -3716 
   -3989    -4326    -4648    -4889    -5027    -5084    -5078    -5009 
   -4892    -4777    -4714    -4710    -4748    -4807    -4895    -5027 
   -5206    -5406    -5594    -5748    -5860    -5917    -5895    -5791 
   -5647    -5517    -5440    -5436    -5505    -5644    -5844    -6072 
   -6252    -6308    -6214    -6003    -5730    -5429    -5116    -4816 
   -4565    -4387    -4297    -4294    -4357    -4471    -4618    -4772 
   -4923    -5065    -5190    -5298    -5389    -5460    -5510    -5537 
   -5539    -5517    -5489    -5481    -5513    -5583    -5683    -5800 
   -5929    -6053    -6158    -6235    -6288    -6323    -6345    -6356 
   -6380    -6430    -6529    -6681    -6872    -7087    -7292    -7460 
   -7565    -7586    -7515    -7360    -7134    -6868    -6613    -6417 
   -6305    -6282    -6346    -6478    -6658    -6858    -7040    -7164 
   -7194    -7119    -6967    -6772    -6558    -6326    -6088    -5861 
   -5656    -5478    -5351    -5304    -5352    -5485    -5672    -5895 
   -6138    -6394    -6633    -6806    -6890    -6903    -6885    -6859 
   -6821    -6762    -6683    -6594    -6493    -6380    -6272    -6214 
   -6265    -6423    -6643    -6859    -7013    -7061    -6987    -6831 
   -6666    -6559    -6536    -6594    -6698    -6805    -6879    -6902 
   -6860    -6763    -6640    -6523    -6435    -6385    -6367    -6374 
   -6396    -6427    -6485    -6583    -6717    -6858    -6971    -7042 
   -7074    -7075    -7075    -7092    -7146    -7249    -7381    -7504 
   -7586    -7622    -7612    -7578    -7526    -7441    -7311    -7142 
   -6955    -6767    -6561    -6315    -6043    -5786    -5570    -5406 
   -5292    -5215    -5164    -5148    -5167    -5196    -5202    -5197 
   -5201    -5208    -5194    -5128    -5004    -4849    -4691    -4535 
   -4391    -4293    -4276    -4347    -4482    -4656    -4858    -5097 
   -5387    -5721    -6054    -6322    -6481    -6519    -6431    -6228 
   -5961    -5687    -5452    -5282    -5193    -5193    -5279    -5441 
   -5651    -5875    -6066    -6174    -6154    -5995    -5737    -5448 
   -5202    -5042    -4959    -4918    -4885    -4849    -4793    -4708 
   -4611    -4541    -4527    -4571    -4662    -4810    -5022    -5289 
   -5571    -5829    -6039    -6192    -6266    -6242    -6110    -5894 
   -5641    -5402    -5224    -5142    -5174    -5319    -5537    -5776 
   -6014    -6254    -6507    -6751    -6943    -7068    -7149    -7215 
   -7264    -7267    -7190    -7026    -6787    -6488    -6165    -5879 
   -5701    -5655    -5702    -5784    -5848    -5875    -5872    -5845 
   -5803    -5765    -5751    -5765    -5811    -5900    -6038    -6222 
   -6436    -6651    -6833    -6968    -7041    -7041    -6959    -6804 
   -6606    -6404    -6241    -6162    -6180    -6268    -6372    -6430 
   -6403    -6301    -6141    -5945    -5765    -5664    -5686    -5849 
   -6124    -6442    -6718    -6912    -7022    -7069    -7065    -7022 
   -6960    -6893    -6817    -6720    -6600    -6467    -6349    -6278 
   -6290    -6399    -6605    -6898    -7233    -7546    -7776    -7889 
   -7893    -7809    -7659    -7472    -7264    -7032    -6764    -6477 
   -6193    -5960    -5813    -5759    -5792    -5906    -6069    -6247 
   -6411    -6546    -6646    -6709    -6725    -6690    -6615    -6512 
   -6393    -6268    -6143    -6022    -5883    -5694    -5475    -5297 
   -5240    -5335    -5563    -5876    -6210    -6502    -6700    -6775 
   -6748    -6675    -6610    -6562    -6489    -6356    -6170    -5945 
   -5692    -5441    -5251    -5177    -5228    -5385    -5594    -5795 
   -5952    -6030    -6006    -5904    -5768    -5656    -5626    -5701 
   -5853    -6023    -6173    -6281    -6323    -6304    -6258    -6227 
   -6259    -6380    -6556    -6723    -6815    -6826    -6797    -6766 
   -6744    -6743    -6774    -6856    -6972    -7056    -7042    -6919 
   -6759    -6647    -6629    -6714    -6870    -7049    -7186    -7207 
   -7092    -6897    -6705    -6582    -6561    -6644    -6814    -7041 
   -7288    -7499    -7630    -7697    -7717    -7693    -7614    -7462 
   -7256    -7045    -6859    -6691    -6544    -6436    -6381    -6354 
   -6320    -6251    -6158    -6073    -6022    -6006    -6022    -6075 
   -6183    -6359    -6579    -6786    -6943    -7044    -7106    -7142 
   -7159    -7144    -7091    -7001    -6881    -6748    -6627    -6556 
   -6583    -6737    -7007    -7344    -7681    -7981    -8232    -8424 
   -8542    -8571    -8496    -8317    -8043    -7699    -7319    -6941 
   -6610    -6358    -6186    -6081    -6030    -6014    -6025    -6054 
   -6085    -6099    -6103    -6119    -6161    -6211    -6232    -6212 
   -6172    -6126    -6077    -6015    -5926    -5798    -5626    -5416 
   -5175    -4935    -4727    -4576    -4502    -4525    -4654    -4888 
   -5200    -5544    -5864    -6119    -6280    -6327    -6243    -6042 
   -5755    -5428    -5104    -4807    -4546    -4353    -4263    -4295 
   -4448    -4683    -4935    -5159    -5335    -5458    -5552    -5630 
   -5688    -5751    -5846    -5980    -6130    -6254    -6326    -6361 
   -6394    -6427    -6450    -6448    -6442    -6451    -6470    -6469 
   -6432    -6380    -6350    -6386    -6497    -6663    -6860    -7052 
   -7186    -7221    -7156    -7020    -6839    -6639    -6444    -6273 
   -6134    -6034    -5983    -5985    -6034    -6102    -6150    -6145 
   -6080    -6011    -5995    -6052    -6166    -6318    -6494    -6691 
   -6897    -7099    -7288    -7441    -7523    -7510    -7399    -7219 
   -7009    -6786    -6540    -6276    -6015    -5782    -5582    -5406 
   -5262    -5178    -5171    -5217    -5283    -5339    -5363    -5359 
   -5346    -5314    -5260    -5192    -5116    -5024    -4903    -4762 
   -4633    -4541    -4491    -4491    -4550    -4664    -4822    -4989 
   -5119    -5192    -5242    -5312    -5424    -5568    -5724    -5884 
   -6043    -6185    -6284    -6320    -6293    -6214    -6092    -5934 
   -5730    -5471    -5162    -4835    -4540    -4334    -4276    -4379 
   -4610    -4916    -5233    -5512    -5705    -5778    -5740    -5633 
   -5512    -5417    -5356    -5310    -5247    -5139    -4999    -4870 
   -4780    -4733    -4726    -4766    -4864    -4996    -5131    -5248 
   -5331    -5377    -5393    -5358    -5258    -5097    -4901    -4702 
   -4529    -4392    -4279    -4180    -4101    -4040    -4006    -4003 
   -4029    -4087    -4183    -4310    -4464    -4630    -4774    -4869 
   -4899    -4870    -4811    -4730    -4630    -4526    -4429    -4342 
   -4266    -4194    -4139    -4133    -4189    -4288    -4406    -4519 
   -4611    -4675    -4710    -4734    -4781    -4873    -4996    -5124 
   -5247    -5356    -5436    -5459    -5401    -5273    -5112    -4958 
   -4831    -4750    -4733    -4783    -4897    -5053    -5208    -5343 
   -5459    -5556    -5626    -5663    -5668    -5648    -5605    -5544 
   -5481    -5433    -5405    -5391    -5374    -5331    -5265    -5202 
   -5166    -5140    -5100    -5036    -4958    -4874    -4785    -4689 
   -4598    -4544    -4571    -4673    -4799    -4904    -4989    -5084 
   -5193    -5281    -5301    -5248    -5144    -5015    -4885    -4761 
   -4648    -4567    -4530    -4519    -4509    -4492    -4476    -4463 
   -4438    -4384    -4297    -4178    -4044    -3919    -3836    -3835 
   -3924    -4066    -4214    -4342    -4440    -4499    -4519    -4499 
   -4455    -4395    -4307    -4176    -4001    -3804    -3630    -3520 
   -3488    -3519    -3582    -3666    -3771    -3898    -4031    -4147 
   -4237    -4297    -4327    -4333    -4314    -4278    -4247    -4253 
   -4302    -4367    -4407    -4407    -4371    -4320    -4268    -4213 
   -4143    -4059    -3975    -3901    -3851    -3847    -3905    -4017 
   -4159    -4305    -4436    -4554    -4653    -4704    -4691    -4615 
   -4483    -4306    -4117    -3960    -3882    -3912    -4027    -4185 
   -4351    -4500    -4625    -4738    -4842    -4926    -4984    -5009 
   -4970    -4850    -4664    -4437    -4212    -4039    -3943    -3924 
   -3977    -4074    -4180    -4278    -4345    -4363    -4333    -4274 
   -4197    -4121    -4059    -3994    -3899    -3766    -3615    -3480 
   -3383    -3336    -3346    -3411    -3526    -3669    -3808    -3901 
   -3912    -3840    -3723    -3603    -3518    -3489    -3538    -3653 
   -3798    -3929    -4028    -4107    -4197    -4317    -4453    -4565 
   -4629    -4652    -4648    -4614    -4553    -4486    -4448    -4472 
   -4554    -4656    -4752    -4845    -4934    -5005    -5046    -5065 
   -5077    -5101    -5125    -5134    -5119    -5084    -5039    -4986 
   -4916    -4833    -4746    -4662    -4583    -4500    -4415    -4351 
   -4317    -4302    -4289    -4266    -4240    -4241    -4298    -4411 
   -4564    -4735    -4900    -5031    -5105    -5104    -5035    -4938 
   -4842    -4760    -4680    -4602    -4550    -4549    -4596    -4693 
   -4843    -5038    -5250    -5439    -5580    -5668    -5698    -5663 
   -5559    -5379    -5150    -4922    -4741    -4637    -4626    -4685 
   -4787    -4896    -4982    -5042    -5101    -5169    -5235    -5279 
   -5277    -5217    -5113    -4999    -4914    -4878    -4885    -4908 
   -4914    -4892    -4857    -4814    -4754    -4673    -4572    -4457 
   -4352    -4295    -4326    -4459    -4679    -4942    -5190    -5381 
   -5498    -5547    -5536    -5475    -5366    -5212    -5016    -4806 
   -4627    -4527    -4526    -4619    -4789    -5004    -5233    -5443 
   -5590    -5656    -5641    -5555    -5424    -5285    -5178    -5130 
   -5135    -5177    -5244    -5335    -5448    -5572    -5679    -5752 
   -5792    -5807    -5795    -5757    -5707    -5667    -5660    -5701 
   -5771    -5848    -5923    -5995    -6044    -6042    -5983    -5895 
   -5809    -5740    -5688    -5638    -5590    -5564    -5559    -5567 
   -5594    -5643    -5703    -5760    -5795    -5793    -5751    -5664 
   -5552    -5447    -5371    -5335    -5335    -5364    -5398    -5413 
   -5404    -5377    -5370    -5418    -5530    -5684    -5846    -5985 
   -6096    -6197    -6299    -6397    -6497    -6619    -6762    -6881 
   -6948    -6945    -6874    -6748    -6610    -6494    -6417    -6373 
   -6358    -6381    -6435    -6502    -6561    -6594    -6596    -6571 
