Origin Time       2016/04/16 01:25:00
Lat.              32.753
Long.             130.762
Depth. (km)       12
Mag.              7.3
Station Code      HRS019
Station Lat.      34.2530
Station Long.     132.5617
Station Height(m) 4
Record Time       2016/04/16 01:25:53
Sampling Freq(Hz) 100Hz
Duration Time(s)  92
Dir.              N-S
Scale Factor      7845(gal)/8223790
Max. Acc. (gal)   19.457
Last Correction   2016/04/16 01:25:54
Memo.             
[...]
   10567    11107    11729    12375    13007    13614    14222    14823 
   15319    15622    15745    15797    15876    15942    15869    15583 
   15125    14594    14061    13552    13059    12579    12117    11684 
   11237    10735    10269     9998     9969    10121    10334    10486 
   10531    10494    10444    10424    10451    10609    11018    11681 
   12457    13216    13932    14628    15286    15811    16047    15908 
   15518    15152    14985    14963    14965    14908    14717    14357 
   13865    13363    13016    12895    12860    12718    12417    12016 
   11568    11103    10655    10255     9918     9647     9458     9385 
    9494     9859    10449    11094    11655    12167    12725    13342 
   13945    14455    14859    15175    15410    15495    15296    14790 
   14118    13441    12895    12595    12557    12683    12849    12957 
   12970    12941    12943    12989    13018    12939    12730    12453 
   12177    11881    11539    11188    10922    10833    10918    11094 
   11304    11541    11831    12216    12680    13163    13576    13905 
   14218    14499    14667    14773    14895    14959    14828    14496 
   14052    13574    13111    12675    12299    12052    11961    11954 
   11975    12037    12128    12214    12283    12301    12245    12117 
   11917    11658    11373    11118    10949    10859    10795    10766 
   10848    11122    11637    12372    13163    13760    14014    13994 
   13853    13714    13671    13783    14041    14392    14746    14983 
   15029    14906    14686    14430    14173    13919    13686    13473 
   13231    12970    12806    12791    12810    12738    12546    12334 
   12251    12310    12382    12344    12140    11808    11454    11136 
   10848    10563    10342    10342    10652    11171    11676    12031 
   12313    12669    13127    13598    13991    14268    14451    14659 
   14990    15365    15583    15488    15124    14712    14424    14277 
   14200    14088    13852    13454    12896    12251    11655    11194 
   10827    10528    10377    10444    10709    11118    11616    12131 
   12598    12968    13204    13354    13563    13948    14493    15043 
   15439    15641    15607    15232    14516    13683    13069    12884 
   13073    13419    13729    13880    13765    13327    12622    11826 
   11109    10552    10180    10007    10012    10138    10351    10662 
   11083    11593    12141    12699    13288    13934    14604    15226 
   15734    16104    16390    16649    16866    16957    16829    16416 
   15682    14743    13798    12978    12293    11678    11067    10446 
    9892     9506     9319     9292     9321     9306     9283     9388 
    9749    10424    11302    12205    13066    13842    14478    14944 
   15264    15570    15951    16330    16632    16806    16803    16676 
   16495    16243    15923    15489    14837    13986    13015    12019 
   11132    10407     9840     9451     9243     9244     9474     9841 
   10263    10744    11273    11877    12564    13252    13849    14278 
   14538    14740    14983    15300    15707    16123    16383    16390 
   16167    15795    15369    14959    14565    14130    13548    12713 
   11682    10656     9825     9335     9159     9000     8644     8185 
    7832     7719     7877     8299     8985     9846    10758    11681 
   12567    13336    13987    14563    15136    15751    16353    16875 
   17293    17579    17706    17612    17202    16472    15574    14767 
   14184    13782    13571    13574    13657    13656    13441    13028 
   12561    12082    11578    11086    10629    10304    10191    10230 
   10322    10355    10282    10227    10338    10604    10917    11187 
   11435    11785    12279    12843    13412    13933    14376    14735 
   15026    15353    15807    16341    16860    17270    17456    17367 
   17046    16602    16150    15685    15118    14462    13796    13165 
   12600    12160    11894    11750    11630    11512    11426    11402 
   11470    11630    11832    11979    11983    11844    11604    11280 
   10928    10651    10546    10656    10926    11256    11731    12505 
   13470    14342    14958    15295    15412    15400    15329    15209 
   14985    14636    14270    14014    13918    13965    14079    14183 
   14268    14391    14647    15033    15365    15373    14848    13819 
   12565    11410    10500     9742     9054     8550     8367     8517 
    8853     9157     9394     9718    10307    11265    12503    13686 
   14490    14835    14827    14625    14296    13813    13227    12699 
   12417    12532    12992    13481    13693    13579    13325    13165 
   13142    13103    12921    12654    12483    12613    13073    13631 
   13979    13944    13509    12820    12150    11709    11587    11769 
   12141    12532    12722    12556    12144    11738    11466    11368 
   11449    11655    11927    12244    12573    12855    12982    12806 
   12297    11599    10967    10737    11125    12040    13129    13977 
   14354    14366    14199    13938    13725    13722    13953    14354 
   14808    15211    15498    15476    14963    14014    12815    11595 
   10652    10210    10277    10675    11178    11637    11932    11958 
   11782    11564    11402    11438    11761    12254    12717    13012 
   13194    13428    13740    13999    14111    14071    13927    13694 
   13363    13057    12912    12903    12976    13072    13045    12819 
   12442    11982    11549    11315    11317    11356    11233    10971 
   10798    10968    11526    12264    12945    13478    13965    14538 
   15161    15672    15920    15878    15569    14904    13899    12924 
   12321    12097    12094    12159    12220    12285    12361    12448 
   12548    12584    12528    12528    12667    12833    12933    12964 
   12957    12933    12927    13027    13262    13518    13675    13660 
   13408    13004    12653    12415    12185    11925    11753    11762 
   11912    12074    12197    12328    12496    12692    12910    13127 
   13332    13516    13721    14022    14385    14706    14867    14704 
   14179    13493    12918    12592    12487    12490    12559    12783 
   13213    13706    13994    13829    13204    12386    11659    11171 
   10989    11060    11173    11061    10697    10438    10602    11107 
   11684    12112    12343    12550    12896    13355    13795    14083 
   14188    14138    13917    13551    13212    13126    13279    13382 
   13215    12806    12372    12133    12021    11777    11311    10736 
   10212     9867     9776    10010    10624    11605    12785    13842 
   14503    14732    14679    14481    14177    13802    13456    13216 
   13073    13018    13039    13095    13165    13207    13073    12691 
   12258    12044    12139    12501    12992    13319    13327    13248 
   13333    13521    13601    13486    13242    12895    12451    12077 
   11975    12129    12360    12507    12522    12478    12482    12465 
   12287    12114    12260    12753    13401    14034    14575    14974 
   15110    14910    14480    13988    13498    12926    12229    11610 
   11264    11163    11132    10974    10639    10305    10166    10312 
   10655    10968    11191    11407    11669    12031    12552    13207 
   13905    14589    15171    15498    15566    15612    15850    16216 
   16452    16447    16317    16187    16070    15876    15490    14882 
   14122    13350    12640    11913    11097    10331     9842     9718 
    9910    10289    10725    11181    11693    12297    12930    13405 
   13628    13680    13645    13517    13359    13275    13240    13184 
   13188    13398    13849    14413    14845    14952    14785    14574 
   14517    14683    14963    15117    14995    14615    14019    13230 
   12380    11680    11225    10935    10643    10334    10224    10382 
   10569    10652    10771    11078    11651    12444    13217    13813 
   14284    14685    15026    15333    15556    15634    15631    15657 
   15697    15612    15276    14732    14188    13837    13706    13678 
   13559    13269    12966    12835    12852    12872    12741    12417 
   12128    12150    12426    12611    12436    11955    11408    10975 
   10732    10693    10835    11152    11663    12294    12833    13080 
   13047    12928    12970    13292    13759    14129    14273    14202 
   13979    13687    13444    13356    13432    13583    13794    14113 
   14486    14813    15033    15001    14598    13975    13371    12860 
   12396    11923    11377    10782    10280     9989     9857     9698 
    9440     9286     9505    10142    11053    12085    13082    13895 
   14476    14836    14952    14894    14895    15052    15128    14901 
   14484    14137    13965    13900    13855    13838    13865    13890 
   13884    13892    13940    13988    13983    13825    13420    12787 
   12021    11225    10574    10246    10258    10459    10594    10455 
   10157    10008    10195    10755    11578    12332    12783    13046 
   13342    13771    14241    14466    14284    13884    13574    13479 
   13539    13631    13675    13662    13641    13659    13729    13761 
   13647    13475    13402    13413    13463    13567    13663    13555 
   13189    12818    12654    12584    12511    12548    12653    12669 
   12669    12799    13045    13278    13386    13444    13651    14072 
   14636    15202    15627    15876    15934    15622    14759    13508 
   12303    11479    11075    10894    10693    10347     9882     9448 
    9255     9405     9823    10400    11082    11847    12680    13551 
   14366    14968    15244    15178    14836    14422    14183    14214 
   14447    14735    14960    15161    15407    15632    15726    15612 
   15272    14777    14199    13558    12928    12383    11848    11264 
   10712    10324    10160    10263    10592    10874    10794    10276 
    9520     8784     8197     7817     7815     8324     9285    10530 
   11843    12943    13672    14103    14326    14368    14321    14320 
   14386    14397    14312    14378    14835    15569    16275    16750 
   16983    17093    17235    17528    17972    18333    18360    17996 
   17225    16056    14708    13455    12382    11442    10646    10103 
    9909    10042    10374    10814    11222    11394    11315    11161 
   11114    11325    11836    12472    12997    13329    13479    13460 
   13312    13069    12791    12626    12680    12869    13012    13008 
   12923    12888    12827    12438    11630    10701    10003     9657 
    9598     9691     9844    10037    10268    10570    11056    11803 
   12769    13815    14710    15232    15400    15404    15326    15179 
   15043    14916    14716    14473    14291    14148    13905    13439 
   12819    12289    11935    11622    11354    11217    11080    10787 
   10361     9892     9522     9454     9791    10390    11032    11615 
   12190    12860    13641    14418    15059    15539    15877    16087 
   16212    16248    16135    15850    15410    14827    14126    13402 
   12815    12439    12148    11747    11236    10748    10405    10278 
   10285    10197     9883     9458     9137     8991     8937     8965 
    9077     9167     9216     9335     9593    10029    10712    11616 
   12559    13355    13961    14496    15094    15788    16572    17352 
   17919    18172    18169    17944    17490    16862    16136    15387 
   14654    13902    13113    12429    12025    11901    11980    12251 
   12623    12939    13111    13169    13196    13240    13285    13274 
   13170    13005    12876    12847    12901    13000    13193    13593 
   14265    15196    16275    17329    18257    19032    19592    19830 
   19651    19043    18108    16998    15915    15102    14593    14121 
   13481    12748    12089    11584    11161    10678    10088     9506 
    9085     8889     8901     9038     9157     9134     8962     8777 
    8708     8780     8992     9324     9666     9915    10125    10461 
   10995    11622    12197    12708    13261    13890    14496    14940 
   15148    15194    15249    15442    15764    16096    16320    16352 
   16054    15357    14396    13459    12781    12371    12046    11674 
   11230    10750    10258     9747     9185     8533     7758     6889 
    6043     5417     5171     5258     5432     5456     5263     4970 
    4752     4729     4965     5420     5923     6316     6598     6910 
    7427     8247     9337    10531    11595    12395    13000    13562 
   14175    14841    15469    15893    16015    15919    15759    15604 
   15469    15327    15101    14778    14512    14453    14548    14615 
   14500    14161    13691    13201    12798    12564    12420    12154 
   11700    11196    10828    10678    10648    10562    10405    10332 
   10411    10543    10659    10806    11109    11666    12421    13248 
   14138    15153    16299    17490    18582    19461    20054    20316 
   20286    20117    20035    20258    20815    21478    21970    22161 
   21969    21300    20187    18843    17462    16112    14794    13535 
   12411    11411    10388     9221     7888     6442     5063     3932 
    3030     2319     1921     2000     2651     3790     5163     6508 
    7651     8579     9420    10292    11298    12548    14099    15901 
   17818    19674    21401    22977    24340    25478    26477    27380 
   28075    28456    28534    28313    27739    26752    25294    23367 
   21072    18507    15697    12700     9701     6928     4472     2250 
     128    -1964    -3946    -5609    -6775    -7415    -7547    -7089 
   -5922    -4129    -1956      338     2562     4766     7236    10075 
   13065    15909    18378    20379    22018    23476    24840    26095 
   27156    27885    28242    28325    28293    28296    28341    28150 
   27386    25890    23687    21054    18473    16270    14470    12872 
   11176     9238     7149     5113     3365     2097     1375     1113 
    1196     1597     2378     3607     5193     6839     8239     9286 
   10116    11043    12307    13899    15665    17469    19198    20776 
   22135    23134    23614    23529    22987    22156    21153    20061 
   18936    17799    16691    15738    15091    14789    14665    14447 
   13999    13374    12634    11800    10949    10184     9580     9207 
    9137     9375     9817    10365    10972    11615    12334    13165 
   13999    14685    15191    15610    16036    16468    16892    17374 
   17865    18162    18133    17848    17520    17311    17174    16908 
   16372    15541    14453    13228    12046    11002    10098     9354 
    8829     8537     8410     8316     8132     7869     7628     7429 
    7141     6632     5977     5416     5125     5235     5844     6948 
    8480    10254    12005    13572    14874    15890    16757    17617 
   18470    19203    19583    19477    19111    18810    18659    18508 
   18108    17220    15754    13968    12375    11311    10785    10623 
   10621    10617    10470    10079     9475     8792     8132     7515 
    6974     6575     6389     6471     6837     7383     7963     8486 
    8982     9616    10467    11381    12202    12951    13689    14392 
   14986    15387    15552    15466    15196    14963    14931    14985 
   14897    14593    14204    13899    13711    13547    13332    13138 
   13086    13227    13568    14076    14586    14951    15163    15272 
   15323    15330    15232    14871    14040    12668    10982     9301 
    7753     6309     5031     3984     3138     2442     1863     1345 
     899      652      783     1367     2296     3373     4513     5769 
    7203     8780    10372    11739    12653    13073    13165    13185 
   13377    13923    14874    16119    17543    19117    20804    22457 
   23841    24780    25196    25039    24366    23286    21791    19813 
   17437    14893    12402    10146     8263     6705     5227     3663 
    2093      700     -338     -992    -1470    -1987    -2508    -2821 
   -2700    -2034     -877      676     2532     4584     6754     8949 
   11064    13109    15172    17281    19413    21492    23380    24975 
   26244    27117    27465    27140    26011    24082    21571    18890 
   16452    14411    12623    10867     9080     7337     5682     4097 
    2551     1031     -414    -1617    -2393    -2739    -2714    -2272 
   -1358       10     1781     3842     6069     8378    10697    13008 
   15353    17639    19608    21103    22168    22931    23445    23677 
   23572    23155    22527    21724    20633    19186    17436    15406 
   13101    10629     8093     5509     2907      406    -1802    -3515 
   -4618    -5036    -4722    -3743    -2178      -86     2392     5150 
    8055    10875    13462    15761    17733    19381    20745    21834 
   22632    23156    23545    23955    24402    24790    25019    25069 
   24992    24769    24233    23326    22157    20799    19178    17166 
   14790    12251     9717     7249     4872     2682      874     -361 
    -929     -884     -329      727     2258     4059     5890     7634 
    9369    11241    13255    15260    17074    18581    19813    20898 
   21895    22719    23186    23143    22520    21404    20047    18652 
   17250    15830    14385    12872    11295     9761     8418     7377 
    6582     5825     4992     4104     3249     2587     2193     1939 
    1676     1498     1707     2484     3724     5265     7072     9158 
   11406    13516    15137    16128    16729    17424    18563    20078 
   21566    22636    23079    22836    22021    20889    19688    18565 
   17500    16308    14796    12926    10937     9219     7863     6640 
    5413     4279     3381     2763     2359     2121     2081     2297 
    2704     3086     3365     3724     4453     5741     7530     9520 
   11323    12711    13749    14675    15778    17232    18993    20833 
   22457    23588    23998    23630    22746    21689    20596    19433 
   18115    16590    14899    13181    11529     9909     8233     6438 
    4568     2791     1325      380      102      508     1467     2822 
    4431     6093     7611     8896    10007    11090    12295    13709 
   15279    16869    18365    19677    20704    21334    21451    20979 
   19924    18354    16386    14272    12326    10777     9670     8899 
    8298     7723     7078     6311     5441     4533     3595     2655 
    1810     1161      762      615      710     1075     1769     2816 
    4215     5908     7777     9748    11792    13868    15859    17586 
   19014    20274    21445    22489    23261    23577    23296    22346 
   20790    18871    16835    14769    12726    10798     9005     7395 
    6186     5543     5386     5518     5736     5919     6077     6289 
    6752     7704     9163    10913    12717    14370    15691    16633 
   17354    18077    18878    19626    20202    20646    21123    21757 
   22511    23195    23557    23377    22592    21325    19784    18137 
   16488    14889    13285    11538     9710     8172     7310     7192 
    7548     7947     8073     7959     7915     8171     8664     9256 
    9964    10835    11869    13063    14463    16102    17910    19699 
   21323    22731    23913    24898    25687    26233    26477    26360 
   25802    24786    23392    21787    20121    18455    16746    14928 
   13068    11319     9799     8680     8151     8186     8530     8858 
