Origin Time       2016/04/16 01:25:00
Lat.              32.753
Long.             130.762
Depth. (km)       12
Mag.              7.3
Station Code      HRS017
Station Lat.      34.4040
Station Long.     133.0832
Station Height(m) 16
Record Time       2016/04/16 01:26:26
Sampling Freq(Hz) 100Hz
Duration Time(s)  73
Dir.              E-W
Scale Factor      7845(gal)/8223790
Max. Acc. (gal)   3.095
Last Correction   2016/04/16 01:26:27
Memo.             
[...]
   -3704    -3767    -3894    -4054    -4236    -4415    -4526    -4538 
   -4476    -4405    -4360    -4342    -4341    -4345    -4338    -4355 
   -4440    -4563    -4672    -4743    -4801    -4887    -4984    -5024 
   -5000    -4980    -5031    -5143    -5231    -5240    -5189    -5119 
   -5046    -4982    -4930    -4899    -4916    -4989    -5108    -5244 
   -5367    -5447    -5487    -5525    -5595    -5715    -5853    -5950 
   -6018    -6123    -6270    -6413    -6501    -6511    -6458    -6374 
   -6268    -6148    -6049    -6015    -6033    -6031    -5980    -5911 
   -5873    -5887    -5930    -5948    -5935    -5940    -5980    -6035 
   -6096    -6147    -6197    -6282    -6385    -6454    -6473    -6458 
   -6457    -6488    -6501    -6465    -6423    -6450    -6578    -6766 
   -6948    -7080    -7153    -7184    -7222    -7300    -7389    -7415 
   -7327    -7180    -7107    -7167    -7281    -7342    -7307    -7223 
   -7144    -7063    -6982    -6917    -6874    -6845    -6817    -6787 
   -6736    -6598    -6331    -5985    -5655    -5368    -5103    -4858 
   -4677    -4591    -4579    -4590    -4611    -4668    -4757    -4841 
   -4908    -4999    -5135    -5308    -5502    -5706    -5886    -6006 
   -6065    -6102    -6153    -6228    -6320    -6423    -6538    -6666 
   -6777    -6825    -6804    -6755    -6705    -6659    -6640    -6655 
   -6686    -6720    -6744    -6771    -6836    -6941    -7036    -7096 
   -7160    -7240    -7280    -7264    -7234    -7236    -7296    -7406 
   -7527    -7645    -7753    -7855    -7956    -8025    -8046    -8035 
   -8007    -7979    -7951    -7900    -7827    -7747    -7659    -7574 
   -7527    -7515    -7492    -7406    -7268    -7115    -6960    -6824 
   -6701    -6543    -6350    -6191    -6122    -6123    -6110    -6000 
   -5791    -5574    -5413    -5302    -5215    -5131    -5047    -4984 
   -4961    -4935    -4868    -4793    -4750    -4730    -4741    -4797 
   -4874    -4963    -5084    -5233    -5382    -5489    -5494    -5364 
   -5158    -4972    -4843    -4761    -4726    -4730    -4761    -4811 
   -4868    -4892    -4841    -4707    -4542    -4429    -4399    -4405 
   -4382    -4359    -4386    -4437    -4456    -4410    -4310    -4205 
   -4137    -4098    -4064    -4036    -4055    -4155    -4301    -4419 
   -4476    -4464    -4398    -4295    -4175    -4086    -4051    -4036 
   -4035    -4066    -4113    -4148    -4163    -4148    -4088    -4005 
   -3932    -3883    -3840    -3804    -3784    -3774    -3765    -3773 
   -3798    -3805    -3781    -3732    -3665    -3599    -3547    -3500 
   -3451    -3399    -3361    -3350    -3346    -3319    -3261    -3206 
   -3203    -3253    -3341    -3465    -3605    -3747    -3920    -4124 
   -4289    -4374    -4391    -4371    -4341    -4326    -4307    -4258 
   -4233    -4284    -4371    -4455    -4563    -4722    -4899    -5013 
   -5011    -4932    -4864    -4816    -4742    -4617    -4468    -4327 
   -4207    -4121    -4094    -4117    -4152    -4182    -4228    -4297 
   -4371    -4419    -4418    -4372    -4315    -4256    -4213    -4215 
   -4263    -4327    -4399    -4445    -4438    -4393    -4310    -4205 
   -4140    -4129    -4140    -4187    -4303    -4491    -4719    -4916 
   -5015    -5019    -5009    -5060    -5174    -5308    -5443    -5601 
   -5798    -6031    -6277    -6477    -6579    -6602    -6600    -6581 
   -6548    -6521    -6512    -6527    -6573    -6617    -6583    -6435 
   -6214    -6003    -5854    -5773    -5726    -5675    -5620    -5576 
   -5560    -5560    -5543    -5478    -5364    -5246    -5178    -5167 
   -5142    -5053    -4930    -4842    -4843    -4931    -5057    -5242 
   -5517    -5846    -6183    -6502    -6775    -6974    -7079    -7089 
   -7038    -6963    -6890    -6836    -6791    -6750    -6717    -6677 
   -6608    -6520    -6442    -6384    -6331    -6254    -6137    -6006 
   -5908    -5856    -5817    -5788    -5796    -5852    -5921    -5973 
   -6016    -6066    -6145    -6254    -6342    -6392    -6431    -6451 
   -6435    -6403    -6369    -6330    -6269    -6156    -6006    -5871 
   -5763    -5665    -5576    -5493    -5374    -5194    -4959    -4702 
   -4464    -4266    -4095    -3975    -3931    -3959    -4036    -4152 
   -4311    -4491    -4656    -4800    -4927    -5038    -5150    -5246 
   -5285    -5294    -5306    -5287    -5227    -5147    -5047    -4923 
   -4753    -4530    -4305    -4133    -4025    -3974    -3951    -3939 
   -3958    -4020    -4128    -4282    -4438    -4575    -4722    -4885 
   -5034    -5150    -5212    -5208    -5169    -5144    -5117    -5055 
   -4958    -4845    -4754    -4731    -4780    -4851    -4901    -4918 
   -4926    -4959    -5024    -5093    -5123    -5116    -5131    -5198 
   -5287    -5390    -5499    -5616    -5727    -5813    -5856    -5864 
   -5861    -5842    -5792    -5713    -5621    -5528    -5464    -5441 
   -5443    -5447    -5424    -5341    -5238    -5175    -5158    -5127 
   -5032    -4899    -4801    -4795    -4847    -4895    -4923    -4955 
   -4996    -5031    -5057    -5093    -5159    -5231    -5279    -5293 
   -5279    -5260    -5255    -5268    -5310    -5375    -5433    -5454 
   -5402    -5270    -5112    -4977    -4857    -4748    -4650    -4540 
   -4429    -4342    -4293    -4288    -4318    -4349    -4392    -4476 
   -4590    -4688    -4726    -4700    -4649    -4573    -4457    -4338 
   -4278    -4263    -4252    -4233    -4243    -4317    -4452    -4598 
   -4716    -4828    -4951    -5082    -5190    -5243    -5255    -5258 
   -5266    -5292    -5305    -5255    -5121    -4949    -4792    -4664 
   -4534    -4384    -4225    -4072    -3939    -3854    -3842    -3898 
   -3977    -4024    -4055    -4094    -4106    -4104    -4107    -4033 
   -3888    -3757    -3674    -3700    -3832    -3982    -4114    -4261 
   -4452    -4658    -4826    -4926    -4954    -4938    -4909    -4880 
   -4869    -4893    -4931    -4953    -4938    -4892    -4838    -4801 
   -4785    -4791    -4838    -4932    -5067    -5239    -5425    -5574 
   -5637    -5607    -5522    -5445    -5433    -5509    -5649    -5827 
   -6015    -6181    -6303    -6380    -6430    -6450    -6432    -6363 
   -6246    -6119    -6012    -5915    -5803    -5660    -5502    -5355 
   -5211    -5063    -4963    -4989    -5169    -5422    -5633    -5771 
   -5906    -6093    -6313    -6498    -6589    -6594    -6578    -6610 
   -6677    -6708    -6666    -6567    -6447    -6349    -6290    -6223 
   -6110    -5964    -5800    -5670    -5613    -5611    -5625    -5643 
   -5644    -5598    -5535    -5498    -5508    -5587    -5715    -5814 
   -5837    -5809    -5753    -5675    -5575    -5483    -5463    -5557 
   -5772    -6096    -6505    -6963    -7395    -7709    -7862    -7874 
   -7794    -7673    -7557    -7492    -7492    -7551    -7650    -7765 
   -7873    -7974    -8031    -7985    -7857    -7699    -7510    -7280 
   -7028    -6820    -6697    -6647    -6646    -6659    -6652    -6617 
   -6558    -6490    -6440    -6415    -6389    -6332    -6227    -6092 
   -5975    -5907    -5873    -5857    -5886    -5998    -6186    -6408 
   -6600    -6721    -6771    -6777    -6758    -6696    -6577    -6444 
   -6347    -6320    -6389    -6524    -6666    -6782    -6839    -6826 
   -6782    -6743    -6714    -6706    -6737    -6851    -7045    -7252 
   -7399    -7492    -7568    -7622    -7608    -7493    -7280    -7013 
   -6735    -6471    -6255    -6118    -6050    -6022    -5999    -5964 
   -5927    -5910    -5910    -5917    -5927    -5942    -5960    -5987 
   -5981    -5872    -5668    -5447    -5267    -5124    -5011    -4927 
   -4857    -4804    -4801    -4870    -5023    -5220    -5377    -5475 
   -5551    -5638    -5751    -5864    -5967    -6061    -6157    -6261 
   -6367    -6438    -6467    -6477    -6467    -6457    -6481    -6538 
   -6597    -6663    -6755    -6874    -7005    -7134    -7227    -7257 
   -7233    -7184    -7127    -7071    -6999    -6885    -6747    -6644 
   -6585    -6528    -6442    -6305    -6138    -5998    -5904    -5798 
   -5644    -5472    -5324    -5231    -5197    -5185    -5169    -5174 
   -5227    -5301    -5336    -5292    -5194    -5098    -5055    -5081 
   -5159    -5289    -5472    -5671    -5826    -5927    -5968    -5962 
   -5975    -6019    -6060    -6130    -6241    -6334    -6366    -6347 
   -6288    -6219    -6164    -6115    -6053    -5981    -5971    -6053 
   -6161    -6261    -6376    -6490    -6574    -6616    -6605    -6575 
   -6592    -6658    -6739    -6840    -6941    -6967    -6886    -6748 
   -6617    -6548    -6586    -6729    -6909    -7063    -7182    -7240 
   -7222    -7177    -7167    -7194    -7240    -7310    -7398    -7476 
   -7518    -7499    -7415    -7295    -7160    -7032    -6943    -6907 
   -6881    -6821    -6756    -6759    -6832    -6902    -6906    -6844 
   -6744    -6652    -6592    -6569    -6589    -6648    -6717    -6760 
   -6764    -6727    -6658    -6543    -6356    -6141    -5964    -5846 
   -5755    -5672    -5613    -5602    -5644    -5710    -5764    -5796 
   -5823    -5861    -5881    -5837    -5717    -5547    -5354    -5134 
   -4888    -4672    -4553    -4550    -4606    -4631    -4598    -4563 
   -4580    -4648    -4720    -4770    -4784    -4770    -4762    -4792 
   -4857    -4912    -4896    -4785    -4644    -4560    -4552    -4572 
   -4577    -4576    -4599    -4677    -4842    -5111    -5458    -5821 
   -6156    -6459    -6728    -6948    -7091    -7141    -7138    -7153 
   -7236    -7416    -7681    -7967    -8198    -8341    -8370    -8268 
   -8106    -7982    -7924    -7911    -7919    -7946    -8010    -8102 
   -8159    -8133    -8035    -7928    -7870    -7857    -7857    -7874 
   -7913    -7950    -7986    -8037    -8111    -8210    -8283    -8257 
   -8121    -7885    -7569    -7245    -6999    -6871    -6831    -6801 
   -6752    -6731    -6770    -6880    -7072    -7318    -7539    -7663 
   -7688    -7668    -7654    -7659    -7668    -7663    -7632    -7570 
   -7497    -7446    -7431    -7456    -7510    -7578    -7650    -7742 
   -7855    -7962    -8040    -8090    -8122    -8154    -8174    -8131 
   -7997    -7815    -7652    -7522    -7400    -7277    -7160    -7102 
   -7150    -7277    -7411    -7528    -7619    -7663    -7636    -7535 
   -7406    -7335    -7388    -7535    -7669    -7717    -7728    -7759 
   -7804    -7808    -7684    -7365    -6928    -6515    -6184    -5925 
   -5733    -5610    -5541    -5506    -5466    -5404    -5348    -5337 
   -5362    -5382    -5389    -5412    -5462    -5508    -5519    -5487 
   -5440    -5417    -5402    -5368    -5347    -5367    -5414    -5464 
   -5516    -5567    -5611    -5623    -5578    -5516    -5528    -5620 
   -5717    -5783    -5838    -5890    -5938    -5980    -5992    -5953 
   -5868    -5773    -5718    -5711    -5746    -5819    -5946    -6134 
   -6336    -6496    -6573    -6543    -6399    -6170    -5927    -5745 
   -5668    -5670    -5671    -5618    -5525    -5420    -5294    -5131 
   -4953    -4831    -4835    -4972    -5177    -5343    -5398    -5344 
   -5211    -5035    -4855    -4689    -4546    -4437    -4382    -4393 
   -4468    -4583    -4708    -4812    -4914    -5013    -5073    -5111 
   -5208    -5381    -5583    -5753    -5831    -5823    -5764    -5651 
   -5508    -5381    -5313    -5383    -5656    -6085    -6528    -6866 
   -7040    -7071    -7015    -6886    -6681    -6435    -6214    -6093 
   -6124    -6285    -6543    -6859    -7156    -7365    -7462    -7493 
   -7530    -7603    -7692    -7798    -7952    -8129    -8267    -8343 
   -8378    -8385    -8371    -8352    -8359    -8372    -8311    -8110 
   -7792    -7458    -7188    -6971    -6786    -6642    -6543    -6493 
   -6498    -6544    -6578    -6551    -6454    -6284    -6076    -5904 
   -5798    -5698    -5547    -5350    -5162    -5035    -4901    -4669 
   -4383    -4140    -3982    -3923    -3958    -4029    -4078    -4095 
   -4114    -4148    -4149    -4078    -3950    -3812    -3715    -3693 
   -3734    -3786    -3801    -3766    -3715    -3699    -3757    -3852 
   -3931    -3990    -4069    -4207    -4390    -4542    -4622    -4658 
   -4684    -4710    -4742    -4796    -4932    -5192    -5510    -5782 
   -5926    -5914    -5790    -5648    -5544    -5454    -5343    -5252 
   -5229    -5282    -5412    -5590    -5756    -5854    -5856    -5753 
   -5575    -5362    -5138    -4908    -4698    -4531    -4417    -4374 
   -4418    -4527    -4672    -4818    -4934    -4996    -4996    -4923 
   -4811    -4712    -4617    -4484    -4318    -4128    -3929    -3770 
   -3694    -3709    -3769    -3807    -3821    -3856    -3892    -3870 
   -3770    -3607    -3412    -3241    -3119    -3044    -3007    -2994 
   -2990    -3021    -3121    -3284    -3487    -3663    -3766    -3815 
   -3888    -4017    -4132    -4131    -3993    -3788    -3600    -3488 
   -3451    -3468    -3528    -3639    -3797    -3970    -4090    -4113 
   -4071    -4041    -4051    -4079    -4099    -4099    -4079    -4052 
   -4028    -4013    -3993    -3929    -3809    -3686    -3632    -3699 
   -3848    -3973    -4008    -3969    -3874    -3751    -3634    -3519 
   -3422    -3375    -3361    -3352    -3334    -3319    -3321    -3333 
   -3334    -3306    -3267    -3257    -3307    -3419    -3558    -3643 
   -3615    -3508    -3381    -3262    -3159    -3087    -3024    -2913 
   -2755    -2614    -2546    -2527    -2478    -2404    -2363    -2371 
   -2424    -2501    -2571    -2620    -2644    -2641    -2647    -2694 
   -2749    -2775    -2808    -2893    -3029    -3172    -3268    -3333 
   -3419    -3559    -3753    -3932    -4013    -3983    -3929    -3929 
   -3979    -4059    -4163    -4282    -4402    -4514    -4588    -4587 
   -4521    -4463    -4496    -4623    -4784    -4934    -5084    -5267 
   -5467    -5625    -5717    -5734    -5656    -5518    -5421    -5429 
   -5524    -5647    -5740    -5771    -5748    -5701    -5633    -5529 
   -5416    -5344    -5325    -5348    -5387    -5401    -5368    -5314 
   -5271    -5239    -5198    -5142    -5076    -5012    -4972    -4986 
   -5062    -5147    -5198    -5227    -5275    -5371    -5471    -5506 
   -5459    -5390    -5344    -5297    -5198    -5062    -4951    -4923 
   -4982    -5062    -5104    -5119    -5147    -5190    -5182    -5082 
   -4938    -4830    -4773    -4769    -4831    -4951    -5103    -5225 
   -5268    -5248    -5223    -5212    -5198    -5175    -5144    -5109 
   -5066    -5016    -4962    -4893    -4801    -4733    -4726    -4761 
   -4804    -4838    -4846    -4824    -4752    -4631    -4544    -4553 
   -4633    -4714    -4758    -4753    -4704    -4623    -4519    -4396 
   -4274    -4178    -4109    -4064    -4077    -4164    -4276    -4345 
   -4357    -4344    -4345    -4375    -4413    -4440    -4467    -4491 
   -4499    -4477    -4403    -4280    -4151    -4074    -4086    -4180 
   -4313    -4429    -4510    -4565    -4614    -4649    -4666    -4658 
   -4635    -4626    -4664    -4737    -4788    -4788    -4803    -4908 
   -5097    -5294    -5408    -5389    -5300    -5225    -5197    -5235 
   -5362    -5524    -5644    -5709    -5733    -5718    -5682    -5668 
   -5698    -5773    -5899    -6058    -6197    -6247    -6174    -6033 
   -5907    -5833    -5792    -5764    -5757    -5817    -5933    -6044 
   -6107    -6100    -6038    -5949    -5830    -5703    -5618    -5580 
   -5575    -5623    -5740    -5907    -6075    -6174    -6183    -6110 
   -6008    -5908    -5806    -5719    -5683    -5702    -5764    -5845 
   -5899    -5899    -5872    -5845    -5817    -5776    -5721    -5660 
   -5625    -5649    -5736    -5833    -5877    -5849    -5771    -5664 
   -5541    -5413    -5268    -5097    -4939    -4835    -4780    -4760 
   -4772    -4822    -4908    -5012    -5130    -5266    -5413    -5545 
   -5638    -5678    -5676    -5676    -5698    -5736    -5793    -5860 
   -5887    -5859    -5825    -5840    -5899    -5962    -6029    -6110 
   -6205    -6292    -6323    -6276    -6177    -6073    -5980    -5890 
   -5796    -5730    -5713    -5724    -5725    -5730    -5775    -5863 
   -5958    -6008    -6018    -6061    -6166    -6285    -6366    -6389 
   -6373    -6347    -6316    -6311    -6405    -6596    -6804    -6963 
   -7056    -7111    -7164    -7206    -7226    -7258    -7333    -7422 
   -7492    -7535    -7572    -7630    -7689    -7699    -7634    -7538 
   -7473    -7458    -7461    -7444    -7388    -7291    -7159    -7014 
   -6897    -6826    -6782    -6718    -6592    -6404    -6231    -6135 
   -6122    -6134    -6118    -6088    -6075    -6070    -6039    -5962 
   -5850    -5741    -5671    -5625    -5587    -5589    -5665    -5783 
   -5892    -5981    -6065    -6141    -6174    -6134    -6060    -6038 
   -6096    -6178    -6214    -6181    -6138    -6146    -6188    -6207 
   -6170    -6095    -6034    -6041    -6092    -6115    -6097    -6072 
   -6038    -5977    -5937    -5957    -5989    -5981    -5940    -5888 
   -5852    -5830    -5780    -5711    -5694    -5742    -5818    -5902 
   -5960    -5952    -5896    -5834    -5768    -5698    -5653    -5645 
   -5644    -5629    -5595    -5544    -5478    -5391    -5271    -5125 
   -5016    -4974    -4961    -4936    -4900    -4877    -4896    -4943 
   -4972    -4969    -4978    -5035    -5125    -5220    -5310    -5404 
   -5512    -5629    -5741    -5852    -5958    -6033    -6064    -6096 
   -6192    -6340    -6453    -6446    -6354    -6274    -6258    -6282 
   -6315    -6335    -6354    -6411    -6507    -6597    -6650    -6658 
   -6635    -6609    -6606    -6633    -6679    -6727    -6752    -6774 
   -6804    -6820    -6790    -6714    -6629    -6592    -6625    -6696 
   -6755    -6791    -6821    -6874    -6956    -7049    -7132    -7190 
   -7223    -7261    -7319    -7380    -7406    -7385    -7352    -7339 
   -7344    -7322    -7260    -7207    -7209    -7223    -7206    -7144 
   -7048    -6934    -6831    -6752    -6723    -6754    -6821    -6891 
   -6963    -7061    -7163    -7203    -7155    -7042    -6921    -6836 
   -6793    -6751    -6694    -6651    -6646    -6675    -6709    -6689 
   -6609    -6527    -6475    -6446    -6431    -6438    -6480    -6538 
   -6573    -6567    -6529    -6478    -6421    -6356    -6284    -6219 
   -6177    -6162    -6180    -6211    -6212    -6173    -6112    -6038 
   -5960    -5880    -5818    -5795    -5830    -5927    -6056    -6164 
   -6238    -6295    -6334    -6351    -6340    -6295    -6242    -6212 
   -6210    -6231    -6272    -6297    -6296    -6274    -6243    -6205 
   -6153    -6087    -6030    -5987    -5964    -5988    -6034    -6053 
   -6046    -6033    -6030    -6057    -6099    -6130    -6176    -6273 
   -6400    -6509    -6585    -6610    -6563    -6458    -6351    -6274 
   -6210    -6143    -6092    -6079    -6106    -6148    -6185    -6218 
   -6252    -6274    -6266    -6227    -6178    -6148    -6156    -6173 
   -6160    -6096    -6003    -5940    -5944    -6000    -6079    -6143 
   -6174    -6181    -6158    -6103    -6034    -5950    -5857    -5787 
   -5742    -5719    -5737    -5793    -5845    -5873    -5876    -5863 
   -5853    -5846    -5833    -5822    -5829    -5864    -5917    -5949 
