Origin Time       2016/04/16 01:25:00
Lat.              32.753
Long.             130.762
Depth. (km)       12
Mag.              7.3
Station Code      HRS003
Station Lat.      34.8143
Station Long.     132.8418
Station Height(m) 156
Record Time       2016/04/16 01:26:02
Sampling Freq(Hz) 100Hz
Duration Time(s)  103
Dir.              N-S
Scale Factor      7845(gal)/8223790
Max. Acc. (gal)   3.433
Last Correction   2016/04/16 01:26:04
Memo.             
[...]
   -3514    -3742    -3916    -4017    -4036    -4000    -3936    -3866 
   -3801    -3753    -3711    -3661    -3593    -3503    -3384    -3244 
   -3098    -2982    -2926    -2951    -3067    -3267    -3514    -3781 
   -4047    -4284    -4464    -4563    -4563    -4491    -4391    -4287 
   -4205    -4162    -4145    -4140    -4135    -4094    -3996    -3848 
   -3684    -3543    -3469    -3478    -3562    -3711    -3898    -4106 
   -4336    -4579    -4823    -5065    -5290    -5471    -5590    -5647 
   -5628    -5544    -5406    -5225    -5013    -4787    -4565    -4356 
   -4164    -4005    -3892    -3821    -3794    -3821    -3901    -4013 
   -4139    -4271    -4402    -4502    -4554    -4565    -4546    -4507 
   -4449    -4365    -4256    -4126    -3969    -3785    -3605    -3468 
   -3402    -3410    -3470    -3557    -3632    -3669    -3672    -3665 
   -3677    -3732    -3820    -3917    -4010    -4072    -4069    -3996 
   -3877    -3750    -3620    -3484    -3343    -3194    -3032    -2866 
   -2713    -2573    -2442    -2317    -2187    -2053    -1921    -1790 
   -1686    -1628    -1614    -1636    -1683    -1741    -1817    -1923 
   -2077    -2280    -2520    -2794    -3088    -3377    -3643    -3870 
   -4043    -4156    -4202    -4189    -4136    -4055    -3947    -3813 
   -3653    -3456    -3213    -2928    -2605    -2266    -1934    -1617 
   -1320    -1060     -866     -743     -693     -715     -783     -847 
    -900     -942     -976    -1020    -1112    -1274    -1521    -1859 
   -2270    -2706    -3134    -3523    -3840    -4085    -4271    -4410 
   -4502    -4534    -4511    -4445    -4341    -4213    -4079    -3950 
   -3819    -3676    -3511    -3308    -3073    -2816    -2546    -2295 
   -2101    -1979    -1914    -1904    -1944    -2008    -2101    -2231 
   -2388    -2542    -2667    -2747    -2774    -2745    -2664    -2543 
   -2398    -2259    -2153    -2091    -2072    -2087    -2120    -2176 
   -2258    -2370    -2536    -2779    -3092    -3456    -3839    -4197 
   -4482    -4652    -4700    -4633    -4464    -4220    -3935    -3639 
   -3355    -3094    -2841    -2597    -2392    -2247    -2163    -2137 
   -2147    -2193    -2278    -2394    -2542    -2708    -2860    -2992 
   -3084    -3117    -3088    -3003    -2876    -2744    -2633    -2562 
   -2528    -2516    -2517    -2533    -2582    -2686    -2847    -3067 
   -3345    -3669    -4005    -4333    -4648    -4930    -5161    -5320 
   -5395    -5382    -5283    -5104    -4851    -4534    -4162    -3755 
   -3333    -2910    -2513    -2181    -1933    -1773    -1718    -1750 
   -1848    -2003    -2173    -2335    -2513    -2716    -2948    -3210 
   -3483    -3738    -3928    -4025    -4013    -3883    -3672    -3433 
   -3203    -3011    -2876    -2810    -2816    -2874    -2967    -3083 
   -3199    -3303    -3393    -3466    -3514    -3539    -3547    -3565 
   -3623    -3721    -3842    -3977    -4106    -4191    -4202    -4131 
   -3993    -3812    -3601    -3385    -3196    -3028    -2896    -2832 
   -2816    -2867    -3003    -3188    -3410    -3647    -3861    -4055 
   -4205    -4297    -4371    -4453    -4557    -4693    -4858    -5040 
   -5220    -5366    -5452    -5463    -5395    -5263    -5088    -4908 
   -4768    -4685    -4657    -4666    -4684    -4688    -4671    -4618 
   -4533    -4430    -4333    -4271    -4248    -4256    -4309    -4409 
   -4529    -4645    -4764    -4891    -4982    -5015    -5008    -4984 
   -4969    -4974    -4969    -4954    -4923    -4851    -4748    -4633 
   -4523    -4440    -4371    -4325    -4315    -4336    -4392    -4480 
   -4590    -4718    -4847    -4969    -5092    -5224    -5368    -5526 
   -5670    -5759    -5760    -5656    -5445    -5139    -4756    -4340 
   -3919    -3503    -3098    -2682    -2246    -1809    -1394    -1028 
    -739     -537     -419     -396     -456     -594     -819    -1120 
   -1476    -1861    -2250    -2632    -2975    -3264    -3514    -3732 
   -3925    -4097    -4217    -4261    -4220    -4090    -3901    -3689 
   -3462    -3219    -2970    -2714    -2455    -2195    -1939    -1688 
   -1440    -1190     -953     -756     -612     -537     -526     -562 
    -625     -691     -738     -762     -754     -718     -672     -611 
    -532     -454     -372     -315     -338     -445     -649     -949 
   -1317    -1732    -2157    -2567    -2952    -3277    -3530    -3724 
   -3851    -3908    -3915    -3885    -3835    -3800    -3790    -3804 
   -3819    -3805    -3753    -3670    -3566    -3454    -3366    -3321 
   -3319    -3348    -3392    -3434    -3439    -3399    -3321    -3213 
   -3090    -2978    -2901    -2886    -2947    -3088    -3329    -3686 
   -4158    -4693    -5251    -5772    -6176    -6424    -6508    -6443 
   -6270    -6003    -5682    -5368    -5080    -4834    -4634    -4452 
   -4283    -4140    -4023    -3942    -3899    -3888    -3898    -3940 
   -4041    -4210    -4426    -4664    -4892    -5070    -5163    -5162 
   -5076    -4916    -4727    -4558    -4433    -4355    -4313    -4294 
   -4275    -4236    -4187    -4147    -4112    -4071    -4035    -4029 
   -4067    -4151    -4283    -4453    -4629    -4791    -4941    -5085 
   -5242    -5418    -5609    -5796    -5967    -6118    -6250    -6367 
   -6462    -6511    -6484    -6361    -6129    -5788    -5358    -4870 
   -4380    -3950    -3630    -3422    -3295    -3211    -3148    -3092 
   -3067    -3090    -3145    -3207    -3265    -3275    -3191    -3036 
   -2822    -2540    -2224    -1930    -1684    -1494    -1368    -1304 
   -1278    -1274    -1293    -1348    -1457    -1634    -1880    -2203 
   -2592    -3001    -3381    -3707    -3974    -4199    -4407    -4600 
   -4757    -4860    -4920    -4938    -4914    -4860    -4758    -4577 
   -4332    -4068    -3801    -3534    -3296    -3118    -3017    -3010 
   -3105    -3284    -3532    -3838    -4182    -4550    -4922    -5278 
   -5606    -5892    -6119    -6304    -6446    -6531    -6566    -6550 
   -6493    -6431    -6377    -6342    -6334    -6315    -6259    -6151 
   -5975    -5738    -5460    -5152    -4819    -4459    -4074    -3685 
   -3323    -3024    -2805    -2677    -2636    -2655    -2695    -2755 
   -2841    -2938    -3038    -3163    -3317    -3465    -3580    -3678 
   -3757    -3811    -3877    -3979    -4114    -4276    -4450    -4596 
   -4676    -4687    -4646    -4581    -4526    -4476    -4405    -4324 
   -4233    -4098    -3929    -3778    -3655    -3546    -3443    -3315 
   -3114    -2822    -2452    -2020    -1563    -1124     -746     -480 
    -383     -464     -706    -1094    -1599    -2162    -2739    -3271 
   -3686    -3964    -4122    -4172    -4124    -3998    -3811    -3566 
   -3276    -2975    -2700    -2461    -2263    -2097    -1939    -1763 
   -1579    -1421    -1317    -1291    -1343    -1453    -1599    -1755 
   -1915    -2093    -2290    -2509    -2751    -3009    -3277    -3546 
   -3786    -3955    -4036    -4050    -4013    -3955    -3904    -3856 
   -3797    -3730    -3658    -3585    -3515    -3447    -3396    -3388 
   -3439    -3547    -3682    -3785    -3817    -3782    -3707    -3607 
   -3499    -3387    -3254    -3090    -2890    -2674    -2484    -2357 
   -2330    -2420    -2610    -2862    -3102    -3267    -3330    -3300 
   -3200    -3090    -3034    -3069    -3210    -3443    -3724    -3986 
   -4191    -4327    -4410    -4486    -4603    -4770    -4969    -5151 
   -5265    -5273    -5164    -4942    -4630    -4270    -3888    -3480 
   -3033    -2535    -2008    -1502    -1070     -780     -668     -719 
    -916    -1246    -1648    -2058    -2471    -2871    -3234    -3578 
   -3910    -4217    -4502    -4781    -5038    -5243    -5390    -5462 
   -5414    -5235    -4958    -4622    -4261    -3923    -3630    -3379 
   -3145    -2921    -2708    -2516    -2370    -2297    -2301    -2369 
   -2478    -2606    -2740    -2871    -2991    -3105    -3219    -3330 
   -3430    -3520    -3612    -3700    -3774    -3842    -3921    -4010 
   -4099    -4195    -4321    -4495    -4706    -4934    -5148    -5304 
   -5367    -5336    -5209    -5003    -4752    -4499    -4280    -4120 
   -4036    -4028    -4072    -4147    -4237    -4329    -4398    -4422 
   -4392    -4318    -4220    -4114    -4006    -3912    -3838    -3793 
   -3774    -3765    -3746    -3704    -3627    -3514    -3376    -3203 
   -2986    -2724    -2427    -2123    -1838    -1595    -1405    -1256 
   -1140    -1081    -1067    -1093    -1170    -1264    -1348    -1404 
   -1420    -1428    -1468    -1568    -1729    -1923    -2104    -2223 
   -2238    -2163    -2064    -1999    -2015    -2121    -2292    -2467 
   -2598    -2662    -2646    -2544    -2380    -2182    -1981    -1796 
   -1634    -1501    -1387    -1277    -1179    -1121    -1104    -1115 
   -1142    -1158    -1136    -1048     -881     -642     -360      -83 
     136      270      284      184       10     -201     -425     -630 
    -808     -959    -1084    -1194    -1308    -1440    -1594    -1749 
   -1884    -1987    -2050    -2092    -2146    -2236    -2367    -2508 
   -2609    -2640    -2587    -2454    -2276    -2098    -1948    -1830 
   -1740    -1645    -1513    -1344    -1148     -932     -733     -573 
    -445     -344     -256     -159      -65       11       62       74 
      59        5      -95     -229     -387     -571     -765     -961 
   -1173    -1413    -1671    -1927    -2150    -2304    -2381    -2388 
   -2349    -2317    -2317    -2340    -2369    -2373    -2305    -2149 
   -1930    -1698    -1495    -1356    -1298    -1341    -1480    -1674 
   -1894    -2120    -2303    -2439    -2552    -2627    -2700    -2814 
   -2967    -3171    -3414    -3653    -3861    -4006    -4097    -4155 
   -4176    -4152    -4064    -3888    -3627    -3310    -2967    -2639 
   -2366    -2155    -1996    -1876    -1779    -1683    -1574    -1441 
   -1296    -1159    -1062    -1012    -1003    -1032    -1097    -1193 
   -1314    -1449    -1590    -1729    -1867    -2022    -2209    -2419 
   -2636    -2848    -3038    -3196    -3323    -3416    -3492    -3568 
   -3649    -3731    -3797    -3828    -3805    -3713    -3559    -3365 
   -3165    -3005    -2893    -2828    -2822    -2878    -2979    -3106 
   -3235    -3346    -3431    -3470    -3453    -3384    -3279    -3160 
   -3064    -3025    -3069    -3221    -3476    -3804    -4156    -4476 
   -4722    -4880    -4954    -4955    -4903    -4819    -4703    -4546 
   -4355    -4139    -3910    -3704    -3559    -3511    -3570    -3708 
   -3867    -3997    -4082    -4116    -4106    -4117    -4180    -4325 
   -4571    -4888    -5248    -5623    -5949    -6196    -6351    -6417 
   -6416    -6361    -6250    -6088    -5886    -5664    -5454    -5273 
   -5130    -5030    -4970    -4946    -4923    -4874    -4792    -4673 
   -4513    -4303    -4036    -3708    -3335    -2937    -2536    -2158 
   -1817    -1521    -1291    -1139    -1057    -1039    -1071    -1117 
   -1192    -1293    -1389    -1503    -1672    -1902    -2189    -2482 
   -2725    -2876    -2909    -2847    -2735    -2613    -2546    -2569 
   -2679    -2849    -3013    -3086    -3002    -2731    -2304    -1809 
   -1347    -1004     -826     -816     -939    -1131    -1331    -1501 
   -1632    -1733    -1826    -1926    -2022    -2087    -2070    -1938 
   -1698    -1404    -1128     -932     -870     -959    -1169    -1475 
   -1867    -2309    -2789    -3277    -3727    -4109    -4407    -4602 
   -4679    -4657    -4585    -4491    -4383    -4266    -4117    -3899 
   -3615    -3264    -2868    -2479    -2146    -1898    -1761    -1755 
   -1856    -2010    -2165    -2290    -2353    -2336    -2274    -2192 
   -2107    -2041    -2001    -1972    -1930    -1850    -1709    -1502 
   -1274    -1077     -940     -909    -1004    -1200    -1470    -1780 
   -2089    -2358    -2558    -2685    -2751    -2770    -2756    -2714 
   -2647    -2554    -2434    -2293    -2141    -1971    -1775    -1570 
   -1381    -1221    -1096     -996     -915     -850     -784     -712 
    -664     -661     -712     -827    -1003    -1232    -1514    -1825 
   -2126    -2397    -2619    -2766    -2837    -2836    -2755    -2619 
   -2475    -2365    -2324    -2370    -2473    -2596    -2697    -2743 
   -2724    -2636    -2494    -2322    -2143    -1973    -1821    -1703 
   -1624    -1561    -1526    -1524    -1541    -1579    -1632    -1686 
   -1740    -1787    -1807    -1806    -1802    -1809    -1840    -1915 
   -2042    -2212    -2401    -2592    -2772    -2948    -3134    -3353 
   -3615    -3912    -4212    -4487    -4710    -4876    -4989    -5073 
   -5135    -5177    -5182    -5116    -4959    -4720    -4426    -4105 
   -3801    -3555    -3380    -3277    -3235    -3217    -3175    -3078 
   -2891    -2610    -2266    -1902    -1572    -1331    -1198    -1179 
   -1266    -1421    -1598    -1768    -1908    -2003    -2062    -2120 
   -2205    -2327    -2494    -2721    -3006    -3319    -3638    -3927 
   -4171    -4375    -4560    -4746    -4949    -5151    -5323    -5445 
   -5509    -5510    -5437    -5283    -5065    -4804    -4519    -4230 
   -3948    -3666    -3391    -3132    -2895    -2691    -2516    -2349 
   -2177    -2010    -1852    -1707    -1583    -1489    -1418    -1358 
   -1294    -1229    -1161    -1089    -1032    -1007    -1047    -1197 
   -1457    -1794    -2170    -2546    -2896    -3213    -3514    -3844 
   -4233    -4683    -5178    -5687    -6156    -6531    -6768    -6848 
   -6777    -6586    -6315    -5998    -5672    -5358    -5055    -4781 
   -4541    -4332    -4153    -3997    -3848    -3719    -3622    -3550 
   -3500    -3458    -3416    -3391    -3393    -3422    -3478    -3563 
   -3653    -3719    -3755    -3754    -3735    -3735    -3784    -3899 
   -4102    -4384    -4734    -5139    -5557    -5950    -6282    -6507 
   -6610    -6613    -6531    -6392    -6219    -6038    -5863    -5705 
   -5589    -5514    -5454    -5393    -5316    -5198    -5058    -4927 
   -4828    -4795    -4862    -5017    -5224    -5460    -5678    -5837 
   -5945    -6012    -6023    -5976    -5881    -5749    -5590    -5427 
   -5277    -5152    -5054    -4966    -4862    -4718    -4542    -4342 
   -4147    -4000    -3905    -3871    -3921    -4048    -4248    -4518 
   -4822    -5115    -5359    -5528    -5590    -5544    -5420    -5270 
   -5136    -5054    -5038    -5074    -5128    -5173    -5169    -5109 
   -5017    -4907    -4801    -4733    -4683    -4629    -4580    -4530 
   -4469    -4415    -4379    -4359    -4351    -4348    -4337    -4322 
   -4311    -4295    -4266    -4222    -4159    -4085    -3991    -3897 
   -3816    -3766    -3781    -3867    -4003    -4180    -4369    -4546 
   -4695    -4811    -4908    -4973    -4999    -4997    -4984    -4973 
   -4982    -5027    -5104    -5185    -5235    -5223    -5142    -5000 
   -4804    -4575    -4334    -4098    -3873    -3666    -3507    -3414 
   -3399    -3472    -3613    -3801    -4027    -4268    -4494    -4666 
   -4752    -4742    -4657    -4518    -4337    -4152    -4009    -3894 
   -3789    -3697    -3607    -3507    -3383    -3238    -3083    -2944 
   -2862    -2844    -2890    -3003    -3154    -3307    -3443    -3534 
   -3570    -3577    -3581    -3612    -3672    -3751    -3861    -3975 
   -4071    -4153    -4218    -4270    -4333    -4393    -4419    -4405 
   -4347    -4251    -4137    -4029    -3937    -3871    -3831    -3824 
   -3847    -3880    -3920    -3947    -3944    -3929    -3901    -3848 
   -3778    -3699    -3607    -3492    -3349    -3191    -3015    -2841 
   -2701    -2584    -2493    -2450    -2434    -2451    -2531    -2648 
   -2801    -2994    -3190    -3354    -3469    -3526    -3542    -3518 
   -3462    -3407    -3360    -3319    -3281    -3231    -3163    -3071 
   -2952    -2824    -2709    -2620    -2558    -2506    -2454    -2398 
   -2332    -2261    -2191    -2130    -2091    -2079    -2085    -2088 
   -2064    -2016    -1966    -1934    -1952    -2052    -2226    -2436 
   -2671    -2922    -3141    -3311    -3414    -3422    -3369    -3284 
   -3173    -3060    -2959    -2878    -2824    -2785    -2772    -2789 
   -2821    -2872    -2940    -3005    -3064    -3118    -3165    -3202 
   -3238    -3291    -3345    -3385    -3427    -3488    -3568    -3665 
   -3773    -3873    -3943    -3958    -3906    -3813    -3715    -3642 
   -3626    -3669    -3742    -3813    -3871    -3913    -3942    -3955 
   -3946    -3929    -3910    -3861    -3789    -3717    -3640    -3584 
   -3585    -3650    -3789    -4009    -4291    -4604    -4907    -5154 
   -5313    -5368    -5319    -5181    -4993    -4807    -4656    -4541 
   -4461    -4406    -4340    -4240    -4107    -3959    -3807    -3673 
   -3580    -3522    -3484    -3451    -3393    -3292    -3150    -2983 
   -2820    -2683    -2578    -2497    -2425    -2351    -2255    -2135 
   -2011    -1899    -1833    -1837    -1891    -2004    -2174    -2362 
   -2562    -2759    -2933    -3090    -3232    -3361    -3472    -3528 
   -3516    -3440    -3295    -3105    -2933    -2816    -2778    -2829 
   -2937    -3064    -3164    -3194    -3153    -3046    -2891    -2714 
   -2533    -2369    -2241    -2142    -2065    -2019    -2000    -1992 
   -2007    -2046    -2087    -2121    -2149    -2142    -2096    -2010 
   -1896    -1795    -1737    -1714    -1746    -1842    -1982    -2157 
   -2338    -2505    -2654    -2774    -2863    -2945    -3018    -3090 
   -3163    -3210    -3221    -3194    -3129    -3052    -2994    -2967 
   -2982    -3032    -3098    -3156    -3188    -3194    -3180    -3142 
   -3088    -3034    -2982    -2930    -2882    -2844    -2825    -2839 
   -2895    -2984    -3079    -3172    -3257    -3326    -3388    -3458 
   -3539    -3639    -3726    -3773    -3781    -3727    -3623    -3489 
   -3334    -3180    -3024    -2856    -2686    -2512    -2351    -2235 
   -2160    -2128    -2157    -2232    -2351    -2506    -2674    -2836 
   -2976    -3076    -3118    -3099    -3045    -2983    -2933    -2922 
   -2953    -3019    -3095    -3146    -3156    -3127    -3059    -2967 
   -2880    -2813    -2782    -2790    -2818    -2857    -2896    -2920 
   -2930    -2940    -2941    -2949    -2979    -3019    -3071    -3123 
   -3161    -3179    -3164    -3122    -3069    -3009    -2964    -2945 
   -2930    -2917    -2894    -2839    -2744    -2616    -2465    -2316 
   -2188    -2104    -2060    -2042    -2049    -2079    -2126    -2189 
   -2276    -2392    -2529    -2681    -2843    -3010    -3165    -3288 
   -3373    -3415    -3416    -3376    -3307    -3225    -3134    -3042 
   -2967    -2899    -2824    -2756    -2697    -2636    -2582    -2540 
   -2521    -2527    -2540    -2565    -2600    -2625    -2640    -2631 
   -2592    -2536    -2466    -2396    -2346    -2322    -2323    -2359 
   -2428    -2511    -2583    -2636    -2677    -2702    -2710    -2709 
   -2718    -2754    -2830    -2959    -3136    -3349    -3574    -3788 
   -3975    -4122    -4209    -4214    -4140    -4003    -3824    -3626 
   -3450    -3304    -3168    -3032    -2878    -2705    -2521    -2332 
   -2181    -2088    -2038    -2014    -1995    -1968    -1942    -1946 
   -2001    -2110    -2258    -2415    -2546    -2639    -2698    -2737 
