Origin Time       2016/04/16 01:25:00
Lat.              32.753
Long.             130.762
Depth. (km)       12
Mag.              7.3
Station Code      HYG022
Station Lat.      34.7463
Station Long.     135.3499
Station Height(m) 10
Record Time       2016/04/16 01:27:23
Sampling Freq(Hz) 100Hz
Duration Time(s)  237
Dir.              N-S
Scale Factor      7845(gal)/8223790
Max. Acc. (gal)   3.230
Last Correction   2016/04/16 01:27:24
Memo.             
[...]
    -882     -853     -815     -805     -814     -838     -880     -874 
    -799     -735     -707     -673     -629     -585     -560     -544 
    -493     -427     -370     -326     -301     -271     -237     -228 
    -220     -184     -141     -106     -108     -153     -184     -159 
    -118     -108     -140     -190     -209     -198     -193     -176 
    -137     -116     -139     -167     -172     -155     -109      -67 
     -45      -37      -58      -87      -78      -28       25       44 
       5      -58      -87      -75      -39        5       32       28 
      13        1       -5       -5       20       76      118      121 
     118      129      162      198      224      245      265      257 
     210      164      178      230      237      199      156      120 
      87       65       44        0      -75     -152     -205     -237 
    -263     -305     -370     -440     -488     -519     -558     -616 
    -666     -676     -654     -638     -648     -673     -680     -658 
    -643     -645     -646     -648     -631     -579     -523     -508 
    -542     -566     -529     -450     -395     -388     -410     -411 
    -369     -315     -279     -263     -263     -266     -263     -248 
    -233     -228     -220     -206     -206     -217     -234     -263 
    -276     -257     -240     -263     -329     -391     -421     -425 
    -419     -418     -436     -477     -540     -607     -654     -662 
    -660     -688     -741     -785     -810     -838     -873     -885 
    -908     -967    -1031    -1078    -1101    -1090    -1065    -1073 
   -1093    -1097    -1094    -1102    -1104    -1085    -1075    -1081 
   -1075    -1059    -1028     -984     -958     -973     -996     -982 
    -939     -905     -890     -873     -853     -845     -838     -811 
    -767     -731     -718     -728     -730     -710     -687     -670 
    -665     -654     -627     -614     -608     -596     -579     -560 
    -540     -508     -481     -484     -483     -442     -387     -342 
    -321     -326     -342     -340     -322     -303     -299     -310 
    -322     -319     -292     -257     -246     -265     -295     -319 
    -325     -315     -309     -295     -265     -238     -241     -261 
    -271     -259     -243     -225     -193     -151     -110      -74 
     -37       -5       23       49       64       74      103      167 
     240      288      302      299      294      276      246      256 
     338      415      383      291      274      333      359      322 
     261      211      234      307      325      340      359      275 
     206      256      314      367      410      378      375      464 
     519      502      459      427      496      618      637      571 
     556      623      697      719      695      618      549      584 
     670      743      757      652      552      571      627      688 
     692      592      546      615      681      689      621      562 
     634      712      654      565      573      639      664      639 
     606      540      461      432      434      427      378      289 
     205      131       58       -1      -47     -112     -194     -268 
    -310     -344     -402     -459     -480     -472     -480     -546 
    -606     -577     -540     -568     -588     -571     -579     -615 
    -630     -645     -687     -714     -681     -638     -696     -830 
    -877     -838     -868    -1004    -1133    -1182    -1192    -1237 
   -1304    -1363    -1451    -1560    -1621    -1626    -1651    -1726 
   -1798    -1821    -1819    -1837    -1864    -1871    -1903    -2001 
   -2081    -2046    -1975    -2000    -2069    -2043    -1966    -1954 
   -2000    -2027    -1987    -1921    -1871    -1807    -1723    -1676 
   -1665    -1620    -1526    -1447    -1421    -1391    -1271    -1121 
   -1059    -1077    -1097    -1063     -943     -777     -664     -631 
    -626     -631     -621     -557     -490     -446     -356     -243 
    -238     -369     -460     -344     -176     -209     -315     -289 
    -225     -303     -481     -552     -407     -178     -135     -348 
    -577     -602     -480     -402     -429     -464     -422     -356 
    -363     -413     -468     -546     -577     -499     -382     -326 
    -399     -511     -523     -484     -495     -511     -430     -306 
    -302     -392     -430     -400     -309     -139      -25      -89 
    -202     -166       18      139       63      -32       32      178 
     261      257      198      140      121      170      276      351 
     330      271      236      212      175      148      178      252 
     276      187       63        9        5       -1      -28      -76 
    -133     -189     -220     -210     -189     -194     -241     -271 
    -234     -205     -207     -171      -81      -45      -93      -90 
      21      140      149       91       91      178      279      313 
     332      414      484      468      468      557      657      692 
     711      760      811      837      847      846      832      841 
     881      903      886      873      877      864      814      788 
     819      855      849      824      822      823      814      822 
     845      847      849      870      877      876      897      912 
     900      895      912      907      842      789      791      776 
     758      767      720      637      585      545      515      487 
     436      379      330      287      244      191      122       60 
       5      -59     -122     -152     -176     -233     -317     -382 
    -405     -430     -498     -577     -645     -708     -754     -787 
    -823     -868     -912     -922     -926     -984    -1063    -1131 
   -1183    -1185    -1177    -1189    -1189    -1202    -1251    -1298 
   -1339    -1366    -1372    -1377    -1378    -1363    -1345    -1341 
   -1343    -1344    -1336    -1323    -1308    -1290    -1270    -1256 
   -1232    -1197    -1196    -1233    -1251    -1258    -1296    -1334 
   -1363    -1412    -1472    -1513    -1548    -1634    -1729    -1768 
   -1811    -1890    -1948    -1992    -2029    -2062    -2137    -2226 
   -2274    -2277    -2257    -2250    -2261    -2265    -2258    -2245 
   -2230    -2223    -2181    -2107    -2045    -1975    -1902    -1850 
   -1795    -1717    -1641    -1576    -1501    -1405    -1301    -1213 
   -1162    -1101    -1017     -950     -884     -807     -738     -670 
    -591     -550     -553     -521     -449     -395     -329     -233 
    -164     -116      -39       32       60      101      193      315 
     446      517      540      643      758      788      834      873 
     859      908     1016     1075     1104     1138     1140     1131 
    1128     1107     1120     1170     1185     1185     1202     1190 
    1150     1129     1135     1151     1177     1182     1151     1128 
    1131     1158     1200     1219     1213     1223     1250     1266 
    1277     1294     1313     1355     1412     1424     1381     1344 
    1367     1402     1404     1382     1355     1348     1366     1351 
    1281     1194     1128     1088     1062      993      841      735 
     733      648      498      441      365      194       59      -32 
    -135     -210     -271     -355     -448     -545     -643     -726 
    -800     -873     -932     -982    -1034    -1102    -1175    -1254 
   -1332    -1394    -1456    -1535    -1615    -1684    -1759    -1852 
   -1938    -2004    -2074    -2162    -2242    -2300    -2351    -2401 
   -2448    -2501    -2544    -2560    -2565    -2571    -2563    -2532 
   -2494    -2455    -2411    -2359    -2297    -2218    -2118    -2007 
   -1904    -1803    -1696    -1594    -1491    -1381    -1275    -1185 
   -1085     -994     -934     -864     -792     -749     -691     -611 
    -568     -526     -464     -434     -403     -349     -314     -278 
    -224     -183     -152     -109      -67      -41        1       63 
     108      156      220      274      332      395      461      546 
     643      726      804      899      997     1089     1193     1287 
    1368     1455     1530     1588     1645     1702     1757     1798 
    1821     1842     1859     1859     1859     1856     1841     1822 
    1800     1775     1752     1714     1663     1606     1556     1522 
    1479     1424     1386     1348     1302     1255     1209     1166 
    1121     1078     1047     1030     1009      984      958      932 
     911      901      895      885      881      873      858      834 
     803      773      734      695      665      630      587      548 
     498      441      387      332      286      251      212      176 
     139       98       63       32        2      -22      -45      -71 
     -94     -105     -105     -112     -126     -135     -126     -109 
    -103      -99      -68      -18       29       78      120      157 
     211      284      357      417      471      530      589      643 
     689      735      780      819      864      908      938      958 
     978     1000     1035     1078     1127     1174     1219     1269 
    1328     1391     1453     1518     1575     1628     1691     1755 
    1802     1840     1872     1895     1908     1912     1903     1877 
    1846     1815     1765     1686     1590     1494     1404     1310 
    1198     1080      961      843      733      622      503      390 
     280      174       79       -8     -101     -201     -295     -380 
    -460     -529     -603     -692     -778     -850     -916     -984 
   -1059    -1146    -1221    -1289    -1366    -1452    -1541    -1628 
   -1715    -1802    -1887    -1975    -2062    -2150    -2243    -2347 
   -2450    -2524    -2574    -2629    -2691    -2729    -2759    -2805 
   -2841    -2836    -2799    -2748    -2685    -2633    -2596    -2554 
   -2501    -2434    -2358    -2278    -2196    -2119    -2053    -2006 
   -1944    -1857    -1787    -1752    -1710    -1649    -1594    -1545 
   -1494    -1439    -1381    -1323    -1275    -1235    -1190    -1143 
   -1096    -1042     -976     -899     -820     -753     -696     -642 
    -576     -477     -352     -228     -120      -27       65      164 
     268      391      533      668      777      877      976     1058 
    1143     1236     1305     1341     1375     1429     1485     1509 
    1516     1520     1517     1509     1498     1464     1416     1368 
    1328     1282     1219     1146     1080     1007      923      846 
     773      699      627      560      486      395      302      224 
     156       91       29      -29      -89     -159     -238     -311 
    -373     -425     -475     -523     -577     -635     -691     -739 
    -785     -827     -866     -908     -958    -1005    -1039    -1070 
   -1098    -1125    -1156    -1183    -1198    -1204    -1204    -1205 
   -1201    -1183    -1163    -1148    -1124    -1094    -1063    -1023 
    -978     -939     -911     -882     -841     -799     -762     -720 
    -684     -660     -637     -606     -575     -552     -531     -504 
    -477     -451     -425     -398     -370     -353     -342     -321 
    -295     -270     -244     -224     -214     -206     -191     -184 
    -183     -168     -151     -137     -120      -98      -72      -47 
     -23       11       56       95      137      186      234      282 
     329      372      410      446      490      530      560      581 
     603      625      641      650      657      664      669      666 
     661      666      679      684      688      699      714      728 
     747      769      784      800      818      832      851      873 
     889      907      926      939      949      957      959      957 
     951      951      954      955      961      970      978      986 
    1003     1026     1047     1062     1081     1105     1121     1133 
    1148     1158     1156     1155     1152     1144     1136     1129 
    1119     1107     1092     1081     1080     1081     1086     1092 
    1101     1116     1123     1131     1147     1165     1185     1217 
    1250     1278     1302     1327     1354     1371     1387     1409 
    1429     1449     1470     1485     1497     1506     1509     1507 
    1503     1495     1490     1487     1489     1491     1498     1503 
    1501     1497     1494     1491     1489     1482     1478     1475 
    1462     1448     1436     1421     1405     1394     1394     1397 
    1391     1386     1385     1385     1389     1399     1414     1435 
    1441     1439     1440     1441     1441     1444     1447     1441 
    1428     1412     1390     1368     1352     1331     1304     1277 
    1250     1216     1175     1129     1084     1032      972      903 
     831      760      679      588      493      386      268      144 
      20     -103     -222     -336     -442     -546     -652     -760 
    -862     -951    -1031    -1100    -1155    -1205    -1252    -1297 
   -1339    -1374    -1408    -1436    -1459    -1476    -1485    -1486 
   -1487    -1480    -1475    -1471    -1457    -1440    -1422    -1402 
   -1383    -1368    -1358    -1358    -1364    -1375    -1394    -1421 
   -1460    -1503    -1551    -1609    -1674    -1744    -1821    -1906 
   -1993    -2076    -2163    -2255    -2340    -2424    -2508    -2593 
   -2678    -2759    -2839    -2921    -3007    -3090    -3168    -3235 
   -3302    -3366    -3429    -3488    -3541    -3584    -3613    -3636 
   -3657    -3669    -3667    -3658    -3636    -3603    -3561    -3508 
   -3447    -3385    -3316    -3232    -3140    -3041    -2934    -2828 
   -2720    -2609    -2496    -2380    -2261    -2139    -2018    -1896 
   -1780    -1671    -1571    -1475    -1381    -1290    -1202    -1125 
   -1058     -990     -929     -881     -838     -796     -758     -728 
    -700     -679     -665     -657     -650     -648     -654     -673 
    -693     -712     -735     -760     -783     -815     -849     -882 
    -920     -949     -973    -1005    -1031    -1042    -1051    -1062 
   -1069    -1070    -1065    -1050    -1026     -993     -953     -912 
    -870     -823     -773     -723     -670     -619     -566     -513 
    -461     -417     -380     -353     -333     -315     -303     -299 
    -309     -324     -344     -378     -414     -451     -490     -533 
    -585     -634     -685     -737     -791     -850     -903     -951 
    -999    -1034    -1069    -1109    -1144    -1173    -1193    -1210 
   -1225    -1229    -1221    -1206    -1185    -1156    -1123    -1093 
   -1057    -1012     -962     -916     -866     -803     -739     -684 
    -627     -571     -515     -467     -425     -394     -364     -337 
    -321     -314     -313     -314     -314     -325     -344     -372 
    -406     -442     -484     -529     -572     -615     -652     -689 
    -739     -788     -830     -864     -903     -949     -987    -1021 
   -1058    -1096    -1136    -1179    -1216    -1254    -1302    -1344 
   -1378    -1416    -1456    -1491    -1533    -1579    -1621    -1663 
   -1703    -1737    -1775    -1814    -1848    -1878    -1907    -1934 
   -1954    -1965    -1975    -1985    -1987    -1984    -1973    -1956 
   -1938    -1912    -1880    -1844    -1799    -1755    -1715    -1672 
   -1626    -1576    -1528    -1482    -1428    -1379    -1341    -1306 
   -1277    -1246    -1215    -1196    -1179    -1162    -1147    -1136 
   -1128    -1120    -1119    -1113    -1100    -1092    -1084    -1062 
   -1030     -990     -945     -901     -853     -789     -718     -653 
    -588     -521     -450     -387     -326     -259     -184     -114 
     -49        9       64      120      183      255      325      392 
     454      518      584      649      714      780      838      886 
     934      982     1026     1069     1109     1146     1174     1189 
    1202     1227     1248     1258     1258     1250     1247     1246 
    1240     1229     1213     1192     1163     1125     1090     1058 
    1021      980      939      901      866      830      793      761 
     730      699      666      638      616      595      577      557 
     533      513      488      461      425      382      338      291 
     243      202      160      117       74       23      -36      -97 
    -159     -221     -284     -346     -405     -467     -535     -607 
    -681     -756     -831     -908     -990    -1081    -1167    -1252 
   -1351    -1448    -1543    -1638    -1740    -1848    -1954    -2053 
   -2153    -2251    -2338    -2420    -2501    -2581    -2659    -2737 
   -2806    -2868    -2937    -2999    -3053    -3121    -3176    -3222 
   -3273    -3317    -3355    -3388    -3416    -3442    -3459    -3476 
   -3495    -3504    -3504    -3501    -3499    -3497    -3481    -3458 
   -3445    -3435    -3424    -3407    -3375    -3325    -3276    -3240 
   -3210    -3172    -3132    -3095    -3056    -3009    -2948    -2890 
   -2835    -2768    -2701    -2635    -2560    -2485    -2415    -2338 
   -2251    -2161    -2072    -1975    -1884    -1811    -1742    -1667 
   -1587    -1506    -1429    -1358    -1298    -1255    -1217    -1173 
   -1123    -1081    -1058    -1043    -1032    -1028    -1030    -1035 
   -1050    -1067    -1080    -1090    -1107    -1124    -1131    -1139 
   -1155    -1173    -1185    -1183    -1166    -1147    -1135    -1132 
   -1132    -1129    -1123    -1115    -1102    -1081    -1059    -1043 
   -1030    -1008     -986     -966     -939     -911     -885     -864 
    -841     -811     -787     -760     -730     -712     -695     -673 
    -653     -633     -616     -608     -602     -599     -595     -595 
    -607     -616     -619     -625     -635     -652     -669     -679 
    -683     -688     -696     -700     -707     -715     -715     -715 
    -726     -735     -739     -734     -727     -727     -731     -738 
    -743     -730     -710     -688     -668     -649     -619     -581 
    -549     -511     -464     -417     -378     -340     -295     -255 
    -220     -176     -129      -90      -56      -20       21       63 
      98      120      129      144      170      197      217      238 
     255      259      271      294      315      337      364      390 
     413      438      454      464      484      511      540      564 
     579      596      607      625      657      688      719      754 
     789      827      874      927      978     1031     1085     1138 
    1185     1232     1274     1313     1348     1385     1425     1462 
    1485     1494     1499     1506     1514     1521     1522     1521 
    1518     1513     1512     1516     1520     1526     1535     1544 
    1557     1575     1586     1593     1599     1603     1611     1620 
    1615     1603     1594     1574     1540     1514     1502     1472 
    1416     1375     1351     1296     1247     1239     1200     1131 
    1101     1075     1021      986      951      888      851      822 
     766      730      696      646      611      581      542      506 
     477      451      425      396      368      351      344      333 
     326      332      341      359      379      388      410      442 
     471      502      533      566      611      658      699      737 
     773      804      835      869      908      955     1003     1035 
