Origin Time       2016/04/16 01:25:00
Lat.              32.753
Long.             130.762
Depth. (km)       12
Mag.              7.3
Station Code      HYG002
Station Lat.      35.6411
Station Long.     134.6284
Station Height(m) 6
Record Time       2016/04/16 01:27:25
Sampling Freq(Hz) 100Hz
Duration Time(s)  60
Dir.              N-S
Scale Factor      7845(gal)/8223790
Max. Acc. (gal)   2.826
Last Correction   2016/04/16 01:27:26
Memo.             
[...]
  -11071   -11105   -11136   -11161   -11183   -11202   -11217   -11221 
  -11210   -11198   -11194   -11183   -11156   -11124   -11101   -11082 
  -11055   -11025   -10994   -10960   -10932   -10901   -10862   -10816 
  -10760   -10696   -10627   -10565   -10497   -10426   -10353   -10265 
  -10184   -10127   -10061    -9971    -9884    -9803    -9715    -9628 
   -9551    -9466    -9369    -9286    -9200    -9092    -8999    -8907 
   -8803    -8714    -8633    -8543    -8454    -8376    -8307    -8240 
   -8171    -8109    -8056    -8006    -7959    -7921    -7888    -7860 
   -7850    -7846    -7830    -7821    -7827    -7827    -7823    -7838 
   -7850    -7846    -7843    -7851    -7865    -7874    -7873    -7884 
   -7905    -7919    -7924    -7931    -7943    -7952    -7942    -7938 
   -7951    -7954    -7948    -7947    -7929    -7894    -7865    -7839 
   -7807    -7769    -7734    -7708    -7685    -7657    -7624    -7596 
   -7584    -7574    -7560    -7555    -7561    -7553    -7538    -7542 
   -7561    -7573    -7581    -7599    -7630    -7657    -7673    -7699 
   -7734    -7755    -7774    -7798    -7820    -7847    -7879    -7902 
   -7942    -7994    -8035    -8078    -8129    -8168    -8209    -8260 
   -8302    -8344    -8390    -8421    -8446    -8477    -8499    -8510 
   -8527    -8553    -8572    -8586    -8604    -8623    -8652    -8688 
   -8710    -8734    -8777    -8815    -8854    -8903    -8945    -8988 
   -9038    -9086    -9150    -9231    -9293    -9344    -9402    -9458 
   -9506    -9551    -9594    -9637    -9668    -9680    -9683    -9684 
   -9678    -9666    -9661    -9651    -9621    -9591    -9572    -9555 
   -9518    -9462    -9414    -9386    -9346    -9293    -9252    -9217 
   -9173    -9132    -9104    -9084    -9055    -9022    -8995    -8968 
   -8926    -8888    -8863    -8830    -8802    -8779    -8754    -8738 
   -8712    -8684    -8672    -8645    -8604    -8579    -8560    -8526 
   -8492    -8464    -8428    -8395    -8382    -8361    -8326    -8303 
   -8295    -8275    -8252    -8251    -8248    -8240    -8248    -8260 
   -8256    -8270    -8293    -8297    -8314    -8349    -8378    -8408 
   -8454    -8509    -8556    -8599    -8661    -8729    -8785    -8856 
   -8938    -9004    -9070    -9154    -9231    -9296    -9369    -9447 
   -9520    -9590    -9652    -9717    -9788    -9845    -9891    -9941 
   -9989   -10035   -10079   -10106   -10123   -10142   -10152   -10156 
  -10156   -10143   -10126   -10118   -10098   -10066   -10042   -10017 
   -9979    -9952    -9926    -9883    -9834    -9799    -9765    -9721 
   -9672    -9633    -9594    -9555    -9526    -9497    -9464    -9435 
   -9418    -9405    -9385    -9358    -9331    -9308    -9296    -9286 
   -9267    -9259    -9269    -9273    -9271    -9281    -9308    -9333 
   -9347    -9377    -9421    -9459    -9508    -9568    -9607    -9643 
   -9697    -9742    -9780    -9830    -9871    -9902    -9944    -9979 
  -10011   -10057   -10103   -10143   -10187   -10218   -10246   -10291 
  -10338   -10378   -10423   -10469   -10504   -10542   -10567   -10580 
  -10594   -10597   -10578   -10555   -10524   -10485   -10436   -10370 
  -10293   -10206   -10110   -10012    -9909    -9798    -9688    -9574 
   -9444    -9312    -9185    -9050    -8911    -8787    -8668    -8540 
   -8417    -8309    -8208    -8104    -8006    -7911    -7804    -7715 
   -7646    -7560    -7469    -7400    -7342    -7280    -7225    -7180 
   -7130    -7079    -7041    -7011    -6983    -6975    -6990    -6994 
   -6990    -7023    -7074    -7113    -7167    -7238    -7302    -7369 
   -7458    -7550    -7635    -7719    -7807    -7900    -7987    -8068 
   -8154    -8236    -8317    -8391    -8451    -8507    -8571    -8622 
   -8658    -8698    -8721    -8726    -8726    -8721    -8706    -8679 
   -8650    -8631    -8612    -8581    -8553    -8529    -8499    -8471 
   -8441    -8413    -8384    -8360    -8337    -8313    -8291    -8272 
   -8256    -8236    -8212    -8194    -8171    -8139    -8114    -8090 
   -8060    -8037    -8021    -8002    -7983    -7964    -7950    -7942 
   -7931    -7925    -7924    -7923    -7921    -7925    -7935    -7952 
   -7973    -7994    -8019    -8040    -8068    -8098    -8125    -8160 
   -8198    -8229    -8263    -8303    -8338    -8372    -8414    -8461 
   -8506    -8546    -8599    -8657    -8716    -8779    -8837    -8903 
   -8984    -9061    -9128    -9211    -9306    -9390    -9481    -9589 
   -9690    -9787    -9891    -9988   -10073   -10157   -10238   -10304 
  -10357   -10401   -10436   -10466   -10493   -10512   -10519   -10517 
  -10511   -10504   -10490   -10471   -10458   -10428   -10376   -10323 
  -10273   -10214   -10137   -10053    -9971    -9873    -9763    -9652 
   -9533    -9410    -9292    -9157    -9015    -8885    -8757    -8625 
   -8496    -8364    -8237    -8128    -8023    -7917    -7820    -7728 
   -7650    -7585    -7533    -7487    -7438    -7404    -7392    -7380 
   -7364    -7380    -7420    -7452    -7501    -7577    -7650    -7736 
   -7839    -7928    -8014    -8113    -8214    -8318    -8430    -8538 
   -8640    -8745    -8860    -8974    -9085    -9198    -9308    -9408 
   -9506    -9607    -9709    -9804    -9883    -9950   -10019   -10076 
  -10125   -10176   -10208   -10222   -10238   -10238   -10220   -10203 
  -10173   -10126   -10077   -10022    -9949    -9865    -9787    -9709 
   -9613    -9512    -9421    -9322    -9223    -9132    -9031    -8920 
   -8833    -8752    -8664    -8591    -8522    -8451    -8387    -8321 
   -8251    -8186    -8116    -8040    -7971    -7894    -7813    -7735 
   -7659    -7591    -7535    -7479    -7427    -7399    -7380    -7372 
   -7388    -7414    -7443    -7487    -7543    -7604    -7669    -7747 
   -7832    -7911    -7993    -8085    -8175    -8260    -8340    -8413 
   -8487    -8563    -8626    -8679    -8729    -8775    -8815    -8851 
   -8885    -8911    -8922    -8927    -8938    -8939    -8922    -8901 
   -8883    -8856    -8815    -8769    -8721    -8672    -8615    -8546 
   -8464    -8390    -8317    -8235    -8151    -8075    -7986    -7892 
   -7813    -7744    -7661    -7569    -7485    -7404    -7321    -7233 
   -7145    -7065    -6995    -6925    -6855    -6798    -6763    -6735 
   -6711    -6700    -6705    -6717    -6724    -6739    -6768    -6798 
   -6831    -6883    -6944    -6990    -7040    -7106    -7173    -7230 
   -7287    -7350    -7408    -7469    -7530    -7573    -7614    -7669 
   -7713    -7740    -7767    -7788    -7793    -7793    -7789    -7782 
   -7761    -7732    -7701    -7659    -7616    -7572    -7514    -7450 
   -7400    -7352    -7288    -7229    -7183    -7130    -7069    -7021 
   -6979    -6937    -6913    -6895    -6863    -6840    -6837    -6836 
   -6843    -6863    -6881    -6901    -6940    -6985    -7029    -7082 
   -7140    -7202    -7264    -7327    -7400    -7481    -7560    -7643 
   -7728    -7819    -7921    -8025    -8122    -8221    -8330    -8451 
   -8569    -8681    -8793    -8910    -9024    -9142    -9266    -9379 
   -9493    -9628    -9759    -9864    -9977   -10104   -10207   -10296 
  -10385   -10455   -10514   -10571   -10616   -10652   -10682   -10710 
  -10735   -10747   -10748   -10743   -10733   -10728   -10710   -10662 
  -10612   -10580   -10542   -10480   -10415   -10349   -10276   -10196 
  -10121   -10055    -9985    -9909    -9834    -9753    -9667    -9585 
   -9497    -9412    -9331    -9238    -9143    -9061    -8974    -8880 
   -8799    -8726    -8653    -8590    -8533    -8479    -8444    -8414 
   -8383    -8365    -8368    -8385    -8421    -8454    -8487    -8536 
   -8596    -8654    -8718    -8789    -8857    -8912    -8972    -9045 
   -9112    -9170    -9227    -9286    -9344    -9404    -9466    -9516 
   -9563    -9618    -9662    -9697    -9726    -9755    -9783    -9803 
   -9810    -9823    -9836    -9844    -9849    -9834    -9806    -9779 
   -9744    -9698    -9648    -9594    -9522    -9443    -9370    -9289 
   -9189    -9081    -8969    -8853    -8738    -8625    -8517    -8421 
   -8334    -8253    -8174    -8095    -8023    -7955    -7892    -7827 
   -7773    -7723    -7674    -7635    -7607    -7580    -7565    -7561 
   -7564    -7573    -7586    -7603    -7631    -7672    -7712    -7751 
   -7798    -7846    -7893    -7952    -8009    -8067    -8133    -8190 
   -8240    -8290    -8340    -8387    -8428    -8463    -8500    -8533 
   -8557    -8577    -8594    -8604    -8607    -8608    -8611    -8602 
   -8579    -8563    -8542    -8509    -8469    -8428    -8391    -8352 
   -8303    -8252    -8194    -8125    -8063    -7998    -7915    -7830 
   -7747    -7663    -7580    -7493    -7399    -7300    -7202    -7105 
   -7014    -6930    -6843    -6744    -6648    -6575    -6515    -6444 
   -6380    -6331    -6285    -6243    -6208    -6174    -6145    -6126 
   -6102    -6079    -6079    -6093    -6106    -6127    -6169    -6218 
   -6266    -6330    -6413    -6498    -6579    -6663    -6743    -6831 
   -6940    -7047    -7140    -7246    -7371    -7489    -7608    -7740 
   -7873    -8005    -8143    -8286    -8421    -8553    -8691    -8826 
   -8947    -9077    -9208    -9321    -9428    -9536    -9629    -9720 
   -9811    -9890    -9956   -10019   -10076   -10121   -10157   -10184 
  -10197   -10196   -10185   -10164   -10139   -10104   -10050    -9992 
   -9933    -9861    -9783    -9695    -9595    -9491    -9377    -9250 
   -9116    -8980    -8830    -8677    -8523    -8363    -8197    -8051 
   -7908    -7751    -7599    -7464    -7339    -7226    -7121    -7013 
   -6914    -6847    -6795    -6744    -6706    -6697    -6704    -6706 
   -6720    -6767    -6831    -6893    -6964    -7036    -7098    -7177 
   -7272    -7361    -7460    -7573    -7684    -7804    -7933    -8066 
   -8208    -8349    -8499    -8661    -8808    -8959    -9128    -9270 
   -9388    -9518    -9639    -9747    -9853    -9949   -10030   -10099 
  -10162   -10227   -10285   -10329   -10355   -10368   -10377   -10378 
  -10355   -10323   -10291   -10249   -10204   -10152   -10084   -10003 
   -9907    -9813    -9722    -9613    -9495    -9397    -9285    -9159 
   -9040    -8908    -8765    -8635    -8497    -8348    -8209    -8086 
   -7966    -7844    -7735    -7638    -7539    -7446    -7372    -7306 
   -7246    -7203    -7177    -7153    -7130    -7123    -7136    -7150 
   -7175    -7215    -7258    -7302    -7360    -7415    -7468    -7538 
   -7616    -7677    -7743    -7830    -7916    -7983    -8055    -8144 
   -8221    -8286    -8360    -8437    -8507    -8575    -8640    -8699 
   -8757    -8812    -8861    -8911    -8970    -9035    -9090    -9144 
   -9202    -9259    -9319    -9383    -9444    -9497    -9552    -9610 
   -9666    -9722    -9782    -9837    -9886    -9930    -9968    -9998 
  -10026   -10053   -10068   -10069   -10077   -10091   -10087   -10071 
  -10054   -10034   -10010    -9983    -9949    -9915    -9884    -9852 
   -9818    -9783    -9744    -9699    -9657    -9621    -9579    -9540 
   -9505    -9482    -9467    -9444    -9427    -9416    -9400    -9381 
   -9359    -9340    -9324    -9297    -9262    -9238    -9220    -9192 
   -9158    -9132    -9108    -9073    -9040    -9013    -8977    -8931 
   -8889    -8858    -8829    -8796    -8761    -8730    -8710    -8695 
   -8680    -8671    -8664    -8662    -8664    -8671    -8688    -8718 
   -8746    -8777    -8820    -8870    -8914    -8962    -9024    -9089 
   -9154    -9215    -9283    -9355    -9414    -9472    -9535    -9596 
   -9656    -9705    -9756    -9811    -9860    -9906    -9945    -9973 
  -10003   -10026   -10030   -10033   -10038   -10026    -9996    -9971 
   -9941    -9895    -9849    -9801    -9737    -9676    -9618    -9559 
   -9510    -9459    -9396    -9340    -9293    -9243    -9194    -9153 
   -9124    -9099    -9073    -9053    -9047    -9050    -9050    -9053 
   -9065    -9076    -9089    -9119    -9153    -9180    -9213    -9250 
   -9286    -9325    -9358    -9383    -9418    -9463    -9499    -9530 
   -9570    -9613    -9649    -9687    -9724    -9755    -9786    -9818 
   -9844    -9857    -9868    -9887    -9894    -9883    -9884    -9891 
   -9883    -9882    -9880    -9859    -9834    -9822    -9801    -9767 
   -9738    -9710    -9668    -9628    -9598    -9562    -9513    -9483 
   -9471    -9447    -9416    -9401    -9391    -9381    -9377    -9379 
   -9377    -9381    -9394    -9406    -9417    -9439    -9456    -9474 
   -9510    -9549    -9582    -9620    -9657    -9703    -9757    -9794 
   -9823    -9867    -9903    -9933    -9972   -10004   -10031   -10065 
  -10088   -10100   -10116   -10123   -10114   -10107   -10103   -10084 
  -10058   -10039   -10014    -9975    -9934    -9891    -9841    -9788 
   -9733    -9672    -9616    -9570    -9521    -9462    -9409    -9370 
   -9329    -9283    -9240    -9212    -9189    -9155    -9119    -9099 
   -9078    -9049    -9026    -9016    -9007    -9003    -9003    -9000 
   -9007    -9013    -9015    -9030    -9051    -9061    -9076    -9107 
   -9140    -9178    -9219    -9259    -9315    -9377    -9441    -9512 
   -9579    -9652    -9729    -9799    -9875    -9964   -10048   -10131 
  -10234   -10335   -10423   -10520   -10627   -10725   -10817   -10908 
  -11001   -11088   -11167   -11252   -11335   -11402   -11466   -11537 
  -11587   -11622   -11659   -11696   -11720   -11746   -11772   -11777 
  -11774   -11777   -11762   -11728   -11688   -11642   -11585   -11512 
  -11433   -11350   -11269   -11187   -11097   -10999   -10903   -10816 
  -10720   -10617   -10524   -10432   -10334   -10235   -10146   -10061 
   -9976    -9894    -9819    -9745    -9676    -9628    -9578    -9521 
   -9477    -9445    -9425    -9420    -9420    -9423    -9437    -9470 
   -9502    -9529    -9575    -9637    -9688    -9738    -9798    -9847 
   -9891    -9938    -9991   -10045   -10083   -10110   -10150   -10203 
  -10246   -10284   -10331   -10378   -10419   -10454   -10488   -10517 
  -10535   -10546   -10555   -10559   -10557   -10547   -10535   -10511 
  -10478   -10438   -10382   -10327   -10273   -10201   -10129   -10061 
   -9988    -9915    -9849    -9780    -9713    -9649    -9580    -9516 
   -9460    -9400    -9335    -9273    -9209    -9154    -9103    -9046 
   -8995    -8949    -8901    -8861    -8826    -8803    -8789    -8777 
   -8769    -8773    -8777    -8780    -8787    -8799    -8815    -8834 
   -8860    -8888    -8911    -8939    -8976    -9003    -9020    -9042 
   -9063    -9081    -9097    -9113    -9127    -9144    -9163    -9180 
   -9185    -9200    -9223    -9221    -9217    -9235    -9251    -9254 
   -9262    -9281    -9301    -9302    -9296    -9300    -9308    -9309 
   -9306    -9305    -9301    -9285    -9278    -9274    -9254    -9228 
   -9208    -9186    -9165    -9134    -9103    -9084    -9059    -9027 
   -9003    -8980    -8954    -8934    -8907    -8880    -8869    -8858 
   -8845    -8835    -8830    -8837    -8845    -8851    -8865    -8881 
   -8891    -8900    -8920    -8938    -8939    -8949    -8968    -8980 
   -8999    -9026    -9036    -9042    -9063    -9078    -9084    -9101 
   -9116    -9113    -9112    -9113    -9112    -9104    -9104    -9115 
   -9113    -9111    -9116    -9112    -9100    -9094    -9084    -9059 
   -9035    -9019    -8995    -8961    -8932    -8910    -8868    -8827 
   -8803    -8769    -8727    -8696    -8658    -8615    -8586    -8556 
   -8525    -8502    -8474    -8449    -8444    -8437    -8421    -8404 
   -8398    -8394    -8383    -8370    -8361    -8359    -8356    -8352 
   -8357    -8363    -8367    -8371    -8368    -8374    -8388    -8391 
   -8403    -8421    -8431    -8446    -8474    -8492    -8502    -8520 
   -8537    -8549    -8564    -8579    -8596    -8611    -8615    -8615 
   -8618    -8617    -8607    -8599    -8596    -8591    -8581    -8569 
   -8561    -8553    -8536    -8515    -8499    -8477    -8451    -8426 
   -8391    -8357    -8322    -8279    -8236    -8197    -8152    -8109 
   -8073    -8035    -7990    -7952    -7917    -7874    -7835    -7817 
   -7805    -7781    -7759    -7747    -7740    -7739    -7743    -7749 
   -7749    -7751    -7763    -7769    -7766    -7770    -7782    -7786 
   -7789    -7796    -7794    -7794    -7803    -7809    -7801    -7793 
   -7801    -7804    -7799    -7809    -7824    -7819    -7815    -7831 
   -7847    -7850    -7862    -7879    -7886    -7901    -7929    -7954 
   -7977    -8004    -8039    -8071    -8095    -8128    -8162    -8185 
   -8203    -8222    -8233    -8240    -8251    -8248    -8239    -8229 
   -8218    -8202    -8181    -8154    -8129    -8110    -8090    -8064 
   -8035    -8020    -8019    -8013    -7998    -7987    -7987    -7985 
   -7981    -7973    -7959    -7944    -7931    -7917    -7901    -7890 
   -7874    -7846    -7831    -7824    -7809    -7798    -7796    -7784 
   -7773    -7769    -7767    -7774    -7786    -7793    -7803    -7817 
   -7831    -7854    -7878    -7886    -7900    -7915    -7913    -7915 
   -7917    -7911    -7905    -7900    -7892    -7884    -7874    -7867 
   -7865    -7862    -7855    -7848    -7835    -7827    -7831    -7825 
   -7809    -7799    -7785    -7755    -7734    -7719    -7688    -7642 
   -7601    -7566    -7527    -7480    -7437    -7389    -7339    -7291 
   -7236    -7183    -7132    -7078    -7025    -6984    -6948    -6910 
   -6868    -6841    -6831    -6818    -6804    -6798    -6801    -6802 
   -6808    -6820    -6833    -6851    -6872    -6895    -6921    -6944 
   -6968    -7003    -7041    -7075    -7098    -7115    -7142    -7182 
   -7217    -7238    -7264    -7292    -7307    -7321    -7337    -7350 
   -7366    -7375    -7371    -7381    -7392    -7388    -7391    -7396 
   -7388    -7376    -7371    -7368    -7360    -7348    -7338    -7330 
   -7310    -7285    -7275    -7264    -7244    -7221    -7198    -7184 
   -7177    -7163    -7140    -7118    -7105    -7102    -7094    -7087 
   -7084    -7082    -7082    -7086    -7086    -7086    -7091    -7094 
   -7094    -7096    -7099    -7101    -7094    -7088    -7089    -7091 
   -7092    -7105    -7119    -7121    -7125    -7142    -7156    -7169 
   -7203    -7236    -7257    -7283    -7318    -7356    -7381    -7402 
   -7438    -7474    -7500    -7530    -7566    -7603    -7641    -7676 
   -7705    -7744    -7780    -7796    -7827    -7877    -7913    -7939 
   -7978    -8014    -8048    -8090    -8132    -8170    -8210    -8248 
   -8290    -8333    -8364    -8390    -8431    -8472    -8503    -8533 
   -8563    -8598    -8634    -8654    -8672    -8699    -8718    -8730 
   -8743    -8757    -8766    -8770    -8772    -8772    -8768    -8766 
   -8769    -8762    -8750    -8734    -8716    -8702    -8695    -8687 
   -8664    -8644    -8629    -8607    -8586    -8565    -8550    -8532 
   -8506    -8490    -8477    -8453    -8428    -8413    -8397    -8379 
   -8372    -8363    -8352    -8352    -8357    -8349    -8347    -8356 
   -8364    -8364    -8367    -8375    -8379    -8376    -8388    -8404 
   -8407    -8418    -8444    -8464    -8490    -8520    -8548    -8581 
   -8621    -8653    -8681    -8730    -8779    -8808    -8839    -8889 
   -8939    -8984    -9027    -9067    -9109    -9157    -9204    -9250 
