Origin Time       2016/04/16 01:25:00
Lat.              32.753
Long.             130.762
Depth. (km)       12
Mag.              7.3
Station Code      HYG018
Station Lat.      34.8143
Station Long.     134.6870
Station Height(m) 9
Record Time       2016/04/16 01:27:07
Sampling Freq(Hz) 100Hz
Duration Time(s)  72
Dir.              N-S
Scale Factor      7845(gal)/8223790
Max. Acc. (gal)   2.413
Last Correction   2016/04/16 01:27:09
Memo.             
[...]
   -8043    -8073    -8106    -8139    -8182    -8228    -8276    -8338 
   -8398    -8457    -8529    -8603    -8676    -8746    -8815    -8880 
   -8942    -9007    -9066    -9109    -9153    -9201    -9227    -9227 
   -9219    -9202    -9175    -9136    -9093    -9043    -8991    -8942 
   -8892    -8835    -8780    -8725    -8667    -8606    -8540    -8480 
   -8418    -8357    -8302    -8253    -8210    -8175    -8139    -8102 
   -8073    -8052    -8046    -8056    -8067    -8071    -8078    -8091 
   -8105    -8113    -8125    -8151    -8181    -8205    -8244    -8299 
   -8359    -8424    -8494    -8559    -8618    -8681    -8745    -8797 
   -8839    -8876    -8912    -8947    -8970    -8984    -9001    -9019 
   -9022    -9012    -9005    -8996    -8984    -8966    -8938    -8900 
   -8866    -8843    -8823    -8796    -8768    -8745    -8719    -8691 
   -8671    -8649    -8622    -8602    -8588    -8579    -8571    -8561 
   -8542    -8517    -8500    -8490    -8480    -8480    -8492    -8510 
   -8526    -8540    -8564    -8588    -8600    -8608    -8621    -8625 
   -8622    -8625    -8625    -8619    -8617    -8611    -8604    -8603 
   -8602    -8598    -8595    -8592    -8588    -8583    -8581    -8577 
   -8571    -8572    -8576    -8576    -8568    -8553    -8540    -8525 
   -8503    -8480    -8464    -8441    -8401    -8374    -8355    -8328 
   -8299    -8279    -8268    -8266    -8274    -8293    -8319    -8355 
   -8397    -8428    -8446    -8464    -8480    -8487    -8496    -8510 
   -8517    -8522    -8522    -8517    -8510    -8500    -8486    -8467 
   -8460    -8459    -8459    -8467    -8487    -8513    -8533    -8561 
   -8600    -8635    -8657    -8675    -8698    -8715    -8721    -8733 
   -8746    -8757    -8768    -8777    -8785    -8797    -8803    -8803 
   -8804    -8810    -8816    -8822    -8829    -8842    -8853    -8863 
   -8874    -8876    -8869    -8858    -8833    -8792    -8746    -8696 
   -8634    -8563    -8487    -8414    -8345    -8279    -8222    -8163 
   -8101    -8055    -8024    -7997    -7979    -7971    -7964    -7962 
   -7969    -7990    -8023    -8071    -8124    -8176    -8235    -8295 
   -8347    -8388    -8428    -8461    -8497    -8537    -8571    -8606 
   -8637    -8658    -8683    -8703    -8714    -8725    -8735    -8746 
   -8769    -8800    -8833    -8869    -8908    -8945    -8981    -9016 
   -9040    -9058    -9069    -9069    -9055    -9032    -9001    -8965 
   -8927    -8893    -8849    -8796    -8756    -8718    -8676    -8642 
   -8618    -8599    -8587    -8576    -8568    -8559    -8546    -8533 
   -8513    -8496    -8479    -8451    -8414    -8384    -8352    -8316 
   -8279    -8243    -8209    -8185    -8174    -8171    -8170    -8185 
   -8215    -8248    -8290    -8341    -8398    -8453    -8510    -8568 
   -8617    -8658    -8703    -8742    -8766    -8776    -8792    -8814 
   -8824    -8835    -8857    -8878    -8904    -8938    -8978    -9019 
   -9063    -9104    -9143    -9180    -9211    -9235    -9256    -9266 
   -9254    -9229    -9207    -9173    -9128    -9088    -9054    -9012 
   -8968    -8924    -8884    -8843    -8806    -8772    -8748    -8723 
   -8695    -8669    -8638    -8591    -8533    -8480    -8426    -8376 
   -8332    -8295    -8263    -8236    -8213    -8202    -8189    -8170 
   -8177    -8214    -8244    -8272    -8322    -8390    -8467    -8557 
   -8653    -8749    -8846    -8932    -8999    -9063    -9126    -9163 
   -9178    -9189    -9196    -9184    -9157    -9128    -9099    -9063 
   -9030    -9001    -8978    -8951    -8927    -8905    -8881    -8856 
   -8835    -8824    -8824    -8819    -8807    -8792    -8768    -8737 
   -8699    -8654    -8610    -8563    -8510    -8472    -8441    -8411 
   -8385    -8372    -8360    -8348    -8347    -8352    -8352    -8351 
   -8352    -8352    -8352    -8347    -8341    -8338    -8330    -8313 
   -8295    -8271    -8235    -8202    -8186    -8182    -8186    -8198 
   -8221    -8257    -8297    -8334    -8376    -8418    -8461    -8496 
   -8522    -8549    -8576    -8596    -8610    -8622    -8631    -8627 
   -8623    -8623    -8622    -8626    -8633    -8631    -8630    -8635 
   -8650    -8667    -8677    -8683    -8703    -8734    -8762    -8792 
   -8827    -8858    -8884    -8907    -8919    -8924    -8937    -8937 
   -8922    -8911    -8908    -8896    -8878    -8853    -8830    -8811 
   -8787    -8753    -8726    -8704    -8680    -8660    -8638    -8608 
   -8581    -8553    -8517    -8469    -8428    -8395    -8356    -8317 
   -8289    -8257    -8225    -8206    -8201    -8195    -8195    -8214 
   -8243    -8275    -8321    -8384    -8453    -8523    -8606    -8692 
   -8773    -8849    -8920    -8980    -9018    -9050    -9080    -9094 
   -9094    -9092    -9086    -9073    -9061    -9061    -9061    -9051 
   -9035    -9026    -9019    -9000    -8980    -8972    -8964    -8950 
   -8942    -8931    -8910    -8885    -8856    -8823    -8791    -8748 
   -8706    -8675    -8635    -8587    -8553    -8532    -8509    -8487 
   -8467    -8453    -8457    -8471    -8487    -8519    -8561    -8607 
   -8653    -8706    -8756    -8797    -8835    -8863    -8868    -8865 
   -8865    -8851    -8830    -8819    -8810    -8803    -8812    -8822 
   -8823    -8827    -8842    -8865    -8885    -8905    -8939    -8981 
   -9013    -9046    -9086    -9126    -9165    -9204    -9238    -9273 
   -9312    -9348    -9373    -9401    -9436    -9460    -9477    -9499 
   -9528    -9544    -9563    -9605    -9653    -9697    -9745    -9798 
   -9832    -9850    -9872    -9883    -9871    -9840    -9807    -9771 
   -9722    -9666    -9616    -9560    -9486    -9413    -9347    -9271 
   -9188    -9117    -9063    -9009    -8954    -8924    -8915    -8893 
   -8872    -8870    -8866    -8850    -8838    -8833    -8827    -8822 
   -8820    -8824    -8830    -8833    -8841    -8856    -8862    -8865 
   -8877    -8896    -8924    -8955    -8982    -9005    -9032    -9061 
   -9073    -9080    -9094    -9107    -9109    -9121    -9137    -9147 
   -9173    -9198    -9204    -9202    -9196    -9173    -9147    -9117 
   -9073    -9030    -8991    -8947    -8900    -8854    -8804    -8750 
   -8694    -8635    -8581    -8540    -8502    -8471    -8446    -8418 
   -8387    -8352    -8299    -8244    -8195    -8127    -8054    -7989 
   -7919    -7842    -7763    -7684    -7618    -7553    -7484    -7420 
   -7373    -7345    -7319    -7294    -7292    -7306    -7314    -7330 
   -7364    -7398    -7420    -7443    -7468    -7477    -7473    -7468 
   -7460    -7437    -7404    -7378    -7369    -7378    -7398    -7427 
   -7476    -7538    -7609    -7681    -7754    -7840    -7919    -7977 
   -8027    -8063    -8075    -8068    -8044    -8009    -7973    -7924 
   -7865    -7812    -7771    -7747    -7738    -7744    -7767    -7801 
   -7839    -7875    -7921    -7969    -7997    -8016    -8035    -8044 
   -8033    -8023    -8004    -7971    -7936    -7896    -7847    -7808 
   -7789    -7780    -7777    -7798    -7850    -7909    -7977    -8062 
   -8158    -8253    -8338    -8413    -8497    -8573    -8612    -8638 
   -8660    -8658    -8645    -8635    -8630    -8629    -8631    -8637 
   -8644    -8653    -8664    -8683    -8704    -8731    -8775    -8812 
   -8830    -8856    -8885    -8896    -8896    -8903    -8899    -8866 
   -8829    -8793    -8746    -8692    -8650    -8615    -8579    -8553 
   -8533    -8519    -8510    -8510    -8510    -8513    -8513    -8515 
   -8520    -8529    -8540    -8549    -8560    -8579    -8600    -8612 
   -8627    -8653    -8683    -8714    -8757    -8815    -8869    -8929 
   -9016    -9104    -9182    -9275    -9379    -9468    -9551    -9648 
   -9742    -9826    -9913   -10008   -10099   -10181   -10266   -10355 
  -10440   -10520   -10604   -10686   -10752   -10814   -10883   -10935 
  -10968   -10994   -11006   -11014   -11014   -11007   -11009   -11010 
  -10999   -10980   -10956   -10922   -10871   -10809   -10747   -10669 
  -10571   -10470   -10359   -10234   -10098    -9963    -9832    -9688 
   -9537    -9393    -9242    -9084    -8937    -8807    -8685    -8577 
   -8487    -8418    -8371    -8337    -8299    -8271    -8259    -8244 
   -8230    -8236    -8248    -8253    -8255    -8260    -8267    -8263 
   -8262    -8276    -8290    -8294    -8301    -8311    -8324    -8337 
   -8351    -8364    -8379    -8394    -8407    -8418    -8434    -8444 
   -8444    -8444    -8441    -8426    -8401    -8360    -8303    -8244 
   -8177    -8104    -8031    -7962    -7898    -7838    -7778    -7723 
   -7673    -7624    -7581    -7545    -7519    -7501    -7488    -7489 
   -7510    -7543    -7591    -7655    -7734    -7821    -7917    -8023 
   -8135    -8244    -8348    -8451    -8552    -8648    -8731    -8815 
   -8903    -8980    -9051    -9128    -9194    -9246    -9298    -9350 
   -9388    -9423    -9454    -9474    -9491    -9505    -9505    -9487 
   -9459    -9414    -9355    -9290    -9201    -9093    -8981    -8866 
   -8752    -8641    -8536    -8434    -8341    -8263    -8203    -8154 
   -8117    -8106    -8110    -8124    -8159    -8206    -8248    -8293 
   -8337    -8371    -8385    -8384    -8365    -8337    -8307    -8272 
   -8232    -8197    -8166    -8143    -8129    -8121    -8118    -8128 
   -8152    -8189    -8243    -8310    -8376    -8440    -8515    -8594 
   -8657    -8710    -8760    -8802    -8835    -8860    -8862    -8853 
   -8842    -8838    -8849    -8863    -8869    -8885    -8927    -8989 
   -9070    -9161    -9242    -9324    -9424    -9528    -9616    -9691 
   -9753    -9807    -9865    -9909    -9926    -9937    -9945    -9938 
   -9915    -9876    -9821    -9769    -9741    -9720    -9688    -9656 
   -9629    -9617    -9637    -9667    -9683    -9703    -9745    -9796 
   -9850    -9903    -9945    -9981   -10022   -10053   -10055   -10031 
  -10002    -9979    -9948    -9899    -9856    -9825    -9804    -9794 
   -9786    -9771    -9751    -9733    -9724    -9705    -9679    -9657 
   -9625    -9589    -9567    -9541    -9505    -9472    -9436    -9388 
   -9340    -9290    -9236    -9180    -9121    -9063    -9004    -8935 
   -8865    -8808    -8754    -8699    -8650    -8603    -8556    -8513 
   -8474    -8440    -8410    -8380    -8352    -8333    -8316    -8295 
   -8268    -8240    -8202    -8159    -8113    -8071    -8035    -8007 
   -7985    -7959    -7939    -7924    -7908    -7894    -7889    -7885 
   -7874    -7870    -7877    -7878    -7879    -7890    -7906    -7919 
   -7931    -7954    -7969    -7978    -7986    -7996    -8007    -8017 
   -8025    -8040    -8064    -8094    -8117    -8139    -8181    -8226 
   -8260    -8301    -8348    -8390    -8428    -8460    -8484    -8506 
   -8525    -8530    -8529    -8523    -8509    -8482    -8457    -8441 
   -8418    -8390    -8365    -8337    -8294    -8241    -8187    -8124 
   -8040    -7951    -7865    -7771    -7666    -7561    -7452    -7326 
   -7191    -7059    -6929    -6809    -6696    -6586    -6485    -6392 
   -6309    -6239    -6185    -6147    -6123    -6110    -6118    -6150 
   -6207    -6280    -6374    -6489    -6623    -6772    -6930    -7101 
   -7284    -7474    -7657    -7827    -7989    -8137    -8276    -8418 
   -8550    -8655    -8746    -8829    -8885    -8916    -8946    -8976 
   -8995    -9024    -9057    -9080    -9115    -9170    -9220    -9270 
   -9331    -9385    -9425    -9463    -9490    -9505    -9521    -9526 
   -9517    -9514    -9520    -9525    -9536    -9559    -9589    -9613 
   -9643    -9687    -9740    -9788    -9837    -9892    -9940    -9968 
   -9989    -9996    -9976    -9944    -9903    -9847    -9771    -9680 
   -9582    -9475    -9362    -9242    -9124    -9015    -8910    -8812 
   -8730    -8652    -8572    -8496    -8418    -8334    -8248    -8163 
   -8073    -7990    -7912    -7842    -7789    -7758    -7738    -7732 
   -7742    -7766    -7803    -7854    -7923    -8002    -8093    -8194 
   -8298    -8401    -8515    -8625    -8726    -8830    -8929    -9012 
   -9086    -9151    -9204    -9258    -9306    -9342    -9370    -9400 
   -9413    -9404    -9383    -9354    -9312    -9252    -9186    -9123 
   -9053    -8974    -8895    -8811    -8723    -8630    -8540    -8454 
   -8372    -8295    -8228    -8170    -8117    -8073    -8047    -8032 
   -8027    -8037    -8067    -8106    -8155    -8213    -8272    -8329 
   -8383    -8431    -8476    -8510    -8540    -8572    -8604    -8634 
   -8661    -8692    -8733    -8766    -8791    -8815    -8829    -8824 
   -8808    -8781    -8746    -8694    -8631    -8567    -8502    -8430 
   -8356    -8280    -8199    -8116    -8033    -7954    -7877    -7812 
   -7758    -7708    -7673    -7641    -7596    -7557    -7524    -7485 
   -7450    -7423    -7398    -7375    -7369    -7380    -7385    -7388 
   -7411    -7447    -7477    -7510    -7557    -7611    -7663    -7722 
   -7789    -7855    -7911    -7963    -8016    -8068    -8116    -8144 
   -8171    -8206    -8236    -8259    -8294    -8336    -8371    -8411 
   -8463    -8520    -8595    -8675    -8746    -8823    -8900    -8964 
   -9024    -9085    -9135    -9169    -9194    -9213    -9213    -9196 
   -9165    -9135    -9100    -9050    -8991    -8928    -8853    -8762 
   -8667    -8572    -8469    -8359    -8251    -8132    -8002    -7867 
   -7728    -7586    -7449    -7312    -7169    -7020    -6871    -6733 
   -6598    -6465    -6349    -6242    -6154    -6102    -6087    -6112 
   -6176    -6266    -6393    -6551    -6723    -6906    -7106    -7307 
   -7504    -7690    -7863    -8029    -8193    -8343    -8476    -8595 
   -8712    -8827    -8938    -9046    -9155    -9252    -9327    -9388 
   -9436    -9460    -9466    -9452    -9416    -9371    -9317    -9246 
   -9163    -9073    -8977    -8880    -8776    -8657    -8532    -8414 
   -8306    -8198    -8093    -7996    -7905    -7830    -7770    -7720 
   -7684    -7659    -7638    -7624    -7609    -7585    -7569    -7566 
   -7565    -7564    -7570    -7581    -7591    -7605    -7627    -7642 
   -7643    -7646    -7652    -7654    -7647    -7635    -7619    -7605 
   -7592    -7581    -7578    -7570    -7562    -7557    -7543    -7514 
   -7482    -7458    -7429    -7393    -7357    -7317    -7277    -7249 
   -7234    -7230    -7229    -7227    -7234    -7242    -7249    -7260 
   -7263    -7253    -7250    -7248    -7222    -7192    -7172    -7150 
   -7126    -7105    -7088    -7083    -7092    -7115    -7132    -7146 
   -7172    -7206    -7238    -7264    -7294    -7327    -7350    -7357 
   -7365    -7369    -7365    -7357    -7345    -7326    -7307    -7302 
   -7302    -7307    -7322    -7335    -7356    -7392    -7434    -7477 
   -7539    -7618    -7703    -7799    -7911    -8027    -8148    -8272 
   -8401    -8542    -8694    -8842    -8984    -9115    -9232    -9339 
   -9443    -9540    -9626    -9710    -9788    -9846    -9896    -9949 
   -9979    -9977    -9973    -9969    -9948    -9911    -9863    -9796 
   -9718    -9625    -9520    -9408    -9290    -9169    -9045    -8911 
   -8768    -8621    -8463    -8301    -8144    -8001    -7869    -7742 
   -7626    -7530    -7444    -7372    -7314    -7273    -7245    -7225 
   -7221    -7238    -7271    -7315    -7371    -7446    -7539    -7636 
   -7739    -7851    -7963    -8068    -8179    -8295    -8407    -8513 
   -8606    -8681    -8743    -8799    -8845    -8874    -8895    -8910 
   -8912    -8908    -8907    -8892    -8874    -8862    -8842    -8815 
   -8793    -8775    -8753    -8731    -8721    -8714    -8707    -8706 
   -8706    -8700    -8692    -8688    -8692    -8703    -8716    -8741 
   -8784    -8835    -8881    -8922    -8961    -8988    -8989    -8977 
   -8964    -8942    -8910    -8883    -8862    -8829    -8780    -8726 
   -8671    -8610    -8548    -8487    -8433    -8378    -8318    -8251 
   -8187    -8139    -8095    -8051    -8023    -8013    -8007    -8002 
   -7994    -7981    -7967    -7958    -7944    -7924    -7903    -7882 
   -7860    -7831    -7799    -7777    -7758    -7739    -7715    -7681 
   -7649    -7619    -7585    -7551    -7519    -7487    -7456    -7435 
   -7420    -7402    -7378    -7360    -7348    -7335    -7321    -7307 
   -7302    -7307    -7315    -7312    -7330    -7380    -7435    -7482 
   -7537    -7603    -7672    -7736    -7794    -7850    -7900    -7933 
   -7959    -7989    -8010    -8007    -7994    -7990    -7985    -7958 
   -7911    -7862    -7820    -7780    -7738    -7697    -7665    -7635 
   -7604    -7584    -7574    -7557    -7535    -7515    -7495    -7469 
   -7433    -7387    -7349    -7315    -7264    -7215    -7177    -7150 
   -7146    -7160    -7184    -7229    -7300    -7396    -7510    -7638 
   -7769    -7909    -8060    -8217    -8385    -8557    -8719    -8874 
   -9030    -9169    -9282    -9393    -9501    -9590    -9657    -9721 
   -9790    -9847    -9895    -9940    -9979   -10008   -10031   -10049 
  -10065   -10083   -10100   -10112   -10118   -10120   -10118   -10114 
  -10103   -10080   -10050   -10025    -9992    -9953    -9913    -9865 
   -9817    -9774    -9725    -9672    -9622    -9563    -9494    -9416 
   -9335    -9251    -9157    -9070    -8999    -8941    -8895    -8863 
   -8846    -8839    -8846    -8870    -8908    -8957    -9011    -9067 
   -9116    -9157    -9201    -9256    -9319    -9373    -9413    -9448 
   -9497    -9563    -9628    -9693    -9757    -9819    -9882    -9945 
  -10000   -10042   -10069   -10083   -10085   -10079   -10061   -10030 
   -9987    -9938    -9879    -9804    -9725    -9643    -9553    -9454 
   -9358    -9271    -9201    -9147    -9111    -9100    -9108    -9131 
   -9174    -9224    -9275    -9328    -9383    -9448    -9521    -9594 
   -9661    -9733    -9814    -9894    -9965   -10046   -10120   -10181 
  -10241   -10296   -10346   -10384   -10411   -10428   -10443   -10461 
  -10477   -10481   -10470   -10447   -10407   -10353   -10296   -10233 
  -10156   -10065    -9953    -9833    -9715    -9590    -9460    -9332 
   -9205    -9082    -8969    -8869    -8776    -8695    -8627    -8563 
   -8497    -8434    -8378    -8326    -8280    -8244    -8201    -8160 
   -8144    -8144    -8144    -8160    -8182    -8210    -8253    -8313 
   -8379    -8451    -8533    -8627    -8723    -8816    -8916    -9015 
   -9101    -9173    -9232    -9286    -9339    -9385    -9418    -9447 
   -9456    -9443    -9424    -9394    -9346    -9289    -9224    -9153 
   -9089    -9026    -8962    -8916    -8884    -8853    -8824    -8795 
   -8758    -8721    -8684    -8635    -8581    -8533    -8486    -8437 
   -8394    -8351    -8314    -8291    -8279    -8276    -8293    -8324 
   -8364    -8411    -8467    -8533    -8599    -8667    -8742    -8820 
   -8899    -8965    -9020    -9076    -9131    -9180    -9220    -9256 
   -9292    -9316    -9332    -9344    -9352    -9355    -9366    -9390 
   -9420    -9447    -9474    -9499    -9517    -9524    -9532    -9543 
   -9556    -9576    -9590    -9598    -9610    -9616    -9610    -9609 
   -9602    -9586    -9574    -9563    -9549    -9528    -9508    -9487 
   -9466    -9448    -9439    -9431    -9420    -9413    -9409    -9400 
   -9393    -9402    -9414    -9417    -9416    -9423    -9435    -9437 
