Origin Time       2016/04/16 01:25:00
Lat.              32.753
Long.             130.762
Depth. (km)       12
Mag.              7.3
Station Code      HYG004
Station Lat.      35.4582
Station Long.     134.5748
Station Height(m) 290
Record Time       2016/04/16 01:27:19
Sampling Freq(Hz) 100Hz
Duration Time(s)  60
Dir.              N-S
Scale Factor      7845(gal)/8223790
Max. Acc. (gal)   2.691
Last Correction   2016/04/16 01:27:21
Memo.             
[...]
    -218     -225     -238     -253     -265     -279     -295     -314 
    -333     -346     -359     -375     -391     -400     -411     -422 
    -429     -433     -440     -444     -442     -438     -437     -432 
    -421     -411     -396     -378     -359     -338     -319     -301 
    -279     -259     -244     -230     -216     -201     -186     -172 
    -162     -153     -147     -137     -129     -125     -118     -117 
    -118     -118     -120     -124     -125     -125     -128     -129 
    -128     -126     -124     -118     -114     -109      -98      -85 
     -78      -68      -55      -45      -35      -23      -16      -10 
      -1        9       13       18       29       35       35       40 
      47       45       45       52       54       52       56       63 
      63       62       65       70       67       64       63       56 
      45       32       21        8       -9      -23      -36      -56 
     -75      -89     -105     -121     -135     -149     -160     -170 
    -182     -190     -195     -202     -210     -217     -222     -225 
    -232     -241     -248     -252     -257     -259     -259     -259 
    -251     -244     -240     -232     -217     -206     -197     -186 
    -178     -175     -171     -168     -170     -171     -174     -178 
    -186     -193     -198     -206     -216     -221     -225     -236 
    -245     -255     -266     -279     -291     -305     -318     -333 
    -348     -364     -379     -392     -407     -421     -432     -441 
    -446     -451     -457     -461     -463     -464     -461     -454 
    -449     -438     -425     -414     -399     -383     -368     -352 
    -340     -330     -322     -311     -305     -297     -289     -286 
    -282     -278     -272     -263     -257     -255     -249     -241 
    -234     -230     -225     -221     -222     -224     -225     -229 
    -238     -251     -259     -268     -279     -292     -305     -314 
    -322     -333     -341     -344     -344     -348     -348     -346 
    -344     -346     -344     -338     -333     -329     -324     -318 
    -313     -306     -299     -292     -286     -279     -271     -263 
    -255     -249     -243     -237     -232     -229     -224     -218 
    -216     -214     -210     -202     -194     -187     -176     -163 
    -152     -140     -122     -109      -97      -82      -75      -70 
     -63      -59      -59      -60      -65      -71      -79      -89 
     -97     -106     -122     -136     -144     -155     -163     -171 
    -180     -187     -187     -187     -187     -184     -176     -166 
    -156     -147     -136     -121     -112     -103      -93      -85 
     -81      -74      -68      -64      -58      -54      -54      -47 
     -43      -41      -43      -45      -49      -52      -58      -63 
     -67      -74      -81      -83      -89      -93      -95      -99 
    -102     -103     -105     -109     -109     -112     -116     -120 
    -125     -129     -133     -141     -149     -155     -162     -168 
    -174     -183     -193     -198     -203     -211     -220     -225 
    -232     -240     -244     -249     -255     -256     -255     -251 
    -245     -240     -233     -225     -218     -217     -211     -203 
    -203     -199     -193     -193     -190     -183     -180     -175 
    -170     -167     -166     -160     -159     -162     -166     -170 
    -174     -183     -191     -199     -207     -217     -228     -236 
    -241     -251     -256     -259     -263     -263     -263     -263 
    -263     -259     -257     -259     -263     -263     -263     -268 
    -271     -275     -280     -284     -289     -297     -302     -309 
    -318     -328     -337     -348     -359     -368     -378     -383 
    -387     -390     -388     -382     -376     -365     -352     -340 
    -326     -310     -294     -279     -261     -243     -228     -212 
    -198     -186     -174     -164     -159     -151     -144     -143 
    -139     -140     -144     -149     -149     -152     -157     -164 
    -171     -176     -183     -193     -202     -210     -220     -230 
    -237     -243     -248     -256     -257     -255     -256     -256 
    -249     -245     -243     -236     -228     -221     -214     -207 
    -202     -194     -186     -178     -168     -163     -160     -149 
    -140     -135     -128     -120     -112     -103      -99      -94 
     -90      -89      -85      -85      -85      -81      -78      -76 
     -74      -72      -72      -70      -68      -65      -65      -65 
     -64      -64      -70      -70      -70      -71      -72      -76 
     -78      -76      -81      -83      -82      -81      -79      -76 
     -70      -60      -55      -45      -32      -25      -17       -5 
       4        9       14       17       20       22       20       14 
      10        5       -2       -9      -16      -25      -40      -52 
     -63      -79      -97     -110     -128     -144     -157     -172 
    -186     -198     -206     -209     -216     -224     -228     -232 
    -234     -237     -240     -244     -245     -249     -255     -257 
    -259     -265     -265     -259     -256     -255     -249     -243 
    -237     -230     -224     -216     -206     -198     -193     -184 
    -176     -168     -157     -149     -140     -125     -110      -99 
     -90      -76      -62      -49      -39      -27      -16       -5 
       5       16       23       29       35       40       43       44 
      44       45       44       40       39       39       36       29 
      25       20       13       10        8        4        2        2 
       4        5        8        9       13       20       22       27 
      32       36       41       47       47       49       52       51 
      54       55       51       49       52       51       49       51 
      49       47       47       44       40       36       32       25 
      20       14        4       -4      -11      -23      -35      -47 
     -62      -71      -82      -94     -103     -109     -116     -120 
    -121     -120     -121     -121     -122     -124     -121     -122 
    -128     -131     -137     -144     -152     -159     -168     -174 
    -178     -183     -189     -191     -198     -203     -206     -214 
    -224     -230     -237     -245     -257     -266     -276     -286 
    -292     -299     -305     -309     -311     -315     -317     -318 
    -321     -324     -322     -324     -325     -328     -334     -340 
    -344     -351     -353     -356     -361     -367     -367     -367 
    -370     -376     -378     -383     -387     -388     -394     -398 
    -400     -407     -411     -415     -422     -427     -430     -436 
    -442     -450     -457     -463     -473     -480     -483     -487 
    -492     -495     -495     -492     -488     -484     -479     -469 
    -461     -454     -444     -432     -421     -409     -395     -379 
    -363     -348     -334     -318     -303     -289     -280     -272 
    -261     -252     -245     -240     -234     -229     -229     -230 
    -233     -240     -245     -249     -252     -253     -256     -257 
    -252     -249     -245     -241     -237     -233     -229     -225 
    -221     -216     -210     -206     -202     -199     -195     -191 
    -191     -190     -186     -183     -178     -174     -167     -159 
    -152     -144     -136     -129     -128     -122     -121     -126 
    -126     -126     -133     -137     -137     -137     -139     -141 
    -143     -144     -148     -153     -159     -163     -167     -171 
    -172     -170     -163     -163     -159     -151     -149     -148 
    -144     -144     -144     -148     -153     -160     -166     -171 
    -176     -187     -197     -207     -221     -234     -248     -270 
    -295     -318     -342     -373     -405     -436     -467     -495 
    -525     -556     -581     -604     -626     -643     -658     -673 
    -684     -695     -706     -715     -722     -731     -741     -747 
    -754     -761     -764     -765     -764     -761     -757     -753 
    -750     -751     -751     -750     -751     -753     -754     -756 
    -758     -757     -754     -754     -751     -745     -739     -733 
    -724     -715     -706     -693     -685     -676     -664     -654 
    -646     -637     -626     -616     -606     -594     -579     -564 
    -544     -526     -510     -488     -464     -445     -423     -398 
    -376     -360     -342     -319     -303     -291     -274     -259 
    -251     -243     -233     -228     -225     -222     -220     -217 
    -214     -209     -203     -199     -195     -190     -187     -180 
    -172     -166     -157     -147     -137     -131     -125     -112 
    -102      -93      -82      -74      -64      -52      -41      -35 
     -27      -17       -8       -2        2        8       11       14 
      17       18       20       21       22       22       23       23 
      18       14       10        4       -5      -16      -28      -37 
     -45      -59      -68      -78      -91     -102     -106     -117 
    -128     -135     -143     -148     -151     -152     -155     -156 
    -156     -152     -148     -144     -140     -133     -128     -122 
    -112     -109     -103      -94      -86      -82      -75      -70 
     -65      -60      -55      -52      -47      -45      -47      -47 
     -45      -45      -47      -49      -52      -58      -59      -56 
     -55      -54      -52      -52      -47      -43      -41      -40 
     -39      -41      -47      -47      -51      -56      -62      -64 
     -65      -64      -60      -55      -47      -35      -20       -5 
       9       25       44       62       78       91       99      105 
     109      109      106      105      102       99       97       93 
      89       87       89       87       86       82       76       70 
      59       45       28       10       -5      -27      -47      -65 
     -82      -98     -112     -121     -135     -148     -160     -174 
    -187     -205     -220     -234     -255     -275     -295     -314 
    -330     -349     -369     -383     -398     -409     -421     -430 
    -438     -448     -457     -467     -477     -487     -503     -522 
    -535     -549     -564     -579     -592     -604     -619     -634 
    -648     -662     -679     -695     -711     -730     -746     -762 
    -777     -787     -797     -810     -819     -827     -835     -838 
    -845     -850     -854     -858     -862     -866     -872     -876 
    -881     -884     -884     -888     -889     -890     -892     -889 
    -888     -886     -885     -884     -880     -876     -873     -869 
    -868     -868     -864     -862     -857     -853     -853     -850 
    -846     -846     -849     -846     -843     -847     -847     -845 
    -843     -846     -846     -843     -841     -837     -831     -826 
    -819     -804     -787     -769     -746     -719     -688     -653 
    -615     -576     -532     -486     -438     -391     -340     -287 
    -236     -183     -126      -72      -16       43      102      163 
     225      283      338      395      451      506      556      606 
     654      699      739      776      807      838      864      888 
     911      928      943      958      972      981      989      996 
    1004     1008     1009     1016     1023     1024     1026     1030 
    1026     1021     1016     1007      996      978      959      938 
     909      877      845      810      774      737      697      661 
     629      594      558      525      488      453      421      390 
     356      325      299      274      245      225      209      194 
     183      176      172      170      168      170      174      178 
     178      182      178      174      168      160      152      141 
     128      110       93       75       58       41       27       13 
       2       -5      -16      -21      -21      -20      -18      -11 
      -2        5       16       31       43       56       70       82 
      94      106      118      133      148      157      166      175 
     180      184      190      191      184      178      171      157 
     143      129      117      101       85       70       54       36 
      17       -2      -21      -36      -51      -70      -89     -102 
    -114     -128     -137     -148     -162     -170     -178     -194 
    -210     -225     -240     -259     -282     -302     -319     -337 
    -353     -368     -379     -387     -395     -403     -410     -417 
    -422     -429     -438     -448     -460     -471     -480     -487 
    -493     -503     -514     -523     -533     -549     -566     -583 
    -600     -618     -634     -653     -670     -684     -695     -710 
    -723     -738     -756     -770     -787     -807     -827     -850 
    -876     -900     -924     -950     -976    -1000    -1021    -1043 
   -1070    -1096    -1116    -1140    -1165    -1182    -1198    -1219 
   -1239    -1256    -1274    -1293    -1312    -1329    -1345    -1360 
   -1379    -1402    -1425    -1448    -1474    -1502    -1532    -1561 
   -1593    -1629    -1668    -1707    -1745    -1786    -1833    -1883 
   -1930    -1981    -2037    -2093    -2150    -2208    -2266    -2326 
   -2385    -2442    -2498    -2550    -2596    -2646    -2693    -2732 
   -2771    -2811    -2848    -2878    -2905    -2930    -2952    -2970 
   -2983    -2990    -2991    -2992    -2986    -2974    -2960    -2941 
   -2918    -2891    -2862    -2825    -2783    -2737    -2686    -2631 
   -2575    -2516    -2454    -2390    -2328    -2261    -2193    -2123 
   -2049    -1969    -1881    -1790    -1695    -1594    -1487    -1379 
   -1267    -1151    -1036     -924     -805     -689     -579     -468 
    -357     -248     -143      -39       62      159      256      349 
     438      525      607      684      760      828      889      949 
    1000     1042     1078     1112     1140     1162     1181     1194 
    1205     1212     1215     1215     1216     1215     1210     1208 
    1205     1198     1194     1194     1197     1201     1210     1223 
    1239     1259     1279     1300     1320     1340     1359     1377 
    1390     1397     1401     1402     1402     1398     1390     1381 
    1368     1351     1331     1304     1273     1239     1204     1165 
    1121     1077     1031      984      934      885      831      778 
     730      680      629      579      537      493      453      417 
     383      352      328      309      289      280      280      284 
     294      309      330      357      390      430      475      518 
     564      616      666      712      760      805      843      881 
     916      943      966      986      999     1007     1012     1013 
    1013     1013     1012     1009     1005     1003      996      989 
     984      976      965      954      940      926      908      890 
     876      861      845      830      814      796      783      767 
     749      727      707      683      650      619      587      545 
     499      454      406      352      295      241      187      136 
      85       35      -11      -56      -99     -140     -178     -216 
    -246     -279     -309     -333     -357     -376     -387     -396 
    -402     -402     -400     -394     -387     -380     -369     -357 
    -346     -336     -326     -318     -311     -306     -301     -298 
    -295     -289     -287     -288     -284     -280     -278     -268 
    -256     -245     -228     -206     -183     -162     -137     -112 
     -87      -60      -32      -13        8       32       56       72 
      90      102      112      122      129      131      133      133 
     129      122      112       98       81       58       32        5 
     -28      -70     -112     -155     -202     -249     -294     -341 
    -388     -432     -471     -508     -545     -579     -612     -641 
    -670     -700     -724     -750     -772     -789     -805     -819 
    -828     -832     -834     -834     -830     -824     -820     -812 
    -801     -793     -784     -774     -766     -754     -741     -726 
    -708     -689     -665     -637     -610     -583     -550     -519 
    -492     -469     -442     -418     -396     -376     -356     -333 
    -313     -291     -266     -244     -218     -190     -163     -133 
    -101      -72      -43       -8       25       59       93      128 
     157      184      210      234      253      272      291      306 
     319      334      344      349      353      360      359      356 
     355      348      342      344      340      333      332      334 
     340      344      349      357      367      376      386      392 
     398      406      417      425      433      441      448      459 
     471      480      491      500      508      517      523      529 
     535      542      548      549      550      553      558      564 
     568      573      576      579      579      577      576      571 
     568      568      566      565      568      566      568      573 
     577      587      596      604      615      627      641      652 
     660      668      673      679      681      680      676      672 
     666      664      660      653      645      641      635      630 
     625      619      615      611      604      600      596      592 
     588      585      584      588      596      604      614      627 
     642      660      683      706      733      765      796      828 
     859      888      913      935      951      965      977      984 
     985      985      981      974      965      954      942      929 
     916      900      888      876      868      858      849      841 
     837      832      826      824      822      815      811      808 
     800      793      791      787      781      776      770      764 
     756      747      739      728      715      702      687      673 
     658      645      634      625      618      612      608      610 
     615      618      626      637      645      657      670      679 
     685      695      700      702      700      695      687      677 
     665      650      633      618      600      583      566      549 
     532      517      502      486      468      450      427      402 
     376      351      324      295      266      243      222      201 
     180      162      147      136      125      112      105      101 
      99       99       99      103      110      120      131      144 
     164      186      206      228      246      268      287      302 
     318      334      349      363      373      383      392      399 
     406      409      410      410      409      405      402      395 
     388      383      378      368      364      363      359      355 
     355      351      344      344      344      344      340      336 
     336      334      329      324      317      307      298      287 
     270      249      229      205      178      147      112       81 
      44        4      -35      -76     -121     -166     -212     -259 
    -305     -348     -387     -423     -460     -493     -523     -550 
    -572     -589     -608     -629     -643     -656     -668     -676 
