Origin Time       2016/04/16 01:25:00
Lat.              32.753
Long.             130.762
Depth. (km)       12
Mag.              7.3
Station Code      HYG024
Station Lat.      34.5330
Station Long.     134.9904
Station Height(m) 6
Record Time       2016/04/16 01:27:13
Sampling Freq(Hz) 100Hz
Duration Time(s)  86
Dir.              E-W
Scale Factor      7845(gal)/8223790
Max. Acc. (gal)   2.888
Last Correction   2016/04/16 01:26:58
Memo.             
[...]
    -823     -803     -784     -777     -773     -765     -772     -788 
    -807     -834     -870     -913     -961    -1007    -1053    -1093 
   -1124    -1150    -1163    -1165    -1158    -1142    -1121    -1097 
   -1065    -1034    -1003     -974     -953     -931     -908     -893 
    -889     -885     -881     -877     -876     -872     -868     -861 
    -854     -843     -832     -824     -816     -812     -816     -824 
    -838     -864     -890     -911     -939     -980    -1023    -1067 
   -1121    -1173    -1221    -1269    -1312    -1344    -1366    -1381 
   -1386    -1381    -1368    -1358    -1344    -1328    -1316    -1308 
   -1302    -1293    -1282    -1282    -1281    -1281    -1275    -1262 
   -1247    -1229    -1205    -1173    -1138    -1105    -1067    -1021 
    -978     -934     -880     -822     -767     -715     -670     -631 
    -598     -571     -553     -546     -546     -553     -562     -581 
    -610     -645     -679     -714     -753     -793     -831     -864 
    -897     -924     -951     -972     -989    -1004    -1016    -1026 
   -1034    -1036    -1042    -1047    -1053    -1059    -1069    -1078 
   -1086    -1094    -1100    -1102    -1105    -1107    -1101    -1089 
   -1073    -1055    -1032    -1003     -969     -938     -916     -896 
    -882     -874     -869     -866     -870     -881     -889     -899 
    -913     -926     -929     -932     -934     -922     -903     -880 
    -854     -826     -801     -783     -772     -773     -785     -801 
    -819     -846     -880     -918     -955     -996    -1043    -1089 
   -1136    -1189    -1243    -1300    -1363    -1431    -1499    -1563 
   -1628    -1688    -1738    -1772    -1791    -1798    -1790    -1768 
   -1740    -1707    -1667    -1621    -1567    -1502    -1431    -1360 
   -1282    -1201    -1128    -1057     -986     -931     -889     -857 
    -835     -824     -819     -822     -828     -837     -841     -841 
    -837     -834     -822     -804     -791     -776     -760     -747 
    -738     -733     -728     -724     -723     -722     -723     -731 
    -739     -749     -765     -784     -807     -834     -858     -886 
    -920     -954     -989    -1021    -1048    -1071    -1085    -1093 
   -1098    -1093    -1077    -1062    -1046    -1024    -1000     -982 
    -973     -962     -949     -940     -932     -924     -923     -922 
    -922     -923     -920     -909     -895     -874     -855     -834 
    -805     -778     -750     -715     -680     -649     -621     -603 
    -596     -599     -611     -630     -656     -689     -733     -776 
    -822     -873     -928     -985    -1043    -1100    -1146    -1185 
   -1221    -1246    -1263    -1275    -1282    -1282    -1278    -1267 
   -1255    -1240    -1224    -1209    -1200    -1185    -1170    -1154 
   -1136    -1115    -1094    -1080    -1059    -1039    -1028    -1026 
   -1030    -1042    -1058    -1081    -1115    -1148    -1183    -1225 
   -1267    -1308    -1352    -1393    -1431    -1467    -1498    -1520 
   -1534    -1537    -1528    -1505    -1466    -1413    -1351    -1275 
   -1193    -1111    -1026     -946     -874     -811     -757     -723 
    -708     -706     -714     -735     -769     -810     -854     -899 
    -940     -970     -990    -1003    -1000     -984     -962     -928 
    -884     -838     -797     -754     -715     -683     -660     -642 
    -635     -643     -656     -669     -692     -720     -749     -780 
    -810     -827     -841     -854     -861     -859     -864     -869 
    -870     -874     -882     -896     -913     -934     -957     -986 
   -1021    -1063    -1105    -1147    -1192    -1236    -1277    -1314 
   -1348    -1383    -1418    -1449    -1474    -1486    -1485    -1472 
   -1449    -1416    -1375    -1332    -1279    -1225    -1175    -1124 
   -1074    -1030     -994     -965     -940     -920     -905     -895 
    -890     -889     -888     -886     -886     -892     -900     -911 
    -924     -939     -955     -977    -1000    -1021    -1048    -1075 
   -1105    -1139    -1175    -1215    -1266    -1323    -1377    -1431 
   -1485    -1535    -1583    -1625    -1655    -1676    -1694    -1699 
   -1694    -1683    -1667    -1641    -1610    -1579    -1547    -1503 
   -1456    -1414    -1374    -1331    -1290    -1254    -1224    -1198 
   -1181    -1169    -1163    -1170    -1189    -1220    -1259    -1304 
   -1356    -1416    -1478    -1539    -1595    -1647    -1695    -1734 
   -1763    -1786    -1802    -1811    -1813    -1804    -1788    -1760 
   -1723    -1686    -1636    -1576    -1517    -1455    -1387    -1324 
   -1260    -1198    -1142    -1092    -1042     -989     -942     -899 
    -851     -803     -754     -700     -641     -581     -518     -454 
    -399     -353     -310     -274     -255     -251     -261     -286 
    -330     -387     -446     -518     -604     -699     -799     -911 
   -1026    -1140    -1252    -1364    -1468    -1563    -1649    -1721 
   -1772    -1815    -1844    -1838    -1818    -1783    -1713    -1632 
   -1544    -1435    -1320    -1204    -1081     -965     -859     -774 
    -699     -635     -600     -581     -572     -569     -568     -565 
    -561     -553     -535     -517     -493     -460     -427     -402 
    -370     -337     -309     -289     -275     -259     -251     -252 
    -246     -243     -249     -251     -246     -257     -270     -274 
    -283     -306     -333     -360     -396     -444     -490     -542 
    -606     -669     -738     -819     -900     -978    -1055    -1133 
   -1210    -1277    -1332    -1385    -1433    -1479    -1524    -1561 
   -1597    -1632    -1668    -1703    -1732    -1750    -1764    -1769 
   -1757    -1732    -1698    -1655    -1602    -1544    -1486    -1425 
   -1362    -1300    -1230    -1166    -1111    -1053     -997     -953 
    -922     -900     -893     -903     -928     -970    -1024    -1085 
   -1154    -1235    -1318    -1398    -1467    -1530    -1591    -1645 
   -1686    -1718    -1738    -1742    -1736    -1722    -1696    -1655 
   -1614    -1574    -1513    -1441    -1377    -1308    -1229    -1152 
   -1078    -1007     -938     -873     -820     -777     -738     -708 
    -691     -683     -684     -697     -718     -739     -765     -797 
    -830     -857     -884     -900     -909     -916     -920     -920 
    -915     -903     -889     -873     -853     -826     -797     -769 
    -741     -715     -696     -680     -668     -661     -657     -654 
    -654     -656     -660     -668     -675     -675     -675     -675 
    -670     -664     -666     -677     -683     -691     -715     -738 
    -754     -773     -789     -801     -812     -819     -828     -841 
    -854     -872     -892     -911     -932     -959     -984    -1009 
   -1030    -1044    -1050    -1047    -1036    -1019     -994     -966 
    -934     -905     -881     -855     -834     -822     -818     -823 
    -838     -864     -896     -934     -973    -1013    -1055    -1098 
   -1140    -1185    -1233    -1278    -1323    -1375    -1431    -1489 
   -1549    -1606    -1663    -1722    -1775    -1815    -1848    -1871 
   -1884    -1887    -1878    -1864    -1849    -1836    -1815    -1790 
   -1768    -1749    -1729    -1706    -1682    -1661    -1637    -1603 
   -1566    -1526    -1480    -1431    -1383    -1331    -1278    -1228 
   -1178    -1128    -1081    -1038     -997     -959     -928     -903 
    -882     -874     -873     -873     -877     -884     -881     -872 
    -859     -847     -837     -824     -814     -805     -800     -800 
    -804     -810     -818     -826     -832     -838     -841     -835 
    -827     -820     -814     -804     -793     -783     -777     -777 
    -780     -792     -816     -849     -892     -943    -1000    -1062 
   -1121    -1178    -1230    -1274    -1308    -1339    -1364    -1379 
   -1389    -1391    -1383    -1368    -1350    -1318    -1282    -1244 
   -1196    -1140    -1081    -1013     -934     -854     -774     -691 
    -612     -552     -504     -464     -437     -425     -421     -425 
    -444     -471     -513     -568     -631     -704     -784     -868 
    -953    -1046    -1148    -1255    -1359    -1464    -1571    -1675 
   -1779    -1873    -1958    -2042    -2119    -2177    -2232    -2286 
   -2334    -2373    -2405    -2431    -2452    -2474    -2494    -2508 
   -2517    -2525    -2533    -2533    -2525    -2517    -2501    -2475 
   -2439    -2396    -2351    -2304    -2251    -2193    -2135    -2079 
   -2026    -1971    -1915    -1861    -1807    -1750    -1688    -1622 
   -1556    -1486    -1424    -1371    -1320    -1277    -1246    -1220 
   -1205    -1192    -1179    -1173    -1170    -1170    -1174    -1183 
   -1198    -1219    -1240    -1267    -1302    -1334    -1360    -1393 
   -1422    -1439    -1452    -1462    -1464    -1460    -1452    -1443 
   -1435    -1424    -1416    -1409    -1399    -1393    -1387    -1379 
   -1370    -1354    -1328    -1297    -1259    -1205    -1140    -1067 
    -985     -900     -808     -704     -598     -490     -373     -251 
    -124        4      133      268      402      532      664      795 
     920     1038     1150     1250     1331     1390     1428     1431 
    1401     1345     1262     1154     1030      893      745      594 
     451      318      197       95       10      -60     -114     -156 
    -189     -217     -240     -252     -253     -245     -225     -195 
    -159     -117      -65       -9       47      112      184      256 
     332      410      480      542      600      653      696      731 
     761      781      793      799      787      756      715      656 
     575      481      379      259      135        2     -135     -274 
    -409     -540     -665     -789     -903    -1011    -1112    -1205 
   -1291    -1374    -1455    -1534    -1613    -1687    -1761    -1836 
   -1907    -1980    -2053    -2120    -2188    -2259    -2327    -2388 
   -2451    -2516    -2574    -2633    -2693    -2749    -2810    -2872 
   -2928    -2979    -3030    -3076    -3117    -3157    -3190    -3215 
   -3237    -3250    -3254    -3253    -3242    -3223    -3192    -3154 
   -3117    -3069    -3011    -2952    -2884    -2811    -2733    -2644 
   -2552    -2459    -2355    -2250    -2144    -2037    -1934    -1846 
   -1769    -1703    -1657    -1632    -1618    -1624    -1652    -1691 
   -1741    -1806    -1883    -1968    -2053    -2154    -2267    -2377 
   -2482    -2587    -2687    -2775    -2844    -2894    -2922    -2929 
   -2911    -2871    -2821    -2755    -2674    -2589    -2496    -2396 
   -2300    -2211    -2126    -2047    -1980    -1925    -1878    -1840 
   -1809    -1773    -1732    -1691    -1651    -1606    -1554    -1501 
   -1444    -1385    -1327    -1270    -1216    -1171    -1139    -1120 
   -1117    -1135    -1171    -1219    -1287    -1381    -1480    -1583 
   -1691    -1796    -1885    -1964    -2027    -2068    -2083    -2077 
   -2052    -1999    -1925    -1837    -1732    -1606    -1472    -1331 
   -1189    -1051     -919     -789     -672     -573     -490     -413 
    -344     -287     -249     -224     -194     -164     -139     -114 
     -86      -45        4       55      109      166      216      259 
     297      319      326      322      307      284      253      216 
     174      135       98       62       28        0      -27      -49 
     -72      -97     -118     -133     -153     -178     -206     -236 
    -274     -318     -368     -419     -479     -540     -602     -661 
    -723     -784     -842     -903     -974    -1044    -1119    -1197 
   -1277    -1356    -1436    -1512    -1582    -1644    -1695    -1733 
   -1755    -1761    -1748    -1719    -1677    -1620    -1549    -1476 
   -1405    -1336    -1274    -1217    -1167    -1129    -1102    -1081 
   -1070    -1062    -1059    -1060    -1065    -1071    -1077    -1080 
   -1081    -1085    -1085    -1078    -1059    -1028     -994     -953 
    -899     -843     -793     -746     -704     -673     -656     -653 
    -664     -695     -741     -800     -874     -963    -1063    -1174 
   -1297    -1422    -1551    -1680    -1810    -1933    -2049    -2160 
   -2254    -2334    -2405    -2458    -2496    -2527    -2554    -2573 
   -2589    -2608    -2628    -2646    -2662    -2678    -2690    -2694 
   -2697    -2698    -2690    -2673    -2646    -2613    -2578    -2539 
   -2502    -2470    -2435    -2407    -2396    -2389    -2384    -2389 
   -2401    -2423    -2452    -2493    -2542    -2594    -2647    -2706 
   -2762    -2803    -2840    -2870    -2887    -2898    -2903    -2891 
   -2875    -2856    -2833    -2818    -2816    -2809    -2806    -2816 
   -2830    -2847    -2867    -2887    -2907    -2925    -2933    -2936 
   -2937    -2926    -2896    -2855    -2797    -2716    -2621    -2523 
   -2412    -2295    -2180    -2068    -1961    -1865    -1783    -1718 
   -1667    -1630    -1609    -1602    -1598    -1593    -1587    -1576 
   -1549    -1502    -1439    -1358    -1255    -1129     -987     -837 
    -676     -506     -326     -153        5      163      314      449 
     571      680      766      832      880      911      927      923 
     905      881      845      812      793      773      757      757 
     770      793      826      864      912      974     1048     1127 
    1209     1290     1377     1463     1548     1637     1711     1777 
    1844     1895     1926     1944     1944     1927     1894     1845 
    1788     1717     1632     1545     1445     1334     1232     1128 
    1015      912      822      738      665      598      545      504 
     464      427      398      365      329      292      246      189 
     126       63       -5      -85     -164     -240     -313     -383 
    -451     -508     -557     -603     -657     -718     -778     -845 
    -922    -1000    -1078    -1163    -1258    -1356    -1460    -1568 
   -1680    -1798    -1921    -2045    -2173    -2297    -2413    -2525 
   -2625    -2704    -2768    -2821    -2856    -2879    -2890    -2887 
   -2874    -2851    -2822    -2790    -2751    -2704    -2655    -2610 
   -2565    -2520    -2475    -2428    -2385    -2349    -2304    -2254 
   -2205    -2147    -2091    -2037    -1971    -1900    -1837    -1772 
   -1710    -1648    -1588    -1534    -1470    -1409    -1362    -1302 
   -1219    -1152    -1123    -1071     -986     -936     -919     -893 
    -864     -849     -846     -837     -834     -834     -820     -800 
    -770     -723     -673     -612     -537     -456     -373     -301 
    -245     -191     -144     -125     -129     -151     -186     -244 
    -315     -399     -493     -598     -706     -815     -934    -1051 
   -1156    -1254    -1351    -1443    -1528    -1610    -1688    -1759 
   -1826    -1888    -1941    -1985    -2020    -2050    -2074    -2087 
   -2084    -2076    -2068    -2049    -2019    -1992    -1969    -1939 
   -1904    -1868    -1831    -1787    -1733    -1675    -1610    -1540 
   -1471    -1394    -1312    -1233    -1150    -1053     -959     -868 
    -766     -662     -562     -461     -360     -263     -170      -76 
      13       93      166      234      295      344      380      403 
     414      413      394      361      313      251      182      110 
      35      -47     -128     -198     -259     -324     -382     -425 
    -459     -487     -514     -538     -558     -577     -598     -621 
    -646     -673     -702     -727     -749     -767     -783     -796 
    -801     -804     -807     -800     -784     -767     -741     -702 
    -662     -622     -577     -530     -484     -444     -410     -383 
    -370     -368     -375     -392     -423     -464     -514     -569 
    -637     -711     -785     -859     -939    -1019    -1092    -1156 
   -1217    -1266    -1304    -1333    -1358    -1379    -1394    -1401 
   -1408    -1416    -1417    -1417    -1416    -1413    -1412    -1405 
   -1395    -1387    -1377    -1358    -1336    -1316    -1296    -1271 
   -1244    -1215    -1185    -1150    -1107    -1059    -1003     -939 
    -874     -804     -728     -656     -588     -523     -464     -414 
    -382     -357     -332     -314     -310     -305     -291     -275 
    -259     -243     -221     -199     -178     -156     -143     -139 
    -144     -155     -180     -220     -265     -314     -373     -444 
    -510     -579     -652     -715     -770     -823     -861     -889 
    -907     -907     -900     -886     -854     -814     -765     -704 
    -635     -557     -481     -409     -332     -261     -205     -149 
    -101      -59      -18       17       47       76      103      126 
     153      178      201      222      244      261      276      289 
     297      298      288      270      240      203      163      109 
      47      -14      -78     -133     -178     -214     -236     -244 
    -244     -234     -220     -201     -182     -167     -152     -143 
    -149     -166     -189     -225     -270     -315     -367     -418 
    -468     -518     -558     -587     -610     -627     -631     -625 
    -615     -602     -576     -542     -508     -471     -434     -399 
    -367     -341     -322     -306     -297     -294     -295     -309 
    -332     -355     -383     -423     -468     -521     -583     -652 
    -726     -807     -897     -989    -1085    -1183    -1279    -1372 
   -1468    -1559    -1644    -1721    -1790    -1857    -1917    -1956 
   -1982    -1998    -1999    -1987    -1958    -1918    -1869    -1817 
   -1760    -1703    -1648    -1591    -1539    -1501    -1472    -1448 
   -1433    -1425    -1422    -1424    -1431    -1440    -1447    -1462 
   -1480    -1493    -1501    -1505    -1506    -1502    -1490    -1470 
   -1449    -1428    -1404    -1374    -1344    -1321    -1301    -1286 
   -1281    -1286    -1293    -1305    -1327    -1350    -1372    -1398 
   -1425    -1456    -1490    -1522    -1551    -1582    -1613    -1642 
   -1667    -1691    -1717    -1738    -1757    -1776    -1796    -1813 
   -1826    -1842    -1852    -1856    -1856    -1850    -1841    -1829 
   -1811    -1790    -1765    -1733    -1698    -1660    -1621    -1582 
   -1543    -1507    -1474    -1441    -1412    -1385    -1359    -1334 
   -1312    -1291    -1278    -1264    -1246    -1228    -1206    -1182 
   -1148    -1107    -1062    -1015     -965     -912     -851     -791 
    -737     -681     -627     -583     -535     -495     -464     -433 
    -406     -382     -356     -336     -315     -292     -272     -253 
    -233     -212     -195     -180     -168     -153     -144     -139 
    -128     -121     -117     -110     -106     -101      -94      -87 
     -85      -86      -89      -87      -91      -97      -95      -93 
     -89      -76      -58      -37      -23       -5       13       23 
      28       32       21       -1      -35      -85     -149     -221 
    -306     -409     -518     -630     -741     -854     -963    -1065 
   -1167    -1270    -1363    -1448    -1533    -1614    -1687    -1763 
   -1837    -1902    -1961    -2019    -2073    -2123    -2163    -2201 
   -2234    -2259    -2281    -2295    -2305    -2311    -2304    -2292 
   -2281    -2262    -2235    -2209    -2184    -2155    -2126    -2101 
