Origin Time       2016/04/16 01:25:00
Lat.              32.753
Long.             130.762
Depth. (km)       12
Mag.              7.3
Station Code      HYG017
Station Lat.      34.8593
Station Long.     134.5445
Station Height(m) 24
Record Time       2016/04/16 01:27:05
Sampling Freq(Hz) 100Hz
Duration Time(s)  66
Dir.              E-W
Scale Factor      7845(gal)/8223790
Max. Acc. (gal)   1.751
Last Correction   2016/04/16 01:27:07
Memo.             
[...]
  -14843   -14859   -14881   -14906   -14936   -14960   -14982   -14998 
  -15001   -14998   -15003   -15013   -15021   -15044   -15075   -15109 
  -15140   -15168   -15199   -15229   -15252   -15279   -15307   -15323 
  -15336   -15340   -15330   -15313   -15291   -15257   -15215   -15175 
  -15140   -15097   -15041   -14995   -14955   -14913   -14885   -14867 
  -14858   -14841   -14813   -14808   -14800   -14774   -14787   -14794 
  -14736   -14702   -14704   -14663   -14602   -14559   -14505   -14445 
  -14401   -14358   -14326   -14314   -14307   -14310   -14331   -14357 
  -14381   -14424   -14485   -14543   -14600   -14670   -14746   -14813 
  -14879   -14951   -15014   -15061   -15106   -15140   -15156   -15165 
  -15179   -15210   -15249   -15279   -15309   -15331   -15336   -15323 
  -15311   -15290   -15238   -15167   -15105   -15064   -15026   -14970 
  -14916   -14894   -14889   -14871   -14851   -14843   -14840   -14843 
  -14844   -14841   -14841   -14843   -14841   -14845   -14854   -14866 
  -14879   -14889   -14891   -14889   -14877   -14855   -14831   -14804 
  -14778   -14754   -14739   -14733   -14727   -14724   -14732   -14744 
  -14757   -14783   -14823   -14866   -14909   -14960   -15005   -15036 
  -15059   -15076   -15087   -15090   -15087   -15086   -15071   -15043 
  -15014   -14982   -14952   -14935   -14916   -14895   -14883   -14881 
  -14877   -14868   -14855   -14840   -14837   -14854   -14872   -14887 
  -14914   -14947   -14962   -14972   -15012   -15068   -15101   -15115 
  -15132   -15147   -15194   -15267   -15265   -15206   -15203   -15218 
  -15173   -15114   -15093   -15084   -15052   -15001   -14960   -14936 
  -14936   -14945   -14913   -14867   -14875   -14916   -14935   -14949 
  -14986   -15021   -15026   -15025   -15051   -15082   -15087   -15090 
  -15099   -15097   -15074   -15037   -15001   -14974   -14948   -14917 
  -14887   -14858   -14821   -14783   -14750   -14720   -14690   -14663 
  -14644   -14644   -14661   -14677   -14702   -14750   -14796   -14827 
  -14863   -14902   -14936   -14976   -15028   -15071   -15099   -15117 
  -15122   -15125   -15121   -15105   -15090   -15078   -15063   -15048 
  -15034   -15012   -14980   -14944   -14905   -14868   -14829   -14783 
  -14744   -14714   -14683   -14658   -14642   -14635   -14638   -14651 
  -14674   -14701   -14725   -14759   -14801   -14840   -14878   -14910 
  -14936   -14964   -14994   -15016   -15031   -15047   -15061   -15075 
  -15087   -15097   -15102   -15105   -15107   -15109   -15109   -15107 
  -15097   -15076   -15052   -15030   -15005   -14974   -14948   -14928 
  -14902   -14882   -14870   -14855   -14839   -14816   -14793   -14770 
  -14744   -14727   -14714   -14700   -14689   -14675   -14663   -14655 
  -14647   -14638   -14638   -14638   -14644   -14669   -14696   -14723 
  -14752   -14777   -14800   -14829   -14863   -14898   -14939   -14976 
  -15007   -15040   -15071   -15090   -15113   -15148   -15173   -15180 
  -15183   -15184   -15184   -15188   -15205   -15218   -15226   -15241 
  -15261   -15269   -15272   -15287   -15295   -15298   -15300   -15300 
  -15302   -15303   -15290   -15265   -15236   -15191   -15133   -15070 
  -15014   -14962   -14904   -14846   -14802   -14763   -14725   -14693 
  -14656   -14612   -14575   -14547   -14529   -14532   -14544   -14558 
  -14600   -14651   -14669   -14704   -14829   -14928   -14922   -14959 
  -15051   -15087   -15156   -15234   -15186   -15171   -15259   -15256 
  -15202   -15195   -15179   -15137   -15080   -15021   -14991   -14960 
  -14901   -14841   -14798   -14762   -14717   -14678   -14675   -14678 
  -14669   -14681   -14719   -14759   -14790   -14813   -14836   -14859 
  -14868   -14863   -14846   -14845   -14859   -14860   -14864   -14883 
  -14887   -14885   -14897   -14910   -14918   -14936   -14953   -14953 
  -14949   -14953   -14955   -14955   -14964   -14991   -15020   -15041 
  -15070   -15102   -15126   -15151   -15173   -15194   -15217   -15236 
  -15245   -15261   -15279   -15288   -15296   -15299   -15294   -15282 
  -15260   -15239   -15218   -15186   -15155   -15124   -15084   -15044 
  -14994   -14936   -14881   -14823   -14756   -14697   -14656   -14628 
  -14612   -14617   -14650   -14694   -14742   -14786   -14823   -14863 
  -14895   -14901   -14895   -14894   -14886   -14874   -14860   -14841 
  -14827   -14805   -14769   -14733   -14698   -14654   -14612   -14566 
  -14511   -14455   -14397   -14330   -14262   -14193   -14134   -14084 
  -14040   -14007   -13983   -13957   -13938   -13932   -13934   -13940 
  -13948   -13963   -13979   -13996   -14026   -14061   -14095   -14137 
  -14183   -14226   -14273   -14327   -14378   -14430   -14490   -14543 
  -14586   -14621   -14644   -14654   -14651   -14638   -14621   -14605 
  -14588   -14570   -14558   -14543   -14531   -14524   -14509   -14486 
  -14459   -14422   -14380   -14347   -14318   -14285   -14253   -14222 
  -14200   -14179   -14168   -14164   -14156   -14150   -14145   -14135 
  -14119   -14111   -14111   -14096   -14071   -14061   -14061   -14060 
  -14061   -14065   -14062   -14056   -14057   -14067   -14064   -14054 
  -14044   -14026   -14003   -13981   -13969   -13963   -13967   -13983 
  -14014   -14050   -14092   -14154   -14231   -14303   -14361   -14420 
  -14477   -14535   -14601   -14663   -14704   -14729   -14757   -14787 
  -14809   -14831   -14864   -14902   -14939   -14978   -15017   -15045 
  -15076   -15111   -15144   -15173   -15202   -15218   -15229   -15257 
  -15282   -15277   -15298   -15350   -15360   -15345   -15368   -15390 
  -15392   -15404   -15410   -15387   -15352   -15325   -15298   -15246 
  -15191   -15152   -15107   -15044   -14971   -14889   -14809   -14729 
  -14651   -14596   -14569   -14555   -14561   -14598   -14654   -14728 
  -14820   -14925   -15045   -15175   -15298   -15419   -15539   -15642 
  -15716   -15768   -15800   -15809   -15800   -15778   -15753   -15721 
  -15677   -15624   -15562   -15490   -15414   -15337   -15260   -15186 
  -15128   -15090   -15066   -15054   -15056   -15066   -15088   -15122 
  -15169   -15234   -15319   -15422   -15530   -15632   -15731   -15827 
  -15906   -15972   -16028   -16077   -16116   -16132   -16133   -16129 
  -16116   -16096   -16074   -16050   -16028   -16005   -15984   -15967 
  -15957   -15947   -15942   -15939   -15934   -15925   -15929   -15948 
  -15972   -16002   -16040   -16090   -16146   -16197   -16259   -16332 
  -16398   -16459   -16518   -16561   -16587   -16603   -16605   -16587 
  -16563   -16544   -16515   -16478   -16440   -16403   -16368   -16329 
  -16283   -16239   -16200   -16160   -16124   -16102   -16085   -16060 
  -16025   -15988   -15947   -15889   -15819   -15751   -15678   -15595 
  -15511   -15426   -15330   -15233   -15136   -15031   -14918   -14808 
  -14697   -14584   -14482   -14400   -14324   -14257   -14203   -14156 
  -14116   -14090   -14079   -14072   -14075   -14085   -14096   -14107 
  -14115   -14115   -14110   -14107   -14106   -14107   -14116   -14134 
  -14154   -14175   -14189   -14197   -14204   -14203   -14189   -14162 
  -14130   -14085   -14030   -13971   -13918   -13872   -13832   -13798 
  -13772   -13749   -13730   -13717   -13706   -13705   -13713   -13733 
  -13770   -13811   -13849   -13882   -13900   -13909   -13917   -13921 
  -13913   -13892   -13865   -13834   -13791   -13745   -13711   -13684 
  -13659   -13639   -13624   -13606   -13587   -13568   -13555   -13563 
  -13582   -13620   -13689   -13776   -13876   -13991   -14119   -14251 
  -14382   -14511   -14634   -14746   -14851   -14943   -15017   -15078 
  -15125   -15149   -15147   -15122   -15083   -15024   -14944   -14864 
  -14785   -14704   -14628   -14551   -14477   -14418   -14361   -14305 
  -14255   -14207   -14161   -14121   -14095   -14085   -14080   -14087 
  -14107   -14127   -14149   -14179   -14219   -14269   -14327   -14389 
  -14454   -14513   -14570   -14625   -14667   -14704   -14743   -14775 
  -14801   -14835   -14875   -14910   -14951   -14995   -15028   -15045 
  -15059   -15060   -15045   -15031   -15024   -15002   -14975   -14952 
  -14925   -14897   -14864   -14823   -14778   -14728   -14671   -14611 
  -14547   -14492   -14450   -14420   -14399   -14392   -14396   -14407 
  -14420   -14438   -14457   -14478   -14503   -14529   -14563   -14611 
  -14661   -14714   -14763   -14794   -14817   -14846   -14864   -14866 
  -14864   -14852   -14832   -14809   -14782   -14747   -14709   -14671 
  -14634   -14593   -14544   -14492   -14442   -14400   -14364   -14335 
  -14323   -14324   -14335   -14361   -14403   -14458   -14536   -14643 
  -14766   -14898   -15037   -15178   -15314   -15445   -15566   -15670 
  -15754   -15819   -15863   -15889   -15905   -15916   -15908   -15881 
  -15844   -15792   -15720   -15638   -15549   -15447   -15337   -15225 
  -15113   -15005   -14905   -14817   -14743   -14675   -14615   -14569 
  -14534   -14505   -14482   -14473   -14482   -14499   -14529   -14575 
  -14628   -14688   -14747   -14802   -14850   -14883   -14912   -14939 
  -14952   -14958   -14965   -14970   -14975   -14979   -14978   -14980 
  -14980   -14970   -14955   -14931   -14889   -14851   -14816   -14774 
  -14747   -14736   -14723   -14708   -14708   -14720   -14736   -14760 
  -14793   -14825   -14855   -14885   -14924   -14963   -14998   -15034 
  -15067   -15090   -15110   -15126   -15138   -15155   -15167   -15175 
  -15188   -15203   -15219   -15237   -15257   -15277   -15294   -15302 
  -15296   -15277   -15250   -15221   -15175   -15118   -15066   -15014 
  -14959   -14902   -14846   -14789   -14727   -14663   -14600   -14531 
  -14465   -14412   -14377   -14349   -14331   -14327   -14327   -14345 
  -14388   -14445   -14513   -14602   -14701   -14810   -14932   -15051 
  -15155   -15256   -15350   -15427   -15489   -15539   -15583   -15616 
  -15637   -15646   -15658   -15669   -15669   -15665   -15660   -15647 
  -15634   -15615   -15587   -15556   -15518   -15479   -15441   -15402 
  -15361   -15323   -15282   -15239   -15194   -15144   -15099   -15061 
  -15025   -14988   -14955   -14917   -14875   -14835   -14782   -14714 
  -14644   -14572   -14504   -14446   -14399   -14358   -14323   -14295 
  -14278   -14274   -14277   -14288   -14308   -14326   -14347   -14378 
  -14411   -14446   -14489   -14529   -14566   -14604   -14642   -14683 
  -14737   -14806   -14871   -14928   -14983   -15030   -15067   -15102 
  -15136   -15161   -15184   -15206   -15221   -15217   -15199   -15175 
  -15140   -15090   -15028   -14959   -14887   -14823   -14763   -14701 
  -14648   -14615   -14586   -14558   -14557   -14575   -14592   -14608 
  -14632   -14654   -14671   -14700   -14736   -14778   -14831   -14895 
  -14970   -15049   -15125   -15199   -15268   -15331   -15388   -15446 
  -15508   -15573   -15634   -15696   -15757   -15820   -15884   -15944 
  -16002   -16056   -16100   -16131   -16159   -16182   -16198   -16202 
  -16190   -16162   -16121   -16075   -16013   -15938   -15862   -15780 
  -15688   -15593   -15490   -15373   -15250   -15130   -15014   -14904 
  -14801   -14709   -14621   -14538   -14462   -14401   -14351   -14324 
  -14319   -14319   -14327   -14347   -14366   -14395   -14442   -14486 
  -14517   -14547   -14574   -14604   -14640   -14673   -14694   -14717 
  -14746   -14763   -14767   -14763   -14756   -14754   -14744   -14724 
  -14698   -14670   -14638   -14612   -14593   -14578   -14567   -14561 
  -14565   -14581   -14609   -14655   -14724   -14820   -14941   -15082 
  -15226   -15375   -15526   -15672   -15809   -15948   -16081   -16208 
  -16325   -16426   -16509   -16575   -16619   -16645   -16649   -16629 
  -16590   -16540   -16474   -16379   -16274   -16155   -16021   -15885 
  -15747   -15611   -15479   -15342   -15205   -15072   -14944   -14818 
  -14694   -14578   -14473   -14376   -14281   -14195   -14108   -14019 
  -13938   -13864   -13802   -13748   -13702   -13667   -13641   -13614 
  -13587   -13563   -13552   -13554   -13568   -13594   -13631   -13674 
  -13720   -13784   -13865   -13956   -14057   -14166   -14280   -14393 
  -14500   -14604   -14712   -14813   -14909   -15003   -15087   -15151 
  -15198   -15229   -15246   -15256   -15256   -15249   -15241   -15232 
  -15218   -15202   -15176   -15148   -15129   -15115   -15086   -15052 
  -15025   -14993   -14952   -14917   -14894   -14881   -14875   -14885 
  -14898   -14906   -14914   -14916   -14901   -14872   -14845   -14823 
  -14802   -14778   -14760   -14751   -14743   -14733   -14731   -14740 
  -14762   -14794   -14844   -14917   -15003   -15103   -15215   -15327 
  -15437   -15546   -15653   -15750   -15838   -15911   -15974   -16027 
  -16063   -16081   -16077   -16048   -16001   -15932   -15849   -15764 
  -15674   -15583   -15503   -15430   -15358   -15294   -15237   -15192 
  -15160   -15140   -15144   -15168   -15210   -15269   -15342   -15424 
  -15511   -15599   -15682   -15764   -15846   -15908   -15946   -15972 
  -15989   -15993   -15979   -15951   -15909   -15850   -15785   -15723 
  -15655   -15583   -15515   -15457   -15404   -15353   -15310   -15279 
  -15261   -15261   -15272   -15299   -15334   -15368   -15395   -15422 
  -15445   -15457   -15468   -15484   -15503   -15523   -15553   -15592 
  -15638   -15698   -15758   -15804   -15855   -15905   -15939   -15963 
  -15985   -16009   -16027   -16032   -16042   -16059   -16071   -16083 
  -16116   -16157   -16204   -16270   -16340   -16403   -16470   -16533 
  -16586   -16629   -16676   -16717   -16742   -16754   -16748   -16713 
  -16667   -16610   -16526   -16431   -16332   -16212   -16078   -15942 
  -15800   -15654   -15504   -15354   -15205   -15049   -14904   -14762 
  -14615   -14488   -14382   -14291   -14215   -14162   -14133   -14110 
  -14108   -14131   -14164   -14211   -14281   -14361   -14440   -14534 
  -14646   -14755   -14852   -14953   -15057   -15147   -15229   -15311 
  -15380   -15437   -15485   -15527   -15546   -15545   -15538   -15523 
  -15502   -15488   -15480   -15473   -15475   -15475   -15480   -15502 
  -15527   -15561   -15610   -15660   -15709   -15758   -15800   -15836 
  -15870   -15903   -15925   -15934   -15938   -15927   -15894   -15863 
  -15836   -15803   -15759   -15714   -15658   -15597   -15526   -15449 
  -15376   -15303   -15223   -15149   -15080   -15025   -14983   -14947 
  -14917   -14895   -14868   -14843   -14828   -14813   -14793   -14779 
  -14774   -14773   -14773   -14773   -14769   -14755   -14729   -14702 
  -14674   -14638   -14601   -14561   -14519   -14480   -14445   -14426 
  -14419   -14409   -14407   -14424   -14451   -14489   -14539   -14604 
  -14688   -14790   -14895   -15005   -15126   -15245   -15358   -15468 
  -15569   -15650   -15712   -15754   -15780   -15795   -15797   -15793 
  -15795   -15796   -15792   -15793   -15795   -15784   -15780   -15790 
  -15804   -15820   -15839   -15853   -15859   -15865   -15865   -15855 
  -15840   -15824   -15805   -15782   -15754   -15728   -15708   -15687 
  -15668   -15661   -15639   -15599   -15561   -15518   -15457   -15392 
  -15325   -15250   -15160   -15047   -14926   -14797   -14661   -14538 
  -14420   -14319   -14249   -14166   -14079   -14045   -14047   -14045 
  -14064   -14107   -14148   -14197   -14264   -14330   -14397   -14476 
  -14562   -14647   -14733   -14823   -14904   -14971   -15034   -15107 
  -15173   -15234   -15299   -15352   -15381   -15410   -15434   -15454 
  -15487   -15490   -15469   -15464   -15452   -15423   -15396   -15358 
  -15319   -15286   -15237   -15194   -15156   -15093   -15037   -15001 
  -14948   -14893   -14854   -14820   -14790   -14769   -14746   -14721 
  -14701   -14686   -14674   -14652   -14624   -14612   -14601   -14577 
  -14557   -14539   -14517   -14499   -14490   -14488   -14492   -14499 
  -14508   -14529   -14557   -14588   -14640   -14712   -14797   -14906 
  -15028   -15149   -15282   -15414   -15527   -15637   -15742   -15830 
  -15908   -15978   -16038   -16087   -16128   -16156   -16156   -16141 
  -16129   -16100   -16050   -15998   -15934   -15853   -15774   -15682 
  -15568   -15444   -15310   -15172   -15044   -14913   -14787   -14689 
  -14604   -14528   -14469   -14422   -14389   -14374   -14370   -14369 
  -14368   -14366   -14369   -14377   -14385   -14396   -14412   -14422 
  -14422   -14420   -14423   -14426   -14439   -14457   -14465   -14470 
  -14482   -14496   -14512   -14539   -14575   -14615   -14652   -14683 
  -14717   -14754   -14785   -14800   -14802   -14797   -14775   -14750 
  -14725   -14694   -14667   -14652   -14644   -14651   -14675   -14701 
  -14727   -14751   -14777   -14808   -14833   -14854   -14872   -14887 
  -14887   -14875   -14859   -14833   -14796   -14755   -14719   -14683 
  -14661   -14656   -14665   -14675   -14685   -14694   -14700   -14696 
  -14685   -14670   -14644   -14601   -14555   -14504   -14440   -14376 
  -14311   -14243   -14177   -14115   -14049   -13984   -13948   -13929 
  -13902   -13872   -13848   -13824   -13795   -13768   -13755   -13755 
  -13753   -13743   -13734   -13716   -13686   -13670   -13656   -13629 
  -13609   -13603   -13588   -13579   -13594   -13618   -13644   -13676 
  -13710   -13751   -13805   -13844   -13871   -13909   -13938   -13953 
  -13971   -13995   -14017   -14040   -14062   -14087   -14118   -14154 
  -14199   -14245   -14301   -14377   -14458   -14539   -14635   -14731 
  -14810   -14882   -14947   -14998   -15034   -15057   -15064   -15054 
  -15040   -15025   -15010   -15003   -15005   -15001   -14986   -14972 
  -14955   -14913   -14863   -14809   -14742   -14669   -14601   -14531 
  -14453   -14384   -14328   -14274   -14224   -14188   -14161   -14137 
  -14122   -14115   -14116   -14123   -14135   -14156   -14176   -14193 
  -14219   -14250   -14295   -14345   -14391   -14436   -14496   -14553 
  -14602   -14659   -14708   -14747   -14798   -14846   -14878   -14897 
  -14904   -14899   -14883   -14839   -14787   -14744   -14685   -14617 
  -14555   -14490   -14426   -14368   -14301   -14220   -14135   -14053 
  -13967   -13878   -13796   -13740   -13703   -13676   -13656   -13644 
  -13640   -13637   -13636   -13640   -13656   -13683   -13717   -13755 
  -13787   -13803   -13810   -13806   -13791   -13775   -13765   -13760 
  -13760   -13765   -13786   -13817   -13849   -13886   -13927   -13968 
  -14007   -14049   -14096   -14138   -14160   -14173   -14196   -14216 
  -14230   -14250   -14277   -14305   -14339   -14370   -14393   -14412 
  -14430   -14447   -14454   -14454   -14453   -14442   -14427   -14409 
  -14382   -14350   -14326   -14300   -14260   -14211   -14172   -14134 
  -14083   -14030   -13990   -13950   -13905   -13864   -13829   -13792 
  -13755   -13725   -13697   -13674   -13656   -13637   -13614   -13591 
  -13578   -13571   -13575   -13593   -13620   -13647   -13672   -13702 
  -13738   -13778   -13821   -13868   -13932   -14013   -14099   -14184 
  -14276   -14373   -14455   -14520   -14581   -14638   -14678   -14710 
  -14744   -14773   -14794   -14808   -14812   -14804   -14786   -14757 
  -14723   -14689   -14665   -14638   -14605   -14571   -14535   -14496 
  -14465   -14428   -14392   -14357   -14326   -14298   -14274   -14257 
  -14245   -14241   -14249   -14262   -14287   -14330   -14386   -14453 
  -14527   -14609   -14696   -14779   -14858   -14928   -14987   -15034 
