Origin Time       2016/04/16 01:25:00
Lat.              32.753
Long.             130.762
Depth. (km)       12
Mag.              7.3
Station Code      HYG021
Station Lat.      34.6898
Station Long.     135.1583
Station Height(m) 90
Record Time       2016/04/16 01:27:29
Sampling Freq(Hz) 100Hz
Duration Time(s)  60
Dir.              E-W
Scale Factor      7845(gal)/8223790
Max. Acc. (gal)   1.018
Last Correction   2016/04/16 01:27:31
Memo.             
[...]
   -5131    -5144    -5158    -5166    -5171    -5177    -5178    -5178 
   -5178    -5173    -5169    -5163    -5157    -5148    -5139    -5131 
   -5121    -5108    -5098    -5085    -5073    -5065    -5053    -5046 
   -5046    -5043    -5040    -5043    -5050    -5058    -5067    -5078 
   -5093    -5109    -5125    -5144    -5164    -5181    -5198    -5220 
   -5235    -5244    -5259    -5270    -5271    -5270    -5263    -5256 
   -5248    -5232    -5215    -5197    -5177    -5154    -5134    -5115 
   -5096    -5086    -5074    -5063    -5065    -5067    -5066    -5073 
   -5077    -5078    -5084    -5088    -5090    -5093    -5093    -5098 
   -5105    -5111    -5120    -5131    -5144    -5161    -5174    -5188 
   -5206    -5223    -5235    -5247    -5262    -5273    -5286    -5296 
   -5300    -5306    -5317    -5321    -5327    -5331    -5331    -5332 
   -5332    -5327    -5321    -5308    -5292    -5275    -5251    -5229 
   -5208    -5182    -5161    -5138    -5111    -5086    -5060    -5034 
   -5011    -4989    -4966    -4946    -4928    -4916    -4904    -4888 
   -4876    -4870    -4864    -4857    -4854    -4850    -4843    -4838 
   -4834    -4831    -4828    -4820    -4814    -4812    -4806    -4797 
   -4787    -4774    -4766    -4754    -4743    -4734    -4720    -4718 
   -4720    -4716    -4722    -4731    -4741    -4754    -4766    -4781 
   -4800    -4819    -4838    -4855    -4877    -4901    -4923    -4953 
   -4976    -4996    -5023    -5053    -5078    -5101    -5131    -5164 
   -5186    -5208    -5231    -5247    -5260    -5270    -5278    -5287 
   -5286    -5285    -5286    -5283    -5281    -5275    -5263    -5252 
   -5250    -5247    -5238    -5229    -5225    -5219    -5213    -5206 
   -5198    -5197    -5201    -5202    -5208    -5215    -5220    -5225 
   -5224    -5217    -5206    -5193    -5179    -5161    -5138    -5121 
   -5112    -5100    -5088    -5077    -5071    -5069    -5066    -5074 
   -5085    -5093    -5111    -5123    -5135    -5158    -5174    -5188 
   -5201    -5215    -5231    -5246    -5256    -5267    -5277    -5289 
   -5300    -5309    -5314    -5320    -5329    -5337    -5339    -5347 
   -5352    -5351    -5348    -5351    -5352    -5347    -5343    -5346 
   -5346    -5343    -5344    -5341    -5339    -5339    -5339    -5339 
   -5347    -5351    -5362    -5379    -5397    -5414    -5435    -5459 
   -5476    -5491    -5512    -5532    -5547    -5557    -5570    -5580 
   -5593    -5605    -5613    -5614    -5618    -5620    -5618    -5616 
   -5605    -5590    -5576    -5556    -5533    -5501    -5464    -5432 
   -5394    -5352    -5316    -5282    -5251    -5221    -5197    -5177 
   -5155    -5139    -5123    -5108    -5097    -5081    -5062    -5049 
   -5032    -5017    -5007    -4993    -4977    -4962    -4950    -4934 
   -4911    -4889    -4870    -4849    -4830    -4811    -4787    -4769 
   -4750    -4726    -4702    -4679    -4653    -4631    -4610    -4587 
   -4567    -4553    -4545    -4537    -4530    -4531    -4538    -4552 
   -4567    -4584    -4606    -4627    -4650    -4673    -4691    -4707 
   -4723    -4733    -4735    -4739    -4743    -4741    -4741    -4743 
   -4739    -4737    -4735    -4731    -4731    -4735    -4737    -4739 
   -4752    -4768    -4784    -4804    -4830    -4857    -4888    -4915 
   -4931    -4947    -4966    -4980    -4986    -4993    -4999    -5003 
   -5009    -5015    -5019    -5023    -5024    -5019    -5008    -4996 
   -4980    -4962    -4938    -4911    -4888    -4864    -4841    -4819 
   -4796    -4781    -4766    -4752    -4750    -4743    -4734    -4738 
   -4742    -4746    -4756    -4762    -4773    -4789    -4801    -4814 
   -4828    -4842    -4847    -4852    -4858    -4854    -4849    -4847 
   -4838    -4826    -4811    -4792    -4774    -4760    -4747    -4738 
   -4727    -4722    -4719    -4715    -4714    -4710    -4707    -4704 
   -4696    -4689    -4681    -4672    -4665    -4656    -4649    -4648 
   -4646    -4649    -4658    -4666    -4680    -4699    -4722    -4747 
   -4773    -4803    -4835    -4862    -4892    -4923    -4951    -4980 
   -5008    -5035    -5069    -5104    -5139    -5177    -5221    -5266 
   -5309    -5351    -5391    -5429    -5464    -5493    -5517    -5529 
   -5537    -5544    -5537    -5529    -5521    -5498    -5476    -5456 
   -5422    -5393    -5368    -5346    -5320    -5297    -5277    -5260 
   -5247    -5232    -5217    -5208    -5200    -5192    -5186    -5182 
   -5181    -5182    -5184    -5186    -5192    -5193    -5192    -5194 
   -5196    -5193    -5190    -5192    -5198    -5205    -5219    -5242 
   -5266    -5297    -5328    -5362    -5400    -5435    -5470    -5502 
   -5525    -5549    -5575    -5593    -5609    -5625    -5638    -5656 
   -5675    -5691    -5705    -5719    -5736    -5752    -5764    -5782 
   -5796    -5805    -5815    -5829    -5830    -5830    -5836    -5831 
   -5818    -5811    -5805    -5791    -5778    -5767    -5756    -5746 
   -5736    -5721    -5702    -5683    -5664    -5637    -5607    -5579 
   -5544    -5512    -5483    -5443    -5406    -5377    -5347    -5321 
   -5294    -5267    -5247    -5227    -5201    -5178    -5159    -5138 
   -5111    -5086    -5065    -5043    -5026    -5013    -5009    -5012 
   -5012    -5011    -5022    -5040    -5057    -5071    -5090    -5104 
   -5117    -5136    -5151    -5157    -5164    -5171    -5175    -5175 
   -5173    -5169    -5162    -5151    -5139    -5130    -5120    -5103 
   -5086    -5078    -5065    -5053    -5043    -5038    -5036    -5031 
   -5027    -5036    -5042    -5044    -5053    -5066    -5084    -5097 
   -5113    -5134    -5151    -5169    -5188    -5204    -5215    -5227 
   -5235    -5244    -5246    -5246    -5244    -5240    -5235    -5228 
   -5216    -5202    -5186    -5171    -5152    -5128    -5107    -5086 
   -5059    -5036    -5019    -4997    -4974    -4955    -4939    -4918 
   -4899    -4884    -4868    -4850    -4835    -4823    -4816    -4812 
   -4803    -4793    -4793    -4803    -4814    -4833    -4860    -4884 
   -4912    -4953    -4989    -5024    -5060    -5093    -5131    -5167 
   -5198    -5227    -5252    -5273    -5287    -5298    -5308    -5312 
   -5312    -5313    -5314    -5309    -5302    -5293    -5278    -5263 
   -5244    -5221    -5197    -5171    -5148    -5131    -5111    -5092 
   -5081    -5074    -5066    -5062    -5067    -5076    -5084    -5097 
   -5111    -5127    -5152    -5178    -5202    -5232    -5260    -5287 
   -5319    -5347    -5370    -5391    -5406    -5417    -5424    -5422 
   -5418    -5412    -5405    -5401    -5394    -5385    -5381    -5370 
   -5354    -5339    -5327    -5313    -5297    -5277    -5259    -5244 
   -5227    -5205    -5178    -5154    -5125    -5093    -5066    -5039 
   -5007    -4980    -4954    -4930    -4918    -4907    -4896    -4893 
   -4892    -4891    -4896    -4900    -4900    -4899    -4901    -4901 
   -4903    -4905    -4907    -4912    -4922    -4930    -4941    -4951 
   -4961    -4978    -4993    -5005    -5027    -5050    -5074    -5097 
   -5120    -5148    -5177    -5200    -5225    -5250    -5270    -5290 
   -5305    -5320    -5339    -5355    -5370    -5393    -5417    -5436 
   -5459    -5489    -5516    -5539    -5559    -5583    -5602    -5610 
   -5618    -5621    -5609    -5594    -5576    -5549    -5516    -5475 
   -5431    -5386    -5339    -5294    -5251    -5212    -5179    -5148 
   -5123    -5105    -5090    -5081    -5077    -5071    -5067    -5070 
   -5071    -5067    -5070    -5078    -5077    -5078    -5086    -5092 
   -5096    -5105    -5113    -5119    -5121    -5125    -5131    -5138 
   -5139    -5142    -5144    -5148    -5146    -5142    -5144    -5148 
   -5150    -5152    -5155    -5166    -5179    -5192    -5211    -5233 
   -5255    -5277    -5298    -5323    -5344    -5359    -5370    -5377 
   -5377    -5377    -5374    -5367    -5352    -5339    -5329    -5316 
   -5305    -5297    -5285    -5277    -5270    -5267    -5265    -5258 
   -5251    -5250    -5243    -5238    -5235    -5231    -5225    -5223 
   -5220    -5220    -5217    -5213    -5211    -5206    -5205    -5198 
   -5188    -5184    -5169    -5151    -5136    -5119    -5096    -5076 
   -5058    -5039    -5020    -4997    -4970    -4951    -4938    -4915 
   -4897    -4884    -4870    -4862    -4854    -4846    -4841    -4839 
   -4850    -4864    -4873    -4891    -4916    -4945    -4980    -5016 
   -5060    -5105    -5150    -5200    -5251    -5302    -5355    -5405 
   -5454    -5502    -5543    -5585    -5628    -5659    -5688    -5713 
   -5730    -5745    -5756    -5765    -5772    -5775    -5775    -5772 
   -5768    -5760    -5748    -5730    -5706    -5683    -5656    -5625 
   -5594    -5556    -5521    -5486    -5448    -5416    -5390    -5364 
   -5347    -5337    -5325    -5323    -5328    -5335    -5343    -5355 
   -5370    -5385    -5402    -5425    -5448    -5472    -5499    -5528 
   -5552    -5576    -5603    -5632    -5656    -5678    -5701    -5724 
   -5744    -5764    -5782    -5798    -5818    -5837    -5853    -5875 
   -5895    -5914    -5937    -5958    -5973    -5989    -6006    -6016 
   -6027    -6030    -6023    -6022    -6014    -5999    -5984    -5967 
   -5942    -5919    -5896    -5869    -5841    -5815    -5784    -5751 
   -5719    -5689    -5656    -5630    -5609    -5590    -5574    -5562 
   -5549    -5541    -5535    -5529    -5529    -5535    -5544    -5555 
   -5571    -5585    -5602    -5625    -5641    -5656    -5676    -5694 
   -5711    -5725    -5737    -5748    -5751    -5749    -5748    -5736 
   -5725    -5713    -5688    -5665    -5640    -5611    -5580    -5544 
   -5505    -5463    -5420    -5377    -5331    -5281    -5231    -5184 
   -5135    -5081    -5032    -4989    -4950    -4915    -4881    -4854 
   -4837    -4823    -4814    -4811    -4814    -4822    -4838    -4857 
   -4874    -4897    -4935    -4970    -5005    -5047    -5089    -5128 
   -5166    -5201    -5232    -5256    -5270    -5275    -5271    -5258 
   -5242    -5220    -5192    -5164    -5136    -5100    -5066    -5039 
   -5012    -4986    -4962    -4943    -4926    -4909    -4893    -4881 
   -4880    -4878    -4880    -4892    -4901    -4915    -4938    -4959 
   -4989    -5024    -5060    -5098    -5139    -5179    -5217    -5256 
   -5297    -5331    -5363    -5400    -5427    -5454    -5478    -5491 
   -5502    -5517    -5522    -5519    -5518    -5513    -5503    -5497 
   -5494    -5491    -5485    -5481    -5483    -5481    -5478    -5479 
   -5478    -5472    -5468    -5463    -5454    -5443    -5439    -5433 
   -5432    -5432    -5435    -5448    -5462    -5470    -5485    -5494 
   -5494    -5490    -5483    -5470    -5448    -5422    -5390    -5355 
   -5319    -5273    -5229    -5190    -5143    -5097    -5054    -5007 
   -4962    -4920    -4873    -4823    -4777    -4735    -4687    -4642 
   -4608    -4568    -4531    -4498    -4460    -4430    -4403    -4372 
   -4342    -4315    -4288    -4266    -4252    -4236    -4220    -4213 
   -4209    -4202    -4200    -4205    -4209    -4218    -4233    -4247 
   -4261    -4279    -4295    -4313    -4327    -4338    -4349    -4360 
   -4369    -4376    -4382    -4387    -4393    -4396    -4392    -4388 
   -4386    -4374    -4360    -4351    -4340    -4329    -4321    -4317 
   -4315    -4315    -4324    -4337    -4351    -4375    -4402    -4433 
   -4467    -4499    -4531    -4567    -4602    -4637    -4672    -4708 
   -4750    -4789    -4828    -4870    -4909    -4947    -4984    -5017 
   -5053    -5086    -5117    -5151    -5188    -5225    -5265    -5305 
   -5343    -5383    -5424    -5462    -5495    -5526    -5556    -5582 
   -5603    -5620    -5629    -5641    -5652    -5656    -5663    -5672 
   -5682    -5691    -5699    -5709    -5714    -5719    -5724    -5719 
   -5710    -5702    -5687    -5667    -5649    -5632    -5607    -5587 
   -5574    -5560    -5552    -5552    -5552    -5556    -5566    -5572 
   -5584    -5599    -5609    -5618    -5628    -5637    -5643    -5649 
   -5656    -5653    -5651    -5652    -5648    -5643    -5637    -5629 
   -5622    -5617    -5607    -5599    -5593    -5583    -5576    -5570 
   -5563    -5552    -5547    -5543    -5532    -5516    -5508    -5494 
   -5471    -5452    -5433    -5405    -5379    -5359    -5332    -5301 
   -5278    -5256    -5232    -5206    -5179    -5150    -5120    -5084 
   -5046    -5007    -4962    -4915    -4865    -4807    -4754    -4708 
   -4650    -4592    -4549    -4511    -4473    -4444    -4419    -4402 
   -4390    -4380    -4382    -4382    -4374    -4378    -4382    -4380 
   -4383    -4386    -4383    -4386    -4384    -4380    -4382    -4382 
   -4379    -4379    -4379    -4378    -4379    -4379    -4376    -4380 
   -4391    -4402    -4413    -4426    -4440    -4457    -4477    -4492 
   -4509    -4523    -4533    -4542    -4548    -4548    -4542    -4531 
   -4518    -4502    -4483    -4459    -4430    -4401    -4371    -4340 
   -4310    -4279    -4253    -4233    -4214    -4195    -4186    -4178 
   -4170    -4171    -4178    -4187    -4197    -4217    -4240    -4263 
   -4289    -4318    -4347    -4375    -4403    -4430    -4452    -4469 
   -4486    -4498    -4504    -4506    -4506    -4502    -4490    -4477 
   -4463    -4434    -4409    -4384    -4355    -4324    -4288    -4253 
   -4225    -4199    -4170    -4140    -4114    -4097    -4081    -4067 
   -4062    -4055    -4060    -4069    -4082    -4104    -4129    -4156 
   -4197    -4240    -4286    -4345    -4405    -4464    -4535    -4610 
   -4680    -4756    -4833    -4911    -4989    -5069    -5142    -5215 
   -5285    -5347    -5413    -5471    -5521    -5570    -5609    -5644 
   -5676    -5697    -5711    -5727    -5730    -5727    -5726    -5718 
   -5703    -5686    -5671    -5647    -5618    -5594    -5563    -5526 
   -5490    -5454    -5422    -5390    -5358    -5335    -5317    -5300 
   -5293    -5292    -5293    -5296    -5300    -5304    -5309    -5316 
   -5325    -5329    -5336    -5344    -5350    -5354    -5356    -5356 
   -5355    -5351    -5343    -5329    -5313    -5297    -5273    -5244 
   -5217    -5186    -5152    -5120    -5082    -5042    -5000    -4958 
   -4912    -4862    -4811    -4764    -4712    -4660    -4615    -4572 
   -4533    -4498    -4468    -4440    -4418    -4402    -4386    -4376 
   -4371    -4364    -4360    -4357    -4353    -4351    -4347    -4348 
   -4351    -4349    -4351    -4359    -4364    -4372    -4383    -4391 
   -4399    -4407    -4419    -4430    -4437    -4452    -4469    -4483 
   -4494    -4502    -4518    -4538    -4557    -4573    -4598    -4623 
   -4649    -4675    -4703    -4729    -4756    -4783    -4808    -4833 
   -4860    -4882    -4904    -4928    -4949    -4963    -4980    -4994 
   -5000    -5005    -5013    -5019    -5024    -5027    -5031    -5034 
   -5035    -5032    -5030    -5026    -5019    -5015    -5009    -5003 
   -4994    -4986    -4980    -4968    -4955    -4947    -4941    -4932 
   -4922    -4911    -4904    -4899    -4895    -4892    -4891    -4888 
   -4888    -4893    -4900    -4905    -4914    -4916    -4915    -4918 
   -4915    -4907    -4900    -4887    -4878    -4873    -4860    -4854 
   -4850    -4842    -4833    -4826    -4823    -4819    -4812    -4810 
   -4803    -4797    -4796    -4791    -4784    -4773    -4761    -4746 
   -4726    -4704    -4685    -4664    -4642    -4619    -4596    -4583 
   -4573    -4561    -4554    -4553    -4554    -4560    -4565    -4573 
   -4591    -4604    -4619    -4642    -4662    -4679    -4703    -4729 
   -4752    -4777    -4807    -4841    -4884    -4928    -4973    -5027 
   -5088    -5146    -5209    -5270    -5327    -5383    -5436    -5487 
   -5536    -5579    -5617    -5644    -5671    -5691    -5698    -5698 
   -5694    -5682    -5656    -5625    -5585    -5539    -5487    -5432 
   -5368    -5301    -5235    -5164    -5090    -5019    -4949    -4887 
   -4826    -4768    -4718    -4671    -4626    -4590    -4563    -4534 
   -4514    -4502    -4496    -4491    -4487    -4487    -4487    -4484 
   -4482    -4482    -4483    -4484    -4484    -4480    -4482    -4492 
   -4502    -4513    -4530    -4548    -4568    -4592    -4611    -4633 
   -4649    -4661    -4680    -4703    -4719    -4734    -4750    -4769 
   -4788    -4808    -4830    -4852    -4876    -4900    -4923    -4946 
   -4963    -4980    -4996    -5009    -5017    -5022    -5027    -5038 
   -5040    -5034    -5030    -5027    -5024    -5017    -5009    -5005 
   -5008    -5007    -5004    -5004    -5011    -5020    -5027    -5039 
   -5053    -5070    -5090    -5105    -5125    -5146    -5169    -5198 
   -5224    -5254    -5289    -5317    -5347    -5381    -5409    -5431 
   -5456    -5481    -5495    -5506    -5514    -5517    -5518    -5522 
   -5522    -5518    -5516    -5509    -5505    -5499    -5493    -5486 
   -5478    -5470    -5460    -5443    -5427    -5414    -5395    -5381 
   -5370    -5356    -5348    -5344    -5335    -5332    -5337    -5339 
   -5348    -5363    -5374    -5382    -5394    -5406    -5417    -5431 
   -5440    -5447    -5451    -5451    -5451    -5451    -5448    -5448 
   -5448    -5448    -5448    -5445    -5443    -5441    -5435    -5429 
   -5424    -5414    -5406    -5401    -5394    -5387    -5382    -5381 
   -5377    -5374    -5371    -5370    -5367    -5368    -5363    -5362 
   -5366    -5363    -5360    -5367    -5371    -5367    -5368    -5377 
   -5379    -5381    -5385    -5387    -5387    -5386    -5389    -5394 
   -5395    -5397    -5408    -5416    -5416    -5427    -5440    -5448 
   -5458    -5472    -5485    -5498    -5517    -5530    -5544    -5566 
   -5584    -5601    -5620    -5638    -5656    -5674    -5688    -5705 
   -5721    -5734    -5741    -5746    -5753    -5759    -5753    -5746 
   -5738    -5722    -5705    -5686    -5656    -5626    -5597    -5567 
   -5535    -5502    -5466    -5435    -5412    -5389    -5371    -5358 
   -5348    -5346    -5344    -5341    -5347    -5360    -5366    -5370 
   -5381    -5393    -5405    -5418    -5437    -5455    -5470    -5491 
   -5510    -5525    -5541    -5557    -5575    -5589    -5599    -5611 
   -5617    -5618    -5620    -5618    -5616    -5606    -5590    -5579 
   -5566    -5547    -5528    -5506    -5486    -5470    -5448    -5431 
   -5414    -5391    -5368    -5348    -5324    -5304    -5287    -5268 
   -5251    -5238    -5224    -5212    -5208    -5205    -5201    -5204 
   -5211    -5213    -5216    -5219    -5224    -5229    -5233    -5240 
   -5252    -5263    -5277    -5297    -5314    -5333    -5354    -5368 
   -5383    -5404    -5418    -5432    -5448    -5462    -5472    -5490 
   -5503    -5512    -5524    -5535    -5547    -5560    -5574    -5589 
   -5603    -5620    -5634    -5649    -5670    -5688    -5706    -5726 
   -5741    -5757    -5779    -5790    -5802    -5818    -5826    -5834 
   -5845    -5856    -5868    -5875    -5876    -5886    -5894    -5894 
   -5895    -5902    -5904    -5899    -5902    -5896    -5880    -5868 
   -5852    -5826    -5795    -5765    -5736    -5694    -5651    -5614 
   -5574    -5533    -5499    -5464    -5436    -5410    -5385    -5364 
   -5347    -5331    -5325    -5314    -5306    -5308    -5308    -5308 
