Origin Time       2016/04/16 01:25:00
Lat.              32.753
Long.             130.762
Depth. (km)       12
Mag.              7.3
Station Code      HYG027
Station Lat.      34.2499
Station Long.     134.7292
Station Height(m) 115
Record Time       2016/04/16 01:27:04
Sampling Freq(Hz) 100Hz
Duration Time(s)  73
Dir.              E-W
Scale Factor      7845(gal)/8223790
Max. Acc. (gal)   2.453
Last Correction   2016/04/16 01:27:06
Memo.             
[...]
    9652     9651     9655     9660     9664     9671     9682     9695 
    9705     9715     9724     9725     9722     9721     9718     9710 
    9705     9701     9694     9690     9684     9674     9661     9649 
    9639     9629     9616     9601     9591     9590     9591     9594 
    9610     9629     9644     9659     9675     9693     9711     9732 
    9751     9761     9771     9784     9792     9798     9802     9801 
    9795     9791     9780     9771     9768     9764     9761     9759 
    9759     9759     9759     9759     9763     9764     9759     9755 
    9751     9747     9747     9747     9753     9767     9780     9794 
    9806     9818     9832     9845     9856     9868     9880     9888 
    9898     9904     9907     9906     9903     9895     9883     9868 
    9850     9830     9811     9794     9780     9768     9756     9745 
    9734     9720     9707     9695     9682     9662     9643     9624 
    9602     9580     9560     9540     9521     9505     9489     9474 
    9463     9459     9459     9458     9460     9463     9468     9475 
    9481     9487     9497     9505     9513     9524     9533     9537 
    9547     9558     9571     9580     9589     9594     9591     9586 
    9576     9559     9536     9510     9477     9440     9405     9374 
    9343     9320     9306     9300     9301     9308     9319     9332 
    9343     9355     9366     9371     9381     9387     9391     9400 
    9410     9418     9428     9441     9454     9463     9467     9468 
    9475     9482     9485     9490     9495     9495     9504     9517 
    9528     9541     9560     9579     9594     9609     9621     9629 
    9634     9640     9643     9643     9644     9641     9637     9637 
    9636     9632     9633     9634     9634     9640     9649     9659 
    9671     9679     9688     9701     9705     9709     9721     9736 
    9747     9755     9764     9771     9776     9779     9778     9771 
    9767     9761     9756     9751     9745     9741     9737     9736 
    9737     9744     9755     9765     9778     9795     9813     9830 
    9847     9860     9872     9884     9890     9890     9894     9894 
    9883     9873     9863     9846     9828     9807     9787     9767 
    9745     9722     9698     9675     9652     9629     9613     9599 
    9590     9585     9585     9590     9598     9609     9626     9644 
    9662     9688     9714     9734     9757     9782     9804     9828 
    9846     9865     9886     9903     9918     9930     9942     9953 
    9965     9979     9987     9989     9994     9995     9991     9987 
    9977     9963     9945     9919     9888     9856     9822     9787 
    9753     9724     9697     9670     9647     9626     9606     9583 
    9559     9539     9518     9495     9481     9463     9445     9431 
    9417     9402     9391     9385     9378     9371     9373     9377 
    9383     9396     9410     9423     9432     9437     9440     9435 
    9427     9416     9396     9371     9343     9309     9279     9254 
    9228     9204     9180     9155     9131     9108     9090     9078 
    9074     9074     9082     9101     9128     9162     9202     9240 
    9275     9309     9340     9364     9382     9396     9402     9404 
    9402     9397     9390     9382     9377     9377     9375     9378 
    9385     9391     9401     9409     9414     9418     9421     9418 
    9408     9388     9367     9350     9333     9319     9306     9294 
    9288     9285     9285     9293     9309     9331     9360     9397 
    9435     9472     9512     9545     9576     9606     9633     9659 
    9680     9702     9722     9740     9763     9788     9814     9840 
    9865     9887     9906     9925     9945     9961     9975     9991 
   10008    10027    10049    10068    10088    10108    10123    10135 
   10142    10145    10145    10135    10119    10096    10072    10048 
   10021     9994     9973     9958     9945     9933     9922     9913 
    9902     9888     9871     9850     9826     9802     9778     9759 
    9742     9726     9714     9707     9698     9697     9702     9701 
    9699     9705     9705     9698     9690     9675     9656     9637 
    9614     9590     9568     9549     9529     9505     9482     9454 
    9424     9396     9366     9337     9312     9292     9277     9274 
    9283     9300     9328     9367     9412     9464     9521     9576 
    9629     9678     9720     9759     9790     9810     9825     9834 
    9837     9840     9836     9825     9814     9804     9798     9792 
    9791     9791     9794     9796     9801     9811     9822     9834 
    9847     9855     9857     9857     9850     9844     9840     9834 
    9830     9829     9823     9811     9801     9788     9778     9769 
    9759     9748     9747     9748     9752     9768     9786     9809 
    9837     9861     9886     9909     9926     9938     9945     9945 
    9936     9922     9904     9882     9853     9823     9794     9767 
    9740     9711     9682     9653     9628     9602     9578     9559 
    9543     9530     9525     9522     9521     9528     9541     9553 
    9563     9572     9583     9598     9613     9629     9645     9661 
    9676     9694     9709     9710     9711     9709     9694     9674 
    9651     9622     9599     9580     9562     9537     9517     9505 
    9491     9477     9470     9467     9463     9460     9458     9454 
    9454     9451     9448     9448     9451     9454     9463     9472 
    9486     9502     9514     9528     9541     9555     9571     9591 
    9610     9629     9659     9691     9722     9755     9780     9798 
    9803     9795     9778     9749     9713     9675     9639     9599 
    9556     9514     9475     9431     9383     9339     9294     9248 
    9204     9162     9126     9097     9073     9053     9034     9013 
    8995     8984     8980     8978     8988     9001     9013     9030 
    9049     9063     9086     9117     9147     9177     9212     9250 
    9288     9324     9364     9398     9427     9456     9483     9509 
    9529     9548     9568     9586     9606     9629     9655     9688 
    9728     9767     9815     9863     9907     9950     9987    10019 
   10048    10069    10092    10112    10130    10149    10166    10181 
   10199    10218    10230    10241    10254    10258    10255    10254 
   10246    10230    10208    10176    10138    10095    10045     9988 
    9927     9867     9806     9738     9671     9605     9537     9474 
    9413     9358     9308     9263     9228     9205     9184     9165 
    9162     9166     9175     9198     9234     9275     9331     9397 
    9468     9545     9625     9699     9771     9836     9894     9948 
    9985    10011    10031    10038    10037    10030    10019    10007 
    9994     9979     9967     9956     9949     9946     9945     9952 
    9961     9977    10002    10022    10048    10080    10107    10131 
   10158    10173    10177    10177    10169    10152    10123    10087 
   10037     9984     9933     9882     9832     9786     9747     9711 
    9676     9644     9617     9593     9572     9556     9545     9537 
    9525     9512     9497     9474     9450     9424     9397     9374 
    9344     9310     9282     9252     9220     9190     9157     9126 
    9096     9066     9040     9019     8996     8978     8969     8958 
    8947     8941     8942     8943     8945     8942     8937     8932 
    8924     8908     8884     8857     8826     8787     8750     8715 
    8687     8669     8660     8657     8665     8687     8721     8766 
    8823     8891     8970     9062     9161     9256     9352     9452 
    9558     9668     9784     9904    10033    10172    10318    10461 
   10597    10725    10840    10936    11009    11057    11082    11087 
   11075    11051    11018    10986    10951    10912    10875    10844 
   10816    10785    10758    10732    10708    10687    10670    10654 
   10638    10620    10602    10592    10579    10573    10577    10585 
   10596    10612    10633    10656    10675    10689    10706    10717 
   10721    10717    10702    10678    10643    10596    10536    10466 
   10385    10299    10210    10120    10034     9954     9882     9815 
    9755     9701     9659     9622     9589     9556     9518     9475 
    9432     9383     9324     9262     9192     9117     9042     8962 
    8884     8808     8738     8675     8617     8563     8517     8479 
    8447     8426     8410     8398     8398     8401     8404     8408 
    8407     8401     8390     8370     8343     8310     8272     8232 
    8195     8163     8143     8139     8147     8168     8205     8251 
    8303     8361     8426     8492     8550     8604     8653     8691 
    8725     8762     8797     8833     8872     8911     8950     8995 
    9035     9071     9113     9147     9180     9211     9236     9259 
    9277     9286     9298     9316     9331     9352     9381     9412 
    9450     9494     9544     9598     9649     9699     9745     9783 
    9813     9833     9846     9852     9850     9844     9832     9815 
    9799     9779     9745     9710     9674     9629     9580     9532 
    9479     9424     9370     9316     9262     9216     9175     9140 
    9115     9099     9097     9104     9120     9142     9171     9207 
    9246     9288     9328     9370     9408     9444     9483     9520 
    9552     9582     9610     9644     9675     9705     9740     9775 
    9807     9840     9872     9900     9922     9937     9945     9942 
    9927     9909     9887     9863     9845     9833     9823     9823 
    9830     9836     9840     9845     9852     9853     9847     9840 
    9828     9810     9792     9780     9769     9763     9756     9748 
    9740     9724     9699     9671     9639     9599     9559     9521 
    9482     9450     9424     9396     9373     9355     9337     9325 
    9317     9316     9320     9329     9348     9375     9408     9451 
    9501     9553     9607     9666     9724     9790     9867     9946 
   10034    10131    10234    10339    10444    10555    10669    10775 
   10882    10986    11083    11175    11261    11335    11402    11461 
   11511    11551    11577    11589    11589    11578    11558    11530 
   11491    11449    11406    11354    11296    11232    11160    11078 
   10983    10883    10779    10662    10540    10420    10300    10180 
   10062     9948     9837     9733     9633     9539     9448     9366 
    9286     9212     9143     9074     9005     8939     8870     8797 
    8726     8664     8603     8553     8515     8482     8459     8449 
    8447     8453     8471     8497     8530     8565     8603     8648 
    8702     8754     8811     8874     8939     9008     9080     9147 
    9217     9281     9333     9374     9398     9414     9432     9435 
    9425     9416     9401     9382     9362     9344     9332     9322 
    9315     9308     9302     9297     9289     9277     9263     9248 
    9235     9220     9205     9190     9178     9169     9153     9130 
    9103     9071     9042     9013     8989     8972     8969     8976 
    8999     9045     9104     9180     9275     9375     9477     9582 
    9679     9767     9844     9904     9953     9985     9999    10007 
   10008    10006    10004    10002     9998     9992     9981     9972 
    9971     9976     9981     9991    10008    10033    10055    10076 
   10095    10114    10127    10141    10147    10147    10139    10126 
   10106    10081    10053    10027    10003     9981     9967     9961 
    9958     9957     9957     9956     9950     9936     9915     9887 
    9849     9804     9757     9701     9643     9585     9524     9463 
    9397     9328     9256     9180     9108     9036     8969     8911 
    8860     8814     8773     8734     8699     8665     8640     8617 
    8590     8563     8540     8515     8496     8477     8456     8441 
    8426     8408     8385     8355     8328     8298     8260     8224 
    8187     8147     8108     8068     8033     8001     7969     7943 
    7920     7897     7874     7851     7827     7809     7796     7780 
    7770     7771     7778     7793     7819     7848     7885     7927 
    7969     8014     8063     8109     8149     8187     8221     8248 
    8266     8283     8305     8317     8330     8356     8387     8426 
    8474     8530     8599     8672     8742     8812     8881     8942 
    8997     9045     9077     9099     9108     9108     9099     9077 
    9050     9024     8999     8972     8955     8946     8945     8950 
    8961     8984     9012     9046     9084     9124     9167     9216 
    9263     9315     9366     9413     9459     9501     9533     9556 
    9568     9572     9570     9555     9535     9514     9491     9464 
    9433     9394     9355     9315     9262     9202     9135     9062 
    8992     8918     8842     8773     8706     8644     8592     8546 
    8507     8480     8461     8454     8460     8473     8496     8527 
    8567     8612     8665     8725     8785     8847     8914     8980 
    9042     9104     9166     9225     9286     9350     9414     9483 
    9559     9640     9726     9825     9927    10034    10146    10266 
   10390    10516    10644    10773    10899    11022    11137    11237 
   11327    11404    11472    11527    11574    11622    11668    11715 
   11766    11824    11880    11936    11993    12043    12086    12122 
   12150    12167    12179    12185    12185    12185    12186    12185 
   12177    12167    12154    12131    12106    12086    12056    12028 
   12002    11973    11946    11921    11897    11873    11847    11817 
   11784    11747    11705    11655    11600    11539    11468    11391 
   11313    11236    11159    11087    11017    10949    10886    10825 
   10762    10701    10646    10590    10531    10476    10422    10365 
   10311    10254    10199    10147    10095    10041     9988     9940 
    9892     9847     9813     9786     9763     9742     9732     9720 
    9699     9678     9653     9625     9594     9560     9521     9474 
    9416     9352     9290     9223     9155     9088     9019     8951 
    8883     8807     8731     8657     8577     8494     8414     8337 
    8267     8206     8154     8111     8086     8071     8068     8077 
    8097     8127     8160     8202     8248     8286     8319     8356 
    8384     8401     8414     8421     8421     8417     8410     8408 
    8401     8387     8379     8370     8351     8334     8321     8306 
    8297     8294     8293     8294     8302     8318     8341     8360 
    8385     8421     8459     8490     8526     8572     8619     8665 
    8708     8754     8797     8839     8874     8896     8914     8922 
    8912     8896     8877     8853     8827     8803     8779     8757 
    8741     8733     8729     8730     8735     8749     8765     8781 
    8800     8824     8850     8876     8899     8926     8957     8981 
    8999     9018     9032     9047     9067     9092     9127     9173 
    9224     9279     9332     9388     9447     9491     9529     9566 
    9591     9609     9624     9632     9639     9644     9643     9637 
    9636     9632     9625     9620     9606     9591     9579     9571 
    9563     9562     9566     9579     9605     9639     9678     9726 
    9782     9837     9891     9948    10008    10064    10115    10173 
   10230    10280    10328    10372    10408    10438    10469    10496 
   10519    10536    10552    10575    10600    10624    10646    10667 
   10692    10717    10732    10747    10760    10768    10778    10783 
   10782    10782    10783    10785    10783    10785    10794    10798 
   10797    10798    10786    10760    10728    10687    10635    10574 
   10519    10458    10392    10331    10270    10206    10149    10095 
   10039     9992     9946     9902     9863     9826     9787     9757 
    9729     9691     9652     9618     9589     9560     9533     9509 
    9489     9468     9448     9423     9397     9371     9347     9322 
    9302     9288     9279     9282     9289     9298     9317     9343 
    9367     9394     9428     9464     9499     9540     9583     9624 
    9671     9721     9767     9817     9869     9918     9968    10018 
   10069    10118    10166    10220    10273    10326    10381    10431 
   10477    10520    10551    10570    10585    10593    10592    10582 
   10567    10551    10532    10507    10478    10443    10400    10354 
   10304    10251    10200    10161    10130    10107    10100    10103 
   10110    10127    10153    10179    10208    10237    10266    10296 
   10322    10343    10362    10378    10393    10412    10431    10453 
   10477    10500    10519    10535    10552    10565    10571    10578 
   10585    10589    10588    10584    10579    10571    10558    10547 
   10539    10528    10517    10511    10503    10496    10493    10492 
   10490    10486    10481    10478    10467    10451    10436    10415 
   10390    10369    10346    10326    10315    10305    10295    10289 
   10281    10265    10243    10214    10179    10141    10100    10058 
   10018     9977     9940     9911     9886     9869     9864     9859 
    9852     9847     9845     9837     9822     9806     9788     9768 
    9752     9730     9705     9682     9661     9634     9609     9582 
    9549     9513     9477     9437     9400     9364     9329     9296 
    9266     9240     9215     9189     9166     9147     9132     9115 
    9104     9101     9099     9099     9104     9112     9116     9119 
    9119     9116     9112     9101     9093     9089     9085     9086 
    9096     9109     9128     9147     9162     9175     9184     9185 
    9182     9170     9153     9143     9135     9130     9127     9127 
    9134     9142     9150     9161     9167     9173     9177     9171 
    9158     9140     9115     9084     9055     9028     9000     8980 
    8961     8945     8934     8923     8915     8912     8911     8919 
    8929     8946     8972     9007     9035     9067     9104     9135 
    9163     9193     9228     9265     9293     9325     9359     9385 
    9413     9447     9475     9501     9533     9563     9589     9609 
    9624     9639     9652     9664     9679     9697     9717     9747 
    9779     9813     9847     9883     9921     9954     9989    10027 
   10064    10099    10131    10164    10195    10222    10242    10257 
   10263    10262    10257    10246    10234    10218    10199    10179 
   10156    10133    10112    10083    10058    10042    10026    10014 
   10007    10004    10006    10004    10007    10011    10011    10014 
   10018    10018    10017    10014    10008    10002     9991     9979 
    9967     9948     9923     9902     9882     9859     9836     9818 
    9799     9782     9768     9757     9753     9752     9756     9774 
    9794     9809     9834     9868     9896     9930     9965     9994 
   10022    10054    10084    10119    10161    10208    10254    10300 
   10345    10390    10438    10486    10534    10584    10631    10678 
   10724    10767    10809    10851    10891    10932    10972    11011 
   11048    11083    11119    11157    11192    11225    11256    11287 
   11310    11322    11325    11318    11303    11279    11242    11203 
