Origin Time       2016/04/16 01:25:00
Lat.              32.753
Long.             130.762
Depth. (km)       12
Mag.              7.3
Station Code      HYG004
Station Lat.      35.4582
Station Long.     134.5748
Station Height(m) 290
Record Time       2016/04/16 01:27:19
Sampling Freq(Hz) 100Hz
Duration Time(s)  60
Dir.              E-W
Scale Factor      7845(gal)/8223790
Max. Acc. (gal)   1.906
Last Correction   2016/04/16 01:27:21
Memo.             
[...]
    2053     2062     2072     2079     2087     2092     2097     2104 
    2110     2111     2118     2124     2126     2133     2142     2150 
    2158     2169     2182     2193     2205     2222     2235     2249 
    2266     2282     2295     2311     2323     2331     2340     2349 
    2351     2354     2355     2355     2351     2340     2332     2328 
    2319     2311     2305     2297     2285     2280     2276     2265 
    2249     2235     2226     2209     2191     2174     2158     2138 
    2119     2100     2085     2070     2058     2049     2043     2038 
    2034     2034     2033     2031     2031     2026     2020     2014 
    2004     1993     1982     1975     1965     1953     1944     1937 
    1927     1921     1915     1907     1902     1896     1890     1885 
    1880     1875     1872     1869     1865     1864     1863     1857 
    1852     1848     1846     1846     1844     1838     1837     1837 
    1831     1829     1826     1826     1823     1815     1810     1803 
    1794     1784     1780     1776     1772     1768     1764     1764 
    1767     1767     1765     1768     1775     1780     1783     1791 
    1800     1807     1817     1831     1840     1844     1854     1867 
    1872     1878     1888     1895     1899     1904     1914     1922 
    1930     1942     1949     1956     1965     1971     1975     1979 
    1979     1975     1972     1964     1956     1952     1949     1949 
    1949     1954     1961     1971     1979     1987     1998     2006 
    2014     2023     2030     2034     2043     2056     2062     2066 
    2074     2085     2095     2107     2119     2123     2130     2141 
    2143     2149     2154     2154     2158     2161     2158     2161 
    2163     2160     2160     2160     2158     2160     2162     2166 
    2174     2182     2189     2199     2208     2215     2226     2235 
    2243     2249     2255     2261     2265     2266     2267     2267 
    2263     2257     2250     2239     2227     2214     2192     2169 
    2149     2123     2092     2062     2034     2006     1980     1956 
    1930     1908     1890     1875     1858     1848     1844     1840 
    1833     1831     1833     1833     1833     1841     1846     1849 
    1859     1871     1877     1888     1900     1911     1922     1930 
    1938     1944     1949     1956     1960     1964     1968     1971 
    1975     1975     1975     1975     1977     1980     1979     1979 
    1981     1977     1971     1968     1961     1953     1946     1937 
    1923     1915     1910     1904     1899     1894     1891     1888 
    1890     1892     1896     1902     1907     1912     1922     1929 
    1934     1941     1949     1956     1965     1973     1977     1979 
    1980     1982     1980     1975     1973     1973     1971     1968 
    1966     1964     1960     1954     1948     1941     1934     1922 
    1912     1908     1903     1896     1895     1899     1902     1907 
    1915     1929     1944     1956     1973     1992     2014     2034 
    2057     2083     2110     2134     2155     2178     2203     2222 
    2242     2261     2280     2300     2319     2334     2351     2366 
    2378     2392     2403     2408     2411     2409     2405     2400 
    2390     2380     2367     2355     2340     2326     2312     2297 
    2281     2266     2253     2239     2227     2215     2205     2195 
    2181     2169     2158     2146     2133     2123     2111     2093 
    2084     2074     2060     2046     2034     2019     2004     1993 
    1981     1968     1958     1952     1941     1933     1929     1925 
    1921     1918     1915     1912     1904     1890     1875     1864 
    1849     1831     1814     1798     1781     1767     1755     1746 
    1742     1740     1738     1741     1744     1746     1753     1757 
    1760     1763     1768     1776     1781     1786     1796     1807 
    1815     1821     1825     1831     1841     1849     1857     1864 
    1868     1877     1885     1888     1892     1900     1908     1917 
    1921     1922     1930     1935     1935     1937     1939     1942 
    1948     1953     1960     1969     1979     1987     1991     1995 
    2000     2004     2007     2012     2018     2022     2025     2027 
    2026     2026     2022     2018     2016     2014     2011     2011 
    2012     2011     2014     2019     2020     2019     2015     2012 
    2010     2004     1995     1985     1973     1962     1954     1941 
    1927     1918     1904     1891     1883     1876     1869     1864 
    1858     1852     1848     1844     1836     1830     1829     1826 
    1822     1819     1818     1817     1817     1817     1817     1817 
    1817     1817     1817     1817     1814     1815     1819     1825 
    1831     1842     1852     1864     1876     1892     1908     1918 
    1926     1939     1949     1958     1966     1973     1975     1977 
    1980     1980     1980     1977     1972     1964     1952     1942 
    1935     1930     1927     1925     1925     1926     1927     1930 
    1934     1938     1941     1944     1948     1954     1958     1961 
    1966     1972     1980     1991     1998     2001     2012     2023 
    2027     2033     2039     2045     2050     2058     2064     2070 
    2081     2091     2095     2101     2110     2114     2119     2121 
    2124     2126     2126     2120     2120     2119     2116     2114 
    2110     2104     2101     2096     2085     2076     2066     2053 
    2041     2027     2011     1993     1979     1966     1952     1939 
    1930     1919     1911     1908     1906     1903     1903     1906 
    1907     1910     1914     1919     1927     1935     1941     1946 
    1953     1961     1968     1972     1975     1980     1981     1984 
    1987     1987     1985     1988     1995     2003     2011     2018 
    2025     2033     2041     2045     2047     2049     2047     2043 
    2041     2034     2026     2018     2004     1989     1975     1962 
    1949     1935     1921     1910     1898     1884     1876     1871 
    1864     1857     1852     1850     1844     1838     1836     1831 
    1829     1830     1826     1826     1829     1830     1831     1833 
    1836     1836     1837     1842     1841     1838     1840     1842 
    1841     1838     1838     1836     1829     1826     1826     1822 
    1821     1821     1819     1821     1822     1822     1821     1818 
    1815     1815     1817     1818     1818     1817     1822     1829 
    1833     1841     1852     1868     1883     1899     1914     1930 
    1942     1954     1972     1985     1993     2006     2016     2026 
    2034     2041     2045     2053     2057     2053     2056     2062 
    2060     2058     2064     2068     2070     2077     2088     2098 
    2111     2124     2142     2154     2166     2180     2191     2203 
    2214     2220     2228     2241     2250     2262     2277     2288 
    2299     2309     2319     2327     2336     2347     2354     2359 
    2363     2365     2365     2367     2366     2361     2353     2344 
    2335     2323     2308     2293     2273     2253     2232     2211 
    2188     2163     2141     2119     2098     2074     2053     2034 
    2018     2001     1988     1977     1968     1961     1954     1946 
    1944     1944     1944     1941     1941     1945     1946     1948 
    1948     1945     1944     1941     1934     1926     1919     1912 
    1906     1899     1892     1887     1884     1885     1887     1890 
    1894     1900     1908     1912     1917     1929     1937     1941 
    1946     1949     1949     1952     1952     1949     1953     1956 
    1956     1961     1964     1965     1971     1973     1975     1981 
    1987     1991     1993     1995     1999     2001     2001     2000 
    2003     2001     1999     2000     2001     2001     2001     2004 
    2008     2010     2015     2022     2033     2047     2064     2083 
    2101     2120     2137     2154     2173     2193     2215     2234 
    2255     2276     2290     2309     2330     2342     2354     2369 
    2380     2385     2388     2390     2393     2396     2392     2385 
    2384     2378     2367     2362     2358     2351     2349     2347 
    2343     2343     2342     2338     2335     2332     2327     2319 
    2311     2303     2296     2281     2270     2261     2250     2236 
    2226     2215     2204     2196     2189     2181     2174     2172 
    2169     2165     2160     2157     2157     2153     2147     2146 
    2141     2134     2126     2116     2110     2101     2091     2083 
    2076     2065     2057     2056     2050     2045     2047     2049 
    2050     2057     2061     2068     2077     2085     2095     2104 
    2111     2119     2124     2126     2128     2130     2123     2115 
    2111     2101     2088     2072     2053     2034     2015     1992 
    1971     1949     1922     1899     1878     1856     1833     1810 
    1787     1769     1752     1736     1725     1714     1706     1699 
    1695     1691     1688     1686     1684     1684     1688     1694 
    1699     1706     1717     1728     1741     1757     1772     1786 
    1806     1822     1833     1850     1868     1885     1906     1925 
    1942     1960     1980     1999     2014     2029     2046     2062 
    2074     2091     2107     2123     2138     2151     2166     2182 
    2196     2209     2227     2243     2254     2265     2276     2285 
    2293     2300     2305     2308     2308     2307     2301     2295 
    2286     2277     2266     2254     2241     2224     2209     2195 
    2176     2158     2141     2119     2097     2076     2053     2031 
    2011     1985     1961     1944     1926     1910     1891     1876 
    1867     1856     1849     1848     1846     1845     1852     1857 
    1859     1867     1871     1872     1875     1876     1876     1876 
    1877     1876     1873     1872     1868     1863     1858     1849 
    1838     1830     1822     1809     1796     1786     1775     1767 
    1759     1755     1753     1752     1750     1757     1771     1784 
    1798     1814     1833     1850     1868     1885     1898     1908 
    1915     1917     1919     1918     1912     1911     1907     1900 
    1894     1888     1883     1876     1871     1868     1863     1858 
    1856     1850     1846     1845     1846     1849     1852     1859 
    1869     1877     1884     1894     1902     1912     1926     1939 
    1949     1962     1979     1991     2000     2010     2016     2019 
    2023     2025     2027     2030     2034     2041     2045     2050 
    2058     2064     2072     2084     2089     2093     2102     2114 
    2126     2144     2166     2188     2211     2239     2266     2296 
    2327     2359     2392     2424     2455     2488     2520     2550 
    2579     2608     2632     2654     2675     2695     2712     2721 
    2732     2740     2751     2759     2768     2774     2778     2782 
    2786     2789     2798     2805     2808     2814     2825     2836 
    2844     2856     2868     2882     2893     2901     2907     2913 
    2914     2911     2906     2899     2886     2867     2851     2829 
    2801     2770     2736     2700     2659     2613     2569     2523 
    2473     2421     2370     2317     2258     2199     2144     2089 
    2033     1980     1926     1871     1818     1768     1717     1665 
    1620     1575     1530     1489     1452     1417     1383     1348 
    1318     1293     1271     1251     1230     1212     1197     1181 
    1165     1150     1139     1129     1119     1109     1104     1101 
    1096     1092     1090     1094     1098     1104     1111     1119 
    1128     1140     1152     1166     1182     1198     1220     1243 
    1264     1287     1316     1345     1377     1409     1441     1480 
    1521     1559     1595     1634     1671     1710     1745     1780 
    1813     1841     1868     1895     1915     1933     1946     1961 
    1975     1987     1996     2006     2011     2014     2020     2025 
    2027     2031     2038     2043     2049     2052     2056     2062 
    2069     2073     2081     2091     2100     2110     2120     2130 
    2139     2146     2153     2157     2158     2158     2157     2153 
    2150     2143     2133     2123     2111     2098     2087     2072 
    2058     2047     2034     2025     2018     2012     2007     2004 
    2004     2000     1993     1988     1982     1973     1962     1953 
    1941     1923     1902     1884     1863     1833     1811     1790 
    1767     1746     1725     1706     1692     1679     1665     1656 
    1648     1641     1638     1636     1632     1628     1624     1622 
    1621     1620     1617     1617     1620     1621     1624     1625 
    1629     1630     1632     1634     1637     1640     1642     1642 
    1641     1645     1651     1651     1653     1660     1665     1672 
    1682     1692     1703     1713     1722     1734     1746     1757 
    1772     1790     1804     1823     1842     1858     1876     1899 
    1925     1948     1973     2008     2046     2089     2142     2196 
    2255     2322     2390     2465     2543     2624     2704     2782 
    2863     2945     3019     3094     3167     3235     3303     3366 
    3423     3477     3526     3570     3611     3649     3681     3716 
    3753     3781     3808     3838     3866     3888     3909     3931 
    3946     3956     3969     3975     3978     3981     3977     3967 
    3956     3942     3919     3890     3861     3828     3790     3748 
    3704     3657     3609     3559     3511     3465     3419     3375 
    3329     3284     3242     3199     3156     3118     3079     3036 
    2998     2960     2917     2879     2847     2808     2766     2724 
    2679     2628     2578     2528     2471     2412     2357     2300 
    2241     2181     2124     2066     2014     1966     1919     1878 
    1845     1809     1777     1753     1733     1717     1701     1690 
    1683     1675     1669     1665     1660     1653     1648     1642 
    1638     1634     1632     1632     1630     1632     1634     1634 
    1636     1636     1634     1637     1638     1638     1641     1644 
    1644     1648     1651     1652     1653     1653     1651     1651 
    1653     1652     1651     1649     1648     1644     1640     1632 
    1626     1617     1603     1593     1578     1557     1541     1526 
    1507     1489     1472     1453     1431     1408     1381     1355 
    1327     1294     1258     1219     1181     1143     1101     1062 
    1026      986      949      915      884      850      818      788 
     758      731      710      689      670      658      649      641 
     637      633      630      630      631      634      638      646 
     656      664      676      692      715      743      776      811 
     854      903      955     1016     1078     1142     1209     1281 
    1355     1431     1503     1576     1652     1723     1790     1852 
    1914     1971     2020     2066     2111     2146     2173     2196 
    2211     2220     2224     2220     2214     2201     2187     2170 
    2151     2130     2115     2098     2084     2072     2066     2066 
    2064     2064     2068     2070     2073     2073     2072     2069 
    2062     2050     2038     2023     1999     1972     1948     1919 
    1888     1857     1823     1784     1748     1711     1674     1636 
    1598     1560     1524     1486     1444     1405     1371     1337 
    1306     1279     1255     1236     1224     1219     1217     1225 
    1237     1255     1281     1313     1354     1394     1437     1490 
    1541     1587     1636     1692     1742     1791     1840     1888 
    1937     1982     2027     2074     2116     2157     2200     2239 
    2276     2313     2346     2376     2404     2432     2457     2475 
    2496     2516     2529     2544     2560     2573     2582     2592 
    2601     2612     2621     2627     2633     2643     2648     2652 
    2660     2667     2667     2669     2677     2681     2683     2685 
    2682     2682     2683     2677     2668     2659     2650     2640 
    2627     2612     2597     2584     2570     2552     2538     2523 
    2506     2496     2486     2478     2475     2477     2478     2484 
    2490     2497     2509     2523     2535     2546     2559     2574 
    2587     2601     2619     2636     2651     2664     2678     2691 
    2705     2716     2721     2724     2728     2727     2717     2708 
    2698     2681     2662     2636     2609     2582     2552     2520 
    2490     2455     2419     2386     2353     2312     2274     2239 
    2204     2169     2133     2097     2068     2042     2016     1992 
    1969     1946     1921     1898     1876     1850     1822     1794 
    1759     1721     1684     1641     1594     1548     1495     1437 
    1381     1324     1263     1204     1144     1088     1034      980 
     928      881      837      793      756      727      697      669 
     653      641      626      616      618      621      627      642 
     656      673      696      714      737      764      789      814 
     841      869      895      924      954      985     1019     1051 
    1084     1123     1163     1200     1239     1282     1325     1368 
    1412     1449     1483     1520     1551     1579     1606     1632 
    1652     1674     1695     1715     1734     1755     1776     1795 
    1815     1836     1854     1876     1894     1911     1927     1944 
    1958     1968     1973     1981     1984     1980     1973     1964 
    1948     1923     1899     1872     1841     1802     1763     1725 
    1679     1632     1586     1534     1478     1422     1363     1301 
    1240     1182     1120     1053      993      931      870      814 
     754      696      642      592      545      499      456      419 
     382      349      325      301      278      259      236      216 
     201      186      167      153      141      129      120      116 
     112      114      122      133      147      163      178      202 
     225      245      263      287      311      334      356      382 
     411      437      463      492      519      550      585      619 
     657      700      745      789      838      892      946     1000 
    1059     1120     1179     1240     1301     1360     1420     1479 
    1533     1586     1641     1691     1736     1779     1817     1848 
    1875     1898     1919     1941     1958     1975     1988     2001 
    2014     2022     2026     2031     2033     2030     2026     2022 
    2011     1998     1989     1977     1958     1944     1929     1908 
    1894     1884     1868     1850     1840     1833     1823     1814 
    1809     1804     1796     1790     1784     1776     1768     1760 
    1752     1748     1748     1748     1752     1763     1775     1787 
    1803     1821     1838     1856     1872     1894     1915     1937 
    1960     1984     2010     2034     2061     2089     2119     2147 
    2178     2214     2250     2286     2323     2359     2397     2435 
    2474     2508     2538     2569     2596     2620     2640     2652 
    2660     2668     2673     2671     2666     2656     2644     2628 
