Origin Time       2016/04/16 01:25:00
Lat.              32.753
Long.             130.762
Depth. (km)       12
Mag.              7.3
Station Code      HYG024
Station Lat.      34.5330
Station Long.     134.9904
Station Height(m) 6
Record Time       2016/04/16 01:27:13
Sampling Freq(Hz) 100Hz
Duration Time(s)  86
Dir.              N-S
Scale Factor      7845(gal)/8223790
Max. Acc. (gal)   5.538
Last Correction   2016/04/16 01:26:58
Memo.             
[...]
    1578     1599     1621     1641     1657     1674     1686     1684 
    1672     1653     1620     1570     1509     1449     1385     1314 
    1247     1182     1123     1071     1026      989      962      942 
     929      929      938      955      984     1020     1059     1096 
    1131     1162     1185     1202     1217     1225     1225     1217 
    1200     1181     1152     1116     1078     1039     1003      970 
     950      936      927      920      922      928      945      969 
     997     1034     1078     1123     1171     1225     1277     1328 
    1383     1433     1478     1522     1567     1606     1645     1683 
    1722     1761     1795     1825     1856     1883     1903     1919 
    1930     1941     1944     1935     1917     1895     1867     1830 
    1791     1748     1696     1644     1588     1533     1480     1435 
    1393     1359     1339     1333     1339     1358     1386     1420 
    1467     1524     1579     1638     1698     1755     1804     1846 
    1878     1903     1921     1930     1934     1933     1930     1918 
    1902     1888     1872     1850     1830     1811     1794     1776 
    1757     1729     1696     1658     1618     1571     1526     1483 
    1437     1398     1368     1344     1327     1310     1296     1282 
    1273     1266     1262     1259     1264     1279     1296     1313 
    1339     1368     1399     1436     1479     1525     1575     1630 
    1686     1738     1792     1846     1898     1942     1984     2020 
    2053     2092     2123     2149     2173     2189     2201     2214 
    2222     2220     2208     2191     2172     2147     2124     2106 
    2092     2091     2092     2089     2095     2098     2097     2100 
    2107     2114     2120     2128     2130     2124     2107     2072 
    2022     1968     1906     1833     1753     1677     1605     1534 
    1466     1405     1350     1301     1260     1225     1197     1175 
    1156     1143     1131     1117     1104     1089     1080     1073 
    1067     1073     1088     1102     1125     1150     1170     1194 
    1223     1247     1275     1304     1321     1332     1336     1325 
    1301     1267     1224     1171     1115     1058     1003      940 
     877      816      756      697      645      599      561      533 
     519      518      525      535      553      575      588      603 
     626      657      692      728      766      807      842      877 
     913      943      969     1000     1030     1051     1071     1090 
    1102     1111     1117     1120     1119     1121     1125     1124 
    1125     1131     1132     1131     1127     1123     1117     1107 
    1098     1086     1071     1063     1058     1050     1047     1053 
    1055     1059     1067     1075     1086     1102     1119     1133 
    1151     1169     1190     1213     1230     1243     1246     1236 
    1217     1193     1162     1120     1078     1035      986      940 
     897      858      834      819      812      820      843      877 
     926      982     1039     1094     1146     1192     1235     1263 
    1281     1298     1302     1293     1275     1252     1227     1196 
    1158     1119     1078     1035      989      945      901      861 
     819      776      735      692      648      608      571      545 
     532      525      519      526      550      581      615      649 
     688      727      766      805      845      880      919      958 
     986     1011     1035     1055     1074     1094     1116     1140 
    1167     1201     1237     1274     1312     1352     1390     1418 
    1440     1460     1476     1483     1483     1476     1459     1433 
    1399     1356     1312     1263     1216     1181     1155     1144 
    1154     1174     1206     1251     1300     1352     1409     1471 
    1540     1611     1690     1775     1859     1942     2023     2095 
    2154     2205     2249     2278     2297     2312     2326     2336 
    2344     2347     2351     2355     2355     2347     2334     2322 
    2312     2305     2305     2313     2330     2357     2393     2436 
    2494     2565     2644     2739     2843     2955     3076     3208 
    3338     3461     3582     3707     3823     3931     4039     4143 
    4233     4320     4395     4456     4496     4514     4514     4496 
    4453     4387     4310     4214     4102     3991     3885     3755 
    3611     3484     3366     3242     3121     3007     2903     2814 
    2735     2675     2636     2614     2612     2628     2663     2705 
    2751     2803     2853     2896     2934     2956     2964     2965 
    2959     2943     2911     2880     2853     2802     2747     2702 
    2654     2605     2546     2482     2421     2350     2269     2185 
    2093     1989     1880     1780     1682     1580     1486     1412 
    1350     1296     1255     1232     1223     1224     1227     1235 
    1250     1263     1275     1274     1262     1243     1202     1144 
    1081     1004      903      801      693      566      437      307 
     176       49      -74     -198     -319     -433     -540     -650 
    -754     -849     -949    -1050    -1140    -1228    -1310    -1385 
   -1445    -1482    -1495    -1499    -1478    -1424    -1354    -1270 
   -1171    -1065     -958     -849     -749     -650     -552     -464 
    -391     -329     -283     -252     -232     -216     -211     -225 
    -243     -252     -259     -268     -275     -271     -252     -220 
    -186     -147      -98      -51        0       43       71       99 
     131      153      167      183      198      207      217      225 
     238      255      274      297      319      336      349      356 
     351      338      322      302      276      249      222      193 
     167      147      126       99       72       43       11      -18 
     -44      -62      -71      -71      -63      -47      -13       31 
      79      141      218      303      402      511      623      734 
     838      945     1042     1123     1193     1260     1317     1350 
    1364     1371     1360     1333     1294     1240     1174     1101 
    1009      901      789      672      548      425      314      207 
     112       31      -41     -105     -156     -197     -225     -238 
    -238     -224     -190     -135      -71       -5       78      170 
     259      348      434      513      592      661      712      761 
     804      827      837      843      842      831      818      799 
     780      760      738      726      719      715      730      756 
     796      854      924     1009     1112     1224     1341     1464 
    1593     1719     1837     1949     2061     2158     2243     2319 
    2382     2435     2482     2527     2563     2593     2621     2646 
    2666     2690     2712     2727     2740     2752     2764     2783 
    2813     2848     2893     2956     3028     3105     3196     3298 
    3403     3508     3615     3721     3824     3919     4010     4094 
    4174     4245     4309     4359     4401     4431     4448     4453 
    4444     4415     4379     4337     4286     4228     4168     4097 
    4017     3927     3828     3721     3607     3483     3354     3221 
    3079     2928     2775     2619     2455     2295     2144     1998 
    1861     1742     1640     1561     1502     1462     1448     1449 
    1462     1490     1528     1578     1634     1694     1759     1826 
    1898     1973     2047     2124     2204     2281     2359     2442 
    2523     2600     2678     2748     2811     2863     2893     2905 
    2895     2857     2798     2721     2629     2519     2393     2259 
    2126     1998     1878     1771     1677     1606     1557     1526 
    1509     1516     1544     1590     1647     1711     1776     1837 
    1888     1923     1941     1942     1927     1894     1841     1775 
    1699     1610     1514     1414     1308     1204     1105     1012 
     924      846      780      730      689      656      631      614 
     596      579      568      568      579      603      641      687 
     747      820      899      986     1084     1185     1294     1414 
    1543     1676     1815     1960     2115     2273     2432     2596 
    2762     2917     3060     3194     3312     3407     3483     3541 
    3578     3597     3600     3592     3574     3546     3508     3465 
    3419     3373     3325     3268     3207     3145     3079     3005 
    2926     2844     2759     2682     2609     2536     2465     2393 
    2319     2249     2176     2111     2052     1998     1961     1939 
    1927     1934     1952     1969     1995     2022     2045     2065 
    2077     2079     2073     2057     2022     1969     1903     1829 
    1746     1657     1574     1493     1422     1370     1332     1304 
    1281     1275     1282     1286     1290     1306     1323     1329 
    1329     1332     1331     1321     1304     1285     1269     1252 
    1235     1216     1194     1175     1156     1135     1112     1086 
    1055     1016      972      920      857      780      688      584 
     464      332      187       35     -125     -292     -457     -621 
    -777     -923    -1059    -1177    -1271    -1344    -1393    -1412 
   -1402    -1371    -1318    -1251    -1178    -1101    -1019     -935 
    -850     -766     -692     -627     -579     -548     -533     -540 
    -561     -594     -633     -673     -715     -746     -760     -765 
    -762     -741     -711     -669     -618     -561     -499     -429 
    -357     -283     -207     -137      -70       -5       49      102 
     149      186      217      244      263      287      317      346 
     382      421      464      515      573      641      712      785 
     870      966     1060     1158     1266     1385     1512     1644 
    1792     1949     2107     2267     2421     2571     2720     2859 
    2986     3111     3238     3355     3462     3565     3663     3755 
    3838     3901     3959     4006     4028     4028     4010     3971 
    3915     3846     3769     3689     3611     3535     3466     3410 
    3366     3334     3314     3306     3310     3327     3353     3387 
    3430     3480     3534     3592     3650     3704     3762     3816 
    3855     3890     3921     3940     3951     3954     3946     3932 
    3909     3870     3828     3778     3711     3636     3554     3459 
    3360     3258     3157     3057     2964     2880     2806     2740 
    2691     2656     2629     2613     2598     2584     2577     2565 
    2546     2527     2508     2484     2457     2430     2405     2377 
    2349     2330     2319     2319     2332     2361     2401     2454 
    2515     2581     2654     2724     2794     2867     2933     2995 
    3055     3114     3168     3207     3237     3256     3260     3253 
    3240     3217     3188     3154     3115     3082     3051     3014 
    2979     2948     2915     2882     2844     2801     2748     2675 
    2586     2485     2370     2238     2095     1942     1776     1603 
    1429     1259     1093      931      784      656      545      450 
     372      309      256      214      184      167      157      164 
     183      211      251      298      349      411      477      540 
     610      685      761      837      918     1000     1084     1165 
    1240     1314     1383     1441     1493     1543     1584     1622 
    1653     1684     1713     1736     1753     1771     1798     1825 
    1852     1883     1921     1968     2029     2098     2174     2262 
    2362     2466     2567     2673     2778     2875     2965     3056 
    3137     3206     3264     3307     3338     3360     3369     3369 
    3368     3372     3373     3369     3369     3368     3366     3366 
    3372     3373     3369     3372     3381     3392     3414     3443 
    3480     3526     3576     3631     3690     3751     3807     3851 
    3886     3913     3928     3924     3902     3867     3811     3734 
    3646     3551     3456     3357     3262     3176     3102     3041 
    2997     2967     2959     2960     2970     2986     3010     3038 
    3071     3105     3132     3161     3191     3211     3223     3234 
    3238     3237     3225     3206     3183     3152     3114     3073 
    3026     2972     2915     2857     2798     2737     2674     2616 
    2570     2535     2496     2457     2432     2411     2377     2347 
    2327     2301     2270     2245     2231     2222     2208     2200 
    2215     2236     2251     2280     2319     2359     2403     2447 
    2489     2525     2555     2583     2605     2608     2600     2587 
    2569     2539     2498     2447     2398     2349     2296     2235 
    2168     2101     2027     1946     1864     1784     1703     1629 
    1564     1507     1459     1421     1395     1372     1352     1341 
    1332     1316     1300     1285     1266     1248     1242     1237 
    1233     1237     1247     1256     1264     1270     1273     1269 
    1263     1252     1233     1213     1190     1161     1121     1080 
    1032      977      918      864      820      780      743      714 
     685      648      604      550      490      418      334      245 
     152       55      -45     -156     -274     -399     -537     -687 
    -846    -1017    -1193    -1375    -1575    -1780    -1993    -2226 
   -2471    -2721    -2974    -3217    -3445    -3658    -3844    -3998 
   -4122    -4214    -4271    -4298    -4297    -4279    -4248    -4202 
   -4140    -4074    -4010    -3935    -3848    -3757    -3661    -3554 
   -3447    -3341    -3223    -3106    -2997    -2889    -2778    -2655 
   -2524    -2390    -2251    -2104    -1952    -1795    -1641    -1487 
   -1328    -1170    -1012     -846     -677     -506     -329     -144 
      17      163      329      504      654      781      907     1047 
    1182     1294     1405     1520     1621     1714     1810     1908 
    2001     2102     2209     2319     2440     2563     2690     2828 
    2972     3119     3275     3433     3593     3751     3901     4047 
    4180     4299     4406     4502     4585     4650     4700     4733 
    4748     4758     4750     4727     4696     4653     4596     4540 
    4473     4398     4322     4248     4178     4110     4044     3991 
    3954     3923     3898     3898     3917     3951     4003     4085 
    4191     4314     4450     4598     4753     4909     5059     5198 
    5319     5422     5508     5564     5595     5607     5593     5552 
    5495     5412     5302     5184     5060     4926     4781     4638 
    4504     4371     4230     4090     3951     3812     3672     3526 
    3372     3221     3073     2921     2774     2632     2486     2343 
    2209     2081     1962     1854     1755     1665     1583     1506 
    1439     1378     1317     1259     1197     1138     1084     1024 
     959      899      837      776      723      670      614      560 
     503      444      390      341      297      259      225      195 
     170      148      131      116      105      101      101      102 
     108      114      122      129      135      139      141      137 
     129      121      112      103       91       79       72       67 
      64       67       70       68       65       65       65       60 
      54       40       25        5      -23      -60      -93     -124 
    -155     -178     -201     -217     -225     -236     -255     -268 
    -278     -294     -318     -342     -367     -398     -433     -467 
    -499     -530     -553     -569     -579     -572     -557     -538 
    -510     -472     -434     -399     -370     -344     -324     -311 
    -309     -311     -321     -336     -357     -380     -407     -434 
    -460     -477     -490     -496     -492     -483     -471     -454 
    -440     -421     -396     -372     -346     -321     -294     -256 
    -218     -182     -136      -90      -40       16       68      128 
     187      237      286      319      340      351      346      333 
     314      288      259      225      187      155      121       87 
      60       37       21       21       31       43       63       86 
     106      125      141      148      149      148      141      124 
      97       71       45       23        9        1        5       23 
      54       97      144      194      251      309      361      406 
     444      476      500      514      515      511      498      480 
     461      438      411      388      367      341      314      284 
     253      216      172      121       62       -5      -74     -148 
    -225     -299     -373     -450     -521     -583     -638     -684 
    -718     -738     -743     -735     -711     -668     -611     -540 
    -463     -370     -272     -176      -81       25      135      245 
     355      469      584      689      787      876      955     1026 
    1086     1132     1173     1198     1215     1233     1244     1246 
    1248     1256     1264     1275     1297     1324     1356     1395 
    1441     1491     1548     1601     1653     1709     1760     1809 
    1852     1887     1918     1944     1960     1966     1971     1975 
    1977     1980     1989     2003     2022     2047     2079     2110 
    2142     2177     2209     2235     2255     2270     2272     2258 
    2232     2196     2153     2097     2037     1972     1906     1845 
    1788     1741     1702     1661     1626     1599     1576     1559 
    1540     1518     1499     1476     1451     1424     1389     1348 
    1312     1270     1227     1189     1159     1135     1117     1112 
    1116     1124     1142     1165     1185     1205     1229     1250 
    1267     1282     1298     1316     1336     1352     1364     1382 
    1402     1421     1437     1460     1491     1530     1572     1621 
    1677     1733     1786     1840     1896     1952     2001     2046 
    2088     2121     2142     2157     2170     2173     2169     2166 
    2165     2166     2172     2182     2204     2228     2251     2281 
    2312     2336     2355     2374     2385     2386     2380     2370 
    2355     2334     2307     2285     2269     2250     2235     2227 
    2219     2212     2205     2195     2180     2160     2135     2106 
    2073     2037     2001     1958     1917     1878     1837     1796 
    1767     1733     1694     1661     1628     1588     1549     1501 
    1447     1393     1334     1274     1215     1156     1100     1044 
     993      943      890      835      780      722      665      604 
     535      464      391      309      225      144       60      -20 
     -98     -170     -229     -275     -313     -342     -360     -363 
    -363     -359     -352     -342     -329     -317     -310     -302 
    -292     -283     -274     -265     -257     -243     -228     -220 
    -214     -206     -195     -183     -172     -157     -140     -124 
    -109      -93      -76      -63      -52      -36      -16       -1 
      20       49       79      103      129      159      187      212 
     233      253      263      270      282      292      298      306 
     321      341      373      417      464      522      592      670 
     758      847      938     1038     1135     1228     1324     1410 
