Origin Time       2016/04/16 01:25:00
Lat.              32.753
Long.             130.762
Depth. (km)       12
Mag.              7.3
Station Code      HYG006
Station Lat.      35.3326
Station Long.     134.6652
Station Height(m) 150
Record Time       2016/04/16 01:27:20
Sampling Freq(Hz) 100Hz
Duration Time(s)  60
Dir.              E-W
Scale Factor      7845(gal)/8223790
Max. Acc. (gal)   1.278
Last Correction   2016/04/16 01:27:21
Memo.             
[...]
    5823     5814     5800     5784     5765     5745     5729     5717 
    5702     5686     5675     5664     5652     5647     5647     5647 
    5647     5649     5652     5656     5665     5674     5679     5684 
    5694     5706     5717     5719     5722     5727     5734     5742 
    5752     5759     5759     5756     5756     5756     5755     5755 
    5751     5746     5741     5734     5726     5718     5710     5703 
    5697     5694     5699     5705     5706     5706     5705     5705 
    5703     5703     5706     5709     5710     5715     5725     5736 
    5744     5752     5760     5772     5784     5793     5800     5809 
    5817     5818     5823     5833     5840     5848     5860     5873 
    5888     5902     5911     5918     5921     5922     5921     5915 
    5910     5900     5890     5881     5872     5864     5854     5845 
    5844     5840     5833     5829     5827     5826     5826     5827 
    5829     5833     5837     5844     5852     5857     5861     5864 
    5868     5867     5864     5859     5857     5857     5856     5854 
    5853     5853     5856     5854     5852     5849     5842     5837 
    5829     5818     5809     5798     5788     5784     5780     5779 
    5780     5784     5788     5796     5805     5810     5813     5818 
    5822     5827     5833     5840     5846     5850     5853     5859 
    5867     5873     5879     5886     5896     5908     5918     5933 
    5954     5975     5994     6006     6014     6023     6033     6039 
    6048     6054     6062     6070     6079     6088     6096     6104 
    6108     6112     6115     6115     6115     6114     6110     6104 
    6097     6091     6084     6077     6068     6060     6053     6048 
    6041     6039     6038     6034     6029     6025     6019     6016 
    6010     6003     6002     6004     6006     6006     6008     6012 
    6016     6018     6018     6015     6008     6000     5988     5977 
    5971     5965     5960     5954     5949     5942     5938     5937 
    5937     5933     5931     5934     5940     5942     5949     5958 
    5967     5973     5984     5996     6006     6012     6018     6021 
    6026     6031     6035     6038     6039     6038     6038     6037 
    6034     6034     6031     6025     6014     6004     5996     5985 
    5972     5958     5944     5930     5914     5896     5883     5871 
    5860     5856     5857     5860     5861     5869     5881     5890 
    5898     5906     5908     5907     5908     5908     5913     5918 
    5922     5927     5934     5940     5944     5949     5958     5971 
    5983     5996     6011     6026     6042     6060     6077     6092 
    6108     6126     6138     6148     6162     6176     6188     6199 
    6210     6219     6226     6224     6226     6227     6223     6212 
    6200     6189     6180     6172     6160     6148     6141     6133 
    6123     6115     6110     6100     6084     6066     6050     6035 
    6018     6003     5992     5983     5979     5977     5977     5983 
    5984     5984     5985     5985     5984     5984     5980     5976 
    5973     5968     5962     5958     5954     5950     5946     5942 
    5937     5931     5925     5914     5906     5902     5898     5891 
    5883     5873     5864     5859     5852     5850     5846     5842 
    5844     5845     5852     5863     5871     5883     5895     5902 
    5908     5915     5919     5923     5926     5927     5926     5923 
    5918     5908     5902     5904     5902     5900     5902     5902 
    5902     5902     5904     5900     5895     5886     5875     5868 
    5864     5857     5856     5857     5856     5856     5860     5869 
    5876     5883     5892     5902     5910     5919     5926     5931 
    5940     5946     5948     5949     5954     5957     5957     5960 
    5961     5962     5960     5956     5950     5942     5935     5926 
    5917     5907     5900     5898     5896     5895     5896     5902 
    5910     5918     5927     5940     5956     5971     5984     5996 
    6006     6015     6022     6026     6025     6026     6030     6029 
    6025     6022     6015     6006     5999     5989     5980     5971 
    5957     5944     5933     5919     5907     5895     5888     5880 
    5869     5860     5852     5848     5846     5842     5837     5833 
    5833     5833     5831     5831     5836     5841     5845     5852 
    5861     5871     5881     5892     5906     5921     5937     5948 
    5957     5967     5968     5965     5962     5960     5954     5944 
    5934     5926     5917     5902     5887     5869     5854     5838 
    5823     5811     5805     5798     5798     5798     5805     5810 
    5821     5836     5852     5869     5888     5908     5927     5945 
    5962     5975     5984     5994     5999     6003     6010     6014 
    6015     6015     6012     6010     6006     6002     5992     5981 
    5972     5962     5954     5949     5946     5940     5937     5940 
    5946     5953     5961     5972     5984     5991     6000     6011 
    6022     6030     6038     6049     6060     6072     6084     6099 
    6114     6127     6141     6150     6157     6160     6157     6151 
    6139     6119     6097     6076     6050     6018     5987     5960 
    5933     5902     5873     5845     5817     5786     5755     5722 
    5694     5668     5638     5613     5593     5576     5563     5551 
    5541     5540     5536     5529     5521     5510     5501     5491 
    5481     5478     5476     5468     5464     5466     5466     5467 
    5472     5481     5493     5506     5521     5540     5563     5585 
    5607     5629     5651     5671     5686     5699     5710     5719 
    5725     5733     5742     5745     5745     5748     5752     5760 
    5768     5776     5783     5788     5790     5788     5790     5793 
    5792     5792     5795     5798     5798     5800     5803     5805 
    5810     5815     5814     5814     5815     5813     5803     5792 
    5783     5769     5756     5744     5732     5724     5719     5718 
    5718     5721     5725     5727     5727     5724     5721     5717 
    5710     5699     5691     5687     5683     5676     5671     5670 
    5670     5674     5680     5692     5706     5725     5745     5768 
    5791     5814     5836     5859     5884     5908     5929     5949 
    5968     5983     5991     5998     6003     6004     6006     6004 
    6004     6004     5998     5988     5977     5964     5950     5938 
    5925     5914     5906     5896     5891     5890     5883     5876 
    5873     5871     5868     5864     5864     5868     5873     5883 
    5894     5904     5915     5927     5940     5954     5968     5980 
    5991     5999     6006     6019     6033     6043     6057     6069 
    6080     6092     6106     6119     6134     6153     6174     6192 
    6205     6214     6224     6237     6241     6245     6255     6261 
    6261     6259     6255     6254     6257     6255     6252     6254 
    6255     6250     6241     6231     6223     6214     6205     6195 
    6188     6183     6176     6165     6156     6145     6131     6118 
    6108     6102     6096     6093     6095     6095     6092     6091 
    6089     6089     6091     6091     6087     6083     6079     6075 
    6072     6073     6072     6068     6065     6060     6052     6042 
    6033     6025     6021     6016     6010     6002     5992     5984 
    5976     5967     5958     5953     5948     5940     5930     5926 
    5926     5919     5915     5914     5910     5906     5902     5899 
    5899     5894     5888     5886     5883     5881     5881     5883 
    5880     5876     5869     5860     5852     5845     5833     5822 
    5817     5811     5805     5798     5795     5790     5784     5779 
    5776     5775     5773     5772     5776     5786     5791     5795 
    5803     5814     5825     5831     5838     5849     5860     5868 
    5875     5886     5899     5910     5919     5931     5948     5968 
    5988     6003     6012     6023     6031     6037     6048     6062 
    6072     6075     6076     6080     6084     6080     6080     6079 
    6073     6072     6075     6075     6076     6079     6079     6079 
    6080     6085     6095     6106     6119     6134     6151     6164 
    6177     6197     6218     6235     6252     6273     6296     6322 
    6349     6374     6404     6440     6478     6516     6562     6613 
    6662     6704     6741     6781     6818     6851     6878     6906 
    6937     6967     6994     7014     7037     7064     7082     7092 
    7103     7109     7106     7102     7102     7101     7096     7091 
    7082     7072     7063     7049     7032     7014     6995     6971 
    6944     6921     6898     6872     6844     6812     6782     6754 
    6718     6682     6650     6615     6573     6538     6505     6469 
    6432     6397     6359     6326     6296     6266     6235     6204 
    6174     6148     6129     6110     6099     6085     6068     6054 
    6046     6039     6031     6026     6018     6010     6004     5998 
    5992     5987     5976     5961     5946     5930     5911     5890 
    5869     5854     5842     5829     5817     5807     5796     5787 
    5778     5767     5755     5741     5722     5698     5671     5644 
    5616     5585     5552     5517     5481     5448     5418     5395 
    5373     5343     5316     5293     5262     5229     5198     5166 
    5131     5096     5063     5031     4999     4968     4946     4928 
    4909     4895     4885     4878     4876     4877     4877     4877 
    4880     4887     4889     4896     4914     4930     4936     4945 
    4954     4961     4966     4969     4973     4976     4973     4969 
    4969     4968     4959     4949     4936     4923     4914     4901 
    4892     4884     4880     4882     4889     4899     4912     4927 
    4945     4970     5001     5031     5059     5089     5117     5139 
    5158     5178     5192     5202     5215     5225     5238     5252 
    5259     5267     5282     5298     5310     5324     5341     5356 
    5373     5389     5400     5416     5439     5458     5475     5493 
    5506     5521     5537     5555     5570     5585     5605     5617 
    5623     5637     5655     5670     5680     5691     5703     5714 
    5721     5729     5742     5752     5753     5760     5779     5796 
    5806     5822     5846     5867     5884     5902     5923     5944 
    5957     5968     5981     6000     6016     6027     6042     6060 
    6072     6081     6092     6102     6110     6114     6118     6123 
    6127     6129     6130     6131     6135     6138     6138     6138 
    6139     6143     6154     6170     6186     6204     6219     6231 
    6242     6257     6272     6282     6288     6292     6292     6285 
    6282     6278     6266     6255     6247     6231     6214     6203 
    6186     6169     6156     6142     6126     6110     6096     6081 
    6073     6070     6068     6066     6070     6076     6083     6093 
    6103     6104     6104     6104     6103     6102     6099     6099 
    6095     6088     6077     6065     6053     6039     6030     6022 
    6014     6006     6003     6000     5996     5996     5994     5985 
    5980     5977     5973     5975     5980     5985     5991     5995 
    5995     5995     5994     5992     5991     5988     5985     5985 
    5979     5971     5967     5967     5964     5957     5956     5960 
    5957     5956     5960     5964     5968     5973     5971     5961 
    5954     5942     5927     5919     5908     5890     5875     5864 
    5854     5838     5818     5802     5787     5771     5757     5744 
    5730     5717     5701     5680     5663     5649     5633     5617 
    5598     5575     5552     5535     5521     5509     5498     5485 
    5466     5445     5428     5410     5391     5377     5368     5354 
    5339     5331     5324     5323     5324     5323     5321     5324 
    5327     5333     5343     5352     5360     5373     5385     5391 
    5393     5398     5404     5404     5398     5394     5400     5408 
    5413     5420     5431     5443     5455     5460     5467     5472 
    5476     5479     5483     5487     5493     5495     5498     5498 
    5497     5494     5491     5483     5478     5472     5464     5462 
    5463     5462     5460     5463     5467     5474     5481     5494 
    5517     5543     5567     5594     5623     5652     5682     5711 
    5741     5768     5793     5818     5840     5859     5875     5884 
    5894     5910     5923     5934     5950     5968     5988     6006 
    6019     6029     6035     6043     6052     6054     6052     6043 
    6030     6011     5988     5964     5938     5910     5880     5852 
    5825     5800     5780     5764     5751     5737     5724     5713 
    5709     5706     5703     5701     5697     5692     5689     5684 
    5679     5679     5675     5670     5670     5674     5674     5675 
    5683     5688     5691     5697     5705     5711     5717     5722 
    5725     5725     5724     5724     5725     5725     5727     5724 
    5721     5719     5713     5699     5687     5670     5649     5622 
    5594     5564     5535     5501     5466     5436     5406     5371 
    5331     5292     5250     5201     5150     5100     5046     4989 
    4931     4876     4822     4773     4729     4689     4653     4622 
    4594     4575     4563     4548     4534     4531     4533     4538 
    4548     4558     4568     4583     4606     4630     4656     4687 
    4720     4750     4779     4808     4838     4869     4897     4923 
    4949     4974     5003     5030     5050     5070     5093     5116 
    5138     5154     5169     5190     5206     5217     5233     5254 
    5273     5292     5312     5329     5343     5362     5381     5391 
    5402     5421     5439     5454     5472     5501     5525     5547 
    5575     5610     5638     5659     5678     5698     5711     5719 
    5734     5759     5771     5773     5784     5796     5800     5802 
    5798     5792     5786     5776     5763     5746     5732     5715 
    5697     5675     5653     5634     5617     5595     5571     5552 
    5532     5506     5479     5454     5424     5397     5375     5356 
    5339     5325     5309     5297     5289     5287     5287     5281 
    5277     5277     5273     5267     5266     5260     5254     5248 
    5240     5232     5229     5229     5233     5242     5252     5268 
    5286     5304     5313     5323     5328     5325     5320     5319 
    5319     5320     5321     5325     5333     5339     5343     5350 
    5358     5364     5368     5373     5377     5383     5387     5391 
    5398     5405     5414     5427     5443     5463     5485     5506 
    5526     5551     5576     5598     5616     5636     5655     5668 
    5683     5694     5702     5710     5717     5722     5725     5727 
    5727     5725     5724     5722     5717     5711     5710     5705 
    5694     5691     5687     5682     5678     5674     5670     5665 
    5663     5665     5672     5679     5691     5711     5732     5749 
    5768     5790     5810     5829     5853     5880     5907     5933 
    5956     5975     5989     5999     6014     6026     6031     6037 
    6039     6033     6022     6011     5995     5979     5960     5940 
    5919     5894     5867     5841     5818     5793     5767     5740 
    5718     5701     5684     5674     5668     5667     5665     5667 
    5670     5676     5683     5689     5701     5714     5724     5730 
    5738     5749     5763     5775     5786     5798     5810     5819 
    5830     5845     5856     5868     5880     5888     5898     5908 
    5915     5925     5937     5942     5946     5953     5962     5967 
    5968     5973     5977     5975     5972     5975     5976     5975 
    5973     5962     5950     5944     5931     5918     5908     5899 
    5886     5873     5856     5834     5807     5779     5751     5719 
    5688     5660     5628     5598     5576     5552     5528     5508 
    5487     5462     5437     5414     5390     5366     5348     5335 
    5325     5319     5316     5313     5313     5313     5319     5325 
    5333     5341     5351     5362     5377     5394     5408     5421 
    5436     5452     5467     5479     5494     5513     5530     5549 
    5570     5590     5613     5636     5659     5683     5706     5726 
    5748     5771     5791     5810     5829     5850     5872     5894 
    5913     5931     5953     5968     5976     5983     5992     5994 
    5992     5995     5999     6000     5998     5995     5995     6000 
    6006     6012     6015     6016     6011     6002     5996     5988 
    5973     5958     5950     5940     5929     5923     5923     5921 
    5919     5919     5922     5926     5927     5929     5933     5937 
    5942     5950     5958     5968     5979     5992     6011     6030 
    6053     6077     6100     6127     6156     6185     6218     6246 
    6272     6299     6320     6339     6356     6367     6381     6399 
    6415     6427     6446     6460     6467     6471     6474     6474 
    6473     6474     6474     6467     6460     6458     6451     6443 
    6435     6424     6412     6397     6381     6372     6361     6351 
    6343     6336     6330     6326     6323     6327     6331     6332 
    6335     6342     6349     6355     6370     6386     6405     6427 
    6447     6467     6490     6512     6531     6552     6577     6601 
    6620     6635     6652     6666     6673     6683     6700     6713 
    6727     6739     6750     6762     6781     6798     6812     6826 
    6841     6855     6867     6883     6899     6913     6928     6947 
    6963     6976     6993     7006     7018     7033     7048     7061 
    7074     7091     7111     7130     7142     7150     7156     7157 
    7156     7152     7146     7141     7134     7129     7125     7121 
    7118     7113     7101     7088     7080     7069     7055     7037 
    7021     7003     6984     6967     6948     6925     6902     6879 
    6858     6843     6829     6812     6797     6787     6777     6766 
    6756     6754     6754     6754     6759     6767     6777     6785 
    6791     6799     6809     6814     6817     6820     6814     6801 
    6789     6777     6764     6750     6735     6728     6724     6720 
    6718     6720     6720     6717     6717     6721     6728     6731 
    6733     6735     6735     6729     6724     6721     6716     6709 
    6700     6689     6679     6663     6644     6629     6610     6586 
    6562     6543     6524     6505     6488     6471     6462     6457 
    6454     6453     6450     6451     6460     6470     6477     6492 
    6511     6527     6546     6563     6579     6597     6613     6624 
    6632     6640     6646     6648     6651     6652     6646     6635 
    6629     6620     6604     6586     6573     6558     6543     6534 
    6525     6519     6516     6516     6513     6516     6521     6527 
    6536     6544     6548     6550     6551     6550     6552     6555 
    6556     6554     6551     6550     6551     6555     6563     6569 
    6569     6569     6567     6563     6554     6540     6531     6520 
