Origin Time       2016/04/16 01:25:00
Lat.              32.753
Long.             130.762
Depth. (km)       12
Mag.              7.3
Station Code      HYG025
Station Lat.      34.3405
Station Long.     134.9014
Station Height(m) 10
Record Time       2016/04/16 01:27:09
Sampling Freq(Hz) 100Hz
Duration Time(s)  63
Dir.              E-W
Scale Factor      7845(gal)/8223790
Max. Acc. (gal)   1.687
Last Correction   2016/04/16 01:27:10
Memo.             
[...]
    -430     -414     -403     -392     -386     -386     -387     -391 
    -399     -410     -421     -430     -438     -440     -434     -425 
    -409     -390     -376     -364     -356     -357     -364     -370 
    -376     -386     -390     -386     -380     -372     -359     -348 
    -338     -330     -333     -349     -375     -403     -440     -480 
    -518     -546     -566     -583     -592     -588     -573     -557 
    -538     -521     -506     -496     -493     -492     -493     -499 
    -506     -510     -515     -523     -529     -532     -538     -542 
    -548     -558     -575     -589     -600     -608     -612     -611 
    -603     -596     -591     -584     -587     -596     -606     -615 
    -627     -635     -639     -642     -639     -631     -626     -612 
    -589     -560     -526     -492     -464     -448     -437     -437 
    -448     -457     -467     -476     -476     -472     -469     -464 
    -453     -444     -441     -441     -450     -468     -486     -500 
    -513     -521     -523     -521     -514     -510     -504     -496 
    -487     -477     -469     -464     -460     -459     -464     -476 
    -486     -498     -504     -508     -518     -523     -523     -529 
    -540     -552     -564     -577     -592     -611     -629     -641 
    -649     -654     -652     -641     -630     -621     -610     -603 
    -603     -602     -599     -606     -618     -631     -648     -668 
    -684     -697     -708     -711     -707     -699     -688     -675 
    -661     -646     -633     -622     -615     -610     -608     -608 
    -612     -618     -622     -626     -627     -626     -623     -611 
    -595     -575     -548     -522     -498     -472     -449     -429 
    -409     -392     -386     -380     -379     -382     -387     -391 
    -388     -382     -373     -360     -344     -333     -321     -310 
    -305     -303     -306     -315     -329     -348     -368     -387 
    -406     -419     -427     -434     -433     -425     -413     -396 
    -382     -364     -349     -340     -334     -333     -338     -349 
    -364     -378     -388     -396     -402     -402     -400     -400 
    -398     -395     -395     -399     -405     -418     -441     -468 
    -495     -523     -549     -566     -575     -579     -577     -569 
    -556     -540     -522     -506     -496     -488     -487     -491 
    -496     -500     -504     -508     -513     -511     -506     -498 
    -491     -491     -498     -506     -522     -537     -550     -558 
    -564     -565     -557     -544     -530     -518     -506     -496 
    -495     -500     -510     -525     -540     -550     -557     -556 
    -548     -535     -526     -521     -511     -500     -493     -490 
    -484     -477     -473     -469     -471     -476     -486     -498 
    -513     -526     -540     -552     -562     -575     -587     -600 
    -610     -614     -615     -616     -616     -618     -621     -623 
    -629     -630     -625     -616     -607     -594     -579     -569 
    -562     -557     -560     -564     -568     -571     -571     -562 
    -544     -522     -498     -471     -446     -427     -411     -400 
    -394     -388     -386     -386     -386     -390     -395     -399 
    -399     -396     -390     -378     -363     -344     -326     -313 
    -302     -297     -301     -307     -315     -318     -318     -321 
    -322     -322     -328     -337     -344     -355     -368     -380 
    -391     -400     -411     -422     -434     -448     -464     -484 
    -499     -514     -526     -530     -526     -521     -511     -499 
    -492     -492     -495     -499     -506     -513     -514     -513 
    -508     -503     -498     -495     -492     -484     -477     -468 
    -456     -445     -440     -442     -448     -454     -463     -468 
    -467     -459     -444     -423     -403     -386     -370     -361 
    -359     -363     -370     -378     -383     -386     -383     -373 
    -361     -348     -329     -310     -298     -287     -275     -265 
    -259     -259     -270     -288     -307     -328     -346     -363 
    -372     -370     -368     -360     -349     -338     -330     -325 
    -319     -318     -319     -325     -336     -349     -361     -376 
    -394     -406     -414     -421     -425     -433     -436     -436 
    -444     -450     -454     -463     -469     -479     -490     -495 
    -498     -502     -502     -498     -495     -493     -493     -498 
    -503     -506     -514     -518     -513     -504     -490     -467 
    -442     -417     -395     -383     -382     -390     -413     -446 
    -481     -518     -553     -579     -595     -602     -602     -595 
    -585     -579     -579     -584     -592     -603     -616     -627 
    -631     -635     -637     -633     -630     -627     -621     -610 
    -595     -573     -552     -530     -510     -504     -511     -523 
    -540     -562     -587     -608     -627     -643     -660     -673 
    -683     -689     -695     -695     -689     -679     -665     -650 
    -630     -608     -587     -564     -542     -526     -513     -503 
    -499     -495     -492     -487     -479     -467     -453     -438 
    -422     -406     -391     -379     -369     -364     -370     -383 
    -409     -437     -464     -493     -514     -523     -526     -523 
    -514     -502     -491     -483     -473     -460     -454     -459 
    -464     -472     -480     -488     -493     -498     -500     -496 
    -484     -468     -453     -441     -427     -419     -419     -425 
    -436     -449     -467     -484     -496     -500     -495     -487 
    -472     -453     -437     -423     -409     -395     -383     -373 
    -361     -349     -340     -333     -330     -330     -334     -344 
    -361     -376     -383     -383     -383     -383     -379     -375 
    -370     -364     -355     -349     -342     -332     -324     -314 
    -301     -282     -259     -237     -216     -195     -180     -175 
    -176     -180     -186     -197     -210     -220     -228     -236 
    -237     -230     -220     -199     -175     -151     -128     -106 
     -95      -91      -86      -83      -86      -86      -78      -67 
     -52      -32      -20       -5        2       -2      -18      -41 
     -72     -110     -148     -190     -232     -268     -303     -336 
    -360     -378     -391     -398     -399     -398     -396     -400 
    -409     -425     -449     -476     -502     -530     -552     -564 
    -571     -576     -579     -581     -583     -579     -577     -577 
    -577     -584     -599     -616     -639     -660     -675     -692 
    -707     -714     -711     -700     -679     -649     -616     -581 
    -550     -529     -515     -508     -506     -508     -506     -502 
    -496     -487     -468     -450     -432     -410     -390     -365 
    -341     -315     -289     -261     -237     -218     -210     -206 
    -198     -191     -190     -183     -171     -157     -143     -122 
    -101      -78      -56      -32      -11        2       17       29 
      32       25        9      -13      -44      -85     -129     -175 
    -218     -259     -298     -328     -353     -378     -399     -418 
    -429     -436     -442     -444     -438     -430     -417     -400 
    -383     -373     -370     -373     -383     -400     -430     -464 
    -496     -526     -558     -579     -587     -592     -591     -581 
    -565     -546     -523     -502     -490     -484     -487     -499 
    -514     -532     -553     -577     -600     -618     -635     -656 
    -676     -695     -718     -738     -753     -766     -781     -793 
    -804     -819     -835     -850     -866     -877     -888     -897 
    -899     -893     -885     -877     -877     -882     -895     -909 
    -928     -949     -967     -984     -996    -1003    -1012    -1019 
   -1021    -1023    -1026    -1032    -1039    -1047    -1059    -1074 
   -1086    -1097    -1111    -1123    -1131    -1138    -1144    -1146 
   -1147    -1151    -1155    -1155    -1155    -1154    -1150    -1146 
   -1140    -1132    -1120    -1107    -1097    -1084    -1065    -1053 
   -1046    -1039    -1039    -1044    -1046    -1046    -1050    -1050 
   -1048    -1047    -1044    -1036    -1024    -1009     -990     -970 
    -945     -911     -873     -831     -781     -731     -676     -610 
    -540     -472     -402     -332     -266     -205     -149      -97 
     -49       -5       36       79      124      171      220      263 
     301      332      353      364      368      372      372      372 
     376      380      386      392      402      409      407      405 
     396      379      351      317      279      240      197      151 
     110       74       44       21        1      -17      -29      -35 
     -37      -36      -31      -21      -13       -5       -2       -5 
     -17      -29      -47      -74      -99     -129     -164     -199 
    -238     -276     -313     -351     -383     -415     -445     -473 
    -498     -514     -519     -518     -514     -503     -490     -475 
    -461     -449     -438     -423     -405     -376     -337     -291 
    -243     -190     -140      -97      -68      -60      -68      -91 
    -129     -178     -230     -279     -318     -344     -364     -378 
    -386     -391     -398     -406     -417     -432     -446     -457 
    -464     -464     -459     -445     -427     -403     -379     -360 
    -348     -344     -356     -379     -411     -450     -495     -538 
    -576     -610     -638     -660     -679     -696     -714     -734 
    -754     -781     -810     -837     -859     -877     -884     -877 
    -854     -818     -766     -710     -650     -595     -549     -519 
    -504     -503     -519     -553     -594     -638     -688     -735 
    -774     -800     -816     -820     -804     -777     -745     -706 
    -666     -631     -600     -571     -545     -526     -508     -492 
    -484     -473     -467     -473     -486     -495     -513     -540 
    -568     -591     -615     -637     -652     -661     -661     -650 
    -635     -612     -579     -544     -506     -473     -440     -410 
    -388     -369     -353     -341     -330     -322     -319     -321 
    -319     -319     -321     -318     -314     -313     -311     -314 
    -318     -329     -341     -351     -360     -375     -388     -399 
    -409     -418     -422     -418     -407     -388     -361     -329 
    -299     -278     -263     -261     -278     -301     -332     -365 
    -399     -437     -469     -492     -510     -519     -522     -523 
    -526     -530     -540     -557     -572     -592     -616     -638 
    -661     -680     -691     -700     -702     -700     -695     -685 
    -677     -673     -673     -680     -693     -711     -731     -754 
    -774     -791     -807     -819     -824     -834     -849     -869 
    -900     -940     -993    -1051    -1109    -1171    -1227    -1271 
   -1308    -1340    -1363    -1381    -1394    -1405    -1418    -1445 
   -1478    -1509    -1549    -1586    -1606    -1615    -1609    -1575 
   -1522    -1459    -1387    -1317    -1252    -1198    -1152    -1120 
   -1096    -1074    -1051    -1030    -1000     -959     -907     -849 
    -787     -715     -649     -588     -532     -488     -459     -444 
    -441     -444     -448     -449     -441     -422     -394     -355 
    -311     -272     -234     -206     -195     -193     -198     -209 
    -217     -225     -230     -228     -221     -206     -187     -166 
    -137     -110      -90      -76      -72      -78      -91     -116 
    -144     -178     -216     -251     -286     -321     -348     -365 
    -379     -379     -364     -346     -328     -305     -283     -261 
    -238     -218     -199     -182     -168     -159     -151     -147 
    -148     -152     -159     -174     -191     -212     -244     -279 
    -314     -353     -392     -427     -459     -476     -486     -486 
    -476     -461     -440     -417     -396     -379     -359     -338 
    -321     -302     -284     -276     -280     -295     -319     -355 
    -396     -429     -456     -473     -473     -457     -429     -383 
    -329     -270     -205     -143      -87      -40       -5       11 
      17       10       -2      -17      -29      -37      -43      -41 
     -28      -10        2       17       28       23       10       -9 
     -43      -83     -120     -153     -182     -198     -206     -203 
    -189     -166     -135      -97      -58      -14       23       55 
      81       95       99       95       82       65       51       36 
      25       22       25       28       36       49       62       79 
     101      128      156      180      202      222      233      237 
     243      245      246      245      241      236      229      221 
     207      187      162      133       97       52        8      -39 
     -89     -133     -176     -218     -249     -276     -295     -303 
    -311     -319     -325     -332     -349     -373     -400     -429 
    -459     -484     -508     -530     -546     -562     -577     -589 
    -600     -608     -615     -627     -648     -676     -715     -767 
    -823     -881     -943    -1000    -1051    -1100    -1150    -1198 
   -1248    -1298    -1351    -1409    -1474    -1540    -1611    -1688 
   -1761    -1826    -1892    -1956    -2015    -2066    -2111    -2153 
   -2187    -2214    -2235    -2247    -2251    -2245    -2230    -2205 
   -2173    -2138    -2100    -2060    -2025    -1992    -1961    -1934 
   -1912    -1895    -1876    -1856    -1826    -1790    -1746    -1703 
   -1655    -1606    -1566    -1526    -1489    -1457    -1431    -1405 
   -1382    -1371    -1360    -1344    -1328    -1308    -1278    -1233 
   -1178    -1115    -1050     -984     -916     -857     -808     -764 
    -723     -685     -652     -618     -581     -544     -504     -464 
    -429     -395     -359     -318     -280     -241     -199     -159 
    -114      -64      -13       39       93      144      195      241 
     279      306      325      338      351      363      373      388 
     406      417      425      432      430      421      406      382 
     355      326      291      251      214      178      141      108 
      74       32      -13      -58     -103     -148     -184     -216 
    -244     -261     -270     -276     -275     -263     -249     -228 
    -202     -175     -152     -135     -124     -122     -135     -157 
    -189     -232     -283     -338     -395     -449     -498     -533 
    -556     -565     -561     -548     -529     -508     -487     -464 
    -453     -449     -446     -450     -461     -475     -492     -510 
    -525     -540     -552     -556     -558     -561     -561     -560 
    -562     -572     -587     -608     -642     -692     -758     -832 
    -915    -1005    -1093    -1179    -1263    -1336    -1397    -1451 
   -1494    -1524    -1545    -1559    -1560    -1554    -1544    -1525 
   -1502    -1475    -1441    -1398    -1351    -1302    -1254    -1209 
   -1169    -1135    -1115    -1104    -1101    -1107    -1119    -1127 
   -1136    -1140    -1139    -1131    -1113    -1090    -1062    -1032 
    -997     -963     -936     -916     -903     -900     -901     -905 
    -913     -924     -932     -934     -939     -942     -943     -950 
    -961     -972     -982     -987     -987     -982     -973     -958 
    -940     -924     -909     -899     -895     -900     -908     -919 
    -932     -940     -936     -922     -896     -854     -803     -747 
    -684     -623     -569     -523     -487     -464     -459     -463 
    -476     -499     -519     -542     -561     -568     -568     -558 
    -540     -514     -484     -453     -423     -396     -370     -349 
    -336     -326     -326     -337     -357     -386     -418     -453 
    -492     -531     -568     -603     -634     -664     -695     -723 
    -746     -769     -788     -803     -818     -832     -846     -859 
    -874     -884     -889     -892     -889     -881     -869     -853 
    -835     -818     -796     -776     -761     -745     -727     -715 
    -711     -707     -702     -692     -684     -670     -652     -629 
    -600     -571     -546     -519     -495     -479     -467     -460 
    -460     -464     -473     -483     -492     -503     -511     -514 
    -511     -500     -477     -442     -402     -356     -303     -255 
    -211     -176     -151     -131     -124     -118     -112     -101 
     -79      -52      -14       31       75      117      155      180 
     190      190      174      143      102       52       -4      -56 
     -98     -133     -155     -164     -166     -164     -162     -163 
    -178     -203     -230     -265     -302     -334     -360     -375 
    -378     -365     -344     -313     -272     -232     -201     -172 
    -152     -147     -148     -155     -171     -193     -216     -237 
    -257     -274     -283     -283     -274     -261     -248     -232 
    -218     -207     -201     -199     -207     -218     -230     -246 
    -259     -266     -271     -266     -255     -236     -207     -175 
    -141     -112      -94      -86      -85      -94     -116     -139 
    -164     -191     -212     -221     -222     -218     -207     -191 
    -171     -155     -141     -133     -131     -143     -163     -194 
    -229     -265     -303     -334     -360     -379     -394     -406 
    -409     -409     -411     -417     -423     -433     -448     -468 
    -488     -506     -523     -537     -542     -537     -529     -510 
    -481     -453     -422     -387     -359     -332     -305     -286 
    -272     -263     -256     -252     -248     -241     -240     -237 
    -229     -221     -207     -189     -167     -139     -103      -62 
     -18       27       75      124      174      229      289      353 
     421      491      561      631      696      751      800      841 
     864      877      886      886      882      880      880      889 
     908      936      967     1005     1047     1088     1121     1144 
    1156     1159     1146     1117     1075     1021      959      895 
     831      774      723      681      649      618      592      572 
     548      521      491      454      413      367      315      261 
     205      152       97       37      -18      -74     -133     -197 
    -261     -332     -399     -467     -540     -616     -684     -750 
    -814     -870     -924     -972    -1012    -1048    -1086    -1124 
   -1167    -1216    -1259    -1301    -1340    -1374    -1402    -1424 
   -1439    -1457    -1478    -1498    -1522    -1551    -1582    -1620 
   -1658    -1691    -1721    -1752    -1775    -1787    -1790    -1786 
   -1768    -1744    -1719    -1691    -1663    -1640    -1622    -1610 
   -1603    -1599    -1591    -1578    -1554    -1525    -1489    -1448 
   -1410    -1372    -1336    -1302    -1270    -1240    -1209    -1174 
   -1135    -1088    -1032     -969     -895     -818     -735     -646 
    -561     -479     -396     -322     -257     -206     -164     -133 
    -109      -93      -85      -81      -72      -70      -70      -65 
     -56      -47      -37      -28      -20      -11       -4        0 
