Origin Time       2016/04/16 01:25:00
Lat.              32.753
Long.             130.762
Depth. (km)       12
Mag.              7.3
Station Code      HYG020
Station Lat.      34.7976
Station Long.     134.9899
Station Height(m) 75
Record Time       2016/04/16 01:27:17
Sampling Freq(Hz) 100Hz
Duration Time(s)  79
Dir.              E-W
Scale Factor      7845(gal)/8223790
Max. Acc. (gal)   2.172
Last Correction   2016/04/16 01:27:17
Memo.             
[...]
   -6936    -6957    -6980    -7003    -7020    -7030    -7042    -7049 
   -7052    -7052    -7045    -7036    -7030    -7025    -7021    -7014 
   -7006    -7003    -6999    -6990    -6984    -6983    -6979    -6976 
   -6972    -6964    -6963    -6963    -6955    -6948    -6944    -6940 
   -6943    -6948    -6948    -6949    -6952    -6956    -6956    -6956 
   -6951    -6945    -6941    -6932    -6917    -6905    -6894    -6881 
   -6864    -6848    -6843    -6832    -6820    -6818    -6815    -6813 
   -6818    -6826    -6832    -6840    -6853    -6867    -6879    -6894 
   -6907    -6919    -6932    -6940    -6945    -6952    -6955    -6961 
   -6967    -6967    -6971    -6976    -6976    -6980    -6982    -6978 
   -6975    -6971    -6964    -6956    -6943    -6926    -6916    -6902 
   -6885    -6870    -6858    -6845    -6831    -6817    -6806    -6798 
   -6787    -6786    -6790    -6793    -6799    -6815    -6835    -6852 
   -6874    -6901    -6926    -6952    -6980    -7007    -7026    -7044 
   -7059    -7065    -7068    -7068    -7061    -7053    -7040    -7022 
   -7001    -6972    -6948    -6925    -6891    -6862    -6832    -6801 
   -6774    -6743    -6711    -6691    -6669    -6644    -6631    -6620 
   -6606    -6602    -6602    -6598    -6600    -6600    -6598    -6597 
   -6597    -6601    -6605    -6609    -6620    -6631    -6637    -6648 
   -6666    -6673    -6682    -6694    -6702    -6705    -6704    -6701 
   -6698    -6694    -6683    -6670    -6662    -6651    -6637    -6628 
   -6620    -6609    -6601    -6596    -6589    -6585    -6585    -6585 
   -6583    -6586    -6593    -6598    -6604    -6610    -6617    -6621 
   -6625    -6635    -6646    -6652    -6664    -6681    -6697    -6716 
   -6739    -6762    -6787    -6814    -6837    -6858    -6879    -6903 
   -6925    -6941    -6960    -6980    -6994    -7009    -7032    -7055 
   -7075    -7094    -7119    -7141    -7160    -7179    -7196    -7211 
   -7230    -7248    -7263    -7281    -7302    -7321    -7340    -7360 
   -7378    -7402    -7423    -7438    -7453    -7472    -7485    -7493 
   -7497    -7499    -7499    -7497    -7491    -7481    -7470    -7460 
   -7447    -7434    -7422    -7408    -7396    -7383    -7366    -7349 
   -7333    -7314    -7291    -7264    -7233    -7198    -7168    -7132 
   -7103    -7074    -7044    -7029    -7018    -7007    -7007    -7011 
   -7018    -7032    -7051    -7067    -7078    -7089    -7094    -7089 
   -7083    -7068    -7045    -7021    -6987    -6952    -6921    -6889 
   -6860    -6837    -6815    -6799    -6789    -6779    -6770    -6764 
   -6763    -6760    -6759    -6763    -6764    -6760    -6764    -6767 
   -6759    -6755    -6754    -6744    -6732    -6721    -6704    -6686 
   -6669    -6650    -6631    -6609    -6592    -6577    -6561    -6546 
   -6538    -6528    -6519    -6515    -6517    -6520    -6523    -6531 
   -6547    -6566    -6583    -6608    -6633    -6655    -6682    -6709 
   -6736    -6764    -6789    -6813    -6836    -6852    -6867    -6880 
   -6886    -6894    -6905    -6907    -6914    -6924    -6928    -6936 
   -6945    -6952    -6968    -6985    -7001    -7018    -7040    -7064 
   -7086    -7103    -7123    -7145    -7163    -7175    -7184    -7191 
   -7191    -7188    -7187    -7177    -7160    -7149    -7140    -7127 
   -7107    -7086    -7074    -7056    -7034    -7015    -6997    -6975 
   -6952    -6929    -6905    -6878    -6860    -6843    -6822    -6812 
   -6806    -6801    -6804    -6813    -6822    -6840    -6860    -6881 
   -6906    -6934    -6959    -6985    -7014    -7042    -7068    -7088 
   -7106    -7125    -7132    -7138    -7142    -7138    -7130    -7119 
   -7105    -7088    -7072    -7056    -7045    -7033    -7022    -7021 
   -7018    -7009    -7002    -6997    -6987    -6974    -6959    -6947 
   -6934    -6917    -6901    -6886    -6876    -6867    -6859    -6853 
   -6855    -6860    -6860    -6868    -6880    -6891    -6907    -6921 
   -6932    -6943    -6949    -6956    -6960    -6957    -6955    -6949 
   -6940    -6928    -6914    -6901    -6886    -6871    -6856    -6839 
   -6818    -6798    -6779    -6758    -6737    -6714    -6694    -6678 
   -6660    -6643    -6633    -6627    -6625    -6632    -6640    -6652 
   -6669    -6687    -6709    -6735    -6759    -6779    -6798    -6815 
   -6825    -6825    -6825    -6818    -6804    -6787    -6768    -6744 
   -6718    -6694    -6666    -6632    -6601    -6566    -6527    -6485 
   -6443    -6399    -6346    -6293    -6247    -6200    -6154    -6115 
   -6079    -6049    -6029    -6008    -5996    -5999    -6002    -6004 
   -6018    -6034    -6052    -6072    -6093    -6114    -6137    -6156 
   -6170    -6186    -6203    -6214    -6230    -6245    -6255    -6278 
   -6301    -6315    -6343    -6380    -6405    -6435    -6469    -6500 
   -6534    -6567    -6601    -6635    -6670    -6709    -6752    -6795 
   -6844    -6897    -6949    -7005    -7069    -7130    -7186    -7244 
   -7299    -7345    -7388    -7423    -7450    -7476    -7491    -7496 
   -7500    -7499    -7485    -7464    -7444    -7418    -7383    -7348 
   -7317    -7284    -7250    -7229    -7209    -7188    -7183    -7176 
   -7173    -7179    -7182    -7188    -7200    -7203    -7210    -7214 
   -7211    -7210    -7202    -7190    -7180    -7167    -7145    -7125 
   -7105    -7080    -7063    -7044    -7021    -7005    -6990    -6971 
   -6952    -6940    -6924    -6912    -6902    -6890    -6880    -6878 
   -6876    -6878    -6885    -6894    -6906    -6921    -6939    -6960 
   -6983    -7006    -7032    -7056    -7082    -7109    -7134    -7159 
   -7180    -7202    -7225    -7245    -7260    -7275    -7290    -7304 
   -7326    -7349    -7372    -7398    -7429    -7458    -7484    -7506 
   -7524    -7537    -7539    -7535    -7527    -7512    -7492    -7469 
   -7443    -7418    -7398    -7380    -7365    -7356    -7349    -7346 
   -7349    -7361    -7376    -7395    -7422    -7452    -7480    -7510 
   -7545    -7578    -7609    -7639    -7668    -7696    -7717    -7735 
   -7744    -7753    -7756    -7750    -7742    -7730    -7705    -7681 
   -7657    -7624    -7585    -7546    -7501    -7454    -7402    -7344 
   -7288    -7230    -7164    -7102    -7041    -6983    -6926    -6870 
   -6817    -6771    -6733    -6694    -6660    -6637    -6620    -6602 
   -6593    -6586    -6579    -6574    -6571    -6562    -6548    -6535 
   -6515    -6489    -6458    -6421    -6382    -6342    -6297    -6254 
   -6214    -6174    -6143    -6126    -6106    -6091    -6091    -6093 
   -6097    -6110    -6122    -6133    -6148    -6166    -6181    -6196 
   -6210    -6227    -6247    -6264    -6278    -6296    -6318    -6338 
   -6356    -6377    -6399    -6417    -6436    -6458    -6480    -6502 
   -6521    -6539    -6561    -6574    -6583    -6597    -6606    -6608 
   -6609    -6610    -6613    -6612    -6612    -6617    -6625    -6633 
   -6650    -6671    -6694    -6724    -6759    -6795    -6832    -6871 
   -6912    -6955    -6995    -7036    -7076    -7115    -7155    -7192 
   -7226    -7260    -7298    -7338    -7375    -7410    -7444    -7476 
   -7499    -7518    -7531    -7530    -7523    -7519    -7501    -7474 
   -7449    -7419    -7395    -7369    -7333    -7307    -7291    -7260 
   -7229    -7202    -7169    -7132    -7094    -7053    -7011    -6967 
   -6926    -6885    -6844    -6812    -6781    -6752    -6727    -6702 
   -6681    -6659    -6639    -6617    -6593    -6571    -6547    -6517 
   -6486    -6455    -6419    -6380    -6345    -6309    -6281    -6259 
   -6245    -6237    -6239    -6252    -6273    -6304    -6342    -6377 
   -6413    -6455    -6498    -6531    -6566    -6608    -6642    -6673 
   -6714    -6756    -6798    -6840    -6883    -6932    -6982    -7032 
   -7084    -7137    -7191    -7240    -7283    -7321    -7350    -7375 
   -7389    -7398    -7400    -7393    -7383    -7369    -7346    -7318 
   -7292    -7264    -7233    -7202    -7171    -7141    -7110    -7079 
   -7053    -7028    -7006    -6987    -6970    -6966    -6964    -6964 
   -6979    -7001    -7025    -7056    -7096    -7137    -7180    -7229 
   -7275    -7321    -7372    -7423    -7469    -7515    -7568    -7618 
   -7668    -7723    -7777    -7825    -7877    -7931    -7977    -8016 
   -8052    -8078    -8094    -8101    -8095    -8078    -8055    -8025 
   -7989    -7951    -7909    -7867    -7830    -7796    -7765    -7735 
   -7708    -7692    -7677    -7657    -7646    -7636    -7623    -7612 
   -7601    -7589    -7578    -7565    -7543    -7520    -7496    -7469 
   -7438    -7402    -7364    -7326    -7280    -7229    -7173    -7115 
   -7055    -6988    -6917    -6847    -6777    -6710    -6643    -6578 
   -6525    -6485    -6450    -6419    -6399    -6386    -6377    -6370 
   -6367    -6361    -6361    -6359    -6354    -6343    -6328    -6309 
   -6288    -6272    -6251    -6223    -6199    -6172    -6143    -6115 
   -6089    -6068    -6050    -6038    -6035    -6043    -6058    -6080 
   -6115    -6165    -6216    -6272    -6338    -6409    -6480    -6551 
   -6619    -6685    -6744    -6797    -6840    -6880    -6909    -6926 
   -6943    -6955    -6961    -6970    -6979    -6987    -7001    -7014 
   -7025    -7044    -7061    -7076    -7096    -7109    -7111    -7114 
   -7113    -7105    -7098    -7092    -7089    -7089    -7096    -7110 
   -7129    -7159    -7198    -7248    -7302    -7368    -7439    -7515 
   -7586    -7657    -7730    -7794    -7854    -7913    -7969    -8016 
   -8056    -8097    -8131    -8158    -8182    -8206    -8224    -8237 
   -8247    -8252    -8252    -8248    -8241    -8228    -8206    -8182 
   -8155    -8120    -8078    -8035    -7983    -7928    -7874    -7813 
   -7749    -7689    -7626    -7564    -7507    -7456    -7411    -7376 
   -7342    -7315    -7295    -7275    -7256    -7238    -7219    -7196 
   -7165    -7136    -7102    -7060    -7017    -6974    -6925    -6874 
   -6818    -6759    -6698    -6635    -6569    -6501    -6431    -6361 
   -6295    -6227    -6160    -6096    -6041    -5987    -5933    -5888 
   -5849    -5813    -5780    -5751    -5730    -5717    -5705    -5701 
   -5707    -5718    -5734    -5756    -5780    -5809    -5837    -5868 
   -5899    -5930    -5968    -6010    -6053    -6108    -6168    -6226 
   -6295    -6372    -6448    -6528    -6613    -6701    -6787    -6874 
   -6957    -7036    -7109    -7179    -7245    -7310    -7364    -7408 
   -7456    -7499    -7533    -7564    -7589    -7612    -7635    -7654 
   -7672    -7692    -7715    -7738    -7761    -7789    -7825    -7860 
   -7898    -7942    -7985    -8032    -8078    -8127    -8174    -8218 
   -8257    -8294    -8324    -8344    -8356    -8357    -8349    -8333 
   -8310    -8280    -8243    -8202    -8162    -8118    -8073    -8031 
   -7993    -7962    -7935    -7911    -7893    -7885    -7879    -7874 
   -7869    -7859    -7850    -7835    -7816    -7789    -7761    -7734 
   -7703    -7674    -7650    -7628    -7616    -7616    -7624    -7645 
   -7678    -7717    -7763    -7816    -7874    -7929    -7981    -8023 
   -8060    -8093    -8118    -8131    -8135    -8133    -8125    -8113 
   -8097    -8075    -8050    -8024    -8000    -7974    -7948    -7916 
   -7881    -7847    -7811    -7763    -7703    -7645    -7592    -7515 
   -7433    -7365    -7291    -7203    -7122    -7052    -6979    -6917 
   -6864    -6808    -6759    -6723    -6691    -6662    -6635    -6615 
   -6594    -6579    -6569    -6561    -6558    -6559    -6559    -6563 
   -6567    -6574    -6583    -6589    -6593    -6598    -6602    -6601 
   -6594    -6583    -6569    -6555    -6528    -6500    -6475    -6448 
   -6415    -6381    -6351    -6319    -6282    -6249    -6214    -6178 
   -6138    -6093    -6053    -6015    -5977    -5940    -5900    -5869 
   -5848    -5829    -5813    -5800    -5793    -5793    -5795    -5795 
   -5803    -5813    -5819    -5830    -5841    -5856    -5872    -5890 
   -5913    -5942    -5973    -6006    -6041    -6083    -6129    -6170 
   -6214    -6255    -6295    -6330    -6366    -6397    -6421    -6442 
   -6458    -6475    -6488    -6496    -6505    -6515    -6524    -6538 
   -6550    -6563    -6581    -6594    -6608    -6623    -6633    -6642 
   -6655    -6669    -6679    -6689    -6702    -6721    -6741    -6768 
   -6804    -6843    -6890    -6945    -7001    -7061    -7122    -7182 
   -7249    -7315    -7381    -7446    -7504    -7564    -7624    -7678 
   -7730    -7784    -7830    -7870    -7911    -7950    -7990    -8027 
   -8062    -8098    -8135    -8171    -8209    -8244    -8280    -8314 
   -8341    -8370    -8401    -8424    -8444    -8469    -8487    -8503 
   -8526    -8543    -8557    -8572    -8587    -8603    -8619    -8631 
   -8642    -8649    -8655    -8662    -8667    -8669    -8672    -8672 
   -8672    -8669    -8665    -8658    -8653    -8652    -8648    -8641 
   -8633    -8622    -8608    -8590    -8564    -8537    -8503    -8456 
   -8401    -8337    -8262    -8181    -8091    -7998    -7903    -7807 
   -7708    -7611    -7510    -7410    -7314    -7222    -7126    -7028 
   -6932    -6835    -6735    -6632    -6529    -6434    -6336    -6234 
   -6145    -6061    -5972    -5887    -5815    -5746    -5680    -5623 
   -5572    -5524    -5481    -5436    -5390    -5346    -5304    -5258 
   -5206    -5152    -5097    -5042    -4981    -4923    -4870    -4816 
   -4768    -4734    -4704    -4680    -4668    -4661    -4666    -4681 
   -4702    -4727    -4761    -4800    -4841    -4888    -4938    -4988 
   -5035    -5081    -5123    -5159    -5194    -5227    -5252    -5270 
   -5285    -5301    -5316    -5327    -5344    -5366    -5387    -5413 
   -5441    -5471    -5503    -5540    -5574    -5606    -5640    -5674 
   -5709    -5741    -5775    -5813    -5846    -5890    -5937    -5984 
   -6041    -6102    -6166    -6238    -6316    -6400    -6488    -6578 
   -6673    -6771    -6874    -6978    -7079    -7177    -7272    -7361 
   -7446    -7528    -7601    -7663    -7726    -7777    -7809    -7836 
   -7859    -7862    -7852    -7840    -7812    -7773    -7728    -7672 
   -7605    -7539    -7468    -7391    -7314    -7241    -7169    -7103 
   -7042    -6988    -6945    -6909    -6883    -6871    -6867    -6878 
   -6895    -6919    -6957    -7001    -7048    -7102    -7159    -7219 
   -7284    -7348    -7402    -7457    -7512    -7561    -7600    -7636 
   -7672    -7701    -7719    -7731    -7742    -7744    -7736    -7728 
   -7715    -7688    -7657    -7619    -7576    -7524    -7470    -7411 
   -7344    -7279    -7214    -7144    -7076    -7009    -6945    -6886 
   -6831    -6772    -6723    -6670    -6616    -6569    -6524    -6475 
   -6430    -6388    -6350    -6316    -6284    -6252    -6227    -6210 
   -6195    -6184    -6173    -6157    -6145    -6133    -6118    -6100 
   -6080    -6064    -6050    -6035    -6021    -6004    -5991    -5977 
   -5962    -5950    -5940    -5923    -5910    -5899    -5883    -5864 
   -5852    -5841    -5829    -5821    -5822    -5826    -5837    -5857 
   -5887    -5923    -5967    -6025    -6092    -6158    -6235    -6322 
   -6407    -6496    -6586    -6678    -6770    -6864    -6959    -7052 
   -7150    -7250    -7346    -7442    -7535    -7624    -7707    -7784 
   -7855    -7916    -7967    -8020    -8068    -8102    -8128    -8154 
   -8167    -8171    -8162    -8141    -8114    -8078    -8023    -7963 
   -7903    -7831    -7750    -7680    -7607    -7527    -7457    -7393 
   -7334    -7276    -7223    -7177    -7130    -7080    -7034    -6983 
   -6928    -6870    -6809    -6750    -6687    -6621    -6562    -6507 
   -6453    -6408    -6370    -6332    -6300    -6274    -6252    -6234 
   -6216    -6203    -6191    -6174    -6160    -6139    -6115    -6089 
   -6065    -6038    -6010    -5984    -5958    -5930    -5904    -5879 
   -5852    -5822    -5790    -5760    -5730    -5691    -5653    -5618 
   -5578    -5535    -5493    -5448    -5406    -5370    -5336    -5302 
   -5277    -5259    -5240    -5231    -5232    -5238    -5251    -5279 
   -5317    -5368    -5431    -5501    -5589    -5687    -5788    -5902 
   -6029    -6160    -6293    -6427    -6564    -6700    -6825    -6939 
   -7048    -7152    -7242    -7315    -7383    -7442    -7484    -7519 
   -7545    -7553    -7558    -7553    -7534    -7507    -7474    -7433 
   -7385    -7333    -7277    -7219    -7160    -7105    -7051    -6997 
   -6943    -6898    -6858    -6813    -6771    -6732    -6689    -6646 
   -6608    -6566    -6520    -6484    -6447    -6404    -6366    -6335 
   -6305    -6277    -6258    -6243    -6227    -6219    -6214    -6211 
   -6211    -6214    -6222    -6235    -6249    -6265    -6284    -6304 
   -6331    -6359    -6389    -6420    -6450    -6480    -6512    -6542 
   -6574    -6610    -6644    -6677    -6711    -6754    -6787    -6817 
   -6852    -6878    -6894    -6914    -6930    -6934    -6936    -6940 
   -6936    -6928    -6926    -6926    -6925    -6926    -6933    -6939 
   -6947    -6960    -6975    -6990    -7015    -7038    -7059    -7083 
   -7110    -7134    -7160    -7187    -7213    -7238    -7264    -7290 
   -7319    -7349    -7375    -7402    -7429    -7453    -7470    -7484 
   -7492    -7493    -7489    -7480    -7466    -7447    -7426    -7403 
   -7375    -7342    -7310    -7275    -7236    -7198    -7163    -7119 
   -7076    -7037    -6995    -6952    -6917    -6883    -6853    -6826 
   -6801    -6777    -6763    -6750    -6731    -6713    -6696    -6679 
   -6662    -6635    -6615    -6594    -6567    -6543    -6521    -6497 
   -6478    -6465    -6448    -6440    -6444    -6451    -6460    -6477 
   -6497    -6519    -6543    -6569    -6592    -6612    -6629    -6646 
   -6656    -6656    -6654    -6650    -6637    -6625    -6615    -6602 
   -6590    -6581    -6573    -6563    -6555    -6548    -6535    -6520 
   -6507    -6490    -6469    -6442    -6416    -6393    -6372    -6349 
   -6327    -6309    -6299    -6295    -6296    -6305    -6319    -6342 
   -6372    -6403    -6438    -6478    -6517    -6555    -6594    -6633 
   -6669    -6701    -6733    -6758    -6782    -6809    -6829    -6848 
   -6874    -6894    -6914    -6940    -6966    -6987    -7013    -7038 
   -7060    -7084    -7106    -7122    -7134    -7145    -7149    -7153 
   -7160    -7160    -7160    -7164    -7173    -7180    -7188    -7207 
   -7227    -7249    -7277    -7306    -7338    -7375    -7406    -7434 
   -7465    -7491    -7512    -7535    -7546    -7550    -7553    -7550 
   -7545    -7542    -7533    -7515    -7499    -7485    -7465    -7442 
   -7419    -7391    -7361    -7329    -7295    -7260    -7225    -7188 
   -7156    -7123    -7094    -7068    -7038    -7013    -6995    -6976 
   -6959    -6944    -6932    -6918    -6902    -6889    -6874    -6858 
   -6841    -6826    -6813    -6802    -6794    -6787    -6785    -6786 
   -6795    -6808    -6817    -6833    -6860    -6881    -6903    -6934 
   -6964    -6990    -7025    -7061    -7094    -7126    -7160    -7196 
   -7230    -7267    -7298    -7325    -7356    -7388    -7415    -7443 
   -7470    -7495    -7518    -7539    -7562    -7585    -7605    -7622 
   -7634    -7646    -7654    -7661    -7666    -7665    -7665    -7670 
