Origin Time       2016/04/16 01:25:00
Lat.              32.753
Long.             130.762
Depth. (km)       12
Mag.              7.3
Station Code      HYG027
Station Lat.      34.2499
Station Long.     134.7292
Station Height(m) 115
Record Time       2016/04/16 01:27:04
Sampling Freq(Hz) 100Hz
Duration Time(s)  73
Dir.              N-S
Scale Factor      7845(gal)/8223790
Max. Acc. (gal)   2.973
Last Correction   2016/04/16 01:27:06
Memo.             
[...]
   -8785    -8795    -8806    -8819    -8820    -8823    -8827    -8827 
   -8830    -8835    -8841    -8843    -8834    -8826    -8823    -8819 
   -8822    -8829    -8830    -8834    -8841    -8845    -8851    -8861 
   -8874    -8892    -8896    -8896    -8912    -8937    -8961    -8982 
   -9001    -9026    -9049    -9080    -9111    -9123    -9144    -9174 
   -9185    -9200    -9216    -9217    -9223    -9228    -9224    -9225 
   -9229    -9231    -9232    -9234    -9236    -9239    -9236    -9232 
   -9223    -9211    -9194    -9171    -9150    -9127    -9103    -9081 
   -9061    -9034    -9013    -9005    -8980    -8950    -8937    -8920 
   -8893    -8872    -8849    -8816    -8789    -8777    -8764    -8750 
   -8749    -8743    -8742    -8742    -8731    -8723    -8714    -8694 
   -8675    -8652    -8634    -8626    -8612    -8614    -8631    -8637 
   -8630    -8625    -8623    -8610    -8595    -8587    -8557    -8513 
   -8483    -8453    -8414    -8380    -8352    -8329    -8305    -8286 
   -8276    -8263    -8255    -8251    -8240    -8232    -8229    -8226 
   -8232    -8240    -8255    -8275    -8293    -8316    -8340    -8364 
   -8394    -8424    -8453    -8486    -8509    -8522    -8548    -8563 
   -8552    -8553    -8568    -8573    -8568    -8563    -8571    -8579 
   -8590    -8595    -8602    -8625    -8649    -8679    -8704    -8700 
   -8703    -8715    -8716    -8731    -8749    -8756    -8768    -8770 
   -8766    -8769    -8761    -8757    -8760    -8754    -8754    -8757 
   -8757    -8764    -8764    -8761    -8769    -8769    -8762    -8761 
   -8752    -8743    -8734    -8710    -8698    -8694    -8680    -8664 
   -8640    -8612    -8592    -8569    -8546    -8533    -8506    -8474 
   -8461    -8456    -8441    -8428    -8430    -8424    -8411    -8413 
   -8413    -8408    -8424    -8437    -8449    -8474    -8487    -8500 
   -8522    -8517    -8517    -8533    -8525    -8500    -8492    -8486 
   -8464    -8444    -8437    -8424    -8398    -8376    -8363    -8340 
   -8322    -8313    -8297    -8286    -8283    -8278    -8280    -8289 
   -8294    -8301    -8309    -8311    -8313    -8322    -8337    -8351 
   -8368    -8385    -8401    -8417    -8430    -8444    -8454    -8464 
   -8476    -8496    -8520    -8533    -8564    -8614    -8642    -8672 
   -8721    -8761    -8797    -8839    -8876    -8905    -8932    -8958 
   -8976    -8978    -8992    -9013    -9018    -9012    -9012    -9020 
   -9028    -9023    -9027    -9050    -9061    -9067    -9089    -9112 
   -9124    -9142    -9167    -9194    -9223    -9256    -9294    -9329 
   -9369    -9408    -9436    -9458    -9477    -9486    -9491    -9497 
   -9497    -9499    -9506    -9508    -9505    -9504    -9505    -9505 
   -9505    -9508    -9513    -9516    -9517    -9518    -9526    -9532 
   -9535    -9544    -9556    -9560    -9570    -9579    -9589    -9601 
   -9610    -9617    -9624    -9622    -9618    -9607    -9586    -9558 
   -9521    -9477    -9432    -9382    -9331    -9281    -9227    -9173 
   -9119    -9057    -8993    -8920    -8846    -8789    -8719    -8638 
   -8579    -8533    -8490    -8451    -8406    -8378    -8355    -8317 
   -8286    -8262    -8221    -8189    -8163    -8132    -8109    -8087 
   -8060    -8040    -8024    -8006    -7989    -7979    -7977    -7974 
   -7974    -7977    -7981    -7983    -7985    -7987    -7997    -8006 
   -8013    -8025    -8040    -8054    -8070    -8089    -8111    -8137 
   -8163    -8191    -8226    -8266    -8306    -8347    -8391    -8436 
   -8477    -8520    -8564    -8603    -8635    -8662    -8691    -8707 
   -8721    -8742    -8754    -8758    -8766    -8769    -8775    -8780 
   -8780    -8783    -8784    -8781    -8781    -8783    -8781    -8783 
   -8787    -8792    -8796    -8802    -8811    -8824    -8845    -8873 
   -8907    -8943    -8984    -9023    -9053    -9085    -9126    -9147 
   -9161    -9192    -9215    -9223    -9239    -9252    -9256    -9263 
   -9263    -9259    -9255    -9250    -9248    -9246    -9240    -9236 
   -9227    -9213    -9194    -9170    -9147    -9123    -9093    -9065 
   -9031    -8995    -8972    -8945    -8900    -8868    -8853    -8837 
   -8811    -8789    -8783    -8775    -8764    -8758    -8748    -8741 
   -8738    -8731    -8733    -8738    -8745    -8756    -8766    -8783 
   -8797    -8806    -8816    -8818    -8815    -8816    -8814    -8812 
   -8812    -8804    -8796    -8789    -8779    -8772    -8765    -8758 
   -8757    -8760    -8762    -8765    -8776    -8791    -8807    -8826 
   -8842    -8860    -8872    -8874    -8878    -8889    -8899    -8896 
   -8892    -8892    -8891    -8876    -8858    -8851    -8850    -8846 
   -8841    -8838    -8835    -8835    -8842    -8849    -8847    -8846 
   -8835    -8820    -8815    -8816    -8822    -8830    -8835    -8839 
   -8847    -8850    -8849    -8854    -8857    -8857    -8849    -8826 
   -8803    -8791    -8780    -8772    -8772    -8775    -8781    -8795 
   -8812    -8834    -8860    -8885    -8901    -8914    -8922    -8926 
   -8923    -8915    -8923    -8941    -8941    -8935    -8929    -8910 
   -8901    -8911    -8910    -8910    -8919    -8916    -8904    -8914 
   -8929    -8934    -8942    -8955    -8964    -8977    -9011    -9040 
   -9055    -9082    -9121    -9153    -9178    -9212    -9246    -9270 
   -9290    -9312    -9321    -9322    -9316    -9308    -9297    -9278 
   -9258    -9238    -9215    -9193    -9171    -9147    -9123    -9099 
   -9081    -9062    -9038    -9031    -9020    -9001    -9003    -9015 
   -9015    -9018    -9034    -9053    -9063    -9071    -9090    -9112 
   -9124    -9144    -9177    -9197    -9217    -9246    -9263    -9277 
   -9293    -9298    -9300    -9296    -9288    -9277    -9255    -9231 
   -9205    -9173    -9146    -9116    -9088    -9073    -9053    -9032 
   -9026    -9005    -8974    -8958    -8949    -8929    -8908    -8888 
   -8874    -8877    -8885    -8880    -8885    -8903    -8907    -8901 
   -8896    -8901    -8905    -8893    -8887    -8888    -8869    -8845 
   -8827    -8815    -8815    -8815    -8816    -8830    -8842    -8853 
   -8872    -8889    -8915    -8932    -8935    -8955    -8991    -9019 
   -9050    -9086    -9135    -9194    -9248    -9305    -9370    -9428 
   -9482    -9545    -9603    -9651    -9694    -9730    -9752    -9768 
   -9779    -9780    -9771    -9752    -9728    -9702    -9668    -9632 
   -9601    -9567    -9528    -9486    -9448    -9416    -9385    -9355 
   -9335    -9312    -9289    -9270    -9246    -9216    -9182    -9143 
   -9100    -9057    -9019    -8982    -8942    -8919    -8911    -8896 
   -8884    -8883    -8874    -8870    -8888    -8910    -8920    -8935 
   -8949    -8951    -8951    -8959    -8969    -8964    -8945    -8923 
   -8896    -8878    -8847    -8795    -8752    -8703    -8637    -8571 
   -8494    -8414    -8334    -8239    -8141    -8052    -7952    -7854 
   -7769    -7680    -7604    -7539    -7477    -7433    -7402    -7383 
   -7381    -7387    -7398    -7411    -7423    -7434    -7441    -7442 
   -7437    -7426    -7422    -7418    -7416    -7423    -7426    -7431 
   -7439    -7443    -7457    -7468    -7480    -7504    -7522    -7547 
   -7589    -7632    -7684    -7744    -7807    -7870    -7931    -7982 
   -8024    -8064    -8100    -8127    -8152    -8176    -8202    -8237 
   -8274    -8313    -8356    -8398    -8444    -8494    -8540    -8599 
   -8660    -8698    -8730    -8766    -8791    -8802    -8806    -8800 
   -8777    -8742    -8704    -8657    -8602    -8552    -8502    -8456 
   -8414    -8372    -8343    -8321    -8289    -8270    -8262    -8245 
   -8239    -8241    -8236    -8226    -8222    -8209    -8182    -8159 
   -8131    -8104    -8085    -8067    -8060    -8067    -8078    -8109 
   -8149    -8194    -8259    -8328    -8397    -8474    -8545    -8611 
   -8665    -8711    -8764    -8803    -8842    -8888    -8918    -8946 
   -8976    -8986    -8995    -9004    -9022    -9047    -9059    -9082 
   -9136    -9185    -9231    -9292    -9352    -9405    -9463    -9524 
   -9576    -9629    -9679    -9720    -9757    -9791    -9826    -9867 
   -9903    -9954   -10011   -10061   -10120   -10180   -10237   -10296 
  -10347   -10389   -10430   -10450   -10465   -10476   -10477   -10473 
  -10462   -10435   -10404   -10362   -10309   -10250   -10191   -10126 
  -10057    -9989    -9926    -9871    -9814    -9756    -9705    -9651 
   -9593    -9537    -9477    -9413    -9355    -9297    -9239    -9188 
   -9136    -9086    -9038    -9004    -8978    -8949    -8924    -8926 
   -8931    -8929    -8931    -8929    -8926    -8929    -8932    -8920 
   -8908    -8889    -8858    -8839    -8837    -8822    -8800    -8787 
   -8776    -8762    -8756    -8750    -8749    -8748    -8748    -8757 
   -8775    -8802    -8841    -8892    -8958    -9038    -9130    -9235 
   -9355    -9481    -9605    -9733    -9863    -9983   -10095   -10203 
  -10307   -10403   -10489   -10573   -10650   -10720   -10785   -10839 
  -10890   -10932   -10956   -10975   -10978   -10966   -10948   -10921 
  -10886   -10841   -10788   -10735   -10675   -10609   -10544   -10480 
  -10419   -10357   -10301   -10258   -10219   -10191   -10169   -10158 
  -10158   -10157   -10164   -10177   -10185   -10195   -10204   -10204 
  -10201   -10187   -10166   -10143   -10103   -10048    -9991    -9921 
   -9840    -9755    -9661    -9567    -9467    -9359    -9254    -9143 
   -9030    -8927    -8814    -8695    -8603    -8517    -8418    -8332 
   -8271    -8220    -8172    -8141    -8120    -8097    -8081    -8071 
   -8060    -8052    -8050    -8044    -8031    -8014    -7993    -7956 
   -7916    -7873    -7813    -7749    -7677    -7599    -7512    -7411 
   -7311    -7210    -7094    -6978    -6864    -6750    -6637    -6531 
   -6427    -6338    -6257    -6183    -6122    -6072    -6025    -5989 
   -5968    -5952    -5946    -5950    -5958    -5980    -6008    -6043 
   -6095    -6150    -6214    -6289    -6361    -6434    -6505    -6563 
   -6613    -6662    -6705    -6747    -6789    -6840    -6899    -6974 
   -7069    -7182    -7306    -7454    -7618    -7788    -7969    -8148 
   -8321    -8484    -8629    -8758    -8878    -8970    -9050    -9140 
   -9219    -9285    -9367    -9451    -9528    -9616    -9697    -9764 
   -9832    -9883    -9919    -9946    -9952    -9950    -9946    -9929 
   -9913    -9894    -9863    -9841    -9819    -9802    -9792    -9776 
   -9767    -9764    -9753    -9741    -9726    -9705    -9683    -9653 
   -9616    -9571    -9514    -9458    -9400    -9333    -9271    -9205 
   -9137    -9070    -8999    -8927    -8853    -8769    -8696    -8637 
   -8571    -8503    -8449    -8413    -8384    -8361    -8349    -8351 
   -8357    -8371    -8391    -8413    -8437    -8467    -8494    -8527 
   -8561    -8614    -8679    -8725    -8779    -8856    -8929    -9005 
   -9081    -9165    -9265    -9346    -9416    -9493    -9553    -9594 
   -9637    -9666    -9682    -9701    -9705    -9703    -9702    -9693 
   -9684    -9670    -9641    -9614    -9575    -9524    -9463    -9388 
   -9309    -9225    -9131    -9038    -8950    -8865    -8784    -8692 
   -8596    -8499    -8403    -8317    -8229    -8136    -8051    -7973 
   -7893    -7819    -7758    -7703    -7654    -7608    -7565    -7526 
   -7488    -7456    -7430    -7406    -7393    -7392    -7393    -7404 
   -7423    -7442    -7466    -7491    -7520    -7551    -7578    -7605 
   -7631    -7657    -7684    -7704    -7731    -7758    -7782    -7807 
   -7827    -7855    -7882    -7903    -7935    -7964    -7994    -8027 
   -8051    -8073    -8095    -8109    -8125    -8143    -8154    -8171 
   -8194    -8214    -8239    -8267    -8293    -8319    -8349    -8368 
   -8385    -8397    -8391    -8388    -8372    -8340    -8309    -8267 
   -8213    -8172    -8124    -8070    -8029    -7990    -7959    -7947 
   -7946    -7959    -7987    -8025    -8077    -8137    -8201    -8270 
   -8337    -8403    -8473    -8540    -8603    -8654    -8691    -8730 
   -8758    -8769    -8775    -8772    -8758    -8739    -8715    -8691 
   -8672    -8653    -8623    -8592    -8579    -8565    -8550    -8548 
   -8525    -8492    -8474    -8449    -8408    -8367    -8324    -8284 
   -8241    -8205    -8182    -8159    -8147    -8144    -8137    -8136 
   -8139    -8139    -8143    -8141    -8131    -8125    -8121    -8108 
   -8098    -8093    -8083    -8081    -8078    -8075    -8083    -8087 
   -8087    -8094    -8095    -8095    -8098    -8094    -8093    -8094 
   -8090    -8093    -8093    -8093    -8102    -8117    -8132    -8154 
   -8175    -8201    -8233    -8268    -8311    -8355    -8403    -8460 
   -8517    -8581    -8649    -8699    -8738    -8784    -8819    -8843 
   -8868    -8887    -8899    -8903    -8903    -8918    -8951    -8985 
   -9016    -9057    -9101    -9151    -9220    -9278    -9335    -9406 
   -9463    -9514    -9563    -9594    -9622    -9645    -9644    -9643 
   -9632    -9605    -9576    -9548    -9516    -9487    -9459    -9429 
   -9398    -9363    -9331    -9294    -9246    -9201    -9158    -9100 
   -9036    -8978    -8915    -8857    -8792    -8718    -8648    -8564 
   -8471    -8383    -8283    -8171    -8055    -7929    -7797    -7657 
   -7514    -7368    -7221    -7075    -6932    -6797    -6667    -6548 
   -6438    -6331    -6238    -6151    -6065    -5988    -5921    -5854 
   -5795    -5746    -5706    -5679    -5659    -5647    -5644    -5644 
   -5647    -5660    -5683    -5705    -5729    -5759    -5788    -5817 
   -5844    -5871    -5899    -5929    -5960    -5994    -6026    -6061 
   -6100    -6146    -6192    -6237    -6290    -6347    -6400    -6459 
   -6528    -6596    -6675    -6766    -6859    -6961    -7072    -7190 
   -7317    -7446    -7574    -7700    -7823    -7944    -8060    -8175 
   -8283    -8380    -8472    -8557    -8633    -8710    -8791    -8860 
   -8905    -8955    -9011    -9051    -9074    -9093    -9116    -9139 
   -9153    -9166    -9188    -9200    -9205    -9225    -9236    -9243 
   -9256    -9262    -9267    -9273    -9273    -9274    -9273    -9271 
   -9277    -9278    -9285    -9304    -9324    -9350    -9387    -9429 
   -9481    -9540    -9598    -9666    -9734    -9798    -9860    -9918 
   -9971   -10019   -10066   -10111   -10152   -10195   -10234   -10274 
  -10322   -10362   -10404   -10449   -10486   -10527   -10570   -10602 
  -10638   -10678   -10709   -10729   -10751   -10773   -10786   -10797 
  -10808   -10808   -10798   -10783   -10762   -10729   -10683   -10629 
  -10566   -10482   -10392   -10295   -10183   -10066    -9949    -9830 
   -9717    -9603    -9501    -9409    -9316    -9231    -9154    -9069 
   -8986    -8915    -8846    -8768    -8691    -8622    -8546    -8464 
   -8397    -8334    -8266    -8198    -8133    -8063    -7985    -7898 
   -7807    -7708    -7611    -7514    -7415    -7327    -7249    -7176 
   -7117    -7069    -7032    -7001    -6976    -6960    -6952    -6945 
   -6937    -6941    -6943    -6940    -6940    -6939    -6932    -6926 
   -6921    -6919    -6916    -6905    -6897    -6886    -6867    -6852 
   -6831    -6799    -6772    -6739    -6701    -6667    -6629    -6600 
   -6574    -6555    -6547    -6542    -6547    -6554    -6559    -6574 
   -6585    -6590    -6598    -6601    -6612    -6628    -6642    -6673 
   -6709    -6744    -6798    -6858    -6918    -6988    -7055    -7129 
   -7210    -7284    -7364    -7447    -7524    -7601    -7673    -7746 
   -7821    -7886    -7950    -8017    -8073    -8121    -8175    -8224 
   -8264    -8310    -8351    -8387    -8430    -8467    -8502    -8536 
   -8571    -8611    -8637    -8652    -8683    -8706    -8721    -8760 
   -8793    -8814    -8843    -8869    -8888    -8901    -8908    -8915 
   -8916    -8904    -8892    -8896    -8899    -8887    -8877    -8876 
   -8863    -8837    -8808    -8780    -8750    -8723    -8702    -8683 
   -8658    -8641    -8631    -8631    -8640    -8649    -8675    -8712 
   -8743    -8777    -8811    -8835    -8862    -8884    -8908    -8942 
   -8969    -8981    -8991    -8995    -8992    -9003    -9019    -9013 
   -9005    -9013    -9018    -9008    -8992    -8988    -8984    -8958 
   -8931    -8912    -8896    -8878    -8853    -8835    -8816    -8785 
   -8762    -8741    -8708    -8685    -8676    -8665    -8662    -8668 
   -8673    -8691    -8718    -8758    -8803    -8846    -8899    -8965 
   -9035    -9112    -9177    -9239    -9317    -9391    -9454    -9522 
   -9587    -9643    -9701    -9761    -9819    -9882    -9948   -10018 
  -10088   -10158   -10230   -10307   -10374   -10435   -10503   -10557 
  -10604   -10650   -10683   -10717   -10747   -10764   -10779   -10795 
  -10808   -10817   -10827   -10843   -10856   -10870   -10895   -10924 
  -10951   -10989   -11028   -11065   -11105   -11133   -11155   -11168 
  -11169   -11163   -11148   -11124   -11098   -11067   -11029   -10993 
  -10951   -10912   -10878   -10837   -10802   -10773   -10735   -10693 
  -10654   -10615   -10577   -10540   -10504   -10476   -10449   -10423 
  -10401   -10380   -10357   -10332   -10305   -10280   -10257   -10230 
  -10211   -10200   -10187   -10177   -10176   -10170   -10164   -10161 
  -10154   -10143   -10130   -10118   -10107   -10104   -10106   -10104 
  -10115   -10131   -10142   -10154   -10166   -10169   -10173   -10174 
  -10168   -10154   -10133   -10099   -10054   -10002    -9937    -9867 
   -9791    -9713    -9633    -9556    -9489    -9428    -9378    -9335 
   -9292    -9250    -9215    -9174    -9131    -9089    -9043    -8997 
   -8945    -8887    -8847    -8814    -8764    -8726    -8694    -8650 
   -8614    -8590    -8565    -8537    -8497    -8463    -8441    -8408 
   -8364    -8330    -8291    -8244    -8205    -8164    -8120    -8081 
   -8048    -8017    -7997    -7982    -7969    -7960    -7958    -7960 
   -7966    -7974    -7983    -7989    -7993    -7992    -7990    -7985 
   -7978    -7978    -7983    -7990    -8002    -8023    -8051    -8085 
   -8124    -8170    -8213    -8252    -8293    -8333    -8375    -8414 
   -8451    -8487    -8525    -8561    -8594    -8618    -8654    -8698 
   -8739    -8789    -8826    -8850    -8893    -8947    -9003    -9062 
   -9120    -9177    -9243    -9312    -9378    -9447    -9521    -9589 
   -9656    -9726    -9786    -9837    -9887    -9929    -9967   -10002 
  -10038   -10068   -10095   -10121   -10146   -10172   -10195   -10216 
  -10238   -10260   -10284   -10308   -10334   -10362   -10384   -10397 
  -10405   -10407   -10401   -10384   -10359   -10329   -10292   -10254 
  -10212   -10164   -10127   -10093   -10060   -10034   -10007    -9984 
   -9963    -9938    -9915    -9898    -9882    -9868    -9863    -9869 
   -9886    -9909    -9931    -9961    -9988   -10003   -10011   -10014 
  -10007    -9996    -9981    -9963    -9945    -9926    -9907    -9904 
   -9902    -9894    -9896    -9896    -9887    -9876    -9857    -9830 
   -9795    -9751    -9707    -9667    -9621    -9580    -9547    -9517 
   -9497    -9482    -9471    -9472    -9475    -9481    -9494    -9501 
   -9508    -9521    -9526    -9529    -9540    -9545    -9552    -9568 
   -9586    -9603    -9632    -9661    -9691    -9724    -9751    -9776 
