Origin Time       2016/04/16 01:25:00
Lat.              32.753
Long.             130.762
Depth. (km)       12
Mag.              7.3
Station Code      HYG011
Station Lat.      34.9848
Station Long.     134.3228
Station Height(m) 75
Record Time       2016/04/16 01:27:06
Sampling Freq(Hz) 100Hz
Duration Time(s)  60
Dir.              N-S
Scale Factor      7845(gal)/8223790
Max. Acc. (gal)   2.148
Last Correction   2016/04/16 01:27:08
Memo.             
[...]
  -18435   -18457   -18477   -18493   -18507   -18520   -18538   -18555 
  -18573   -18588   -18596   -18601   -18612   -18628   -18638   -18636 
  -18631   -18631   -18631   -18624   -18611   -18585   -18547   -18511 
  -18476   -18445   -18420   -18401   -18380   -18357   -18335   -18318 
  -18308   -18307   -18307   -18304   -18295   -18292   -18293   -18299 
  -18303   -18300   -18289   -18274   -18260   -18250   -18247   -18246 
  -18239   -18229   -18219   -18209   -18196   -18180   -18158   -18134 
  -18107   -18080   -18058   -18041   -18025   -18009   -17991   -17976 
  -17968   -17964   -17964   -17965   -17968   -17971   -17967   -17959 
  -17948   -17937   -17925   -17907   -17886   -17864   -17847   -17836 
  -17828   -17822   -17813   -17797   -17776   -17752   -17718   -17678 
  -17637   -17595   -17547   -17501   -17458   -17419   -17388   -17356 
  -17325   -17304   -17282   -17259   -17242   -17225   -17213   -17212 
  -17212   -17204   -17196   -17182   -17163   -17146   -17128   -17104 
  -17084   -17064   -17044   -17032   -17024   -17010   -16995   -16984 
  -16977   -16969   -16968   -16968   -16972   -16981   -16997   -17021 
  -17044   -17061   -17080   -17098   -17119   -17136   -17151   -17161 
  -17167   -17174   -17185   -17201   -17223   -17240   -17259   -17277 
  -17297   -17321   -17351   -17385   -17415   -17436   -17459   -17483 
  -17509   -17540   -17567   -17591   -17614   -17633   -17645   -17663 
  -17679   -17690   -17701   -17713   -17727   -17747   -17768   -17791 
  -17815   -17836   -17848   -17859   -17874   -17892   -17909   -17922 
  -17934   -17945   -17963   -17988   -18018   -18050   -18088   -18119 
  -18142   -18162   -18188   -18212   -18233   -18250   -18264   -18279 
  -18289   -18295   -18293   -18284   -18265   -18247   -18229   -18207 
  -18184   -18158   -18134   -18117   -18099   -18079   -18061   -18042 
  -18023   -18009   -17995   -17987   -17980   -17968   -17953   -17937 
  -17917   -17899   -17888   -17883   -17883   -17880   -17867   -17847 
  -17822   -17797   -17775   -17759   -17741   -17726   -17718   -17713 
  -17717   -17726   -17739   -17755   -17770   -17780   -17791   -17799 
  -17801   -17799   -17793   -17778   -17757   -17739   -17722   -17702 
  -17679   -17655   -17626   -17594   -17562   -17535   -17509   -17479 
  -17450   -17419   -17390   -17366   -17346   -17324   -17302   -17282 
  -17266   -17248   -17232   -17217   -17205   -17200   -17200   -17200 
  -17197   -17193   -17188   -17180   -17166   -17154   -17145   -17128 
  -17113   -17109   -17104   -17095   -17087   -17080   -17069   -17055 
  -17043   -17032   -17026   -17023   -17023   -17018   -17015   -17018 
  -17027   -17041   -17050   -17053   -17050   -17041   -17020   -16989 
  -16952   -16909   -16860   -16811   -16767   -16730   -16698   -16664 
  -16634   -16613   -16598   -16578   -16548   -16506   -16459   -16421 
  -16401   -16390   -16387   -16390   -16398   -16411   -16430   -16452 
  -16470   -16482   -16494   -16510   -16526   -16538   -16546   -16552 
  -16557   -16568   -16586   -16611   -16637   -16659   -16676   -16700 
  -16731   -16762   -16789   -16819   -16849   -16883   -16915   -16943 
  -16966   -16984   -17000   -17020   -17047   -17077   -17107   -17142 
  -17182   -17228   -17284   -17348   -17423   -17501   -17581   -17659 
  -17734   -17801   -17859   -17909   -17950   -17986   -18019   -18053 
  -18087   -18119   -18154   -18185   -18216   -18250   -18287   -18324 
  -18361   -18396   -18439   -18486   -18531   -18571   -18605   -18634 
  -18665   -18694   -18723   -18755   -18785   -18816   -18854   -18891 
  -18929   -18970   -19008   -19040   -19067   -19093   -19121   -19150 
  -19179   -19205   -19229   -19251   -19273   -19299   -19317   -19333 
  -19354   -19380   -19406   -19433   -19454   -19473   -19494   -19518 
  -19550   -19580   -19597   -19600   -19591   -19572   -19546   -19519 
  -19487   -19454   -19423   -19400   -19388   -19381   -19373   -19363 
  -19352   -19345   -19350   -19364   -19376   -19391   -19406   -19419 
  -19438   -19461   -19479   -19494   -19512   -19527   -19542   -19566 
  -19591   -19611   -19637   -19668   -19695   -19718   -19731   -19731 
  -19716   -19695   -19668   -19634   -19597   -19561   -19523   -19489 
  -19457   -19431   -19410   -19394   -19386   -19384   -19384   -19387 
  -19392   -19396   -19403   -19414   -19419   -19415   -19410   -19403 
  -19388   -19373   -19360   -19337   -19311   -19283   -19245   -19202 
  -19159   -19110   -19060   -19009   -18952   -18894   -18839   -18785 
  -18734   -18685   -18631   -18585   -18542   -18495   -18449   -18403 
  -18350   -18295   -18239   -18181   -18126   -18080   -18045   -18017 
  -17990   -17961   -17938   -17918   -17902   -17892   -17884   -17880 
  -17882   -17883   -17886   -17892   -17898   -17901   -17901   -17896 
  -17888   -17882   -17878   -17872   -17868   -17865   -17859   -17856 
  -17857   -17859   -17859   -17857   -17852   -17852   -17859   -17869 
  -17869   -17859   -17845   -17829   -17811   -17793   -17770   -17734 
  -17689   -17639   -17587   -17541   -17501   -17460   -17417   -17375 
  -17334   -17294   -17259   -17228   -17200   -17178   -17161   -17143 
  -17127   -17109   -17092   -17076   -17057   -17030   -16995   -16968 
  -16945   -16922   -16897   -16875   -16846   -16812   -16780   -16753 
  -16719   -16680   -16642   -16610   -16584   -16563   -16544   -16526 
  -16507   -16490   -16474   -16467   -16464   -16464   -16470   -16482 
  -16492   -16497   -16503   -16509   -16514   -16521   -16525   -16525 
  -16524   -16522   -16517   -16505   -16484   -16460   -16438   -16424 
  -16417   -16411   -16398   -16380   -16360   -16344   -16332   -16326 
  -16322   -16320   -16328   -16345   -16371   -16405   -16438   -16470 
  -16499   -16533   -16576   -16629   -16684   -16738   -16791   -16840 
  -16889   -16937   -16984   -17032   -17073   -17111   -17145   -17178 
  -17212   -17239   -17258   -17280   -17300   -17311   -17325   -17338 
  -17343   -17348   -17351   -17354   -17361   -17366   -17371   -17382 
  -17389   -17392   -17393   -17393   -17388   -17382   -17383   -17392 
  -17405   -17412   -17412   -17408   -17398   -17381   -17362   -17346 
  -17329   -17311   -17292   -17280   -17273   -17267   -17263   -17261 
  -17259   -17258   -17259   -17261   -17263   -17261   -17254   -17248 
  -17255   -17273   -17296   -17325   -17354   -17374   -17389   -17402 
  -17420   -17439   -17460   -17496   -17535   -17574   -17614   -17653 
  -17684   -17710   -17729   -17744   -17761   -17778   -17787   -17797 
  -17809   -17820   -17824   -17825   -17824   -17818   -17810   -17797 
  -17775   -17748   -17717   -17678   -17636   -17599   -17567   -17543 
  -17525   -17516   -17509   -17508   -17505   -17500   -17498   -17506 
  -17521   -17531   -17540   -17550   -17562   -17570   -17578   -17590 
  -17601   -17605   -17608   -17605   -17594   -17589   -17585   -17574 
  -17560   -17543   -17523   -17508   -17502   -17496   -17489   -17486 
  -17483   -17482   -17491   -17500   -17497   -17489   -17483   -17485 
  -17491   -17497   -17504   -17512   -17518   -17525   -17537   -17554 
  -17570   -17583   -17599   -17617   -17632   -17639   -17636   -17624 
  -17602   -17571   -17540   -17517   -17496   -17473   -17452   -17435 
  -17421   -17416   -17412   -17405   -17404   -17404   -17400   -17394 
  -17389   -17385   -17377   -17370   -17359   -17348   -17340   -17329 
  -17313   -17288   -17254   -17216   -17185   -17162   -17138   -17111 
  -17081   -17050   -17015   -16983   -16955   -16934   -16912   -16886 
  -16860   -16849   -16845   -16846   -16846   -16842   -16840   -16846 
  -16849   -16846   -16826   -16799   -16771   -16745   -16719   -16694 
  -16663   -16629   -16610   -16596   -16582   -16565   -16546   -16529 
  -16521   -16514   -16510   -16510   -16511   -16513   -16521   -16532 
  -16542   -16549   -16551   -16551   -16556   -16563   -16563   -16568 
  -16576   -16587   -16599   -16606   -16610   -16606   -16602   -16599 
  -16595   -16584   -16573   -16563   -16556   -16552   -16545   -16538 
  -16532   -16525   -16526   -16526   -16525   -16522   -16519   -16515 
  -16514   -16505   -16495   -16486   -16474   -16464   -16454   -16445 
  -16448   -16451   -16448   -16447   -16443   -16437   -16430   -16424 
  -16421   -16429   -16436   -16444   -16459   -16474   -16483   -16497 
  -16503   -16502   -16497   -16494   -16492   -16499   -16510   -16524 
  -16537   -16548   -16563   -16580   -16592   -16598   -16596   -16598 
  -16606   -16622   -16644   -16675   -16708   -16744   -16774   -16806 
  -16835   -16856   -16875   -16900   -16920   -16937   -16951   -16961 
  -16951   -16938   -16935   -16935   -16923   -16908   -16888   -16872 
  -16863   -16842   -16811   -16780   -16748   -16711   -16679   -16653 
  -16638   -16627   -16611   -16594   -16582   -16573   -16567   -16563 
  -16560   -16563   -16573   -16591   -16613   -16629   -16645   -16664 
  -16688   -16715   -16744   -16771   -16799   -16825   -16846   -16868 
  -16895   -16915   -16918   -16918   -16922   -16935   -16964   -16992 
  -17020   -17050   -17080   -17109   -17143   -17170   -17186   -17201 
  -17216   -17235   -17255   -17273   -17292   -17309   -17323   -17343 
  -17370   -17390   -17400   -17409   -17424   -17439   -17459   -17486 
  -17509   -17531   -17560   -17593   -17625   -17661   -17698   -17724 
  -17744   -17763   -17774   -17766   -17744   -17717   -17694   -17680 
  -17671   -17656   -17636   -17621   -17614   -17610   -17609   -17616 
  -17620   -17614   -17609   -17609   -17609   -17608   -17609   -17614 
  -17629   -17645   -17656   -17670   -17690   -17718   -17741   -17759 
  -17779   -17803   -17822   -17829   -17841   -17855   -17859   -17855 
  -17848   -17844   -17841   -17836   -17822   -17805   -17787   -17775 
  -17767   -17763   -17753   -17741   -17724   -17702   -17687   -17683 
  -17680   -17679   -17675   -17666   -17659   -17652   -17647   -17652 
  -17661   -17660   -17653   -17649   -17651   -17649   -17637   -17620 
  -17605   -17595   -17583   -17564   -17543   -17520   -17497   -17478 
  -17466   -17458   -17450   -17437   -17423   -17417   -17419   -17425 
  -17435   -17443   -17455   -17469   -17478   -17486   -17497   -17504 
  -17505   -17504   -17517   -17544   -17571   -17589   -17594   -17587 
  -17582   -17578   -17570   -17559   -17548   -17536   -17524   -17512 
  -17489   -17456   -17431   -17405   -17379   -17356   -17336   -17316 
  -17294   -17270   -17246   -17228   -17220   -17213   -17208   -17200 
  -17197   -17204   -17208   -17201   -17189   -17180   -17177   -17181 
  -17189   -17192   -17180   -17167   -17165   -17157   -17140   -17109 
  -17064   -17021   -16984   -16954   -16931   -16906   -16872   -16845 
  -16835   -16835   -16834   -16826   -16812   -16799   -16794   -16799 
  -16803   -16808   -16817   -16835   -16863   -16895   -16922   -16949 
  -16983   -17015   -17057   -17097   -17135   -17165   -17184   -17200 
  -17219   -17235   -17242   -17247   -17253   -17263   -17286   -17315 
  -17340   -17365   -17389   -17412   -17431   -17442   -17451   -17469 
  -17482   -17496   -17521   -17559   -17597   -17635   -17679   -17725 
  -17763   -17790   -17813   -17834   -17855   -17869   -17879   -17882 
  -17878   -17875   -17871   -17865   -17861   -17859   -17863   -17872 
  -17876   -17880   -17894   -17917   -17942   -17968   -18003   -18044 
  -18084   -18127   -18168   -18200   -18227   -18258   -18292   -18322 
  -18343   -18360   -18377   -18399   -18419   -18434   -18442   -18453 
  -18463   -18474   -18482   -18486   -18489   -18492   -18504   -18526 
  -18550   -18574   -18597   -18620   -18650   -18681   -18706   -18725 
  -18739   -18750   -18758   -18755   -18742   -18717   -18688   -18661 
  -18639   -18623   -18612   -18602   -18597   -18597   -18597   -18588 
  -18565   -18534   -18509   -18489   -18466   -18434   -18395   -18364 
  -18338   -18322   -18318   -18318   -18322   -18324   -18316   -18308 
  -18306   -18299   -18299   -18301   -18293   -18291   -18307   -18328 
  -18347   -18374   -18401   -18427   -18458   -18493   -18530   -18559 
  -18576   -18581   -18586   -18592   -18594   -18589   -18574   -18562 
  -18557   -18557   -18562   -18570   -18584   -18594   -18596   -18592 
  -18585   -18569   -18543   -18516   -18485   -18455   -18430   -18404 
  -18380   -18361   -18349   -18342   -18347   -18355   -18355   -18350 
  -18343   -18338   -18338   -18335   -18324   -18307   -18291   -18281 
  -18280   -18280   -18277   -18274   -18270   -18268   -18268   -18269 
  -18265   -18254   -18238   -18223   -18209   -18191   -18180   -18186 
  -18204   -18225   -18249   -18277   -18307   -18342   -18377   -18405 
  -18426   -18449   -18480   -18515   -18551   -18586   -18620   -18650 
  -18678   -18702   -18723   -18738   -18744   -18754   -18770   -18783 
  -18794   -18802   -18806   -18809   -18813   -18819   -18820   -18828 
  -18839   -18847   -18854   -18868   -18886   -18904   -18921   -18940 
  -18958   -18978   -18995   -19003   -19014   -19035   -19057   -19082 
  -19107   -19130   -19152   -19174   -19197   -19222   -19249   -19279 
  -19302   -19323   -19348   -19376   -19403   -19425   -19449   -19476 
  -19502   -19522   -19535   -19542   -19557   -19583   -19606   -19629 
  -19661   -19688   -19707   -19726   -19743   -19759   -19774   -19784 
  -19791   -19801   -19818   -19827   -19831   -19840   -19861   -19890 
  -19917   -19931   -19936   -19943   -19951   -19955   -19955   -19946 
  -19928   -19912   -19896   -19876   -19847   -19812   -19773   -19745 
  -19730   -19718   -19703   -19684   -19664   -19643   -19624   -19609 
  -19592   -19558   -19512   -19469   -19430   -19395   -19359   -19321 
  -19284   -19255   -19228   -19201   -19174   -19147   -19121   -19091 
  -19063   -19039   -19006   -18972   -18944   -18920   -18894   -18873 
  -18850   -18823   -18793   -18762   -18738   -18715   -18682   -18642 
  -18604   -18576   -18553   -18526   -18499   -18481   -18469   -18450 
  -18432   -18422   -18420   -18424   -18427   -18430   -18441   -18457 
  -18473   -18485   -18486   -18484   -18492   -18511   -18527   -18534 
  -18532   -18526   -18513   -18500   -18482   -18463   -18442   -18418 
  -18389   -18361   -18334   -18307   -18284   -18261   -18242   -18227 
  -18211   -18195   -18180   -18162   -18142   -18115   -18088   -18071 
  -18058   -18049   -18034   -18011   -17995   -17994   -17998   -17998 
  -17986   -17971   -17960   -17950   -17940   -17925   -17907   -17887 
  -17876   -17865   -17841   -17813   -17787   -17761   -17736   -17714 
  -17691   -17664   -17641   -17626   -17620   -17616   -17612   -17604 
  -17594   -17589   -17587   -17579   -17564   -17559   -17555   -17550 
  -17545   -17550   -17560   -17572   -17581   -17590   -17608   -17622 
  -17633   -17640   -17644   -17649   -17659   -17661   -17655   -17648 
  -17644   -17647   -17652   -17658   -17660   -17667   -17675   -17683 
  -17695   -17710   -17729   -17747   -17763   -17772   -17786   -17809 
  -17841   -17874   -17902   -17932   -17956   -17968   -17968   -17972 
  -17971   -17964   -17960   -17957   -17956   -17948   -17940   -17932 
  -17919   -17902   -17890   -17874   -17859   -17848   -17836   -17826 
  -17825   -17824   -17818   -17811   -17806   -17803   -17806   -17805 
  -17799   -17793   -17793   -17803   -17817   -17830   -17841   -17852 
  -17863   -17872   -17879   -17882   -17880   -17883   -17890   -17891 
  -17892   -17892   -17895   -17906   -17914   -17914   -17914   -17919 
  -17930   -17945   -17957   -17960   -17952   -17941   -17929   -17910 
  -17887   -17859   -17828   -17795   -17767   -17743   -17726   -17713 
  -17694   -17674   -17659   -17643   -17626   -17609   -17590   -17566 
  -17539   -17517   -17504   -17493   -17474   -17448   -17421   -17397 
  -17379   -17362   -17342   -17315   -17281   -17244   -17213   -17189 
  -17165   -17135   -17101   -17069   -17043   -17021   -16995   -16972 
  -16949   -16934   -16923   -16911   -16889   -16862   -16839   -16820 
  -16809   -16803   -16796   -16789   -16786   -16783   -16785   -16788 
  -16783   -16777   -16771   -16768   -16769   -16774   -16779   -16779 
  -16776   -16771   -16769   -16765   -16756   -16752   -16760   -16774 
  -16791   -16814   -16833   -16840   -16842   -16849   -16856   -16860 
  -16860   -16856   -16848   -16834   -16811   -16794   -16786   -16777 
  -16773   -16771   -16771   -16768   -16761   -16752   -16742   -16733 
  -16721   -16714   -16715   -16714   -16710   -16703   -16694   -16690 
  -16686   -16681   -16682   -16686   -16687   -16691   -16703   -16718 
  -16729   -16730   -16726   -16727   -16730   -16730   -16726   -16721 
  -16710   -16700   -16692   -16681   -16672   -16664   -16652   -16634 
  -16616   -16594   -16567   -16540   -16517   -16494   -16474   -16460 
  -16449   -16441   -16430   -16417   -16403   -16395   -16388   -16380 
  -16375   -16367   -16355   -16347   -16344   -16345   -16352   -16360 
  -16368   -16374   -16383   -16402   -16420   -16429   -16434   -16436 
  -16433   -16431   -16436   -16445   -16460   -16472   -16483   -16495 
  -16503   -16509   -16510   -16505   -16494   -16478   -16456   -16434 
  -16413   -16395   -16384   -16370   -16352   -16345   -16344   -16344 
  -16339   -16332   -16325   -16320   -16317   -16310   -16298   -16291 
  -16287   -16283   -16285   -16287   -16293   -16305   -16320   -16335 
  -16352   -16364   -16374   -16383   -16397   -16414   -16436   -16459 
  -16479   -16495   -16513   -16530   -16549   -16569   -16592   -16615 
  -16636   -16656   -16680   -16703   -16719   -16731   -16744   -16756 
  -16771   -16791   -16814   -16835   -16860   -16883   -16906   -16932 
  -16961   -16984   -17003   -17027   -17058   -17087   -17115   -17135 
  -17151   -17172   -17196   -17217   -17231   -17235   -17235   -17234 
  -17236   -17240   -17242   -17240   -17232   -17225   -17225   -17232 
  -17235   -17234   -17234   -17235   -17236   -17234   -17224   -17220 
  -17223   -17224   -17232   -17244   -17250   -17253   -17257   -17262 
  -17271   -17280   -17280   -17275   -17275   -17274   -17267   -17259 
  -17251   -17243   -17234   -17227   -17220   -17213   -17209   -17208 
  -17205   -17197   -17185   -17170   -17154   -17140   -17135   -17131 
  -17123   -17116   -17116   -17118   -17124   -17134   -17142   -17145 
  -17151   -17167   -17189   -17213   -17238   -17257   -17278   -17304 
  -17325   -17344   -17359   -17373   -17388   -17402   -17417   -17440 
  -17466   -17486   -17509   -17532   -17551   -17571   -17591   -17610 
  -17626   -17643   -17659   -17680   -17698   -17707   -17713   -17712 
  -17707   -17705   -17706   -17707   -17706   -17702   -17702   -17699 
  -17698   -17699   -17698   -17690   -17686   -17691   -17699   -17716 
  -17732   -17744   -17752   -17756   -17753   -17748   -17741   -17730 
  -17717   -17702   -17689   -17679   -17674   -17676   -17679   -17678 
  -17678   -17679   -17675   -17668   -17661   -17652   -17643   -17639 
  -17636   -17626   -17618   -17609   -17593   -17574   -17558   -17541 
  -17523   -17504   -17485   -17467   -17451   -17436   -17421   -17405 
  -17388   -17373   -17363   -17354   -17347   -17339   -17327   -17315 
  -17301   -17293   -17286   -17280   -17280   -17286   -17289   -17290 
