Origin Time       2016/04/16 01:25:00
Lat.              32.753
Long.             130.762
Depth. (km)       12
Mag.              7.3
Station Code      HYG026
Station Lat.      34.4149
Station Long.     134.7925
Station Height(m) 70
Record Time       2016/04/16 01:27:07
Sampling Freq(Hz) 100Hz
Duration Time(s)  60
Dir.              N-S
Scale Factor      7845(gal)/8223790
Max. Acc. (gal)   1.640
Last Correction   2016/04/16 01:27:08
Memo.             
[...]
   10054    10030    10000     9973     9958     9953     9960     9975 
    9994    10012    10022    10031    10029    10012     9989     9960 
    9926     9894     9875     9867     9867     9876     9894     9913 
    9925     9929     9927     9921     9910     9900     9894     9887 
    9886     9898     9913     9930     9942     9944     9933     9915 
    9895     9875     9863     9863     9869     9888     9913     9933 
    9948     9957     9953     9936     9907     9876     9847     9819 
    9807     9814     9830     9855     9882     9906     9921     9919 
    9907     9891     9871     9850     9837     9832     9837     9850 
    9868     9896     9926     9945     9953     9946     9922     9892 
    9861     9837     9830     9845     9876     9917     9957     9988 
   10007    10003     9979     9948     9909     9877     9857     9845 
    9847     9865     9891     9923     9956     9983     9998    10000 
    9992     9977     9963     9944     9926     9926     9948     9977 
   10010    10046    10077    10095    10096    10084    10066    10041 
   10019    10006     9996     9995    10003    10011    10019    10030 
   10038    10041    10038    10031    10025    10022    10022    10029 
   10035    10035    10029    10018     9995     9965     9942     9925 
    9913     9909     9911     9915     9925     9937     9942     9938 
    9930     9913     9887     9863     9840     9818     9807     9807 
    9807     9811     9821     9833     9846     9860     9867     9868 
    9864     9856     9846     9834     9818     9804     9802     9809 
    9826     9852     9877     9900     9917     9922     9917     9913 
    9910     9913     9922     9936     9950     9963     9969     9967 
    9956     9936     9909     9883     9859     9840     9836     9847 
    9868     9894     9922     9946     9963     9972     9969     9956 
    9937     9913     9890     9869     9856     9853     9861     9872 
    9886     9898     9904     9904     9896     9882     9864     9849 
    9836     9828     9818     9813     9811     9811     9807     9803 
    9796     9792     9798     9807     9818     9832     9847     9864 
    9872     9873     9872     9869     9875     9890     9907     9930 
    9952     9963     9964     9958     9948     9933     9917     9899 
    9888     9883     9876     9865     9855     9845     9836     9832 
    9836     9842     9852     9863     9869     9868     9860     9849 
    9836     9821     9811     9811     9822     9844     9872     9903 
    9931     9950     9963     9967     9958     9942     9917     9892 
    9876     9868     9867     9875     9890     9906     9925     9949 
    9972     9988     9992     9984     9963     9931     9902     9884 
    9876     9879     9895     9917     9934     9941     9937     9919 
    9891     9860     9832     9811     9804     9811     9832     9859 
    9882     9896     9906     9904     9892     9875     9857     9841 
    9829     9815     9803     9801     9802     9803     9806     9815 
    9826     9846     9871     9886     9895     9900     9903     9906 
    9909     9917     9929     9944     9961     9983    10003    10019 
   10029    10034    10025    10004     9981     9958     9941     9933 
    9933     9944     9971    10006    10041    10071    10088    10095 
   10088    10066    10031     9995     9963     9938     9930     9934 
    9952     9979    10004    10018    10019    10004     9969     9921 
    9869     9822     9786     9765     9761     9778     9810     9853 
    9896     9929     9941     9927     9891     9846     9801     9760 
    9736     9729     9736     9759     9796     9836     9864     9876 
    9875     9856     9825     9792     9767     9752     9751     9764 
    9792     9830     9869     9903     9931     9952     9954     9941 
    9922     9896     9869     9852     9844     9853     9883     9913 
    9937     9963     9979     9977     9964     9944     9915     9888 
    9868     9855     9857     9873     9898     9923     9946     9958 
    9964     9957     9944     9930     9913     9887     9867     9860 
    9871     9894     9926     9954     9976     9996    10014    10021 
   10015    10004     9994     9983     9975     9965     9952     9934 
    9910     9880     9856     9836     9823     9822     9829     9845 
    9867     9888     9910     9927     9937     9933     9917     9895 
    9871     9849     9833     9822     9821     9822     9825     9833 
    9840     9841     9837     9828     9814     9801     9791     9787 
    9790     9801     9822     9846     9865     9882     9887     9877 
    9863     9845     9823     9804     9792     9787     9787     9794 
    9804     9811     9811     9803     9787     9765     9742     9724 
    9717     9720     9730     9748     9771     9795     9813     9828 
    9845     9855     9850     9837     9819     9796     9776     9753 
    9733     9725     9732     9748     9774     9807     9846     9882 
    9906     9919     9922     9913     9899     9891     9892     9903 
    9922     9942     9961     9975     9981     9983     9972     9952 
    9930     9911     9895     9883     9886     9900     9921     9952 
    9989    10022    10046    10061    10064    10049    10030    10018 
   10010    10007    10015    10037    10069    10104    10133    10147 
   10149    10137    10110    10076    10048    10025    10007    10007 
   10025    10049    10083    10120    10152    10170    10176    10161 
   10130    10088    10053    10022    10000     9988     9976     9965 
    9956     9942     9923     9907     9895     9886     9880     9882 
    9884     9886     9884     9879     9865     9845     9825     9801 
    9776     9761     9752     9747     9742     9742     9741     9733 
    9728     9724     9713     9695     9674     9652     9639     9633 
    9634     9639     9648     9660     9675     9694     9718     9744 
    9768     9780     9780     9771     9761     9748     9741     9748 
    9761     9775     9787     9795     9799     9799     9796     9799 
    9806     9813     9817     9822     9834     9849     9865     9886 
    9906     9925     9944     9960     9972     9981     9988     9991 
    9985     9981     9981     9979     9984     9994     9996     9996 
   10004    10008    10007    10004     9999     9985     9971     9956 
    9934     9915     9906     9900     9899     9906     9915     9921 
    9926     9930     9930     9930     9933     9942     9948     9944 
    9933     9918     9904     9899     9896     9892     9892     9895 
    9896     9898     9898     9898     9896     9898     9903     9915 
    9934     9954     9965     9969     9973     9972     9967     9964 
    9964     9969     9988    10015    10042    10061    10071    10066 
   10052    10027    10004     9985     9968     9957     9957     9972 
    9996    10022    10045    10057    10062    10058    10049    10035 
   10021    10007     9998     9992     9991     9991     9995    10004 
   10012    10021    10026    10022    10015    10011    10010    10011 
   10015    10022    10031    10041    10050    10055    10055    10049 
   10039    10029    10014     9999     9987     9977     9977     9979 
    9988    10006    10026    10039    10054    10064    10062    10057 
   10048    10035    10022    10017    10019    10026    10034    10046 
   10058    10065    10073    10077    10075    10068    10062    10060 
   10060    10058    10053    10053    10057    10058    10058    10055 
   10052    10049    10045    10042    10048    10057    10066    10073 
   10077    10077    10076    10069    10064    10061    10062    10061 
   10055    10054    10057    10060    10062    10061    10050    10034 
   10015     9999     9995    10003    10022    10054    10083    10103 
   10126    10139    10137    10129    10118    10096    10068    10048 
   10039    10035    10037    10050    10065    10081    10099    10112 
   10120    10121    10115    10102    10092    10087    10087    10098 
   10111    10118    10114    10102    10077    10042    10011     9998 
   10002    10014    10030    10046    10053    10046    10029    10002 
    9968     9930     9891     9853     9825     9809     9804     9807 
    9814     9825     9830     9830     9832     9836     9837     9830 
    9817     9803     9787     9767     9755     9748     9748     9753 
    9759     9760     9760     9757     9751     9740     9732     9725 
    9721     9717     9714     9720     9721     9717     9710     9701 
    9688     9672     9655     9636     9620     9605     9596     9602 
    9617     9640     9675     9721     9767     9810     9850     9882 
    9900     9910     9910     9903     9892     9886     9882     9882 
    9884     9890     9898     9907     9911     9904     9895     9888 
    9880     9872     9873     9884     9904     9930     9956     9977 
    9992     9995     9989     9979     9968     9956     9942     9934 
    9936     9945     9954     9967     9981     9992     9995     9989 
    9973     9949     9923     9895     9863     9837     9828     9826 
    9832     9844     9856     9861     9863     9859     9852     9847 
    9841     9833     9833     9837     9837     9837     9832     9825 
    9822     9823     9825     9826     9842     9869     9887     9894 
    9902     9907     9909     9902     9890     9887     9886     9877 
    9873     9873     9868     9857     9847     9837     9830     9829 
    9837     9852     9872     9888     9888     9882     9867     9832 
    9788     9752     9722     9697     9684     9687     9701     9722 
    9744     9756     9759     9753     9742     9730     9715     9703 
    9699     9693     9688     9686     9679     9662     9645     9634 
    9633     9637     9652     9676     9707     9730     9745     9755 
    9757     9752     9747     9738     9729     9718     9710     9711 
    9724     9744     9769     9802     9833     9859     9875     9875 
    9865     9850     9832     9817     9813     9817     9832     9853 
    9879     9904     9923     9927     9917     9888     9849     9809 
    9767     9726     9702     9690     9688     9701     9715     9733 
    9752     9759     9760     9756     9742     9724     9703     9687 
    9682     9682     9691     9715     9740     9760     9784     9799 
    9795     9786     9768     9747     9729     9724     9736     9763 
    9796     9840     9884     9929     9965     9987    10000    10011 
   10021    10037    10061    10091    10126    10160    10195    10238 
   10285    10332    10372    10404    10434    10454    10465    10469 
   10467    10463    10457    10457    10467    10482    10497    10507 
   10513    10514    10509    10496    10478    10466    10459    10454 
   10451    10455    10461    10459    10447    10420    10380    10331 
   10277    10223    10181    10152    10139    10146    10166    10193 
   10222    10239    10239    10222    10177    10115    10049     9987 
    9934     9899     9887     9898     9915     9940     9969     9992 
   10003     9995     9972     9937     9892     9842     9788     9742 
    9720     9711     9707     9720     9736     9741     9732     9707 
    9668     9620     9562     9505     9459     9427     9406     9398 
    9393     9386     9377     9363     9342     9312     9282     9252 
    9228     9217     9221     9235     9256     9283     9312     9343 
    9373     9397     9414     9428     9433     9437     9448     9468 
    9495     9526     9563     9606     9644     9678     9705     9717 
    9718     9703     9674     9639     9598     9556     9529     9522 
    9532     9559     9599     9643     9672     9683     9671     9639 
    9590     9532     9475     9429     9394     9382     9394     9421 
    9458     9495     9528     9552     9563     9566     9563     9563 
    9563     9563     9572     9585     9599     9620     9643     9659 
    9661     9655     9641     9628     9621     9621     9634     9656 
    9680     9699     9707     9705     9694     9679     9668     9661 
    9661     9666     9676     9699     9729     9760     9798     9837 
    9863     9875     9872     9855     9823     9786     9753     9728 
    9714     9717     9732     9755     9776     9790     9799     9799 
    9791     9774     9742     9710     9684     9659     9633     9616 
    9601     9580     9560     9535     9502     9467     9428     9385 
    9343     9305     9274     9259     9258     9271     9294     9319 
    9339     9347     9340     9321     9296     9267     9236     9207 
    9186     9180     9192     9221     9255     9290     9321     9337 
    9337     9331     9321     9312     9319     9332     9352     9386 
    9424     9454     9475     9487     9485     9462     9424     9388 
    9360     9343     9344     9364     9402     9450     9494     9532 
    9563     9587     9601     9607     9616     9629     9657     9698 
    9744     9804     9868     9925     9983    10042    10088    10127 
   10169    10204    10230    10258    10291    10324    10362    10411 
   10462    10514    10569    10613    10648    10673    10689    10704 
   10719    10743    10779    10820    10867    10930    11001    11074 
   11145    11210    11263    11298    11321    11344    11369    11395 
   11422    11461    11508    11550    11585    11614    11628    11620 
   11600    11580    11561    11546    11545    11561    11585    11608 
   11623    11630    11639    11637    11619    11595    11564    11523 
   11473    11431    11398    11369    11349    11344    11350    11354 
   11352    11352    11353    11341    11321    11296    11265    11230 
   11194    11156    11118    11078    11037    10994    10945    10899 
   10854    10805    10755    10708    10660    10616    10571    10525 
   10477    10422    10362    10296    10219    10138    10054     9967 
    9882     9803     9740     9691     9651     9622     9602     9572 
    9536     9493     9435     9371     9308     9246     9192     9147 
    9113     9089     9081     9089     9104     9120     9132     9135 
    9123     9100     9074     9047     9022     9005     8999     8999 
    9003     9005     9001     8985     8949     8896     8842     8783 
    8721     8671     8627     8596     8579     8575     8573     8573 
    8565     8550     8526     8502     8490     8490     8500     8526 
    8563     8594     8617     8633     8644     8652     8657     8675 
    8703     8729     8749     8761     8760     8745     8718     8691 
    8661     8630     8606     8592     8587     8587     8590     8591 
    8596     8602     8600     8596     8592     8587     8584     8587 
    8588     8599     8622     8652     8685     8733     8781     8823 
    8858     8893     8928     8965     9003     9042     9084     9128 
    9177     9231     9288     9333     9370     9390     9386     9367 
    9335     9286     9232     9190     9157     9127     9107     9094 
    9084     9076     9067     9045     9007     8959     8910     8858 
    8814     8785     8776     8784     8810     8854     8914     8978 
    9040     9096     9139     9169     9189     9202     9213     9228 
    9250     9279     9320     9370     9424     9475     9514     9536 
    9540     9522     9495     9462     9424     9386     9348     9315 
    9290     9273     9259     9252     9250     9246     9240     9234 
    9229     9234     9244     9258     9273     9286     9290     9283 
    9273     9256     9235     9212     9194     9188     9194     9217 
    9251     9290     9331     9370     9401     9425     9444     9463 
    9481     9501     9520     9539     9555     9571     9590     9616 
    9647     9679     9715     9756     9804     9859     9913     9972 
   10033    10087    10130    10164    10185    10200    10220    10246 
   10280    10319    10362    10416    10477    10536    10597    10655 
   10702    10733    10748    10748    10737    10727    10722    10728 
   10746    10773    10802    10837    10874    10909    10945    10976 
   10989    10984    10970    10943    10899    10854    10817    10786 
   10763    10754    10752    10754    10755    10755    10750    10736 
   10717    10701    10696    10700    10709    10720    10728    10728 
   10724    10716    10697    10678    10663    10650    10639    10629 
   10625    10621    10615    10600    10575    10537    10494    10450 
   10405    10376    10362    10366    10389    10428    10473    10513 
   10543    10558    10555    10531    10493    10446    10400    10366 
   10346    10343    10362    10388    10415    10446    10463    10462 
   10440    10405    10362    10324    10291    10274    10278    10299 
   10329    10380    10440    10496    10542    10578    10593    10580 
   10546    10503    10455    10409    10369    10338    10315    10293 
   10265    10228    10185    10131    10072    10010     9946     9892 
    9845     9802     9771     9751     9734     9718     9703     9688 
    9674     9655     9639     9629     9622     9616     9621     9640 
    9668     9705     9742     9782     9825     9865     9894     9909 
    9917     9918     9915     9911     9907     9904     9906     9907 
    9910     9913     9910     9907     9904     9911     9933     9967 
   10004    10041    10066    10084    10093    10096    10100    10108 
   10126    10157    10199    10253    10315    10366    10409    10438 
   10446    10432    10408    10374    10335    10291    10242    10189 
   10133    10083    10039    10000     9967     9938     9906     9865 
    9821     9775     9732     9691     9651     9618     9598     9580 
    9558     9533     9506     9474     9447     9425     9409     9406 
    9410     9414     9418     9427     9428     9421     9410     9390 
    9355     9321     9283     9246     9217     9190     9173     9169 
    9169     9170     9171     9171     9177     9186     9200     9217 
    9242     9274     9315     9360     9413     9466     9514     9556 
    9591     9613     9620     9614     9603     9595     9586     9580 
    9583     9590     9603     9621     9645     9676     9713     9745 
    9779     9815     9847     9886     9927     9967    10002    10038 
   10072    10104    10135    10172    10215    10265    10324    10390 
   10451    10503    10546    10577    10597    10611    10616    10613 
   10606    10600    10589    10573    10552    10534    10520    10512 
   10513    10530    10554    10579    10601    10609    10608    10601 
   10589    10570    10557    10552    10547    10539    10527    10507 
   10484    10455    10426    10400    10372    10346    10323    10299 
   10276    10254    10230    10218    10208    10203    10212    10233 
   10251    10274    10295    10309    10320    10328    10334    10342 
   10355    10374    10403    10438    10477    10508    10530    10537 
   10531    10511    10477    10432    10382    10336    10292    10237 
   10174    10110    10049     9996     9950     9918     9906     9903 
    9904     9904     9890     9863     9829     9786     9737     9695 
    9667     9648     9645     9659     9682     9709     9741     9775 
    9806     9826     9842     9857     9869     9884     9903     9931 
    9967    10006    10046    10080    10110    10137    10154    10161 
