Origin Time       2016/04/16 01:25:00
Lat.              32.753
Long.             130.762
Depth. (km)       12
Mag.              7.3
Station Code      HYG025
Station Lat.      34.3405
Station Long.     134.9014
Station Height(m) 10
Record Time       2016/04/16 01:27:09
Sampling Freq(Hz) 100Hz
Duration Time(s)  63
Dir.              N-S
Scale Factor      7845(gal)/8223790
Max. Acc. (gal)   2.494
Last Correction   2016/04/16 01:27:10
Memo.             
[...]
   -6507    -6513    -6525    -6535    -6540    -6540    -6534    -6523 
   -6508    -6488    -6465    -6448    -6436    -6430    -6426    -6424 
   -6430    -6439    -6450    -6460    -6470    -6474    -6471    -6465 
   -6453    -6432    -6409    -6385    -6365    -6347    -6335    -6327 
   -6323    -6323    -6326    -6322    -6313    -6305    -6296    -6281 
   -6266    -6254    -6239    -6228    -6222    -6219    -6219    -6228 
   -6238    -6249    -6268    -6288    -6303    -6312    -6315    -6312 
   -6305    -6290    -6270    -6245    -6214    -6178    -6142    -6112 
   -6096    -6091    -6096    -6118    -6153    -6195    -6235    -6273 
   -6296    -6305    -6308    -6300    -6288    -6280    -6277    -6280 
   -6288    -6299    -6316    -6338    -6359    -6384    -6408    -6432 
   -6451    -6469    -6484    -6492    -6496    -6492    -6480    -6465 
   -6447    -6423    -6400    -6380    -6359    -6340    -6330    -6326 
   -6328    -6340    -6354    -6367    -6388    -6409    -6426    -6439 
   -6447    -6448    -6444    -6442    -6439    -6439    -6443    -6448 
   -6457    -6467    -6480    -6492    -6502    -6513    -6524    -6531 
   -6534    -6535    -6531    -6520    -6507    -6492    -6474    -6457 
   -6440    -6427    -6416    -6409    -6412    -6419    -6427    -6440 
   -6451    -6458    -6460    -6462    -6458    -6453    -6450    -6444 
   -6442    -6442    -6440    -6443    -6451    -6451    -6444    -6438 
   -6427    -6408    -6384    -6361    -6345    -6334    -6327    -6328 
   -6335    -6343    -6350    -6354    -6354    -6345    -6327    -6307 
   -6282    -6254    -6230    -6207    -6181    -6157    -6137    -6120 
   -6106    -6093    -6083    -6072    -6062    -6056    -6048    -6038 
   -6031    -6029    -6030    -6033    -6039    -6050    -6062    -6072 
   -6080    -6085    -6085    -6080    -6076    -6072    -6066    -6065 
   -6064    -6065    -6072    -6083    -6096    -6110    -6129    -6146 
   -6161    -6176    -6195    -6218    -6238    -6254    -6266    -6277 
   -6285    -6288    -6285    -6292    -6300    -6307    -6316    -6330 
   -6340    -6349    -6354    -6356    -6356    -6356    -6355    -6354 
   -6359    -6372    -6384    -6392    -6404    -6415    -6420    -6423 
   -6424    -6419    -6413    -6411    -6401    -6389    -6380    -6367 
   -6350    -6335    -6323    -6313    -6309    -6309    -6308    -6304 
   -6300    -6295    -6284    -6273    -6262    -6252    -6242    -6237 
   -6237    -6241    -6245    -6251    -6261    -6269    -6272    -6269 
   -6266    -6258    -6246    -6231    -6216    -6201    -6193    -6192 
   -6192    -6197    -6212    -6227    -6243    -6265    -6282    -6299 
   -6311    -6309    -6296    -6277    -6251    -6223    -6200    -6185 
   -6174    -6170    -6177    -6186    -6200    -6216    -6237    -6258 
   -6277    -6292    -6299    -6296    -6289    -6280    -6266    -6258 
   -6258    -6261    -6276    -6297    -6316    -6336    -6359    -6370 
   -6372    -6370    -6363    -6350    -6336    -6318    -6301    -6290 
   -6280    -6272    -6266    -6265    -6266    -6266    -6265    -6265 
   -6266    -6268    -6270    -6273    -6276    -6278    -6281    -6282 
   -6281    -6277    -6274    -6273    -6274    -6277    -6277    -6278 
   -6285    -6297    -6308    -6320    -6334    -6350    -6372    -6394 
   -6415    -6438    -6455    -6463    -6462    -6453    -6440    -6426 
   -6416    -6416    -6421    -6434    -6447    -6460    -6473    -6481 
   -6481    -6475    -6470    -6454    -6427    -6405    -6388    -6369 
   -6354    -6346    -6339    -6338    -6345    -6351    -6355    -6366 
   -6376    -6380    -6389    -6405    -6412    -6419    -6431    -6439 
   -6436    -6435    -6434    -6423    -6409    -6400    -6389    -6380 
   -6376    -6376    -6380    -6385    -6385    -6381    -6372    -6358 
   -6336    -6309    -6289    -6268    -6245    -6228    -6219    -6211 
   -6201    -6196    -6193    -6186    -6183    -6183    -6186    -6196 
   -6212    -6237    -6262    -6282    -6301    -6315    -6316    -6312 
   -6307    -6299    -6288    -6282    -6281    -6288    -6299    -6311 
   -6327    -6347    -6372    -6393    -6412    -6430    -6444    -6458 
   -6467    -6478    -6492    -6505    -6516    -6519    -6519    -6520 
   -6517    -6515    -6511    -6511    -6508    -6502    -6492    -6475 
   -6459    -6446    -6435    -6426    -6416    -6408    -6403    -6400 
   -6403    -6404    -6405    -6404    -6399    -6386    -6374    -6365 
   -6353    -6342    -6331    -6319    -6308    -6301    -6296    -6295 
   -6290    -6285    -6285    -6284    -6274    -6268    -6259    -6249 
   -6243    -6238    -6234    -6235    -6237    -6237    -6237    -6239 
   -6242    -6246    -6252    -6258    -6261    -6265    -6265    -6259 
   -6252    -6247    -6243    -6239    -6237    -6242    -6255    -6273 
   -6295    -6323    -6356    -6389    -6417    -6434    -6439    -6434 
   -6417    -6404    -6389    -6374    -6367    -6373    -6384    -6397 
   -6413    -6430    -6442    -6453    -6460    -6460    -6458    -6455 
   -6446    -6435    -6427    -6416    -6403    -6388    -6376    -6367 
   -6361    -6355    -6358    -6369    -6380    -6394    -6409    -6417 
   -6421    -6420    -6411    -6396    -6377    -6356    -6336    -6315 
   -6301    -6297    -6293    -6290    -6289    -6288    -6285    -6280 
   -6269    -6257    -6247    -6242    -6237    -6231    -6235    -6247 
   -6264    -6281    -6297    -6308    -6308    -6301    -6285    -6266 
   -6246    -6226    -6204    -6189    -6180    -6169    -6157    -6151 
   -6148    -6143    -6143    -6147    -6151    -6158    -6170    -6180 
   -6185    -6189    -6189    -6186    -6185    -6184    -6184    -6192 
   -6204    -6218    -6234    -6249    -6262    -6278    -6295    -6308 
   -6315    -6319    -6318    -6308    -6295    -6281    -6269    -6259 
   -6255    -6258    -6268    -6282    -6296    -6308    -6319    -6326 
   -6326    -6319    -6307    -6293    -6284    -6277    -6269    -6265 
   -6265    -6268    -6266    -6268    -6273    -6278    -6289    -6303 
   -6312    -6319    -6323    -6327    -6323    -6320    -6312    -6303 
   -6293    -6288    -6282    -6280    -6280    -6285    -6288    -6297 
   -6315    -6331    -6347    -6369    -6386    -6400    -6408    -6408 
   -6397    -6381    -6356    -6330    -6309    -6293    -6284    -6285 
   -6295    -6309    -6323    -6338    -6346    -6349    -6346    -6334 
   -6316    -6297    -6276    -6254    -6234    -6219    -6216    -6224 
   -6243    -6273    -6308    -6346    -6380    -6407    -6426    -6436 
   -6432    -6413    -6389    -6363    -6332    -6305    -6282    -6265 
   -6252    -6251    -6255    -6265    -6277    -6292    -6305    -6320 
   -6330    -6334    -6334    -6326    -6309    -6292    -6274    -6257 
   -6249    -6254    -6268    -6288    -6313    -6340    -6361    -6376 
   -6382    -6380    -6363    -6342    -6316    -6292    -6273    -6259 
   -6255    -6266    -6288    -6319    -6350    -6381    -6412    -6436 
   -6447    -6450    -6446    -6436    -6420    -6405    -6396    -6386 
   -6376    -6369    -6365    -6361    -6354    -6351    -6350    -6351 
   -6356    -6369    -6382    -6399    -6415    -6427    -6436    -6438 
   -6432    -6426    -6417    -6409    -6400    -6389    -6384    -6380 
   -6381    -6381    -6385    -6396    -6405    -6415    -6427    -6435 
   -6443    -6454    -6459    -6460    -6459    -6455    -6451    -6448 
   -6450    -6453    -6457    -6471    -6484    -6493    -6507    -6525 
   -6543    -6558    -6569    -6573    -6571    -6569    -6559    -6544 
   -6535    -6525    -6521    -6521    -6523    -6520    -6515    -6508 
   -6497    -6482    -6465    -6447    -6424    -6400    -6374    -6351 
   -6327    -6303    -6277    -6251    -6226    -6199    -6174    -6153 
   -6133    -6115    -6108    -6104    -6104    -6110    -6115    -6123 
   -6126    -6129    -6133    -6129    -6118    -6107    -6089    -6065 
   -6044    -6026    -6004    -5989    -5984    -5981    -5988    -6003 
   -6018    -6033    -6052    -6064    -6069    -6070    -6065    -6056 
   -6048    -6035    -6023    -6016    -6012    -6011    -6018    -6031 
   -6044    -6061    -6081    -6103    -6119    -6131    -6143    -6151 
   -6156    -6158    -6158    -6156    -6153    -6151    -6154    -6157 
   -6164    -6176    -6188    -6196    -6211    -6226    -6235    -6249 
   -6268    -6284    -6295    -6304    -6311    -6318    -6330    -6340 
   -6350    -6369    -6392    -6413    -6436    -6458    -6474    -6489 
   -6501    -6507    -6509    -6513    -6516    -6519    -6525    -6538 
   -6552    -6569    -6585    -6601    -6613    -6620    -6620    -6617 
   -6609    -6598    -6588    -6577    -6573    -6575    -6583    -6597 
   -6612    -6628    -6644    -6662    -6678    -6687    -6693    -6693 
   -6685    -6667    -6643    -6619    -6596    -6569    -6551    -6538 
   -6525    -6517    -6515    -6517    -6527    -6538    -6547    -6559 
   -6575    -6589    -6600    -6610    -6620    -6631    -6643    -6651 
   -6660    -6673    -6686    -6700    -6721    -6744    -6775    -6812 
   -6847    -6879    -6910    -6930    -6939    -6947    -6952    -6952 
   -6955    -6961    -6975    -6993    -7018    -7052    -7089    -7129 
   -7173    -7217    -7253    -7283    -7310    -7327    -7338    -7346 
   -7349    -7346    -7342    -7335    -7329    -7325    -7322    -7321 
   -7318    -7312    -7307    -7300    -7290    -7279    -7267    -7254 
   -7236    -7217    -7194    -7165    -7134    -7109    -7091    -7078 
   -7069    -7067    -7067    -7065    -7059    -7045    -7015    -6978 
   -6937    -6889    -6835    -6785    -6733    -6689    -6663    -6646 
   -6632    -6629    -6633    -6635    -6639    -6635    -6623    -6605 
   -6579    -6542    -6497    -6454    -6411    -6369    -6334    -6307 
   -6281    -6258    -6245    -6232    -6223    -6219    -6214    -6214 
   -6218    -6222    -6230    -6238    -6243    -6243    -6243    -6241 
   -6231    -6214    -6196    -6168    -6129    -6092    -6062    -6033 
   -6006    -5991    -5975    -5961    -5957    -5957    -5962    -5968 
   -5977    -5994    -6012    -6029    -6044    -6061    -6079    -6096 
   -6114    -6131    -6150    -6170    -6193    -6219    -6247    -6270 
   -6293    -6312    -6319    -6318    -6309    -6300    -6289    -6273 
   -6261    -6255    -6254    -6257    -6269    -6284    -6299    -6312 
   -6316    -6318    -6313    -6297    -6273    -6243    -6205    -6166 
   -6137    -6110    -6093    -6085    -6083    -6083    -6080    -6075 
   -6062    -6039    -6003    -5958    -5904    -5846    -5791    -5738 
   -5689    -5649    -5616    -5590    -5575    -5562    -5545    -5526 
   -5498    -5460    -5414    -5367    -5321    -5275    -5229    -5188 
   -5152    -5125    -5108    -5100    -5098    -5105    -5117    -5128 
   -5144    -5162    -5177    -5194    -5216    -5232    -5246    -5260 
   -5271    -5279    -5294    -5316    -5339    -5367    -5405    -5447 
   -5491    -5536    -5583    -5623    -5656    -5683    -5698    -5705 
   -5705    -5702    -5699    -5698    -5699    -5701    -5705    -5707 
   -5705    -5701    -5694    -5676    -5655    -5633    -5609    -5580 
   -5555    -5533    -5517    -5508    -5506    -5510    -5518    -5526 
   -5535    -5543    -5549    -5552    -5552    -5552    -5555    -5557 
   -5560    -5566    -5568    -5571    -5572    -5567    -5557    -5549 
   -5548    -5555    -5567    -5590    -5626    -5667    -5715    -5769 
   -5827    -5886    -5944    -6006    -6065    -6115    -6168    -6219 
   -6268    -6318    -6369    -6420    -6480    -6543    -6605    -6671 
   -6744    -6820    -6894    -6975    -7056    -7141    -7229    -7315 
   -7400    -7481    -7557    -7627    -7692    -7753    -7805    -7851 
   -7898    -7944    -7987    -8029    -8067    -8097    -8117    -8128 
   -8128    -8120    -8105    -8083    -8058    -8033    -8009    -7981 
   -7954    -7935    -7912    -7886    -7862    -7834    -7804    -7776 
   -7746    -7723    -7707    -7695    -7690    -7696    -7708    -7723 
   -7738    -7750    -7751    -7743    -7723    -7693    -7649    -7596 
   -7539    -7485    -7442    -7404    -7378    -7366    -7364    -7366 
   -7376    -7387    -7391    -7389    -7381    -7365    -7344    -7319 
   -7296    -7280    -7273    -7277    -7296    -7330    -7381    -7446 
   -7522    -7600    -7674    -7742    -7798    -7831    -7843    -7846 
   -7834    -7812    -7792    -7780    -7776    -7793    -7831    -7886 
   -7962    -8048    -8136    -8221    -8297    -8355    -8401    -8431 
   -8449    -8457    -8457    -8453    -8447    -8440    -8434    -8433 
   -8431    -8431    -8433    -8434    -8431    -8421    -8410    -8394 
   -8368    -8343    -8321    -8295    -8270    -8244    -8213    -8177 
   -8136    -8089    -8037    -7983    -7924    -7863    -7803    -7743 
   -7681    -7619    -7560    -7497    -7434    -7371    -7304    -7230 
   -7146    -7055    -6961    -6858    -6744    -6633    -6516    -6396 
   -6273    -6147    -6026    -5908    -5793    -5688    -5585    -5486 
   -5391    -5301    -5216    -5131    -5043    -4956    -4870    -4781 
   -4689    -4599    -4509    -4421    -4341    -4268    -4197    -4131 
   -4074    -4024    -3973    -3931    -3897    -3867    -3846    -3832 
   -3821    -3815    -3809    -3807    -3811    -3817    -3824    -3831 
   -3839    -3839    -3834    -3824    -3812    -3797    -3782    -3766 
   -3748    -3735    -3723    -3713    -3711    -3713    -3719    -3728 
   -3738    -3748    -3757    -3765    -3780    -3802    -3834    -3879 
   -3942    -4010    -4090    -4189    -4301    -4422    -4546    -4669 
   -4785    -4889    -4978    -5054    -5120    -5177    -5225    -5273 
   -5319    -5368    -5420    -5476    -5543    -5611    -5684    -5757 
   -5827    -5898    -5961    -6015    -6064    -6102    -6129    -6154 
   -6174    -6191    -6211    -6226    -6241    -6255    -6266    -6274 
   -6285    -6296    -6304    -6313    -6326    -6343    -6366    -6396 
   -6430    -6470    -6516    -6562    -6609    -6656    -6701    -6751 
   -6801    -6845    -6889    -6928    -6964    -6997    -7028    -7053 
   -7076    -7092    -7099    -7102    -7094    -7080    -7075    -7078 
   -7084    -7106    -7145    -7195    -7250    -7310    -7366    -7422 
   -7470    -7507    -7527    -7534    -7526    -7506    -7484    -7461 
   -7443    -7435    -7438    -7452    -7476    -7506    -7541    -7573 
   -7600    -7619    -7626    -7618    -7600    -7569    -7531    -7492 
   -7454    -7418    -7388    -7365    -7350    -7340    -7335    -7329 
   -7319    -7302    -7272    -7225    -7165    -7099    -7028    -6959 
   -6898    -6848    -6817    -6802    -6797    -6808    -6825    -6843 
   -6858    -6862    -6851    -6825    -6782    -6718    -6639    -6554 
   -6465    -6381    -6311    -6261    -6227    -6208    -6204    -6205 
   -6205    -6208    -6201    -6178    -6142    -6095    -6037    -5968 
   -5900    -5831    -5764    -5702    -5648    -5607    -5576    -5552 
   -5539    -5532    -5524    -5510    -5489    -5452    -5402    -5341 
   -5273    -5205    -5146    -5098    -5070    -5059    -5067    -5097 
   -5139    -5190    -5250    -5308    -5358    -5400    -5431    -5448 
   -5459    -5460    -5451    -5435    -5421    -5409    -5400    -5398 
   -5401    -5408    -5414    -5416    -5410    -5401    -5393    -5381 
   -5371    -5367    -5370    -5379    -5398    -5425    -5459    -5497 
   -5537    -5580    -5620    -5653    -5680    -5699    -5709    -5706 
   -5694    -5678    -5653    -5630    -5618    -5616    -5625    -5647 
   -5679    -5719    -5760    -5805    -5845    -5877    -5898    -5906 
   -5907    -5899    -5881    -5857    -5830    -5806    -5786    -5773 
   -5775    -5787    -5806    -5831    -5859    -5888    -5913    -5931 
   -5946    -5960    -5976    -5991    -6004    -6018    -6031    -6050 
   -6073    -6097    -6130    -6170    -6210    -6252    -6295    -6331 
   -6367    -6399    -6427    -6457    -6481    -6507    -6531    -6556 
   -6585    -6609    -6631    -6652    -6671    -6683    -6691    -6694 
   -6698    -6708    -6718    -6739    -6771    -6805    -6844    -6879 
   -6899    -6912    -6916    -6905    -6879    -6843    -6797    -6750 
   -6706    -6669    -6643    -6632    -6635    -6646    -6664    -6682 
   -6691    -6693    -6681    -6652    -6613    -6567    -6516    -6462 
   -6413    -6370    -6331    -6297    -6270    -6246    -6219    -6193 
   -6164    -6131    -6100    -6068    -6034    -6000    -5967    -5935 
   -5902    -5863    -5831    -5800    -5760    -5722    -5682    -5630 
   -5575    -5516    -5451    -5387    -5327    -5271    -5223    -5185 
   -5157    -5131    -5107    -5089    -5070    -5050    -5032    -5009 
   -4977    -4936    -4892    -4841    -4784    -4727    -4672    -4622 
   -4579    -4544    -4518    -4502    -4495    -4498    -4510    -4529 
   -4545    -4560    -4579    -4594    -4606    -4615    -4625    -4635 
   -4646    -4662    -4685    -4710    -4742    -4777    -4814    -4860 
   -4903    -4942    -4973    -4989    -5003    -5013    -5022    -5034 
   -5049    -5071    -5107    -5146    -5189    -5235    -5283    -5325 
   -5364    -5402    -5435    -5460    -5489    -5521    -5562    -5610 
   -5670    -5744    -5829    -5922    -6027    -6134    -6238    -6334 
   -6421    -6500    -6561    -6602    -6635    -6659    -6673    -6691 
   -6720    -6755    -6801    -6856    -6914    -6976    -7040    -7098 
   -7146    -7187    -7218    -7244    -7261    -7268    -7271    -7273 
   -7276    -7283    -7296    -7315    -7345    -7378    -7411    -7449 
   -7485    -7519    -7553    -7584    -7605    -7624    -7639    -7647 
   -7645    -7631    -7605    -7570    -7531    -7482    -7422    -7350 
   -7272    -7184    -7088    -6990    -6890    -6787    -6691    -6608 
   -6528    -6455    -6389    -6326    -6265    -6205    -6143    -6084 
   -6023    -5964    -5904    -5845    -5787    -5733    -5675    -5613 
   -5549    -5490    -5436    -5386    -5343    -5306    -5275    -5250 
   -5225    -5209    -5197    -5186    -5174    -5161    -5142    -5117 
   -5082    -5038    -4984    -4923    -4864    -4801    -4742    -4695 
   -4657    -4631    -4619    -4617    -4621    -4629    -4642    -4657 
   -4672    -4687    -4700    -4707    -4707    -4702    -4695    -4684 
   -4672    -4661    -4652    -4650    -4658    -4677    -4706    -4746 
   -4793    -4843    -4892    -4938    -4977    -5012    -5043    -5065 
   -5080    -5089    -5089    -5090    -5092    -5093    -5103    -5117 
   -5143    -5179    -5227    -5282    -5341    -5408    -5476    -5540 
   -5599    -5655    -5706    -5752    -5796    -5838    -5873    -5907 
   -5944    -5980    -6019    -6061    -6100    -6131    -6157    -6177 
   -6192    -6199    -6196    -6189    -6181    -6170    -6156    -6142 
   -6133    -6126    -6119    -6107    -6096    -6085    -6069    -6054 
   -6041    -6030    -6027    -6027    -6025    -6025    -6023    -6015 
   -5995    -5971    -5940    -5902    -5860    -5818    -5776    -5741 
   -5717    -5702    -5692    -5687    -5683    -5683    -5678    -5664 
   -5643    -5614    -5576    -5535    -5491    -5452    -5421    -5404 
   -5397    -5404    -5421    -5443    -5466    -5483    -5495    -5499 
