Origin Time       2016/04/16 01:25:00
Lat.              32.753
Long.             130.762
Depth. (km)       12
Mag.              7.3
Station Code      HYG012
Station Lat.      34.9959
Station Long.     134.5520
Station Height(m) 85
Record Time       2016/04/16 01:27:11
Sampling Freq(Hz) 100Hz
Duration Time(s)  60
Dir.              E-W
Scale Factor      7845(gal)/8223790
Max. Acc. (gal)   1.680
Last Correction   2016/04/16 01:27:12
Memo.             
[...]
    -334     -372     -399     -413     -421     -413     -379     -336 
    -291     -238     -176     -122      -82      -47      -20        0 
      18       31       35       41       55       63       68       76 
      82       81       79       75       68       58       43       23 
       9        8        9       14       36       65       97      129 
     156      166      162      157      147      131      126      125 
     122      121      117      112      103       98       99      106 
     116      126      135      143      151      149      144      141 
     128      114      105       86       56       25       -8      -49 
     -95     -136     -171     -205     -232     -253     -271     -278 
    -274     -270     -261     -243     -221     -203     -180     -159 
    -147     -139     -137     -151     -170     -187     -206     -211 
    -206     -203     -194     -178     -167     -157     -139     -117 
    -102      -87      -64      -45      -41      -51      -68      -90 
    -121     -162     -202     -246     -297     -344     -395     -450 
    -508     -575     -643     -704     -769     -835     -895     -953 
   -1011    -1060    -1102    -1146    -1181    -1202    -1212    -1206 
   -1189    -1171    -1152    -1127    -1107    -1100    -1097    -1096 
   -1104    -1117    -1129    -1146    -1163    -1170    -1173    -1179 
   -1179    -1177    -1185    -1194    -1201    -1209    -1224    -1240 
   -1260    -1289    -1317    -1344    -1377    -1408    -1424    -1437 
   -1451    -1449    -1433    -1414    -1391    -1360    -1333    -1313 
   -1286    -1258    -1240    -1219    -1197    -1192    -1197    -1201 
   -1219    -1244    -1262    -1274    -1287    -1291    -1282    -1269 
   -1251    -1230    -1205    -1181    -1162    -1146    -1138    -1142 
   -1150    -1167    -1194    -1213    -1228    -1242    -1248    -1255 
   -1258    -1240    -1216    -1193    -1156    -1112    -1069    -1020 
    -965     -912     -862     -814     -776     -750     -731     -719 
    -714     -704     -692     -683     -679     -670     -661     -652 
    -637     -616     -591     -557     -515     -468     -417     -360 
    -302     -246     -191     -133      -82      -36       10       52 
      82      105      122      131      135      143      144      147 
     157      166      162      160      159      152      144      139 
     129      117      109       99       89       78       58       28 
      -5      -41      -86     -139     -184     -225     -268     -310 
    -348     -376     -394     -410     -425     -432     -425     -405 
    -375     -338     -288     -233     -183     -129      -78      -40 
      -9       14       22       31       36       32       31       31 
      23       17        9      -13      -44      -74     -108     -149 
    -187     -214     -241     -265     -278     -282     -283     -282 
    -276     -268     -253     -234     -225     -220     -220     -234 
    -253     -265     -284     -305     -309     -301     -287     -263 
    -234     -205     -174     -139     -101      -67      -31        5 
      37       71      102      120      128      135      133      124 
     112      103       86       67       47       23       -5      -37 
     -72     -118     -168     -212     -259     -305     -340     -376 
    -413     -441     -461     -480     -506     -526     -540     -550 
    -560     -573     -589     -594     -599     -614     -627     -634 
    -639     -638     -627     -614     -599     -575     -549     -526 
    -502     -471     -438     -406     -380     -364     -357     -359 
    -369     -382     -390     -398     -411     -418     -413     -405 
    -392     -367     -338     -314     -288     -265     -257     -259 
    -255     -259     -272     -279     -286     -307     -328     -348 
    -380     -422     -461     -493     -518     -526     -526     -511 
    -481     -446     -419     -391     -359     -324     -283     -236 
    -189     -131      -67       -9       37       79      110      133 
     153      168      176      182      189      193      187      176 
     164      147      128      109       86       60       41       29 
      21       25       43       63       81      103      122      136 
     149      153      139      116       86       37      -21      -79 
    -144     -222     -298     -370     -441     -502     -542     -564 
    -565     -540     -504     -464     -415     -365     -328     -301 
    -275     -270     -287     -307     -332     -369     -405     -430 
    -449     -453     -440     -414     -380     -324     -246     -172 
     -93       -2       76      141      193      221      230      225 
     206      176      147      112       75       47       31       20 
      16       23       32       45       67       90      109      131 
     157      182      198      211      222      217      201      183 
     157      121       87       60       31        0      -25      -54 
     -79      -99     -129     -167     -205     -253     -314     -383 
    -464     -553     -642     -730     -824     -916    -1003    -1096 
   -1189    -1274    -1355    -1443    -1534    -1617    -1694    -1763 
   -1817    -1854    -1877    -1881    -1875    -1858    -1830    -1796 
   -1765    -1736    -1710    -1690    -1674    -1657    -1645    -1642 
   -1644    -1644    -1647    -1647    -1642    -1632    -1603    -1556 
   -1497    -1431    -1355    -1271    -1188    -1102    -1016     -938 
    -870     -811     -758     -715     -683     -660     -646     -637 
    -627     -619     -622     -623     -623     -633     -643     -656 
    -677     -699     -715     -731     -747     -751     -746     -745 
    -743     -735     -730     -726     -715     -706     -693     -672 
    -653     -638     -616     -602     -606     -619     -641     -668 
    -696     -722     -739     -749     -753     -751     -750     -751 
    -746     -737     -724     -702     -675     -649     -616     -589 
    -579     -575     -562     -553     -545     -526     -510     -486 
    -450     -413     -375     -334     -298     -271     -246     -229 
    -221     -212     -197     -182     -171     -162     -151     -155 
    -170     -178     -189     -203     -222     -240     -259     -286 
    -322     -370     -430     -491     -548     -600     -645     -676 
    -696     -695     -672     -641     -596     -532     -464     -400 
    -337     -279     -237     -212     -205     -218     -252     -297 
    -359     -441     -522     -595     -661     -714     -746     -767 
    -780     -783     -785     -793     -807     -828     -853     -877 
    -900     -919     -932     -945     -961     -976     -981     -986 
    -992     -981     -953     -920     -882     -835     -787     -743 
    -699     -650     -600     -553     -503     -464     -440     -425 
    -418     -427     -445     -459     -475     -493     -491     -473 
    -461     -448     -436     -432     -430     -436     -454     -479 
    -502     -522     -535     -538     -531     -522     -508     -492 
    -479     -463     -440     -421     -409     -398     -387     -392 
    -403     -417     -442     -464     -469     -481     -491     -488 
    -493     -498     -492     -488     -486     -472     -453     -434 
    -410     -379     -349     -313     -263     -218     -175     -129 
     -93      -75      -56      -32      -13        5       27       39 
      36       20      -10      -63     -131     -210     -297     -392 
    -492     -596     -702     -788     -853     -905     -943     -961 
    -966     -965     -957     -949     -942     -931     -924     -926 
    -926     -920     -922     -929     -929     -927     -928     -920 
    -903     -880     -842     -787     -722     -652     -577     -508 
    -450     -403     -368     -353     -344     -341     -344     -357 
    -375     -398     -423     -454     -491     -531     -579     -629 
    -683     -734     -778     -828     -877     -913     -951     -989 
   -1009    -1032    -1063    -1080    -1086    -1100    -1111    -1116 
   -1120    -1123    -1127    -1142    -1171    -1208    -1246    -1293 
   -1350    -1408    -1463    -1520    -1572    -1614    -1648    -1672 
   -1676    -1668    -1663    -1651    -1630    -1614    -1603    -1597 
   -1601    -1610    -1610    -1614    -1628    -1638    -1647    -1661 
   -1674    -1674    -1674    -1661    -1632    -1598    -1552    -1490 
   -1425    -1362    -1294    -1227    -1167    -1115    -1069    -1030 
    -992     -958     -932     -907     -877     -861     -850     -845 
    -853     -866     -885     -912     -938     -959     -977     -985 
    -984     -972     -945     -907     -855     -785     -707     -631 
    -550     -464     -387     -326     -270     -222     -193     -168 
    -148     -141     -139     -141     -153     -163     -164     -172 
    -191     -201     -209     -224     -230     -233     -243     -257 
    -279     -315     -369     -433     -499     -573     -649     -719 
    -791     -853     -899     -939     -976     -999    -1012    -1013 
    -996     -965     -935     -903     -864     -834     -818     -797 
    -774     -754     -730     -702     -675     -643     -612     -596 
    -591     -595     -616     -654     -700     -757     -824     -900 
    -973    -1046    -1121    -1194    -1262    -1328    -1383    -1426 
   -1466    -1498    -1518    -1528    -1526    -1509    -1490    -1466 
   -1431    -1391    -1358    -1325    -1290    -1260    -1236    -1206 
   -1177    -1151    -1123    -1092    -1065    -1039    -1015     -996 
    -976     -955     -940     -935     -934     -938     -953     -978 
   -1011    -1048    -1093    -1140    -1183    -1233    -1281    -1316 
   -1345    -1366    -1364    -1360    -1355    -1347    -1344    -1347 
   -1348    -1352    -1359    -1364    -1360    -1351    -1334    -1305 
   -1260    -1210    -1148    -1081    -1020     -958     -896     -841 
    -791     -743     -700     -660     -623     -592     -568     -550 
    -535     -525     -526     -537     -552     -571     -588     -602 
    -607     -604     -591     -571     -546     -517     -487     -460 
    -433     -413     -395     -370     -349     -337     -332     -329 
    -329     -337     -346     -361     -383     -403     -425     -453 
    -476     -492     -513     -537     -562     -592     -631     -676 
    -726     -791     -861     -938    -1031    -1131    -1227    -1324 
   -1422    -1520    -1605    -1682    -1752    -1806    -1848    -1875 
   -1877    -1858    -1830    -1792    -1742    -1692    -1648    -1606 
   -1567    -1534    -1507    -1482    -1456    -1422    -1387    -1351 
   -1302    -1243    -1185    -1131    -1075    -1019     -970     -924 
    -873     -827     -793     -757     -726     -704     -680     -653 
    -638     -621     -592     -561     -529     -493     -456     -409 
    -351     -288     -225     -164     -108      -54        1       52 
      89      112      137      147      141      136      126      106 
      83       62       41       14      -18      -54      -91     -129 
    -156     -176     -202     -228     -248     -275     -309     -352 
    -407     -459     -502     -542     -572     -592     -611     -623 
    -626     -623     -621     -610     -592     -576     -557     -533 
    -518     -506     -492     -476     -460     -442     -421     -403 
    -391     -375     -359     -351     -344     -353     -380     -411 
    -438     -467     -484     -483     -477     -467     -441     -413 
    -387     -361     -340     -321     -305     -287     -261     -237 
    -212     -183     -155     -125      -86      -47       -9       37 
      83      124      167      206      240      276      309      329 
     356      390      415      440      464      484      491      484 
     471      442      403      360      315      268      218      163 
      98       36      -23      -91     -160     -222     -283     -342 
    -395     -445     -493     -540     -589     -642     -700     -751 
    -800     -849     -892     -929     -969    -1007    -1039    -1070 
   -1086    -1086    -1073    -1044    -1004     -963     -923     -886 
    -851     -830     -820     -814     -818     -834     -849     -864 
    -886     -901     -919     -940     -951     -951     -954     -942 
    -912     -877     -841     -799     -753     -706     -656     -602 
    -540     -479     -422     -365     -311     -253     -194     -153 
    -129     -105      -82      -65      -51      -37      -27      -16 
     -10       -5        5       17       10       -5      -21      -43 
     -71     -101     -137     -178     -217     -251     -271     -275 
    -263     -241     -216     -189     -163     -144     -140     -151 
    -171     -189     -203     -222     -240     -249     -257     -261 
    -253     -241     -232     -220     -202     -187     -178     -170 
    -159     -147     -129     -108      -94      -82      -65      -55 
     -52      -47      -39      -28      -11       11       43       79 
     126      176      222      271      319      360      398      437 
     471      508      558      608      649      685      722      749 
     773      801      819      830      849      862      866      880 
     896      903      915      929      935      938      939      940 
     945      955      973      990     1017     1055     1088     1120 
    1156     1188     1210     1228     1242     1252     1263     1270 
    1266     1250     1225     1192     1144     1088     1024      947 
     862      777      684      588      499      406      317      241 
     172      108       54        2      -52     -103     -147     -186 
    -222     -252     -279     -305     -322     -332     -336     -337 
    -328     -313     -298     -276     -249     -222     -190     -151 
    -116      -86      -62      -51      -45      -37      -40      -55 
     -67      -72      -85     -105     -118     -126     -131     -129 
    -122     -114      -98      -72      -43       -9       39       95 
     155      220      284      336      378      417      445      461 
     472      476      464      449      437      422      414      419 
     423      425      436      444      453      473      498      519 
     540      560      572      579      579      569      548      526 
     503      468      425      375      314      257      203      151 
     108       76       55       36       29       31       25       18 
      14        4       -9      -18      -27      -35      -36      -32 
     -32      -35      -31      -32      -41      -45      -49      -64 
     -79      -90     -106     -118     -118     -118     -112      -86 
     -55      -31       -2       29       52       81      121      163 
     209      263      313      359      400      434      468      492 
     515      537      552      569      583      585      585      576 
     550      522      493      463      436      413      394      372 
     352      334      310      286      256      211      162      116 
      64        5      -39      -72     -114     -149     -167     -197 
    -230     -245     -259     -280     -287     -287     -291     -286 
    -268     -251     -240     -225     -202     -182     -167     -153 
    -151     -166     -182     -201     -234     -276     -325     -383 
    -437     -475     -515     -560     -599     -634     -661     -681 
    -710     -734     -746     -749     -741     -730     -711     -685 
    -657     -626     -588     -546     -499     -451     -402     -344 
    -287     -244     -217     -201     -187     -171     -152     -144 
    -149     -149     -144     -151     -163     -175     -190     -212 
    -225     -217     -209     -199     -178     -160     -149     -133 
    -124     -131     -139     -137     -139     -139     -133     -144 
    -176     -193     -187     -187     -201     -220     -232     -233 
    -228     -237     -270     -298     -313     -328     -346     -376 
    -425     -469     -480     -479     -483     -493     -513     -523 
    -513     -496     -498     -504     -506     -504     -492     -477 
    -481     -488     -488     -490     -487     -479     -472     -467 
    -460     -448     -429     -413     -395     -383     -380     -367 
    -344     -337     -333     -332     -344     -353     -352     -364 
    -388     -409     -425     -442     -457     -471     -488     -502 
    -502     -502     -506     -508     -500     -492     -481     -463 
    -442     -429     -413     -402     -400     -402     -409     -429 
    -464     -499     -538     -583     -625     -670     -718     -750 
    -781     -820     -851     -868     -876     -881     -892     -903 
    -905     -901     -905     -931     -965     -989    -1005    -1019 
   -1042    -1081    -1119    -1140    -1155    -1177    -1208    -1229 
   -1229    -1220    -1210    -1205    -1205    -1197    -1170    -1140 
   -1123    -1112    -1097    -1070    -1038    -1013    -1000     -987 
    -955     -920     -903     -895     -881     -866     -846     -826 
    -814     -799     -776     -764     -758     -751     -750     -741 
    -719     -714     -731     -753     -764     -777     -800     -827 
    -853     -877     -890     -907     -943     -981     -997     -993 
    -989     -997    -1013    -1017    -1003     -981     -972     -973 
    -972     -978     -997    -1020    -1051    -1092    -1124    -1151 
   -1190    -1240    -1293    -1344    -1389    -1429    -1476    -1518 
   -1544    -1570    -1603    -1626    -1637    -1645    -1653    -1664 
   -1677    -1687    -1699    -1723    -1737    -1736    -1740    -1749 
   -1750    -1753    -1755    -1753    -1744    -1736    -1721    -1698 
   -1682    -1665    -1641    -1626    -1611    -1578    -1544    -1528 
   -1513    -1493    -1467    -1441    -1416    -1393    -1372    -1355 
   -1337    -1317    -1304    -1286    -1255    -1230    -1216    -1204 
   -1200    -1194    -1192    -1205    -1224    -1244    -1277    -1308 
   -1333    -1375    -1436    -1470    -1456    -1457    -1516    -1574 
   -1575    -1563    -1599    -1629    -1606    -1595    -1606    -1578 
   -1551    -1571    -1594    -1574    -1518    -1495    -1541    -1566 
   -1513    -1485    -1525    -1541    -1499    -1471    -1466    -1449 
   -1445    -1470    -1475    -1437    -1393    -1390    -1422    -1426 
   -1374    -1308    -1282    -1304    -1321    -1298    -1250    -1215 
   -1224    -1256    -1254    -1197    -1150    -1162    -1206    -1217 
   -1167    -1109    -1107    -1140    -1166    -1161    -1131    -1135 
   -1194    -1243    -1251    -1233    -1228    -1293    -1374    -1356 
   -1281    -1269    -1324    -1354    -1302    -1210    -1152    -1158 
   -1161    -1104    -1026     -961     -927     -962     -985     -923 
    -870     -908     -980    -1000     -957     -915     -915     -927 
    -926     -909     -880     -838     -812     -811     -815     -784 
    -733     -715     -735     -745     -739     -746     -758     -757 
    -770     -814     -845     -850     -851     -859     -895     -949 
    -959     -936     -957    -1016    -1046    -1036    -1036    -1059 
   -1081    -1096    -1097    -1085    -1065    -1059    -1073    -1067 
