Origin Time       2016/04/16 01:25:00
Lat.              32.753
Long.             130.762
Depth. (km)       12
Mag.              7.3
Station Code      HYG021
Station Lat.      34.6898
Station Long.     135.1583
Station Height(m) 90
Record Time       2016/04/16 01:27:29
Sampling Freq(Hz) 100Hz
Duration Time(s)  60
Dir.              N-S
Scale Factor      7845(gal)/8223790
Max. Acc. (gal)   1.536
Last Correction   2016/04/16 01:27:31
Memo.             
   13319    13328    13336    13344    13354    13359    13358    13358 
   13355    13344    13336    13331    13319    13304    13294    13281 
   13275    13267    13259    13261    13269    13274    13285    13300 
   13317    13338    13358    13374    13396    13419    13436    13450 
   13464    13477    13485    13489    13500    13508    13512    13509 
   13512    13514    13514    13514    13513    13509    13506    13502 
   13495    13482    13467    13451    13428    13408    13386    13358 
   13333    13312    13288    13266    13243    13223    13205    13190 
   13180    13166    13154    13147    13143    13139    13142    13142 
   13144    13151    13157    13165    13172    13184    13196    13204 
   13213    13223    13231    13238    13238    13238    13243    13240 
   13236    13232    13224    13212    13203    13194    13186    13180 
   13178    13176    13174    13182    13189    13194    13203    13205 
   13207    13207    13201    13198    13193    13182    13171    13155 
   13143    13134    13119    13105    13089    13073    13062    13050 
   13041    13035    13034    13030    13032    13038    13046    13055 
   13069    13088    13101    13109    13128    13147    13155    13169 
   13184    13193    13201    13208    13213    13223    13232    13244 
   13258    13271    13285    13301    13314    13327    13342    13355 
   13365    13371    13375    13377    13380    13379    13375    13371 
   13366    13355    13343    13333    13324    13316    13304    13292 
   13284    13281    13275    13267    13261    13261    13261    13259 
   13257    13254    13254    13255    13251    13250    13254    13259 
   13262    13265    13269    13274    13277    13281    13286    13290 
   13297    13301    13302    13304    13306    13302    13304    13311 
   13312    13314    13317    13317    13316    13314    13311    13302 
   13294    13288    13277    13265    13254    13243    13232    13220 
   13208    13201    13196    13189    13184    13181    13180    13178 
   13177    13174    13172    13169    13158    13149    13146    13142 
   13135    13129    13127    13123    13120    13123    13122    13116 
   13117    13117    13108    13101    13093    13081    13070    13061 
   13050    13041    13032    13028    13024    13023    13028    13030 
   13036    13047    13057    13069    13084    13095    13104    13120 
   13136    13146    13155    13169    13180    13188    13198    13211 
   13221    13231    13236    13243    13248    13250    13250    13246 
   13242    13235    13224    13216    13204    13192    13186    13176 
   13166    13162    13155    13150    13149    13149    13150    13153 
   13157    13161    13165    13170    13176    13178    13181    13185 
   13193    13203    13213    13228    13240    13255    13274    13286 
   13294    13304    13313    13317    13323    13325    13328    13333 
   13342    13347    13355    13358    13363    13369    13365    13356 
   13347    13333    13313    13289    13262    13234    13200    13167 
   13139    13112    13086    13062    13042    13026    13009    12995 
   12981    12969    12954    12943    12935    12928    12920    12916 
   12914    12911    12912    12916    12919    12924    12924    12927 
   12933    12935    12941    12951    12958    12966    12978    12991 
   13005    13020    13035    13049    13057    13066    13073    13078 
   13081    13078    13080    13082    13073    13070    13073    13073 
   13077    13082    13092    13105    13122    13139    13159    13181 
   13204    13227    13250    13273    13293    13312    13329    13351 
   13371    13386    13404    13423    13439    13455    13466    13477 
   13489    13494    13498    13502    13501    13500    13498    13497 
   13500    13501    13504    13510    13518    13525    13532    13536 
   13540    13549    13549    13545    13544    13541    13533    13529 
   13528    13525    13525    13529    13536    13547    13559    13570 
   13586    13605    13624    13641    13660    13678    13691    13702 
   13711    13720    13729    13734    13733    13734    13737    13733 
   13729    13724    13716    13711    13707    13701    13694    13689 
   13686    13680    13674    13674    13672    13670    13667    13664 
   13659    13654    13647    13636    13625    13612    13594    13579 
   13564    13547    13532    13518    13508    13500    13489    13481 
   13474    13463    13455    13452    13444    13431    13417    13404 
   13390    13370    13347    13329    13311    13289    13269    13248 
   13223    13196    13171    13146    13122    13099    13076    13055 
   13036    13019    13001    12984    12970    12964    12957    12953 
   12954    12960    12966    12972    12974    12982    12984    12982 
   12984    12980    12973    12968    12960    12953    12942    12933 
   12920    12908    12897    12885    12877    12876    12870    12862 
   12860    12858    12857    12853    12852    12854    12852    12849 
   12854    12861    12868    12877    12888    12900    12912    12923 
   12933    12941    12942    12942    12942    12938    12928    12920 
   12911    12906    12901    12897    12900    12908    12914    12926 
   12943    12961    12981    13000    13018    13042    13065    13080 
   13095    13109    13116    13123    13128    13131    13128    13124 
   13115    13104    13093    13078    13063    13053    13038    13024 
   13015    13005    12997    12988    12978    12974    12968    12961 
   12961    12954    12945    12938    12930    12918    12906    12888 
   12865    12843    12826    12802    12773    12744    12712    12683 
   12653    12623    12599    12571    12548    12528    12505    12488 
   12471    12451    12434    12421    12403    12388    12376    12366 
   12353    12349    12347    12339    12334    12334    12330    12333 
   12336    12337    12343    12352    12366    12382    12394    12414 
   12438    12461    12491    12525    12559    12595    12636    12680 
   12725    12765    12806    12846    12883    12919    12960    13000 
   13035    13072    13109    13149    13190    13238    13286    13333 
   13379    13423    13470    13510    13551    13587    13621    13654 
   13690    13721    13753    13788    13821    13853    13888    13925 
   13967    14007    14047    14092    14134    14177    14218    14254 
   14281    14300    14321    14337    14343    14346    14343    14337 
   14330    14316    14305    14295    14278    14262    14250    14233 
   14211    14189    14168    14142    14113    14084    14052    14021 
   13992    13960    13927    13900    13876    13853    13836    13817 
   13801    13784    13771    13759    13744    13733    13722    13707 
   13694    13682    13674    13668    13654    13641    13629    13614 
   13601    13582    13558    13536    13513    13486    13458    13437 
   13419    13401    13387    13377    13371    13374    13378    13380 
   13385    13390    13398    13400    13394    13390    13380    13367 
   13351    13329    13308    13286    13266    13248    13236    13232 
   13230    13235    13246    13262    13284    13311    13336    13366 
   13394    13420    13446    13471    13493    13514    13536    13552 
   13563    13575    13582    13582    13582    13578    13563    13545 
   13528    13504    13477    13451    13427    13402    13377    13356 
   13342    13331    13327    13324    13331    13342    13350    13367 
   13386    13400    13423    13441    13452    13471    13487    13495 
   13505    13509    13510    13509    13508    13504    13501    13498 
   13493    13489    13486    13481    13477    13471    13464    13463 
   13460    13455    13446    13432    13417    13401    13377    13350 
   13323    13293    13262    13234    13207    13189    13178    13172 
   13178    13192    13208    13232    13265    13297    13331    13371 
   13406    13435    13468    13500    13522    13543    13558    13571 
   13579    13581    13581    13582    13583    13582    13578    13572 
   13568    13558    13548    13540    13531    13518    13508    13497 
   13483    13471    13459    13446    13435    13416    13392    13373 
   13347    13314    13288    13262    13232    13203    13174    13150 
   13129    13111    13096    13085    13077    13070    13070    13070 
   13065    13059    13057    13050    13039    13032    13026    13016 
   13005    13000    12995    12988    12982    12980    12974    12970 
   12964    12954    12951    12947    12935    12919    12908    12900 
   12887    12873    12861    12847    12834    12819    12806    12792 
   12776    12761    12746    12731    12718    12704    12692    12687 
   12685    12685    12690    12694    12700    12712    12723    12738 
   12756    12772    12789    12804    12818    12830    12842    12855 
   12866    12879    12893    12906    12920    12939    12954    12973 
   12989    13008    13027    13043    13061    13078    13092    13105 
   13119    13129    13139    13147    13155    13165    13169    13178 
   13193    13204    13216    13236    13259    13279    13304    13329 
   13347    13366    13385    13396    13404    13412    13417    13423 
   13428    13436    13452    13468    13486    13510    13535    13559 
   13582    13606    13631    13653    13676    13697    13710    13726 
   13740    13753    13771    13788    13802    13818    13839    13864 
   13884    13902    13922    13940    13950    13957    13961    13960 
   13950    13937    13918    13898    13878    13857    13841    13825 
   13814    13810    13806    13806    13806    13803    13798    13792 
   13788    13780    13763    13749    13738    13721    13697    13684 
   13672    13652    13633    13614    13597    13583    13570    13555 
   13548    13541    13537    13539    13544    13548    13555    13571 
   13587    13601    13616    13633    13649    13664    13676    13691 
   13701    13710    13721    13730    13740    13747    13756    13773 
   13790    13806    13829    13849    13867    13890    13913    13930 
   13946    13961    13971    13980    13992    13992    13991    13995 
   13994    13986    13976    13964    13948    13927    13899    13868 
   13833    13795    13753    13709    13660    13610    13560    13505 
   13455    13409    13363    13321    13285    13251    13225    13209 
   13197    13186    13184    13188    13190    13194    13203    13212 
   13220    13232    13242    13247    13258    13271    13290    13313 
   13338    13366    13401    13432    13468    13504    13533    13563 
   13588    13609    13626    13639    13644    13647    13651    13651 
   13644    13636    13628    13617    13605    13588    13572    13560 
   13544    13527    13517    13506    13497    13489    13486    13481 
   13482    13486    13486    13486    13489    13494    13498    13504 
   13506    13509    13510    13510    13514    13516    13517    13522 
   13525    13529    13537    13551    13568    13587    13613    13651 
   13690    13728    13775    13825    13872    13927    13981    14037 
   14092    14142    14191    14241    14288    14334    14378    14420 
   14461    14504    14546    14585    14625    14663    14702    14740 
   14775    14802    14831    14859    14879    14893    14904    14910 
   14912    14912    14913    14909    14901    14889    14878    14863 
   14850    14839    14827    14810    14790    14778    14766    14744 
   14723    14704    14678    14651    14628    14598    14562    14531 
   14505    14477    14447    14420    14392    14368    14345    14316 
   14291    14265    14234    14202    14175    14145    14116    14089 
   14060    14034    14010    13988    13969    13946    13922    13905 
   13887    13867    13846    13829    13815    13803    13791    13782 
   13776    13773    13768    13763    13763    13759    13752    13751 
   13745    13734    13726    13721    13716    13705    13695    13690 
   13678    13664    13657    13651    13637    13624    13609    13590 
   13572    13552    13527    13506    13481    13452    13429    13405 
   13385    13371    13356    13340    13328    13316    13304    13293 
   13275    13257    13238    13215    13188    13163    13139    13112 
   13084    13058    13034    13008    12980    12951    12924    12897 
   12869    12842    12816    12795    12779    12766    12760    12758 
   12765    12777    12796    12820    12845    12872    12900    12927 
   12962    13000    13030    13063    13095    13126    13159    13186 
   13217    13251    13278    13302    13325    13344    13359    13366 
   13370    13370    13362    13347    13333    13313    13289    13263 
   13238    13211    13181    13150    13124    13096    13066    13041 
   13020    12995    12972    12958    12949    12938    12931    12928 
   12927    12927    12927    12928    12927    12924    12924    12923 
   12918    12914    12912    12914    12915    12918    12923    12931 
   12942    12954    12964    12977    12989    13000    13008    13014 
   13016    13019    13019    13022    13022    13015    13016    13019 
   13019    13024    13028    13035    13049    13059    13070    13086 
   13105    13127    13154    13185    13219    13257    13297    13339 
   13382    13427    13473    13518    13559    13594    13628    13656 
   13678    13697    13711    13724    13732    13736    13745    13757 
   13768    13784    13801    13817    13834    13853    13872    13891 
   13910    13930    13948    13967    13986    14007    14023    14038 
   14058    14077    14095    14116    14142    14175    14210    14246 
   14291    14337    14377    14422    14472    14523    14570    14611 
   14652    14693    14724    14747    14770    14783    14787    14787 
   14780    14767    14750    14727    14700    14669    14638    14609 
   14575    14542    14508    14473    14439    14405    14366    14331 
   14304    14274    14245    14220    14197    14175    14156    14141 
   14121    14102    14083    14064    14041    14017    13992    13961 
   13925    13890    13851    13803    13756    13709    13659    13610 
   13558    13505    13460    13419    13371    13331    13298    13269 
   13243    13223    13204    13192    13182    13174    13169    13165 
   13161    13158    13154    13151    13154    13147    13139    13139 
   13136    13132    13131    13128    13124    13122    13120    13117 
   13115    13113    13109    13105    13104    13099    13093    13089 
   13089    13090    13089    13086    13090    13096    13103    13109 
   13115    13120    13124    13127    13128    13129    13126    13120 
   13117    13115    13111    13109    13108    13105    13106    13112 
   13120    13127    13132    13139    13147    13155    13165    13165 
   13163    13163    13162    13155    13146    13139    13134    13127 
   13126    13124    13117    13112    13106    13096    13085    13070 
   13049    13023    12999    12974    12942    12907    12873    12838 
   12802    12764    12722    12677    12633    12592    12548    12501 
   12457    12414    12370    12334    12306    12278    12252    12233 
   12221    12213    12208    12205    12205    12205    12205    12205 
   12201    12197    12194    12188    12183    12181    12174    12167 
   12164    12158    12151    12143    12132    12120    12110    12093 
   12070    12050    12025    11996    11970    11940    11912    11890 
   11871    11857    11847    11842    11843    11846    11855    11866 
   11878    11900    11923    11943    11970    12002    12035    12066 
   12105    12147    12185    12226    12275    12322    12372    12425 
   12476    12534    12596    12654    12717    12779    12839    12901 
   12968    13032    13096    13163    13231    13297    13360    13423 
   13481    13540    13593    13637    13679    13718    13751    13780 
   13803    13818    13829    13837    13838    13834    13825    13813 
   13801    13783    13760    13744    13725    13701    13682    13663 
   13644    13628    13609    13591    13575    13558    13543    13529 
   13516    13502    13495    13489    13481    13471    13460    13450 
   13441    13431    13412    13389    13365    13336    13306    13274 
   13238    13200    13167    13132    13095    13055    13015    12977 
   12939    12897    12860    12819    12772    12729    12685    12640 
   12598    12557    12515    12475    12439    12406    12372    12347 
   12326    12307    12294    12285    12278    12275    12279    12285 
   12297    12313    12332    12356    12380    12410    12439    12461 
   12488    12514    12530    12550    12568    12580    12594    12600 
   12604    12611    12611    12607    12602    12594    12584    12569 
   12550    12533    12515    12492    12471    12449    12428    12409 
   12391    12371    12348    12328    12312    12291    12270    12252 
   12235    12210    12188    12172    12152    12133    12120    12106 
   12094    12085    12078    12070    12062    12058    12055    12054 
   12054    12052    12052    12056    12062    12063    12069    12086 
   12101    12114    12133    12151    12167    12187    12205    12216 
   12228    12235    12237    12240    12236    12231    12226    12224 
   12221    12220    12221    12226    12237    12254    12275    12293 
   12320    12348    12375    12403    12432    12457    12486    12514 
   12542    12571    12604    12634    12664    12698    12727    12750 
   12773    12798    12814    12825    12837    12850    12860    12862 
   12864    12864    12866    12865    12861    12861    12858    12852 
   12849    12849    12847    12847    12854    12865    12876    12888 
   12903    12919    12937    12954    12978    12999    13016    13034 
   13053    13065    13073    13085    13089    13088    13085    13077 
   13063    13047    13030    13015    12991    12964    12934    12904 
   12877    12850    12818    12785    12756    12722    12687    12656 
   12625    12586    12548    12517    12482    12448    12418    12394 
   12371    12349    12336    12329    12320    12318    12321    12320 
   12321    12322    12322    12325    12326    12325    12325    12328 
   12334    12341    12351    12363    12375    12388    12411    12429 
   12451    12476    12499    12521    12546    12571    12591    12613 
   12633    12650    12671    12694    12713    12735    12758    12783 
   12811    12839    12868    12900    12933    12962    12992    13020 
   13050    13078    13105    13134    13159    13184    13208    13231 
   13255    13278    13300    13324    13347    13367    13386    13404 
   13423    13432    13440    13454    13460    13468    13477    13482 
   13487    13489    13489    13493    13498    13502    13502    13500 
   13502    13501    13497    13500    13497    13489    13486    13481 
   13473    13463    13451    13444    13439    13433    13428    13428 
   13429    13433    13437    13444    13446    13450    13452    13454 
   13452    13452    13450    13444    13437    13431    13421    13413 
   13404    13396    13383    13371    13359    13347    13339    13325 
   13311    13298    13285    13267    13248    13234    13220    13207 
   13190    13172    13162    13153    13136    13124    13117    13108 
   13103    13099    13092    13086    13081    13080    13082    13085 
