Origin Time       2016/04/16 01:25:00
Lat.              32.753
Long.             130.762
Depth. (km)       12
Mag.              7.3
Station Code      HYG022
Station Lat.      34.7463
Station Long.     135.3499
Station Height(m) 10
Record Time       2016/04/16 01:27:23
Sampling Freq(Hz) 100Hz
Duration Time(s)  237
Dir.              E-W
Scale Factor      7845(gal)/8223790
Max. Acc. (gal)   5.000
Last Correction   2016/04/16 01:27:24
Memo.             
[...]
  -10365   -10366   -10362   -10345   -10329   -10336   -10355   -10370 
  -10389   -10399   -10382   -10388   -10426   -10447   -10449   -10431 
  -10415   -10424   -10442   -10446   -10447   -10455   -10465   -10463 
  -10454   -10449   -10462   -10492   -10509   -10507   -10507   -10500 
  -10485   -10488   -10494   -10500   -10504   -10480   -10449   -10432 
  -10412   -10413   -10413   -10365   -10327   -10308   -10278   -10260 
  -10246   -10224   -10204   -10164   -10119   -10114   -10112   -10096 
  -10087   -10076   -10058   -10048   -10048   -10066   -10091   -10110 
  -10126   -10142   -10164   -10187   -10215   -10261   -10301   -10322 
  -10329   -10347   -10388   -10428   -10466   -10493   -10482   -10462 
  -10462   -10461   -10461   -10466   -10463   -10462   -10461   -10436 
  -10423   -10436   -10444   -10428   -10407   -10407   -10423   -10438 
  -10450   -10444   -10431   -10422   -10403   -10399   -10417   -10424 
  -10411   -10397   -10390   -10384   -10393   -10423   -10440   -10440 
  -10436   -10432   -10426   -10422   -10427   -10430   -10426   -10422 
  -10417   -10416   -10396   -10357   -10334   -10322   -10326   -10343 
  -10343   -10336   -10323   -10308   -10315   -10319   -10307   -10299 
  -10295   -10296   -10291   -10273   -10266   -10262   -10245   -10230 
  -10219   -10208   -10215   -10223   -10207   -10196   -10193   -10195 
  -10215   -10230   -10230   -10242   -10251   -10250   -10266   -10291 
  -10311   -10346   -10362   -10358   -10372   -10396   -10423   -10484 
  -10542   -10579   -10616   -10625   -10639   -10702   -10764   -10798 
  -10829   -10843   -10852   -10886   -10914   -10944   -10975   -10970 
  -10949   -10949   -10949   -10945   -10947   -10933   -10897   -10881 
  -10894   -10908   -10903   -10868   -10810   -10774   -10755   -10739 
  -10737   -10735   -10701   -10656   -10620   -10596   -10600   -10613 
  -10609   -10590   -10565   -10557   -10582   -10619   -10639   -10629 
  -10609   -10602   -10609   -10638   -10663   -10655   -10625   -10592 
  -10570   -10578   -10592   -10584   -10566   -10550   -10542   -10527 
  -10504   -10498   -10504   -10516   -10514   -10498   -10488   -10485 
  -10494   -10504   -10492   -10473   -10473   -10470   -10454   -10438 
  -10435   -10438   -10447   -10453   -10442   -10438   -10459   -10471 
  -10478   -10494   -10520   -10567   -10617   -10643   -10638   -10629 
  -10640   -10665   -10687   -10708   -10716   -10714   -10717   -10717 
  -10712   -10704   -10689   -10678   -10666   -10640   -10611   -10602 
  -10602   -10585   -10552   -10524   -10497   -10482   -10477   -10458 
  -10431   -10413   -10403   -10405   -10409   -10399   -10392   -10396 
  -10400   -10399   -10404   -10427   -10454   -10477   -10486   -10488 
  -10504   -10523   -10531   -10546   -10577   -10613   -10646   -10678 
  -10706   -10722   -10729   -10737   -10744   -10759   -10791   -10821 
  -10851   -10876   -10885   -10883   -10894   -10922   -10947   -10944 
  -10941   -10952   -10957   -10952   -10947   -10940   -10932   -10913 
  -10886   -10856   -10820   -10783   -10760   -10751   -10751   -10746 
  -10735   -10727   -10720   -10714   -10714   -10735   -10760   -10775 
  -10781   -10785   -10793   -10806   -10816   -10812   -10798   -10777 
  -10767   -10775   -10791   -10801   -10795   -10786   -10777   -10770 
  -10779   -10779   -10763   -10758   -10743   -10716   -10721   -10725 
  -10700   -10683   -10659   -10613   -10584   -10554   -10519   -10500 
  -10482   -10451   -10404   -10355   -10324   -10303   -10291   -10287 
  -10276   -10250   -10218   -10211   -10233   -10255   -10258   -10228 
  -10216   -10253   -10284   -10291   -10295   -10288   -10280   -10292 
  -10296   -10269   -10266   -10315   -10354   -10381   -10424   -10435 
  -10395   -10369   -10384   -10434   -10486   -10500   -10482   -10455 
  -10424   -10438   -10476   -10447   -10389   -10372   -10362   -10346 
  -10353   -10362   -10357   -10362   -10369   -10343   -10316   -10328 
  -10362   -10399   -10434   -10451   -10434   -10419   -10447   -10484 
  -10511   -10536   -10547   -10547   -10561   -10590   -10621   -10628 
  -10633   -10658   -10677   -10696   -10712   -10714   -10719   -10737 
  -10762   -10775   -10775   -10770   -10758   -10751   -10763   -10775 
  -10775   -10777   -10759   -10740   -10748   -10760   -10758   -10746 
  -10728   -10714   -10712   -10720   -10740   -10750   -10731   -10706 
  -10694   -10670   -10631   -10613   -10615   -10608   -10593   -10571 
  -10551   -10542   -10530   -10525   -10539   -10543   -10534   -10540 
  -10570   -10600   -10617   -10627   -10619   -10608   -10617   -10632 
  -10648   -10667   -10670   -10663   -10686   -10709   -10698   -10685 
  -10705   -10736   -10754   -10758   -10751   -10747   -10752   -10773 
  -10798   -10802   -10786   -10778   -10778   -10785   -10798   -10793 
  -10778   -10778   -10783   -10774   -10760   -10766   -10777   -10771 
  -10783   -10802   -10774   -10733   -10729   -10732   -10720   -10709 
  -10693   -10658   -10627   -10627   -10631   -10605   -10573   -10569 
  -10573   -10570   -10574   -10577   -10563   -10571   -10606   -10617 
  -10609   -10615   -10624   -10629   -10654   -10681   -10685   -10682 
  -10682   -10683   -10683   -10679   -10677   -10669   -10656   -10652 
  -10644   -10620   -10611   -10621   -10613   -10585   -10563   -10543 
  -10524   -10520   -10520   -10516   -10514   -10519   -10523   -10503 
  -10478   -10489   -10507   -10511   -10508   -10497   -10493   -10503 
  -10516   -10520   -10508   -10501   -10507   -10509   -10504   -10509 
  -10513   -10504   -10489   -10474   -10461   -10461   -10454   -10419 
  -10386   -10369   -10349   -10319   -10292   -10280   -10255   -10199 
  -10133   -10080   -10045   -10025   -10011    -9983    -9933    -9877 
   -9836    -9803    -9779    -9778    -9786    -9771    -9747    -9744 
   -9747    -9751    -9767    -9788    -9798    -9791    -9786    -9786 
   -9784    -9794    -9810    -9803    -9779    -9752    -9724    -9705 
   -9705    -9702    -9675    -9629    -9579    -9548    -9532    -9514 
   -9493    -9452    -9397    -9359    -9324    -9301    -9308    -9310 
   -9292    -9267    -9246    -9221    -9204    -9227    -9274    -9298 
   -9301    -9316    -9337    -9355    -9382    -9412    -9431    -9454 
   -9491    -9524    -9558    -9603    -9645    -9672    -9686    -9688 
   -9686    -9695    -9732    -9782    -9813    -9821    -9795    -9747 
   -9720    -9722    -9730    -9742    -9747    -9728    -9694    -9688 
   -9747    -9783    -9720    -9678    -9699    -9707    -9782    -9911 
   -9953    -9963    -9958    -9948   -10044   -10092   -10058   -10118 
  -10156   -10173   -10278   -10314   -10284   -10281   -10277   -10335 
  -10444   -10501   -10509   -10550   -10659   -10740   -10744   -10773 
  -10836   -10886   -10975   -11102   -11167   -11184   -11230   -11300 
  -11408   -11492   -11518   -11566   -11622   -11711   -11881   -11990 
  -11996   -11994   -12032   -12112   -12170   -12208   -12268   -12325 
  -12366   -12399   -12410   -12402   -12418   -12474   -12517   -12532 
  -12552   -12577   -12619   -12658   -12654   -12647   -12661   -12675 
  -12703   -12744   -12764   -12758   -12735   -12704   -12696   -12718 
  -12730   -12717   -12722   -12731   -12692   -12642   -12609   -12559 
  -12526   -12538   -12545   -12488   -12382   -12297   -12252   -12197 
  -12131   -12059   -11956   -11867   -11816   -11734   -11603   -11480 
  -11368   -11252   -11160   -11065   -10928   -10790   -10692   -10619 
  -10534   -10417   -10289   -10166   -10035    -9926    -9888    -9876 
   -9818    -9732    -9652    -9574    -9514    -9499    -9490    -9474 
   -9491    -9518    -9520    -9514    -9495    -9464    -9462    -9487 
   -9502    -9493    -9471    -9441    -9420    -9414    -9396    -9358 
   -9337    -9343    -9354    -9337    -9305    -9281    -9267    -9271 
   -9289    -9285    -9262    -9244    -9231    -9201    -9161    -9124 
   -9096    -9074    -9036    -8974    -8923    -8873    -8815    -8769 
   -8721    -8672    -8626    -8569    -8509    -8454    -8394    -8324 
   -8263    -8239    -8222    -8171    -8111    -8054    -8000    -7983 
   -7992    -7990    -7982    -7981    -7994    -8009    -8014    -8040 
   -8086    -8118    -8162    -8221    -8286    -8367    -8441    -8496 
   -8564    -8654    -8752    -8846    -8961    -9074    -9159    -9252 
   -9367    -9472    -9563    -9657    -9753    -9837    -9909    -9994 
  -10091   -10173   -10234   -10285   -10338   -10409   -10488   -10547 
  -10606   -10675   -10735   -10770   -10806   -10874   -10963   -11052 
  -11122   -11175   -11217   -11257   -11329   -11416   -11491   -11566 
  -11630   -11677   -11739   -11820   -11913   -12001   -12073   -12148 
  -12236   -12332   -12428   -12530   -12645   -12741   -12814   -12907 
  -13014   -13117   -13192   -13228   -13263   -13319   -13377   -13423 
  -13454   -13466   -13460   -13450   -13432   -13397   -13379   -13371 
  -13336   -13289   -13238   -13182   -13119   -13050   -12984   -12919 
  -12850   -12777   -12702   -12621   -12542   -12453   -12334   -12235 
  -12174   -12110   -12035   -11939   -11830   -11743   -11668   -11597 
  -11569   -11542   -11452   -11338   -11294   -11304   -11272   -11223 
  -11211   -11191   -11165   -11136   -11075   -11029   -11018   -11011 
  -10996   -10993   -10982   -10928   -10881   -10866   -10849   -10858 
  -10875   -10864   -10858   -10854   -10840   -10840   -10841   -10829 
  -10821   -10814   -10795   -10788   -10794   -10790   -10758   -10721 
  -10741   -10791   -10782   -10724   -10683   -10696   -10721   -10712 
  -10706   -10719   -10737   -10778   -10791   -10760   -10725   -10700 
  -10679   -10677   -10708   -10737   -10752   -10778   -10773   -10729 
  -10720   -10758   -10821   -10882   -10917   -10963   -11028   -11076 
  -11124   -11171   -11227   -11290   -11342   -11387   -11412   -11427 
  -11458   -11492   -11477   -11422   -11404   -11387   -11300   -11230 
  -11192   -11129   -11074   -10984   -10832   -10733   -10674   -10544 
  -10417   -10347   -10251   -10143   -10058    -9948    -9802    -9676 
   -9587    -9491    -9388    -9312    -9262    -9192    -9085    -8985 
   -8914    -8861    -8827    -8787    -8735    -8692    -8658    -8623 
   -8599    -8567    -8527    -8520    -8490    -8408    -8357    -8332 
   -8270    -8205    -8163    -8100    -8046    -8023    -7963    -7893 
   -7852    -7778    -7707    -7676    -7618    -7558    -7534    -7503 
   -7484    -7481    -7433    -7368    -7346    -7340    -7329    -7317 
   -7329    -7398    -7484    -7545    -7572    -7600    -7684    -7789 
   -7857    -7960    -8106    -8212    -8332    -8494    -8604    -8687 
   -8822    -8972    -9088    -9204    -9339    -9471    -9610    -9755 
   -9872    -9989   -10131   -10262   -10388   -10524   -10636   -10743 
  -10872   -10995   -11126   -11256   -11340   -11430   -11556   -11661 
  -11754   -11850   -11924   -12010   -12122   -12220   -12290   -12320 
  -12329   -12383   -12463   -12505   -12536   -12565   -12580   -12604 
  -12626   -12621   -12576   -12518   -12503   -12495   -12456   -12429 
  -12414   -12390   -12375   -12355   -12294   -12239   -12239   -12217 
  -12172   -12188   -12213   -12201   -12183   -12174   -12178   -12147 
  -12093   -12077   -12070   -12056   -12058   -12044   -12010   -11979 
  -11937   -11900   -11878   -11850   -11815   -11788   -11749   -11696 
  -11646   -11593   -11538   -11481   -11421   -11365   -11308   -11244 
  -11178   -11114   -11060   -11011   -10963   -10926   -10897   -10883 
  -10886   -10890   -10895   -10905   -10913   -10941   -10990   -11029 
  -11070   -11125   -11176   -11221   -11272   -11321   -11356   -11391 
  -11441   -11479   -11512   -11570   -11608   -11623   -11674   -11724 
  -11745   -11790   -11827   -11842   -11881   -11896   -11890   -11909 
  -11898   -11888   -11901   -11885   -11871   -11866   -11836   -11831 
  -11832   -11826   -11828   -11827   -11827   -11830   -11826   -11823 
  -11812   -11811   -11815   -11794   -11769   -11746   -11713   -11686 
  -11646   -11587   -11537   -11483   -11426   -11377   -11318   -11245 
  -11168   -11090   -11011   -10929   -10845   -10755   -10662   -10567 
  -10481   -10397   -10308   -10207   -10092    -9979    -9880    -9784 
   -9687    -9585    -9479    -9374    -9270    -9167    -9059    -8949 
   -8839    -8739    -8640    -8536    -8434    -8336    -8236    -8137 
   -8037    -7940    -7843    -7739    -7639    -7543    -7442    -7340 
   -7242    -7141    -7038    -6941    -6845    -6751    -6664    -6586 
   -6511    -6439    -6380    -6327    -6284    -6252    -6234    -6232 
   -6241    -6258    -6293    -6336    -6385    -6442    -6507    -6581 
   -6660    -6739    -6828    -6918    -6999    -7079    -7171    -7267 
   -7357    -7444    -7546    -7663    -7788    -7909    -8025    -8149 
   -8286    -8428    -8573    -8721    -8869    -9015    -9159    -9302 
   -9445    -9590    -9737    -9887   -10034   -10176   -10315   -10463 
  -10615   -10754   -10889   -11024   -11161   -11304   -11448   -11589 
  -11729   -11873   -12023   -12170   -12314   -12465   -12614   -12756 
  -12893   -13035   -13178   -13317   -13443   -13564   -13675   -13775 
  -13884   -13996   -14095   -14191   -14281   -14362   -14439   -14524 
  -14609   -14686   -14764   -14850   -14926   -14995   -15060   -15122 
  -15187   -15252   -15313   -15369   -15427   -15485   -15533   -15577 
  -15624   -15665   -15704   -15730   -15746   -15766   -15770   -15757 
  -15739   -15711   -15670   -15627   -15574   -15511   -15438   -15352 
  -15265   -15173   -15070   -14967   -14858   -14729   -14590   -14451 
  -14298   -14130   -13969   -13834   -13702   -13551   -13387   -13223 
  -13058   -12892   -12754   -12658   -12565   -12463   -12353   -12212 
  -12048   -11904   -11782   -11665   -11542   -11407   -11261   -11107 
  -10940   -10773   -10625   -10480   -10315   -10156   -10008    -9855 
   -9705    -9572    -9447    -9331    -9223    -9123    -9031    -8942 
   -8860    -8795    -8745    -8700    -8661    -8625    -8587    -8543 
   -8506    -8490    -8503    -8523    -8532    -8529    -8526    -8525 
   -8540    -8571    -8603    -8641    -8688    -8727    -8762    -8818 
   -8881    -8937    -8995    -9046    -9081    -9111    -9140    -9184 
   -9229    -9262    -9293    -9312    -9306    -9293    -9265    -9229 
   -9204    -9177    -9150    -9117    -9069    -9020    -8972    -8924 
   -8881    -8838    -8797    -8765    -8741    -8721    -8703    -8692 
   -8688    -8688    -8695    -8714    -8738    -8768    -8787    -8800 
   -8818    -8843    -8873    -8910    -8953    -8995    -9028    -9069 
   -9115    -9157    -9201    -9248    -9304    -9369    -9437    -9508 
   -9578    -9649    -9718    -9786    -9860    -9942   -10022   -10104 
  -10184   -10247   -10305   -10362   -10408   -10438   -10461   -10481 
  -10485   -10481   -10477   -10458   -10424   -10389   -10347   -10301 
  -10258   -10215   -10170   -10121   -10077   -10038    -9992    -9942 
   -9898    -9855    -9815    -9774    -9724    -9676    -9626    -9571 
   -9517    -9463    -9408    -9355    -9306    -9261    -9221    -9188 
   -9154    -9124    -9107    -9099    -9103    -9113    -9123    -9139 
   -9163    -9192    -9231    -9275    -9324    -9377    -9429    -9485 
   -9544    -9606    -9672    -9745    -9822    -9903    -9987   -10069 
  -10160   -10261   -10368   -10474   -10584   -10696   -10810   -10930 
  -11048   -11156   -11265   -11372   -11477   -11587   -11693   -11789 
  -11877   -11954   -12025   -12093   -12158   -12218   -12274   -12328 
  -12373   -12411   -12451   -12483   -12505   -12533   -12563   -12579 
  -12586   -12591   -12596   -12599   -12598   -12590   -12579   -12571 
  -12557   -12537   -12518   -12491   -12469   -12452   -12422   -12396 
  -12375   -12348   -12321   -12301   -12283   -12270   -12266   -12263 
  -12258   -12252   -12239   -12228   -12229   -12225   -12213   -12194 
  -12168   -12147   -12128   -12098   -12059   -12019   -11977   -11936 
  -11896   -11857   -11817   -11774   -11732   -11696   -11661   -11627 
  -11591   -11550   -11514   -11475   -11438   -11404   -11362   -11319 
  -11272   -11218   -11167   -11115   -11062   -11013   -10959   -10901 
  -10852   -10808   -10762   -10712   -10662   -10613   -10571   -10535 
  -10500   -10466   -10434   -10396   -10347   -10292   -10234   -10180 
  -10121   -10045    -9964    -9880    -9787    -9684    -9579    -9478 
   -9379    -9277    -9175    -9076    -8985    -8896    -8806    -8731 
   -8669    -8604    -8546    -8503    -8461    -8428    -8413    -8410 
   -8414    -8428    -8441    -8467    -8503    -8542    -8575    -8612 
   -8657    -8699    -8735    -8769    -8802    -8837    -8873    -8910 
   -8941    -8966    -8993    -9018    -9045    -9071    -9093    -9113 
   -9128    -9139    -9157    -9169    -9175    -9188    -9200    -9215 
   -9240    -9270    -9304    -9343    -9386    -9440    -9501    -9568 
   -9647    -9732    -9819    -9907    -9996   -10087   -10176   -10272 
  -10365   -10459   -10558   -10650   -10744   -10840   -10924   -11007 
  -11092   -11165   -11229   -11290   -11342   -11384   -11416   -11443 
  -11460   -11461   -11453   -11439   -11418   -11389   -11354   -11313 
  -11263   -11209   -11156   -11099   -11034   -10967   -10897   -10829 
  -10763   -10693   -10627   -10571   -10514   -10465   -10424   -10381 
  -10338   -10303   -10274   -10250   -10230   -10211   -10191   -10176 
  -10164   -10156   -10153   -10150   -10150   -10158   -10161   -10164 
  -10179   -10193   -10208   -10227   -10246   -10268   -10282   -10296 
  -10312   -10323   -10332   -10339   -10346   -10351   -10355   -10361 
  -10362   -10359   -10362   -10368   -10369   -10372   -10370   -10370 
  -10372   -10372   -10370   -10357   -10342   -10331   -10316   -10304 
  -10293   -10274   -10253   -10226   -10200   -10176   -10142   -10107 
  -10075   -10044   -10011    -9984    -9961    -9938    -9915    -9899 
   -9887    -9880    -9887    -9896    -9907    -9922    -9944    -9969 
   -9995   -10022   -10055   -10087   -10121   -10156   -10187   -10216 
  -10239   -10257   -10276   -10292   -10304   -10311   -10318   -10324 
  -10327   -10332   -10335   -10341   -10350   -10354   -10359   -10370 
  -10385   -10403   -10415   -10423   -10431   -10438   -10444   -10454 
  -10469   -10482   -10494   -10512   -10535   -10558   -10573   -10582 
  -10594   -10605   -10615   -10623   -10624   -10624   -10619   -10612 
  -10601   -10577   -10547   -10512   -10469   -10428   -10382   -10334 
  -10292   -10246   -10203   -10157   -10110   -10069   -10022    -9981 
   -9957    -9926    -9895    -9877    -9860    -9850    -9847    -9845 
   -9855    -9868    -9879    -9899    -9927    -9953    -9988   -10039 
  -10092   -10147   -10211   -10270   -10328   -10390   -10451   -10513 
  -10578   -10642   -10705   -10764   -10821   -10870   -10917   -10967 
  -11014   -11064   -11115   -11160   -11200   -11237   -11267   -11294 
  -11313   -11329   -11352   -11364   -11361   -11348   -11326   -11311 
  -11299   -11283   -11265   -11250   -11241   -11232   -11217   -11198 
  -11179   -11165   -11153   -11141   -11144   -11148   -11141   -11132 
  -11118   -11101   -11086   -11072   -11059   -11043   -11020   -10995 
