Origin Time       2016/04/16 01:25:00
Lat.              32.753
Long.             130.762
Depth. (km)       12
Mag.              7.3
Station Code      HYG018
Station Lat.      34.8143
Station Long.     134.6870
Station Height(m) 9
Record Time       2016/04/16 01:27:07
Sampling Freq(Hz) 100Hz
Duration Time(s)  72
Dir.              E-W
Scale Factor      7845(gal)/8223790
Max. Acc. (gal)   1.835
Last Correction   2016/04/16 01:27:09
Memo.             
[...]
    -370     -337     -302     -275     -245     -210     -180     -149 
    -106      -63      -21       28       82      137      190      243 
     295      341      378      409      438      460      479      492 
     499      502      496      476      454      436      407      373 
     346      309      256      211      176      137      101       68 
      32        5      -11      -40      -67      -83     -106     -135 
    -149     -157     -167     -174     -171     -167     -171     -172 
    -164     -162     -163     -155     -144     -143     -139     -128 
    -118     -109      -93      -76      -67      -54      -35      -29 
     -29      -21      -16       -9        8       13       16       36 
      56       62       60       59       47       22        8        1 
      -9       -9        2        1       -5       -1        0       -9 
     -16      -17      -25      -31      -32      -41      -52      -56 
     -67      -81      -93     -112     -139     -159     -174     -184 
    -191     -184     -170     -172     -182     -176     -176     -190 
    -186     -175     -180     -178     -163     -148     -128     -103 
     -79      -51      -20        5       31       54       72       78 
      79       89      105      116      129      162      195      217 
     237      257      265      270      279      283      280      276 
     263      241      220      195      166      131      101       74 
      49       32       27       17        5        8       13       18 
      29       44       55       72       98      109      116      136 
     153      155      160      176      175      163      162      162 
     152      148      155      149      144      157      168      176 
     198      230      268      309      346      379      414      454 
     484      504      523      538      542      544      549      549 
     544      545      548      537      519      492      451      396 
     333      270      199      133       82       25      -28      -65 
    -109     -152     -172     -194     -216     -210     -190     -178 
    -163     -140     -125     -112      -90      -67      -51      -32 
      -5       18       35       62       91      116      143      186 
     233      275      311      346      378      405      425      433 
     425      418      411      399      379      355      317      282 
     255      216      175      151      124      102       97       95 
      93      101      120      140      152      163      171      172 
     174      166      137      105       79       44       11        4 
      -8      -36      -58      -70      -89     -112     -133     -152 
    -178     -198     -197     -201     -207     -195     -180     -178 
    -172     -162     -156     -155     -149     -151     -144     -114 
     -82      -54      -17       28       75      129      187      238 
     286      341      396      438      473      506      532      553 
     571      573      566      560      556      546      532      530 
     530      526      540      558      558      557      553      538 
     513      483      442      405      378      352      324      301 
     286      265      240      221      207      187      166      149 
     137      117       95       87       85       74       59       41 
      21       -1      -32      -79     -117     -144     -180     -209 
    -218     -236     -261     -276     -289     -307     -315     -309 
    -298     -276     -236     -195     -163     -122      -79      -44 
      -9       23       49       62       71       76       71       64 
      62       52       39       31       31       32       39       47 
      51       60       79       97      114      139      163      180 
     203      222      225      225      218      187      147      124 
     109       87       75       74       59       36       22       17 
       5       -5      -11      -16      -20      -17      -11      -10 
      -8       -5      -18      -32      -35      -43      -60      -74 
     -79      -87      -97      -91      -78      -62      -36       -1 
      31       60       94      136      178      216      245      270 
     286      297      299      297      302      303      291      279 
     263      248      241      233      221      224      243      259 
     270      282      297      310      321      333      348      364 
     379      386      390      398      403      407      429      463 
     479      484      500      518      521      522      526      537 
     546      553      549      526      502      475      437      387 
     332      266      193      108       27      -47     -118     -174 
    -211     -240     -255     -256     -255     -244     -218     -194 
    -166     -118      -60       -2       64      137      202      268 
     344      407      454      504      549      583      608      637 
     662      679      684      679      666      656      639      611 
     581      557      530      506      484      454      419      379 
     329      263      186      109       32      -40      -98     -153 
    -207     -241     -256     -275     -291     -274     -237     -207 
    -174     -118      -59       -5       55      121      178      237 
     305      373      445      525      599      657      706      749 
     776      791      804      807      799      795      796      793 
     791      793      785      772      764      750      720      688 
     654      604      552      510      459      394      338      286 
     222      170      124       68       20      -18      -63     -103 
    -141     -182     -221     -256     -280     -299     -318     -329 
    -324     -313     -287     -243     -186     -124      -60        2 
      63      129      201      263      319      387      464      535 
     606      675      726      773      812      832      842      849 
     841      816      784      746      697      645      594      526 
     449      376      298      206      109       10      -85     -176 
    -265     -338     -392     -429     -445     -441     -423     -396 
    -364     -318     -259     -201     -147      -93      -40        4 
      43       87      139      182      224      265      287      302 
     321      336      349      357      351      332      310      283 
     238      189      136       68       -8      -85     -172     -272 
    -378     -490     -604     -723     -838     -951    -1058    -1142 
   -1202    -1262    -1314    -1333    -1333    -1332    -1320    -1297 
   -1274    -1243    -1202    -1170    -1144    -1115    -1096    -1092 
   -1096    -1102    -1112    -1124    -1131    -1128    -1124    -1105 
   -1069    -1026     -967     -900     -835     -769     -702     -638 
    -577     -519     -461     -413     -378     -340     -295     -257 
    -228     -191     -157     -133     -102      -71      -47      -18 
      18       47       70       91      103      117      144      157 
     151      144      137      118       97       78       59       36 
      10       -4      -17      -41      -59      -75     -103     -124 
    -128     -136     -140     -129     -122     -121     -105      -72 
     -45      -21        4       16       17       17       10       10 
      35       70      114      178      253      329      410      498 
     588      673      764      859      950     1034     1117     1197 
    1271     1336     1395     1441     1471     1498     1524     1535 
    1541     1547     1540     1528     1522     1509     1490     1467 
    1433     1390     1352     1310     1256     1202     1158     1104 
    1035      978      923      846      765      685      589      486 
     394      311      237      178      136      105       78       63 
      68       83      105      135      170      203      238      266 
     288      318      346      365      387      402      403      403 
     410      411      413      417      409      391      370      348 
     321      288      253      222      195      176      170      164 
     156      153      155      148      144      148      147      149 
     167      186      201      234      274      307      348      391 
     422      446      472      490      495      499      500      488 
     473      467      454      434      430      432      422      422 
     432      429      425      425      423      409      400      405 
     407      400      391      387      378      367      363      357 
     344      338      337      338      346      357      368      395 
     436      467      500      548      583      599      623      643 
     646      656      664      650      631      616      584      540 
     500      453      399      352      307      263      233      211 
     189      174      170      172      178      189      206      222 
     225      222      216      199      183      170      136       98 
      82       65       37       13        0      -13      -18      -14 
      -5       -2       -5       -9      -13      -28      -52      -86 
    -135     -195     -253     -305     -365     -438     -513     -587 
    -654     -722     -795     -858     -903     -939     -957     -953 
    -949     -947     -922     -889     -866     -826     -766     -720 
    -679     -619     -566     -526     -481     -433     -386     -336 
    -279     -221     -157      -89      -18       52      126      195 
     255      313      379      442      496      542      579      611 
     642      668      680      676      669      662      643      614 
     592      565      521      475      433      375      317      265 
     194      103       13      -81     -172     -251     -324     -392 
    -453     -514     -579     -637     -689     -739     -774     -787 
    -781     -765     -738     -696     -637     -557     -461     -344 
    -211      -74       60      195      326      456      577      675 
     766      864      935      980     1026     1060     1065     1067 
    1070     1053     1032     1011      969      919      874      822 
     758      700      641      573      506      442      372      307 
     252      202      155      116       89       67       41       16 
      -9      -40      -72      -91      -97      -94      -78      -47 
     -13       32       82      124      175      241      286      311 
     348      378      396      433      464      476      493      511 
     506      496      480      441      379      307      233      156 
      72       -8      -78     -152     -221     -272     -315     -348 
    -353     -344     -344     -338     -321     -302     -287     -263 
    -233     -201     -166     -128      -91      -51      -21      -17 
     -20      -32      -75     -124     -163     -216     -280     -340 
    -399     -461     -515     -557     -602     -653     -692     -715 
    -738     -761     -781     -807     -838     -866     -885     -905 
    -924     -922     -899     -874     -842     -797     -757     -715 
    -657     -600     -545     -479     -418     -365     -298     -232 
    -175     -106      -29       41      117      194      259      313 
     351      376      396      417      441      464      483      499 
     521      545      565      576      576      557      522      479 
     425      359      280      187       86       -5      -90     -174 
    -248     -314     -378     -430     -464     -498     -544     -585 
    -627     -669     -699     -719     -739     -750     -747     -741 
    -726     -696     -653     -610     -564     -508     -451     -392 
    -321     -237     -163      -95      -16       64      129      193 
     251      302      346      392      432      453      461      461 
     446      427      414      395      387      395      405      418 
     438      459      477      503      523      533      544      553 
     553      548      540      526      496      457      422      383 
     338      299      275      252      229      220      212      210 
     225      252      268      282      302      317      328      344 
     361      369      379      392      410      432      461      496 
     531      564      587      599      603      592      571      540 
     508      473      430      383      348      313      278      252 
     234      221      220      220      216      214      211      198 
     183      163      136      108       82       47       -4      -58 
    -110     -182     -257     -324     -399     -475     -525     -565 
    -599     -608     -602     -585     -549     -498     -436     -361 
    -283     -205     -128      -52       25      105      182      256 
     328      398      463      526      576      610      638      658 
     658      648      626      585      531      472      399      311 
     225      143       51      -47     -148     -249     -349     -448 
    -548     -643     -723     -788     -838     -877     -896     -907 
    -909     -896     -866     -838     -811     -760     -704     -656 
    -589     -506     -419     -321     -220     -128      -37       54 
     144      228      313      405      477      526      585      641 
     669      687      693      675      638      588      525      448 
     352      238      117       -9     -141     -272     -402     -542 
    -687     -826     -965    -1094    -1221    -1347    -1451    -1535 
   -1620    -1691    -1742    -1784    -1811    -1818    -1825    -1836 
   -1833    -1823    -1804    -1771    -1738    -1705    -1660    -1614 
   -1559    -1489    -1418    -1347    -1269    -1196    -1128    -1058 
    -987     -920     -855     -799     -747     -695     -642     -596 
    -568     -552     -538     -521     -492     -463     -441     -422 
    -407     -396     -372     -344     -329     -306     -274     -259 
    -261     -259     -255     -252     -240     -228     -225     -232 
    -238     -237     -233     -238     -241     -236     -228     -218 
    -207     -198     -187     -178     -180     -186     -198     -221 
    -238     -244     -265     -305     -338     -378     -432     -476 
    -510     -552     -604     -653     -702     -760     -822     -877 
    -934     -989    -1047    -1104    -1150    -1181    -1204    -1229 
   -1247    -1252    -1242    -1223    -1190    -1132    -1063     -990 
    -907     -823     -747     -670     -577     -481     -386     -279 
    -178      -82       28      148      253      352      451      538 
     614      677      719      754      783      783      776      773 
     761      739      718      688      649      604      562      526 
     487      445      392      332      270      207      153       98 
      43       -4      -49      -97     -125     -144     -176     -211 
    -241     -274     -295     -301     -307     -315     -307     -297 
    -292     -284     -265     -243     -222     -203     -187     -182 
    -178     -174     -166     -152     -141     -137     -140     -148 
    -160     -176     -201     -225     -248     -270     -286     -292 
    -299     -301     -309     -330     -355     -369     -383     -400 
    -411     -419     -425     -415     -391     -365     -340     -307 
    -278     -252     -218     -183     -157     -129      -97      -65 
     -40      -14       16       47       74       98      121      144 
     170      189      209      236      263      286      307      325 
     329      325      319      311      298      282      266      246 
     220      193      166      135      110       89       63       51 
      52       55       62       74       81       93      112      128 
     143      157      164      160      156      152      149      151 
     160      172      176      166      153      144      122       83 
      39       -5      -60     -117     -178     -251     -321     -398 
    -480     -552     -608     -652     -680     -697     -704     -700 
    -683     -652     -610     -558     -506     -449     -365     -253 
    -144      -47       54      162      259      351      433      508 
     564      592      611      621      607      577      538      480 
     414      344      271      199      129       44      -51     -139 
    -217     -301     -388     -463     -530     -600     -662     -711 
    -749     -774     -784     -785     -774     -739     -687     -622 
    -542     -451     -348     -236     -120        4      126      240 
     344      434      500      553      596      629      660      679 
     676      661      641      603      557      517      469      407 
     333      256      190      110       16      -59     -124     -195 
    -259     -311     -360     -396     -429     -449     -450     -451 
    -449     -423     -394     -355     -292     -217     -133      -39 
      59      159      259      367      475      565      638      712 
     777      828      877      919      947      986     1030     1053 
    1067     1075     1069     1059     1048     1032     1013      989 
     957      918      882      859      837      804      772      753 
     737      711      692      685      684      693      702      702 
     692      688      687      675      649      625      610      603 
     602      588      560      540      529      526      533      542 
     546      566      606      652      710      791      881      973 
    1062     1150     1242     1334     1420     1498     1568     1637 
    1711     1775     1815     1852     1884     1894     1888     1867 
    1818     1771     1736     1686     1622     1564     1509     1443 
    1374     1314     1252     1190     1139     1092     1047     1004 
     951      882      816      762      718      673      625      581 
     546      518      499      479      459      449      440      423 
     407      387      361      336      307      271      232      209 
     195      172      144      125      110      110      135      164 
     197      245      297      330      359      383      399      414 
     432      460      493      519      538      549      542      518 
     484      446      402      348      287      229      176      121 
      64       22       -5      -36      -70      -97     -122     -153 
    -176     -194     -209     -214     -218     -225     -230     -233 
    -238     -236     -225     -210     -191     -170     -140     -108 
     -71      -27       21       71      129      183      230      282 
     344      406      457      506      549      573      587      603 
     615      610      604      602      594      583      571      553 
     531      510      484      454      427      403      379      356 
     334      314      294      287      295      310      337      380 
     425      476      540      602      664      738      819      895 
     966     1032     1092     1139     1182     1219     1243     1267 
    1296     1310     1316     1318     1301     1270     1247     1224 
    1188     1148     1105     1051      989      936      893      841 
     787      724      646      575      511      440      376      319 
     259      202      148       99       64       36        9      -10 
     -20      -20       -4       31       83      144      207      272 
