Origin Time       2016/04/16 01:25:00
Lat.              32.753
Long.             130.762
Depth. (km)       12
Mag.              7.3
Station Code      HYG016
Station Lat.      34.7551
Station Long.     134.3900
Station Height(m) 5
Record Time       2016/04/16 01:26:17
Sampling Freq(Hz) 100Hz
Duration Time(s)  126
Dir.              N-S
Scale Factor      7845(gal)/8223790
Max. Acc. (gal)   5.748
Last Correction   2016/04/16 01:26:18
Memo.             
[...]
  -12175   -12253   -12324   -12370   -12378   -12394   -12425   -12394 
  -12299   -12225   -12197   -12167   -12077   -11934   -11823   -11762 
  -11715   -11676   -11624   -11537   -11446   -11373   -11307   -11244 
  -11194   -11164   -11149   -11138   -11136   -11144   -11151   -11144 
  -11119   -11067   -10990   -10909   -10832   -10747   -10655   -10569 
  -10489   -10426   -10372   -10324   -10295   -10273   -10253   -10260 
  -10293   -10354   -10438   -10531   -10624   -10748   -10916   -11111 
  -11318   -11508   -11676   -11842   -12006   -12148   -12270   -12375 
  -12468   -12567   -12663   -12731   -12785   -12819   -12816   -12803 
  -12783   -12734   -12665   -12581   -12479   -12366   -12260   -12170 
  -12097   -12036   -11985   -11942   -11900   -11842   -11776   -11713 
  -11662   -11623   -11591   -11561   -11529   -11488   -11443   -11384 
  -11304   -11221   -11130   -11041   -10947   -10841   -10741   -10642 
  -10540   -10454   -10389   -10345   -10316   -10296   -10299   -10315 
  -10342   -10399   -10489   -10592   -10712   -10862   -11011   -11153 
  -11298   -11442   -11574   -11689   -11792   -11881   -11954   -12020 
  -12073   -12094   -12109   -12121   -12112   -12082   -12035   -11979 
  -11904   -11812   -11718   -11616   -11503   -11395   -11287   -11173 
  -11074   -10989   -10909   -10848   -10808   -10778   -10754   -10739 
  -10725   -10712   -10714   -10737   -10774   -10824   -10882   -10930 
  -10962   -10995   -11029   -11067   -11109   -11153   -11200   -11241 
  -11264   -11286   -11313   -11337   -11364   -11394   -11431   -11480 
  -11524   -11561   -11589   -11616   -11647   -11680   -11709   -11731 
  -11745   -11747   -11727   -11696   -11670   -11645   -11620   -11605 
  -11589   -11569   -11546   -11499   -11427   -11354   -11269   -11178 
  -11098   -11024   -10956   -10897   -10851   -10806   -10759   -10712 
  -10679   -10646   -10611   -10588   -10589   -10597   -10615   -10651 
  -10694   -10748   -10816   -10887   -10966   -11057   -11149   -11232 
  -11306   -11376   -11443   -11512   -11585   -11666   -11754   -11840 
  -11920   -12000   -12082   -12139   -12174   -12201   -12198   -12172 
  -12144   -12097   -12067   -12055   -12002   -11950   -11927   -11880 
  -11815   -11761   -11705   -11642   -11580   -11543   -11512   -11477 
  -11488   -11520   -11481   -11430   -11455   -11460   -11383   -11334 
  -11302   -11194   -11065   -10990   -10912   -10801   -10729   -10701 
  -10644   -10574   -10547   -10542   -10476   -10401   -10420   -10455 
  -10459   -10516   -10602   -10656   -10717   -10818   -10925   -11014 
  -11113   -11218   -11299   -11362   -11421   -11469   -11502   -11520 
  -11523   -11512   -11500   -11480   -11441   -11406   -11383   -11356 
  -11330   -11315   -11298   -11269   -11250   -11245   -11234   -11222 
  -11241   -11275   -11298   -11329   -11395   -11468   -11534   -11611 
  -11695   -11772   -11835   -11881   -11921   -11954   -11967   -11973 
  -11979   -11979   -11961   -11921   -11871   -11811   -11728   -11637 
  -11561   -11488   -11408   -11322   -11234   -11152   -11090   -11038 
  -10999   -10986   -10998   -11017   -11033   -11043   -11057   -11088 
  -11125   -11160   -11209   -11263   -11306   -11334   -11349   -11350 
  -11341   -11311   -11269   -11225   -11165   -11098   -11022   -10935 
  -10851   -10767   -10682   -10605   -10532   -10467   -10409   -10357 
  -10322   -10303   -10304   -10335   -10390   -10459   -10544   -10640 
  -10747   -10862   -10986   -11117   -11237   -11352   -11475   -11597 
  -11713   -11823   -11925   -12024   -12104   -12164   -12220   -12264 
  -12291   -12306   -12312   -12317   -12326   -12329   -12330   -12334 
  -12324   -12297   -12270   -12231   -12185   -12144   -12105   -12059 
  -12012   -11954   -11886   -11813   -11739   -11672   -11612   -11547 
  -11483   -11419   -11342   -11257   -11165   -11061   -10955   -10847 
  -10732   -10621   -10521   -10424   -10332   -10246   -10164   -10100 
  -10054   -10033   -10038   -10060   -10106   -10179   -10266   -10359 
  -10454   -10552   -10665   -10779   -10893   -11009   -11126   -11240 
  -11352   -11450   -11535   -11616   -11701   -11785   -11862   -11937 
  -12020   -12104   -12163   -12204   -12240   -12264   -12275   -12283 
  -12291   -12299   -12313   -12334   -12357   -12373   -12396   -12433 
  -12463   -12476   -12492   -12501   -12487   -12455   -12401   -12337 
  -12274   -12202   -12127   -12046   -11947   -11846   -11749   -11646 
  -11547   -11452   -11344   -11227   -11117   -11002   -10890   -10788 
  -10685   -10584   -10496   -10424   -10362   -10318   -10274   -10241 
  -10235   -10251   -10273   -10314   -10378   -10466   -10571   -10687 
  -10802   -10899   -10989   -11075   -11144   -11203   -11257   -11286 
  -11292   -11288   -11283   -11271   -11240   -11198   -11161   -11130 
  -11099   -11079   -11068   -11061   -11068   -11094   -11134   -11184 
  -11247   -11317   -11379   -11437   -11496   -11556   -11611   -11659 
  -11699   -11729   -11766   -11805   -11838   -11866   -11881   -11870 
  -11832   -11782   -11712   -11622   -11534   -11437   -11326   -11217 
  -11097   -10978   -10870   -10755   -10650   -10566   -10485   -10416 
  -10369   -10328   -10301   -10296   -10304   -10324   -10358   -10400 
  -10449   -10500   -10561   -10638   -10724   -10818   -10925   -11032 
  -11144   -11269   -11383   -11475   -11551   -11612   -11659   -11695 
  -11712   -11726   -11734   -11734   -11736   -11755   -11777   -11794 
  -11817   -11844   -11865   -11875   -11878   -11881   -11880   -11861 
  -11851   -11859   -11866   -11870   -11890   -11923   -11952   -11975 
  -11980   -11966   -11936   -11886   -11827   -11770   -11696   -11607 
  -11526   -11438   -11333   -11222   -11103   -10983   -10866   -10744 
  -10638   -10550   -10466   -10396   -10341   -10295   -10265   -10242 
  -10230   -10227   -10222   -10227   -10247   -10266   -10296   -10346 
  -10396   -10455   -10525   -10592   -10658   -10735   -10818   -10918 
  -11039   -11175   -11321   -11477   -11637   -11792   -11940   -12081 
  -12217   -12339   -12439   -12525   -12595   -12650   -12688   -12712 
  -12729   -12739   -12750   -12765   -12777   -12796   -12815   -12834 
  -12855   -12880   -12916   -12964   -13024   -13096   -13184   -13271 
  -13363   -13458   -13540   -13603   -13647   -13660   -13647   -13602 
  -13528   -13437   -13328   -13200   -13063   -12923   -12779   -12633 
  -12483   -12339   -12205   -12073   -11943   -11820   -11700   -11570 
  -11437   -11327   -11244   -11173   -11138   -11136   -11149   -11187 
  -11240   -11290   -11341   -11384   -11416   -11448   -11479   -11514 
  -11564   -11624   -11696   -11782   -11862   -11944   -12029   -12105 
  -12175   -12243   -12302   -12363   -12428   -12486   -12540   -12590 
  -12636   -12688   -12735   -12773   -12808   -12838   -12861   -12879 
  -12895   -12908   -12911   -12903   -12887   -12864   -12837   -12803 
  -12762   -12715   -12668   -12618   -12567   -12519   -12471   -12426 
  -12387   -12339   -12280   -12214   -12132   -12044   -11952   -11840 
  -11711   -11583   -11445   -11288   -11133   -10991   -10847   -10708 
  -10584   -10462   -10346   -10242   -10146   -10071   -10018    -9973 
   -9937    -9917    -9899    -9883    -9879    -9884    -9900    -9931 
   -9977   -10042   -10127   -10222   -10328   -10446   -10573   -10716 
  -10883   -11061   -11245   -11433   -11615   -11789   -11956   -12108 
  -12239   -12343   -12413   -12457   -12465   -12425   -12347   -12231 
  -12089   -11927   -11746   -11553   -11341   -11114   -10887   -10646 
  -10397   -10161    -9926    -9702    -9505    -9325    -9170    -9036 
   -8919    -8822    -8742    -8673    -8621    -8575    -8542    -8529 
   -8525    -8533    -8557    -8595    -8649    -8721    -8795    -8880 
   -8974    -9071    -9185    -9319    -9472    -9657    -9876   -10120 
  -10389   -10677   -10967   -11261   -11560   -11858   -12152   -12436 
  -12707   -12969   -13204   -13405   -13581   -13718   -13818   -13878 
  -13890   -13855   -13775   -13649   -13489   -13304   -13101   -12887 
  -12667   -12437   -12202   -11962   -11715   -11461   -11213   -10979 
  -10767   -10570   -10388   -10223   -10071    -9919    -9780    -9653 
   -9524    -9401    -9290    -9180    -9069    -8961    -8858    -8765 
   -8681    -8610    -8556    -8520    -8517    -8538    -8575    -8634 
   -8712    -8797    -8896    -9012    -9136    -9288    -9468    -9674 
   -9910   -10180   -10481   -10812   -11171   -11557   -11966   -12388 
  -12825   -13277   -13729   -14176   -14612   -15028   -15414   -15758 
  -16035   -16258   -16441   -16571   -16649   -16692   -16702   -16679 
  -16629   -16559   -16471   -16360   -16227   -16070   -15890   -15693 
  -15469   -15215   -14939   -14644   -14327   -14003   -13679   -13356 
  -13042   -12737   -12432   -12133   -11836   -11537   -11245   -10970 
  -10709   -10465   -10223    -9981    -9752    -9525    -9297    -9088 
   -8896    -8719    -8573    -8453    -8345    -8256    -8187    -8137 
   -8114    -8109    -8127    -8172    -8243    -8332    -8434    -8556 
   -8706    -8881    -9081    -9310    -9555    -9806   -10060   -10307 
  -10540   -10762   -10966   -11163   -11352   -11530   -11706   -11885 
  -12060   -12240   -12411   -12571   -12726   -12865   -12987   -13096 
  -13185   -13258   -13324   -13383   -13446   -13513   -13575   -13636 
  -13684   -13709   -13705   -13676   -13643   -13610   -13574   -13536 
  -13500   -13459   -13405   -13320   -13205   -13062   -12879   -12663 
  -12418   -12144   -11857   -11566   -11268   -10956   -10646   -10347 
  -10049    -9760    -9481    -9201    -8932    -8680    -8437    -8225 
   -8048    -7906    -7805    -7746    -7722    -7738    -7788    -7871 
   -7993    -8141    -8310    -8500    -8699    -8899    -9100    -9294 
   -9487    -9682    -9865   -10035   -10203   -10362   -10509   -10650 
  -10782   -10903   -11014   -11109   -11194   -11268   -11327   -11384 
  -11446   -11512   -11591   -11686   -11780   -11873   -11970   -12040 
  -12082   -12116   -12135   -12144   -12151   -12143   -12120   -12086 
  -12024   -11934   -11812   -11658   -11476   -11276   -11059   -10828 
  -10593   -10359   -10127    -9911    -9715    -9535    -9370    -9224 
   -9097    -9003    -8931    -8896    -8918    -8980    -9085    -9238 
   -9409    -9605    -9837   -10084   -10351   -10646   -10955   -11283 
  -11620   -11951   -12274   -12575   -12849   -13112   -13354   -13585 
  -13817   -14040   -14265   -14499   -14720   -14931   -15121   -15287 
  -15427   -15535   -15619   -15677   -15715   -15746   -15768   -15781 
  -15801   -15817   -15826   -15834   -15832   -15815   -15782   -15724 
  -15642   -15546   -15435   -15314   -15194   -15060   -14901   -14710 
  -14476   -14203   -13892   -13543   -13170   -12793   -12415   -12046 
  -11699   -11371   -11076   -10813   -10563   -10345   -10170   -10015 
   -9884    -9784    -9718    -9699    -9725    -9794    -9913   -10068 
  -10250   -10455   -10670   -10901   -11156   -11429   -11724   -12040 
  -12368   -12700   -13023   -13333   -13633   -13927   -14216   -14496 
  -14757   -14998   -15223   -15431   -15614   -15781   -15951   -16117 
  -16267   -16393   -16488   -16546   -16557   -16526   -16471   -16387 
  -16271   -16129   -15957   -15750   -15510   -15232   -14913   -14551 
  -14141   -13693   -13223   -12731   -12224   -11718   -11219   -10725 
  -10237    -9764    -9312    -8889    -8494    -8132    -7808    -7515 
   -7246    -7011    -6820    -6664    -6550    -6478    -6450    -6458 
   -6502    -6581    -6685    -6804    -6937    -7092    -7261    -7438 
   -7624    -7820    -8021    -8237    -8464    -8688    -8916    -9150 
   -9385    -9636    -9900   -10173   -10471   -10790   -11126   -11488 
  -11863   -12254   -12661   -13062   -13455   -13834   -14177   -14485 
  -14752   -14962   -15109   -15192   -15213   -15176   -15087   -14949 
  -14774   -14561   -14324   -14069   -13790   -13489   -13176   -12847 
  -12502   -12141   -11772   -11388   -10991   -10592   -10193    -9807 
   -9450    -9123    -8830    -8573    -8333    -8101    -7875    -7647 
   -7423    -7207    -7003    -6814    -6646    -6507    -6385    -6266 
   -6169    -6097    -6038    -5998    -5981    -5999    -6056    -6156 
   -6304    -6515    -6785    -7111    -7489    -7903    -8349    -8812 
   -9285    -9771   -10268   -10767   -11271   -11770   -12268   -12756 
  -13221   -13666   -14076   -14440   -14763   -15040   -15263   -15446 
  -15595   -15715   -15813   -15881   -15912   -15905   -15844   -15727 
  -15556   -15331   -15067   -14779   -14472   -14148   -13819   -13482 
  -13138   -12796   -12453   -12105   -11750   -11379   -10987   -10569 
  -10134    -9694    -9252    -8820    -8401    -7994    -7614    -7263 
   -6945    -6671    -6453    -6293    -6192    -6154    -6195    -6304 
   -6470    -6697    -6974    -7288    -7632    -7998    -8390    -8804 
   -9232    -9678   -10143   -10613   -11084   -11560   -12023   -12469 
  -12888   -13271   -13637   -13971   -14260   -14524   -14770   -14991 
  -15203   -15399   -15570   -15723   -15851   -15954   -16029   -16069 
  -16071   -16043   -15971   -15859   -15714   -15523   -15292   -15020 
  -14693   -14328   -13934   -13498   -13034   -12542   -12025   -11503 
  -10974   -10435    -9902    -9383    -8881    -8398    -7943    -7526 
   -7150    -6810    -6511    -6252    -6030    -5834    -5667    -5530 
   -5429    -5362    -5329    -5335    -5377    -5459    -5582    -5744 
   -5948    -6204    -6500    -6822    -7182    -7569    -7977    -8403 
   -8830    -9256    -9680   -10093   -10485   -10866   -11234   -11587 
  -11932   -12272   -12607   -12935   -13254   -13565   -13864   -14146 
  -14426   -14693   -14947   -15191   -15411   -15603   -15768   -15882 
  -15947   -15965   -15931   -15847   -15719   -15546   -15336   -15088 
  -14808   -14501   -14161   -13791   -13396   -12972   -12521   -12060 
  -11596   -11133   -10685   -10258    -9842    -9444    -9067    -8696 
   -8334    -8004    -7695    -7406    -7141    -6912    -6731    -6588 
   -6477    -6396    -6334    -6293    -6277    -6270    -6285    -6328 
   -6389    -6480    -6600    -6752    -6949    -7177    -7430    -7715 
   -8023    -8347    -8687    -9032    -9390    -9753   -10120   -10500 
  -10883   -11265   -11638   -11982   -12299   -12587   -12843   -13086 
  -13312   -13508   -13682   -13829   -13940   -14013   -14042   -14035 
  -13994   -13925   -13839   -13728   -13586   -13423   -13250   -13069 
  -12887   -12690   -12468   -12218   -11943   -11646   -11334   -11006 
  -10655   -10311    -9984    -9662    -9355    -9065    -8783    -8522 
   -8290    -8075    -7890    -7731    -7585    -7465    -7365    -7267 
   -7177    -7096    -7018    -6963    -6922    -6901    -6914    -6939 
   -6978    -7049    -7150    -7281    -7439    -7622    -7825    -8035 
   -8262    -8507    -8758    -9023    -9308    -9598    -9894   -10206 
  -10524   -10843   -11163   -11475   -11766   -12042   -12313   -12579 
  -12831   -13069   -13298   -13517   -13717   -13900   -14061   -14191 
  -14293   -14368   -14403   -14404   -14381   -14335   -14260   -14154 
  -14025   -13872   -13702   -13504   -13281   -13043   -12789   -12525 
  -12253   -11980   -11709   -11445   -11199   -10978   -10778   -10592 
  -10419   -10265   -10119    -9979    -9859    -9747    -9628    -9517 
   -9406    -9294    -9194    -9103    -9013    -8937    -8863    -8780 
   -8700    -8627    -8553    -8492    -8459    -8451    -8473    -8522 
   -8603    -8719    -8853    -8989    -9130    -9274    -9413    -9556 
   -9697    -9829    -9976   -10130   -10296   -10496   -10714   -10945 
  -11184   -11425   -11654   -11870   -12077   -12260   -12426   -12581 
  -12710   -12810   -12893   -12961   -13012   -13046   -13066   -13085 
  -13093   -13080   -13059   -13018   -12950   -12872   -12766   -12631 
  -12472   -12274   -12043   -11785   -11493   -11192   -10903   -10615 
  -10341   -10088    -9857    -9651    -9459    -9279    -9111    -8938 
   -8761    -8588    -8414    -8244    -8081    -7929    -7789    -7657 
   -7541    -7449    -7378    -7338    -7322    -7339    -7404    -7506 
   -7651    -7846    -8063    -8291    -8537    -8803    -9071    -9332 
   -9587    -9846   -10104   -10351   -10592   -10824   -11047   -11263 
  -11462   -11637   -11784   -11893   -11967   -12017   -12054   -12074 
  -12083   -12089   -12100   -12093   -12071   -12077   -12087   -12085 
  -12102   -12132   -12164   -12224   -12286   -12336   -12394   -12452 
  -12502   -12555   -12592   -12614   -12634   -12626   -12595   -12564 
  -12507   -12437   -12372   -12282   -12177   -12052   -11896   -11738 
  -11568   -11367   -11179   -11014   -10860   -10731   -10632   -10559 
  -10521   -10517   -10547   -10612   -10692   -10790   -10902   -11007 
  -11113   -11217   -11304   -11384   -11455   -11506   -11542   -11556 
  -11535   -11491   -11419   -11313   -11190   -11037   -10863   -10689 
  -10534   -10411   -10305   -10193   -10116   -10102   -10108   -10127 
  -10206   -10334   -10471   -10650   -10867   -11097   -11361   -11650 
  -11937   -12239   -12542   -12834   -13109   -13363   -13588   -13760 
  -13891   -13994   -14037   -14026   -13986   -13905   -13801   -13672 
  -13528   -13387   -13227   -13043   -12884   -12742   -12600   -12486 
  -12396   -12334   -12299   -12272   -12244   -12218   -12186   -12135 
  -12067   -11989   -11900   -11808   -11706   -11597   -11470   -11326 
  -11167   -10983   -10773   -10537   -10288   -10030    -9765    -9510 
   -9281    -9074    -8887    -8730    -8614    -8532    -8479    -8463 
   -8483    -8540    -8640    -8789    -8989    -9239    -9540    -9882 
  -10255   -10644   -11038   -11435   -11817   -12183   -12514   -12791 
  -13030   -13236   -13390   -13506   -13593   -13651   -13690   -13710 
  -13705   -13686   -13654   -13610   -13555   -13494   -13425   -13362 
  -13298   -13223   -13150   -13062   -12943   -12814   -12657   -12471 
  -12280   -12079   -11874   -11669   -11457   -11263   -11086   -10918 
  -10777   -10652   -10531   -10427   -10341   -10255   -10183   -10126 
  -10093   -10091   -10110   -10158   -10250   -10366   -10501   -10660 
  -10835   -11022   -11229   -11453   -11689   -11931   -12167   -12395 
  -12641   -12896   -13149   -13392   -13616   -13824   -14017   -14183 
  -14331   -14461   -14557   -14635   -14685   -14706   -14702   -14662 
  -14601   -14520   -14405   -14270   -14106   -13910   -13711   -13500 
  -13261   -13008   -12731   -12428   -12125   -11826   -11534   -11253 
  -10968   -10692   -10431   -10193    -9991    -9796    -9613    -9448 
   -9305    -9196    -9104    -9022    -8943    -8868    -8810    -8785 
   -8791    -8822    -8880    -8953    -9038    -9157    -9302    -9472 
   -9668    -9868   -10084   -10332   -10596   -10876   -11165   -11443 
  -11706   -11954   -12205   -12472   -12729   -12966   -13197   -13421 
  -13649   -13888   -14130   -14369   -14578   -14750   -14899   -15028 
  -15128   -15202   -15242   -15244   -15206   -15140   -15039   -14909 
  -14764   -14584   -14381   -14188   -13973   -13740   -13517   -13284 
  -13050   -12834   -12625   -12439   -12280   -12132   -12004   -11878 
  -11726   -11572   -11421   -11257   -11092   -10922   -10748   -10580 
