Origin Time       2016/04/16 01:25:00
Lat.              32.753
Long.             130.762
Depth. (km)       12
Mag.              7.3
Station Code      HYG017
Station Lat.      34.8593
Station Long.     134.5445
Station Height(m) 24
Record Time       2016/04/16 01:27:05
Sampling Freq(Hz) 100Hz
Duration Time(s)  66
Dir.              N-S
Scale Factor      7845(gal)/8223790
Max. Acc. (gal)   2.068
Last Correction   2016/04/16 01:27:07
Memo.             
[...]
   -2835    -2822    -2798    -2771    -2740    -2697    -2647    -2596 
   -2536    -2484    -2444    -2404    -2361    -2326    -2289    -2251 
   -2222    -2201    -2185    -2188    -2205    -2238    -2296    -2359 
   -2417    -2492    -2577    -2652    -2729    -2810    -2891    -2972 
   -3059    -3144    -3232    -3327    -3416    -3496    -3573    -3642 
   -3684    -3705    -3723    -3730    -3723    -3711    -3697    -3676 
   -3646    -3611    -3566    -3514    -3458    -3411    -3369    -3334 
   -3311    -3295    -3280    -3271    -3267    -3261    -3252    -3245 
   -3237    -3226    -3215    -3203    -3194    -3199    -3207    -3219 
   -3240    -3260    -3273    -3289    -3303    -3307    -3312    -3321 
   -3321    -3314    -3307    -3299    -3279    -3254    -3226    -3183 
   -3127    -3080    -3019    -2928    -2870    -2836    -2748    -2682 
   -2685    -2646    -2562    -2511    -2479    -2428    -2363    -2316 
   -2282    -2238    -2200    -2177    -2146    -2111    -2076    -2033 
   -1987    -1946    -1908    -1864    -1830    -1806    -1772    -1740 
   -1725    -1717    -1710    -1701    -1684    -1667    -1647    -1630 
   -1618    -1605    -1594    -1598    -1606    -1602    -1591    -1579 
   -1560    -1539    -1517    -1493    -1468    -1449    -1437    -1435 
   -1443    -1448    -1455    -1468    -1474    -1466    -1463    -1457 
   -1448    -1451    -1462    -1464    -1470    -1489    -1505    -1520 
   -1549    -1576    -1593    -1614    -1628    -1640    -1671    -1711 
   -1744    -1776    -1810    -1826    -1825    -1809    -1773    -1710 
   -1638    -1567    -1491    -1425    -1372    -1320    -1270    -1225 
   -1177    -1125    -1080    -1042    -1000     -962     -928     -899 
    -880     -869     -864     -872     -895     -927     -962    -1000 
   -1053    -1109    -1165    -1235    -1324    -1424    -1530    -1642 
   -1753    -1850    -1933    -1998    -2043    -2070    -2087    -2104 
   -2137    -2181    -2238    -2305    -2371    -2428    -2485    -2538 
   -2583    -2628    -2658    -2677    -2698    -2717    -2725    -2732 
   -2736    -2728    -2712    -2694    -2666    -2633    -2604    -2565 
   -2529    -2511    -2496    -2484    -2479    -2474    -2458    -2442 
   -2430    -2397    -2363    -2349    -2343    -2343    -2359    -2388 
   -2419    -2450    -2481    -2509    -2532    -2556    -2583    -2609 
   -2641    -2681    -2720    -2758    -2797    -2835    -2860    -2884 
   -2915    -2949    -2986    -3028    -3075    -3123    -3177    -3231 
   -3280    -3331    -3397    -3464    -3514    -3565    -3627    -3673 
   -3697    -3719    -3732    -3724    -3701    -3673    -3632    -3569 
   -3500    -3427    -3336    -3234    -3130    -3003    -2863    -2735 
   -2609    -2484    -2377    -2286    -2199    -2130    -2087    -2043 
   -1998    -1969    -1949    -1935    -1941    -1972    -2023    -2096 
   -2192    -2305    -2434    -2574    -2717    -2855    -2988    -3121 
   -3253    -3387    -3519    -3638    -3744    -3834    -3899    -3937 
   -3951    -3937    -3892    -3825    -3744    -3640    -3519    -3388 
   -3250    -3103    -2957    -2811    -2667    -2540    -2423    -2312 
   -2209    -2115    -2030    -1954    -1890    -1833    -1787    -1755 
   -1733    -1719    -1715    -1715    -1722    -1729    -1740    -1753 
   -1781    -1819    -1864    -1919    -1979    -2034    -2098    -2166 
   -2222    -2269    -2315    -2351    -2380    -2403    -2419    -2416 
   -2401    -2386    -2365    -2336    -2313    -2286    -2250    -2218 
   -2187    -2149    -2110    -2085    -2064    -2026    -1987    -1962 
   -1942    -1912    -1884    -1864    -1837    -1811    -1798    -1786 
   -1773    -1775    -1779    -1777    -1776    -1787    -1800    -1809 
   -1818    -1831    -1838    -1848    -1868    -1876    -1875    -1880 
   -1885    -1883    -1887    -1895    -1894    -1891    -1902    -1910 
   -1911    -1918    -1927    -1939    -1964    -1993    -2027    -2079 
   -2142    -2209    -2289    -2374    -2459    -2543    -2627    -2709 
   -2791    -2871    -2948    -3029    -3111    -3184    -3248    -3300 
   -3346    -3383    -3402    -3404    -3397    -3377    -3335    -3288 
   -3234    -3164    -3083    -2999    -2907    -2814    -2732    -2659 
   -2597    -2562    -2546    -2540    -2551    -2583    -2628    -2681 
   -2740    -2809    -2879    -2949    -3022    -3094    -3164    -3240 
   -3317    -3392    -3466    -3543    -3615    -3686    -3759    -3825 
   -3880    -3924    -3959    -3990    -4008    -4016    -4016    -4005 
   -3989    -3967    -3936    -3908    -3889    -3867    -3838    -3808 
   -3774    -3738    -3707    -3674    -3636    -3608    -3595    -3581 
   -3561    -3549    -3541    -3522    -3496    -3473    -3447    -3420 
   -3399    -3380    -3360    -3343    -3333    -3326    -3316    -3308 
   -3306    -3302    -3299    -3304    -3302    -3287    -3281    -3269 
   -3235    -3192    -3144    -3086    -3018    -2941    -2852    -2749 
   -2656    -2565    -2448    -2330    -2231    -2138    -2030    -1919 
   -1819    -1722    -1621    -1522    -1431    -1344    -1264    -1201 
   -1148    -1107    -1092    -1096    -1109    -1143    -1197    -1260 
   -1332    -1412    -1498    -1593    -1692    -1796    -1903    -2008 
   -2116    -2224    -2334    -2440    -2542    -2631    -2709    -2778 
   -2833    -2876    -2925    -2971    -3007    -3048    -3079    -3094 
   -3109    -3117    -3106    -3086    -3065    -3040    -3011    -2986 
   -2959    -2926    -2899    -2876    -2837    -2785    -2736    -2681 
   -2602    -2519    -2442    -2361    -2274    -2192    -2102    -1999 
   -1885    -1764    -1632    -1502    -1371    -1239    -1117    -1015 
    -916     -827     -757     -697     -639     -595     -568     -544 
    -523     -529     -558     -596     -645     -708     -774     -847 
    -929    -1011    -1100    -1208    -1323    -1433    -1548    -1664 
   -1765    -1844    -1908    -1965    -2001    -2015    -2015    -2000 
   -1973    -1945    -1917    -1892    -1869    -1838    -1810    -1780 
   -1740    -1692    -1642    -1588    -1540    -1499    -1455    -1416 
   -1390    -1368    -1344    -1331    -1323    -1308    -1298    -1308 
   -1320    -1329    -1356    -1390    -1417    -1449    -1487    -1513 
   -1534    -1556    -1568    -1582    -1606    -1625    -1634    -1657 
   -1684    -1703    -1725    -1755    -1781    -1807    -1848    -1898 
   -1954    -2030    -2126    -2226    -2324    -2416    -2506    -2604 
   -2702    -2795    -2889    -2986    -3075    -3149    -3223    -3295 
   -3348    -3379    -3396    -3395    -3366    -3322    -3269    -3211 
   -3145    -3071    -2992    -2909    -2821    -2728    -2629    -2521 
   -2413    -2312    -2212    -2123    -2049    -1977    -1910    -1857 
   -1811    -1771    -1745    -1729    -1717    -1718    -1740    -1769 
   -1807    -1861    -1918    -1977    -2039    -2091    -2126    -2158 
   -2178    -2192    -2199    -2199    -2205    -2215    -2222    -2231 
   -2241    -2250    -2259    -2270    -2277    -2289    -2307    -2315 
   -2308    -2304    -2303    -2303    -2305    -2313    -2326    -2349 
   -2384    -2420    -2458    -2501    -2546    -2590    -2639    -2698 
   -2756    -2798    -2825    -2841    -2830    -2798    -2758    -2704 
   -2641    -2579    -2511    -2442    -2371    -2295    -2219    -2144 
   -2066    -1988    -1917    -1852    -1787    -1728    -1676    -1624 
   -1578    -1540    -1505    -1482    -1471    -1463    -1460    -1472 
   -1485    -1490    -1495    -1495    -1480    -1464    -1453    -1437 
   -1422    -1405    -1374    -1345    -1325    -1302    -1279    -1258 
   -1228    -1190    -1148    -1104    -1060    -1019     -978     -942 
    -908     -882     -869     -864     -864     -881     -908     -950 
   -1005    -1062    -1119    -1183    -1250    -1308    -1377    -1459 
   -1541    -1622    -1714    -1819    -1930    -2047    -2169    -2282 
   -2400    -2524    -2641    -2744    -2836    -2925    -2992    -3036 
   -3076    -3102    -3098    -3082    -3055    -3013    -2965    -2915 
   -2851    -2772    -2694    -2612    -2504    -2388    -2273    -2142 
   -2003    -1880    -1764    -1644    -1534    -1448    -1374    -1317 
   -1285    -1258    -1235    -1225    -1223    -1215    -1220    -1244 
   -1275    -1301    -1332    -1368    -1401    -1439    -1479    -1509 
   -1533    -1560    -1578    -1584    -1597    -1617    -1632    -1647 
   -1664    -1675    -1667    -1648    -1630    -1605    -1576    -1559 
   -1553    -1549    -1551    -1563    -1570    -1567    -1561    -1545 
   -1521    -1503    -1491    -1480    -1478    -1485    -1497    -1514 
   -1532    -1549    -1572    -1606    -1656    -1709    -1764    -1826 
   -1894    -1954    -2015    -2070    -2111    -2144    -2176    -2192 
   -2200    -2215    -2222    -2214    -2200    -2177    -2146    -2111 
   -2070    -2018    -1965    -1911    -1852    -1796    -1738    -1679 
   -1606    -1522    -1436    -1347    -1251    -1167    -1093    -1019 
    -966     -935     -911     -903     -920     -940     -966    -1009 
   -1053    -1092    -1142    -1201    -1260    -1323    -1386    -1448 
   -1501    -1543    -1584    -1625    -1651    -1665    -1679    -1687 
   -1686    -1679    -1671    -1655    -1637    -1617    -1590    -1559 
   -1522    -1470    -1408    -1344    -1282    -1219    -1155    -1105 
   -1065    -1030    -1004     -994     -993    -1000    -1021    -1050 
   -1080    -1125    -1179    -1225    -1282    -1350    -1402    -1445 
   -1485    -1503    -1512    -1516    -1517    -1522    -1544    -1564 
   -1566    -1568    -1574    -1564    -1553    -1545    -1528    -1505 
   -1475    -1444    -1422    -1420    -1433    -1449    -1466    -1485 
   -1498    -1502    -1498    -1494    -1483    -1456    -1431    -1413 
   -1387    -1372    -1374    -1372    -1378    -1395    -1409    -1422 
   -1447    -1470    -1489    -1514    -1548    -1582    -1610    -1641 
   -1674    -1706    -1734    -1750    -1761    -1772    -1787    -1792 
   -1794    -1800    -1817    -1836    -1859    -1896    -1933    -1968 
   -2007    -2042    -2053    -2053    -2056    -2050    -2027    -1999 
   -1961    -1904    -1846    -1787    -1722    -1665    -1620    -1584 
   -1566    -1568    -1587    -1617    -1661    -1717    -1765    -1813 
   -1869    -1930    -1985    -2039    -2107    -2180    -2250    -2326 
   -2389    -2436    -2482    -2528    -2579    -2635    -2688    -2744 
   -2808    -2866    -2917    -2982    -3048    -3106    -3171    -3240 
   -3299    -3358    -3423    -3477    -3516    -3546    -3565    -3565 
   -3535    -3484    -3433    -3369    -3288    -3213    -3140    -3052 
   -2961    -2878    -2797    -2720    -2644    -2567    -2506    -2470 
   -2432    -2396    -2377    -2353    -2323    -2309    -2292    -2267 
   -2267    -2272    -2263    -2274    -2296    -2295    -2303    -2317 
   -2305    -2290    -2280    -2249    -2205    -2165    -2114    -2053 
   -1998    -1944    -1885    -1833    -1794    -1763    -1738    -1721 
   -1706    -1703    -1710    -1726    -1749    -1771    -1800    -1841 
   -1877    -1923    -1979    -2039    -2107    -2174    -2241    -2299 
   -2349    -2409    -2463    -2512    -2563    -2609    -2650    -2687 
   -2716    -2740    -2759    -2772    -2781    -2782    -2776    -2768 
   -2763    -2759    -2749    -2732    -2713    -2686    -2647    -2606 
   -2554    -2490    -2439    -2397    -2347    -2296    -2258    -2226 
   -2195    -2166    -2138    -2126    -2146    -2172    -2196    -2236 
   -2281    -2323    -2369    -2405    -2444    -2490    -2531    -2570 
   -2605    -2623    -2635    -2647    -2641    -2623    -2604    -2579 
   -2548    -2506    -2447    -2377    -2299    -2205    -2106    -2001 
   -1896    -1796    -1695    -1601    -1518    -1449    -1385    -1318 
   -1273    -1256    -1242    -1236    -1266    -1310    -1367    -1448 
   -1545    -1642    -1749    -1859    -1956    -2046    -2141    -2232 
   -2316    -2401    -2479    -2536    -2579    -2613    -2631    -2639 
   -2646    -2658    -2671    -2687    -2710    -2731    -2749    -2776 
   -2799    -2803    -2795    -2781    -2751    -2714    -2678    -2629 
   -2577    -2540    -2511    -2482    -2469    -2459    -2442    -2446 
   -2481    -2528    -2571    -2631    -2700    -2756    -2814    -2879 
   -2938    -2983    -3017    -3052    -3071    -3067    -3069    -3075 
   -3065    -3057    -3048    -3021    -2978    -2936    -2887    -2822 
   -2756    -2695    -2633    -2577    -2527    -2474    -2427    -2380 
   -2327    -2270    -2208    -2139    -2069    -2008    -1962    -1923 
   -1892    -1880    -1880    -1884    -1896    -1912    -1929    -1953 
   -1992    -2042    -2097    -2165    -2243    -2319    -2390    -2471 
   -2556    -2646    -2747    -2851    -2949    -3056    -3163    -3260 
   -3350    -3447    -3550    -3647    -3738    -3815    -3874    -3921 
   -3964    -3994    -4002    -4005    -4017    -4024    -4014    -4001 
   -3979    -3956    -3936    -3910    -3880    -3856    -3828    -3794 
   -3754    -3704    -3645    -3591    -3549    -3507    -3465    -3430 
   -3396    -3373    -3355    -3333    -3319    -3307    -3281    -3256 
   -3232    -3211    -3194    -3175    -3150    -3133    -3127    -3127 
   -3140    -3169    -3199    -3229    -3269    -3316    -3366    -3431 
   -3514    -3609    -3711    -3804    -3892    -3979    -4066    -4144 
   -4213    -4276    -4334    -4391    -4438    -4467    -4486    -4484 
   -4455    -4417    -4368    -4294    -4207    -4120    -4024    -3923 
   -3824    -3723    -3619    -3522    -3430    -3330    -3238    -3159 
   -3083    -3017    -2959    -2896    -2839    -2797    -2759    -2729 
   -2708    -2693    -2687    -2691    -2705    -2721    -2735    -2754 
   -2786    -2820    -2851    -2884    -2918    -2944    -2971    -3006 
   -3041    -3076    -3115    -3148    -3173    -3204    -3234    -3265 
   -3303    -3339    -3368    -3396    -3437    -3474    -3510    -3554 
   -3599    -3638    -3678    -3724    -3767    -3804    -3836    -3866 
   -3883    -3897    -3909    -3916    -3912    -3898    -3878    -3846 
   -3807    -3766    -3717    -3666    -3615    -3559    -3497    -3437 
   -3380    -3322    -3265    -3219    -3179    -3133    -3088    -3049 
   -3009    -2970    -2936    -2910    -2890    -2870    -2851    -2837 
   -2814    -2782    -2754    -2735    -2709    -2683    -2674    -2671 
   -2668    -2666    -2667    -2679    -2698    -2717    -2749    -2790 
   -2825    -2855    -2894    -2936    -2967    -2988    -3013    -3042 
   -3073    -3096    -3109    -3118    -3115    -3103    -3090    -3076 
   -3060    -3037    -3003    -2972    -2947    -2917    -2893    -2876 
   -2863    -2857    -2859    -2859    -2871    -2893    -2905    -2922 
   -2955    -2986    -3007    -3030    -3044    -3037    -3025    -3019 
   -3011    -2998    -2982    -2961    -2948    -2938    -2918    -2895 
   -2882    -2863    -2835    -2805    -2775    -2751    -2721    -2681 
   -2646    -2621    -2593    -2569    -2563    -2565    -2567    -2574 
   -2589    -2610    -2636    -2671    -2713    -2758    -2803    -2851 
   -2895    -2933    -2967    -2995    -3015    -3030    -3037    -3041 
   -3045    -3046    -3046    -3046    -3042    -3029    -3006    -2978 
   -2947    -2911    -2871    -2820    -2767    -2714    -2663    -2624 
   -2586    -2544    -2533    -2550    -2559    -2570    -2604    -2652 
   -2698    -2748    -2808    -2878    -2960    -3046    -3126    -3210 
   -3298    -3375    -3446    -3510    -3561    -3615    -3662    -3689 
   -3711    -3727    -3726    -3717    -3712    -3700    -3673    -3634 
   -3591    -3530    -3468    -3406    -3336    -3269    -3215    -3164 
   -3106    -3056    -3018    -2978    -2944    -2925    -2906    -2890 
   -2882    -2878    -2863    -2848    -2836    -2824    -2808    -2794 
   -2785    -2775    -2766    -2758    -2748    -2732    -2718    -2712 
   -2706    -2701    -2686    -2662    -2632    -2593    -2552    -2521 
   -2490    -2457    -2430    -2407    -2386    -2369    -2346    -2315 
   -2286    -2262    -2242    -2223    -2199    -2170    -2149    -2130 
   -2114    -2104    -2102    -2100    -2093    -2088    -2084    -2084 
   -2087    -2091    -2098    -2107    -2114    -2121    -2133    -2138 
   -2146    -2155    -2160    -2168    -2185    -2205    -2228    -2258 
   -2289    -2313    -2332    -2349    -2358    -2359    -2353    -2338 
   -2309    -2263    -2208    -2147    -2073    -1993    -1925    -1852 
   -1767    -1688    -1615    -1535    -1457    -1391    -1327    -1263 
   -1216    -1175    -1136    -1104    -1071    -1038    -1011     -982 
    -955     -947     -955     -969     -999    -1038    -1074    -1109 
   -1143    -1171    -1204    -1244    -1287    -1331    -1377    -1422 
   -1466    -1499    -1520    -1535    -1560    -1583    -1601    -1624 
   -1644    -1665    -1690    -1714    -1738    -1760    -1784    -1806 
   -1822    -1840    -1859    -1880    -1898    -1910    -1926    -1946 
   -1960    -1971    -1985    -1998    -2001    -2008    -2022    -2027 
   -2029    -2034    -2034    -2033    -2033    -2025    -2015    -1999 
   -1968    -1937    -1906    -1864    -1821    -1776    -1721    -1663 
   -1605    -1545    -1487    -1440    -1389    -1333    -1287    -1247 
   -1206    -1170    -1133    -1092    -1047    -1003     -961     -920 
    -881     -846     -818     -791     -772     -758     -741     -727 
    -715     -710     -712     -727     -747     -762     -777     -799 
    -814     -827     -858     -886     -903     -931     -972    -1011 
   -1043    -1080    -1121    -1155    -1175    -1193    -1212    -1224 
   -1232    -1237    -1242    -1252    -1264    -1274    -1281    -1285 
   -1285    -1278    -1260    -1243    -1224    -1189    -1143    -1094 
   -1048    -1011     -973     -935     -912     -901     -899     -897 
    -905     -926     -950     -982    -1028    -1078    -1127    -1173 
   -1217    -1258    -1291    -1324    -1355    -1377    -1393    -1408 
   -1417    -1414    -1408    -1402    -1382    -1354    -1333    -1316 
   -1304    -1304    -1306    -1308    -1312    -1310    -1300    -1282 
   -1263    -1244    -1223    -1200    -1179    -1161    -1136    -1111 
   -1084    -1055    -1020     -980     -940     -905     -874     -849 
    -831     -823     -824     -837     -858     -884     -912     -945 
    -985    -1034    -1081    -1131    -1192    -1264    -1337    -1405 
   -1471    -1537    -1602    -1669    -1745    -1826    -1906    -1987 
   -2065    -2130    -2182    -2232    -2274    -2304    -2326    -2347 
   -2365    -2366    -2358    -2347    -2319    -2280    -2232    -2177 
   -2119    -2061    -2000    -1938    -1865    -1780    -1688    -1597 
   -1507    -1409    -1314    -1229    -1144    -1067    -1004     -950 
    -903     -868     -847     -843     -847     -869     -911     -949 
    -986    -1035    -1098    -1181    -1251    -1297    -1364    -1445 
   -1495    -1544    -1613    -1675    -1732    -1784    -1829    -1858 
   -1876    -1898    -1922    -1935    -1935    -1930    -1923    -1906 
   -1888    -1869    -1840    -1803    -1763    -1715    -1669    -1622 
   -1568    -1509    -1455    -1394    -1334    -1282    -1228    -1173 
