Origin Time       2016/04/16 01:25:00
Lat.              32.753
Long.             130.762
Depth. (km)       12
Mag.              7.3
Station Code      HYG016
Station Lat.      34.7551
Station Long.     134.3900
Station Height(m) 5
Record Time       2016/04/16 01:26:17
Sampling Freq(Hz) 100Hz
Duration Time(s)  126
Dir.              E-W
Scale Factor      7845(gal)/8223790
Max. Acc. (gal)   4.027
Last Correction   2016/04/16 01:26:18
Memo.             
[...]
    8509     8619     8730     8834     8937     9040     9144     9261 
    9382     9504     9628     9759     9880     9998    10110    10208 
   10291    10365    10432    10494    10551    10608    10663    10712 
   10759    10794    10809    10800    10771    10725    10660    10582 
   10500    10411    10300    10179    10049     9902     9738     9563 
    9377     9184     8988     8797     8612     8437     8283     8141 
    8019     7916     7831     7755     7677     7589     7496     7404 
    7323     7258     7211     7188     7194     7221     7260     7302 
    7350     7403     7456     7515     7588     7670     7750     7827 
    7897     7958     8010     8056     8095     8129     8166     8212 
    8263     8324     8406     8515     8658     8838     9047     9274 
    9514     9759     9999    10228    10453    10673    10878    11061 
   11227    11369    11481    11569    11630    11661    11663    11635 
   11581    11502    11399    11286    11164    11032    10895    10762 
   10632    10501    10366    10234    10107     9995     9906     9834 
    9776     9736     9702     9664     9622     9574     9516     9445 
    9364     9282     9196     9104     9027     8954     8885     8830 
    8780     8726     8668     8612     8557     8494     8434     8385 
    8343     8305     8280     8268     8272     8307     8383     8496 
    8638     8803     8985     9180     9378     9563     9729     9865 
    9979    10081    10170    10250    10328    10413    10504    10604 
   10709    10820    10925    11010    11079    11138    11191    11237 
   11276    11304    11315    11317    11311    11287    11249    11202 
   11138    11071    11010    10955    10902    10848    10786    10720 
   10655    10593    10534    10478    10419    10347    10265    10173 
   10076     9973     9868     9761     9652     9548     9463     9398 
    9358     9336     9331     9340     9355     9373     9391     9401 
    9406     9406     9393     9373     9342     9297     9246     9192 
    9132     9076     9026     8977     8934     8895     8868     8841 
    8799     8752     8703     8641     8579     8523     8464     8414 
    8378     8357     8359     8375     8401     8441     8490     8543 
    8604     8671     8735     8797     8858     8912     8959     9000 
    9023     9035     9042     9038     9030     9023     9011     8995 
    8981     8965     8954     8953     8950     8950     8961     8980 
    9009     9046     9088     9137     9196     9255     9316     9373 
    9424     9462     9482     9481     9459     9418     9358     9274 
    9167     9034     8876     8704     8517     8317     8108     7894 
    7682     7479     7285     7110     6967     6848     6754     6682 
    6623     6573     6538     6513     6507     6525     6578     6670 
    6804     6971     7159     7361     7566     7765     7952     8122 
    8280     8424     8542     8640     8708     8743     8742     8708 
    8652     8579     8487     8384     8278     8175     8089     8023 
    7981     7962     7964     7979     8002     8035     8067     8094 
    8133     8179     8230     8298     8387     8494     8617     8752 
    8899     9046     9186     9312     9414     9495     9562     9618 
    9670     9717     9763     9802     9830     9845     9840     9822 
    9790     9748     9709     9674     9656     9659     9678     9715 
    9767     9825     9879     9922     9957     9979     9987     9988 
    9988     9992    10003    10022    10049    10083    10118    10153 
   10185    10208    10223    10233    10233    10214    10184    10137 
   10066     9983     9891     9794     9697     9601     9518     9444 
    9373     9319     9279     9243     9209     9180     9162     9157 
    9167     9193     9225     9269     9322     9379     9432     9479 
    9525     9568     9603     9639     9675     9715     9764     9821 
    9884     9956    10026    10098    10169    10241    10307    10361 
   10396    10408    10395    10358    10296    10215    10127    10029 
    9922     9815     9715     9629     9570     9536     9540     9583 
    9653     9747     9846     9942    10037    10120    10187    10242 
   10281    10301    10301    10276    10215    10123    10002     9850 
    9682     9504     9325     9151     8984     8827     8684     8550 
    8430     8324     8225     8132     8056     8000     7958     7948 
    7979     8040     8137     8266     8407     8563     8721     8866 
    8993     9093     9162     9192     9182     9139     9065     8972 
    8876     8783     8698     8630     8587     8563     8556     8571 
    8612     8688     8799     8938     9103     9289     9495     9714 
    9937    10161    10376    10573    10747    10889    10996    11075 
   11124    11155    11173    11183    11183    11171    11138    11082 
   10991    10872    10732    10570    10399    10228    10066     9919 
    9795     9699     9626     9575     9537     9505     9477     9441 
    9391     9328     9246     9151     9042     8916     8780     8622 
    8444     8257     8056     7843     7626     7404     7179     6952 
    6736     6544     6389     6281     6219     6212     6259     6350 
    6486     6659     6856     7067     7285     7501     7708     7894 
    8060     8210     8352     8494     8641     8796     8964     9136 
    9310     9493     9679     9864    10053    10235    10411    10588 
   10764    10947    11146    11358    11564    11769    11959    12128 
   12276    12398    12487    12552    12610    12665    12708    12752 
   12796    12829    12846    12837    12791    12712    12598    12447 
   12259    12039    11794    11527    11249    10979    10719    10471 
   10251    10057     9877     9711     9560     9418     9285     9154 
    9024     8896     8766     8640     8517     8382     8237     8078 
    7903     7723     7551     7388     7242     7130     7059     7023 
    7028     7068     7129     7206     7304     7415     7541     7678 
    7823     7967     8105     8228     8332     8426     8517     8602 
    8688     8792     8905     9030     9165     9305     9450     9593 
    9737     9884    10030    10164    10272    10350    10412    10455 
   10488    10517    10532    10547    10567    10580    10596    10609 
   10611    10604    10585    10551    10509    10462    10411    10358 
   10295    10218    10129    10021     9892     9753     9599     9425 
    9246     9067     8901     8750     8618     8506     8418     8352 
    8298     8241     8187     8132     8068     8001     7927     7850 
    7786     7744     7723     7736     7777     7840     7920     8001 
    8078     8144     8189     8220     8243     8259     8268     8266 
    8248     8224     8182     8129     8075     8028     7990     7955 
    7924     7903     7889     7878     7886     7916     7967     8039 
    8127     8232     8360     8503     8657     8829     9015     9202 
    9379     9535     9666     9767     9830     9864     9872     9855 
    9817     9771     9714     9637     9551     9450     9336     9220 
    9099     8976     8863     8762     8669     8596     8540     8497 
    8471     8457     8451     8444     8446     8460     8474     8487 
    8494     8494     8484     8469     8451     8424     8394     8356 
    8314     8278     8253     8243     8248     8281     8328     8383 
    8444     8490     8513     8513     8486     8437     8383     8322 
    8270     8239     8229     8247     8290     8349     8413     8479 
    8548     8618     8695     8780     8865     8957     9053     9144 
    9227     9294     9348     9382     9396     9394     9381     9363 
    9352     9346     9355     9388     9432     9485     9547     9607 
    9662     9707     9737     9759     9778     9788     9795     9815 
    9850     9890     9945    10008    10066    10116    10153    10172 
   10183    10189    10204    10234    10281    10357    10455    10558 
   10654    10740    10804    10837    10856    10868    10872    10874 
   10882    10895    10912    10936    10959    10976    10998    11017 
   11020    10999    10955    10882    10781    10648    10503    10346 
   10172     9979     9765     9524     9261     8978     8672     8356 
    8032     7713     7422     7172     6967     6810     6698     6627 
    6589     6571     6573     6589     6606     6623     6642     6669 
    6710     6767     6837     6925     7023     7142     7284     7441 
    7614     7803     7996     8199     8408     8625     8851     9077 
    9301     9525     9740     9945    10142    10327    10500    10658 
   10805    10944    11071    11178    11252    11280    11259    11186 
   11062    10891    10685    10459    10220     9981     9752     9528 
    9319     9126     8943     8775     8626     8496     8380     8275 
    8187     8114     8035     7944     7846     7726     7600     7474 
    7346     7223     7105     6985     6878     6777     6681     6600 
    6531     6475     6436     6417     6415     6431     6473     6540 
    6631     6733     6852     6984     7118     7250     7381     7508 
    7638     7770     7906     8055     8205     8347     8482     8604 
    8715     8824     8926     9011     9071     9113     9134     9134 
    9116     9082     9049     9038     9040     9026     9000     8984 
    8970     8964     8978     9011     9071     9150     9223     9292 
    9352     9396     9423     9431     9423     9398     9351     9285 
    9198     9104     9015     8926     8833     8749     8677     8607 
    8542     8476     8398     8321     8251     8190     8144     8124 
    8127     8147     8176     8213     8247     8262     8262     8248 
    8213     8167     8122     8081     8059     8067     8100     8152 
    8221     8295     8378     8474     8583     8692     8802     8905 
    9005     9101     9190     9274     9343     9396     9435     9454 
    9466     9464     9437     9393     9337     9269     9205     9155 
    9104     9055     9003     8946     8893     8849     8806     8769 
    8742     8715     8685     8655     8621     8583     8540     8496 
    8464     8441     8441     8467     8506     8565     8637     8714 
    8802     8893     8976     9047     9101     9131     9139     9134 
    9126     9111     9085     9054     9022     8982     8935     8887 
    8833     8777     8721     8671     8622     8579     8533     8490 
    8449     8413     8383     8352     8317     8286     8268     8264 
    8284     8333     8414     8529     8669     8834     9008     9180 
    9355     9541     9709     9825     9909     9969     9992     9998 
   10000     9998    10006    10026    10050    10085    10123    10162 
   10201    10243    10284    10319    10346    10353    10335    10304 
   10254    10184    10103    10012     9913     9807     9703     9602 
    9508     9424     9342     9252     9151     9036     8904     8743 
    8540     8306     8046     7770     7484     7186     6889     6601 
    6331     6092     5891     5742     5632     5562     5549     5587 
    5671     5798     5954     6131     6323     6519     6700     6862 
    7005     7123     7215     7296     7375     7460     7550     7645 
    7761     7892     8023     8163     8307     8454     8608     8764 
    8928     9124     9348     9574     9790    10022    10258    10467 
   10662    10841    11001    11149    11284    11408    11514    11595 
   11646    11670    11674    11650    11599    11508    11369    11199 
   10996    10755    10488    10184     9857     9518     9166     8812 
    8464     8118     7789     7491     7229     7013     6858     6763 
    6716     6717     6754     6802     6866     6948     7030     7109 
    7188     7267     7335     7392     7446     7497     7551     7619 
    7695     7774     7862     7955     8052     8166     8294     8441 
    8617     8816     9034     9261     9499     9755    10004    10251 
   10508    10767    11029    11298    11562    11821    12078    12317 
   12519    12692    12843    12961    13035    13095    13136    13092 
   12988    12885    12741    12576    12425    12248    12077    11916 
   11762    11634    11506    11387    11303    11234    11176    11132 
   11092    11055    11009    10951    10886    10808    10710    10600 
   10481    10359    10239    10116     9987     9849     9694     9522 
    9340     9128     8895     8660     8413     8152     7885     7624 
    7377     7126     6868     6623     6394     6180     5992     5842 
    5732     5667     5652     5682     5764     5888     6035     6205 
    6386     6569     6758     6943     7125     7333     7568     7827 
    8118     8437     8783     9139     9506     9884    10253    10606 
   10944    11264    11557    11819    12060    12280    12465    12619 
   12752    12852    12900    12907    12877    12810    12712    12590 
   12449    12317    12168    11994    11820    11635    11418    11175 
   10921    10646    10335    10008     9680     9329     8968     8610 
    8251     7894     7542     7195     6874     6581     6316     6083 
    5881     5715     5595     5518     5475     5468     5489     5519 
    5557     5603     5655     5713     5783     5876     5994     6142 
    6335     6564     6817     7079     7350     7641     7946     8262 
    8576     8888     9200     9513     9832    10153    10484    10808 
   11105    11383    11646    11892    12131    12360    12571    12772 
   12954    13104    13234    13338    13394    13408    13359    13238 
   13077    12876    12649    12422    12188    11961    11749    11550 
   11375    11207    11053    10913    10767    10611    10458    10318 
   10177    10027     9864     9693     9518     9352     9205     9054 
    8883     8704     8526     8359     8235     8158     8110     8083 
    8068     8062     8077     8110     8148     8182     8224     8289 
    8385     8517     8673     8834     8996     9158     9321     9487 
    9639     9752     9822     9863     9882     9883     9875     9859 
    9818     9742     9647     9547     9447     9355     9278     9201 
    9120     9050     8996     8959     8949     8962     9004     9089 
    9201     9328     9463     9583     9695     9803     9902     9991 
   10065    10125    10170    10177    10142    10106    10076    10039 
    9998     9945     9907     9894     9886     9898     9934     9988 
   10050    10112    10181    10254    10331    10413    10496    10570 
   10643    10716    10764    10798    10820    10821    10809    10785 
   10767    10748    10720    10704    10686    10658    10625    10582 
   10527    10463    10395    10326    10258    10195    10153    10130 
   10118    10130    10160    10201    10253    10292    10343    10411 
   10466    10524    10590    10644    10687    10731    10766    10775 
   10754    10702    10616    10493    10343    10199    10066     9942 
    9844     9765     9709     9659     9602     9556     9525     9504 
    9483     9460     9447     9439     9440     9444     9435     9424 
    9414     9397     9359     9304     9239     9170     9092     9007 
    8927     8857     8792     8729     8669     8618     8576     8545 
    8513     8490     8490     8510     8546     8595     8665     8770 
    8888     9012     9154     9306     9454     9598     9740     9887 
   10038    10189    10355    10531    10692    10844    10993    11124 
   11237    11327    11391    11448    11502    11542    11569    11587 
   11600    11603    11585    11549    11491    11402    11287    11152 
   11014    10882    10748    10636    10563    10513    10481    10462 
   10455    10444    10412    10362    10303    10230    10133    10011 
    9882     9747     9607     9451     9278     9113     8957     8797 
    8646     8527     8434     8360     8306     8279     8286     8314 
    8344     8376     8410     8453     8503     8561     8634     8725 
    8833     8941     9047     9159     9271     9378     9477     9562 
    9636     9697     9738     9763     9774     9775     9757     9721 
    9666     9593     9512     9416     9296     9171     9042     8908 
    8785     8677     8576     8480     8407     8363     8332     8322 
    8337     8368     8421     8482     8549     8625     8712     8807 
    8891     8965     9046     9131     9213     9292     9377     9479 
    9587     9693     9792     9880     9963    10039    10104    10154 
   10193    10223    10254    10287    10312    10339    10355    10365 
   10385    10395    10396    10395    10382    10357    10316    10253 
   10173    10084     9977     9859     9741     9629     9524     9410 
    9298     9186     9070     8953     8835     8712     8590     8471 
    8355     8245     8151     8064     7979     7913     7854     7801 
    7777     7759     7759     7792     7821     7858     7925     7987 
    8024     8055     8104     8158     8210     8267     8324     8382 
    8444     8513     8591     8669     8745     8810     8866     8916 
    8957     8991     9020     9053     9082     9112     9150     9171 
    9182     9201     9215     9223     9242     9271     9312     9363 
    9413     9460     9514     9558     9590     9616     9629     9632 
    9625     9596     9545     9491     9433     9363     9290     9225 
    9170     9116     9058     9015     8982     8945     8912     8904 
    8915     8941     8991     9059     9142     9232     9319     9400 
    9477     9553     9624     9688     9765     9842     9911     9976 
   10037    10092    10134    10146    10125    10075     9981     9852 
    9694     9509     9315     9120     8911     8695     8479     8268 
    8066     7865     7672     7506     7364     7241     7132     7047 
    6987     6945     6926     6921     6937     6979     7020     7056 
    7102     7149     7198     7238     7276     7322     7377     7423 
    7469     7523     7576     7636     7697     7750     7815     7892 
    7964     8040     8120     8201     8290     8388     8487     8583 
    8685     8810     8931     9055     9202     9352     9491     9629 
    9767     9886     9979    10045    10092    10127    10119    10076 
   10027     9949     9837     9711     9570     9429     9288     9134 
    8978     8830     8692     8564     8440     8322     8228     8144 
    8062     7987     7928     7878     7842     7812     7792     7793 
    7805     7819     7844     7881     7917     7956     7994     8028 
    8068     8102     8129     8170     8203     8236     8267     8272 
    8276     8281     8272     8256     8241     8225     8206     8185 
    8159     8136     8121     8106     8089     8075     8068     8066 
    8064     8060     8060     8067     8073     8090     8116     8137 
    8162     8182     8209     8253     8301     8341     8390     8441 
    8487     8523     8545     8573     8607     8627     8642     8665 
    8687     8711     8730     8731     8731     8737     8745     8758 
    8776     8797     8823     8843     8861     8892     8942     8996 
    9059     9131     9201     9274     9342     9390     9423     9441 
    9445     9448     9451     9444     9440     9445     9454     9466 
    9472     9470     9458     9424     9366     9288     9194     9086 
    8972     8856     8742     8626     8515     8414     8324     8241 
