Origin Time       2016/04/16 01:25:00
Lat.              32.753
Long.             130.762
Depth. (km)       12
Mag.              7.3
Station Code      HYG001
Station Lat.      35.6194
Station Long.     134.4500
Station Height(m) 7
Record Time       2016/04/16 01:27:19
Sampling Freq(Hz) 100Hz
Duration Time(s)  60
Dir.              N-S
Scale Factor      7845(gal)/8223790
Max. Acc. (gal)   1.865
Last Correction   2016/04/16 01:27:20
Memo.             
[...]
    4172     4170     4168     4170     4168     4164     4164     4167 
    4159     4155     4155     4156     4155     4155     4158     4168 
    4178     4185     4197     4217     4237     4253     4271     4291 
    4315     4341     4364     4383     4405     4429     4444     4457 
    4475     4490     4498     4504     4513     4525     4534     4541 
    4545     4549     4557     4565     4567     4568     4572     4572 
    4575     4575     4576     4577     4576     4573     4568     4565 
    4565     4564     4560     4558     4557     4557     4561     4567 
    4564     4558     4554     4549     4538     4523     4506     4488 
    4469     4448     4425     4405     4382     4357     4330     4307 
    4289     4271     4253     4237     4214     4194     4178     4164 
    4151     4135     4120     4107     4095     4082     4068     4055 
    4041     4024     4005     3991     3975     3948     3921     3902 
    3882     3858     3836     3811     3781     3762     3747     3727 
    3713     3707     3697     3686     3680     3678     3678     3680 
    3681     3680     3678     3681     3681     3676     3672     3666 
    3657     3649     3642     3631     3619     3605     3593     3576 
    3558     3542     3519     3495     3476     3450     3415     3384 
    3354     3319     3284     3249     3208     3169     3136     3099 
    3059     3019     2976     2933     2894     2855     2811     2770 
    2732     2691     2651     2619     2592     2563     2536     2513 
    2494     2479     2467     2458     2447     2439     2439     2439 
    2439     2447     2454     2459     2475     2502     2527     2551 
    2578     2606     2636     2673     2708     2740     2782     2826 
    2867     2905     2948     2994     3038     3083     3129     3173 
    3222     3279     3339     3399     3454     3520     3595     3666 
    3736     3808     3882     3958     4032     4104     4176     4248 
    4315     4379     4441     4499     4553     4606     4657     4700 
    4739     4779     4819     4857     4888     4915     4939     4961 
    4981     4999     5011     5024     5035     5040     5046     5049 
    5042     5032     5027     5020     5011     4999     4982     4965 
    4950     4936     4926     4914     4900     4887     4877     4874 
    4870     4866     4864     4864     4869     4877     4888     4896 
    4908     4927     4949     4968     4986     5003     5020     5040 
    5059     5073     5084     5096     5113     5127     5134     5144 
    5155     5159     5164     5169     5169     5167     5166     5155 
    5138     5121     5103     5078     5055     5026     4989     4955 
    4928     4900     4865     4824     4783     4743     4714     4684 
    4650     4615     4581     4549     4519     4490     4461     4428 
    4393     4365     4336     4303     4275     4248     4218     4185 
    4151     4117     4088     4059     4017     3979     3940     3899 
    3861     3824     3778     3728     3677     3624     3573     3523 
    3474     3423     3372     3322     3275     3227     3179     3132 
    3084     3040     2999     2959     2917     2879     2848     2817 
    2782     2748     2721     2701     2679     2659     2636     2621 
    2614     2608     2605     2606     2605     2606     2614     2625 
    2636     2647     2655     2664     2677     2690     2709     2728 
    2745     2758     2772     2792     2813     2830     2849     2867 
    2876     2884     2894     2903     2906     2907     2907     2903 
    2898     2895     2890     2882     2879     2875     2875     2876 
    2876     2879     2882     2889     2895     2901     2907     2922 
    2936     2948     2959     2967     2978     2992     3009     3019 
    3029     3040     3045     3049     3057     3064     3071     3079 
    3082     3083     3086     3088     3094     3095     3094     3098 
    3109     3117     3123     3136     3148     3160     3175     3191 
    3207     3221     3230     3241     3252     3257     3260     3264 
    3265     3264     3265     3265     3262     3262     3268     3275 
    3280     3280     3288     3304     3317     3326     3334     3346 
    3364     3380     3395     3411     3429     3447     3462     3483 
    3507     3527     3549     3573     3595     3613     3636     3665 
    3693     3719     3748     3781     3813     3842     3875     3905 
    3935     3962     3986     4008     4036     4063     4079     4093 
    4107     4128     4151     4164     4175     4186     4197     4207 
    4220     4233     4247     4255     4263     4275     4288     4298 
    4309     4329     4351     4369     4388     4413     4441     4468 
    4492     4518     4544     4571     4598     4619     4638     4656 
    4668     4677     4681     4679     4679     4679     4671     4664 
    4657     4645     4634     4627     4612     4588     4561     4531 
    4498     4457     4415     4376     4336     4289     4245     4205 
    4168     4132     4095     4063     4036     4017     3996     3979 
    3970     3962     3959     3970     3991     4013     4035     4064 
    4104     4144     4187     4233     4286     4338     4390     4441 
    4496     4552     4602     4648     4693     4729     4754     4780 
    4807     4828     4839     4839     4834     4833     4833     4824 
    4808     4785     4757     4727     4700     4673     4642     4604 
    4568     4538     4510     4484     4455     4423     4393     4363 
    4332     4306     4284     4263     4236     4209     4182     4158 
    4135     4116     4093     4064     4036     4013     3991     3969 
    3944     3925     3910     3894     3879     3866     3856     3848 
    3842     3835     3823     3815     3808     3801     3794     3785 
    3773     3761     3750     3738     3726     3712     3701     3689 
    3677     3666     3661     3658     3657     3657     3661     3665 
    3669     3676     3688     3699     3708     3724     3742     3755 
    3773     3793     3809     3824     3836     3848     3870     3886 
    3892     3901     3917     3927     3931     3937     3944     3950 
    3956     3964     3973     3978     3982     3984     3986     3989 
    3991     3990     3984     3981     3982     3979     3971     3964 
    3956     3948     3944     3936     3924     3912     3898     3882 
    3865     3846     3828     3809     3792     3773     3753     3734 
    3713     3696     3685     3673     3659     3649     3643     3645 
    3649     3651     3659     3673     3686     3701     3719     3742 
    3769     3796     3823     3856     3894     3932     3974     4020 
    4071     4118     4159     4207     4258     4307     4353     4396 
    4441     4488     4533     4576     4622     4666     4707     4746 
    4787     4820     4851     4887     4922     4946     4966     4986 
    5008     5027     5042     5055     5067     5076     5080     5081 
    5084     5085     5078     5070     5066     5065     5060     5055 
    5054     5057     5054     5049     5050     5051     5047     5044 
    5039     5032     5020     5004     4986     4963     4938     4914 
    4888     4861     4833     4801     4772     4742     4707     4666 
    4626     4587     4545     4500     4452     4405     4359     4307 
    4255     4207     4159     4112     4063     4016     3975     3939 
    3905     3873     3842     3820     3805     3793     3785     3785 
    3790     3796     3808     3827     3847     3871     3904     3936 
    3970     4012     4055     4094     4133     4175     4217     4255 
    4289     4320     4347     4374     4396     4415     4431     4445 
    4453     4463     4473     4477     4483     4491     4498     4500 
    4507     4521     4534     4546     4567     4588     4610     4637 
    4668     4699     4731     4768     4801     4837     4877     4916 
    4953     4988     5027     5066     5101     5134     5163     5193 
    5224     5252     5277     5300     5319     5333     5348     5355 
    5358     5358     5355     5351     5341     5324     5302     5278 
    5247     5213     5177     5138     5093     5039     4981     4923 
    4865     4806     4752     4699     4642     4590     4545     4500 
    4464     4436     4415     4405     4401     4399     4409     4423 
    4441     4460     4484     4509     4533     4557     4580     4602 
    4619     4633     4644     4648     4648     4650     4649     4638 
    4621     4594     4567     4544     4510     4471     4430     4380 
    4327     4274     4210     4145     4083     4017     3950     3888 
    3824     3761     3704     3651     3599     3547     3507     3472 
    3438     3414     3393     3372     3354     3343     3338     3335 
    3334     3334     3339     3353     3362     3369     3381     3397 
    3412     3429     3449     3466     3483     3501     3528     3554 
    3572     3591     3612     3632     3649     3657     3663     3677 
    3686     3686     3678     3677     3680     3672     3662     3659 
    3655     3650     3645     3634     3620     3612     3607     3597 
    3584     3570     3566     3565     3568     3573     3573     3578 
    3593     3615     3640     3669     3700     3732     3769     3815 
    3861     3905     3951     3996     4036     4082     4131     4175 
    4222     4263     4298     4338     4386     4423     4456     4490 
    4525     4558     4591     4623     4650     4671     4695     4725 
    4747     4766     4785     4806     4830     4855     4882     4909 
    4935     4962     4989     5024     5059     5092     5123     5158 
    5193     5225     5258     5290     5316     5337     5359     5375 
    5389     5408     5424     5433     5436     5437     5440     5443 
    5447     5443     5436     5427     5417     5406     5394     5379 
    5360     5339     5320     5306     5292     5271     5251     5235 
    5223     5208     5193     5184     5175     5164     5155     5148 
    5144     5142     5140     5140     5139     5142     5150     5155 
    5162     5175     5185     5189     5197     5206     5211     5209 
    5208     5206     5200     5189     5174     5154     5134     5111 
    5084     5054     5030     5004     4976     4943     4909     4876 
    4842     4806     4772     4739     4706     4673     4644     4617 
    4595     4572     4545     4518     4496     4476     4452     4426 
    4396     4368     4341     4314     4289     4270     4243     4220 
    4202     4192     4186     4178     4174     4175     4172     4171 
    4178     4187     4197     4207     4215     4225     4241     4253 
    4258     4261     4261     4256     4251     4236     4222     4210 
    4192     4182     4172     4151     4136     4126     4110     4097 
    4091     4078     4060     4051     4040     4025     4016     4010 
    3996     3981     3977     3975     3970     3973     3969     3963 
    3977     3989     3983     3984     3994     3998     4001     4005 
    4005     4006     4008     4008     4008     4002     3990     3987 
    3983     3964     3944     3936     3928     3906     3882     3870 
    3858     3839     3812     3781     3753     3734     3717     3693 
    3665     3642     3627     3609     3588     3573     3563     3553 
    3541     3530     3528     3528     3535     3544     3549     3551 
    3561     3569     3578     3595     3607     3615     3631     3647 
    3651     3667     3701     3719     3727     3744     3774     3802 
    3816     3819     3828     3850     3873     3883     3874     3861 
    3870     3894     3901     3879     3851     3842     3850     3846 
    3813     3770     3751     3746     3727     3686     3646     3619 
    3589     3550     3515     3488     3461     3429     3395     3366 
    3343     3317     3292     3271     3249     3229     3208     3191 
    3180     3173     3164     3159     3156     3150     3150     3154 
    3156     3159     3157     3161     3180     3202     3223     3246 
    3262     3284     3333     3387     3426     3459     3500     3554 
    3615     3672     3726     3780     3828     3873     3927     3993 
    4051     4088     4122     4167     4217     4256     4288     4329 
    4365     4391     4421     4463     4499     4517     4525     4542 
    4561     4565     4558     4557     4550     4537     4526     4510 
    4479     4441     4413     4388     4357     4320     4276     4237 
    4205     4167     4131     4091     4048     4006     3971     3936 
    3906     3879     3839     3796     3767     3753     3734     3708 
    3678     3659     3658     3662     3665     3669     3673     3680 
    3696     3711     3728     3748     3757     3765     3780     3794 
    3802     3809     3817     3816     3811     3807     3805     3802 
    3792     3773     3754     3735     3715     3694     3666     3628 
    3593     3562     3528     3488     3449     3407     3369     3334 
    3294     3253     3221     3191     3159     3127     3098     3071 
    3052     3041     3033     3025     3015     3010     3013     3018 
    3022     3028     3032     3034     3038     3045     3055     3059 
    3057     3055     3056     3053     3046     3045     3046     3040 
    3019     2998     2982     2967     2947     2911     2866     2818 
    2772     2728     2677     2616     2554     2494     2432     2373 
    2319     2269     2215     2165     2123     2089     2062     2038 
    2020     2011     2008     2011     2019     2031     2046     2070 
    2100     2130     2161     2193     2230     2267     2304     2338 
    2377     2412     2444     2479     2516     2548     2579     2613 
    2647     2679     2713     2751     2790     2828     2866     2901 
    2940     2975     3007     3044     3078     3106     3136     3167 
    3191     3211     3231     3253     3276     3292     3303     3315 
    3331     3350     3365     3375     3391     3407     3419     3429 
    3439     3446     3450     3458     3466     3472     3474     3480 
    3481     3478     3472     3464     3454     3443     3429     3410 
    3395     3380     3361     3342     3325     3306     3287     3268 
    3248     3223     3199     3175     3149     3127     3102     3078 
    3056     3036     3014     2992     2979     2974     2965     2957 
    2957     2961     2964     2974     2983     2992     3010     3034 
    3055     3073     3102     3129     3150     3176     3202     3225 
    3252     3277     3299     3321     3339     3358     3379     3397 
    3410     3415     3418     3426     3431     3431     3426     3419 
    3407     3399     3393     3384     3369     3354     3343     3339 
    3335     3331     3333     3336     3343     3353     3360     3372 
    3388     3403     3416     3433     3450     3462     3474     3491 
    3505     3518     3532     3544     3555     3570     3581     3589 
    3600     3605     3605     3607     3605     3597     3584     3569 
    3554     3532     3507     3478     3451     3422     3383     3345 
    3314     3277     3240     3204     3168     3129     3094     3057 
    3024     2992     2961     2932     2909     2889     2868     2849 
    2833     2821     2814     2813     2810     2806     2806     2808 
    2808     2809     2814     2820     2825     2829     2833     2836 
    2837     2837     2840     2848     2852     2852     2853     2856 
    2860     2863     2866     2867     2871     2879     2886     2894 
    2898     2903     2915     2925     2928     2934     2943     2949 
    2959     2967     2974     2980     2991     3005     3021     3032 
    3041     3057     3080     3103     3122     3144     3171     3194 
    3211     3230     3252     3275     3296     3311     3325     3342 
    3362     3379     3392     3410     3424     3437     3450     3464 
    3476     3489     3500     3505     3508     3516     3530     3539 
    3544     3547     3551     3561     3577     3586     3591     3597 
    3605     3613     3628     3642     3647     3653     3663     3672 
    3681     3685     3686     3694     3705     3705     3703     3701 
    3703     3704     3701     3694     3688     3682     3678     3676 
    3667     3653     3639     3634     3627     3612     3595     3577 
    3563     3546     3523     3500     3483     3464     3443     3427 
    3411     3395     3379     3361     3345     3336     3329     3317 
    3310     3307     3304     3300     3302     3307     3312     3319 
    3330     3342     3353     3369     3391     3414     3431     3450 
    3478     3507     3528     3551     3580     3611     3640     3673 
    3708     3748     3786     3821     3858     3896     3936     3975 
    4014     4054     4094     4137     4178     4214     4251     4286 
    4325     4363     4398     4430     4459     4486     4515     4544 
    4565     4587     4608     4626     4641     4653     4661     4671 
    4689     4695     4687     4685     4688     4689     4693     4695 
    4689     4681     4679     4681     4681     4677     4675     4673 
    4675     4677     4677     4680     4687     4688     4680     4680 
    4688     4691     4689     4692     4695     4696     4698     4699 
    4696     4693     4692     4691     4685     4684     4684     4676 
    4662     4654     4650     4648     4642     4631     4619     4615 
    4614     4606     4598     4590     4583     4580     4579     4579 
    4577     4581     4587     4591     4595     4604     4618     4627 
    4635     4646     4657     4669     4681     4689     4696     4706 
    4714     4716     4714     4715     4714     4706     4699     4691 
    4679     4669     4660     4648     4634     4623     4612     4602 
    4590     4583     4577     4573     4572     4572     4572     4575 
    4581     4590     4594     4595     4600     4614     4629     4639 
    4653     4668     4683     4703     4731     4754     4773     4795 
    4816     4842     4866     4885     4903     4923     4949     4972 
    4989     5008     5031     5047     5063     5082     5096     5112 
    5135     5154     5167     5181     5200     5219     5235     5247 
    5262     5282     5296     5305     5319     5332     5343     5358 
    5371     5379     5387     5394     5404     5414     5418     5421 
    5427     5429     5433     5437     5439     5440     5439     5433 
    5428     5424     5413     5400     5386     5373     5356     5335 
    5312     5294     5275     5248     5221     5197     5169     5142 
    5115     5090     5062     5031     5000     4973     4946     4920 
    4892     4866     4850     4833     4811     4792     4776     4761 
    4750     4739     4727     4716     4707     4699     4691     4691 
    4692     4685     4679     4680     4685     4689     4693     4693 
    4696     4706     4715     4718     4723     4729     4730     4733 
    4739     4745     4748     4756     4765     4772     4780     4795 
    4808     4818     4830     4847     4870     4889     4904     4922 
    4947     4974     4993     5013     5036     5057     5073     5089 
    5107     5121     5134     5144     5158     5174     5189     5202 
    5215     5227     5242     5254     5267     5285     5301     5312 
    5323     5335     5350     5360     5364     5366     5366     5366 
