Origin Time       2016/04/16 01:25:00
Lat.              32.753
Long.             130.762
Depth. (km)       12
Mag.              7.3
Station Code      HYG002
Station Lat.      35.6411
Station Long.     134.6284
Station Height(m) 6
Record Time       2016/04/16 01:27:25
Sampling Freq(Hz) 100Hz
Duration Time(s)  60
Dir.              E-W
Scale Factor      7845(gal)/8223790
Max. Acc. (gal)   2.560
Last Correction   2016/04/16 01:27:26
Memo.             
[...]
    8286     8278     8267     8263     8262     8251     8228     8218 
    8228     8235     8228     8215     8213     8215     8210     8209 
    8213     8201     8190     8198     8201     8199     8205     8201 
    8195     8206     8206     8193     8195     8195     8187     8197 
    8213     8222     8226     8222     8225     8236     8239     8230 
    8232     8247     8259     8262     8270     8279     8283     8290 
    8297     8301     8305     8305     8303     8298     8286     8286 
    8295     8297     8295     8298     8293     8278     8262     8251 
    8241     8240     8248     8256     8266     8275     8279     8291 
    8311     8329     8352     8378     8391     8401     8408     8408 
    8418     8431     8430     8426     8430     8428     8428     8428 
    8430     8437     8447     8444     8434     8424     8403     8388 
    8382     8376     8378     8383     8368     8347     8338     8340 
    8338     8334     8336     8344     8347     8351     8374     8398 
    8406     8414     8437     8472     8496     8505     8517     8527 
    8529     8532     8537     8533     8526     8523     8519     8517 
    8520     8523     8529     8525     8515     8522     8525     8515 
    8513     8515     8513     8510     8509     8499     8492     8494 
    8497     8492     8494     8497     8492     8487     8490     8477 
    8457     8451     8446     8428     8414     8398     8378     8372 
    8383     8391     8401     8413     8421     8436     8446     8467 
    8500     8522     8537     8564     8587     8588     8592     8611 
    8618     8614     8612     8603     8587     8577     8569     8557 
    8543     8536     8530     8515     8503     8505     8515     8526 
    8529     8523     8533     8559     8564     8565     8583     8596 
    8600     8618     8629     8622     8631     8653     8664     8669 
    8684     8706     8719     8727     8739     8749     8757     8775 
    8796     8804     8811     8822     8814     8807     8814     8811 
    8803     8799     8787     8768     8750     8733     8706     8673 
    8650     8627     8596     8563     8533     8497     8456     8426 
    8404     8382     8365     8360     8351     8329     8305     8294 
    8289     8271     8248     8230     8214     8197     8185     8167 
    8144     8129     8118     8109     8102     8101     8098     8091 
    8095     8106     8108     8104     8114     8131     8139     8144 
    8155     8168     8187     8199     8199     8203     8212     8220 
    8230     8240     8244     8247     8247     8252     8267     8274 
    8278     8298     8302     8291     8301     8311     8303     8314 
    8328     8317     8318     8333     8344     8359     8376     8395 
    8418     8444     8469     8487     8502     8527     8561     8576 
    8590     8618     8648     8669     8692     8718     8741     8754 
    8769     8792     8815     8830     8842     8846     8850     8857 
    8856     8845     8835     8827     8814     8807     8795     8775 
    8762     8742     8726     8725     8715     8695     8679     8668 
    8667     8667     8660     8662     8675     8676     8677     8696 
    8715     8730     8754     8777     8785     8795     8806     8818 
    8830     8838     8833     8826     8824     8830     8838     8839 
    8842     8842     8834     8830     8833     8830     8835     8841 
    8839     8841     8843     8837     8830     8830     8827     8823 
    8829     8838     8853     8862     8866     8881     8895     8896 
    8903     8908     8907     8901     8896     8896     8893     8880 
    8868     8854     8834     8815     8797     8770     8743     8725 
    8702     8673     8646     8625     8608     8586     8553     8527 
    8505     8476     8453     8424     8385     8351     8313     8274 
    8240     8194     8139     8097     8062     8032     8004     7974 
    7960     7954     7940     7928     7920     7913     7919     7921 
    7917     7925     7938     7942     7958     7985     8014     8040 
    8068     8110     8158     8189     8229     8291     8352     8407 
    8467     8536     8603     8665     8725     8789     8851     8900 
    8949     8993     9026     9050     9069     9081     9092     9100 
    9104     9101     9092     9082     9067     9045     9024     9012 
    8999     8977     8953     8929     8911     8888     8865     8847 
    8826     8799     8770     8737     8694     8646     8604     8559 
    8505     8451     8401     8351     8309     8271     8244     8225 
    8198     8166     8128     8089     8056     8029     8004     7978 
    7959     7946     7929     7917     7903     7896     7906     7913 
    7911     7916     7921     7923     7936     7952     7966     7978 
    7987     8000     8020     8047     8073     8100     8122     8147 
    8170     8187     8206     8214     8209     8213     8212     8201 
    8209     8221     8218     8221     8232     8235     8236     8239 
    8244     8257     8268     8275     8283     8293     8299     8298 
    8297     8297     8284     8260     8236     8215     8191     8164 
    8139     8102     8050     8001     7962     7923     7881     7838 
    7789     7749     7730     7709     7680     7655     7636     7623 
    7618     7616     7611     7612     7631     7655     7677     7703 
    7736     7771     7807     7844     7888     7939     7992     8044 
    8108     8182     8251     8313     8385     8467     8532     8584 
    8662     8752     8824     8896     8972     9036     9096     9162 
    9227     9281     9322     9358     9390     9420     9445     9464 
    9485     9502     9504     9493     9489     9495     9497     9483 
    9471     9460     9435     9412     9401     9378     9346     9310 
    9269     9225     9177     9132     9097     9051     9005     8972 
    8935     8899     8884     8866     8835     8808     8784     8757 
    8742     8731     8708     8688     8671     8645     8626     8621 
    8622     8614     8598     8598     8608     8618     8640     8657 
    8654     8665     8691     8699     8710     8741     8757     8753 
    8761     8775     8775     8783     8796     8800     8796     8796 
    8797     8793     8792     8795     8795     8787     8784     8787 
    8780     8765     8757     8752     8743     8741     8745     8739 
    8726     8712     8704     8695     8685     8683     8679     8668 
    8657     8650     8646     8641     8634     8631     8626     8608 
    8598     8600     8596     8588     8591     8583     8565     8568 
    8575     8567     8572     8573     8553     8545     8546     8545 
    8542     8533     8530     8527     8522     8523     8537     8552 
    8575     8598     8617     8650     8688     8715     8742     8775 
    8791     8810     8843     8857     8858     8860     8854     8854 
    8862     8856     8842     8839     8835     8822     8807     8793 
    8781     8764     8738     8704     8665     8627     8592     8553 
    8506     8457     8410     8365     8316     8268     8232     8189 
    8131     8081     8039     7978     7919     7878     7825     7763 
    7719     7682     7638     7604     7574     7546     7531     7527 
    7519     7512     7514     7519     7523     7539     7570     7591 
    7607     7631     7655     7688     7732     7782     7830     7879 
    7933     7989     8033     8067     8105     8149     8186     8215 
    8248     8283     8310     8329     8347     8372     8391     8410 
    8441     8471     8490     8517     8548     8576     8604     8623 
    8637     8650     8645     8629     8623     8610     8584     8572 
    8552     8523     8509     8479     8437     8417     8391     8352 
    8313     8276     8248     8224     8198     8177     8155     8127 
    8104     8083     8055     8027     7996     7955     7913     7874 
    7843     7819     7781     7740     7717     7697     7677     7668 
    7668     7673     7690     7713     7735     7756     7780     7816 
    7859     7890     7915     7956     8006     8040     8082     8137 
    8190     8239     8281     8329     8383     8428     8474     8530 
    8584     8629     8672     8726     8779     8827     8884     8939 
    8992     9051     9108     9161     9213     9275     9335     9381 
    9429     9482     9528     9579     9637     9690     9749     9815 
    9871     9918     9973    10035    10091    10139    10193    10247 
   10295    10349    10404    10450    10490    10520    10537    10554 
   10570    10577    10574    10558    10527    10496    10467    10435 
   10386    10326    10260    10187    10112    10030     9942     9846 
    9742     9637     9524     9408     9302     9189     9058     8929 
    8812     8698     8579     8461     8343     8232     8133     8033 
    7928     7819     7713     7623     7535     7442     7354     7267 
    7173     7089     7025     6952     6871     6804     6758     6708 
    6654     6608     6571     6546     6528     6516     6519     6534 
    6535     6535     6566     6620     6673     6728     6793     6866 
    6936     7002     7082     7175     7258     7342     7438     7530 
    7622     7730     7832     7928     8037     8154     8259     8370 
    8482     8577     8667     8756     8845     8938     9027     9100 
    9161     9217     9256     9282     9315     9343     9364     9378 
    9379     9366     9344     9320     9292     9242     9180     9121 
    9057     8986     8912     8829     8737     8649     8548     8433 
    8328     8215     8098     7994     7884     7773     7682     7596 
    7508     7423     7331     7246     7180     7115     7061     7015 
    6960     6917     6885     6851     6837     6836     6833     6848 
    6876     6907     6952     7022     7096     7177     7279     7381 
    7480     7596     7722     7836     7947     8082     8228     8359 
    8477     8594     8698     8793     8895     8991     9070     9140 
    9215     9277     9324     9381     9424     9450     9486     9526 
    9553     9567     9574     9574     9568     9559     9545     9525 
    9501     9464     9425     9394     9360     9321     9277     9231 
    9180     9126     9074     9020     8961     8891     8826     8779 
    8723     8662     8608     8540     8464     8406     8349     8286 
    8232     8179     8127     8087     8048     8009     7990     7978 
    7973     7978     7974     7981     8005     8023     8040     8077 
    8116     8155     8197     8232     8271     8318     8363     8406 
    8447     8484     8527     8565     8588     8606     8625     8645 
    8668     8685     8699     8721     8734     8730     8737     8758 
    8769     8768     8760     8753     8753     8753     8754     8753 
    8743     8737     8731     8712     8694     8684     8667     8642 
    8626     8603     8587     8590     8588     8577     8568     8564 
    8569     8586     8596     8604     8621     8642     8675     8706 
    8723     8737     8757     8769     8766     8769     8780     8787 
    8802     8826     8854     8885     8923     8966     9016     9069 
    9128     9188     9250     9319     9379     9432     9491     9543 
    9589     9639     9674     9698     9721     9737     9745     9749 
    9747     9741     9733     9724     9713     9699     9682     9657 
    9634     9614     9589     9563     9532     9490     9454     9416 
    9366     9315     9265     9215     9173     9132     9089     9045 
    9003     8964     8928     8887     8839     8789     8739     8685 
    8618     8548     8479     8398     8310     8225     8133     8035 
    7940     7851     7769     7689     7603     7514     7434     7362 
    7287     7210     7137     7065     7003     6945     6881     6824 
    6781     6739     6702     6677     6659     6640     6619     6600 
    6592     6601     6617     6635     6658     6691     6737     6793 
    6845     6901     6967     7037     7110     7187     7263     7337 
    7406     7477     7553     7631     7701     7767     7831     7889 
    7947     8000     8043     8085     8129     8167     8190     8201 
    8213     8225     8226     8218     8210     8201     8187     8164 
    8139     8106     8058     7998     7946     7890     7820     7736 
    7657     7581     7499     7411     7342     7277     7200     7129 
    7065     6995     6918     6848     6782     6702     6617     6542 
    6465     6386     6307     6235     6183     6138     6100     6076 
    6061     6058     6068     6081     6104     6145     6191     6243 
    6301     6366     6443     6538     6633     6731     6836     6955 
    7082     7203     7322     7454     7592     7723     7862     8007 
    8144     8279     8414     8542     8667     8785     8893     9007 
    9112     9202     9298     9390     9459     9514     9563     9602 
    9625     9633     9626     9609     9582     9541     9491     9432 
    9371     9312     9248     9178     9101     9019     8932     8841 
    8735     8626     8523     8414     8307     8210     8111     8007 
    7912     7821     7736     7652     7580     7526     7479     7437 
    7406     7384     7378     7393     7422     7458     7510     7577 
    7666     7770     7871     7983     8108     8230     8364     8509 
    8652     8800     8954     9111     9275     9444     9614     9794 
    9961    10110    10257    10404    10539    10666    10781    10881 
   10966    11029    11074    11110    11134    11134    11122    11101 
   11060    11009    10941    10862    10779    10679    10557    10432 
   10309    10179    10045     9913     9778     9640     9499     9351 
    9198     9040     8883     8739     8595     8440     8301     8174 
    8040     7911     7792     7677     7568     7462     7358     7267 
    7183     7109     7034     6964     6912     6867     6817     6766 
    6723     6693     6673     6656     6647     6652     6681     6709 
    6735     6772     6818     6866     6916     6971     7036     7107 
    7190     7281     7371     7458     7550     7642     7730     7817 
    7908     7998     8095     8194     8281     8361     8434     8497 
    8564     8633     8681     8708     8723     8735     8753     8757 
    8743     8726     8692     8638     8579     8517     8441     8363 
    8286     8202     8105     7996     7888     7792     7704     7612 
    7519     7426     7326     7238     7159     7071     6978     6890 
    6805     6711     6613     6531     6454     6366     6281     6216 
    6157     6106     6066     6026     5994     5983     5977     5975 
    5977     5976     5977     6000     6039     6076     6122     6189 
    6254     6309     6376     6457     6536     6613     6708     6806 
    6898     6993     7087     7186     7291     7385     7480     7586 
    7689     7782     7870     7935     7986     8043     8097     8133 
    8152     8160     8167     8179     8187     8194     8199     8202 
    8201     8197     8193     8194     8194     8182     8164     8144 
    8129     8125     8113     8086     8070     8062     8040     8025 
    8028     8027     8016     8010     8007     8002     7996     7990 
    7992     7996     7993     7989     7986     7989     7996     8004 
    8009     8019     8035     8054     8073     8098     8136     8182 
    8209     8233     8280     8322     8355     8398     8440     8476 
    8522     8564     8595     8637     8684     8731     8779     8830 
    8887     8931     8969     9013     9059     9094     9136     9180 
    9213     9229     9240     9250     9262     9266     9273     9283 
    9290     9290     9293     9306     9327     9339     9350     9375 
    9401     9417     9435     9450     9452     9464     9483     9487 
    9489     9493     9497     9501     9501     9497     9497     9489 
    9474     9462     9445     9424     9398     9367     9332     9300 
    9254     9198     9144     9082     9018     8965     8914     8851 
    8792     8737     8681     8618     8553     8497     8446     8387 
    8333     8281     8214     8156     8122     8093     8058     8025 
    7994     7967     7947     7924     7908     7900     7886     7878 
    7879     7875     7874     7888     7903     7917     7935     7956 
    7985     8021     8063     8111     8163     8209     8260     8313 
    8352     8391     8436     8479     8520     8556     8590     8627 
    8652     8662     8673     8681     8685     8684     8671     8654 
    8637     8617     8603     8586     8557     8527     8503     8482 
    8464     8436     8397     8372     8360     8343     8324     8318 
    8317     8322     8334     8351     8371     8394     8418     8451 
    8480     8513     8552     8591     8630     8673     8707     8745 
    8787     8819     8853     8887     8914     8935     8951     8964 
    8972     8977     8970     8961     8947     8924     8899     8865 
    8823     8787     8750     8710     8672     8625     8569     8517 
    8467     8414     8363     8306     8247     8191     8133     8078 
    8035     7989     7950     7931     7921     7913     7912     7917 
    7931     7951     7982     8023     8063     8105     8159     8218 
    8270     8328     8401     8477     8553     8626     8700     8779 
    8854     8920     8984     9047     9104     9166     9232     9283 
    9325     9375     9417     9451     9495     9539     9566     9582 
    9587     9587     9596     9599     9591     9583     9559     9522 
    9497     9472     9437     9398     9347     9296     9252     9208 
    9155     9097     9034     8972     8918     8863     8807     8756 
    8715     8677     8637     8602     8576     8552     8525     8500 
    8483     8461     8434     8407     8390     8372     8363     8367 
    8370     8372     8383     8398     8413     8428     8446     8472 
    8494     8517     8545     8575     8592     8618     8661     8700 
    8743     8799     8843     8876     8912     8945     8980     9022 
    9058     9080     9096     9107     9126     9147     9166     9197 
    9229     9248     9269     9292     9309     9325     9340     9351 
    9358     9352     9340     9339     9336     9312     9283     9265 
    9243     9217     9192     9163     9143     9131     9113     9093 
    9081     9071     9054     9035     9026     9020     9009     9003 
    8999     8989     8978     8968     8964     8968     8972     8972 
    8970     8974     8980     8984     8985     8988     8992     8997 
    8997     9007     9024     9035     9038     9045     9057     9066 
    9065     9062     9061     9047     9032     9031     9032     9028 
    9028     9036     9046     9053     9063     9081     9104     9134 
    9159     9178     9204     9232     9255     9274     9300     9327 
    9350     9375     9406     9437     9471     9512     9552     9594 
    9644     9698     9747     9794     9846     9906     9961    10017 
   10075    10130    10195    10265    10318    10368    10432    10486 
   10514    10544    10584    10615    10632    10644    10659    10674 
   10673    10660    10648    10628    10597    10569    10532    10477 
   10427    10388    10328    10260    10195    10127    10057     9987 
    9915     9844     9769     9695     9632     9580     9521     9448 
