Origin Time       2016/04/16 01:25:00
Lat.              32.753
Long.             130.762
Depth. (km)       12
Mag.              7.3
Station Code      HYG006
Station Lat.      35.3326
Station Long.     134.6652
Station Height(m) 150
Record Time       2016/04/16 01:27:20
Sampling Freq(Hz) 100Hz
Duration Time(s)  60
Dir.              N-S
Scale Factor      7845(gal)/8223790
Max. Acc. (gal)   1.451
Last Correction   2016/04/16 01:27:21
Memo.             
[...]
  -12667   -12661   -12656   -12652   -12644   -12631   -12622   -12613 
  -12602   -12600   -12599   -12594   -12592   -12595   -12598   -12600 
  -12602   -12600   -12595   -12590   -12591   -12592   -12592   -12594 
  -12596   -12598   -12599   -12600   -12602   -12604   -12610   -12614 
  -12617   -12618   -12623   -12631   -12640   -12644   -12649   -12656 
  -12660   -12665   -12669   -12668   -12667   -12664   -12658   -12647 
  -12636   -12626   -12614   -12598   -12581   -12565   -12553   -12542 
  -12532   -12522   -12517   -12514   -12511   -12510   -12510   -12507 
  -12510   -12515   -12519   -12522   -12525   -12529   -12529   -12525 
  -12523   -12522   -12521   -12522   -12523   -12523   -12529   -12540 
  -12553   -12568   -12581   -12598   -12610   -12622   -12637   -12652 
  -12668   -12683   -12696   -12707   -12717   -12725   -12730   -12729 
  -12729   -12729   -12725   -12721   -12713   -12707   -12703   -12699 
  -12692   -12683   -12676   -12671   -12663   -12654   -12649   -12642 
  -12633   -12627   -12622   -12614   -12611   -12610   -12610   -12611 
  -12614   -12621   -12627   -12633   -12638   -12646   -12653   -12660 
  -12671   -12680   -12688   -12696   -12704   -12710   -12717   -12719 
  -12721   -12726   -12731   -12734   -12739   -12742   -12739   -12739 
  -12734   -12730   -12730   -12731   -12730   -12727   -12726   -12725 
  -12725   -12726   -12723   -12723   -12722   -12718   -12712   -12708 
  -12704   -12702   -12698   -12685   -12673   -12668   -12664   -12657 
  -12654   -12654   -12656   -12658   -12665   -12675   -12685   -12700 
  -12713   -12729   -12744   -12758   -12772   -12784   -12796   -12806 
  -12812   -12822   -12830   -12839   -12850   -12860   -12870   -12877 
  -12883   -12888   -12892   -12895   -12898   -12903   -12904   -12903 
  -12901   -12900   -12896   -12887   -12877   -12869   -12861   -12850 
  -12841   -12833   -12822   -12812   -12802   -12787   -12773   -12760 
  -12745   -12726   -12710   -12696   -12687   -12677   -12671   -12667 
  -12664   -12660   -12656   -12652   -12647   -12640   -12637   -12637 
  -12634   -12633   -12633   -12634   -12644   -12650   -12652   -12652 
  -12652   -12650   -12646   -12645   -12645   -12644   -12638   -12637 
  -12634   -12633   -12636   -12642   -12647   -12649   -12652   -12653 
  -12653   -12650   -12646   -12642   -12638   -12638   -12642   -12646 
  -12650   -12654   -12657   -12664   -12673   -12683   -12695   -12708 
  -12719   -12733   -12744   -12753   -12765   -12779   -12791   -12798 
  -12804   -12807   -12808   -12812   -12815   -12816   -12816   -12812 
  -12810   -12806   -12796   -12785   -12775   -12762   -12749   -12737 
  -12727   -12721   -12712   -12706   -12699   -12691   -12685   -12685 
  -12687   -12685   -12680   -12680   -12684   -12684   -12687   -12690 
  -12694   -12698   -12702   -12703   -12707   -12715   -12725   -12735 
  -12749   -12758   -12764   -12768   -12775   -12781   -12784   -12784 
  -12781   -12775   -12768   -12762   -12756   -12750   -12748   -12742 
  -12735   -12731   -12723   -12715   -12707   -12699   -12691   -12687 
  -12680   -12672   -12664   -12653   -12644   -12638   -12630   -12623 
  -12621   -12614   -12610   -12606   -12603   -12600   -12596   -12592 
  -12587   -12579   -12573   -12569   -12561   -12556   -12556   -12559 
  -12561   -12564   -12568   -12573   -12577   -12587   -12599   -12614 
  -12629   -12638   -12645   -12656   -12665   -12673   -12679   -12680 
  -12683   -12684   -12687   -12694   -12700   -12704   -12711   -12721 
  -12734   -12750   -12766   -12781   -12789   -12796   -12802   -12804 
  -12804   -12807   -12808   -12810   -12814   -12819   -12825   -12826 
  -12825   -12816   -12803   -12789   -12776   -12760   -12745   -12730 
  -12715   -12704   -12690   -12673   -12663   -12653   -12642   -12637 
  -12633   -12626   -12621   -12621   -12621   -12619   -12614   -12614 
  -12614   -12614   -12618   -12626   -12631   -12637   -12644   -12649 
  -12654   -12658   -12661   -12667   -12672   -12677   -12685   -12699 
  -12712   -12726   -12737   -12746   -12753   -12754   -12756   -12758 
  -12758   -12758   -12758   -12756   -12753   -12749   -12748   -12742 
  -12734   -12726   -12713   -12700   -12691   -12684   -12675   -12664 
  -12654   -12640   -12623   -12611   -12599   -12579   -12559   -12541 
  -12523   -12509   -12498   -12491   -12487   -12486   -12486   -12488 
  -12492   -12494   -12502   -12513   -12521   -12533   -12544   -12556 
  -12571   -12587   -12603   -12619   -12636   -12650   -12664   -12680 
  -12698   -12711   -12723   -12731   -12738   -12745   -12749   -12752 
  -12754   -12756   -12756   -12753   -12745   -12741   -12738   -12731 
  -12723   -12721   -12719   -12715   -12707   -12698   -12688   -12680 
  -12672   -12668   -12661   -12652   -12642   -12633   -12621   -12609 
  -12596   -12583   -12569   -12552   -12537   -12523   -12510   -12498 
  -12487   -12482   -12482   -12483   -12490   -12496   -12499   -12509 
  -12518   -12522   -12533   -12541   -12548   -12555   -12556   -12559 
  -12559   -12559   -12557   -12553   -12550   -12545   -12541   -12536 
  -12529   -12523   -12515   -12510   -12513   -12518   -12518   -12518 
  -12522   -12529   -12540   -12552   -12564   -12577   -12587   -12595 
  -12603   -12606   -12606   -12609   -12611   -12609   -12606   -12604 
  -12600   -12598   -12596   -12591   -12583   -12580   -12581   -12576 
  -12567   -12559   -12555   -12555   -12556   -12555   -12556   -12563 
  -12571   -12580   -12588   -12595   -12599   -12603   -12609   -12609 
  -12607   -12610   -12610   -12607   -12609   -12613   -12618   -12619 
  -12621   -12626   -12630   -12633   -12636   -12642   -12647   -12647 
  -12647   -12649   -12649   -12647   -12649   -12652   -12654   -12660 
  -12664   -12669   -12675   -12684   -12688   -12690   -12694   -12695 
  -12695   -12692   -12690   -12688   -12685   -12680   -12679   -12680 
  -12677   -12675   -12673   -12672   -12675   -12680   -12687   -12690 
  -12694   -12698   -12699   -12703   -12710   -12712   -12715   -12721 
  -12726   -12729   -12733   -12737   -12741   -12742   -12744   -12748 
  -12750   -12748   -12745   -12742   -12738   -12734   -12727   -12718 
  -12710   -12700   -12687   -12675   -12664   -12654   -12650   -12649 
  -12645   -12644   -12646   -12646   -12649   -12657   -12663   -12667 
  -12669   -12675   -12679   -12680   -12685   -12690   -12690   -12687 
  -12684   -12677   -12669   -12661   -12653   -12646   -12641   -12633 
  -12626   -12623   -12619   -12617   -12614   -12614   -12614   -12618 
  -12621   -12622   -12623   -12625   -12629   -12633   -12637   -12641 
  -12645   -12646   -12646   -12649   -12653   -12658   -12663   -12665 
  -12671   -12679   -12685   -12688   -12691   -12698   -12703   -12708 
  -12717   -12726   -12734   -12744   -12750   -12761   -12777   -12791 
  -12804   -12819   -12831   -12845   -12861   -12874   -12884   -12893 
  -12901   -12906   -12908   -12910   -12904   -12895   -12885   -12879 
  -12868   -12857   -12846   -12834   -12820   -12808   -12796   -12779 
  -12768   -12762   -12754   -12744   -12734   -12726   -12715   -12704 
  -12694   -12685   -12679   -12676   -12676   -12676   -12675   -12675 
  -12677   -12680   -12680   -12684   -12694   -12703   -12713   -12729 
  -12744   -12758   -12775   -12787   -12799   -12811   -12822   -12830 
  -12838   -12852   -12862   -12873   -12883   -12891   -12897   -12898 
  -12897   -12895   -12893   -12896   -12898   -12898   -12896   -12891 
  -12881   -12870   -12858   -12847   -12837   -12827   -12815   -12800 
  -12788   -12781   -12775   -12764   -12758   -12754   -12749   -12749 
  -12756   -12758   -12761   -12768   -12773   -12777   -12779   -12784 
  -12789   -12795   -12800   -12810   -12825   -12837   -12845   -12850 
  -12854   -12858   -12864   -12864   -12860   -12862   -12865   -12865 
  -12864   -12861   -12860   -12864   -12868   -12869   -12870   -12870 
  -12869   -12865   -12861   -12854   -12846   -12837   -12825   -12810 
  -12793   -12779   -12768   -12760   -12752   -12745   -12741   -12735 
  -12734   -12733   -12731   -12730   -12733   -12735   -12737   -12741 
  -12745   -12746   -12749   -12750   -12754   -12756   -12756   -12760 
  -12762   -12760   -12756   -12756   -12752   -12752   -12753   -12753 
  -12753   -12753   -12754   -12760   -12768   -12773   -12777   -12781 
  -12783   -12787   -12793   -12798   -12800   -12804   -12804   -12799 
  -12792   -12783   -12773   -12771   -12768   -12760   -12752   -12746 
  -12745   -12744   -12742   -12742   -12744   -12744   -12742   -12739 
  -12741   -12741   -12741   -12744   -12742   -12741   -12739   -12738 
  -12739   -12738   -12735   -12739   -12748   -12754   -12761   -12771 
  -12779   -12783   -12785   -12784   -12777   -12766   -12753   -12738 
  -12721   -12702   -12683   -12668   -12649   -12631   -12614   -12603 
  -12595   -12588   -12581   -12579   -12580   -12581   -12588   -12595 
  -12598   -12603   -12610   -12614   -12618   -12623   -12630   -12640 
  -12650   -12663   -12673   -12684   -12695   -12703   -12711   -12717 
  -12717   -12712   -12708   -12706   -12704   -12706   -12711   -12715 
  -12718   -12719   -12723   -12727   -12731   -12739   -12744   -12748 
  -12754   -12758   -12756   -12756   -12760   -12758   -12758   -12758 
  -12754   -12753   -12761   -12769   -12775   -12783   -12792   -12796 
  -12800   -12808   -12815   -12819   -12826   -12833   -12835   -12842 
  -12850   -12855   -12860   -12865   -12866   -12865   -12862   -12857 
  -12853   -12852   -12843   -12835   -12829   -12822   -12814   -12804 
  -12796   -12789   -12779   -12771   -12762   -12754   -12748   -12749 
  -12753   -12756   -12764   -12771   -12777   -12785   -12795   -12807 
  -12820   -12831   -12843   -12857   -12869   -12881   -12893   -12906 
  -12916   -12921   -12926   -12924   -12916   -12912   -12911   -12903 
  -12895   -12888   -12877   -12861   -12846   -12833   -12818   -12802 
  -12779   -12756   -12730   -12702   -12671   -12644   -12614   -12586 
  -12556   -12526   -12499   -12475   -12452   -12429   -12411   -12394 
  -12368   -12349   -12340   -12322   -12309   -12312   -12312   -12303 
  -12299   -12306   -12320   -12329   -12337   -12353   -12382   -12406 
  -12424   -12445   -12480   -12509   -12534   -12565   -12588   -12609 
  -12629   -12644   -12660   -12680   -12702   -12726   -12750   -12773 
  -12798   -12818   -12839   -12862   -12884   -12903   -12919   -12930 
  -12937   -12941   -12945   -12943   -12942   -12941   -12939   -12935 
  -12927   -12924   -12923   -12916   -12908   -12901   -12891   -12874 
  -12862   -12854   -12841   -12827   -12818   -12810   -12800   -12788 
  -12777   -12771   -12762   -12758   -12756   -12756   -12765   -12776 
  -12787   -12800   -12811   -12818   -12829   -12841   -12850   -12855 
  -12861   -12869   -12879   -12884   -12888   -12896   -12901   -12906 
  -12906   -12906   -12903   -12898   -12893   -12887   -12879   -12868 
  -12855   -12846   -12839   -12834   -12829   -12825   -12820   -12818 
  -12816   -12814   -12810   -12810   -12810   -12810   -12807   -12804 
  -12802   -12800   -12795   -12788   -12781   -12775   -12766   -12756 
  -12749   -12738   -12723   -12707   -12687   -12665   -12641   -12618 
  -12598   -12579   -12559   -12541   -12522   -12502   -12484   -12469 
  -12452   -12438   -12429   -12422   -12413   -12403   -12406   -12403 
  -12391   -12394   -12390   -12372   -12368   -12361   -12343   -12339 
  -12344   -12334   -12320   -12320   -12326   -12320   -12312   -12320 
  -12332   -12339   -12341   -12349   -12367   -12386   -12395   -12411 
  -12439   -12463   -12480   -12509   -12536   -12556   -12584   -12610 
  -12627   -12650   -12672   -12690   -12711   -12729   -12745   -12760 
  -12769   -12779   -12783   -12785   -12789   -12792   -12791   -12789 
  -12789   -12785   -12777   -12771   -12764   -12756   -12745   -12734 
  -12726   -12723   -12721   -12718   -12722   -12729   -12737   -12746 
  -12760   -12779   -12795   -12807   -12820   -12833   -12839   -12843 
  -12855   -12862   -12857   -12852   -12852   -12845   -12834   -12825 
  -12814   -12802   -12793   -12783   -12766   -12749   -12734   -12715 
  -12696   -12679   -12656   -12630   -12610   -12590   -12569   -12553 
  -12541   -12529   -12514   -12495   -12483   -12479   -12478   -12475 
  -12475   -12476   -12480   -12492   -12499   -12501   -12502   -12498 
  -12498   -12501   -12502   -12505   -12502   -12496   -12494   -12491 
  -12494   -12501   -12514   -12530   -12541   -12553   -12565   -12586 
  -12611   -12629   -12642   -12654   -12667   -12677   -12687   -12696 
  -12706   -12717   -12718   -12718   -12721   -12718   -12713   -12717 
  -12717   -12713   -12718   -12722   -12723   -12729   -12735   -12745 
  -12750   -12756   -12769   -12781   -12789   -12800   -12808   -12818 
  -12831   -12842   -12853   -12872   -12887   -12896   -12904   -12915 
  -12926   -12927   -12927   -12930   -12928   -12927   -12930   -12928 
  -12928   -12935   -12943   -12946   -12951   -12958   -12962   -12969 
  -12982   -13000   -13018   -13034   -13053   -13070   -13086   -13106 
  -13128   -13150   -13172   -13200   -13225   -13247   -13271   -13297 
  -13317   -13344   -13377   -13409   -13446   -13482   -13522   -13568 
  -13616   -13664   -13717   -13767   -13813   -13860   -13905   -13948 
  -13994   -14034   -14071   -14100   -14123   -14149   -14170   -14185 
  -14193   -14197   -14193   -14183   -14169   -14152   -14130   -14106 
  -14079   -14050   -14019   -13987   -13953   -13919   -13886   -13853 
  -13819   -13780   -13740   -13706   -13671   -13633   -13598   -13570 
  -13537   -13506   -13481   -13459   -13439   -13423   -13410   -13396 
  -13387   -13383   -13375   -13366   -13356   -13346   -13338   -13324 
  -13309   -13298   -13286   -13271   -13258   -13242   -13225   -13211 
  -13194   -13178   -13158   -13138   -13123   -13105   -13085   -13069 
  -13047   -13023   -12999   -12970   -12938   -12907   -12874   -12846 
  -12820   -12792   -12764   -12738   -12711   -12683   -12658   -12640 
  -12622   -12603   -12583   -12557   -12529   -12507   -12486   -12463 
  -12444   -12429   -12418   -12409   -12403   -12394   -12390   -12394 
  -12386   -12382   -12393   -12393   -12384   -12391   -12398   -12393 
  -12396   -12405   -12398   -12396   -12403   -12395   -12384   -12387 
  -12378   -12355   -12344   -12337   -12313   -12286   -12274   -12266 
  -12249   -12231   -12209   -12188   -12177   -12166   -12150   -12139 
  -12128   -12109   -12091   -12077   -12064   -12054   -12039   -12029 
  -12025   -12020   -12019   -12024   -12033   -12043   -12046   -12051 
  -12058   -12062   -12062   -12062   -12063   -12067   -12069   -12064 
  -12060   -12059   -12052   -12040   -12032   -12021   -12009   -12002 
  -11993   -11974   -11951   -11927   -11907   -11889   -11877   -11865 
  -11847   -11832   -11830   -11821   -11803   -11792   -11796   -11793 
  -11782   -11786   -11796   -11794   -11801   -11824   -11834   -11842 
  -11863   -11877   -11878   -11897   -11921   -11939   -11958   -11982 
  -12004   -12029   -12066   -12104   -12136   -12167   -12208   -12248 
  -12283   -12322   -12363   -12393   -12420   -12452   -12479   -12498 
  -12523   -12550   -12571   -12595   -12611   -12619   -12631   -12645 
  -12650   -12657   -12663   -12667   -12671   -12680   -12692   -12704 
  -12717   -12730   -12749   -12771   -12791   -12814   -12837   -12857 
  -12874   -12891   -12910   -12928   -12941   -12946   -12951   -12954 
  -12962   -12968   -12964   -12960   -12954   -12942   -12933   -12926 
  -12921   -12918   -12910   -12908   -12916   -12923   -12928   -12934 
  -12935   -12934   -12930   -12921   -12910   -12888   -12864   -12838 
  -12814   -12788   -12762   -12734   -12706   -12680   -12663   -12638 
  -12617   -12599   -12580   -12565   -12555   -12542   -12533   -12529 
  -12526   -12528   -12536   -12546   -12560   -12576   -12598   -12621 
  -12638   -12656   -12675   -12692   -12703   -12713   -12719   -12722 
  -12734   -12749   -12756   -12766   -12781   -12791   -12799   -12808 
  -12816   -12822   -12826   -12827   -12826   -12818   -12808   -12802 
  -12788   -12772   -12753   -12727   -12703   -12680   -12656   -12631 
  -12606   -12583   -12561   -12536   -12510   -12487   -12464   -12437 
  -12409   -12388   -12376   -12361   -12345   -12345   -12340   -12321 
  -12318   -12326   -12320   -12302   -12285   -12272   -12263   -12244 
  -12226   -12213   -12198   -12188   -12185   -12177   -12166   -12158 
  -12155   -12159   -12162   -12168   -12178   -12187   -12194   -12205 
  -12221   -12239   -12253   -12264   -12270   -12274   -12276   -12285 
  -12295   -12295   -12287   -12280   -12279   -12282   -12275   -12266 
  -12260   -12256   -12259   -12264   -12266   -12264   -12262   -12260 
  -12271   -12283   -12287   -12290   -12286   -12285   -12294   -12295 
  -12290   -12285   -12283   -12286   -12287   -12283   -12282   -12285 
  -12291   -12302   -12309   -12306   -12305   -12309   -12312   -12303 
  -12290   -12282   -12276   -12271   -12260   -12247   -12233   -12221 
  -12214   -12209   -12198   -12190   -12178   -12159   -12139   -12117 
  -12101   -12089   -12079   -12071   -12070   -12069   -12071   -12075 
  -12081   -12094   -12106   -12117   -12132   -12147   -12158   -12171 
  -12186   -12204   -12225   -12247   -12266   -12279   -12285   -12283 
  -12285   -12295   -12302   -12299   -12295   -12294   -12301   -12307 
  -12301   -12290   -12289   -12294   -12297   -12290   -12279   -12275 
  -12279   -12289   -12299   -12306   -12313   -12324   -12340   -12348 
  -12351   -12367   -12390   -12402   -12409   -12428   -12447   -12452 
  -12460   -12472   -12474   -12472   -12476   -12475   -12474   -12472 
  -12465   -12464   -12463   -12457   -12460   -12457   -12457   -12465 
  -12472   -12487   -12499   -12503   -12513   -12519   -12522   -12532 
  -12536   -12537   -12537   -12530   -12522   -12505   -12484   -12464 
  -12434   -12393   -12348   -12297   -12244   -12204   -12162   -12110 
  -12066   -12021   -11971   -11925   -11885   -11851   -11828   -11805 
  -11780   -11767   -11767   -11762   -11761   -11776   -11784   -11786 
  -11800   -11812   -11823   -11843   -11850   -11847   -11859   -11865 
  -11842   -11821   -11816   -11803   -11776   -11759   -11750   -11727 
  -11706   -11703   -11693   -11680   -11685   -11686   -11680   -11688 
  -11699   -11703   -11711   -11727   -11742   -11747   -11754   -11767 
  -11782   -11790   -11797   -11815   -11831   -11840   -11863   -11884 
  -11886   -11896   -11917   -11937   -11944   -11952   -11971   -11986 
  -11997   -12013   -12031   -12044   -12056   -12066   -12078   -12089 
  -12098   -12106   -12121   -12136   -12148   -12159   -12166   -12170 
  -12171   -12166   -12154   -12147   -12143   -12136   -12133   -12133 
  -12127   -12118   -12112   -12102   -12093   -12083   -12070   -12051 
  -12027   -12005   -11992   -11985   -11977   -11963   -11954   -11947 
  -11939   -11937   -11950   -11966   -11977   -11989   -12012   -12032 
  -12052   -12082   -12112   -12139   -12177   -12217   -12249   -12286 
  -12322   -12351   -12382   -12422   -12461   -12490   -12518   -12548 
  -12571   -12591   -12614   -12627   -12641   -12649   -12646   -12640 
