Origin Time       2016/04/16 01:25:00
Lat.              32.753
Long.             130.762
Depth. (km)       12
Mag.              7.3
Station Code      HYG026
Station Lat.      34.4149
Station Long.     134.7925
Station Height(m) 70
Record Time       2016/04/16 01:27:07
Sampling Freq(Hz) 100Hz
Duration Time(s)  60
Dir.              E-W
Scale Factor      7845(gal)/8223790
Max. Acc. (gal)   1.020
Last Correction   2016/04/16 01:27:08
Memo.             
[...]
    2359     2394     2438     2481     2519     2550     2565     2563 
    2550     2529     2506     2492     2485     2488     2497     2512 
    2527     2540     2554     2560     2559     2554     2551     2554 
    2565     2579     2600     2624     2647     2668     2686     2700 
    2709     2714     2713     2710     2709     2712     2718     2725 
    2729     2732     2727     2718     2708     2700     2695     2687 
    2668     2644     2617     2587     2558     2533     2520     2516 
    2523     2542     2563     2579     2592     2597     2593     2582 
    2570     2569     2584     2609     2640     2679     2713     2731 
    2739     2728     2695     2650     2601     2556     2523     2506 
    2512     2536     2569     2596     2623     2640     2631     2600 
    2556     2504     2448     2396     2357     2338     2332     2338 
    2349     2355     2353     2336     2305     2259     2204     2146 
    2087     2034     1999     1979     1966     1958     1948     1930 
    1912     1892     1872     1852     1833     1818     1810     1811 
    1813     1819     1833     1846     1854     1852     1841     1825 
    1803     1783     1763     1740     1722     1706     1690     1679 
    1676     1669     1664     1665     1668     1669     1669     1671 
    1675     1686     1695     1710     1738     1773     1810     1850 
    1892     1934     1973     2006     2037     2066     2106     2163 
    2230     2300     2370     2425     2459     2474     2469     2461 
    2466     2481     2508     2550     2605     2666     2718     2755 
    2776     2783     2766     2724     2673     2627     2590     2563 
    2558     2565     2574     2592     2605     2601     2592     2577 
    2548     2513     2478     2448     2428     2415     2409     2401 
    2394     2396     2396     2390     2393     2407     2411     2404 
    2390     2361     2315     2263     2209     2168     2144     2137 
    2146     2168     2185     2189     2176     2139     2083     2020 
    1962     1917     1890     1887     1904     1935     1975     2012 
    2039     2056     2053     2038     2012     1984     1964     1961 
    1987     2037     2101     2173     2241     2297     2342     2373 
    2392     2403     2407     2404     2400     2393     2389     2388 
    2388     2386     2388     2386     2377     2362     2342     2317 
    2292     2261     2227     2196     2168     2150     2151     2170 
    2195     2223     2250     2269     2277     2265     2242     2218 
    2192     2173     2169     2182     2209     2247     2286     2330 
    2367     2394     2408     2408     2392     2370     2347     2317 
    2292     2281     2273     2269     2272     2278     2285     2292 
    2296     2295     2293     2289     2288     2296     2312     2335 
    2363     2401     2446     2484     2511     2528     2532     2525 
    2515     2511     2515     2528     2558     2600     2641     2673 
    2693     2700     2693     2678     2650     2613     2583     2551 
    2508     2467     2440     2419     2404     2401     2403     2403 
    2392     2373     2343     2301     2255     2209     2158     2114 
    2083     2069     2074     2100     2135     2174     2215     2251 
    2265     2266     2262     2243     2222     2207     2200     2205 
    2215     2228     2251     2269     2277     2284     2286     2281 
    2281     2286     2293     2308     2335     2363     2386     2404 
    2411     2403     2380     2350     2319     2297     2286     2290 
    2311     2344     2380     2408     2432     2444     2438     2424 
    2409     2401     2400     2408     2431     2465     2498     2525 
    2546     2552     2540     2519     2485     2447     2415     2393 
    2393     2408     2428     2452     2473     2477     2470     2455 
    2436     2424     2424     2434     2454     2484     2516     2552 
    2593     2632     2664     2693     2708     2712     2709     2695 
    2679     2668     2663     2666     2673     2679     2682     2678 
    2664     2646     2619     2574     2516     2451     2376     2301 
    2236     2182     2146     2130     2126     2118     2106     2079 
    2031     1962     1885     1815     1755     1707     1682     1680 
    1695     1713     1725     1737     1745     1748     1763     1781 
    1795     1809     1813     1806     1798     1788     1776     1760 
    1740     1713     1682     1648     1614     1590     1588     1603 
    1625     1649     1669     1677     1668     1636     1595     1561 
    1540     1534     1549     1583     1622     1657     1682     1695 
    1699     1692     1683     1674     1665     1656     1651     1651 
    1657     1669     1677     1672     1656     1632     1603     1579 
    1570     1578     1595     1618     1645     1668     1677     1672 
    1657     1651     1656     1674     1709     1757     1807     1850 
    1884     1899     1902     1900     1903     1918     1948     1996 
    2060     2126     2182     2228     2266     2290     2307     2324 
    2349     2384     2428     2478     2533     2582     2614     2632 
    2631     2608     2575     2543     2515     2496     2501     2528 
    2562     2598     2628     2640     2641     2629     2609     2600 
    2605     2623     2658     2712     2774     2829     2879     2920 
    2952     2975     2994     3017     3040     3057     3073     3087 
    3094     3094     3088     3078     3061     3041     3019     2994 
    2963     2929     2903     2882     2863     2844     2830     2821 
    2809     2786     2758     2728     2698     2671     2656     2648 
    2644     2651     2663     2679     2698     2720     2739     2749 
    2759     2766     2759     2744     2721     2691     2651     2609 
    2569     2528     2494     2475     2469     2465     2461     2459 
    2448     2428     2394     2340     2277     2211     2147     2092 
    2046     2018     2006     1999     1995     1992     1984     1973 
    1958     1942     1930     1918     1899     1888     1892     1907 
    1926     1952     1989     2034     2079     2111     2141     2158 
    2163     2165     2168     2172     2176     2182     2192     2203 
    2211     2215     2218     2215     2200     2170     2135     2096 
    2053     2014     1981     1962     1960     1964     1975     1998 
    2025     2046     2066     2089     2114     2146     2188     2235 
    2284     2338     2388     2428     2463     2486     2496     2496 
    2493     2489     2478     2459     2439     2413     2385     2355 
    2319     2286     2259     2239     2231     2226     2215     2204 
    2189     2160     2111     2064     2019     1977     1941     1923 
    1919     1919     1925     1934     1942     1941     1929     1907 
    1884     1859     1840     1825     1822     1829     1841     1852 
    1858     1852     1836     1811     1781     1750     1721     1703 
    1696     1694     1692     1686     1667     1637     1595     1549 
    1509     1475     1444     1418     1404     1401     1405     1414 
    1414     1408     1395     1379     1358     1337     1321     1312 
    1314     1325     1343     1367     1391     1405     1416     1417 
    1405     1387     1382     1393     1417     1457     1509     1561 
    1610     1653     1686     1710     1723     1725     1728     1725 
    1710     1692     1675     1649     1620     1594     1580     1579 
    1588     1614     1658     1707     1755     1796     1830     1852 
    1864     1865     1864     1867     1881     1907     1953     2016 
    2077     2137     2196     2243     2284     2319     2346     2373 
    2397     2416     2434     2450     2469     2493     2516     2538 
    2560     2581     2590     2590     2586     2582     2578     2571 
    2569     2574     2582     2594     2614     2646     2685     2721 
    2752     2775     2789     2787     2772     2752     2729     2717 
    2727     2745     2770     2809     2855     2901     2937     2965 
    2994     3015     3029     3038     3049     3055     3060     3069 
    3082     3106     3129     3138     3136     3117     3082     3033 
    2979     2929     2886     2847     2811     2779     2745     2710 
    2688     2675     2662     2652     2648     2641     2625     2606 
    2589     2573     2560     2550     2543     2543     2548     2558 
    2565     2569     2569     2559     2533     2497     2458     2419 
    2374     2330     2299     2277     2265     2266     2269     2261 
    2241     2199     2135     2061     1980     1900     1833     1781 
    1753     1746     1744     1742     1746     1742     1725     1706 
    1686     1665     1657     1664     1679     1694     1703     1706 
    1692     1660     1611     1547     1479     1428     1395     1382 
    1391     1420     1452     1478     1494     1497     1483     1456 
    1425     1389     1354     1321     1304     1301     1313     1343 
    1383     1428     1474     1513     1537     1553     1561     1566 
    1572     1588     1613     1648     1690     1736     1777     1804 
    1815     1818     1810     1792     1780     1773     1772     1783 
    1798     1819     1848     1873     1894     1907     1914     1912 
    1900     1881     1864     1852     1844     1850     1873     1910 
    1961     2030     2110     2182     2242     2284     2300     2290 
    2259     2215     2169     2124     2095     2084     2092     2119 
    2157     2184     2196     2196     2176     2141     2106     2079 
    2072     2079     2100     2130     2169     2199     2215     2220 
    2215     2196     2157     2118     2089     2069     2062     2073 
    2096     2120     2142     2154     2154     2143     2126     2115 
    2115     2126     2149     2181     2218     2249     2274     2296 
    2308     2309     2303     2290     2273     2259     2249     2238 
    2231     2223     2215     2214     2215     2215     2215     2218 
    2226     2236     2245     2263     2292     2315     2334     2347 
    2344     2335     2326     2317     2315     2316     2322     2323 
    2316     2305     2282     2245     2208     2168     2128     2096 
    2069     2049     2031     2011     1988     1964     1938     1906 
    1869     1845     1833     1830     1841     1859     1885     1917 
    1941     1956     1964     1956     1941     1926     1917     1914 
    1923     1948     1987     2038     2095     2154     2211     2258 
    2295     2317     2332     2338     2334     2331     2331     2332 
    2342     2362     2392     2439     2493     2548     2606     2655 
    2686     2702     2706     2693     2673     2656     2650     2664 
    2709     2778     2859     2937     3002     3044     3055     3034 
    2999     2957     2915     2887     2875     2875     2887     2906 
    2926     2940     2938     2920     2884     2836     2775     2708 
    2643     2579     2519     2467     2425     2388     2353     2322 
    2290     2249     2193     2134     2076     2010     1935     1858 
    1783     1711     1655     1621     1610     1617     1632     1641 
    1645     1641     1615     1582     1554     1534     1522     1521 
    1528     1540     1552     1564     1580     1595     1606     1618 
    1630     1648     1674     1709     1749     1792     1841     1894 
    1945     1995     2045     2096     2143     2189     2241     2297 
    2358     2421     2481     2532     2577     2609     2629     2647 
    2664     2686     2721     2767     2816     2868     2922     2971 
    3013     3048     3068     3069     3057     3033     3009     2986 
    2974     2972     2980     2999     3024     3041     3053     3057 
    3044     3025     3003     2980     2956     2945     2949     2960 
    2971     2984     2997     3003     3009     3010     3007     2998 
    2980     2960     2932     2894     2855     2814     2771     2728 
    2690     2660     2636     2623     2613     2608     2602     2592 
    2575     2552     2516     2469     2419     2370     2324     2293 
    2281     2284     2301     2324     2347     2371     2390     2397 
    2390     2373     2349     2319     2290     2267     2259     2266 
    2284     2313     2354     2394     2425     2446     2448     2428 
    2386     2335     2281     2227     2182     2154     2138     2138 
    2151     2174     2200     2214     2218     2211     2185     2154 
    2126     2102     2092     2098     2121     2154     2187     2211 
    2228     2235     2226     2205     2181     2161     2155     2170 
    2205     2258     2323     2393     2454     2492     2502     2484 
    2439     2380     2324     2285     2274     2295     2338     2398 
    2469     2523     2550     2546     2511     2454     2397     2347 
    2317     2322     2351     2397     2448     2489     2513     2515 
    2496     2466     2432     2403     2389     2397     2425     2473 
    2528     2582     2629     2664     2681     2678     2666     2651 
    2644     2659     2688     2729     2782     2833     2871     2901 
    2913     2905     2890     2870     2844     2821     2806     2803 
    2813     2825     2844     2863     2884     2907     2921     2929 
    2932     2925     2913     2903     2895     2896     2910     2934 
    2967     3013     3055     3090     3129     3165     3192     3213 
    3229     3244     3261     3276     3288     3299     3312     3323 
    3327     3329     3325     3312     3296     3272     3238     3194 
    3146     3099     3056     3018     2991     2972     2960     2949 
    2936     2914     2882     2843     2795     2749     2713     2682 
    2659     2648     2652     2663     2675     2687     2687     2667 
    2628     2571     2511     2457     2419     2403     2411     2436 
    2471     2509     2539     2554     2546     2525     2497     2467 
    2439     2416     2408     2419     2448     2484     2516     2544 
    2560     2558     2543     2527     2509     2500     2502     2517 
    2543     2575     2606     2636     2664     2685     2695     2697 
    2688     2668     2644     2619     2593     2575     2567     2567 
    2575     2587     2598     2601     2584     2551     2508     2459 
    2401     2342     2301     2273     2249     2231     2215     2196 
    2177     2155     2130     2101     2076     2052     2030     2015 
    2008     2006     2004     2007     2008     2007     2006     1992 
    1975     1958     1939     1925     1919     1917     1922     1939 
    1964     1991     2011     2023     2026     2016     2001     1984 
    1965     1949     1946     1953     1968     1991     2016     2037 
    2043     2038     2020     1995     1975     1964     1968     1993 
    2029     2064     2101     2134     2158     2184     2211     2231 
    2242     2251     2261     2274     2293     2319     2349     2374 
    2397     2417     2430     2432     2434     2439     2444     2451 
    2461     2474     2485     2492     2500     2504     2498     2488 
    2474     2455     2435     2419     2408     2397     2388     2382 
    2377     2370     2358     2334     2303     2270     2236     2212 
    2196     2196     2211     2239     2269     2285     2289     2282 
    2267     2246     2226     2215     2215     2222     2235     2257 
    2282     2308     2330     2349     2359     2361     2351     2335 
    2316     2293     2274     2258     2246     2238     2232     2228 
    2230     2234     2239     2243     2251     2261     2266     2274 
    2288     2299     2312     2328     2338     2346     2354     2354 
    2349     2344     2334     2316     2301     2289     2280     2273 
    2273     2276     2274     2267     2253     2230     2207     2187 
    2168     2157     2157     2166     2178     2189     2195     2189 
    2177     2160     2133     2102     2076     2053     2037     2034 
    2043     2053     2065     2076     2079     2079     2079     2073 
    2064     2068     2083     2104     2133     2163     2196     2222 
    2231     2232     2228     2220     2218     2219     2228     2251 
    2276     2296     2319     2335     2340     2336     2319     2293 
    2270     2249     2227     2218     2214     2212     2218     2220 
    2222     2223     2222     2222     2222     2215     2211     2205 
    2200     2203     2211     2219     2226     2234     2236     2228 
    2214     2195     2172     2146     2120     2100     2085     2073 
    2065     2061     2053     2045     2029     2008     1988     1966 
    1949     1939     1938     1944     1960     1982     1999     2006 
    2007     2004     1993     1977     1966     1956     1949     1945 
    1945     1944     1944     1942     1937     1927     1917     1902 
    1883     1865     1849     1836     1825     1814     1803     1796 
    1790     1787     1788     1794     1800     1810     1814     1811 
    1810     1804     1796     1795     1799     1814     1841     1876 
    1914     1952     1988     2022     2045     2056     2060     2060 
    2050     2038     2033     2033     2033     2034     2046     2053 
    2053     2053     2046     2026     2006     1981     1960     1948 
    1941     1942     1952     1962     1975     1993     2012     2031 
    2042     2049     2061     2066     2068     2074     2087     2104 
    2130     2158     2188     2219     2243     2262     2274     2278 
    2280     2280     2278     2282     2290     2301     2316     2330 
    2338     2342     2343     2338     2331     2324     2326     2334 
    2350     2376     2407     2442     2478     2511     2536     2550 
    2554     2555     2552     2544     2544     2552     2556     2558 
    2558     2554     2542     2527     2506     2488     2477     2469 
    2467     2474     2478     2471     2459     2446     2423     2398 
    2384     2377     2377     2377     2376     2374     2370     2361 
    2338     2309     2285     2269     2255     2247     2249     2254 
    2259     2258     2247     2231     2212     2188     2165     2149 
    2138     2130     2128     2134     2141     2143     2141     2133 
    2120     2106     2092     2083     2072     2060     2047     2037 
    2031     2023     2011     2003     2001     1996     1989     1988 
    1987     1981     1973     1965     1956     1942     1930     1930 
    1939     1954     1975     2007     2042     2066     2087     2104 
    2118     2128     2139     2153     2176     2207     2243     2282 
    2316     2344     2363     2369     2369     2370     2366     2365 
    2373     2388     2409     2436     2463     2486     2506     2516 
    2512     2501     2492     2485     2478     2481     2500     2525 
    2552     2579     2600     2614     2621     2620     2617     2617 
    2616     2612     2610     2614     2617     2617     2617     2619 
    2616     2612     2612     2606     2597     2583     2565     2540 
    2515     2485     2461     2444     2427     2419     2419     2412 
    2407     2401     2385     2366     2342     2308     2273     2245 
    2218     2196     2189     2182     2172     2161     2149     2124 
    2096     2069     2043     2023     2010     2000     1998     1995 
    1991     1982     1972     1956     1934     1906     1878     1852 
