Origin Time       2016/04/16 01:25:00
Lat.              32.753
Long.             130.762
Depth. (km)       12
Mag.              7.3
Station Code      HYG001
Station Lat.      35.6194
Station Long.     134.4500
Station Height(m) 7
Record Time       2016/04/16 01:27:19
Sampling Freq(Hz) 100Hz
Duration Time(s)  60
Dir.              E-W
Scale Factor      7845(gal)/8223790
Max. Acc. (gal)   1.284
Last Correction   2016/04/16 01:27:20
Memo.             
[...]
    -210     -199     -194     -194     -187     -178     -176     -171 
    -168     -174     -168     -162     -170     -174     -166     -166 
    -175     -178     -178     -183     -187     -189     -197     -206 
    -210     -217     -229     -236     -241     -256     -268     -272 
    -276     -287     -292     -291     -298     -301     -294     -294 
    -295     -287     -283     -283     -272     -256     -253     -253 
    -240     -229     -225     -220     -212     -216     -218     -212 
    -211     -220     -221     -221     -224     -221     -225     -241 
    -244     -240     -249     -261     -266     -279     -297     -306 
    -310     -324     -342     -360     -379     -399     -417     -440 
    -473     -503     -525     -557     -594     -615     -638     -675 
    -708     -730     -753     -783     -815     -847     -877     -903 
    -934     -969     -997    -1016    -1043    -1073    -1090    -1111 
   -1136    -1154    -1163    -1173    -1182    -1188    -1194    -1204 
   -1204    -1204    -1209    -1208    -1201    -1204    -1205    -1197 
   -1190    -1192    -1190    -1185    -1185    -1181    -1170    -1174 
   -1182    -1177    -1173    -1173    -1167    -1159    -1148    -1128 
   -1107    -1088    -1069    -1044    -1020     -992     -966     -940 
    -912     -884     -855     -832     -810     -784     -761     -741 
    -719     -693     -675     -657     -635     -618     -606     -591 
    -579     -572     -562     -550     -546     -545     -532     -523 
    -523     -522     -517     -515     -513     -506     -504     -504 
    -495     -483     -475     -461     -444     -434     -422     -398 
    -378     -365     -349     -325     -302     -280     -259     -240 
    -214     -182     -156     -141     -117      -90      -78      -71 
     -51      -35      -29      -20       -4        5       14       27 
      36       44       54       59       56       59       68       71 
      65       65       70       71       78       87       90       94 
     105      108      110      125      139      147      163      186 
     198      210      233      251      257      266      276      280 
     282      288      288      287      294      295      292      294 
     295      289      287      289      288      284      289      295 
     289      286      283      276      271      265      257      248 
     240      225      209      191      174      151      120       95 
      72       41        5      -27      -59      -95     -137     -178 
    -212     -245     -286     -326     -356     -383     -421     -461 
    -492     -519     -553     -592     -626     -665     -702     -738 
    -776     -808     -834     -862     -896     -928     -955     -986 
   -1023    -1053    -1078    -1104    -1129    -1152    -1177    -1198 
   -1213    -1232    -1258    -1271    -1286    -1313    -1334    -1344 
   -1355    -1370    -1379    -1383    -1381    -1375    -1372    -1364 
   -1348    -1329    -1317    -1304    -1282    -1259    -1237    -1212 
   -1183    -1155    -1123    -1086    -1051    -1017     -984     -950 
    -916     -880     -842     -807     -774     -737     -697     -666 
    -634     -602     -572     -545     -521     -502     -487     -475 
    -469     -467     -463     -460     -461     -463     -463     -468 
    -475     -476     -481     -493     -500     -503     -518     -532 
    -537     -552     -573     -588     -604     -622     -633     -639 
    -653     -664     -664     -669     -675     -673     -670     -670 
    -662     -653     -649     -642     -623     -603     -595     -587 
    -568     -550     -535     -519     -504     -491     -479     -464 
    -448     -432     -414     -396     -386     -373     -355     -344 
    -334     -321     -315     -311     -305     -305     -306     -303 
    -309     -322     -332     -340     -360     -383     -403     -422 
    -444     -464     -484     -508     -532     -552     -575     -599 
    -622     -648     -670     -685     -697     -711     -722     -724 
    -724     -724     -715     -702     -688     -669     -638     -607 
    -575     -535     -498     -459     -411     -365     -326     -287 
    -240     -191     -148     -103      -60      -22       13       52 
      87      120      152      180      202      225      245      256 
     268      280      283      283      288      297      299      302 
     314      324      325      334      349      359      369      382 
     391      406      425      441      456      481      510      535 
     562      595      625      654      687      711      730      750 
     766      777      787      796      799      795      791      783 
     765      743      718      687      650      616      577      526 
     479      433      375      314      257      193      128       65 
       5      -59     -118     -172     -229     -282     -326     -372 
    -419     -460     -493     -530     -565     -592     -618     -649 
    -677     -696     -720     -750     -772     -792     -811     -823 
    -838     -855     -862     -873     -892     -903     -909     -924 
    -938     -945     -947     -951     -954     -954     -951     -939 
    -926     -920     -913     -899     -885     -873     -859     -842 
    -820     -795     -764     -735     -702     -662     -623     -585 
    -540     -492     -457     -413     -356     -313     -283     -241 
    -195     -162     -135     -101      -64      -36      -11        8 
      25       41       51       55       62       67       62       47 
      41       35       13      -16      -43      -75     -110     -144 
    -189     -232     -271     -324     -382     -432     -481     -537 
    -595     -649     -702     -756     -812     -861     -903     -942 
    -981    -1021    -1057    -1084    -1107    -1138    -1162    -1175 
   -1192    -1212    -1221    -1229    -1237    -1244    -1250    -1258 
   -1262    -1267    -1274    -1274    -1273    -1277    -1282    -1281 
   -1282    -1293    -1301    -1305    -1317    -1331    -1336    -1339 
   -1348    -1359    -1362    -1360    -1363    -1370    -1372    -1370 
   -1366    -1360    -1360    -1358    -1343    -1333    -1332    -1323 
   -1312    -1308    -1302    -1285    -1270    -1260    -1252    -1242 
   -1224    -1204    -1189    -1173    -1150    -1125    -1104    -1081 
   -1055    -1034    -1013     -989     -962     -938     -909     -877 
    -849     -820     -788     -751     -722     -695     -665     -637 
    -615     -595     -575     -557     -540     -529     -525     -519 
    -510     -502     -499     -493     -490     -486     -483     -480 
    -483     -488     -492     -498     -510     -521     -532     -550 
    -562     -569     -579     -594     -600     -607     -622     -633 
    -639     -650     -658     -662     -672     -680     -683     -685 
    -689     -685     -676     -673     -665     -648     -633     -625 
    -611     -592     -577     -562     -548     -535     -522     -506 
    -493     -483     -469     -463     -459     -445     -430     -421 
    -413     -403     -392     -383     -373     -363     -356     -348 
    -330     -318     -315     -306     -289     -279     -266     -252 
    -241     -225     -206     -189     -172     -149     -122     -105 
     -86      -55      -27       -5       20       47       74      106 
     135      160      194      228      256      282      314      344 
     367      390      417      436      446      457      467      472 
     475      479      473      464      456      445      427      409 
     383      346      318      299      268      232      203      178 
     152      129      110       85       67       54       37       22 
      11       -2      -18      -27      -32      -47      -62      -71 
     -83     -101     -117     -135     -157     -178     -201     -228 
    -255     -275     -297     -322     -348     -376     -409     -436 
    -454     -483     -517     -545     -572     -600     -625     -649 
    -677     -702     -727     -757     -792     -824     -853     -882 
    -911     -939     -966     -986    -1000    -1020    -1042    -1058 
   -1078    -1105    -1132    -1155    -1181    -1213    -1242    -1269 
   -1300    -1329    -1355    -1385    -1412    -1433    -1462    -1487 
   -1503    -1522    -1549    -1568    -1583    -1603    -1626    -1642 
   -1661    -1682    -1698    -1713    -1728    -1737    -1746    -1759 
   -1771    -1779    -1781    -1784    -1779    -1767    -1760    -1750 
   -1734    -1723    -1714    -1696    -1680    -1674    -1665    -1655 
   -1648    -1640    -1629    -1617    -1605    -1587    -1571    -1561 
   -1552    -1539    -1528    -1516    -1494    -1480    -1474    -1462 
   -1443    -1433    -1425    -1414    -1408    -1402    -1394    -1383 
   -1377    -1368    -1362    -1358    -1352    -1348    -1347    -1347 
   -1340    -1333    -1328    -1324    -1314    -1302    -1300    -1289 
   -1270    -1258    -1247    -1230    -1213    -1200    -1183    -1165 
   -1146    -1133    -1121    -1113    -1101    -1088    -1084    -1077 
   -1063    -1059    -1062    -1058    -1058    -1065    -1075    -1086 
   -1104    -1125    -1143    -1159    -1183    -1205    -1221    -1240 
   -1262    -1275    -1286    -1304    -1318    -1331    -1343    -1354 
   -1362    -1375    -1383    -1383    -1387    -1394    -1389    -1375 
   -1366    -1354    -1328    -1302    -1282    -1260    -1229    -1202 
   -1175    -1140    -1105    -1070    -1030     -994     -958     -912 
    -869     -842     -808     -760     -715     -683     -650     -614 
    -573     -531     -488     -454     -421     -378     -337     -311 
    -286     -256     -229     -206     -187     -175     -159     -137 
    -126     -121     -114     -108     -108     -114     -120     -122 
    -129     -144     -162     -175     -184     -197     -214     -230 
    -243     -257     -278     -292     -302     -321     -344     -363 
    -383     -407     -423     -438     -453     -461     -468     -479 
    -486     -484     -483     -483     -479     -473     -471     -472 
    -473     -472     -475     -475     -471     -473     -483     -490 
    -496     -506     -518     -533     -552     -565     -577     -596 
    -612     -625     -639     -661     -676     -687     -697     -706 
    -714     -724     -727     -722     -722     -723     -718     -711 
    -708     -707     -702     -706     -714     -718     -715     -718 
    -722     -728     -739     -750     -756     -761     -774     -791 
    -814     -837     -851     -869     -895     -918     -939     -966 
    -994    -1020    -1047    -1074    -1101    -1131    -1162    -1188 
   -1213    -1242    -1273    -1305    -1336    -1367    -1401    -1433 
   -1460    -1486    -1513    -1539    -1561    -1576    -1584    -1597 
   -1606    -1614    -1618    -1622    -1622    -1620    -1624    -1628 
   -1624    -1620    -1621    -1620    -1617    -1606    -1591    -1580 
   -1574    -1559    -1537    -1518    -1501    -1480    -1456    -1435 
   -1414    -1397    -1381    -1366    -1352    -1341    -1329    -1320 
   -1316    -1318    -1320    -1316    -1313    -1314    -1320    -1321 
   -1321    -1323    -1325    -1324    -1323    -1317    -1308    -1305 
   -1300    -1294    -1293    -1287    -1281    -1286    -1294    -1297 
   -1296    -1298    -1300    -1301    -1304    -1305    -1306    -1308 
   -1310    -1304    -1298    -1301    -1298    -1291    -1296    -1290 
   -1270    -1256    -1262    -1269    -1259    -1235    -1217    -1223 
   -1227    -1204    -1162    -1147    -1156    -1143    -1112    -1094 
   -1084    -1073    -1063    -1050    -1030    -1008     -997     -987 
    -961     -928     -916     -901     -864     -838     -828     -803 
    -781     -769     -741     -723     -726     -715     -700     -697 
    -681     -666     -669     -661     -643     -643     -649     -630 
    -606     -602     -595     -583     -572     -557     -535     -518 
    -510     -506     -490     -456     -437     -437     -429     -403 
    -373     -357     -344     -315     -279     -253     -232     -198 
    -152     -117      -94      -63      -27        2       35       74 
     112      144      170      191      222      255      266      280 
     325      363      364      364      376      403      433      442 
     436      440      459      468      460      464      481      480 
     459      451      459      454      438      419      406      400 
     396      380      359      338      318      302      286      263 
     237      216      201      178      156      143      126       97 
      65       39       10      -20      -47      -72     -101     -121 
    -140     -167     -194     -216     -240     -266     -286     -299 
    -321     -349     -379     -402     -413     -427     -457     -484 
    -487     -493     -530     -571     -581     -588     -622     -654 
    -668     -680     -700     -715     -723     -719     -722     -741 
    -754     -747     -738     -738     -734     -715     -708     -707 
    -687     -664     -656     -646     -623     -594     -564     -545 
    -529     -496     -450     -414     -386     -341     -292     -253 
    -210     -156     -106      -68      -22       32       86      131 
     182      233      280      328      370      409      453      496 
     531      566      608      643      666      695      723      746 
     772      796      810      818      826      832      842      849 
     843      834      830      822      803      780      761      737 
     704      673      645      610      569      535      506      469 
     438      415      390      364      341      313      288      276 
     259      233      216      207      198      189      178      157 
     139      129      120      103       89       71       52       43 
      39       32       22       16       10        5        1        2 
       0       -2        1        8        9       17       28       32 
      37       49       56       60       68       70       71       82 
      91      101      112      124      133      143      156      172 
     186      199      216      234      257      279      299      318 
     336      359      379      398      418      434      445      460 
     473      479      490      506      519      529      538      542 
     545      558      569      569      573      583      585      588 
     592      594      587      579      579      577      573      573 
     565      553      548      544      535      530      530      529 
     522      521      530      537      537      538      542      553 
     568      575      583      595      599      599      604      611 
     607      598      591      584      572      560      549      532 
     513      496      483      464      446      433      415      396 
     383      367      344      329      318      299      282      266 
     251      230      214      198      184      172      153      135 
     125      120      109       97       91       93       91       89 
      91       97      103      110      118      129      143      151 
     157      174      187      194      199      211      225      233 
     240      251      259      266      279      287      295      307 
     318      328      342      356      363      369      379      386 
     388      395      398      395      396      402      405      403 
     405      402      392      386      379      369      364      361 
     352      344      341      334      322      315      311      303 
     297      297      297      295      299      305      307      310 
     317      321      324      333      340      341      348      357 
     359      361      369      369      368      376      383      383 
     387      390      390      391      391      387      382      376 
     367      349      330      313      291      268      244      214 
     184      157      128       93       60       29       -5      -40 
     -70     -105     -140     -167     -193     -220     -240     -259 
    -279     -298     -317     -332     -342     -356     -368     -382 
    -392     -399     -407     -415     -422     -429     -441     -450 
    -456     -463     -475     -484     -490     -496     -506     -513 
    -513     -513     -511     -510     -503     -491     -481     -475 
    -464     -449     -434     -425     -414     -405     -395     -382 
    -372     -368     -359     -344     -340     -334     -324     -318 
    -314     -305     -292     -289     -287     -276     -268     -268 
    -263     -259     -266     -268     -261     -263     -271     -276 
    -282     -288     -299     -311     -319     -329     -342     -360 
    -380     -400     -422     -449     -476     -500     -531     -562 
    -587     -615     -650     -680     -706     -733     -757     -776 
    -799     -820     -835     -854     -869     -880     -889     -901 
    -912     -916     -919     -924     -920     -915     -912     -905 
    -899     -897     -895     -885     -876     -874     -876     -870 
    -864     -859     -853     -851     -854     -854     -854     -857 
    -857     -858     -864     -862     -851     -843     -842     -835 
    -820     -804     -791     -778     -770     -766     -760     -751 
    -745     -738     -733     -733     -728     -719     -718     -718 
    -711     -706     -707     -706     -699     -696     -696     -697 
    -699     -696     -693     -696     -700     -700     -697     -699 
    -707     -712     -714     -715     -722     -726     -730     -737 
    -741     -738     -743     -745     -738     -741     -749     -746 
    -743     -746     -743     -741     -747     -753     -750     -749 
    -750     -750     -747     -750     -751     -750     -751     -754 
    -758     -765     -772     -776     -785     -801     -816     -826 
    -835     -850     -864     -877     -890     -903     -923     -945 
    -963     -980    -1000    -1024    -1042    -1062    -1084    -1101 
   -1116    -1132    -1147    -1162    -1177    -1189    -1196    -1206 
   -1225    -1240    -1244    -1252    -1269    -1289    -1305    -1321 
   -1336    -1350    -1367    -1389    -1405    -1422    -1441    -1455 
   -1475    -1497    -1512    -1530    -1551    -1567    -1586    -1605 
   -1624    -1640    -1651    -1664    -1675    -1682    -1692    -1696 
   -1698    -1701    -1706    -1706    -1703    -1702    -1695    -1680 
   -1669    -1663    -1648    -1628    -1610    -1590    -1568    -1545 
   -1522    -1498    -1474    -1445    -1413    -1382    -1350    -1317 
   -1282    -1250    -1215    -1179    -1148    -1117    -1086    -1055 
   -1030    -1004     -980     -959     -939     -916     -892     -869 
    -847     -828     -811     -789     -769     -757     -745     -724 
    -714     -711     -702     -689     -691     -697     -700     -704 
    -714     -727     -743     -760     -778     -800     -822     -838 
    -854     -877     -901     -916     -932     -951     -973     -993 
   -1009    -1024    -1042    -1055    -1070    -1086    -1098    -1113 
   -1128    -1136    -1152    -1173    -1181    -1192    -1210    -1223 
   -1230    -1244    -1258    -1267    -1275    -1285    -1300    -1317 
