Origin Time       2016/04/16 01:25:00
Lat.              32.753
Long.             130.762
Depth. (km)       12
Mag.              7.3
Station Code      HYG012
Station Lat.      34.9959
Station Long.     134.5520
Station Height(m) 85
Record Time       2016/04/16 01:27:11
Sampling Freq(Hz) 100Hz
Duration Time(s)  60
Dir.              N-S
Scale Factor      7845(gal)/8223790
Max. Acc. (gal)   1.753
Last Correction   2016/04/16 01:27:12
Memo.             
[...]
  -24598   -24588   -24587   -24605   -24626   -24624   -24590   -24555 
  -24556   -24572   -24540   -24472   -24451   -24456   -24426   -24387 
  -24366   -24336   -24311   -24306   -24309   -24295   -24256   -24243 
  -24294   -24321   -24262   -24240   -24316   -24358   -24311   -24258 
  -24264   -24347   -24372   -24277   -24255   -24306   -24268   -24220 
  -24224   -24187   -24120   -24113   -24143   -24100   -24004   -23974 
  -24035   -24038   -23908   -23842   -23904   -23905   -23814   -23739 
  -23726   -23738   -23738   -23720   -23666   -23622   -23687   -23791 
  -23786   -23706   -23724   -23862   -23953   -23944   -23930   -23967 
  -24063   -24173   -24209   -24163   -24177   -24316   -24443   -24436 
  -24397   -24459   -24557   -24610   -24615   -24601   -24609   -24657 
  -24727   -24726   -24634   -24638   -24815   -24896   -24744   -24683 
  -24879   -24991   -24891   -24871   -24961   -24976   -24975   -25043 
  -25047   -24953   -24935   -25056   -25122   -24984   -24873   -24988 
  -25056   -24948   -24911   -24941   -24930   -24962   -24988   -24950 
  -24984   -25050   -25037   -25034   -25057   -25097   -25196   -25193 
  -25105   -25168   -25257   -25234   -25272   -25300   -25172   -25154 
  -25331   -25323   -25146   -25173   -25293   -25269   -25246   -25257 
  -25212   -25223   -25316   -25361   -25315   -25239   -25259   -25371 
  -25365   -25282   -25331   -25326   -25199   -25231   -25293   -25159 
  -25101   -25181   -25153   -25096   -25124   -25114   -25092   -25146 
  -25188   -25180   -25192   -25220   -25228   -25240   -25255   -25239 
  -25227   -25259   -25269   -25229   -25239   -25263   -25231   -25250 
  -25318   -25315   -25309   -25359   -25394   -25434   -25469   -25470 
  -25492   -25520   -25532   -25566   -25575   -25548   -25571   -25625 
  -25633   -25640   -25677   -25708   -25740   -25771   -25768   -25763 
  -25790   -25820   -25840   -25848   -25855   -25897   -25938   -25944 
  -25944   -25941   -25928   -25929   -25947   -25949   -25938   -25937 
  -25934   -25902   -25880   -25894   -25903   -25888   -25861   -25833 
  -25801   -25786   -25794   -25790   -25764   -25722   -25681   -25647 
  -25583   -25508   -25482   -25474   -25446   -25400   -25347   -25304 
  -25272   -25236   -25201   -25181   -25165   -25151   -25150   -25123 
  -25077   -25066   -25089   -25124   -25161   -25180   -25154   -25085 
  -25051   -25107   -25201   -25261   -25265   -25227   -25176   -25166 
  -25226   -25326   -25419   -25447   -25398   -25344   -25342   -25398 
  -25493   -25540   -25502   -25424   -25370   -25386   -25454   -25517 
  -25550   -25529   -25462   -25400   -25393   -25447   -25502   -25500 
  -25458   -25420   -25411   -25432   -25447   -25420   -25370   -25350 
  -25377   -25432   -25485   -25497   -25450   -25374   -25332   -25365 
  -25447   -25502   -25485   -25404   -25313   -25274   -25292   -25330 
  -25358   -25336   -25252   -25166   -25126   -25127   -25147   -25157 
  -25123   -25056   -25000   -24981   -24987   -24988   -24966   -24934 
  -24902   -24879   -24883   -24904   -24904   -24872   -24835   -24819 
  -24819   -24841   -24881   -24898   -24861   -24808   -24776   -24759 
  -24752   -24764   -24767   -24754   -24746   -24740   -24730   -24715 
  -24680   -24644   -24624   -24618   -24652   -24703   -24707   -24672 
  -24638   -24602   -24586   -24609   -24621   -24617   -24632   -24625 
  -24582   -24568   -24578   -24564   -24544   -24525   -24513   -24525 
  -24552   -24583   -24598   -24567   -24529   -24522   -24521   -24522 
  -24545   -24579   -24592   -24575   -24552   -24551   -24551   -24557 
  -24580   -24591   -24592   -24609   -24637   -24675   -24702   -24702 
  -24694   -24682   -24665   -24667   -24675   -24680   -24673   -24641 
  -24592   -24545   -24525   -24549   -24587   -24598   -24582   -24551 
  -24526   -24525   -24557   -24610   -24642   -24629   -24591   -24552 
  -24524   -24528   -24551   -24568   -24575   -24560   -24529   -24499 
  -24483   -24491   -24525   -24556   -24575   -24597   -24618   -24642 
  -24656   -24649   -24655   -24682   -24703   -24725   -24757   -24795 
  -24810   -24791   -24761   -24745   -24746   -24761   -24779   -24800 
  -24821   -24834   -24840   -24841   -24845   -24856   -24875   -24904 
  -24933   -24949   -24950   -24941   -24938   -24952   -24958   -24949 
  -24926   -24895   -24862   -24852   -24871   -24891   -24879   -24836 
  -24777   -24721   -24682   -24686   -24736   -24786   -24786   -24727 
  -24655   -24598   -24564   -24572   -24618   -24663   -24661   -24609 
  -24545   -24503   -24475   -24453   -24432   -24397   -24354   -24305 
  -24268   -24248   -24239   -24224   -24189   -24148   -24113   -24070 
  -24035   -24039   -24062   -24085   -24108   -24124   -24136   -24144 
  -24144   -24150   -24159   -24173   -24186   -24204   -24223   -24263 
  -24321   -24364   -24391   -24412   -24420   -24440   -24476   -24517 
  -24563   -24615   -24669   -24726   -24765   -24787   -24804   -24803 
  -24769   -24745   -24765   -24804   -24854   -24904   -24919   -24889 
  -24838   -24775   -24730   -24727   -24754   -24799   -24830   -24811 
  -24753   -24687   -24630   -24598   -24592   -24617   -24660   -24692 
  -24719   -24744   -24738   -24694   -24633   -24584   -24582   -24625 
  -24684   -24721   -24704   -24642   -24574   -24533   -24534   -24567 
  -24598   -24595   -24545   -24475   -24420   -24408   -24435   -24470 
  -24468   -24412   -24320   -24243   -24210   -24233   -24294   -24339 
  -24339   -24318   -24294   -24282   -24297   -24324   -24340   -24340 
  -24329   -24327   -24339   -24356   -24362   -24328   -24262   -24196 
  -24165   -24189   -24245   -24285   -24271   -24208   -24138   -24097 
  -24093   -24138   -24183   -24186   -24156   -24121   -24078   -24047 
  -24038   -24036   -24039   -24034   -24008   -23969   -23935   -23912 
  -23905   -23915   -23915   -23888   -23838   -23789   -23778   -23805 
  -23828   -23828   -23820   -23799   -23758   -23708   -23662   -23666 
  -23718   -23749   -23734   -23714   -23720   -23737   -23707   -23634 
  -23639   -23774   -23927   -23965   -23890   -23807   -23784   -23834 
  -23938   -24034   -24084   -24111   -24111   -24101   -24146   -24251 
  -24371   -24436   -24413   -24377   -24393   -24429   -24478   -24559 
  -24667   -24734   -24688   -24572   -24509   -24552   -24637   -24667 
  -24618   -24564   -24584   -24659   -24692   -24652   -24574   -24475 
  -24402   -24453   -24621   -24768   -24786   -24630   -24408   -24341 
  -24486   -24665   -24745   -24715   -24632   -24571   -24538   -24529 
  -24607   -24744   -24791   -24692   -24567   -24529   -24575   -24655 
  -24721   -24725   -24655   -24538   -24449   -24455   -24501   -24520 
  -24499   -24433   -24379   -24400   -24432   -24386   -24268   -24143 
  -24097   -24186   -24351   -24493   -24556   -24506   -24362   -24210 
  -24143   -24220   -24397   -24552   -24642   -24675   -24651   -24583 
  -24506   -24460   -24471   -24509   -24545   -24602   -24707   -24819 
  -24861   -24803   -24684   -24571   -24526   -24592   -24736   -24879 
  -24937   -24840   -24630   -24463   -24456   -24579   -24699   -24694 
  -24560   -24397   -24281   -24263   -24363   -24491   -24516   -24399 
  -24198   -23996   -23895   -23950   -24077   -24166   -24169   -24104 
  -24007   -23909   -23857   -23855   -23886   -23928   -23951   -23967 
  -24012   -24058   -24059   -24001   -23912   -23846   -23820   -23839 
  -23904   -23965   -23977   -23944   -23895   -23875   -23901   -23934 
  -23947   -23951   -23973   -24027   -24086   -24131   -24165   -24193 
  -24202   -24179   -24146   -24147   -24198   -24270   -24329   -24354 
  -24341   -24316   -24306   -24321   -24364   -24417   -24424   -24381 
  -24368   -24426   -24501   -24529   -24486   -24406   -24383   -24440 
  -24507   -24559   -24575   -24544   -24489   -24425   -24408   -24452 
  -24475   -24455   -24418   -24383   -24383   -24375   -24321   -24277 
  -24267   -24282   -24314   -24320   -24306   -24306   -24300   -24258 
  -24212   -24232   -24317   -24375   -24370   -24339   -24308   -24305 
  -24334   -24320   -24264   -24305   -24428   -24472   -24462   -24471 
  -24459   -24428   -24406   -24385   -24424   -24548   -24632   -24597 
  -24559   -24568   -24532   -24474   -24494   -24586   -24679   -24713 
  -24683   -24664   -24717   -24802   -24833   -24769   -24704   -24713 
  -24752   -24830   -24954   -25002   -24962   -24945   -24906   -24841 
  -24896   -25000   -25014   -25020   -25053   -25010   -24943   -24992 
  -25120   -25185   -25161   -25081   -24953   -24848   -24929   -25199 
  -25404   -25396   -25272   -25111   -24984   -25011   -25176   -25327 
  -25378   -25336   -25242   -25165   -25212   -25336   -25365   -25270 
  -25138   -25057   -25096   -25252   -25473   -25570   -25370   -25069 
  -24916   -24942   -25105   -25284   -25334   -25235   -25069   -24965 
  -24948   -24952   -24968   -24952   -24833   -24710   -24711   -24817 
  -24919   -24912   -24802   -24727   -24691   -24594   -24557   -24695 
  -24842   -24896   -24879   -24807   -24717   -24613   -24563   -24656 
  -24813   -24935   -24952   -24808   -24645   -24624   -24736   -24867 
  -24900   -24845   -24772   -24726   -24732   -24776   -24830   -24842 
  -24740   -24586   -24544   -24611   -24673   -24694   -24640   -24545 
  -24497   -24482   -24490   -24524   -24509   -24457   -24441   -24406 
  -24354   -24382   -24463   -24483   -24393   -24285   -24271   -24311 
  -24331   -24377   -24462   -24433   -24318   -24321   -24399   -24453 
  -24525   -24571   -24541   -24525   -24579   -24633   -24636   -24656 
  -24717   -24744   -24768   -24842   -24873   -24810   -24754   -24781 
  -24829   -24848   -24879   -24896   -24872   -24885   -24906   -24825 
  -24737   -24742   -24761   -24780   -24859   -24914   -24833   -24696 
  -24638   -24656   -24711   -24831   -24919   -24850   -24752   -24744 
  -24741   -24695   -24673   -24687   -24675   -24630   -24591   -24564 
  -24536   -24490   -24424   -24385   -24405   -24420   -24379   -24309 
  -24278   -24297   -24328   -24345   -24329   -24260   -24196   -24228 
  -24282   -24252   -24223   -24262   -24258   -24182   -24170   -24251 
  -24273   -24194   -24120   -24128   -24251   -24354   -24288   -24192 
  -24208   -24283   -24349   -24397   -24412   -24345   -24255   -24283 
  -24394   -24474   -24518   -24484   -24351   -24252   -24288   -24372 
  -24413   -24429   -24432   -24424   -24391   -24348   -24397   -24489 
  -24486   -24449   -24448   -24507   -24565   -24528   -24529   -24621 
  -24595   -24511   -24575   -24652   -24594   -24547   -24632   -24772 
  -24761   -24547   -24463   -24655   -24807   -24773   -24648   -24552 
  -24659   -24813   -24718   -24615   -24752   -24864   -24783   -24625 
  -24625   -24817   -24891   -24792   -24729   -24780   -24872   -24822 
  -24744   -24911   -25038   -24829   -24660   -24793   -25004   -25178 
  -25159   -24879   -24752   -24802   -24784   -24854   -25039   -25276 
  -25299   -24865   -24575   -24773   -24976   -24976   -25014   -25242 
  -25308   -24865   -24480   -24791   -25269   -25204   -24943   -24996 
  -25159   -25101   -24912   -24867   -24934   -24983   -25130   -25284 
  -25192   -24999   -24968   -25024   -24956   -24885   -25011   -25159 
  -25126   -25092   -25182   -25157   -24981   -24895   -24871   -24879 
  -25011   -25223   -25328   -25127   -24838   -24861   -25031   -24991 
  -24881   -25002   -25091   -24902   -24825   -25042   -25207   -24941 
  -24478   -24557   -24960   -24956   -24770   -24718   -24660   -24521 
  -24426   -24557   -24667   -24463   -24274   -24305   -24294   -24165 
  -24171   -24443   -24544   -24039   -23579   -23869   -24266   -24132 
  -23862   -23778   -23799   -23863   -23852   -23769   -23749   -23728 
  -23661   -23593   -23537   -23604   -23796   -23799   -23521   -23450 
  -23716   -23758   -23558   -23568   -23704   -23639   -23534   -23747 
  -23989   -23788   -23539   -23654   -23697   -23468   -23552   -24004 
  -23986   -23500   -23485   -23868   -23885   -23647   -23521   -23411 
  -23413   -23706   -24042   -24081   -23742   -23367   -23327   -23417 
  -23529   -23944   -24198   -23695   -23221   -23475   -23774   -23851 
  -23977   -23815   -23419   -23272   -23450   -23895   -24275   -24092 
  -23488   -23241   -23566   -23857   -23934   -23981   -23958   -23954 
  -23904   -23719   -23788   -24147   -24237   -23936   -23809   -24044 
  -24159   -24169   -24331   -24300   -23974   -23792   -24073   -24556 
  -24462   -23980   -24073   -24478   -24420   -24020   -24116   -24867 
  -24826   -23893   -23912   -24506   -24429   -24507   -25019   -24859 
  -24070   -24101   -24902   -24602   -23797   -24663   -25899   -25146 
  -23693   -23993   -25200   -25068   -24322   -24698   -25320   -24900 
  -24345   -24618   -24861   -24657   -24972   -25419   -24776   -23973 
  -24409   -25274   -25348   -24827   -24544   -24722   -24618   -24366 
  -25026   -25559   -24640   -24100   -25064   -25093   -23868   -24594 
  -26366   -25142   -22845   -23961   -26311   -25598   -23676   -24208 
  -25671   -25033   -23776   -24638   -26002   -25134   -23715   -24332 
  -25394   -24945   -24543   -25112   -25108   -24420   -24385   -24845 
  -24819   -24579   -24799   -25138   -25002   -24358   -24142   -25050 
  -25429   -24321   -24143   -25389   -25100   -23824   -24692   -25945 
  -24626   -23155   -24192   -25861   -25880   -24752   -24059   -24214 
  -24255   -24179   -25211   -26420   -25656   -23814   -23467   -24721 
  -25404   -24904   -24964   -25591   -25026   -24082   -24513   -25312 
  -25062   -24453   -24702   -25331   -25057   -24665   -25084   -25027 
  -24393   -24417   -24942   -25235   -24888   -24521   -24799   -24803 
  -24441   -24580   -24746   -24568   -24466   -24557   -24714   -24671 
  -24471   -24367   -24304   -24414   -24641   -24538   -24393   -24493 
  -24402   -24220   -24364   -24513   -24426   -24448   -24493   -24354 
  -24344   -24416   -24370   -24430   -24499   -24425   -24406   -24400 
  -24271   -24194   -24352   -24574   -24514   -24219   -24117   -24274 
  -24341   -24302   -24397   -24494   -24367   -24221   -24260   -24321 
  -24343   -24410   -24424   -24367   -24406   -24467   -24385   -24320 
  -24395   -24430   -24486   -24621   -24549   -24360   -24363   -24529 
  -24657   -24606   -24536   -24624   -24642   -24491   -24420   -24601 
  -24833   -24777   -24603   -24641   -24713   -24706   -24742   -24765 
  -24750   -24776   -24798   -24750   -24752   -24868   -24889   -24741 
  -24632   -24664   -24741   -24768   -24783   -24807   -24768   -24676 
  -24568   -24543   -24699   -24798   -24709   -24718   -24804   -24696 
  -24572   -24687   -24842   -24841   -24791   -24749   -24704   -24772 
  -24945   -24988   -24872   -24846   -24896   -24875   -24914   -25041 
  -25077   -25019   -24956   -24954   -25042   -25120   -25100   -24979 
  -24910   -25027   -25146   -25154   -25128   -25011   -24865   -24884 
  -25034   -25143   -25189   -25188   -25033   -24823   -24869   -25080 
  -25134   -25091   -25115   -25084   -24975   -24970   -25016   -25022 
  -25110   -25159   -24997   -24858   -24958   -25123   -25159   -25158 
  -25161   -25026   -24836   -24808   -24929   -25119   -25243   -25174 
  -25037   -24950   -24887   -24887   -24975   -25041   -25014   -24977 
  -25008   -25011   -24914   -24848   -24915   -24957   -24862   -24817 
  -24918   -24992   -24948   -24929   -24985   -24954   -24786   -24692 
  -24815   -24964   -24952   -24879   -24833   -24763   -24682   -24656 
  -24721   -24798   -24734   -24597   -24586   -24632   -24607   -24614 
  -24651   -24599   -24518   -24509   -24570   -24611   -24587   -24552 
  -24518   -24502   -24570   -24607   -24559   -24533   -24513   -24475 
  -24506   -24584   -24615   -24622   -24614   -24563   -24533   -24552 
  -24579   -24606   -24642   -24668   -24622   -24517   -24501   -24572 
  -24580   -24560   -24592   -24580   -24486   -24460   -24517   -24528 
  -24514   -24575   -24607   -24511   -24420   -24437   -24483   -24506 
  -24522   -24522   -24509   -24489   -24460   -24448   -24452   -24440 
  -24440   -24505   -24568   -24521   -24443   -24439   -24440   -24410 
  -24439   -24505   -24479   -24400   -24406   -24429   -24381   -24364 
  -24418   -24463   -24445   -24362   -24318   -24395   -24497   -24522 
  -24486   -24445   -24448   -24518   -24613   -24642   -24601   -24591 
  -24622   -24621   -24665   -24813   -24872   -24769   -24726   -24815 
  -24873   -24852   -24846   -24908   -24975   -24993   -24995   -25007 
  -25031   -25031   -24987   -24993   -25066   -25077   -25043   -25042 
  -25066   -25080   -25058   -25058   -25116   -25137   -25068   -24983 
  -24970   -25027   -25038   -25022   -25150   -25254   -25056   -24833 
  -24862   -24945   -24945   -24931   -25011   -25095   -24999   -24891 
  -24898   -24916   -24942   -24925   -24888   -24916   -24916   -24892 
  -24899   -24948   -25076   -25115   -24988   -24892   -24894   -24929 
  -24965   -25057   -25176   -25173   -25097   -25077   -25050   -24988 
  -24988   -25070   -25134   -25149   -25165   -25157   -25111   -25070 
  -25031   -24999   -25016   -25058   -25064   -25064   -25081   -25043 
  -24961   -24935   -24945   -24929   -24930   -24956   -24956   -24935 
  -24926   -24912   -24896   -24884   -24868   -24852   -24873   -24914 
  -24907   -24873   -24873   -24877   -24862   -24868   -24889   -24894 
  -24858   -24819   -24822   -24852   -24869   -24872   -24869   -24857 
  -24817   -24779   -24788   -24819   -24823   -24799   -24779   -24770 
  -24761   -24760   -24761   -24752   -24727   -24698   -24680   -24679 
  -24676   -24675   -24668   -24641   -24606   -24586   -24586   -24586 
  -24570   -24552   -24544   -24525   -24516   -24528   -24529   -24516 
  -24505   -24489   -24466   -24462   -24476   -24489   -24480   -24460 
  -24443   -24435   -24428   -24429   -24435   -24443   -24445   -24432 
  -24418   -24422   -24430   -24430   -24440   -24456   -24462   -24453 
  -24453   -24468   -24470   -24456   -24457   -24459   -24443   -24443 
  -24462   -24468   -24459   -24453   -24463   -24460   -24418   -24383 
  -24414   -24462   -24449   -24413   -24394   -24376   -24368   -24368 
  -24359   -24345   -24333   -24324   -24324   -24306   -24278   -24285 
  -24287   -24247   -24208   -24209   -24233   -24239   -24201   -24166 
  -24158   -24129   -24106   -24129   -24142   -24136   -24165   -24169 
  -24089   -24007   -24030   -24133   -24190   -24175   -24140   -24089 
  -24021   -23980   -24030   -24163   -24259   -24243   -24173   -24112 
  -24085   -24092   -24133   -24202   -24256   -24268   -24245   -24190 
  -24119   -24111   -24183   -24231   -24220   -24228   -24244   -24235 
  -24223   -24198   -24179   -24201   -24231   -24268   -24274   -24183 
  -24101   -24128   -24197   -24247   -24263   -24214   -24144   -24112 
  -24120   -24178   -24251   -24259   -24187   -24079   -24015   -24063 
  -24182   -24283   -24300   -24194   -24042   -23940   -23940   -24086 
  -24291   -24371   -24298   -24152   -23989   -23878   -23892   -24036 
  -24225   -24317   -24270   -24151   -24007   -23905   -23926   -24034 
  -24150   -24217   -24213   -24159   -24082   -24021   -24011   -24032 
  -24074   -24125   -24146   -24131   -24119   -24109   -24081   -24052 
