Origin Time       2016/04/16 01:25:00
Lat.              32.753
Long.             130.762
Depth. (km)       12
Mag.              7.3
Station Code      HYG020
Station Lat.      34.7976
Station Long.     134.9899
Station Height(m) 75
Record Time       2016/04/16 01:27:17
Sampling Freq(Hz) 100Hz
Duration Time(s)  79
Dir.              N-S
Scale Factor      7845(gal)/8223790
Max. Acc. (gal)   3.559
Last Correction   2016/04/16 01:27:17
Memo.             
[...]
     453      491      532      579      622      668      712      754 
     799      837      868      895      916      929      939      945 
     939      929      919      908      890      876      864      851 
     838      826      814      800      785      770      753      733 
     712      695      677      661      648      634      621      610 
     600      589      583      575      568      566      562      553 
     550      548      542      538      537      537      538      540 
     546      561      576      594      625      658      696      741 
     792      842      892      943      993     1038     1081     1121 
    1154     1185     1213     1237     1260     1277     1287     1289 
    1285     1275     1256     1232     1205     1171     1132     1094 
    1053     1009      969      926      884      849      815      784 
     764      746      734      728      726      726      728      730 
     734      735      734      733      733      733      737      734 
     734      738      741      749      762      774      791      811 
     828      849      874      900      924      949      976     1004 
    1028     1046     1065     1078     1088     1092     1088     1081 
    1077     1069     1055     1039     1030     1017     1000      982 
     970      958      947      940      927      918      911      895 
     877      862      849      832      814      800      792      784 
     781      784      784      791      803      812      827      843 
     855      868      880      895      909      915      920      926 
     920      909      897      877      854      828      795      758 
     718      669      622      576      525      475      425      380 
     341      306      279      255      234      225      218      211 
     212      217      218      229      243      255      272      288 
     306      330      357      383      419      457      496      540 
     577      616      658      692      723      747      757      762 
     762      749      731      711      689      666      642      618 
     596      577      561      548      533      530      526      521 
     521      526      526      532      542      550      552      552 
     550      548      540      526      508      488      471      451 
     425      398      375      348      319      291      256      221 
     189      159      128       98       75       58       43       40 
      45       55       68       87      116      155      194      237 
     287      338      392      445      493      542      589      635 
     677      718      762      810      855      901      949      993 
    1032     1070     1102     1127     1147     1163     1173     1173 
    1165     1151     1125     1092     1055     1015      974      936 
     897      864      838      816      801      792      783      781 
     785      789      796      807      823      849      877      907 
     946      989     1031     1077     1121     1165     1205     1235 
    1254     1269     1273     1267     1259     1246     1225     1202 
    1177     1152     1127     1098     1067     1039     1013      986 
     962      942      924      907      890      877      870      861 
     853      849      841      832      828      827      828      834 
     845      864      886      912      950      993     1032     1077 
    1125     1169     1208     1243     1269     1291     1308     1318 
    1325     1332     1332     1331     1332     1337     1344     1351 
    1359     1375     1393     1405     1418     1431     1439     1445 
    1455     1467     1471     1476     1489     1503     1524     1545 
    1568     1597     1624     1647     1669     1694     1713     1722 
    1726     1729     1725     1709     1687     1665     1637     1609 
    1578     1545     1521     1493     1456     1428     1394     1354 
    1323     1285     1242     1201     1155     1105     1053     1000 
     943      886      832      778      730      685      645      612 
     584      562      553      550      548      553      562      571 
     585      604      618      631      646      656      665      676 
     681      684      683      679      676      661      638      615 
     584      545      504      461      411      360      311      257 
     205      159      114       76       43       17        0      -10 
     -13       -2       10       28       59       97      129      163 
     199      234      263      289      310      326      338      342 
     340      330      319      309      294      274      251      230 
     203      168      131       90       44       -1      -52     -105 
    -147     -191     -230     -256     -276     -291     -297     -297 
    -292     -284     -270     -248     -225     -211     -194     -175 
    -163     -157     -156     -159     -164     -172     -180     -193 
    -205     -214     -225     -243     -259     -272     -287     -303 
    -318     -332     -342     -353     -363     -368     -373     -383 
    -386     -387     -391     -390     -387     -382     -369     -360 
    -348     -326     -307     -286     -256     -229     -199     -160 
    -124      -86      -43        1       49      102      157      217 
     279      344      407      472      542      611      676      741 
     808      870      935     1000     1062     1115     1170     1227 
    1281     1333     1385     1429     1474     1520     1566     1606 
    1649     1688     1725     1759     1788     1813     1833     1846 
    1856     1861     1859     1856     1852     1848     1838     1833 
    1833     1833     1840     1848     1859     1875     1887     1891 
    1892     1891     1884     1868     1849     1829     1806     1781 
    1763     1742     1723     1713     1710     1710     1711     1715 
    1723     1732     1732     1729     1723     1709     1688     1660 
    1615     1567     1514     1448     1375     1298     1213     1124 
    1038      949      862      787      712      643      585      532 
     487      450      421      391      367      351      336      324 
     318      315      318      333      349      368      396      427 
     464      499      532      569      599      619      635      646 
     645      631      610      579      540      495      445      392 
     337      275      211      153       98       45        4      -32 
     -63      -81      -85      -82      -65      -36       -2       44 
     105      170      243      319      399      481      566      652 
     737      815      890      966     1038     1101     1158     1208 
    1254     1291     1318     1336     1348     1350     1348     1345 
    1333     1320     1308     1300     1291     1289     1289     1290 
    1297     1310     1327     1344     1364     1389     1413     1431 
    1453     1475     1491     1503     1514     1518     1514     1507 
    1502     1491     1475     1456     1433     1405     1370     1328 
    1278     1221     1155     1085     1009      923      831      738 
     638      532      427      322      212      102       -4     -109 
    -214     -317     -415     -511     -604     -688     -766     -835 
    -892     -939     -973     -992    -1000     -996     -976     -947 
    -912     -866     -812     -756     -697     -630     -561     -491 
    -421     -348     -272     -199     -135      -72      -13       40 
      93      141      186      229      268      307      348      386 
     429      483      537      600      681      770      870      985 
    1112     1250     1394     1548     1709     1871     2033     2195 
    2351     2506     2658     2799     2936     3068     3194     3314 
    3429     3535     3636     3734     3813     3885     3951     4000 
    4029     4054     4064     4066     4060     4041     4013     3977 
    3932     3885     3828     3765     3699     3619     3532     3440 
    3338     3225     3100     2970     2830     2683     2524     2355 
    2181     2001     1821     1636     1451     1269     1089      918 
     756      602      457      325      202       83      -27     -128 
    -230     -328     -418     -510     -600     -684     -764     -837 
    -907     -972    -1032    -1090    -1140    -1185    -1230    -1269 
   -1304    -1340    -1364    -1381    -1394    -1399    -1395    -1382 
   -1355    -1314    -1264    -1208    -1139    -1057     -963     -864 
    -758     -650     -535     -421     -314     -211     -114      -28 
      47      114      171      220      256      289      322      342 
     357      375      382      380      379      372      360      348 
     333      314      297      284      282      282      292      321 
     356      399      450      499      553      610      664      718 
     765      808      851      889      924      962      996     1028 
    1060     1092     1124     1152     1175     1200     1223     1243 
    1260     1273     1281     1282     1274     1263     1242     1206 
    1167     1123     1074     1026      982      940      907      876 
     853      842      837      832      842      851      864      884 
     907      931      959      989     1023     1057     1090     1127 
    1171     1215     1254     1294     1334     1368     1399     1435 
    1466     1487     1506     1518     1522     1522     1509     1490 
    1467     1437     1399     1356     1308     1271     1236     1194 
    1159     1132     1102     1077     1053     1024      994      966 
     935      903      876      846      820      805      789      776 
     772      776      781      793      808      826      847      869 
     892      923      959      993     1026     1060     1096     1132 
    1167     1201     1235     1269     1301     1333     1368     1399 
    1431     1463     1489     1513     1534     1547     1560     1578 
    1598     1621     1653     1694     1741     1798     1864     1937 
    2022     2116     2218     2332     2451     2571     2700     2829 
    2956     3082     3202     3310     3415     3511     3595     3674 
    3753     3821     3882     3943     3997     4036     4067     4090 
    4102     4097     4074     4041     3994     3928     3848     3761 
    3661     3549     3430     3306     3175     3040     2902     2763 
    2628     2493     2359     2234     2114     2000     1898     1799 
    1707     1624     1548     1471     1393     1320     1248     1174 
    1102     1030      954      881      810      735      661      587 
     513      436      353      271      184       90       -5     -109 
    -216     -322     -433     -546     -652     -756     -855     -947 
   -1028    -1101    -1162    -1209    -1246    -1269    -1271    -1262 
   -1246    -1217    -1179    -1135    -1084    -1026     -967     -908 
    -851     -795     -739     -688     -635     -583     -532     -484 
    -427     -369     -319     -265     -203     -143      -82      -20 
      41      108      174      240      311      383      457      538 
     618      699      783      861      932      999     1065     1129 
    1185     1239     1293     1343     1391     1440     1486     1521 
    1552     1579     1594     1595     1586     1570     1547     1514 
    1475     1429     1381     1337     1290     1237     1189     1146 
    1101     1059     1023      989      959      936      916      903 
     896      892      890      899      909      918      932      954 
     977     1012     1053     1097     1150     1210     1277     1348 
    1425     1505     1584     1671     1760     1844     1927     2015 
    2100     2180     2257     2331     2400     2463     2523     2574 
    2616     2660     2697     2717     2736     2748     2747     2736 
    2714     2681     2639     2582     2513     2439     2357     2272 
    2189     2104     2020     1948     1887     1836     1792     1760 
    1737     1719     1714     1718     1718     1729     1748     1759 
    1773     1800     1818     1831     1856     1876     1892     1914 
    1934     1953     1973     1992     2007     2015     2019     2025 
    2023     2011     2001     1995     1982     1973     1966     1958 
    1954     1954     1954     1956     1961     1971     1984     1998 
    2015     2034     2049     2068     2087     2101     2114     2121 
    2126     2130     2130     2124     2123     2123     2119     2116 
    2114     2107     2100     2088     2070     2046     2015     1980 
    1937     1885     1826     1767     1699     1618     1539     1464 
    1382     1296     1215     1132     1050      970      888      805 
     727      646      568      493      417      338      263      186 
     106       28      -51     -131     -216     -305     -392     -483 
    -579     -683     -788     -895    -1003    -1111    -1223    -1333 
   -1444    -1559    -1668    -1771    -1872    -1969    -2058    -2142 
   -2215    -2281    -2343    -2394    -2431    -2459    -2475    -2473 
   -2455    -2423    -2371    -2303    -2212    -2098    -1972    -1829 
   -1671    -1505    -1325    -1139     -951     -761     -569     -382 
    -193       -5      178      359      540      727      916     1109 
    1310     1512     1714     1923     2134     2340     2546     2744 
    2938     3125     3299     3461     3609     3743     3861     3964 
    4059     4140     4210     4275     4329     4376     4423     4469 
    4502     4529     4554     4568     4575     4571     4553     4530 
    4496     4450     4401     4347     4284     4218     4148     4079 
    4013     3946     3888     3831     3776     3730     3685     3636 
    3591     3543     3488     3426     3361     3287     3198     3100 
    2997     2878     2749     2616     2474     2323     2170     2018 
    1864     1710     1557     1405     1260     1119      985      858 
     734      614      496      383      280      180       76      -21 
    -112     -207     -303     -398     -487     -576     -665     -756 
    -849     -942    -1036    -1127    -1221    -1320    -1417    -1512 
   -1606    -1703    -1792    -1868    -1933    -1993    -2038    -2069 
   -2091    -2100    -2098    -2091    -2076    -2053    -2025    -1993 
   -1962    -1927    -1888    -1846    -1799    -1748    -1694    -1636 
   -1570    -1495    -1416    -1329    -1242    -1152    -1058     -965 
    -877     -793     -714     -642     -576     -513     -449     -387 
    -325     -263     -197     -125      -55       21      101      178 
     255      333      409      481      552      615      669      720 
     766      803      832      858      877      893      903      909 
     913      908      897      889      874      854      838      812 
     783      754      714      670      629      579      530      487 
     445      409      383      368      360      356      369      396 
     427      469      526      591      660      735      816      903 
     989     1067     1147     1224     1294     1360     1425     1487 
    1547     1601     1652     1707     1757     1799     1840     1873 
    1896     1910     1914     1910     1894     1864     1821     1768 
    1702     1624     1535     1439     1333     1224     1116     1008 
     895      785      677      573      475      379      284      194 
     106       22      -55     -128     -193     -251     -305     -353 
    -391     -419     -442     -460     -467     -464     -460     -453 
    -437     -418     -406     -394     -380     -370     -363     -357 
    -356     -355     -355     -360     -363     -365     -373     -386 
    -395     -407     -422     -433     -441     -448     -446     -442 
    -437     -422     -405     -387     -364     -336     -307     -276 
    -244     -212     -187     -164     -140     -116      -95      -75 
     -56      -36      -11       11       35       60       89      114 
     143      174      203      230      259      284      299      311 
     318      315      306      292      272      240      205      168 
     129       86       37       -8      -51      -95     -139     -174 
    -210     -245     -275     -305     -338     -373     -411     -453 
    -493     -537     -577     -612     -649     -680     -696     -699 
    -691     -675     -646     -607     -564     -511     -457     -400 
    -342     -283     -225     -167     -112      -60      -11       32 
      76      118      156      193      225      259      295      322 
     344      365      379      388      391      387      375      356 
     332      299      259      218      176      135       93       51 
      20       -5      -27      -39      -43      -45      -44      -40 
     -36      -32      -32      -29      -27      -23      -18      -13 
      -5        9       27       51       89      129      170      224 
     283      344      409      475      535      598      657      708 
     753      797      838      872      896      920      943      961 
     977      992     1005     1019     1034     1050     1062     1074 
    1092     1101     1107     1120     1127     1128     1127     1125 
    1120     1112     1105     1101     1094     1089     1086     1086 
    1089     1090     1093     1098     1098     1093     1084     1067 
    1044     1011      970      927      876      816      757      692 
     622      553      483      407      332      256      175       98 
      20      -62     -140     -210     -278     -337     -387     -430 
    -468     -493     -510     -522     -529     -529     -526     -522 
    -515     -508     -502     -495     -488     -477     -468     -456 
    -436     -410     -382     -342     -302     -259     -210     -157 
    -106      -54        1       52      102      155      206      259 
     321      383      445      511      587      668      746      824 
     908      984     1055     1124     1179     1217     1250     1274 
    1285     1285     1274     1251     1220     1183     1144     1104 
    1055     1007      965      922      882      853      826      803 
     791      781      774      770      765      758      749      737 
     726      714      699      683      670      658      643      625 
     606      587      557      521      486      440      380      317 
     251      176       95       13      -70     -153     -237     -319 
    -396     -472     -545     -606     -657     -706     -741     -765 
    -781     -788     -787     -776     -753     -726     -699     -665 
    -623     -579     -535     -491     -448     -403     -356     -310 
    -265     -217     -170     -120      -64       -8       47      110 
     175      241      309      379      451      525      599      672 
     745      814      881      947     1008     1065     1125     1179 
    1233     1294     1352     1404     1460     1517     1568     1618 
    1668     1713     1752     1791     1833     1864     1891     1922 
    1945     1960     1975     1984     1985     1985     1979     1962 
    1944     1915     1881     1842     1792     1738     1684     1626 
    1561     1499     1436     1370     1305     1246     1183     1124 
    1078     1035      992      961      939      922      911      903 
     900      903      911      923      935      943      957      970 
