Origin Time       2016/04/16 01:25:00
Lat.              32.753
Long.             130.762
Depth. (km)       12
Mag.              7.3
Station Code      HYG011
Station Lat.      34.9848
Station Long.     134.3228
Station Height(m) 75
Record Time       2016/04/16 01:27:06
Sampling Freq(Hz) 100Hz
Duration Time(s)  60
Dir.              E-W
Scale Factor      7845(gal)/8223790
Max. Acc. (gal)   1.289
Last Correction   2016/04/16 01:27:08
Memo.             
[...]
   -1221    -1196    -1178    -1166    -1152    -1140    -1131    -1127 
   -1123    -1116    -1105    -1090    -1073    -1060    -1059    -1065 
   -1077    -1088    -1094    -1093    -1092    -1098    -1111    -1124 
   -1132    -1129    -1120    -1113    -1112    -1112    -1115    -1121 
   -1124    -1124    -1127    -1133    -1150    -1175    -1194    -1206 
   -1217    -1221    -1225    -1239    -1255    -1269    -1286    -1304 
   -1312    -1317    -1324    -1336    -1355    -1372    -1383    -1385 
   -1385    -1383    -1383    -1386    -1390    -1394    -1395    -1397 
   -1404    -1414    -1431    -1449    -1460    -1462    -1462    -1456 
   -1444    -1431    -1418    -1399    -1377    -1355    -1334    -1317 
   -1305    -1300    -1297    -1296    -1290    -1287    -1291    -1298 
   -1296    -1290    -1286    -1281    -1274    -1271    -1264    -1258 
   -1259    -1262    -1264    -1273    -1281    -1282    -1278    -1275 
   -1278    -1281    -1285    -1294    -1300    -1306    -1321    -1334 
   -1347    -1362    -1372    -1382    -1399    -1418    -1437    -1457 
   -1476    -1493    -1512    -1528    -1535    -1544    -1552    -1551 
   -1548    -1549    -1549    -1547    -1543    -1534    -1524    -1512 
   -1499    -1483    -1466    -1459    -1455    -1449    -1445    -1448 
   -1451    -1457    -1467    -1472    -1470    -1466    -1468    -1476 
   -1489    -1495    -1493    -1483    -1470    -1453    -1441    -1433 
   -1429    -1425    -1422    -1421    -1422    -1425    -1429    -1429 
   -1429    -1433    -1441    -1449    -1452    -1452    -1456    -1459 
   -1455    -1448    -1441    -1425    -1405    -1386    -1372    -1364 
   -1359    -1343    -1318    -1300    -1286    -1278    -1277    -1273 
   -1258    -1239    -1213    -1192    -1190    -1201    -1216    -1232 
   -1244    -1252    -1262    -1275    -1281    -1282    -1282    -1277 
   -1277    -1287    -1300    -1305    -1308    -1308    -1301    -1286 
   -1274    -1267    -1256    -1251    -1248    -1242    -1228    -1215 
   -1201    -1193    -1197    -1200    -1200    -1208    -1219    -1221 
   -1225    -1233    -1242    -1252    -1264    -1277    -1293    -1308 
   -1321    -1339    -1358    -1375    -1390    -1401    -1413    -1426 
   -1437    -1447    -1453    -1455    -1457    -1459    -1460    -1456 
   -1443    -1425    -1405    -1386    -1372    -1366    -1358    -1352 
   -1348    -1344    -1343    -1347    -1351    -1356    -1360    -1355 
   -1350    -1347    -1343    -1339    -1339    -1343    -1351    -1359 
   -1362    -1362    -1359    -1354    -1355    -1363    -1367    -1364 
   -1352    -1329    -1310    -1302    -1298    -1294    -1289    -1278 
   -1274    -1278    -1291    -1313    -1333    -1347    -1360    -1371 
   -1372    -1375    -1379    -1379    -1383    -1387    -1383    -1377 
   -1371    -1362    -1351    -1345    -1348    -1355    -1364    -1371 
   -1374    -1372    -1367    -1359    -1351    -1344    -1339    -1336 
   -1339    -1341    -1344    -1344    -1343    -1337    -1329    -1320 
   -1317    -1324    -1340    -1359    -1374    -1383    -1389    -1393 
   -1395    -1405    -1420    -1435    -1445    -1456    -1462    -1456 
   -1451    -1449    -1448    -1449    -1459    -1470    -1475    -1485 
   -1499    -1513    -1528    -1541    -1549    -1559    -1571    -1576 
   -1574    -1570    -1567    -1570    -1575    -1576    -1567    -1554 
   -1551    -1553    -1560    -1571    -1575    -1566    -1548    -1537 
   -1537    -1541    -1547    -1552    -1549    -1539    -1525    -1507 
   -1489    -1471    -1451    -1429    -1414    -1404    -1394    -1383 
   -1370    -1354    -1339    -1324    -1306    -1290    -1286    -1289 
   -1290    -1291    -1293    -1286    -1281    -1281    -1282    -1297 
   -1316    -1336    -1356    -1374    -1387    -1398    -1405    -1405 
   -1408    -1408    -1405    -1404    -1399    -1391    -1381    -1366 
   -1350    -1337    -1332    -1325    -1317    -1308    -1289    -1269 
   -1258    -1248    -1240    -1237    -1236    -1233    -1233    -1233 
   -1235    -1240    -1242    -1235    -1220    -1205    -1188    -1170 
   -1162    -1161    -1167    -1182    -1196    -1202    -1208    -1210 
   -1206    -1198    -1193    -1189    -1183    -1174    -1165    -1162 
   -1163    -1162    -1156    -1147    -1138    -1132    -1129    -1132 
   -1140    -1154    -1165    -1169    -1175    -1188    -1197    -1201 
   -1206    -1215    -1223    -1232    -1242    -1247    -1254    -1263 
   -1275    -1282    -1282    -1279    -1278    -1278    -1278    -1277 
   -1269    -1255    -1243    -1233    -1229    -1229    -1227    -1215 
   -1204    -1201    -1200    -1202    -1208    -1208    -1206    -1208 
   -1208    -1206    -1209    -1210    -1213    -1221    -1230    -1239 
   -1246    -1256    -1273    -1289    -1304    -1317    -1333    -1347 
   -1356    -1360    -1354    -1340    -1328    -1318    -1313    -1312 
   -1306    -1289    -1262    -1233    -1208    -1188    -1167    -1143 
   -1121    -1107    -1094    -1084    -1080    -1069    -1051    -1038 
   -1020     -997     -984     -970     -953     -939     -927     -912 
    -897     -885     -869     -851     -842     -834     -822     -804 
    -777     -750     -727     -707     -697     -693     -681     -665 
    -650     -638     -635     -637     -637     -638     -637     -634 
    -635     -650     -669     -684     -696     -714     -738     -765 
    -787     -803     -818     -831     -838     -838     -831     -820 
    -807     -793     -777     -762     -753     -747     -741     -741 
    -751     -761     -773     -788     -805     -826     -847     -872 
    -901     -928     -953     -976    -1003    -1035    -1065    -1096 
   -1125    -1152    -1174    -1188    -1194    -1198    -1201    -1201 
   -1198    -1193    -1188    -1190    -1206    -1229    -1256    -1286 
   -1317    -1345    -1371    -1399    -1429    -1456    -1480    -1499 
   -1516    -1535    -1560    -1582    -1601    -1620    -1638    -1658 
   -1682    -1710    -1742    -1771    -1794    -1813    -1822    -1826 
   -1826    -1826    -1826    -1826    -1822    -1818    -1819    -1823 
   -1826    -1830    -1833    -1830    -1823    -1817    -1813    -1814 
   -1821    -1829    -1840    -1852    -1857    -1864    -1873    -1881 
   -1892    -1900    -1903    -1911    -1923    -1938    -1962    -1989 
   -2007    -2019    -2030    -2033    -2034    -2041    -2041    -2034 
   -2027    -2015    -1998    -1977    -1958    -1941    -1929    -1914 
   -1895    -1868    -1833    -1800    -1769    -1749    -1737    -1729 
   -1729    -1729    -1728    -1729    -1729    -1728    -1729    -1729 
   -1728    -1717    -1699    -1674    -1638    -1602    -1563    -1521 
   -1486    -1452    -1417    -1386    -1362    -1343    -1333    -1331 
   -1334    -1340    -1341    -1341    -1337    -1318    -1293    -1267 
   -1235    -1201    -1175    -1152    -1133    -1117    -1094    -1063 
   -1031     -993     -954     -919     -889     -862     -843     -830 
    -814     -804     -805     -811     -823     -838     -853     -869 
    -889     -911     -932     -957     -981    -1007    -1034    -1062 
   -1089    -1111    -1132    -1151    -1162    -1165    -1165    -1165 
   -1166    -1167    -1170    -1178    -1189    -1209    -1242    -1274 
   -1297    -1314    -1323    -1325    -1329    -1334    -1347    -1366 
   -1386    -1404    -1420    -1435    -1449    -1459    -1460    -1457 
   -1448    -1444    -1441    -1436    -1433    -1437    -1437    -1439 
   -1440    -1436    -1429    -1420    -1402    -1387    -1374    -1363 
   -1350    -1329    -1310    -1302    -1298    -1304    -1312    -1316 
   -1320    -1329    -1336    -1339    -1343    -1352    -1367    -1386 
   -1404    -1418    -1435    -1453    -1471    -1491    -1513    -1534 
   -1554    -1574    -1591    -1601    -1601    -1599    -1599    -1601 
   -1606    -1614    -1621    -1626    -1629    -1630    -1632    -1637 
   -1647    -1652    -1656    -1660    -1660    -1658    -1655    -1645 
   -1637    -1632    -1628    -1621    -1610    -1601    -1603    -1611 
   -1625    -1638    -1649    -1665    -1684    -1701    -1711    -1717 
   -1714    -1711    -1709    -1698    -1686    -1676    -1668    -1653 
   -1636    -1615    -1584    -1547    -1512    -1483    -1452    -1424 
   -1397    -1367    -1341    -1318    -1289    -1267    -1255    -1244 
   -1240    -1246    -1250    -1250    -1250    -1247    -1256    -1287 
   -1325    -1370    -1413    -1443    -1468    -1493    -1507    -1521 
   -1533    -1534    -1524    -1502    -1470    -1437    -1405    -1364 
   -1320    -1273    -1219    -1159    -1101    -1044     -996     -957 
    -915     -876     -853     -842     -832     -823     -811     -796 
    -791     -792     -792     -787     -780     -770     -753     -733 
    -715     -700     -692     -693     -689     -676     -660     -641 
    -622     -610     -604     -592     -576     -556     -523     -487 
    -451     -417     -382     -351     -325     -305     -288     -268 
    -248     -230     -217     -201     -178     -156     -139     -129 
    -129     -135     -139     -144     -149     -153     -155     -159 
    -168     -178     -186     -190     -191     -189     -186     -180 
    -168     -153     -135     -112     -102      -94      -87      -86 
     -90      -95     -109     -129     -157     -180     -205     -232 
    -253     -270     -298     -340     -386     -434     -480     -517 
    -546     -573     -598     -619     -643     -670     -692     -708 
    -722     -728     -734     -741     -747     -757     -770     -785 
    -797     -808     -820     -838     -864     -889     -916     -936 
    -945     -953     -966     -977     -981     -982     -980     -977 
    -978     -987    -1007    -1030    -1047    -1063    -1085    -1111 
   -1138    -1171    -1205    -1240    -1274    -1308    -1340    -1372 
   -1410    -1452    -1489    -1520    -1551    -1578    -1593    -1606 
   -1622    -1632    -1640    -1653    -1672    -1690    -1713    -1737 
   -1755    -1772    -1784    -1796    -1809    -1813    -1810    -1803 
   -1794    -1786    -1786    -1783    -1775    -1764    -1752    -1742 
   -1740    -1738    -1741    -1753    -1768    -1787    -1815    -1848 
   -1878    -1908    -1933    -1949    -1966    -1981    -1989    -1995 
   -2001    -2004    -2000    -1993    -1977    -1953    -1934    -1923 
   -1910    -1891    -1871    -1850    -1829    -1810    -1796    -1784 
   -1767    -1746    -1728    -1711    -1705    -1707    -1715    -1719 
   -1723    -1732    -1742    -1755    -1780    -1815    -1852    -1891 
   -1922    -1944    -1958    -1971    -1979    -1991    -2001    -2010 
   -2016    -2018    -2010    -2003    -1995    -1980    -1964    -1945 
   -1930    -1922    -1918    -1910    -1899    -1885    -1867    -1856 
   -1850    -1844    -1842    -1844    -1842    -1838    -1836    -1826 
   -1821    -1823    -1829    -1837    -1848    -1863    -1885    -1912 
   -1937    -1956    -1971    -1984    -2000    -2015    -2030    -2039 
   -2041    -2033    -2014    -1984    -1958    -1930    -1903    -1876 
   -1840    -1795    -1755    -1718    -1683    -1651    -1622    -1594 
   -1574    -1556    -1539    -1528    -1525    -1522    -1518    -1514 
   -1514    -1516    -1513    -1514    -1522    -1533    -1540    -1541 
   -1534    -1525    -1512    -1494    -1474    -1451    -1431    -1418 
   -1405    -1394    -1379    -1364    -1352    -1341    -1332    -1327 
   -1323    -1317    -1314    -1313    -1313    -1312    -1308    -1301 
   -1282    -1267    -1258    -1250    -1240    -1227    -1200    -1165 
   -1135    -1115    -1105    -1104    -1098    -1096    -1097    -1104 
   -1116    -1129    -1140    -1148    -1155    -1159    -1159    -1154 
   -1148    -1146    -1147    -1148    -1146    -1142    -1144    -1154 
   -1171    -1197    -1223    -1246    -1263    -1278    -1296    -1310 
   -1313    -1310    -1306    -1304    -1305    -1306    -1301    -1297 
   -1296    -1293    -1298    -1318    -1350    -1382    -1405    -1420 
   -1425    -1431    -1435    -1429    -1417    -1399    -1383    -1371 
   -1363    -1358    -1356    -1359    -1370    -1383    -1395    -1410 
   -1426    -1436    -1441    -1448    -1455    -1463    -1476    -1493 
   -1507    -1520    -1528    -1533    -1545    -1561    -1575    -1580 
   -1584    -1588    -1591    -1601    -1614    -1624    -1632    -1648 
   -1658    -1668    -1682    -1694    -1709    -1726    -1744    -1759 
   -1769    -1773    -1773    -1769    -1768    -1764    -1760    -1759 
   -1757    -1753    -1755    -1761    -1769    -1775    -1772    -1761 
   -1753    -1750    -1750    -1750    -1745    -1734    -1718    -1698 
   -1675    -1653    -1628    -1601    -1572    -1548    -1535    -1535 
   -1534    -1528    -1525    -1528    -1537    -1557    -1584    -1611 
   -1642    -1675    -1710    -1746    -1791    -1844    -1895    -1952 
   -2007    -2046    -2081    -2118    -2147    -2170    -2184    -2187 
   -2187    -2182    -2173    -2165    -2158    -2154    -2149    -2143 
   -2135    -2128    -2126    -2120    -2111    -2107    -2104    -2110 
   -2118    -2123    -2128    -2139    -2154    -2168    -2178    -2185 
   -2193    -2201    -2215    -2245    -2280    -2317    -2354    -2388 
   -2424    -2457    -2481    -2501    -2513    -2523    -2539    -2552 
   -2565    -2582    -2601    -2620    -2641    -2663    -2686    -2704 
   -2709    -2706    -2701    -2693    -2675    -2651    -2636    -2627 
   -2609    -2587    -2565    -2548    -2525    -2490    -2458    -2431 
   -2396    -2354    -2326    -2307    -2281    -2253    -2232    -2214 
   -2189    -2168    -2146    -2114    -2072    -2033    -1989    -1937 
   -1887    -1841    -1790    -1742    -1706    -1667    -1628    -1594 
   -1549    -1501    -1468    -1441    -1412    -1389    -1371    -1363 
   -1362    -1372    -1389    -1397    -1401    -1414    -1431    -1448 
   -1471    -1489    -1501    -1507    -1501    -1497    -1513    -1517 
   -1495    -1490    -1495    -1479    -1475    -1497    -1507    -1513 
   -1528    -1537    -1541    -1570    -1606    -1632    -1663    -1696 
   -1714    -1718    -1728    -1741    -1757    -1787    -1825    -1856 
   -1881    -1911    -1937    -1956    -1971    -1985    -1996    -2003 
   -2012    -2020    -2025    -2030    -2029    -2015    -2003    -1998 
   -1995    -1998    -2006    -2003    -1993    -1984    -1969    -1961 
   -1961    -1942    -1904    -1871    -1846    -1829    -1818    -1804 
   -1788    -1769    -1746    -1719    -1696    -1672    -1640    -1601 
   -1563    -1528    -1498    -1467    -1421    -1377    -1344    -1313 
   -1282    -1256    -1216    -1175    -1155    -1135    -1113    -1105 
   -1094    -1080    -1075    -1078    -1088    -1111    -1138    -1158 
   -1179    -1206    -1233    -1256    -1274    -1287    -1305    -1321 
   -1327    -1334    -1351    -1366    -1374    -1386    -1402    -1417 
   -1431    -1448    -1455    -1456    -1459    -1459    -1462    -1471 
   -1490    -1509    -1524    -1540    -1560    -1582    -1611    -1647 
   -1679    -1710    -1738    -1763    -1790    -1811    -1831    -1856 
   -1878    -1896    -1910    -1923    -1944    -1958    -1962    -1961 
   -1960    -1956    -1949    -1938    -1922    -1907    -1891    -1875 
   -1859    -1846    -1841    -1844    -1854    -1863    -1859    -1850 
   -1838    -1826    -1821    -1823    -1833    -1850    -1873    -1902 
   -1934    -1958    -1981    -2008    -2031    -2037    -2034    -2034 
   -2033    -2026    -2016    -2004    -2000    -2010    -2016    -2018 
   -2016    -2006    -1993    -1981    -1961    -1942    -1933    -1933 
   -1944    -1956    -1949    -1934    -1923    -1917    -1907    -1898 
   -1890    -1887    -1888    -1880    -1863    -1846    -1829    -1814 
   -1792    -1763    -1734    -1709    -1679    -1641    -1599    -1561 
   -1525    -1483    -1443    -1417    -1398    -1382    -1371    -1362 
   -1350    -1341    -1333    -1324    -1328    -1339    -1341    -1344 
   -1358    -1377    -1389    -1391    -1390    -1391    -1404    -1413 
   -1402    -1383    -1372    -1363    -1362    -1366    -1370    -1379 
   -1391    -1391    -1390    -1399    -1412    -1420    -1422    -1422 
   -1429    -1441    -1444    -1440    -1445    -1457    -1472    -1480 
   -1482    -1483    -1486    -1485    -1468    -1444    -1417    -1386 
   -1344    -1289    -1225    -1167    -1124    -1086    -1044     -996 
    -946     -909     -890     -877     -869     -866     -858     -849 
    -845     -853     -870     -888     -903     -915     -924     -940 
    -965     -984     -996    -1000    -1000    -1003    -1005     -999 
    -986     -969     -943     -918     -903     -888     -872     -862 
    -854     -851     -857     -866     -877     -897     -920     -949 
    -978     -997    -1009    -1026    -1048    -1073    -1092    -1107 
   -1119    -1125    -1139    -1152    -1148    -1132    -1119    -1113 
   -1113    -1117    -1116    -1100    -1074    -1043    -1013     -992 
    -974     -953     -934     -919     -905     -900     -903     -899 
    -885     -877     -877     -866     -854     -845     -831     -819 
    -811     -807     -804     -800     -791     -783     -777     -777 
    -780     -777     -765     -746     -726     -710     -706     -718 
    -738     -758     -776     -788     -796     -803     -807     -807 
    -803     -791     -778     -773     -765     -757     -754     -753 
    -756     -770     -793     -819     -837     -845     -864     -895 
    -927     -938     -931     -924     -919     -912     -911     -907 
    -892     -881     -874     -864     -854     -842     -822     -799 
    -776     -754     -734     -711     -688     -668     -653     -649 
    -657     -669     -675     -676     -684     -702     -715     -719 
    -707     -685     -675     -669     -660     -650     -639     -626 
    -621     -618     -618     -623     -625     -619     -615     -611 
    -610     -615     -621     -622     -621     -622     -627     -633 
    -639     -645     -654     -665     -669     -665     -660     -646 
    -619     -591     -569     -549     -529     -513     -488     -464 
    -450     -445     -446     -453     -456     -454     -457     -451 
    -440     -433     -427     -425     -433     -436     -425     -418 
    -419     -423     -427     -427     -425     -432     -437     -440 
    -445     -448     -450     -456     -449     -425     -396     -376 
    -365     -361     -353     -341     -340     -344     -346     -359 
    -378     -395     -417     -438     -464     -499     -532     -558 
    -573     -576     -573     -579     -594     -606     -611     -621 
    -635     -648     -661     -665     -652     -638     -637     -643 
    -658     -668     -661     -648     -645     -653     -661     -658 
    -650     -641     -643     -657     -673     -681     -680     -675 
    -665     -661     -668     -673     -665     -645     -616     -579 
    -538     -503     -476     -449     -419     -387     -353     -324 
    -295     -263     -243     -244     -245     -236     -232     -232 
    -232     -230     -220     -203     -197     -193     -182     -178 
    -184     -186     -187     -190     -191     -193     -203     -214 
