Origin Time       2016/04/16 01:25:00
Lat.              32.753
Long.             130.762
Depth. (km)       12
Mag.              7.3
Station Code      IBR011
Station Lat.      36.1251
Station Long.     140.0903
Station Height(m) 26
Record Time       2016/04/16 01:29:40
Sampling Freq(Hz) 100Hz
Duration Time(s)  60
Dir.              E-W
Scale Factor      7845(gal)/8223790
Max. Acc. (gal)   0.700
Last Correction   2016/04/16 01:29:41
Memo.             
[...]
  -15107   -15115   -15126   -15133   -15136   -15136   -15142   -15155 
  -15163   -15168   -15172   -15179   -15183   -15190   -15198   -15201 
  -15201   -15205   -15210   -15219   -15223   -15225   -15229   -15234 
  -15236   -15237   -15239   -15242   -15246   -15249   -15249   -15249 
  -15249   -15246   -15249   -15250   -15248   -15248   -15252   -15259 
  -15261   -15256   -15252   -15257   -15259   -15253   -15250   -15249 
  -15246   -15242   -15245   -15245   -15237   -15237   -15239   -15237 
  -15237   -15234   -15228   -15225   -15218   -15214   -15217   -15213 
  -15206   -15201   -15198   -15203   -15201   -15184   -15176   -15179 
  -15175   -15163   -15156   -15153   -15149   -15140   -15137   -15132 
  -15118   -15110   -15109   -15107   -15097   -15086   -15075   -15070 
  -15068   -15061   -15051   -15041   -15031   -15021   -15016   -15013 
  -15002   -14985   -14975   -14972   -14968   -14958   -14947   -14936 
  -14928   -14920   -14914   -14905   -14891   -14887   -14882   -14870 
  -14864   -14858   -14848   -14841   -14833   -14827   -14821   -14813 
  -14806   -14790   -14779   -14782   -14779   -14767   -14759   -14756 
  -14750   -14746   -14744   -14739   -14729   -14723   -14721   -14723 
  -14720   -14712   -14701   -14701   -14706   -14704   -14704   -14704 
  -14696   -14689   -14692   -14696   -14696   -14686   -14681   -14692 
  -14694   -14690   -14689   -14690   -14693   -14694   -14693   -14693 
  -14694   -14690   -14689   -14692   -14696   -14697   -14697   -14701 
  -14704   -14701   -14704   -14709   -14710   -14709   -14708   -14713 
  -14717   -14714   -14719   -14725   -14724   -14725   -14732   -14740 
  -14746   -14743   -14740   -14746   -14755   -14759   -14757   -14756 
  -14763   -14770   -14775   -14785   -14790   -14785   -14787   -14800 
  -14808   -14810   -14810   -14816   -14820   -14823   -14829   -14835 
  -14840   -14845   -14852   -14859   -14867   -14868   -14868   -14877 
  -14883   -14885   -14887   -14894   -14899   -14906   -14913   -14922 
  -14925   -14929   -14937   -14945   -14945   -14945   -14949   -14959 
  -14965   -14968   -14974   -14982   -14987   -14990   -14991   -14995 
  -14998   -15001   -15005   -15012   -15014   -15020   -15021   -15021 
  -15028   -15031   -15031   -15030   -15033   -15036   -15034   -15036 
  -15039   -15037   -15039   -15043   -15043   -15040   -15037   -15036 
  -15036   -15034   -15031   -15031   -15029   -15024   -15024   -15025 
  -15021   -15020   -15017   -15009   -15001   -14998   -15002   -14998 
  -14995   -14991   -14982   -14968   -14964   -14968   -14967   -14964 
  -14960   -14952   -14944   -14940   -14939   -14932   -14924   -14920 
  -14916   -14906   -14897   -14889   -14881   -14881   -14882   -14868 
  -14856   -14858   -14856   -14846   -14843   -14839   -14831   -14825 
  -14823   -14816   -14808   -14802   -14798   -14794   -14793   -14793 
  -14789   -14779   -14775   -14770   -14767   -14771   -14773   -14766 
  -14763   -14763   -14760   -14757   -14762   -14764   -14763   -14763 
  -14766   -14767   -14766   -14767   -14769   -14771   -14774   -14774 
  -14778   -14785   -14787   -14790   -14793   -14794   -14800   -14810 
  -14816   -14823   -14829   -14828   -14829   -14839   -14845   -14851 
  -14859   -14868   -14875   -14877   -14881   -14894   -14904   -14910 
  -14918   -14925   -14931   -14936   -14943   -14953   -14965   -14976 
  -14982   -14990   -14998   -15005   -15014   -15026   -15033   -15040 
  -15054   -15066   -15071   -15080   -15093   -15107   -15118   -15121 
  -15128   -15138   -15149   -15161   -15172   -15178   -15183   -15188 
  -15205   -15223   -15228   -15225   -15232   -15244   -15253   -15261 
  -15272   -15282   -15284   -15291   -15300   -15305   -15310   -15317 
  -15322   -15329   -15336   -15340   -15348   -15353   -15353   -15358 
  -15364   -15368   -15373   -15377   -15385   -15394   -15391   -15388 
  -15395   -15403   -15406   -15410   -15414   -15414   -15414   -15417 
  -15412   -15412   -15417   -15423   -15424   -15421   -15418   -15419 
  -15417   -15414   -15412   -15408   -15407   -15406   -15404   -15402 
  -15396   -15394   -15392   -15384   -15377   -15371   -15365   -15361 
  -15353   -15342   -15340   -15334   -15323   -15319   -15318   -15305 
  -15294   -15287   -15277   -15264   -15256   -15250   -15244   -15236 
  -15219   -15205   -15201   -15196   -15184   -15169   -15156   -15144 
  -15132   -15124   -15117   -15103   -15086   -15071   -15063   -15053 
  -15040   -15028   -15014   -14998   -14982   -14968   -14958   -14947 
  -14931   -14913   -14899   -14889   -14877   -14860   -14841   -14827 
  -14816   -14805   -14790   -14773   -14752   -14743   -14735   -14719 
  -14701   -14686   -14671   -14659   -14648   -14636   -14620   -14605 
  -14597   -14582   -14566   -14555   -14542   -14531   -14528   -14520 
  -14505   -14486   -14473   -14470   -14465   -14453   -14442   -14430 
  -14416   -14415   -14416   -14403   -14385   -14376   -14376   -14377 
  -14369   -14358   -14354   -14354   -14354   -14351   -14346   -14343 
  -14339   -14335   -14334   -14334   -14330   -14327   -14328   -14337 
  -14339   -14341   -14345   -14342   -14342   -14353   -14362   -14368 
  -14373   -14376   -14377   -14382   -14391   -14399   -14407   -14418 
  -14426   -14436   -14449   -14454   -14461   -14472   -14484   -14499 
  -14511   -14517   -14529   -14543   -14558   -14569   -14580   -14594 
  -14607   -14619   -14640   -14656   -14663   -14673   -14688   -14702 
  -14721   -14743   -14755   -14762   -14771   -14790   -14816   -14831 
  -14840   -14854   -14870   -14886   -14904   -14918   -14929   -14944 
  -14960   -14975   -14990   -15005   -15018   -15029   -15043   -15057 
  -15074   -15088   -15103   -15117   -15128   -15140   -15152   -15163 
  -15176   -15190   -15205   -15214   -15223   -15238   -15248   -15260 
  -15272   -15279   -15280   -15295   -15315   -15321   -15321   -15329 
  -15338   -15346   -15360   -15367   -15365   -15369   -15380   -15390 
  -15394   -15395   -15400   -15406   -15410   -15414   -15414   -15419 
  -15427   -15429   -15422   -15422   -15429   -15431   -15433   -15439 
  -15439   -15433   -15431   -15435   -15434   -15431   -15430   -15427 
  -15424   -15426   -15429   -15426   -15421   -15417   -15411   -15408 
  -15410   -15404   -15399   -15398   -15394   -15384   -15380   -15381 
  -15377   -15369   -15368   -15365   -15357   -15344   -15340   -15337 
  -15333   -15326   -15317   -15313   -15314   -15305   -15298   -15291 
  -15282   -15282   -15282   -15269   -15260   -15252   -15249   -15252 
  -15245   -15233   -15226   -15222   -15218   -15214   -15206   -15202 
  -15199   -15192   -15188   -15184   -15176   -15175   -15172   -15167 
  -15168   -15163   -15149   -15144   -15147   -15145   -15142   -15142 
  -15138   -15130   -15124   -15125   -15125   -15121   -15117   -15117 
  -15113   -15107   -15105   -15106   -15110   -15106   -15097   -15097 
  -15097   -15094   -15091   -15091   -15090   -15084   -15076   -15078 
  -15079   -15076   -15074   -15070   -15066   -15064   -15063   -15059 
  -15054   -15054   -15053   -15051   -15051   -15047   -15037   -15033 
  -15031   -15033   -15031   -15026   -15024   -15018   -15014   -15014 
  -15007   -15002   -15002   -14998   -14993   -14991   -14988   -14985 
  -14985   -14979   -14972   -14968   -14964   -14963   -14962   -14959 
  -14955   -14951   -14949   -14951   -14948   -14939   -14925   -14917 
  -14924   -14931   -14926   -14924   -14918   -14914   -14914   -14909 
  -14909   -14912   -14904   -14897   -14899   -14898   -14897   -14897 
  -14893   -14895   -14901   -14897   -14897   -14898   -14893   -14891 
  -14891   -14897   -14902   -14906   -14908   -14906   -14906   -14912 
  -14914   -14918   -14921   -14917   -14921   -14929   -14931   -14931 
  -14937   -14944   -14947   -14944   -14945   -14952   -14953   -14952 
  -14962   -14971   -14975   -14980   -14979   -14980   -14990   -14991 
  -14988   -14997   -15002   -15003   -15007   -15013   -15014   -15013 
  -15017   -15025   -15028   -15034   -15041   -15039   -15034   -15034 
  -15034   -15041   -15045   -15043   -15044   -15049   -15049   -15049 
  -15048   -15047   -15051   -15049   -15043   -15043   -15041   -15036 
  -15039   -15037   -15030   -15028   -15030   -15028   -15016   -15001 
  -14993   -14994   -14994   -14983   -14974   -14967   -14952   -14943 
  -14939   -14932   -14921   -14910   -14904   -14899   -14883   -14863 
  -14852   -14846   -14845   -14835   -14813   -14804   -14798   -14783 
  -14769   -14763   -14756   -14746   -14729   -14716   -14708   -14698 
  -14686   -14677   -14666   -14654   -14644   -14635   -14625   -14615 
  -14604   -14593   -14582   -14577   -14571   -14559   -14551   -14547 
  -14536   -14527   -14521   -14509   -14504   -14511   -14508   -14496 
  -14490   -14484   -14480   -14473   -14470   -14467   -14462   -14457 
  -14454   -14453   -14451   -14449   -14447   -14450   -14453   -14453 
  -14449   -14443   -14445   -14442   -14439   -14446   -14451   -14447 
  -14449   -14453   -14454   -14454   -14454   -14455   -14459   -14459 
  -14466   -14476   -14470   -14466   -14473   -14482   -14485   -14490 
  -14499   -14505   -14513   -14519   -14517   -14520   -14531   -14532 
  -14534   -14548   -14558   -14558   -14559   -14565   -14572   -14584 
  -14592   -14602   -14612   -14617   -14625   -14632   -14638   -14654 
  -14666   -14671   -14678   -14690   -14702   -14716   -14724   -14731 
  -14739   -14752   -14763   -14774   -14787   -14801   -14810   -14823 
  -14835   -14852   -14871   -14882   -14894   -14913   -14925   -14937 
  -14948   -14959   -14976   -14993   -15007   -15020   -15031   -15047 
  -15063   -15080   -15099   -15114   -15122   -15134   -15152   -15171 
  -15187   -15201   -15215   -15229   -15245   -15261   -15272   -15286 
  -15299   -15313   -15329   -15340   -15346   -15357   -15367   -15379 
  -15396   -15412   -15422   -15427   -15435   -15450   -15462   -15469 
  -15475   -15484   -15493   -15500   -15506   -15508   -15512   -15522 
  -15530   -15530   -15535   -15545   -15546   -15543   -15546   -15550 
  -15552   -15550   -15552   -15553   -15550   -15556   -15556   -15549 
  -15546   -15549   -15546   -15549   -15546   -15535   -15529   -15530 
  -15529   -15526   -15520   -15512   -15503   -15498   -15498   -15492 
  -15480   -15476   -15468   -15457   -15450   -15444   -15437   -15430 
  -15421   -15412   -15404   -15394   -15379   -15364   -15357   -15353 
  -15340   -15330   -15323   -15309   -15295   -15284   -15271   -15263 
  -15250   -15232   -15215   -15203   -15194   -15187   -15176   -15160 
  -15148   -15132   -15114   -15106   -15094   -15074   -15054   -15041 
  -15029   -15014   -14994   -14976   -14967   -14955   -14941   -14925 
  -14908   -14898   -14883   -14860   -14845   -14835   -14821   -14808 
  -14790   -14773   -14755   -14740   -14733   -14720   -14697   -14685 
  -14673   -14652   -14634   -14621   -14613   -14600   -14584   -14570 
  -14557   -14546   -14539   -14527   -14511   -14494   -14484   -14478 
  -14469   -14455   -14446   -14439   -14430   -14420   -14407   -14401 
  -14396   -14376   -14362   -14364   -14366   -14362   -14357   -14351 
  -14342   -14337   -14337   -14338   -14334   -14327   -14321   -14320 
  -14321   -14319   -14315   -14321   -14330   -14331   -14331   -14328 
  -14330   -14334   -14331   -14339   -14347   -14347   -14353   -14364 
  -14369   -14377   -14384   -14392   -14407   -14415   -14420   -14428 
  -14432   -14438   -14451   -14472   -14486   -14486   -14490   -14505 
  -14523   -14539   -14550   -14558   -14571   -14586   -14597   -14611 
  -14631   -14650   -14661   -14674   -14692   -14704   -14720   -14732 
  -14750   -14770   -14782   -14794   -14812   -14828   -14845   -14866 
  -14883   -14895   -14913   -14932   -14953   -14964   -14976   -14997 
  -15017   -15031   -15043   -15057   -15078   -15099   -15114   -15126 
  -15148   -15167   -15178   -15195   -15210   -15221   -15239   -15260 
  -15276   -15288   -15300   -15318   -15329   -15341   -15364   -15380 
  -15388   -15402   -15414   -15426   -15446   -15466   -15475   -15480 
  -15488   -15499   -15513   -15531   -15543   -15549   -15550   -15558 
  -15573   -15579   -15587   -15599   -15604   -15615   -15624   -15622 
  -15627   -15635   -15642   -15651   -15651   -15653   -15661   -15658 
  -15654   -15654   -15654   -15668   -15678   -15669   -15664   -15664 
  -15670   -15673   -15662   -15650   -15650   -15654   -15658   -15649 
  -15634   -15627   -15622   -15620   -15622   -15615   -15603   -15589 
  -15579   -15576   -15566   -15554   -15542   -15529   -15513   -15500 
  -15498   -15495   -15477   -15450   -15434   -15427   -15418   -15400 
  -15379   -15365   -15358   -15345   -15325   -15303   -15286   -15272 
  -15259   -15239   -15218   -15195   -15178   -15160   -15134   -15122 
  -15115   -15095   -15071   -15045   -15024   -15012   -14995   -14975 
  -14959   -14940   -14921   -14895   -14868   -14858   -14848   -14827 
  -14804   -14783   -14764   -14742   -14717   -14698   -14683   -14671 
  -14659   -14635   -14608   -14596   -14586   -14572   -14553   -14529 
  -14516   -14508   -14490   -14465   -14447   -14446   -14442   -14420 
  -14393   -14377   -14372   -14364   -14354   -14343   -14331   -14326 
  -14315   -14300   -14288   -14287   -14280   -14270   -14261   -14254 
  -14255   -14255   -14249   -14239   -14237   -14239   -14239   -14238 
  -14233   -14229   -14234   -14233   -14224   -14230   -14238   -14238 
  -14242   -14249   -14246   -14250   -14255   -14254   -14268   -14281 
  -14280   -14287   -14295   -14296   -14307   -14320   -14327   -14335 
  -14342   -14346   -14354   -14364   -14373   -14384   -14397   -14407 
  -14416   -14422   -14430   -14440   -14449   -14459   -14470   -14473 
  -14478   -14496   -14513   -14520   -14528   -14542   -14548   -14554 
  -14566   -14584   -14596   -14596   -14600   -14615   -14624   -14638 
  -14654   -14659   -14669   -14683   -14688   -14690   -14704   -14716 
  -14725   -14733   -14742   -14744   -14754   -14782   -14805   -14805 
  -14808   -14820   -14835   -14845   -14845   -14848   -14866   -14883 
  -14893   -14899   -14910   -14926   -14944   -14951   -14953   -14963 
  -14985   -15005   -15005   -14995   -15007   -15041   -15063   -15066 
  -15063   -15072   -15095   -15117   -15120   -15115   -15122   -15142 
  -15161   -15176   -15184   -15188   -15203   -15225   -15237   -15236 
  -15232   -15238   -15256   -15272   -15276   -15279   -15286   -15288 
  -15292   -15313   -15334   -15338   -15329   -15329   -15340   -15350 
  -15361   -15367   -15360   -15356   -15361   -15371   -15379   -15381 
  -15379   -15380   -15385   -15388   -15388   -15388   -15387   -15387 
  -15392   -15399   -15402   -15398   -15390   -15380   -15379   -15385 
  -15383   -15376   -15375   -15373   -15371   -15371   -15369   -15361 
  -15354   -15356   -15358   -15354   -15344   -15340   -15331   -15318 
  -15314   -15318   -15321   -15311   -15295   -15288   -15290   -15288 
  -15280   -15271   -15264   -15259   -15252   -15245   -15241   -15237 
  -15222   -15210   -15206   -15203   -15198   -15190   -15175   -15163 
  -15155   -15148   -15149   -15148   -15140   -15126   -15115   -15111 
  -15102   -15084   -15078   -15076   -15066   -15051   -15041   -15043 
  -15040   -15025   -15013   -15006   -14995   -14990   -14986   -14972 
  -14965   -14959   -14947   -14943   -14940   -14929   -14920   -14912 
  -14901   -14889   -14879   -14874   -14870   -14860   -14855   -14851 
  -14841   -14836   -14833   -14825   -14816   -14812   -14804   -14790 
  -14783   -14775   -14769   -14769   -14769   -14764   -14757   -14751 
  -14742   -14731   -14727   -14732   -14729   -14720   -14712   -14706 
  -14702   -14701   -14694   -14689   -14689   -14689   -14681   -14673 
  -14675   -14675   -14665   -14662   -14663   -14656   -14654   -14661 
  -14665   -14659   -14648   -14644   -14648   -14646   -14642   -14642 
  -14643   -14647   -14647   -14642   -14644   -14650   -14650   -14648 
  -14648   -14650   -14650   -14648   -14656   -14662   -14661   -14667 
  -14677   -14675   -14673   -14679   -14688   -14685   -14681   -14683 
  -14689   -14692   -14697   -14704   -14708   -14713   -14720   -14724 
  -14731   -14735   -14731   -14729   -14733   -14735   -14739   -14751 
  -14756   -14755   -14757   -14764   -14775   -14785   -14783   -14780 
  -14785   -14790   -14800   -14801   -14800   -14804   -14809   -14817 
  -14827   -14827   -14827   -14832   -14836   -14841   -14844   -14844 
  -14846   -14848   -14854   -14863   -14867   -14871   -14874   -14871 
  -14871   -14875   -14881   -14885   -14887   -14887   -14887   -14887 
  -14894   -14899   -14901   -14908   -14910   -14906   -14904   -14908 
  -14916   -14918   -14913   -14914   -14922   -14936   -14939   -14929 
  -14926   -14937   -14941   -14939   -14939   -14941   -14943   -14944 
  -14951   -14962   -14963   -14959   -14964   -14970   -14967   -14965 
  -14970   -14971   -14974   -14975   -14972   -14971   -14975   -14980 
  -14983   -14987   -14990   -14988   -14988   -14990   -14988   -14985 
  -14988   -14988   -14978   -14978   -14991   -14995   -14987   -14982 
  -14978   -14974   -14974   -14971   -14968   -14974   -14970   -14958 
  -14955   -14959   -14962   -14958   -14948   -14943   -14941   -14937 
  -14936   -14931   -14925   -14920   -14912   -14912   -14909   -14899 
  -14901   -14901   -14889   -14879   -14870   -14864   -14870   -14871 
  -14864   -14859   -14855   -14851   -14846   -14839   -14832   -14829 
  -14823   -14823   -14825   -14823   -14823   -14827   -14813   -14802 
  -14804   -14809   -14805   -14804   -14806   -14804   -14802   -14805 
  -14808   -14809   -14816   -14816   -14812   -14809   -14808   -14808 
  -14816   -14821   -14823   -14827   -14828   -14832   -14839   -14844 
  -14852   -14856   -14854   -14858   -14859   -14860   -14868   -14875 
  -14878   -14886   -14891   -14898   -14908   -14913   -14910   -14913 
  -14924   -14931   -14932   -14935   -14940   -14952   -14962   -14962 
  -14963   -14971   -14978   -14985   -14991   -14997   -14998   -15001 
  -15007   -15014   -15014   -15013   -15020   -15031   -15040   -15044 
  -15047   -15051   -15052   -15054   -15059   -15068   -15076   -15078 
  -15080   -15086   -15090   -15091   -15093   -15091   -15097   -15102 
  -15101   -15105   -15113   -15109   -15107   -15114   -15118   -15121 
  -15125   -15128   -15126   -15122   -15129   -15138   -15140   -15137 
  -15134   -15136   -15147   -15153   -15152   -15149   -15148   -15148 
  -15155   -15159   -15159   -15160   -15160   -15167   -15173   -15169 
  -15169   -15176   -15176   -15176   -15182   -15186   -15187   -15187 
  -15183   -15184   -15194   -15201   -15203   -15201   -15201   -15206 
  -15209   -15206   -15210   -15214   -15214   -15217   -15222   -15222 
  -15219   -15217   -15215   -15222   -15228   -15229   -15225   -15221 
  -15222   -15226   -15229   -15237   -15238   -15232   -15226   -15228 
  -15228   -15228   -15229   -15225   -15223   -15232   -15234   -15225 
  -15218   -15222   -15225   -15222   -15221   -15221   -15219   -15219 
  -15221   -15218   -15213   -15213   -15210   -15206   -15209   -15213 
  -15209   -15206   -15206   -15202   -15194   -15192   -15201   -15202 
