Origin Time       2016/04/16 01:25:00
Lat.              32.753
Long.             130.762
Depth. (km)       12
Mag.              7.3
Station Code      IBR017
Station Lat.      35.9537
Station Long.     140.3194
Station Height(m) 17
Record Time       2016/04/16 01:30:21
Sampling Freq(Hz) 100Hz
Duration Time(s)  60
Dir.              N-S
Scale Factor      7845(gal)/8223790
Max. Acc. (gal)   1.253
Last Correction   2016/04/16 01:30:23
Memo.             
   13896    13896    13894    13892    13892    13888    13884    13879 
   13876    13872    13871    13869    13868    13865    13863    13860 
   13853    13846    13846    13844    13837    13834    13834    13829 
   13824    13821    13817    13811    13806    13802    13798    13794 
   13790    13787    13780    13773    13772    13770    13760    13751 
   13744    13740    13738    13730    13724    13722    13718    13713 
   13706    13697    13693    13687    13680    13676    13672    13667 
   13660    13653    13651    13651    13647    13637    13631    13626 
   13620    13616    13614    13616    13613    13609    13603    13598 
   13593    13591    13587    13586    13582    13576    13576    13578 
   13575    13572    13570    13567    13565    13560    13559    13563 
   13563    13562    13562    13563    13564    13563    13562    13562 
   13562    13564    13564    13563    13567    13571    13572    13574 
   13578    13579    13582    13583    13586    13590    13591    13591 
   13597    13598    13601    13605    13606    13609    13613    13614 
   13614    13617    13620    13621    13628    13631    13630    13631 
   13633    13631    13635    13640    13643    13644    13645    13645 
   13648    13647    13647    13651    13652    13652    13649    13647 
   13647    13648    13647    13647    13647    13645    13644    13640 
   13640    13641    13637    13637    13636    13630    13631    13631 
   13626    13624    13624    13621    13618    13610    13603    13598 
   13594    13593    13590    13586    13585    13581    13575    13574 
   13568    13560    13555    13549    13545    13540    13536    13535 
   13528    13520    13514    13509    13504    13497    13485    13477 
   13475    13474    13468    13460    13455    13451    13443    13433 
   13427    13423    13420    13409    13404    13401    13394    13386 
   13380    13378    13375    13370    13363    13359    13356    13352 
   13346    13340    13338    13336    13335    13332    13329    13325 
   13321    13319    13316    13313    13311    13309    13309    13311 
   13311    13306    13304    13304    13301    13298    13298    13300 
   13301    13304    13306    13306    13304    13306    13306    13302 
   13302    13304    13306    13311    13314    13317    13319    13320 
   13320    13319    13320    13324    13323    13323    13327    13328 
   13329    13333    13335    13336    13339    13342    13342    13340 
   13342    13346    13347    13352    13356    13360    13362    13360 
   13358    13362    13367    13370    13370    13371    13377    13379 
   13379    13385    13392    13394    13396    13400    13405    13408 
   13410    13413    13417    13421    13428    13428    13429    13436 
   13441    13446    13452    13458    13463    13466    13468    13475 
   13482    13487    13489    13495    13501    13505    13510    13518 
   13521    13522    13525    13531    13537    13543    13544    13545 
   13552    13558    13555    13560    13568    13574    13578    13581 
   13585    13588    13587    13588    13593    13594    13598    13605 
   13602    13603    13609    13608    13608    13610    13609    13610 
   13610    13610    13614    13616    13616    13618    13616    13614 
   13616    13613    13612    13613    13612    13614    13613    13610 
   13609    13610    13609    13608    13605    13603    13601    13601 
   13598    13597    13598    13598    13594    13590    13590    13591 
   13590    13588    13591    13591    13586    13579    13579    13585 
   13585    13578    13576    13581    13581    13576    13575    13575 
   13574    13572    13574    13574    13571    13572    13572    13568 
   13568    13571    13570    13565    13565    13567    13568    13565 
   13564    13564    13563    13560    13559    13558    13559    13559 
   13559    13555    13555    13552    13549    13547    13544    13544 
   13543    13536    13536    13539    13533    13529    13528    13520 
   13516    13520    13518    13510    13509    13504    13497    13494 
   13491    13482    13477    13473    13470    13466    13462    13459 
   13456    13444    13433    13429    13423    13419    13416    13409 
   13404    13400    13393    13386    13377    13370    13366    13356 
   13347    13346    13340    13331    13324    13320    13313    13301 
   13292    13288    13281    13275    13270    13265    13257    13248 
   13238    13232    13228    13223    13216    13209    13205    13201 
   13192    13182    13180    13177    13167    13158    13154    13151 
   13146    13139    13138    13132    13124    13120    13116    13109 
   13101    13096    13093    13085    13082    13081    13076    13069 
   13063    13059    13055    13051    13046    13043    13039    13036 
   13034    13030    13024    13020    13018    13015    13008    13007 
   13005    12999    12992    12989    12989    12989    12989    12985 
   12980    12976    12972    12972    12974    12970    12969    12966 
   12960    12957    12958    12957    12958    12960    12957    12954 
   12957    12953    12946    12943    12946    12946    12945    12946 
   12947    12946    12942    12941    12941    12945    12949    12946 
   12946    12947    12947    12943    12942    12945    12946    12946 
   12951    12957    12960    12960    12954    12951    12954    12957 
   12961    12969    12972    12970    12973    12977    12982    12985 
   12988    12988    12989    12993    12997    12997    13000    13004 
   13009    13015    13018    13022    13026    13028    13034    13038 
   13038    13043    13051    13054    13057    13061    13065    13072 
   13077    13082    13089    13093    13096    13101    13103    13109 
   13115    13120    13124    13131    13139    13146    13147    13153 
   13159    13166    13171    13180    13186    13190    13194    13203 
   13212    13219    13224    13228    13236    13244    13250    13257 
   13263    13270    13278    13285    13294    13302    13304    13312 
   13324    13332    13339    13347    13356    13366    13375    13378 
   13382    13393    13401    13406    13416    13428    13437    13443 
   13446    13454    13462    13471    13478    13483    13495    13505 
   13512    13518    13521    13528    13540    13547    13549    13558 
   13567    13578    13586    13593    13601    13608    13612    13617 
   13626    13635    13640    13647    13652    13656    13664    13670 
   13678    13691    13697    13702    13710    13713    13714    13721 
   13729    13732    13738    13751    13759    13763    13771    13773 
   13776    13780    13784    13791    13801    13805    13813    13819 
   13825    13828    13829    13832    13836    13841    13848    13853 
   13856    13864    13871    13872    13872    13872    13878    13880 
   13883    13890    13894    13896    13900    13900    13903    13909 
   13909    13905    13905    13911    13913    13915    13917    13914 
   13917    13918    13915    13915    13919    13919    13917    13918 
   13918    13914    13911    13914    13917    13914    13911    13911 
   13913    13910    13905    13905    13907    13905    13900    13898 
   13899    13898    13894    13895    13898    13892    13886    13883 
   13880    13878    13875    13872    13872    13871    13863    13857 
   13856    13853    13848    13839    13836    13833    13829    13825 
   13818    13814    13811    13803    13794    13788    13788    13784 
   13776    13768    13761    13756    13748    13740    13733    13726 
   13717    13703    13694    13687    13678    13670    13664    13659 
   13649    13639    13626    13616    13603    13594    13587    13576 
   13563    13554    13541    13528    13514    13505    13494    13479 
   13467    13456    13444    13433    13423    13405    13390    13380 
   13367    13351    13340    13328    13312    13300    13288    13271 
   13259    13247    13232    13219    13208    13194    13180    13166 
   13151    13139    13124    13109    13096    13084    13073    13061 
   13047    13032    13019    13008    12992    12974    12964    12953 
   12943    12934    12920    12907    12896    12884    12872    12860 
   12849    12837    12826    12818    12807    12796    12785    12775 
   12764    12753    12742    12734    12729    12719    12711    12702 
   12692    12680    12671    12663    12657    12649    12644    12644 
   12638    12625    12614    12609    12599    12595    12594    12588 
   12583    12576    12568    12561    12557    12555    12548    12545 
   12541    12538    12534    12526    12522    12521    12521    12519 
   12515    12514    12513    12513    12507    12505    12507    12507 
   12503    12502    12505    12507    12507    12510    12511    12509 
   12507    12511    12515    12519    12522    12526    12528    12528 
   12532    12538    12545    12545    12546    12555    12563    12568 
   12573    12580    12587    12595    12603    12610    12618    12630 
   12638    12644    12653    12665    12673    12683    12694    12704 
   12718    12729    12741    12756    12766    12776    12792    12806 
   12816    12831    12850    12866    12877    12893    12910    12924 
   12939    12958    12977    12992    13008    13027    13046    13063 
   13086    13105    13117    13136    13158    13176    13197    13220 
   13238    13257    13275    13294    13314    13332    13350    13369 
   13392    13413    13435    13455    13475    13497    13516    13532 
   13549    13571    13593    13616    13636    13653    13675    13697 
   13710    13726    13752    13772    13788    13809    13829    13849 
   13867    13886    13907    13926    13942    13961    13977    13992 
   14013    14033    14047    14069    14094    14110    14125    14141 
   14152    14165    14183    14200    14219    14237    14255    14272 
   14285    14304    14321    14335    14350    14364    14380    14395 
   14405    14420    14439    14453    14467    14478    14488    14501 
   14516    14529    14542    14554    14565    14577    14586    14596 
   14609    14620    14627    14635    14648    14659    14665    14669 
   14677    14688    14698    14704    14710    14717    14723    14725 
   14728    14729    14729    14732    14743    14752    14755    14756 
   14755    14754    14751    14750    14751    14751    14750    14752 
   14750    14747    14751    14746    14736    14735    14733    14725 
   14719    14714    14713    14706    14700    14692    14679    14671 
   14667    14659    14647    14638    14634    14625    14615    14605 
   14597    14584    14569    14562    14554    14543    14527    14511 
   14504    14496    14480    14462    14449    14438    14428    14415 
   14397    14382    14370    14354    14343    14331    14315    14293 
   14277    14262    14249    14233    14215    14202    14189    14172 
   14153    14138    14123    14107    14088    14071    14057    14038 
   14018    14002    13986    13967    13948    13936    13919    13898 
   13879    13864    13848    13829    13813    13794    13776    13760 
   13740    13716    13702    13694    13675    13649    13633    13624 
   13606    13583    13563    13547    13533    13517    13498    13478 
   13460    13446    13431    13413    13396    13378    13359    13344 
   13329    13312    13293    13275    13263    13251    13235    13216 
   13200    13184    13167    13150    13134    13120    13109    13096 
   13082    13063    13046    13035    13024    13011    12999    12985 
   12974    12964    12949    12934    12923    12914    12900    12888 
   12879    12868    12858    12846    12833    12822    12815    12806 
   12795    12783    12773    12765    12756    12749    12738    12727 
   12718    12708    12700    12695    12685    12676    12669    12661 
   12653    12644    12634    12626    12621    12617    12611    12606 
   12596    12583    12571    12567    12560    12553    12546    12538 
   12532    12525    12519    12518    12511    12501    12496    12491 
   12482    12474    12465    12463    12461    12459    12456    12452 
   12445    12438    12432    12425    12421    12421    12421    12421 
   12421    12417    12413    12410    12405    12405    12406    12406 
   12402    12402    12403    12406    12410    12410    12415    12418 
   12414    12411    12415    12420    12426    12432    12437    12445 
   12452    12455    12456    12459    12467    12475    12483    12494 
   12505    12510    12514    12522    12530    12540    12553    12565 
   12575    12580    12587    12596    12610    12622    12634    12650 
   12665    12675    12688    12704    12715    12726    12741    12756 
   12772    12784    12798    12814    12831    12845    12857    12873 
   12893    12910    12921    12938    12957    12977    12991    13001 
   13018    13036    13055    13073    13089    13108    13128    13143 
   13158    13174    13196    13212    13224    13246    13267    13284 
   13301    13317    13331    13350    13370    13389    13409    13428 
   13446    13463    13478    13497    13514    13531    13552    13570 
   13581    13598    13620    13636    13649    13667    13690    13711 
   13728    13743    13759    13775    13787    13803    13824    13842 
   13863    13883    13898    13914    13927    13938    13954    13973 
   13990    14007    14022    14038    14054    14069    14083    14096 
   14111    14126    14138    14152    14166    14179    14193    14208 
   14218    14229    14242    14253    14262    14276    14288    14298 
   14312    14323    14331    14338    14349    14364    14372    14377 
   14388    14397    14403    14409    14418    14430    14442    14443 
   14446    14455    14462    14469    14478    14482    14486    14489 
   14493    14501    14508    14511    14513    14517    14520    14524 
   14524    14524    14526    14528    14532    14535    14534    14534 
   14534    14531    14529    14532    14532    14531    14527    14526 
   14524    14521    14519    14517    14513    14511    14508    14501 
   14496    14492    14488    14485    14482    14476    14473    14466 
   14457    14449    14445    14439    14434    14427    14420    14413 
   14405    14396    14388    14381    14372    14359    14346    14337 
   14330    14321    14312    14304    14293    14283    14272    14257 
   14243    14235    14226    14212    14200    14188    14175    14161 
   14146    14133    14119    14106    14090    14075    14061    14047 
   14033    14019    14006    13991    13975    13957    13938    13923 
   13910    13895    13876    13857    13839    13826    13813    13799 
   13780    13761    13747    13732    13711    13691    13672    13651 
   13636    13621    13605    13587    13571    13551    13531    13513 
   13497    13477    13454    13433    13420    13404    13380    13366 
   13352    13332    13308    13286    13271    13255    13234    13215 
   13197    13180    13163    13142    13122    13108    13089    13065 
   13047    13030    13011    12992    12976    12962    12945    12921 
   12900    12883    12869    12853    12835    12818    12802    12781 
   12764    12750    12737    12721    12703    12691    12676    12656 
   12641    12630    12614    12596    12586    12577    12564    12548 
   12538    12528    12515    12502    12488    12476    12468    12460 
   12448    12438    12434    12429    12415    12401    12393    12391 
   12387    12379    12373    12371    12361    12353    12352    12351 
   12345    12343    12339    12333    12333    12334    12332    12330 
   12333    12333    12332    12334    12334    12332    12333    12337 
   12343    12347    12349    12356    12360    12360    12363    12371 
   12378    12383    12384    12391    12401    12410    12417    12424 
   12433    12445    12452    12455    12465    12479    12487    12496 
   12502    12511    12525    12534    12541    12553    12567    12575 
   12584    12598    12610    12619    12627    12640    12652    12667 
   12680    12690    12698    12710    12725    12734    12739    12752 
   12766    12781    12799    12812    12819    12830    12841    12849 
   12862    12872    12881    12895    12911    12926    12939    12947 
   12954    12964    12974    12987    13001    13015    13027    13035 
   13047    13059    13068    13078    13090    13100    13113    13124 
   13128    13135    13149    13162    13171    13181    13192    13205 
   13216    13223    13231    13238    13244    13257    13269    13277 
   13288    13297    13308    13319    13327    13336    13344    13351 
   13358    13363    13371    13386    13396    13402    13413    13420 
   13425    13435    13444    13452    13460    13468    13478    13485 
   13489    13500    13510    13518    13524    13529    13537    13545 
   13554    13560    13570    13578    13583    13587    13593    13602 
   13610    13616    13621    13633    13643    13648    13649    13653 
   13663    13672    13676    13684    13691    13694    13697    13701 
   13709    13720    13725    13728    13732    13737    13744    13745 
   13747    13756    13763    13763    13763    13772    13780    13786 
   13788    13791    13796    13802    13799    13799    13809    13815 
   13813    13814    13821    13826    13833    13837    13834    13833 
   13837    13837    13841    13848    13849    13852    13856    13859 
   13860    13857    13855    13856    13860    13864    13864    13868 
   13869    13865    13868    13872    13871    13868    13868    13872 
   13875    13868    13864    13869    13869    13867    13868    13872 
   13875    13871    13867    13867    13863    13859    13861    13864 
   13867    13867    13863    13857    13852    13852    13852    13848 
   13851    13852    13849    13846    13844    13845    13844    13837 
   13839    13841    13834    13834    13833    13825    13821    13819 
   13819    13819    13815    13813    13810    13806    13805    13799 
   13791    13788    13787    13786    13783    13782    13780    13773 
   13763    13757    13757    13760    13756    13751    13748    13745 
   13738    13732    13729    13728    13725    13721    13720    13717 
   13710    13702    13697    13691    13690    13687    13683    13680 
   13679    13676    13674    13668    13663    13663    13659    13653 
   13652    13651    13648    13647    13643    13639    13636    13630 
   13629    13629    13628    13624    13620    13620    13621    13618 
   13616    13613    13609    13605    13605    13603    13602    13605 
   13603    13595    13593    13594    13590    13586    13586    13587 
   13587    13586    13587    13586    13579    13572    13568    13570 
   13572    13570    13568    13571    13570    13562    13555    13552 
   13547    13543    13541    13540    13540    13540    13537    13531 
   13525    13524    13520    13513    13508    13505    13500    13495 
   13495    13487    13475    13474    13475    13468    13462    13458 
   13451    13443    13435    13428    13425    13423    13417    13410 
   13406    13398    13390    13383    13379    13375    13366    13356 
   13354    13350    13342    13333    13328    13323    13317    13309 
   13300    13296    13293    13286    13277    13270    13266    13263 
   13255    13251    13248    13238    13232    13230    13225    13221 
