Origin Time       2016/04/16 01:25:00
Lat.              32.753
Long.             130.762
Depth. (km)       12
Mag.              7.3
Station Code      IBR009
Station Lat.      36.1848
Station Long.     139.7037
Station Height(m) 17
Record Time       2016/04/16 01:29:44
Sampling Freq(Hz) 100Hz
Duration Time(s)  86
Dir.              N-S
Scale Factor      7845(gal)/8223790
Max. Acc. (gal)   1.758
Last Correction   2016/04/16 01:29:46
Memo.             
[...]
    1097     1088     1085     1088     1092     1090     1081     1074 
    1075     1085     1088     1081     1075     1069     1065     1069 
    1075     1075     1073     1069     1063     1063     1062     1059 
    1060     1065     1065     1060     1053     1043     1039     1043 
    1046     1046     1039     1032     1028     1020     1011     1008 
    1004      999      994      990      987      982      974      963 
     957      955      955      949      936      920      911      909 
     909      907      900      884      868      858      850      842 
     837      830      822      812      803      792      781      770 
     762      753      741      731      722      712      704      691 
     670      656      649      648      641      635      627      611 
     595      581      568      556      550      540      530      523 
     508      490      477      464      448      432      421      418 
     415      407      395      378      357      344      340      336 
     332      325      315      307      289      270      257      249 
     241      237      237      238      238      228      210      194 
     180      174      171      168      167      174      178      171 
     152      129      112      110      120      129      129      122 
     112      109      110      108       98       85       79       83 
      97      112      117      110      101       89       78       79 
      91      106      112      110      109      106      101       97 
      97      103      114      124      129      135      136      137 
     136      140      148      157      168      178      184      194 
     203      206      209      212      218      230      248      259 
     268      276      283      292      295      295      302      315 
     330      351      368      379      388      398      399      403 
     413      427      445      463      481      496      504      511 
     519      522      525      535      553      579      604      621 
     623      619      621      631      643      656      664      673 
     691      707      718      730      743      746      750      758 
     764      772      787      799      807      816      824      834 
     841      845      853      862      870      882      892      900 
     908      913      918      924      935      945      954      963 
     970      976      981      990     1000     1008     1015     1020 
    1034     1048     1058     1065     1078     1092     1101     1107 
    1112     1116     1128     1146     1159     1170     1179     1185 
    1192     1204     1210     1210     1216     1232     1255     1277 
    1294     1300     1296     1289     1289     1300     1317     1336 
    1356     1372     1382     1385     1385     1386     1393     1399 
    1410     1424     1436     1445     1456     1467     1468     1464 
    1463     1464     1468     1479     1491     1498     1501     1502 
    1501     1497     1491     1490     1497     1507     1517     1522 
    1518     1513     1512     1503     1495     1501     1506     1503 
    1505     1502     1493     1485     1478     1470     1464     1464 
    1467     1466     1462     1452     1440     1426     1418     1414 
    1410     1401     1387     1377     1364     1352     1340     1331 
    1324     1317     1306     1287     1269     1256     1244     1229 
    1217     1206     1197     1185     1167     1147     1129     1115 
    1105     1094     1086     1077     1055     1030     1012     1000 
     987      973      958      949      936      920      907      892 
     874      858      838      827      820      808      795      785 
     777      766      753      741      730      722      712      702 
     692      683      679      673      662      654      649      648 
     650      648      639      633      625      619      621      618 
     612      614      615      611      611      612      610      604 
     602      602      603      606      614      618      618      619 
     621      622      621      619      627      642      648      657 
     670      672      665      658      657      665      681      693 
     702      711      711      704      706      711      714      719 
     734      749      756      754      746      743      757      772 
     778      792      807      812      810      804      807      812 
     820      837      850      857      859      862      868      868 
     866      874      886      901      916      920      918      915 
     916      923      932      943      954      962      965      966 
     967      970      974      982      986      989      997     1007 
    1011     1015     1019     1019     1023     1026     1023     1032 
    1047     1053     1055     1058     1059     1058     1059     1065 
    1073     1075     1077     1073     1070     1075     1088     1096 
    1096     1092     1080     1067     1067     1078     1093     1098 
    1094     1084     1070     1060     1060     1065     1073     1081 
    1081     1074     1058     1044     1039     1043     1047     1047 
    1042     1034     1026     1020     1013     1007     1000      993 
     986      986      989      987      981      969      951      928 
     911      908      909      905      905      903      893      874 
     854      834      824      830      832      823      812      800 
     789      781      770      758      750      743      731      715 
     707      697      687      680      676      664      648      633 
     622      614      603      595      588      576      566      560 
     549      540      532      523      517      510      499      490 
     480      473      467      459      454      448      442      442 
     442      436      427      417      405      398      392      391 
     396      398      396      396      392      387      383      380 
     379      386      390      391      394      394      392      392 
     388      388      396      403      409      417      421      422 
     425      436      448      460      469      476      486      495 
     506      522      540      558      572      579      588      603 
     621      642      670      702      715      720      737      762 
     784      805      830      850      872      896      919      943 
     967      997     1026     1048     1069     1093     1116     1139 
    1166     1196     1219     1237     1262     1286     1312     1341 
    1367     1389     1410     1429     1448     1475     1503     1528 
    1554     1575     1583     1594     1617     1640     1660     1686 
    1710     1728     1737     1742     1750     1764     1781     1802 
    1818     1833     1848     1852     1856     1871     1890     1899 
    1906     1907     1907     1912     1919     1925     1930     1934 
    1929     1930     1935     1937     1938     1934     1927     1922 
    1915     1908     1904     1900     1892     1877     1859     1850 
    1842     1833     1826     1815     1796     1779     1761     1741 
    1723     1707     1691     1672     1649     1625     1598     1574 
    1548     1524     1498     1471     1444     1418     1394     1367 
    1334     1305     1278     1250     1221     1194     1166     1127 
    1085     1050     1021      993      966      939      908      869 
     831      795      758      731      711      685      656      626 
     592      560      530      500      468      441      417      395 
     376      352      319      291      270      249      232      214 
     194      174      155      133      117      105       86       64 
      45       35       29       18        5       -1       -5      -14 
     -23      -27      -31      -36      -37      -36      -39      -45 
     -47      -47      -47      -47      -41      -37      -35      -28 
     -20       -9        0        9       18       27       39       49 
      58       67       79       90       99      112      129      148 
     162      172      189      210      229      243      259      279 
     297      317      337      357      379      400      418      437 
     456      479      502      523      544      561      581      610 
     637      662      687      706      726      747      767      785 
     807      834      857      877      903      923      942      962 
     984     1007     1026     1048     1073     1096     1120     1144 
    1167     1183     1200     1219     1239     1255     1271     1285 
    1298     1318     1339     1352     1368     1385     1395     1408 
    1420     1431     1443     1459     1471     1478     1483     1491 
    1501     1513     1522     1524     1532     1540     1541     1551 
    1563     1567     1571     1575     1576     1580     1593     1595 
    1588     1587     1590     1594     1599     1606     1611     1615 
    1613     1609     1606     1606     1609     1614     1617     1615 
    1617     1620     1618     1618     1621     1620     1620     1625 
    1632     1632     1630     1628     1624     1625     1632     1638 
    1640     1641     1651     1655     1652     1651     1651     1652 
    1660     1668     1668     1664     1658     1661     1674     1686 
    1692     1690     1682     1679     1682     1687     1692     1695 
    1694     1699     1701     1698     1701     1705     1703     1703 
    1705     1702     1698     1698     1699     1701     1703     1706 
    1709     1710     1705     1691     1686     1688     1694     1695 
    1696     1694     1690     1686     1680     1674     1672     1672 
    1671     1665     1660     1655     1652     1649     1647     1641 
    1636     1629     1622     1615     1611     1609     1605     1598 
    1587     1576     1571     1568     1566     1563     1557     1549 
    1537     1528     1521     1509     1498     1493     1489     1482 
    1470     1459     1449     1440     1433     1428     1417     1399 
    1389     1386     1381     1375     1370     1358     1345     1333 
    1323     1318     1316     1308     1297     1286     1274     1266 
    1256     1243     1237     1235     1227     1220     1210     1197 
    1185     1178     1170     1165     1162     1155     1146     1139 
    1132     1127     1123     1116     1107     1102     1101     1094 
    1088     1088     1086     1081     1077     1067     1059     1053 
    1053     1059     1059     1051     1039     1026     1015     1012 
    1016     1019     1013     1005     1000      993      986      980 
     980      982      974      962      958      950      940      936 
     936      936      934      926      913      901      892      882 
     877      873      864      854      849      842      832      824 
     812      797      788      783      774      765      754      741 
     731      718      702      695      691      681      672      665 
     653      639      630      621      610      603      592      577 
     565      558      553      542      531      525      513      500 
     495      490      483      479      476      469      463      454 
     449      444      438      434      432      430      432      433 
     430      425      425      425      427      432      434      438 
     444      450      457      464      469      472      477      486 
     492      503      511      517      531      556      571      581 
     595      608      623      643      658      672      695      718 
     739      762      780      796      815      838      857      877 
     905      936      962      989     1017     1044     1069     1092 
    1117     1147     1179     1212     1243     1271     1298     1327 
    1355     1382     1412     1445     1476     1509     1544     1579 
    1611     1637     1656     1680     1711     1745     1780     1818 
    1849     1869     1888     1911     1935     1965     1999     2030 
    2053     2079     2106     2130     2157     2178     2203     2228 
    2249     2265     2285     2305     2326     2344     2361     2376 
    2386     2397     2412     2431     2448     2458     2461     2466 
    2477     2484     2489     2496     2501     2502     2504     2508 
    2511     2511     2505     2498     2497     2497     2498     2493 
    2482     2471     2461     2447     2438     2430     2416     2401 
    2390     2381     2365     2342     2315     2293     2278     2265 
    2245     2222     2200     2176     2149     2124     2102     2079 
    2050     2025     1996     1961     1927     1895     1868     1842 
    1815     1786     1755     1721     1684     1649     1620     1588 
    1551     1512     1471     1429     1394     1364     1331     1291 
    1252     1209     1169     1136     1104     1065     1031      990 
     945      903      869      838      803      764      728      695 
     657      616      575      535      500      471      438      399 
     353      315      284      252      220      184      144      106 
      81       60       28      -16      -58      -95     -126     -152 
    -180     -209     -238     -271     -299     -329     -359     -390 
    -419     -446     -468     -493     -523     -549     -569     -594 
    -621     -641     -658     -677     -695     -714     -731     -747 
    -765     -784     -796     -807     -818     -831     -843     -849 
    -854     -866     -880     -889     -897     -900     -899     -905 
    -913     -913     -905     -903     -905     -907     -909     -911 
    -900     -888     -884     -881     -874     -869     -864     -854 
    -841     -828     -815     -804     -795     -780     -762     -747 
    -738     -722     -704     -697     -689     -669     -654     -639 
    -615     -594     -579     -561     -545     -529     -508     -487 
    -469     -451     -430     -406     -387     -372     -355     -334 
    -314     -294     -274     -255     -233     -212     -193     -172 
    -153     -139     -118      -94      -72      -54      -32      -10 
       9       29       47       64       83      102      124      151 
     176      194      212      237      257      278      307      332 
     348      368      387      409      434      456      475      496 
     517      537      558      581      602      616      634      654 
     673      693      715      737      753      765      780      796 
     812      831      849      864      877      889      903      922 
     936      953      966      974      982      992     1000     1009 
    1017     1026     1031     1036     1046     1050     1053     1060 
    1065     1067     1073     1075     1073     1073     1075     1077 
    1075     1073     1071     1067     1062     1062     1058     1053 
    1051     1044     1038     1036     1030     1021     1017     1012 
    1003      996      987      977      966      957      947      940 
     936      929      922      915      903      889      882      873 
     864      864      864      851      842      835      823      815 
     811      801      793      787      780      774      770      764 
     760      754      747      745      739      730      726      726 
     720      718      715      710      704      704      704      700 
     697      697      695      692      689      688      687      685 
     683      687      693      693      691      691      687      681 
     676      675      680      687      692      692      688      688 
     688      687      689      693      697      697      696      693 
     691      692      695      695      695      695      695      693 
     693      696      702      702      700      700      702      704 
     704      704      706      707      708      711      710      707 
     704      702      704      706      706      708      711      711 
     710      708      708      712      712      708      706      704 
     706      708      707      711      718      718      718      720 
     718      715      715      718      724      734      738      739 
     741      745      745      738      737      745      747      754 
     760      756      756      758      761      765      767      765 
     765      765      760      761      766      770      774      774 
     772      772      769      762      760      760      758      749 
     741      743      746      746      750      746      734      720 
     708      702      702      700      697      689      681      684 
     684      675      661      650      642      634      626      622 
     618      615      618      612      596      584      579      569 
     565      560      548      544      544      540      529      515 
     508      503      495      490      487      479      467      453 
     446      450      453      446      434      429      425      414 
     409      406      403      400      399      400      405      403 
     398      386      372      370      380      390      394      392 
     391      392      390      386      383      390      396      402 
     402      406      411      418      423      427      436      442 
     444      449      457      467      484      499      506      511 
     519      526      533      545      557      565      576      591 
     599      608      625      639      648      658      673      689 
     706      715      727      743      757      769      787      801 
     815      831      842      854      877      892      897      911 
     928      938      950      963      976      992     1009     1021 
    1034     1048     1057     1065     1078     1092     1109     1129 
    1150     1165     1170     1173     1181     1190     1202     1215 
    1227     1237     1244     1252     1264     1275     1279     1282 
    1287     1297     1306     1313     1318     1321     1323     1324 
    1329     1337     1341     1343     1345     1347     1350     1355 
    1356     1358     1362     1367     1366     1368     1377     1381 
    1381     1382     1382     1379     1382     1386     1387     1391 
    1393     1393     1397     1399     1397     1398     1404     1401 
    1398     1401     1405     1405     1405     1409     1405     1404 
    1405     1408     1412     1418     1418     1416     1420     1424 
    1424     1428     1431     1433     1435     1436     1436     1441 
    1444     1444     1448     1449     1451     1456     1464     1470 
    1474     1478     1480     1482     1482     1483     1489     1491 
    1494     1495     1498     1502     1506     1512     1520     1528 
    1528     1526     1528     1530     1530     1537     1545     1548 
    1551     1553     1553     1556     1559     1554     1557     1563 
    1560     1566     1576     1576     1575     1575     1572     1574 
    1578     1580     1583     1584     1580     1579     1583     1579 
    1571     1572     1579     1583     1584     1584     1580     1575 
    1571     1571     1576     1580     1570     1563     1570     1570 
    1567     1570     1564     1557     1559     1563     1559     1554 
    1556     1553     1548     1551     1549     1544     1543     1535 
    1533     1532     1522     1518     1522     1518     1513     1513 
    1509     1505     1501     1495     1489     1483     1478     1471 
