Origin Time       2016/04/16 01:25:00
Lat.              32.753
Long.             130.762
Depth. (km)       12
Mag.              7.3
Station Code      IBR009
Station Lat.      36.1848
Station Long.     139.7037
Station Height(m) 17
Record Time       2016/04/16 01:29:44
Sampling Freq(Hz) 100Hz
Duration Time(s)  86
Dir.              E-W
Scale Factor      7845(gal)/8223790
Max. Acc. (gal)   1.653
Last Correction   2016/04/16 01:29:46
Memo.             
[...]
     959      965      966      965      965      972      980      984 
     982      984      985      992      996      993      989      993 
     997      999     1000     1003     1007     1011     1012     1011 
    1009     1013     1020     1024     1028     1026     1026     1031 
    1034     1039     1048     1046     1043     1047     1048     1053 
    1051     1043     1039     1044     1053     1059     1060     1065 
    1067     1060     1059     1067     1075     1081     1080     1080 
    1085     1089     1089     1090     1096     1097     1089     1086 
    1088     1088     1096     1105     1104     1100     1096     1096 
    1100     1100     1104     1117     1123     1117     1111     1107 
    1101     1094     1098     1111     1116     1113     1107     1098 
    1089     1081     1073     1067     1074     1089     1092     1081 
    1067     1057     1048     1043     1042     1044     1047     1044 
    1038     1024     1007      994      989      985      986      992 
     987      969      945      928      922      920      919      915 
     907      889      870      857      850      845      841      842 
     843      827      801      784      777      773      769      766 
     762      750      738      724      699      685      697      707 
     699      681      666      660      652      637      633      642 
     654      650      629      614      610      604      600      606 
     619      622      602      579      579      587      595      604 
     607      600      594      587      584      591      600      604 
     611      622      625      615      611      618      633      645 
     652      653      650      649      652      656      669      687 
     689      688      691      693      702      710      715      728 
     745      757      765      770      778      785      792      804 
     814      816      827      841      854      868      877      877 
     881      889      897      907      924      943      949      947 
     951      961      976      989      997     1004     1008     1016 
    1032     1042     1043     1048     1053     1065     1077     1078 
    1081     1096     1107     1113     1115     1109     1107     1119 
    1132     1143     1147     1150     1148     1148     1151     1155 
    1162     1170     1174     1177     1182     1183     1181     1178 
    1183     1192     1194     1193     1193     1194     1196     1201 
    1206     1205     1201     1204     1208     1212     1216     1219 
    1216     1210     1208     1210     1219     1221     1219     1217 
    1219     1219     1220     1219     1217     1223     1225     1227 
    1228     1229     1227     1227     1228     1230     1233     1237 
    1243     1246     1246     1242     1240     1247     1258     1271 
    1277     1270     1260     1256     1258     1270     1286     1298 
    1300     1294     1287     1286     1294     1308     1320     1325 
    1332     1334     1333     1331     1331     1339     1351     1363 
    1371     1374     1368     1367     1375     1386     1394     1397 
    1399     1399     1399     1410     1422     1426     1431     1431 
    1433     1440     1441     1440     1448     1460     1472     1479 
    1476     1467     1457     1460     1478     1494     1502     1507 
    1499     1485     1480     1486     1491     1506     1525     1532 
    1528     1520     1505     1493     1502     1522     1540     1545 
    1534     1525     1520     1518     1525     1532     1539     1545 
    1545     1541     1530     1517     1520     1528     1532     1540 
    1541     1532     1528     1524     1517     1521     1525     1525 
    1524     1520     1513     1505     1502     1503     1502     1501 
    1502     1494     1483     1483     1489     1486     1478     1467 
    1457     1452     1452     1451     1445     1440     1435     1429 
    1422     1413     1404     1394     1386     1386     1387     1378 
    1366     1356     1341     1333     1337     1339     1333     1316 
    1297     1289     1282     1274     1269     1262     1254     1247 
    1236     1219     1204     1190     1181     1178     1179     1173 
    1152     1127     1107     1093     1088     1093     1085     1065 
    1046     1028     1011      997      987      978      967      954 
     936      918      897      877      862      846      835      828 
     819      801      777      753      731      720      714      697 
     681      672      654      627      606      591      581      569 
     556      546      531      504      483      471      457      446 
     437      423      409      392      375      364      356      342 
     329      322      313      291      266      252      245      241 
     236      229      214      193      178      172      166      160 
     155      149      139      120      105       99       99       95 
      87       85       81       70       55       44       40       41 
      41       39       36       29       21       16        5        2 
       5        5        4        1       -2      -10      -20      -20 
     -11      -10      -16      -22      -28      -27      -28      -29 
     -23      -20      -22      -29      -35      -35      -35      -32 
     -25      -21      -27      -35      -37      -35      -32      -27 
     -18      -14      -21      -29      -32      -29      -25      -14 
      -4       -2       -8      -16      -23      -22      -11       -2 
       0       -8      -10       -5        2        9       11       11 
      11       10       13       23       32       37       40       43 
      52       63       65       65       63       59       68       90 
     105      106      105      112      120      125      135      149 
     164      171      174      178      193      210      221      224 
     233      252      275      292      298      299      311      328 
     341      356      379      403      418      421      429      454 
     480      496      513      526      544      566      595      618 
     630      638      657      687      715      741      765      787 
     808      827      845      862      882      915      949      978 
    1007     1031     1048     1069     1084     1102     1135     1175 
    1223     1259     1274     1282     1301     1325     1360     1397 
    1429     1462     1483     1502     1528     1556     1588     1626 
    1656     1675     1690     1721     1764     1790     1810     1838 
    1857     1869     1902     1948     1984     2007     2030     2049 
    2056     2065     2093     2133     2168     2193     2215     2231 
    2239     2254     2272     2290     2309     2332     2363     2386 
    2389     2392     2403     2416     2439     2465     2477     2477 
    2470     2474     2493     2512     2527     2540     2540     2531 
    2517     2513     2523     2540     2555     2565     2562     2546 
    2527     2512     2511     2524     2529     2523     2516     2496 
    2461     2442     2442     2442     2448     2444     2417     2384 
    2354     2330     2322     2319     2312     2297     2273     2243 
    2208     2173     2151     2144     2143     2133     2100     2053 
    2014     1987     1973     1964     1949     1923     1887     1852 
    1823     1795     1773     1755     1723     1692     1665     1634 
    1603     1576     1549     1528     1509     1483     1441     1401 
    1375     1362     1345     1321     1294     1259     1225     1209 
    1197     1177     1152     1125     1101     1075     1044     1016 
     999      990      984      966      940      905      869      846 
     838      834      826      810      791      772      746      720 
     707      702      700      692      680      664      645      626 
     615      616      618      616      606      584      562      549 
     546      560      573      572      558      540      526      521 
     522      535      550      556      553      540      523      525 
     542      562      579      581      576      569      568      577 
     596      621      638      643      642      646      656      668 
     684      700      714      724      731      743      757      769 
     791      814      827      835      843      855      874      893 
     913      936      955      970      984      996     1004     1017 
    1039     1062     1078     1094     1113     1127     1140     1158 
    1173     1188     1208     1227     1243     1259     1271     1282 
    1298     1313     1318     1327     1345     1363     1381     1393 
    1397     1401     1412     1424     1437     1451     1459     1468 
    1476     1480     1486     1491     1498     1506     1509     1514 
    1517     1517     1520     1524     1524     1530     1540     1541 
    1535     1526     1518     1516     1517     1524     1530     1528 
    1516     1501     1490     1486     1485     1483     1478     1471 
    1464     1456     1448     1433     1416     1409     1402     1393 
    1389     1379     1359     1334     1317     1306     1302     1300 
    1294     1282     1259     1229     1208     1196     1185     1174 
    1166     1158     1142     1124     1107     1088     1065     1043 
    1026     1012     1005     1003      993      973      951      926 
     903      892      882      874      868      854      835      815 
     799      792      787      772      757      743      723      710 
     707      706      704      708      700      680      658      642 
     633      635      642      649      654      649      633      612 
     602      608      619      629      637      637      630      625 
     623      626      633      641      646      645      646      657 
     670      677      683      691      696      702      712      720 
     728      741      756      769      784      796      805      808 
     812      827      847      869      888      903      912      913 
     923      943      962      984     1009     1019     1024     1039 
    1058     1081     1105     1117     1123     1124     1132     1158 
    1188     1212     1225     1227     1229     1244     1270     1293 
    1308     1324     1331     1337     1356     1377     1387     1397 
    1412     1433     1453     1463     1472     1482     1491     1509 
    1528     1540     1554     1572     1575     1575     1579     1593 
    1615     1640     1653     1656     1656     1660     1668     1686 
    1706     1714     1717     1726     1732     1733     1741     1757 
    1771     1779     1781     1780     1786     1799     1814     1825 
    1829     1826     1829     1837     1848     1854     1861     1873 
    1885     1890     1890     1892     1896     1899     1904     1912 
    1918     1926     1933     1934     1939     1939     1935     1942 
    1956     1966     1969     1975     1981     1984     1984     1984 
    1985     1993     2000     2004     2011     2022     2025     2022 
    2023     2027     2031     2034     2039     2049     2053     2057 
    2061     2064     2062     2062     2069     2079     2085     2089 
    2095     2097     2096     2095     2102     2114     2115     2115 
    2121     2121     2119     2124     2137     2150     2153     2149 
    2149     2151     2153     2151     2153     2161     2169     2172 
    2172     2166     2158     2150     2146     2151     2168     2180 
    2177     2168     2153     2138     2133     2137     2146     2155 
    2153     2143     2134     2124     2116     2119     2121     2116 
    2102     2095     2088     2081     2079     2079     2076     2066 
    2053     2039     2030     2022     2015     2007     1996     1989 
    1981     1968     1956     1946     1934     1922     1907     1892 
    1890     1885     1869     1854     1841     1819     1803     1795 
    1786     1772     1760     1753     1748     1732     1707     1683 
    1664     1653     1648     1642     1634     1624     1609     1586 
    1559     1540     1528     1518     1514     1507     1493     1472 
    1448     1424     1405     1394     1390     1381     1360     1336 
    1312     1293     1285     1277     1259     1243     1225     1205 
    1182     1159     1143     1132     1119     1100     1084     1070 
    1048     1020      997      977      953      936      924      908 
     885      857      828      808      791      773      758      741 
     715      687      660      629      604      589      579      572 
     553      521      486      453      425      413      403      388 
     370      349      318      282      259      243      221      202 
     190      175      153      131      112       86       58       36 
      20       10        1      -17      -47      -68      -78      -89 
     -99     -112     -135     -159     -176     -184     -194     -206 
    -218     -232     -248     -265     -282     -289     -297     -305 
    -314     -328     -341     -351     -356     -365     -380     -396 
    -413     -423     -425     -425     -433     -446     -459     -464 
    -469     -477     -487     -499     -510     -518     -525     -523 
    -521     -522     -526     -535     -552     -568     -577     -584 
    -583     -575     -568     -573     -584     -598     -615     -629 
    -626     -621     -614     -607     -611     -621     -630     -645 
    -653     -650     -652     -650     -643     -643     -649     -653 
    -658     -662     -661     -654     -649     -646     -646     -645 
    -646     -645     -639     -635     -631     -629     -626     -622 
    -616     -606     -596     -592     -587     -579     -571     -564 
    -548     -532     -523     -510     -498     -488     -475     -464 
    -460     -448     -433     -410     -383     -363     -348     -337 
    -324     -307     -288     -266     -238     -210     -182     -160 
    -143     -121      -99      -78      -49      -18       13       41 
      70      102      126      147      175      199      225      263 
     298      329      364      396      425      450      479      513 
     544      577      618      652      687      726      757      785 
     815      845      881      919      953      989     1023     1057 
    1090     1119     1150     1182     1209     1242     1278     1310 
    1345     1377     1405     1433     1455     1478     1513     1547 
    1571     1602     1636     1661     1686     1709     1732     1757 
    1781     1803     1826     1852     1877     1904     1923     1935 
    1953     1975     1996     2014     2031     2046     2061     2077 
    2096     2111     2123     2138     2153     2163     2177     2191 
    2204     2218     2227     2239     2249     2251     2258     2265 
    2270     2280     2285     2289     2293     2290     2289     2296 
    2300     2301     2303     2299     2293     2286     2278     2277 
    2276     2276     2276     2267     2257     2247     2236     2234 
    2231     2220     2208     2193     2178     2173     2163     2151 
    2139     2130     2120     2101     2079     2061     2043     2025 
    2010     1992     1975     1960     1934     1908     1881     1858 
    1845     1830     1809     1786     1763     1741     1714     1684 
    1664     1641     1611     1590     1568     1544     1522     1498 
    1472     1443     1413     1390     1364     1334     1308     1282 
    1251     1225     1198     1171     1146     1116     1089     1060 
    1026     1005      984      954      927      896      861      838 
     819      800      777      747      720      688      657      635 
     619      602      579      549      522      496      471      446 
     425      410      390      361      340      324      306      284 
     259      240      225      211      199      186      164      143 
     129      117      105       94       81       67       58       47 
      35       23       18       16        9        1       -8      -11 
     -17      -27      -28      -25      -28      -28      -28      -31 
     -31      -32      -35      -31      -25      -18      -11      -10 
      -9       -5        0        8       18       28       36       41 
      49       63       75       87      102      109      117      129 
     143      160      178      189      202      214      222      234 
     252      274      292      310      328      342      355      369 
     383      403      423      445      468      487      508      531 
     545      558      577      598      618      641      666      689 
     707      723      738      751      774      801      827      854 
     876      893      911      923      942      966      989     1016 
    1042     1065     1088     1104     1117     1136     1158     1183 
    1212     1237     1259     1277     1294     1314     1334     1354 
    1374     1395     1414     1431     1453     1476     1493     1507 
    1525     1540     1557     1582     1601     1618     1640     1655 
    1664     1679     1692     1710     1732     1749     1763     1775 
    1787     1799     1810     1822     1837     1849     1857     1868 
    1877     1885     1895     1902     1908     1915     1919     1929 
    1937     1942     1949     1953     1953     1958     1956     1956 
    1958     1956     1958     1964     1962     1962     1960     1952 
    1952     1949     1946     1946     1946     1942     1930     1921 
    1912     1904     1899     1895     1883     1872     1864     1852 
    1844     1837     1826     1818     1806     1790     1780     1768 
    1755     1749     1740     1723     1707     1690     1677     1664 
    1651     1640     1626     1606     1595     1582     1560     1545 
    1537     1524     1507     1491     1472     1455     1441     1426 
    1410     1397     1383     1367     1351     1334     1323     1312 
    1293     1273     1258     1243     1230     1224     1215     1201 
    1183     1169     1154     1138     1128     1120     1112     1104 
    1096     1085     1069     1058     1053     1046     1038     1032 
    1023     1016     1016     1012     1004     1000      994      984 
     977      974      977      977      974      969      962      955 
     954      953      950      949      951      951      949      946 
     946      949      954      957      961      961      957      961 
     969      970      976      982      977      972      976      980 
     986      996     1003     1005     1007     1004     1003     1005 
    1011     1015     1021     1030     1035     1038     1039     1039 
    1042     1048     1053     1060     1070     1077     1081     1081 
    1080     1086     1088     1088     1096     1104     1107     1115 
    1120     1117     1117     1121     1124     1124     1132     1144 
    1150     1150     1150     1151     1154     1156     1161     1167 
    1173     1177     1179     1185     1192     1190     1189     1196 
    1200     1205     1212     1220     1224     1227     1229     1232 
    1235     1240     1247     1255     1264     1270     1274     1281 
    1287     1291     1297     1308     1320     1323     1329     1340 
    1345     1354     1366     1375     1383     1387     1395     1405 
    1414     1422     1431     1437     1447     1459     1470     1476 
