Origin Time       2016/04/16 01:25:00
Lat.              32.753
Long.             130.762
Depth. (km)       12
Mag.              7.3
Station Code      IBR017
Station Lat.      35.9537
Station Long.     140.3194
Station Height(m) 17
Record Time       2016/04/16 01:30:21
Sampling Freq(Hz) 100Hz
Duration Time(s)  60
Dir.              E-W
Scale Factor      7845(gal)/8223790
Max. Acc. (gal)   0.717
Last Correction   2016/04/16 01:30:23
Memo.             
[...]
    6085     6089     6093     6096     6097     6095     6095     6093 
    6091     6093     6097     6099     6099     6102     6104     6102 
    6099     6102     6108     6110     6110     6110     6114     6112 
    6110     6110     6115     6119     6122     6124     6126     6127 
    6124     6124     6131     6135     6137     6141     6143     6145 
    6145     6142     6145     6150     6151     6151     6156     6160 
    6158     6158     6160     6164     6169     6170     6169     6170 
    6173     6172     6169     6170     6176     6180     6178     6174 
    6177     6183     6183     6178     6178     6181     6180     6176 
    6176     6180     6183     6181     6180     6177     6176     6177 
    6177     6176     6180     6183     6180     6176     6173     6172 
    6173     6173     6173     6173     6174     6172     6169     6170 
    6172     6170     6166     6164     6164     6164     6164     6164 
    6161     6158     6158     6154     6151     6150     6146     6147 
    6150     6145     6142     6141     6138     6137     6135     6133 
    6134     6133     6131     6133     6130     6124     6120     6118 
    6115     6118     6115     6114     6112     6108     6104     6104 
    6104     6103     6102     6100     6096     6091     6085     6088 
    6088     6083     6083     6087     6083     6076     6072     6070 
    6072     6072     6068     6064     6065     6065     6062     6060 
    6060     6061     6058     6054     6053     6052     6050     6048 
    6046     6044     6044     6042     6039     6038     6038     6035 
    6033     6034     6030     6027     6031     6031     6026     6025 
    6026     6025     6021     6021     6019     6018     6018     6015 
    6014     6015     6014     6011     6011     6012     6011     6010 
    6004     5999     6003     6004     6002     6002     6003     6002 
    5999     5998     5999     5998     5995     5994     5992     5989 
    5995     5996     5988     5984     5987     5987     5985     5980 
    5980     5985     5985     5983     5984     5983     5976     5973 
    5972     5968     5971     5973     5973     5975     5972     5965 
    5961     5960     5960     5958     5958     5956     5954     5956 
    5954     5948     5946     5949     5946     5942     5940     5935 
    5934     5931     5926     5929     5930     5926     5922     5921 
    5918     5915     5914     5914     5910     5904     5904     5902 
    5899     5900     5902     5899     5895     5895     5892     5890 
    5888     5886     5886     5886     5884     5886     5886     5883 
    5884     5886     5883     5881     5884     5884     5881     5880 
    5881     5883     5884     5884     5884     5887     5888     5888 
    5888     5891     5894     5896     5895     5892     5898     5902 
    5904     5907     5910     5910     5913     5914     5915     5922 
    5927     5929     5930     5933     5938     5940     5940     5946 
    5949     5949     5952     5956     5962     5967     5965     5968 
    5977     5980     5984     5988     5991     5996     6002     6003 
    6004     6006     6012     6019     6022     6029     6035     6037 
    6039     6044     6048     6050     6054     6060     6061     6064 
    6070     6077     6080     6083     6083     6084     6088     6095 
    6100     6104     6107     6110     6115     6119     6123     6126 
    6127     6127     6133     6138     6141     6143     6146     6146 
    6148     6153     6154     6156     6160     6164     6166     6165 
    6168     6172     6172     6170     6174     6178     6180     6180 
    6178     6178     6183     6184     6183     6185     6189     6188 
    6186     6192     6195     6193     6193     6193     6195     6197 
    6195     6193     6197     6197     6196     6196     6195     6197 
    6196     6192     6195     6197     6197     6200     6199     6196 
    6197     6199     6200     6201     6197     6193     6195     6195 
    6193     6193     6196     6196     6193     6192     6192     6191 
    6191     6192     6192     6191     6189     6189     6188     6189 
    6192     6189     6185     6188     6188     6183     6180     6180 
    6180     6183     6185     6183     6178     6176     6176     6174 
    6172     6172     6172     6173     6173     6168     6164     6162 
    6157     6154     6158     6160     6157     6153     6147     6145 
    6145     6142     6139     6141     6142     6138     6135     6134 
    6129     6124     6119     6115     6115     6110     6107     6104 
    6099     6095     6091     6085     6084     6080     6070     6068 
    6068     6061     6056     6052     6044     6041     6035     6033 
    6031     6023     6016     6015     6010     6002     5998     5992 
    5987     5979     5975     5971     5965     5960     5957     5953 
    5948     5940     5933     5929     5925     5915     5911     5911 
    5904     5900     5896     5886     5879     5876     5871     5864 
    5859     5854     5848     5841     5841     5840     5834     5826 
    5818     5815     5813     5805     5800     5796     5791     5786 
    5779     5769     5765     5764     5760     5757     5755     5748 
    5737     5730     5729     5724     5715     5714     5711     5705 
    5699     5694     5684     5680     5676     5671     5664     5660 
    5656     5649     5644     5638     5633     5629     5623     5616 
    5609     5603     5602     5597     5587     5582     5579     5571 
    5568     5566     5559     5551     5544     5537     5533     5529 
    5522     5519     5516     5510     5502     5498     5494     5489 
    5485     5483     5478     5470     5466     5466     5463     5456 
    5451     5448     5443     5439     5435     5433     5433     5431 
    5427     5424     5420     5418     5414     5412     5412     5412 
    5410     5409     5404     5402     5408     5409     5406     5404 
    5405     5405     5404     5401     5404     5406     5405     5405 
    5410     5413     5414     5414     5413     5414     5418     5417 
    5420     5422     5424     5425     5427     5431     5436     5439 
    5439     5443     5447     5451     5455     5459     5462     5464 
    5466     5468     5472     5479     5485     5489     5491     5495 
    5501     5506     5510     5519     5528     5530     5537     5541 
    5545     5555     5562     5564     5571     5578     5583     5590 
    5597     5603     5614     5622     5630     5640     5641     5647 
    5659     5667     5679     5688     5691     5699     5709     5715 
    5724     5732     5740     5752     5763     5772     5782     5791 
    5800     5809     5815     5825     5836     5844     5852     5863 
    5871     5879     5890     5902     5910     5917     5921     5929 
    5942     5948     5950     5961     5975     5983     5988     5995 
    6003     6011     6018     6026     6034     6043     6049     6052 
    6058     6069     6079     6083     6087     6092     6097     6103 
    6107     6112     6122     6126     6130     6135     6139     6146 
    6151     6154     6161     6166     6165     6168     6174     6181 
    6184     6185     6186     6189     6192     6193     6195     6201 
    6207     6208     6211     6214     6214     6218     6222     6223 
    6228     6231     6228     6231     6235     6234     6234     6239 
    6241     6238     6237     6242     6246     6249     6250     6251 
    6251     6251     6250     6247     6249     6254     6255     6252 
    6251     6251     6252     6255     6257     6257     6257     6257 
    6257     6255     6255     6254     6252     6255     6257     6258 
    6258     6252     6250     6251     6250     6249     6249     6247 
    6245     6243     6243     6242     6241     6239     6237     6234 
    6231     6228     6227     6224     6222     6219     6219     6218 
    6214     6211     6210     6207     6201     6196     6192     6192 
    6189     6184     6181     6177     6172     6170     6166     6161 
    6160     6154     6146     6145     6143     6139     6133     6126 
    6120     6115     6110     6104     6102     6097     6091     6084 
    6081     6079     6075     6069     6065     6061     6053     6046 
    6042     6038     6035     6030     6025     6019     6014     6010 
    6008     6003     5992     5988     5987     5983     5976     5968 
    5965     5961     5956     5952     5946     5942     5938     5933 
    5930     5929     5925     5919     5911     5906     5906     5906 
    5902     5904     5904     5896     5888     5886     5881     5877 
    5879     5879     5875     5873     5872     5864     5861     5864 
    5864     5864     5864     5863     5857     5857     5859     5859 
    5860     5859     5860     5861     5859     5856     5860     5864 
    5864     5861     5864     5867     5868     5868     5871     5876 
    5881     5884     5883     5887     5894     5899     5900     5902 
    5907     5917     5919     5919     5923     5930     5937     5938 
    5940     5950     5960     5962     5964     5968     5975     5983 
    5988     5995     6003     6011     6018     6025     6031     6039 
    6043     6046     6056     6065     6070     6077     6084     6089 
    6096     6103     6110     6118     6126     6133     6141     6147 
    6150     6157     6168     6174     6180     6184     6188     6196 
    6203     6207     6212     6222     6227     6227     6230     6237 
    6242     6243     6245     6252     6258     6261     6264     6266 
    6272     6274     6273     6273     6277     6282     6282     6282 
    6285     6288     6289     6290     6289     6285     6282     6281 
    6282     6284     6285     6285     6282     6278     6276     6273 
    6272     6269     6268     6266     6264     6259     6255     6250 
    6246     6242     6239     6238     6234     6227     6226     6226 
    6219     6216     6212     6203     6196     6196     6197     6193 
    6186     6181     6177     6172     6165     6157     6153     6154 
    6148     6141     6138     6135     6130     6120     6118     6118 
    6112     6106     6100     6096     6093     6091     6085     6080 
    6076     6068     6061     6056     6050     6050     6052     6048 
    6041     6033     6025     6021     6019     6016     6014     6010 
    6006     5999     5995     5994     5989     5985     5981     5975 
    5975     5977     5968     5958     5960     5958     5953     5950 
    5949     5945     5945     5945     5942     5938     5937     5935 
    5931     5929     5930     5927     5921     5919     5922     5925 
    5930     5933     5933     5933     5927     5923     5925     5926 
    5930     5934     5940     5945     5945     5944     5945     5945 
    5946     5953     5961     5968     5968     5968     5968     5973 
    5977     5985     5992     5999     6006     6011     6014     6021 
    6022     6025     6031     6038     6044     6050     6053     6061 
    6072     6079     6083     6089     6099     6108     6118     6123 
    6127     6138     6145     6147     6157     6166     6169     6180 
    6193     6201     6207     6211     6219     6230     6242     6249 
    6252     6258     6266     6276     6282     6290     6299     6308 
    6318     6323     6326     6334     6343     6350     6359     6369 
    6374     6378     6382     6389     6396     6404     6412     6423 
    6430     6434     6439     6446     6446     6450     6460     6467 
    6470     6478     6486     6488     6488     6493     6501     6508 
    6512     6512     6513     6517     6521     6524     6528     6531 
    6535     6542     6544     6543     6547     6551     6552     6552 
    6552     6558     6562     6559     6562     6566     6566     6566 
    6567     6566     6567     6567     6563     6563     6566     6566 
    6564     6562     6562     6561     6558     6555     6552     6550 
    6548     6551     6550     6548     6548     6543     6535     6529 
    6525     6521     6519     6516     6513     6511     6505     6500 
    6492     6486     6485     6481     6474     6467     6460     6457 
    6451     6442     6436     6434     6427     6420     6412     6404 
    6396     6388     6378     6373     6367     6358     6349     6340 
    6335     6327     6316     6308     6300     6293     6285     6276 
    6266     6258     6250     6243     6232     6222     6212     6201 
    6192     6186     6178     6168     6158     6150     6139     6130 
    6122     6110     6102     6093     6085     6081     6070     6053 
    6041     6031     6022     6014     6004     5995     5985     5975 
    5960     5949     5940     5930     5921     5910     5900     5891 
    5880     5871     5861     5849     5836     5826     5818     5802 
    5793     5790     5779     5764     5753     5741     5732     5726 
    5718     5705     5691     5678     5661     5651     5645     5636 
    5625     5614     5605     5594     5582     5574     5563     5551 
    5540     5532     5522     5510     5499     5489     5478     5472 
    5467     5458     5447     5437     5428     5420     5413     5404 
    5397     5387     5377     5370     5363     5358     5354     5346 
    5337     5332     5324     5314     5310     5308     5304     5298 
    5292     5289     5287     5282     5277     5273     5268     5263 
    5263     5260     5256     5255     5252     5250     5250     5252 
    5251     5250     5246     5246     5250     5250     5247     5251 
    5254     5256     5255     5251     5251     5255     5256     5258 
    5263     5267     5271     5273     5277     5279     5282     5285 
    5290     5296     5301     5309     5314     5320     5325     5327 
    5333     5344     5350     5354     5359     5366     5373     5377 
    5382     5394     5402     5408     5416     5424     5435     5440 
    5443     5452     5463     5472     5478     5485     5494     5503 
    5512     5518     5526     5535     5545     5552     5563     5575 
    5587     5595     5603     5613     5621     5630     5643     5653 
    5660     5668     5678     5687     5697     5710     5722     5729 
    5734     5744     5753     5760     5769     5780     5790     5802 
    5815     5823     5833     5842     5846     5854     5867     5880 
    5894     5899     5902     5911     5923     5931     5937     5942 
    5956     5968     5976     5979     5988     5998     6002     6006 
    6016     6027     6035     6041     6044     6053     6061     6065 
    6073     6080     6084     6091     6099     6104     6110     6119 
    6126     6131     6133     6135     6139     6147     6153     6157 
    6161     6169     6176     6177     6178     6184     6186     6188 
    6191     6191     6195     6204     6210     6211     6214     6214 
    6214     6216     6219     6223     6227     6228     6232     6234 
    6238     6241     6241     6242     6243     6243     6245     6246 
    6249     6251     6252     6251     6254     6258     6257     6257 
    6259     6261     6261     6259     6258     6259     6258     6257 
    6259     6259     6255     6258     6259     6257     6259     6259 
    6257     6254     6254     6251     6249     6247     6247     6246 
    6245     6241     6238     6237     6234     6230     6224     6219 
    6219     6223     6216     6211     6207     6203     6201     6199 
    6197     6196     6189     6178     6174     6173     6169     6165 
    6161     6156     6150     6145     6145     6142     6131     6122 
    6119     6115     6110     6110     6107     6100     6096     6092 
    6087     6084     6080     6070     6064     6062     6056     6050 
    6048     6044     6039     6034     6030     6027     6021     6015 
    6011     6004     6002     6000     5996     5994     5988     5983 
    5983     5979     5971     5967     5965     5961     5957     5954 
    5954     5950     5942     5938     5938     5934     5931     5930 
    5925     5921     5921     5918     5917     5915     5911     5906 
    5902     5900     5899     5896     5892     5888     5884     5884 
    5886     5884     5884     5884     5879     5876     5872     5868 
    5868     5869     5868     5868     5868     5867     5864     5864 
    5863     5859     5857     5860     5859     5854     5854     5856 
    5850     5849     5852     5852     5848     5845     5845     5846 
    5846     5842     5840     5841     5842     5844     5844     5842 
    5841     5838     5838     5837     5836     5838     5840     5840 
    5837     5836     5834     5831     5829     5830     5833     5831 
    5830     5831     5831     5827     5826     5827     5827     5826 
    5825     5823     5823     5826     5826     5826     5827     5825 
    5823     5823     5826     5826     5821     5818     5821     5822 
    5823     5825     5826     5825     5825     5826     5825     5822 
    5822     5823     5825     5830     5833     5829     5829     5833 
    5833     5834     5836     5837     5842     5844     5841     5840 
    5844     5849     5852     5850     5853     5860     5860     5860 
    5861     5864     5868     5867     5871     5879     5880     5883 
    5887     5884     5890     5896     5895     5899     5906     5908 
    5911     5917     5919     5919     5922     5929     5934     5937 
    5940     5948     5949     5950     5956     5961     5968     5972 
    5973     5979     5983     5983     5988     5998     5999     5999 
    6004     6011     6018     6021     6022     6027     6033     6034 
    6033     6039     6049     6054     6054     6053     6057     6064 
    6069     6072     6075     6079     6085     6092     6095     6097 
    6100     6100     6104     6114     6115     6114     6118     6123 
    6127     6131     6134     6135     6138     6142     6147     6156 
    6158     6158     6161     6162     6161     6164     6169     6177 
    6183     6189     6192     6192     6195     6197     6200     6204 
    6208     6214     6219     6224     6226     6226     6228     6234 
    6238     6242     6246     6250     6254     6254     6257     6265 
    6269     6272     6280     6285     6289     6292     6299     6304 
    6308     6309     6313     6319     6320     6323     6332     6338 
    6343     6349     6353     6358     6363     6366     6367     6373 
    6381     6386     6392     6399     6403     6408     6416     6421 
    6426     6430     6432     6436     6444     6450     6454     6459 
    6463     6465     6470     6474     6481     6489     6489     6489 
    6496     6501     6507     6512     6513     6513     6519     6524 
    6525     6527     6531     6539     6538     6538     6543     6544 
    6544     6547     6543     6539     6544     6551     6550     6551 
    6554     6550     6544     6546     6544     6542     6543     6540 
    6536     6534     6529     6527     6525     6523     6520     6513 
    6507     6508     6507     6498     6492     6484     6478     6475 
    6473     6465     6454     6444     6439     6432     6427     6423 
    6415     6407     6401     6389     6378     6372     6365     6358 
    6350     6342     6332     6320     6307     6297     6292     6284 
    6274     6265     6255     6242     6228     6219     6214     6205 
