Origin Time       2016/04/16 01:25:00
Lat.              32.753
Long.             130.762
Depth. (km)       12
Mag.              7.3
Station Code      IBR011
Station Lat.      36.1251
Station Long.     140.0903
Station Height(m) 26
Record Time       2016/04/16 01:29:40
Sampling Freq(Hz) 100Hz
Duration Time(s)  60
Dir.              N-S
Scale Factor      7845(gal)/8223790
Max. Acc. (gal)   1.406
Last Correction   2016/04/16 01:29:41
Memo.             
[...]
   -5795    -5793    -5792    -5792    -5793    -5793    -5791    -5793 
   -5798    -5800    -5800    -5798    -5796    -5800    -5798    -5798 
   -5802    -5806    -5806    -5807    -5806    -5807    -5810    -5809 
   -5809    -5810    -5806    -5807    -5815    -5817    -5813    -5815 
   -5819    -5823    -5822    -5815    -5813    -5817    -5821    -5821 
   -5822    -5827    -5827    -5825    -5823    -5821    -5821    -5823 
   -5822    -5819    -5818    -5819    -5821    -5823    -5822    -5819 
   -5821    -5821    -5821    -5817    -5813    -5814    -5817    -5819 
   -5823    -5821    -5814    -5813    -5814    -5815    -5818    -5818 
   -5815    -5814    -5814    -5814    -5815    -5815    -5811    -5809 
   -5814    -5817    -5817    -5809    -5802    -5807    -5813    -5813 
   -5809    -5807    -5806    -5805    -5805    -5805    -5806    -5807 
   -5807    -5807    -5807    -5807    -5809    -5809    -5809    -5807 
   -5803    -5805    -5813    -5813    -5810    -5811    -5813    -5811 
   -5807    -5805    -5805    -5806    -5811    -5814    -5814    -5813 
   -5814    -5819    -5819    -5819    -5822    -5823    -5822    -5822 
   -5822    -5822    -5829    -5830    -5829    -5833    -5834    -5833 
   -5831    -5830    -5836    -5844    -5846    -5848    -5845    -5844 
   -5846    -5848    -5850    -5853    -5852    -5850    -5856    -5860 
   -5861    -5863    -5864    -5868    -5868    -5864    -5863    -5867 
   -5869    -5869    -5872    -5876    -5880    -5884    -5886    -5886 
   -5884    -5884    -5884    -5888    -5892    -5895    -5906    -5910 
   -5899    -5899    -5908    -5915    -5917    -5915    -5914    -5915 
   -5918    -5918    -5919    -5926    -5930    -5933    -5937    -5937 
   -5935    -5937    -5940    -5945    -5944    -5945    -5954    -5957 
   -5953    -5949    -5949    -5956    -5960    -5957    -5954    -5954 
   -5957    -5952    -5946    -5950    -5956    -5957    -5957    -5952 
   -5944    -5946    -5952    -5954    -5954    -5952    -5950    -5950 
   -5948    -5946    -5949    -5956    -5960    -5952    -5948    -5952 
   -5950    -5949    -5957    -5958    -5953    -5953    -5952    -5948 
   -5948    -5950    -5953    -5954    -5957    -5953    -5949    -5953 
   -5956    -5950    -5953    -5961    -5961    -5954    -5950    -5950 
   -5952    -5954    -5956    -5956    -5953    -5953    -5954    -5950 
   -5948    -5950    -5956    -5957    -5954    -5950    -5949    -5949 
   -5949    -5945    -5940    -5940    -5942    -5940    -5937    -5933 
   -5930    -5930    -5935    -5934    -5927    -5922    -5919    -5917 
   -5914    -5911    -5911    -5913    -5908    -5899    -5895    -5894 
   -5892    -5886    -5883    -5880    -5876    -5871    -5867    -5861 
   -5857    -5859    -5859    -5853    -5842    -5834    -5833    -5829 
   -5821    -5817    -5817    -5817    -5813    -5803    -5798    -5796 
   -5792    -5791    -5791    -5786    -5779    -5773    -5772    -5772 
   -5767    -5763    -5765    -5764    -5755    -5748    -5745    -5745 
   -5744    -5737    -5734    -5737    -5733    -5726    -5721    -5722 
   -5721    -5717    -5717    -5715    -5709    -5706    -5706    -5707 
   -5711    -5711    -5707    -5706    -5706    -5702    -5703    -5707 
   -5707    -5703    -5703    -5705    -5707    -5703    -5701    -5706 
   -5709    -5709    -5711    -5709    -5703    -5703    -5710    -5714 
   -5713    -5713    -5714    -5715    -5715    -5714    -5715    -5721 
   -5724    -5719    -5717    -5721    -5726    -5724    -5719    -5721 
   -5725    -5730    -5729    -5721    -5717    -5721    -5725    -5727 
   -5724    -5715    -5715    -5719    -5719    -5713    -5714    -5719 
   -5715    -5707    -5705    -5705    -5706    -5703    -5701    -5703 
   -5705    -5698    -5697    -5701    -5702    -5701    -5701    -5702 
   -5699    -5692    -5694    -5709    -5710    -5701    -5697    -5702 
   -5711    -5714    -5709    -5709    -5713    -5713    -5710    -5714 
   -5721    -5724    -5726    -5727    -5727    -5729    -5733    -5737 
   -5736    -5732    -5734    -5742    -5749    -5748    -5746    -5748 
   -5749    -5755    -5759    -5756    -5756    -5760    -5765    -5767 
   -5769    -5771    -5772    -5776    -5778    -5772    -5773    -5782 
   -5786    -5783    -5780    -5782    -5787    -5792    -5790    -5790 
   -5795    -5796    -5796    -5798    -5800    -5809    -5813    -5811 
   -5810    -5813    -5817    -5815    -5814    -5817    -5818    -5821 
   -5825    -5821    -5818    -5821    -5827    -5829    -5823    -5826 
   -5833    -5836    -5834    -5829    -5827    -5830    -5833    -5833 
   -5834    -5837    -5837    -5840    -5841    -5833    -5831    -5836 
   -5837    -5838    -5837    -5834    -5838    -5840    -5834    -5831 
   -5836    -5836    -5831    -5827    -5826    -5830    -5837    -5838 
   -5837    -5836    -5834    -5836    -5837    -5837    -5838    -5840 
   -5837    -5838    -5841    -5840    -5841    -5844    -5842    -5844 
   -5846    -5845    -5845    -5846    -5844    -5845    -5848    -5852 
   -5853    -5845    -5842    -5848    -5852    -5857    -5857    -5850 
   -5853    -5860    -5857    -5854    -5856    -5860    -5864    -5861 
   -5856    -5859    -5861    -5859    -5861    -5867    -5868    -5867 
   -5864    -5864    -5864    -5867    -5876    -5880    -5872    -5868 
   -5871    -5864    -5868    -5876    -5877    -5883    -5886    -5879 
   -5873    -5872    -5871    -5875    -5879    -5881    -5886    -5886 
   -5886    -5883    -5884    -5890    -5894    -5896    -5895    -5891 
   -5894    -5898    -5900    -5899    -5898    -5904    -5910    -5907 
   -5902    -5900    -5902    -5910    -5911    -5911    -5911    -5910 
   -5908    -5910    -5913    -5913    -5913    -5918    -5921    -5921 
   -5922    -5918    -5913    -5913    -5915    -5919    -5923    -5926 
   -5926    -5919    -5919    -5925    -5923    -5917    -5915    -5915 
   -5921    -5927    -5925    -5918    -5921    -5925    -5922    -5919 
   -5918    -5918    -5922    -5925    -5923    -5921    -5925    -5927 
   -5922    -5919    -5921    -5922    -5925    -5931    -5927    -5922 
   -5923    -5926    -5929    -5931    -5930    -5933    -5937    -5934 
   -5930    -5933    -5937    -5940    -5938    -5934    -5937    -5940 
   -5938    -5938    -5940    -5942    -5948    -5945    -5938    -5938 
   -5942    -5942    -5940    -5940    -5942    -5945    -5946    -5940 
   -5934    -5935    -5940    -5940    -5937    -5935    -5938    -5937 
   -5930    -5929    -5931    -5930    -5930    -5933    -5930    -5925 
   -5921    -5923    -5923    -5921    -5917    -5910    -5910    -5911 
   -5907    -5904    -5904    -5902    -5899    -5894    -5891    -5891 
   -5887    -5884    -5884    -5883    -5881    -5879    -5871    -5863 
   -5860    -5860    -5861    -5860    -5853    -5846    -5846    -5845 
   -5837    -5831    -5833    -5830    -5823    -5817    -5811    -5809 
   -5805    -5796    -5793    -5792    -5790    -5783    -5776    -5765 
   -5756    -5752    -5752    -5749    -5741    -5730    -5724    -5722 
   -5719    -5711    -5702    -5698    -5694    -5684    -5675    -5670 
   -5663    -5663    -5663    -5652    -5643    -5640    -5637    -5632 
   -5626    -5622    -5621    -5617    -5610    -5605    -5601    -5599 
   -5595    -5585    -5589    -5597    -5590    -5576    -5575    -5578 
   -5578    -5579    -5579    -5574    -5568    -5563    -5563    -5570 
   -5574    -5568    -5570    -5575    -5571    -5567    -5571    -5579 
   -5580    -5579    -5579    -5583    -5587    -5590    -5589    -5590 
   -5595    -5602    -5607    -5613    -5613    -5611    -5621    -5633 
   -5636    -5636    -5641    -5651    -5656    -5659    -5660    -5665 
   -5674    -5680    -5683    -5684    -5691    -5697    -5705    -5714 
   -5719    -5724    -5727    -5734    -5742    -5745    -5752    -5765 
   -5769    -5768    -5773    -5788    -5796    -5793    -5795    -5807 
   -5821    -5827    -5829    -5836    -5842    -5846    -5849    -5856 
   -5864    -5872    -5877    -5880    -5880    -5886    -5895    -5907 
   -5914    -5917    -5922    -5929    -5933    -5934    -5940    -5949 
   -5956    -5960    -5967    -5973    -5973    -5976    -5985    -5994 
   -5999    -6002    -6004    -6011    -6018    -6019    -6023    -6033 
   -6038    -6042    -6046    -6048    -6054    -6058    -6061    -6068 
   -6079    -6084    -6084    -6080    -6083    -6089    -6097    -6102 
   -6099    -6099    -6102    -6106    -6107    -6107    -6108    -6115 
   -6122    -6115    -6114    -6118    -6120    -6119    -6115    -6118 
   -6122    -6122    -6119    -6119    -6115    -6110    -6110    -6110 
   -6110    -6106    -6099    -6097    -6096    -6089    -6084    -6083 
   -6084    -6079    -6064    -6057    -6057    -6054    -6050    -6042 
   -6034    -6031    -6026    -6018    -6010    -6002    -5996    -5992 
   -5980    -5968    -5964    -5957    -5948    -5938    -5927    -5919 
   -5914    -5908    -5898    -5884    -5875    -5867    -5854    -5841 
   -5829    -5818    -5811    -5803    -5787    -5771    -5763    -5759 
   -5752    -5736    -5721    -5711    -5702    -5687    -5678    -5670 
   -5656    -5649    -5638    -5625    -5616    -5611    -5605    -5590 
   -5578    -5568    -5557    -5552    -5548    -5541    -5535    -5529 
   -5521    -5508    -5497    -5494    -5490    -5490    -5489    -5476 
   -5468    -5470    -5471    -5463    -5455    -5448    -5448    -5451 
   -5448    -5445    -5443    -5441    -5443    -5448    -5448    -5448 
   -5448    -5443    -5441    -5441    -5448    -5462    -5462    -5456 
   -5456    -5460    -5467    -5474    -5475    -5479    -5487    -5494 
   -5499    -5502    -5503    -5509    -5516    -5524    -5530    -5536 
   -5544    -5549    -5552    -5563    -5576    -5587    -5594    -5598 
   -5605    -5613    -5620    -5630    -5638    -5649    -5660    -5668 
   -5676    -5679    -5682    -5691    -5706    -5719    -5727    -5736 
   -5745    -5752    -5755    -5765    -5784    -5798    -5802    -5809 
   -5822    -5831    -5838    -5844    -5850    -5864    -5876    -5886 
   -5899    -5913    -5921    -5925    -5937    -5954    -5964    -5972 
   -5984    -5998    -6008    -6014    -6025    -6039    -6056    -6072 
   -6083    -6092    -6104    -6115    -6130    -6142    -6150    -6165 
   -6183    -6199    -6205    -6214    -6231    -6247    -6261    -6272 
   -6281    -6295    -6307    -6313    -6323    -6340    -6359    -6369 
   -6376    -6386    -6393    -6405    -6426    -6442    -6448    -6453 
   -6458    -6465    -6477    -6490    -6498    -6507    -6519    -6524 
   -6528    -6543    -6556    -6559    -6564    -6573    -6578    -6588 
   -6593    -6594    -6601    -6613    -6623    -6629    -6637    -6643 
   -6639    -6643    -6654    -6659    -6663    -6675    -6679    -6673 
   -6673    -6681    -6689    -6696    -6700    -6697    -6696    -6701 
   -6702    -6705    -6714    -6717    -6713    -6713    -6714    -6713 
   -6716    -6718    -6718    -6717    -6717    -6720    -6723    -6717 
   -6708    -6704    -6705    -6702    -6698    -6697    -6694    -6683 
   -6673    -6671    -6673    -6671    -6664    -6652    -6635    -6623 
   -6620    -6615    -6604    -6593    -6581    -6571    -6562    -6551 
   -6538    -6523    -6515    -6504    -6478    -6455    -6447    -6439 
   -6423    -6403    -6385    -6367    -6354    -6335    -6312    -6296 
   -6284    -6262    -6238    -6218    -6193    -6170    -6156    -6134 
   -6104    -6085    -6073    -6053    -6027    -6000    -5977    -5958 
   -5938    -5915    -5888    -5867    -5846    -5821    -5795    -5773 
   -5749    -5729    -5709    -5683    -5655    -5630    -5610    -5589 
   -5564    -5543    -5525    -5502    -5471    -5443    -5424    -5406 
   -5389    -5368    -5346    -5321    -5296    -5268    -5247    -5225 
   -5208    -5192    -5173    -5150    -5125    -5104    -5088    -5074 
   -5059    -5039    -5020    -5001    -4982    -4968    -4951    -4936 
   -4926    -4914    -4896    -4880    -4870    -4858    -4845    -4833 
   -4826    -4818    -4810    -4801    -4789    -4779    -4770    -4766 
   -4762    -4754    -4753    -4753    -4746    -4734    -4727    -4729 
   -4734    -4735    -4733    -4727    -4722    -4720    -4725    -4727 
   -4729    -4731    -4734    -4735    -4737    -4734    -4738    -4748 
   -4754    -4757    -4764    -4772    -4780    -4787    -4789    -4795 
   -4808    -4824    -4838    -4843    -4843    -4849    -4862    -4884 
   -4900    -4908    -4922    -4935    -4946    -4962    -4981    -4996 
   -5012    -5031    -5051    -5069    -5085    -5103    -5123    -5143 
   -5164    -5188    -5211    -5231    -5252    -5275    -5304    -5332 
   -5355    -5375    -5402    -5431    -5454    -5476    -5503    -5533 
   -5560    -5589    -5618    -5649    -5682    -5711    -5740    -5769 
   -5800    -5829    -5860    -5894    -5919    -5945    -5981    -6019 
   -6050    -6080    -6108    -6139    -6172    -6203    -6234    -6269 
   -6303    -6336    -6367    -6397    -6424    -6453    -6489    -6523 
   -6551    -6582    -6612    -6635    -6664    -6693    -6720    -6750 
   -6777    -6801    -6825    -6853    -6881    -6902    -6924    -6952 
   -6983    -7003    -7023    -7041    -7056    -7078    -7101    -7118 
   -7132    -7150    -7167    -7180    -7190    -7203    -7219    -7234 
   -7242    -7252    -7263    -7273    -7279    -7284    -7292    -7302 
   -7306    -7310    -7312    -7312    -7307    -7307    -7314    -7318 
   -7314    -7307    -7302    -7299    -7295    -7290    -7284    -7281 
   -7273    -7263    -7250    -7238    -7231    -7225    -7211    -7196 
   -7186    -7169    -7146    -7129    -7118    -7103    -7089    -7074 
   -7051    -7026    -7005    -6984    -6967    -6945    -6921    -6899 
   -6879    -6852    -6828    -6805    -6779    -6754    -6735    -6710 
   -6681    -6652    -6625    -6598    -6571    -6540    -6513    -6493 
   -6465    -6432    -6400    -6374    -6353    -6323    -6290    -6264 
   -6239    -6211    -6178    -6148    -6119    -6095    -6072    -6038 
   -6003    -5975    -5949    -5922    -5894    -5867    -5838    -5810 
   -5780    -5751    -5721    -5697    -5675    -5647    -5614    -5587 
   -5562    -5532    -5502    -5481    -5456    -5431    -5406    -5377 
   -5346    -5320    -5296    -5271    -5248    -5224    -5198    -5174 
   -5151    -5124    -5093    -5071    -5055    -5038    -5015    -4988 
   -4963    -4942    -4920    -4897    -4878    -4864    -4847    -4824 
   -4800    -4781    -4764    -4747    -4733    -4715    -4698    -4683 
   -4665    -4646    -4633    -4622    -4614    -4602    -4585    -4572 
   -4563    -4557    -4549    -4535    -4527    -4521    -4513    -4506 
   -4498    -4487    -4482    -4484    -4488    -4484    -4471    -4461 
   -4464    -4468    -4464    -4463    -4467    -4472    -4475    -4473 
   -4475    -4479    -4484    -4492    -4494    -4496    -4506    -4511 
   -4514    -4519    -4525    -4537    -4554    -4567    -4573    -4579 
   -4590    -4606    -4622    -4633    -4645    -4660    -4675    -4687 
   -4702    -4725    -4752    -4770    -4788    -4807    -4822    -4841 
   -4864    -4885    -4905    -4931    -4959    -4984    -4999    -5022 
   -5054    -5082    -5108    -5134    -5161    -5190    -5220    -5244 
   -5271    -5301    -5329    -5358    -5390    -5421    -5451    -5478 
   -5506    -5541    -5574    -5605    -5636    -5663    -5687    -5715 
   -5748    -5780    -5811    -5841    -5871    -5899    -5930    -5957 
   -5983    -6010    -6035    -6064    -6095    -6120    -6139    -6164 
   -6192    -6214    -6237    -6259    -6284    -6308    -6328    -6346 
   -6369    -6392    -6411    -6427    -6446    -6465    -6485    -6501 
   -6515    -6529    -6547    -6566    -6581    -6597    -6609    -6619 
   -6631    -6643    -6654    -6664    -6678    -6691    -6697    -6705 
   -6717    -6727    -6733    -6741    -6748    -6756    -6764    -6770 
   -6774    -6781    -6787    -6794    -6805    -6808    -6801    -6804 
   -6813    -6820    -6825    -6826    -6828    -6833    -6833    -6829 
   -6835    -6847    -6851    -6847    -6845    -6848    -6853    -6853 
   -6853    -6856    -6855    -6859    -6860    -6856    -6858    -6859 
   -6855    -6859    -6864    -6863    -6860    -6858    -6858    -6862 
   -6860    -6856    -6863    -6867    -6863    -6858    -6852    -6848 
   -6851    -6855    -6858    -6851    -6847    -6844    -6837    -6835 
   -6835    -6837    -6841    -6836    -6824    -6821    -6822    -6818 
   -6814    -6812    -6809    -6805    -6795    -6789    -6782    -6774 
   -6771    -6768    -6758    -6751    -6744    -6736    -6732    -6723 
   -6709    -6705    -6700    -6683    -6671    -6658    -6646    -6639 
   -6628    -6613    -6602    -6594    -6578    -6561    -6546    -6531 
   -6517    -6508    -6492    -6470    -6451    -6436    -6420    -6404 
   -6385    -6366    -6353    -6336    -6316    -6295    -6280    -6265 
   -6245    -6222    -6200    -6181    -6161    -6141    -6123    -6108 
   -6093    -6076    -6054    -6031    -6012    -5998    -5983    -5965 
   -5942    -5921    -5902    -5887    -5869    -5852    -5838    -5826 
   -5807    -5786    -5771    -5757    -5741    -5727    -5710    -5691 
   -5683    -5672    -5659    -5647    -5629    -5610    -5601    -5593 
   -5580    -5567    -5555    -5543    -5530    -5519    -5514    -5510 
   -5498    -5489    -5481    -5468    -5458    -5451    -5443    -5433 
   -5427    -5425    -5425    -5416    -5405    -5400    -5397    -5394 
   -5383    -5373    -5374    -5375    -5367    -5356    -5351    -5355 
   -5359    -5358    -5350    -5344    -5339    -5337    -5337    -5337 
   -5333    -5328    -5327    -5328    -5323    -5319    -5321    -5325 
   -5320    -5314    -5317    -5316    -5312    -5312    -5310    -5309 
   -5308    -5305    -5305    -5305    -5300    -5297    -5297    -5298 
   -5298    -5296    -5293    -5293    -5290    -5285    -5283    -5285 
   -5285    -5282    -5281    -5282    -5285    -5279    -5275    -5273 
   -5271    -5271    -5273    -5273    -5268    -5265    -5266    -5270 
   -5271    -5268    -5267    -5268    -5265    -5263    -5266    -5270 
   -5273    -5270    -5267    -5273    -5277    -5281    -5285    -5287 
   -5285    -5281    -5286    -5292    -5296    -5305    -5312    -5313 
   -5316    -5314    -5314    -5323    -5335    -5343    -5346    -5354 
   -5364    -5366    -5367    -5375    -5383    -5393    -5400    -5406 
   -5416    -5428    -5435    -5437    -5443    -5458    -5466    -5476 
   -5490    -5494    -5498    -5508    -5516    -5521    -5535    -5548 
   -5555    -5560    -5567    -5578    -5587    -5595    -5603    -5611 
   -5613    -5616    -5625    -5633    -5638    -5644    -5651    -5660 
   -5665    -5663    -5664    -5670    -5676    -5683    -5686    -5687 
   -5689    -5689    -5686    -5686    -5694    -5702    -5703    -5702 
   -5699    -5694    -5694    -5697    -5701    -5702    -5702    -5701 
   -5694    -5691    -5692    -5694    -5694    -5694    -5691    -5687 
   -5686    -5686    -5684    -5680    -5680    -5682    -5682    -5680 
   -5675    -5667    -5665    -5670    -5668    -5665    -5665    -5665 
   -5661    -5655    -5647    -5647    -5651    -5652    -5649    -5645 
