Origin Time       2016/04/16 01:25:00
Lat.              32.753
Long.             130.762
Depth. (km)       12
Mag.              7.3
Station Code      ISK002
Station Lat.      37.4443
Station Long.     137.2877
Station Height(m) 4
Record Time       2016/04/16 01:29:18
Sampling Freq(Hz) 100Hz
Duration Time(s)  76
Dir.              E-W
Scale Factor      7845(gal)/8223790
Max. Acc. (gal)   2.107
Last Correction   2016/04/16 01:29:20
Memo.             
[...]
  -15507   -15492   -15479   -15461   -15446   -15427   -15406   -15388 
  -15367   -15346   -15329   -15309   -15284   -15265   -15246   -15223 
  -15202   -15179   -15155   -15134   -15114   -15088   -15066   -15047 
  -15025   -15002   -14982   -14958   -14935   -14916   -14897   -14874 
  -14851   -14833   -14817   -14794   -14774   -14760   -14740   -14719 
  -14704   -14689   -14667   -14651   -14638   -14619   -14601   -14588 
  -14570   -14555   -14542   -14524   -14509   -14496   -14481   -14465 
  -14453   -14443   -14430   -14412   -14399   -14392   -14377   -14366 
  -14357   -14343   -14337   -14331   -14316   -14308   -14304   -14297 
  -14293   -14291   -14283   -14278   -14277   -14273   -14273   -14273 
  -14274   -14276   -14277   -14278   -14281   -14285   -14288   -14296 
  -14300   -14307   -14318   -14326   -14335   -14349   -14361   -14373 
  -14386   -14401   -14413   -14430   -14450   -14466   -14484   -14504 
  -14527   -14547   -14567   -14590   -14613   -14638   -14662   -14681 
  -14706   -14733   -14757   -14782   -14808   -14836   -14863   -14886 
  -14910   -14936   -14963   -14990   -15014   -15037   -15063   -15088 
  -15111   -15134   -15156   -15183   -15206   -15223   -15246   -15269 
  -15288   -15311   -15330   -15348   -15371   -15390   -15407   -15426 
  -15439   -15453   -15473   -15492   -15506   -15516   -15531   -15546 
  -15560   -15573   -15583   -15595   -15607   -15616   -15626   -15635 
  -15649   -15660   -15665   -15674   -15687   -15696   -15705   -15715 
  -15723   -15731   -15745   -15754   -15762   -15772   -15784   -15789 
  -15797   -15807   -15816   -15824   -15835   -15842   -15850   -15858 
  -15866   -15876   -15882   -15886   -15892   -15898   -15906   -15909 
  -15911   -15913   -15916   -15919   -15921   -15919   -15913   -15915 
  -15915   -15909   -15903   -15896   -15890   -15885   -15876   -15865 
  -15855   -15842   -15827   -15815   -15799   -15781   -15766   -15749 
  -15727   -15707   -15688   -15664   -15641   -15616   -15589   -15564 
  -15538   -15511   -15484   -15454   -15424   -15398   -15367   -15333 
  -15303   -15276   -15245   -15213   -15178   -15147   -15117   -15086 
  -15052   -15017   -14986   -14955   -14925   -14893   -14863   -14835 
  -14808   -14777   -14746   -14719   -14693   -14667   -14642   -14613 
  -14589   -14566   -14539   -14517   -14500   -14480   -14458   -14438 
  -14419   -14403   -14389   -14374   -14359   -14346   -14334   -14324 
  -14315   -14304   -14295   -14288   -14280   -14273   -14268   -14262 
  -14258   -14255   -14251   -14246   -14241   -14241   -14242   -14238 
  -14235   -14238   -14239   -14237   -14234   -14234   -14238   -14239 
  -14237   -14238   -14237   -14235   -14237   -14235   -14235   -14238 
  -14235   -14234   -14231   -14227   -14226   -14222   -14220   -14215 
  -14208   -14204   -14200   -14193   -14187   -14181   -14175   -14164 
  -14153   -14143   -14134   -14126   -14115   -14102   -14087   -14073 
  -14061   -14046   -14029   -14014   -14002   -13986   -13968   -13948 
  -13934   -13919   -13900   -13883   -13864   -13848   -13837   -13821 
  -13801   -13786   -13773   -13759   -13744   -13732   -13724   -13714 
  -13705   -13697   -13686   -13679   -13676   -13674   -13668   -13667 
  -13667   -13668   -13672   -13674   -13674   -13683   -13694   -13701 
  -13709   -13718   -13730   -13745   -13757   -13773   -13792   -13809 
  -13825   -13842   -13861   -13882   -13907   -13929   -13945   -13967 
  -13992   -14018   -14042   -14062   -14084   -14113   -14138   -14156 
  -14183   -14207   -14229   -14254   -14277   -14297   -14320   -14343 
  -14364   -14385   -14407   -14426   -14445   -14465   -14482   -14500 
  -14517   -14536   -14554   -14565   -14577   -14596   -14612   -14623 
  -14635   -14648   -14663   -14677   -14686   -14697   -14710   -14721 
  -14731   -14742   -14754   -14767   -14778   -14787   -14798   -14810 
  -14823   -14836   -14846   -14859   -14868   -14879   -14893   -14904 
  -14916   -14931   -14943   -14953   -14967   -14982   -14995   -15010 
  -15024   -15037   -15052   -15067   -15080   -15097   -15111   -15125 
  -15140   -15159   -15175   -15188   -15205   -15222   -15241   -15256 
  -15268   -15286   -15305   -15322   -15338   -15356   -15371   -15388 
  -15404   -15422   -15439   -15457   -15475   -15489   -15506   -15520 
  -15539   -15556   -15569   -15583   -15599   -15614   -15628   -15642 
  -15654   -15668   -15678   -15688   -15701   -15711   -15720   -15731 
  -15742   -15751   -15759   -15766   -15773   -15777   -15781   -15784 
  -15788   -15793   -15792   -15789   -15793   -15792   -15788   -15784 
  -15781   -15777   -15773   -15764   -15759   -15753   -15742   -15728 
  -15718   -15707   -15693   -15678   -15665   -15649   -15632   -15614 
  -15592   -15573   -15553   -15529   -15503   -15479   -15454   -15429 
  -15399   -15367   -15340   -15310   -15275   -15241   -15206   -15173 
  -15140   -15103   -15066   -15028   -14990   -14952   -14913   -14872 
  -14835   -14793   -14754   -14716   -14677   -14636   -14594   -14555 
  -14517   -14481   -14440   -14401   -14364   -14330   -14293   -14255 
  -14222   -14189   -14156   -14123   -14092   -14064   -14037   -14011 
  -13981   -13954   -13932   -13911   -13892   -13872   -13853   -13836 
  -13824   -13811   -13798   -13783   -13773   -13767   -13759   -13748 
  -13740   -13740   -13737   -13732   -13728   -13726   -13728   -13728 
  -13729   -13732   -13734   -13737   -13743   -13745   -13745   -13752 
  -13763   -13765   -13767   -13772   -13778   -13786   -13795   -13798 
  -13805   -13814   -13819   -13826   -13833   -13839   -13848   -13856 
  -13861   -13871   -13878   -13886   -13896   -13898   -13902   -13915 
  -13923   -13930   -13937   -13944   -13952   -13961   -13968   -13973 
  -13981   -13991   -13996   -14003   -14011   -14019   -14026   -14034 
  -14041   -14047   -14053   -14061   -14071   -14076   -14083   -14094 
  -14102   -14106   -14113   -14123   -14133   -14141   -14148   -14156 
  -14166   -14173   -14179   -14188   -14197   -14206   -14215   -14226 
  -14233   -14239   -14251   -14261   -14268   -14277   -14288   -14304 
  -14318   -14327   -14341   -14354   -14370   -14386   -14405   -14426 
  -14447   -14466   -14486   -14512   -14539   -14563   -14590   -14619 
  -14647   -14679   -14712   -14742   -14774   -14809   -14844   -14881 
  -14917   -14952   -14990   -15029   -15068   -15107   -15148   -15188 
  -15228   -15267   -15310   -15352   -15394   -15434   -15472   -15512 
  -15554   -15596   -15637   -15674   -15712   -15750   -15789   -15830 
  -15865   -15900   -15938   -15972   -16005   -16038   -16074   -16106 
  -16141   -16174   -16201   -16231   -16262   -16291   -16318   -16344 
  -16374   -16405   -16428   -16449   -16478   -16505   -16528   -16551 
  -16572   -16592   -16616   -16638   -16657   -16676   -16695   -16714 
  -16733   -16748   -16762   -16780   -16796   -16808   -16820   -16831 
  -16842   -16852   -16857   -16866   -16869   -16872   -16877   -16883 
  -16886   -16883   -16883   -16880   -16872   -16872   -16865   -16856 
  -16852   -16839   -16822   -16816   -16808   -16786   -16765   -16750 
  -16734   -16710   -16684   -16664   -16641   -16613   -16586   -16555 
  -16519   -16484   -16453   -16420   -16382   -16341   -16298   -16256 
  -16213   -16170   -16121   -16077   -16032   -15979   -15927   -15877 
  -15827   -15773   -15718   -15664   -15608   -15550   -15495   -15439 
  -15381   -15322   -15264   -15209   -15152   -15094   -15034   -14978 
  -14921   -14863   -14808   -14755   -14701   -14647   -14596   -14547 
  -14499   -14451   -14404   -14358   -14315   -14273   -14233   -14193 
  -14153   -14113   -14080   -14049   -14018   -13987   -13959   -13933 
  -13909   -13884   -13861   -13841   -13826   -13810   -13794   -13779 
  -13763   -13749   -13740   -13734   -13729   -13724   -13718   -13717 
  -13717   -13717   -13717   -13718   -13724   -13730   -13736   -13743 
  -13752   -13763   -13771   -13783   -13799   -13814   -13826   -13842 
  -13857   -13876   -13898   -13917   -13937   -13957   -13979   -14004 
  -14027   -14049   -14075   -14102   -14127   -14152   -14181   -14211 
  -14242   -14270   -14297   -14327   -14361   -14392   -14422   -14454 
  -14488   -14519   -14548   -14581   -14615   -14647   -14681   -14713 
  -14746   -14779   -14812   -14844   -14878   -14910   -14940   -14975 
  -15009   -15039   -15071   -15105   -15136   -15168   -15196   -15225 
  -15261   -15292   -15317   -15346   -15380   -15407   -15435   -15465 
  -15492   -15519   -15550   -15577   -15599   -15626   -15655   -15680 
  -15703   -15730   -15757   -15781   -15803   -15826   -15849   -15870 
  -15894   -15916   -15932   -15954   -15974   -15988   -16005   -16027 
  -16038   -16052   -16069   -16079   -16090   -16102   -16110   -16117 
  -16127   -16135   -16137   -16140   -16141   -16141   -16143   -16143 
  -16140   -16135   -16127   -16123   -16120   -16109   -16102   -16094 
  -16081   -16071   -16059   -16042   -16028   -16017   -16002   -15986 
  -15965   -15946   -15931   -15916   -15894   -15873   -15858   -15840 
  -15820   -15800   -15782   -15764   -15747   -15727   -15708   -15693 
  -15677   -15661   -15646   -15632   -15620   -15608   -15596   -15585 
  -15574   -15566   -15561   -15553   -15545   -15542   -15541   -15539 
  -15537   -15531   -15530   -15535   -15538   -15538   -15539   -15546 
  -15556   -15564   -15569   -15579   -15589   -15597   -15606   -15614 
  -15624   -15639   -15651   -15664   -15676   -15688   -15704   -15718 
  -15730   -15742   -15754   -15768   -15778   -15790   -15803   -15815 
  -15826   -15836   -15844   -15855   -15865   -15873   -15882   -15889 
  -15896   -15904   -15909   -15916   -15921   -15924   -15928   -15929 
  -15928   -15925   -15927   -15928   -15924   -15919   -15916   -15912 
  -15906   -15900   -15892   -15884   -15876   -15865   -15853   -15840 
  -15827   -15815   -15805   -15793   -15776   -15759   -15743   -15726 
  -15711   -15695   -15676   -15657   -15638   -15620   -15604   -15585 
  -15565   -15549   -15531   -15513   -15493   -15473   -15457   -15442 
  -15424   -15407   -15395   -15376   -15358   -15348   -15334   -15314 
  -15300   -15288   -15276   -15264   -15255   -15242   -15229   -15222 
  -15214   -15202   -15192   -15186   -15179   -15169   -15163   -15161 
  -15157   -15148   -15142   -15140   -15138   -15133   -15130   -15130 
  -15126   -15122   -15122   -15121   -15117   -15118   -15120   -15114 
  -15113   -15117   -15117   -15110   -15109   -15109   -15109   -15109 
  -15105   -15102   -15102   -15097   -15094   -15095   -15097   -15093 
  -15088   -15086   -15082   -15078   -15075   -15070   -15066   -15063 
  -15054   -15049   -15045   -15039   -15033   -15028   -15020   -15013 
  -15005   -14993   -14985   -14980   -14971   -14958   -14945   -14936 
  -14925   -14914   -14905   -14894   -14877   -14859   -14846   -14833 
  -14818   -14802   -14786   -14770   -14754   -14736   -14716   -14698 
  -14681   -14661   -14638   -14615   -14596   -14574   -14553   -14528 
  -14504   -14481   -14457   -14432   -14405   -14377   -14353   -14326 
  -14296   -14270   -14245   -14219   -14193   -14165   -14137   -14110 
  -14085   -14060   -14035   -14013   -13987   -13963   -13940   -13919 
  -13899   -13882   -13865   -13848   -13829   -13814   -13801   -13790 
  -13780   -13768   -13760   -13757   -13756   -13753   -13752   -13756 
  -13763   -13765   -13768   -13778   -13794   -13809   -13821   -13834 
  -13851   -13871   -13895   -13917   -13940   -13965   -13994   -14022 
  -14053   -14080   -14112   -14145   -14179   -14216   -14254   -14292 
  -14331   -14372   -14409   -14451   -14500   -14548   -14590   -14631 
  -14675   -14724   -14775   -14823   -14864   -14917   -14974   -15021 
  -15066   -15117   -15172   -15225   -15276   -15327   -15379   -15429 
  -15484   -15537   -15587   -15637   -15688   -15738   -15788   -15836 
  -15882   -15931   -15981   -16027   -16071   -16117   -16159   -16200 
  -16240   -16279   -16317   -16353   -16387   -16420   -16453   -16486 
  -16514   -16542   -16569   -16591   -16610   -16629   -16649   -16665 
  -16684   -16698   -16707   -16717   -16725   -16731   -16738   -16742 
  -16744   -16742   -16744   -16741   -16734   -16729   -16725   -16717 
  -16705   -16695   -16682   -16671   -16657   -16641   -16622   -16606 
  -16586   -16563   -16544   -16521   -16497   -16474   -16451   -16424 
  -16398   -16368   -16340   -16312   -16281   -16249   -16222   -16193 
  -16157   -16124   -16094   -16060   -16028   -15996   -15963   -15928 
  -15893   -15861   -15830   -15799   -15764   -15735   -15705   -15673 
  -15642   -15615   -15584   -15552   -15523   -15498   -15465   -15433 
  -15408   -15385   -15358   -15331   -15305   -15282   -15256   -15232 
  -15206   -15186   -15163   -15140   -15120   -15097   -15072   -15048 
  -15026   -15005   -14982   -14960   -14936   -14912   -14886   -14862 
  -14839   -14810   -14782   -14757   -14728   -14697   -14670   -14640 
  -14608   -14578   -14544   -14508   -14476   -14442   -14405   -14369 
  -14331   -14293   -14253   -14215   -14176   -14137   -14096   -14056 
  -14013   -13969   -13925   -13884   -13845   -13805   -13761   -13720 
  -13678   -13636   -13593   -13551   -13514   -13475   -13435   -13394 
  -13359   -13328   -13293   -13248   -13207   -13178   -13151   -13119 
  -13096   -13073   -13039   -13007   -12984   -12962   -12942   -12927 
  -12908   -12885   -12874   -12868   -12852   -12841   -12835   -12825 
  -12822   -12825   -12820   -12820   -12827   -12831   -12841   -12849 
  -12855   -12870   -12883   -12901   -12931   -12947   -12964   -12996 
  -13024   -13049   -13078   -13109   -13144   -13188   -13224   -13258 
  -13302   -13354   -13404   -13446   -13489   -13541   -13594   -13648 
  -13701   -13749   -13805   -13863   -13915   -13971   -14030   -14090 
  -14149   -14202   -14261   -14323   -14380   -14435   -14492   -14551 
  -14609   -14666   -14724   -14778   -14832   -14887   -14940   -14991 
  -15044   -15097   -15148   -15198   -15246   -15290   -15334   -15381 
  -15426   -15468   -15511   -15550   -15588   -15628   -15664   -15693 
  -15727   -15761   -15790   -15820   -15849   -15873   -15898   -15924 
  -15947   -15969   -15993   -16015   -16029   -16046   -16065   -16078 
  -16093   -16106   -16119   -16131   -16139   -16143   -16152   -16162 
  -16166   -16168   -16170   -16174   -16175   -16175   -16175   -16174 
  -16173   -16171   -16166   -16160   -16155   -16150   -16143   -16132 
  -16119   -16109   -16102   -16087   -16073   -16059   -16043   -16029 
  -16015   -15997   -15979   -15961   -15942   -15921   -15900   -15878 
  -15854   -15832   -15809   -15782   -15757   -15731   -15707   -15680 
  -15654   -15627   -15603   -15577   -15546   -15519   -15490   -15464 
  -15437   -15408   -15380   -15354   -15327   -15300   -15272   -15245 
  -15219   -15192   -15163   -15138   -15117   -15094   -15070   -15045 
  -15021   -14998   -14979   -14959   -14939   -14918   -14901   -14882 
  -14864   -14846   -14829   -14816   -14802   -14785   -14770   -14757 
  -14747   -14735   -14721   -14710   -14704   -14693   -14679   -14667 
  -14661   -14656   -14648   -14638   -14636   -14629   -14623   -14619 
  -14611   -14607   -14605   -14600   -14594   -14593   -14592   -14588 
  -14585   -14584   -14582   -14582   -14581   -14581   -14580   -14577 
  -14578   -14578   -14578   -14577   -14575   -14575   -14577   -14578 
  -14578   -14574   -14571   -14572   -14571   -14567   -14565   -14563 
  -14559   -14554   -14548   -14543   -14536   -14528   -14520   -14511 
  -14504   -14496   -14484   -14472   -14459   -14447   -14432   -14418 
  -14404   -14389   -14369   -14351   -14337   -14318   -14296   -14276 
  -14260   -14241   -14220   -14197   -14176   -14156   -14135   -14115 
  -14092   -14072   -14050   -14030   -14010   -13987   -13965   -13948 
  -13930   -13911   -13892   -13872   -13853   -13837   -13821   -13806 
  -13794   -13782   -13770   -13757   -13745   -13737   -13732   -13722 
  -13714   -13710   -13709   -13703   -13701   -13702   -13702   -13702 
  -13709   -13713   -13714   -13721   -13728   -13734   -13740   -13749 
  -13763   -13772   -13780   -13794   -13806   -13818   -13833   -13848 
  -13860   -13872   -13891   -13905   -13921   -13937   -13952   -13969 
  -13986   -14002   -14021   -14037   -14053   -14073   -14092   -14108 
  -14127   -14149   -14169   -14188   -14208   -14231   -14254   -14274 
  -14296   -14319   -14345   -14370   -14395   -14420   -14451   -14480 
  -14504   -14534   -14567   -14600   -14629   -14663   -14698   -14731 
  -14767   -14806   -14844   -14883   -14925   -14967   -15007   -15049 
  -15091   -15134   -15178   -15222   -15271   -15318   -15363   -15410 
  -15460   -15508   -15556   -15604   -15655   -15707   -15754   -15805 
  -15857   -15906   -15955   -16008   -16058   -16104   -16152   -16204 
  -16254   -16303   -16351   -16390   -16436   -16484   -16526   -16568 
  -16609   -16645   -16686   -16725   -16754   -16788   -16825   -16854 
  -16880   -16903   -16929   -16952   -16972   -16988   -17003   -17020 
  -17038   -17043   -17032   -17041   -17069   -17067   -17043   -17041 
  -17046   -17038   -17030   -17014   -16995   -16981   -16964   -16943 
  -16915   -16886   -16868   -16846   -16814   -16777   -16742   -16714 
  -16681   -16638   -16596   -16561   -16521   -16479   -16436   -16390 
  -16348   -16309   -16264   -16213   -16166   -16121   -16075   -16025 
  -15977   -15931   -15885   -15836   -15786   -15738   -15691   -15642 
  -15592   -15543   -15496   -15450   -15403   -15358   -15315   -15267 
  -15219   -15180   -15138   -15091   -15052   -15012   -14965   -14926 
  -14889   -14851   -14813   -14778   -14742   -14704   -14671   -14640 
  -14607   -14574   -14543   -14513   -14486   -14457   -14427   -14400 
  -14377   -14353   -14327   -14304   -14281   -14260   -14242   -14220 
  -14202   -14185   -14168   -14152   -14137   -14121   -14107   -14095 
  -14084   -14073   -14061   -14052   -14045   -14040   -14033   -14023 
  -14017   -14013   -14008   -14004   -14004   -14003   -14002   -14002 
  -14002   -14003   -14006   -14007   -14007   -14010   -14014   -14019 
  -14022   -14026   -14034   -14041   -14042   -14046   -14057   -14064 
  -14068   -14077   -14084   -14089   -14099   -14107   -14112   -14121 
  -14130   -14134   -14142   -14154   -14161   -14169   -14179   -14189 
  -14200   -14208   -14218   -14227   -14238   -14251   -14265   -14276 
  -14288   -14303   -14316   -14326   -14341   -14359   -14374   -14386 
  -14404   -14424   -14440   -14458   -14477   -14496   -14517   -14535 
  -14555   -14578   -14601   -14627   -14651   -14674   -14701   -14725 
  -14747   -14778   -14806   -14835   -14864   -14893   -14921   -14953 
  -14985   -15014   -15047   -15080   -15111   -15145   -15179   -15211 
  -15248   -15284   -15318   -15353   -15388   -15424   -15462   -15500 
  -15538   -15577   -15615   -15650   -15688   -15728   -15766   -15804 
  -15842   -15880   -15920   -15957   -15993   -16028   -16065   -16101 
  -16135   -16171   -16208   -16240   -16274   -16306   -16337   -16365 
  -16397   -16425   -16451   -16476   -16503   -16528   -16551   -16571 
  -16587   -16605   -16621   -16633   -16642   -16653   -16661   -16665 
