Origin Time       2016/04/16 01:25:00
Lat.              32.753
Long.             130.762
Depth. (km)       12
Mag.              7.3
Station Code      ISK010
Station Lat.      36.5419
Station Long.     136.6431
Station Height(m) 30
Record Time       2016/04/16 01:28:23
Sampling Freq(Hz) 100Hz
Duration Time(s)  62
Dir.              E-W
Scale Factor      7845(gal)/8223790
Max. Acc. (gal)   1.575
Last Correction   2016/04/16 01:28:08
Memo.             
[...]
     399      409      419      434      449      464      479      491 
     504      518      532      549      564      579      594      606 
     625      643      654      669      688      702      715      728 
     741      758      769      776      789      803      812      816 
     824      838      845      846      851      858      864      866 
     868      872      876      876      876      880      881      876 
     872      872      873      870      866      864      858      851 
     846      843      838      827      816      808      799      789 
     781      772      761      747      734      723      712      700 
     687      670      657      641      623      612      603      585 
     566      550      535      523      510      493      476      457 
     440      423      410      396      376      356      334      314 
     301      288      266      244      225      205      186      167 
     147      129      112       89       71       55       37       20 
       2      -14      -29      -43      -62      -76      -89     -102 
    -117     -131     -147     -157     -168     -182     -195     -209 
    -221     -232     -243     -251     -259     -274     -286     -297 
    -306     -311     -319     -334     -344     -346     -352     -363 
    -376     -380     -380     -388     -396     -403     -409     -411 
    -419     -429     -427     -423     -425     -425     -425     -425 
    -423     -421     -422     -413     -402     -398     -391     -379 
    -367     -355     -341     -329     -315     -299     -282     -263 
    -244     -229     -214     -194     -172     -149     -125     -103 
     -81      -56      -35      -17       11       49       67       78 
     110      141      159      182      210      238      263      284 
     307      333      357      375      398      422      437      450 
     477      506      519      532      552      561      573      595 
     606      611      625      633      634      642      652      650 
     653      654      649      650      658      652      641      638 
     633      625      623      622      611      599      595      592 
     584      575      566      558      556      549      537      533 
     535      530      523      521      514      511      519      518 
     508      511      519      522      522      523      526      531 
     540      545      545      548      553      556      564      575 
     579      579      583      587      591      598      602      610 
     618      621      621      623      630      642      653      657 
     658      665      679      688      692      696      710      728 
     741      747      762      780      792      807      824      838 
     858      874      886      905      923      934      950      969 
     981      993     1009     1026     1036     1043     1053     1065 
    1075     1078     1077     1081     1092     1094     1093     1090 
    1086     1078     1071     1069     1062     1048     1034     1024 
    1009      990      976      962      945      926      903      881 
     868      853      830      807      785      765      747      728 
     710      692      672      653      635      619      600      579 
     565      553      530      508      495      483      469      453 
     434      415      398      383      368      348      330      315 
     297      278      257      237      221      202      180      159 
     139      117       98       78       56       32       16       -2 
     -28      -52      -70      -89     -112     -140     -166     -184 
    -203     -225     -251     -272     -292     -319     -344     -361 
    -375     -399     -425     -444     -459     -479     -498     -511 
    -521     -531     -545     -561     -571     -575     -584     -591 
    -592     -599     -600     -598     -599     -598     -591     -585 
    -576     -569     -565     -552     -535     -522     -508     -495 
    -476     -456     -438     -418     -398     -376     -352     -328 
    -305     -282     -257     -230     -206     -183     -159     -137 
    -112      -83      -59      -39      -18        4       31       49 
      68       93      116      139      159      175      195      220 
     238      257      276      294      313      334      353      378 
     394      406      425      449      469      487      508      530 
     549      569      587      606      630      653      670      689 
     711      730      749      770      791      810      830      853 
     873      885      905      926      939      953      967      984 
    1003     1013     1019     1030     1043     1053     1057     1062 
    1071     1078     1075     1074     1078     1084     1084     1080 
    1080     1078     1074     1071     1073     1070     1067     1063 
    1058     1059     1060     1055     1053     1051     1048     1047 
    1039     1035     1039     1042     1036     1034     1028     1023 
    1020     1019     1013     1004      993      989      982      970 
     959      949      939      928      912      895      881      868 
     851      828      811      796      774      753      737      715 
     696      677      658      641      622      602      587      568 
     549      532      519      503      488      472      459      450 
     441      425      415      411      405      399      396      387 
     379      376      378      375      372      372      373      375 
     375      375      380      387      392      396      403      413 
     421      427      440      453      461      469      481      498 
     513      526      540      556      568      583      600      615 
     629      639      653      666      677      685      695      702 
     710      715      719      722      724      723      724      727 
     727      720      714      711      707      695      687      684 
     676      662      646      631      622      612      595      575 
     558      540      519      495      471      449      422      396 
     372      342      311      283      252      220      189      157 
     124       86       49       18      -11      -49      -90     -125 
    -159     -197     -237     -272     -302     -336     -376     -415 
    -446     -479     -517     -550     -581     -611     -643     -677 
    -710     -741     -772     -801     -832     -858     -881     -908 
    -936     -962     -985    -1008    -1030    -1048    -1065    -1088 
   -1107    -1121    -1138    -1152    -1161    -1165    -1175    -1183 
   -1185    -1189    -1192    -1188    -1185    -1183    -1175    -1173 
   -1169    -1152    -1138    -1129    -1116    -1097    -1080    -1065 
   -1048    -1026    -1005     -981     -955     -932     -907     -880 
    -853     -824     -792     -760     -733     -704     -668     -629 
    -595     -564     -532     -493     -450     -418     -387     -348 
    -309     -270     -230     -191     -153     -114      -74      -35 
       4       45       86      129      171      209      246      284 
     328      370      403      436      477      513      540      576 
     608      637      665      696      724      747      770      797 
     819      838      854      877      903      918      931      953 
     972      987     1005     1023     1039     1057     1074     1089 
    1107     1123     1136     1154     1173     1188     1200     1213 
    1225     1236     1248     1263     1278     1290     1296     1301 
    1316     1328     1333     1339     1344     1351     1360     1368 
    1371     1372     1377     1381     1382     1386     1391     1391 
    1387     1387     1386     1383     1381     1382     1381     1374 
    1368     1367     1364     1359     1350     1340     1339     1339 
    1329     1318     1312     1304     1298     1296     1285     1273 
    1269     1260     1250     1243     1237     1230     1223     1213 
    1205     1201     1196     1188     1181     1177     1167     1158 
    1156     1152     1140     1133     1131     1124     1120     1123 
    1116     1111     1113     1113     1111     1109     1107     1109 
    1117     1127     1131     1131     1135     1147     1154     1159 
    1170     1179     1188     1197     1202     1209     1223     1237 
    1244     1250     1260     1270     1279     1289     1296     1302 
    1312     1316     1318     1327     1334     1341     1341     1344 
    1348     1348     1348     1351     1348     1348     1348     1340 
    1332     1328     1321     1312     1305     1297     1282     1266 
    1250     1237     1227     1212     1192     1166     1143     1127 
    1111     1086     1063     1039     1012      985      958      931 
     900      868      837      807      777      741      707      673 
     639      606      575      542      503      464      437      406 
     373      341      307      276      248      216      190      167 
     140      116       91       70       52       28        9        2 
     -10      -28      -41      -47      -52      -58      -62      -60 
     -63      -60      -51      -49      -44      -32      -27      -16 
      -1       10       25       41       54       74       90      103 
     120      139      152      167      184      202      218      232 
     243      252      270      284      292      302      309      311 
     319      328      330      333      337      338      337      336 
     337      338      334      328      324      322      321      315 
     303      292      289      282      271      263      255      243 
     230      217      207      198      183      164      148      139 
     125      106       93       79       63       47       32       21 
       8       -2      -11      -23      -31      -37      -47      -52 
     -56      -62      -63      -64      -68      -67      -62      -58 
     -55      -49      -44      -39      -32      -21       -8        9 
      22       32       41       54       72       93      110      125 
     139      151      166      184      203      218      234      252 
     263      279      295      309      324      340      356      372 
     383      391      405      422      436      445      454      463 
     471      479      490      499      504      508      510      513 
     514      514      513      511      508      502      492      487 
     479      468      457      442      425      413      399      382 
     364      344      325      306      289      271      251      230 
     211      194      176      159      140      124      108       90 
      78       70       56       43       32       25       18       14 
      11        8        4        4        4        5       16       18 
      18       25       37       47       58       68       82      101 
     122      139      155      176      202      225      251      276 
     301      328      359      391      422      454      481      508 
     542      577      610      638      669      706      738      769 
     803      834      864      896      922      953      989     1017 
    1039     1063     1093     1124     1150     1170     1190     1213 
    1237     1260     1277     1294     1308     1321     1334     1348 
    1358     1364     1374     1382     1382     1383     1387     1387 
    1385     1385     1383     1381     1374     1363     1356     1352 
    1344     1332     1318     1305     1294     1282     1267     1251 
    1230     1212     1194     1175     1152     1131     1112     1092 
    1067     1039     1015      993      972      949      919      889 
     861      831      805      777      747      719      688      658 
     630      600      568      535      504      473      442      414 
     379      342      313      287      257      228      197      166 
     139      112       83       58       32        8      -17      -41 
     -59      -81     -108     -122     -133     -153     -170     -183 
    -197     -202     -210     -220     -225     -230     -236     -243 
    -249     -248     -245     -244     -244     -249     -248     -240 
    -237     -238     -236     -230     -225     -221     -216     -211 
    -207     -198     -190     -189     -182     -171     -166     -159 
    -147     -133     -126     -122     -112      -99      -89      -76 
     -64      -52      -37      -23      -14       -8        5       32 
      47       56       68       82       98      120      135      148 
     163      178      197      216      233      249      266      283 
     302      324      341      360      383      402      421      440 
     456      479      500      521      542      561      581      603 
     623      646      670      689      711      734      754      776 
     804      830      853      876      903      928      951      978 
    1008     1036     1063     1089     1112     1136     1165     1196 
    1224     1250     1275     1304     1328     1351     1374     1399 
    1429     1457     1479     1501     1521     1544     1567     1590 
    1610     1632     1655     1676     1691     1709     1732     1750 
    1765     1783     1799     1814     1833     1852     1868     1883 
    1895     1906     1921     1934     1944     1952     1968     1984 
    1991     1998     2008     2020     2029     2031     2034     2045 
    2053     2058     2064     2064     2065     2069     2068     2069 
    2072     2068     2062     2058     2058     2057     2050     2039 
    2027     2020     2016     2006     1992     1982     1973     1964 
    1948     1927     1911     1899     1887     1868     1848     1831 
    1815     1794     1772     1753     1734     1710     1683     1661 
    1641     1613     1584     1559     1530     1502     1474     1440 
    1409     1379     1350     1318     1286     1256     1228     1193 
    1159     1129     1098     1069     1039     1011      982      953 
     920      886      861      842      816      787      761      734 
     706      683      661      638      615      591      565      538 
     517      493      468      441      415      392      368      341 
     311      284      257      225      195      166      139      114 
      85       51       16      -14      -43      -76     -112     -143 
    -174     -207     -241     -274     -301     -330     -365     -396 
    -423     -454     -481     -508     -537     -560     -579     -602 
    -625     -645     -664     -684     -699     -711     -726     -743 
    -757     -766     -776     -787     -799     -804     -808     -814 
    -818     -818     -820     -828     -832     -827     -824     -828 
    -827     -819     -814     -810     -805     -800     -789     -784 
    -780     -769     -754     -741     -738     -731     -718     -702 
    -692     -680     -661     -645     -638     -631     -615     -592 
    -575     -568     -562     -549     -531     -514     -498     -484 
    -472     -459     -444     -432     -417     -402     -386     -372 
    -361     -344     -326     -314     -301     -284     -270     -256 
    -241     -228     -210     -193     -178     -168     -157     -141 
    -124     -112     -101      -86      -70      -58      -49      -37 
     -22       -8        4       14       27       40       52       63 
      74       89      105      110      116      129      141      148 
     156      167      180      189      190      193      202      209 
     214      221      221      221      224      225      225      225 
     225      225      220      210      209      212      210      202 
     195      193      187      176      172      170      163      155 
     144      136      129      128      121      110      101       94 
      86       78       68       60       52       40       28       16 
       8       -1      -11      -23      -32      -47      -59      -68 
     -79      -93     -103     -117     -129     -140     -152     -170 
    -183     -194     -202     -216     -233     -249     -259     -268 
    -276     -289     -306     -315     -322     -332     -342     -351 
    -356     -364     -373     -383     -388     -391     -394     -399 
    -403     -410     -418     -425     -427     -427     -429     -436 
    -446     -453     -456     -457     -461     -469     -479     -483 
    -488     -499     -503     -508     -518     -526     -535     -546 
    -553     -557     -566     -577     -585     -592     -604     -612 
    -616     -625     -633     -638     -648     -656     -660     -664 
    -666     -670     -676     -680     -679     -677     -675     -670 
    -672     -672     -664     -653     -643     -635     -626     -612 
    -595     -583     -572     -558     -538     -515     -495     -475 
    -453     -433     -410     -383     -357     -329     -301     -275 
    -249     -220     -187     -156     -128     -101      -72      -39 
      -8       18       51       83      109      137      166      194 
     222      248      275      302      322      344      367      388 
     413      433      446      459      472      488      506      517 
     522      532      545      549      552      556      558      558 
     560      560      556      553      550      546      540      537 
     530      521      514      506      500      495      487      477 
     471      461      451      448      442      437      429      417 
     410      406      399      392      387      380      375      368 
     359      349      342      336      326      315      306      297 
     287      278      263      252      243      233      221      209 
     201      190      175      160      149      144      137      124 
     110      103       94       83       75       67       63       59 
      47       39       32       25       21       17        5        0 
      -1       -9      -20      -23      -27      -32      -40      -47 
     -51      -55      -60      -65      -67      -72      -81      -86 
     -90      -95      -98     -105     -112     -110     -112     -120 
    -124     -125     -128     -128     -129     -135     -136     -133 
    -135     -133     -128     -126     -131     -131     -117     -103 
    -112     -110      -93      -85      -79      -68      -59      -45 
     -32      -27      -16        1       17       29       41       59 
      74       87      103      118      133      156      174      186 
     199      210      224      245      263      275      288      303 
     315      329      341      351      363      382      395      406 
     414      425      441      454      464      472      487      506 
     519      526      537      550      565      581      596      610 
     623      637      652      668      685      702      719      734 
     747      762      777      795      811      823      837      853 
     868      877      892      901      908      918      928      936 
     940      946      951      957      961      962      962      963 
     962      961      959      957      953      949      943      932 
     923      916      905      893      884      869      851      838 
     828      815      795      777      760      741      724      710 
     687      665      650      633      612      594      576      560 
