Origin Time       2016/04/16 01:25:00
Lat.              32.753
Long.             130.762
Depth. (km)       12
Mag.              7.3
Station Code      ISK008
Station Lat.      36.8918
Station Long.     136.7783
Station Height(m) 15
Record Time       2016/04/16 01:28:54
Sampling Freq(Hz) 100Hz
Duration Time(s)  67
Dir.              N-S
Scale Factor      7845(gal)/8223790
Max. Acc. (gal)   2.747
Last Correction   2016/04/16 01:28:56
Memo.             
[...]
  -22411   -22411   -22405   -22397   -22393   -22392   -22385   -22384 
  -22384   -22381   -22377   -22380   -22391   -22404   -22407   -22397 
  -22396   -22408   -22411   -22407   -22414   -22426   -22429   -22434 
  -22445   -22450   -22443   -22443   -22462   -22472   -22464   -22466 
  -22484   -22482   -22475   -22492   -22500   -22488   -22485   -22489 
  -22478   -22470   -22474   -22477   -22474   -22468   -22464   -22459 
  -22449   -22435   -22428   -22424   -22423   -22416   -22407   -22407 
  -22411   -22405   -22384   -22363   -22350   -22334   -22320   -22316 
  -22306   -22284   -22269   -22260   -22234   -22210   -22199   -22187 
  -22157   -22131   -22127   -22111   -22063   -22023   -22010   -21995 
  -21972   -21946   -21906   -21861   -21845   -21828   -21772   -21713 
  -21679   -21655   -21627   -21586   -21544   -21511   -21481   -21440 
  -21397   -21373   -21351   -21296   -21247   -21227   -21200   -21169 
  -21154   -21135   -21084   -21031   -21018   -21023   -21003   -20960 
  -20931   -20922   -20908   -20888   -20880   -20880   -20864   -20841 
  -20830   -20834   -20838   -20815   -20802   -20815   -20814   -20804 
  -20814   -20823   -20811   -20800   -20814   -20829   -20826   -20822 
  -20822   -20826   -20833   -20833   -20829   -20827   -20834   -20845 
  -20846   -20854   -20872   -20875   -20866   -20865   -20864   -20868 
  -20887   -20904   -20914   -20923   -20930   -20931   -20929   -20933 
  -20945   -20954   -20964   -20980   -20988   -20977   -20972   -20992 
  -21020   -21018   -21004   -21019   -21033   -21015   -21006   -21023 
  -21033   -21026   -21029   -21049   -21055   -21039   -21026   -21038 
  -21050   -21041   -21037   -21049   -21052   -21047   -21058   -21068 
  -21052   -21035   -21043   -21054   -21042   -21027   -21038   -21050 
  -21037   -21031   -21050   -21047   -21026   -21031   -21046   -21038 
  -21024   -21028   -21037   -21028   -21023   -21037   -21052   -21046 
  -21034   -21042   -21050   -21045   -21041   -21046   -21055   -21054 
  -21051   -21070   -21092   -21080   -21064   -21081   -21103   -21095 
  -21085   -21095   -21111   -21112   -21101   -21099   -21115   -21116 
  -21100   -21104   -21118   -21116   -21109   -21123   -21127   -21104 
  -21101   -21130   -21143   -21131   -21126   -21139   -21151   -21146 
  -21141   -21153   -21161   -21151   -21155   -21173   -21169   -21158 
  -21168   -21184   -21186   -21182   -21189   -21192   -21181   -21188 
  -21209   -21215   -21204   -21209   -21230   -21239   -21227   -21226 
  -21244   -21262   -21267   -21278   -21304   -21311   -21293   -21307 
  -21343   -21359   -21362   -21381   -21401   -21409   -21419   -21443 
  -21468   -21483   -21509   -21547   -21567   -21570   -21587   -21633 
  -21679   -21697   -21705   -21752   -21810   -21834   -21853   -21888 
  -21930   -21972   -22007   -22044   -22095   -22141   -22175   -22207 
  -22245   -22291   -22343   -22378   -22397   -22442   -22509   -22549 
  -22558   -22584   -22638   -22677   -22702   -22743   -22785   -22805 
  -22824   -22859   -22891   -22916   -22947   -22979   -23008   -23025 
  -23035   -23067   -23109   -23116   -23109   -23139   -23172   -23171 
  -23163   -23187   -23214   -23218   -23221   -23229   -23226   -23215 
  -23218   -23232   -23228   -23211   -23207   -23205   -23184   -23161 
  -23155   -23151   -23128   -23105   -23095   -23086   -23062   -23039 
  -23028   -23020   -23000   -22974   -22954   -22940   -22923   -22908 
  -22901   -22886   -22858   -22840   -22837   -22824   -22793   -22770 
  -22773   -22771   -22743   -22721   -22720   -22712   -22690   -22681 
  -22685   -22674   -22643   -22627   -22635   -22632   -22608   -22596 
  -22607   -22612   -22593   -22580   -22582   -22574   -22559   -22561 
  -22569   -22559   -22553   -22561   -22561   -22550   -22547   -22551 
  -22547   -22542   -22546   -22554   -22561   -22563   -22565   -22581 
  -22594   -22592   -22600   -22621   -22635   -22640   -22653   -22673 
  -22686   -22693   -22711   -22738   -22756   -22766   -22793   -22839 
  -22858   -22866   -22914   -22960   -22966   -22989   -23043   -23079 
  -23091   -23109   -23145   -23195   -23226   -23236   -23267   -23314 
  -23340   -23355   -23382   -23410   -23423   -23433   -23458   -23485 
  -23504   -23531   -23554   -23552   -23548   -23552   -23556   -23568 
  -23577   -23575   -23575   -23568   -23549   -23538   -23530   -23515 
  -23506   -23500   -23484   -23452   -23425   -23410   -23390   -23352 
  -23314   -23291   -23261   -23207   -23168   -23156   -23125   -23058 
  -22993   -22960   -22931   -22873   -22809   -22767   -22724   -22654 
  -22588   -22546   -22495   -22414   -22343   -22295   -22234   -22168 
  -22118   -22056   -21968   -21887   -21830   -21764   -21686   -21625 
  -21562   -21483   -21405   -21328   -21254   -21180   -21105   -21042 
  -20985   -20907   -20821   -20761   -20707   -20628   -20548   -20495 
  -20445   -20380   -20325   -20278   -20216   -20154   -20105   -20054 
  -20001   -19957   -19915   -19880   -19850   -19811   -19761   -19737 
  -19728   -19692   -19646   -19630   -19622   -19593   -19576   -19572 
  -19554   -19529   -19516   -19514   -19511   -19507   -19496   -19491 
  -19500   -19496   -19491   -19507   -19518   -19522   -19543   -19564 
  -19566   -19573   -19596   -19615   -19622   -19641   -19683   -19720 
  -19739   -19758   -19791   -19823   -19850   -19882   -19924   -19973 
  -20007   -20034   -20082   -20133   -20170   -20220   -20282   -20324 
  -20359   -20417   -20470   -20495   -20536   -20606   -20667   -20695 
  -20730   -20795   -20852   -20887   -20933   -20986   -21028   -21064 
  -21100   -21147   -21197   -21234   -21274   -21324   -21362   -21386 
  -21416   -21455   -21483   -21502   -21536   -21582   -21613   -21625 
  -21645   -21676   -21693   -21708   -21736   -21756   -21764   -21784 
  -21811   -21824   -21828   -21834   -21848   -21867   -21874   -21875 
  -21884   -21890   -21882   -21880   -21884   -21883   -21878   -21875 
  -21875   -21870   -21860   -21861   -21859   -21840   -21828   -21821 
  -21799   -21775   -21768   -21757   -21729   -21705   -21690   -21681 
  -21659   -21625   -21604   -21594   -21577   -21552   -21525   -21505 
  -21489   -21465   -21444   -21439   -21427   -21394   -21366   -21354 
  -21339   -21316   -21300   -21293   -21273   -21242   -21242   -21243 
  -21212   -21184   -21180   -21172   -21153   -21127   -21114   -21107 
  -21089   -21077   -21068   -21049   -21022   -20999   -20991   -20980 
  -20947   -20930   -20922   -20891   -20868   -20869   -20864   -20834 
  -20807   -20790   -20779   -20761   -20737   -20715   -20707   -20706 
  -20694   -20676   -20661   -20641   -20619   -20618   -20619   -20601 
  -20584   -20586   -20583   -20567   -20555   -20557   -20560   -20549 
  -20534   -20538   -20544   -20536   -20542   -20559   -20549   -20533 
  -20545   -20572   -20575   -20567   -20570   -20584   -20595   -20603 
  -20619   -20638   -20646   -20650   -20672   -20698   -20695   -20698 
  -20723   -20744   -20750   -20756   -20768   -20796   -20815   -20818 
  -20831   -20856   -20862   -20868   -20889   -20911   -20919   -20935 
  -20960   -20979   -20995   -21022   -21050   -21055   -21055   -21078 
  -21115   -21131   -21142   -21169   -21195   -21207   -21232   -21269 
  -21286   -21286   -21301   -21350   -21384   -21375   -21386   -21427 
  -21444   -21447   -21465   -21490   -21505   -21510   -21527   -21541 
  -21554   -21573   -21590   -21609   -21620   -21620   -21628   -21652 
  -21666   -21667   -21682   -21709   -21722   -21713   -21714   -21729 
  -21743   -21749   -21759   -21763   -21767   -21787   -21797   -21783 
  -21786   -21805   -21810   -21814   -21825   -21837   -21851   -21845 
  -21832   -21855   -21878   -21863   -21855   -21871   -21872   -21865 
  -21870   -21883   -21901   -21904   -21887   -21882   -21897   -21901 
  -21888   -21883   -21886   -21888   -21884   -21879   -21878   -21876 
  -21874   -21874   -21861   -21843   -21840   -21845   -21844   -21845 
  -21847   -21843   -21844   -21844   -21834   -21818   -21802   -21803 
  -21826   -21832   -21818   -21824   -21836   -21828   -21818   -21829 
  -21843   -21840   -21832   -21830   -21838   -21852   -21855   -21851 
  -21857   -21872   -21879   -21884   -21886   -21883   -21887   -21902 
  -21914   -21921   -21932   -21948   -21964   -21976   -21990   -22009 
  -22022   -22032   -22050   -22086   -22119   -22127   -22135   -22175 
  -22208   -22222   -22246   -22275   -22293   -22327   -22373   -22405 
  -22429   -22459   -22495   -22531   -22551   -22584   -22644   -22688 
  -22704   -22732   -22786   -22842   -22874   -22897   -22944   -22990 
  -23005   -23033   -23102   -23157   -23174   -23188   -23229   -23274 
  -23299   -23325   -23360   -23390   -23413   -23442   -23475   -23495 
  -23502   -23515   -23556   -23587   -23581   -23572   -23580   -23584 
  -23579   -23588   -23604   -23600   -23585   -23580   -23577   -23568 
  -23554   -23535   -23515   -23492   -23463   -23449   -23452   -23423 
  -23379   -23345   -23310   -23288   -23261   -23195   -23145   -23141 
  -23118   -23058   -23013   -22979   -22927   -22877   -22833   -22790 
  -22758   -22716   -22643   -22580   -22554   -22527   -22470   -22415 
  -22376   -22329   -22269   -22225   -22188   -22133   -22069   -22038 
  -22025   -21973   -21899   -21856   -21847   -21820   -21756   -21703 
  -21686   -21664   -21612   -21573   -21564   -21543   -21500   -21458 
  -21425   -21415   -21413   -21397   -21382   -21370   -21346   -21336 
  -21340   -21328   -21327   -21351   -21350   -21331   -21355   -21393 
  -21394   -21394   -21412   -21429   -21468   -21509   -21510   -21523 
  -21574   -21613   -21633   -21675   -21728   -21763   -21783   -21805 
  -21845   -21906   -21973   -22025   -22042   -22064   -22115   -22184 
  -22243   -22275   -22310   -22373   -22419   -22451   -22499   -22550 
  -22604   -22650   -22682   -22721   -22766   -22800   -22845   -22902 
  -22939   -22956   -22981   -23008   -23043   -23094   -23145   -23166 
  -23160   -23171   -23202   -23225   -23232   -23241   -23260   -23276 
  -23269   -23251   -23259   -23288   -23287   -23247   -23210   -23215 
  -23247   -23244   -23191   -23140   -23128   -23124   -23086   -23041 
  -23022   -22998   -22941   -22894   -22879   -22856   -22805   -22743 
  -22690   -22658   -22621   -22567   -22513   -22459   -22397   -22346 
  -22320   -22292   -22218   -22121   -22064   -22061   -22026   -21919 
  -21834   -21824   -21817   -21745   -21636   -21582   -21586   -21546 
  -21443   -21363   -21336   -21325   -21292   -21222   -21136   -21084 
  -21064   -21035   -20986   -20939   -20895   -20839   -20788   -20767 
  -20745   -20691   -20638   -20610   -20584   -20550   -20522   -20501 
  -20476   -20445   -20418   -20403   -20395   -20387   -20374   -20358 
  -20339   -20326   -20326   -20328   -20321   -20321   -20336   -20343 
  -20336   -20343   -20371   -20398   -20413   -20407   -20406   -20451 
  -20515   -20549   -20550   -20555   -20593   -20663   -20709   -20725 
  -20760   -20819   -20869   -20898   -20933   -21006   -21081   -21115 
  -21135   -21186   -21258   -21317   -21361   -21416   -21481   -21532 
  -21577   -21636   -21695   -21740   -21791   -21856   -21910   -21961 
  -22026   -22079   -22113   -22160   -22234   -22304   -22346   -22376 
  -22416   -22475   -22532   -22561   -22603   -22659   -22696   -22723 
  -22769   -22820   -22855   -22883   -22917   -22945   -22968   -23002 
  -23041   -23074   -23095   -23109   -23129   -23159   -23186   -23206 
  -23232   -23252   -23251   -23261   -23302   -23327   -23325   -23334 
  -23361   -23380   -23386   -23392   -23406   -23422   -23433   -23440 
  -23453   -23463   -23463   -23468   -23479   -23484   -23487   -23496 
  -23495   -23479   -23469   -23473   -23475   -23461   -23449   -23449 
  -23433   -23410   -23406   -23398   -23369   -23334   -23303   -23283 
  -23265   -23234   -23198   -23167   -23134   -23101   -23063   -23022 
  -22979   -22940   -22904   -22868   -22820   -22766   -22731   -22697 
  -22644   -22593   -22558   -22518   -22468   -22423   -22388   -22345 
  -22295   -22252   -22211   -22172   -22127   -22079   -22041   -22007 
  -21955   -21906   -21879   -21840   -21786   -21745   -21714   -21683 
  -21658   -21632   -21593   -21543   -21506   -21485   -21455   -21409 
  -21379   -21369   -21352   -21323   -21292   -21270   -21244   -21213 
  -21200   -21204   -21186   -21146   -21124   -21124   -21109   -21091 
  -21091   -21095   -21084   -21068   -21062   -21061   -21057   -21062 
  -21081   -21091   -21082   -21085   -21108   -21115   -21100   -21095 
  -21114   -21145   -21169   -21186   -21217   -21250   -21270   -21285 
  -21293   -21300   -21328   -21377   -21423   -21456   -21485   -21520 
  -21564   -21598   -21618   -21654   -21705   -21747   -21789   -21851 
  -21914   -21955   -21988   -22040   -22095   -22138   -22184   -22245 
  -22310   -22362   -22412   -22478   -22543   -22584   -22627   -22689 
  -22751   -22809   -22871   -22936   -22990   -23035   -23094   -23170 
  -23224   -23267   -23336   -23402   -23446   -23495   -23553   -23604 
  -23647   -23692   -23758   -23823   -23865   -23905   -23958   -24004 
  -24040   -24075   -24123   -24177   -24210   -24241   -24290   -24332 
  -24360   -24394   -24435   -24463   -24486   -24517   -24559   -24592 
  -24618   -24644   -24663   -24665   -24673   -24706   -24732   -24729 
  -24736   -24761   -24777   -24776   -24772   -24781   -24793   -24787 
  -24775   -24781   -24786   -24765   -24742   -24746   -24752   -24732 
  -24704   -24680   -24641   -24621   -24640   -24629   -24565   -24513 
  -24497   -24493   -24457   -24379   -24322   -24318   -24293   -24219 
  -24163   -24124   -24050   -23981   -23950   -23903   -23824   -23758 
  -23711   -23642   -23545   -23472   -23436   -23370   -23269   -23198 
  -23151   -23080   -22989   -22905   -22850   -22794   -22700   -22604 
  -22546   -22484   -22401   -22329   -22260   -22175   -22096   -22038 
  -21982   -21903   -21816   -21743   -21683   -21612   -21524   -21442 
  -21378   -21327   -21267   -21197   -21127   -21045   -20960   -20903 
  -20850   -20780   -20711   -20650   -20574   -20502   -20461   -20425 
  -20352   -20281   -20233   -20181   -20113   -20054   -20009   -19966 
  -19919   -19870   -19834   -19801   -19753   -19703   -19670   -19643 
  -19618   -19592   -19564   -19542   -19522   -19496   -19480   -19477 
  -19471   -19460   -19454   -19450   -19448   -19448   -19457   -19476 
  -19483   -19483   -19495   -19511   -19538   -19570   -19584   -19593 
  -19622   -19654   -19687   -19714   -19737   -19778   -19816   -19834 
  -19862   -19913   -19961   -19990   -20016   -20051   -20083   -20110 
  -20151   -20202   -20243   -20277   -20316   -20345   -20368   -20406 
  -20455   -20488   -20510   -20537   -20579   -20614   -20628   -20644 
  -20691   -20733   -20740   -20752   -20798   -20831   -20834   -20848 
  -20877   -20900   -20915   -20929   -20946   -20968   -20983   -20992 
  -21007   -21028   -21037   -21037   -21046   -21055   -21057   -21066 
  -21081   -21081   -21077   -21092   -21101   -21095   -21097   -21111 
  -21118   -21122   -21120   -21118   -21126   -21124   -21118   -21124 
  -21134   -21131   -21126   -21141   -21150   -21138   -21127   -21142 
  -21147   -21130   -21131   -21151   -21149   -21134   -21132   -21139 
  -21141   -21134   -21130   -21139   -21141   -21128   -21127   -21134 
  -21131   -21122   -21120   -21131   -21134   -21114   -21108   -21127 
  -21116   -21093   -21104   -21118   -21111   -21109   -21116   -21115 
  -21111   -21108   -21103   -21108   -21111   -21105   -21109   -21108 
  -21097   -21101   -21114   -21114   -21105   -21105   -21116   -21114 
  -21107   -21120   -21124   -21112   -21111   -21118   -21122   -21118 
  -21116   -21118   -21115   -21115   -21114   -21109   -21111   -21105 
  -21095   -21103   -21111   -21095   -21088   -21105   -21111   -21100 
  -21105   -21120   -21127   -21127   -21136   -21153   -21158   -21161 
  -21177   -21196   -21208   -21222   -21238   -21261   -21284   -21303 
  -21327   -21357   -21378   -21401   -21436   -21470   -21492   -21525 
  -21567   -21594   -21613   -21649   -21698   -21728   -21748   -21787 
  -21833   -21857   -21874   -21910   -21953   -21983   -22006   -22040 
  -22081   -22107   -22125   -22158   -22199   -22216   -22234   -22273 
  -22300   -22307   -22329   -22365   -22385   -22392   -22412   -22445 
  -22455   -22457   -22480   -22504   -22513   -22526   -22538   -22546 
  -22558   -22573   -22578   -22586   -22601   -22608   -22607   -22616 
  -22621   -22613   -22619   -22632   -22627   -22626   -22638   -22643 
  -22632   -22631   -22647   -22657   -22653   -22650   -22659   -22662 
  -22655   -22659   -22669   -22669   -22663   -22666   -22675   -22675 
  -22670   -22684   -22692   -22682   -22686   -22715   -22729   -22724 
  -22731   -22750   -22751   -22746   -22758   -22775   -22785   -22793 
  -22804   -22823   -22842   -22843   -22845   -22870   -22891   -22896 
  -22906   -22927   -22939   -22945   -22963   -22985   -22995   -23004 
  -23029   -23051   -23051   -23059   -23091   -23109   -23112   -23121 
  -23141   -23157   -23161   -23166   -23175   -23191   -23206   -23214 
  -23226   -23238   -23238   -23242   -23251   -23252   -23248   -23248 
  -23260   -23267   -23256   -23248   -23255   -23253   -23240   -23236 
  -23237   -23226   -23214   -23207   -23195   -23175   -23159   -23151 
  -23143   -23122   -23103   -23095   -23083   -23055   -23026   -23014 
  -22998   -22967   -22948   -22947   -22924   -22873   -22847   -22843 
  -22810   -22765   -22743   -22729   -22697   -22658   -22632   -22612 
  -22578   -22535   -22503   -22475   -22438   -22393   -22360   -22331 
  -22285   -22234   -22202   -22173   -22125   -22072   -22036   -21996 
  -21941   -21895   -21857   -21810   -21757   -21705   -21659   -21616 
  -21564   -21514   -21471   -21423   -21362   -21307   -21267   -21222 
  -21166   -21118   -21064   -21006   -20958   -20916   -20862   -20808 
  -20765   -20721   -20673   -20626   -20584   -20548   -20499   -20451 
  -20414   -20375   -20335   -20294   -20255   -20224   -20198   -20159 
  -20116   -20092   -20067   -20032   -20015   -20002   -19971   -19935 
  -19916   -19908   -19885   -19858   -19845   -19832   -19813   -19796 
  -19795   -19797   -19774   -19753   -19765   -19772   -19750   -19737 
  -19749   -19751   -19737   -19745   -19764   -19764   -19758   -19772 
  -19792   -19795   -19801   -19824   -19835   -19843   -19865   -19885 
  -19903   -19921   -19943   -19973   -20001   -20019   -20036   -20070 
  -20108   -20129   -20146   -20189   -20233   -20248   -20267   -20317 
  -20358   -20371   -20401   -20448   -20482   -20510   -20542   -20584 
  -20626   -20646   -20676   -20729   -20761   -20773   -20808   -20858 
  -20889   -20910   -20947   -20984   -21014   -21043   -21069   -21099 
  -21124   -21142   -21168   -21201   -21234   -21262   -21288   -21313 
  -21327   -21339   -21370   -21404   -21417   -21429   -21460   -21489 
  -21498   -21525   -21563   -21571   -21577   -21616   -21649   -21656 
  -21666   -21698   -21729   -21741   -21760   -21798   -21828   -21841 
  -21852   -21884   -21921   -21938   -21960   -21995   -22022   -22046 
