Origin Time       2016/04/16 01:25:00
Lat.              32.753
Long.             130.762
Depth. (km)       12
Mag.              7.3
Station Code      ISK009
Station Lat.      36.7334
Station Long.     136.7025
Station Height(m) 38
Record Time       2016/04/16 01:28:28
Sampling Freq(Hz) 100Hz
Duration Time(s)  64
Dir.              N-S
Scale Factor      7845(gal)/8223790
Max. Acc. (gal)   1.605
Last Correction   2016/04/16 01:28:29
Memo.             
   -3909    -3908    -3929    -3931    -3919    -3942    -3970    -3947 
   -3909    -3927    -3958    -3920    -3867    -3893    -3935    -3924 
   -3924    -3971    -3997    -3967    -3950    -3965    -3969    -3970 
   -3979    -3963    -3937    -3954    -4012    -4043    -4029    -4023 
   -4021    -4005    -4013    -4036    -4017    -3984    -3984    -4000 
   -4000    -4013    -4054    -4069    -4035    -4017    -4059    -4081 
   -4043    -4025    -4044    -4040    -4043    -4086    -4106    -4086 
   -4093    -4122    -4112    -4083    -4106    -4133    -4101    -4086 
   -4133    -4164    -4148    -4135    -4143    -4152    -4155    -4159 
   -4158    -4140    -4162    -4223    -4243    -4192    -4163    -4186 
   -4190    -4166    -4171    -4190    -4195    -4203    -4207    -4200 
   -4205    -4232    -4228    -4170    -4124    -4147    -4178    -4180 
   -4185    -4192    -4185    -4163    -4152    -4151    -4133    -4109 
   -4106    -4105    -4081    -4071    -4101    -4107    -4078    -4083 
   -4107    -4082    -4047    -4048    -4041    -4023    -4028    -4043 
   -4028    -4017    -4048    -4064    -4036    -4029    -4045    -4036 
   -4000    -3973    -3977    -3983    -3986    -4005    -4023    -4014 
   -4016    -4048    -4044    -3981    -3940    -3955    -3951    -3929 
   -3956    -4006    -4010    -3991    -3997    -4000    -3971    -3948 
   -3948    -3932    -3917    -3935    -3956    -3967    -3990    -4010 
   -3993    -3969    -3977    -3975    -3943    -3935    -3964    -3991 
   -4009    -4031    -4036    -4003    -3977    -4008    -4027    -3969 
   -3932    -3982    -4027    -4008    -3993    -4024    -4035    -4010 
   -4012    -4016    -3983    -3963    -3977    -3975    -3960    -3981 
   -4020    -4024    -4009    -4003    -3983    -3960    -3965    -3973 
   -3959    -3951    -3971    -3978    -3954    -3951    -3993    -4013 
   -3993    -3973    -3971    -3967    -3969    -4000    -4014    -3989 
   -3987    -4014    -4017    -4009    -4024    -4033    -4003    -3974 
   -3991    -4020    -4031    -4039    -4044    -4039    -4031    -4031 
   -4033    -4010    -3987    -4001    -4016    -4001    -4002    -4032 
   -4036    -4008    -3997    -3998    -3971    -3955    -3978    -3977 
   -3944    -3939    -3958    -3973    -3981    -3984    -3965    -3929 
   -3921    -3936    -3937    -3920    -3909    -3913    -3920    -3919 
   -3929    -3940    -3932    -3928    -3924    -3897    -3870    -3880 
   -3906    -3912    -3906    -3935    -3967    -3958    -3947    -3959 
   -3944    -3902    -3892    -3902    -3906    -3937    -3994    -4009 
   -3986    -3982    -3994    -3983    -3951    -3932    -3924    -3917 
   -3932    -3973    -4008    -4016    -4024    -4040    -4025    -3979 
   -3965    -3977    -3959    -3947    -3974    -4009    -4032    -4051 
   -4055    -4017    -3986    -4014    -4032    -3991    -3969    -3996 
   -4020    -4031    -4059    -4082    -4069    -4051    -4058    -4051 
   -4031    -4050    -4074    -4071    -4074    -4107    -4131    -4114 
   -4099    -4118    -4129    -4116    -4122    -4152    -4151    -4143 
   -4178    -4210    -4197    -4197    -4215    -4210    -4197    -4213 
   -4240    -4240    -4232    -4256    -4286    -4271    -4263    -4276 
   -4271    -4255    -4263    -4276    -4256    -4237    -4266    -4302 
   -4293    -4286    -4303    -4295    -4263    -4253    -4251    -4233 
   -4233    -4268    -4276    -4248    -4253    -4279    -4266    -4232 
   -4214    -4205    -4192    -4200    -4209    -4199    -4202    -4220 
   -4210    -4178    -4167    -4182    -4180    -4140    -4116    -4140 
   -4151    -4121    -4106    -4126    -4120    -4081    -4072    -4077 
   -4050    -4035    -4050    -4050    -4025    -4016    -4025    -4021 
   -4023    -4052    -4055    -4016    -3993    -3990    -3975    -3964 
   -3975    -3987    -3986    -3993    -4013    -4017    -4000    -3983 
   -3977    -3965    -3958    -3971    -3991    -3990    -3993    -4017 
   -4025    -3990    -3959    -3963    -3962    -3944    -3956    -3984 
   -3987    -4010    -4047    -4029    -3982    -3973    -3975    -3951 
   -3939    -3962    -3977    -3977    -4002    -4036    -4036    -4023 
   -4021    -4016    -3990    -3979    -4001    -4014    -4002    -3998 
   -4016    -4027    -4035    -4060    -4066    -4023    -4010    -4062 
   -4082    -4058    -4062    -4082    -4074    -4066    -4085    -4093 
   -4082    -4104    -4131    -4102    -4071    -4093    -4122    -4107 
   -4072    -4082    -4117    -4110    -4083    -4090    -4097    -4072 
   -4055    -4069    -4072    -4063    -4067    -4058    -4035    -4047 
   -4054    -4017    -3990    -4001    -4003    -3978    -3982    -4014 
   -4003    -3962    -3967    -3987    -3948    -3893    -3890    -3912 
   -3905    -3908    -3937    -3943    -3919    -3902    -3888    -3866 
   -3856    -3869    -3880    -3874    -3874    -3896    -3916    -3923 
   -3923    -3909    -3880    -3865    -3880    -3888    -3875    -3896 
   -3935    -3935    -3928    -3954    -3969    -3939    -3913    -3928 
   -3929    -3902    -3906    -3943    -3970    -3971    -3970    -3993 
   -4006    -3991    -3982    -3979    -3970    -3974    -3987    -3991 
   -4006    -4043    -4055    -4031    -4024    -4058    -4066    -4039 
   -4033    -4040    -4029    -4043    -4098    -4114    -4071    -4054 
   -4085    -4098    -4077    -4058    -4069    -4085    -4082    -4090 
   -4113    -4116    -4104    -4097    -4081    -4060    -4063    -4085 
   -4090    -4091    -4102    -4091    -4068    -4077    -4083    -4055 
   -4027    -4036    -4041    -4020    -4036    -4088    -4099    -4071 
   -4062    -4068    -4060    -4048    -4050    -4050    -4035    -4050 
   -4094    -4113    -4114    -4136    -4144    -4113    -4082    -4093 
   -4112    -4107    -4110    -4124    -4120    -4133    -4183    -4199 
   -4159    -4140    -4166    -4168    -4145    -4151    -4156    -4120 
   -4106    -4156    -4212    -4217    -4189    -4172    -4162    -4149 
   -4145    -4133    -4113    -4113    -4132    -4143    -4132    -4149 
   -4189    -4178    -4128    -4101    -4090    -4064    -4047    -4059 
   -4063    -4055    -4082    -4109    -4093    -4079    -4088    -4068 
   -4027    -4021    -4040    -4027    -4008    -4033    -4059    -4052 
   -4048    -4062    -4067    -4055    -4052    -4062    -4045    -4017 
   -4036    -4079    -4085    -4064    -4069    -4088    -4082    -4067 
   -4072    -4062    -4040    -4055    -4081    -4078    -4074    -4102 
   -4110    -4066    -4044    -4059    -4051    -4025    -4017    -4027 
   -4033    -4050    -4074    -4078    -4055    -4033    -4014    -3989 
   -3974    -3977    -3965    -3948    -3971    -4010    -4001    -3982 
   -4003    -4003    -3946    -3898    -3908    -3910    -3878    -3889 
   -3951    -3958    -3908    -3910    -3948    -3932    -3877    -3856 
   -3865    -3856    -3855    -3880    -3902    -3916    -3931    -3935 
   -3916    -3890    -3883    -3873    -3847    -3851    -3885    -3908 
   -3928    -3951    -3950    -3923    -3920    -3948    -3923    -3854 
   -3851    -3888    -3882    -3894    -3951    -3973    -3944    -3937 
   -3951    -3920    -3875    -3871    -3871    -3858    -3869    -3901 
   -3920    -3909    -3902    -3920    -3917    -3875    -3839    -3815 
   -3808    -3850    -3896    -3883    -3861    -3888    -3905    -3852 
   -3812    -3839    -3852    -3813    -3804    -3861    -3904    -3901 
   -3902    -3899    -3871    -3850    -3855    -3850    -3824    -3820 
   -3855    -3889    -3899    -3909    -3919    -3912    -3906    -3908 
   -3885    -3851    -3863    -3905    -3917    -3929    -3960    -3960 
   -3928    -3932    -3982    -3991    -3954    -3946    -3959    -3946 
   -3950    -3993    -4010    -3998    -4006    -4023    -4024    -4021 
   -4040    -4050    -4016    -3996    -4041    -4093    -4086    -4074 
   -4102    -4118    -4104    -4110    -4113    -4078    -4068    -4107 
   -4129    -4107    -4105    -4144    -4164    -4152    -4147    -4139 
   -4118    -4106    -4113    -4118    -4110    -4117    -4140    -4147 
   -4147    -4159    -4155    -4124    -4097    -4091    -4086    -4086 
   -4113    -4114    -4072    -4069    -4114    -4125    -4087    -4072 
   -4086    -4063    -4027    -4058    -4116    -4099    -4059    -4060 
   -4064    -4054    -4063    -4081    -4055    -4021    -4032    -4060 
   -4068    -4067    -4077    -4074    -4048    -4036    -4047    -4036 
   -4024    -4051    -4066    -4054    -4063    -4085    -4079    -4067 
   -4086    -4106    -4071    -4031    -4045    -4071    -4069    -4081 
   -4107    -4110    -4090    -4090    -4105    -4105    -4104    -4099 
   -4078    -4069    -4105    -4136    -4121    -4098    -4101    -4101 
   -4095    -4113    -4126    -4097    -4062    -4087    -4128    -4107 
   -4077    -4099    -4112    -4067    -4052    -4097    -4105    -4055 
   -4047    -4082    -4097    -4091    -4090    -4078    -4071    -4082 
   -4085    -4066    -4041    -4040    -4055    -4060    -4058    -4060 
   -4066    -4074    -4079    -4082    -4077    -4059    -4051    -4051 
   -4033    -4029    -4063    -4071    -4039    -4036    -4064    -4055 
   -4023    -4017    -4009    -3984    -3997    -4027    -4008    -3962 
   -3971    -4008    -3990    -3951    -3932    -3908    -3883    -3890 
   -3909    -3905    -3886    -3885    -3898    -3893    -3874    -3871 
   -3854    -3813    -3807    -3842    -3851    -3820    -3824    -3856 
   -3846    -3828    -3852    -3861    -3836    -3831    -3836    -3813 
   -3802    -3847    -3869    -3835    -3827    -3865    -3879    -3861 
   -3852    -3856    -3863    -3875    -3888    -3873    -3848    -3866 
   -3905    -3912    -3904    -3929    -3951    -3931    -3923    -3964 
   -3990    -3973    -3964    -3983    -3994    -3998    -4020    -4033 
   -4027    -4045    -4068    -4041    -4031    -4087    -4122    -4088 
   -4064    -4101    -4137    -4137    -4137    -4162    -4168    -4147 
   -4159    -4212    -4225    -4202    -4214    -4255    -4270    -4266 
   -4278    -4295    -4310    -4334    -4348    -4345    -4371    -4418 
   -4422    -4411    -4434    -4457    -4457    -4460    -4472    -4479 
   -4488    -4523    -4558    -4560    -4553    -4571    -4584    -4564 
   -4546    -4561    -4565    -4546    -4568    -4626    -4630    -4583 
   -4577    -4614    -4606    -4563    -4541    -4517    -4490    -4504 
   -4523    -4506    -4494    -4509    -4511    -4482    -4459    -4449 
   -4430    -4403    -4382    -4364    -4356    -4365    -4384    -4382 
   -4355    -4337    -4344    -4327    -4283    -4270    -4283    -4263 
   -4218    -4218    -4243    -4230    -4205    -4199    -4186    -4162 
   -4147    -4136    -4114    -4102    -4098    -4074    -4048    -4047 
   -4039    -3997    -3981    -4008    -4003    -3944    -3912    -3927 
   -3913    -3874    -3869    -3880    -3852    -3802    -3796    -3824 
   -3813    -3776    -3762    -3738    -3700    -3694    -3700    -3655 
   -3604    -3611    -3636    -3615    -3585    -3586    -3568    -3530 
   -3526    -3524    -3488    -3457    -3454    -3443    -3422    -3433 
   -3442    -3407    -3383    -3395    -3399    -3368    -3345    -3346 
   -3336    -3310    -3295    -3284    -3267    -3264    -3280    -3277 
   -3245    -3235    -3254    -3229    -3188    -3200    -3204    -3159 
   -3132    -3153    -3160    -3136    -3130    -3137    -3113    -3084 
   -3087    -3095    -3078    -3071    -3088    -3083    -3045    -3036 
   -3063    -3060    -3024    -3006    -3019    -3018    -3003    -3010 
   -3005    -2997    -3022    -3022    -2988    -2986    -2999    -2992 
   -2992    -3017    -3029    -3013    -3005    -3025    -3037    -3022 
   -3019    -3055    -3075    -3049    -3048    -3102    -3133    -3119 
   -3111    -3115    -3125    -3138    -3159    -3179    -3194    -3222 
   -3264    -3264    -3234    -3253    -3307    -3327    -3331    -3360 
   -3383    -3396    -3440    -3488    -3485    -3476    -3503    -3535 
   -3543    -3563    -3622    -3658    -3657    -3688    -3746    -3770 
   -3765    -3776    -3813    -3847    -3866    -3892    -3937    -3986 
   -4025    -4048    -4058    -4094    -4159    -4199    -4195    -4218 
   -4268    -4291    -4310    -4374    -4449    -4483    -4502    -4553 
   -4600    -4622    -4673    -4734    -4743    -4747    -4800    -4866 
   -4905    -4938    -4999    -5053    -5070    -5097    -5157    -5202 
   -5225    -5255    -5294    -5320    -5358    -5410    -5433    -5439 
   -5474    -5510    -5529    -5552    -5584    -5597    -5599    -5633 
   -5660    -5633    -5620    -5670    -5705    -5671    -5638    -5664 
   -5691    -5680    -5670    -5664    -5641    -5613    -5593    -5578 
   -5570    -5568    -5574    -5563    -5539    -5529    -5516    -5474 
   -5427    -5391    -5360    -5336    -5337    -5333    -5283    -5235 
   -5235    -5223    -5164    -5104    -5077    -5054    -5007    -4965 
   -4945    -4909    -4869    -4852    -4837    -4792    -4738    -4699 
   -4661    -4619    -4594    -4564    -4509    -4464    -4457    -4441 
   -4396    -4355    -4337    -4318    -4286    -4258    -4225    -4174 
   -4133    -4106    -4066    -4024    -4020    -4045    -4044    -3998 
   -3960    -3936    -3894    -3842    -3813    -3800    -3784    -3776 
   -3776    -3757    -3730    -3715    -3699    -3661    -3631    -3622 
   -3609    -3580    -3563    -3557    -3518    -3489    -3510    -3511 
   -3469    -3443    -3446    -3430    -3397    -3391    -3393    -3362 
   -3325    -3325    -3339    -3331    -3299    -3275    -3276    -3284 
   -3291    -3280    -3241    -3211    -3210    -3210    -3194    -3187 
   -3192    -3172    -3152    -3169    -3165    -3118    -3105    -3130 
   -3125    -3092    -3096    -3107    -3071    -3049    -3075    -3082 
   -3045    -3018    -3021    -3022    -3002    -2992    -2999    -2986 
   -2960    -2947    -2951    -2955    -2951    -2948    -2937    -2920 
   -2921    -2917    -2882    -2867    -2875    -2849    -2828    -2868 
   -2906    -2875    -2844    -2868    -2870    -2810    -2776    -2797 
   -2802    -2770    -2762    -2794    -2806    -2801    -2805    -2799 
   -2778    -2764    -2771    -2778    -2774    -2770    -2770    -2759 
   -2770    -2810    -2832    -2825    -2836    -2855    -2847    -2840 
   -2859    -2857    -2840    -2884    -2964    -2984    -2967    -2995 
   -3044    -3051    -3040    -3060    -3080    -3088    -3129    -3191 
   -3231    -3252    -3294    -3354    -3388    -3391    -3407    -3433 
   -3443    -3470    -3526    -3574    -3611    -3672    -3726    -3721 
   -3715    -3757    -3801    -3813    -3836    -3882    -3908    -3928 
   -3982    -4023    -4013    -4012    -4043    -4074    -4104    -4135 
   -4159    -4175    -4185    -4209    -4233    -4223    -4214    -4240 
   -4266    -4266    -4268    -4297    -4325    -4347    -4369    -4360 
   -4329    -4334    -4363    -4352    -4329    -4351    -4378    -4367 
   -4360    -4390    -4398    -4374    -4364    -4372    -4369    -4363 
   -4363    -4363    -4355    -4371    -4405    -4398    -4368    -4380 
   -4415    -4413    -4391    -4407    -4430    -4418    -4409    -4429 
   -4438    -4434    -4453    -4486    -4483    -4464    -4486    -4506 
   -4477    -4449    -4457    -4484    -4510    -4523    -4523    -4519 
   -4541    -4573    -4556    -4510    -4499    -4509    -4509    -4513 
   -4523    -4534    -4537    -4533    -4523    -4496    -4476    -4502 
   -4529    -4499    -4450    -4446    -4468    -4461    -4440    -4434 
   -4426    -4402    -4393    -4407    -4395    -4356    -4348    -4365 
   -4364    -4360    -4359    -4347    -4338    -4355    -4368    -4352 
   -4325    -4325    -4340    -4340    -4340    -4351    -4360    -4371 
   -4393    -4403    -4383    -4374    -4390    -4393    -4384    -4402 
   -4436    -4446    -4438    -4448    -4460    -4461    -4471    -4480 
   -4468    -4464    -4486    -4502    -4510    -4515    -4515    -4507 
   -4500    -4517    -4535    -4526    -4507    -4517    -4535    -4531 
   -4533    -4563    -4567    -4529    -4525    -4556    -4548    -4515 
   -4530    -4567    -4554    -4515    -4504    -4517    -4527    -4537 
   -4533    -4515    -4499    -4496    -4498    -4480    -4468    -4484 
   -4491    -4472    -4455    -4445    -4426    -4417    -4425    -4422 
   -4396    -4390    -4403    -4393    -4369    -4368    -4376    -4353 
   -4314    -4306    -4297    -4248    -4228    -4247    -4252    -4253 
   -4263    -4245    -4191    -4153    -4145    -4117    -4074    -4069 
   -4074    -4047    -4028    -4043    -4044    -4005    -3970    -3947 
   -3888    -3819    -3798    -3797    -3771    -3743    -3740    -3730 
   -3685    -3651    -3634    -3586    -3514    -3462    -3431    -3399 
   -3372    -3361    -3341    -3291    -3250    -3225    -3186    -3153 
   -3134    -3092    -3034    -3005    -3003    -2990    -2971    -2965 
   -2940    -2895    -2882    -2899    -2882    -2832    -2808    -2820 
   -2820    -2805    -2809    -2829    -2839    -2844    -2851    -2844 
   -2830    -2840    -2863    -2862    -2867    -2917    -2963    -2974 
   -2998    -3045    -3064    -3053    -3069    -3118    -3149    -3169 
   -3222    -3275    -3287    -3312    -3387    -3449    -3461    -3483 
   -3534    -3576    -3601    -3639    -3693    -3740    -3785    -3842 
   -3888    -3916    -3946    -3970    -4001    -4054    -4097    -4107 
   -4120    -4171    -4225    -4248    -4282    -4336    -4360    -4359 
   -4379    -4426    -4455    -4445    -4469    -4533    -4554    -4546 
   -4575    -4614    -4611    -4590    -4596    -4606    -4599    -4615 
   -4649    -4654    -4649    -4658    -4660    -4635    -4618    -4610 
   -4583    -4553    -4561    -4576    -4568    -4565    -4585    -4588 
   -4552    -4509    -4476    -4422    -4380    -4396    -4421    -4403 
   -4380    -4398    -4413    -4378    -4330    -4310    -4291    -4260 
   -4243    -4241    -4243    -4260    -4270    -4243    -4215    -4232 
   -4252    -4225    -4197    -4200    -4199    -4195    -4225    -4260 
   -4233    -4205    -4243    -4275    -4247    -4220    -4233    -4247 
   -4240    -4248    -4284    -4298    -4286    -4306    -4342    -4337 
   -4318    -4333    -4363    -4363    -4357    -4376    -4388    -4395 
   -4428    -4459    -4464    -4472    -4482    -4468    -4449    -4463 
   -4486    -4491    -4504    -4529    -4531    -4519    -4531    -4563 
   -4557    -4517    -4502    -4502    -4486    -4479    -4491    -4494 
   -4490    -4496    -4496    -4457    -4414    -4406    -4391    -4353 
   -4342    -4364    -4360    -4322    -4310    -4314    -4284    -4237 
   -4220    -4207    -4175    -4151    -4153    -4147    -4099    -4074 
   -4091    -4074    -4028    -4010    -4005    -3977    -3942    -3928 
   -3927    -3913    -3889    -3865    -3842    -3842    -3846    -3817 
   -3774    -3757    -3755    -3738    -3712    -3697    -3680    -3657 
   -3653    -3658    -3628    -3573    -3549    -3555    -3535    -3501 
   -3501    -3501    -3469    -3445    -3447    -3429    -3379    -3346 
   -3341    -3326    -3312    -3312    -3299    -3271    -3269    -3284 
   -3276    -3252    -3231    -3194    -3146    -3153    -3190    -3177 
   -3142    -3153    -3179    -3160    -3144    -3168    -3176    -3125 
