Origin Time       2016/04/16 01:25:00
Lat.              32.753
Long.             130.762
Depth. (km)       12
Mag.              7.3
Station Code      ISK008
Station Lat.      36.8918
Station Long.     136.7783
Station Height(m) 15
Record Time       2016/04/16 01:28:54
Sampling Freq(Hz) 100Hz
Duration Time(s)  67
Dir.              E-W
Scale Factor      7845(gal)/8223790
Max. Acc. (gal)   3.665
Last Correction   2016/04/16 01:28:56
Memo.             
[...]
  -37970   -37967   -37960   -37926   -37903   -37909   -37899   -37871 
  -37868   -37881   -37874   -37866   -37879   -37902   -37899   -37887 
  -37902   -37932   -37947   -37957   -37983   -38017   -38037   -38052 
  -38090   -38132   -38146   -38168   -38222   -38267   -38287   -38325 
  -38391   -38443   -38473   -38516   -38584   -38635   -38676   -38732 
  -38793   -38839   -38881   -38940   -39006   -39056   -39110   -39182 
  -39239   -39282   -39334   -39391   -39451   -39515   -39579   -39629 
  -39673   -39727   -39789   -39847   -39892   -39928   -39981   -40031 
  -40066   -40107   -40154   -40204   -40243   -40263   -40290   -40336 
  -40369   -40383   -40414   -40458   -40478   -40483   -40506   -40537 
  -40552   -40570   -40591   -40598   -40608   -40622   -40643   -40653 
  -40633   -40637   -40678   -40679   -40651   -40648   -40659   -40671 
  -40667   -40652   -40653   -40664   -40655   -40639   -40636   -40637 
  -40641   -40635   -40618   -40617   -40621   -40617   -40614   -40606 
  -40591   -40591   -40599   -40599   -40583   -40568   -40578   -40596 
  -40591   -40576   -40576   -40589   -40598   -40605   -40606   -40593 
  -40596   -40630   -40641   -40614   -40610   -40647   -40666   -40651 
  -40655   -40689   -40705   -40691   -40686   -40720   -40736   -40725 
  -40751   -40797   -40799   -40797   -40821   -40832   -40822   -40825 
  -40845   -40879   -40900   -40886   -40890   -40937   -40959   -40938 
  -40927   -40952   -40986   -40990   -40968   -40969   -40995   -41007 
  -41011   -41009   -40999   -41008   -41032   -41035   -41022   -41017 
  -41032   -41054   -41037   -41006   -41019   -41048   -41038   -41018 
  -41013   -41008   -41002   -40996   -40992   -40992   -40995   -40998 
  -40979   -40937   -40929   -40945   -40926   -40902   -40896   -40876 
  -40855   -40852   -40840   -40814   -40791   -40786   -40782   -40749 
  -40705   -40697   -40713   -40702   -40645   -40598   -40610   -40613 
  -40563   -40529   -40540   -40527   -40475   -40441   -40446   -40439 
  -40398   -40363   -40354   -40347   -40319   -40284   -40271   -40258 
  -40221   -40192   -40177   -40160   -40143   -40123   -40093   -40062 
  -40042   -40030   -40014   -39985   -39959   -39945   -39923   -39889 
  -39866   -39860   -39837   -39798   -39772   -39762   -39744   -39711 
  -39687   -39673   -39649   -39613   -39587   -39577   -39557   -39525 
  -39505   -39492   -39460   -39425   -39401   -39382   -39351   -39313 
  -39289   -39280   -39256   -39217   -39191   -39178   -39156   -39128 
  -39109   -39091   -39060   -39041   -39041   -39020   -38974   -38955 
  -38963   -38952   -38915   -38898   -38908   -38890   -38853   -38850 
  -38863   -38840   -38805   -38800   -38817   -38811   -38784   -38782 
  -38793   -38772   -38747   -38760   -38778   -38760   -38736   -38747 
  -38765   -38743   -38718   -38739   -38760   -38740   -38727   -38753 
  -38774   -38758   -38749   -38774   -38790   -38777   -38778   -38811 
  -38832   -38827   -38835   -38862   -38873   -38869   -38889   -38923 
  -38935   -38935   -38963   -39006   -39021   -39024   -39050   -39087 
  -39106   -39121   -39162   -39205   -39219   -39239   -39287   -39334 
  -39355   -39376   -39430   -39491   -39517   -39541   -39607   -39663 
  -39678   -39714   -39783   -39835   -39861   -39906   -39976   -40028 
  -40058   -40103   -40170   -40228   -40265   -40308   -40371   -40428 
  -40467   -40513   -40562   -40601   -40644   -40698   -40748   -40788 
  -40826   -40873   -40915   -40944   -40984   -41031   -41060   -41077 
  -41116   -41168   -41187   -41191   -41227   -41277   -41284   -41278 
  -41314   -41349   -41345   -41341   -41359   -41378   -41373   -41359 
  -41373   -41391   -41376   -41357   -41361   -41364   -41338   -41310 
  -41301   -41296   -41270   -41241   -41222   -41212   -41193   -41153 
  -41115   -41099   -41073   -41032   -41004   -40975   -40934   -40900 
  -40873   -40837   -40791   -40751   -40718   -40680   -40644   -40616 
  -40579   -40531   -40489   -40464   -40436   -40389   -40347   -40327 
  -40289   -40242   -40221   -40198   -40147   -40107   -40091   -40069 
  -40031   -39995   -39973   -39954   -39919   -39881   -39862   -39850 
  -39816   -39781   -39772   -39758   -39721   -39683   -39665   -39655 
  -39636   -39610   -39592   -39579   -39559   -39537   -39525   -39513 
  -39495   -39480   -39475   -39469   -39457   -39451   -39452   -39447 
  -39436   -39430   -39436   -39445   -39441   -39434   -39448   -39460 
  -39456   -39464   -39482   -39490   -39499   -39522   -39537   -39545 
  -39571   -39607   -39622   -39623   -39644   -39687   -39714   -39719 
  -39752   -39804   -39826   -39833   -39864   -39906   -39933   -39954 
  -39989   -40035   -40062   -40066   -40096   -40157   -40186   -40188 
  -40220   -40282   -40319   -40329   -40362   -40410   -40435   -40451 
  -40497   -40547   -40563   -40579   -40630   -40679   -40698   -40716 
  -40759   -40805   -40826   -40846   -40891   -40933   -40954   -40980 
  -41013   -41035   -41065   -41101   -41129   -41153   -41180   -41208 
  -41237   -41257   -41273   -41299   -41324   -41345   -41369   -41393 
  -41408   -41422   -41442   -41472   -41491   -41491   -41500   -41534 
  -41553   -41548   -41563   -41596   -41600   -41592   -41611   -41642 
  -41639   -41620   -41639   -41669   -41659   -41638   -41650   -41673 
  -41663   -41646   -41655   -41663   -41646   -41628   -41634   -41634 
  -41607   -41586   -41592   -41581   -41544   -41524   -41528   -41512 
  -41473   -41449   -41440   -41422   -41378   -41339   -41324   -41305 
  -41265   -41230   -41200   -41156   -41115   -41091   -41067   -41018 
  -40964   -40930   -40898   -40852   -40805   -40768   -40728   -40682 
  -40645   -40603   -40547   -40500   -40468   -40425   -40369   -40328 
  -40298   -40259   -40209   -40159   -40123   -40091   -40045   -39999 
  -39972   -39935   -39892   -39864   -39837   -39798   -39754   -39715 
  -39694   -39678   -39638   -39598   -39582   -39563   -39526   -39500 
  -39486   -39460   -39425   -39399   -39390   -39368   -39333   -39316 
  -39316   -39301   -39267   -39251   -39251   -39231   -39206   -39196 
  -39191   -39183   -39170   -39155   -39150   -39145   -39137   -39128 
  -39117   -39102   -39098   -39105   -39094   -39074   -39073   -39081 
  -39071   -39056   -39060   -39071   -39059   -39040   -39043   -39059 
  -39062   -39044   -39035   -39041   -39046   -39050   -39047   -39037 
  -39043   -39052   -39048   -39047   -39046   -39039   -39043   -39051 
  -39040   -39031   -39040   -39050   -39043   -39044   -39058   -39064 
  -39059   -39050   -39054   -39069   -39070   -39071   -39087   -39098 
  -39094   -39096   -39109   -39117   -39116   -39125   -39139   -39145 
  -39150   -39159   -39178   -39185   -39183   -39204   -39229   -39228 
  -39225   -39245   -39271   -39272   -39271   -39294   -39324   -39326 
  -39321   -39349   -39380   -39371   -39367   -39405   -39430   -39418 
  -39422   -39467   -39495   -39486   -39492   -39521   -39534   -39536 
  -39546   -39573   -39595   -39600   -39619   -39650   -39657   -39654 
  -39668   -39694   -39707   -39700   -39707   -39734   -39746   -39746 
  -39758   -39773   -39777   -39777   -39787   -39796   -39787   -39777 
  -39783   -39796   -39792   -39776   -39777   -39787   -39779   -39760 
  -39754   -39750   -39729   -39710   -39704   -39685   -39654   -39637 
  -39627   -39607   -39572   -39544   -39532   -39506   -39456   -39420 
  -39397   -39363   -39316   -39278   -39248   -39202   -39147   -39106 
  -39071   -39017   -38959   -38923   -38884   -38821   -38760   -38716 
  -38669   -38608   -38553   -38508   -38454   -38395   -38348   -38304 
  -38245   -38179   -38128   -38095   -38043   -37970   -37922   -37893 
  -37840   -37782   -37743   -37704   -37647   -37600   -37571   -37531 
  -37477   -37439   -37415   -37384   -37341   -37304   -37284   -37262 
  -37227   -37203   -37192   -37170   -37138   -37114   -37103   -37092 
  -37075   -37061   -37061   -37048   -37021   -37015   -37025   -37010 
  -36992   -36998   -37012   -37003   -36987   -37007   -37029   -37015 
  -37002   -37021   -37045   -37049   -37052   -37077   -37107   -37126 
  -37146   -37172   -37195   -37215   -37246   -37287   -37318   -37345 
  -37385   -37432   -37469   -37507   -37552   -37606   -37659   -37702 
  -37737   -37787   -37848   -37898   -37945   -38006   -38067   -38125 
  -38186   -38240   -38283   -38337   -38402   -38462   -38516   -38581 
  -38653   -38709   -38751   -38809   -38885   -38946   -38983   -39037 
  -39113   -39177   -39219   -39271   -39334   -39394   -39441   -39492 
  -39552   -39604   -39654   -39715   -39771   -39806   -39847   -39908 
  -39962   -39996   -40032   -40085   -40140   -40182   -40216   -40257 
  -40304   -40347   -40381   -40412   -40458   -40504   -40540   -40575 
  -40613   -40651   -40694   -40730   -40759   -40794   -40844   -40882 
  -40903   -40948   -41009   -41037   -41049   -41100   -41161   -41185 
  -41206   -41260   -41318   -41343   -41362   -41409   -41457   -41476 
  -41499   -41553   -41605   -41627   -41652   -41708   -41755   -41773 
  -41797   -41841   -41883   -41912   -41941   -41976   -42009   -42039 
  -42078   -42114   -42136   -42164   -42205   -42233   -42250   -42279 
  -42307   -42329   -42363   -42399   -42415   -42427   -42457   -42493 
  -42514   -42522   -42537   -42560   -42576   -42583   -42593   -42614 
  -42635   -42645   -42643   -42653   -42672   -42676   -42665   -42657 
  -42664   -42668   -42650   -42645   -42654   -42645   -42622   -42618 
  -42622   -42612   -42580   -42554   -42554   -42539   -42503   -42484 
  -42475   -42453   -42429   -42409   -42384   -42346   -42318   -42310 
  -42291   -42249   -42214   -42201   -42182   -42149   -42121   -42097 
  -42067   -42039   -42014   -41985   -41945   -41914   -41893   -41860 
  -41809   -41773   -41755   -41727   -41679   -41639   -41608   -41570 
  -41516   -41467   -41443   -41411   -41354   -41300   -41269   -41234 
  -41176   -41116   -41078   -41045   -40983   -40921   -40882   -40840 
  -40780   -40725   -40676   -40622   -40564   -40516   -40470   -40412 
  -40358   -40319   -40282   -40228   -40166   -40120   -40080   -40024 
  -39970   -39928   -39884   -39833   -39795   -39768   -39723   -39668 
  -39627   -39596   -39553   -39507   -39472   -39441   -39401   -39363 
  -39339   -39313   -39279   -39247   -39208   -39172   -39150   -39124 
  -39081   -39039   -39013   -38994   -38967   -38938   -38911   -38886 
  -38859   -38823   -38794   -38767   -38737   -38711   -38689   -38666 
  -38646   -38626   -38603   -38576   -38557   -38535   -38508   -38491 
  -38480   -38457   -38427   -38410   -38404   -38395   -38373   -38354 
  -38350   -38349   -38335   -38314   -38301   -38301   -38299   -38290 
  -38287   -38286   -38287   -38291   -38280   -38271   -38283   -38296 
  -38290   -38280   -38295   -38321   -38327   -38317   -38321   -38341 
  -38352   -38354   -38364   -38384   -38398   -38399   -38406   -38429 
  -38443   -38438   -38443   -38472   -38488   -38492   -38514   -38537 
  -38539   -38546   -38577   -38601   -38604   -38608   -38645   -38684 
  -38688   -38684   -38719   -38757   -38763   -38770   -38804   -38838 
  -38853   -38867   -38896   -38927   -38947   -38965   -38990   -39015 
  -39029   -39054   -39090   -39112   -39120   -39140   -39173   -39198 
  -39208   -39226   -39263   -39279   -39279   -39305   -39347   -39363 
  -39366   -39393   -39425   -39433   -39437   -39460   -39482   -39491 
  -39502   -39517   -39528   -39545   -39572   -39580   -39582   -39594 
  -39606   -39604   -39604   -39618   -39625   -39626   -39640   -39652 
  -39652   -39655   -39657   -39649   -39645   -39649   -39646   -39641 
  -39646   -39654   -39646   -39640   -39650   -39653   -39644   -39644 
  -39648   -39634   -39614   -39622   -39637   -39622   -39596   -39600 
  -39618   -39609   -39584   -39576   -39569   -39553   -39538   -39526 
  -39519   -39514   -39506   -39494   -39483   -39469   -39453   -39436 
  -39422   -39411   -39394   -39371   -39363   -39357   -39337   -39318 
  -39309   -39299   -39280   -39253   -39241   -39239   -39222   -39204 
  -39194   -39189   -39181   -39172   -39158   -39144   -39136   -39127 
  -39110   -39102   -39104   -39094   -39082   -39082   -39085   -39074 
  -39058   -39052   -39055   -39047   -39035   -39037   -39044   -39035 
  -39023   -39033   -39051   -39036   -39010   -39019   -39043   -39033 
  -39009   -39020   -39047   -39040   -39017   -39028   -39051   -39044 
  -39027   -39039   -39066   -39070   -39059   -39073   -39096   -39100 
  -39109   -39135   -39147   -39150   -39175   -39199   -39208   -39222 
  -39255   -39282   -39293   -39318   -39356   -39382   -39402   -39437 
  -39479   -39509   -39536   -39575   -39617   -39650   -39687   -39734 
  -39783   -39833   -39872   -39903   -39957   -40019   -40058   -40101 
  -40160   -40213   -40257   -40313   -40382   -40441   -40486   -40545 
  -40621   -40687   -40738   -40794   -40868   -40936   -40981   -41044 
  -41131   -41208   -41264   -41330   -41403   -41472   -41535   -41597 
  -41671   -41742   -41801   -41872   -41950   -42013   -42074   -42151 
  -42226   -42275   -42327   -42404   -42472   -42526   -42587   -42649 
  -42703   -42761   -42831   -42896   -42937   -42981   -43046   -43097 
  -43127   -43174   -43240   -43285   -43305   -43350   -43414   -43445 
  -43457   -43486   -43528   -43561   -43568   -43591   -43642   -43659 
  -43645   -43660   -43700   -43710   -43686   -43688   -43722   -43719 
  -43681   -43677   -43700   -43686   -43644   -43627   -43634   -43614 
  -43559   -43528   -43525   -43498   -43444   -43402   -43379   -43345 
  -43286   -43231   -43190   -43132   -43065   -43009   -42965   -42911 
  -42834   -42754   -42699   -42643   -42560   -42469   -42399   -42336 
  -42252   -42159   -42078   -42005   -41929   -41841   -41746   -41658 
  -41582   -41499   -41396   -41289   -41197   -41119   -41026   -40919 
  -40832   -40751   -40651   -40549   -40470   -40375   -40259   -40162 
  -40084   -39996   -39887   -39785   -39711   -39630   -39523   -39426 
  -39348   -39256   -39147   -39052   -38986   -38913   -38816   -38726 
  -38659   -38591   -38507   -38431   -38368   -38294   -38213   -38149 
  -38090   -38020   -37960   -37916   -37859   -37791   -37740   -37705 
  -37663   -37601   -37546   -37519   -37497   -37450   -37407   -37386 
  -37370   -37341   -37308   -37289   -37282   -37264   -37242   -37238 
  -37227   -37210   -37212   -37218   -37211   -37216   -37234   -37241 
  -37247   -37258   -37277   -37305   -37322   -37326   -37359   -37409 
  -37435   -37458   -37504   -37551   -37586   -37623   -37670   -37721 
  -37768   -37817   -37875   -37933   -37989   -38057   -38125   -38173 
  -38225   -38301   -38385   -38441   -38484   -38557   -38650   -38723 
  -38772   -38839   -38932   -39008   -39055   -39121   -39214   -39293 
  -39351   -39417   -39492   -39568   -39637   -39700   -39771   -39843 
  -39911   -39978   -40039   -40097   -40166   -40236   -40293   -40348 
  -40413   -40475   -40522   -40571   -40628   -40675   -40711   -40760 
  -40822   -40864   -40882   -40915   -40976   -41008   -41006   -41027 
  -41080   -41111   -41112   -41122   -41149   -41170   -41170   -41172 
  -41187   -41189   -41181   -41183   -41184   -41173   -41164   -41160 
  -41143   -41119   -41111   -41106   -41064   -41021   -41015   -41006 
  -40963   -40915   -40890   -40867   -40828   -40782   -40749   -40722 
  -40678   -40619   -40572   -40535   -40489   -40435   -40392   -40354 
  -40300   -40242   -40204   -40160   -40085   -40016   -39984   -39951 
  -39892   -39822   -39779   -39750   -39688   -39607   -39557   -39521 
  -39463   -39397   -39348   -39302   -39239   -39175   -39127   -39075 
  -39012   -38955   -38916   -38865   -38792   -38735   -38699   -38647 
  -38580   -38523   -38483   -38435   -38381   -38334   -38284   -38223 
  -38173   -38142   -38110   -38053   -37993   -37960   -37928   -37866 
  -37818   -37793   -37751   -37704   -37679   -37660   -37624   -37578 
  -37544   -37531   -37517   -37473   -37427   -37422   -37430   -37399 
  -37355   -37349   -37365   -37345   -37307   -37304   -37311   -37295 
  -37284   -37293   -37299   -37293   -37284   -37285   -37300   -37307 
  -37305   -37311   -37326   -37342   -37353   -37363   -37384   -37397 
  -37409   -37438   -37461   -37473   -37497   -37523   -37538   -37561 
  -37600   -37632   -37650   -37682   -37732   -37755   -37764   -37802 
  -37844   -37860   -37890   -37951   -37990   -37997   -38030   -38090 
  -38132   -38142   -38157   -38211   -38269   -38283   -38303   -38364 
  -38412   -38422   -38442   -38500   -38549   -38564   -38578   -38626 
  -38678   -38697   -38709   -38757   -38800   -38811   -38838   -38892 
  -38920   -38923   -38952   -38998   -39019   -39028   -39062   -39106 
  -39128   -39141   -39179   -39219   -39231   -39245   -39287   -39318 
  -39332   -39360   -39395   -39417   -39452   -39491   -39505   -39515 
  -39557   -39607   -39637   -39648   -39673   -39730   -39776   -39789 
  -39807   -39854   -39903   -39930   -39951   -39991   -40041   -40077 
  -40093   -40124   -40173   -40213   -40240   -40277   -40327   -40367 
  -40392   -40419   -40458   -40505   -40544   -40566   -40594   -40637 
  -40672   -40701   -40733   -40765   -40801   -40828   -40855   -40894 
  -40929   -40945   -40967   -41007   -41053   -41078   -41089   -41123 
  -41176   -41200   -41206   -41239   -41291   -41316   -41330   -41361 
  -41400   -41427   -41451   -41484   -41521   -41554   -41578   -41605 
  -41638   -41665   -41683   -41721   -41770   -41791   -41801   -41840 
  -41886   -41906   -41922   -41949   -41978   -42003   -42025   -42043 
  -42063   -42088   -42113   -42126   -42145   -42176   -42191   -42194 
  -42211   -42240   -42256   -42260   -42264   -42283   -42307   -42315 
  -42311   -42319   -42337   -42334   -42319   -42325   -42342   -42336 
  -42319   -42331   -42346   -42331   -42313   -42311   -42311   -42299 
  -42290   -42292   -42287   -42265   -42246   -42241   -42240   -42223 
  -42201   -42190   -42184   -42168   -42147   -42130   -42128   -42111 
  -42082   -42071   -42067   -42045   -42019   -42013   -42010   -41982 
  -41950   -41944   -41943   -41916   -41883   -41872   -41866   -41844 
  -41816   -41796   -41778   -41752   -41727   -41709   -41690   -41663 
  -41643   -41623   -41592   -41559   -41539   -41521   -41485   -41453 
  -41438   -41412   -41368   -41338   -41322   -41291   -41243   -41207 
  -41177   -41146   -41110   -41065   -41027   -40999   -40960   -40915 
  -40880   -40841   -40788   -40748   -40718   -40672   -40614   -40572 
  -40543   -40493   -40433   -40389   -40355   -40317   -40262   -40208 
  -40174   -40136   -40078   -40026   -39992   -39959   -39912   -39857 
  -39812   -39781   -39745   -39700   -39653   -39615   -39591   -39563 
  -39514   -39467   -39447   -39429   -39384   -39336   -39320   -39310 
  -39270   -39222   -39208   -39205   -39175   -39129   -39112   -39117 
  -39097   -39060   -39056   -39069   -39043   -39004   -39004   -39019 
  -39000   -38974   -38983   -39001   -38986   -38963   -38965   -38978 
  -38982   -38971   -38974   -38985   -38985   -38982   -38993   -39004 
  -39001   -38996   -39008   -39023   -39021   -39024   -39043   -39051 
