Origin Time       2016/04/16 01:25:00
Lat.              32.753
Long.             130.762
Depth. (km)       12
Mag.              7.3
Station Code      ISK011
Station Lat.      36.3967
Station Long.     136.4432
Station Height(m) 3
Record Time       2016/04/16 01:28:18
Sampling Freq(Hz) 100Hz
Duration Time(s)  74
Dir.              N-S
Scale Factor      7845(gal)/8223790
Max. Acc. (gal)   2.366
Last Correction   2016/04/16 01:28:19
Memo.             
[...]
   10848    10820    10798    10777    10748    10722    10708    10689 
   10669    10650    10631    10611    10593    10578    10566    10547 
   10527    10514    10501    10482    10470    10455    10436    10426 
   10417    10405    10390    10380    10369    10355    10350    10345 
   10329    10318    10318    10312    10303    10304    10305    10296 
   10299    10307    10308    10318    10335    10342    10347    10366 
   10386    10400    10423    10451    10474    10503    10530    10547 
   10569    10600    10628    10654    10683    10709    10728    10755 
   10786    10810    10832    10858    10882    10902    10926    10951 
   10967    10983    11003    11018    11029    11043    11051    11059 
   11067    11074    11075    11078    11082    11079    11071    11067 
   11070    11067    11052    11043    11041    11033    11025    11024 
   11014    11001    10990    10982    10974    10967    10957    10948 
   10939    10933    10930    10925    10925    10926    10922    10924 
   10935    10944    10949    10960    10974    10989    11006    11029 
   11052    11076    11110    11141    11165    11200    11244    11283 
   11321    11365    11410    11448    11488    11538    11583    11622 
   11668    11712    11749    11793    11846    11884    11921    11965 
   12000    12037    12079    12112    12144    12182    12220    12248 
   12278    12313    12337    12356    12383    12406    12426    12444 
   12459    12471    12480    12490    12494    12491    12492    12495 
   12486    12478    12476    12464    12449    12442    12429    12409 
   12394    12375    12351    12324    12299    12271    12243    12217 
   12186    12152    12122    12091    12056    12021    11989    11954 
   11919    11892    11867    11838    11807    11776    11749    11722 
   11696    11678    11659    11641    11630    11620    11607    11599 
   11592    11583    11585    11595    11593    11589    11600    11614 
   11620    11634    11649    11655    11668    11691    11712    11729 
   11749    11770    11790    11812    11835    11854    11875    11904 
   11929    11947    11973    11993    12010    12031    12052    12070 
   12081    12097    12112    12117    12131    12147    12148    12152 
   12158    12155    12154    12151    12141    12132    12124    12112 
   12098    12082    12062    12042    12019    11990    11963    11935 
   11908    11881    11848    11813    11781    11749    11715    11684 
   11647    11608    11570    11534    11502    11469    11430    11391 
   11356    11322    11284    11250    11218    11184    11152    11118 
   11084    11055    11025    10994    10966    10940    10912    10882 
   10859    10840    10817    10795    10778    10759    10743    10732 
   10721    10709    10702    10697    10693    10696    10698    10701 
   10706    10710    10721    10732    10740    10755    10767    10775 
   10798    10816    10829    10849    10868    10885    10903    10926 
   10947    10962    10976    10995    11010    11026    11041    11049 
   11062    11079    11086    11091    11105    11113    11114    11121 
   11129    11128    11128    11129    11125    11121    11118    11115 
   11105    11098    11097    11087    11070    11061    11060    11047 
   11037    11034    11024    11013    11001    10990    10984    10976 
   10963    10955    10945    10933    10925    10922    10916    10897 
   10882    10875    10866    10852    10837    10824    10810    10795 
   10783    10768    10750    10735    10719    10698    10681    10667 
   10652    10635    10617    10598    10578    10566    10558    10540 
   10527    10519    10509    10504    10504    10501    10503    10509 
   10516    10520    10528    10542    10561    10582    10609    10636 
   10666    10702    10740    10777    10818    10864    10910    10957 
   11007    11061    11117    11173    11233    11291    11350    11407 
   11468    11530    11589    11650    11709    11769    11830    11885 
   11939    11997    12051    12105    12159    12212    12266    12314 
   12360    12411    12460    12502    12546    12587    12625    12661 
   12690    12723    12756    12779    12800    12819    12835    12855 
   12870    12879    12885    12885    12885    12884    12873    12864 
   12855    12839    12819    12799    12779    12756    12729    12699 
   12673    12644    12613    12583    12548    12513    12475    12429 
   12386    12347    12303    12256    12208    12155    12108    12058 
   12001    11947    11893    11835    11774    11712    11647    11581 
   11511    11441    11369    11295    11221    11142    11060    10978 
   10897    10820    10743    10658    10577    10503    10426    10343 
   10266    10192    10119    10046     9975     9909     9845     9783 
    9721     9664     9612     9560     9513     9468     9421     9381 
    9348     9309     9277     9255     9231     9208     9190     9171 
    9151     9142     9135     9124     9116     9115     9115     9115 
    9116     9116     9123     9130     9136     9146     9159     9171 
    9184     9196     9213     9236     9255     9274     9297     9319 
    9342     9370     9398     9429     9466     9497     9528     9559 
    9596     9636     9668     9705     9744     9780     9822     9864 
    9896     9934     9976    10019    10069    10111    10146    10193 
   10243    10291    10346    10396    10438    10489    10543    10594 
   10651    10706    10762    10816    10871    10926    10979    11037 
   11099    11153    11211    11271    11323    11379    11431    11480 
   11534    11584    11634    11689    11739    11785    11834    11878 
   11924    11969    12008    12050    12089    12125    12159    12197 
   12233    12260    12286    12313    12337    12363    12386    12403 
   12417    12433    12451    12460    12469    12480    12482    12480 
   12486    12490    12487    12484    12483    12480    12476    12471 
   12468    12461    12455    12448    12436    12425    12418    12409 
   12393    12378    12363    12345    12328    12316    12295    12272 
   12252    12224    12198    12177    12150    12117    12082    12051 
   12020    11982    11944    11904    11862    11817    11770    11727 
   11686    11639    11585    11533    11480    11429    11377    11326 
   11273    11219    11169    11122    11072    11024    10980    10935 
   10890    10854    10818    10782    10752    10721    10693    10673 
   10652    10635    10621    10611    10600    10593    10590    10585 
   10584    10593    10596    10594    10605    10617    10624    10636 
   10646    10658    10677    10694    10706    10719    10732    10751 
   10771    10787    10800    10816    10832    10848    10864    10881 
   10895    10908    10921    10937    10952    10963    10979    10998 
   11013    11026    11047    11065    11080    11101    11124    11148 
   11171    11188    11214    11245    11268    11294    11323    11352 
   11379    11404    11434    11464    11493    11527    11557    11581 
   11615    11649    11674    11701    11728    11754    11786    11816 
   11840    11867    11889    11902    11920    11940    11961    11975 
   11988    11997    12005    12013    12016    12016    12019    12020 
   12016    12008    11998    11992    11986    11980    11971    11954 
   11932    11916    11904    11898    11894    11885    11865    11844 
   11835    11830    11823    11817    11809    11801    11801    11803 
   11801    11797    11796    11793    11794    11805    11811    11812 
   11819    11819    11813    11820    11835    11844    11851    11859 
   11867    11874    11881    11893    11904    11912    11923    11932 
   11937    11944    11955    11962    11963    11963    11962    11963 
   11965    11963    11956    11950    11943    11934    11924    11916 
   11901    11881    11859    11842    11824    11804    11778    11750 
   11720    11692    11658    11623    11591    11554    11512    11468 
   11422    11379    11337    11290    11237    11188    11141    11094 
   11044    10993    10940    10886    10836    10783    10727    10678 
   10631    10574    10517    10466    10420    10376    10327    10274 
   10226    10181    10134    10088    10049    10008     9971     9931 
    9895     9861     9829     9802     9768     9736     9715     9693 
    9672     9661     9645     9632     9624     9614     9606     9603 
    9598     9598     9603     9616     9628     9636     9647     9661 
    9675     9693     9715     9734     9752     9778     9806     9833 
    9861     9887     9911     9940     9971     9998    10025    10060 
   10091    10118    10146    10177    10207    10230    10260    10288 
   10309    10342    10369    10386    10409    10434    10454    10476 
   10493    10513    10531    10543    10558    10573    10582    10594 
   10608    10615    10621    10627    10631    10632    10631    10629 
   10623    10617    10616    10605    10588    10579    10569    10547 
   10530    10509    10488    10467    10443    10416    10392    10368 
   10343    10318    10296    10273    10241    10212    10192    10170 
   10149    10133    10114    10093    10079    10072    10061    10045 
   10041    10038    10038    10045    10045    10046    10061    10073 
   10083    10099    10120    10143    10169    10196    10223    10250 
   10277    10309    10345    10376    10409    10443    10474    10516 
   10554    10585    10620    10656    10689    10725    10760    10795 
   10832    10870    10905    10937    10971    11006    11039    11076 
   11117    11152    11186    11229    11265    11292    11327    11368 
   11399    11433    11472    11507    11538    11572    11604    11630 
   11655    11689    11724    11747    11772    11800    11820    11840 
   11865    11886    11907    11924    11939    11951    11965    11977 
   11989    12001    12010    12017    12017    12019    12023    12025 
   12029    12025    12016    12017    12015    12002    11992    11982 
   11970    11961    11947    11935    11924    11909    11890    11873 
   11857    11836    11815    11794    11767    11736    11711    11686 
   11655    11624    11589    11551    11516    11481    11445    11412 
   11377    11340    11308    11276    11236    11199    11171    11145 
   11119    11094    11067    11039    11018    10995    10971    10956 
   10940    10916    10899    10886    10864    10851    10839    10825 
   10810    10791    10777    10758    10737    10721    10698    10674 
   10652    10627    10594    10563    10530    10498    10469    10438 
   10400    10355    10319    10282    10241    10203    10164    10129 
   10095    10053    10008     9971     9936     9903     9867     9834 
    9809     9778     9747     9726     9702     9676     9657     9639 
    9618     9605     9593     9579     9571     9568     9563     9559 
    9559     9566     9572     9580     9593     9607     9621     9640 
    9662     9684     9710     9740     9769     9803     9840     9871 
    9903     9944     9987    10029    10071    10112    10154    10197 
   10242    10288    10338    10385    10427    10471    10516    10562 
   10608    10652    10694    10737    10778    10818    10858    10893 
   10922    10953    10987    11014    11033    11055    11076    11090 
   11107    11119    11122    11129    11140    11141    11137    11133 
   11134    11133    11132    11129    11117    11109    11109    11103 
   11095    11087    11079    11067    11061    11062    11057    11045 
   11039    11033    11024    11022    11020    11013    11010    11014 
   11014    11006    11002    11002    10999    11003    11007    10994 
   10984    10994    11001    10996    10998    11001    10998    10996 
   10998    10999    11002    11009    11010    11011    11021    11024 
   11029    11039    11049    11064    11083    11099    11117    11133 
   11146    11165    11184    11203    11230    11253    11271    11295 
   11318    11335    11353    11373    11392    11402    11412    11430 
   11443    11449    11455    11457    11454    11454    11450    11441 
   11433    11429    11414    11394    11379    11361    11341    11319 
   11295    11275    11253    11222    11192    11165    11141    11122 
   11094    11065    11045    11020    10991    10968    10948    10932 
   10912    10895    10879    10854    10840    10833    10821    10816 
   10809    10797    10790    10787    10787    10783    10781    10782 
   10777    10771    10775    10771    10766    10773    10773    10766 
   10770    10773    10763    10758    10762    10760    10758    10758 
   10755    10746    10740    10736    10729    10721    10717    10709 
   10696    10692    10689    10678    10669    10666    10658    10643 
   10629    10619    10606    10598    10586    10569    10559    10557 
   10546    10536    10532    10528    10525    10521    10519    10523 
   10532    10536    10543    10555    10571    10590    10606    10633 
   10666    10694    10725    10763    10801    10847    10901    10955 
   11007    11061    11125    11195    11265    11335    11411    11488 
   11566    11646    11727    11807    11886    11969    12050    12132 
   12209    12290    12370    12442    12521    12598    12665    12735 
   12802    12862    12927    12989    13045    13100    13155    13205 
   13254    13300    13336    13374    13413    13450    13481    13508 
   13536    13565    13587    13603    13621    13636    13647    13662 
   13671    13678    13684    13684    13687    13689    13687    13687 
   13680    13674    13670    13660    13652    13640    13621    13606 
   13590    13572    13554    13531    13509    13489    13462    13432 
   13404    13374    13343    13311    13277    13244    13207    13167 
   13128    13088    13047    13007    12953    12901    12854    12799 
   12746    12698    12634    12567    12505    12437    12367    12297 
   12221    12141    12063    11985    11900    11815    11729    11647 
   11568    11484    11398    11313    11227    11145    11067    10984 
   10908    10837    10764    10696    10629    10565    10508    10458 
   10407    10362    10327    10293    10263    10238    10219    10206 
   10197    10192    10189    10191    10203    10215    10228    10246 
   10266    10287    10312    10338    10362    10395    10430    10458 
   10488    10524    10561    10593    10625    10660    10697    10735 
   10770    10801    10839    10876    10908    10945    10986    11016 
   11052    11090    11124    11160    11198    11232    11267    11299 
   11331    11368    11402    11431    11455    11483    11512    11541 
   11564    11591    11611    11626    11643    11662    11677    11685 
   11695    11704    11715    11724    11731    11736    11742    11739 
   11738    11739    11745    11753    11754    11751    11749    11747 
   11750    11753    11750    11750    11750    11745    11746    11751 
   11755    11759    11755    11750    11759    11769    11770    11777 
   11780    11774    11772    11782    11788    11792    11799    11799 
   11794    11799    11801    11796    11799    11801    11797    11797 
   11800    11792    11781    11778    11774    11762    11757    11750 
   11738    11727    11715    11704    11693    11678    11661    11649 
   11637    11618    11603    11591    11574    11562    11549    11531 
   11518    11506    11495    11488    11477    11468    11455    11441 
   11429    11418    11418    11419    11407    11392    11377    11369 
   11373    11375    11367    11354    11348    11344    11333    11326 
   11326    11315    11307    11311    11308    11304    11307    11310 
   11307    11306    11307    11317    11327    11334    11345    11354 
   11367    11385    11399    11412    11437    11460    11477    11504 
   11531    11554    11580    11611    11645    11678    11709    11739 
   11776    11812    11848    11890    11928    11963    12002    12044 
   12085    12128    12172    12209    12243    12285    12328    12366 
   12409    12449    12480    12515    12556    12596    12631    12661 
   12694    12729    12764    12789    12810    12837    12864    12881 
   12897    12912    12924    12935    12945    12950    12949    12943 
   12939    12934    12926    12914    12897    12879    12857    12837 
   12815    12783    12749    12721    12690    12657    12623    12580 
   12538    12501    12457    12413    12372    12334    12287    12233 
   12187    12143    12091    12043    11994    11944    11898    11848 
   11796    11743    11693    11642    11593    11547    11500    11450 
   11406    11369    11330    11283    11241    11204    11171    11148 
   11126    11101    11078    11060    11044    11029    11022    11017 
   11010    11010    11017    11020    11020    11028    11043    11053 
   11067    11080    11090    11102    11122    11144    11161    11179 
   11199    11218    11237    11260    11280    11302    11319    11335 
   11356    11373    11387    11406    11422    11433    11448    11461 
   11472    11479    11484    11488    11497    11503    11506    11507 
   11510    11504    11497    11499    11503    11496    11488    11484 
   11476    11473    11465    11446    11431    11427    11422    11408 
   11394    11383    11362    11346    11341    11326    11306    11290 
   11271    11254    11242    11226    11209    11191    11169    11151 
   11138    11124    11105    11080    11055    11039    11024    11006 
   10993    10968    10940    10917    10899    10883    10864    10843 
   10825    10802    10781    10770    10758    10744    10733    10721 
   10708    10700    10689    10681    10677    10675    10671    10669 
   10673    10675    10678    10682    10683    10686    10700    10710 
   10714    10724    10736    10750    10771    10786    10794    10808 
   10824    10841    10859    10875    10889    10903    10922    10936 
   10944    10952    10962    10967    10971    10978    10979    10978 
   10976    10971    10966    10959    10947    10933    10918    10906 
   10894    10871    10848    10828    10806    10781    10755    10736 
   10717    10685    10654    10631    10601    10570    10546    10524 
   10500    10476    10443    10409    10388    10369    10343    10324 
   10304    10282    10269    10257    10237    10223    10216    10200 
   10184    10176    10170    10166    10164    10157    10150    10152 
   10152    10143    10138    10141    10143    10145    10147    10149 
   10150    10149    10154    10164    10169    10179    10187    10187 
   10195    10207    10214    10223    10242    10255    10263    10274 
   10289    10308    10327    10343    10359    10378    10400    10415 
   10428    10449    10469    10486    10507    10527    10547    10570 
   10589    10602    10620    10639    10654    10669    10693    10714 
   10728    10746    10760    10770    10783    10797    10806    10821 
   10835    10839    10851    10863    10867    10872    10879    10889 
   10895    10901    10909    10916    10917    10921    10926    10935 
   10940    10939    10941    10948    10947    10943    10941    10944 
   10947    10947    10940    10932    10932    10932    10928    10922 
   10917    10914    10908    10894    10887    10886    10883    10878 
   10871    10863    10859    10858    10847    10836    10835    10835 
