Origin Time       2016/04/16 01:25:00
Lat.              32.753
Long.             130.762
Depth. (km)       12
Mag.              7.3
Station Code      ISK014
Station Lat.      36.3028
Station Long.     136.3154
Station Height(m) 4
Record Time       2016/04/16 01:28:10
Sampling Freq(Hz) 100Hz
Duration Time(s)  87
Dir.              N-S
Scale Factor      7845(gal)/8223790
Max. Acc. (gal)   2.685
Last Correction   2016/04/16 01:28:11
Memo.             
[...]
    2124     2106     2081     2058     2042     2019     1999     1982 
    1964     1945     1929     1911     1895     1880     1868     1861 
    1852     1844     1840     1837     1836     1836     1836     1840 
    1844     1849     1858     1865     1873     1890     1904     1918 
    1937     1954     1971     1988     2006     2027     2049     2068 
    2081     2097     2115     2126     2139     2153     2165     2173 
    2180     2187     2193     2196     2193     2192     2195     2189 
    2184     2182     2181     2173     2163     2155     2147     2135 
    2123     2111     2096     2076     2056     2041     2022     2001 
    1982     1958     1935     1921     1902     1880     1865     1850 
    1833     1821     1806     1796     1792     1783     1777     1775 
    1768     1767     1767     1765     1769     1773     1777     1783 
    1787     1791     1798     1807     1819     1826     1833     1844 
    1856     1863     1868     1873     1883     1892     1898     1903 
    1911     1917     1922     1922     1922     1923     1926     1926 
    1927     1930     1930     1929     1929     1926     1921     1918 
    1914     1907     1907     1910     1906     1908     1910     1906 
    1911     1915     1912     1915     1918     1917     1922     1925 
    1927     1937     1937     1937     1949     1949     1945     1954 
    1958     1954     1956     1958     1953     1954     1954     1949 
    1944     1941     1937     1930     1926     1921     1915     1910 
    1903     1895     1892     1887     1878     1876     1873     1869 
    1867     1863     1861     1868     1871     1868     1875     1883 
    1884     1885     1887     1890     1899     1906     1910     1919 
    1929     1937     1945     1952     1958     1971     1981     1988 
    1999     2011     2019     2029     2039     2047     2053     2061 
    2064     2069     2076     2083     2084     2084     2085     2084 
    2079     2072     2069     2066     2058     2050     2042     2034 
    2023     2011     2001     1987     1973     1964     1949     1938 
    1935     1929     1918     1911     1910     1910     1906     1900 
    1900     1906     1908     1910     1914     1918     1926     1933 
    1939     1949     1962     1972     1980     1989     2000     2011 
    2023     2034     2050     2066     2087     2104     2121     2141 
    2160     2180     2200     2215     2231     2253     2267     2276 
    2290     2308     2322     2328     2335     2344     2349     2349 
    2349     2349     2346     2344     2343     2335     2326     2317 
    2308     2297     2290     2280     2265     2254     2246     2231 
    2222     2218     2209     2203     2199     2193     2188     2185 
    2185     2185     2184     2187     2193     2199     2204     2212 
    2220     2231     2243     2250     2262     2282     2296     2309 
    2328     2340     2354     2377     2394     2411     2430     2440 
    2451     2466     2475     2479     2489     2497     2498     2500 
    2504     2501     2497     2492     2479     2474     2467     2452 
    2435     2417     2400     2385     2363     2338     2313     2288 
    2266     2246     2220     2199     2174     2151     2130     2107 
    2091     2069     2045     2030     2014     1993     1981     1968 
    1949     1941     1930     1914     1904     1894     1877     1869 
    1859     1849     1846     1841     1833     1833     1829     1825 
    1826     1830     1830     1833     1840     1841     1846     1852 
    1856     1867     1871     1876     1888     1895     1898     1906 
    1915     1923     1930     1933     1935     1944     1949     1953 
    1956     1962     1969     1968     1968     1972     1975     1980 
    1981     1972     1971     1972     1961     1956     1954     1948 
    1939     1930     1919     1906     1895     1887     1872     1854 
    1844     1833     1818     1803     1788     1775     1761     1746 
    1738     1729     1715     1703     1691     1676     1667     1657 
    1647     1641     1636     1625     1621     1615     1610     1609 
    1605     1597     1599     1606     1614     1621     1632     1644 
    1653     1667     1686     1706     1728     1750     1769     1794 
    1822     1845     1865     1891     1917     1948     1979     2000 
    2029     2064     2087     2106     2128     2153     2178     2203 
    2223     2245     2269     2289     2305     2323     2342     2361 
    2374     2390     2411     2427     2440     2451     2463     2474 
    2482     2490     2493     2494     2502     2508     2504     2501 
    2500     2494     2489     2488     2486     2485     2481     2473 
    2471     2466     2457     2455     2454     2446     2442     2438 
    2427     2420     2415     2403     2394     2390     2381     2371 
    2366     2358     2349     2344     2342     2334     2326     2323 
    2322     2322     2317     2312     2309     2304     2304     2305 
    2301     2296     2295     2289     2284     2282     2277     2267 
    2262     2255     2245     2236     2230     2218     2209     2200 
    2184     2170     2160     2144     2130     2115     2097     2079 
    2065     2052     2039     2023     2011     1998     1981     1969 
    1961     1946     1930     1926     1918     1907     1898     1892 
    1885     1877     1878     1875     1865     1865     1867     1863 
    1861     1863     1861     1863     1863     1861     1869     1875 
    1875     1883     1888     1890     1899     1911     1921     1937 
    1949     1960     1975     1989     2004     2019     2034     2052 
    2072     2089     2106     2124     2142     2158     2173     2191 
    2207     2223     2236     2247     2258     2273     2281     2289 
    2299     2303     2309     2316     2313     2313     2313     2305 
    2300     2295     2284     2269     2254     2236     2218     2196 
    2170     2142     2116     2087     2057     2029     1996     1965 
    1935     1902     1871     1846     1822     1792     1765     1741 
    1721     1701     1676     1655     1640     1628     1615     1605 
    1597     1591     1588     1587     1586     1587     1588     1588 
    1590     1598     1609     1615     1624     1632     1642     1655 
    1668     1680     1691     1702     1711     1722     1732     1740 
    1749     1755     1765     1773     1781     1791     1794     1798 
    1806     1815     1821     1826     1837     1844     1849     1852 
    1858     1865     1875     1881     1887     1888     1892     1898 
    1903     1908     1911     1912     1911     1910     1914     1915 
    1912     1914     1914     1915     1923     1929     1929     1938 
    1949     1956     1969     1984     1995     2008     2027     2045 
    2062     2084     2102     2120     2141     2163     2187     2207 
    2223     2241     2261     2276     2288     2304     2316     2323 
    2334     2343     2347     2353     2353     2353     2354     2354 
    2349     2346     2344     2342     2338     2338     2334     2328 
    2327     2323     2319     2319     2317     2317     2317     2316 
    2313     2313     2311     2312     2319     2322     2322     2327 
    2334     2338     2346     2351     2361     2374     2386     2400 
    2416     2430     2446     2461     2474     2490     2508     2519 
    2533     2551     2567     2581     2593     2605     2616     2625 
    2632     2636     2644     2656     2662     2666     2669     2674 
    2683     2691     2700     2712     2724     2733     2745     2758 
    2771     2786     2797     2813     2830     2843     2857     2872 
    2880     2894     2910     2922     2933     2951     2967     2986 
    3003     3022     3041     3056     3076     3098     3118     3142 
    3169     3191     3213     3237     3256     3279     3300     3316 
    3339     3360     3372     3388     3404     3411     3419     3423 
    3418     3411     3407     3396     3379     3361     3335     3302 
    3264     3221     3175     3130     3079     3022     2967     2909 
    2844     2779     2714     2651     2589     2521     2455     2390 
    2323     2257     2189     2124     2065     2001     1935     1878 
    1826     1776     1722     1668     1620     1578     1533     1490 
    1449     1412     1375     1343     1308     1275     1250     1221 
    1196     1174     1154     1135     1117     1100     1081     1063 
    1046     1028     1011      990      973      959      942      922 
     901      881      858      830      803      778      749      718 
     692      662      627      591      553      519      484      446 
     410      375      338      301      261      224      189      152 
     118       89       59       28        0      -27      -52      -76 
    -101     -122     -140     -155     -170     -182     -194     -203 
    -206     -209     -209     -201     -195     -191     -176     -162 
    -151     -137     -114      -91      -63      -32       -1       35 
      76      118      164      212      261      314      370      425 
     487      550      614      680      749      816      893      972 
    1047     1123     1204     1293     1382     1466     1549     1637 
    1722     1814     1911     2012     2115     2219     2322     2425 
    2524     2625     2732     2840     2948     3052     3152     3252 
    3353     3449     3538     3627     3715     3798     3875     3948 
    4025     4095     4153     4215     4275     4326     4379     4429 
    4472     4515     4552     4585     4623     4652     4679     4707 
    4723     4745     4769     4780     4795     4811     4814     4820 
    4830     4830     4830     4828     4822     4818     4814     4800 
    4785     4773     4757     4738     4723     4707     4689     4673 
    4656     4634     4622     4612     4596     4585     4576     4564 
    4558     4553     4545     4542     4541     4534     4529     4522 
    4513     4507     4499     4483     4468     4449     4428     4407 
    4382     4353     4324     4289     4253     4213     4174     4132 
    4087     4044     3997     3944     3897     3852     3800     3750 
    3701     3651     3600     3544     3484     3427     3372     3310 
    3246     3180     3113     3045     2972     2899     2826     2747 
    2667     2589     2501     2412     2326     2238     2146     2057 
    1966     1873     1780     1686     1587     1495     1399     1304 
    1215     1124     1036      955      869      780      700      612 
     525      449      372      292      225      159       89       28 
     -28      -87     -137     -180     -224     -261     -294     -321 
    -341     -357     -369     -370     -368     -361     -344     -328 
    -309     -284     -252     -214     -172     -129      -86      -43 
       5       60      117      176      237      298      361      427 
     492      560      627      695      767      838      908      977 
    1046     1115     1185     1255     1320     1389     1455     1520 
    1584     1644     1702     1761     1815     1867     1919     1962 
    2000     2042     2081     2110     2134     2161     2188     2204 
    2219     2235     2239     2243     2246     2242     2239     2234 
    2220     2207     2195     2177     2158     2143     2119     2097 
    2084     2064     2041     2030     2019     2003     1995     1987 
    1977     1973     1969     1968     1971     1977     1992     2012 
    2031     2057     2088     2119     2153     2185     2219     2254 
    2295     2335     2378     2427     2471     2513     2560     2608 
    2654     2702     2749     2792     2839     2882     2920     2959 
    2995     3025     3057     3090     3117     3142     3168     3190 
    3213     3234     3252     3275     3288     3298     3311     3319 
    3322     3327     3327     3329     3329     3319     3315     3312 
    3300     3294     3288     3275     3264     3253     3237     3219 
    3202     3190     3177     3160     3145     3137     3123     3107 
    3092     3079     3063     3051     3040     3026     3014     3006 
    2997     2986     2984     2986     2988     2990     2998     3013 
    3026     3046     3071     3094     3119     3153     3188     3225 
    3267     3307     3352     3397     3442     3487     3528     3566 
    3601     3634     3666     3690     3708     3724     3735     3742 
    3746     3742     3728     3709     3692     3667     3636     3603 
    3562     3511     3461     3411     3354     3292     3227     3153 
    3080     3007     2926     2844     2764     2678     2589     2497 
    2407     2312     2219     2130     2038     1949     1864     1777 
    1690     1606     1528     1453     1386     1314     1246     1188 
    1136     1084     1035      992      954      922      895      872 
     857      843      832      828      828      832      841      851 
     864      881      896      913      935      953      970      993 
    1015     1028     1047     1069     1081     1090     1101     1112 
    1119     1119     1123     1127     1123     1115     1102     1085 
    1065     1042     1011      976      936      888      835      785 
     724      657      588      518      441      363      284      203 
     124       44      -35     -108     -178     -255     -322     -382 
    -442     -499     -549     -595     -637     -673     -704     -726 
    -739     -753     -758     -756     -750     -737     -718     -699 
    -675     -643     -610     -573     -532     -488     -440     -386 
    -332     -278     -217     -155      -87      -13       58      131 
     212      291      368      453      537      621      712      804 
     895      989     1084     1178     1277     1377     1475     1572 
    1669     1767     1865     1964     2060     2155     2250     2342 
    2434     2525     2613     2698     2782     2859     2933     3003 
    3073     3137     3191     3242     3292     3334     3369     3403 
    3426     3443     3458     3470     3478     3481     3477     3470 
    3461     3450     3435     3414     3387     3360     3329     3294 
    3260     3225     3183     3138     3092     3041     2988     2936 
    2884     2833     2776     2720     2667     2613     2555     2500 
    2447     2396     2342     2292     2245     2200     2160     2119 
    2079     2047     2014     1981     1958     1935     1915     1904 
    1896     1888     1888     1898     1907     1922     1942     1966 
    1998     2031     2068     2111     2161     2211     2267     2326 
    2382     2442     2508     2574     2643     2710     2776     2844 
    2907     2970     3030     3080     3126     3176     3219     3253 
    3287     3319     3336     3352     3369     3380     3385     3384 
    3376     3372     3364     3342     3319     3296     3268     3234 
    3196     3152     3106     3056     3001     2941     2879     2810 
    2739     2666     2587     2508     2424     2342     2262     2181 
    2102     2029     1954     1881     1814     1748     1679     1620 
    1571     1524     1476     1439     1410     1383     1363     1348 
    1334     1331     1331     1332     1343     1360     1378     1404 
    1435     1466     1501     1544     1594     1642     1694     1755 
    1818     1878     1946     2016     2087     2157     2228     2307 
    2385     2459     2536     2612     2683     2756     2826     2893 
    2961     3026     3086     3138     3187     3231     3271     3299 
    3325     3350     3369     3377     3379     3376     3366     3346 
    3322     3295     3262     3222     3177     3129     3076     3021 
    2959     2898     2835     2764     2694     2625     2551     2478 
    2405     2326     2245     2168     2088     2011     1939     1865 
    1794     1728     1657     1584     1518     1457     1398     1337 
    1281     1233     1189     1146     1111     1080     1053     1030 
    1015     1003      992      986      989      990      994     1008 
    1023     1038     1060     1092     1121     1152     1188     1220 
    1254     1297     1339     1377     1420     1463     1501     1540 
    1582     1621     1656     1684     1711     1741     1767     1788 
    1813     1833     1842     1850     1857     1859     1865     1871 
    1871     1868     1861     1852     1846     1837     1821     1809 
    1796     1777     1761     1742     1719     1699     1679     1657 
    1637     1614     1593     1576     1559     1540     1522     1506 
    1493     1479     1468     1462     1457     1457     1463     1470 
    1478     1493     1507     1525     1551     1575     1605     1641 
    1677     1717     1761     1803     1844     1891     1935     1979 
    2022     2066     2111     2155     2196     2235     2278     2317 
    2351     2389     2427     2465     2502     2531     2556     2590 
    2623     2647     2663     2681     2698     2710     2717     2721 
    2728     2727     2717     2706     2690     2671     2650     2624 
    2592     2555     2517     2473     2425     2380     2331     2278 
    2226     2172     2110     2052     2000     1938     1875     1819 
    1757     1694     1638     1582     1524     1468     1414     1363 
    1316     1264     1216     1175     1132     1090     1051     1005 
     967      940      907      873      851      831      811      795 
     777      764      758      753      747      751      757      762 
     773      784      793      810      824      834      850      868 
     882      893      905      918      929      938      946      951 
     954      959      962      959      961      965      961      954 
     951      946      938      928      916      907      900      889 
     877      868      858      851      843      828      814      803 
     793      780      767      756      741      726      712      700 
     687      669      650      635      622      606      588      575 
     560      545      531      519      511      506      499      493 
     486      481      483      483      484      488      490      493 
     504      515      531      545      553      569      588      604 
     623      648      672      696      726      758      789      824 
     864      899      935      977     1019     1062     1105     1144 
    1188     1230     1267     1305     1345     1382     1416     1452 
    1489     1520     1548     1574     1599     1622     1642     1664 
    1680     1690     1705     1717     1722     1729     1733     1733 
    1737     1738     1734     1728     1717     1707     1699     1686 
    1668     1653     1640     1625     1609     1599     1584     1567 
    1560     1552     1540     1539     1537     1532     1530     1534 
    1539     1545     1553     1563     1576     1591     1601     1613 
    1636     1661     1682     1702     1726     1755     1786     1814 
    1842     1878     1919     1954     1992     2031     2069     2107 
    2151     2192     2234     2278     2317     2355     2396     2435 
    2471     2504     2539     2575     2608     2639     2667     2687 
    2713     2740     2758     2775     2797     2813     2825     2837 
    2848     2856     2859     2857     2853     2852     2852     2844 
