Origin Time       2016/04/16 01:25:00
Lat.              32.753
Long.             130.762
Depth. (km)       12
Mag.              7.3
Station Code      ISK014
Station Lat.      36.3028
Station Long.     136.3154
Station Height(m) 4
Record Time       2016/04/16 01:28:10
Sampling Freq(Hz) 100Hz
Duration Time(s)  87
Dir.              E-W
Scale Factor      7845(gal)/8223790
Max. Acc. (gal)   2.016
Last Correction   2016/04/16 01:28:11
Memo.             
[...]
   -5829    -5819    -5809    -5803    -5798    -5792    -5784    -5773 
   -5763    -5753    -5740    -5726    -5715    -5705    -5691    -5678 
   -5668    -5660    -5648    -5638    -5632    -5620    -5606    -5594 
   -5584    -5576    -5567    -5557    -5552    -5555    -5552    -5551 
   -5556    -5564    -5570    -5578    -5590    -5603    -5617    -5630 
   -5643    -5660    -5682    -5694    -5709    -5732    -5749    -5769 
   -5792    -5810    -5829    -5848    -5867    -5883    -5899    -5914 
   -5929    -5940    -5957    -5972    -5983    -5992    -5998    -6006 
   -6014    -6018    -6022    -6026    -6026    -6026    -6023    -6019 
   -6018    -6014    -6010    -6006    -6004    -6000    -5995    -5988 
   -5983    -5979    -5972    -5965    -5958    -5949    -5938    -5935 
   -5929    -5917    -5906    -5896    -5890    -5877    -5864    -5853 
   -5841    -5822    -5806    -5793    -5782    -5768    -5756    -5749 
   -5741    -5730    -5722    -5717    -5710    -5705    -5703    -5697 
   -5692    -5694    -5691    -5697    -5706    -5707    -5710    -5718 
   -5725    -5737    -5749    -5756    -5765    -5776    -5783    -5795 
   -5811    -5821    -5830    -5840    -5849    -5861    -5875    -5890 
   -5902    -5911    -5921    -5930    -5940    -5948    -5953    -5958 
   -5964    -5968    -5976    -5976    -5973    -5971    -5965    -5960 
   -5957    -5948    -5937    -5929    -5922    -5911    -5898    -5888 
   -5881    -5875    -5869    -5863    -5856    -5853    -5852    -5848 
   -5846    -5846    -5848    -5848    -5849    -5856    -5859    -5861 
   -5869    -5875    -5883    -5892    -5898    -5908    -5918    -5922 
   -5934    -5946    -5957    -5968    -5980    -5988    -6000    -6010 
   -6019    -6025    -6031    -6039    -6042    -6041    -6041    -6043 
   -6043    -6037    -6033    -6030    -6025    -6019    -6012    -6004 
   -5998    -5991    -5977    -5964    -5953    -5942    -5927    -5908 
   -5894    -5881    -5864    -5849    -5837    -5821    -5805    -5791 
   -5776    -5757    -5737    -5721    -5709    -5692    -5676    -5664 
   -5656    -5641    -5625    -5618    -5613    -5607    -5602    -5593 
   -5582    -5576    -5570    -5563    -5562    -5562    -5559    -5555 
   -5552    -5556    -5556    -5556    -5556    -5552    -5549    -5552 
   -5552    -5551    -5549    -5548    -5548    -5547    -5549    -5548 
   -5545    -5544    -5541    -5540    -5537    -5535    -5532    -5529 
   -5526    -5525    -5525    -5522    -5522    -5528    -5533    -5537 
   -5541    -5547    -5552    -5559    -5567    -5575    -5585    -5597 
   -5607    -5617    -5628    -5640    -5645    -5653    -5670    -5682 
   -5689    -5694    -5699    -5709    -5714    -5721    -5729    -5736 
   -5744    -5756    -5769    -5780    -5790    -5800    -5810    -5817 
   -5830    -5842    -5856    -5868    -5881    -5895    -5908    -5923 
   -5937    -5952    -5967    -5980    -5995    -6011    -6025    -6042 
   -6057    -6068    -6085    -6100    -6115    -6129    -6138    -6153 
   -6169    -6176    -6185    -6193    -6200    -6207    -6208    -6208 
   -6208    -6208    -6211    -6211    -6208    -6210    -6210    -6205 
   -6203    -6196    -6191    -6183    -6172    -6168    -6158    -6147 
   -6141    -6127    -6112    -6104    -6096    -6085    -6075    -6061 
   -6043    -6025    -6010    -5992    -5972    -5956    -5940    -5926 
   -5913    -5898    -5886    -5869    -5850    -5838    -5827    -5811 
   -5795    -5778    -5760    -5749    -5736    -5721    -5710    -5698 
   -5687    -5682    -5676    -5672    -5668    -5661    -5656    -5651 
   -5645    -5638    -5636    -5633    -5629    -5628    -5628    -5623 
   -5620    -5622    -5626    -5626    -5630    -5637    -5638    -5637 
   -5641    -5645    -5648    -5655    -5664    -5668    -5672    -5682 
   -5689    -5699    -5709    -5713    -5715    -5722    -5726    -5725 
   -5725    -5727    -5729    -5729    -5726    -5719    -5717    -5714 
   -5705    -5697    -5689    -5680    -5668    -5656    -5641    -5629 
   -5616    -5605    -5594    -5578    -5562    -5551    -5535    -5514 
   -5499    -5489    -5475    -5463    -5448    -5436    -5427    -5417 
   -5409    -5402    -5398    -5395    -5393    -5393    -5390    -5386 
   -5386    -5387    -5389    -5395    -5402    -5409    -5418    -5429 
   -5439    -5456    -5475    -5493    -5512    -5532    -5557    -5584 
   -5606    -5634    -5664    -5692    -5721    -5745    -5773    -5806 
   -5831    -5856    -5879    -5899    -5918    -5933    -5944    -5954 
   -5962    -5968    -5979    -5989    -5994    -5995    -6002    -6010 
   -6006    -6006    -6010    -6006    -6006    -6003    -5999    -5998 
   -5994    -5991    -5984    -5977    -5979    -5976    -5968    -5965 
   -5960    -5952    -5942    -5935    -5934    -5929    -5922    -5925 
   -5927    -5929    -5930    -5933    -5940    -5944    -5948    -5957 
   -5965    -5972    -5981    -5988    -6000    -6015    -6027    -6035 
   -6046    -6058    -6068    -6080    -6091    -6095    -6102    -6110 
   -6115    -6122    -6124    -6130    -6135    -6138    -6141    -6142 
   -6145    -6146    -6147    -6147    -6146    -6142    -6139    -6134 
   -6129    -6127    -6122    -6115    -6110    -6103    -6097    -6089 
   -6077    -6068    -6060    -6052    -6041    -6030    -6019    -6006 
   -5998    -5991    -5980    -5973    -5965    -5953    -5949    -5940 
   -5926    -5917    -5907    -5900    -5892    -5875    -5867    -5859 
   -5842    -5834    -5823    -5809    -5795    -5783    -5771    -5757 
   -5742    -5736    -5722    -5707    -5702    -5694    -5684    -5684 
   -5682    -5679    -5684    -5682    -5678    -5680    -5680    -5683 
   -5688    -5688    -5694    -5702    -5706    -5713    -5717    -5718 
   -5721    -5725    -5730    -5732    -5732    -5734    -5737    -5738 
   -5737    -5737    -5738    -5737    -5736    -5734    -5733    -5730 
   -5725    -5722    -5719    -5713    -5706    -5702    -5689    -5683 
   -5680    -5676    -5671    -5665    -5656    -5649    -5641    -5633 
   -5621    -5605    -5590    -5578    -5559    -5545    -5529    -5510 
   -5495    -5478    -5463    -5451    -5433    -5417    -5405    -5390 
   -5375    -5360    -5346    -5341    -5336    -5329    -5332    -5335 
   -5337    -5344    -5347    -5351    -5360    -5367    -5377    -5387 
   -5393    -5402    -5414    -5424    -5435    -5448    -5464    -5481 
   -5497    -5514    -5529    -5549    -5571    -5589    -5607    -5626 
   -5647    -5667    -5687    -5710    -5729    -5740    -5759    -5779 
   -5791    -5803    -5814    -5826    -5836    -5840    -5845    -5849 
   -5850    -5852    -5854    -5856    -5854    -5852    -5849    -5845 
   -5840    -5831    -5825    -5821    -5815    -5806    -5798    -5795 
   -5790    -5786    -5783    -5779    -5779    -5780    -5782    -5783 
   -5788    -5793    -5798    -5807    -5819    -5833    -5848    -5872 
   -5898    -5919    -5946    -5976    -6003    -6033    -6066    -6097 
   -6134    -6168    -6203    -6241    -6277    -6312    -6346    -6380 
   -6419    -6454    -6488    -6523    -6554    -6581    -6610    -6642 
   -6669    -6694    -6717    -6739    -6762    -6782    -6797    -6814 
   -6828    -6833    -6839    -6843    -6843    -6839    -6829    -6822 
   -6812    -6795    -6779    -6760    -6737    -6716    -6686    -6654 
   -6624    -6590    -6552    -6516    -6477    -6436    -6393    -6350 
   -6307    -6264    -6222    -6180    -6134    -6089    -6049    -6006 
   -5964    -5923    -5879    -5840    -5803    -5765    -5732    -5699 
   -5665    -5634    -5607    -5582    -5557    -5532    -5510    -5489 
   -5468    -5452    -5437    -5425    -5416    -5406    -5395    -5389 
   -5389    -5386    -5383    -5383    -5386    -5386    -5383    -5381 
   -5381    -5383    -5387    -5390    -5391    -5393    -5394    -5393 
   -5391    -5389    -5386    -5381    -5371    -5356    -5343    -5328 
   -5312    -5296    -5277    -5258    -5238    -5215    -5192    -5169 
   -5140    -5105    -5074    -5044    -5015    -4984    -4953    -4923 
   -4893    -4866    -4839    -4812    -4789    -4766    -4745    -4725 
   -4708    -4698    -4687    -4679    -4679    -4680    -4683    -4689 
   -4702    -4719    -4738    -4757    -4784    -4814    -4843    -4874 
   -4911    -4946    -4985    -5024    -5065    -5111    -5155    -5196 
   -5238    -5282    -5324    -5364    -5405    -5445    -5481    -5517 
   -5552    -5589    -5622    -5651    -5676    -5702    -5726    -5751 
   -5771    -5787    -5802    -5814    -5827    -5841    -5849    -5854 
   -5863    -5867    -5872    -5879    -5886    -5894    -5900    -5906 
   -5913    -5925    -5937    -5946    -5956    -5968    -5983    -5999 
   -6021    -6050    -6081    -6114    -6148    -6191    -6234    -6277 
   -6326    -6380    -6431    -6484    -6540    -6601    -6663    -6724 
   -6787    -6848    -6907    -6967    -7029    -7088    -7142    -7191 
   -7240    -7283    -7325    -7366    -7406    -7438    -7469    -7499 
   -7526    -7547    -7570    -7586    -7597    -7608    -7612    -7612 
   -7605    -7592    -7581    -7574    -7555    -7530    -7504    -7477 
   -7446    -7411    -7369    -7326    -7288    -7246    -7198    -7152 
   -7106    -7059    -7010    -6959    -6910    -6864    -6815    -6768 
   -6724    -6677    -6629    -6582    -6529    -6478    -6432    -6388 
   -6338    -6289    -6245    -6199    -6151    -6108    -6062    -6014 
   -5972    -5930    -5886    -5848    -5807    -5765    -5726    -5687 
   -5651    -5620    -5587    -5560    -5536    -5509    -5485    -5462 
   -5435    -5410    -5391    -5377    -5367    -5352    -5339    -5332 
   -5328    -5324    -5316    -5314    -5313    -5309    -5306    -5305 
   -5301    -5297    -5294    -5292    -5290    -5286    -5281    -5281 
   -5273    -5266    -5260    -5254    -5246    -5238    -5227    -5216 
   -5208    -5201    -5194    -5184    -5175    -5166    -5157    -5147 
   -5136    -5127    -5119    -5107    -5100    -5090    -5078    -5071 
   -5067    -5059    -5053    -5051    -5050    -5046    -5042    -5040 
   -5039    -5035    -5034    -5030    -5026    -5024    -5017    -5012 
   -5009    -5001    -4993    -4986    -4976    -4968    -4959    -4950 
   -4941    -4930    -4918    -4905    -4895    -4888    -4881    -4873 
   -4870    -4870    -4869    -4872    -4880    -4884    -4891    -4901 
   -4914    -4930    -4950    -4974    -5003    -5027    -5053    -5084 
   -5115    -5154    -5196    -5235    -5275    -5316    -5363    -5410 
   -5455    -5502    -5548    -5595    -5643    -5684    -5730    -5778 
   -5821    -5864    -5910    -5953    -5994    -6031    -6069    -6107 
   -6147    -6185    -6219    -6257    -6293    -6322    -6350    -6381 
   -6408    -6432    -6458    -6482    -6505    -6525    -6544    -6563 
   -6581    -6602    -6623    -6640    -6660    -6678    -6693    -6710 
   -6725    -6739    -6756    -6770    -6785    -6801    -6813    -6829 
   -6844    -6856    -6872    -6890    -6902    -6916    -6930    -6945 
   -6963    -6978    -6994    -7015    -7033    -7053    -7080    -7106 
   -7126    -7148    -7171    -7191    -7213    -7236    -7254    -7269 
   -7290    -7307    -7323    -7339    -7353    -7369    -7378    -7383 
   -7391    -7392    -7391    -7392    -7385    -7378    -7369    -7354 
   -7344    -7327    -7304    -7288    -7267    -7238    -7215    -7180 
   -7142    -7110    -7072    -7029    -6983    -6936    -6889    -6837 
   -6782    -6728    -6670    -6612    -6552    -6489    -6424    -6355 
   -6289    -6222    -6150    -6079    -6010    -5938    -5867    -5795 
   -5726    -5659    -5594    -5529    -5467    -5404    -5344    -5290 
   -5235    -5178    -5128    -5081    -5032    -4988    -4949    -4911 
   -4876    -4846    -4814    -4781    -4750    -4723    -4696    -4672 
   -4648    -4627    -4608    -4591    -4577    -4565    -4556    -4548 
   -4542    -4540    -4538    -4538    -4541    -4541    -4546    -4556 
   -4568    -4581    -4594    -4610    -4625    -4638    -4654    -4675 
   -4693    -4714    -4735    -4757    -4779    -4801    -4826    -4849 
   -4872    -4895    -4920    -4949    -4977    -5007    -5035    -5063 
   -5096    -5128    -5158    -5190    -5219    -5248    -5285    -5320 
   -5356    -5390    -5424    -5462    -5497    -5526    -5562    -5595 
   -5628    -5660    -5688    -5719    -5752    -5780    -5810    -5838 
   -5864    -5895    -5921    -5942    -5971    -5994    -6014    -6031 
   -6049    -6066    -6080    -6089    -6100    -6108    -6110    -6114 
   -6115    -6110    -6103    -6091    -6077    -6058    -6038    -6018 
   -5989    -5956    -5926    -5895    -5860    -5823    -5787    -5748 
   -5709    -5670    -5630    -5589    -5547    -5505    -5464    -5422 
   -5383    -5346    -5304    -5263    -5228    -5189    -5150    -5111 
   -5071    -5035    -4996    -4954    -4918    -4881    -4847    -4819 
   -4789    -4766    -4746    -4730    -4718    -4708    -4710    -4715 
   -4722    -4739    -4761    -4788    -4826    -4870    -4920    -4978 
   -5039    -5109    -5186    -5262    -5344    -5436    -5529    -5622 
   -5719    -5822    -5925    -6027    -6134    -6238    -6339    -6443 
   -6546    -6646    -6747    -6843    -6933    -7022    -7107    -7190 
   -7267    -7339    -7410    -7474    -7535    -7593    -7646    -7699 
   -7742    -7776    -7811    -7844    -7873    -7894    -7908    -7921 
   -7931    -7929    -7929    -7927    -7916    -7901    -7884    -7860 
   -7834    -7803    -7766    -7726    -7682    -7642    -7601    -7553 
   -7507    -7462    -7414    -7365    -7318    -7272    -7225    -7176 
   -7127    -7079    -7029    -6982    -6934    -6891    -6851    -6808 
   -6763    -6723    -6685    -6646    -6610    -6579    -6547    -6519 
   -6494    -6469    -6446    -6426    -6408    -6394    -6377    -6363 
   -6351    -6336    -6323    -6307    -6285    -6272    -6255    -6234 
   -6214    -6196    -6172    -6148    -6122    -6092    -6065    -6034 
   -5999    -5965    -5929    -5890    -5846    -5807    -5769    -5729 
   -5688    -5647    -5602    -5557    -5512    -5470    -5425    -5375 
   -5327    -5273    -5219    -5173    -5120    -5067    -5020    -4968 
   -4915    -4866    -4818    -4770    -4726    -4679    -4631    -4590 
   -4546    -4500    -4457    -4414    -4375    -4341    -4307    -4275 
   -4245    -4215    -4191    -4170    -4149    -4129    -4113    -4106 
   -4102    -4099    -4104    -4113    -4128    -4148    -4175    -4205 
   -4243    -4287    -4332    -4382    -4437    -4496    -4560    -4627 
   -4703    -4784    -4865    -4951    -5043    -5135    -5233    -5336 
   -5437    -5541    -5648    -5759    -5867    -5973    -6079    -6189 
   -6296    -6399    -6504    -6608    -6701    -6794    -6886    -6970 
   -7048    -7123    -7195    -7258    -7315    -7368    -7416    -7460 
   -7492    -7515    -7538    -7551    -7555    -7553    -7542    -7527 
   -7507    -7480    -7444    -7406    -7360    -7307    -7253    -7192 
   -7127    -7065    -6994    -6921    -6852    -6779    -6702    -6628 
   -6558    -6484    -6411    -6342    -6276    -6214    -6156    -6103 
   -6052    -6004    -5962    -5929    -5899    -5875    -5854    -5838 
   -5829    -5821    -5821    -5829    -5836    -5848    -5864    -5883 
   -5902    -5923    -5944    -5968    -5991    -6008    -6034    -6058 
   -6079    -6102    -6118    -6131    -6154    -6170    -6174    -6180 
   -6185    -6185    -6183    -6174    -6162    -6146    -6124    -6097 
   -6065    -6029    -5983    -5934    -5883    -5826    -5767    -5705 
   -5637    -5567    -5495    -5421    -5347    -5277    -5205    -5130 
   -5057    -4988    -4920    -4854    -4793    -4733    -4671    -4614 
   -4560    -4510    -4464    -4423    -4388    -4360    -4340    -4321 
   -4306    -4299    -4303    -4306    -4314    -4334    -4357    -4384 
   -4422    -4464    -4514    -4567    -4626    -4691    -4764    -4841 
   -4916    -4996    -5081    -5164    -5250    -5337    -5424    -5514 
   -5605    -5694    -5784    -5876    -5964    -6048    -6129    -6208 
   -6285    -6356    -6423    -6486    -6544    -6597    -6644    -6687 
   -6728    -6762    -6789    -6809    -6821    -6832    -6837    -6835 
   -6824    -6812    -6795    -6770    -6744    -6718    -6685    -6651 
   -6616    -6579    -6544    -6505    -6465    -6430    -6389    -6351 
   -6318    -6281    -6243    -6211    -6181    -6146    -6110    -6080 
   -6048    -6018    -5989    -5957    -5923    -5891    -5857    -5823 
   -5786    -5748    -5711    -5672    -5634    -5601    -5564    -5525 
   -5487    -5447    -5409    -5368    -5327    -5285    -5242    -5197 
   -5157    -5117    -5077    -5038    -5003    -4968    -4932    -4899 
   -4865    -4837    -4810    -4781    -4757    -4733    -4712    -4699 
   -4687    -4679    -4677    -4676    -4680    -4688    -4696    -4710 
   -4727    -4739    -4758    -4783    -4807    -4837    -4866    -4892 
   -4922    -4953    -4981    -5011    -5042    -5071    -5098    -5121 
   -5146    -5169    -5189    -5209    -5223    -5235    -5250    -5255 
   -5256    -5262    -5259    -5251    -5240    -5224    -5204    -5178 
   -5150    -5119    -5082    -5043    -5004    -4961    -4915    -4872 
   -4826    -4780    -4730    -4677    -4630    -4587    -4538    -4494 
   -4455    -4414    -4380    -4351    -4324    -4303    -4288    -4274 
   -4263    -4258    -4263    -4268    -4283    -4305    -4327    -4359 
   -4395    -4436    -4482    -4537    -4599    -4662    -4730    -4803 
   -4880    -4958    -5042    -5124    -5205    -5290    -5377    -5471 
   -5568    -5663    -5763    -5860    -5957    -6057    -6157    -6252 
   -6343    -6432    -6524    -6615    -6697    -6779    -6858    -6926 
   -6993    -7053    -7107    -7153    -7191    -7226    -7253    -7271 
   -7287    -7298    -7300    -7300    -7296    -7285    -7275    -7261 
   -7244    -7226    -7203    -7177    -7150    -7121    -7096    -7072 
   -7044    -7020    -6999    -6978    -6955    -6934    -6916    -6897 
   -6876    -6860    -6851    -6837    -6825    -6814    -6802    -6791 
   -6786    -6779    -6772    -6770    -6771    -6770    -6771    -6775 
   -6775    -6775    -6777    -6779    -6777    -6775    -6774    -6768 
   -6762    -6759    -6751    -6743    -6735    -6721    -6705    -6687 
   -6666    -6643    -6620    -6590    -6555    -6521    -6488    -6451 
   -6413    -6373    -6327    -6278    -6232    -6183    -6129    -6079 
   -6026    -5971    -5919    -5868    -5818    -5767    -5711    -5664 
   -5623    -5582    -5543    -5509    -5476    -5447    -5425    -5405 
   -5389    -5377    -5367    -5364    -5367    -5368    -5377    -5390 
   -5400    -5420    -5440    -5455    -5475    -5494    -5516    -5544 
   -5564    -5583    -5603    -5621    -5638    -5655    -5668    -5680 
   -5688    -5697    -5703    -5711    -5718    -5721    -5726    -5736 
   -5738    -5740    -5745    -5751    -5757    -5763    -5764    -5767 
   -5769    -5776    -5783    -5786    -5792    -5798    -5800    -5800 
   -5805    -5810    -5810    -5806    -5805    -5806    -5803    -5800 
   -5793    -5783    -5775    -5768    -5757    -5748    -5737    -5724 
   -5706    -5691    -5676    -5655    -5633    -5611    -5583    -5559 
