Origin Time       2016/04/16 01:25:00
Lat.              32.753
Long.             130.762
Depth. (km)       12
Mag.              7.3
Station Code      ISK011
Station Lat.      36.3967
Station Long.     136.4432
Station Height(m) 3
Record Time       2016/04/16 01:28:18
Sampling Freq(Hz) 100Hz
Duration Time(s)  74
Dir.              E-W
Scale Factor      7845(gal)/8223790
Max. Acc. (gal)   1.904
Last Correction   2016/04/16 01:28:19
Memo.             
[...]
   -6620    -6621    -6619    -6617    -6617    -6616    -6620    -6620 
   -6615    -6615    -6621    -6628    -6631    -6633    -6637    -6635 
   -6637    -6647    -6651    -6652    -6659    -6660    -6656    -6659 
   -6670    -6673    -6673    -6675    -6677    -6673    -6673    -6681 
   -6683    -6686    -6689    -6693    -6701    -6705    -6704    -6706 
   -6711    -6716    -6721    -6733    -6739    -6739    -6739    -6739 
   -6747    -6750    -6747    -6752    -6758    -6760    -6764    -6767 
   -6771    -6779    -6781    -6777    -6775    -6777    -6777    -6775 
   -6781    -6785    -6782    -6779    -6777    -6774    -6770    -6762 
   -6758    -6758    -6755    -6755    -6754    -6741    -6732    -6728 
   -6728    -6729    -6728    -6725    -6721    -6718    -6720    -6716 
   -6706    -6701    -6700    -6696    -6691    -6691    -6689    -6683 
   -6678    -6667    -6660    -6660    -6655    -6643    -6631    -6628 
   -6625    -6617    -6612    -6608    -6601    -6594    -6586    -6583 
   -6582    -6574    -6569    -6569    -6574    -6581    -6582    -6583 
   -6593    -6604    -6609    -6615    -6627    -6635    -6642    -6655 
   -6673    -6687    -6705    -6723    -6733    -6743    -6758    -6774 
   -6789    -6805    -6822    -6836    -6851    -6862    -6868    -6881 
   -6891    -6893    -6898    -6903    -6907    -6912    -6907    -6901 
   -6895    -6885    -6871    -6867    -6864    -6855    -6847    -6843 
   -6833    -6820    -6812    -6802    -6793    -6787    -6777    -6770 
   -6766    -6759    -6748    -6741    -6736    -6731    -6727    -6721 
   -6713    -6710    -6714    -6714    -6710    -6713    -6723    -6725 
   -6727    -6733    -6739    -6744    -6754    -6760    -6763    -6771 
   -6782    -6791    -6799    -6804    -6805    -6813    -6820    -6824 
   -6825    -6825    -6825    -6831    -6829    -6824    -6822    -6818 
   -6813    -6815    -6818    -6814    -6809    -6806    -6809    -6809 
   -6806    -6804    -6798    -6798    -6801    -6804    -6808    -6805 
   -6794    -6795    -6797    -6790    -6789    -6789    -6786    -6789 
   -6793    -6791    -6793    -6793    -6797    -6802    -6810    -6818 
   -6826    -6831    -6836    -6841    -6848    -6853    -6852    -6853 
   -6858    -6862    -6867    -6868    -6871    -6879    -6880    -6879 
   -6886    -6890    -6893    -6895    -6895    -6898    -6906    -6913 
   -6917    -6918    -6917    -6918    -6924    -6928    -6929    -6932 
   -6932    -6930    -6933    -6939    -6943    -6944    -6945    -6951 
   -6957    -6963    -6964    -6970    -6974    -6974    -6968    -6968 
   -6966    -6964    -6968    -6970    -6960    -6948    -6940    -6939 
   -6939    -6932    -6916    -6903    -6901    -6898    -6890    -6886 
   -6883    -6870    -6863    -6858    -6847    -6836    -6825    -6810 
   -6801    -6795    -6789    -6775    -6764    -6755    -6744    -6737 
   -6732    -6720    -6710    -6705    -6697    -6690    -6681    -6670 
   -6659    -6644    -6631    -6619    -6601    -6583    -6574    -6567 
   -6554    -6542    -6531    -6512    -6493    -6486    -6480    -6467 
   -6459    -6448    -6432    -6417    -6409    -6400    -6386    -6372 
   -6361    -6355    -6355    -6349    -6342    -6339    -6331    -6323 
   -6323    -6328    -6334    -6336    -6335    -6338    -6342    -6351 
   -6363    -6366    -6369    -6382    -6397    -6405    -6416    -6427 
   -6442    -6458    -6475    -6489    -6502    -6520    -6536    -6551 
   -6564    -6577    -6594    -6613    -6625    -6639    -6656    -6670 
   -6683    -6697    -6708    -6721    -6737    -6752    -6764    -6777 
   -6794    -6805    -6813    -6825    -6839    -6852    -6863    -6874 
   -6885    -6893    -6898    -6906    -6918    -6925    -6939    -6952 
   -6959    -6967    -6979    -6990    -7002    -7014    -7026    -7045 
   -7063    -7075    -7083    -7094    -7106    -7115    -7123    -7129 
   -7136    -7144    -7149    -7150    -7152    -7149    -7149    -7146 
   -7144    -7144    -7137    -7127    -7117    -7102    -7092    -7088 
   -7074    -7048    -7030    -7021    -7005    -6984    -6966    -6944 
   -6926    -6913    -6898    -6880    -6860    -6841    -6824    -6810 
   -6799    -6786    -6772    -6762    -6755    -6751    -6748    -6739 
   -6729    -6728    -6732    -6729    -6728    -6728    -6723    -6724 
   -6732    -6735    -6737    -6744    -6748    -6752    -6758    -6767 
   -6774    -6777    -6781    -6786    -6791    -6799    -6802    -6804 
   -6810    -6820    -6828    -6836    -6841    -6843    -6845    -6848 
   -6848    -6852    -6863    -6864    -6863    -6866    -6866    -6866 
   -6863    -6860    -6862    -6862    -6862    -6867    -6866    -6862 
   -6863    -6864    -6860    -6860    -6862    -6863    -6868    -6867 
   -6862    -6862    -6866    -6864    -6859    -6858    -6856    -6851 
   -6848    -6845    -6836    -6832    -6829    -6818    -6809    -6805 
   -6797    -6791    -6786    -6774    -6762    -6755    -6744    -6732 
   -6717    -6706    -6697    -6683    -6673    -6664    -6651    -6643 
   -6639    -6628    -6616    -6609    -6604    -6598    -6594    -6592 
   -6589    -6582    -6575    -6574    -6575    -6578    -6577    -6571 
   -6571    -6575    -6577    -6575    -6579    -6582    -6582    -6581 
   -6575    -6573    -6578    -6583    -6586    -6583    -6583    -6589 
   -6585    -6577    -6577    -6574    -6569    -6569    -6569    -6562 
   -6556    -6548    -6536    -6531    -6527    -6517    -6508    -6500 
   -6490    -6482    -6475    -6465    -6455    -6448    -6439    -6431 
   -6427    -6417    -6409    -6409    -6411    -6408    -6403    -6401 
   -6405    -6403    -6404    -6412    -6416    -6424    -6434    -6440 
   -6448    -6455    -6458    -6465    -6478    -6494    -6511    -6521 
   -6535    -6546    -6552    -6563    -6578    -6589    -6600    -6615 
   -6631    -6642    -6646    -6651    -6659    -6664    -6670    -6678 
   -6679    -6682    -6687    -6693    -6700    -6702    -6700    -6701 
   -6702    -6705    -6709    -6711    -6716    -6723    -6729    -6735 
   -6739    -6744    -6748    -6752    -6755    -6760    -6779    -6791 
   -6797    -6809    -6815    -6822    -6839    -6853    -6866    -6879 
   -6895    -6912    -6928    -6947    -6963    -6972    -6988    -7011 
   -7030    -7052    -7072    -7088    -7103    -7126    -7152    -7169 
   -7186    -7211    -7231    -7248    -7269    -7294    -7319    -7349 
   -7377    -7395    -7411    -7435    -7461    -7482    -7508    -7538 
   -7560    -7577    -7597    -7619    -7641    -7665    -7685    -7700 
   -7715    -7734    -7749    -7761    -7776    -7786    -7792    -7793 
   -7794    -7793    -7788    -7781    -7774    -7763    -7750    -7734 
   -7715    -7693    -7666    -7636    -7607    -7574    -7543    -7510 
   -7474    -7442    -7402    -7357    -7317    -7276    -7231    -7194 
   -7156    -7113    -7078    -7042    -7005    -6968    -6933    -6897 
   -6859    -6824    -6797    -6772    -6744    -6720    -6696    -6671 
   -6652    -6637    -6620    -6601    -6586    -6574    -6564    -6561 
   -6554    -6540    -6531    -6528    -6520    -6515    -6512    -6502 
   -6494    -6493    -6490    -6486    -6475    -6465    -6463    -6460 
   -6453    -6443    -6434    -6427    -6426    -6416    -6401    -6394 
   -6389    -6378    -6370    -6367    -6363    -6356    -6353    -6350 
   -6349    -6353    -6355    -6353    -6350    -6353    -6361    -6369 
   -6376    -6382    -6389    -6397    -6403    -6409    -6420    -6431 
   -6439    -6447    -6457    -6462    -6467    -6474    -6480    -6480 
   -6485    -6496    -6493    -6490    -6496    -6500    -6501    -6501 
   -6502    -6504    -6504    -6500    -6497    -6500    -6505    -6505 
   -6507    -6513    -6517    -6521    -6528    -6531    -6538    -6552 
   -6566    -6578    -6598    -6621    -6642    -6660    -6685    -6709 
   -6736    -6768    -6801    -6832    -6868    -6903    -6937    -6970 
   -7002    -7036    -7072    -7103    -7136    -7171    -7198    -7225 
   -7248    -7268    -7288    -7307    -7325    -7338    -7348    -7357 
   -7368    -7373    -7376    -7376    -7377    -7377    -7369    -7362 
   -7358    -7352    -7339    -7326    -7317    -7304    -7292    -7280 
   -7264    -7252    -7242    -7229    -7221    -7218    -7211    -7203 
   -7198    -7192    -7195    -7198    -7198    -7200    -7209    -7219 
   -7230    -7241    -7252    -7264    -7280    -7298    -7315    -7333 
   -7352    -7373    -7400    -7422    -7437    -7457    -7482    -7499 
   -7519    -7547    -7568    -7580    -7597    -7614    -7631    -7646 
   -7659    -7669    -7682    -7695    -7697    -7697    -7699    -7697 
   -7692    -7688    -7680    -7669    -7651    -7635    -7619    -7597 
   -7565    -7538    -7510    -7477    -7446    -7408    -7361    -7315 
   -7271    -7222    -7173    -7125    -7072    -7011    -6951    -6895 
   -6837    -6775    -6714    -6654    -6593    -6540    -6485    -6417 
   -6355    -6299    -6239    -6181    -6129    -6075    -6023    -5976 
   -5922    -5871    -5829    -5786    -5742    -5706    -5665    -5626 
   -5597    -5567    -5539    -5513    -5486    -5467    -5448    -5428 
   -5410    -5401    -5389    -5377    -5375    -5374    -5367    -5368 
   -5368    -5366    -5374    -5382    -5383    -5394    -5406    -5414 
   -5422    -5432    -5443    -5456    -5471    -5493    -5509    -5525 
   -5541    -5555    -5572    -5594    -5617    -5636    -5656    -5683 
   -5709    -5733    -5757    -5784    -5814    -5840    -5864    -5888 
   -5917    -5956    -5994    -6026    -6060    -6092    -6123    -6158 
   -6196    -6230    -6264    -6300    -6332    -6366    -6404    -6439 
   -6467    -6493    -6521    -6551    -6577    -6601    -6627    -6650 
   -6673    -6697    -6716    -6733    -6754    -6772    -6789    -6804 
   -6817    -6835    -6853    -6868    -6886    -6905    -6921    -6934 
   -6949    -6967    -6982    -6998    -7020    -7038    -7055    -7080 
   -7110    -7136    -7159    -7184    -7217    -7250    -7279    -7306 
   -7339    -7377    -7408    -7435    -7468    -7508    -7548    -7585 
   -7616    -7646    -7678    -7709    -7742    -7771    -7796    -7824 
   -7851    -7873    -7892    -7906    -7919    -7936    -7951    -7959 
   -7969    -7979    -7981    -7978    -7981    -7992    -7992    -7982 
   -7973    -7964    -7952    -7944    -7935    -7917    -7901    -7892 
   -7881    -7865    -7848    -7831    -7809    -7794    -7781    -7763 
   -7749    -7736    -7720    -7704    -7692    -7678    -7669    -7657 
   -7645    -7635    -7626    -7616    -7604    -7593    -7586    -7581 
   -7577    -7573    -7565    -7557    -7553    -7548    -7546    -7541 
   -7535    -7535    -7527    -7519    -7515    -7508    -7493    -7485 
   -7479    -7470    -7462    -7450    -7433    -7419    -7406    -7391 
   -7377    -7364    -7349    -7331    -7312    -7299    -7291    -7279 
   -7263    -7244    -7227    -7209    -7194    -7186    -7172    -7157 
   -7146    -7134    -7117    -7103    -7092    -7082    -7069    -7061 
   -7056    -7042    -7029    -7018    -7007    -6994    -6980    -6971 
   -6966    -6957    -6949    -6937    -6922    -6912    -6903    -6894 
   -6886    -6879    -6868    -6858    -6848    -6844    -6835    -6820 
   -6801    -6786    -6775    -6763    -6747    -6731    -6716    -6696 
   -6673    -6655    -6635    -6610    -6586    -6558    -6531    -6502 
   -6475    -6450    -6416    -6378    -6345    -6305    -6262    -6224 
   -6189    -6151    -6110    -6064    -6021    -5983    -5940    -5899 
   -5854    -5806    -5767    -5732    -5691    -5656    -5623    -5590 
   -5560    -5529    -5501    -5474    -5451    -5437    -5422    -5406 
   -5393    -5381    -5373    -5370    -5373    -5377    -5377    -5375 
   -5377    -5385    -5397    -5413    -5424    -5433    -5447    -5463 
   -5478    -5495    -5516    -5539    -5563    -5585    -5607    -5632 
   -5656    -5682    -5707    -5738    -5773    -5810    -5846    -5884 
   -5918    -5956    -6003    -6050    -6099    -6151    -6201    -6246 
   -6296    -6355    -6416    -6471    -6529    -6589    -6640    -6697 
   -6767    -6825    -6880    -6948    -7015    -7075    -7136    -7198 
   -7257    -7312    -7377    -7443    -7495    -7551    -7616    -7672 
   -7722    -7777    -7824    -7870    -7915    -7956    -8004    -8051 
   -8095    -8135    -8172    -8210    -8244    -8276    -8310    -8338 
   -8364    -8391    -8414    -8434    -8447    -8457    -8461    -8461 
   -8460    -8456    -8447    -8437    -8428    -8410    -8387    -8364 
   -8344    -8317    -8286    -8257    -8225    -8195    -8170    -8133 
   -8090    -8059    -8028    -7994    -7959    -7923    -7892    -7862 
   -7825    -7789    -7755    -7723    -7696    -7663    -7634    -7607 
   -7574    -7546    -7526    -7504    -7479    -7452    -7423    -7400 
   -7378    -7358    -7334    -7307    -7287    -7268    -7238    -7210 
   -7184    -7150    -7114    -7084    -7055    -7015    -6974    -6937 
   -6899    -6855    -6810    -6766    -6717    -6663    -6617    -6571 
   -6519    -6470    -6419    -6361    -6311    -6258    -6200    -6142 
   -6084    -6027    -5972    -5918    -5861    -5803    -5744    -5683 
   -5626    -5580    -5535    -5481    -5429    -5379    -5329    -5285 
   -5240    -5193    -5147    -5104    -5065    -5032    -4999    -4959 
   -4928    -4904    -4874    -4850    -4833    -4814    -4804    -4796 
   -4784    -4779    -4777    -4777    -4780    -4787    -4797    -4810 
   -4822    -4835    -4855    -4880    -4907    -4934    -4961    -4992 
   -5027    -5070    -5111    -5150    -5194    -5243    -5290    -5347 
   -5406    -5458    -5512    -5571    -5630    -5691    -5753    -5815 
   -5886    -5958    -6026    -6095    -6165    -6239    -6313    -6389 
   -6465    -6542    -6615    -6691    -6770    -6845    -6921    -6990 
   -7059    -7126    -7194    -7256    -7322    -7385    -7439    -7491 
   -7546    -7599    -7639    -7676    -7716    -7756    -7788    -7813 
   -7840    -7860    -7874    -7888    -7900    -7912    -7919    -7919 
   -7913    -7903    -7897    -7893    -7882    -7863    -7848    -7832 
   -7813    -7792    -7767    -7742    -7716    -7688    -7661    -7632 
   -7601    -7572    -7541    -7501    -7462    -7427    -7389    -7352 
   -7314    -7276    -7240    -7202    -7164    -7129    -7091    -7053 
   -7022    -6987    -6947    -6907    -6872    -6836    -6798    -6755 
   -6711    -6670    -6629    -6592    -6555    -6519    -6480    -6440 
   -6397    -6355    -6318    -6285    -6250    -6214    -6181    -6147 
   -6110    -6083    -6057    -6025    -5999    -5980    -5958    -5937 
   -5918    -5900    -5890    -5883    -5876    -5871    -5871    -5880 
   -5891    -5894    -5895    -5902    -5917    -5940    -5962    -5985 
   -6006    -6027    -6050    -6081    -6110    -6134    -6166    -6201 
   -6234    -6268    -6303    -6338    -6376    -6416    -6459    -6497 
   -6540    -6590    -6632    -6669    -6710    -6756    -6795    -6831 
   -6875    -6925    -6967    -7009    -7052    -7082    -7110    -7152 
   -7191    -7225    -7261    -7295    -7319    -7342    -7372    -7398 
   -7416    -7437    -7461    -7480    -7493    -7508    -7515    -7519 
   -7524    -7530    -7531    -7530    -7524    -7512    -7503    -7497 
   -7484    -7464    -7450    -7434    -7410    -7384    -7357    -7330 
   -7304    -7279    -7250    -7218    -7190    -7160    -7125    -7092 
   -7067    -7040    -7007    -6974    -6945    -6918    -6885    -6855 
   -6826    -6794    -6771    -6750    -6724    -6704    -6679    -6651 
   -6633    -6619    -6600    -6586    -6569    -6556    -6550    -6539 
   -6531    -6531    -6523    -6512    -6512    -6512    -6513    -6517 
   -6516    -6516    -6524    -6531    -6534    -6540    -6547    -6552 
   -6558    -6567    -6574    -6582    -6594    -6610    -6627    -6642 
   -6656    -6664    -6679    -6700    -6714    -6732    -6754    -6771 
   -6794    -6818    -6839    -6862    -6880    -6893    -6913    -6937 
   -6959    -6978    -6993    -7009    -7025    -7036    -7045    -7056 
   -7061    -7065    -7072    -7076    -7079    -7083    -7084    -7084 
   -7083    -7080    -7078    -7080    -7079    -7069    -7059    -7053 
   -7042    -7023    -7009    -6993    -6976    -6963    -6945    -6924 
   -6903    -6878    -6858    -6845    -6828    -6806    -6785    -6762 
   -6743    -6727    -6708    -6689    -6670    -6652    -6635    -6616 
   -6601    -6589    -6573    -6558    -6551    -6543    -6529    -6516 
   -6504    -6494    -6486    -6478    -6473    -6469    -6462    -6454 
   -6447    -6438    -6430    -6424    -6415    -6404    -6397    -6386 
   -6374    -6363    -6349    -6332    -6311    -6289    -6270    -6250 
   -6228    -6205    -6178    -6156    -6134    -6106    -6076    -6048 
   -6022    -5994    -5958    -5927    -5902    -5876    -5846    -5814 
   -5783    -5756    -5729    -5697    -5667    -5641    -5618    -5593 
   -5568    -5547    -5530    -5517    -5502    -5486    -5475    -5471 
   -5468    -5471    -5478    -5485    -5494    -5508    -5521    -5539 
   -5562    -5585    -5614    -5647    -5680    -5718    -5759    -5793 
   -5836    -5888    -5937    -5979    -6029    -6080    -6127    -6184 
   -6242    -6295    -6347    -6404    -6459    -6515    -6569    -6623 
   -6675    -6727    -6779    -6832    -6883    -6932    -6975    -7018 
   -7068    -7117    -7155    -7194    -7234    -7271    -7307    -7344 
   -7371    -7399    -7431    -7460    -7481    -7501    -7520    -7535 
   -7546    -7557    -7565    -7576    -7581    -7580    -7577    -7574 
   -7568    -7558    -7546    -7533    -7514    -7493    -7470    -7447 
   -7425    -7399    -7375    -7350    -7318    -7284    -7253    -7218 
   -7186    -7157    -7118    -7080    -7048    -7010    -6968    -6930 
   -6893    -6855    -6815    -6774    -6733    -6697    -6663    -6623 
   -6583    -6548    -6507    -6459    -6417    -6380    -6339    -6297 
   -6259    -6222    -6181    -6139    -6097    -6054    -6012    -5975 
   -5940    -5899    -5856    -5822    -5791    -5753    -5719    -5689 
   -5661    -5634    -5606    -5580    -5562    -5547    -5529    -5509 
   -5497    -5487    -5478    -5471    -5468    -5464    -5464    -5466 
   -5464    -5470    -5485    -5489    -5486    -5493    -5508    -5516 
   -5521    -5537    -5548    -5548    -5555    -5567    -5572    -5576 
   -5578    -5578    -5580    -5583    -5583    -5582    -5579    -5574 
   -5564    -5556    -5549    -5537    -5524    -5513    -5503    -5495 
   -5486    -5475    -5463    -5454    -5443    -5436    -5428    -5420 
   -5412    -5405    -5401    -5395    -5389    -5377    -5368    -5366 
   -5368    -5371    -5371    -5366    -5360    -5360    -5359    -5360 
   -5364    -5368    -5371    -5382    -5397    -5410    -5421    -5428 
   -5441    -5460    -5475    -5491    -5516    -5543    -5574    -5605 
   -5636    -5665    -5694    -5727    -5765    -5809    -5859    -5902 
   -5948    -6003    -6062    -6115    -6169    -6222    -6276    -6339 
   -6403    -6465    -6531    -6597    -6658    -6721    -6782    -6839 
   -6898    -6961    -7022    -7091    -7157    -7210    -7264    -7323 
   -7376    -7430    -7487    -7539    -7589    -7642    -7693    -7739 
