Origin Time       2016/04/16 01:25:00
Lat.              32.753
Long.             130.762
Depth. (km)       12
Mag.              7.3
Station Code      ISK002
Station Lat.      37.4443
Station Long.     137.2877
Station Height(m) 4
Record Time       2016/04/16 01:29:18
Sampling Freq(Hz) 100Hz
Duration Time(s)  76
Dir.              N-S
Scale Factor      7845(gal)/8223790
Max. Acc. (gal)   2.021
Last Correction   2016/04/16 01:29:20
Memo.             
[...]
    8032     8021     8012     8007     8002     7993     7989     7986 
    7985     7983     7979     7974     7978     7981     7977     7973 
    7974     7979     7981     7979     7978     7979     7982     7982 
    7978     7977     7979     7981     7977     7973     7971     7974 
    7973     7967     7962     7960     7960     7956     7950     7944 
    7938     7933     7933     7929     7920     7917     7915     7906 
    7898     7896     7896     7889     7881     7875     7871     7869 
    7865     7862     7858     7852     7848     7847     7840     7834 
    7832     7831     7825     7817     7813     7809     7804     7797 
    7789     7785     7781     7778     7769     7758     7751     7749 
    7742     7731     7720     7712     7705     7695     7682     7673 
    7665     7657     7645     7634     7626     7618     7609     7597 
    7581     7574     7568     7558     7547     7541     7535     7527 
    7519     7510     7500     7495     7492     7482     7474     7470 
    7466     7465     7461     7456     7452     7453     7454     7452 
    7447     7449     7452     7452     7449     7449     7454     7458 
    7460     7458     7461     7466     7468     7466     7470     7476 
    7480     7481     7482     7484     7488     7493     7496     7497 
    7504     7510     7515     7519     7522     7530     7541     7546 
    7553     7564     7576     7589     7600     7611     7626     7641 
    7657     7673     7689     7711     7731     7753     7776     7796 
    7816     7843     7871     7893     7916     7946     7977     8002 
    8027     8056     8087     8116     8143     8168     8198     8229 
    8256     8281     8310     8337     8364     8390     8413     8436 
    8461     8486     8507     8526     8550     8571     8587     8604 
    8621     8638     8654     8664     8673     8685     8695     8704 
    8710     8711     8715     8721     8723     8723     8721     8719 
    8716     8711     8706     8698     8692     8685     8677     8667 
    8657     8649     8635     8623     8612     8599     8588     8575 
    8559     8542     8530     8517     8506     8490     8472     8459 
    8444     8426     8413     8398     8385     8370     8351     8337 
    8326     8311     8294     8280     8267     8251     8237     8222 
    8205     8191     8177     8160     8144     8131     8116     8100 
    8089     8078     8058     8040     8031     8019     8004     7989 
    7977     7966     7952     7940     7929     7917     7906     7894 
    7882     7873     7862     7851     7842     7832     7821     7809 
    7801     7793     7781     7767     7756     7749     7736     7723 
    7709     7696     7682     7669     7654     7638     7627     7614 
    7596     7578     7562     7547     7528     7507     7489     7469 
    7453     7438     7416     7393     7376     7356     7333     7312 
    7292     7272     7249     7225     7203     7184     7167     7146 
    7121     7101     7084     7065     7047     7029     7011     6997 
    6984     6971     6955     6940     6928     6918     6905     6895 
    6890     6883     6876     6871     6863     6858     6860     6859 
    6853     6852     6858     6862     6863     6866     6872     6880 
    6890     6898     6906     6917     6932     6944     6956     6971 
    6987     7007     7029     7044     7063     7086     7106     7129 
    7150     7169     7192     7221     7244     7264     7290     7315 
    7339     7362     7385     7410     7437     7462     7482     7506 
    7534     7560     7580     7600     7623     7651     7677     7697 
    7717     7744     7770     7789     7811     7836     7859     7882 
    7905     7925     7944     7966     7989     8009     8028     8050 
    8070     8089     8108     8127     8144     8162     8179     8195 
    8212     8228     8241     8255     8268     8280     8294     8305 
    8314     8324     8334     8341     8347     8352     8357     8360 
    8367     8371     8368     8368     8370     8370     8370     8365 
    8363     8363     8357     8349     8345     8343     8337     8332 
    8322     8313     8306     8299     8291     8280     8271     8264 
    8257     8245     8233     8221     8210     8203     8197     8186 
    8177     8170     8162     8154     8144     8137     8135     8125 
    8116     8110     8109     8105     8100     8094     8090     8087 
    8086     8082     8078     8078     8082     8081     8075     8073 
    8075     8075     8075     8073     8073     8077     8078     8077 
    8075     8077     8078     8078     8077     8073     8073     8075 
    8077     8075     8073     8070     8070     8070     8066     8063 
    8062     8060     8059     8056     8054     8052     8050     8044 
    8040     8037     8035     8031     8025     8023     8020     8016 
    8010     8007     8005     8000     7994     7987     7982     7978 
    7973     7964     7959     7955     7950     7944     7939     7935 
    7925     7917     7913     7909     7901     7893     7888     7885 
    7879     7871     7863     7858     7855     7850     7842     7834 
    7827     7823     7816     7808     7799     7793     7786     7780 
    7770     7761     7755     7749     7740     7728     7719     7709 
    7700     7688     7676     7668     7657     7645     7632     7626 
    7618     7603     7589     7581     7570     7561     7550     7537 
    7524     7514     7504     7495     7482     7473     7465     7452 
    7442     7434     7425     7416     7408     7399     7389     7381 
    7373     7364     7356     7348     7342     7337     7327     7317 
    7307     7300     7292     7281     7271     7264     7258     7249 
    7238     7229     7223     7219     7213     7203     7196     7192 
    7188     7183     7177     7172     7172     7171     7165     7160 
    7160     7160     7160     7159     7159     7157     7159     7160 
    7160     7160     7165     7169     7171     7172     7173     7177 
    7180     7180     7180     7182     7186     7186     7183     7184 
    7187     7188     7187     7187     7187     7184     7186     7187 
    7183     7182     7183     7183     7180     7177     7176     7177 
    7177     7175     7173     7175     7177     7175     7173     7173 
    7173     7175     7177     7176     7175     7175     7177     7179 
    7176     7173     7175     7175     7172     7168     7168     7171 
    7169     7163     7159     7159     7157     7152     7145     7140 
    7137     7134     7125     7118     7114     7110     7105     7096 
    7088     7088     7087     7079     7072     7069     7065     7063 
    7060     7055     7051     7052     7051     7048     7047     7048 
    7051     7052     7049     7049     7052     7056     7056     7056 
    7060     7068     7072     7074     7074     7079     7088     7094 
    7099     7103     7109     7117     7122     7130     7137     7142 
    7150     7156     7160     7169     7179     7184     7192     7198 
    7206     7218     7227     7231     7240     7250     7258     7267 
    7277     7287     7296     7307     7321     7331     7339     7350 
    7364     7377     7387     7400     7416     7429     7439     7453 
    7466     7480     7495     7507     7518     7531     7543     7557 
    7569     7577     7589     7605     7614     7624     7638     7647 
    7657     7668     7677     7685     7697     7705     7713     7723 
    7731     7740     7751     7759     7763     7771     7780     7786 
    7789     7797     7805     7812     7817     7823     7827     7835 
    7843     7847     7850     7857     7865     7870     7874     7878 
    7884     7890     7897     7900     7901     7905     7908     7912 
    7917     7920     7919     7920     7927     7928     7928     7931 
    7931     7928     7925     7928     7927     7923     7919     7916 
    7912     7908     7902     7898     7893     7885     7879     7874 
    7865     7857     7851     7842     7830     7820     7809     7801 
    7793     7778     7767     7761     7747     7735     7722     7708 
    7699     7685     7672     7661     7650     7639     7627     7614 
    7605     7595     7584     7574     7565     7557     7548     7541 
    7534     7524     7515     7515     7510     7504     7500     7496 
    7493     7492     7488     7487     7489     7489     7488     7489 
    7491     7496     7500     7500     7503     7508     7510     7515 
    7522     7523     7530     7538     7542     7543     7548     7560 
    7566     7570     7573     7576     7584     7591     7592     7599 
    7607     7611     7614     7618     7622     7627     7631     7638 
    7642     7643     7649     7652     7655     7659     7662     7666 
    7670     7672     7673     7676     7678     7680     7678     7678 
    7678     7678     7677     7676     7673     7672     7670     7666 
    7659     7655     7652     7647     7639     7634     7630     7624 
    7619     7614     7604     7597     7599     7593     7584     7578 
    7576     7573     7568     7562     7558     7557     7558     7555 
    7551     7555     7560     7557     7557     7560     7566     7572 
    7574     7578     7584     7591     7599     7604     7608     7616 
    7627     7632     7638     7646     7655     7665     7672     7678 
    7685     7696     7704     7715     7722     7727     7738     7749 
    7756     7766     7771     7782     7794     7799     7805     7816 
    7827     7835     7840     7850     7859     7871     7878     7884 
    7893     7902     7915     7923     7925     7931     7940     7948 
    7955     7960     7967     7974     7978     7979     7985     7990 
    7993     7992     7990     7990     7993     7994     7990     7983 
    7983     7983     7978     7969     7962     7960     7955     7944 
    7938     7931     7923     7912     7905     7894     7882     7875 
    7865     7851     7839     7830     7819     7804     7786     7771 
    7758     7743     7728     7711     7695     7680     7661     7645 
    7628     7611     7596     7578     7561     7543     7524     7508 
    7492     7473     7458     7444     7431     7418     7399     7383 
    7373     7362     7349     7337     7329     7322     7312     7306 
    7300     7296     7294     7291     7288     7281     7281     7285 
    7290     7292     7295     7298     7302     7307     7312     7319 
    7327     7338     7345     7350     7360     7371     7384     7393 
    7402     7414     7427     7435     7447     7461     7472     7481 
    7492     7504     7515     7524     7533     7546     7558     7569 
    7577     7581     7591     7607     7616     7618     7624     7636 
    7645     7651     7657     7665     7670     7676     7681     7688 
    7695     7697     7703     7712     7717     7719     7723     7732 
    7738     7746     7754     7761     7769     7774     7782     7792 
    7803     7813     7825     7838     7846     7858     7875     7889 
    7902     7917     7933     7951     7969     7986     8001     8020 
    8040     8059     8077     8095     8114     8137     8159     8174 
    8194     8217     8235     8252     8270     8290     8311     8329 
    8345     8363     8379     8394     8410     8426     8440     8453 
    8467     8477     8487     8497     8507     8515     8520     8525 
    8530     8536     8540     8538     8536     8537     8537     8533 
    8527     8523     8519     8513     8505     8497     8487     8477 
    8467     8457     8441     8424     8411     8401     8385     8365 
    8345     8328     8309     8290     8270     8244     8224     8202 
    8176     8152     8129     8104     8077     8050     8023     7996 
    7966     7939     7911     7879     7850     7821     7789     7755 
    7726     7697     7665     7632     7601     7573     7546     7515 
    7482     7450     7420     7392     7364     7333     7304     7277 
    7250     7223     7196     7171     7146     7121     7101     7078 
    7055     7037     7017     6994     6978     6963     6947     6933 
    6919     6907     6898     6889     6878     6868     6864     6860 
    6853     6848     6848     6848     6848     6851     6852     6852 
    6855     6860     6866     6871     6878     6886     6898     6903 
    6910     6922     6934     6945     6956     6963     6974     6990 
    7001     7009     7022     7038     7049     7060     7068     7078 
    7092     7103     7111     7125     7138     7149     7156     7164 
    7177     7190     7198     7210     7222     7233     7245     7257 
    7269     7283     7298     7312     7326     7340     7354     7372 
    7395     7414     7427     7447     7470     7492     7515     7538 
    7564     7589     7614     7639     7665     7693     7722     7753 
    7786     7817     7847     7878     7911     7946     7979     8019 
    8058     8091     8127     8166     8208     8245     8281     8322 
    8363     8401     8441     8480     8522     8565     8604     8645 
    8681     8718     8758     8802     8839     8873     8908     8947 
    8986     9020     9054     9089     9124     9155     9186     9217 
    9250     9285     9312     9339     9370     9398     9423     9448 
    9474     9497     9524     9547     9566     9589     9612     9632 
    9652     9670     9686     9703     9722     9740     9755     9768 
    9782     9794     9806     9818     9828     9836     9844     9850 
    9857     9861     9864     9868     9871     9871     9869     9868 
    9865     9861     9856     9850     9844     9836     9825     9811 
    9801     9787     9771     9753     9737     9718     9697     9676 
    9652     9626     9602     9576     9549     9522     9489     9456 
    9427     9391     9355     9322     9283     9244     9207     9166 
    9126     9084     9042     8997     8949     8904     8860     8812 
    8762     8712     8664     8615     8564     8513     8464     8417 
    8365     8310     8260     8210     8158     8105     8052     8000 
    7948     7894     7842     7789     7740     7685     7635     7584 
    7531     7484     7437     7385     7335     7285     7238     7194 
    7148     7101     7056     7015     6975     6932     6890     6851 
    6815     6782     6744     6706     6675     6643     6613     6582 
    6555     6529     6501     6474     6454     6434     6412     6389 
    6370     6354     6339     6326     6311     6297     6288     6280 
    6269     6259     6255     6250     6245     6242     6241     6239 
    6239     6243     6246     6249     6257     6264     6272     6280 
    6289     6303     6316     6328     6343     6359     6376     6392 
    6411     6427     6446     6467     6489     6512     6535     6555 
    6578     6602     6628     6655     6681     6708     6733     6759 
    6786     6813     6839     6868     6899     6926     6952     6984 
    7015     7044     7071     7102     7130     7159     7188     7215 
    7244     7273     7302     7327     7352     7378     7406     7429 
    7450     7476     7500     7522     7546     7565     7578     7597 
    7619     7635     7651     7669     7678     7685     7703     7720 
    7728     7732     7744     7756     7761     7770     7778     7778 
    7782     7794     7799     7799     7805     7809     7809     7817 
    7825     7827     7831     7835     7838     7842     7848     7854 
    7859     7865     7871     7875     7884     7894     7900     7905 
    7916     7927     7939     7948     7958     7969     7983     7997 
    8007     8019     8035     8055     8067     8078     8094     8111 
    8129     8148     8164     8181     8199     8217     8233     8252 
    8271     8290     8309     8326     8347     8367     8383     8401 
    8421     8441     8459     8474     8490     8507     8527     8545 
    8560     8576     8590     8603     8619     8630     8640     8652 
    8662     8673     8683     8688     8692     8700     8704     8704 
    8704     8708     8707     8703     8702     8696     8691     8685 
    8675     8662     8653     8642     8629     8610     8592     8576 
    8557     8533     8510     8490     8467     8437     8410     8379 
    8351     8322     8290     8259     8225     8189     8152     8117 
    8081     8043     8002     7966     7927     7886     7848     7809 
    7766     7727     7688     7647     7608     7572     7531     7488 
    7452     7414     7376     7342     7306     7269     7236     7206 
    7175     7144     7119     7094     7067     7045     7023     7001 
    6984     6967     6948     6934     6924     6917     6910     6902 
    6897     6895     6895     6893     6895     6902     6906     6912 
    6924     6933     6941     6952     6971     6984     6999     7018 
    7036     7056     7079     7096     7119     7145     7165     7188 
    7214     7236     7261     7283     7307     7337     7362     7384 
    7406     7429     7456     7480     7501     7524     7545     7565 
    7588     7608     7626     7645     7663     7682     7700     7715 
    7730     7750     7761     7773     7786     7799     7815     7830 
    7835     7843     7852     7863     7874     7884     7889     7894 
    7902     7913     7919     7923     7931     7936     7939     7940 
    7944     7951     7954     7952     7955     7960     7964     7966 
    7963     7962     7964     7969     7969     7966     7967     7966 
    7964     7967     7963     7959     7960     7963     7962     7958 
    7952     7955     7958     7954     7948     7947     7948     7944 
    7938     7935     7931     7931     7928     7925     7921     7917 
    7911     7903     7898     7894     7892     7889     7878     7865 
    7858     7851     7843     7834     7820     7808     7798     7784 
    7770     7755     7738     7723     7707     7685     7669     7649 
    7627     7608     7586     7565     7543     7520     7495     7470 
    7449     7425     7399     7373     7349     7325     7295     7268 
    7241     7213     7190     7165     7134     7106     7082     7055 
    7026     6998     6971     6945     6919     6890     6864     6843 
    6820     6793     6770     6744     6721     6701     6682     6662 
    6640     6620     6605     6589     6569     6554     6542     6531 
    6520     6508     6498     6493     6488     6480     6474     6474 
    6473     6471     6471     6474     6481     6488     6493     6498 
    6508     6521     6535     6544     6559     6578     6597     6616 
    6633     6655     6677     6701     6729     6756     6781     6809 
    6839     6870     6901     6933     6968     7002     7033     7067 
    7102     7140     7179     7217     7253     7288     7329     7368 
    7404     7444     7484     7522     7561     7596     7632     7672 
    7712     7750     7786     7823     7858     7894     7931     7966 
    7998     8033     8066     8098     8128     8158     8189     8218 
    8245     8276     8303     8328     8352     8376     8401     8424 
    8446     8471     8490     8505     8525     8546     8563     8576 
    8594     8610     8622     8635     8649     8658     8667     8676 
    8687     8695     8702     8704     8708     8716     8719     8719 
    8723     8725     8721     8721     8719     8719     8718     8715 
