Origin Time       2016/04/16 01:25:00
Lat.              32.753
Long.             130.762
Depth. (km)       12
Mag.              7.3
Station Code      ISK009
Station Lat.      36.7334
Station Long.     136.7025
Station Height(m) 38
Record Time       2016/04/16 01:28:28
Sampling Freq(Hz) 100Hz
Duration Time(s)  64
Dir.              E-W
Scale Factor      7845(gal)/8223790
Max. Acc. (gal)   1.615
Last Correction   2016/04/16 01:28:29
Memo.             
[...]
   -2836    -2826    -2829    -2852    -2848    -2805    -2772    -2772 
   -2763    -2740    -2764    -2816    -2822    -2790    -2790    -2811 
   -2808    -2790    -2783    -2768    -2751    -2772    -2821    -2844 
   -2837    -2825    -2822    -2836    -2871    -2894    -2870    -2844 
   -2871    -2922    -2956    -2965    -2949    -2903    -2879    -2922 
   -2967    -2951    -2930    -2959    -2984    -2980    -2986    -2999 
   -2980    -2948    -2948    -2967    -2980    -2975    -2953    -2938 
   -2938    -2963    -2992    -2975    -2933    -2932    -2963    -2976 
   -2961    -2936    -2910    -2898    -2911    -2945    -2963    -2948 
   -2932    -2947    -2974    -2975    -2941    -2906    -2895    -2905 
   -2921    -2940    -2964    -2982    -2982    -2970    -2975    -2967 
   -2914    -2882    -2921    -2955    -2945    -2947    -2991    -3011 
   -2976    -2941    -2934    -2921    -2893    -2876    -2891    -2917 
   -2934    -2947    -2955    -2943    -2914    -2887    -2860    -2856 
   -2889    -2913    -2898    -2891    -2921    -2930    -2894    -2875 
   -2886    -2879    -2874    -2899    -2909    -2879    -2867    -2889 
   -2894    -2871    -2863    -2868    -2863    -2863    -2876    -2879 
   -2872    -2872    -2878    -2871    -2863    -2887    -2905    -2876 
   -2837    -2843    -2870    -2867    -2855    -2856    -2849    -2844 
   -2872    -2889    -2860    -2837    -2844    -2844    -2821    -2811 
   -2808    -2779    -2766    -2801    -2826    -2803    -2785    -2787 
   -2759    -2716    -2724    -2759    -2747    -2698    -2686    -2706 
   -2704    -2674    -2652    -2635    -2627    -2659    -2694    -2675 
   -2640    -2624    -2613    -2605    -2612    -2608    -2569    -2546 
   -2583    -2624    -2623    -2612    -2605    -2581    -2563    -2590 
   -2617    -2608    -2593    -2598    -2610    -2632    -2658    -2647 
   -2609    -2590    -2619    -2668    -2685    -2681    -2695    -2708 
   -2700    -2706    -2731    -2721    -2693    -2710    -2762    -2775 
   -2767    -2794    -2825    -2822    -2811    -2813    -2809    -2808 
   -2829    -2851    -2855    -2863    -2878    -2889    -2876    -2862 
   -2870    -2882    -2882    -2880    -2867    -2852    -2867    -2907 
   -2909    -2863    -2848    -2880    -2887    -2866    -2868    -2879 
   -2859    -2844    -2868    -2891    -2893    -2895    -2902    -2898 
   -2890    -2898    -2909    -2891    -2862    -2875    -2917    -2930 
   -2928    -2943    -2944    -2917    -2910    -2918    -2903    -2894 
   -2901    -2891    -2895    -2941    -2961    -2926    -2907    -2934 
   -2945    -2915    -2907    -2929    -2920    -2907    -2943    -2964 
   -2918    -2862    -2871    -2922    -2936    -2910    -2902    -2903 
   -2896    -2907    -2913    -2882    -2841    -2818    -2825    -2855 
   -2893    -2901    -2867    -2849    -2876    -2879    -2837    -2817 
   -2829    -2811    -2785    -2822    -2871    -2849    -2810    -2806 
   -2808    -2803    -2799    -2795    -2779    -2770    -2799    -2830 
   -2816    -2782    -2758    -2749    -2767    -2798    -2803    -2768 
   -2740    -2764    -2790    -2770    -2740    -2754    -2763    -2743 
   -2754    -2798    -2821    -2818    -2798    -2763    -2755    -2781 
   -2783    -2758    -2754    -2786    -2824    -2844    -2855    -2851 
   -2820    -2775    -2756    -2774    -2786    -2772    -2776    -2813 
   -2840    -2848    -2844    -2803    -2755    -2764    -2809    -2806 
   -2768    -2770    -2794    -2798    -2805    -2826    -2808    -2754 
   -2749    -2798    -2814    -2787    -2764    -2759    -2767    -2787 
   -2806    -2801    -2781    -2772    -2787    -2810    -2828    -2832 
   -2805    -2758    -2745    -2782    -2799    -2785    -2805    -2847 
   -2853    -2844    -2847    -2840    -2811    -2795    -2810    -2820 
   -2820    -2832    -2836    -2824    -2839    -2862    -2841    -2809 
   -2817    -2851    -2849    -2818    -2816    -2829    -2818    -2817 
   -2836    -2835    -2814    -2832    -2871    -2860    -2821    -2818 
   -2829    -2806    -2779    -2798    -2826    -2829    -2833    -2844 
   -2841    -2843    -2847    -2810    -2758    -2749    -2781    -2806 
   -2816    -2829    -2829    -2805    -2798    -2816    -2816    -2783 
   -2758    -2754    -2748    -2754    -2791    -2821    -2810    -2794 
   -2789    -2767    -2755    -2786    -2805    -2768    -2747    -2776 
   -2789    -2767    -2763    -2767    -2759    -2768    -2791    -2794 
   -2785    -2782    -2782    -2778    -2767    -2759    -2766    -2767 
   -2756    -2771    -2811    -2828    -2814    -2808    -2809    -2806 
   -2805    -2809    -2797    -2789    -2816    -2848    -2859    -2870 
   -2884    -2874    -2857    -2875    -2895    -2867    -2833    -2849 
   -2886    -2899    -2898    -2896    -2902    -2920    -2941    -2943 
   -2922    -2896    -2874    -2866    -2886    -2913    -2922    -2920 
   -2921    -2938    -2957    -2945    -2921    -2911    -2902    -2893 
   -2914    -2941    -2920    -2891    -2924    -2970    -2955    -2924 
   -2936    -2945    -2922    -2915    -2943    -2956    -2948    -2953 
   -2964    -2974    -2983    -2984    -2982    -2978    -2975    -2980 
   -2976    -2963    -2970    -2984    -2979    -2975    -2984    -2983 
   -2975    -2991    -3010    -2979    -2928    -2918    -2925    -2934 
   -2957    -2967    -2944    -2928    -2943    -2943    -2899    -2870 
   -2878    -2876    -2872    -2898    -2925    -2917    -2902    -2914 
   -2905    -2843    -2801    -2826    -2852    -2849    -2863    -2894 
   -2891    -2879    -2882    -2859    -2808    -2801    -2836    -2843 
   -2820    -2829    -2872    -2886    -2866    -2849    -2839    -2822 
   -2814    -2814    -2810    -2826    -2870    -2896    -2882    -2866 
   -2852    -2829    -2809    -2816    -2843    -2863    -2882    -2913 
   -2921    -2901    -2894    -2889    -2863    -2843    -2852    -2878 
   -2894    -2901    -2910    -2920    -2929    -2947    -2949    -2918 
   -2891    -2903    -2911    -2882    -2880    -2930    -2952    -2929 
   -2930    -2963    -2961    -2909    -2887    -2926    -2947    -2918 
   -2895    -2891    -2879    -2891    -2934    -2956    -2949    -2945 
   -2930    -2894    -2872    -2879    -2882    -2886    -2905    -2905 
   -2882    -2882    -2894    -2887    -2867    -2852    -2841    -2818 
   -2794    -2805    -2828    -2826    -2821    -2817    -2801    -2783 
   -2768    -2758    -2754    -2759    -2767    -2766    -2744    -2743 
   -2763    -2748    -2709    -2709    -2739    -2745    -2733    -2743 
   -2740    -2706    -2690    -2701    -2705    -2712    -2736    -2756 
   -2748    -2735    -2758    -2782    -2759    -2740    -2759    -2785 
   -2794    -2816    -2839    -2829    -2817    -2851    -2889    -2875 
   -2844    -2855    -2894    -2918    -2940    -2957    -2947    -2938 
   -2947    -2940    -2937    -2953    -2953    -2952    -2983    -3017 
   -3013    -2979    -2960    -2963    -2949    -2918    -2917    -2936 
   -2930    -2925    -2940    -2938    -2914    -2898    -2887    -2857 
   -2828    -2829    -2832    -2803    -2806    -2847    -2835    -2774 
   -2751    -2758    -2740    -2712    -2706    -2712    -2698    -2686 
   -2709    -2724    -2687    -2643    -2636    -2646    -2647    -2647 
   -2648    -2662    -2677    -2674    -2673    -2686    -2695    -2686 
   -2666    -2662    -2681    -2688    -2688    -2718    -2749    -2743 
   -2725    -2732    -2747    -2745    -2740    -2754    -2758    -2739 
   -2747    -2785    -2802    -2794    -2790    -2792    -2790    -2786 
   -2792    -2791    -2783    -2797    -2826    -2832    -2818    -2822 
   -2829    -2811    -2801    -2817    -2818    -2810    -2821    -2824 
   -2813    -2820    -2832    -2820    -2798    -2811    -2848    -2851 
   -2820    -2814    -2833    -2828    -2795    -2786    -2809    -2816 
   -2810    -2830    -2851    -2843    -2843    -2866    -2863    -2824 
   -2797    -2792    -2809    -2853    -2886    -2878    -2886    -2918 
   -2911    -2870    -2862    -2882    -2866    -2848    -2875    -2895 
   -2882    -2906    -2953    -2948    -2895    -2867    -2871    -2876 
   -2889    -2910    -2913    -2884    -2876    -2917    -2930    -2889 
   -2870    -2889    -2880    -2870    -2903    -2933    -2911    -2875 
   -2874    -2880    -2870    -2871    -2879    -2866    -2862    -2896 
   -2940    -2941    -2909    -2887    -2887    -2896    -2894    -2880 
   -2875    -2890    -2909    -2907    -2903    -2922    -2937    -2922 
   -2914    -2921    -2909    -2886    -2893    -2921    -2925    -2910 
   -2925    -2941    -2922    -2926    -2963    -2964    -2928    -2914 
   -2926    -2917    -2896    -2918    -2961    -2967    -2944    -2940 
   -2943    -2925    -2915    -2921    -2902    -2871    -2894    -2943 
   -2951    -2936    -2936    -2945    -2933    -2901    -2876    -2863 
   -2862    -2878    -2889    -2884    -2887    -2899    -2907    -2902 
   -2886    -2870    -2857    -2841    -2825    -2817    -2816    -2822 
   -2839    -2841    -2824    -2821    -2828    -2817    -2820    -2829 
   -2803    -2755    -2749    -2785    -2794    -2774    -2778    -2795 
   -2797    -2802    -2814    -2791    -2744    -2736    -2768    -2776 
   -2768    -2802    -2843    -2817    -2781    -2808    -2835    -2792 
   -2745    -2756    -2789    -2806    -2830    -2855    -2853    -2853 
   -2879    -2880    -2832    -2805    -2824    -2841    -2852    -2891 
   -2922    -2921    -2926    -2951    -2948    -2911    -2890    -2891 
   -2894    -2915    -2953    -2949    -2911    -2918    -2957    -2970 
   -2970    -2964    -2930    -2899    -2918    -2956    -2955    -2918 
   -2910    -2941    -2951    -2934    -2944    -2956    -2941    -2936 
   -2956    -2961    -2934    -2925    -2945    -2943    -2932    -2957 
   -2975    -2961    -2967    -2990    -2984    -2972    -2990    -3005 
   -2983    -2960    -2967    -2979    -2979    -2986    -3006    -3009 
   -3003    -3013    -3026    -3017    -2988    -2959    -2953    -2967 
   -2980    -2990    -2997    -3002    -3007    -2998    -2986    -2991 
   -2986    -2948    -2913    -2925    -2949    -2937    -2936    -2980 
   -2999    -2967    -2938    -2929    -2918    -2926    -2948    -2943 
   -2910    -2896    -2926    -2964    -2970    -2965    -2980    -2983 
   -2971    -2975    -2988    -2984    -2967    -2959    -2953    -2953 
   -2967    -3006    -3040    -3038    -3028    -3033    -3038    -3048 
   -3052    -3026    -2994    -3005    -3044    -3076    -3103    -3129 
   -3130    -3107    -3099    -3117    -3119    -3103    -3099    -3102 
   -3098    -3115    -3153    -3153    -3133    -3138    -3152    -3150 
   -3144    -3140    -3130    -3118    -3130    -3146    -3118    -3083 
   -3107    -3157    -3168    -3163    -3175    -3163    -3114    -3105 
   -3132    -3098    -3036    -3049    -3115    -3149    -3146    -3148 
   -3150    -3133    -3109    -3098    -3078    -3042    -3037    -3067 
   -3092    -3117    -3146    -3145    -3121    -3113    -3109    -3071 
   -3040    -3045    -3051    -3036    -3051    -3087    -3071    -3033 
   -3026    -3024    -3017    -3028    -3030    -2998    -2959    -2951 
   -2955    -2948    -2938    -2938    -2932    -2905    -2906    -2951 
   -2960    -2902    -2863    -2879    -2868    -2820    -2805    -2839 
   -2851    -2837    -2835    -2832    -2826    -2829    -2828    -2808 
   -2775    -2759    -2772    -2789    -2795    -2789    -2776    -2778 
   -2786    -2786    -2786    -2785    -2783    -2781    -2764    -2764 
   -2791    -2797    -2783    -2786    -2792    -2781    -2782    -2809 
   -2825    -2808    -2778    -2756    -2756    -2778    -2802    -2817 
   -2816    -2809    -2824    -2839    -2825    -2799    -2789    -2774 
   -2758    -2787    -2848    -2878    -2875    -2870    -2852    -2835 
   -2844    -2863    -2849    -2825    -2830    -2851    -2859    -2867 
   -2886    -2895    -2880    -2863    -2870    -2868    -2852    -2848 
   -2848    -2828    -2818    -2843    -2851    -2825    -2806    -2801 
   -2795    -2798    -2799    -2767    -2720    -2702    -2702    -2686 
   -2668    -2664    -2644    -2600    -2579    -2596    -2582    -2517 
   -2466    -2442    -2428    -2432    -2444    -2424    -2373    -2351 
   -2349    -2303    -2245    -2236    -2247    -2234    -2214    -2212 
   -2199    -2160    -2144    -2158    -2149    -2111    -2098    -2115 
   -2116    -2106    -2111    -2098    -2060    -2056    -2077    -2076 
   -2069    -2073    -2072    -2072    -2091    -2107    -2097    -2079 
   -2074    -2079    -2085    -2095    -2101    -2091    -2079    -2116 
   -2176    -2193    -2184    -2192    -2199    -2173    -2150    -2177 
   -2223    -2241    -2257    -2286    -2295    -2297    -2328    -2371 
   -2394    -2394    -2394    -2397    -2404    -2442    -2493    -2515 
   -2533    -2589    -2644    -2673    -2690    -2712    -2725    -2736 
   -2772    -2818    -2844    -2882    -2948    -3006    -3045    -3090 
   -3136    -3144    -3144    -3180    -3246    -3292    -3316    -3365 
   -3438    -3497    -3541    -3572    -3589    -3611    -3662    -3726 
   -3759    -3770    -3811    -3879    -3936    -3987    -4029    -4041 
   -4055    -4101    -4153    -4178    -4202    -4230    -4233    -4241 
   -4298    -4352    -4348    -4332    -4376    -4440    -4455    -4457 
   -4473    -4450    -4403    -4411    -4471    -4511    -4509    -4502 
   -4521    -4542    -4544    -4529    -4498    -4449    -4417    -4434 
   -4475    -4495    -4476    -4426    -4391    -4396    -4393    -4337 
   -4271    -4260    -4268    -4248    -4223    -4192    -4140    -4085 
   -4047    -4009    -3951    -3898    -3873    -3848    -3808    -3769 
   -3726    -3646    -3558    -3514    -3489    -3433    -3369    -3341 
   -3304    -3246    -3208    -3168    -3076    -2978    -2926    -2893 
   -2849    -2799    -2744    -2690    -2636    -2587    -2536    -2474 
   -2411    -2355    -2293    -2232    -2199    -2180    -2121    -2046 
   -2004    -1975    -1919    -1858    -1831    -1814    -1764    -1707 
   -1675    -1651    -1613    -1574    -1533    -1494    -1483    -1494 
   -1486    -1449    -1416    -1393    -1370    -1350    -1336    -1323 
   -1304    -1305    -1343    -1374    -1371    -1366    -1363    -1348 
   -1341    -1362    -1386    -1390    -1409    -1464    -1509    -1525 
   -1549    -1570    -1566    -1563    -1591    -1632    -1656    -1691 
   -1753    -1806    -1823    -1833    -1871    -1910    -1927    -1956 
   -1998    -2014    -2030    -2083    -2134    -2162    -2208    -2258 
   -2270    -2290    -2350    -2392    -2401    -2419    -2448    -2455 
   -2461    -2506    -2565    -2601    -2636    -2682    -2705    -2710 
   -2739    -2775    -2776    -2771    -2817    -2889    -2932    -2957 
   -2997    -3025    -3024    -3036    -3071    -3095    -3109    -3146 
   -3198    -3240    -3291    -3346    -3358    -3343    -3364    -3404 
   -3419    -3434    -3480    -3530    -3561    -3603    -3649    -3647 
   -3622    -3643    -3682    -3693    -3708    -3742    -3763    -3773 
   -3790    -3809    -3802    -3776    -3769    -3786    -3802    -3809 
   -3815    -3809    -3794    -3790    -3793    -3782    -3757    -3735 
   -3721    -3715    -3715    -3704    -3673    -3650    -3647    -3626 
   -3586    -3576    -3563    -3511    -3469    -3472    -3469    -3419 
   -3372    -3368    -3361    -3325    -3295    -3281    -3250    -3196 
   -3154    -3148    -3141    -3106    -3084    -3078    -3052    -3021 
   -3013    -2990    -2943    -2907    -2889    -2867    -2863    -2880 
   -2884    -2871    -2868    -2875    -2855    -2822    -2813    -2820 
   -2821    -2821    -2818    -2821    -2847    -2875    -2882    -2872 
   -2857    -2859    -2863    -2863    -2880    -2914    -2917    -2899 
   -2907    -2921    -2915    -2920    -2949    -2972    -2970    -2971 
   -2984    -2974    -2957    -2983    -3018    -3017    -3007    -3028 
   -3053    -3060    -3065    -3084    -3078    -3046    -3052    -3071 
   -3059    -3063    -3117    -3148    -3129    -3119    -3130    -3115 
   -3088    -3090    -3118    -3126    -3123    -3132    -3149    -3163 
   -3160    -3141    -3114    -3090    -3087    -3106    -3117    -3119 
   -3125    -3125    -3115    -3111    -3099    -3064    -3033    -3034 
   -3051    -3052    -3046    -3045    -3021    -2990    -2994    -2994 
   -2951    -2925    -2934    -2920    -2896    -2921    -2943    -2894 
   -2841    -2844    -2839    -2795    -2771    -2783    -2786    -2759 
   -2743    -2744    -2724    -2671    -2625    -2617    -2629    -2620 
   -2590    -2562    -2536    -2519    -2506    -2488    -2454    -2432 
   -2434    -2439    -2424    -2396    -2361    -2326    -2301    -2280 
   -2262    -2259    -2254    -2238    -2235    -2250    -2231    -2158 
   -2104    -2107    -2114    -2089    -2084    -2102    -2104    -2098 
   -2107    -2097    -2050    -2003    -1991    -1985    -1971    -1977 
   -2000    -2006    -2004    -2012    -2014    -1989    -1958    -1953 
   -1956    -1937    -1925    -1948    -1975    -1981    -1991    -2000 
   -1984    -1971    -1996    -2027    -2026    -2016    -2020    -2025 
   -2033    -2068    -2100    -2092    -2077    -2098    -2143    -2176 
   -2180    -2163    -2160    -2173    -2195    -2220    -2251    -2281 
   -2297    -2299    -2316    -2349    -2353    -2328    -2332    -2373 
   -2404    -2412    -2436    -2471    -2482    -2496    -2533    -2546 
   -2523    -2528    -2584    -2627    -2623    -2636    -2683    -2700 
   -2681    -2686    -2720    -2735    -2739    -2771    -2817    -2853 
   -2879    -2884    -2870    -2882    -2915    -2925    -2933    -2964 
   -2994    -3010    -3040    -3092    -3126    -3118    -3123    -3160 
   -3187    -3196    -3219    -3244    -3256    -3287    -3341    -3372 
   -3369    -3388    -3427    -3440    -3442    -3476    -3520    -3528 
   -3539    -3581    -3608    -3611    -3640    -3681    -3689    -3688 
   -3707    -3723    -3735    -3767    -3805    -3809    -3798    -3831 
   -3875    -3871    -3852    -3869    -3886    -3877    -3869    -3894 
   -3913    -3897    -3889    -3912    -3928    -3917    -3904    -3899 
   -3883    -3869    -3879    -3888    -3869    -3858    -3866    -3851 
   -3817    -3797    -3793    -3793    -3798    -3796    -3770    -3740 
   -3726    -3708    -3689    -3692    -3694    -3651    -3591    -3576 
   -3599    -3605    -3577    -3530    -3485    -3457    -3456    -3465 
   -3443    -3388    -3361    -3362    -3352    -3331    -3310    -3258 
   -3184    -3161    -3200    -3215    -3177    -3145    -3141    -3121 
   -3080    -3064    -3059    -3010    -2949    -2945    -2975    -2980 
   -2967    -2948    -2910    -2871    -2852    -2839    -2817    -2801 
   -2789    -2767    -2749    -2752    -2739    -2700    -2675    -2667 
   -2647    -2627    -2617    -2594    -2565    -2562    -2574    -2548 
   -2488    -2454    -2466    -2479    -2466    -2446    -2415    -2371 
   -2353    -2370    -2380    -2347    -2309    -2303    -2304    -2301 
   -2308    -2293    -2245    -2215    -2227    -2224    -2195    -2193 
   -2214    -2208    -2195    -2199    -2187    -2160    -2163    -2192 
   -2193    -2180    -2189    -2196    -2182    -2178    -2196    -2215 
