Origin Time       2016/04/16 01:25:00
Lat.              32.753
Long.             130.762
Depth. (km)       12
Mag.              7.3
Station Code      ISK010
Station Lat.      36.5419
Station Long.     136.6431
Station Height(m) 30
Record Time       2016/04/16 01:28:23
Sampling Freq(Hz) 100Hz
Duration Time(s)  62
Dir.              N-S
Scale Factor      7845(gal)/8223790
Max. Acc. (gal)   1.557
Last Correction   2016/04/16 01:28:08
Memo.             
[...]
  -11261   -11245   -11229   -11217   -11209   -11195   -11176   -11161 
  -11146   -11133   -11126   -11118   -11105   -11091   -11080   -11072 
  -11065   -11059   -11052   -11039   -11029   -11025   -11022   -11021 
  -11022   -11014   -10998   -11003   -11017   -11003   -10994   -11006 
  -11006   -10999   -11003   -11003   -11002   -11005   -11010   -11011 
  -11005   -11003   -11006   -11009   -11010   -11005   -10999   -11001 
  -11002   -10995   -10990   -10991   -10990   -10986   -10982   -10976 
  -10971   -10968   -10967   -10962   -10953   -10948   -10947   -10941 
  -10933   -10925   -10920   -10917   -10912   -10901   -10893   -10886 
  -10879   -10872   -10864   -10856   -10847   -10837   -10825   -10816 
  -10805   -10794   -10783   -10770   -10755   -10741   -10728   -10710 
  -10694   -10682   -10663   -10643   -10623   -10601   -10584   -10565 
  -10539   -10511   -10489   -10466   -10438   -10413   -10388   -10355 
  -10324   -10296   -10270   -10239   -10207   -10172   -10143   -10115 
  -10081   -10048   -10014    -9983    -9954    -9926    -9894    -9860 
   -9829    -9803    -9778    -9748    -9722    -9698    -9671    -9647 
   -9624    -9602    -9586    -9567    -9548    -9536    -9524    -9509 
   -9497    -9490    -9485    -9485    -9487    -9486    -9483    -9487 
   -9495    -9502    -9512    -9525    -9541    -9559    -9575    -9589 
   -9607    -9629    -9651    -9676    -9702    -9726    -9752    -9779 
   -9806    -9834    -9864    -9894    -9922    -9948    -9979   -10015 
  -10044   -10073   -10108   -10137   -10160   -10189   -10223   -10255 
  -10287   -10314   -10341   -10370   -10400   -10428   -10455   -10482 
  -10509   -10536   -10561   -10588   -10617   -10642   -10662   -10687 
  -10710   -10733   -10758   -10775   -10791   -10814   -10835   -10851 
  -10862   -10874   -10891   -10905   -10908   -10913   -10920   -10921 
  -10921   -10918   -10912   -10909   -10908   -10895   -10882   -10870 
  -10858   -10841   -10821   -10805   -10785   -10760   -10737   -10712 
  -10686   -10658   -10627   -10597   -10573   -10544   -10512   -10480 
  -10449   -10416   -10385   -10354   -10319   -10285   -10251   -10222 
  -10192   -10157   -10123   -10092   -10064   -10038   -10008    -9975 
   -9948    -9925    -9902    -9880    -9857    -9832    -9809    -9791 
   -9776    -9759    -9740    -9725    -9713    -9705    -9695    -9682 
   -9671    -9666    -9664    -9657    -9647    -9639    -9637    -9639 
   -9637    -9636    -9633    -9633    -9634    -9636    -9640    -9643 
   -9643    -9645    -9652    -9657    -9664    -9668    -9674    -9684 
   -9698    -9709    -9715    -9725    -9736    -9749    -9764    -9779 
   -9792    -9806    -9819    -9832    -9847    -9865    -9879    -9894 
   -9913    -9929    -9946    -9964    -9976    -9992   -10014   -10029 
  -10045   -10062   -10081   -10099   -10115   -10130   -10149   -10166 
  -10183   -10199   -10212   -10227   -10245   -10261   -10274   -10287 
  -10296   -10307   -10320   -10332   -10339   -10343   -10350   -10357 
  -10362   -10365   -10365   -10366   -10370   -10369   -10362   -10358 
  -10355   -10351   -10346   -10338   -10328   -10315   -10301   -10293 
  -10284   -10268   -10246   -10226   -10211   -10196   -10177   -10156 
  -10135   -10114   -10088   -10066   -10045   -10022   -10000    -9975 
   -9944    -9922    -9903    -9879    -9850    -9829    -9810    -9786 
   -9761    -9736    -9714    -9698    -9679    -9657    -9641    -9626 
   -9610    -9594    -9576    -9563    -9556    -9547    -9535    -9522 
   -9514    -9512    -9506    -9495    -9491    -9493    -9489    -9485 
   -9486    -9485    -9485    -9489    -9490    -9489    -9493    -9497 
   -9499    -9504    -9514    -9522    -9525    -9530    -9541    -9552 
   -9562    -9571    -9585    -9594    -9606    -9621    -9634    -9647 
   -9666    -9683    -9697    -9715    -9733    -9751    -9771    -9790 
   -9809    -9829    -9847    -9863    -9883    -9906    -9929    -9946 
   -9961    -9977    -9998   -10021   -10041   -10055   -10073   -10095 
  -10111   -10126   -10145   -10162   -10177   -10191   -10203   -10214 
  -10230   -10243   -10253   -10262   -10274   -10285   -10292   -10296 
  -10303   -10309   -10318   -10323   -10328   -10332   -10332   -10334 
  -10335   -10338   -10342   -10341   -10335   -10332   -10334   -10335 
  -10332   -10327   -10324   -10322   -10318   -10315   -10309   -10303 
  -10299   -10295   -10289   -10282   -10280   -10276   -10268   -10257 
  -10249   -10241   -10233   -10226   -10214   -10203   -10195   -10184 
  -10166   -10154   -10147   -10138   -10121   -10104   -10088   -10077 
  -10064   -10048   -10031   -10012    -9996    -9979    -9961    -9944 
   -9927    -9909    -9888    -9871    -9855    -9834    -9814    -9794 
   -9774    -9757    -9737    -9710    -9687    -9670    -9656    -9636 
   -9605    -9579    -9560    -9541    -9522    -9501    -9474    -9452 
   -9433    -9412    -9390    -9370    -9348    -9327    -9304    -9283 
   -9266    -9242    -9219    -9200    -9182    -9162    -9144    -9124 
   -9103    -9086    -9067    -9047    -9028    -9012    -8997    -8982 
   -8966    -8950    -8934    -8920    -8910    -8896    -8885    -8876 
   -8868    -8858    -8845    -8834    -8827    -8822    -8819    -8816 
   -8808    -8803    -8802    -8800    -8799    -8799    -8797    -8796 
   -8797    -8800    -8802    -8800    -8803    -8811    -8816    -8815 
   -8818    -8824    -8830    -8837    -8841    -8845    -8850    -8858 
   -8865    -8869    -8873    -8883    -8892    -8899    -8904    -8912 
   -8922    -8927    -8928    -8935    -8949    -8957    -8959    -8964 
   -8974    -8982    -8986    -8989    -8995    -9000    -9007    -9013 
   -9013    -9016    -9026    -9028    -9027    -9030    -9034    -9034 
   -9034    -9038    -9038    -9034    -9034    -9035    -9034    -9031 
   -9027    -9020    -9019    -9023    -9019    -9011    -9008    -9007 
   -9001    -8995    -8995    -8995    -8991    -8991    -8993    -8988 
   -8980    -8980    -8985    -8988    -8991    -8991    -8992    -8993 
   -8997    -9003    -9005    -9012    -9026    -9032    -9038    -9049 
   -9058    -9073    -9090    -9101    -9113    -9131    -9147    -9163 
   -9184    -9208    -9228    -9243    -9262    -9290    -9316    -9337 
   -9362    -9388    -9418    -9443    -9470    -9499    -9524    -9548 
   -9580    -9613    -9643    -9671    -9701    -9732    -9761    -9795 
   -9832    -9861    -9887    -9919    -9957    -9989   -10019   -10055 
  -10092   -10121   -10157   -10189   -10223   -10261   -10293   -10323 
  -10358   -10393   -10426   -10458   -10494   -10530   -10555   -10580 
  -10615   -10646   -10671   -10701   -10732   -10755   -10779   -10806 
  -10829   -10851   -10870   -10891   -10912   -10925   -10941   -10957 
  -10971   -10983   -10994   -11002   -11009   -11018   -11022   -11024 
  -11026   -11029   -11032   -11029   -11029   -11025   -11021   -11018 
  -11013   -11005   -10995   -10987   -10984   -10978   -10966   -10957 
  -10948   -10935   -10924   -10914   -10903   -10891   -10879   -10867 
  -10854   -10843   -10831   -10821   -10810   -10794   -10781   -10768 
  -10755   -10743   -10733   -10722   -10712   -10697   -10682   -10671 
  -10663   -10652   -10642   -10629   -10617   -10612   -10606   -10598 
  -10586   -10573   -10566   -10562   -10554   -10547   -10542   -10532 
  -10524   -10521   -10514   -10508   -10503   -10497   -10492   -10485 
  -10480   -10477   -10470   -10462   -10455   -10451   -10447   -10438 
  -10430   -10426   -10419   -10407   -10399   -10393   -10380   -10366 
  -10355   -10343   -10334   -10322   -10309   -10296   -10280   -10265 
  -10251   -10239   -10224   -10206   -10189   -10177   -10158   -10141 
  -10120   -10099   -10083   -10064   -10042   -10026   -10008    -9985 
   -9967    -9949    -9927    -9906    -9887    -9871    -9853    -9836 
   -9819    -9803    -9788    -9774    -9757    -9742    -9732    -9724 
   -9713    -9703    -9695    -9690    -9687    -9687    -9683    -9683 
   -9688    -9693    -9697    -9703    -9711    -9720    -9730    -9748 
   -9764    -9776    -9795    -9819    -9837    -9857    -9880    -9909 
   -9937    -9961    -9987   -10018   -10049   -10079   -10111   -10142 
  -10174   -10207   -10239   -10273   -10308   -10341   -10376   -10412 
  -10443   -10473   -10511   -10547   -10577   -10606   -10640   -10674 
  -10705   -10735   -10762   -10790   -10821   -10851   -10878   -10905 
  -10929   -10953   -10975   -10999   -11028   -11048   -11068   -11091 
  -11111   -11130   -11149   -11168   -11187   -11204   -11221   -11236 
  -11247   -11263   -11280   -11294   -11306   -11319   -11335   -11348 
  -11356   -11369   -11379   -11394   -11407   -11419   -11430   -11442 
  -11450   -11455   -11469   -11487   -11500   -11506   -11511   -11524 
  -11535   -11543   -11550   -11558   -11570   -11580   -11584   -11587 
  -11595   -11604   -11611   -11614   -11614   -11615   -11618   -11619 
  -11624   -11630   -11628   -11623   -11622   -11619   -11620   -11620 
  -11614   -11605   -11601   -11600   -11599   -11595   -11585   -11578 
  -11572   -11568   -11564   -11556   -11543   -11535   -11531   -11526 
  -11521   -11515   -11507   -11500   -11492   -11484   -11479   -11473 
  -11468   -11465   -11465   -11461   -11454   -11450   -11446   -11446 
  -11445   -11441   -11438   -11439   -11438   -11431   -11429   -11433 
  -11434   -11430   -11425   -11419   -11418   -11419   -11414   -11407 
  -11404   -11402   -11403   -11402   -11395   -11389   -11388   -11388 
  -11387   -11383   -11379   -11379   -11372   -11365   -11367   -11365 
  -11358   -11353   -11348   -11345   -11342   -11334   -11326   -11322 
  -11313   -11307   -11300   -11290   -11277   -11268   -11260   -11249 
  -11237   -11226   -11214   -11203   -11192   -11180   -11167   -11151 
  -11134   -11121   -11105   -11092   -11078   -11064   -11049   -11036 
  -11018   -10998   -10982   -10967   -10956   -10937   -10916   -10901 
  -10887   -10871   -10854   -10833   -10814   -10798   -10783   -10766 
  -10746   -10725   -10712   -10696   -10675   -10656   -10640   -10621 
  -10598   -10578   -10561   -10539   -10519   -10497   -10477   -10459 
  -10440   -10416   -10395   -10374   -10354   -10329   -10307   -10289 
  -10272   -10251   -10228   -10204   -10184   -10166   -10146   -10126 
  -10107   -10085   -10065   -10049   -10034   -10018   -10002    -9985 
   -9973    -9963    -9953    -9941    -9930    -9927    -9923    -9915 
   -9913    -9913    -9913    -9917    -9919    -9922    -9927    -9936 
   -9945    -9957    -9971    -9987   -10002   -10015   -10031   -10052 
  -10072   -10091   -10112   -10134   -10157   -10179   -10199   -10220 
  -10245   -10270   -10293   -10316   -10338   -10359   -10384   -10404 
  -10417   -10436   -10461   -10481   -10496   -10508   -10523   -10537 
  -10552   -10569   -10579   -10585   -10594   -10605   -10609   -10615 
  -10625   -10631   -10632   -10638   -10642   -10644   -10648   -10652 
  -10652   -10655   -10660   -10663   -10667   -10674   -10678   -10679 
  -10681   -10685   -10689   -10696   -10704   -10710   -10716   -10720 
  -10722   -10729   -10737   -10746   -10755   -10760   -10764   -10774 
  -10783   -10793   -10801   -10809   -10821   -10832   -10836   -10843 
  -10859   -10874   -10886   -10897   -10903   -10909   -10925   -10943 
  -10952   -10962   -10975   -10987   -11001   -11013   -11025   -11038 
  -11052   -11064   -11075   -11086   -11102   -11118   -11129   -11140 
  -11152   -11161   -11171   -11184   -11196   -11207   -11217   -11227 
  -11240   -11250   -11256   -11265   -11276   -11286   -11295   -11302 
  -11306   -11315   -11326   -11333   -11335   -11340   -11349   -11356 
  -11358   -11364   -11367   -11369   -11373   -11376   -11375   -11373 
  -11375   -11375   -11369   -11362   -11360   -11360   -11354   -11345 
  -11335   -11330   -11323   -11313   -11304   -11296   -11287   -11276 
  -11264   -11253   -11240   -11223   -11213   -11202   -11187   -11173 
  -11157   -11140   -11125   -11111   -11098   -11079   -11059   -11041 
  -11024   -11006   -10987   -10963   -10945   -10929   -10909   -10885 
  -10862   -10844   -10827   -10805   -10783   -10762   -10741   -10722 
  -10698   -10675   -10656   -10635   -10609   -10586   -10567   -10547 
  -10524   -10501   -10480   -10461   -10440   -10415   -10389   -10370 
  -10350   -10326   -10301   -10277   -10254   -10230   -10207   -10183 
  -10158   -10133   -10110   -10087   -10057   -10031   -10010    -9984 
   -9957    -9933    -9909    -9886    -9859    -9832    -9809    -9791 
   -9771    -9744    -9718    -9701    -9684    -9662    -9644    -9629 
   -9614    -9598    -9582    -9568    -9559    -9547    -9535    -9522 
   -9514    -9508    -9499    -9493    -9486    -9477    -9468    -9466 
   -9463    -9454    -9447    -9444    -9437    -9431    -9431    -9428 
   -9420    -9413    -9408    -9401    -9396    -9387    -9375    -9369 
   -9363    -9354    -9343    -9333    -9321    -9310    -9301    -9286 
   -9270    -9259    -9246    -9232    -9216    -9198    -9180    -9166 
   -9151    -9135    -9123    -9109    -9089    -9067    -9053    -9042 
   -9024    -9005    -8989    -8976    -8961    -8946    -8928    -8911 
   -8896    -8884    -8869    -8853    -8835    -8820    -8810    -8797 
   -8784    -8768    -8754    -8746    -8737    -8723    -8714    -8704 
   -8691    -8683    -8679    -8669    -8662    -8660    -8657    -8649 
   -8642    -8641    -8645    -8648    -8644    -8642    -8646    -8650 
   -8654    -8660    -8662    -8665    -8672    -8681    -8688    -8696 
   -8702    -8703    -8711    -8723    -8735    -8745    -8750    -8754 
   -8760    -8769    -8783    -8791    -8793    -8799    -8808    -8818 
   -8823    -8827    -8837    -8846    -8854    -8861    -8869    -8877 
   -8884    -8889    -8901    -8916    -8923    -8924    -8935    -8951 
   -8965    -8980    -8988    -8993    -9007    -9023    -9035    -9047 
   -9061    -9071    -9082    -9099    -9113    -9124    -9139    -9151 
   -9165    -9180    -9194    -9204    -9217    -9228    -9238    -9254 
   -9269    -9277    -9286    -9296    -9304    -9316    -9328    -9336 
   -9346    -9354    -9358    -9366    -9377    -9382    -9390    -9398 
   -9404    -9414    -9425    -9431    -9437    -9448    -9454    -9463 
   -9477    -9483    -9490    -9502    -9513    -9521    -9532    -9544 
   -9551    -9559    -9571    -9585    -9595    -9605    -9613    -9622 
   -9634    -9647    -9656    -9664    -9674    -9687    -9697    -9702 
   -9710    -9728    -9740    -9748    -9756    -9764    -9771    -9783 
   -9792    -9799    -9810    -9818    -9819    -9823    -9833    -9840 
   -9844    -9846    -9847    -9849    -9852    -9850    -9846    -9846 
   -9847    -9846    -9845    -9842    -9837    -9830    -9826    -9822 
   -9814    -9807    -9803    -9795    -9784    -9779    -9771    -9760 
   -9752    -9744    -9734    -9722    -9713    -9705    -9697    -9687 
   -9676    -9664    -9656    -9648    -9637    -9626    -9617    -9609 
   -9603    -9596    -9585    -9575    -9570    -9563    -9560    -9556 
   -9549    -9544    -9541    -9540    -9537    -9536    -9536    -9539 
   -9543    -9547    -9548    -9549    -9555    -9562    -9567    -9576 
   -9585    -9590    -9598    -9607    -9617    -9629    -9640    -9651 
   -9666    -9679    -9691    -9705    -9722    -9737    -9755    -9771 
   -9788    -9807    -9826    -9846    -9868    -9887    -9902    -9918 
   -9940    -9965    -9985   -10002   -10019   -10041   -10062   -10085 
  -10104   -10121   -10142   -10164   -10184   -10203   -10220   -10242 
  -10265   -10287   -10308   -10331   -10351   -10370   -10392   -10416 
  -10440   -10465   -10485   -10504   -10530   -10558   -10582   -10605 
  -10628   -10650   -10677   -10705   -10728   -10750   -10779   -10806 
  -10829   -10854   -10883   -10908   -10930   -10959   -10983   -11003 
  -11029   -11056   -11080   -11103   -11129   -11155   -11173   -11194 
  -11219   -11244   -11263   -11280   -11299   -11318   -11340   -11361 
  -11377   -11391   -11402   -11416   -11433   -11448   -11457   -11466 
  -11479   -11488   -11500   -11508   -11514   -11519   -11527   -11534 
  -11537   -11541   -11545   -11546   -11547   -11547   -11545   -11545 
  -11547   -11546   -11539   -11537   -11535   -11534   -11530   -11521 
  -11515   -11510   -11503   -11497   -11492   -11484   -11479   -11470 
  -11458   -11450   -11443   -11434   -11422   -11418   -11407   -11391 
  -11381   -11376   -11365   -11353   -11341   -11326   -11311   -11300 
  -11288   -11273   -11259   -11244   -11233   -11218   -11202   -11188 
  -11173   -11156   -11140   -11125   -11109   -11092   -11078   -11060 
  -11041   -11025   -11010   -10994   -10978   -10960   -10944   -10930 
  -10914   -10897   -10882   -10868   -10856   -10840   -10824   -10809 
  -10797   -10781   -10767   -10755   -10743   -10728   -10712   -10701 
  -10689   -10678   -10663   -10648   -10639   -10629   -10619   -10608 
  -10594   -10582   -10573   -10565   -10555   -10546   -10535   -10527 
  -10521   -10514   -10508   -10500   -10493   -10490   -10486   -10481 
  -10476   -10471   -10469   -10466   -10467   -10469   -10466   -10467 
  -10473   -10477   -10478   -10481   -10488   -10492   -10497   -10504 
  -10513   -10517   -10525   -10536   -10544   -10555   -10563   -10569 
  -10578   -10593   -10604   -10612   -10619   -10627   -10639   -10651 
  -10655   -10660   -10673   -10682   -10689   -10696   -10701   -10705 
  -10712   -10720   -10722   -10728   -10735   -10737   -10743   -10747 
  -10748   -10754   -10759   -10759   -10759   -10763   -10764   -10763 
  -10766   -10770   -10770   -10768   -10768   -10768   -10770   -10768 
  -10766   -10767   -10768   -10767   -10764   -10764   -10764   -10762 
  -10758   -10758   -10755   -10752   -10751   -10751   -10747   -10746 
  -10744   -10739   -10737   -10736   -10732   -10729   -10727   -10720 
  -10717   -10717   -10714   -10708   -10704   -10700   -10697   -10697 
  -10696   -10689   -10678   -10678   -10677   -10667   -10663   -10662 
  -10659   -10652   -10644   -10639   -10636   -10629   -10624   -10620 
  -10615   -10612   -10606   -10601   -10597   -10593   -10589   -10586 
  -10584   -10582   -10579   -10577   -10574   -10571   -10570   -10570 
  -10571   -10573   -10571   -10566   -10567   -10574   -10575   -10571 
  -10571   -10575   -10580   -10586   -10590   -10592   -10592   -10596 
  -10602   -10612   -10616   -10619   -10624   -10631   -10633   -10638 
  -10646   -10656   -10662   -10666   -10669   -10673   -10682   -10689 
  -10692   -10698   -10706   -10705   -10706   -10714   -10720   -10724 
  -10729   -10727   -10728   -10737   -10746   -10743   -10741   -10744 
  -10743   -10744   -10752   -10755   -10755   -10752   -10750   -10752 
  -10751   -10747   -10747   -10747   -10744   -10744   -10746   -10739 
  -10732   -10732   -10732   -10728   -10721   -10712   -10709   -10710 
  -10708   -10696   -10689   -10685   -10681   -10677   -10671   -10662 
  -10654   -10650   -10646   -10639   -10631   -10623   -10617   -10615 
  -10611   -10601   -10590   -10585   -10579   -10573   -10570   -10563 
  -10555   -10551   -10547   -10540   -10534   -10524   -10517   -10512 
  -10507   -10504   -10501   -10493   -10482   -10474   -10469   -10465 
