Origin Time       2016/04/16 01:25:00
Lat.              32.753
Long.             130.762
Depth. (km)       12
Mag.              7.3
Station Code      KGS013
Station Lat.      31.5973
Station Long.     130.9938
Station Height(m) 118
Record Time       2016/04/16 01:25:30
Sampling Freq(Hz) 100Hz
Duration Time(s)  133
Dir.              E-W
Scale Factor      3920(gal)/6182761
Max. Acc. (gal)   13.265
Last Correction   2016/04/16 01:25:31
Memo.             
[...]
    4648     5281     6310     6774     6575     6115     5410     4651 
    4481     5015     5583     5613     5390     5667     6340     6681 
    6502     5732     4593     3926     4097     4825     5328     4789 
    3689     3458     4917     7267     8779     8914     8536     8181 
    7537     6521     5587     4794     3884     3199     3246     3619 
    3433     2814     3071     4719     6411     6962     6847     6693 
    6390     6272     6750     6849     5640     4002     3186     3082 
    2939     2807     3212     4041     4898     6078     8106    10265 
   11123    10742    10227     9346     6980     3572     1001      375 
    1361     3146     5344     7722     9390     9598     8943     8415 
    7951     7140     6384     6175     6209     5854     4792     3091 
    1325      648     1935     4548     6631     7040     6624     7017 
    8377     9359     9157     8162     6701     4929     3663     3308 
    3118     2658     2158     1786     1602     1587     1917     2998 
    4916     7216     9073     9695     8777     6932     5388     4689 
    4171     2935     1127     -297     -941     -728      826     3602 
    6378     8175     9171    10143    11165    11007     8536     4453 
     727    -1194    -1037      585     2535     3776     4034     3861 
    4291     5897     7962     9572    10744    11672    11992    11092 
    8667     5109     1466    -1050    -1723     -889      252      986 
    1862     3723     6597     9655    11836    12492    11664     9727 
    6815     3131     -433    -2779    -3545    -3286    -2720    -1889 
    -264     2378     5216     6799     6762     6435     7092     8579 
    9897    10093     8544     5357     1829     -301     -406      596 
    1364     1533     1940     3291     5173     6820     8047     8932 
    9403     9291     8506     7284     5982     4506     2697     1068 
     286      474     1432     2935     4843     7236     9970    12268 
   13172    12295    10194     7845     5840     4369     3423     2828 
    2338     1821     1401     1495     2776     5405     8176     9428 
    8855     7479     6189     5365     5391     6374     7620     8011 
    6974     5073     3225     1556      119     -145     1604     5077 
    8912    11223    10937     8593     5604     3368     2550     2511 
    2133     1119       33     -275      799     3162     6183     9001 
   10753    11194    10892    10215     8681     6006     3265     2264 
    3728     6307     7740     7100     5379     3824     2791     2368 
    2786     4095     6181     8465     9776     9583     8687     8162 
    8227     8183     7323     5727     4045     2982     2691     2508 
    1981     1628     2187     4051     7038    10026    11632    11507 
   10512     9446     7970     5231     1179    -2985    -5426    -5044 
   -2398      831     3320     4978     6585     8928    11848    14046 
   14452    13114    10549     7441     4440     1511    -1361    -3076 
   -2499     -179     2434     4852     7239     9019     9289     8353 
    7589     7711     8162     8216     7879     7229     5894     4348 
    4029     4967     5341     4459     3558     3175     3439     4842 
    6198     6342     6016     6094     7079     8343     8351     6684 
    4500     3920     5367     6677     6261     4367     2085      503 
     -58     -122     -120      250     1272     3025     5435     7616 
    8689     8714     8092     7250     6303     4772     2828     1617 
    1331     1041      445      -31      124     1504     4228     7244 
    9161     9803    10153    10744    10983    10118     7781     4218 
     830     -841     -392     1633     4105     6107     7764     9373 
   10420    10154     8495     6052     3850     3097     3862     4226 
    2460     -472    -1949     -655     2663     6398     9025    10033 
   10177    10213     9999     8843     6395     3571     1800     1173 
     649     -393    -1460    -1422      -44     1617     2644     2809 
    2416     2534     4079     6421     8107     8604     8333     7669 
    6702     5476     4002     2339      990      643     1133     1630 
    1818     1867     2144     3543     6724    11002    14766    16743 
   16707    15092    12517     9557     6263     2677     -183    -1016 
     -29      888      428     -611     -496     1826     6120    11036 
   14749    15781    14106    11282     8792     6868     5320     4324 
    3904     3601     2963     2030     1327     1334     2345     4367 
    6561     7890     8519     9302     9970     9416     7798     6487 
    6062     5693     4354     2287      718      108      -22      192 
    1022     2426     4239     6430     8622     9786     9301     8088 
    7370     6968     5979     4229     2403     1000       75      158 
    1617     3383     4331     4931     6271     8461    10715    12382 
   13468    14265    14697    14567    13900    12180     8606     3656 
    -804    -3107    -3192    -2123     -541     1504     3888     6462 
    9065    11070    11698    10919     9539     8562     8329     8241 
    7801     7217     6772     6588     6816     7129     6716     5675 
    5071     5343     6084     6841     7440     7979     8349     8204 
    7458     6148     4442     2832     1740     1321     1566     2353 
    3463     4388     4736     4873     5258     5626     5363     4221 
    2666     1329      225     -967    -2143    -2594    -1563      929 
    3886     6008     6748     6774     6960     7063     6123     4114 
    2248     1168      266     -532     -402      668     1860     2916 
    4278     6071     7501     7773     7373     7370     7819     7999 
    7747     7516     7332     6751     5875     5388     5596     6174 
    6514     6012     4586     2993     2502     3880     6324     8186 
    9111     9993    10655     9581     6334     2743      916      786 
     854      608      618     1050     1544     2090     2772     3148 
    3035     3064     3950     5853     7972     8819     7783     5766 
    3863     2484     1719     1392     1101     1014     1589     2264 
    2313     2287     3157     5195     7748     9637    10283     9971 
    9073     7743     6290     5172     4076     2292      683      991 
    2970     4704     5350     5648     6407     7394     7519     6427 
    5207     5023     6057     7515     8014     6647     3937     1487 
     683     1756     3719     5071     5161     4791     5023     5948 
    6907     7332     7339     7554     8133     8578     8470     7832 
    7047     6589     6684     7372     8471     9354     9339     8242 
    6486     5039     4578     4516     3908     2865     2346     3057 
    4757     6837     9066    11223    12666    12615    11060     8859 
    6518     4023     1679      214      196     1257     2331     2866 
    3109     3453     4094     4849     5189     4981     4539     4008 
    3524     3191     2742     2275     2724     4529     6862     8736 
    9740     9905     9538     8901     7871     5960     3135      555 
    -351      592     2075     2572     2091     1991     3147     5161 
    6691     6825     6212     5889     6170     6818     7121     6582 
    5771     5646     6467     7819     9007     9144     7718     5224 
    2581      446     -663     -590      325     1918     3973     5643 
    6212     5692     4669     4109     4623     6073     7731     8448 
    7504     5294     2967     1347      -28    -1876    -3737    -4637 
   -3796     -780     3673     8027    11397    13587    14767    15449 
   15410    13632    10201     6276     2527     -629    -2577    -3046 
   -1881      981     4735     8179    10600    11587    11319    10833 
   10532     9529     7152     3657        1    -2560    -3584    -3459 
   -2494    -1002      624     2425     4617     6736     7829     7480 
    6251     5052     4301     4048     4096     3768     2643     1467 
    1413     2408     2952     1872     -215    -1442     -727     1186 
    3030     4456     5673     6810     8247    10282    11955    11928 
   10575     9284     8613     8360     7913     6538     4330     2338 
    1839     3498     6323     8269     8712     8975    10298    12587 
   14782    15573    14016    10247     5832     2841     2014     2130 
    1672      639      199      978     2436     3891     5160     6137 
    6869     7876     9400    10637    10462     8656     5934     3102 
     566    -1404    -2413    -2459    -2115    -1395      341     2862 
    5157     6849     8047     8788     9237     9472     9150     7821 
    5427     2741     1244     1599     2483     2124      402    -1374 
   -1887     -710     1532     3827     5929     8425    11500    14165 
   14951    13344    10183     6764     4052     2320     1307     1025 
    1901     4057     7136    10426    13036    14381    14578    14319 
   13818    12496    10187     7391     4591     1946     -584    -2601 
   -3310    -2352     -162     2348     4439     5740     6181     6275 
    6745     7433     7395     6329     5021     4104     3185     1589 
    -588    -2592    -3660    -3418    -2198     -600     1273     3442 
    5604     7529     9187    10491    11075    10147     7318     3584 
     479    -1204    -1457     -856      -87     1048     3235     6218 
    8867    10247    10227     9636     9557    10296    11196    11180 
    9854     8180     7392     7557     7805     7488     6453     4986 
    4002     4357     5784     7158     7850     8331     8996     9204 
    8149     5993     3768     2258     1402     1099     1606     2698 
    3351     3017     2479     2722     3921     5664     7204     7816 
    7420     6838     7007     7554     7161     5718     4500     4167 
    4212     4056     3727     3776     4419     5051     5114     4624 
    3814     2878     2093     1973     2626     3194     3034     2885 
    3724     5305     6806     7926     8722     9231     9286     8545 
    7212     6108     5377     4407     3090     1771      609     -139 
      23     1434     3952     7028    10075    12541    13894    13940 
   12855    10762     7687     4206     1855     2048     4473     7381 
    9332     9948     9710     9516     9593     9295     8183     6345 
    4261     2763     2397     2756     2928     2591     2091     1978 
    2582     3391     3624     3134     2205     1605     2147     3492 
    4364     3779     1871      -69     -848     -535       96      504 
     666     1036     2017     3401     4689     5752     7032     9096 
   11578    12950    11983     9010     5667     3496     2813     3216 
    4403     5887     6911     7322     7827     8927    10338    11426 
   11526    10207     7654     4588     1710     -595    -1882    -1604 
     269     2933     5209     6248     6046     5708     6298     7315 
    7648     6938     5522     4344     4384     5633     6826     6634 
    5529     5110     5684     6087     5442     4230     3708     4568 
    6228     7506     7950     7994     8193     8776     9320     9043 
    7746     6065     4733     3897     3180     2452     2412     3802 
    6057     7588     7528     6330     4844     3726     3180     3021 
    3173     3431     3408     3095     2648     2283     2581     4018 
    6433     9098    11106    11886    11439    10263     8914     7556 
    6060     4457     3165     2653     2874     3353     3923     4921 
    6547     8422     9903    10703    11033    11046    10502     9180 
    7278     5300     3755     2991     3008     3391     3887     4746 
    5995     7146     7811     7846     7282     6419     5501     4688 
    4446     5120     6375     7494     7890     7478     6725     6066 
    5410     4572     3777     3403     3681     4550     5460     5791 
    5447     4868     4690     5098     5462     5207     4640     4335 
    4563     5387     6463     7080     7035     7146     7922     8375 
    7563     5913     4158     2565     1182      165      127     1595 
    3979     6031     7138     7576     7945     8445     8390     6845 
    3821      579    -1267    -1245     -349      312      401      293 
     922     2804     5096     6585     6967     6644     6086     5470 
    4553     3106     1381       39     -229      611     1591     1799 
    1505     1791     3207     5105     6489     6922     6420     5208 
    3722     2447     1606     1095      579     -352    -1716    -2834 
   -2777    -1179     1514     4582     7616    10663    13588    15228 
   14364    11458     8250     6048     5036     4591     4057     3410 
    3146     3831     5534     7525     9061    10143    11161    12246 
   12919    12351    10257     7299     4526     2926     3052     4234 
    4987     4604     3229     1093    -1247    -3004    -3514    -2041 
    1494     5922     9779    11974    11904     9921     7377     5726 
    5488     6157     6482     5153     2397       70     -119     2433 
    7125    12166    15565    16627    15657    12882     8782     4083 
    -449    -3416    -3621    -1297     2215     5330     6912     6693 
    5530     4804     4913     5258     5410     5134     4166     2765 
    1655     1448     2371     4000     5636     6603     6167     4241 
    1527     -814    -1516     -302     2197     5505     9283    12921 
   15779    17739    18870    18439    15407     9901     3090    -3824 
   -9551   -12457   -11358    -6638      209     7624    14108    18665 
   20577    19003    14472     8799     3082    -2420    -7647   -12358 
  -15440   -15755   -13545    -9451    -3605     3462    10454    15374 
   16736    15499    13531    11192     8349     5670     3776     2470 
    1090     -753    -2210    -1701     1216     5710    10544    14691 
   17595    18459    16888    14043    11129     8375     6089     4841 
    4797     5399     6051     6967     8546    10855    13570    15396 
   15059    12912    10081     7167     4591     3002     2957     4367 
    6272     7642     7877     6535     3856     1020     -937    -1826 
   -2217    -2915    -3928    -4001    -1860     2115     6175     9226 
   11711    13814    14074    11188     5695     -682    -6009    -8604 
   -7593    -3883      265     3371     5053     5296     4939     5068 
    6012     7551     8883     9228     8476     6388     3080       33 
   -1250     -539     1513     3845     5287     5418     4828     4264 
    4482     6174     8779    10705    11276    11252    11448    11805 
   11807    10927     8843     5527     1389    -2245    -4055    -3818 
   -1550     2794     8554    14334    18681    20774    20235    16803 
   10781     3205    -4405   -10450   -13914   -14302   -11564    -6522 
    -443     5235     9252    11579    12589    12159    10578     8322 
    5528     2414     -408    -1700     -707     1759     4538     7039 
    8958    10154    10327     9238     7416     5606     3932     2577 
    2240     3017     4127     5191     6394     7501     8129     8527 
    9026     9247     8564     7021     5201     3248      911    -1466 
   -2976    -3209    -2381     -389     2929     6780     9872    11288 
   10639     8287     5428     3291     2266     2277     3309     5039 
    6620     7219     6619     5094     3299     2335     2835     4376 
    6369     8610    10938    12758    13186    11866     9058     5160 
     613    -3863    -7120    -8461    -8285    -7130    -4976    -1816 
    1867     5480     8596    10645    11116    10171     8573     6877 
    5076     3220     1681      748      412      430      633      891 
     911      763     1015     2074     3864     6132     9024    12594 
   15924    18184    19502    19830    18584    15677    11864     8273 
    5813     4750     4584     4309     3401     2446     2223     2794 
    3882     5374     7236     9353    11651    14098    16053    15945 
   12512     6330     -522    -6001    -8910    -8954    -6793    -3576 
    -149     2893     5155     7028     9413    12533    15496    17050 
   16278    12917     7727     2182    -2219    -4135    -2838     1036 
    5859    10147    13137    14834    15708    16155    16315    16290 
   16150    15560    13789    10665     7146     4404     2916     2576 
    2969     3733     4833     6164     7329     7964     8106     8166 
    8254     7799     6216     3566      469    -2016    -2860    -2050 
    -293     2064     4880     7483     8879     8784     7731     6434 
    5628     5446     5184     4240     2396     -133    -2403    -3396 
   -2821    -1112      999     3085     5040     6608     7582     8233 
    8967     9774    10365    10517    10199     9784     9755     9884 
    9504     8305     6177     3181       81    -2106    -2965    -2491 
    -695     2311     6346    11177    16152    20038    21669    20562 
   16886    11433     5544      475    -2976    -4216    -2863      704 
    5184     9028    11087    10855     8643     5537     2624      242 
   -1526    -2581    -3211    -3573    -3338    -2275     -563     1405 
    3181     4122     3608     1801     -517    -2690    -4075    -4097 
   -2776     -616     1775     3914     5704     7383     9082    10616 
   11744    12172    11554     9953     7763     5201     2551      404 
    -599      203     3021     6756     9555    10254     9096     7037 
    4839     3207     2428     2000     1509      867       63     -685 
   -1089     -871        8     1079     1824     2035     1602      772 
     604     2173     5266     8641    11147    11961    10642     7582 
    3722      177    -1845    -1977    -1156     -494     -324     -296 
     -57      513     1676     3475     5322     6582     7016     6449 
    4604     1650    -1600    -4294    -6211    -7763    -9079    -9321 
   -7392    -3151     2387     7879    12270    14748    14824    12665 
    8906     4045    -1159    -5099    -6434    -5238    -2631       40 
    2140     3976     5919     8019    10034    11335    11260     9610 
    6871     3964     1372    -1161    -3644    -5229    -5021    -2921 
     218     3071     4950     6182     7367     8853    10556    11875 
   12056    10653     7993     5066     2566      792      111      717 
    2411     4498     6010     6445     5944     5126     5055     6400 
    8397     9917    11042    12205    13065    13081    12277    10999 
    9097     5987     1693    -2623    -5555    -6683    -6100    -3690 
     176     4341     7566     9384    10194    10259     9376     7392 
    4262      153    -4399    -8620   -11512   -12207   -10518    -7028 
   -2764     1379     4919     7609     8932     8132     5370     2113 
    -105     -765     -241      947     2300     3283     3864     4472 
    5369     6596     7955     9054     9774    10225    10222     9415 
    7824     5820     3829     2136      565    -1209    -2861    -3828 
   -3932    -2980     -662     2973     7389    11774    15260    17235 
   17602    16610    14607    11952     8913     5715     2729      357 
   -1141    -1311      381     3762     8024    12385    16270    18956 
   19585    18051    15237    12204     9648     8026     7874     9233 
   11107    12606    13801    15012    16295    17412    17823    17127 
   15197    11872     7506     3377      707     -185      351     1741 
    3413     5003     6571     8248     9590     9944     9165     7465 
    5077     2156    -1245    -4646    -6853    -6835    -4512     -769 
