Origin Time       2016/04/16 01:25:00
Lat.              32.753
Long.             130.762
Depth. (km)       12
Mag.              7.3
Station Code      KGS009
Station Lat.      31.7368
Station Long.     130.7613
Station Height(m) 4
Record Time       2016/04/16 01:25:27
Sampling Freq(Hz) 100Hz
Duration Time(s)  194
Dir.              N-S
Scale Factor      3920(gal)/6182761
Max. Acc. (gal)   25.217
Last Correction   2016/04/16 01:25:27
Memo.             
[...]
   -5324    -5794    -7345    -8979    -9903    -9831    -8769    -6958 
   -4813    -2947    -2021    -2192    -3035    -4197    -5531    -6641 
   -7166    -7228    -7217    -7437    -7914    -8516    -9126    -9708 
  -10403   -11383   -12540   -13585   -14298   -14550   -14423   -14200 
  -13918   -13289   -12158   -10699    -9248    -8228    -7851    -7786 
   -7685    -7645    -7617    -7176    -6264    -5475    -5481    -6574 
   -8814   -12178   -16226   -20031   -22786   -24416   -25279   -25615 
  -25777   -26299   -27137   -27549   -26881   -24803   -21131   -16387 
  -11979    -8908    -6988    -5620    -4495    -3593    -3140    -3541 
   -4893    -6482    -7135    -6366    -4991    -4043    -3562    -3272 
   -3356    -3682    -3519    -2585    -1312      109     1846     3579 
    4779     5558     6314     7156     8113     9225    10270    10737 
   10158     8504     6291     4222     2713     1678      691     -314 
    -749      -75     1645     3985     6533     8781     9985     9802 
    8578     6759     4533     2047     -342    -2321    -3959    -5527 
   -7306    -9386   -11444   -12975   -13644   -13485   -12931   -12520 
  -12519   -12774   -12939   -12940   -13086   -13631   -14421   -15239 
  -16098   -16890   -17433   -17909   -18576   -19195   -19282   -18763 
  -18049   -17568   -17392   -17290   -17100   -16934   -16955   -17221 
  -17762   -18447   -18910   -18934   -18717   -18605   -18713   -18862 
  -18937   -19055   -19175   -18982   -18362   -17506   -16497   -15166 
  -13430   -11477    -9556    -7967    -7189    -7524    -8744   -10256 
  -11493   -12147   -12146   -11637   -10966   -10520   -10674   -11679 
  -13221   -14500   -15082   -15210   -15271   -15624   -16761   -19013 
  -21966   -24590   -26224   -26841   -26568   -25721   -24785   -23989 
  -23021   -21294   -18829   -16345   -14201   -12141   -10087    -8411 
   -7539    -7667    -8619    -9767   -10349    -9934    -8629    -7106 
   -6324    -6797    -8285   -10139   -11690   -12534   -12696   -12481 
  -12225   -12080   -12024   -11973   -11673   -10849    -9547    -8113 
   -6912    -6124    -5653    -5193    -4512    -3689    -2998    -2714 
   -2993    -3723    -4608    -5321    -5648    -5700    -5752    -5857 
   -5822    -5319    -4112    -2385     -588      944     2056     2712 
    3039     3220     3288     3212     3186     3567     4424     5361 
    6008     6434     6939     7756     9050    10948    13349    15907 
   18207    19691    19669    17688    13859     8891     3940      262 
   -1358    -1126     -120      561      430     -498    -1915    -3246 
   -3903    -3773    -3395    -3508    -4483    -6136    -7945    -9361 
   -9957    -9436    -7695    -5091    -2505     -932     -977    -2542 
   -4859    -6901    -7751    -7158    -5789    -4634    -4619    -6205 
   -8764   -11144   -12743   -13704   -14407   -15280   -16712   -18451 
  -19878   -20719   -20764   -19957   -18888   -18458   -19121   -20732 
  -23104   -25882   -28022   -28487   -27320   -25627   -24590   -24698 
  -25726   -26798   -26795   -25264   -22543   -18983   -14630    -9733 
   -4928     -925     1491     1652     -361    -3694    -7337   -10767 
  -14012   -16981   -19363   -20978   -21590   -21063   -19811   -18541 
  -17644   -17095   -16835   -16921   -17200   -17316   -17238   -17102 
  -16553   -15149   -12985   -10263    -6986    -3499     -579     1372 
    2772     4326     6424     8973    11426    13194    14015    14173 
   14371    14684    14236    12273     8675     3831    -1335    -5593 
   -8142    -9122    -9346    -9706   -10788   -12606   -14650   -16391 
  -17552   -17965   -17750   -17413   -17508   -18248   -19267   -20214 
  -21168   -22014   -22590   -23068   -23438   -23513   -23165   -22202 
  -20540   -18101   -14716   -10676    -6751    -3424     -652     1776 
    4001     6031     7959     9878    11341    11861    11448    10055 
    7611     4681     2461     1958     3176     5367     7721     9494 
   10159     9588     7962     5695     3116      356    -2135    -3592 
   -3806    -3251    -2309    -1365     -890     -883    -1175    -1747 
   -2451    -3116    -3634    -3989    -4412    -5101    -5825    -6338 
   -6909    -7823    -8854    -9755   -10747   -12337   -14867   -18208 
  -21867   -25313   -28028   -29487   -29572   -28747   -27404   -25643 
  -23775   -22104   -20517   -18924   -17451   -16115   -14948   -14280 
  -14367   -15203   -16840   -19112   -21202   -21969   -20488   -16656 
  -11620    -7186    -4774    -4776    -6261    -7343    -6672    -4384 
   -1388     1333     2678     1970     -289    -2815    -4527    -5064 
   -4789    -4251    -3701    -3301    -3267    -3618    -4232    -5028 
   -5800    -6269    -6502    -6835    -7565    -8959   -11091   -13554 
  -15433   -15708   -13935   -10541    -6508    -2938     -837     -700 
   -2094    -4190    -6401    -8242    -9398   -10162   -11240   -12936 
  -14793   -15975   -15739   -13842   -10853    -7973    -6252    -5854 
   -6218    -6590    -6179    -4504    -1945      393     1547     1324 
     291     -568     -256     1655     4583     7437     9594    11110 
   12275    13305    14342    15390    16092    15991    15124    13901 
   12483    10717     8688     6785     5085     3191      714    -2314 
   -5143    -6541    -5963    -4212    -2598    -1893    -2183    -3160 
   -4301    -5176    -5946    -7105    -8595    -9647    -9623    -8597 
   -6922    -4822    -2749    -1531    -1877    -3958    -7394   -11452 
  -15219   -17963   -19630   -20733   -21522   -21722   -21119   -19888 
  -18571   -17937   -18594   -20627   -23483   -26235   -28143   -29039 
  -29103   -28301   -26472   -23897   -21217   -18718   -16331   -14230 
  -12656   -11631   -11290   -11821   -12924   -13973   -14725   -15187 
  -15168   -14667   -14130   -13915   -13867   -13597   -12928   -11855 
  -10451    -8971    -7669    -6655    -5977    -5639    -5612    -5747 
   -5629    -4678    -2608      244     3208     5577     6815     6944 
    6485     6067     6111     6564     7115     7391     6793     4814 
    1512    -2749    -7606   -12444   -16499   -19667   -22556   -25559 
  -28428   -30808   -32416   -32610   -30691   -26707   -21407   -15621 
   -9991    -5014     -946     2268     4812     6833     8223     8633 
    7950     6326     3941     1106    -1751    -4253    -6156    -7625 
   -9145   -10958   -13066   -15509   -18232   -20806   -22554   -23174 
  -23026   -22816   -23046   -23769   -24914   -26230   -27162   -27395 
  -27057   -26294   -25215   -24228   -23892   -24250   -24467   -23546 
  -21247   -17918   -14181   -10845    -8490    -7475    -8013    -9850 
  -12320   -14622   -16007   -16138   -15274   -13944   -12679   -11789 
  -11295   -11188   -11408   -11666   -11469   -10474    -8945    -7458 
   -6244    -5203    -4139    -2847    -1385       56     1675     3582 
    5253     6155     5964     4637     2947     2082     2618     3933 
    4847     4578     2603    -1058    -5507    -9656   -12643   -14176 
  -14543   -14032   -12746   -10831    -8878    -7479    -6533    -5917 
   -5891    -6429    -7176    -8047    -9084   -10112   -11004   -11739 
  -12241   -12449   -12496   -12794   -13642   -14931   -16414   -17847 
  -19072   -19998   -20401   -20145   -19272   -17898   -16506   -15767 
  -16037   -17223   -18887   -20622   -22066   -22581   -21685   -19583 
  -16632   -12949    -8943    -5274    -2269       58     1782     3219 
    4964     7357    10174    12993    15503    17593    19351    20842 
   21856    22037    21329    20149    18902    17510    15634    13050 
    9881     6694     4161     2648     1927     1245      -46    -2289 
   -5607    -9850   -14629   -19274   -22983   -25351   -26484   -26667 
  -26333   -26038   -26137   -26545   -26643   -25753   -23648   -20587 
  -17340   -14666   -12785   -11568   -10630    -9540    -8158    -6737 
   -5740    -5218    -4583    -3285    -1370      685     2420     3513 
    3845     3721     3719     4219     5065     5810     6285     6579 
    6645     6459     6114     5564     4733     3671     2559     1745 
    1548     2017     2716     2998     2476      880    -1691    -4727 
   -7999   -11432   -14894   -18157   -20914   -23297   -25602   -27795 
  -29424   -29787   -28831   -27349   -26387   -26572   -27590   -28744 
  -29622   -30239   -31012   -32404   -34542   -36985   -38883   -39471 
  -38460   -36246   -33546   -31091   -29502   -28697   -28073   -27363 
  -26661   -26082   -25644   -25165   -24213   -22386   -19745   -16732 
  -13805   -11228    -9066    -7384    -6291    -5711    -5287    -4621 
   -3633    -2482    -1279     -153      682      951      392    -1045 
   -3222    -5863    -8348    -9958   -10497   -10233    -9486    -8575 
   -7651    -6578    -5224    -3578    -1731       74     1496     2345 
    2777     3124     3613     4248     4789     4796     3895     2174 
     221    -1349    -2285    -2719    -2824    -2454    -1356      389 
    2391     4249     5816     7196     8376     9094     9249     9012 
    8641     8464     8667     9144     9625     9833     9690     9337 
    8920     8558     8364     8353     8380     8046     7019     5505 
    3909     2408      951     -718    -2877    -5505    -8090    -9801 
  -10218    -9740    -9100    -8743    -8751    -9093    -9681   -10329 
  -10993   -11871   -12996   -14095   -14942   -15418   -15341   -14535 
  -12967   -10784    -8276    -5852    -3866    -2267     -868      108 
     341      -72     -825    -1846    -3202    -4669    -5853    -6698 
   -7447    -8365    -9733   -11783   -14396   -17142   -19687   -21990 
  -24267   -26779   -29598   -32562   -35337   -37723   -39715   -41252 
  -42296   -42931   -43374   -43889   -44397   -44582   -44342   -43664 
  -42401   -40610   -38703   -37047   -35783   -34964   -34582   -34422 
  -34002   -33000   -31593   -30138   -28840   -27751   -26958   -26566 
  -26377   -25999   -25235   -24037   -22460   -20799   -19307   -17869 
  -16334   -14790   -13348   -12026   -10785    -9557    -8295    -6986 
   -5746    -4821    -4299    -3973    -3484    -2555    -1275       68 
    1335     2395     3052     3302     3406     3617     4094     5181 
    7216    10014    12999    15766    18146    19905    20979    21562 
   21575    20741    19046    16739    14242    11940     9994     8470 
    7398     6592     5781     4902     4011     3105     2217     1508 
    1287     1963     3795     6590     9628    12094    13603    14241 
   14408    14491    14506    14294    13796    13019    12044    10853 
    9196     6841     3687     -103    -4031    -7512   -10131   -11840 
  -12911   -13720   -14460   -15006   -15265   -15295   -15166   -15019 
  -14902   -14811   -14916   -15300   -15904   -16709   -17629   -18490 
  -19123   -19431   -19495   -19466   -19530   -19893   -20408   -20605 
  -20110   -18670   -16231   -13130    -9898    -6910    -4257    -1816 
     618     2990     4829     5611     5160     3733     1772     -385 
   -2524    -4471    -6163    -7606    -8640    -9119    -9150    -8874 
   -8483    -8437    -9080   -10124   -10860   -10808   -10000    -8783 
   -7506    -6457    -5742    -5138    -4480    -4078    -4422    -5665 
   -7617    -9983   -12317   -14114   -14986   -14821   -14008   -13080 
  -12305   -11900   -11999   -12439   -12970   -13509   -14175   -15027 
  -15810   -16227   -16238   -15748   -14557   -12762   -10736    -8864 
   -7443    -6663    -6583    -6976    -7423    -7537    -7044    -5929 
   -4355    -2513     -614     1237     2973     4462     5537     6043 
    5990     5445     4462     3124     1449     -442    -2232    -3657 
   -4642    -5269    -5644    -5763    -5515    -4931    -4220    -3480 
   -2858    -2754    -3434    -4888    -7085   -10056   -13679   -17541 
  -21204   -24426   -27068   -28991   -30157   -30873   -31554   -32254 
  -32764   -32917   -32685   -31976   -30561   -28449   -25939   -23395 
  -21060   -18921   -16797   -14429   -11687    -8787    -6009    -3402 
    -966     1095     2524     3285     3555     3617     3722     4011 
    4469     4867     4996     4907     4734     4516     4308     4238 
    4313     4307     4106     3835     3582     3393     3382     3634 
    4048     4395     4528     4413     4071     3660     3479     3744 
    4425     5380     6497     7572     8358     8744     8641     7965 
    6773     5241     3702     2584     2112     2262     2868     3614 
    4116     4145     3681     2851     1941     1277     1086     1531 
    2637     4179     5751     7006     7777     7960     7516     6650 
    5736     4971     4189     3078     1405     -847    -3433    -6042 
   -8534   -11020   -13743   -16704   -19576   -22075   -24058   -25468 
  -26489   -27452   -28528   -29671   -30722   -31621   -32445   -33137 
  -33448   -33190   -32426   -31438   -30546   -29954   -29622   -29181 
  -28167   -26361   -23828   -20885   -17913   -15128   -12595   -10334 
   -8396    -6751    -5152    -3340    -1280      868     2822     4228 
    4901     5002     4885     4837     4938     5104     5100     4518 
    3058      809    -1828    -4364    -6382    -7669    -8385    -8840 
   -9169    -9439    -9643    -9703    -9598    -9309    -8847    -8333 
   -8066    -8439    -9536   -10993   -12362   -13373   -13987   -14482 
  -15304   -16642   -18415   -20528   -22955   -25754   -28894   -32125 
  -35168   -37784   -39785   -41231   -42415   -43596   -44924   -46338 
  -47458   -47928   -47698   -46866   -45487   -43582   -41156   -38209 
  -34844   -31247   -27655   -24423   -21900   -20158   -18957   -17910 
  -16676   -15180   -13563   -11883   -10209    -8663    -7187    -5641 
   -4004    -2372     -918      219     1052     1618     1935     2140 
    2434     2895     3491     4290     5424     6918     8671    10494 
   12208    13630    14650    15364    15816    15895    15624    15320 
   15348    15800    16569    17473    18188    18489    18452    18293 
   18120    17843    17458    17204    17309    17841    18680    19664 
   20641    21471    22260    23151    24033    24760    25201    25240 
   24840    23995    22910    21992    21594    21881    22663    23437 
   23707    23233    21961    19972    17577    15058    12499     9785 
    6580     2802    -1254    -5232    -8833   -11937   -14479   -16456 
  -18091   -19641   -21304   -23188   -25298   -27586   -29885   -32055 
  -34026   -35699   -36999   -37971   -38854   -39915   -41211   -42641 
  -43978   -44865   -45121   -44806   -44017   -42986   -41991   -41100 
  -40271   -39447   -38518   -37377   -36111   -34982   -34185   -33836 
  -33864   -33975   -33975   -33860   -33620   -33222   -32836   -32695 
  -32843   -33251   -33766   -34259   -34828   -35420   -35848   -36045 
  -35846   -35234   -34559   -34048   -33671   -33219   -32429   -31292 
  -29826   -28071   -26248   -24431   -22640   -21020   -19629   -18460 
  -17489   -16624   -15811   -15076   -14434   -13811   -12994   -11702 
   -9763    -7233    -4329    -1268     1735     4447     6832     9069 
   11183    13049    14663    16031    17108    17948    18656    19283 
   19802    20165    20366    20450    20540    20637    20671    20698 
   20644    20476    20319    20069    19661    19184    18659    18187 
   17838    17623    17551    17524    17502    17572    17782    18122 
   18507    18704    18437    17604    16251    14565    12836    11234 
    9774     8337     6741     5035     3411     1975      766     -325 
   -1487    -2694    -3736    -4535    -5225    -6026    -7107    -8508 
  -10213   -12142   -14131   -16084   -17940   -19516   -20662   -21413 
  -21885   -22285   -22774   -23288   -23745   -24091   -24366   -24803 
  -25465   -26231   -27008   -27579   -27768   -27688   -27631   -27782 
  -28118   -28550   -28980   -29341   -29572   -29605   -29492   -29287 
  -28973   -28608   -28252   -27911   -27607   -27513   -27871   -28676 
  -29755   -31018   -32315   -33389   -34100   -34482   -34658   -34794 
  -34972   -35055   -34861   -34351   -33594   -32825   -32282   -31898 
  -31390   -30472   -29035   -27265   -25440   -23731   -22183   -20688 
  -19137   -17494   -15665   -13649   -11545    -9353    -7149    -5137 
   -3451    -2124    -1028       56     1270     2629     3985     5068 
    5824     6509     7396     8667    10355    12262    14181    16008 
   17705    19309    20885    22465    23951    25189    26111    26680 
   26882    26784    26513    26248    26037    25723    25186    24428 
   23483    22431    21488    20948    20884    21065    21185    21067 
   20849    20785    20886    21062    21290    21488    21550    21493 
   21374    21228    21045    20767    20441    20072    19539    18908 
   18339    17858    17440    16961    16193    15058    13638    12038 
   10388     8778     7194     5568     3853     2082      341    -1362 
   -3149    -5066    -7068    -9166   -11214   -12914   -14136   -14909 
  -15229   -15115   -14762   -14458   -14514   -15057   -15867   -16756 
  -17665   -18445   -18966   -19207   -19244   -19132   -18834   -18356 
  -17678   -16816   -15886   -14918   -14029   -13419   -13197   -13512 
  -14291   -15090   -15741   -16225   -16184   -15603   -15025   -14746 
  -14825   -15251   -15868   -16545   -17187   -17851   -18820   -20208 
  -21853   -23517   -25094   -26661   -28138   -29286   -30038   -30379 
  -30379   -30235   -29985   -29601   -29140   -28623   -28074   -27526 
  -27017   -26612   -26330   -26090   -25845   -25743   -25892   -26083 
  -26081   -25849   -25356   -24594   -23735   -22915   -22106   -21300 
  -20450   -19404   -18182   -16951   -15793   -14834   -14276   -14177 
  -14408   -14698   -14780   -14528   -13970   -13281   -12652   -12101 
  -11540   -10963   -10402    -9850    -9322    -8804    -8229    -7540 
   -6769    -6037    -5413    -4911    -4556    -4325    -4183    -4182 
   -4412    -4927    -5673    -6505    -7281    -7855    -8149    -8308 
   -8564    -8967    -9348    -9524    -9404    -8951    -8291    -7697 
   -7305    -7110    -7035    -6961    -6884    -6890    -7042    -7353 
   -7730    -8008    -8145    -8325    -8792    -9594   -10582   -11551 
  -12305   -12767   -13027   -13266   -13656   -14213   -14776   -15257 
  -15699   -16088   -16452   -16940   -17578   -18275   -18940   -19447 
  -19809   -20186   -20610   -21029   -21441   -21833   -22125   -22197 
  -21926   -21212   -19998   -18313   -16304   -14171   -12124   -10303 
   -8707    -7295    -6022    -4824    -3675    -2653    -2009    -1960 
   -2466    -3308    -4166    -4838    -5345    -5758    -6184    -6757 
   -7498    -8360    -9324   -10373   -11456   -12491   -13414   -14230 
  -14971   -15622   -16159   -16599   -16967   -17274   -17512   -17686 
  -17784   -17757   -17625   -17461   -17292   -17065   -16721   -16236 
  -15533   -14532   -13245   -11690    -9893    -7902    -5785    -3680 
   -1685      202     1987     3612     5029     6311     7533     8756 
   10101    11542    12914    14087    14974    15607    16067    16381 
   16613    16891    17266    17659    17934    17923    17493    16655 
   15482    14066    12554    11030     9498     8051     6809     5845 
    5236     5035     5205     5558     5804     5776     5476     5034 
    4641     4368     4235     4341     4674     5083     5529     5965 
