Origin Time       2016/04/16 01:25:00
Lat.              32.753
Long.             130.762
Depth. (km)       12
Mag.              7.3
Station Code      KGS014
Station Lat.      31.4960
Station Long.     130.6999
Station Height(m) 3
Record Time       2016/04/16 01:25:32
Sampling Freq(Hz) 100Hz
Duration Time(s)  204
Dir.              E-W
Scale Factor      3920(gal)/6182761
Max. Acc. (gal)   6.863
Last Correction   2016/04/16 01:25:33
Memo.             
[...]
    -681    -1136    -1482    -1593    -1419    -1009     -635     -586 
    -958    -1598    -2138    -2318    -2196    -1996    -1946    -2134 
   -2433    -2630    -2655    -2637    -2701    -2863    -3112    -3395 
   -3638    -3820    -3953    -4099    -4332    -4636    -4930    -5128 
   -5164    -5035    -4793    -4565    -4493    -4533    -4558    -4528 
   -4384    -4103    -3767    -3427    -3084    -2725    -2333    -1998 
   -1831    -1839    -1979    -2129    -2126    -1963    -1732    -1502 
   -1378    -1454    -1659    -1837    -1955    -2049    -2115    -2203 
   -2353    -2528    -2745    -2983    -3158    -3369    -3748    -4210 
   -4603    -4787    -4603    -4001    -3112    -2212    -1536    -1125 
    -853     -500      135     1069     2113     2912     3148     2834 
    2253     1665     1175      725      217     -382    -1007    -1466 
   -1613    -1483    -1213    -1031    -1118    -1420    -1786    -2014 
   -1913    -1500     -962     -525     -347     -419     -604     -729 
    -722     -625     -534     -531     -510     -264      155      555 
     844      880      643      387      262      302      484      644 
     710      716      725      903     1292     1743     2184     2604 
    2953     3253     3487     3553     3453     3225     2871     2457 
    2105     1862     1596     1141      474     -256     -770     -874 
    -588      -63      424      623      547      345      140       68 
     176      316      333      200        4      -90       -4      217 
     572     1057     1569     2046     2529     3042     3547     3959 
    4124     3912     3384     2782     2368     2181     1995     1630 
    1097      471     -158     -677    -1028    -1301    -1657    -2132 
   -2651    -3135    -3509    -3733    -3819    -3839    -3911    -4116 
   -4442    -4799    -5042    -5060    -4870    -4595    -4314    -3997 
   -3593    -3025    -2244    -1379     -612      -44      306      511 
     591      529      424      276      -37     -502    -1051    -1634 
   -2147    -2532    -2796    -2962    -3077    -3151    -3173    -3144 
   -2968    -2606    -2187    -1812    -1561    -1546    -1719    -1933 
   -2099    -2169    -2187    -2231    -2273    -2297    -2342    -2409 
   -2499    -2615    -2723    -2824    -2928    -3014    -3047    -3005 
   -2981    -3181    -3708    -4438    -5120    -5550    -5683    -5604 
   -5418    -5190    -5010    -4946    -4874    -4619    -4159    -3568 
   -2984    -2529    -2222    -2026    -1873    -1660    -1324     -905 
    -488     -125      236      735     1392     1988     2296     2277 
    2044     1814     1745     1787     1783     1637     1392     1134 
     898      685      487      300      122      -49     -163     -167 
     -47      194      443      554      502      380      332      441 
     730     1153     1548     1773     1784     1624     1447     1349 
    1285     1275     1418     1748     2184     2551     2698     2565 
    2221     1853     1600     1474     1522     1829     2324     2794 
    3134     3309     3240     2928     2486     2042     1701     1491 
    1400     1461     1672     1932     2107     2094     1898     1667 
    1570     1708     2159     2886     3634     4123     4205     3829 
    3061     2091     1079       97     -800    -1567    -2182    -2631 
   -2939    -3177    -3473    -3961    -4647    -5397    -6065    -6510 
   -6631    -6485    -6243    -6092    -6143    -6280    -6272    -6009 
   -5497    -4845    -4246    -3783    -3416    -3145    -2967    -2805 
   -2614    -2427    -2277    -2155    -2032    -1908    -1798    -1705 
   -1677    -1805    -2111    -2467    -2659    -2569    -2257    -1905 
   -1719    -1792    -2042    -2293    -2423    -2490    -2650    -2960 
   -3403    -3943    -4505    -5034    -5499    -5918    -6365    -6817 
   -7157    -7315    -7254    -6977    -6520    -5933    -5295    -4639 
   -3953    -3289    -2719    -2253    -1855    -1491    -1146     -817 
    -503     -185      116      323      406      378      265      111 
     -56     -216     -406     -734    -1237    -1801    -2223    -2374 
   -2311    -2183    -2077    -2005    -1942    -1831    -1633    -1392 
   -1159     -855     -390      209      913     1674     2307     2609 
    2513     2084     1474      880      461      301      388      650 
     976     1214     1296     1340     1519     1854     2191     2437 
    2630     2783     2890     2933     2785     2332     1572      601 
    -295     -816     -918     -710     -413     -339     -525     -712 
    -768     -691     -480     -149      342     1010     1796     2639 
    3362     3757     3820     3623     3239     2886     2765     2845 
    2993     3066     2909     2517     2025     1527     1148      997 
     998      998      916      770      659      605      512      301 
    -132     -841    -1669    -2380    -2823    -2933    -2808    -2650 
   -2549    -2523    -2550    -2486    -2255    -2004    -1864    -1796 
   -1761    -1802    -1981    -2293    -2617    -2859    -2993    -2983 
   -2857    -2679    -2462    -2197    -1874    -1573    -1411    -1345 
   -1286    -1205    -1031     -777     -586     -520     -565     -709 
    -878     -988    -1067    -1200    -1423    -1726    -2060    -2363 
   -2598    -2740    -2796    -2834    -2914    -3071    -3310    -3556 
   -3684    -3571    -3201    -2709    -2223    -1826    -1623    -1606 
   -1642    -1684    -1769    -1948    -2308    -2847    -3403    -3856 
   -4180    -4326    -4267    -4064    -3824    -3661    -3630    -3687 
   -3673    -3413    -2883    -2159    -1307     -400      507     1376 
    2140     2724     3076     3204     3203     3202     3298     3531 
    3849     4126     4257     4227     4132     4093     4135     4221 
    4332     4408     4352     4135     3805     3452     3164     2980 
    2853     2676     2395     1963     1366      708      118     -319 
    -650     -998    -1345    -1608    -1744    -1771    -1793    -1892 
   -2082    -2326    -2507    -2534    -2359    -1977    -1504    -1072 
    -747     -567     -526     -594     -761     -995    -1166    -1209 
   -1221    -1232    -1202    -1107     -993     -994    -1122    -1293 
   -1509    -1751    -1908    -1920    -1817    -1655    -1455    -1219 
   -1022     -937     -971    -1153    -1480    -1814    -2064    -2301 
   -2553    -2803    -3077    -3366    -3638    -3880    -4085    -4283 
   -4516    -4806    -5115    -5332    -5408    -5369    -5218    -5030 
   -4927    -4902    -4872    -4793    -4630    -4365    -4006    -3531 
   -2913    -2180    -1371     -536      234      833     1166     1229 
    1162     1074      980      879      670      219     -481    -1375 
   -2328    -3136    -3684    -3957    -4013    -3980    -3891    -3602 
   -2945    -1943     -814      229     1075     1653     1967     2187 
    2450     2699     2784     2590     2112     1459      798      271 
    -109     -472     -932    -1493    -2047    -2418    -2462    -2158 
   -1554     -734      120      820     1336     1754     2084     2262 
    2327     2436     2707     3126     3591     3970     4149     4083 
    3817     3459     3172     3140     3456     4066     4795     5424 
    5824     5953     5727     5172     4492     3851     3297     2779 
    2190     1572     1060      689      429      179     -199     -706 
   -1214    -1572    -1684    -1588    -1432    -1334    -1381    -1651 
   -2066    -2438    -2675    -2732    -2591    -2356    -2131    -1904 
   -1625    -1252     -767     -234      219      441      329       -5 
    -361     -629     -681     -462     -129      108       80     -348 
   -1175    -2257    -3364    -4228    -4712    -4844    -4604    -3944 
   -2990    -1941     -919      -95      353      394      115     -280 
    -539     -570     -404     -102      218      475      632      595 
     253     -409    -1237    -1924    -2217    -2099    -1752    -1445 
   -1389    -1637    -2108    -2678    -3274    -3958    -4814    -5803 
   -6786    -7553    -7884    -7740    -7267    -6672    -6150    -5780 
   -5524    -5323    -5150    -5025    -4913    -4702    -4297    -3602 
   -2594    -1416     -270      602     1062     1241     1340     1480 
    1746     2109     2522     3046     3702     4364     4860     5076 
    4894     4196     3105     1991     1201      860      866     1041 
    1183     1091      717      171     -379     -746     -813     -549 
      48      904     1818     2560     2912     2707     1985      993 
      25     -717    -1160    -1303    -1178     -803     -143      793 
    1856     2725     3054     2771     2128     1495     1181     1235 
    1381     1243      677     -157     -967    -1480    -1577    -1334 
    -891     -386      101      650     1390     2269     3069     3588 
    3710     3457     3044     2759     2714     2824     2916     2774 
    2279     1565      907      477      214      -68     -502    -1103 
   -1781    -2365    -2669    -2621    -2323    -1937    -1580    -1446 
   -1792    -2692    -3954    -5211    -6036    -6093    -5314    -3954 
   -2461    -1285     -713     -787    -1258    -1680    -1715    -1286 
    -511      362     1024     1229      961      437      -49     -257 
    -106      362     1088     2051     3237     4545     5724     6463 
    6542     6024     5179     4278     3597     3199     2761     1978 
     771     -808    -2444    -3798    -4839    -5634    -6319    -7165 
   -8246    -9337   -10078   -10020    -8960    -7108    -4870    -2716 
    -959      375     1328     1897     2118     2005     1509      624 
    -522    -1688    -2711    -3589    -4368    -5131    -5920    -6601 
   -7032    -7167    -6904    -6162    -5054    -3861    -2926    -2385 
   -2100    -1938    -1802    -1677    -1778    -2258    -2976    -3659 
   -4047    -4048    -3806    -3530    -3301    -3058    -2686    -2119 
   -1434     -845     -528     -453     -442     -348     -169       32 
     266      556      851     1055     1106     1031      966     1035 
    1215     1392     1433     1151      521     -287    -1223    -2371 
   -3777    -5428    -7205    -8824    -9881   -10042    -9277    -7888 
   -6286    -4889    -3964    -3341    -2613    -1579     -244     1186 
    2268     2647     2221     1113     -244    -1286    -1656    -1348 
    -611      232      967     1569     2102     2631     3208     3804 
    4298     4550     4489     4165     3725     3215     2500     1487 
     187    -1329    -2779    -3851    -4457    -4615    -4496    -4450 
   -4720    -5371    -6319    -7302    -8056    -8521    -8794    -9011 
   -9281    -9549    -9627    -9354    -8573    -7268    -5697    -4182 
   -3041    -2443    -2244    -2216    -2159    -1978    -1812    -1873 
   -2270    -2948    -3693    -4319    -4802    -5241    -5694    -6143 
   -6562    -6816    -6627    -5808    -4414    -2740    -1254     -329 
     -76     -449    -1257    -2158    -2881    -3325    -3450    -3261 
   -2783    -2050    -1138     -142      834     1716     2531     3415 
    4468     5576     6490     6985     6941     6411     5520     4445 
    3467     2755     2275     1965     1763     1627     1601     1723 
    1975     2338     2710     2886     2656     1889      731     -382 
   -1098    -1334    -1220    -1075    -1164    -1445    -1638    -1445 
    -788       80      719      725       25    -1066    -2101    -2781 
   -3103    -3287    -3530    -3903    -4362    -4743    -4860    -4619 
   -3995    -3096    -2209    -1512     -913     -274      446     1227 
    1952     2456     2720     2813     2819     2896     3066     3180 
    3125     2827     2329     1861     1677     1956     2716     3724 
    4680     5322     5466     5169     4665     4176     3858     3678 
    3465     3115     2628     2104     1708     1532     1582     1799 
    2112     2538     3116     3807     4538     5232     5813     6245 
    6518     6636     6572     6258     5694     4958     4160     3430 
    2827     2303     1801     1273      711      162     -317     -696 
   -1016    -1351    -1716    -2051    -2269    -2340    -2322    -2304 
   -2323    -2312    -2138    -1625     -592      956     2766     4512 
    5888     6675     6843     6509     5804     4814     3634     2374 
    1160      157     -557    -1031    -1399    -1908    -2751    -3981 
   -5518    -7069    -8310    -9103    -9436    -9389    -9144    -8837 
   -8461    -8003    -7520    -7087    -6697    -6227    -5625    -4905 
   -4019    -2966    -1816     -702      106      323     -219    -1516 
   -3312    -5155    -6602    -7368    -7461    -7149    -6619    -5953 
   -5286    -4667    -4015    -3297    -2544    -1755     -953     -234 
     363      848     1221     1510     1770     2114     2652     3343 
    4070     4742     5293     5726     6066     6281     6331     6131 
    5646     5040     4502     4056     3565     2816     1686      269 
   -1121    -2110    -2516    -2387    -1896    -1295     -787     -383 
       7      408      772     1069     1215     1100      771      305 
    -304    -1013    -1785    -2599    -3397    -4134    -4798    -5415 
   -5977    -6436    -6841    -7266    -7710    -8179    -8660    -9103 
   -9464    -9745   -10027   -10383   -10764   -11076   -11283   -11376 
  -11333   -11185   -11026   -10887   -10737   -10572   -10372   -10114 
   -9829    -9586    -9465    -9495    -9605    -9653    -9532    -9262 
   -8988    -8944    -9297    -9984   -10791   -11454   -11693   -11385 
  -10640    -9705    -8878    -8361    -8157    -8136    -8073    -7792 
   -7260    -6485    -5544    -4548    -3539    -2618    -1905    -1475 
   -1391    -1558    -1765    -1835    -1635    -1227     -791     -396 
     -72      163      397      713     1059     1343     1539     1630 
    1640     1671     1783     1924     2008     1984     1895     1809 
    1756     1760     1767     1696     1536     1266      930      653 
     514      631     1038     1536     1883     1912     1561      900 
     106     -618    -1130    -1349    -1290    -1079     -854     -702 
    -691     -888    -1301    -1825    -2271    -2456    -2287    -1842 
   -1291     -762     -383     -245     -324     -526     -733     -876 
    -931     -865     -674     -379      -23      266      335      118 
    -355    -1006    -1743    -2394    -2754    -2763    -2524    -2195 
   -1910    -1694    -1470    -1146     -691     -181      261      534 
     590      487      365      389      674     1218     1927     2659 
    3303     3825     4235     4560     4793     4906     4925     4871 
    4759     4655     4635     4706     4852     5107     5497     6031 
    6725     7473     8105     8523     8637     8378     7817     7078 
    6279     5543     4907     4318     3730     3093     2336     1478 
     656      -11     -479     -744     -874     -972    -1088    -1294 
   -1666    -2210    -2903    -3700    -4547    -5428    -6313    -7124 
   -7781    -8200    -8291    -8038    -7538    -6943    -6406    -5989 
   -5681    -5455    -5219    -4868    -4390    -3803    -3160    -2572 
   -2109    -1815    -1700    -1702    -1729    -1679    -1480    -1085 
    -419      529     1668     2848     3818     4352     4367     3900 
    3068     2044     1030      196     -379     -685     -842    -1054 
   -1448    -2093    -2957    -3806    -4334    -4303    -3607    -2379 
    -941      293      913      741     -112    -1376    -2678    -3668 
   -4185    -4240    -3938    -3412    -2809    -2347    -2234    -2509 
   -3097    -3846    -4459    -4710    -4613    -4296    -3974    -3912 
   -4219    -4829    -5568    -6226    -6700    -6947    -6908    -6577 
   -5988    -5188    -4275    -3429    -2780    -2354    -2153    -2068 
   -1897    -1530     -965     -296      296      637      638      344 
    -111     -617    -1064    -1339    -1421    -1391    -1362    -1469 
   -1789    -2286    -2862    -3375    -3638    -3487    -2925    -2154 
   -1409     -896     -787    -1091    -1670    -2324    -2831    -3057 
   -2984    -2662    -2182    -1622    -1065     -643     -496     -745 
   -1392    -2209    -2873    -3166    -3014    -2454    -1684     -989 
    -543     -383     -450     -598     -702     -693     -529     -242 
     140      617     1118     1587     2000     2266     2337     2301 
    2267     2349     2650     3148     3744     4367     4915     5310 
    5582     5782     5965     6183     6409     6583     6679     6699 
    6659     6526     6260     5834     5220     4499     3794     3160 
    2633     2202     1805     1421     1062      754      517      342 
     211       72     -188     -615    -1085    -1443    -1628    -1610 
   -1417    -1194    -1088    -1174    -1471    -1903    -2319    -2605 
   -2736    -2784    -2830    -2860    -2829    -2739    -2581    -2404 
   -2323    -2363    -2481    -2631    -2669    -2463    -2030    -1470 
    -930     -569     -441     -481     -570     -583     -432     -153 
      65       50     -251     -776    -1356    -1866    -2244    -2423 
   -2459    -2428    -2320    -2162    -1953    -1647    -1301    -1013 
    -808     -604     -247      349     1127     1964     2718     3278 
    3602     3682     3519     3164     2719     2306     2028     1954 
    2102     2385     2642     2775     2756     2584     2306     1979 
    1590     1125      598       58     -405     -737     -934    -1043 
   -1108    -1109    -1055     -968     -834     -746     -763     -771 
    -700     -517     -183      212      542      724      647      292 
    -257     -913    -1554    -2089    -2537    -2921    -3217    -3413 
   -3512    -3519    -3431    -3237    -2933    -2525    -2019    -1425 
    -788     -154      496     1169     1805     2350     2726     2835 
    2711     2460     2198     2066     2050     1992     1815     1458 
     857       62     -817    -1657    -2358    -2927    -3387    -3746 
   -4024    -4158    -4055    -3697    -3112    -2359    -1531     -689 
     159      990     1768     2496     3168     3728     4132     4405 
    4593     4719     4810     4888     4933     4898     4752     4450 
    3918     3143     2254     1444      818      413      236      210 
     271      417      607      833     1132     1450     1704     1868 
    1959     2054     2237     2527     2878     3200     3388     3342 
    3022     2502     1955     1555     1373     1344     1272      993 
     501     -112     -706    -1158    -1409    -1503    -1581    -1713 
   -1856    -1967    -1990    -1872    -1661    -1486    -1449    -1574 
   -1846    -2221    -2597    -2875    -3048    -3169    -3287    -3467 
   -3706    -3922    -4090    -4212    -4257    -4273    -4298    -4267 
   -4118    -3733    -3065    -2309    -1579     -909     -439     -160 
      53      262      547      901     1218     1446     1565     1581 
    1554     1538     1556     1568     1512     1418     1345     1302 
    1275     1192      962      591      154     -254     -537     -709 
    -808     -810     -771     -753     -668     -431      -53      391 
     766      986     1041      915      649      352       49     -295 
    -701    -1220    -1863    -2595    -3372    -4075    -4622    -5014 
   -5256    -5383    -5441    -5442    -5412    -5339    -5199    -5031 
