Origin Time       2016/04/16 01:25:00
Lat.              32.753
Long.             130.762
Depth. (km)       12
Mag.              7.3
Station Code      KGS036
Station Lat.      31.8360
Station Long.     129.8678
Station Height(m) 6
Record Time       2016/04/16 01:25:29
Sampling Freq(Hz) 100Hz
Duration Time(s)  128
Dir.              E-W
Scale Factor      3920(gal)/6182761
Max. Acc. (gal)   49.152
Last Correction   2016/04/16 01:25:29
Memo.             
[...]
   -1293    -3647    -6171    -8157    -9447    -9897    -9358    -8072 
   -6592    -5488    -4907    -4543    -4250    -4321    -4898    -5507 
   -5701    -5768    -6195    -6964    -7613    -7488    -6293    -4738 
   -4130    -5056    -6628    -7574    -7522    -6530    -4883    -3448 
   -2599    -1934    -1645    -2104    -2555    -2155    -1054      292 
    1352     1294     -305    -2925    -5468    -6919    -6970    -6110 
   -5042    -4506    -5412    -8044   -11395   -14210   -15842   -15908 
  -14631   -12905   -11290    -9935    -8890    -7822    -6136    -3662 
    -954     1185     2297     2396     1722      683     -172     -423 
     316     2037     3808     4866     5409     5835     6207     5975 
    4620     2570      148    -2692    -5233    -6957    -8110    -8679 
   -8666    -8224    -7220    -5747    -4418    -3939    -4492    -5640 
   -6949    -8222    -9362   -10240   -10548   -10098    -9064    -7941 
   -7297    -7262    -7710    -8482    -9114    -9157    -8737    -8390 
   -8235    -7680    -6285    -4256    -2091     -232     1227     2477 
    3387     3416     2718     2383     2886     3668     4383     5051 
    5412     5216     4497     3168     1032    -1818    -4945    -7888 
  -10415   -12505   -14228   -15432   -15704   -15031   -13819   -12269 
  -10533    -9059    -8127    -7524    -7096    -6981    -6989    -6608 
   -5683    -4451    -3157    -1841     -377     1109     1983     1581 
     104    -1399    -2468    -3697    -5367    -6969    -7737    -6980 
   -4961    -2764     -828      862     1971     2359     2168     1419 
     420     -422    -1340    -2560    -3605    -4198    -4675    -5178 
   -5621    -6279    -7216    -7893    -8381    -9569   -11645   -13789 
  -15084   -14937   -13483   -11616    -9924    -8191    -6173    -4054 
   -2061     -284      943     1186      650      143      304     1088 
    2035     2856     3469     3847     3920     3510     2585     1391 
      56    -1677    -3835    -5856    -7287    -8112    -8443    -8369 
   -7909    -6995    -5741    -4752    -4635    -5259    -6174    -7283 
   -8442    -9261    -9924   -11098   -12699   -13815   -13904   -13144 
  -11767    -9879    -7723    -5654    -3738    -1747       22     1119 
    2067     3345     4261     4093     3017     1412     -514    -2458 
   -4210    -5740    -7041    -8060    -8362    -7614    -6415    -5487 
   -4815    -4023    -2739    -1036      412     1039      693     -470 
   -2024    -3737    -5635    -7495    -8915    -9735    -9992    -9745 
   -9177    -8528    -7743    -6483    -4860    -3761    -3956    -5539 
   -8094   -10819   -13092   -14730   -15342   -14223   -11321    -7575 
   -3945     -822     1555     2842     3022     2680     2094      941 
    -661    -2183    -3361    -3987    -3740    -2513     -715      928 
    1978     2558     2835     2496     1177    -1189    -4373    -7552 
   -9749   -10689   -10695    -9995    -8576    -6757    -5165    -3890 
   -2658    -1551     -815     -537     -779    -1759    -3883    -7241 
  -10938   -13597   -14561   -13914   -11968    -9649    -8197    -7690 
   -7061    -5553    -3353    -1190      563     2113     3286     3455 
    2707     1798      928     -110    -1020    -1599    -2154    -2743 
   -3034    -2699    -1716     -663     -228     -367     -729    -1626 
   -3615    -6334    -8646    -9778    -9787    -9366    -9246    -9403 
   -9355    -9094    -8920    -8661    -7896    -6693    -5452    -4312 
   -3362    -2763    -2437    -2295    -2183    -1612     -582      230 
     500      207     -796    -2250    -3529    -4372    -4844    -5217 
   -6050    -7237    -7632    -6520    -4391    -2060       67     1885 
    3104     3208     2016      -56    -2287    -4092    -5314    -6112 
   -6819    -7730    -8647    -8912    -8112    -6547    -4989    -4140 
   -4176    -4769    -5874    -7925   -10704   -12993   -13678   -12577 
  -10446    -8277    -6501    -5090    -3928    -2773    -1504     -483 
     -49      104      498     1203     2086     3068     3824     4053 
    3856     3125     1352    -1479    -4522    -7085    -9260   -11032 
  -12070   -12590   -12891   -12489   -10907    -8481    -5896    -3718 
   -2421    -2337    -3509    -5706    -8299   -10360   -11444   -11752 
  -11440   -10572    -9348    -7681    -5306    -2771    -1074     -226 
     207      123     -332     -601     -457      125     1201     2615 
    3834     4315     4150     3846     3497     2647      951    -1203 
   -3046    -4293    -5103    -5623    -6146    -6826    -7256    -7349 
   -7803    -8792    -9588    -9727    -9141    -7762    -5904    -4097 
   -2593    -1846    -2258    -3201    -4001    -4983    -6147    -6561 
   -5968    -5376    -5419    -5337    -4203    -2326     -767     -124 
    -529    -2034    -4114    -5923    -7351    -8746   -10026   -10770 
  -10725    -9803    -7770    -4748    -1668      875     3240     5555 
    7470     8926     9888    10054     9327     7655     4730      607 
   -4105    -8899   -13275   -16460   -18209   -18972   -19047   -18528 
  -17653   -16471   -14780   -12984   -11888   -11256   -10025    -7785 
   -4970    -2221       10     1685     3086     4366     5464     6451 
    7416     7962     7582     6510     5321     4250     3371     2553 
    1623      759        6     -924    -2122    -3469    -4912    -6417 
   -7796    -8700    -9100    -9559   -10422   -11290   -11655   -11440 
  -10876   -10031    -8750    -7138    -5589    -4449    -3848    -3796 
   -4353    -5426    -6808    -8310    -9512   -10045    -9930    -9267 
   -8247    -7151    -5898    -4336    -2737    -1357     -375     -134 
    -187      855     3299     5735     7079     7519     7428     6773 
    5407     3319      686    -2063    -4210    -5414    -6254    -7321 
   -8482    -9658   -11197   -12985   -14176   -14210   -13467   -12787 
  -12724   -13010   -12728   -11278    -8716    -5505    -2604     -853 
      81      970     1502      872     -688    -2315    -3655    -4606 
   -4784    -4087    -3201    -2692    -2406    -2318    -2707    -3612 
   -5046    -6903    -8563    -9667   -10531   -11173   -10937    -9469 
   -7288    -5061    -2971     -831     1636     4469     7432    10305 
   12688    13823    13312    11451     8632     5204     1587    -2022 
   -5499    -8381   -10376   -11951   -13407   -14136   -13855   -13426 
  -13531   -13785   -13636   -12940   -11600    -9747    -7947    -6527 
   -5444    -4858    -4896    -5055    -4562    -3076     -818     1740 
    4414     7142     9048     8946     6847     3835     1005     -968 
   -1995    -2547    -3159    -4144    -5668    -7540    -9182   -10174 
  -10492   -10211    -9303    -7927    -6631    -6036    -6429    -7393 
   -8097    -8451    -9088    -9999   -10557   -10425    -9456    -7590 
   -5155    -2743     -753      800     1824     2052     1669     1115 
     373     -705    -1957    -2983    -3175    -2232     -653     1067 
    2831     4046     3637     1303    -2083    -5531    -8792   -11910 
  -14502   -15789   -15468   -14268   -13076   -11976   -10529    -8678 
   -6981    -5943    -5712    -6287    -7312    -8095    -8085    -7031 
   -5052    -2689     -544      972     1696     1805     1459      655 
     -24      421     1940     3255     3326     2153      260    -1833 
   -3733    -5327    -6719    -7840    -8345    -8150    -7607    -6741 
   -5192    -3049     -804     1126     2302     2456     1783      498 
   -1320    -3221    -4527    -5063    -5159    -5092    -4963    -4697 
   -4036    -3129    -2678    -3165    -4572    -6732    -9427   -12260 
  -14512   -15255   -14267   -12498   -10689    -8556    -5961    -3349 
   -1092      530     1329     1538     1676     1964     2136     2059 
    1976     2114     2638     3703     5139     6207     6029     4455 
    2193       41    -1884    -3940    -5914    -7114    -7780    -8984 
  -11079   -13506   -15659   -17127   -17764   -17717   -16905   -15048 
  -12325    -9111    -5709    -2865    -1204     -655    -1059    -2026 
   -2716    -2770    -2466    -1821     -556     1231     3069     4512 
    5230     4995     3865     2173      242    -1583    -2958    -3733 
   -3718    -2828    -1561     -729     -903    -2154    -4203    -6948 
  -10349   -13846   -16591   -18100   -18411   -17856   -16561   -14134 
  -10341    -5884    -1977      600     1794     1977     1581      976 
     394      -69     -112      713     2386     4383     6079     6879 
    6433     5048     3457     1887       11    -1926    -3168    -3721 
   -4256    -4994    -5652    -6299    -7653    -9826   -11581   -12092 
  -12019   -12237   -12891   -13492   -13361   -12297   -10640    -8927 
   -7709    -7216    -7168    -7101    -6652    -5510    -3354     -247 
    3017     5510     6885     7174     6589     5611     4587     3532 
    2488     1534      625     -434    -1890    -3699    -5388    -6477 
   -7034    -7669    -8859   -10518   -12212   -13477   -13921   -13237 
  -11395    -8745    -5750    -2968    -1156     -852    -2006    -3990 
   -5660    -6012    -5006    -3422    -2047    -1219     -893     -858 
    -848     -725     -721    -1135    -1796    -2333    -2922    -4070 
   -5643    -7013    -7765    -7592    -6480    -4999    -3967    -3965 
   -4815    -5732    -6206    -6275    -6162    -5956    -5642    -5131 
   -4087    -2520    -1286     -885     -753     -427     -138     -284 
   -1311    -3419    -5907    -7707    -8319    -7672    -6046    -4257 
   -2852    -1613     -399      401      353     -677    -2488    -4424 
   -5650    -5996    -6055    -6361    -7075    -8065    -8861    -8980 
   -8310    -7112    -5872    -4834    -3759    -2485    -1288     -513 
    -385     -976    -2080    -3498    -4984    -5814    -5635    -5057 
   -4433    -3336    -1658     -139      523      244     -928    -2834 
   -4852    -6363    -7160    -7375    -7405    -7539    -7545    -7040 
   -6096    -5167    -4553    -4257    -4064    -3695    -3419    -3995 
   -5486    -7046    -7817    -7574    -6937    -6706    -6858    -6815 
   -6459    -6160    -5971    -5752    -5709    -5816    -5517    -4532 
   -3099    -1590     -385      375      952     1381     1096     -216 
   -1812    -2689    -2861    -3018    -3356    -3492    -3119    -2433 
   -2079    -2558    -3406    -3398    -2151     -858     -638    -1046 
   -1074     -628     -360     -766    -1754    -2888    -3779    -4192 
   -4199    -4128    -4226    -4577    -5158    -5780    -6068    -5736 
   -5047    -4666    -4990    -5927    -7007    -7663    -7679    -7252 
   -6530    -5334    -3804    -2819    -2870    -3394    -3818    -4200 
   -4690    -5084    -5167    -5210    -5616    -6274    -6547    -5877 
   -4472    -3176    -2495    -2172    -1795    -1472    -1637    -2322 
   -3183    -4059    -4833    -5032    -4178    -2675    -1561    -1198 
   -1243    -1598    -2593    -4565    -7217    -9635   -11324   -12482 
  -13186   -13345   -13215   -12985   -12386   -11105    -8913    -5815 
   -2372      980     4287     7091     8407     7935     6421     4876 
    3557     1992      116    -1453    -2111    -1854    -1255     -658 
     -62      404      676      692       90    -1550    -4303    -7672 
  -10913   -13419   -14778   -14974   -14277   -12914   -11056    -8718 
   -5917    -2999     -296     2195     4378     5825     6297     6072 
    5361     4129     2706     1452      120    -1513    -3128    -4389 
   -5418    -6399    -7081    -7379    -7682    -7881    -7500    -6982 
   -7247    -8282    -9192    -9216    -8349    -6923    -4867    -2167 
     669     3301     5629     7486     8867     9781     9894     8659 
    5466      110    -6450   -12499   -16907   -19329   -19757   -18546 
  -16157   -13029    -9791    -7033    -5196    -4485    -4516    -4587 
   -4497    -4622    -5145    -5868    -6547    -6970    -7047    -6596 
   -5185    -2767       90     2754     4837     6218     6911     6770 
    5302     1868    -3867   -11718   -20859   -29638   -35948   -38289 
  -36422   -31031   -22889   -12460     -989     9143    16561    21827 
   25905    28934    30391    30166    28845    26802    23883    19888 
   15318    11335     8540     6760     5833     5304     4008      970 
   -3778    -9740   -16374   -22674   -27514   -30521   -32020   -32572 
  -32681   -32279   -30943   -28877   -26796   -25024   -23292   -21365 
  -19437   -17874   -17028   -16790   -16511   -15841   -14680   -12945 
  -11122    -9957    -9859   -11031   -13377   -15987   -17464   -17006 
  -14391    -9317    -1736     7476    16874    25602    33446    39977 
   45051    48986    51477    52000    50364    46269    39907    32351 
   24807    18064    12300     7098     1687    -4384   -10797   -17272 
  -23963   -30661   -37025   -43457   -50486   -57807   -64556   -69893 
  -73330   -75132   -75967   -75933   -74310   -70101   -62520   -51138 
  -36342   -19614    -2667    12983    26116    36262    43319    47576 
   49996    51392    51822    50658    47402    42795    38522    35960 
   35342    35866    36499    36131    33260    26771    16753     3903 
  -10943   -26483   -41073   -53279   -62204   -67389   -68925   -67778 
  -65230   -62055   -58560   -54623   -49491   -42697   -34793   -26036 
  -16115    -5442     5264    15953    26306    34871    40793    45250 
   50195    56302    62091    65611    66148    63842    59451    54064 
   48152    41110    31991    21193    10058    -1026   -12178   -23141 
  -34359   -46832   -59999   -71504   -79020   -81687   -80103   -74980 
  -66652   -55883   -43672   -31132   -19831   -10686    -3308     3437 
   10445    17210    23050    28429    33637    38650    43779    48754 
   52611    54622    54806    53462    50047    43669    34438    22923 
    9055    -6986   -23673   -38820   -51008   -60158   -66423   -69354 
  -69250   -67411   -64447   -60407   -55449   -49350   -42018   -33863 
  -25441   -17522   -10179    -2949     3695     9432    15157    21574 
   28171    33780    37941    41348    44730    47563    48724    47656 
   43404    35543    25909    16534     8336     1200    -5531   -11401 
  -15738   -18584   -19836   -20151   -20838   -22385   -24862   -27678 
  -29206   -28868   -27615   -26202   -24547   -21853   -17859   -13611 
   -9740    -5809    -1585     2244     4007     2075    -3340   -10130 
  -16412   -21341   -24270   -25416   -25443   -23760   -19789   -14075 
   -7521    -1396     3190     6439     9450    12706    15684    17920 
   19519    20845    22282    24128    26447    28787    30416    31144 
   31451    31703    31609    30514    27859    23226    16261     6963 
   -3495   -12837   -19551   -23996   -27520   -31133   -35141   -39923 
  -45632   -50828   -53286   -51941   -46903   -38926   -29392   -19617 
  -10274    -1879     4965     9880    12895    14608    16015    17746 
   19456    20158    19145    16465    13109    10562     9185     8097 
    6517     3468    -2026    -9596   -17954   -25511   -30893   -33727 
  -33892   -31078   -25631   -18455   -10524    -3068     2813     6976 
    9951    11777    12308    12594    13813    15605    16867    16587 
   14350    10783     6607     1839    -4103   -11738   -20843   -30788 
  -40379   -47971   -53020   -56016   -57374   -57046   -54393   -49028 
  -41261   -31854   -21957   -12347    -3553     3504     8141    10626 
   12084    13612    15603    18003    20513    22588    24024    24825 
   24459    22899    21340    21007    22023    22824    21298    16646 
    9355      584    -8253   -16058   -21889   -24925   -25204   -23345 
  -19841   -15633   -11990    -9442    -8228    -9042   -12397   -18036 
  -24916   -31287   -35513   -37260   -37156   -35509   -32199   -27266 
  -20998   -14130    -7813    -2584     1987     6404    10835    15041 
   17899    17926    14787     9681     4540      480    -2903    -5548 
   -6166    -4247     -784     2649     4987     6250     6912     6879 
    5721     3762     1950      843      378      276      641     2055 
    4926     9318    15032    21531    27978    33125    36045    36732 
   35107    30575    22835    12270     -172   -12912   -24218   -33389 
  -40612   -45806   -48499   -48503   -46299   -42885   -39233   -35827 
  -32421   -28484   -24088   -19779   -15890   -12554    -9713    -7169 
   -5130    -3944    -3329    -2405     -488     1997     4170     6083 
    8060     9710    10600    10625     9792     8549     7277     5382 
    2317    -1431    -5377    -9580   -13699   -16709   -17812   -16762 
  -13561    -8700    -3195     1659     4657     5630     5303     4125 
    2274      265    -1420    -2863    -4545    -6760    -8649    -8539 
   -6113    -2653      537     2592     3174     2287      -63    -3559 
   -7429   -10439   -11497   -10665    -8471    -5386    -2586    -1028 
    -563    -1001    -2226    -3916    -6304    -9703   -13412   -16290 
  -17708   -17492   -15498   -11398    -5152     2131     8649    13351 
   16269    17720    17559    15510    12155     8694     5661     2733 
    -370    -3226    -4820    -4755    -3755    -2734    -2570    -3664 
   -5543    -8136   -11778   -16081   -20291   -23806   -26139   -27061 
  -26639   -25178   -22824   -18954   -12861    -5253     1589     5595 
    6908     7010     6093     3494     -278    -4262    -8210   -11807 
  -14291   -15018   -13848   -11112    -7545    -4128    -1539      -37 
     207     -701    -2199    -3882    -5938    -8077    -9042    -8133 
   -5960    -3482    -1043     1333     3126     3791     3351     2069 
     148    -2560    -6258   -10372   -13863   -16111   -17177   -17710 
  -18240   -18745   -19056   -18920   -17893   -15606   -11957    -7429 
   -2996      755     3915     6903     9999    12779    14810    16458 
   17798    18035    16589    13637     9590     4794     -348    -5587 
  -10919   -16209   -21264   -25705   -28633   -29325   -27676   -23758 
  -17803   -10513    -3098     3181     7774    10775    12441    13168 
   13205    12461    10860     8573     6310     5510     7629    12711 
   18923    23940    26372    25746    21902    14844     4993    -6408 
  -17484   -26953   -34642   -40370   -43309   -42712   -38519   -31265 
  -21827   -11417    -1224     8061    15614    20351    22164    21757 
   19400    14920     8476     1332    -4551    -8310   -10624   -12201 
  -12848   -12308   -11208   -10616   -11104   -12325   -13348   -13855 
  -14518   -15549   -16081   -15236   -12687    -8644    -3556     2118 
    7388    11146    13213    13961    13709    12798    11064     7459 
    1225    -7113   -16651   -26648   -36093   -43744   -48109   -48374 
  -45437   -40822   -35748   -30952   -26184   -20989   -15499    -9464 
   -2203     6133    14909    23748    31744    37728    41674    44362 
   46208    46775    45419    41985    36583    29812    21968    12266 
     570   -12018   -24040   -34103   -41459   -46256   -49426   -52111 
  -55018   -58258   -61143   -62680   -62342   -60043   -55847   -49407 
  -40256   -28467   -13761     3843    22055    37904    50453    60026 
   66687    70417    70836    67250    59681    49163    37696    26336 
   14203     1989    -8139   -16113   -22731   -28035   -31954   -34064 
  -34216   -33057   -31311   -29681   -28548   -27791   -27307   -27043 
  -26726   -25887   -24379   -22320   -19329   -14503    -6816     3494 
