Origin Time       2016/04/16 01:25:00
Lat.              32.753
Long.             130.762
Depth. (km)       12
Mag.              7.3
Station Code      KGS002
Station Lat.      32.0916
Station Long.     130.3519
Station Height(m) 12
Record Time       2016/04/16 01:25:21
Sampling Freq(Hz) 100Hz
Duration Time(s)  167
Dir.              E-W
Scale Factor      3920(gal)/6182761
Max. Acc. (gal)   66.779
Last Correction   2016/04/16 01:25:21
Memo.             
[...]
   17673    17686    17675    17664    17680    17683    17665    17673 
   17692    17681    17665    17672    17675    17667    17675    17685 
   17679    17674    17676    17672    17670    17676    17679    17677 
   17677    17679    17678    17671    17669    17677    17681    17680 
   17682    17673    17666    17677    17680    17670    17673    17682 
   17673    17668    17682    17685    17674    17677    17678    17665 
   17667    17683    17682    17675    17677    17674    17674    17686 
   17686    17668    17664    17681    17685    17673    17677    17684 
   17677    17680    17691    17689    17688    17696    17697    17706 
   17724    17722    17711    17721    17735    17731    17736    17749 
   17741    17730    17739    17746    17726    17704    17699    17689 
   17680    17686    17681    17661    17654    17641    17602    17574 
   17578    17572    17555    17580    17626    17636    17622    17609 
   17603    17620    17649    17670    17709    17759    17738    17652 
   17632    17699    17716    17661    17632    17618    17576    17583 
   17659    17686    17602    17476    17421    17516    17742    17967 
   18059    17992    17840    17710    17700    17799    17868    17812 
   17686    17574    17508    17531    17631    17615    17347    17048 
   17040    17288    17516    17560    17424    17258    17228    17322 
   17478    17713    17917    17876    17651    17560    17720    17931 
   18001    17957    17898    17892    18078    18526    18904    18709 
   18010    17501    17562    17817    17875    17800    17719    17598 
   17418    17235    17139    17286    17735    18127    18099    17870 
   17799    17918    18025    17829    17381    17244    17752    18356 
   18448    18408    18572    18349    17657    17345    17560    17520 
   17187    17220    17171    16393    15975    17036    18705    19522 
   19343    18943    18694    18629    18889    19108    18626    17736 
   17321    17469    17699    17713    17485    17486    17917    17927 
   17261    16837    16832    16593    16109    16012    16556    17220 
   17528    17739    17973    17705    17099    17235    18134    18418 
   17656    17090    17366    17525    17085    17042    17716    17994 
   17756    17971    18394    18212    17695    17346    17033    16493 
   15912    15513    14958    14308    14409    15400    16726    18139 
   19186    19411    19359    19895    20861    21160    20050    17976 
   15881    14649    15015    16325    16827    16429    16065    15193 
   14095    15150    18308    20309    19724    18290    17838    18497 
   19334    19653    19360    18664    18054    18135    19018    20168 
   20841    19928    17012    14744    16126    19155    19852    18770 
   18526    18274    16173    14317    15859    18938    19195    16945 
   15861    17027    18955    20078    19450    17729    16868    17833 
   19697    21018    21055    19264    16059    14372    16012    18249 
   18548    17858    16856    15253    14528    15875    17765    18832 
   19606    20075    19490    18772    19146    19171    17247    15141 
   15021    15831    16106    16927    19153    21154    20340    15950 
   11898    12874    16414    16914    14900    14182    15062    15572 
   15295    15778    17856    18931    16702    14994    17671    20709 
   19614    16982    16579    17463    16604    14127    13493    15792 
   18116    18362    17334    16881    17267    16355    13991    14030 
   17905    22249    24846    25790    24539    21516    18894    18011 
   18030    16721    13880    12099    12367    14215    17761    20816 
   19979    15602    11794    12694    18283    23721    24634    22269 
   20845    21092    21344    21899    22773    21651    18113    16059 
   16930    16298    13414    13216    16315    18592    18214    17009 
   16881    17064    16622    15999    15316    15842    18888    21809 
   21411    19094    18320    19493    20671    21175    20381    16725 
   11874    11221    16529    21266    18982    13688    12318    12612 
   11184    12550    18581    23924    25897    24855    20430    15922 
   16857    22251    25189    23005    19520    17284    15202    12478 
   10472    10399     9777     6136     3976     8707    17149    23274 
   25257    22840    17153    12260    11328    13531    16869    19791 
   19513    17106    18105    20757    18906    14892    14302    16523 
   18456    19699    20203    19051    17553    16725    14996    13121 
   13617    15845    17845    19685    21428    21053    18261    16411 
   16905    17827    19493    23379    26802    26319    23202    20356 
   17699    14183    12718    17130    22676    21054    15500    14997 
   18507    19569    17350    15228    15580    18751    22623    22022 
   16296    13435    16409    18709    18075    18572    21254    23544 
   24693    24991    22116    15265     9434     9796    14921    19785 
   23476    26938    26673    20932    15030    13543    15995    19728 
   20779    17244    12701    11089    12237    15860    21587    23446 
   17146    11105    14135    20331    21819    20652    18182    12448 
    7276     8957    17042    23421    21336    13854     7584     5118 
    7547    13238    16975    17765    19498    22155    22960    23085 
   23338    22083    21080    22390    22848    18864    13202    11717 
   13531    13590    12937    14478    15939    15124    14534    17743 
   22865    24219    21579    18604    16423    15307    14226    11849 
   11799    17046    21977    20073    14579    12551    13582    14100 
   15295    18298    20417    20082    18901    18293    17516    16419 
   16969    19449    21506    21373    19132    17275    18218    20093 
   20429    19988    18725    15868    14884    19927    27244    27993 
   20272    11696     9314    11450    12645    12769    14040    14958 
   15352    18555    23462    25403    24904    24070    20300    14929 
   15407    19133    15466     7283     5870    11946    19708    24907 
   25435    22975    19514    16421    16535    19718    23649    26023 
   23100    17169    16599    21409    23089    18257    12399    10570 
   10760    11347    15791    22487    22550    14779     9447    11186 
   14643    18945    26198    30341    25821    18493    15250    13794 
   10493     6534     3340     1508     3417    10590    19319    25463 
   30836    35233    32634    24484    20102    21232    21512    18025 
   13698    10941     9581    10286    13278    16266    17424    16184 
   12791     9842    10622    14417    16145    13764    12849    17258 
   21929    22162    20746    22042    26348    30244    30253    26409 
   21694    19768    20935    19773    14301    10171     9033     8690 
   11903    18453    21921    21598    21699    22610    22199    19428 
   15604    13750    15471    19731    22873    21452    18281    17880 
   17255    12683     8033     7165     7036     3567     -411     1398 
    8183    14065    17193    18170    18424    21292    27084    31892 
   32745    30553    27624    23665    17958    12581     9663     9016 
   10087    12616    14108    13133    14461    21718    30259    33353 
   29046    20854    13858    10712    12138    15945    18588    20708 
   23037    22298    18037    14239    13198    14502    17103    18892 
   18698    19623    23929    26896    23080    15374    11256    11473 
   10833     9082     9428    11254    12855    13676    14269    16962 
   20214    18655    13233    10593    12867    16580    19031    20445 
   20818    18631    14819    14747    21079    27121    25417    19241 
   15583    14670    15261    19171    24651    25378    19761    14208 
   14791    21097    28702    32114    27371    17001     8820     7400 
   10850    15383    18267    17978    15964    15968    19161    23313 
   26552    28256    27172    21609    12297     4094     2486     7116 
   12568    16690    20132    19458    13757    11486    17307    23510 
   22998    18838    17208    18584    19217    17678    15988    15761 
   16373    17012    17553    17582    17456    18447    20823    23051 
   22938    19664    14264     9913    10442    15488    20752    23449 
   24193    23907    21516    18333    18929    22477    22914    18954 
   15097    13834    13622    14216    16330    17871    17215    15775 
   15689    18166    22622    26063    24826    19698    15874    15283 
   16279    19250    23316    23172    16943    10073     7500     8718 
   10574    10767    10370    11902    14235    15084    16437    21204 
   27108    28464    24804    22516    24739    27876    29380    29980 
   29102    24821    17609     9782     3589     1702     4700     9392 
   12612    14017    15325    16678    16813    18178    21484    20633 
   14771    10482     9115     8676    10950    16102    19983    19574 
   15741    12687    14514    19676    23091    23113    20406    15581 
   12632    16339    24604    30078    28943    24286    21002    20453 
   21209    21220    18871    15116    12808    12678    12964    12973 
   13704    15195    16817    18632    19797    19528    19320    19803 
   19795    20413    23224    25634    24465    20882    17435    14552 
   13105    14713    16968    16236    14769    15567    16239    15687 
   16178    16483    14474    13071    15060    19209    24049    27662 
   27908    26292    24664    21927    18209    15638    15204    16017 
   15990    14601    14076    14540    13031     9942     9634    13912 
   19872    23794    24332    21936    18676    17920    19057    17388 
   12720     8791     6411     5960    10491    20525    29864    31652 
   27097    21941    18439    16915    17607    18142    16667    14530 
   11739     8877    10985    17857    20836    16883    12796    14040 
   18301    20330    19268    18197    18581    19194    19024    18535 
   18884    20534    22444    23232    22819    22367    22082    20296 
   17052    15309    16764    20306    23462    23903    21392    17540 
   14361    13561    15796    20411    24632    25124    22104    17878 
   14066    13383    16879    19894    18460    15218    13908    14753 
   16822    18887    19042    16457    12510    10216    11758    16615 
   23072    28521    28719    22256    14123     9616     8621     9116 
    9662     7551     1450    -4532    -4785      843     8389    15448 
   21303    24611    24547    22696    21328    20823    20678    20668 
   19675    17403    16989    20217    22942    21853    19847    19263 
   18912    19352    21221    22270    22040    22025    21518    20128 
   19837    21260    23242    25633    28449    30494    30515    29083 
   28999    31886    35635    38080    39303    38776    35982    32646 
   29459    25652    22993    22306    20218    15452    10822     7924 
    5678     2698     -717    -2872    -2651    -1284    -1776    -3792 
   -2737     2702     9099    14612    19991    24530    25351    22835 
   22574    26159    28252    27023    25809    24931    21961    17520 
   14598    14351    16391    19674    21961    22337    22224    23112 
   24456    23775    21013    17982    13430     7370     3895     4273 
    5910     7714    10252    12412    12632    11836    10335     7460 
    6773    11600    18475    23212    26145    28804    31744    35253 
   39714    45158    50049    51082    46954    40828    34910    28110 
   21288    16756    14553    13498    12261    10276     8444     8208 
   10686    14400    16078    15316    13914    12452     9451     2484 
   -7198   -14112   -16144   -16357   -16170   -12867    -4143     7504 
   16929    21947    22117    15573     3680    -7605   -14926   -19169 
  -21187   -21428   -20917   -19987   -18185   -15825   -13033    -7598 
    1702    10633    14946    17975    25720    38153    50928    60791 
   66554    68518    67211    62490    55125    47935    43420    41287 
   41098    44476    52478    64342    76993    86096    91655    96866 
  100509    98044    88138    73837    59640    49497    46418    50514 
   56848    58680    53156    41413    25732     9828    -1669    -6480 
   -5457     -837     4869     9582    13205    18128    25228    31303 
   33794    33043    29333    23901    19406    15740    11045     5808 
     750    -5371   -13091   -20557   -25079   -26363   -27919   -32232 
  -36888   -39433   -40498   -40225   -38562   -37664   -38537   -38632 
  -35840   -31500   -28127   -25590   -20385    -9493     7217    27876 
   48206    63613    72801    76446    75928    73626    70960    66810 
   58104    43695    28506    20012    20729    26477    30848    30225 
   24586    15426     5068    -3461    -7770    -7645    -5735    -5177 
   -6007    -6545    -6060    -4000    -1236     -410    -1256     -701 
    3013     9952    17013    18729    14727     9760     5607      286 
   -6973   -13455   -14697    -9013     1560    15357    31787    47776 
   57697    57576    47899    31696    11534    -8996   -24554   -32430 
  -33969   -30969   -22539    -7059    11584    24996    28636    24456 
   17100     9181      491    -8176   -15054   -19594   -21349   -20226 
  -15603    -4943     9858    20393    23667    26325    32914    41456 
   49625    54912    53950    48268    44177    45144    50357    58596 
   67302    72227    71666    65707    53944    38211    22386     8722 
   -3429   -15324   -24942   -29791   -32694   -37087   -40251   -36985 
  -25872    -8861    12471    36303    59212    79271    96496   110334 
  119779   123002   117209   101064    77014    53525    41165    41446 
   46242    48254    45414    38411    27656    14477     3801    -1226 
   -3939    -7710   -11204   -13382   -16470   -20053   -17922    -6009 
   11457    26883    36848    45313    58090    72597    80516    79762 
   75234    71051    66492    57486    43263    28902    18196    10716 
    5404       74    -8628   -20614   -31904   -39377   -43130   -45568 
  -46850   -40305   -19801     9707    38544    63135    81803    90035 
   86805    76027    61175    45656    33606    27010    25353    25607 
   23689    19714    16800    14699    11580     8740     8113     8971 
   10060    12587    17698    21909    19999    11535     -372   -14776 
  -32209   -49626   -60891   -62218   -54491   -41366   -28072   -19344 
  -14870   -10990    -6878    -3574    -1077       89    -1583    -6704 
  -12695   -15105   -13461   -10158    -4139     6167    18005    28663 
   39852    54747    72060    85119    88616    81877    66236    46479 
   30631    22732    20020    19336    20752    22529    20485    14593 
    9159     7141     8119    10094    11623    11824     8603      798 
   -7596   -10047    -3351     9989    22136    24763    14948    -4242 
  -24783   -37186   -37911   -28756   -12483     4910    18089    28424 
   37826    45141    50278    53582    55183    56980    59935    62192 
   62538    60508    53892    43241    34575    30042    24357    15853 
    9391     6708     5421     5587     8299    11864    15029    18694 
   21459    19773    13969     7935     2635    -4043   -12160   -19295 
  -23348   -24587   -26605   -32461   -39424   -41897   -38334   -31348 
  -23486   -16620   -12840   -12756   -14933   -17137   -16238   -10317 
   -2344     2496     3302     4444    10228    20232    30710    37992 
   39549    35762    30300    26132    23086    19873    16900    15600 
   15518    15046    13246     9262     4521     3699     8701    15739 
   21065    25640    31754    37956    41681    43850    46797    51601 
   57767    62594    64003    63318    61949    59336    55387    50672 
   44657    37108    30425    27189    26332    25739    26678    31035 
   36764    39458    35920    26061    13444     2484    -4802    -8615 
  -10150    -9855    -6899    -1714     4939    14502    26040    33737 
   33965    29413    24351    19628    14099     9116     6245     2503 
   -4686   -12003   -15032   -13103    -7552        3     7067    11438 
   13402    14963    16864    17743    17384    17763    18974    19251 
   18319    16421    13774    12523    15776    24329    35497    46013 
   54809    60659    60042    51857    41704    36018    34075    31435 
   27590    24159    21259    20257    23588    30817    39631    48410 
   55453    59035    59563    58667    56106    50718    43017    33739 
   22773    11751     4052     1178     1234      238    -4803   -13139 
  -21714   -27514   -28800   -27676   -28371   -31436   -34306   -35423 
  -33723   -27756   -18360    -9554    -4221     -802     3582     9480 
   15795    21316    25985    30893    34964    35425    32951    30279 
   27164    22118    17259    17165    22903    31881    42223    52270 
   60105    65658    68947    67950    61140    50790    41910    36842 
   32935    27197    19877    12636     6800     3477     3720     7802 
   14321    21716    28894    32862    30258    21440     9949     -226 
   -6686    -9940   -11447   -10842    -7254    -1427     5125    11131 
   15775    18954    19587    14846     5174    -3172    -5574    -4429 
   -3519    -2767     -618     2907     6182     7947     9286    12405 
   17637    22519    24399    23325    20653    17288    14863    14820 
   15955    15820    13801    11155     9102     7996     7632     7908 
    9377    11748    12184     7958      231    -6403    -7738    -3144 
    4649    11281    12530     7779      912    -4004    -5551    -4244 
   -2012    -1502    -3651    -5888    -4249     1685     7137     7687 
    5078     4482     8695    17836    30126    40927    45296    42461 
   36300    31593    30256    31395    33251    33741    31165    25410 
   18414    13949    14899    20534    28027    34505    38220    39978 
   41849    44482    46698    46649    43099    36742    30718    27978 
   28286    29746    31044    31132    29601    26846    22807    18190 
   15763    16324    16278    12366     5529     -488    -2452     -427 
    3546     9388    18066    27798    35354    40142    44023    48076 
   50988    50442    46873    43793    42650    41547    39261    36514 
   34522    33504    33060    34508    39124    44621    47403    46146 
   41996    37186    32610    27155    20583    15239    14233    18512 
   25483    31341    34934    37521    39023    37780    34189    30552 
   27544    24860    24665    30237    40731    50637    55067    52336 
   42400    27683    13438     3415    -2081    -3224      289     6569 
   10684     8834     2584    -2618    -2451     2470     7174     7567 
    4392      994     -685      280     4513     9757    11875     9562 
    4972      767    -2162    -4094    -4093    -1591     1085     1896 
    1540     1537     2821     5021     6432     5129      139    -7085 
  -13767   -18596   -21042   -19923   -14540    -6691     -727      711 
    -491    -1331     -996     -317      394     1940     4042     5552 
    6605     7243     7048     7307    10151    16217    23935    30687 
   35193    37873    38966    37906    34693    30667    26655    22132 
   18485    19213    24135    28523    29914    30507    31510    30886 
   28133    25587    25004    26589    29441    32318    34970    37061 
   37176    34730    30738    26088    20689    14514     9093     7075 
    9677    14998    19373    20771    20207    20082    22155    25881 
   29483    33206    38305    44102    48938    51268    49620    44231 
