Origin Time       2016/04/16 01:25:00
Lat.              32.753
Long.             130.762
Depth. (km)       12
Mag.              7.3
Station Code      KGS001
Station Lat.      32.1947
Station Long.     130.1763
Station Height(m) 77
Record Time       2016/04/16 01:25:19
Sampling Freq(Hz) 100Hz
Duration Time(s)  300
Dir.              N-S
Scale Factor      3920(gal)/6182761
Max. Acc. (gal)   138.005
Last Correction   2016/04/16 01:25:19
Memo.             
[...]
  -11603   -11601   -11594   -11600   -11600   -11592   -11597   -11603 
  -11601   -11598   -11592   -11592   -11596   -11595   -11595   -11592 
  -11580   -11573   -11568   -11554   -11536   -11516   -11492   -11460 
  -11419   -11381   -11348   -11311   -11274   -11239   -11216   -11206 
  -11204   -11212   -11223   -11215   -11167   -11104   -11106   -11215 
  -11375   -11519   -11648   -11754   -11775   -11721   -11789   -12194 
  -12842   -13315   -13317   -13024   -12755   -12560   -12382   -12393 
  -12760   -13080   -12638   -11519   -10717   -10856   -11365   -11367 
  -10968   -10790   -10757   -10566   -10524   -10888   -11190   -10949 
  -10485   -10253   -10067   -10097   -11104   -12555   -12908   -12178 
  -11755   -12033   -12076   -11659   -12040   -13676   -15222   -15428 
  -13857   -10961    -8869    -9533   -11913   -13458   -13140   -11411 
   -8963    -7302    -8570   -11853   -12573    -9107    -6285    -8392 
  -12731   -14799   -14419   -12714    -9602    -6692    -7608   -13072 
  -18134   -17693   -13340   -10653   -11215   -12486   -13628   -14697 
  -13618   -10399    -9001   -11445   -14140   -11910    -6046    -4023 
   -7824   -11298   -11012    -9813   -10192   -10414    -8061    -5725 
   -7217   -10049   -11427   -13249   -14526   -12176    -8352    -8339 
  -13564   -18175   -17395   -15457   -15897   -15834   -14238   -13052 
  -12561   -11230    -8433    -7656   -11699   -15856   -14809   -10792 
   -8809    -9757   -12077   -15131   -16524   -12877    -6695    -4807 
   -8495   -11574   -10301    -8508   -10165   -13215   -13177   -10452 
   -9657   -11821   -14380   -16108   -15838   -12207    -7367    -5045 
   -5767    -7946   -10509   -13146   -15347   -15816   -14908   -14619 
  -14872   -14273   -12898   -11823   -11376   -11751   -12659   -11523 
   -8877    -9318   -12036   -12333   -10352   -10199   -13819   -17933 
  -18767   -16256   -10652    -2878     2567      787    -8418   -18299 
  -20394   -13383    -3974      297    -3283   -12783   -21916   -22873 
  -14944    -5360    -1617    -5769   -13366   -19989   -23965   -21370 
  -12016    -6080   -11540   -22391   -27269   -22398   -11680    -1434 
    3724     3490       -5    -3310    -4345    -6428   -11686   -15669 
  -15132   -13268   -13237   -12893   -10620   -11337   -17677   -18782 
   -6562     6037     5784    -2745   -11081   -17878   -23767   -23820 
  -15413    -9831   -17058   -28245   -29548   -19143    -3116     9611 
   10459     -818   -15922   -22958   -15727    -4873    -4428   -11902 
  -19035   -22364   -18173    -8275     -249     2284    -1823    -9274 
  -11642    -9543   -10701   -14278   -16378   -17666   -17046   -13497 
  -10843   -14733   -24927   -29030   -16845     1280     7353    -3231 
  -22033   -36406   -38256   -29124   -15463    -3647     -442    -8450 
  -18218   -17625    -5496    10497    18113    11004    -3475   -15550 
  -18487   -11609    -4859    -4007    -9160   -23388   -37166   -33853 
  -14172     9357    23932    19396     -238   -15240   -13885    -7635 
  -12833   -26949   -31353   -17896    -2921    -4739   -19105   -29953 
  -30823   -21848    -5746     7450    11925     8094    -3121   -12695 
  -15988   -18918   -21315   -21756   -19686   -13629   -13891   -22959 
  -22163    -7815     4957     7967    -1492   -16103   -19474    -8889 
    4568     6205   -12341   -33791   -33740   -18039    -6276    -5717 
  -15515   -27004   -35001   -41293   -34849    -8857    18278    27677 
   19505     2840   -17110   -36838   -46465   -34830   -10244    -1167 
  -12973   -19961   -14137   -10370   -15962   -25579   -32704   -36721 
  -29423     2938    44718    57225    30601    -6240   -27775   -35634 
  -38152   -33648   -22220   -11788    -6242     4815    25783    29738 
    1312   -24491   -17247     1008    -2273   -19003   -25185   -20964 
  -16286   -10632    -4059   -10948   -39582   -64615   -55708   -23020 
   -2864    -7976   -16701   -10336     5053    14929    11213    -7242 
  -30868   -37808   -18559     7696    19170    10365    -6481   -12177 
  -10149   -11675   -11157   -13152   -23731   -20125    10274    40541 
   40399     9123   -22398   -27507   -20804   -23854   -28377   -25154 
  -19787   -17410   -25298   -44153   -54398   -44202   -23046     -870 
   10921     8451    10828    25468    32587    22737     4119   -18288 
  -43206   -63169   -62703   -38669   -12522    -1322      849     9188 
   28128    38772    22604   -12162   -40528   -38417   -10493     6808 
   -6937   -40285   -70682   -74347   -47433   -12869     9055    14036 
    9681     9219    13625    15386    16805    16794     3786   -19219 
  -36479   -44465   -44443   -31970   -13247    -5507   -13925   -22439 
  -10167    17940    29490     9495   -20948   -36996   -34096   -24581 
  -16980    -5627     8425    10817    -2802   -21530   -36220   -44286 
  -42545   -30966   -17709   -10579    -8722    -4247     5891    14706 
   17639    14960     5422    -5702    -6133     6880    19326    13659 
  -10842   -39369   -59042   -63878   -55228   -40372   -25256   -10150 
    7367    19754    18289    10523      -46   -15687   -23237   -15025 
   -4450    -6819   -22290   -33329   -30809   -27727   -26340   -13668 
    7259    19980    16480     3475    -9092   -20261   -30692   -35677 
  -30467   -19451   -14651   -15753   -14016   -13751   -21713   -34306 
  -41562   -29035     3831    33039    39922    26211     2995   -11757 
   -8645     -584    -3702   -15413   -19651    -9518     3020      375 
  -16749   -30193   -34592   -35336   -29387   -15918    -3700    -6396 
  -26614   -40596   -29481    -7051     8050    12393     5718    -9922 
  -22565   -22489   -17682   -20714   -28859   -33192   -31035   -21877 
   -6695    12550    29869    30862    11401   -11194   -18823    -9927 
    2489     3613   -10721   -34140   -56860   -67131   -55483   -29541 
   -9489      479    14232    32737    36682    18215    -6246   -20133 
  -21875   -22500   -33732   -49774   -52085   -31967      553    24125 
   26544    14596    -3372   -23933   -37849   -36132   -20639    -2209 
    6280     1756    -9820   -26278   -40030   -34695   -11986    10451 
   24608    28514    20291     3659   -13024   -23344   -31770   -44011 
  -49621   -35807    -8683    13438    18922    11215     1394    -6504 
  -15024   -17623    -6495     6878     7925    -1727   -13428   -19056 
  -18480   -19351   -22136   -24492   -31294   -41631   -43535   -33867 
  -22486   -14408    -8696    -6452   -10567   -19656   -24462   -20775 
  -15086   -11622    -7047     2850    13664    14913     3257   -14411 
  -26381   -24301   -11586      432     4044     -158    -3150     2885 
    9032     2134   -13606   -28302   -39844   -47898   -49844   -39152 
  -12922    15977    29127    23780    12559     3458    -5158   -13222 
  -20628   -32374   -48968   -58957   -52998   -36908   -19545    -3247 
   10434    19253    23077    21465    10011    -8174   -18236   -17262 
  -15339   -14499   -12621   -11163   -11792   -13555   -12765   -11244 
  -15728   -23257   -24023   -16579    -6022      364    -5110   -17319 
  -23801   -26615   -33364   -39706   -37742   -23319     -488    14746 
   12352    -3550   -23246   -33630   -28854   -15005    -1683     2498 
   -3142   -11384   -15898   -14373    -9763    -7020    -5384    -2280 
    -354    -1079    -2420    -5783   -14033   -24023   -27941   -23752 
  -17360   -12461    -4950     7940    15471     8106    -5736   -16464 
  -21193   -16539    -5713     2197      -63   -15590   -32954   -32524 
  -15277      -88     4807     4335      923    -7404   -18338   -23875 
  -17639    -5439    -3178   -14934   -28314   -33202   -28220   -18192 
  -10223    -6046    -4747    -6451    -6515     -972      199   -15826 
  -38389   -42871   -27712   -11670    -4269    -5343   -12648   -18390 
  -13814      577    12996    13124     2562    -9997   -18031   -21271 
  -19273   -14081   -14762   -22853   -32589   -38146   -31701   -15188 
    -244     6586     4675    -2082    -7351    -7466     -979     6797 
    5066    -3502    -5909    -2945    -6070   -19157   -34321   -42869 
  -45022   -40305   -24314      290    21649    24081     5438   -15339 
  -21441   -12960    -1541     1440      310     7526    17337    11670 
  -10702   -37365   -57109   -59060   -43122   -20930     1339    20106 
   26659    15129    -9546   -33592   -45718   -44048   -31201   -12823 
     516     3160    -1415   -10547   -21452   -28344   -27060   -14866 
    1903     7287    -3465   -19479   -27352   -20784    -7538    -2372 
  -10499   -23554   -27728   -15336     4772    14031     7273    -4087 
  -11411   -15092   -17073   -17245   -12173    -2601      762    -4310 
   -6888    -4058    -2615    -9051   -22651   -32518   -29717   -16882 
   -6346    -8521   -17735   -21419   -17694   -14232   -17865   -24529 
  -21244    -3855    15694    24003    20776    14716    10316     4187 
   -9756   -30003   -43063   -39830   -26355   -12158    -4633   -10971 
  -29508   -45130   -44539   -31628   -17896    -7139     -439     -386 
   -4163    -5110     -694     3157    -2891   -17290   -27273   -26149 
  -17374    -5651     2217    -3592   -21833   -33089   -24023    -6367 
    3643     5363     6833    10869    11349     4615    -2811    -2731 
    4546     8087    -1950   -22385   -43920   -56124   -49600   -29689 
  -12036    -3160     -299     -218    -1193    -2822    -5728    -9527 
  -11302    -9207    -6320    -8576   -18242   -27919   -26453   -11844 
    8198    23529    28081    21650     3434   -24954   -50148   -56483 
  -44253   -30034   -27877   -34361   -34926   -24240   -11509    -3993 
   -2350    -5150    -5414     -811      665    -2843    -7051   -12262 
  -18479   -22746   -23630   -20698   -13107    -1049    11911    18291 
   13067    -1589   -18732   -29401   -30043   -27384   -27694   -26293 
  -16427    -3426     -115   -11425   -27755   -35086   -29760   -15824 
     -99     7920     6633     1471    -5531   -12083   -14726   -13842 
  -11071    -7179    -4100    -3324    -3717    -4850    -9248   -19303 
  -30693   -33723   -26665   -15586    -5395       54      949    -1414 
   -7142    -8734      307    13799    22294    21148    12247     2429 
   -3285    -4361    -4007    -7755   -19491   -37645   -54630   -61940 
  -58242   -50833   -47112   -47298   -45159   -34121   -14839     6079 
   21561    25978    21825    18777    18748    15504    10443     9520 
    6999    -3883   -14786   -16891   -13362   -11042   -12778   -14098 
   -7690     6756    23052    31963    21737    -9729   -45606   -66090 
  -66642   -54567   -37117   -19047    -5324      132    -4293   -17214 
  -30879   -33374   -19185     6671    31966    42658    35048    15771 
   -9357   -30196   -33336   -20392    -7827    -9078   -26264   -52151 
  -72275   -72804   -52901   -24258     -488    11159    12763     8675 
    -741   -12165   -16661   -11450    -3167     5440    18801    37210 
   53903    60445    49302    18291   -24050   -66778  -105866  -130763 
 -123853   -87375   -41171    -1003    20776    19316     7279      566 
      -6    -6400   -26433   -50580   -62195   -54014   -30215     -743 
   29235    55005    62731    44348     9898   -16811   -17765    -2549 
    5848    -5422   -35206   -68169   -85061   -79988   -62591   -42975 
  -24715    -9953     5790    25797    35312    17957   -24148   -72643 
 -101063   -91463   -49102     4684    47411    60764    37262   -10548 
  -54399   -66707   -42050    -1873    29266    40323    35324    27043 
   16045    -6506   -33786   -51000   -52889   -38458    -8996    30603 
   74032   110001   125031   113367    84980    56984    27996   -13353 
  -56662   -78928   -76874   -70632   -73836   -79380   -77925   -65006 
  -39865   -12623     2990     6623     7492     7174     2595    -4676 
  -12196   -16810   -16667   -15178   -15526   -18883   -29027   -50538 
  -76834   -87948   -69632   -27899    16494    44116    48111    29990 
   -2583   -26765   -17104    24222    70226    95843    87743    46255 
  -13288   -69674  -105513  -113051   -97465   -74441   -59521   -53941 
  -51522   -51281   -44261   -18326    16919    44283    61163    73377 
   84276    86694    72175    47359    22315    -4571   -37527   -74848 
 -109115  -124680  -109276   -71314   -27749    15402    61230   112919 
  156170   154606    86298   -29568  -142087  -199684  -188870  -130659 
  -52250    18013    55760    53514    23876   -14036   -52717   -86686 
  -95657   -66673   -16994    24372    36331     9265   -45531   -99484 
 -132339  -140725  -123901   -79003   -10497    60881   105255   113364 
  103506    86456    59226    29531    10437     8743    24012    37940 
   26565    -6591   -32561   -30066    -8031     4785    -9750   -44643 
  -79156   -99455  -103448   -87976   -49229     4217    51334    72014 
   63618    41844    20445     2511   -10013   -14396   -10694    -2481 
    4096     6408     5136    -3882   -24148   -45633   -51878   -39233 
  -18580     -192    12979    20291    22458    19096     4614   -24303 
  -63338  -102978  -129707  -132117  -114069   -95181   -83591   -68149 
  -48064   -35921   -33869   -29354   -13238     7754    22875    27641 
   28504    45534    82849   109267    95533    47001    -1887   -10874 
   30407    89634   129036   138760   119194    64891   -15994   -94832 
 -139484  -138829  -113018   -82865   -48506    -7395    38021    78017 
   92597    79108    60415    47452    30548     6189   -21174   -48039 
  -62527   -56588   -46508   -51847   -81374  -138107  -201435  -229265 
 -194361  -105070     4777    94309   127147    96970    37471   -15226 
  -44152   -48401   -42164   -31543    -7048    25195    41120    30430 
    2600   -29978   -57068   -72251   -72936   -55704   -20547    27951 
   78133   109520   109221    78583    30696   -14029   -48180   -75321 
  -90980   -88216   -63795   -23478     8946    11382   -12328   -40729 
  -56930   -60284   -59858   -58546   -50902   -32569    -1510    35326 
   53029    34491    -2949   -30342   -35749   -22095    -1378    11632 
   11552     2559    -6658    -8346    -4426      341     8481    21722 
   33482    35840    26555     3154   -34907   -71583   -87547   -83677 
  -71399   -57466   -43786   -26916    -2365    25159    46882    60526 
   67824    71699    70272    57315    36301    17132     6962     8522 
   13840    13820    11402     5660   -16827   -60070  -110047  -148627 
 -163918  -154305  -124283   -76142   -12645    53015   100482   119603 
  115397    95243    60267     9572   -49085   -91889   -91582   -49051 
    1345    25106    10692   -30044   -71499   -93107   -88652   -59652 
  -12670    32362    52106    47440    38718    40264    50630    53967 
   37453     9008   -11706   -11668     8322    34099    44326    27018 
  -11090   -54863   -88228   -98528   -87479   -70120   -58620   -49892 
  -36292   -23414   -22798   -35683   -50343   -52258   -36702   -11569 
    9454    18856    17771    10008      421    -7064   -11753   -16511 
  -21466   -21452   -15114    -5723     1630     4376     8691    17002 
   19277     8269   -10747   -27554   -33434   -24191    -5993     8851 
   13851    12156    11589    14188    13491     3222   -15956   -36395 
  -49115   -47883   -33484   -15903    -4781    -4030   -13097   -26613 
  -37855   -41943   -36833   -23580    -9562    -5952   -12031   -15852 
  -10544     4107    24938    42609    44575    25284    -6626   -33114 
  -42664   -38828   -30916   -24138   -16515    -2608    12847    14407 
   -4647   -33329   -53331   -52562   -30746     4763    41870    64386 
   64560    49876    32051    20182    14490     5647    -8592   -20562 
  -25059   -23949   -25937   -37140   -50894   -56775   -52743   -42257 
  -28712   -15616    -4635     8391    28274    48819    53229    29676 
  -15800   -65041  -103720  -126688  -135075  -131314  -116244   -95070 
  -73403   -51846   -35655   -27528   -17637      210    21605    43817 
   68130    88611    91436    71426    36891       45   -25999   -33100 
  -28512   -29420   -44171   -62306   -65879   -48310   -16681    16489 
   36161    31144     3922   -28645   -47878   -48828   -38831   -26553 
  -15363     -715    20763    41110    48439    39463    19925     -156 
   -9831    -3764    12608    27608    32359    22330    -1273   -27147 
  -43192   -47261   -42455   -31395   -16267      404    13437    17141 
   12564     5980     3302     7901    16545    20944    17747    12989 
   12427    14351    15866    15332    10702       79   -18287   -42347 
  -65387   -81032   -89179   -94704   -95580   -85171   -66735   -50748 
  -43074   -39312   -30173   -14300     2800    20538    42276    64294 
   74491    65951    46208    28268    21202    27583    36278    30122 
    8652   -14242   -29466   -36775   -40919   -47510   -55844   -60799 
  -60178   -49202   -21923    12752    35231    35006    18250      988 
   -5415    -1381     6656    11748     6312   -16854   -57595  -100499 
 -123098  -115895   -85067   -43368    -6965    11210     9197    -5584 
  -21046   -28249   -28009   -21202    -1627    30380    58562    63394 
   41424     8128   -19737   -41884   -66009   -87443   -96649   -92332 
  -76346   -55226   -38645   -30179   -28776   -28953   -21450    -2366 
   23959    49394    66313    72039    69525    62094    50088    33502 
   13350    -8500   -27190   -38935   -46486   -53347   -56749   -50493 
  -35125   -19373    -7910     -247     3394     3936     -558   -13696 
  -30046   -37554   -29548   -10683     8596    20406    19876     6256 
  -11227   -17297    -4977    18915    41313    53615    54845    45321 
   26569     3516   -21751   -49921   -78265   -99087  -104064   -90719 
  -60176   -17958    17359    26321    10480   -10593   -19911   -18041 
  -16464   -17691   -14864    -7092      114     2031    -3915   -16087 
  -27986   -30531   -16831    11465    43186    63645    64831    48301 
   18281   -18530   -51552   -70864   -70387   -52625   -27159    -4702 
    4639     2034     -518      420     1540     4252     9591    14897 
   16129    11817     6955     4277    -2779   -18307   -36067   -46605 
  -43720   -29019   -12682    -4372    -7028   -19241   -35047   -44106 
  -39161   -20409     7711    38150    60395    63997    46152    13923 
  -22574   -54879   -73785   -72532   -56197   -39407   -31989   -32978 
  -38606   -46967   -55986   -62328   -58674   -40154   -15334     3322 
   12386    14380    11371      847   -18187   -35399   -40351   -36226 
  -31496   -26833   -15860     1135    13318    13973     6769    -2310 
  -10333   -14681    -9017     8575    26555    30184    15243    -9292 
  -27061   -30582   -27863   -25429   -20369   -11229    -1597     3229 
    1199    -1886    -1221    -1379    -9523   -27535   -49155   -64726 
  -70201   -66910   -57261   -43816   -29783   -17994    -8251      249 
    6864    12828    21420    32715    38342    28621     6280   -17044 
  -32133   -35410   -32564   -32717   -34709   -33363   -28242   -19212 
   -8266     1154     8401    13049    15244    15217    12113     8201 
    7789    13805    29188    52734    74921    85410    79352    57569 
   29101     5674   -11400   -27008   -40439   -48829   -53013   -55595 
  -54483   -41931   -15847    14724    35684    35722    13852   -18967 
  -45570   -55144   -51703   -43915   -35833   -29781   -26440   -25845 
