Origin Time       2016/04/16 01:25:00
Lat.              32.753
Long.             130.762
Depth. (km)       12
Mag.              7.3
Station Code      KGS001
Station Lat.      32.1947
Station Long.     130.1763
Station Height(m) 77
Record Time       2016/04/16 01:25:19
Sampling Freq(Hz) 100Hz
Duration Time(s)  300
Dir.              E-W
Scale Factor      3920(gal)/6182761
Max. Acc. (gal)   135.850
Last Correction   2016/04/16 01:25:19
Memo.             
[...]
  -16558   -16557   -16562   -16559   -16561   -16561   -16560   -16565 
  -16558   -16551   -16562   -16566   -16560   -16558   -16557   -16564 
  -16566   -16555   -16553   -16565   -16563   -16556   -16563   -16564 
  -16558   -16560   -16564   -16559   -16556   -16561   -16562   -16557 
  -16557   -16559   -16559   -16559   -16568   -16564   -16553   -16563 
  -16565   -16553   -16556   -16565   -16557   -16546   -16549   -16550 
  -16541   -16532   -16525   -16518   -16495   -16468   -16456   -16437 
  -16401   -16376   -16360   -16329   -16298   -16286   -16274   -16256 
  -16223   -16186   -16183   -16192   -16173   -16197   -16299   -16384 
  -16390   -16375   -16448   -16632   -16802   -16890   -17057   -17388 
  -17590   -17446   -17282   -17434   -17679   -17684   -17562   -17470 
  -17281   -17061   -16933   -16743   -16629   -16830   -16904   -16314 
  -15405   -15163   -15809   -16160   -15619   -15303   -15522   -15187 
  -14699   -15350   -16375   -16616   -16826   -17323   -17055   -16470 
  -17108   -18476   -19022   -18715   -18270   -17908   -17711   -17557 
  -17266   -16884   -16264   -15935   -16832   -17315   -15187   -12549 
  -12396   -14217   -16471   -17320   -15157   -12286   -12555   -15685 
  -18216   -18015   -16353   -15646   -16108   -16989   -18334   -19082 
  -17933   -16480   -16917   -18447   -19927   -21349   -20356   -15745 
  -12371   -13882   -17511   -19446   -17943   -13071    -7911    -7465 
  -13110   -19430   -19997   -15253   -11482   -12766   -16642   -17958 
  -16104   -15239   -17144   -19997   -21502   -19537   -15672   -14604 
  -17077   -19889   -20607   -19897   -19774   -18504   -13932    -9876 
   -9821   -11930   -14331   -16664   -18183   -18986   -19377   -18262 
  -16460   -16963   -18940   -19439   -18825   -17498   -14539   -12347 
  -14326   -18282   -19678   -19279   -19539   -18958   -17910   -19664 
  -21456   -18189   -12115    -8681    -9907   -13211   -14188   -12901 
  -12645   -14965   -19720   -23177   -20732   -15927   -15427   -18345 
  -20722   -20346   -15861   -11414   -12727   -16728   -17835   -16306 
  -14302   -14235   -17881   -21929   -22443   -20817   -18880   -15977 
  -11982    -7742    -4713    -5355   -10796   -18092   -22783   -22910 
  -19682   -16674   -16913   -19422   -20496   -18232   -14115   -11132 
  -11395   -14619   -19026   -22493   -22310   -18558   -16092   -18203 
  -22807   -25436   -23547   -19007   -12202    -2221     2702    -4390 
  -15584   -22110   -24100   -24261   -24399   -23586   -20503   -16411 
  -12479   -10718   -11128    -9320    -7537   -10443   -12746    -9275 
   -1588     1662   -12328   -35875   -44189   -34904   -23999   -17175 
  -14431   -14703   -14148   -13229   -12310    -9696    -6411    -5809 
  -15476   -32778   -36014   -19516    -4752    -2582    -9161   -21495 
  -25780   -11749     2046    -1977   -14871   -23908   -25705   -21528 
  -18458   -23696   -34759   -39311   -27658    -9643    -4839   -11777 
  -15215   -17655   -27016   -33643   -26867   -12438    -5910   -14327 
  -25862   -26340   -17171    -7232    -1854    -4400   -11269    -8988 
    5154    11683    -3087   -24616   -35435   -38009   -34697   -22455 
  -12836   -16430   -22381   -18847   -10262    -6440    -5726      241 
    3934    -6950   -21678   -27300   -30406   -32310   -24604   -15360 
  -19339   -27532   -20790    -2447    12766    16114     -254   -26999 
  -38480   -31037   -22820   -27738   -42151   -42698   -18447    10219 
   22353    13326    -7108   -20633   -21763   -16847   -12471   -17761 
  -26307   -21606   -15889   -26602   -35652   -27623   -18843   -17115 
  -14870   -17290   -25414   -25071   -11846     1211     -123   -13354 
  -28162   -43148   -49656   -34442    -8903     8642    14972     6349 
  -11848   -21465   -24741   -33687   -41705   -39196   -23549    -1217 
    7607    -2865   -16134   -23785   -25782   -23157   -21358   -19770 
  -16357   -16019   -22271   -35869   -51068   -50529   -24583     8103 
   20486    10808      350     6095    21034    23683     6215   -18814 
  -38349   -46628   -35453   -13997   -17020   -42823   -46978   -26617 
  -15959   -16337   -13208   -10932    -8859     4308    23221    28530 
    8596   -32004   -65011   -58823   -23218     4707    12436     9839 
   -2937   -24373   -35195   -31517   -29388   -28603   -22620   -10815 
    7665    13454   -12493   -46606   -58204   -41461    -1117    31022 
   20980    -5719   -14655   -17863   -25136   -36470   -62239   -86402 
  -78957   -43481    -1329    27935    29298    13726     7858    12097 
    7413    -8522   -23874   -31001   -34216   -43258   -52394   -48221 
  -34490   -20651    -8225    -4261   -12475   -13244     6989    27948 
   26998     4009   -30578   -59060   -59508   -26091    17204    30262 
    1254   -34839   -46858   -37029   -14112     4300    -2412   -18315 
  -22561   -27177   -35712   -39202   -39606   -26610     5309    30501 
   37848    39601    28574    -3757   -40061   -66436   -80845   -74707 
  -49571   -27056   -19741   -19138   -12779     1395    12877    10787 
   -3176   -17508   -25444   -32483   -41538   -42793   -29989   -14200 
  -13236   -26149   -32766   -22657     -484    24254    38007    32654 
   14027    -6361   -23958   -38459   -46536   -46045   -39662   -36986 
  -43280   -46205   -34119   -10428    13895    26777    24176    13026 
    1722   -10057   -27154   -42341   -44114   -37299   -30235   -20931 
  -13458   -17277   -28747   -33990   -20384     8025    27703    24531 
    7229   -10689   -26386   -41989   -52271   -52646   -44691   -32651 
  -24878   -20549   -11271      -15     7537     5482   -12664   -29000 
  -23187   -10933    -6699    -4915    -7734   -10014    -2635     1538 
   -6625   -19918   -31375   -31183   -14438     2050    -4334   -34631 
  -67993   -80396   -63053   -30423    -7436    -5502   -13325   -14060 
   -5388     5775    16682    24723    23751    14405     1643   -15157 
  -33911   -48239   -56365   -57833   -48784   -26269     3512    25593 
   26321     3825   -25591   -39785   -35546   -30145   -33584   -33634 
  -19946    -2430     5963     2755    -7177   -15327   -17113   -16547 
  -23797   -44221   -60429   -48152   -15850     6211     8705     5736 
    6949     7063      977    -5602    -8428   -10225    -9753   -12392 
  -33216   -59596   -59040   -34815   -14763    -8502   -14080   -27439 
  -35812   -25694     -682    13839     -516   -28423   -45992   -50417 
  -45682   -35537   -30816   -28414   -12837    10152    22822    21661 
   13804     5990    -2549   -14762   -26594   -33869   -35357   -25209 
   -4336     8254     3752    -6756   -22598   -43623   -51441   -38892 
  -23139   -17796   -20091   -25551   -31457   -29601   -18536   -12203 
  -17285   -20510   -13305    -3667     2449     4259    -1430   -11011 
  -17461   -23917   -29449   -24412   -12333    -3690     2661     8960 
    9808     5776     4105    -3410   -29467   -56995   -62016   -47094 
  -23449    -6195   -13881   -35998   -44512   -34853   -17326    -2109 
      70    -8193   -13779   -13153   -11981   -14042   -17735   -21030 
  -24606   -26798   -24873   -19687   -13195    -8384    -8427   -12300 
  -16345   -18277   -19921   -24562   -31385   -37577   -38283   -28437 
  -12855    -1295     5448    12905    20352    18910     4444   -15788 
  -35776   -53592   -58424   -45878   -32638   -25218   -12767      368 
    3611     4904     9649     8464      629    -6265   -14660   -28351 
  -38686   -38648   -35610   -36064   -36846   -33414   -20707     1293 
   19026    19222     4211   -12263   -18808   -19391   -24092   -31953 
  -40706   -50883   -52530   -38969   -21625    -8765     4011    13448 
    9334    -4694   -16053   -21104   -23811   -25749   -26484   -27108 
  -21987    -3446    14538     7787   -20296   -45580   -52939   -35783 
   -5800     1501   -21209   -38551   -32870   -20424   -13701    -9044 
   -2103     3423     5920     9024     6924    -8031   -26515   -35957 
  -37734   -39596   -41603   -35686   -19236     2505    21912    26708 
   11250    -9828   -19933   -23275   -31285   -40064   -41117   -37378 
  -32613   -25688   -18669   -13878   -10739    -8487    -6465    -8453 
  -15317   -16316   -10041    -8882   -12170    -9489     -523     8951 
   12133     5439    -5055   -16109   -31027   -47516   -60663   -62732 
  -47810   -28446   -19949   -19976   -18460    -8597     5029     7820 
   -5386   -22900   -28221   -17957    -8478   -12908   -22067   -21287 
  -11311    -5587   -14735   -34581   -48086   -41184   -16545     6730 
   11513     2115    -7145   -11849   -13978   -15699   -17531   -16075 
  -11076    -8893   -15128   -29095   -40392   -37060   -24350   -19116 
  -25489   -33496   -33796   -24453    -9720     4797    12353     5994 
  -11833   -29120   -39873   -46047   -41120   -18338     5572     9042 
    2800    11664    26582    20935    -4153   -33155   -53358   -50074 
  -28454   -15447   -22249   -34070   -36585   -31168   -23338   -15995 
  -11231    -3672     9649    14091     2347   -10434   -17930   -26050 
  -31997   -35165   -36861   -24663     5382    29088    23289    -3625 
  -25710   -33620   -37766   -44138   -45911   -34986   -14657      897 
    1071   -12532   -26482   -24857    -8111     7021     6944    -7917 
  -24924   -33495   -34524   -32100   -30185   -31900   -32543   -29300 
  -31377   -38453   -32421    -9556    11669    20602    19968    11829 
    2371    -1744    -8613   -27238   -47524   -51814   -37919   -20852 
  -16082   -26285   -35851   -25158       76    14210     7916    -4640 
   -8761    -2944     2158    -5889   -26041   -42125   -41686   -32427 
  -29241   -33105   -35921   -32329   -22988   -15458   -14476   -13473 
   -5296     7772    20420    27970    23823     7084   -15552   -39425 
  -57915   -60640   -47674   -31265   -23023   -25998   -33106   -28420 
   -4405    19641    22202     9668     -821    -3757    -5727   -17043 
  -36179   -52111   -58841   -51798   -34234   -22251   -17343    -6235 
   10101    22280    24170    10361   -12424   -28410   -33214   -31512 
  -26255   -20640   -18313   -17617   -14448   -13846   -23349   -33167 
  -28778   -16920   -12473   -16772   -24599   -30088   -25911   -13328 
   -1642     4114     4174     1626     -562    -4928   -12426   -18336 
  -22896   -28470   -31802   -32849   -35036   -34485   -25614   -13611 
   -6925    -3936    -1657    -3406    -8172   -11641   -14177   -15525 
  -16183   -20639   -25474   -19933    -1754    21373    40090    47697 
   41309    24366     5998   -10024   -26308   -39527   -44304   -43596 
  -41700   -36891   -25057    -5462    13792    21420    14150    -5022 
  -26208   -32706   -21485   -10732   -14950   -28353   -39098   -44454 
  -46033   -48114   -57994   -71611   -76527   -70888   -58002   -39843 
  -24500   -19631   -26388   -42909   -62471   -77554   -84491   -78258 
  -57375   -31706   -10290     9120    28708    40242    35383    19263 
    4898      -83     2796     4568    -3629   -18255   -24483   -10184 
   25838    70958   105503   121365   119025    91916    43015    -6506 
  -45460   -73989   -86126   -80491   -63053   -37087    -9144     9146 
   12509     5485    -6804   -20581   -30050   -38843   -58761   -81811 
  -82694   -54099    -7473    43832    77074    71479    32247   -22041 
  -69205   -85386   -71298   -47711   -28221   -21823   -25645   -24556 
  -19736   -21584   -28972   -38800   -49644   -58032   -64330   -71126 
  -73820   -64186   -42178   -15218     8506    24189    32515    32908 
   22480     6388    -6962   -19535   -34580   -42334   -34101   -15419 
    7870    33606    52207    54198    41316    18847    -6741   -22391 
  -21981   -13253     1331    24869    51708    74748    87809    81892 
   56959    22475   -11317   -36809   -57932   -83215  -107114  -116997 
 -106949   -75137   -27040    14030    18622   -20041   -78143  -123907 
 -140084  -124267   -86958   -48526   -18871     2814    12011     7219 
   -4032    -7594     9194    36163    53220    61787    72214    76987 
   60196    21920   -27159   -75545  -102687  -100340   -88952   -79685 
  -59966   -22681    21661    50627    49096    27060     2529   -15950 
  -23189   -21610   -25300   -42003   -60330   -59416   -31809     5241 
   27048    22487    -1403   -26478   -38821   -38692   -34621   -35137 
  -42404   -43377   -19881    22088    50234    39398    -6779   -63871 
 -101927  -101549   -66767   -21066     7601     5017   -19814   -46957 
  -61426   -55128   -26270    16912    60801    89677    84603    43140 
  -11550   -54747   -77055   -87146   -98334  -108690  -111791  -102438 
  -69600   -22325     9842    15435     3609   -11375   -17563    -9820 
   12052    39753    61468    72191    70395    54107    20393   -27760 
  -74411  -100810   -96934   -68292   -36254   -17670    -9271     4229 
   34238    71337    90675    82130    52437     6654   -39518   -61291 
  -59262   -50275   -45475   -54021   -63570   -45298    -3545    23232 
   14787    -9452   -22731   -15145    14213    53301    74824    65992 
   40755    12070   -26786   -84006  -141318  -168815  -161058  -127212 
  -73890   -15990    30937    60137    67005    54305    30166     4240 
   -9626   -11628   -14279   -23163   -47037   -87491  -123659  -139131 
 -129397   -94729   -53294   -28487   -22135   -18270    -2389    24683 
   49146    59757    53982    29923   -12869   -58566   -84778   -88079 
  -75752   -54377   -34781   -19229      512    27456    64204   112034 
  158605   189862   197708   170961   109354    38349   -11597   -33420 
  -42136   -55335   -81167  -110167  -125178  -121333  -100527   -66780 
  -33640   -16354   -23254   -52716   -86509  -101727   -90742   -55117 
     882    57054    84673    76299    46832     8374   -36321   -77462 
  -97782   -92362   -71079   -51931   -53797   -73132   -87014   -86106 
  -71475   -41723    -8964    10955    24930    45008    61568    58732 
   34595    -2408   -36035   -53709   -60339   -61494   -50093   -21120 
   17069    50800    70242    72470    67272    62156    47519    23574 
     679   -26748   -56895   -73346   -74170   -68399   -66659   -76244 
  -86895   -82127   -59222   -22434    19549    50440    65548    68926 
   51491     8555   -44367   -88786  -110720  -103297   -77510   -51515 
  -32088   -21199   -19515   -17294    -6538    10259    30842    46293 
   39204     6498   -31906   -51009   -47396   -38578   -36494   -39603 
  -39172   -27658    -8301     7048     6433    -9754   -31295   -54338 
  -71161   -65626   -37522     -919    38837    81063   120488   152724 
  168053   154286   113532    54180   -15731   -79083  -120263  -140761 
 -148853  -141781  -107463   -44969    23885    68730    70228    34100 
  -11456   -46771   -70473   -79698   -73622   -58306   -38835   -21415 
   -9480    -3657    -9225   -29186   -58493   -87592  -106888  -115024 
 -118177  -114600   -97185   -70578   -43499   -18344      371     5902 
   -4607   -27252   -48831   -57097   -49728   -27778     2592    25799 
   28863    10616   -18263   -39364   -38750   -14072    26656    67821 
   93720    96230    73239    27321   -24949   -61690   -75337   -64099 
  -32690    -5164    -1220   -14501   -23200   -10454    20586    54346 
   74824    71917    52909    31811    11341    -8717   -25233   -37547 
  -46403   -49732   -46952   -45932   -50712   -50769   -37308   -13235 
   11030    23165    20015     7088   -10265   -26615   -39012   -48937 
  -53401   -47729   -39496   -39477   -44798   -48302   -49990   -51003 
  -52229   -57579   -66634   -68902   -56321   -37317   -23390   -10514 
    9315    33426    52041    53205    31824    -1650   -28854   -36561 
  -24777    -6437     5034     7081     6226     7810    10584    12921 
   15419    14150     3732   -14099   -34070   -50746   -59016   -62795 
  -69209   -74588   -75854   -76872   -75273   -64857   -43294   -12471 
   17933    38935    48828    42210    17351   -13167   -36538   -46890 
  -45537   -42871   -45547   -48494   -44435   -30562    -8890    17384 
   47781    76372    88958    77984    49805    19969     3733      660 
   -6631   -29637   -57908   -75981   -81819   -77895   -67012   -56183 
  -47400   -37130   -24400   -11696    -4578    -5810   -10977   -13964 
  -10886      618    20551    40342    46341    37400    24222    10279 
   -6595   -21651   -32616   -44541   -57100   -65537   -68582   -68452 
  -66555   -58402   -41943   -22289     3293    40140    75248    89755 
   82694    63259    34553    -1462   -37573   -68077   -89411   -95590 
  -85192   -66651   -48971   -35162   -28010   -30205   -36121   -33438 
  -14306    13979    33263    34507    24290    13375     7684     7491 
    7816      407   -14793   -29136   -40170   -52350   -69514   -88904 
  -98465   -89278   -63794   -31707    -5749     7890    15020    24619 
   34279    31362    14315    -4339   -13288    -9052    -2236   -10597 
  -33979   -51876   -50334   -33310    -7424    21442    40819    42172 
   29907     9060   -19540   -49562   -72588   -84053   -80369   -61931 
  -34114    -3753    22500    37051    29150     -849   -36174   -65993 
  -86197   -90394   -82953   -75078   -66651   -52395   -35670   -23798 
  -16496    -6747     9567    32116    54015    58841    40865    14682 
   -8206   -26481   -39145   -45208   -44330   -37582   -27718   -20563 
  -23259   -32352   -38108   -36055   -20657     9595    43136    69100 
   85324    91060    83809    59406    16978   -31203   -66465   -82328 
  -84192   -79762   -76006   -71073   -57511   -39377   -25046   -12497 
    2938    21072    38217    50862    57561    55563    42556    21270 
   -2538   -24248   -41541   -53494   -59568   -60019   -59044   -62481 
  -68793   -71591   -68236   -58511   -45920   -39516   -43674   -51845 
  -53477   -42049   -17835    10692    31042    38713    37546    28273 
    6903   -27414   -65941   -93963  -100932   -86557   -62551   -43867 
  -33960   -22850      264    33258    63414    81226    84660    75741 
   59325    40727    22265     3393   -15854   -34271   -53472   -73383 
  -86559   -88423   -79317   -57874   -29853    -6975     5878     9970 
   10916    14947    23842    36996    50851    61405    63660    51224 
   28792     6323   -15797   -38738   -60057   -76906   -85323   -85402 
  -80718   -71338   -57953   -45279   -38329   -38548   -41101   -42394 
  -46559   -53704   -55210   -46367   -28707    -5218    19356    42631 
   64224    76155    65927    32283   -11144   -48400   -72151   -83392 
  -85643   -80133   -64002   -35227      109    31982    55305    67420 
   64282    44780    13278   -22210   -51763   -68305   -73055   -71048 
  -64767   -57019   -49950   -40883   -27278   -11145     1912     7624 
    8395     8443     8431     5586    -5117   -24531   -46710   -61697 
  -60588   -45084   -23308     1163    24381    39643    44876    41141 
   30464    19044    12186    10773    12600     9354    -3150   -14924 
  -17328   -13519   -10472   -14100   -24225   -30724   -24599    -9443 
    3123     6398     2996    -3916   -12316   -15068    -6972     6085 
   15178    18112    13801    -1507   -25120   -49430   -72075   -90618 
  -99023   -96053   -84044   -62503   -31961    -1770    16888    24878 
   26346    17480     -878   -19333   -31817   -34713   -27135   -16937 
  -11282    -8747    -4068     6014    16514    18899    12311     -480 
