Origin Time       2016/04/16 01:25:00
Lat.              32.753
Long.             130.762
Depth. (km)       12
Mag.              7.3
Station Code      KGS005
Station Lat.      31.9006
Station Long.     130.4513
Station Height(m) 42
Record Time       2016/04/16 01:25:23
Sampling Freq(Hz) 100Hz
Duration Time(s)  174
Dir.              E-W
Scale Factor      3920(gal)/6182761
Max. Acc. (gal)   65.388
Last Correction   2016/04/16 01:25:24
Memo.             
[...]
   -1142    -1094    -1275    -1412    -1384    -1315    -1224    -1188 
   -1342    -1587    -1630    -1428    -1292    -1373    -1452    -1338 
   -1129    -1011    -1016    -1024     -957     -899     -918    -1015 
   -1087     -992     -882     -950    -1046    -1048    -1000    -1048 
   -1377    -1660    -1399     -931     -872    -1135    -1243    -1108 
   -1020    -1028    -1062    -1202    -1312    -1224    -1227    -1563 
   -1766    -1309     -684     -704    -1172    -1422    -1255     -831 
    -603     -936    -1425    -1493    -1285    -1265    -1503    -1777 
   -1856    -1636    -1362    -1389    -1606    -1620    -1359    -1107 
   -1110    -1248    -1300    -1317    -1296    -1080     -927    -1240 
   -1642    -1499    -1069     -901     -972    -1181    -1357    -1124 
    -756     -822    -1074    -1084     -934     -813     -897    -1119 
   -1163    -1179    -1463    -1763    -1873    -1995    -2178    -2247 
   -2055    -1620    -1206    -1087    -1250    -1431    -1495    -1581 
   -1808    -2006    -1786    -1241    -1154    -1822    -2703    -3372 
   -3567    -3000    -1903    -1055    -1042    -1631    -1984    -1634 
    -999     -581     -314     -240     -537     -733     -394      142 
     623     1112     1054     -178    -1811    -2537    -2298    -1699 
    -971     -481     -659    -1213    -1425    -1111     -912    -1130 
   -1048     -584     -528     -515      274     1111      710     -869 
   -2402    -3084    -3314    -3805    -4351    -4137    -2889    -1235 
    -384     -788    -1389    -1531    -1755    -1869    -1185     -273 
     189      408       81    -1333    -3003    -3616    -3190    -2921 
   -3618    -4614    -4750    -4005    -2841    -1197      713     2105 
    2456     2077     1616     1097      523      353      479      141 
    -987    -2354    -3248    -3229    -2346    -1832    -2743    -4224 
   -4784    -4254    -3739    -3811    -3676    -2642    -1030      336 
     569     -357    -1184    -1454    -2447    -4443    -5619    -4768 
   -2846    -1602    -2262    -4190    -4156     -442     3233     2774 
    -294    -2129    -1453      619     2111     2207     2213     2508 
    1360     -763    -1074      208      949      992      227    -2355 
   -5928    -7660    -6072    -2969     -949     -273      703     2535 
    3430     2071      245       95      154    -1732    -3675    -2740 
     401     3213     4154     2374    -1336    -4472    -6564    -8273 
   -8038    -5279    -2292      -36     2657     5223     5846     4927 
    3342      156    -4230    -6626    -5066    -1092     2426     3496 
    1907    -1033    -4200    -7160    -9151    -9657    -8979    -7302 
   -4936    -2524       80     2930     4136     2487     1074     2549 
    4129     3289     1552      -37    -1647    -2642    -3692    -5728 
   -6308    -3564     -152     1610     3167     5323     5384     1778 
   -2910    -5644    -5556    -3083      288     2242     1650      163 
    -259     -889    -3471    -6140    -6808    -6607    -7157    -8364 
   -9252    -8581    -5632    -1796      490      704      160      -22 
     281      641      880     1259     1787     2717     4669     5257 
     721    -6944   -11529    -9131     -915     6094     5014    -1923 
   -6624    -5530    -1467     1660     2127       26    -3265    -5728 
   -6227    -4746    -1685     2535     6164     5797     1040    -3599 
   -4221    -1648     1086     2180      924    -1746    -3267    -4163 
   -7751   -12151   -11255    -4842     2007     6574     8201     7552 
    7343     6855     2236    -3723    -3521     1862     3701    -1163 
   -7245    -8925    -5691    -1181       37    -2489    -4947    -6063 
   -7299    -6682    -1776     4642     8662     9229     6777     3576 
    3336     6623     9242     7240      973    -5340    -7628    -7174 
   -7372    -6810    -3201      171    -1100    -5124    -7387    -7327 
   -5063     -355     3364     3537     3377     5519     6232     1411 
   -6149   -10728   -10789    -9150    -9543   -12266   -13548   -11840 
   -9273    -6682    -3798    -1057     1717     5263     9141    11348 
   11373    11183    10980     9304     6665     3791      171    -3910 
   -7778   -10618   -11187   -10211    -9047    -7634    -7383    -9105 
   -9953    -8392    -5907    -2688     2126     6453     7265     5485 
    3056     -324    -3820    -5352    -5324    -5158    -3573      424 
    3003      950    -1726     -539     2070     2503      632    -2889 
   -6229    -6583    -4021    -1115      484      781      685      863 
     795      468      857     1789     2387     1968     -156    -2783 
   -3059     -241     4004     7617     7842     2854    -4555    -9109 
   -8537    -4910    -2528    -3231    -4518    -4403    -3727    -4041 
   -4677    -1963     4514     9804    11217    10187     7851     5272 
    4196     4098     2937      151    -4011    -8704   -13175   -17627 
  -20219   -18030   -12689    -9176    -9190    -9432    -6787    -2733 
     418     4200     8946    10352     7417     5041     5721     6929 
    6540     5319     4360     3593     2858     2368     2568     3153 
    1850    -2704    -7647    -9579    -8659    -6916    -6545    -7809 
   -7370    -2756     3727     7508     6747     3820     1467     -154 
   -2550    -5874    -7998    -8484    -8709    -8569    -8533    -9600 
   -9066    -3468     4800     9528     8387     5108     3623     2594 
    -853    -5217    -6938    -5020    -1833     -702    -1457    -1151 
     351     1337     2518     3858     2309    -1769    -3135       20 
    3551     4568     5206     7592     9352     6912     1327    -2882 
   -4892    -8288   -13502   -16368   -15249   -13271   -12704   -12134 
   -9981    -6702    -3745    -2750    -2869     -313     5451    10503 
   12238    10761     7537     4566     2349      -29    -2916    -5696 
   -7068    -5364     -849     1826    -1092    -4735    -2244     4141 
    7249     4670     -546    -3890    -3163    -1019     -557     -219 
    1490     2731     2159      416    -1849    -5372    -9400   -10944 
  -10750   -12571   -16031   -16617   -11427    -2531     5546     9900 
    9982     6530      734    -4862    -6864    -5298    -3716    -3913 
   -3857    -1301     2676     6116     9450    12265    12033     8436 
    3297    -1856    -5350    -6386    -6044    -5400    -4933    -5412 
   -7142    -9634   -12537   -14658   -13449    -9001    -4982    -2518 
     242     2857     3946     4058     3918     3390     2519     1786 
    1236      937     1325     1515      267    -1890    -4367    -7414 
  -10305   -11407   -10013    -7409    -5351    -3734    -2407    -2440 
   -2764     -493     4727    10084    12369    10649     7366     5898 
    6580     7392     7087     5094     1340    -2564    -4413    -4532 
   -5242    -6444    -5878    -3209     -562     -274    -2531    -5742 
   -8315    -8118    -4273     -130      137    -3420    -7198    -7336 
   -2872     2638     5211     4761     3138     1614      984     1977 
    5235     9873    13050    12441     7266    -1293    -8250    -8347 
   -3373    -1547    -7680   -16812   -21722   -22606   -22797   -21555 
  -16570    -8469    -1093     2658     4616     7611    10958    12755 
   13418    14336    14413    11847     7296     2491    -1196    -3532 
   -5470    -7008    -7121    -5872    -4733    -4513    -4137    -2199 
    1806     6618     9444     9721     9624     9956     9857     9061 
    7838     6185     3672     -441    -6744   -14549   -21173   -24232 
  -24516   -23676   -21373   -17274   -11841    -5750     -639     3042 
    6785    10154    10729     8165     4727     2222      563     -634 
    -898     -280      184       55     -496    -1075    -1028    -1051 
   -1910    -1059     3522     8123     8406     5891     4295     3563 
    1781    -1268    -5227    -9320   -11660   -10926    -8006    -5194 
   -3054    -1069     -566    -1692    -1630     -205     -624    -2694 
   -3290    -2038       -6     2608     4991     6468     7663     8634 
    8485     7793     8087     7985     4662     -357    -3209    -3692 
   -3810    -4075    -4248    -5109    -7648   -11443   -14853   -16074 
  -14341   -10534    -6452    -3867    -3812    -6417   -10691   -14081 
  -14319   -11767    -7829    -3060     1663     4868     5833     5609 
    5561     4681     1848    -1068    -1666      390     3188     3596 
     447    -3949    -6840    -8181    -9486   -10359    -8636    -3925 
    2180     8691    14931    19514    21274    19743    15696    10468 
    4110    -2118    -4467    -1829     2410     4467     3072     -771 
   -5698   -11644   -18607   -24467   -27067   -27015   -24916   -19514 
  -10996    -1975     5390    10725    14477    16881    17093    14045 
    9321     6225     5305     4464     3036     1930      634    -1815 
   -4536    -6569    -8194    -9676   -10732   -10771    -9877    -9284 
   -8934    -6677    -1693     3985     8073    10561    12422    12737 
    9774     3696    -3575   -10068   -14666   -16059   -13092    -7960 
   -4701    -3264     -331     3924     5646     4466     4568     6658 
    6472     3069     -211    -1616    -1526    -1365    -2395    -4248 
   -6415    -8916   -11543   -12708   -10208    -5510    -2496    -1401 
     513     3880     6623     7775     9463    13454    17276    16899 
   12221     6623     2403     -739    -4114    -7660    -9372    -9275 
  -10194   -12173   -12480   -10193    -6068    -1201     3373     6934 
    7728     4515      454      -96     1856     2659     2225     1809 
     566    -2538    -7112   -11507   -14101   -14731   -14425   -14572 
  -14686   -11852    -4900     3643    10327    13411    12655     8425 
    2744    -1132     -667     4438     9669     8680     1670    -4758 
   -6573    -6364    -7216    -8188    -7965    -6788    -5251    -4101 
   -3344    -2541    -2478    -3786    -4101     -961     4511    10698 
   15864    16084    10590     3109    -4722   -12326   -16955   -18494 
  -20193   -22171   -20634   -14551    -8122    -4563    -2514      -17 
    3036     6021     8893    12631    17300    20951    21225    17768 
   13605    11335     9533     6702     4395     3969     4231     3257 
     341    -3791    -7329    -8752    -8365    -7301    -5876    -3915 
   -1595      258      694      -77     -741     -479     -115    -1309 
   -3814    -5371    -5298    -4860    -5068    -6357    -7874    -8088 
   -7025    -5218    -2410      923     3914     6806     8942     8448 
    5969     4185     3368     1236    -2582    -5830    -7958   -10429 
  -13679   -17157   -19314   -17568   -12151    -6883    -3556     -425 
    3418     6635     8491    10067    12098    14175    15695    15381 
   12192     7679     4099     1389     -773    -1340     -684    -1020 
   -2971    -4395    -3160      219     3415     5155     6143     6658 
    4983      -30    -6653   -12121   -14616   -13153    -8946    -5161 
   -2393      939     4498     7985    11902    13879    11276     5864 
    1259     -813     -233     2577     6967    11907    15146    14082 
    9435     4981     2460     1031       59    -1067    -3758    -9151 
  -15719   -20026   -21498   -22185   -22114   -19739   -15044    -9565 
   -4682     -591     2979     5159     4305      226    -5894   -12921 
  -19718   -25373   -28720   -29049   -27803   -24911   -18776   -12085 
   -8609    -8195    -9135    -9143    -6232    -1187     3900     7673 
    9197     8991     8884     8986     8775     9252    11527    16184 
   22323    27242    29197    29674    30855    30689    25811    17563 
    9194     2739      364     2315     7425    15674    23474    25457 
   22755    19063    14947    10003     4138    -1670    -5900    -8884 
  -10885   -10438    -7269    -3378     -606      596     -294    -3405 
   -6032    -5091    -1301     2388     4336     4528     3325      485 
   -5087   -13213   -20816   -24854   -24811   -21046   -14273    -6126 
    2293    10181    16273    19871    19706    14666     7154      991 
   -2266    -2811    -1260     1731     5491     8585     8857     5186 
   -2411   -13247   -24817   -33696   -37636   -36657   -32513   -25624 
  -14663     -390    13077    21177    20530     9784    -7380   -24698 
  -38953   -47879   -48288   -39635   -24038    -4393    15025    30978 
   43400    50278    47295    36204    24867    18366    15689    14935 
   16405    18352    18906    21358    25173    22221    10871    -2503 
  -14606   -24880   -32076   -34272   -30176   -23335   -15979    -3351 
   14229    29875    41464    47954    44751    31467    14783     -783 
  -19308   -41160   -54554   -54922   -52467   -51877   -46745   -31894 
  -13612    -5353   -11011   -22330   -27732   -22986   -13123    -2737 
     206    -8884   -19001   -22168   -20459   -17115   -16459   -14978 
   -5135     8657    18718    21926    16629     8122     2373    -1088 
   -3261    -6839   -13101   -16268   -12038    -4299      501     -369 
   -7354   -18654   -26496   -23112   -10156     5252    19564    33019 
   46594    60202    70921    75292    71740    61585    50414    42100 
   34298    25118    17128    10736      718   -11862   -18074   -19260 
  -23542   -31570   -40854   -47912   -53451   -63116   -70500   -67889 
  -62823   -58568   -50976   -41447   -29483   -14108     1558    19137 
   39464    55296    61129    58138    48576    32604    12544    -5652 
  -19046   -28669   -33937   -31441   -19989    -5365     5455    12848 
   21823    36341    58224    84229   101896    97826    73348    39611 
    7691   -13226   -28875   -47048   -59004   -61775   -55044   -32510 
   -6581     5671     4078    -8814   -29289   -48192   -55123   -46650 
  -31515   -11819    13433    28184    22469     5215   -12716   -25557 
  -36146   -47484   -53579   -51944   -48823   -47469   -44099   -35162 
  -24357   -17889   -13564    -5395     5551    15292    22739    26973 
   27982    27099    21424     7280   -10249   -21963   -24693   -20286 
  -10158     4720    19704    28966    31670    29625    26771    29327 
   35707    39230    42980    50654    55329    54692    54636    57583 
   61798    62368    55272    41709    24341     6508    -8867   -22187 
  -33978   -41239   -41196   -36619   -32015   -28325   -24104   -16774 
   -4638    10224    22902    29997    32361    31394    26382    17972 
    8363      244    -3155    -3205    -4496    -7293    -9668   -10271 
   -8153    -5248    -2666     2408     9536    14021    15067    15015 
   14213    12999    11809     7987    -1749   -17150   -34765   -50084 
  -59318   -60054   -50321   -30933    -8224    11842    28298    40255 
   45108    42748    35990    28022    21172    16512    14436    12860 
    6811    -2444    -8495   -15026   -29169   -46758   -61030   -69906 
  -72755   -68972   -57893   -42368   -26822   -12027     2809    17840 
   30229    34754    31020    23616    15422     7049     -879    -7914 
  -13059   -14579   -11269    -4398     2353     6907     7442      514 
  -12609   -27487   -42100   -52273   -52659   -43857   -31858   -23272 
  -20507   -20366   -17824   -13533   -13444   -16918   -18975   -20507 
  -22967   -22311   -14506    -6367   -10510   -25892   -42594   -56376 
  -62719   -57251   -42463   -22192    -1062    14795    23366    26083 
   25712    23792    18441    10938     5728     2456     -471    -1260 
    1209     6225    11940    15659    16090    13217     8297     4899 
    5908    10988    18052    23791    24880    22624    21276    21942 
   23860    26615    29231    31400    33892    37095    40909    44162 
   43158    34850    21585     8209    -3032   -11853   -18301   -23634 
  -29189   -33218   -32628   -28228   -25058   -25835   -28561   -31708 
  -34915   -37344   -39928   -44490   -48541   -48022   -44540   -40133 
  -33213   -23881   -13440    -2880     6332    13099    16808    17445 
   15061    10815     8512    11665    20606    32486    42744    49019 
   52656    54821    55048    53323    48848    39407    25081     9324 
   -2940    -8678    -9618    -6477     4619    22452    38551    47067 
   47253    41528    32048    17166    -3108   -25725   -48622   -68649 
  -81863   -87133   -87235   -85766   -82830   -77844   -71699   -61993 
  -45445   -26411   -13325    -7961    -5799    -5139    -8960   -17178 
  -22784   -18139    -4704     7709    14634    20627    28502    36139 
   42802    50667    60015    68371    73718    75570    74622    70550 
   61995    50564    39809    30990    23134    14430     3865    -6680 
  -15267   -22483   -27813   -29378   -27357   -23416   -18940   -14421 
  -10915   -12359   -21288   -33088   -41566   -45046   -41286   -29307 
  -16452    -9455    -4581     4000    13614    20668    27034    30474 
   27687    23289    22168    23023    21693    16131     7222    -2727 
  -11633   -20472   -29807   -36378   -38608   -38935   -38552   -34595 
  -24426   -10677      431     4008    -1713   -14148   -27806   -38392 
  -42233   -37051   -25449   -13879    -7146    -2865     3668     8975 
    6021    -2674    -8993   -10562    -8830    -4754      510     5350 
    8995    11380    11650    10219     9389    10196    11874    14097 
   16986    18884    18665    18028    18017    17896    17477    16849 
   14245     7618    -1824   -11733   -22169   -34304   -47444   -57949 
  -62174   -59700   -51808   -39009   -21846    -2959    13069    22812 
   26403    25075    18740     8625    -1166    -5447     -944    10098 
   21555    28570    29041    23765    15031     4048    -7647   -17186 
  -23555   -27885   -30022   -29104   -26150   -22983   -20205   -16386 
  -10142    -2917     4206    12296    20639    27186    30772    30688 
   27819    24264    21340    19461    17952    14730     8079    -1189 
  -11020   -20262   -28326   -34582   -37256   -33946   -26167   -18982 
  -14369   -10856    -7645    -4089      711     6693    12818    15931 
   13043     6576     1524      -30     1776     4868     7466    11327 
   17733    26935    39785    53634    64013    68668    65394    52304 
   31386     8220   -10697   -20797   -22986   -20589   -14075    -7241 
   -8671   -20482   -36603   -49673   -55121   -52989   -47624   -43855 
  -40411   -33235   -23569   -13797    -3570     6640    13629    13211 
    4164   -10051   -23376   -31495   -33403   -29257   -19151    -2932 
   15649    28357    31432    27524    20876    14361     6982    -3163 
  -14778   -23620   -24276   -16107    -5494     3652    13931    25157 
   33334    36838    33716    23884    13808     7741     2228    -5316 
  -11761   -14876   -14194    -8956    -2579     2061     6240    10601 
   16881    24873    29921    30140    25687    17433     8880     2025 
   -1770     -803     2674     5207     6500     8051    10739    13165 
   13092     9895     3648    -3960    -9604   -13327   -17294   -20725 
  -21726   -20492   -18798   -16486   -10345      473    12192    20974 
   25543    26410    24485    20453    15445    11397    10744    14031 
   17457    17399    14997    10690      897   -15438   -33921   -48708 
  -56126   -55734   -49898   -43361   -38239   -31072   -20603   -10356 
   -3272     -784    -2761    -7271   -11267   -11998   -10054    -7686 
   -5668    -4446    -4303    -4445    -3640     -955     4103    11142 
   19105    27092    33734    38290    41932    43990    41590    34628 
