Origin Time       2016/04/16 01:25:00
Lat.              32.753
Long.             130.762
Depth. (km)       12
Mag.              7.3
Station Code      KGS020
Station Lat.      31.2396
Station Long.     130.4915
Station Height(m) 21
Record Time       2016/04/16 01:25:38
Sampling Freq(Hz) 100Hz
Duration Time(s)  108
Dir.              N-S
Scale Factor      3920(gal)/6182761
Max. Acc. (gal)   10.444
Last Correction   2016/04/16 01:25:38
Memo.             
[...]
  -12863   -12895   -12840   -12792   -12802   -12817   -12694   -12405 
  -12111   -11925   -11804   -11697   -11548   -11319   -11113   -10974 
  -10771   -10497   -10295   -10156   -10023   -10014   -10274   -10748 
  -11184   -11325   -11035   -10335    -9377    -8408    -7729    -7548 
   -7830    -8345    -8923    -9627   -10560   -11610   -12534   -13142 
  -13372   -13255   -12834   -12217   -11583   -11059   -10665   -10351 
  -10067    -9795    -9474    -9008    -8484    -8176    -8168    -8344 
   -8699    -9318   -10223   -11333   -12447   -13348   -13949   -14269 
  -14267   -13899   -13240   -12464   -11769   -11343   -11325   -11729 
  -12388   -13087   -13674   -13982   -13880   -13368   -12584   -11775 
  -11122   -10568    -9994    -9409    -8891    -8481    -8198    -8041 
   -7961    -7945    -8056    -8315    -8668    -9088    -9567   -10052 
  -10385   -10427   -10298   -10240   -10278   -10245   -10044    -9751 
   -9451    -9120    -8880    -9025    -9582   -10247   -10838   -11387 
  -11925   -12409   -12755   -12960   -13143   -13377   -13549   -13466 
  -13054   -12475   -12037   -11952   -12246   -12878   -13789   -14869 
  -15967   -16886   -17387   -17314   -16699   -15695   -14446   -13015 
  -11461    -9953    -8665    -7603    -6695    -5947    -5378    -4954 
   -4585    -4261    -4145    -4232    -4206    -3915    -3569    -3418 
   -3548    -3961    -4708    -5894    -7538    -9460   -11413   -13322 
  -15266   -17190   -18804   -19880   -20458   -20721   -20795   -20654 
  -20265   -19736   -19115   -18307   -17387   -16575   -15881   -15162 
  -14445   -13942   -13794   -13888   -13963   -13835   -13477   -12974 
  -12443   -11907   -11202   -10148    -8859    -7729    -7049    -6843 
   -7016    -7447    -7988    -8553    -9160    -9819   -10457   -10951 
  -11194   -11231   -11180   -11117   -11142   -11307   -11570   -11923 
  -12406   -13030   -13655   -13979   -13841   -13471   -13188   -13026 
  -12883   -12747   -12576   -12249   -11713   -11056   -10416    -9872 
   -9488    -9362    -9606   -10302   -11282   -12098   -12393   -12167 
  -11729   -11447   -11402   -11432   -11428   -11314   -10987   -10513 
  -10071    -9719    -9451    -9269    -9151    -9122    -9266    -9633 
  -10209   -10918   -11559   -11828   -11534   -10820   -10080    -9637 
   -9580    -9825   -10211   -10635   -11066   -11494   -11997   -12658 
  -13324   -13679   -13559   -13139   -12740   -12554   -12603   -12830 
  -13155   -13596   -14253   -15101   -15981   -16710   -17068   -16873 
  -16128   -15042   -13898   -12884   -11980   -11126   -10403    -9901 
   -9570    -9319    -9193    -9266    -9349    -9177    -8746    -8179 
   -7579    -7086    -6817    -6770    -6850    -6922    -6911    -6971 
   -7366    -8118    -9013    -9827   -10356   -10477   -10302   -10073 
   -9973   -10059   -10221   -10237   -10017    -9733    -9630    -9819 
  -10239   -10752   -11277   -11706   -11865   -11771   -11669   -11678 
  -11730   -11783   -11871   -12090   -12479   -12903   -13267   -13540 
  -13583   -13373   -13082   -12799   -12563   -12493   -12650   -12933 
  -13113   -13023   -12762   -12544   -12457   -12511   -12684   -12828 
  -12768   -12483   -12103   -11787   -11639   -11671   -11818   -11997 
  -12158   -12234   -12108   -11742   -11262   -10773   -10252    -9686 
   -9138    -8758    -8627    -8529    -8247    -7950    -7948    -8254 
   -8638    -8981    -9307    -9604    -9871   -10206   -10648   -11171 
  -11835   -12655   -13452   -14040   -14348   -14392   -14242   -13953 
  -13613   -13363   -13237   -13166   -13099   -12942   -12627   -12235 
  -11920   -11787   -11830   -11940   -12025   -12050   -12011   -11958 
  -11896   -11674   -11198   -10585    -9970    -9461    -9255    -9509 
  -10134   -10932   -11868   -13024   -14270   -15229   -15646   -15642 
  -15477   -15216   -14757   -14081   -13350   -12698   -12069   -11343 
  -10529    -9806    -9345    -9151    -9129    -9193    -9365    -9723 
  -10129   -10267   -10016    -9553    -9105    -8810    -8692    -8640 
   -8496    -8177    -7719    -7332    -7227    -7396    -7726    -8192 
   -8825    -9521   -10035   -10240   -10148    -9724    -9038    -8405 
   -8100    -8144    -8480    -9070    -9786   -10411   -10803   -11004 
  -11183   -11545   -12242   -13213   -14234   -15111   -15674   -15759 
  -15324   -14501   -13512   -12547   -11673   -10941   -10537   -10648 
  -11195   -11925   -12630   -13137   -13330   -13245   -12981   -12621 
  -12203   -11585   -10590    -9286    -7892    -6643    -5778    -5428 
   -5576    -6125    -6932    -7847    -8723    -9407    -9790    -9873 
   -9734    -9435    -9010    -8534    -8159    -8034    -8236    -8812 
   -9728   -10773   -11672   -12284   -12616   -12727   -12700   -12570 
  -12262   -11638   -10665    -9549    -8620    -8081    -7915    -7989 
   -8294    -8902    -9740   -10729   -11894   -13107   -14107   -14748 
  -15004   -14924   -14627   -14175   -13557   -12863   -12281   -11858 
  -11490   -11117   -10788   -10606   -10598   -10679   -10757   -10828 
  -10904   -10941   -10914   -10907   -11061   -11453   -12027   -12737 
  -13592   -14486   -15241   -15773   -16116   -16348   -16491   -16525 
  -16490   -16399   -16185   -15771   -15140   -14348   -13347   -12023 
  -10509    -9107    -8034    -7427    -7283    -7487    -7936    -8515 
   -9017    -9286    -9347    -9261    -8996    -8597    -8272    -8212 
   -8416    -8784    -9297    -9970   -10746   -11496   -12015   -12178 
  -12091   -11955   -11884   -11885   -11932   -12004   -12064   -12026 
  -11840   -11576   -11252   -10774   -10228    -9876    -9841   -10050 
  -10341   -10534   -10485   -10194    -9869    -9774   -10021   -10531 
  -11168   -11831   -12380   -12640   -12624   -12642   -13007   -13721 
  -14569   -15280   -15592   -15385   -14686   -13660   -12600   -11680 
  -10901   -10252    -9747    -9507    -9650   -10065   -10510   -10755 
  -10656   -10200    -9487    -8726    -8090    -7637    -7428    -7544 
   -7976    -8640    -9489   -10456   -11384   -12143   -12658   -12891 
  -12961   -13017   -13059   -13062   -13088   -13216   -13449   -13680 
  -13850   -14002   -14048   -13786   -13124   -12135   -10982    -9810 
   -8719    -7859    -7352    -7148    -7133    -7258    -7455    -7627 
   -7713    -7676    -7530    -7364    -7218    -6988    -6591    -6160 
   -5965    -6145    -6592    -7197    -8026    -9095   -10291   -11538 
  -12763   -13823   -14553   -14904   -15013   -15057   -15047   -14929 
  -14789   -14750   -14766   -14710   -14543   -14355   -14294   -14414 
  -14632   -14843   -15061   -15436   -16029   -16680   -17206   -17503 
  -17456   -17031   -16317   -15365   -14124   -12617   -10992    -9399 
   -8023    -7124    -6818    -7039    -7750    -8915   -10369   -11897 
  -13298   -14401   -15075   -15197   -14707   -13776   -12796   -12113 
  -11771   -11588   -11420   -11266   -11172   -11191   -11414   -11887 
  -12593   -13530   -14599   -15623   -16553   -17334   -17796   -17924 
  -17891   -17791   -17614   -17331   -16928   -16443   -15873   -15127 
  -14139   -13029   -12131   -11682   -11589   -11650   -11703   -11524 
  -10830    -9491    -7668    -5676    -3812    -2305    -1287     -793 
    -839    -1376    -2244    -3322    -4491    -5453    -5954    -5995 
   -5732    -5448    -5434    -5723    -6241    -7011    -8029    -9190 
  -10422   -11696   -12889   -13859   -14602   -15196   -15810   -16666 
  -17852   -19248   -20610   -21630   -21944   -21354   -20001   -18110 
  -15878   -13642   -11769   -10432    -9564    -9018    -8723    -8676 
   -8892    -9380   -10047   -10632   -10915   -10912   -10759   -10478 
  -10024    -9435    -8728    -7782    -6577    -5340    -4324    -3727 
   -3667    -4064    -4797    -5813    -6975    -8132    -9270   -10310 
  -11065   -11502   -11690   -11590   -11206   -10689   -10132    -9648 
   -9453    -9557    -9714    -9816    -9997   -10336   -10830   -11526 
  -12402   -13362   -14281   -14933   -15200   -15153   -14827   -14232 
  -13456   -12673   -12045   -11546   -11054   -10470    -9743    -8928 
   -8131    -7384    -6690    -6084    -5641    -5408    -5347    -5433 
   -5665    -5964    -6188    -6226    -6089    -5956    -6015    -6338 
   -6946    -7849    -8993   -10367   -12066   -14035   -15996   -17799 
  -19430   -20799   -21847   -22532   -22698   -22263   -21353   -20170 
  -18865   -17520   -16224   -15185   -14580   -14336   -14233   -14123 
  -13985   -13929   -14099   -14462   -14827   -14982   -14727   -13959 
  -12812   -11552   -10375    -9393    -8653    -8164    -7930    -7933 
   -8144    -8527    -8951    -9209    -9111    -8598    -7840    -7155 
   -6823    -6884    -7112    -7294    -7360    -7328    -7248    -7181 
   -7188    -7259    -7304    -7232    -7043    -6834    -6697    -6691 
   -6840    -7154    -7737    -8705   -10002   -11499   -13047   -14458 
  -15526   -16079   -16165   -16027   -15741   -15206   -14442   -13600 
  -12763   -11929   -11019    -9906    -8607    -7334    -6321    -5773 
   -5791    -6259    -6857    -7310    -7614    -7900    -8229    -8613 
   -9053    -9532   -10036   -10572   -11080   -11456   -11688   -11818 
  -11942   -12224   -12748   -13480   -14290   -14980   -15474   -15740 
  -15621   -15037   -14059   -12833   -11630   -10731   -10220    -9963 
   -9768    -9436    -8722    -7526    -6033    -4543    -3323    -2539 
   -2231    -2363    -2834    -3497    -4201    -4830    -5324    -5655 
   -5849    -6015    -6323    -6970    -8117    -9834   -12044   -14480 
  -16797   -18779   -20369   -21533   -22225   -22408   -22003   -21021 
  -19637   -18061   -16515   -15183   -14144   -13484   -13274   -13498 
  -14132   -15142   -16354   -17417   -17996   -17946   -17278   -16113 
  -14657   -13151   -11833   -10866   -10265    -9846    -9363    -8748 
   -8058    -7377    -6821    -6378    -5935    -5488    -5093    -4818 
   -4886    -5559    -6755    -8180    -9695   -11216   -12648   -13952 
  -15060   -15943   -16690   -17410   -18120   -18701   -19134   -19582 
  -20095   -20558   -20841   -20785   -20346   -19682   -19095   -18989 
  -19648   -20915   -22320   -23450   -23997   -23779   -22861   -21396 
  -19492   -17326   -15117   -13128   -11644   -10731   -10277   -10150 
  -10157   -10068    -9713    -9074    -8290    -7553    -7060    -6898 
   -6882    -6804    -6731    -6824    -7205    -8000    -9137   -10350 
  -11446   -12245   -12629   -12707   -12637   -12553   -12583   -12669 
  -12667   -12629   -12685   -12895   -13322   -13902   -14406   -14641 
  -14487   -13949   -13228   -12553   -12022   -11604   -11236   -10968 
  -10898   -11013   -11142   -10951   -10235    -9230    -8361    -7837 
   -7764    -8193    -8957    -9756   -10238   -10112    -9446    -8578 
   -7775    -7274    -7233    -7554    -8025    -8471    -8871    -9241 
   -9421    -9326    -9034    -8553    -8057    -7855    -7972    -8314 
   -8849    -9509   -10229   -11005   -11917   -13030   -14258   -15443 
  -16354   -16718   -16503   -15877   -15013   -14231   -13906   -14101 
  -14591   -15156   -15618   -15800   -15655   -15206   -14372   -13120 
  -11591    -9892    -8102    -6440    -5072    -3951    -2987    -2267 
   -1986    -2142    -2427    -2466    -2129    -1622    -1251    -1127 
   -1232    -1582    -2179    -2944    -3735    -4468    -5145    -5737 
   -6139    -6301    -6340    -6497    -6964    -7774    -8883   -10257 
  -11879   -13655   -15379   -16839   -17865   -18385   -18494   -18318 
  -17884   -17156   -16030   -14456   -12567   -10575    -8687    -7074 
   -5815    -4859    -4071    -3297    -2435    -1613    -1172    -1340 
   -2103    -3349    -4881    -6387    -7499    -7934    -7708    -7056 
   -6200    -5323    -4683    -4628    -5427    -7018    -9001   -10920 
  -12443   -13433   -13922   -13990   -13723   -13214   -12496   -11551 
  -10392    -9165    -8122    -7381    -6890    -6646    -6714    -7084 
   -7647    -8264    -8825    -9310    -9753   -10110   -10279   -10191 
   -9848    -9287    -8607    -8046    -7843    -8037    -8566    -9405 
  -10539   -11907   -13321   -14548   -15533   -16304   -16751   -16818 
  -16662   -16539   -16729   -17332   -18162   -19031   -19940   -20923 
  -21861   -22519   -22747   -22508   -21777   -20615   -19158   -17541 
  -15870   -14211   -12728   -11696   -11247   -11286   -11691   -12409 
  -13310   -14186   -14864   -15165   -14939   -14179   -12958   -11387 
   -9711    -8264    -7333    -7062    -7333    -7790    -8144    -8283 
   -8094    -7589    -6998    -6531    -6293    -6342    -6603    -6958 
   -7435    -8086    -8859    -9657   -10407   -11109   -11769   -12287 
  -12605   -12782   -12780   -12517   -12000   -11286   -10579   -10158 
  -10158   -10615   -11489   -12601   -13809   -15022   -16122   -17024 
  -17557   -17487   -16739   -15338   -13399   -11232    -9169    -7498 
   -6555    -6482    -7134    -8271    -9602   -10885   -11984   -12741 
  -13174   -13430   -13499   -13458   -13499   -13658   -13954   -14275 
  -14319   -14043   -13663   -13427   -13729   -14919   -17041   -19824 
  -22669   -24935   -26270   -26551   -25893   -24641   -23122   -21641 
  -20487   -19729   -19430   -19721   -20536   -21694   -22953   -23993 
  -24614   -24722   -24213   -22992   -21013   -18392   -15413   -12431 
   -9866    -8065    -7105    -6877    -7176    -7656    -7971    -7932 
   -7439    -6446    -4999    -3222    -1307      549     2223     3653 
    4732     5273     5162     4459     3294     1890      443    -1056 
   -2636    -4274    -5888    -7332    -8481    -9200    -9537    -9815 
  -10131   -10383   -10698   -11250   -12133   -13454   -15088   -16650 
  -17848   -18515   -18424   -17563   -16241   -14799   -13564   -12768 
  -12417   -12405   -12583   -12756   -12746   -12424   -11847   -11110 
  -10114    -8788    -7226    -5617    -4297    -3546    -3334    -3489 
   -3860    -4290    -4654    -4875    -5017    -5305    -5877    -6777 
   -8036    -9473   -10794   -11810   -12335   -12353   -12061   -11548 
  -10866   -10178    -9616    -9296    -9369    -9925   -10930   -12235 
  -13613   -14807   -15575   -15800   -15511   -14863   -14107   -13483 
  -13025   -12566   -11957   -11177   -10409    -9923    -9816    -9981 
  -10194   -10240   -10053    -9668    -9141    -8543    -7866    -7085 
   -6283    -5589    -5104    -4962    -5323    -6189    -7342    -8476 
   -9272    -9507    -9241    -8876    -8900    -9512   -10614   -11937 
  -13085   -13826   -14135   -13973   -13415   -12656   -11802   -10988 
  -10443   -10341   -10761   -11646   -12775   -13900   -14846   -15511 
  -15834   -15809   -15538   -15174   -14817   -14504   -14221   -13954 
  -13835   -14012   -14391   -14752   -14931   -14836   -14446   -13761 
  -12781   -11613   -10437    -9448    -8879    -8833    -9203    -9856 
  -10689   -11545   -12288   -12815   -12989   -12729   -12040   -11032 
   -9950    -9030    -8450    -8309    -8577    -9263   -10364   -11661 
  -12891   -13784   -14049   -13651   -12836   -11885   -11009   -10399 
  -10184   -10291   -10501   -10670   -10727   -10587   -10246    -9846 
   -9571    -9563    -9911   -10669   -11875   -13511   -15402   -17286 
  -18938   -20134   -20639   -20361   -19377   -17819   -15896   -13922 
  -12205   -11005   -10507   -10680   -11344   -12309   -13394   -14437 
  -15289   -15789   -15834   -15490   -14933   -14323   -13827   -13592 
  -13623   -13817   -14076   -14358   -14626   -14853   -15097   -15427 
  -15861   -16379   -16922   -17420   -17808   -18000   -17820   -17004 
  -15569   -13881   -12223   -10734    -9548    -8736    -8270    -8097 
   -8123    -8156    -8099    -7990    -7824    -7673    -7588    -7364 
   -6896    -6270    -5519    -4759    -4196    -3973    -4247    -5122 
   -6486    -8157    -9940   -11524   -12592   -12950   -12597   -11752 
  -10708    -9744    -9003    -8355    -7724    -7298    -7259    -7754 
   -8810   -10149   -11399   -12360   -12967   -13165   -12867   -12090 
  -10942    -9514    -8062    -6887    -6067    -5708    -5904    -6476 
   -7283    -8381    -9708   -11064   -12297   -13287   -13821   -13714 
  -13039   -12055   -11025   -10249    -9920    -9890    -9897    -9920 
  -10051   -10297   -10554   -10639   -10441    -9978    -9353    -8751 
   -8317    -8139    -8275    -8522    -8533    -8230    -7770    -7363 
   -7246    -7586    -8409    -9606   -10946   -12190   -13195   -13875 
  -14215   -14252   -14035   -13712   -13477   -13430   -13550   -13707 
  -13804   -13913   -14055   -14160   -14224   -14239   -14153   -14001 
  -13834   -13595   -13212   -12681   -11971   -11058   -10007    -8881 
   -7740    -6732    -6042    -5820    -6128    -6927    -8024    -9097 
   -9947   -10535   -10782   -10681   -10360    -9896    -9338    -8832 
   -8557    -8578    -8836    -9271    -9788   -10165   -10226    -9941 
   -9351    -8614    -8004    -7661    -7523    -7495    -7484    -7377 
   -7142    -6894    -6788    -6894    -7198    -7634    -8126    -8626 
   -9094    -9450    -9616    -9577    -9405    -9252    -9277    -9546 
  -10032   -10673   -11332   -11876   -12311   -12666   -12916   -12994 
  -12814   -12353   -11667   -10868   -10134    -9553    -9123    -8880 
   -8763    -8609    -8352    -8058    -7871    -7918    -8268    -8930 
   -9822   -10802   -11699   -12365   -12750   -12888   -12861   -12807 
  -12825   -12966   -13303   -13853   -14439   -14818   -14888   -14684 
  -14285   -13740   -13094   -12502   -12231   -12476   -13193   -14081 
  -14736   -14883   -14460   -13575   -12392   -11046    -9688    -8502 
   -7597    -7011    -6815    -7025    -7601    -8489    -9505   -10414 
  -11061   -11319   -11190   -10865   -10534   -10330   -10334   -10539 
  -10976   -11669   -12546   -13510   -14371   -14872   -14934   -14625 
  -14046   -13350   -12683   -12192   -12034   -12222   -12605   -12956 
  -13113   -13098   -12985   -12759   -12398   -11880   -11235   -10607 
  -10075    -9599    -9200    -8972    -8953    -9155    -9556   -10025 
  -10460   -10841   -11159   -11470   -11801   -11983   -11889   -11594 
  -11193   -10751   -10341   -10024    -9813    -9675    -9567    -9412 
   -9226    -9204    -9436    -9826   -10303   -10778   -11098   -11173 
  -11043   -10851   -10688   -10573   -10471   -10255    -9909    -9626 
   -9558    -9709   -10013   -10326   -10440   -10205    -9637    -8908 
   -8225    -7700    -7313    -6983    -6633    -6244    -5892    -5708 
   -5819    -6235    -6841    -7567    -8389    -9244   -10078   -10805 
  -11296   -11505   -11459   -11216   -10878   -10611   -10648   -11109 
  -11819   -12523   -13089   -13450   -13632   -13717   -13704   -13569 
  -13336   -13050   -12746   -12387   -11939   -11440   -10925   -10409 
   -9947    -9590    -9348    -9180    -8997    -8740    -8398    -7990 
   -7612    -7393    -7447    -7851    -8526    -9242    -9833   -10280 
  -10612   -10850   -11003   -11077   -11116   -11159   -11261   -11541 
  -12037   -12656   -13288   -13797   -14108   -14274   -14355   -14412 
  -14498   -14575   -14615   -14638   -14630   -14575   -14460   -14237 
  -13911   -13570   -13282   -13075   -12935   -12787   -12579   -12274 
  -11833   -11278   -10689   -10174    -9850    -9759    -9881   -10145 
  -10443   -10688   -10813   -10797   -10692   -10604   -10695   -11120 
