Origin Time       2016/04/16 01:25:00
Lat.              32.753
Long.             130.762
Depth. (km)       12
Mag.              7.3
Station Code      KGS023
Station Lat.      31.1990
Station Long.     130.8490
Station Height(m) 179
Record Time       2016/04/16 01:25:38
Sampling Freq(Hz) 100Hz
Duration Time(s)  121
Dir.              E-W
Scale Factor      3920(gal)/6182761
Max. Acc. (gal)   7.295
Last Correction   2016/04/16 01:25:38
Memo.             
[...]
   21423    20009    18599    17317    16241    15377    14699    14222 
   13985    13987    14269    14961    16116    17613    19263    20902 
   22457    23934    25307    26494    27421    28023    28211    27898 
   27110    25991    24671    23267    21915    20723    19760    19070 
   18660    18496    18560    18862    19382    20050    20797    21576 
   22336    22995    23465    23652    23470    22880    21935    20776 
   19585    18510    17650    17099    16900    16997    17301    17774 
   18397    19128    19879    20571    21192    21753    22272    22811 
   23404    23995    24484    24788    24896    24846    24665    24365 
   23947    23409    22769    22036    21185    20205    19142    18089 
   17155    16417    15873    15514    15402    15614    16168    17013 
   18034    19060    19906    20445    20643    20593    20469    20387 
   20350    20318    20337    20488    20747    21025    21277    21482 
   21650    21854    22137    22489    22871    23193    23362    23372 
   23290    23200    23153    23156    23152    23025    22722    22298 
   21854    21498    21306    21296    21374    21349    21118    20748 
   20360    20012    19688    19382    19130    18941    18837    18916 
   19218    19640    20019    20200    20089    19712    19214    18746 
   18382    18143    18019    17955    17946    18115    18594    19368 
   20313    21307    22196    22813    23109    23185    23190    23261 
   23460    23791    24236    24725    25123    25284    25133    24683 
   24013    23212    22310    21301    20254    19283    18471    17853 
   17406    17062    16802    16693    16789    17066    17524    18196 
   19038    19929    20770    21533    22220    22816    23310    23675 
   23844    23773    23487    23070    22628    22248    21973    21813 
   21741    21677    21583    21491    21412    21316    21189    21034 
   20872    20733    20673    20763    21032    21434    21900    22345 
   22657    22771    22690    22454    22110    21696    21230    20728 
   20213    19726    19303    18941    18608    18277    17964    17746 
   17723    17971    18525    19366    20399    21476    22475    23340 
   24087    24759    25358    25846    26165    26260    26145    25916 
   25671    25420    25082    24588    23934    23145    22238    21243 
   20212    19173    18109    17061    16156    15513    15177    15142 
   15393    15863    16395    16856    17225    17554    17916    18396 
   19058    19888    20809    21714    22493    23100    23558    23827 
   23807    23469    22873    22123    21333    20610    20039    19686 
   19534    19470    19406    19357    19390    19521    19757    20118 
   20573    21050    21505    21971    22559    23356    24304    25256 
   26054    26584    26823    26786    26479    25935    25207    24357 
   23475    22662    21995    21496    21095    20676    20170    19559 
   18849    18071    17269    16493    15812    15296    14996    14944 
   15156    15593    16167    16737    17127    17241    17132    16923 
   16732    16660    16799    17173    17742    18480    19383    20449 
   21654    22882    23935    24706    25226    25534    25707    25837 
   25947    26068    26248    26455    26598    26631    26565    26422 
   26178    25775    25191    24427    23489    22399    21207    19975 
   18719    17411    16082    14869    13926    13343    13152    13342 
   13875    14698    15707    16748    17714    18587    19347    19969 
   20467    20876    21236    21604    22010    22421    22769    22982 
   23026    22945    22815    22689    22557    22339    22009    21677 
   21491    21543    21810    22152    22503    22902    23244    23434 
   23586    23741    23894    24079    24187    24252    24401    24470 
   24386    24306    24185    23889    23443    22913    22372    21965 
   21753    21634    21545    21478    21352    21111    20820    20579 
   20395    20292    20345    20526    20761    21024    21223    21299 
   21280    21110    20744    20274    19744    19153    18602    18124 
   17670    17278    16977    16722    16509    16314    16061    15791 
   15608    15557    15699    16085    16653    17310    17993    18646 
   19238    19781    20283    20718    21089    21423    21721    21995 
   22288    22599    22892    23144    23305    23282    23055    22718 
   22382    22122    21971    21917    21932    22023    22222    22544 
   22950    23377    23812    24242    24640    24989    25242    25348 
   25306    25129    24808    24359    23828    23261    22673    22043 
   21359    20621    19824    18963    18055    17170    16387    15757 
   15329    15142    15206    15520    16045    16688    17360    18008 
   18590    19087    19529    19959    20399    20841    21268    21685 
   22107    22510    22845    23077    23202    23246    23237    23172 
   23055    22928    22815    22692    22544    22386    22242    22155 
   22139    22161    22179    22166    22125    22092    22106    22180 
   22313    22468    22594    22694    22831    23057    23380    23746 
   24059    24249    24277    24145    23910    23652    23409    23175 
   22927    22624    22211    21683    21117    20591    20112    19684 
   19323    19004    18696    18433    18275    18233    18307    18515 
   18844    19246    19681    20070    20320    20391    20320    20169 
   19989    19861    19847    19928    20070    20306    20689    21220 
   21863    22563    23236    23785    24132    24222    24063    23726 
   23323    22997    22834    22775    22722    22642    22531    22388 
   22208    21971    21691    21440    21310    21331    21466    21670 
   21885    22011    21957    21718    21356    20923    20447    19956 
   19470    19001    18554    18136    17765    17452    17191    16985 
   16834    16718    16639    16638    16732    16899    17134    17467 
   17928    18497    19103    19684    20226    20740    21233    21710 
   22195    22713    23263    23800    24246    24523    24593    24472 
   24203    23850    23471    23059    22611    22176    21787    21452 
   21170    20956    20809    20683    20527    20324    20099    19941 
   19929    20062    20302    20596    20849    20958    20884    20656 
   20327    19967    19659    19457    19404    19540    19827    20199 
   20628    21098    21594    22114    22621    23087    23532    23958 
   24337    24659    24907    25029    24970    24694    24229    23670 
   23133    22676    22277    21922    21623    21347    21056    20794 
   20619    20518    20425    20247    19936    19545    19143    18769 
   18460    18205    17951    17674    17389    17117    16901    16818 
   16905    17108    17325    17458    17465    17431    17531    17892 
   18495    19198    19853    20335    20559    20552    20436    20325 
   20289    20357    20530    20779    21038    21239    21305    21128 
   20652    19967    19248    18672    18376    18426    18830    19531 
   20381    21232    21992    22579    22931    23019    22829    22408 
   21850    21249    20694    20267    19981    19783    19617    19476 
   19358    19254    19189    19204    19287    19391    19485    19566 
   19657    19779    19910    20017    20099    20180    20279    20409 
   20595    20857    21174    21489    21727    21836    21803    21666 
   21496    21333    21167    20980    20756    20489    20203    19943 
   19765    19702    19729    19807    19919    20066    20257    20491 
   20742    20989    21219    21398    21494    21516    21504    21511 
   21566    21669    21774    21789    21661    21412    21080    20679 
   20218    19716    19199    18702    18289    18017    17903    17955 
   18160    18466    18828    19218    19592    19911    20153    20264 
   20201    19981    19640    19241    18870    18605    18505    18568 
   18755    19024    19306    19543    19723    19839    19893    19938 
   20051    20282    20657    21211    21948    22836    23838    24879 
   25812    26500    26876    26911    26602    25996    25136    24055 
   22836    21596    20431    19391    18486    17734    17190    16909 
   16892    17122    17572    18175    18838    19465    19989    20387 
   20672    20857    20946    20960    20930    20873    20816    20796 
   20857    21053    21378    21757    22105    22370    22569    22740 
   22914    23119    23369    23666    23998    24331    24628    24839 
   24908    24823    24593    24231    23768    23193    22475    21647 
   20795    20025    19441    19080    18901    18863    18993    19344 
   19924    20674    21520    22408    23281    24060    24669    25053 
   25181    25069    24770    24324    23758    23102    22358    21525 
   20650    19808    19071    18489    18048    17700    17414    17159 
   16906    16669    16499    16447    16550    16814    17226    17765 
   18385    19026    19639    20196    20669    21037    21335    21614 
   21872    22082    22221    22268    22217    22105    21977    21851 
   21728    21603    21489    21421    21428    21498    21612    21775 
   21996    22251    22500    22715    22887    23035    23174    23295 
   23384    23443    23469    23444    23341    23177    22993    22780 
   22519    22241    21993    21792    21624    21467    21318    21161 
   20982    20817    20721    20727    20820    20947    21040    21026 
   20883    20673    20402    20011    19512    18938    18306    17677 
   17072    16495    15993    15578    15231    14984    14863    14828 
   14839    14884    14958    15073    15234    15433    15691    16030 
   16450    16959    17540    18153    18797    19456    20093    20675 
   21143    21437    21532    21421    21143    20765    20324    19864 
   19459    19167    19002    18980    19109    19393    19842    20445 
   21153    21911    22676    23379    23960    24397    24706    24940 
   25187    25510    25930    26426    26952    27455    27872    28143 
   28246    28170    27924    27542    27029    26359    25562    24673 
   23676    22613    21572    20566    19581    18678    17853    17021 
   16191    15414    14700    14086    13606    13249    13000    12849 
   12781    12783    12880    13099    13428    13859    14397    15048 
   15826    16688    17539    18302    18924    19394    19743    19981 
   20134    20252    20309    20270    20227    20263    20372    20564 
   20820    21103    21416    21748    22097    22504    22961    23387 
   23693    23799    23694    23444    23105    22722    22365    22083 
   21843    21557    21179    20733    20225    19668    19125    18634 
   18191    17849    17680    17678    17802    18028    18297    18531 
   18712    18866    19018    19186    19362    19520    19681    19887 
   20135    20415    20719    21025    21301    21517    21632    21589 
   21340    20887    20300    19701    19230    19002    19081    19470 
   20120    20942    21812    22605    23249    23743    24130    24477 
   24838    25201    25522    25752    25837    25735    25433    24937 
   24273    23521    22797    22162    21606    21103    20593    20010 
   19362    18683    17996    17344    16799    16437    16302    16380 
   16626    17009    17490    18003    18485    18886    19162    19288 
   19264    19120    18922    18745    18656    18689    18847    19117 
   19461    19831    20199    20573    20975    21437    21985    22612 
   23274    23914    24461    24866    25129    25251    25215    25031 
   24760    24477    24230    24027    23864    23725    23553    23279 
   22844    22201    21317    20239    19099    18011    17036    16207 
   15543    15064    14794    14724    14813    15006    15250    15488 
   15667    15777    15870    16030    16332    16815    17455    18214 
   19057    19934    20806    21657    22479    23249    23900    24370 
   24648    24753    24713    24559    24323    24032    23722    23448 
   23248    23149    23181    23327    23523    23710    23823    23798 
   23630    23371    23075    22760    22416    22046    21693    21409 
   21227    21157    21165    21202    21226    21214    21188    21177 
   21207    21313    21517    21808    22173    22606    23093    23608 
   24110    24531    24800    24876    24762    24485    24093    23646 
   23192    22752    22321    21901    21511    21160    20838    20525 
   20198    19840    19443    19009    18551    18107    17744    17519 
   17464    17594    17901    18356    18896    19447    19957    20402 
   20791    21145    21481    21853    22328    22930    23657    24479 
   25323    26118    26801    27296    27544    27521    27241    26740 
   26067    25311    24576    23945    23466    23139    22927    22781 
   22639    22424    22070    21561    20933    20273    19694    19268 
   19030    19029    19257    19613    20069    20641    21277    21918 
   22521    23048    23494    23854    24158    24474    24823    25180 
   25505    25752    25883    25878    25742    25494    25167    24801 
   24409    23996    23577    23132    22634    22079    21463    20808 
   20165    19544    18972    18524    18238    18097    18071    18111 
   18148    18118    18014    17858    17649    17408    17212    17111 
   17090    17112    17147    17155    17098    16969    16773    16527 
   16277    16063    15936    15943    16101    16408    16873    17474 
   18158    18876    19610    20365    21193    22156    23223    24361 
   25574    26780    27923    29016    30018    30893    31634    32178 
   32433    32359    31966    31282    30371    29316    28170    26979 
   25815    24699    23631    22629    21658    20676    19720    18772 
   17721    16663    15856    15274    14824    14634    14702    14949 
   15408    16026    16725    17489    18265    19028    19793    20547 
   21266    21945    22561    23059    23398    23588    23659    23626 
   23512    23357    23160    22922    22703    22505    22275    22044 
   21850    21690    21579    21554    21647    21874    22203    22608 
   23068    23510    23870    24105    24176    24121    24034    23964 
   23925    23916    23901    23818    23608    23234    22709    22082 
   21387    20624    19812    19000    18245    17589    17066    16721 
   16588    16648    16841    17096    17363    17622    17872    18113 
   18349    18583    18816    19050    19315    19640    20013    20395 
   20759    21092    21402    21676    21883    22016    22085    22110 
   22125    22155    22198    22247    22299    22388    22561    22838 
   23190    23570    23914    24176    24333    24363    24268    24059 
   23715    23235    22672    22092    21559    21105    20711    20357 
   20033    19737    19470    19236    19027    18830    18630    18409 
   18187    18005    17873    17815    17848    17925    17972    17961 
   17884    17775    17686    17641    17656    17749    17915    18158 
   18512    18997    19596    20278    21003    21751    22514    23258 
   23929    24479    24879    25131    25253    25257    25169    25029 
   24868    24717    24606    24505    24366    24188    23970    23677 
   23274    22739    22080    21334    20549    19793    19143    18682 
   18473    18507    18712    18982    19205    19307    19250    19016 
   18638    18191    17754    17384    17120    16982    16973    17070 
   17234    17432    17624    17781    17897    17982    18058    18163 
   18363    18719    19256    19955    20764    21648    22587    23523 
   24406    25209    25893    26420    26777    26959    26960    26785 
   26479    26105    25702    25284    24865    24463    24092    23782 
   23550    23365    23195    23037    22854    22592    22262    21882 
   21448    21002    20609    20308    20113    20006    19929    19840 
   19722    19547    19327    19132    19033    19076    19266    19550 
   19877    20224    20555    20843    21077    21222    21249    21167 
   20990    20759    20528    20309    20113    19962    19848    19742 
   19625    19486    19342    19243    19224    19298    19451    19658 
   19896    20151    20437    20788    21198    21607    21945    22166 
   22256    22223    22096    21899    21647    21365    21087    20846 
   20673    20596    20625    20777    21047    21368    21658    21882 
   22025    22064    22000    21889    21798    21786    21900    22115 
   22392    22732    23052    23260    23347    23292    23072    22685 
   22130    21451    20715    19993    19365    18879    18527    18280 
   18120    18033    17991    17963    17925    17856    17740    17590 
   17434    17292    17226    17308    17562    17996    18620    19403 
   20268    21117    21839    22375    22747    22999    23186    23397 
   23684    24019    24376    24719    24983    25135    25168    25070 
   24850    24545    24203    23879    23633    23528    23589    23791 
   24078    24395    24698    24946    25130    25253    25302    25280 
   25213    25096    24922    24701    24418    24056    23622    23087 
   22402    21579    20662    19689    18693    17739    16914    16273 
   15819    15524    15343    15236    15180    15140    15084    15008 
   14930    14884    14899    14975    15110    15323    15620    16003 
   16462    17002    17661    18433    19231    20004    20723    21269 
   21607    21866    22051    22118    22149    22187    22238    22341 
   22494    22654    22769    22813    22774    22627    22380    22075 
   21753    21444    21202    21102    21174    21404    21763    22188 
   22601    22967    23253    23422    23471    23425    23307    23152 
   23004    22887    22778    22653    22495    22268    21939    21508 
   20987    20419    19877    19432    19123    18944    18862    18849 
   18876    18918    18958    18965    18912    18795    18631    18470 
   18339    18228    18143    18092    18071    18068    18062    18034 
   17968    17835    17615    17330    17035    16771    16590    16562 
   16727    17100    17671    18396    19219    20075    20900    21669 
   22364    22960    23462    23881    24212    24461    24650    24781 
   24849    24845    24737    24516    24226    23900    23536    23148 
   22745    22317    21879    21434    20963    20455    19932    19418 
   18927    18496    18168    17951    17824    17763    17745    17757 
   17769    17748    17707    17700    17757    17886    18109    18453 
   18927    19524    20207    20905    21548    22105    22580    22981 
   23306    23558    23725    23767    23638    23291    22714    21934 
   21000    19999    19051    18261    17687    17348    17251    17387 
   17711    18149    18614    19034    19381    19667    19929    20204 
   20523    20906    21325    21740    22143    22547    22959    23380 
   23802    24216    24612    24957    25208    25350    25403    25376 
   25258    25034    24709    24299    23795    23169    22448    21675 
   20841    19969    19144    18416    17810    17376    17121    16996 
   16961    16996    17069    17156    17267    17433    17691    18048 
   18458    18851    19150    19305    19327    19240    19052    18796 
   18516    18234    17960    17718    17512    17335    17206    17141 
   17120    17116    17129    17196    17338    17513    17731    18026 
   18354    18729    19220    19807    20447    21115    21725    22222 
   22620    22919    23165    23429    23720    24033    24380    24768 
