Origin Time       2016/04/16 01:25:00
Lat.              32.753
Long.             130.762
Depth. (km)       12
Mag.              7.3
Station Code      KGS009
Station Lat.      31.7368
Station Long.     130.7613
Station Height(m) 4
Record Time       2016/04/16 01:25:27
Sampling Freq(Hz) 100Hz
Duration Time(s)  194
Dir.              E-W
Scale Factor      3920(gal)/6182761
Max. Acc. (gal)   24.492
Last Correction   2016/04/16 01:25:27
Memo.             
[...]
   -8545    -8606    -8751    -8888    -8980    -9092    -9298    -9555 
   -9789    -9965   -10001    -9850    -9656    -9638    -9837   -10088 
  -10147    -9868    -9341    -8815    -8457    -8279    -8287    -8549 
   -9092    -9779   -10394   -10748   -10692   -10323   -10003    -9900 
   -9873    -9828    -9733    -9485    -9108    -8853    -8899    -9100 
   -9180    -9075    -8925    -8833    -8815    -8862    -8889    -8775 
   -8499    -8079    -7586    -7282    -7320    -7441    -7382    -7229 
   -7070    -6800    -6507    -6493    -6811    -7189    -7367    -7289 
   -7044    -6810    -6871    -7485    -8589    -9824   -10850   -11418 
  -11363   -10831   -10193    -9673    -9262    -8827    -8220    -7428 
   -6665    -6306    -6662    -7684    -8830    -9348    -8858    -7701 
   -6762    -6825    -7905    -9242   -10032   -10066    -9636    -9132 
   -8932    -9385   -10360   -11091   -11042   -10576   -10343   -10552 
  -11034   -11508   -11761   -11682   -11300   -10948   -11018   -11338 
  -11308   -10663    -9632    -8458    -7165    -5806    -4749    -4548 
   -5390    -6857    -8372    -9498    -9982   -10034   -10239   -10895 
  -11707   -12240   -12453   -12545   -12525   -12245   -11840   -11736 
  -11945   -11819   -10893    -9397    -7834    -6652    -6195    -6393 
   -6615    -6294    -5573    -5001    -4896    -5170    -5619    -6212 
   -6870    -7193    -6944    -6553    -6576    -7119    -8085    -9110 
   -9420    -8735    -7757    -7167    -7029    -7325    -8271    -9897 
  -11764   -13219   -13617   -12513   -10153    -7471    -5171    -3251 
   -1592     -460     -400    -1845    -4493    -7030    -7959    -7033 
   -5648    -5432    -6788    -9094   -11626   -13754   -14851   -14700 
  -13776   -12794   -12193   -12038   -12228   -12630   -13044   -13312 
  -13439   -13471   -13498   -13578   -13272   -12094   -10491    -9327 
   -8679    -8050    -7193    -6115    -4965    -4254    -4659    -6386 
   -8670   -10115    -9911    -8336    -6149    -4443    -4762    -8000 
  -13121   -17703   -19803   -18997   -15870   -11254    -6288    -2381 
    -257      576      840      568     -272    -1147    -1425     -770 
     723     2276     2579      409    -4569   -11128   -16710   -19208 
  -18743   -17122   -15904   -15616   -16013   -16365   -15930   -14577 
  -13027   -12262   -12634   -13908   -15963   -18704   -21317   -22400 
  -21123   -17958   -14171   -10883    -8603    -7412    -7364    -8377 
   -9806   -10912   -11452   -11109    -9352    -6617    -4447    -4368 
   -7261   -12870   -19240   -23589   -24319   -21866   -17796   -13834 
  -11083    -9246    -7257    -4861    -2816    -1565     -535     1061 
    3423     5896     7087     5851     2262    -2558    -7156   -10338 
  -11597   -11092    -9395    -7334    -5638    -4600    -4105    -3948 
   -4460    -6354    -9327   -11617   -11765   -10446    -9624   -10223 
  -11796   -13338   -13521   -11618    -8284    -4804    -2430    -2262 
   -4455    -7795   -10790   -12373   -11725    -8725    -4239      339 
    3494     4342     2944     -685    -6757   -14349   -21097   -24970 
  -25575   -23294   -18568   -12598    -7037    -2851     -316      821 
    1430     2164     2636     2084      273    -2665    -6111    -8612 
   -9018    -7878    -7220    -8962   -12977   -17032   -18904   -17709 
  -13881    -9124    -5902    -5608    -7227    -8763    -9422    -9534 
   -9737   -10755   -12633   -14388   -15092   -14806   -14344   -14198 
  -13715   -11765    -8154    -3951     -631      989     1110      331 
    -849    -1848    -2083    -1526     -927    -1342    -3655    -8377 
  -14905   -21035   -24397   -24196   -20900   -15296    -9044    -4984 
   -4966    -7979   -11763   -15056   -17563   -19085   -18949   -16148 
  -10692    -4288      787     2765      810    -4584   -11473   -17253 
  -20192   -20105   -17669   -13998   -10577    -8472    -7563    -7139 
   -7063    -7725    -9213   -11227   -13348   -15330   -17449   -19914 
  -21952   -22489   -21378   -19183   -16456   -13523   -10283    -6256 
   -1485     2706     4533     3476      781    -1935    -4078    -5927 
   -8021   -10805   -14126   -17209   -19210   -19729   -19178   -18234 
  -17028   -15518   -13920   -12319   -10532    -8430    -6083    -3547 
    -712     2382     5030     5963     4173     -188    -5720   -10690 
  -13779   -14166   -11802    -7831    -4101    -1882    -1311    -1945 
   -3270    -4709    -5690    -6208    -7126    -9326   -12475   -15235 
  -16827   -17492   -17420   -16267   -13718   -10206    -7001    -5161 
   -4456    -3957    -3405    -3371    -4419    -6562    -9312   -11766 
  -12664   -11317    -8673    -6549    -5884    -6452    -7782    -9344 
  -10374   -10626   -10579   -10368    -9513    -7870    -6098    -5045 
   -4926    -5175    -4989    -4067    -2856    -1923    -1429    -1367 
   -1566    -1439     -305     2017     4686     6072     5172     2590 
    -165    -1939    -2666    -3175    -4147    -5549    -7048    -8214 
   -8683    -8776    -9539   -11817   -15362   -19062   -22129   -24288 
  -24961   -23751   -21189   -18101   -15040   -12453   -10835   -10761 
  -12408   -14926   -17052   -18485   -20017   -22342   -25071   -27019 
  -27198   -25406   -22359   -19278   -16991   -15502   -14289   -12929 
  -11563   -10509    -9568    -8166    -6179    -4299    -3440    -3684 
   -4257    -4468    -3860    -1956     1174     4567     7056     8082 
    7945     7552     7570     7683     7214     6143     4964     4207 
    4348     5339     6176     5769     4326     3224     3572     5320 
    7454     8432     6822     2463    -3123    -7878   -10732   -12115 
  -13161   -14603   -16564   -18953   -21502   -23751   -25487   -26800 
  -27844   -28868   -30226   -32247   -34811   -36925   -37341   -35764 
  -32922   -29612   -26421   -23900   -22201   -20979   -19729   -17857 
  -14893   -11022    -7080    -3990    -2204    -1453    -1177    -1026 
    -843     -570     -147      633     1983     3629     4569     3834 
    1321    -2327    -6141    -9129   -10586   -10262    -8443    -5906 
   -3621    -2405    -2663    -4196    -6260    -8109    -9518   -10693 
  -11896   -13107   -13978   -14150   -13569   -12573   -11548   -10676 
  -10127   -10182   -11011   -12384   -13761   -14808   -15545   -15791 
  -14895   -12713   -10505    -9887   -11122   -13081   -14573   -15467 
  -16551   -18525   -21319   -24063   -25553   -25039   -22850   -20239 
  -18256   -16866   -15458   -13773   -11901    -9864    -7743    -5859 
   -4463    -3572    -3291    -3705    -4368    -4564    -4083    -3270 
   -2427    -1467     -109     1617     3082     3553     2864     1453 
     308      787     3506     7543    11225    13151    12419     8713 
    2799    -3237    -7104    -8033    -7042    -5716    -5199    -5962 
   -7724    -9466   -10247   -10214   -10258   -10765   -11338   -11382 
  -10456    -8381    -5387    -2080      914     3275     4938     5848 
    5816     4624     2311     -651    -3525    -5558    -6203    -5369 
   -3534    -1561     -206      212     -302    -1556    -3261    -5242 
   -7624   -10721   -14753   -19529   -24277   -28060   -30375   -31130 
  -30286   -27854   -24212   -20121   -16407   -13924   -13252   -14061 
  -15343   -16211   -16240   -15404   -13970   -12259   -10263    -7614 
   -4120     -316     2685     4029     3822     3008     2419     2162 
    2146     2535     3262     3722     3068      771    -2856    -6961 
  -10867   -14046   -16015   -16729   -16646   -16393   -16369   -16420 
  -16073   -15101   -13543   -11422    -8864    -6532    -5561    -6570 
   -9146   -12533   -16207   -19865   -23255   -26097   -28241   -29560 
  -29841   -29171   -28187   -27744   -28219   -29051   -28991   -26916 
  -22625   -17017   -11706    -8404    -7977    -9958   -13254   -16765 
  -19459   -20856   -21259   -21146   -20832   -20443   -19543   -17213 
  -13054    -7848    -3001      392     1881     1713      826      292 
     541     1221     1766     1875     1514      832      145     -232 
    -291     -296     -296       64     1053     2481     3906     4840 
    4896     4007     2392      476    -1182    -2380    -3532    -4997 
   -6536    -7848    -8920    -9517    -9089    -7494    -5382    -3622 
   -2561    -2114    -2267    -3019    -4068    -4895    -5113    -4756 
   -4314    -4397    -5408    -7265    -9099    -9819    -9256    -8118 
   -6949    -5763    -4550    -3400    -2065     -215     1816     3234 
    3445     2247      -76    -2825    -5457    -7869   -10094   -12062 
  -13544   -14173   -13708   -12222   -10029    -7731    -6005    -5013 
   -4381    -3766    -3180    -2907    -3430    -5350    -8952   -13615 
  -18030   -21139   -22715   -23252   -23601   -24450   -25839   -27329 
  -28541   -29337   -29616   -29129   -27608   -25096   -22074   -19218 
  -17006   -15591   -14884   -14622   -14527   -14415   -14136   -13632 
  -13058   -12676   -12768   -13534   -14636   -15107   -14223   -12097 
   -9441    -7190    -6057    -6184    -7075    -7787    -7605    -6493 
   -4900    -3515    -2884    -3193    -4382    -6106    -7765    -8745 
   -8810    -8320    -7773    -7111    -5826    -3770    -1345     1088 
    3367     5193     6103     5731     3987     1115    -2491    -6385 
  -10036   -13065   -15386   -16978   -17787   -17942   -17757   -17228 
  -15844   -13095    -8974    -4098      448     3631     5134     5515 
    5479     5175     4553     3868     3343     2750     1754      513 
    -520    -1328    -2411    -4131    -6284    -8326    -9847   -10708 
  -11035   -11368   -12400   -14275   -16448   -18205   -19120   -19257 
  -19037   -18717   -18189   -17270   -16008   -14652   -13396   -12042 
  -10120    -7592    -4876    -2304     -146     1177     1178     -253 
   -2603    -5103    -7168    -8796   -10529   -12662   -14813   -16390 
  -17142   -17186   -16763   -16129   -15559   -15151   -14610   -13511 
  -11703    -9409    -7171    -5495    -4510    -4153    -4424    -5401 
   -7161    -9683   -12697   -15573   -17518   -18006   -16956   -14690 
  -11825    -9136    -7353    -6680    -6673    -6652    -5960    -4262 
   -1921      203     1485     1909     1750     1233      493     -426 
   -1616    -3119    -4592    -5457    -5318    -4164    -2512    -1295 
   -1383    -3013    -5566    -8103    -9988   -11077   -11855   -13188 
  -15499   -18395   -21160   -23230   -24171   -23789   -22437   -20911 
  -19935   -19592   -19286   -18417   -16973   -15404   -14046   -12946 
  -12213   -12014   -12258   -12694   -13228   -13988   -15040   -16089 
  -16627   -16383   -15407   -13901   -12320   -11278   -10921   -10672 
   -9813    -8099    -5767    -3433    -1926    -1679    -2388    -3472 
   -4619    -5657    -6271    -6178    -5278    -3683    -1672      504 
    2500     3774     4066     3770     3566     3729     4012     4106 
    3924     3424     2571     1653     1144     1097      978      144 
   -1459    -3121    -4024    -3989    -3576    -3560    -4230    -5070 
   -5367    -5010    -4479    -4305    -4720    -5702    -7134    -8840 
  -10594   -12133   -13140   -13491   -13580   -14065   -15274   -16901 
  -18272   -18982   -19037   -18587   -17883   -17242   -16964   -17309 
  -18339   -19769   -21110   -22006   -22423   -22569   -22803   -23401 
  -24324   -25218   -25540   -24782   -22880   -20515   -18627   -17489 
  -16735   -15986   -15128   -14306   -13663   -13088   -12363   -11504 
  -10694    -9908    -9081    -8461    -8307    -8502    -8781    -9044 
   -9340    -9547    -9240    -8125    -6217    -3634     -693     2012 
    3927     4886     5113     4969     4661     4194     3635     3312 
    3647     4840     6648     8431     9512     9503     8423     6589 
    4332     1786    -1039    -3839    -5860    -6479    -5701    -4032 
   -2325    -1620    -2611    -5124    -8293   -11231   -13350   -14354 
  -14340   -13774   -13023   -12063   -10818    -9605    -8912    -8838 
   -9093    -9489   -10102   -10949   -11863   -12620   -13044   -13132 
  -12990   -12477   -11268    -9361    -7141    -4969    -3155    -2069 
   -1727    -1556     -930      328     1974     3488     4247     3910 
    2573      657    -1229    -2803    -4359    -6226    -8307   -10246 
  -11766   -12797   -13449   -13902   -14233   -14446   -14471   -14127 
  -13388   -12551   -11997   -11884   -11930   -11509   -10098    -7582 
   -4399    -1410      636     1331      462    -1817    -4908    -8239 
  -11568   -14814   -17892   -20577   -22513   -23597   -24163   -24592 
  -25008   -25381   -25611   -25535   -25111   -24450   -23478   -21780 
  -19018   -15472   -11952    -9137    -7182    -6002    -5592    -6003 
   -7189    -8875   -10653   -12301   -13671   -14330   -13836   -12238 
   -9994    -7598    -5445    -3844    -2839    -2228    -2027    -2614 
   -4273    -6880   -10060   -13451   -16714   -19274   -20220   -18721 
  -14684    -8944    -2918     2014     5090     6174     5334     2792 
    -767    -4278    -6941    -8685   -10042   -11616   -13547   -15355 
  -16145   -15137   -12257    -8453    -5414    -4547    -6126    -9354 
  -12789   -14894   -14869   -12982   -10009    -6756    -3963    -1982 
    -695      -28     -180    -1313    -3364    -6045    -8817   -10859 
  -11124    -8847    -4276     1239     6086     9392    11065    11049 
    9157     5468      495    -4779    -9145   -11798   -12401   -10676 
   -6590     -816     5351    10884    15757    20349    24628    28060 
   29745    28746    24603    17540     8391    -1354    -9764   -15326 
  -17558   -16922   -14247   -10189    -5425     -892     2314     3148 
     948    -4291   -11576   -18807   -23674   -25015   -23234   -19567 
  -15533   -12722   -12062   -13334   -15712   -18787   -22825   -27963 
  -33663   -38874   -42291   -42813   -40054   -34570   -27889   -21968 
  -17996   -16125   -16385   -19055   -23992   -29966   -35204   -38579 
  -39798   -38815   -35523   -29843   -22374   -14921    -9262    -5699 
   -3700    -2729    -2246    -2108    -2561    -3583    -4854    -6179 
   -7364    -7748    -6447    -3374      330     3132     4000     2612 
    -586    -4554    -8175   -10743   -12185   -12849   -13064   -12932 
  -12318   -10987    -8929    -6474    -4166    -2666    -2464    -3698 
   -6229    -9744   -13714   -17380   -20215   -22102   -22802   -21981 
  -19664   -16323   -12820   -10052    -8446    -7851    -7512    -6298 
   -3426      865     5316     8506     9725     9061     7109     4680 
    2536     1328     1575     3258     5664     7805     8877     8628 
    7380     5670     3908     2158      378    -1282    -2528    -3044 
   -2811    -2251    -1758    -1350     -769      306     1951     3649 
    4540     4071     2244     -508    -3392    -5585    -6752    -7039 
   -6986    -7423    -8896   -11324   -14147   -16647   -18324   -19143 
  -19591   -20334   -21768   -23920   -26339   -28260   -29230   -29161 
  -28045   -26030   -23405   -20523   -17866   -15919   -14929   -14824 
  -15453   -16590   -17546   -17201   -14448    -8840    -1185     6572 
   12218    14373    12976     9008     3898    -1117    -5267    -8360 
  -10741   -12802   -14712   -16360   -17346   -17481   -17114   -16803 
  -16935   -17513   -18096   -18083   -17248   -16054   -15384   -15856 
  -17360   -19304   -21086   -22326   -22888   -22951   -23121   -23844 
  -24682   -24849   -24068   -22616   -21091   -20187   -20417   -21798 
  -23693   -25337   -26522   -27467   -28450   -29683   -31058   -32180 
  -32819   -33113   -33240   -33069   -32162   -29907   -25894   -20447 
  -14429    -8597    -3508      311     2615     3717     4336     5172 
    6494     7968     8880     8582     6768     3534     -428    -4027 
   -6584    -8134    -8907    -9024    -8750    -8405    -7947    -7032 
   -5429    -3315    -1320     -264     -730    -2766    -5962    -9601 
  -12632   -14125   -13881   -12295    -9886    -7064    -4119    -1368 
     775     1787     1268     -684    -3247    -5014    -4761    -2154 
    2295     7704    13169    17932    21485    23479    23675    22338 
   20261    18177    16451    15212    14431    13957    13793    14114 
   14699    14920    14491    13743    13313    13543    14106    14405 
   13794    11584     7494     1762    -4952   -11637   -17446   -21901 
  -24843   -26450   -26871   -26156   -24551   -22573   -20762   -19462 
  -19003   -19665   -21322   -23460   -25570   -27259   -28033   -27471 
  -25623   -23006   -20414   -18694   -18215   -18461   -18455   -17426 
  -15082   -11785    -8409    -5650    -3499    -1459      758     2856 
    4178     4350     3598     2366     1013     -305    -1830    -4059 
   -7283   -11436   -16198   -20965   -24857   -27043   -27205   -25595 
  -22789   -19565   -16787   -15055   -14502   -14918   -15934   -17271 
  -18858   -20670   -22538   -24030   -24734   -24680   -24187   -23453 
  -22488   -21251   -19735   -18054   -16498   -15226   -14066   -12749 
  -11068    -8923    -6544    -4451    -3076    -2666    -3440    -5515 
   -8740   -12614   -16270   -18831   -19816   -19249   -17770   -16367 
  -15611   -15441   -15610   -15908   -16039   -15480   -13756   -10906 
   -7439    -4052    -1452     -106      -37     -863    -2032    -3014 
   -3509    -3577    -3427    -3351    -3781    -4819    -5923    -6488 
   -6533    -6725    -7850   -10200   -13280   -16179   -18153   -18927 
  -18527   -16954   -14257   -10698    -6822    -3566    -1958    -2588 
   -5213    -8715   -11760   -13558   -13923   -13107   -11683   -10032 
   -8200    -6432    -5138    -4602    -5241    -7444   -10961   -14835 
  -18050   -20202   -21426   -22013   -22151   -21761   -20689   -19125 
  -17643   -16870   -17245   -18812   -21037   -23193   -24712   -25146 
  -24320   -22363   -19525   -16349   -13717   -12232   -11628   -11166 
  -10382    -9079    -7286    -5552    -4646    -4952    -6320    -8351 
  -10749   -13239   -15251   -16044   -15231   -13138   -10581    -8367 
   -6975    -6284    -5631    -4310    -2095      607     3144     5072 
    6162     6212     4991     2578     -266    -2405    -3008    -1936 
     352     3103     5533     7147     7914     8140     8301     8757 
    9486    10170    10299     9334     7075     3834      250    -3155 
   -6221    -8857   -10908   -12388   -13512   -14518   -15535   -16564 
  -17580   -18588   -19503   -20154   -20596   -21175   -22091   -23132 
  -23979   -24534   -24893   -25162   -25375   -25542   -25516   -24872 
  -23351   -21275   -19222   -17475   -15901   -14222   -12287   -10113 
   -7810    -5437    -2999     -649     1310     2593     3077     2886 
    2333     1805     1439     1034      401     -517    -1714    -3185 
   -4928    -6650    -7728    -7715    -6722    -5210    -3783    -3132 
   -3594    -4878    -6323    -7277    -7523    -7342    -7038    -6690 
   -6354    -6194    -6333    -6788    -7423    -7909    -7970    -7593 
   -7031    -6772    -7305    -8966   -11919   -15989   -20526   -24581 
  -27331   -28432   -28039   -26557   -24417   -22137   -20374   -19610 
  -19872   -20777   -21674   -21824   -20680   -18044   -14146    -9706 
   -5713    -2962    -1652    -1496    -2004    -2608    -3014    -3381 
   -4085    -5386    -7206    -9180   -10826   -11710   -11618   -10661 
   -9115    -7235    -5350    -3964    -3543    -4158    -5351    -6397 
