Origin Time       2016/04/16 01:25:00
Lat.              32.753
Long.             130.762
Depth. (km)       12
Mag.              7.3
Station Code      KGS014
Station Lat.      31.4960
Station Long.     130.6999
Station Height(m) 3
Record Time       2016/04/16 01:25:32
Sampling Freq(Hz) 100Hz
Duration Time(s)  204
Dir.              N-S
Scale Factor      3920(gal)/6182761
Max. Acc. (gal)   8.255
Last Correction   2016/04/16 01:25:33
Memo.             
[...]
   -5195    -5176    -5241    -5449    -5711    -5970    -6176    -6255 
   -6180    -6008    -5849    -5735    -5607    -5479    -5447    -5607 
   -5950    -6379    -6810    -7115    -7201    -7195    -7279    -7514 
   -7884    -8351    -8856    -9310    -9654    -9878    -9923    -9653 
   -8967    -8032    -7228    -6795    -6709    -6820    -6969    -6974 
   -6601    -5808    -4858    -3998    -3377    -3150    -3261    -3339 
   -3114    -2696    -2297    -2051    -2161    -2684    -3328    -3800 
   -4072    -4277    -4495    -4644    -4592    -4272    -3689    -3020 
   -2599    -2611    -2980    -3481    -3837    -3914    -3726    -3386 
   -3157    -3143    -3193    -3242    -3350    -3613    -4048    -4585 
   -5264    -5975    -6409    -6526    -6412    -6079    -5706    -5432 
   -5183    -4972    -4828    -4685    -4496    -4147    -3611    -3073 
   -2633    -2336    -2305    -2543    -2931    -3344    -3723    -4082 
   -4345    -4464    -4613    -4884    -5146    -5326    -5437    -5451 
   -5322    -5103    -4973    -5029    -5192    -5402    -5697    -6122 
   -6673    -7232    -7635    -7839    -7874    -7788    -7710    -7717 
   -7776    -7882    -8021    -8158    -8316    -8512    -8727    -8983 
   -9285    -9590    -9898   -10205   -10449   -10602   -10683   -10690 
  -10567   -10229    -9704    -9110    -8523    -8042    -7771    -7673 
   -7579    -7363    -7022    -6628    -6269    -6008    -5875    -5900 
   -6085    -6388    -6739    -7060    -7302    -7470    -7555    -7506 
   -7311    -7039    -6781    -6586    -6508    -6626    -6890    -7106 
   -7165    -7117    -7001    -6774    -6442    -6159    -6027    -5953 
   -5857    -5841    -6004    -6257    -6429    -6384    -6078    -5636 
   -5253    -5066    -5197    -5646    -6223    -6696    -6867    -6688 
   -6287    -5761    -5134    -4463    -3874    -3467    -3194    -2945 
   -2684    -2415    -2053    -1488     -761      -10      624      989 
     992      695      295      -36     -299     -538     -743     -962 
   -1260    -1607    -1981    -2437    -2969    -3512    -4013    -4436 
   -4772    -4998    -5124    -5266    -5467    -5623    -5623    -5429 
   -5117    -4756    -4308    -3797    -3333    -2956    -2671    -2480 
   -2323    -2112    -1809    -1423     -974     -545     -229      -39 
     -25     -310     -939    -1773    -2605    -3322    -3871    -4218 
   -4436    -4647    -4924    -5361    -6097    -7107    -8153    -9049 
   -9747   -10203   -10396   -10380   -10195    -9858    -9473    -9219 
   -9226    -9451    -9733    -9943    -9982    -9760    -9310    -8755 
   -8184    -7730    -7559    -7755    -8291    -8982    -9561    -9880 
   -9930    -9726    -9331    -8913    -8653    -8682    -9058    -9637 
  -10109   -10218    -9844    -9004    -7841    -6570    -5448    -4715 
   -4481    -4691    -5181    -5749    -6260    -6642    -6810    -6747 
   -6555    -6343    -6217    -6378    -7006    -8017    -9079    -9827 
  -10024    -9672    -9014    -8329    -7774    -7385    -7114    -6869 
   -6562    -6185    -5813    -5463    -5032    -4425    -3649    -2829 
   -2155    -1745    -1615    -1716    -1920    -2034    -1946    -1785 
   -1757    -1879    -2070    -2307    -2523    -2583    -2452    -2227 
   -1969    -1638    -1205     -729     -304      -26       32     -134 
    -423     -643     -617     -332       61      391      573      600 
     499      378      380      500      579      548      432      229 
     -22     -237     -390     -480     -555     -724    -1041    -1521 
   -2159    -2896    -3706    -4583    -5445    -6210    -6855    -7365 
   -7759    -8085    -8334    -8470    -8488    -8353    -8062    -7740 
   -7506    -7338    -7174    -6987    -6764    -6509    -6252    -6019 
   -5838    -5770    -5911    -6253    -6677    -7125    -7641    -8232 
   -8824    -9290    -9538    -9562    -9424    -9249    -9186    -9283 
   -9447    -9583    -9637    -9562    -9337    -8985    -8596    -8217 
   -7779    -7259    -6746    -6370    -6266    -6499    -7036    -7751 
   -8460    -9040    -9445    -9693    -9889   -10103   -10278   -10374 
  -10451   -10597   -10822   -11050   -11180   -11119   -10810   -10263 
   -9589    -8987    -8631    -8578    -8776    -9057    -9224    -9215 
   -9062    -8758    -8308    -7845    -7518    -7310    -7154    -7084 
   -7125    -7184    -7077    -6620    -5815    -4873    -4014    -3364 
   -2956    -2752    -2703    -2747    -2797    -2819    -2793    -2660 
   -2444    -2242    -2105    -2077    -2245    -2616    -3080    -3530 
   -3909    -4130    -4073    -3752    -3328    -2978    -2800    -2744 
   -2695    -2589    -2403    -2193    -2034    -1878    -1646    -1332 
    -982     -678     -537     -620     -813     -956     -999     -915 
    -716     -509     -345     -231     -231     -320     -392     -447 
    -618    -1021    -1652    -2438    -3243    -3874    -4273    -4527 
   -4705    -4871    -5090    -5343    -5569    -5738    -5815    -5781 
   -5688    -5571    -5466    -5492    -5660    -5794    -5795    -5718 
   -5589    -5378    -5165    -5116    -5267    -5570    -6032    -6580 
   -7046    -7381    -7631    -7786    -7820    -7775    -7659    -7419 
   -7108    -6811    -6454    -5955    -5433    -4963    -4398    -3746 
   -3194    -2730    -2264    -1888    -1664    -1484    -1284    -1119 
   -1012     -950     -997    -1206    -1528    -1906    -2346    -2876 
   -3442    -3997    -4659    -5482    -6343    -7124    -7803    -8485 
   -9207    -9885   -10502   -11050   -11496   -11888   -12261   -12565 
  -12784   -12945   -12998   -12862   -12498   -11956   -11450   -11114 
  -10900   -10834   -10884   -10918   -10909   -10922   -11043   -11181 
  -11185   -11042   -10728   -10357   -10126   -10036   -10059   -10211 
  -10459   -10700   -10864   -11034   -11266   -11497   -11732   -12000 
  -12201   -12263   -12195   -11944   -11439   -10732    -9941    -9122 
   -8306    -7547    -6865    -6225    -5558    -4808    -4027    -3362 
   -2895    -2632    -2630    -2910    -3316    -3633    -3780    -3817 
   -3815    -3808    -3850    -3984    -4179    -4393    -4591    -4762 
   -4918    -5011    -5038    -5044    -4974    -4801    -4613    -4435 
   -4253    -4138    -4139    -4239    -4466    -4799    -5125    -5326 
   -5305    -5072    -4792    -4620    -4600    -4681    -4750    -4657 
   -4279    -3659    -2929    -2146    -1351     -619       -9      416 
     614      604      412       67     -318     -612     -807     -985 
   -1214    -1535    -2003    -2597    -3143    -3551    -3898    -4215 
   -4495    -4772    -5115    -5568    -6106    -6687    -7250    -7735 
   -8132    -8392    -8449    -8342    -8144    -7926    -7746    -7625 
   -7639    -7837    -8050    -8017    -7669    -7140    -6560    -5991 
   -5548    -5327    -5208    -5025    -4800    -4612    -4473    -4386 
   -4324    -4205    -3995    -3764    -3607    -3631    -3904    -4370 
   -4952    -5584    -6137    -6503    -6656    -6653    -6601    -6610 
   -6767    -7071    -7435    -7794    -8145    -8465    -8727    -8965 
   -9208    -9465    -9735    -9956   -10052    -9987    -9807    -9647 
   -9558    -9431    -9207    -8941    -8674    -8370    -8030    -7701 
   -7351    -6940    -6499    -6039    -5559    -5087    -4656    -4284 
   -3939    -3573    -3181    -2764    -2304    -1860    -1608    -1713 
   -2175    -2859    -3640    -4395    -4982    -5299    -5413    -5491 
   -5572    -5583    -5486    -5236    -4832    -4382    -3970    -3624 
   -3382    -3314    -3480    -3815    -4183    -4471    -4610    -4584 
   -4433    -4218    -3976    -3771    -3721    -3848    -4031    -4149 
   -4177    -4149    -4073    -3986    -4005    -4165    -4394    -4692 
   -5068    -5450    -5878    -6407    -6912    -7278    -7508    -7601 
   -7541    -7339    -7000    -6513    -5922    -5328    -4842    -4571 
   -4567    -4777    -5051    -5224    -5171    -4860    -4358    -3792 
   -3348    -3172    -3278    -3626    -4144    -4659    -4936    -4774 
   -4142    -3180    -2122    -1274     -896    -1063    -1686    -2586 
   -3578    -4466    -5076    -5382    -5451    -5321    -5090    -4957 
   -5117    -5643    -6416    -7184    -7745    -8055    -8139    -8003 
   -7669    -7210    -6682    -6088    -5519    -5203    -5322    -5902 
   -6872    -8079    -9280   -10231   -10797   -10986   -10906   -10703 
  -10554   -10626   -10952   -11425   -11899   -12254   -12372   -12113 
  -11406   -10338    -9120    -7997    -7187    -6777    -6646    -6604 
   -6569    -6468    -6140    -5565    -4956    -4510    -4335    -4499 
   -5017    -5801    -6659    -7408    -7952    -8273    -8405    -8394 
   -8315    -8282    -8396    -8629    -8824    -8867    -8732    -8430 
   -8055    -7735    -7474    -7189    -6808    -6316    -5746    -5195 
   -4815    -4654    -4581    -4506    -4446    -4353    -4172    -3903 
   -3509    -2969    -2335    -1723    -1366    -1463    -1920    -2481 
   -3021    -3467    -3647    -3478    -3160    -3026    -3221    -3729 
   -4528    -5435    -6181    -6708    -7069    -7354    -7629    -7763 
   -7598    -7091    -6234    -5140    -4070    -3227    -2669    -2434 
   -2491    -2570    -2338    -1688     -750      206      865     1047 
     849      536      268      101      171      574     1162     1705 
    2150     2449     2343     1673      574     -842    -2489    -4072 
   -5305    -6139    -6667    -7018    -7303    -7568    -7824    -8045 
   -8127    -8016    -7791    -7501    -7118    -6709    -6345    -6002 
   -5732    -5642    -5604    -5390    -4937    -4249    -3391    -2566 
   -1973    -1675    -1609    -1635    -1641    -1668    -1903    -2518 
   -3604    -5120    -6822    -8350    -9433   -10059   -10425   -10692 
  -10929   -11193   -11482   -11637   -11386   -10562    -9281    -7868 
   -6629    -5791    -5588    -6142    -7286    -8667    -9966   -11004 
  -11692   -11936   -11729   -11146   -10262    -9266    -8476    -8135 
   -8261    -8689    -9168    -9372    -9087    -8422    -7636    -6937 
   -6482    -6362    -6559    -6878    -7042    -6952    -6736    -6508 
   -6291    -6122    -5923    -5513    -4913    -4311    -3812    -3437 
   -3164    -2949    -2741    -2469    -2138    -1866    -1745    -1758 
   -1786    -1691    -1415    -1009     -593     -339     -438     -929 
   -1582    -2153    -2638    -3116    -3594    -4122    -4772    -5516 
   -6260    -6881    -7222    -7184    -6745    -5984    -5148    -4474 
   -4125    -4214    -4662    -5307    -6123    -7063    -7980    -8795 
   -9455    -9886   -10135   -10268   -10251   -10101    -9861    -9516 
   -9068    -8569    -7997    -7178    -6024    -4715    -3410    -2152 
   -1122     -573     -582    -1066    -1880    -2740    -3305    -3435 
   -3225    -2834    -2371    -1976    -1895    -2269    -2986    -3865 
   -4774    -5586    -6222    -6683    -7017    -7252    -7357    -7321 
   -7239    -7228    -7365    -7668    -8005    -8141    -7910    -7261 
   -6256    -5055    -3915    -3055    -2402    -1766    -1147     -626 
    -239       -6      150      354      689     1164     1638     1866 
    1685     1153      458     -220     -680     -817     -849    -1150 
   -1900    -2987    -4152    -5093    -5489    -5253    -4592    -3750 
   -2922    -2240    -1734    -1399    -1173     -944     -748     -725 
    -934    -1409    -2158    -3105    -4166    -5265    -6285    -7187 
   -8000    -8688    -9221    -9593    -9781    -9850    -9973   -10276 
  -10815   -11573   -12403   -13095   -13520   -13696   -13674   -13487 
  -13220   -12914   -12530   -12082   -11617   -11157   -10741   -10500 
  -10537   -10740   -10925   -11005   -10960   -10914   -11069   -11450 
  -11952   -12489   -12947   -13161   -13008   -12571   -12099   -11678 
  -11260   -10930   -10716   -10458   -10090    -9736    -9507    -9396 
   -9354    -9305    -9051    -8486    -7798    -7260    -7044    -7159 
   -7391    -7474    -7241    -6670    -5938    -5316    -4959    -4932 
   -5297    -5944    -6674    -7451    -8223    -8800    -9093    -9115 
   -8902    -8588    -8373    -8409    -8739    -9238    -9707   -10016 
  -10113   -10019    -9881    -9911   -10207   -10744   -11471   -12225 
  -12781   -13030   -12962   -12606   -12116   -11739   -11562   -11508 
  -11571   -11799   -12161   -12595   -13109   -13786   -14641   -15610 
  -16602   -17422   -17867   -17951   -17821   -17552   -17171   -16748 
  -16298   -15733   -15025   -14221   -13346   -12429   -11534   -10690 
   -9910    -9279    -8790    -8294    -7766    -7263    -6768    -6204 
   -5531    -4772    -3958    -3199    -2658    -2405    -2445    -2724 
   -3149    -3697    -4413    -5265    -6094    -6720    -6981    -6819 
   -6406    -5987    -5668    -5400    -5067    -4622    -4105    -3605 
   -3215    -2935    -2663    -2307    -1858    -1377     -910     -444 
      -2      393      815     1289     1820     2491     3262     3995 
    4587     4897     4851     4548     4157     3864     3707     3582 
    3462     3337     3180     3079     3151     3408     3791     4242 
    4696     5031     5204     5258     5211     5140     5062     4862 
    4555     4289     4111     3964     3809     3585     3213     2687 
    2008     1210      372     -481    -1297    -1972    -2445    -2631 
   -2430    -1868    -1147     -534     -203     -222     -548    -1004 
   -1332    -1315     -884      -56     1110     2443     3786     5064 
    6163     6948     7357     7382     6966     6123     5145     4299 
    3686     3385     3302     3213     2911     2213     1137     -120 
   -1353    -2365    -3037    -3318    -3276    -3110    -2951    -2854 
   -2920    -3181    -3565    -4020    -4511    -4947    -5221    -5305 
   -5192    -4866    -4413    -4009    -3802    -3879    -4235    -4822 
   -5533    -6194    -6749    -7231    -7646    -8096    -8741    -9598 
  -10540   -11422   -12091   -12416   -12409   -12210   -11960   -11778 
  -11750   -11879   -12131   -12482   -12879   -13240   -13539   -13767 
  -13873   -13797   -13490   -12978   -12415   -11965   -11672   -11538 
  -11545   -11596   -11593   -11503   -11333   -11133   -10983   -10976 
  -11129   -11387   -11730   -12098   -12365   -12452   -12309   -11919 
  -11315   -10563    -9744    -8975    -8437    -8249    -8362    -8678 
   -9125    -9616   -10032   -10278   -10353   -10348   -10338   -10373 
  -10543   -10883   -11305   -11727   -12139   -12500   -12724   -12787 
  -12749   -12624   -12412   -12221   -12173   -12235   -12262   -12156 
  -11841   -11243   -10381    -9379    -8412    -7589    -6921    -6386 
   -5900    -5348    -4691    -3964    -3243    -2633    -2210    -2037 
   -2104    -2327    -2709    -3312    -4165    -5245    -6423    -7554 
   -8553    -9380   -10064   -10696   -11314   -11896   -12424   -12802 
  -12882   -12675   -12275   -11677   -10857    -9895    -8935    -8070 
   -7325    -6758    -6417    -6175    -5881    -5506    -5015    -4418 
   -3859    -3477    -3339    -3425    -3705    -4196    -4814    -5391 
   -5846    -6115    -6171    -6045    -5776    -5442    -5111    -4770 
   -4410    -4060    -3760    -3524    -3312    -3040    -2651    -2119 
   -1416     -570      318     1111     1662     1877     1778     1500 
    1197      942      753      604      418      145     -142     -332 
    -425     -387     -135      209      443      537      486      288 
      35     -145     -175      -84       61      235      404      507 
     514      462      407      356      316      337      429      495 
     430      192     -277     -991    -1820    -2650    -3481    -4317 
   -5119    -5837    -6455    -7008    -7553    -8128    -8713    -9270 
   -9757   -10089   -10198   -10119    -9950    -9753    -9540    -9354 
   -9217    -9049    -8758    -8334    -7829    -7319    -6846    -6418 
   -6028    -5645    -5244    -4868    -4606    -4488    -4474    -4546 
   -4718    -4995    -5366    -5801    -6295    -6821    -7247    -7493 
   -7609    -7645    -7657    -7749    -7972    -8281    -8605    -8876 
   -9019    -9010    -8963    -9017    -9188    -9492   -10002   -10699 
  -11470   -12281   -13176   -14065   -14756   -15136   -15169   -14882 
  -14401   -13909   -13561   -13327   -13038   -12586   -11915   -10986 
   -9869    -8729    -7735    -6966    -6386    -5937    -5559    -5135 
   -4557    -3800    -2906    -1938     -980     -169      369      606 
     593      405      156      -22      -96     -118     -121     -168 
    -335     -599     -859    -1034    -1089    -1009     -790     -519 
    -317     -212     -180     -165      -71       95      242      271 
      66     -383    -1000    -1763    -2551    -3177    -3603    -3851 
   -3960    -4034    -4148    -4336    -4606    -4938    -5296    -5654 
   -6000    -6284    -6433    -6387    -6134    -5760    -5410    -5196 
   -5148    -5212    -5332    -5454    -5511    -5510    -5507    -5536 
   -5614    -5716    -5817    -5990    -6316    -6745    -7147    -7420 
   -7487    -7294    -6831    -6163    -5453    -4842    -4378    -4079 
   -3929    -3874    -3854    -3799    -3668    -3473    -3254    -3098 
   -3082    -3150    -3281    -3592    -4123    -4802    -5579    -6365 
   -7021    -7523    -7951    -8343    -8741    -9239    -9854   -10470 
  -10986   -11370   -11560   -11513   -11298   -11070   -10951   -10919 
  -10930   -10995   -11003   -10809   -10448   -10003    -9538    -9136 
   -8801    -8448    -8053    -7669    -7327    -7077    -7023    -7173 
   -7443    -7790    -8164    -8486    -8740    -8912    -8954    -8939 
   -8973    -9041    -9087    -9076    -9032    -8945    -8727    -8449 
   -8280    -8199    -8117    -8050    -7967    -7764    -7486    -7277 
   -7131    -6990    -6914    -6930    -6968    -7016    -7109    -7207 
   -7255    -7244    -7150    -6932    -6597    -6198    -5767    -5332 
   -4901    -4433    -3885    -3298    -2749    -2326    -2101    -2045 
   -2022    -1925    -1759    -1586    -1439    -1331    -1287    -1340 
   -1493    -1732    -1999    -2205    -2288    -2226    -2073    -1961 
   -1927    -1914    -1939    -2023    -2102    -2140    -2148    -2075 
   -1799    -1267     -577      169      970     1767     2426     2928 
    3316     3605     3788     3826     3682     3372     2928     2420 
    1977     1658     1342      977      655      323      -56     -319 
    -358     -192       91      371      610      745      682      467 
     180     -147     -456     -692     -877    -1079    -1335    -1632 
   -1984    -2437    -2998    -3634    -4294    -4906    -5402    -5772 
   -6036    -6236    -6436    -6690    -7035    -7490    -8004    -8504 
   -8933    -9263    -9494    -9627    -9673    -9705    -9762    -9796 
   -9814    -9860    -9915   -10015   -10233   -10522   -10786   -10980 
  -11128   -11301   -11522   -11767   -12048   -12368   -12677   -12943 
  -13174   -13390   -13581   -13676   -13620   -13438   -13197   -12920 
  -12643   -12447   -12327   -12191   -12048   -11944   -11830   -11696 
  -11611   -11564   -11495   -11387   -11225   -10990   -10703   -10443 
  -10301   -10276   -10279   -10247   -10167   -10009    -9737    -9434 
   -9231    -9112    -8970    -8743    -8400    -7928    -7362    -6801 
   -6359    -6085    -5923    -5802    -5648    -5374    -4984    -4550 
