Origin Time       2016/04/16 01:25:00
Lat.              32.753
Long.             130.762
Depth. (km)       12
Mag.              7.3
Station Code      KGS010
Station Lat.      31.7123
Station Long.     130.2735
Station Height(m) 16
Record Time       2016/04/16 01:25:28
Sampling Freq(Hz) 100Hz
Duration Time(s)  180
Dir.              E-W
Scale Factor      3920(gal)/6182761
Max. Acc. (gal)   44.135
Last Correction   2016/04/16 01:25:28
Memo.             
[...]
    -736    -3257    -4496    -4553    -4206    -4348    -6022    -9557 
  -13798   -16957   -17610   -15159   -10359    -4966     -387     2914 
    5020     6326     7434     8578     9187     8676     7413     6276 
    5919     6780     9019    12387    16146    18799    18542    14725 
    8782     3375      451       39      700      552    -1591    -5080 
   -8123    -9599    -9517    -8446    -7061    -5899    -5189    -4721 
   -4261    -3807    -3139    -2060    -1003     -789    -2069    -4829 
   -8056   -10200   -10316    -8577    -5899    -3583    -2813    -3788 
   -5580    -7037    -7555    -7184    -6629    -6926    -8476   -10714 
  -12912   -14411   -14474   -13146   -11545   -10749   -11151   -12574 
  -14213   -14905   -13997   -11679    -8622    -5748    -3689    -2236 
    -697     1454     4261     7210     9455    10437    10413    10261 
   10755    11961    13290    14173    14637    15142    15769    15761 
   14306    11477     8173     5278     2801      194    -2413    -4103 
   -4290    -3338    -2179    -1477    -1299    -1644    -2684    -4409 
   -6684    -9444   -12289   -14189   -14290   -12766   -10465    -8129 
   -6012    -4088    -2570    -1651     -963      187     2274     5051 
    7388     8278     7792     6519     4754     2538      -72    -2845 
   -5246    -6485    -6114    -4749    -3593    -3120    -3002    -2944 
   -2716    -2132    -1431     -980     -715     -307      300      973 
    1817     2933     3998     4471     4044     3116     2732     3570 
    5351     7308     8784     9679    10323    10694    10198     8301 
    5311     2602     1524     2140     3506     4586     4590     3252 
    1032    -1232    -2990    -4529    -6491    -8750   -10520   -11276 
  -11025   -10118    -9061    -8297    -8078    -8364    -8711    -8370 
   -6632    -3447      281     3571     6266     8844    11749    14833 
   17282    18253    17551    15632    13129    10526     8041     5628 
    3362     1639      549     -484    -2165    -4682    -7458    -9489 
  -10200    -9933    -9539    -9615   -10076   -10354   -10164    -9817 
   -9813   -10592   -12087   -13495   -14159   -13956   -12898   -11322 
   -9953    -9237    -9256   -10316   -12488   -14610   -14856   -12232 
   -7330    -2089     1498     2794     2477     1432       57    -1461 
   -2790    -3603    -3561    -2407     -362     2294     5587     8970 
   11068    10837     8288     4409     1039        4     1639     4801 
    8077    10278    10720     9481     6908     3313     -743    -4432 
   -7090    -8771   -10118   -11512   -12852   -13822   -14037   -13632 
  -13335   -13261   -12720   -11495   -10042    -8785    -8012    -7683 
   -7348    -6934    -6938    -7644    -8753    -9600    -9597    -8789 
   -7754    -6676    -4986    -2182     1435     5030     8043    10492 
   12589    14499    16143    17079    17230    17159    17146    17002 
   16557    15530    13701    11469     9557     8297     7529     7120 
    7099     7154     6869     6458     6452     7037     7912     8469 
    8356     7869     7545     7439     6951     5664     4199     3503 
    3675     4145     4257     3549     2156      725     -352    -1478 
   -3290    -5580    -7404    -8167    -8195    -8373    -9147   -10002 
  -10318   -10272   -10382   -10868   -11786   -13074   -14241   -14737 
  -14758   -14950   -15480   -16067   -16509   -16679   -16453   -15819 
  -14750   -13216   -11437    -9576    -7453    -5017    -2272     1194 
    5500     9858    13386    15992    18241    20647    23269    25616 
   26762    26244    24676    22859    20894    18351    14949    11088 
    7525     4579     2066     -234    -2413    -4609    -7104   -10213 
  -13999   -18188   -22239   -25415   -27351   -28287   -28391   -27607 
  -26047   -24053   -22252   -21137   -20317   -19104   -17422   -15279 
  -12316    -8509    -4560    -1428      350     1076     1611     2571 
    3849     5104     6272     7297     8099     8831     9511     9988 
   10462    11035    11181    10401     8814     7043     6003     6388 
    7708     8318     7079     4410     1570     -264     -368     1030 
    2881     4574     6275     7827     8490     7773     5898     3608 
    1536     -135    -1271    -1696    -1520     -848      451     2366 
    4508     6232     7099     7267     7057     6490     5573     4373 
    3062     2154     1907     1884     1473      386    -1135    -2631 
   -3950    -5103    -5939    -6237    -5910    -5006    -3685    -2348 
   -1520    -1489    -2308    -3826    -5596    -7134    -8248    -8929 
   -9240    -9381    -9500    -9466    -9067    -8360    -7756    -7629 
   -7899    -8160    -7931    -6891    -5265    -3694    -2693    -2463 
   -2771    -2934    -2333    -1072      -72     -115    -1027    -2380 
   -4096    -6039    -7976    -9697   -10901   -11449   -11473   -11071 
  -10317    -9505    -8985    -8588    -7779    -6558    -5268    -3802 
   -1898      631     4020     7821    10803    12258    12505    12252 
   12005    11762    11122     9793     7927     5926     4054     2582 
    2005     2336     2655     1929     -248    -3638    -7425   -10498 
  -12116   -12223   -11275    -9950    -8793    -8084    -7810    -7514 
   -6735    -5597    -4574    -4140    -4429    -4868    -4535    -2769 
     452     4246     7326     8895     8855     7598     5744     3889 
    2633     2487     3438     4821     5720     5559     4466     2995 
    1641      682       56     -532    -1000     -728      692     2911 
    5230     7256     8956    10289    11093    11223    10830    10419 
   10468    11154    12211    12848    12481    11481    10640    10240 
    9795     8578     6311     3226      -17    -2482    -3620    -3514 
   -2452     -867      577     1367     1430     1098      806      598 
     172     -806    -2579    -5096    -7981   -10683   -12660   -13722 
  -14305   -15075   -16164   -17390   -18722   -19940   -20912   -22022 
  -23489   -25007   -25982   -25739   -23938   -20864   -17243   -13645 
  -10024    -6183    -2295     1433     5006     8359    11131    12780 
   12753    10800     7507     4088     1451     -156    -1031    -1804 
   -2649    -3043    -2731    -2125    -1590    -1112     -383     1252 
    4332     8539    12873    16557    19479    21771    23556    25066 
   26440    27629    28666    29515    29942    29982    30061    30507 
   31208    31705    31418    29817    26720    22483    17670    12497 
    6646     -256    -7757   -14571   -19546   -22297   -23428   -24215 
  -25474   -27207   -29325   -31660   -33597   -34470   -34000   -32261 
  -29651   -26800   -24239   -22167   -20486   -18809   -16650   -13925 
  -11039    -8369    -5856    -3178     -203     2806     5381     7312 
    8783     9990    11035    11966    12619    12838    12809    12923 
   13526    14705    16020    16700    16149    14118    10733     6343 
    1427    -3277    -6845    -8524    -8187    -6474    -4374    -2704 
   -1837    -1601    -1621    -1667    -1419     -609      542     1500 
    1731      965     -440    -1624    -1913    -1154      489     2653 
    4812     6457     7336     7444     6810     5444     3337      351 
   -3538    -7800   -11692   -14923   -17523   -19581   -21450   -23433 
  -25450   -27451   -29324   -30588   -30934   -30500   -29401   -27625 
  -25349   -22872   -20506   -18512   -16602   -13955   -10053    -5065 
     428     5760    10280    13467    15226    15814    15477    14415 
   12857    10896     8399     5244     1873     -555     -957      957 
    4648     9179    14014    19110    24214    28610    31383    31953 
   30564    27852    24238    20075    15778    11629     7946     5333 
    4322     4707     5571     6145     6311     5966     4606     1902 
   -2121    -7129   -12377   -17326   -21840   -25678   -28482   -29812 
  -29387   -27860   -26672   -26772   -27999   -29720   -31498   -33174 
  -34901   -37133   -40095   -43256   -45536   -45988   -44301   -40880 
  -36483   -31723   -26898   -22221   -17877   -13972   -10437    -7090 
   -4089    -1812     -253      817     1415     1557     1504     1491 
    1591     1851     2283     2925     3940     5629     8418    12551 
   17898    24199    31022    37435    42040    43603    41775    37180 
   31113    25177    20574    17594    16083    16128    17759    20384 
   23080    24928    25035    22898    18571    12501     5519    -1113 
   -5898    -7987    -7767    -6273    -4348    -2101      964     5052 
    9692    14121    17438    19004    18921    17477    15005    12552 
   11025    10089     8852     6636     3094    -1262    -5077    -7136 
   -6867    -4244      132     5346    10820    16064    20488    23801 
   25678    25611    23257    18409    11396     3519    -3521    -8468 
  -10908   -11042    -9262    -5958    -1610     3067     7329    10578 
   12431    12947    12530    11558    10100     7927     4884     1233 
   -2368    -5404    -7940   -10256   -12082   -12468   -10637    -6683 
   -1471     3859     8405    11697    13651    14504    14506    13595 
   11768     9491     7456     6154     5549     5384     5632     6200 
    6899     7459     7225     5730     3034     -576    -4354    -7448 
   -9480   -10369   -10561   -11032   -12406   -14675   -17578   -20860 
  -24361   -27841   -30960   -33404   -34941   -35589   -35256   -33997 
  -32827   -32637   -33459   -35356   -38207   -41345   -44155   -46415 
  -48094   -48941   -48509   -46552   -43151   -38354   -32032   -24547 
  -16899   -10149    -5354    -3229    -3439    -4774    -5736    -5128 
   -2514     2198     8931    17172    26148    34805    42048    47304 
   50242    50629    48644    44664    39330    33535    27834    22500 
   17789    13676     9878     6194     2512    -1263    -5155    -9021 
  -12533   -15073   -15943   -15472   -14760   -14368   -14717   -15967 
  -17240   -17678   -17477   -17567   -18708   -20786   -23025   -24344 
  -23844   -21570   -18265   -14762   -11686    -9155    -6865    -4380 
   -1501     1267     3118     3606     2580      362    -2140    -4118 
   -5124    -4935    -3750    -2270    -1424    -1730    -2967    -4544 
   -5681    -5760    -4778    -3264    -1952    -1183     -740     -112 
    1564     4913     9431    13926    17422    19294    19267    17507 
   14397    10261     5429      364    -4386    -8280   -10890   -11936 
  -11262    -9088    -6140    -3218     -723     1282     2641     3035 
    2517     1539      569      211      835     1991     3011     3534 
    3176     1613    -1059    -4334    -7576   -10259   -11912   -12154 
  -10660    -7115    -1625     5268    12931    20434    26733    31371 
   34154    34639    32713    28832    23560    17631    11931     6990 
    2920     -230    -2311    -3364    -3771    -3930    -4097    -4316 
   -4580    -5086    -5998    -7361    -9265   -11596   -14000   -16303 
  -18244   -19181   -18787   -17594   -16524   -16156   -16540   -17395 
  -18202   -18382   -17686   -16344   -14486   -11750    -7818    -2789 
    2790     8075    12439    15694    17949    19562    20889    21905 
   22164    21248    19230    16726    14644    13736    14120    15273 
   16511    17399    17797    17654    16969    15898    14596    13248 
   12277    12040    12564    13778    15620    17813    19781    20899 
   20741    19058    15583    10033     2496    -6352   -15450   -23837 
  -30946   -36372   -39888   -41716   -42290   -42098   -41809   -42010 
  -42848   -44141   -45627   -46966   -47707   -47373   -45651   -42591 
  -38526   -33809   -28828   -23907   -18976   -13766    -8280    -2973 
    1651     5535     8808    11655    14522    17581    20434    22856 
   25128    27551    30110    32624    34848    36448    37319    37770 
   37984    37863    37406    36595    35177    32790    29143    23971 
   17310    10011     3169    -2865    -8432   -13972   -19579   -24752 
  -28617   -30765   -31582   -31646   -31291   -30617   -29875   -29787 
  -31131   -34227   -38772   -43882   -48651   -52658   -55659   -57206 
  -56912   -54860   -51657   -48006   -44276   -40584   -36851   -32900 
  -28918   -25283   -22058   -19116   -16313   -13415   -10335    -7511 
   -5594    -4696    -4404    -4187    -3560    -2422    -1040      395 
    1925     3924     6925    11046    15851    20725    25255    29150 
   32085    33829    34301    33439    31110    27314    22338    16400 
    9809     3547    -1222    -4003    -4802    -3795    -1569     1010 
    3456     5681     7652     9470    11115    12413    13453    14447 
   15405    16040    15925    14954    13427    11706    10062     8521 
    6882     5341     4515     4734     5859     7488     9116    10379 
   11236    11973    12833    13808    14995    16406    17725    18879 
   19951    20830    21699    22944    24458    25756    26421    26144 
   24793    22498    19488    15885    11865     7880     4462     1951 
     358     -645    -1421    -2232    -3261    -4512    -5941    -7685 
  -10012   -13020   -16472   -19874   -22614   -24176   -24247   -22660 
  -19388   -14808    -9802    -5323    -2024       34     1458     2893 
    4584     6604     9005    11875    15253    19058    23168    27407 
   31553    35409    38848    41834    44432    46618    48346    49684 
   50503    50588    49952    48549    46245    43099    39155    34228 
   28261    21593    14659     7740     1024    -5492   -12090   -19005 
  -26096   -33149   -40128   -46977   -53587   -59652   -64710   -68368 
  -70327   -70624   -69666   -67927   -65893   -63848   -61794   -59752 
  -57638   -55175   -52155   -48411   -43823   -38579   -33092   -27654 
  -22401   -17482   -13141    -9686    -7342    -6045    -5346    -4525 
   -2820      111     3863     7642    10740    12788    13811    14023 
   13660    12825    11411     9216     6069     1998    -2604    -6873 
   -9787   -10891   -10325    -8511    -6179    -3994    -2233     -908 
     110      769      794      141     -955    -2322    -3901    -5456 
   -6524    -6655    -5720    -4022    -2137     -606      319      728 
    1031     1622     2624     3842     4669     4672     3979     2936 
    1977     1152      -35    -1754    -3707    -5564    -6885    -7192 
   -6263    -4048     -669     3238     6798     9470    11070    11702 
   11538    10611     9112     7411     5682     3940     2387     1362 
    1093     1715     3118     4884     6715     8522    10094    11224 
   12072    12899    13715    14487    15117    15387    15394    15605 
   16251    17048    17610    17739    17391    16651    15575    14203 
   12765    11625    10964    10673    10780    11413    12459    13637 
   14487    14658    14210    13358    12282    11199    10288     9595 
    9159     8971     8920     8960     9026     8889     8438     7894 
    7451     7003     6297     5169     3596     1612     -646    -3074 
   -5718    -8465   -11174   -13902   -16748   -19851   -23254   -26888 
  -30580   -33952   -36676   -38354   -38475   -36939   -34089   -30481 
  -26821   -23665   -21264   -19656   -18664   -18021   -17354   -16238 
  -14534   -12288    -9609    -6744    -3808     -727     2560     6291 
   10819    16093    21741    27475    33103    38411    43080    46563 
   48317    48163    46216    42776    38335    33384    28145    22750 
   17629    13318    10037     7643     5858     4536     3832     4020 
    4981     6254     7433     8059     7715     6459     4636     2316 
    -558    -3812    -7196   -10411   -13060   -14864   -15799   -16079 
  -15981   -15823   -15899   -16086   -16024   -15755   -15697   -16076 
  -16630   -16883   -16595   -15881   -15128   -14605   -14247   -13998 
  -13866   -13675   -13292   -12752   -12022   -11133   -10226    -9391 
   -8631    -7919    -7351    -7038    -6851    -6420    -5458    -4085 
   -2637    -1380     -390      457     1310     2224     3092     3720 
    4028     3988     3526     2554      998    -1193    -4136    -7867 
  -12104   -16266   -19560   -21504   -22247   -22279   -22107   -21993 
  -21899   -21557   -20647   -19133   -17303   -15661   -14777   -14896 
  -15579   -15986   -15528   -14232   -12620   -11261   -10526   -10344 
  -10227    -9871    -9317    -8587    -7691    -6682    -5494    -4075 
   -2472     -709     1140     2921     4370     5132     5045     4285 
    3223     2221     1561     1417     1654     1931     2108     2223 
    2204     1828     1113      419     -153     -741    -1146     -949 
     135     2193     4987     7877    10218    11803    12663    12690 
   11795    10097     7971     6007     4568     3648     3102     2809 
    2710     2651     2421     1858      972      -38    -1025    -2034 
   -3333    -5175    -7442    -9718   -11620   -12797   -13164   -13128 
  -12980   -12649   -11998   -10821    -9086    -7054    -4859    -2455 
      72     2667     5396     8008    10127    11738    12944    13769 
   14184    14230    14224    14621    15608    16958    18403    20041 
   22094    24463    26944    29425    31572    33005    33662    33649 
   33051    31875    30200    28331    26603    25173    23822    22240 
   20440    18406    16070    13645    11320     9024     6608     3975 
    1254    -1265    -3515    -5649    -7670    -9399   -10929   -12662 
  -14732   -16824   -18661   -20370   -22158   -23900   -25390   -26591 
  -27405   -27716   -27505   -26860   -26267   -26383   -27389   -29065 
  -31170   -33435   -35564   -37414   -38898   -39864   -40178   -39778 
  -38658   -36859   -34430   -31344   -27727   -24173   -21406   -19692 
  -18685   -17798   -16614   -14922   -12740   -10296    -7909    -5821 
   -3984    -2182     -393     1269     2750     3948     4707     5102 
    5394     5677     5800     5578     4911     3723     1998      -39 
   -1933    -3278    -3866    -3655    -2735    -1356      247     2073 
    4202     6622     9197    11687    13779    15286    16417    17415 
   18250    18982    19873    20912    21709    21988    21711    20996 
   20180    19640    19398    19111    18468    17259    15351    12855 
   10005     6939     3783      758    -1819    -3767    -5234    -6400 
   -7290    -7876    -8104    -7940    -7399    -6615    -5760    -4726 
   -3288    -1528      234     1818     3164     4018     4075     3238 
    1581     -551    -2569    -4095    -5193    -6070    -6744    -7127 
   -7122    -6578    -5571    -4415    -3385    -2718    -2469    -2509 
   -2725    -2981    -3133    -3196    -3445    -4128    -5128    -6061 
   -6550    -6412    -5689    -4528    -3071    -1426      372     2355 
    4468     6504     8189     9288     9778     9877     9808     9684 
    9527     9143     8372     7363     6176     4750     3219     1694 
     324     -583     -855     -565      108      915     1575     1949 
    2041     1837     1234      222     -874    -1582    -1667    -1181 
    -208     1260     3274     5813     8667    11461    13849    15619 
   16676    17027    16748    15970    14945    14090    13787    14053 
   14547    14908    14999    14811    14290    13418    12238    10809 
    9367     8195     7287     6354     4999     2995      365    -2814 
   -6487   -10639   -15186   -19886   -24412   -28317   -31123   -32582 
  -32662   -31539   -29767   -27998   -26547   -25489   -24836   -24501 
  -24310   -24018   -23334   -22138   -20473   -18272   -15538   -12595 
