Origin Time       2016/04/16 01:25:00
Lat.              32.753
Long.             130.762
Depth. (km)       12
Mag.              7.3
Station Code      KGS015
Station Lat.      31.4304
Station Long.     131.0110
Station Height(m) 34
Record Time       2016/04/16 01:25:33
Sampling Freq(Hz) 100Hz
Duration Time(s)  160
Dir.              N-S
Scale Factor      3920(gal)/6182761
Max. Acc. (gal)   16.483
Last Correction   2016/04/16 01:25:33
Memo.             
[...]
   15039    15623    15925    15470    13928    11412     8494     6114 
    4866     4797     5948     8418    11993    16034    19757    22529 
   24050    24513    24119    22689    20406    17994    15797    13661 
   11606     9967     8934     8467     8506     8826     9011     8771 
    8226     7650     7220     7233     7641     7919     7703     6697 
    4818     2612      946      598     1897     4622     8390    12815 
   17329    21290    24262    26069    26684    26142    24665    22475 
   19623    16442    13464    11021     9302     8277     7965     8514 
    9540    10328    10623    10347     9415     8114     6583     4875 
    3492     2709     2509     2921     3979     5842     8408    11222 
   13622    15026    15289    14256    11945     8939     5927     3574 
    2325     2146     2725     3686     4774     5917     7033     8020 
    8901     9637    10050    10020     9401     8078     6359     4927 
    4274     4604     6179     9033    12581    15909    18222    18983 
   18127    16113    13520    10960     9015     7862     7389     7471 
    8054     9097    10529    12288    14075    15403    15798    15101 
   13826    12652    12068    12420    13782    16198    19601    23572 
   27667    31520    34774    37148    38285    37907    36092    32869 
   28305    23100    18152    14142    11541    10368    10451    11701 
   13953    16796    19634    22189    24427    26039    26761    26472 
   24884    21986    18218    14217    10834     8813     8579    10327 
   13782    18144    22498    26162    28703    29744    28859    25956 
   21544    16470    11480     6946     3095      109    -1905    -2789 
   -2404     -536     2925     7570    12826    17932    21938    24368 
   25020    23955    21710    18730    15427    12299     9754     8217 
    7961     8935    10894    13589    16703    19627    21711    22489 
   21664    19374    16235    12916     9943     7603     5869     4646 
    3782     3141     2896     3298     4360     5904     7628     9208 
   10597    11820    12587    12696    12186    11100     9715     8395 
    7322     6591     6183     6067     6213     6681     7554     8586 
    9568    10342    10617    10411     9717     8343     6412     4251 
    2264      919      433      650     1283     2104     2948     3797 
    4675     5470     6219     7045     7863     8696     9630    10485 
   11053    11242    11092    10821    10557    10288    10114    10198 
   10490    10832    11163    11296    11012    10310     9160     7627 
    6030     4700     3865     3465     3271     3215     3352     3919 
    5178     7181     9809    12677    15342    17524    19088    19967 
   19947    18965    17465    16099    15422    15696    16770    18245 
   19923    21879    23919    25578    26594    26852    26429    25809 
   25417    25285    25330    25432    25562    25858    26286    26740 
   27281    27876    28229    28040    27197    25554    23010    19926 
   16894    14259    12138    10481     9088     7868     6983     6520 
    6387     6614     7222     8319     9988    11778    13352    14742 
   15781    16334    16426    16124    15755    15751    16314    17263 
   18213    19008    19586    19808    19779    19586    19030    18122 
   17067    16072    15516    15443    15502    15593    15629    15475 
   15172    14727    14274    13906    13589    13436    13379    13268 
   13041    12726    12486    12282    12141    12378    13065    13998 
   14858    15310    15207    14709    14283    14277    14694    15474 
   16429    17385    18244    18665    18463    17646    16251    14749 
   13551    12732    12479    12886    13898    15443    17392    19514 
   21379    22619    23039    22420    20739    18164    14757    10700 
    6460     2367    -1400    -4386    -6098    -6153    -4233     -597 
    3963     8684    12810    15688    17038    16798    15152    12595 
    9749     7299     5739     5236     5757     6972     8435     9878 
   11096    12003    12632    12826    12343    11028     8778     5654 
    1939    -1734    -4551    -6060    -6257    -5461    -4114    -2464 
    -692      955     2361     3547     4540     5279     5593     5303 
    4335     2960     1773     1338     2085     4092     7047    10547 
   13999    16956    19197    20452    20816    20522    19699    18620 
   17341    15856    14377    13124    12422    12444    12880    13300 
   13415    12964    11848    10270     8288     5858     3337     1115 
    -717    -2190    -3403    -4155    -4048    -3035    -1370      608 
    2700     4712     6345     7643     8703     9620    10671    11844 
   13220    14878    16672    18719    20960    23221    25419    27265 
   28610    29295    29078    27839    25519    22447    19252    16484 
   14758    14543    15773    18012    20642    23123    25273    26937 
   27903    28096    27514    26358    24818    22998    21187    19574 
   18363    17751    17545    17607    17822    17955    18097    18365 
   18648    19036    19832    21030    22329    23713    25080    26013 
   26452    26470    26066    25543    24970    24053    22766    21153 
   19283    17411    15553    13818    12602    12026    12018    12345 
   12801    13364    13764    13817    13485    12603    11196     9364 
    7170     4824     2595      695     -558     -895     -430      755 
    2530     4467     6342     7884     8701     8757     8037     6451 
    4189     1554    -1131    -3433    -4993    -5536    -4924    -3320 
    -825     2391     5872     9297    12311    14542    15893    16171 
   15308    13567    11017     7849     4704     2164      654      465 
    1618     3923     7062    10538    13688    16130    17817    18691 
   18766    18235    17382    16544    16126    16363    17267    18875 
   21071    23521    25952    28052    29391    29782    29344    28159 
   26269    23938    21350    18486    15652    13168    10938     9036 
    7651     6780     6394     6262     6157     6066     6011     6126 
    6390     6766     7609     9011    10783    12846    14837    16418 
   17489    17948    17991    17851    17571    17233    16795    16248 
   15677    14969    14081    13191    12523    12181    12104    12151 
   12202    12328    12535    12543    12146    11259     9860     8089 
    6137     4328     3027     2496     2998     4611     7249    10777 
   14806    18840    22439    25159    26780    27322    26681    24705 
   21709    18304    14944    12138    10330     9605     9951    11319 
   13523    16187    18817    21103    22817    23701    23687    22808 
   21169    18979    16343    13256     9741     6079     2877      613 
    -502     -398      739     2643     5119     7880    10517    12654 
   14012    14490    14102    12822    10708     8017     5131     2449 
     235    -1317    -2059    -1963    -1080      427     2380     4612 
    6788     8552     9714    10148     9801     8827     7510     6078 
    4788     3931     3658     4072     5098     6410     7871     9516 
   11238    12942    14516    15789    16710    17293    17537    17542 
   17453    17338    17335    17664    18350    19254    20187    20835 
   20888    20236    19027    17613    16407    15657    15264    15093 
   15207    15640    16397    17422    18451    19261    19763    19782 
   19250    18371    17288    16111    15144    14655    14760    15496 
   16826    18629    20584    22245    23270    23533    23043    21850 
   20106    17995    15778    13719    11866    10395     9536     9260 
    9470     9926    10534    11422    12498    13778    15354    17094 
   18880    20520    21787    22517    22565    21983    20919    19519 
   17940    16305    14765    13543    12937    13029    13639    14714 
   16170    17777    19321    20507    21118    21017    20186    18916 
   17459    16024    14848    13872    12989    12299    12023    12357 
   13303    14814    16755    18794    20594    21777    22037    21297 
   19618    17263    14575    11750     8849     5974     3408     1403 
     154     -132      522     1963     3977     6155     8104     9596 
   10479    10670    10260     9462     8430     7249     6074     5159 
    4606     4468     4905     5914     7407     9314    11360    13117 
   14191    14427    13846    12496    10615     8617     6772     5170 
    3914     3077     2661     2816     3751     5431     7605     9920 
   11977    13541    14542    14980    14985    14810    14626    14540 
   14740    15202    15687    16174    16684    17128    17624    18308 
   19048    19679    20171    20507    20714    20966    21391    21956 
   22610    23206    23414    22953    21816    20190    18297    16406 
   14746    13327    12139    11270    10585     9864     9193     8723 
    8503     8523     8549     8361     7942     7319     6629     6083 
    5931     6419     7503     8973    10597    12079    13240    13969 
   14230    14199    14012    13653    13059    12159    10888     9285 
    7631     6284     5449     5250     5699     6587     7674     8726 
    9521    10042    10333    10447    10620    10995    11560    12307 
   13145    13955    14699    15308    15641    15695    15548    15168 
   14524    13635    12593    11529    10526     9609     8736     8049 
    7905     8513     9969    12208    14983    18080    21240    24197 
   26682    28402    29250    29180    28270    26847    25100    23148 
   21311    19920    19172    19112    19696    20814    22192    23492 
   24454    24873    24670    23966    22909    21702    20625    19762 
   19206    19144    19517    20184    20987    21708    22325    22848 
   23216    23401    23335    22993    22516    22105    21813    21625 
   21501    21269    20795    19993    18858    17593    16371    15162 
   13866    12374    10583     8579     6577     4724     3207     2238 
    1833     1950     2529     3308     3993     4421     4531     4276 
    3596     2591     1437      147    -1162    -2158    -2612    -2390 
   -1348      470     2819     5284     7422     8957     9705     9635 
    8858     7541     6002     4510     3134     1906      883      107 
    -426     -649     -502      -57      680     1611     2514     3442 
    4359     5024     5501     5876     5946     5623     4964     3955 
    2805     1953     1623     1893     2823     4236     5795     7278 
    8557     9520    10100    10343    10442    10552    10730    11089 
   11686    12400    13113    13700    14042    14144    13956    13519 
   13112    12893    12940    13378    14205    15316    16556    17734 
   18715    19555    20289    20766    20968    20967    20775    20440 
   19910    19135    18240    17398    16882    16942    17530    18467 
   19574    20654    21555    22205    22613    22760    22627    22408 
   22381    22649    23142    23754    24463    25304    26240    27155 
   28049    28972    29877    30721    31318    31364    30781    29609 
   27959    26117    24364    22893    21885    21506    21850    22823 
   24108    25471    26904    28320    29529    30455    31049    31263 
   31149    30816    30384    29994    29770    29807    30143    30693 
   31280    31736    31943    31793    31195    30109    28453    26258 
   23758    21074    18235    15447    12963    10893     9225     7938 
    7059     6515     6151     5860     5536     5211     5032     4976 
    4945     4905     4728     4266     3510     2480     1220     -101 
   -1392    -2711    -4000    -5106    -6005    -6741    -7237    -7489 
   -7608    -7469    -7007    -6409    -5628    -4609    -3488    -2271 
    -974      365     1748     3012     4051     4889     5506     5933 
    6260     6543     6790     6978     7108     7233     7395     7546 
    7623     7668     7697     7605     7364     7032     6645     6348 
    6253     6363     6767     7464     8209     8885     9486     9782 
    9724     9518     9111     8501     7936     7483     7016     6416 
    5690     4940     4369     4239     4650     5671     7326     9267 
   11155    12900    14444    15818    16965    17700    18007    17906 
   17362    16488    15473    14506    13742    13227    13045    13282 
   13807    14441    15179    16094    17255    18702    20366    22121 
   23865    25426    26619    27463    27952    27934    27471    26753 
   25862    24951    24146    23438    22882    22688    23064    23892 
   24986    26255    27330    27948    27995    27211    25709    23719 
   21376    19109    17174    15599    14575    14180    14395    15239 
   16677    18538    20487    22296    23640    24033    23352    21510 
   18596    15156    11548     8157     5385     3342     2085     1458 
    1344     1654     2101     2584     3024     3260     3222     2943 
    2494     1892     1228      545     -157     -839    -1433    -1789 
   -2002    -2200    -2290    -2382    -2563    -2702    -2777    -2759 
   -2488    -1884    -1020       -8     1051     2137     3317     4496 
    5581     6556     7233     7498     7400     6974     6277     5387 
    4423     3410     2267     1103       54     -789    -1208    -1104 
    -450      861     2678     4715     6877     8987    10847    12514 
   14013    15325    16483    17428    18200    18864    19322    19606 
   19833    19960    19946    19818    19560    19203    18861    18605 
   18499    18607    18986    19714    20875    22562    24672    26976 
   29319    31485    33380    35058    36457    37512    38283    38821 
   39037    38827    38218    37188    35664    33686    31325    28727 
   26159    23749    21557    19761    18397    17467    17148    17330 
   17728    18331    18962    19392    19644    19702    19633    19479 
   19132    18669    18208    17706    17153    16631    16182    15823 
   15546    15216    14730    14073    13085    11758    10368     8988 
    7621     6398     5315     4359     3644     3255     3303     3849 
    4883     6419     8247    10093    11874    13413    14506    14996 
   14772    13868    12345    10394     8229     5981     3940     2319 
    1279      984     1312     2164     3461     4942     6409     7676 
    8614     9179     9262     8943     8387     7674     6963     6309 
    5742     5384     5238     5335     5673     6062     6354     6472 
    6373     6127     5822     5384     4669     3685     2452      977 
    -638    -2221    -3649    -4941    -5918    -6360    -6278    -5663 
   -4609    -3169    -1324      753     2993     5286     7427     9504 
   11494    13194    14648    15976    17116    17900    18375    18672 
   18713    18541    18241    17716    16990    16115    15109    14107 
   13208    12550    12248    12255    12602    13286    14042    14644 
   15160    15613    15796    15715    15554    15376    15267    15216 
   15207    15419    15880    16594    17597    18738    19994    21429 
   22859    24035    24973    25683    25907    25622    25010    24055 
   22871    21669    20537    19550    18636    17829    17321    17079 
   17118    17525    18126    18745    19298    19591    19413    18710 
   17536    15966    14133    12216    10455     9045     8054     7606 
    7797     8599     9951    11711    13629    15415    16938    18182 
   19075    19623    19779    19462    18777    17802    16581    15196 
   13750    12468    11495    10901    10800    11152    11825    12685 
   13529    14174    14557    14711    14633    14345    13977    13666 
   13507    13535    13819    14347    14943    15585    16289    16910 
   17378    17649    17650    17366    16854    16301    15820    15351 
   14930    14594    14264    13909    13535    13171    12841    12526 
   12196    11727    11017    10129     9122     7972     6717     5480 
    4283     3112     2077     1220      537      126       19      159 
     509      994     1527     2031     2503     3044     3651     4287 
    5016     5798     6530     7195     7812     8428     9008     9447 
    9745     9993    10202    10264    10193    10109    10113    10312 
   10710    11302    12131    13072    13914    14566    15082    15521 
   15881    16172    16403    16569    16543    16172    15574    14827 
   13836    12715    11618    10568     9679     9041     8621     8390 
    8383     8596     8910     9227     9541     9827    10015    10043 
    9877     9530     9014     8375     7761     7224     6807     6619 
    6562     6580     6764     7053     7365     7675     7987     8342 
    8733     9179     9733    10382    11092    11802    12392    12789 
   13034    13165    13204    13285    13514    13883    14379    14975 
   15619    16243    16822    17391    17970    18559    19121    19636 
   20135    20673    21292    21917    22456    22861    23001    22822 
   22405    21795    21067    20388    19886    19563    19431    19538 
   19778    20064    20444    20815    21021    21071    20905    20476 
   19917    19330    18707    18057    17455    16928    16431    15992 
   15602    15216    14916    14704    14539    14513    14657    14966 
   15411    15874    16290    16580    16678    16667    16655    16765 
   17075    17544    18122    18755    19403    20095    20838    21626 
   22464    23320    24117    24706    24991    24993    24718    24272 
   23854    23537    23300    23126    23006    22839    22535    22205 
   21950    21791    21722    21654    21538    21319    20886    20327 
   19813    19360    19015    18848    18830    18891    18896    18701 
   18229    17453    16515    15531    14462    13358    12303    11410 
   10793    10358    10065     9936     9872     9869     9963    10117 
   10310    10517    10735    10920    10952    10768    10347     9709 
    8891     7966     7062     6235     5490     4798     4119     3459 
    2800     2158     1598     1191      991      917      941     1102 
    1295     1429     1444     1261      949      614      312       84 
    -102     -303     -478     -548     -472     -243       99      446 
     707      931     1155     1331     1429     1392     1197      867 
     372     -323    -1223    -2197    -3048    -3665    -3938    -3842 
   -3432    -2689    -1628     -334     1121     2690     4328     5945 
    7461     8813     9942    10898    11756    12465    13030    13521 
   13924    14239    14465    14597    14736    14928    15146    15423 
   15808    16322    16928    17632    18482    19443    20463    21466 
   22382    23204    23913    24538    25126    25651    26108    26545 
   26962    27299    27552    27763    27895    27871    27717    27462 
   27080    26592    26075    25647    25364    25160    25010    24921 
   24825    24660    24406    24050    23604    23081    22453    21721 
   20868    19902    18916    18006    17218    16623    16273    16073 
   15976    16065    16313    16656    17035    17283    17313    17201 
   16970    16617    16272    16064    16038    16289    16862    17653 
   18543    19407    20084    20425    20323    19806    18963    17880 
   16655    15348    14053    12826    11685    10759    10089     9681 
    9581     9672     9837     9942     9807     9381     8596     7442 
    6034     4455     2859     1400      163     -788    -1420    -1735 
   -1802    -1641    -1233     -683      -29      779     1657     2494 
    3303     4083     4764     5397     6038     6590     7014     7351 
