Origin Time       2016/04/16 01:25:00
Lat.              32.753
Long.             130.762
Depth. (km)       12
Mag.              7.3
Station Code      KGS002
Station Lat.      32.0916
Station Long.     130.3519
Station Height(m) 12
Record Time       2016/04/16 01:25:21
Sampling Freq(Hz) 100Hz
Duration Time(s)  167
Dir.              N-S
Scale Factor      3920(gal)/6182761
Max. Acc. (gal)   42.255
Last Correction   2016/04/16 01:25:21
Memo.             
[...]
     739      -56      -12      390      288     -108     -155     -177 
    -812    -1578    -1531     -758      -47      328      462      118 
    -604     -829     -310      116      162      403      809      618 
    -418    -1522    -1595     -477      836     1484     1190      -77 
   -1502    -1917    -1492    -1194    -1276    -1434    -1556    -1874 
   -2395    -2592    -2039     -897       23      -39     -601     -987 
   -1749    -2611    -1772      492     1900     2096     1928      837 
   -1355    -2707    -1925     -636     -663    -1693    -3198    -4894 
   -5140    -3049     -895     -901    -1738     -966      850     1233 
      62     -639     -349      147      879     1722     1516     -396 
   -3018    -4389    -3296     -724      877      417     -817    -1257 
    -832     -427     -311      -18       16     -929    -1422      198 
    2236     1994      -45    -1345     -401     2335     4552     4404 
    3392     3241     2078    -1343    -3986    -3209     -948     -552 
   -1829    -1868     -329      -32    -1460    -2018    -1193     -421 
     729     2921     4452     3593      687    -2838    -4586    -2268 
    2220     3666      339    -3939    -5114    -3860    -2890    -1380 
    2226     4946     3403     -626    -3229    -3188    -1884    -1040 
    -833     -161      488     -478    -2180    -2718    -2292    -1530 
    -236     1062     1088     -894    -3722    -4305    -1409     2279 
    3709     2224     -936    -3616    -4403    -3745    -2083     1017 
    3578     1984    -2894    -6401    -6172    -3186      248     1796 
     310    -3353    -6098    -4918     -867     2051     1893     -507 
   -3385    -3517     1283     7290     8994     6472     2930     -110 
   -2507    -3985    -3524    -1075     1403     2108      850     -795 
   -1771    -3951    -7891    -9846    -7025    -1007     4518     6699 
    5724     4002     2922     2275     2110     2780     3539     3234 
    1419    -1456    -2520     1161     6355     6304      672    -4759 
   -7646    -8751    -6617    -1881     1183     1126      478     1607 
    3287     1887    -1974    -2460     2856     8939     9522     3801 
   -3290    -6302    -4682    -1658     1086     3272     3032      189 
   -2809    -6098    -9134    -7583    -2802    -1301    -2708    -3122 
   -3169    -2947      -99     4783     8310     7752     3321    -1128 
   -2392    -2034    -3196    -5406    -5039     -893     2480      302 
   -4304    -5093    -4383    -7746   -11120    -7596     -132     3939 
    2843     -642    -1830     2390     6996     4904    -1520    -5534 
   -4192     1783     6960     5146    -1478    -5400    -5421    -5888 
   -6734    -5671    -4884    -5295    -3946     -987      683      292 
    -351     1802     7043    10696     9595     6891     4811      753 
   -4133    -4976    -2894    -2346    -3490    -4870    -6447    -6532 
   -2531     3688     7271     6871     4728     3220     3971     5965 
    4945     -568    -6214    -8501    -8363    -6083     -523     5392 
    6441     2622    -1652    -3021     -899     2537     5029     5795 
    4143     2780     6528    12002    10581     3014    -2618    -4105 
   -3611     -708     2978     2150    -4143   -10487   -10976    -5624 
   -1041    -1411    -3065    -1817     1035     2831     3304     1947 
    -162     2235     8266     9084     4234     1314      345    -3063 
   -6517    -5379    -1196     -178    -4862    -8971    -6208      261 
    5074     6801     4398     -811    -4053    -3603    -2209    -1933 
   -2224    -1820     -602     -456    -1969    -2676    -2612    -3518 
   -3280     -618     1053      184      278     3077     4777     3718 
    4455     8461     9149     1341   -10387   -17489   -17181   -11893 
   -5331    -1916    -3579    -7585    -9849    -9427    -9034    -8498 
   -3911     2895     6132     6036     6110     6723     7053     7723 
    9208    10104     8025     1451    -7847   -13132    -8765      356 
    3999     1149    -1969    -4452    -8204    -9268    -3670     3772 
    5147      499    -3449    -3190      664     7864    14262    12453 
    5117     2519     3924      697    -5829    -8547    -8573   -10527 
  -12425    -9587    -3929    -2955    -7781    -8572     1630    15935 
   23409    21125    11971      140    -8993   -11602    -8456    -3243 
     733     1635     -604    -2490     -682      252    -5096    -9919 
   -5708     1663     3553     2577     2078     -124    -1821     1931 
    8116     9349     4350    -2884    -9096   -11023    -6273      732 
    3001     1587     2255     4131     1887    -3457    -5995    -4684 
   -3714    -5236    -6374    -3355     2768     6116     3332    -1421 
   -2497      306     3470     2834    -2811    -8225    -7515     -897 
    6974     9508     3053    -7455   -14308   -14755   -10577    -6169 
   -3590     -317     4269     8033     9750     8609     5615     2500 
    -893    -3005    -2054    -1414    -4887   -10633   -14050   -12900 
   -8234    -2479     2296     6084    10501    14519    14477     9950 
    3466    -4183   -11538   -14730   -12953    -8644    -3233     1039 
    1440     -624    -2091    -2459    -2437    -3085    -4470    -3795 
     873     6962     9642     6814     2288      919     1502       56 
   -3197    -4980    -4475    -3985    -3585     -726     2475      915 
   -3450    -4054      245     5536     8168     6548     1583    -4475 
   -8986    -9109    -5295    -1751    -1256    -3852    -7142    -6676 
   -2032     1975     3075     3442     4772     5954     4679     1367 
   -1068    -1902    -1517     -172     -855    -4726    -8040    -8631 
   -6881    -2755     2418     6094     5713     -659   -10038   -14842 
  -12161    -7704    -6893    -7531    -5930    -2840      252     2290 
    2783     4222     6951     7630     6598     6041     5380     4280 
    2422     -760    -2552     -782     1628     1816      602      238 
    2761     6442     5577    -1249    -8572   -11086    -8281    -3236 
     482      952     -142     1475     5384     5628      542    -5175 
   -8132    -8687    -6774    -1447     3602     2338    -4422   -11181 
  -14119   -10992    -3313     4119     8912    10183     7710     4594 
    2200    -1463    -4120    -2233     1283     2377     1465      863 
    2390     5312     6176     2885    -2654    -6538    -7740    -8029 
   -7050    -4621    -3260    -2532      373     4753     7851     8507 
    7952     7293     4476    -1289    -5339    -3680      868     2301 
    -929    -5238    -7327    -6524    -4075     -872     3878     9071 
   11442     9690     3965    -3713    -8128    -7596    -7232   -10134 
  -11948    -8346    -2495      699     2545     5548     7159     4598 
    -786    -6315    -9767    -9225    -5046    -1057     -789    -2642 
   -2870    -1944    -2011    -2502    -2663    -2135      302     3303 
    3609     2164     2495     4335     5035     3758     1175    -1157 
   -1803    -1178     -248      435      904     1983     2112    -1613 
   -7073    -9630    -9283    -7797    -3753     2817     6966     4121 
   -4596   -11419    -8851     -293     4925     5984     7422     7622 
    3624     -910    -1635     1024     4391     6199     6606     7137 
    6730     3111    -2295    -5516    -5397    -3918    -3671    -6579 
  -10660   -10903    -6633    -1903     1252     3507     4263     2027 
   -2344    -5484    -4590     -384     3075     3535     2913     2143 
    1190     2110     3601     1663    -1690    -2401    -2068    -3260 
   -4904    -4849    -2316      772     1175     -893    -2238    -2248 
   -2255    -1106     2297     5601     7042     6707     3173    -2650 
   -5775    -5092    -3592    -2308    -1766    -2843    -4139    -3696 
   -1605      429      589    -1041    -2209    -1494     -154     -924 
   -5008    -8804    -7821    -3909     -857     2133     5984     9014 
   10139     9076     6636     5165     4163      564    -4147    -5080 
    -999     4789     7587     6183     4497     4676     4210     2451 
    1440      740    -2029    -7401   -12106   -11948    -8145    -4986 
   -2570      502     2244      798    -1311     -328     2685     3399 
     695    -2905    -5062    -4699    -1134     4882    10426    12796 
   10682     4445    -2055    -4357    -3516    -3476    -3105      919 
    5439     5248     2010     -599    -2718    -3696    -1339     2946 
    5236     4224     1583    -1453    -4627    -6599    -6698    -7576 
  -10618   -12255   -10874   -10025   -10707    -9335    -4508      175 
    1147      -38     -640    -1951    -5164    -8076    -8512    -6406 
   -3474    -2177    -3712    -6902    -8783    -7548    -5513    -5646 
   -6357    -4948    -2627    -1616     -754     2988     9227    13776 
   14527    13044    10619     7454     4399     2183     -257    -3214 
   -3363     1355     7570    11340    12585    13303    14235    14034 
   11146     6021     1608     1025     3820     5846     5137     4563 
    5259     4971     4263     4849     5399     5088     4578     3483 
    1822     -302    -4102    -8123    -8530    -5752    -4103    -5960 
   -9486   -10523    -8023    -5874    -5808    -4178      692     5549 
    8101     8363     5615      530    -3167    -3427    -1886       61 
    2374     3737     1320    -5520   -12924   -17589   -20941   -23677 
  -22769   -17683   -13117   -12770   -13833   -11619    -7131    -4142 
   -2878    -1647     -740    -1763    -3737    -4212    -5141    -8657 
  -10019    -5701     -261     2543     5663    11841    18173    20531 
   19195    16940    15458    16544    21238    26003    25674    20113 
   13536     8775     5730     4357     5652     9351    13578    16998 
   18925    18374    15031     9416     1684    -7479   -15975   -22262 
  -25702   -25206   -21023   -16077   -13217   -12417   -11727   -10824 
  -11026   -11838   -11591   -10534   -10014   -10353   -10427    -8508 
   -4643     -800     2138     5281     9858    15182    19361    21615 
   21274    17148     9953     2813     -367     2183     6965     8154 
    5402     3745     4822     5792     5822     5854     5800     5894 
    6241     5445     3378     1748      352    -2394    -6479   -10491 
  -13013   -14728   -17400   -19367   -17082   -10931    -6037    -7336 
  -13943   -20414   -23421   -23235   -20888   -17689   -15128   -14545 
  -17678   -25069   -34781   -44127   -50549   -52857   -52832   -51526 
  -47221   -40721   -35457   -31594   -27457   -23782   -21382   -18664 
  -13414    -5599     1865     6817    11074    17732    27388    38161 
   47610    53200    52745    46673    38405    31922    29121    28825 
   28231    24273    16482     9856     9672    15368    23342    31471 
   38171    40731    38382    33833    28452    20263     8825    -2632 
  -11373   -17749   -22918   -26937   -29262   -29420   -27421   -22924 
  -14318    -1591    10626    16191    13308     4877    -4910   -11786 
  -13451   -12070   -10730    -7830     1039    15525    29132    37284 
   42731    49967    57540    59556    52675    38216    20901     7604 
    2111     2200     4157     5247     3034    -3363   -11666   -16271 
  -12611    -3411     3986     6336     6316     7379     8418     5308 
    -118     -809     3788     9225    16736    29194    41516    45286 
   37934    22758     5024   -10904   -23081   -30384   -31582   -27208 
  -19210    -9060      262     3119    -1486    -7043   -10305   -13451 
  -15402   -15534   -18167   -24143   -29050   -30601   -29451   -26155 
  -21530   -16143    -8136     4174    18126    29158    35061    34992 
   27885    14849     1657    -5331    -7085   -10129   -16579   -22258 
  -22778   -17481    -9638    -5072    -8053   -16048   -22321   -24877 
  -27837   -33740   -38529   -37295   -33356   -34326   -40594   -46070 
  -46447   -41155   -32444   -25018   -23516   -29032   -37215   -41853 
  -42720   -44516   -47115   -45689   -38694   -27542   -13124     2746 
   17111    27298    31253    30130    27994    26853    27462    30736 
   33914    33069    28731    23065    16461    10641     9699    14113 
   17915    15823     9248     3750     4381    12445    24469    33700 
   33919    24721    10665    -4724   -18562   -25735   -23169   -14004 
   -3745     4412     8776     8561     5777     4156     4715     4369 
    1014    -2802    -5199    -9073   -15177   -16973    -8702     4597 
   10323     3140    -9491   -19388   -24159   -22190   -13768    -3365 
    5241    11116    13268    10788     5694     1649      292      164 
    -558     -568     1490     2257    -2539   -11682   -19548   -23280 
  -24177   -21241   -11683     2550    16772    28882    39021    48240 
   56910    62407    60485    49483    33847    20899    12782     8033 
    7435     9778     7846    -4774   -25925   -46946   -59964   -62047 
  -55863   -46336   -36052   -26308   -18927   -13319    -7001       -3 
    6249    11827    16438    17939    15411    11992    11438    13261 
   14736    14462    11698     6106     -542    -4237    -2547     1888 
    5708    10024    16269    21022    20094    14607     7898      554 
   -7493   -16466   -27870   -39930   -46115   -42274   -31801   -22252 
  -18715   -20581   -23665   -23829   -18912    -9552     1960    12192 
   16384    12699     4808    -2782    -8397   -12103   -14532   -16270 
  -16555   -14111   -11100   -12888   -20471   -27158   -26134   -17163 
   -4328     7742    15609    19467    21820    23793    26586    32891 
   43790    56333    64940    66135    61100    52990    44850    39244 
   36256    32802    26408    18050     9855     3107     -929    -1183 
    2155     7886    14409    20042    23689    24949    23869    20936 
   16266     9751     2672    -3313    -8790   -15073   -21087   -24657 
  -24411   -19599   -11949    -5802    -3738    -5211    -9311   -15365 
  -21383   -25174   -27194   -29382   -31442   -31385   -28732   -24193 
  -17879   -10454    -3760     1880     8331    16428    24405    29420 
   29645    25571    18543     8850    -2864   -14350   -23081   -27362 
  -26426   -20472   -11290    -3025      -64    -2816    -8021   -13091 
  -17213   -19040   -16190    -7926     2987    11828    15102    13034 
    8924     5799     3887     1606      -70     2297     8280    12460 
   10929     5664      671    -3627    -7304    -6426     1362    11311 
   16672    15671    10862     4273    -3714   -11781   -18288   -23751 
  -28427   -30898   -31742   -32785   -33616   -32814   -29470   -24003 
  -18579   -14380   -10812    -7820    -5369    -2545      818     3594 
    5135     6577     8117     7113     3425     1370     2559     3958 
    3167     -311    -6701   -15394   -24068   -29091   -27989   -22725 
  -17849   -15533   -15372   -16370   -16789   -14267    -7465     1850 
    9203    11730    10232     6720     3577     3180     5404     7535 
    7014     3604     -298    -1902    -1346     -924    -1229    -1556 
   -2118    -3156    -4819    -7551   -10550   -12062   -11302    -8462 
   -4599    -1539      643     4810    12754    21354    25742    25113 
   22329    19028    14069     7006      885     -230     4604    12475 
   19188    22753    24633    27527    32405    37832    41989    44593 
   46372    47096    44904    38251    28590    19698    13247     7485 
    1305    -3774    -5373    -2303     3035     5419     2397    -2742 
   -5662    -6860    -9252   -12867   -16157   -18635   -20695   -22847 
  -23876   -21267   -14899    -7260     -517     4357     7499     9975 
   12615    15511    18554    21603    24290    26612    29835    34836 
   39562    41819    42581    42717    41694    39876    36679    30702 
   22633    12917     1002   -10548   -17473   -19558   -20641   -23456 
  -26524   -26474   -22427   -16345   -10908    -8336    -8488    -9494 
  -10913   -13040   -15206   -16410   -16082   -15408   -16531   -19333 
  -22637   -26135   -27476   -22766   -12622    -3186      659      337 
     -24     -132    -2701    -7382   -10664   -11171   -10726   -11371 
  -14309   -20036   -27427   -33903   -37506   -37450   -33431   -27338 
  -23450   -23731   -26289   -29805   -34561   -38824   -39286   -35805 
  -31589   -28100   -23934   -19000   -15780   -15838   -17699   -19147 
  -19890   -21223   -24270   -28284   -30088   -26426   -18273   -10949 
   -7992    -7920    -7728    -5633    -1175     4568    10235    15344 
   19275    21838    23827    24676    22856    18564    13703    11038 
   12180    15182    16962    17016    16377    15180    13096    11123 
   10564    10104     7258     2031    -3369    -6511    -5923    -1744 
    4296     9469    11943    12041    11010    10004     9236     7431 
    4643     3466     4735     5966     5433     3768     1503    -1615 
   -5078    -7107    -6081    -2542     1207     3522     4647     6802 
   12003    18529    22773    23923    23590    23294    23667    24466 
   25574    27474    29231    27566    20019     8201    -3086    -9947 
  -11979   -10556    -6781    -1469     5028    12265    18758    22987 
   24732    24710    23334    20841    18471    17565    17520    16851 
   15318    13407    11465    10245    11599    16933    24157    28926 
   29366    27398    25128    21783    15963     9018     3842     1149 
   -1300    -5596   -11902   -19482   -26993   -32527   -34666   -33591 
  -31432   -30642   -31536   -32363   -32171   -32139   -32879   -32689 
  -29995   -25047   -18453   -10056      111    10311    18234    23558 
   26415    25293    20070    13577     8306     4744     1896    -2044 
   -7380   -12217   -15637   -19130   -23822   -28505   -31278   -30985 
  -26792   -19413   -12535    -9822   -10902   -12595   -13032   -12138 
   -9867    -6392    -2449     1230     4099     5910     6431     5606 
    4283     2776      206    -2237    -1371     2748     7050    10784 
   15256    19789    21905    20971    19461    19567    20472    20422 
   18698    14468     6790    -3118   -11707   -15553   -13224    -6272 
     743     3218       45    -6120   -10868   -11875   -11590   -13279 
  -16702   -20225   -22753   -22897   -20228   -16610   -13721   -10905 
   -7370    -4425    -3967    -6121    -8503    -7984    -4367     -682 
     371    -1922    -6259    -9489    -9144    -5383       66     4720 
    6349     5305     4055     3862     3730     2185     -881    -4181 
   -6677    -7835    -6641    -3000      908     3259     4960     7694 
   11272    13862    14575    14794    15217    14085    10812     7454 
    5464     4499     4042     4122     5350     8475    12704    15704 
   15741    13019     9836     8154     6757     3619     -712    -4256 
   -6161    -7323    -8467    -8902    -8353    -7398    -6522    -7046 
   -9678   -11988   -11760   -10373    -9839   -10045    -9696    -8060 
   -5727    -3526    -1944    -1656    -2773    -4459    -5441    -4270 
    -806     3131     5615     5919     4493     2187     -465    -2871 
   -4555    -6026    -8592   -12827   -17092   -19064   -18646   -17729 
  -17985   -18986   -17993   -13214    -6211      376     4996     6848 
    5924     3547     1891     2006     2775     2693     1313     -612 
   -1566    -1574    -2462    -4550    -6251    -6832    -6962    -6978 
   -6036    -3776    -2071    -3082    -6003    -8050    -8381    -8698 
  -10138   -11871   -12339   -10627    -7757    -5914    -5519    -5315 
