Origin Time       2016/04/16 01:25:00
Lat.              32.753
Long.             130.762
Depth. (km)       12
Mag.              7.3
Station Code      KGS007
Station Lat.      31.8143
Station Long.     130.3032
Station Height(m) 4
Record Time       2016/04/16 01:25:26
Sampling Freq(Hz) 100Hz
Duration Time(s)  171
Dir.              N-S
Scale Factor      3920(gal)/6182761
Max. Acc. (gal)   53.201
Last Correction   2016/04/16 01:25:27
Memo.             
[...]
   -1583    -6285   -11542   -16553   -19968   -20931   -19212   -15233 
  -10372    -5913    -1869     2261     6291     9419    10929    10902 
   10027     8199     4818      806    -2029    -3480    -4754    -6529 
   -8416    -9857   -11034   -12331   -13581   -14698   -15433   -14571 
  -11259    -6311    -1223     3430     8239    13793    19643    24549 
   27588    28957    29304    28427    25766    21536    16057     9286 
    1880    -4662    -9451   -12896   -15690   -18072   -19949   -20736 
  -19787   -17345   -13993    -9816    -4977       24     4820     9012 
   12057    13479    12878    10586     8140     6594     5305     3532 
    1299    -1641    -5147    -7955    -9628   -10963   -11936   -11973 
  -11186    -9631    -7265    -4681    -2384     -109     2814     7040 
   12518    17709    20265    19279    16393    13896    12627    12292 
   12235    11835    11493    11982    12503    11873    10346     7894 
    3937     -403    -3617    -6085    -8329    -9687    -9487    -7254 
   -2925     2084     5699     6957     6090     4036     2322     1805 
    1227    -1084    -4483    -6958    -7707    -7406    -7194    -7826 
   -9075   -10452   -12135   -13864   -14500   -13761   -12544   -11755 
  -11940   -13002   -14070   -13993   -11869    -7797    -3103      675 
    2540     2163       27    -3001    -6196    -8744   -10031   -10616 
  -11672   -12999   -12754    -9476    -3385     4013    10439    13829 
   13956    12460    11163    10905    11406    11670    10730     8492 
    6052     4803     5099     5919     5965     4856     2990      850 
    -900    -1230      309     2784     4880     6132     6793     7293 
    7967     8698     9038     9135     9729    10752    11394    11445 
   10849     9406     7792     6643     5571     4584     3989     3247 
    2127     1119       90    -1378    -3017    -4667    -6589    -8337 
   -9093    -9226    -9957   -11442   -12642   -12841   -11862    -9665 
   -6856    -4124    -1080     2691     6378     8880     9684     8756 
    6863     5322     4677     4440     4101     3360     1582    -1631 
   -5514    -9275   -13246   -17371   -20328   -21242   -20405   -18500 
  -16581   -15475   -14421   -11902    -7770    -3033     1564     5521 
    8159     9129     8709     7322     5627     4531     3924     2550 
    -286    -4099    -7845   -10382   -11341   -11528   -11562   -11347 
  -11277   -11653   -11437    -9677    -6575    -2612     1764     6235 
   10743    14729    17316    18540    19238    19914    20346    20237 
   19754    18862    16919    13676     9634     5279      968    -2668 
   -4982    -5900    -5913    -5879    -6600    -7715    -8026    -7178 
   -5580    -3418     -941     1117     1920      958    -1658    -4809 
   -6944    -7779    -8401    -9460   -10650   -11461   -11200    -9438 
   -6872    -4674    -3364    -2680    -1973     -931      146     1156 
    2624     5111     8803    13417    18317    22805    26024    27153 
   26236    24074    21361    18667    16252    13504    10130     7171 
    5430     4584     4043     3086     1271     -561    -1099     -137 
    1397     2485     2492     1088    -1454    -4265    -6426    -7263 
   -6800    -5948    -5623    -6218    -7909   -10558   -13422   -15251 
  -14961   -12896   -10905   -10410   -11206   -12101   -11748    -9625 
   -6796    -4796    -4176    -4647    -5591    -6395    -6933    -7514 
   -8331    -9258    -9951    -9934    -8750    -6255    -3071     -271 
    2030     4479     6572     7107     6288     5410     5165     5258 
    5203     5457     7385    11484    16218    19424    20527    20410 
   19708    18674    17414    15232    11443     6683     2161    -1550 
   -4457    -6416    -6981    -6255    -5285    -5222    -6266    -7602 
   -8302    -7914    -6488    -4431    -2151       60     2094     4297 
    7023     9769    11543    11805    10597     8548     6435     4154 
    1115    -2403    -5469    -7565    -8625    -8669    -7968    -7111 
   -6677    -6833    -7215    -7435    -7590    -7991    -8375    -7944 
   -6545    -5054    -4205    -3645    -2576    -1110     -262     -524 
   -1274    -1828    -2118    -2076    -1449     -314     1066     2386 
    3173     3100     2087      379    -1213    -1799    -1114      506 
    2735     5605     8814    11255    12107    11597    10400     9297 
    8762     8250     6917     4751     2389      721      543     1691 
    2849     2694      785    -2863    -7936   -13350   -17872   -21082 
  -23165   -24311   -24560   -23809   -22149   -20258   -18869   -17664 
  -15550   -12295    -8675    -5133    -1844      480     1238      753 
    -296    -1729    -3844    -6829   -10247   -13149   -14750   -14860 
  -13718   -11558    -8523    -4881     -871     3364     7477    11006 
   13638    15457    17210    19646    22536    25074    26681    26878 
   25355    22555    19420    16656    14511    12765    11011     9399 
    8375     7716     7114     6971     7372     7498     6896     6087 
    5796     6679     9275    13146    16647    18166    17030    13507 
    8758     4179      331    -3006    -6152    -9292   -12205   -14192 
  -14853   -14536   -13975   -13997   -15108   -17014   -18957   -20404 
  -21003   -20353   -18456   -16031   -13987   -12791   -12415   -12601 
  -12945   -13057   -12886   -12496   -11870   -11470   -11882   -12811 
  -13540   -13921   -14029   -14013   -14669   -16488   -18718   -20607 
  -22207   -23514   -23983   -22971   -20448   -17197   -13996   -11136 
   -8963    -7781    -7335    -7336    -7966    -9625   -12407   -15417 
  -17327   -17807   -17538   -17288   -17318   -17620   -18526   -19913 
  -20280   -17674   -11117     -985    11823    26365    41029    53947 
   64248    71997    77553    80884    81305    78567    73132    65261 
   55364    44620    34164    24312    15132     7254     1499    -2088 
   -4313    -5927    -6912    -6379    -3109     3294    11470    18865 
   23370    24066    21179    15741     8546      175    -8117   -15377 
  -21719   -27336   -32251   -36349   -39156   -40437   -40555   -40103 
  -39509   -38601   -36578   -32531   -26295   -18575    -9957    -1182 
    6169    11226    14537    16677    18242    20023    21884    23185 
   23704    23025    20439    15684     8796       91    -8997   -16355 
  -20462   -20422   -16146    -8933     -863     6078    10430    12026 
   12077    11514     9716     5517     -981    -7485   -10635    -8328 
    -650    10448    21777    30613    36281    39519    40965    40602 
   37900    32277    23396    11491    -1877   -14474   -25238   -34199 
  -41539   -47685   -52692   -55895   -56912   -55604   -51958   -47079 
  -42371   -38218   -34640   -30953   -25036   -15548    -3848     7029 
   14052    15582    12180     5576    -2950   -12728   -23149   -33740 
  -44167   -53069   -57663   -55668   -46485   -31317   -13653     2319 
   14646    24272    33319    43217    53822    63276    68790    68383 
   62415    53722    45957    41869    42456    45889    48857    49712 
   48700    46775    44826    42728    39446    34005    26044    16549 
    7045    -2129   -10399   -16429   -20569   -24317   -28166   -31929 
  -35321   -37866   -39278   -39473   -37656   -32560   -24340   -14907 
   -6571     -620     3646     7570    10985    12939    13313    12351 
    9791     5116    -2156   -11586   -21083   -28908   -34897   -39058 
  -41221   -41063   -37793   -31198   -22546   -14041    -7537    -3420 
   -1237     -532     -517     -640     -691     -385      166     1039 
    2852     5645     8941    12914    18226    24988    32335    38906 
   43952    47170    47937    46242    43332    40348    37555    34732 
   31378    27487    23796    20768    18387    16698    15887    16121 
   17061    17741    17238    14615     9006      756    -8457   -16297 
  -20271   -19516   -15862   -11539    -7782    -5911    -7054   -11476 
  -19343   -30395   -43079   -55312   -65640   -73482   -78537   -80780 
  -81053   -80091   -77329   -72224   -65916   -60100   -55284   -51060 
  -47180   -43628   -40240   -37196   -34823   -32462   -28734   -22318 
  -12384      449    14355    27898    40116    49541    55081    57048 
   56147    53296    49928    47034    45103    44155    43448    42376 
   41053    40191    40410    41398    42675    44088    44696    43149 
   39259    33943    28343    23557    20250    18743    19986    24829 
   32649    41884    50689    57325    60503    59203    53241    43883 
   33012    21965    11384     1818    -6130   -12359   -17293   -21483 
  -25408   -29248   -32925   -36488   -40584   -46073   -52882   -59931 
  -65851   -69769   -71725   -72159   -71082   -67589   -60937   -52252 
  -43551   -35120   -25779   -15292    -4594     5086    12616    17872 
   21457    24092    26829    30173    34019    37941    40998    42778 
   43095    41428    38104    34062    29975    26264    23204    21251 
   20467    19558    17494    15667    15502    15454    14380    12711 
    9263     5084     2266    -2647   -11044   -19743   -30008   -42146 
  -50320   -53155   -54349   -53482   -49539   -44641   -39332   -33556 
  -28143   -22347   -15870    -9700    -3778     1645     5480     7759 
    9004     8999     7491     5157     3583     3922     5955     8649 
   10904    12061    12090    11375    10836    11825    15018    19937 
   25723    31341    35737    38414    38712    35361    28045    17991 
    6566    -5023   -15305   -23218   -28416   -30567   -29130   -24272 
  -17720   -11854    -7782    -5100    -3245    -1829     -551      277 
     247     -256     -475        1     1151     2748     4356     5475 
    6135     6644     6993     7458     8680    10595    12163    11941 
    8974     3767    -2056    -6873    -9759   -11216   -12730   -14725 
  -16272   -16786   -16264   -14650   -12409   -10607   -10001   -10794 
  -12282   -12863   -11546    -8342    -3911       48     1787      901 
   -1917    -5802   -10433   -15897   -22213   -29196   -36117   -41849 
  -45368   -45918   -43826   -40421   -36784   -33775   -31927   -30706 
  -29147   -26684   -23220   -19170   -15105   -11325    -7933    -4940 
   -2244      446     3307     5935     7775     8863     9602    10063 
   10068     9811     9790    10347    11573    13316    15583    18744 
   22921    28048    34131    40622    46616    51462    54577    55569 
   54402    51291    47060    42840    39256    36675    35211    34230 
   32728    29864    25439    20084    14466     8880     3559    -1351 
   -5508    -8146    -8862    -8209    -7170    -6496    -6216    -5835 
   -5108    -4326    -4399    -6190    -9644   -14252   -19699   -25729 
  -31833   -37357   -41796   -45121   -47715   -49786   -50914   -50435 
  -48148   -44245   -39370   -34582   -30567   -27460   -25054   -22750 
  -19855   -15955   -10920    -5019     1106     6909    12076    16213 
   18746    19375    18646    17702    17776    19589    22512    25332 
   27413    28500    28868    29232    30148    32115    35108    38336 
   41336    44072    46415    48428    50192    51620    53012    54923 
   57311    59331    59732    57225    50915    41012    29123    17406 
    7550      384    -4499    -8397   -12182   -15841   -18817   -20278 
  -19617   -17067   -13654   -10662    -9424   -10948   -15119   -20619 
  -26191   -31627   -37219   -43188   -49339   -54718   -58475   -60631 
  -61361   -60652   -59050   -57489   -56162   -54595   -52439   -49604 
  -46236   -42655   -39089   -35369   -31132   -26576   -22450   -19461 
  -17989   -17845   -18426   -19164   -19565   -19194   -17734   -14875 
  -10415    -4666     1629     7746    13261    18319    23195    27811 
   32310    37114    42121    46331    48504    48267    46569    45155 
   45472    48037    52451    57468    61396    63000    62143    59582 
   56153    52119    47127    40721    33160    25524    18922    13952 
   10744     9035     8017     6371     2882    -2560    -8800   -14626 
  -19556   -23630   -27312   -31203   -35550   -40242   -44944   -49379 
  -53555   -57522   -61174   -64128   -65982   -66965   -67578   -67953 
  -68034   -67402   -65527   -62705   -59631   -56793   -54311   -51387 
  -47085   -41626   -36004   -31102   -27406   -24848   -22925   -21098 
  -18782   -15288   -10133    -3213     5101    14041    22857    31044 
   38394    44979    50815    55756    59558    61765    62012    60296 
   57022    53528    51573    51786    53714    56648    59650    62013 
   63717    64714    64641    63328    60761    56733    51047    44080 
   36734    29478    22299    15550     9306     2927    -3852   -11064 
  -18911   -27120   -35084   -42036   -47294   -51102   -53978   -55748 
  -56009   -54253   -49965   -43777   -37411   -32460   -30104   -30596 
  -33010   -36401   -39867   -42420   -43977   -44870   -45322   -45787 
  -46148   -45652   -43804   -40223   -34865   -28188   -20230   -10950 
    -911     9375    19177    27370    33506    37612    39786    40851 
   41591    42037    42430    43004    43865    45844    49211    52726 
   55427    57037    56949    54854    50931    45504    39444    34027 
   30896    31391    35407    41796    48741    54486    58914    62748 
   65899    68024    68981    68289    65147    58976    50153    40144 
   30438    21825    14332     7366      695    -5447   -11323   -17422 
  -23856   -30373   -36624   -42682   -48818   -54922   -60610   -65409 
  -69196   -72493   -75738   -78849   -81375   -82763   -82854   -82102 
  -81245   -80901   -81465   -82687   -83700   -84095   -83888   -83076 
  -82158   -81383   -80111   -77881   -74123   -67792   -58713   -47389 
  -34302   -20724    -8046     3375    13366    21886    29330    35962 
   42440    49185    55152    59460    62048    62477    60513    56170 
   49461    41653    34569    29254    26280    25712    27225    30326 
   34020    37381    40144    42181    43520    44310    44207    42948 
   41002    38879    36460    33348    29636    25980    22791    19856 
   16796    13577    10610     8227     6358     4930     3918     3277 
    3234     4129     6028     8804    12388    16579    20905    25052 
   28878    32255    34975    36266    35172    31514    25954    19728 
   14244    10306     7932     6624     5711     4728     3342     1282 
   -1436    -4657    -8132   -11379   -14054   -16056   -17166   -17417 
  -17133   -16148   -14166   -11318    -8145    -5950    -6162    -9181 
  -14385   -20656   -27042   -33201   -38822   -43224   -45755   -46019 
  -43977   -39984   -34465   -28010   -21739   -16830   -13971   -13164 
  -13774   -15348   -17554   -19749   -21844   -24163   -26431   -28349 
  -29855   -30609   -30510   -29774   -28717   -27815   -27073   -26005 
  -24198   -21321   -17408   -13003    -8573    -4427     -843     2013 
    3878     4492     3952     2527      319    -2740    -6742   -11498 
  -16530   -21473   -25891   -29217   -31368   -32598   -32878   -31944 
  -29403   -24980   -18894   -11504    -3237     4987    12188    17851 
   21889    24847    27626    30765    34284    37781    40662    42309 
   42400    41462    40386    39622    39211    38818    38017    36725 
   35190    33793    32820    32395    32496    33267    34934    37278 
   40091    43372    46747    49578    51159    50998    49210    45935 
   41265    35740    29831    23864    18443    14003    10708     8652 
    7308     5764     3585      658    -2894    -6665   -10357   -13617 
  -16023   -17521   -18173   -18168   -18086   -18234   -18255   -17722 
  -16470   -14603   -12521   -10602    -8988    -7742    -6807    -6058 
   -5505    -5398    -5999    -7237    -8746   -10250   -11848   -13857 
  -16448   -19515   -22895   -26497   -30149   -33638   -36717   -38862 
  -39460   -38454   -36308   -33539   -30833   -28994   -28564   -29575 
  -31464   -33491   -35203   -36352   -36864   -36854   -36399   -35627 
  -34894   -34744   -35617   -37328   -39328   -41489   -43880   -46222 
  -48042   -48638   -47183   -43378   -37394   -29702   -21282   -12918 
   -4763     2847     9592    15755    21686    27556    33451    39155 
   44214    48409    51892    54911    57725    60542    63568    66680 
   68841    69030    67110    63451    58936    54463    50357    46892 
   44342    42699    41792    41130    40155    38770    37015    35030 
   33358    32178    30758    28221    24248    18967    12746     6106 
    -371    -6199   -11151   -14952   -17354   -18707   -19727   -20994 
  -22936   -25756   -29321   -33229   -36820   -39447   -40897   -41078 
  -39865   -37486   -34170   -29931   -24864   -18933   -11956    -3979 
    4650    13287    21075    27272    31687    34552    36069    36482 
   36140    35526    35202    35284    35277    34596    32934    30157 
   26439    22409    18553    14741    10600     5967      987    -4081 
   -9045   -13706   -17977   -21930   -25660   -29565   -34119   -39309 
  -44746   -49910   -54431   -58285   -61562   -64318   -66536   -68145 
  -69097   -69365   -69097   -68520   -67623   -66394   -64928   -63301 
  -61590   -59439   -56279   -52017   -46969   -41515   -35826   -29928 
  -23876   -17681   -11280    -4739     1694     7737    13177    18089 
   22679    27016    31032    34431    36993    38818    40219    41588 
   43257    45297    47467    49613    51705    53620    55305    56999 
   59136    61859    64749    67055    68214    68161    67144    65325 
   62729    59414    55272    50230    44564    38862    33724    29135 
   24855    20786    16515    11662     6109     -165    -6722   -12834 
  -18207   -22794   -26490   -29394   -31610   -33200   -34454   -35508 
  -36289   -37033   -38085   -39610   -41798   -44582   -47603   -50532 
  -52967   -54649   -55680   -55944   -54732   -51543   -46700   -40705 
  -34003   -27004   -19684   -12131    -4672     2638     9266    14452 
   18130    20342    21295    21625    21509    20757    19497    17773 
   15518    13001    10328     7419     4644     2620     1887     2953 
    5719     9448    13709    18248    22606    26439    29271    30549 
   30312    28936    26491    23019    18687    13807     9227     5751 
    3622     2950     3583     4943     6468     7685     8337     8635 
    8704     8249     7290     6366     5851     5858     6301     6668 
    6407     5251     2996     -504    -5079   -10381   -16153   -21940 
  -27077   -31151   -34057   -35774   -36242   -35480   -33758   -31620 
  -29739   -28828   -29366   -31167   -33695   -36488   -38996   -40795 
  -41679   -41410   -39847   -36925   -32607   -27246   -21286   -15007 
   -8874    -3010     2803     8334    13162    17009    19927    22401 
   24898    27647    30595    33343    35445    36566    36416    35147 
   33498    32208    31586    31497    31472    31071    30412    29950 
   29829    29734    29052    27371    24819    21818    18876    16415 
   14464    12719    10986     9269     7662     6220     4900     3759 
    2867     2059     1117       56     -877    -1457    -1680    -1834 
   -2361    -3404    -4789    -6379    -8229   -10524   -13164   -15718 
  -17879   -19576   -20925   -22150   -23306   -24171   -24373   -23730 
  -22470   -20947   -19430   -18168   -17252   -16462   -15422   -13996 
  -12460   -11308   -10996   -11453   -12011   -12120   -11643   -10687 
   -9543    -8369    -6978    -5192    -3222    -1324      502     2208 
