Origin Time       2016/04/16 01:25:00
Lat.              32.753
Long.             130.762
Depth. (km)       12
Mag.              7.3
Station Code      KGS008
Station Lat.      31.7621
Station Long.     130.5699
Station Height(m) 15
Record Time       2016/04/16 01:25:26
Sampling Freq(Hz) 100Hz
Duration Time(s)  201
Dir.              N-S
Scale Factor      3920(gal)/6182761
Max. Acc. (gal)   39.576
Last Correction   2016/04/16 01:25:26
Memo.             
[...]
    6237    13124    15147    11633     4269    -3031    -6687    -7423 
   -9292   -13396   -15988   -14545   -11157    -8385    -7503   -10390 
  -17421   -25141   -29113   -27524   -21502   -13582    -7149    -5222 
   -7168    -9362    -9937    -9804    -9556    -7990    -5026    -3639 
   -4906    -4209     3333    16351    28407    34166    33518    29948 
   25915    21652    17707    14885    11872     6686      449    -2602 
    -144     4713     7517     6987     3679    -1443    -6690   -10145 
  -10606    -8998    -8026    -8769    -9524    -8984    -7772    -6087 
   -3433    -1234    -1584    -3904    -5821    -5805    -4593    -5042 
   -8445   -11568   -10764    -6662    -1450     4687    11327    15328 
   14134    10056     7367     6165     3022    -2631    -6177    -3020 
    5455    12977    15466    14500    13959    16236    20674    24287 
   25367    25677    27320    28455    24937    16155     6894     2542 
    3073     3973     2957     1825     2036     2532     2410     2426 
    2147     -700    -5531    -7672    -4251     2364     8013    10516 
   10635    11286    14113    16819    16191    11810     5025    -2915 
  -10681   -16340   -18275   -16778   -13376    -8581    -1682     6993 
   15223    20751    22558    21197    18596    16413    15013    14008 
   12954    11846    11738    14942    22204    29564    31496    26634 
   18479    11809     9028     9168     9276     6813     2859     1649 
    4452     7679     8514     8481    11741    20557    31172    36741 
   34968    29127    22975    18722    17320    17456    16573    14167 
   12000    11728    14234    19391    25643    31478    36162    38937 
   40123    41015    40273    34688    25212    17358    14755    15706 
   16137    13960    10152     6375     2324    -4080   -13404   -22999 
  -29950   -34041   -37194   -40926   -44292   -45451   -44927   -44368 
  -43432   -41087   -38361   -37465   -38507   -38967   -37627   -36463 
  -37068   -37784   -35897   -31676   -27793   -24546   -19707   -13219 
   -8042    -6630    -8384    -9933    -8477    -4837    -1502      694 
    2213     3335     3881     3295     1619      142       37     1241 
    2722     3026     1201    -2323    -5685    -6680    -5247    -3997 
   -5003    -7940   -10909   -11279    -8066    -3616     -577      859 
    1863     3866     7871    13200    18307    22334    24624    24654 
   23291    22320    22233    21550    18720    14071     9212     5292 
    2509      105    -2723    -4679    -3089     2293     8443    12356 
   13793    15023    17873    20918    21215    18423    15344    15017 
   17977    22329    26340    29331    30670    30217    29037    28696 
   29952    31718    31516    27861    22127    17413    15820    17002 
   19113    20850    22144    23090    22731    19637    14357     9473 
    5986     2346    -2212    -6081    -7141    -4694      -32     4291 
    6191     5345     2812      154     -637     1502     4710     5865 
    3944      681    -1350    -1475    -1525    -3448    -7328   -11610 
  -15019   -18483   -23717   -29453   -32005   -30158   -25643   -19136 
  -10311     -909     5744     7499     4716      -98    -3734    -4158 
   -1853      419      552      296     3127     8870    13429    13909 
   11722    10131    10573    12180    13416    13365    11591     8001 
    4071     2109     2332     2756     1545    -1252    -3586    -3578 
   -1537      381     -502    -5140   -11231   -15559   -16989   -16461 
  -15978   -16693   -16984   -14624   -10170    -6225    -4236    -3375 
   -2724    -3282    -6522   -11412   -14758   -15491   -16450   -20131 
  -24877   -27655   -28370   -28689   -28799   -27849   -26221   -25168 
  -24576   -22972   -19885   -16897   -15293   -13731   -10619    -6965 
   -4171    -1795      653     2401     2917     3306     5045     7299 
    7229     3849     -295    -1786      719     5901    11404    15651 
   17817    18148    18329    19076    18759    16171    12987    11947 
   13341    14770    14548    14034    15860    20717    26131    28519 
   26979    24304    23985    26394    28101    25656    19935    15922 
   17184    21768    25687    27615    27795    26073    22819    19885 
   19855    23458    27989    29908    28150    24394    21368    20334 
   19466    15705     8538      679    -5372   -10054   -15228   -20738 
  -23545   -20985   -14454    -8132    -4312    -1904      750     3513 
    5843     9161    15578    24458    32160    35828    36193    35638 
   35026    33704    31965    31718    33330    34780    34485    31818 
   27055    21406    15899    11573     8557     5164      -21    -6376 
  -11451   -13452   -13529   -14068   -15780   -17154   -16398   -14061 
  -12668   -13355   -15218   -17591   -19890   -20671   -18948   -15170 
  -11046    -8599    -8114    -7467    -4446      695     5109     5735 
    2761     -387    -1219      271     2758     3708     1839     -350 
     270     3693     7551     9849    10337     9994     9801    10069 
   10868    11791    11990    12136    14083    18078    22395    25319 
   26893    28303    30024    31584    31991    30236    26275    21062 
   15722    11212     8155     6264     4255      883    -3750    -8091 
  -11315   -14539   -18505   -22450   -25959   -29575   -33909   -38863 
  -43109   -44996   -44166   -41719   -39256   -37986   -37892   -37227 
  -33823   -27702   -21540   -17669   -15540   -13171    -9904    -6769 
   -4874    -4051    -3193    -1355     1930     6469    11255    14920 
   15882    13734    10762     9263     9099     8853     7508     5461 
    3341     1128     -382        6     1688     2413     1485     1057 
    2950     6386     9244    10202     9140     6365     3040      986 
    1050     2739     4599     4661     2304      -11     1055     5366 
    9588    11604    11784    10933     9846     8893     6780     2394 
   -2795    -6131    -6799    -5935    -4442    -2629     -375     2473 
    4718     5219     4049      975    -2713    -4099    -3826    -4551 
   -5755    -5392    -2644     1569     5255     8005    10716    12687 
   12851    12033    11413    11314    11376    10559     7773     2795 
   -2239    -3856    -1295     3417     7663     9081     7347     4042 
     646    -1227     -148     3434     7627    10427    10593     8545 
    5936     4552     5277     7101     8478     9172     9842    11334 
   13544    14759    13798    11453     9603     9815    11591    12941 
   12910    11937    11426    12662    14804    16110    15811    13934 
   12032    11622    11782    11425    10691    10045    10874    13830 
   17129    18530    17074    13948    11553    11032    12151    13973 
   14931    13617    10076     6408     5215     7277    10941    13733 
   14339    12986    11217    10792    11785    12762    12932    13040 
   13583    13633    12753    12269    14008    18443    23955    28243 
   30297    30791    30900    30812    29816    27768    25707    24779 
   25004    25180    24162    22139    19729    17028    14278    11635 
    9010     6848     5667     5510     6322     7903     9670    10819 
   11014    10717    10209     9364     8454     7460     5895     4437 
    4376     5393     5910     4867     2688     1254     1572     2401 
    2760     2960     2797     1271    -1361    -2609     -881     1965 
    3204     2722     2738     4063     4697     3453     1747     1202 
    2077     3623     4653     3880      503    -4715    -9760   -13506 
  -16225   -18219   -19323   -19231   -18131   -16750   -15175   -12698 
   -9651    -8328   -10673   -15610   -20010   -21990   -22350   -22675 
  -23496   -24239   -23566   -20799   -17193   -14963   -15310   -17350 
  -19243   -20127   -20530   -21326   -22670   -23689   -22741   -19155 
  -14417   -10098    -6762    -4955    -4736    -5439    -6783    -9092 
  -12215   -14763   -15139   -12919    -8867    -4402    -1140       31 
    -226     -329      765     2516     3382     3025     2532     2339 
    2290     2910     4640     7220    10174    12659    13825    13646 
   12381    10044     7151     5004     4424     5271     7639    11574 
   16264    21190    26003    29364    30303    29600    28629    27916 
   26995    25297    23273    21915    21213    20566    19986    19190 
   16933    12606     7580     4107     3068     3317     3387     3178 
    3157     2912     1934      882      818     1869     3373     4645 
    5450     6193     7318     8593     9509    10375    12421    15789 
   18548    19106    17996    16881    16882    17897    19461    21079 
   21844    21605    21328    21380    20776    18541    15467    13452 
   13265    13831    13337    11165     8344     6008     4534     3678 
    2619      250    -3644    -7711   -10370   -11195   -11198   -12030 
  -13871   -15079   -14645   -13494   -12975   -13159   -13389   -13741 
  -14666   -15719   -15676   -13689   -10239    -7335    -7018    -8974 
  -10556    -9530    -6162    -2512      122     2190     4244     6049 
    7698     9834    12628    15554    18096    20294    22535    24935 
   26890    27698    27709    27850    28679    30024    30678    29536 
   27146    24860    22914    20719    18583    17525    17797    18427 
   17880    15601    12769    10803     9849     9179     8341     7569 
    7094     6373     4522     1191    -2944    -6363    -8372    -9794 
  -11309   -12810   -14075   -14984   -15773   -16861   -18219   -19786 
  -21888   -24178   -25813   -27214   -29445   -32604   -36158   -39379 
  -41403   -41551   -39638   -36160   -31924   -27592   -23348   -19028 
  -14539    -9568    -4061      931     4683     7993    11673    15320 
   18160    20073    21617    23320    24854    25506    25472    25224 
   24378    22559    20119    17794    16151    15046    13869    12034 
    9340     6466     4495     3646     3081     2208     1354     1046 
    1380     1788     1546      780      228       85     -320    -1454 
   -2645    -2831    -1588      580     2647     4264     5843     7152 
    7295     6077     4318     2912     2112     1463      488     -122 
     744     2530     3609     3254     1666     -640    -2900    -4739 
   -6677    -9209   -12150   -15074   -17575   -19284   -19785   -18874 
  -17137   -15371   -13714   -11936   -10119    -8650    -7500    -6143 
   -4265    -2025       32     1415     2235     2973     4169     6057 
    7883     8361     7176     5402     4500     5153     6825     8414 
    9305     9795    10505    11379    11828    11903    12435    14001 
   16235    18248    19559    20339    20787    20743    20238    19930 
   20274    20854    21359    22420    24434    26314    26369    24014 
   20348    17358    16612    18121    20189    20752    18671    14101 
    8520     4095     2331     3022     4448     4784     3305      573 
   -2041    -3116    -1781     1594     5095     6836     6641     5409 
    3715     1448    -1773    -5867   -10009   -13297   -15434   -16747 
  -17996   -19928   -22372   -24162   -24502   -23937   -23635   -24099 
  -24678   -24167   -21974   -18991   -16818   -15836   -14999   -13348 
  -10922    -8331    -5784    -3065     -642      332       24      480 
    2984     6582     9818    12386    14834    17216    18720    18917 
   18961    20902    25488    31301    36379    39818    41740    42603 
   42790    42433    41663    40825    40148    39543    38698    37044 
   34302    31263    28796    26596    24362    22754    22123    21938 
   21702    21140    19747    17025    13232     9740     8043     8270 
    9467    10807    11782    12112    12097    12371    12970    13680 
   14708    16089    17542    18620    18837    18494    18380    18693 
   19275    19999    20552    20715    20433    19188    16412    12519 
    8596     5618     4131     3860     3895     3594     2675      845 
   -1818    -4790    -7770   -10646   -13032   -14459   -14995   -15517 
  -16826   -18491   -19291   -18745   -17821   -17900   -19202   -20825 
  -22147   -23420   -25086   -27136   -29285   -31574   -34278   -37173 
  -39506   -40863   -41673   -42641   -43868   -44625   -43940   -41597 
  -38281   -34758   -31541   -28707   -25706   -22481   -20122   -19205 
  -18803   -17790   -16024   -14119   -12527   -10958    -8766    -5687 
   -1945     2075     5991     9456    12134    13652    14096    14618 
   16409    18950    20520    20193    18705    17628    17641    18089 
   18447    18853    19273    19595    20098    20916    21472    20975 
   19497    18240    18221    18901    18689    16616    13532    11536 
   11719    13405    15469    17064    17771    17477    16223    14576 
   13081    11354     8847     6162     4499     4261     5059     6257 
    7153     7144     5792     3605     2260     2785     4412     5573 
    5461     4554     3690     3183     3039     3566     5203     7764 
   10389    12157    12975    13841    15591    18003    20436    22597 
   24522    26440    29136    33299    38189    41989    43388    42635 
   41146    40105    39806    40056    40565    40936    40513    38670 
   35743    33254    32469    33050    33587    33063    31424    29113 
   26753    25132    24701    25025    25181    24480    22642    20055 
   17700    15903    14089    11947     9562     7129     5026     3183 
    1063    -1398    -3888    -6386    -9026   -11913   -15299   -19178 
  -22729   -25180   -26849   -28591   -30776   -33110   -35228   -37170 
  -39022   -40777   -42723   -45132   -47744   -50190   -52403   -54343 
  -55932   -57105   -57839   -58360   -58699   -58426   -57424   -56111 
  -54951   -54382   -54651   -55313   -55378   -54228   -52166   -49761 
  -46821   -42568   -36825   -30441   -24380   -19134   -15196   -13065 
  -12392   -11750    -9990    -7414    -4884    -2658     -578     1543 
    4077     7502    11467    14603    15866    15517    14740    14540 
   15112    16373    18419    21136    24030    26618    28562    29686 
   30254    30447    29801    28401    27449    28042    30146    32615 
   34811    37063    39188    40759    41673    42167    42894    43786 
   44051    43569    43308    44310    46347    48457    49916    50609 
   51219    52347    53922    55197    55175    53572    50806    47831 
   45523    43805    42220    40473    38817    37911    37621    37082 
   35822    34217    32690    31034    29255    27775    26678    25439 
   23307    20179    16755    13959    12257    11298    10665    10423 
   10679    11032    10525     8605     5746     2977     1198      268 
   -1042    -3685    -7559   -11944   -16131   -19755   -22753   -25203 
  -27423   -29829   -32306   -34291   -35519   -36454   -37819   -39652 
  -41517   -43213   -44822   -46550   -48135   -48827   -48513   -47813 
  -47007   -45757   -43718   -41068   -38478   -36418   -34796   -33406 
  -31893   -29764   -27076   -24231   -21319   -18540   -16285   -14444 
  -12542   -10469    -8566    -6988    -5466    -3668    -1252     1963 
    5544     8686    10792    11499    10825     9601     9010     9661 
   11338    13294    14945    16367    17858    19448    21125    23012 
   24881    25981    25867    24919    23851    23176    22772    22017 
   20746    19418    18444    17976    17802    17280    15854    13542 
   10981     8966     7639     6488     5261     4137     3203     2413 
    1681      898      475      906     1922     3296     4873     6180 
    6983     6831     5452     3421     1269     -794    -2758    -4344 
   -4964    -4696    -4029    -3376    -3064    -3069    -3169    -3289 
   -3838    -5214    -7127    -9173   -10825   -11569   -11748   -11690 
  -11099    -9829    -8128    -6497    -5214    -4074    -2819    -1353 
     392     2575     5028     7170     8766     9964    10947    12120 
   13848    15819    17270    17821    17627    16858    15707    14730 
   14349    14308    14134    13473    12298    11330    11257    11601 
   11375    10556    10027    10160    10458    10633    10998    11862 
   12996    13785    14002    14187    14911    16029    17078    17848 
   18292    18506    18633    18380    17286    15576    14082    13350 
   13235    13181    12583    11207     9370     7480     5470     2866 
    -494    -4245    -7921   -11239   -14211   -16747   -18389   -19110 
  -19566   -20206   -20877   -21203   -20893   -19989   -19022   -18502 
  -18321   -18179   -17962   -17406   -16328   -14844   -12994   -10815 
   -8539    -6326    -4217    -2220     -287     1568     3274     4941 
    6813     8850    10545    11358    11345    11114    11239    11958 
   13117    14231    14981    15384    15473    15391    15421    15737 
   16199    16153    15026    13070    10878     8951     7798     7547 
    7785     7966     7588     6436     4873     3591     3072     3228 
    3510     3364     2785     2271     2026     1820     1383      433 
    -826    -1623    -1873    -2064    -1825     -743      630     2090 
    3397     3808     3560     3056     2381     1777     1003     -112 
   -1560    -3350    -5298    -7301    -8872    -9675    -9996   -10063 
   -9865    -8847    -6732    -4095    -1591      110      707      454 
      -9      226     1072     1629     1637     1590     2102     3280 
    4891     6703     8543    10412    12382    14653    17196    19557 
   21549    23158    24203    24560    24369    24078    23931    23898 
   24134    24723    25575    26690    28108    29649    30866    31498 
   31737    32050    32795    33760    34389    34356    33652    32424 
   30789    28803    26608    24671    23418    22454    21012    18896 
   16489    14375    12861    11780    10752     9484     7957     6288 
    4747     3822     3536     3256     2456     1149     -258    -1338 
   -1875    -1879    -1664    -1656    -1995    -2537    -3150    -3911 
   -4961    -6071    -6773    -6928    -6854    -6947    -7298    -7761 
   -8238    -8694    -9165    -9699   -10069   -10006    -9784    -9969 
  -10681   -11450   -11652   -11258   -10997   -11333   -11890   -12197 
  -12320   -12665   -13428   -14348   -15029   -15316   -15390   -15571 
  -15836   -15869   -15581   -15032   -14269   -13369   -12334   -11290 
  -10457    -9595    -8362    -7046    -5983    -5006    -3754    -2075 
    -432      596      925      669      -40    -1226    -2863    -4432 
   -5547    -6185    -6344    -6193    -5797    -4957    -3635    -2166 
   -1010     -199      637     1802     3391     5154     6587     7273 
    7563     8268     9197    10138    11390    12393    12973    13374 
   13566    14293    15679    17096    18225    18643    18649    18885 
   19538    20480    21106    21300    21454    21702    21940    21766 
   21158    20382    19389    18151    16608    14999    13827    12998 
   11851     9891     7477     5381     3910     2912     2082     1453 
    1168     1048     1005     1087     1326     1596     1641     1584 
    1752     2336     3150     3561     3367     2907     2465     2195 
    2061     2138     2605     3328     4035     4494     4748     5025 
    5317     5692     6425     7455     8289     8543     8298     7804 
    7291     6917     6644     6436     6215     5867     5484     5243 
    5070     4468     3275     2133     1480     1178      937      578 
     303      332      594     1083     1851     2777     3849     5205 
    6566     7480     8145     9060    10342    11763    13158    14647 
