Origin Time       2016/04/16 01:25:00
Lat.              32.753
Long.             130.762
Depth. (km)       12
Mag.              7.3
Station Code      KGS006
Station Lat.      31.9060
Station Long.     130.7021
Station Height(m) 188
Record Time       2016/04/16 01:25:22
Sampling Freq(Hz) 100Hz
Duration Time(s)  300
Dir.              N-S
Scale Factor      3920(gal)/6182761
Max. Acc. (gal)   82.488
Last Correction   2016/04/16 01:25:22
Memo.             
[...]
    7843     7778     7754     7737     7699     7661     7655     7689 
    7731     7732     7685     7662     7734     7905     8100     8207 
    8190     8076     7892     7710     7611     7563     7491     7389 
    7265     7081     6797     6499     6457     6910     7819     8885 
    9713    10064     9978     9616     9083     8351     7314     6128 
    5377     5502     6248     7077     7938     9128    10536    11556 
   11695    10834     8998     6294     3157      452     -841     -248 
    1864     4696     7675    10640    13601    16188    17366    16368 
   13742    10576     7402     4495     2162      413     -790     -776 
    1350     5278     9710    13479    15694    15771    13846    10849 
    7623     4350     1705      787     1428     2761     4754     7804 
   11833    16046    19041    19417    16715    11824     6283     1222 
   -2626    -4375    -3386       24     4630     8793    11259    12043 
   12255    12893    13859    13907    11877     8113     4057      989 
    -199     1009     4283     8273    11278    12320    11389     9089 
    6368     3883     2270     2676     5180     8288    10846    12299 
   12065    10577     9424     9516    10427    11144    10595     8434 
    5264     1808     -997    -1959     -797     1913     5864    11005 
   16536    20381    20504    17098    12445     8548     5809     3922 
    3085     3362     3360     1412    -1988    -4325    -3149     1772 
    8050    13439    17070    18048    16023    11547     5364     -338 
   -2482     -668     2612     5219     6874     8661    11282    13354 
   13349    12171    11723    12814    14610    14691    11412     6240 
    1604    -1879    -3789    -1970     4894    13635    18592    18081 
   15786    14976    15145    14707    13349    11081     7468     2611 
   -2824    -8477   -13700   -16578   -14479    -6071     6400    17444 
   22973    23748    22369    19055    12455     3679    -2732    -3217 
    1072     6050     8389     7422     5920     7630    12815    17630 
   17452    12363     8339     9607    12177     8087    -3869   -16428 
  -22519   -19528    -9332     3096    14019    22079    26087    24756 
   18305     8074    -3643   -11829   -12631    -8111    -2224     3739 
   10663    19511    28593    34516    36483    36364    34906    29985 
   18892     1648   -17967   -32946   -36228   -26396    -8674     9540 
   22606    28609    28025    21191    10647     2131    -1314    -1333 
    -581    -1726    -5635    -9138    -9190    -6402    -1592     6842 
   19643    33450    42728    43136    33658    17586     1016    -9280 
   -9797    -3642     3962     9229     8314     1288    -4593    -2529 
    5653    12806    14991    13523    11753    12278    15103    17320 
   16435    13585    11067     9255     7755     7077     8220    10515 
   11691    11024     9599     8492     8908    11031    12322    10363 
    6697     5335     6822     6565     1420    -5979   -10270    -8009 
   -1027     5657     9743    11702    12322    13633    16883    20060 
   20971    18694    13451     8634     7640     8712     8082     5368 
    3367     4546     7600     8690     6909     4965     5256     7843 
    9826     7883     2672    -2943    -6963    -7286    -2642     6968 
   20351    31887    35351    31939    26376    20074    13924    10551 
   11223    14688    18492    19213    12896     -344   -13627   -20364 
  -20781   -18542   -15490   -12130    -9917   -10019   -11312   -10945 
   -6412     2434    12896    21642    28213    33906    37167    35009 
   27837    19810    16040    17880    20342    17995    11783     7041 
    6273     4732    -3852   -17594   -28654   -31265   -24107   -11440 
    -162     7862    14438    18324    17939    15771    14199    13057 
   12819    13654    13907    13156    11953     9601     6154     2903 
    -276    -3515    -3399     4478    19527    36167    48409    51739 
   44271    29296    14272     5403     2706     1125    -3477   -11630 
  -20788   -25702   -22956   -16117   -10283    -4130     5724    17660 
   26321    27111    19897     8874     -343    -3688    -1809     2433 
    9110    19101    29735    36379    36654    31289    23062    15808 
   10944     5632    -2857   -12813   -19484   -20093   -15955    -9719 
   -3588     1295     6757    16248    30076    43682    51775    52883 
   48194    38633    25570    12281     2217    -3931    -7517    -8926 
   -8375    -8493   -11956   -17955   -23169   -23347   -15745    -3470 
    7104    12331    11042     5277     2162     8545    24318    41424 
   48301    38746    18509     -147   -10633   -13995   -11950    -5736 
    1782     8323    13005    14932    13737     9996     5279     1837 
    1209     4364    11522    19643    23861    23777    24087    27340 
   30417    28255    17130    -2781   -25066   -40939   -45119   -37623 
  -23786   -10738    -1690     4232     8545    12557    17560    23517 
   28558    30780    29028    22058    10478    -1119    -7531    -6104 
    4318    21435    36927    43237    41081    34935    26379    15964 
    6534     1878     2069      946    -7822   -22827   -36007   -38563 
  -26509    -5182    13499    20713    16184     5236    -5991   -13368 
  -15662   -13590    -9354    -4951      218     7157    14187    18634 
   20682    23828    30480    37544    38452    30660    19029     9693 
    3791      905     3012    10049    17500    20593    16847     6721 
   -5390   -13153   -12473    -3802     8458    18865    24115    24156 
   22021    22272    25804    27216    21574    11020      617    -8147 
  -15363   -19968   -22757   -25723   -27253   -23218   -12960    -1247 
    7169    12182    15560    17761    18552    17919    16381    14106 
   10822     8554    11149    19350    29335    35997    37054    34912 
   33505    34531    37449    39603    37381    30332    22181    16470 
   12410     6751     -763    -7106   -10789   -13620   -17624   -22335 
  -25192   -23721   -18070   -10960    -4207     2539     9573    16135 
   20449    20154    14739     6826      418    -1146     2989    11269 
   22624    36242    47972    51653    45042    31617    16368     1845 
  -11774   -24329   -34229   -39143   -36567   -25063    -7697     9252 
   22645    33711    42979    46693    39795    21080    -4843   -28449 
  -41893   -44962   -40291   -28648   -11155     9733    30166    45185 
   51541    49012    40600    30512    19138     5130    -8520   -17072 
  -19205   -17395   -16111   -16892   -15445    -7829     4261    16548 
   25164    27615    25054    21506    18950    15942    12049     9758 
   11185    16460    24342    31597    34043    29823    19823     5897 
   -8941   -20694   -27151   -28969   -28571   -28722   -29082   -25837 
  -17371    -6526     2696     7690     9114    10665    14155    17386 
   19190    21948    26505    28564    23213    10959    -3123   -13822 
  -18138   -16448   -11117    -3233     6591    15424    19674    19044 
   17388    19787    28365    40496    50917    54901    49912    36675 
   19983     5868    -3939   -11803   -18925   -24429   -27523   -27755 
  -24697   -17529    -5600    10066    27292    43235    53861    55882 
   49847    38341    20842    -3355   -28153   -44351   -47675   -41078 
  -31672   -23140   -13837    -3761     4170     9197    13583    19066 
   23845    25316    24951    25554    26783    27689    29481    33593 
   40000    47237    51822    49181    37587    20412     3546    -7993 
  -11719    -8380     -411     8687    13965    13172     8693     2874 
   -3984   -11160   -16752   -18791   -15585    -7049     3503    11443 
   14521    12749     6140    -4377   -14966   -21344   -22445   -20272 
  -17494   -15385   -13521   -10676    -5480     2771    13652    25325 
   34607    39516    41345    41868    39979    34001    25511    18142 
   14078    13720    17309    24151    31333    35453    34252    26510 
   12968    -2667   -15725   -24280   -29687   -33455   -34979   -32466 
  -26108   -18787   -12441    -6410      767     9888    19562    26124 
   27147    24008    19714    16464    16296    20119    26160    31864 
   34604    31873    24551    16772    11369     8131     4956     -308 
   -7902   -16774   -24907   -27706   -21452    -8666     3695    10306 
   11571    11290    11367    12552    15906    20203    22578    21217 
   16380    10562     5934     2906     1920     2865     4454     5952 
    6910     7182     7950    10051    13480    18578    24550    29357 
   32406    34369    35545    36227    36637    36479    35614    33582 
   29240    22414    13885     4215    -5597   -14265   -21146   -25401 
  -25360   -20643   -14484   -10769    -9741    -9820   -10113    -9801 
   -8951    -9565   -13505   -19762   -25113   -26903   -24409   -18667 
  -10967    -1047    11523    24371    34157    40795    45878    48630 
   46664    38355    24076     8045    -3581    -8505    -8585    -5648 
    -733     4745     9079    10665     8950     5292     1944      809 
    3568    10733    19459    24754    24185    19426    14570    14270 
   19627    26961    32305    33531    29732    21119     8830    -4088 
  -13032   -16020   -16165   -17934   -21945   -25241   -25255   -21492 
  -15139    -8794    -4869    -3770    -4542    -5410    -3653     1955 
    9518    16609    22566    27430    29693    26788    18623     8269 
    -611    -5615    -6820    -5279     -677     6249    12680    17421 
   21552    26111    30902    33860    32336    25949    17386    10499 
    6877     5100     4720     7153    12187    17605    20326    17654 
   10464     2890    -2158    -4956    -7305   -10371   -13517   -14730 
  -12456    -7283    -1271     4662    11231    18443    24664    27803 
   26786    22880    18506    14262     9453     5225     3939     5441 
    7158     7632     7245     6751     6968     8382    10727    13697 
   16878    19053    19242    17925    16105    14024    11450     8475 
    5812     4678     6361    11779    20363    29139    34763    36197 
   34345    30129    23580    14957     5733    -2688    -9545   -13904 
  -15364   -14519   -11862    -7901    -3712     -131     2262     3093 
    3425     4221     3924      868    -3740    -7104    -7781    -6466 
   -4165    -1105     2679     7571    14192    21442    26903    30067 
   32248    33236    31243    26231    20499    15476    10749     6912 
    6168     9165    13541    16206    16184    14804    13401    11569 
    7886     1842    -5181   -10731   -12839   -11018    -6482    -1250 
    3260     6947    10878    15460    19145    20368    18829    14534 
    7744     -763    -9983   -18068   -22243   -21264   -17035   -12228 
   -7646    -2604     3589    10542    16731    20991    23236    23054 
   19395    12529     4243    -3848   -10203   -13184   -12483    -9131 
   -3720     4022    13912    24719    34776    42222    45853    47150 
   48964    51575    53570    55044    56196    55883    53253    47607 
   37947    25083    12211     2376    -3952    -8510   -12681   -16083 
  -17915   -18554   -18951   -19298   -19275   -19164   -19162   -18336 
  -16462   -14839   -13878   -12382    -8909    -2575     6158    15503 
   23669    30076    35745    41835    47173    49035    46612    41704 
   37067    35056    35827    37099    36917    35485    33869    32540 
   31351    28817    22710    12944     1527    -9073   -16410   -20703 
  -25319   -31672   -37084   -38414   -35340   -30405   -26731   -25878 
  -27432   -30053   -32289   -32493   -29746   -24524   -17853   -10373 
   -1846     7461    15793    21560    24281    24464    22790    18596 
   10594    -1633   -17434   -33835   -45865   -49859   -44541   -30988 
  -12947     5429    21275    32590    38177    38046    34501    30842 
   28074    26352    27178    31260    37678    45103    52554    60294 
   68401    74645    76500    74362    70437    65399    58989    52137 
   46054    40707    33958    23322     9596    -4683   -18356   -30465 
  -39552   -44552   -46312   -48557   -54313   -62351   -69884   -76777 
  -83698   -88468   -88758   -84033   -73314   -56987   -38643   -21290 
   -3944    15389    34618    49344    57472    58506    50985    35081 
   16908     3121    -6319   -12695   -12948    -4091    13300    36167 
   60076    81130    97684   109643   117041   119178   115365   106112 
   92827    77020    59286    40299    23314    11099     1793    -6641 
  -12300   -13275   -10305    -5079     -475    -1877   -14024   -35420 
  -58506   -76879   -90532  -101766  -108624  -106332   -92824   -70353 
  -42900   -13579    14213    36410    51332    58422    56686    48120 
   34332    12701   -17540   -51607   -79948   -93737   -93164   -83925 
  -69686   -50967   -24839    12580    57933    96028   113186   110312 
   95329    79245    74762    82347    89613    87662    79324    75554 
   84233    99292   107748   103118    85486    58089    25472    -6253 
  -29213   -39489   -39933   -37041   -35250   -33761   -30702   -26428 
  -22885   -22385   -26161   -34768   -48349   -65676   -84747  -102964 
 -116267  -120748  -114892   -98920   -73956   -42815   -10232    18297 
   39492    53904    60560    55284    41735    32040    31609    37673 
   47611    57342    61615    59369    54160    50543    46890    37836 
   25803    17158    14314    14989    12154     3659    -2774     1335 
   19407    46523    70829    85075    91466    94142    93754    89092 
   79272    62934    39441    11703   -17130   -45466   -70934   -93431 
 -112745  -122387  -116150   -93768   -59388   -22348     7320    24955 
   29248    21202     6224    -9097   -21699   -29742   -30681   -23914 
   -9728    10022    27741    36635    40300    46107    54275    59870 
   57884    46161    29717    17102    11184     9617    11236    15162 
   17012    12909     4120    -6388   -18745   -35123   -53293   -65116 
  -65692   -58579   -50404   -44777   -40574   -34454   -24149   -10513 
    3390    17411    33445    48613    56725    56005    49169    35052 
    9057   -25260   -55371   -71169   -70474   -55693   -30458      512 
   31357    56915    74588    84376    90023    97020   104957   108089 
  102590    86517    58329    20953   -16654   -46761   -69385   -85710 
  -88744   -66518   -18318    33461    65062    76891    77786    69371 
   54431    39254    29468    27138    28393    26863    21785    17409 
   16301    19203    24930    31394    37476    39523    33401    18696 
   -2449   -24946   -41746   -48008   -43037   -28058    -4326    23509 
   47314    61356    63830    54856    36160    11752   -12464   -32111 
  -47035   -59219   -70154   -80414   -87751   -86052   -70544   -43120 
  -10732    19508    42991    58276    66214    67796    64840    60868 
   58931    60732    65464    70374    74373    75904    71388    59596 
   41897    20822      497   -15185   -23121   -21876   -15083    -8603 
   -4432    -1210     3216     9228    13260    12386     7579      665 
   -6143   -10863   -13334   -13631   -12691   -12772   -13428   -12074 
   -9269    -8010    -9309   -11554   -12455   -10452    -4710     4958 
   16735    26264    28913    22467     8409    -9432   -27748   -43767 
  -55529   -63176   -66244   -63766   -57546   -49929   -41783   -32907 
  -21097    -3760    18882    43142    63572    76615    83193    86164 
   86231    82136    73363    61682    49958    38856    26291    11010 
   -4453   -15256   -18835   -16817   -12547    -7766    -1636     6901 
   16565    22800    20118     7687    -9897   -27229   -40974   -49905 
  -53451   -50688   -41012   -25630    -8136     8476    24978    42339 
   56759    63190    61049    52472    38845    21004      275   -20078 
  -35187   -41277   -35695   -18355     4883    26762    44166    55262 
   58415    55723    51160    45664    38742    31486    25213    21373 
   19718    16683    13273    16342    27690    42284    54056    58876 
   57523    55444    56856    61524    66507    66547    57358    41390 
   23686     4782   -15946   -36003   -53566   -68494   -79388   -86854 
  -94359  -101854  -105166  -100370   -86820   -68713   -49560   -27091 
     197    27888    50805    67263    77652    83127    85239    84440 
   79650    70093    57193    44362    34924    30462    30817    34667 
   39120    40202    35656    26298    15103     5574     -719    -4108 
   -5521    -7503   -13083   -22109   -30893   -35813   -36105   -32699 
  -27298   -22394   -18857   -16593   -17691   -23635   -31412   -36046 
  -34431   -26057   -12337     5987    27507    45799    54921    53977 
   42799    21733    -6582   -37155   -62948   -77652   -79051   -69966 
  -54972   -38261   -23184    -8587     9904    31661    49280    56395 
   54137    48391    42693    37174    31465    25141    18340    11432 
    3674    -4512   -10618   -12777    -9647     -164    12905    22970 
   25700    23063    20827    22469    25766    26060    21683    15016 
    9348     5825     3982     3593     4599     7371    12883    20325 
   26441    29304    29817    27881    21501    10478    -2752   -14978 
  -24391   -31585   -37249   -40420   -39186   -31545   -16818     3301 
   24855    42596    53484    58939    61560    62318    61099    57310 
   51403    45267    39601    33524    27660    24495    25129    28479 
   33367    38986    43752    46580    47445    44260    34440    18995 
    1082   -15815   -29182   -39048   -46022   -49720   -49982   -46987 
  -40883   -32234   -21489    -9456     1639     9524    12782    11437 
    6739     -521    -8792   -15454   -18981   -18964   -15432    -8344 
    1553    10816    15780    16827    16591    15949    14422    11454 
    6952      831    -8178   -20107   -32127   -40741   -43523   -40048 
  -31677   -21162   -11817    -5013      440     6508    15011    27019 
   41301    54999    65817    71887    72219    68490    63547    58451 
   53361    48437    42180    33475    24002    15516     7580     -876 
   -9608   -18728   -29909   -43655   -58817   -74089   -87078   -94491 
  -94652   -88055   -75976   -59800   -40439   -18557     3691    22637 
   34452    36922    31366    20737     6630    -9864   -26297   -38969 
  -45025   -44481   -38773   -27444    -9206    13880    37006    56485 
   69744    74069    68734    55980    39123    21752     7135    -1913 
   -2997     3031    12661    23884    35234    45301    54528    62902 
   68616    69336    63360    51559    37019    22292     8399    -3895 
  -12906   -16184   -11347     2392    22666    44364    62885    76446 
   83836    83030    74289    61393    48157    35844    23912    12090 
    2171    -3164    -4551    -6623   -11508   -17026   -24342   -37655 
  -55589   -70898   -77532   -75248   -67698   -57220   -43358   -26270 
   -8434     7381    18754    25830    32085    36479    35141    32715 
   36634    46392    57937    68511    76313    81773    86136    88710 
   87340    79975    65963    45813    21032    -5214   -28371   -44403 
  -53224   -56822   -55206   -48705   -39083   -28441   -19624   -14765 
  -14453   -18106   -23926   -29694   -33742   -35809   -36733   -37188 
  -37382   -37150   -36004   -33441   -29525   -25160   -21695   -19875 
  -19110   -18826   -18326   -15136    -7056     6322    23657    41171 
   55516    66310    74760    82581    90894    98826   104071   104682 
   99940    90454    77755    62468    43544    20985    -1404   -17976 
