Origin Time       2016/04/16 01:25:00
Lat.              32.753
Long.             130.762
Depth. (km)       12
Mag.              7.3
Station Code      KGS013
Station Lat.      31.5973
Station Long.     130.9938
Station Height(m) 118
Record Time       2016/04/16 01:25:30
Sampling Freq(Hz) 100Hz
Duration Time(s)  133
Dir.              N-S
Scale Factor      3920(gal)/6182761
Max. Acc. (gal)   12.911
Last Correction   2016/04/16 01:25:31
Memo.             
[...]
   -2339    -2870    -4926    -7691    -9327    -9110    -7943    -6784 
   -5615    -4485    -4031    -3970    -3125    -1590     -809    -1444 
   -2727    -3946    -5539    -8096   -10857   -12082   -11108    -9310 
   -8338    -8188    -7706    -6443    -5254    -4761    -4346    -3679 
   -3815    -5523    -8000   -10227   -11997   -13419   -14438   -14546 
  -13155   -10542    -7843    -6102    -5456    -5238    -4838    -4195 
   -4137    -5763    -8709   -11363   -12434   -11827   -10740   -10137 
   -9717    -8797    -6943    -4416    -2330    -1744    -2681    -4193 
   -5599    -7303    -9919   -12729   -13888   -12746   -10556    -8418 
   -6350    -4367    -2831    -1713     -933    -1386    -3659    -6458 
   -8319    -9449   -10614   -11629   -11834   -11238   -10354    -9325 
   -8078    -7255    -7626    -8329    -7816    -6513    -5847    -5912 
   -6266    -7156    -8682    -9905    -9892    -9416    -9951   -11107 
  -11193   -10082    -9203    -8893    -8299    -7198    -5682    -3729 
   -2221    -2415    -4246    -6315    -7451    -7793    -8049    -8212 
   -7864    -7021    -5792    -4234    -2939    -2711    -3662    -5011 
   -5676    -5451    -5240    -5628    -6169    -6073    -4792    -2848 
   -1787    -2198    -2994    -3235    -3274    -3757    -4732    -5945 
   -6851    -6853    -6239    -5784    -5641    -5667    -6035    -6620 
   -6609    -5865    -5554    -6321    -7428    -7756    -6696    -4747 
   -3061    -2378    -2866    -4038    -4793    -4536    -3817    -3627 
   -4555    -6197    -7368    -7514    -7318    -7535    -8189    -9046 
   -9766    -9655    -8485    -7027    -5773    -4169    -1754      773 
    2232     2256     1147    -1044    -4453    -8807   -13082   -15869 
  -16635   -15808   -13629   -10146    -5859    -1658     1724     3784 
    3913     2114     -301    -1654    -1578    -1560    -3122    -6008 
   -8758   -10144   -10045    -9113    -7845    -6492    -5002    -2997 
    -840      299     -129    -1867    -4446    -7282    -9968   -12323 
  -14081   -15118   -15567   -15572   -15205   -14088   -11530    -7531 
   -3051      395     1471      270    -1750    -3569    -5510    -8173 
  -11209   -13406   -13942   -13324   -12550   -11828   -10838    -9604 
   -8529    -7684    -6556    -4981    -3889    -4314    -5763    -6414 
   -5307    -3455    -2424    -2893    -4450    -5856    -6145    -5745 
   -5812    -6815    -7919    -7736    -6054    -4075    -2849    -2525 
   -2769    -3148    -3263    -3017    -2987    -4174    -6834    -9931 
  -12104   -12666   -12043   -11456   -11390   -10981    -9374    -6756 
   -4422    -4004    -5590    -7445    -8075    -7357    -6163    -5638 
   -6164    -7240    -8299    -9029    -9374    -9648   -10420   -11767 
  -12766   -12799   -12462   -11940   -10143    -6589    -2613      -95 
     543      629     1070      922     -985    -4490    -8393   -11123 
  -11821   -11045    -9967    -9468    -9595    -9220    -7151    -3797 
   -1058     -263     -520     -153      861     1047     -702    -3836 
   -6819    -8852    -9852    -9836    -9119    -8224    -7892    -8415 
   -8737    -7815    -6012    -4391    -3280    -1947     -312      306 
   -1014    -3559    -5801    -7456    -9767   -12772   -14725   -14861 
  -14013   -12892   -11619   -10031    -7865    -5241    -2717    -1202 
   -1998    -5334    -9151   -11301   -11936   -12637   -14220   -15443 
  -14241   -10261    -5120     -941     1094     1449     1612     2383 
    2598      886    -1922    -4167    -5599    -6839    -7997    -8968 
  -10027   -10740    -9954    -7817    -5828    -4880    -4467    -3682 
   -2451    -1445    -1049     -930     -728     -952    -2476    -5238 
   -8283   -10806   -12572   -13403   -12915   -11091    -8439    -5370 
   -1931     1539     3915     4197     2565       84    -2246    -3854 
   -5017    -7235   -11357   -15728   -18061   -17922   -16332   -14456 
  -12895   -11154    -8444    -5003    -1878     -396    -1169    -2598 
   -2434    -1162    -1483    -4302    -7737   -10099   -11225   -11626 
  -11961   -12260   -11684    -9494    -5821    -1784     1066     2023 
    1932     1894     1697      410    -2093    -4715    -6035    -5833 
   -5782    -7699   -10871   -12504   -11346    -9129    -7643    -6488 
   -4864    -3464    -3163    -3593    -4322    -5730    -7843    -9727 
  -10363    -9518    -7887    -6643    -6488    -7070    -7528    -7467 
   -7382    -8062    -9585   -11025   -11076    -9250    -6512    -4518 
   -4034    -3987    -2998    -1680    -1712    -3444    -5865    -7680 
   -8085    -7453    -6759    -6444    -6417    -6473    -6623    -7270 
   -8614   -10186   -11514   -12604   -13187   -12449   -10365    -8162 
   -6615    -5301    -4123    -3735    -3848    -3297    -2089    -1430 
   -1973    -3278    -4636    -5761    -6706    -7383    -7549    -7329 
   -7103    -6980    -7112    -7869    -9001    -9642    -9539    -9385 
   -9521    -8921    -6893    -4624    -3275    -2819    -3301    -5061 
   -7882   -10434   -11435   -11413   -11250   -10597    -9305    -7705 
   -5692    -3444    -1872    -1866    -3809    -7029    -9748   -11097 
  -12117   -13588   -14793   -14816   -13348   -10542    -7230    -4810 
   -3968    -3885    -3279    -1976    -1196    -2080    -4349    -6834 
   -8637    -9664   -10354   -10829   -10709    -9730    -8070    -6192 
   -4525    -3126    -1746     -358      747     1280     1128      253 
   -1639    -4561    -7445    -9144    -9477    -8799    -7542    -5679 
   -2920       -1     1664     1510       58    -1665    -3291    -5692 
   -9307   -13206   -16146   -17141   -15825   -12969    -9923    -7574 
   -5936    -4449    -2703    -1020     -446    -1674    -3877    -5761 
   -7576   -10338   -13719   -16166   -16468   -14620   -11697    -8922 
   -6447    -3681    -1070      -22     -918    -2862    -5144    -7741 
  -10865   -14173   -16352   -16553   -15602   -14473   -12850   -10241 
   -7007    -3642     -315     2338     3109     1534    -1232    -3452 
   -4969    -6894    -8687    -8567    -6949    -6052    -6586    -7404 
   -7402    -6493    -5556    -5416    -5691    -5549    -4931    -4026 
   -2958    -2377    -2784    -3642    -4144    -3958    -3209    -2560 
   -2726    -3622    -4717    -5961    -7474    -8902    -9786    -9831 
   -8852    -7100    -5109    -3094    -1141      335     1097     1185 
    -117    -3528    -8003   -11719   -14045   -15596   -17161   -18554 
  -18067   -13990    -7273     -878     3593     6305     7594     7896 
    7174     4460     -245    -5290    -9135   -11221   -12018   -12739 
  -13917   -14675   -13752   -10725    -6174    -1173     3104     6048 
    8005     9091     8353     4946     -698    -6993   -12280   -15979 
  -18117   -18589   -17653   -15739   -13116   -10188    -7111    -3967 
   -1447     -351     -847    -2204    -3391    -4498    -6290    -8243 
   -8948    -8142    -6950    -6392    -6309    -6118    -6144    -7085 
   -8609    -9900   -10828   -11396   -11418   -11199   -11073   -10746 
   -9916    -8608    -7012    -5355    -3779    -2648    -2445    -3138 
   -4205    -5062    -5384    -5350    -5694    -6988    -8739    -9813 
   -9664    -8703    -7372    -5362    -2272     1423     4143     4028 
     871    -3327    -6331    -7518    -8129    -9623   -11744   -13107 
  -12696   -10176    -5991    -1455     1967     3586     3559     2396 
     403    -2396    -5629    -8708   -11495   -13655   -14378   -13543 
  -11703    -9126    -6021    -3058     -999      -54     -216    -1698 
   -4236    -6965    -9246   -11020   -12675   -14346   -15245   -14215 
  -11203    -7796    -5644    -4902    -4619    -4040    -3486    -3757 
   -5038    -7067    -9224   -10526   -10655   -10346   -10425   -10791 
  -10409    -8381    -4987    -1516     1145     3119     4163     3397 
    1012    -1948    -4940    -7258    -8135    -8036    -7857    -7588 
   -6565    -4253     -727     2897     4988     4955     3190       47 
   -3732    -7307   -10859   -14816   -18576   -20903   -20892   -18372 
  -14082    -9242    -4624     -713     2049     3951     5156     4420 
     776    -4445    -8718   -10813   -11509   -12171   -13152   -13516 
  -12194    -9450    -6650    -4719    -3961    -4591    -5723    -5809 
   -5248    -5619    -6854    -7861    -7983    -6894    -4988    -3536 
   -3706    -5394    -7012    -7245    -6467    -5822    -5992    -6909 
   -8000    -8455    -7638    -5895    -4664    -5113    -6635    -7463 
   -6775    -5291    -4044    -3577    -4371    -6529    -8851    -9807 
   -9288    -8620    -8886    -9542    -9443    -8522    -7253    -5687 
   -4039    -3103    -3437    -4656    -5879    -6844    -8162   -10097 
  -11730   -12208   -11796   -10870    -9367    -7405    -5050    -1979 
    1624     4504     5469     4509     2668     1159      -32    -1957 
   -4666    -7169    -8937    -9841    -9935    -9740    -9619    -9263 
   -8214    -6429    -4306    -2510    -1529    -1246    -1242    -1340 
   -1849    -3391    -6020    -8692   -10133   -10183    -9884   -10031 
  -10277    -9926    -8884    -7479    -5977    -4587    -3352    -2176 
   -1435    -1848    -3560    -5952    -8012    -8903    -8803    -8800 
   -9367    -9531    -8450    -7028    -6617    -6988    -6892    -5879 
   -4697    -4048    -3653    -3124    -2916    -3632    -5131    -6592 
   -7448    -8199    -9542   -11211   -12382   -12337   -10865    -8821 
   -7495    -7256    -7556    -7682    -7258    -6667    -6672    -7409 
   -8053    -7413    -5044    -2052     -317     -582    -1794    -2698 
   -3298    -4193    -5379    -6161    -5669    -3534     -501     2057 
    3320     3238     2086      188    -2438    -5856    -9462   -12152 
  -13273   -13007   -11752    -9645    -6943    -4279    -2304    -1194 
    -820    -1411    -3268    -6133    -9250   -11467   -11730    -9869 
   -6985    -4965    -4638    -4981    -4866    -4584    -5295    -7237 
   -9194   -10310   -11159   -12279   -13191   -13317   -12550   -11030 
   -9207    -7786    -7332    -7887    -8807    -9266    -9112    -8816 
   -8418    -7321    -5444    -3607    -2407    -1652    -1161    -1170 
   -1879    -3345    -5352    -7370    -9100   -10292   -10420    -9405 
   -7788    -5936    -4024    -2561    -1967    -1855    -1600    -1330 
   -1514    -2013    -2218    -2039    -2454    -4428    -7463   -10206 
  -11939   -12933   -13784   -14617   -15081   -14565   -12496    -9242 
   -6029    -3723    -2266    -1138     -239        5     -666    -2199 
   -4520    -7428   -10040   -11044   -10105    -8050    -5803    -3848 
   -1968      234     2226     2860     1383    -1928    -5734    -8879 
  -11274   -13096   -13992   -13477   -11646    -9176    -6904    -5458 
   -4837    -4494    -4157    -4164    -4967    -6656    -8735   -10240 
  -10543    -9935    -9131    -8571    -8303    -8128    -7989    -8096 
   -8163    -7451    -6162    -5366    -5341    -5314    -4886    -4756 
   -5522    -6729    -7520    -7537    -7441    -8153    -9578   -10855 
  -10887    -9078    -6429    -4771    -4972    -6062    -6208    -5064 
   -4157    -4687    -6115    -7069    -7194    -7486    -8668   -10184 
  -10897   -10123    -8121    -5883    -4375    -3768    -3484    -2905 
   -2050    -1817    -2994    -5094    -7047    -8754   -11202   -14827 
  -18359   -19881   -18560   -15305   -11846    -9139    -7142    -5541 
   -4055    -2757    -2159    -2459    -3186    -4089    -5705    -8535 
  -12262   -15871   -18277   -19055   -18553   -17151   -14799   -11322 
   -7063    -3147     -713      -16     -460    -1458    -3067    -5286 
   -7435    -8937    -9963   -10870   -11481   -11382   -10512    -9112 
   -7678    -6755    -6437    -6545    -6801    -6679    -6071    -5720 
   -6020    -6326    -6098    -5556    -5088    -4817    -4609    -4497 
   -4937    -5903    -6401    -5774    -4643    -3969    -3999    -4605 
   -5718    -6847    -7211    -6645    -5749    -5248    -5245    -5171 
   -4693    -4170    -3985    -3884    -3318    -2421    -2081    -2812 
   -3989    -4333    -3260    -1590     -518     -505    -1459    -3138 
   -5169    -7078    -8433    -8858    -8297    -7464    -7367    -8323 
   -9587    -9856    -8640    -7026    -6411    -7037    -7985    -7997 
   -6750    -5340    -4758    -4488    -3460    -1712     -439     -931 
   -3760    -8302   -12729   -15170   -15242   -14167   -13235   -12378 
  -10565    -7483    -4130    -1631     -138      947     1864     2029 
    1060     -380    -1481    -2232    -3084    -4482    -6573    -8918 
  -10779   -11643   -11274    -9731    -7539    -5354    -3530    -2151 
   -1253    -1016    -1283    -1387    -1531    -2819    -5539    -8856 
  -11447   -12431   -12153   -11156    -9293    -6574    -3690    -1737 
   -1726    -4051    -8269   -12910   -16132   -17369   -17525   -17526 
  -17303   -16108   -13710   -10921    -8650    -7033    -5997    -5730 
   -6135    -6853    -7604    -8163    -8628    -9151    -9280    -8549 
   -7176    -5530    -3778    -2009      -54     2123     3739     3908 
    2709      808    -1341    -3273    -4485    -5548    -7840   -11556 
  -15247   -17286   -17303   -16182   -14694   -12765    -9935    -6086 
   -2117      448      786     -843    -3700    -7052   -10460   -14044 
  -17980   -21535   -23527   -23694   -22773   -21300   -19069   -15969 
  -12163    -7425    -1947     2848     5389     4800     1009    -4948 
  -11278   -16188   -18443   -17793   -14935   -11164    -7492    -3847 
     284     4788     8995    12267    13961    13397    10400     5482 
    -475    -6250   -10006   -10283    -7439    -2773     2381     6594 
    9119     9899     9003     6742     3670      560    -1836    -3295 
   -4081    -4651    -5229    -5548    -5412    -4928    -3954    -2364 
    -649      400      431     -307    -1373    -2085    -2024    -2093 
   -3245    -5142    -7202    -9264   -10962   -11587   -11065   -10044 
   -8738    -7245    -6253    -6140    -6651    -7527    -8491    -9041 
   -8582    -6960    -4984    -3768    -3848    -5202    -7220    -8892 
   -9807   -10359   -10656   -10078    -8023    -4759    -1404     1116 
    2309     1602     -907    -4399    -8329   -11741   -13069   -11533 
   -7629    -3156     -446     -505    -2640    -5307    -7119    -7814 
   -7863    -7498    -6715    -5691    -4793    -4036    -3230    -2916 
   -3708    -5216    -6947    -8758   -10424   -11952   -13143   -13300 
  -12015    -9505    -6619    -4185    -2374    -1020      163     1370 
    2255     1804     -838    -5012    -9337   -13446   -17299   -20121 
  -20681   -18007   -12464    -5686      622     4886     5840     3486 
    -833    -5627    -9987   -13598   -16589   -18434   -17898   -14682 
   -9541    -3674     1485     5200     7255     7158     4985     1934 
    -685    -2351    -3285    -3808    -4064    -4497    -5968    -8572 
  -10977   -12032   -11865   -10911    -9242    -6769    -3865    -1483 
      23      904      907     -547    -3868    -8764   -13931   -18328 
  -21828   -24201   -25150   -24744   -22846   -19294   -14606    -9652 
   -5066    -1422      641      754    -1020    -4048    -7687   -11707 
  -15387   -17895   -19125   -18988   -17237   -13896    -9660    -5827 
   -2820     -250     1406     1300     -676    -4020    -7910   -11554 
  -14018   -14531   -13604   -12114   -10005    -7090    -3701     -350 
    2534     4932     7102     8608     8350     5869     1901    -2046 
   -4752    -6121    -6235    -4989    -3110    -1798    -1805    -2953 
   -4291    -5225    -5592    -5321    -4832    -4350    -3651    -3166 
   -3678    -5342    -7814   -10237   -11448   -11078    -9667    -7839 
   -6000    -4359    -3155    -2812    -3594    -5438    -8215   -11459 
  -14188   -15872   -16982   -17989   -18606   -18276   -16777   -14249 
  -10888    -6947    -3098      142     3041     5736     7566     7793 
    6313     3611      307    -2990    -5610    -7066    -7508    -7537 
   -7502    -7339    -6842    -5929    -4836    -3699    -2181      -42 
    2175     3376     2781      526    -2781    -6510    -9624   -11223 
  -11513   -11138   -10433    -9680    -8931    -7836    -6302    -4635 
   -3191    -2441    -2762    -4080    -5916    -7707    -9145   -10054 
  -10454   -10744   -10861   -10272    -8986    -6981    -3941     -484 
    1973     2283       95    -3739    -7630   -10620   -12499   -12925 
  -11951   -10621    -9838    -9551    -9158    -8161    -6608    -5003 
   -3935    -3568    -3695    -4661    -7167   -10720   -13471   -14053 
  -12831   -11354   -10910   -11503   -12537   -13623   -14136   -13297 
  -10987    -7874    -4756    -2169     -896    -1766    -4430    -7585 
  -10249   -12116   -13334   -14324   -15503   -16699   -17005   -15840 
  -13493   -10327    -6580    -2853       55     1586     1471      -52 
   -2274    -4943    -8344   -12230   -15730   -18020   -18596   -17319 
  -14419   -10585    -6884    -4135    -2404    -1239     -175      970 
    1866     1952     1094     -350    -1928    -3436    -4998    -6733 
   -8444    -9680    -9983    -9295    -8155    -7358    -7310    -7567 
   -7430    -7044    -7113    -7848    -8859    -9860   -10857   -11618 
  -11654   -10774    -9330    -8116    -7913    -8713    -9679   -10075 
   -9495    -7629    -4999    -2956    -2623    -4377    -7450   -10377 
  -12498   -14191   -15877   -17580   -18880   -18994   -17196   -13460 
   -9015    -5661    -4385    -5100    -7094    -9891   -13446   -16956 
  -19205   -19702   -18485   -16149   -13540   -11035    -8836    -7085 
   -5535    -3586     -722     2649     5280     6329     5836     4312 
    2309      182    -1696    -2683    -2343     -830     1520     4349 
    6939     8360     8238     7307     6584     5988     4572     1809 
   -1795    -4824    -6035    -5243    -2918     -203     1109      215 
   -2119    -5061    -8358   -11631   -13949   -14149   -11900    -8647 
   -6552    -6410    -7206    -7370    -6262    -4874    -5106    -7999 
  -12604   -17000   -19899   -20745   -19540   -16701   -12743    -8763 
   -6105    -5101    -5435    -6837    -8725   -10133   -10465   -10264 
  -10544   -11377   -12059   -11961   -10689    -8474    -6239    -4498 
   -2835     -788     1505     3350     3962     3204     1445     -809 
   -2798    -4128    -4968    -5342    -5181    -4453    -3365    -2659 
   -2735    -3302    -4091    -4865    -5544    -6439    -7504    -8101 
   -7912    -7282    -6532    -5568    -4304    -3251    -3202    -4275 
   -6041    -8107   -10094   -11706   -12705   -12824   -12044   -10516 
   -8404    -6222    -4827    -4866    -6343    -8725   -11399   -13764 
  -14978   -14381   -12269    -9603    -7207    -5767    -5629    -6199 
   -6650    -6913    -7209    -7342    -6756    -5123    -2805     -551 
    1254     2744     3904     4537     4760     4633     3885     2202 
    -536    -3832    -6786    -8788    -9439    -8521    -6355    -3609 
    -851     1422     2740     2863     1830      102    -1602    -3107 
   -4556    -5686    -6233    -6005    -4776    -2939    -1348     -675 
   -1438    -3832    -7422   -11377   -14984   -17938   -20009   -20813 
  -20300   -18817   -16725   -14362   -12045   -10025    -8549    -7791 
   -7892    -8962   -10791   -12749   -14199   -14891   -14598   -12883 
   -9841    -6237    -2661      729     3849     6347     7672     7588 
