Origin Time       2016/04/16 01:25:00
Lat.              32.753
Long.             130.762
Depth. (km)       12
Mag.              7.3
Station Code      KGS016
Station Lat.      31.4162
Station Long.     130.3225
Station Height(m) 11
Record Time       2016/04/16 01:25:35
Sampling Freq(Hz) 100Hz
Duration Time(s)  102
Dir.              E-W
Scale Factor      3920(gal)/6182761
Max. Acc. (gal)   10.786
Last Correction   2016/04/16 01:25:35
Memo.             
[...]
   -6897    -8424    -9571    -9682    -8498    -7024    -6476    -6718 
   -7045    -7085    -6554    -5332    -4029    -3738    -4444    -4708 
   -3588    -1820    -1014    -1977    -3962    -5778    -6603    -6061 
   -4929    -4631    -5243    -5436    -4535    -3367    -3181    -4519 
   -6843    -8990    -9983    -9553    -8426    -7716    -7790    -8144 
   -7708    -5642    -2808    -1084    -1066    -1992    -3169    -4203 
   -4570    -4297    -4601    -6329    -8491    -9676    -9502    -8109 
   -6115    -4671    -4164    -4050    -3930    -3543    -2794    -2573 
   -4170    -7405   -10367   -11260    -9994    -7786    -5781    -4569 
   -4172    -3863    -2951    -2072    -2636    -4840    -7435    -9258 
   -9825    -8995    -7270    -5845    -5289    -5047    -4782    -4853 
   -5412    -6255    -7316    -8500    -9296    -9069    -7764    -6128 
   -5036    -4579    -4184    -3659    -3680    -4831    -6386    -6975 
   -6454    -5788    -5526    -5515    -5133    -3672    -1441      170 
     237     -793    -1896    -2698    -3670    -5381    -7707    -9517 
   -9556    -8081    -6477    -5171    -3899    -3317    -4048    -5487 
   -7077    -9031   -11171   -12685   -13003   -11736    -8727    -4902 
   -1756      -54      260     -271     -909    -1489    -2567    -4475 
   -6784    -8652    -9357    -8818    -7573    -6333    -5624    -5337 
   -4850    -3960    -3248    -3333    -4051    -4879    -5984    -7788 
   -9852   -11274   -11530   -10438    -8336    -6205    -4591    -3138 
   -1666     -646     -641    -1906    -4258    -6845    -8579    -9386 
   -9904    -9975    -8999    -7098    -4927    -2828     -849      554 
     631     -984    -3992    -7102    -8523    -7791    -6402    -6062 
   -6866    -7479    -6514    -3717     -561      888      173    -1616 
   -3584    -5306    -6387    -6734    -6749    -7056    -7978    -8857 
   -8438    -6712    -5112    -4305    -3923    -3953    -4307    -4623 
   -5361    -7040    -8859    -9722    -9733    -9663    -9577    -8980 
   -7913    -6716    -5412    -4064    -2977    -2495    -3085    -5151 
   -8008    -9900    -9707    -7873    -5964    -5517    -6512    -7361 
   -6835    -5413    -4540    -5031    -6407    -7504    -7428    -6342 
   -5289    -4752    -4352    -3928    -3391    -2572    -2099    -2681 
   -3644    -3904    -3546    -3398    -4219    -6299    -8606    -9424 
   -8564    -7326    -6518    -6037    -5537    -4400    -2182       57 
     353    -1774    -5024    -7677    -8520    -7852    -7273    -7812 
   -9098   -10076    -9576    -7014    -3671    -1774    -1723    -2305 
   -2935    -3747    -4649    -5522    -6633    -7984    -8870    -8507 
   -6501    -3312     -407      960      544    -1284    -3653    -5414 
   -6066    -6315    -7285    -9065   -10691   -11020    -9270    -6032 
   -3198    -2126    -2884    -4739    -6417    -6870    -6461    -6409 
   -7095    -8106    -9018    -9093    -7602    -5030    -3193    -3350 
   -4696    -5685    -5607    -4606    -3690    -4157    -6132    -8292 
   -9265    -8712    -7322    -6379    -6585    -7210    -7092    -5897 
   -4062    -2400    -2012    -3689    -6857    -9754   -10805    -9694 
   -7762    -6872    -7116    -6977    -5806    -3966    -1649      319 
     465    -1362    -3648    -4908    -4885    -4333    -4124    -4639 
   -5596    -6360    -6455    -5786    -4800    -4428    -5185    -6348 
   -6849    -6459    -5443    -4280    -3735    -4172    -5162    -5893 
   -5696    -4489    -2760    -1205     -358     -421    -1459    -3264 
   -5163    -6690    -7933    -8719    -8559    -7714    -6788    -5749 
   -4663    -4289    -5368    -7902   -11107   -13813   -15126   -15144 
  -14611   -13601   -11683    -9312    -7340    -5718    -4458    -4335 
   -5402    -6664    -7414    -7606    -7303    -6690    -6115    -5596 
   -5199    -5240    -5317    -4747    -3672    -2470    -1388     -972 
   -1432    -2267    -3084    -3749    -4190    -4564    -4932    -5048 
   -4722    -3931    -2637    -1004      334      794      308     -971 
   -2758    -4441    -5614    -6543    -7190    -6941    -5979    -5012 
   -3932    -2519    -1527    -1700    -2600    -3752    -5491    -7587 
   -9235   -10469   -11477   -11424    -9772    -7363    -5172    -3662 
   -3225    -3683    -4024    -3667    -3259    -3572    -4772    -6891 
   -9217   -10237    -9480    -7826    -5918    -3850    -2133    -1422 
   -1582    -2180    -3067    -4189    -5654    -7660    -9930   -11674 
  -12238   -11503    -9954    -8624    -8352    -8782    -8659    -7364 
   -5585    -4531    -4876    -6089    -6840    -6397    -5270    -4625 
   -5532    -7757    -9104    -7830    -5035    -2889    -2276    -3151 
   -4896    -6075    -5786    -4856    -4450    -4656    -5083    -5418 
   -5180    -4114    -2888    -2317    -2403    -3003    -3968    -4422 
   -3884    -3289    -3459    -4067    -4770    -5527    -5771    -5029 
   -4085    -4081    -5075    -6288    -6878    -6449    -5691    -5754 
   -6738    -7840    -8603    -9007    -9103    -9213    -9550    -9727 
   -9339    -8514    -7692    -7202    -6918    -6351    -5455    -4836 
   -4732    -4922    -5508    -6421    -6915    -6545    -5737    -5027 
   -4425    -3744    -3080    -2493    -1795    -1016     -268      285 
    -170    -2210    -4815    -6516    -7223    -7572    -7843    -8396 
   -9394   -10035    -9585    -8459    -7502    -7169    -7378    -7391 
   -6333    -4326    -2629    -2226    -2776    -3272    -3069    -2382 
   -2274    -3576    -5753    -7386    -7623    -6796    -5659    -4643 
   -3789    -3010    -2517    -2600    -3076    -3477    -3338    -2322 
    -872     -485    -2084    -4700    -6802    -7674    -7547    -7404 
   -7829    -8033    -6915    -4712    -2649    -1470    -1376    -2417 
   -4214    -6056    -7491    -8414    -8703    -8600    -8886    -9503 
   -9415    -8530    -7898    -7980    -8344    -8506    -8109    -7188 
   -6449    -6515    -7249    -8206    -8960    -9113    -8968    -9489 
  -10760   -11481   -10420    -7582    -4179    -1940    -1766    -2916 
   -4083    -4515    -4122    -3654    -4106    -5493    -6883    -7339 
   -6595    -5181    -4046    -3977    -4815    -5588    -5710    -5214 
   -4332    -3675    -3939    -5007    -6082    -6696    -6679    -5755 
   -4270    -3328    -3370    -3607    -3273    -2484    -1739    -1677 
   -2931    -4858    -5810    -5604    -5562    -6390    -7826    -8958 
   -8254    -5160    -1469      417     -155    -2275    -4672    -6362 
   -7240    -8122    -9653   -11269   -11603    -9867    -6822    -4246 
   -3256    -3612    -4530    -5378    -5870    -6368    -7596    -9553 
  -11186   -11370    -9822    -7271    -5223    -5044    -6508    -8064 
   -8759    -8601    -7933    -7565    -7974    -8315    -7719    -6562 
   -5454    -4440    -3585    -3046    -2631    -2122    -1670    -1316 
    -839     -569    -1060    -1869    -2094    -1501     -353      633 
     354    -1410    -3264    -3731    -3141    -3022    -4241    -6432 
   -8270    -8404    -6999    -5641    -5354    -5828    -6341    -6450 
   -6221    -6183    -6841    -8101    -9117    -8981    -7701    -6287 
   -5688    -5834    -6005    -5761    -5288    -5211    -6114    -7737 
   -8965    -9064    -8316    -7244    -6109    -5385    -5507    -6061 
   -6617    -7423    -8212    -8330    -8072    -7974    -7695    -6822 
   -5701    -4670    -3592    -2716    -2477    -2527    -2537    -2993 
   -4070    -5281    -6589    -8114    -9121    -8990    -8178    -7206 
   -6242    -5629    -5531    -5784    -6345    -7201    -8074    -8656 
   -8973    -8986    -8430    -7380    -5977    -4029    -1779     -262 
    -214    -1059    -1749    -1975    -1977    -2209    -3141    -4697 
   -6237    -7141    -7059    -6103    -4965    -4108    -3348    -2630 
   -2085    -1705    -1720    -2563    -4351    -6669    -8878   -10459 
  -11045   -10743    -9977    -8806    -7275    -5734    -4253    -2814 
   -2177    -3269    -5621    -7885    -9341    -9668    -8878    -7717 
   -6748    -5803    -4744    -3880    -3384    -3170    -3499    -4565 
   -5866    -6807    -7183    -6992    -6498    -6217    -6317    -6248 
   -5368    -3703    -1989    -1203    -1757    -2997    -3994    -4580 
   -5061    -5599    -6300    -7110    -7637    -7732    -7639    -7187 
   -5983    -4373    -3251    -3257    -4372    -5969    -7187    -7725 
   -8209    -9043    -9512    -8808    -7029    -4797    -2695    -1275 
    -801     -871    -1196    -2154    -4023    -6551    -8905    -9778 
   -8669    -6636    -5014    -4116    -3527    -2901    -2234    -2062 
   -3317    -6126    -9127   -10569    -9930    -8401    -7611    -8009 
   -8633    -8156    -6394    -4599    -4063    -5167    -7151    -8364 
   -7884    -6567    -5933    -6620    -8016    -8942    -8537    -7061 
   -5744    -5277    -5273    -5175    -4558    -3297    -2291    -2669 
   -4182    -5812    -6905    -6892    -5662    -4311    -3962    -4329 
   -4609    -4708    -4767    -4813    -5178    -6105    -7010    -7038 
   -6155    -4930    -3833    -3472    -4245    -5481    -6362    -6783 
   -6657    -6049    -5653    -5749    -5732    -5260    -4522    -3586 
   -2726    -2642    -3612    -5085    -6200    -6469    -6075    -5603 
   -5562    -5977    -6298    -5987    -5035    -3907    -3326    -3593 
   -4250    -4815    -5007    -4705    -4385    -4627    -5139    -5096 
   -4262    -3140    -2264    -2023    -2497    -3095    -3441    -4069 
   -5290    -6565    -7463    -8047    -8244    -7977    -7609    -7189 
   -6218    -4936    -4309    -4500    -4932    -5436    -6070    -6616 
   -6963    -7099    -6787    -6027    -5369    -5098    -4904    -4648 
   -4462    -4238    -3925    -4000    -4695    -5501    -6132    -6752 
   -7184    -7116    -6703    -6420    -6490    -6562    -6222    -5519 
   -4737    -4099    -3729    -3741    -4110    -4455    -4424    -4121 
   -3682    -2960    -2016    -1339    -1411    -2290    -3518    -4405 
   -4720    -5009    -5589    -6076    -6311    -6170    -5024    -2956 
   -1308     -864    -1044    -1529    -2451    -3099    -2851    -2307 
   -2057    -2041    -2364    -3097    -3787    -4153    -4301    -4093 
   -3603    -3497    -3884    -3950    -3269    -2498    -2517    -3439 
   -4682    -5542    -5546    -4877    -4368    -4693    -5806    -7043 
   -7542    -7221    -7143    -8067    -9510   -10570   -10790   -10247 
   -9413    -8904    -8943    -9296    -9698    -9662    -8806    -7826 
   -7631    -8006    -8416    -8882    -9229    -9028    -8690    -8946 
   -9520    -9770    -9642    -9115    -8027    -6736    -5817    -5251 
   -4679    -3987    -3350    -3278    -4312    -5993    -6967    -6644 
   -5585    -4397    -3498    -3199    -3221    -2916    -2233    -1769 
   -1975    -3043    -4830    -6347    -6545    -5497    -4009    -2742 
   -1832     -992       14     1160     2131     2347     1348     -832 
   -3450    -5297    -5597    -4549    -2984    -1697     -844       67 
    1481     3059     3873     3313     1423    -1052    -2738    -3080 
   -3115    -3659    -4314    -4716    -4956    -4812    -4176    -3929 
   -4814    -6278    -7595    -8605    -9251    -9776   -10706   -11790 
  -11903   -10683    -8996    -7492    -6409    -6226    -7092    -8544 
  -10270   -12293   -14243   -15468   -15840   -15442   -14276   -12696 
  -11206   -10191   -10106   -11053   -12284   -13011   -13245   -13098 
  -12489   -11774   -11150   -10078    -8275    -6227    -4533    -3644 
   -3725    -4275    -4560    -4418    -4173    -4195    -4723    -5430 
   -5256    -3448     -533     2274     4164     4849     4528     4046 
    4026     3942     2880      657    -2270    -5105    -6831    -7319 
   -7741    -8712    -9443    -9416    -8974    -8218    -7179    -6524 
   -6682    -7241    -7754    -8262    -9182   -10987   -13529   -15850 
  -17147   -17360   -16852   -16157   -15712   -15643   -15701   -15524 
  -15290   -15441   -15952   -16515   -16656   -15827   -13940   -11417 
   -8932    -7258    -6743    -6976    -7525    -8499    -9827   -11010 
  -11728   -11769   -10961    -9451    -7434    -4759    -1247     2383 
    4958     6312     6888     6717     5966     4984     3564     1698 
     395      540     1765     3217     4600     5711     6275     6676 
    7061     6457     4213      954    -2424    -5434    -7776    -9416 
  -10497   -10596    -9120    -6516    -4047    -2901    -3541    -5272 
   -7189    -9163   -11090   -12465   -13029   -12681   -11056    -8244 
   -5400    -3676    -3348    -4475    -7139   -10860   -14723   -17962 
  -19781   -19276   -16407   -12478    -8936    -6280    -4195    -1977 
     559     2337     2184      156    -2799    -5461    -6853    -7085 
   -7123    -7243    -6610    -4540    -1276     2377     5428     6948 
    6900     6481     6715     7336     7519     6727     4860     2474 
     708      358     1049     1666     1381      131    -1326    -2106 
   -2179    -2037    -1980    -2274    -2892    -3105    -2444    -1400 
    -573     -311     -859    -1819    -2470    -2758    -3060    -3716 
   -5005    -6896    -8986   -10915   -12704   -14474   -15940   -16677 
  -16673   -16063   -15040   -14258   -14118   -14089   -13749   -13459 
  -13482   -13505   -13073   -11602    -8788    -5500    -3083    -2082 
   -2383    -3531    -4785    -5722    -6447    -6948    -6850    -5953 
   -4523    -3017    -1957    -1740    -2042    -1952    -1065      368 
    2106     3804     5277     7039     9249    10991    11392    10539 
    9143     8063     7846     8025     7458     5702     3592     2424 
    2691     3864     4928     4899     3649     1932      493     -292 
    -377     -196     -565    -1714    -2911    -3842    -4977    -6455 
   -7968    -9183   -10006   -10924   -12573   -14710   -16240   -16448 
  -15597   -14310   -13202   -12819   -13038   -13039   -12497   -11955 
  -11944   -12805   -14545   -16168   -16464   -15478   -14180   -13426 
  -13837   -15579   -17712   -18796   -18562   -17630   -16026   -13484 
  -10082    -6217    -2850    -1110    -1356    -2946    -4648    -5606 
   -6133    -6851    -7324    -6515    -4197    -1323      595      328 
   -2261    -5898    -8926   -10827   -12196   -13485   -14549   -15026 
  -14276   -11782    -8345    -5401    -3380    -2146    -1665    -1620 
   -1792    -2537    -3905    -5336    -6770    -8585   -10571   -12305 
  -13550   -13765   -12593   -10895    -9881    -9659    -9930   -10847 
  -12352   -14053   -15582   -16583   -16931   -16723   -16043   -14882 
  -13122   -10844    -8494    -6663    -5698    -5279    -4700    -3736 
   -2811    -2307    -2276    -2733    -3574    -4405    -4679    -3828 
   -1701      813     2424     2890     2975     3194     3403     3152 
    1866     -570    -3051    -4108    -3622    -2578    -1677    -1322 
   -1750    -2416    -2732    -3160    -4286    -5943    -7901    -9991 
  -11567   -12006   -11350    -9959    -8242    -6868    -6559    -7390 
   -8764   -10213   -11684   -13186   -14741   -16455   -18123   -19099 
  -19087   -18565   -18126   -17792   -17155   -16029   -14649   -13401 
  -12715   -12876   -13649   -14455   -14893   -14701   -13764   -12441 
  -11281   -10548   -10087    -9471    -8366    -6668    -4803    -3737 
   -3780    -4062    -3644    -2135      523     3507     5078     4613 
    3245     2092     1807     2736     4241     5232     5417     5221 
    5045     5262     6111     7231     7959     7969     7175     5432 
    2987      738     -788    -2045    -3475    -4908    -6156    -7011 
   -6992    -5935    -4053    -1638      649     1957     1756      -84 
   -3189    -6651    -9734   -12421   -14729   -16322   -17076   -17001 
  -16021   -14402   -12745   -11357   -10142    -9192    -8688    -8398 
   -8113    -7801    -7136    -5924    -4722    -4232    -4552    -5574 
   -7101    -8291    -8482    -8020    -7242    -5902    -4051    -2258 
    -991     -559    -1082    -1925    -2034    -1197     -250      -71 
    -874    -2164    -2877    -2254     -965     -451    -1202    -2678 
   -4323    -5756    -6493    -6277    -5565    -5162    -5430    -6240 
   -7272    -8042    -8329    -8577    -9250   -10032   -10125    -8976 
   -6663    -4053    -2191    -1420    -1544    -2248    -3225    -4438 
   -5869    -7171    -8068    -8448    -8028    -6787    -5505    -4986 
   -5222    -5962    -6970    -7573    -7422    -7075    -6769    -6133 
   -5364    -4997    -5012    -5204    -5528    -5751    -5818    -6384 
   -7676    -8596    -8142    -6549    -4502    -2629    -1725    -2031 
   -2892    -3958    -5312    -6533    -7129    -7292    -7235    -6695 
   -5611    -4370    -3344    -2769    -2642    -2582    -2249    -1851 
   -2030    -3138    -4766    -6226    -7221    -7788    -7908    -7505 
   -6618    -5286    -3497    -1452      160      512     -660    -2926 
   -5453    -7276    -7954    -8130    -8698    -9625   -10242   -10043 
   -8764    -6666    -4863    -4185    -4159    -4063    -3836    -3455 
   -2918    -2899    -3941    -5426    -6669    -7974    -9516   -10811 
  -11730   -12375   -12497   -12167   -12012   -12229   -12511   -12939 
  -13690   -14388   -14671   -14610   -14250   -13379   -11858    -9863 
   -7935    -6791    -6657    -7155    -8002    -9044   -10097   -11232 
  -12335   -12684   -11932   -10720    -9747    -9072    -8471    -7561 
   -5898    -3853    -2559    -2429    -2827    -3178    -3352    -3447 
   -3810    -4685    -5619    -5937    -5599    -4737    -3214    -1456 
    -306      173      199     -628    -2476    -4669    -6582    -8184 
   -9410   -10126   -10423    -9939    -8017    -4982    -2084     -307 
     135     -534    -1611    -2333    -3001    -4542    -7069    -9671 
  -11134   -10939    -9633    -8169    -7310    -7289    -7652    -7797 
   -7523    -7112    -6920    -6902    -6901    -6871    -6704    -6590 
   -6930    -7458    -7552    -7350    -7386    -7620    -7729    -7580 
   -6970    -5752    -4448    -3899    -4259    -5193    -6558    -8108 
   -9287    -9895   -10148    -9976    -9351    -8682    -7767    -5849 
   -3164     -854      236     -259    -2195    -4563    -6163    -6756 
   -6751    -6194    -4941    -3204    -1376      224     1317     1650 
    1219      252    -1098    -2759    -4559    -6104    -6902    -6803 
   -6111    -4997    -3226     -835     1600     3436     3966     2814 
     782     -924    -1921    -2405    -2833    -3918    -5622    -6591 
   -5744    -3519     -948      913      878    -1188    -3811    -5672 
   -6866    -7911    -8924    -9857   -10354    -9817    -8400    -7117 
   -6536    -6303    -6140    -6217    -6650    -7742    -9709   -11707 
  -12664   -12551   -11820   -10689    -9327    -7908    -6455    -5202 
   -4740    -5244    -6297    -7650    -9304   -10993   -12198   -12412 
  -11290    -9028    -6380    -3962    -1927     -214     1132     1786 
    1400       17    -1906    -3813    -5314    -6222    -6649    -6874 
   -6853    -6239    -4955    -3378    -2002    -1344    -1925    -3593 
   -5328    -6302    -6406    -5830    -5123    -5143    -5790    -5859 
   -4827    -3250    -1678     -644     -826    -2170    -3847    -5373 
   -6654    -7399    -7661    -7992    -8513    -8791    -8634    -8162 
   -7389    -6490    -5942    -6000    -6582    -7512    -8575    -9560 
