Origin Time       2016/04/16 01:25:00
Lat.              32.753
Long.             130.762
Depth. (km)       12
Mag.              7.3
Station Code      KGS003
Station Lat.      32.0559
Station Long.     130.5874
Station Height(m) 176
Record Time       2016/04/16 01:25:20
Sampling Freq(Hz) 100Hz
Duration Time(s)  300
Dir.              N-S
Scale Factor      3920(gal)/6182761
Max. Acc. (gal)   69.233
Last Correction   2016/04/16 01:25:20
Memo.             
[...]
    5321    -3405    -6578    -3635    -4041   -14825   -30718   -37944 
  -28455    -8889     6221     9321     4559    -1030    -5793   -12485 
  -21800   -28962   -26684   -11983     7345    17228    11714    -2589 
  -15856   -23710   -26630   -24131   -14915    -2169     6899     7265 
     297    -8353   -15005   -19852   -22024   -16918    -2522    12839 
   16655     7086    -7301   -20728   -32883   -40551   -36541   -19191 
    3482    21384    28717    23052     5491   -16968   -35751   -46620 
  -46477   -31928    -6498    17481    28513    26412    18643     7852 
   -8085   -26947   -40059   -38412   -20790     4462    24939    31364 
   21775      330   -24757   -43495   -48763   -39186   -18852     3531 
   17004    16087     6727    -1612    -7511   -15340   -24052   -25210 
  -14185     2689    14513    15010     5675    -6016   -12689   -15526 
  -22967   -36122   -42994   -32171    -5789    21329    32043    20672 
   -2324   -23117   -36858   -41293   -30172    -5094    16932    18297 
   -2226   -28536   -39433   -26540    -2427    13878    14449     4133 
   -5218    -6545    -4861    -6222   -11761   -20755   -27159   -23616 
  -10187     6941    20115    23496    14920    -2029   -18260   -25847 
  -23201   -16215   -14635   -19931   -22011   -13591     1972    17515 
   26675    24162     7595   -19765   -45797   -54201   -39846   -13770 
   11020    29325    36994    27261     -467   -34649   -57233   -56735 
  -37924   -14148     6846    20064    18434     2894   -15898   -29361 
  -34960   -33657   -28486   -19981    -4807    15239    28414    23118 
      56   -26915   -41604   -39178   -27545   -14984    -3599     5564 
    9942     9767     7832     2162   -10939   -24995   -27323   -14832 
    3451    16770    18924     9448    -5638   -18088   -25108   -29178 
  -29142   -18313     3169    20355    17764    -1392   -20319   -29804 
  -34145   -36471   -30467   -13080     6362    16606    14919     3410 
  -15794   -36021   -46062   -41110   -27228   -12529     -482     6442 
    6217     2518      427    -1013    -5310   -13080   -21009   -22836 
  -14506      853    14882    19420    11551    -3965   -19598   -30596 
  -33438   -25854    -9113    12188    28497    28781    11623   -12539 
  -30792   -35944   -29496   -19609   -12434    -6985    -2482    -1735 
   -3580    -3351    -1544    -4370   -13471   -19502   -13025     4117 
   21706    28209    18635    -1318   -21156   -32731   -32565   -22849 
  -12761   -13226   -24094   -32341   -27424   -13058     -750     3898 
    2830     -370    -1681      547     3267     2808    -2469   -10505 
  -15447   -13125    -3123    11701    22466    19039      960   -22362 
  -41185   -51888   -53818   -42662   -15820    17297    41834    50208 
   41239    17166   -13881   -39867   -50230   -41971   -22898    -2930 
   14388    26844    31620    28114    13607   -11726   -35954   -46896 
  -44006   -30614    -7540    18276    30960    20516    -6913   -36977 
  -56417   -55595   -35852   -12103     2060     5832     6307     8963 
   11338     5816    -9542   -26615   -35163   -32998   -25033   -14624 
   -3629     3655     3790    -2873   -13741   -25687   -33645   -31407 
  -19953    -7847     -253     3380     3744      601    -4967    -8806 
   -6551      529     7279    11627    14768    16527    13734     3935 
   -9730   -20948   -26158   -25210   -20997   -19795   -24916   -29338 
  -24547   -14448    -8672    -9264   -12032   -14066   -17361   -24576 
  -31874   -32293   -24502   -12657    -1765     4214     4785     3117 
     703    -5025   -15443   -26116   -30381   -26004   -17334   -11613 
  -11350   -13116   -15158   -18762   -22578   -22752   -17760    -9916 
   -2317     4384    11528    19232    23933    20248     6716   -10944 
  -22691   -20767    -7266     6077    10263     7051     2549    -2219 
  -12008   -27339   -39089   -39111   -29065   -15377    -1935    10186 
   18222    18713    12386     1045   -13746   -23775   -19003    -2622 
   10566    11183     2795    -6887   -14821   -19484   -18774   -15994 
  -16857   -20175   -20762   -17570   -14069   -14191   -18624   -23708 
  -23648   -13930     4192    20980    24355    12589    -3653   -16116 
  -26197   -33949   -33862   -24165   -10543      526     7175     9557 
    6449    -2051   -11337   -15868   -14853   -11080    -6427    -1776 
    1057     1121      174    -1138    -5020   -10436   -10610    -2251 
    8173    14165    17313    18871    13311    -2236   -19937   -29041 
  -27421   -21747   -18040   -16058   -15594   -20644   -31047   -39494 
  -39744   -32189   -22903   -17070   -13903    -9449    -1216     8487 
   12792     6844    -6092   -17115   -20345   -15656    -4207    10900 
   20832    17555     5237    -3712    -4751    -4508    -7293    -6931 
    1421     8807     4281    -9493   -23781   -34957   -40990   -38952 
  -30181   -20145   -13372   -10786    -8075     -640     7369     6695 
   -5079   -19238   -23963   -18229   -11931   -11001   -12101   -10033 
   -4299       41    -1330    -7198   -14016   -20264   -28711   -41577 
  -52406   -52735   -43158   -28896   -13350      911    12554    21465 
   25923    22699    10741    -5823   -18271   -18417    -5176    13412 
   25188    22462     5963   -17436   -36010   -39049   -28728   -16810 
   -8721    -1079     7988    13421     9843     -504   -12744   -26154 
  -37999   -39915   -28011    -8008    11799    24902    26966    18658 
    5610    -6873   -16939   -23529   -23889   -16895    -6481     1241 
    3338     1822     -752    -5207   -11320   -14599   -11627    -4155 
    2533     2847    -6344   -23169   -39453   -44709   -34108   -13365 
    4959    13386    15077    12684     1262   -19852   -39327   -45087 
  -36418   -21162    -5071    10169    20958    23292    18565    10808 
     787   -12477   -24415   -25943   -14691     3209    20862    33641 
   38477    32131    13702    -9763   -28075   -36726   -36289   -27257 
   -8052    17724    34239    26727     -772   -30921   -50357   -56510 
  -53300   -44723   -31814   -15752    -1610     6266     7583     1695 
  -10779   -23994   -31163   -28609   -16023     2804    19250    24441 
   17655     5430    -6890   -17200   -24002   -26694   -26685   -26383 
  -27694   -28471   -21197    -4079    11752    15360     7160    -4787 
  -11689   -11236    -8829    -8645    -9738    -9930    -7315     -626 
   10215    21154    21832     6541   -15349   -29375   -31855   -30759 
  -33345   -38025   -40573   -41323   -39746   -30596   -14247    -1056 
    1174    -5244   -13606   -18398   -17609   -13179    -8127    -4917 
   -4832    -4913     -325     7747    13677    15773    15842    13544 
    7387     -241    -4788    -7005   -12043   -20867   -29347   -33236 
  -30728   -24538   -20093   -19691   -20836   -18888   -11833    -3507 
    1313     3381     5789     7521     5476      194    -4133    -3639 
    1515     7454    11976    16214    19646    17871     7338    -9098 
  -23665   -30620   -29131   -21297   -10495      392     9971    16623 
   18032    12994     2025   -12129   -24452   -32256   -37522   -41959 
  -44846   -44651   -39260   -29290   -19673   -13785   -11046   -10981 
  -14891   -22065   -25339   -16139     4144    24431    36405    41065 
   42002    38038    27328    14446     7158     7673    11637    14161 
   12125     3576   -10620   -26375   -39865   -51526   -64046   -75596 
  -79922   -74710   -64720   -53787   -39880   -21390    -1313    14905 
   21136    14217    -1478   -15700   -19929   -13452    -2346     6193 
    9237     9792    11516    14542    17736    17976    11281      393 
   -6311    -5064     -675     1440     2857     6802    11138    12312 
   11140     9552     6830     4844     9951    24301    40269    47608 
   44046    33739    18655     -731   -20391   -34571   -38582   -30060 
  -13493      980     8093    11063    13583    13057     3738   -14104 
  -33899   -50999   -63072   -66954   -61833   -52636   -47772   -51239 
  -58045   -60313   -54433   -41960   -27768   -17130   -13607   -18054 
  -27528   -37421   -45722   -52207   -55033   -53360   -49622   -44779 
  -36581   -23956    -9785     1617    10764    22501    36253    44831 
   44434    39479    38821    47308    59822    66785    63747    53445 
   39722    21657    -2292   -27801   -48143   -60232   -64348   -61321 
  -52210   -39133   -24290    -8918     6388    20613    31223    35711 
   33891    27055    18057    12077    12424    16571    19086    16116 
    5110   -15647   -42833   -65835   -72202   -57532   -32027   -14083 
  -14279   -29110   -48487   -62581   -65876   -60255   -49533   -32355 
   -6733    22082    45043    59587    69656    76454    76549    66232 
   44657    16587    -9872   -29463   -42130   -51114   -58907   -64791 
  -65494   -57766   -43062   -27674   -16859   -12539   -14489   -20471 
  -25417   -21564    -4331    21136    44547    60147    65613    57326 
   37029    17681    15062    33220    59512    77858    82202    73559 
   54990    30008     1943   -23476   -43458   -62817   -82785   -93011 
  -79892   -39873    13013    52418    58978    34218    -6005   -43127 
  -61906   -54681   -22964    21894    63700    90001    93585    76514 
   48144    12903   -26662   -62955   -86624   -91476   -78012   -50906 
  -18969     5098    12277    -1079   -29076   -54065   -63437   -59585 
  -51786   -46249   -40681   -28811   -10252     6274    11025     1607 
  -19595   -47637   -72370   -81730   -70910   -45512   -13245    19316 
   40894    42890    29400    10394    -4789   -10801   -11080   -11141 
  -10308    -6972    -2677     2553     8366     8078    -4942   -25141 
  -36385   -29311   -11751     2840     8612     5815    -5284   -24985 
  -47738   -60276   -52993   -28709     -877    14689    14631     7405 
   -3670   -20063   -38424   -50825   -50383   -38040   -19303     1887 
   20705    31018    26358     2848   -32977   -65629   -81113   -72042 
  -38885     7331    45673    57283    42444    18866     1104    -9425 
  -15554   -17998   -17631   -13681    -2652    17791    45359    71509 
   87201    88276    73896    48397    21332      -24   -15021   -25039 
  -27290   -19356    -7149    -1297    -8573   -27197   -47210   -59401 
  -63365   -61268   -53142   -44127   -43947   -57244   -78627   -96119 
 -100760   -89679   -63384   -29390    -2218     7676     2736    -5615 
   -6581     4297    22251    36192    37856    27507    10995    -6078 
  -20191   -29852   -36341   -43916   -54242   -61302   -60013   -51750 
  -36999   -16882       67     3728    -8572   -32298   -59549   -80251 
  -84305   -66855   -33370     1242    21014    19651     4658   -11360 
  -20510   -18982    -5679    16663    43028    65547    76264    75130 
   67137    54834    39598    24302    13881    12390    19341    32772 
   50400    66228    72396    65103    46620    21241    -7692   -35981 
  -56688   -63541   -57336   -45335   -34811   -29742   -31603   -40656 
  -55228   -70781   -80242   -75285   -51639   -15957    16808    36271 
   42956    40879    31317    15585    -1672   -14047   -17105    -9601 
    6991    27244    42503    45433    34088    12591   -11805   -30439 
  -34722   -22151      830    23894    37184    33677    14025   -14426 
  -43625   -65776   -75895   -75969   -71781   -67511   -64187   -61125 
  -57556   -51959   -41384   -23536     -479    20385    32188    34542 
   30562    22280    12100     4193     2229     7836    20529    36365 
   48943    54276    50956    36176     8489   -25055   -50552   -59045 
  -53195   -38571   -16884     6013    20592    24581    20469    10139 
   -3373   -16143   -23162   -18798    -1749    21196    38219    40098 
   25367     -795   -30633   -55883   -69644   -69913   -61858   -53330 
  -46645   -39006   -28680   -17614   -11479   -14182   -21958   -27896 
  -26839   -16956    -3126     5836     3066   -13367   -38590   -63499 
  -79724   -83574   -77302   -63471   -40903    -9693    24485    53902 
   74482    85482    87168    81995    72837    60957    49510    44000 
   47626    57819    66838    66853    53483    27967    -1021   -22217 
  -29178   -24712   -17209   -12036   -11297   -15956   -24591   -35219 
  -47675   -62595   -77212   -84739   -80286   -62410   -33288    -2383 
   17942    21160     9613    -9775   -31914   -51626   -63379   -68334 
  -71837   -74597   -72181   -61135   -45034   -32414   -27701   -29594 
  -35635   -43330   -49577   -50026   -40980   -23766    -4581     9855 
   15439    12355     4372    -4829   -12270   -13780    -6104     9750 
   27150    35832    28591     6052   -22692   -43409   -47851   -40041 
  -28815   -20254   -15369    -9349     3273    21279    37780    46257 
   45889    42002    39599    40159    42790    45096    46471    45418 
   34406     7702   -29781   -64756   -83318   -81099   -65442   -45564 
  -27522   -16622   -15717   -23267   -35955   -50229   -61570   -65033 
  -57411   -37445    -7414    22536    39823    39771    25730     5802 
  -10015   -15641   -11131     -286    12550    23876    29420    25239 
   11543    -5972   -17275   -13069     6521    30043    45317    49062 
   45093    37968    28575    14928    -2462   -19260   -31533   -38406 
  -41187   -41843   -41000   -37434   -32467   -30972   -34469   -37896 
  -35068   -24608   -10427     1277     5670     2202    -5564   -13911 
  -20499   -21528   -13697      597    15519    26633    31261    30111 
   26584    20615     9674    -4534   -15512   -17453   -11153    -3616 
   -1720    -8156   -22185   -42812   -68871   -94801  -112614  -117766 
 -108057   -84649   -54582   -25631    -4842     2930      773    -5365 
  -10948   -10520    -2858     9252    25019    43304    62350    80229 
   91676    92784    85545    74757    65287    59299    54924    49588 
   42613    33680    20391      891   -21503   -39999   -48375   -43076 
  -27370   -11175    -1966      -15    -1491    -2424    -2219    -4124 
  -12200   -28344   -49721   -68795   -78965   -77849   -65650   -46126 
  -26197   -10362     2869    16929    30267    36598    32404    20147 
    3687   -13461   -26529   -31827   -29428   -23184   -18663   -20006 
  -27749   -37793   -44815   -46698   -43419   -36905   -30274   -23052 
  -12586     2090    18644    29001    25236     7694   -15381   -31810 
  -34349   -24636    -6321    16512    36502    45976    42621    29975 
   12852    -4551   -19612   -32772   -43831   -48953   -45545   -36878 
  -27879   -20385   -16118   -17480   -24801   -35829   -45378   -49632 
  -48183   -40493   -29977   -22593   -17247   -11760    -9506    -9699 
   -5915     3930    16932    29877    40088    45081    43800    38494 
   31957    24191    15567     8699     6059     8835    14844    18928 
   18601    16236    15875    18323    19625    16603    10648     4242 
   -2182    -9517   -18333   -28539   -41311   -58686   -78978   -95670 
 -100904   -90229   -66187   -34571    -1174    25525    39253    41648 
   36981    28699    20285    13515     7925     2172    -1937     1878 
   15906    34927    51120    56828    48415    27984      417   -27640 
  -47709   -53605   -48388   -39136   -26700   -11455     2546    13008 
   17816    15256     7680    -2190   -13519   -25005   -35545   -45649 
  -55848   -66037   -75943   -84200   -88084   -84393   -71567   -51303 
  -27944    -7365     5650    10387     8644     2353    -5500   -12600 
  -18802   -22988   -23245   -19737   -13744    -6323      481     3573 
    1590    -3030    -6657    -6737     -954    10260    23025    32021 
   30457    15652    -6017   -24953   -36035   -39512   -37154   -29483 
  -17078    -3916     4265     5835     4311     4206     6756     9917 
   11379     9160     2549    -5960   -12274   -13851   -11227    -6601 
   -1573     2881     6474     9828    13337    14825    10131    -1468 
  -15333   -24524   -24776   -17548    -6444     6179    18592    29019 
   35634    37025    33685    28492    24409    22292    20878    18856 
   16603    15022    13759    11532     7455     1978    -2715    -3951 
   -1662      186    -2387    -8585   -14626   -18607   -21247   -24277 
  -29801   -38379   -47502   -53092   -52092   -44559   -32905   -18990 
   -3109    13496    25994    29339    23882    14296     5489     -241 
   -4350    -8213   -11354   -14801   -20654   -28603   -34943   -35856 
  -32104   -28276   -28541   -34363   -43479   -50912   -52200   -46504 
  -36263   -23815   -10426     3403    17140    28118    33094    31650 
   25471    16608     7991     2796     2826     7290    12345    13512 
    7790    -5601   -24677   -45640   -63587   -73480   -72261   -60845 
  -44584   -30161   -22417   -23115   -29453   -35004   -33847   -24387 
  -10543     1104     6264     5248     1484    -1468    -2205    -1854 
   -1951    -1955     -753      650     -431    -6424   -17018   -29450 
  -41813   -53583   -63601   -69125   -68043   -62240   -55882   -51104 
  -48126   -46698   -45761   -43810   -38810   -28451   -12240     8131 
   29161    46860    59274    63978    57983    44072    29298    18431 
   12697    10039     6643     -300   -11378   -24463   -36836   -47822 
  -56835   -61698   -60858   -55074   -47367   -41001   -36506   -32395 
  -27401   -20330   -10159     2875    16575    27244    32665    33791 
   32548    30175    27632    25536    23698    21657    19829    20230 
   24643    31310    35463    32592    20704     2034   -17864   -34079 
  -44188   -47791   -46090   -40605   -33024   -26062   -22559   -23981 
  -28539   -31226   -28166   -18923    -5269     9554    21782    28560 
   28988    23517    12664    -1813   -15914   -24960   -25839   -19154 
   -8433     3273    13281    17409    12365     -621   -16739   -31663 
  -42779   -47315   -42923   -31033   -17697    -9056    -6511    -8254 
  -13092   -20472   -29288   -37735   -43405   -43912   -37505   -24548 
   -9195     2861     8664     8993     6595     4349     3812     4794 
    6501     8551    10286    10051     6661      820    -5689   -11207 
  -15459   -19052   -20946   -19779   -16749   -13956   -12437   -13552 
  -18717   -26364   -32408   -34048   -31699   -28322   -26968   -27820 
  -28313   -26469   -22086   -14990    -5583     3701    10877    16172 
   19639    21099    22082    24407    28071    31464    32480    29310 
   21706    11564      981    -9253   -18965   -27558   -33166   -33428 
  -27794   -18398    -8978    -2888    -1620    -4320    -7702    -7522 
   -1549     8791    20443    31798    42300    50266    52675    47413 
   35653    20776     6165    -4978   -10880   -11991    -9344    -4496 
    -607    -1132    -7322   -16736   -24415   -26768   -23432   -16085 
   -7949    -3043    -3912   -10733   -22307   -36416   -49686   -58658 
  -61776   -59106   -50203   -34580   -14213     5691    19366    23842 
   19551     9755     -579    -6874    -6501       50     9115    16129 
   18302    15630     9713     2010    -6154   -13547   -20181   -26492 
  -31780   -35071   -35480   -31828   -24841   -18307   -15321   -15417 
  -16933   -19468   -22710   -25229   -25354   -21856   -14295    -3864 
    6682    14788    19433    20444    18005    13919    11713    13741 
   18587    22160    21252    15804     7776    -1337   -10968   -20187 
  -26876   -29176   -28105   -27007   -28512   -33211   -40394   -49568 
  -60790   -72804   -82487   -87256   -85858   -76669   -58355   -32369 
