Origin Time       2016/04/16 01:25:00
Lat.              32.753
Long.             130.762
Depth. (km)       12
Mag.              7.3
Station Code      KGS023
Station Lat.      31.1990
Station Long.     130.8490
Station Height(m) 179
Record Time       2016/04/16 01:25:38
Sampling Freq(Hz) 100Hz
Duration Time(s)  121
Dir.              N-S
Scale Factor      3920(gal)/6182761
Max. Acc. (gal)   5.497
Last Correction   2016/04/16 01:25:38
Memo.             
[...]
  -14570   -16017   -17288   -18271   -18915   -19262   -19379   -19283 
  -18964   -18439   -17766   -17030   -16272   -15475   -14637   -13763 
  -12864   -11995   -11235   -10642   -10242   -10024    -9954    -9977 
  -10018   -10043   -10086   -10219   -10488   -10878   -11327   -11765 
  -12178   -12559   -12835   -12918   -12768   -12369   -11733   -10924 
  -10056    -9265    -8648    -8238    -8049    -8105    -8405    -8907 
   -9540   -10226   -10865   -11370   -11700   -11861   -11896   -11875 
  -11865   -11919   -12092   -12404   -12814   -13276   -13762   -14248 
  -14728   -15226   -15800   -16469   -17153   -17752   -18182   -18388 
  -18383   -18191   -17788   -17192   -16442   -15551   -14578   -13604 
  -12641   -11669   -10721    -9875    -9200    -8774    -8696    -8975 
   -9529   -10300   -11217   -12178   -13127   -13988   -14641   -14996 
  -15001   -14669   -14140   -13591   -13117   -12718   -12367   -12045 
  -11771   -11587   -11511   -11524   -11602   -11724   -11860   -11985 
  -12092   -12171   -12181   -12097   -11974   -11832   -11665   -11585 
  -11647   -11751   -11852   -11924   -11917   -11868   -11831   -11821 
  -11867   -11978   -12141   -12347   -12578   -12822   -13021   -13102 
  -13113   -13093   -12977   -12769   -12511   -12196   -11888   -11670 
  -11540   -11497   -11550   -11670   -11814   -11973   -12175   -12443 
  -12753   -13100   -13498   -13912   -14356   -14902   -15504   -16025 
  -16360   -16427   -16204   -15732   -15030   -14145   -13222   -12393 
  -11698   -11145   -10723   -10408   -10193   -10053    -9917    -9755 
   -9602    -9497    -9515    -9753   -10252   -10993   -11915   -12912 
  -13872   -14715   -15384   -15858   -16165   -16345   -16403   -16359 
  -16268   -16169   -16075   -15943   -15692   -15290   -14766   -14160 
  -13526   -12920   -12361   -11873   -11518   -11352   -11412   -11729 
  -12276   -12948   -13601   -14124   -14472   -14628   -14580   -14351 
  -13984   -13515   -12987   -12462   -12000   -11613   -11275   -10956 
  -10618   -10235    -9821    -9439    -9172    -9081    -9163    -9354 
   -9609    -9953   -10418   -10986   -11610   -12231   -12753   -13064 
  -13119   -12943   -12603   -12197   -11792   -11389   -10964   -10515 
  -10053    -9586    -9166    -8871    -8754    -8814    -9021    -9387 
   -9932   -10622   -11406   -12246   -13099   -13982   -14952   -15980 
  -17014   -18055   -19074   -19978   -20661   -21016   -20987   -20636 
  -20035   -19182   -18073   -16763   -15350   -13969   -12731   -11682 
  -10857   -10306   -10024    -9932    -9992   -10243   -10681   -11232 
  -11853   -12509   -13134   -13695   -14184   -14564   -14799   -14865 
  -14747   -14463   -14022   -13419   -12651   -11731   -10723    -9746 
   -8879    -8122    -7441    -6819    -6286    -5885    -5643    -5600 
   -5790    -6201    -6798    -7507    -8198    -8789    -9326    -9897 
  -10563   -11349   -12252   -13263   -14350   -15396   -16291   -17003 
  -17516   -17808   -17888   -17760   -17420   -16947   -16433   -15875 
  -15275   -14667   -14004   -13222   -12348   -11444   -10587    -9865 
   -9319    -8963    -8872    -9119    -9710   -10594   -11686   -12860 
  -13998   -15035   -15935   -16689   -17301   -17764   -18062   -18195 
  -18119   -17760   -17108   -16203   -15091   -13861   -12651   -11594 
  -10793   -10281   -10007    -9862    -9742    -9579    -9366    -9123 
   -8858    -8586    -8354    -8269    -8473    -9033    -9927   -11061 
  -12308   -13546   -14657   -15539   -16171   -16616   -16953   -17232 
  -17455   -17603   -17692   -17750   -17740   -17629   -17433   -17108 
  -16583   -15894   -15126   -14359   -13662   -13044   -12509   -12117 
  -11881   -11742   -11646   -11546   -11416   -11282   -11166   -11051 
  -10933   -10808   -10639   -10390   -10053    -9627    -9085    -8414 
   -7669    -6963    -6420    -6135    -6172    -6537    -7161    -7932 
   -8758    -9583   -10392   -11193   -11969   -12634   -13104   -13384 
  -13544   -13647   -13727   -13795   -13829   -13810   -13786   -13799 
  -13854   -13978   -14195   -14494   -14852   -15261   -15715   -16182 
  -16629   -17046   -17435   -17775   -18020   -18149   -18168   -18070 
  -17842   -17483   -16976   -16269   -15343   -14266   -13122   -11992 
  -10974   -10141    -9528    -9143    -8971    -8981    -9118    -9294 
   -9416    -9449    -9437    -9442    -9505    -9635    -9797    -9942 
  -10060   -10178   -10337   -10566   -10862   -11189   -11518   -11882 
  -12343   -12919   -13546   -14122   -14589   -14942   -15180   -15309 
  -15362   -15356   -15294   -15199   -15088   -14964   -14857   -14805 
  -14795   -14775   -14700   -14579   -14479   -14448   -14440   -14359 
  -14131   -13753   -13268   -12725   -12175   -11670   -11257   -10980 
  -10853   -10853   -10937   -11064   -11204   -11315   -11350   -11284 
  -11133   -10943   -10745   -10545   -10358   -10183    -9974    -9702 
   -9401    -9133    -8934    -8856    -8936    -9136    -9416    -9764 
  -10146   -10526   -10886   -11182   -11350   -11353   -11206   -10990 
  -10820   -10768   -10859   -11090   -11417   -11734   -11899   -11813 
  -11484   -11018   -10571   -10274   -10163   -10222   -10428   -10736 
  -11082   -11427   -11729   -11914   -11928   -11794   -11598   -11435 
  -11370   -11433   -11650   -12031   -12561   -13217   -13963   -14720 
  -15400   -15945   -16310   -16476   -16472   -16355   -16185   -15992 
  -15778   -15547   -15336   -15182   -15106   -15109   -15187   -15366 
  -15665   -16060   -16503   -16946   -17349   -17681   -17925   -18074 
  -18075   -17869   -17461   -16856   -16059   -15149   -14185   -13163 
  -12113   -11068   -10033    -9028    -8094    -7274    -6586    -6037 
   -5634    -5375    -5248    -5242    -5351    -5555    -5823    -6162 
   -6601    -7150    -7785    -8453    -9095    -9690   -10261   -10835 
  -11427   -12053   -12730   -13463   -14253   -15102   -15989   -16834 
  -17551   -18086   -18399   -18472   -18308   -17948   -17492   -17023 
  -16559   -16085   -15589   -15056   -14471   -13822   -13119   -12397 
  -11696   -11061   -10550   -10242   -10219   -10512   -11033   -11623 
  -12189   -12703   -13140   -13463   -13629   -13593   -13358   -13006 
  -12642   -12326   -12057   -11830   -11648   -11500   -11354   -11168 
  -10911   -10559   -10126    -9675    -9269    -8948    -8744    -8675 
   -8738    -8915    -9197    -9599   -10131   -10773   -11506   -12313 
  -13160   -13990   -14758   -15429   -15967   -16344   -16572   -16710 
  -16864   -17121   -17492   -17944   -18446   -18935   -19327   -19569 
  -19629   -19497   -19205   -18782   -18237   -17608   -16945   -16324 
  -15811   -15383   -14993   -14606   -14159   -13603   -12895   -12018 
  -11157   -10467    -9839    -9253    -8821    -8427    -7918    -7378 
   -6880    -6409    -6052    -5898    -5902    -6067    -6404    -6848 
   -7397    -8071    -8804    -9536   -10244   -10925   -11604   -12272 
  -12894   -13460   -13960   -14383   -14719   -14922   -14939   -14781 
  -14483   -14078   -13619   -13160   -12745   -12403   -12147   -11983 
  -11903   -11915   -12035   -12238   -12506   -12861   -13315   -13875 
  -14562   -15353   -16148   -16836   -17351   -17680   -17837   -17845 
  -17717   -17459   -17078   -16558   -15889   -15068   -14099   -13036 
  -11948   -10855    -9798    -8844    -8040    -7416    -6981    -6743 
   -6704    -6844    -7159    -7628    -8185    -8803    -9450   -10070 
  -10654   -11208   -11710   -12121   -12411   -12584   -12671   -12706 
  -12728   -12786   -12888   -12988   -13052   -13061   -12985   -12832 
  -12667   -12533   -12424   -12318   -12188   -12028   -11894   -11837 
  -11852   -11939   -12112   -12359   -12678   -13061   -13464   -13884 
  -14318   -14689   -14958   -15164   -15300   -15324   -15258   -15129 
  -14922   -14634   -14305   -13977   -13668   -13394   -13187   -13078 
  -13082   -13196   -13404   -13706   -14090   -14522   -14988   -15444 
  -15811   -16070   -16250   -16362   -16379   -16264   -16014   -15662 
  -15226   -14711   -14149   -13555   -12925   -12296   -11726   -11223 
  -10758   -10322    -9935    -9619    -9382    -9229    -9156    -9169 
   -9291    -9527    -9864   -10267   -10700   -11168   -11715   -12381 
  -13174   -14052   -14941   -15770   -16476   -17004   -17319   -17398 
  -17240   -16874   -16326   -15616   -14764   -13808   -12788   -11715 
  -10612    -9572    -8685    -8007    -7576    -7371    -7332    -7414 
   -7574    -7771    -7999    -8240    -8479    -8744    -9079    -9523 
  -10135   -10943   -11888   -12875   -13807   -14584   -15150   -15518 
  -15701   -15706   -15563   -15306   -14948   -14517   -14042   -13534 
  -13021   -12563   -12193   -11940   -11856   -11973   -12272   -12731 
  -13332   -14032   -14769   -15459   -16036   -16458   -16687   -16712 
  -16562   -16294   -15946   -15549   -15170   -14845   -14517   -14087 
  -13502   -12740   -11808   -10777    -9758    -8863    -8178    -7718 
   -7435    -7293    -7264    -7312    -7404    -7512    -7637    -7804 
   -8029    -8338    -8749    -9256    -9843   -10499   -11205   -11936 
  -12666   -13329   -13854   -14254   -14571   -14834   -15102   -15359 
  -15513   -15531   -15429   -15251   -15066   -14891   -14701   -14469 
  -14189   -13885   -13605   -13398   -13282   -13225   -13171   -13099 
  -13009   -12904   -12798   -12689   -12578   -12485   -12401   -12281 
  -12111   -11912   -11701   -11516   -11429   -11499   -11740   -12128 
  -12628   -13222   -13893   -14588   -15246   -15838   -16333   -16682 
  -16844   -16781   -16442   -15820   -14991   -14034   -12996   -11935 
  -10911    -9955    -9110    -8430    -7931    -7595    -7388    -7268 
   -7183    -7102    -7058    -7126    -7372    -7809    -8413    -9168 
  -10060   -11035   -12013   -12928   -13734   -14373   -14786   -14963 
  -14927   -14725   -14459   -14249   -14173   -14251   -14424   -14610 
  -14762   -14830   -14756   -14512   -14089   -13492   -12751   -11922 
  -11087   -10344    -9802    -9559    -9651   -10055   -10732   -11634 
  -12692   -13826   -14967   -16062   -17041   -17831   -18422   -18853 
  -19158   -19376   -19543   -19648   -19684   -19661   -19543   -19287 
  -18872   -18265   -17427   -16403   -15327   -14273   -13244   -12275 
  -11401   -10652   -10040    -9532    -9091    -8703    -8361    -8093 
   -7937    -7884    -7898    -7955    -8047    -8152    -8242    -8301 
   -8344    -8396    -8476    -8615    -8833    -9165    -9608   -10111 
  -10669   -11296   -11977   -12698   -13456   -14231   -14997   -15734 
  -16424   -17061   -17662   -18234   -18725   -19067   -19262   -19332 
  -19274   -19117   -18890   -18558   -18104   -17549   -16891   -16172 
  -15490   -14879   -14349   -13910   -13506   -13122   -12811   -12580 
  -12440   -12410   -12499   -12699   -12931   -13102   -13170   -13141 
  -13013   -12763   -12414   -12026   -11623   -11220   -10833   -10461 
  -10124    -9867    -9682    -9522    -9353    -9122    -8777    -8307 
   -7733    -7069    -6388    -5789    -5285    -4873    -4621    -4579 
   -4761    -5229    -6004    -7023    -8236    -9586   -11004   -12456 
  -13893   -15252   -16489   -17586   -18553   -19375   -19999   -20373 
  -20472   -20304   -19889   -19243   -18434   -17530   -16559   -15565 
  -14599   -13667   -12807   -12096   -11542   -11126   -10862   -10709 
  -10616   -10611   -10726   -10946   -11273   -11721   -12272   -12872 
  -13477   -14053   -14540   -14915   -15174   -15278   -15231   -15100 
  -14906   -14650   -14353   -13984   -13506   -12970   -12439   -11933 
  -11458   -11026   -10663   -10421   -10324   -10340   -10418   -10502 
  -10548   -10565   -10592   -10653   -10746   -10842   -10927   -11007 
  -11087   -11161   -11219   -11228   -11150   -10957   -10662   -10317 
  -10011    -9821    -9769    -9833    -9991   -10226   -10521   -10877 
  -11334   -11922   -12637   -13454   -14330   -15193   -15972   -16635 
  -17189   -17621   -17909   -18084   -18176   -18201   -18207   -18196 
  -18080   -17834   -17486   -17015   -16444   -15810   -15077   -14243 
  -13361   -12461   -11599   -10851   -10253    -9793    -9435    -9159 
   -8958    -8857    -8874    -8962    -9046    -9087    -9093    -9126 
   -9241    -9456    -9796   -10300   -10966   -11740   -12554   -13342 
  -14025   -14541   -14852   -14927   -14767   -14407   -13903   -13349 
  -12849   -12465   -12219   -12114   -12095   -12073   -11975   -11752 
  -11385   -10886   -10278    -9610    -8935    -8318    -7846    -7588 
   -7574    -7827    -8348    -9111   -10060   -11117   -12215   -13319 
  -14384   -15340   -16152   -16810   -17284   -17561   -17646   -17510 
  -17125   -16493   -15626   -14566   -13387   -12157   -10931    -9778 
   -8778    -8012    -7550    -7421    -7604    -8054    -8700    -9430 
  -10137   -10765   -11276   -11635   -11830   -11837   -11635   -11274 
  -10827   -10346    -9907    -9580    -9364    -9229    -9165    -9179 
   -9297    -9553    -9916   -10304   -10718   -11207   -11780   -12430 
  -13115   -13741   -14243   -14615   -14873   -15048   -15192   -15338 
  -15495   -15683   -15915   -16158   -16384   -16596   -16788   -16940 
  -17040   -17073   -17024   -16898   -16723   -16555   -16475   -16528 
  -16692   -16909   -17086   -17135   -17024   -16739   -16259   -15598 
  -14808   -13954   -13120   -12391   -11801   -11319   -10907   -10542 
  -10181    -9786    -9344    -8859    -8322    -7737    -7132    -6556 
   -6059    -5651    -5293    -4937    -4574    -4248    -4017    -3942 
   -4066    -4374    -4856    -5509    -6246    -6976    -7718    -8481 
   -9201    -9867   -10496   -11088   -11678   -12330   -13053   -13820 
  -14587   -15267   -15798   -16184   -16436   -16562   -16599   -16569 
  -16486   -16397   -16351   -16365   -16451   -16635   -16908   -17219 
  -17546   -17877   -18176   -18419   -18598   -18693   -18678   -18513 
  -18177   -17680   -17032   -16238   -15315   -14262   -13049   -11713 
  -10392    -9200    -8145    -7215    -6436    -5844    -5469    -5325 
   -5372    -5545    -5780    -6019    -6242    -6472    -6756    -7134 
   -7624    -8226    -8922    -9671   -10424   -11145   -11813   -12419 
  -12971   -13493   -13988   -14427   -14802   -15124   -15369   -15517 
  -15587   -15586   -15512   -15362   -15127   -14787   -14333   -13763 
  -13083   -12316   -11532   -10843   -10355   -10122   -10162   -10470 
  -11008   -11717   -12521   -13340   -14144   -14947   -15738   -16486 
  -17166   -17758   -18225   -18524   -18601   -18390   -17862   -17054 
  -16033   -14844   -13532   -12198   -10942    -9828    -8945    -8364 
   -8048    -7935    -8036    -8353    -8843    -9439   -10060   -10665 
  -11258   -11787   -12194   -12467   -12612   -12692   -12785   -12908 
  -13099   -13403   -13783   -14196   -14650   -15103   -15461   -15693 
  -15800   -15738   -15522   -15247   -14956   -14666   -14419   -14189 
  -13883   -13470   -12971   -12405   -11819   -11254   -10720   -10242 
   -9865    -9620    -9550    -9714   -10144   -10822   -11685   -12646 
  -13631   -14586   -15461   -16236   -16915   -17473   -17860   -18076 
  -18127   -17995   -17692   -17261   -16735   -16135   -15475   -14773 
  -14062   -13368   -12700   -12035   -11350   -10655    -9952    -9232 
   -8531    -7900    -7362    -6930    -6622    -6466    -6480    -6667 
   -7005    -7449    -7957    -8481    -8965    -9359    -9630    -9783 
   -9855    -9884    -9946   -10142   -10504   -11004   -11623   -12295 
  -12935   -13515   -14017   -14408   -14695   -14893   -15004   -15054 
  -15077   -15070   -15022   -14935   -14798   -14573   -14212   -13680 
  -12976   -12166   -11337   -10565    -9937    -9535    -9392    -9509 
   -9855   -10373   -11004   -11717   -12494   -13313   -14145   -14947 
  -15671   -16267   -16685   -16886   -16878   -16693   -16381   -16008 
  -15615   -15215   -14808   -14362   -13825   -13193   -12497   -11771 
  -11062   -10423    -9877    -9417    -9023    -8670    -8345    -8067 
   -7856    -7699    -7568    -7462    -7414    -7450    -7573    -7783 
   -8061    -8372    -8711    -9088    -9515   -10017   -10612   -11285 
  -11996   -12677   -13265   -13720   -14048   -14272   -14392   -14403 
  -14348   -14311   -14343   -14460   -14674   -14941   -15178   -15336 
  -15394   -15315   -15093   -14795   -14506   -14266   -14083   -13938 
  -13789   -13606   -13360   -13025   -12604   -12142   -11700   -11333 
  -11067   -10918   -10889   -10945   -11043   -11162   -11286   -11404 
  -11526   -11674   -11895   -12249   -12741   -13361   -14103   -14870 
  -15563   -16173   -16637   -16875   -16895   -16712   -16355   -15873 
  -15330   -14812   -14376   -14056   -13841   -13684   -13574   -13485 
  -13376   -13252   -13113   -12923   -12692   -12442   -12171   -11919 
  -11730   -11589   -11474   -11375   -11244   -11044   -10815   -10614 
  -10441   -10327   -10325   -10405   -10520   -10686   -10902   -11158 
  -11478   -11852   -12251   -12660   -13052   -13385   -13636   -13798 
  -13880   -13898   -13839   -13695   -13497   -13306   -13173   -13130 
  -13198   -13393   -13682   -14016   -14362   -14654   -14838   -14931 
  -14949   -14887   -14772   -14640   -14479   -14274   -14045   -13817 
  -13581   -13328   -13060   -12781   -12497   -12237   -12053   -11978 
  -12023   -12182   -12424   -12738   -13121   -13535   -13946   -14334 
  -14661   -14924   -15116   -15175   -15063   -14790   -14369   -13837 
  -13269   -12706   -12172   -11712   -11347   -11060   -10838   -10676 
  -10560   -10484   -10460   -10494   -10587   -10755   -11005   -11316 
  -11668   -12032   -12382   -12707   -12976   -13144   -13204   -13163 
  -13017   -12768   -12440   -12051   -11629   -11234   -10914   -10696 
  -10615   -10703   -10963   -11371   -11915   -12575   -13265   -13896 
  -14426   -14828   -15091   -15244   -15319   -15336   -15315   -15272 
  -15215   -15142   -15046   -14919   -14743   -14498   -14185   -13815 
  -13413   -12992   -12566   -12160   -11786   -11438   -11137   -10875 
  -10629   -10461   -10450   -10604   -10915   -11361   -11866   -12368 
  -12835   -13220   -13509   -13737   -13935   -14116   -14307   -14528 
  -14767   -15013   -15236   -15383   -15421   -15336   -15109   -14744 
  -14285   -13767   -13230   -12732   -12302   -11936   -11640   -11425 
  -11273   -11165   -11086   -11018   -10934   -10814   -10682   -10588 
  -10575   -10675   -10896   -11203   -11541   -11865   -12153   -12387 
  -12540   -12596   -12573   -12505   -12421   -12338   -12263   -12202 
  -12171   -12171   -12195   -12237   -12290   -12333   -12348   -12334 
  -12319   -12338   -12409   -12514   -12606   -12653   -12665   -12641 
  -12578   -12505   -12426   -12331   -12245   -12164   -12044   -11872 
  -11649   -11381   -11080   -10786   -10576   -10487   -10491   -10570 
  -10717   -10929   -11184   -11452   -11744   -12061   -12370   -12677 
  -12985   -13278   -13594   -13966   -14332   -14643   -14912   -15128 
  -15284   -15404   -15473   -15458   -15375   -15237   -15029   -14743 
  -14377   -13924   -13402   -12847   -12292   -11745   -11200   -10670 
  -10159    -9652    -9173    -8760    -8427    -8208    -8135    -8203 
   -8407    -8738    -9159    -9641   -10165   -10706   -11228   -11706 
  -12139   -12533   -12903   -13288   -13692   -14092   -14480   -14833 
