Origin Time       2016/04/16 01:25:00
Lat.              32.753
Long.             130.762
Depth. (km)       12
Mag.              7.3
Station Code      KGS020
Station Lat.      31.2396
Station Long.     130.4915
Station Height(m) 21
Record Time       2016/04/16 01:25:38
Sampling Freq(Hz) 100Hz
Duration Time(s)  108
Dir.              E-W
Scale Factor      3920(gal)/6182761
Max. Acc. (gal)   9.407
Last Correction   2016/04/16 01:25:38
Memo.             
[...]
   10338    10294    10372    10634    11102    11573    11748    11581 
   11308    11104    10914    10646    10421    10453    10789    11337 
   11898    12150    11799    10774     9300     7800     6643     6030 
    6020     6578     7613     8988    10585    12283    13777    14692 
   14920    14598    13912    13148    12593    12226    11894    11628 
   11490    11494    11681    11983    12301    12676    13089    13283 
   13036    12426    11723    11196    10940    10871    10959    11255 
   11773    12500    13283    13801    13910    13819    13699    13484 
   13255    13286    13611    13992    14250    14368    14432    14496 
   14418    14008    13458    13239    13471    13828    14097    14347 
   14590    14676    14428    13786    12864    11822    10705     9518 
    8372     7490     7098     7330     8202     9672    11568    13475 
   14880    15496    15358    14696    13774    12743    11725    10929 
   10527    10681    11559    13024    14554    15542    15671    15052 
   13981    12725    11580    10791    10359    10141    10077    10151 
   10332    10687    11323    12139    12859    13293    13440    13403 
   13256    12970    12506    11920    11358    11032    11141    11675 
   12408    13167    13872    14407    14583    14204    13256    12002 
   10874    10236    10167    10573    11414    12581    13777    14693 
   15131    15077    14676    13988    12963    11698    10466     9538 
    9127     9276     9746    10226    10630    11079    11612    12017 
   12074    11817    11441    11128    11034    11236    11681    12237 
   12715    12928    12855    12647    12539    12685    13013    13329 
   13556    13695    13712    13601    13384    12976    12302    11474 
   10678    10014     9552     9378     9543    10063    10873    11743 
   12447    12940    13218    13244    13011    12529    11870    11283 
   11081    11450    12396    13737    15147    16304    16987    17118 
   16811    16275    15690    15159    14666    14185    13870    13935 
   14363    14810    14852    14353    13489    12422    11197    10019 
    9280     9226     9797    10699    11638    12563    13431    13979 
   14024    13635    12923    11968    10887     9814     8945     8511 
    8551     8868     9288     9808    10447    11092    11526    11653 
   11583    11367    10942    10476    10328    10642    11218    11711 
   12008    12331    12840    13416    13869    14062    13933    13556 
   13087    12611    12174    11900    11970    12457    13165    13731 
   13931    13787    13491    13245    13046    12805    12645    12780 
   13203    13679    13924    13734    13148    12425    11846    11616 
   11806    12312    13037    13958    14997    15909    16360    16246 
   15824    15346    14762    13912    12787    11491    10182     9076 
    8354     8092     8217     8490     8727     8959     9224     9438 
    9557     9678     9978    10637    11695    12962    14160    15062 
   15531    15547    15167    14530    13889    13454    13252    13228 
   13361    13636    14011    14445    14892    15239    15295    14944 
   14258    13384    12433    11497    10670    10017     9520     9123 
    8806     8593     8526     8673     9076     9661    10244    10615 
   10696    10669    10766    10958    11029    10996    11158    11746 
   12785    14184    15735    17183    18335    19000    18997    18379 
   17449    16464    15531    14700    14043    13694    13769    14221 
   14904    15639    16171    16272    15969    15472    14952    14462 
   13960    13377    12668    11815    10854     9862     8932     8177 
    7649     7270     6958     6752     6771     7017     7315     7519 
    7676     7947     8440     9137     9925    10653    11221    11591 
   11753    11837    12095    12617    13275    13882    14339    14747 
   15302    16030    16693    16999    16836    16311    15609    14826 
   14001    13186    12381    11598    10948    10568    10518    10690 
   10882    10963    10862    10527    10019     9516     9228     9330 
    9788    10341    10739    10917    10946    10884    10732    10540 
   10483    10721    11239    11838    12296    12550    12684    12748 
   12672    12354    11858    11399    11051    10740    10500    10494 
   10808    11404    12201    13045    13733    14187    14434    14470 
   14261    13849    13474    13401    13663    14144    14701    15154 
   15388    15405    15266    15054    14817    14549    14250    13937 
   13636    13441    13433    13512    13497    13316    12997    12586 
   12138    11703    11337    11159    11250    11505    11751    11938 
   12123    12390    12757    13141    13445    13623    13631    13368 
   12756    11941    11193    10637    10288    10193    10367    10734 
   11215    11767    12283    12621    12805    12939    12924    12526 
   11716    10706     9767     9170     9154     9782    10835    11999 
   13118    14043    14458    14213    13579    12991    12748    12899 
   13227    13453    13444    13185    12792    12457    12222    12077 
   12226    12851    13777    14636    15196    15427    15325    14826 
   13952    12893    11939    11354    11239    11490    11870    12144 
   12247    12271    12312    12492    12964    13711    14471    14955 
   14997    14498    13512    12359    11411    10827    10560    10536 
   10735    11121    11562    11941    12250    12473    12525    12384 
   12116    11779    11401    11044    10806    10734    10843    11227 
   11948    12838    13659    14363    15026    15614    16022    16214 
   16156    15857    15480    15143    14781    14308    13677    12860 
   11981    11288    10888    10710    10700    10849    11129    11483 
   11825    12067    12264    12556    12929    13195    13135    12580 
   11519    10189     8922     7874     7024     6449     6358     6862 
    7866     9069    10094    10786    11266    11670    12027    12349 
   12671    12986    13264    13525    13793    14060    14305    14486 
   14644    14921    15341    15734    15928    15914    15768    15447 
   14800    13842    12866    12174    11833    11698    11539    11211 
   10770    10369    10109    10067    10295    10728    11184    11508 
   11680    11722    11653    11542    11430    11331    11318    11393 
   11392    11192    10813    10313     9812     9484     9427     9642 
   10067    10588    11078    11446    11636    11642    11544    11418 
   11292    11222    11257    11387    11602    11878    12171    12432 
   12590    12673    12831    13156    13606    14109    14637    15187 
   15703    16035    16039    15677    15042    14269    13395    12430 
   11559    11064    11108    11625    12354    13012    13428    13531 
   13344    13004    12634    12284    11985    11682    11301    10932 
   10720    10653    10601    10457    10212     9906     9563     9284 
    9254     9596    10300    11208    12087    12763    13166    13290 
   13178    12922    12636    12446    12520    12956    13661    14458 
   15219    15836    16240    16493    16722    16887    16807    16389 
   15674    14760    13821    13082    12641    12364    12142    12090 
   12339    12812    13346    13872    14417    15032    15704    16306 
   16711    16866    16706    16119    15042    13561    11929    10464 
    9393     8768     8493     8412     8372     8265     8143     8167 
    8377     8667     8971     9320     9692     9993    10201    10380 
   10583    10791    10988    11219    11521    11970    12640    13417 
   14092    14523    14676    14704    14851    15234    15779    16354 
   16900    17437    18020    18591    18954    19010    18797    18374 
   17801    17104    16302    15494    14841    14434    14137    13652 
   12815    11662    10338     9127     8371     8197     8440     8838 
    9242     9622     9903     9929     9589     8883     7918     6859 
    5923     5435     5675     6629     8066     9765    11554    13237 
   14602    15533    16076    16356    16481    16409    15996    15295 
   14549    13892    13339    12914    12683    12777    13224    13846 
   14516    15228    15898    16364    16508    16300    15821    15181 
   14446    13654    12811    11945    11162    10578    10244    10135 
   10152    10142     9984     9614     9019     8268     7456     6716 
    6262     6231     6612     7322     8193     9024     9708    10231 
   10674    11203    11907    12698    13435    14067    14603    15056 
   15429    15735    16025    16309    16468    16383    16094    15709 
   15351    15206    15388    15838    16424    16992    17396    17596 
   17594    17379    16956    16300    15409    14370    13299    12288 
   11397    10639    10026     9606     9433     9486     9664     9884 
   10122    10354    10439    10184     9584     8781     7895     7077 
    6499     6251     6340     6713     7272     7961     8726     9414 
    9837     9875     9502     8796     7882     6922     6158     5802 
    5950     6579     7540     8571     9374     9779     9870     9886 
   10031    10453    11241    12347    13595    14792    15772    16382 
   16512    16148    15422    14582    13899    13584    13708    14151 
   14769    15513    16290    16943    17436    17871    18309    18699 
   18975    19023    18668    17863    16731    15462    14303    13498 
   13232    13595    14552    15928    17427    18687    19404    19493 
   19056    18260    17304    16345    15481    14870    14643    14764 
   15088    15466    15782    15933    15887    15771    15732    15792 
   15867    15875    15806    15687    15545    15364    15053    14566 
   13922    13110    12108    10940     9701     8512     7435     6471 
    5677     5184     5009     4993     5043     5223     5608     6186 
    6879     7628     8443     9302    10088    10612    10773    10687 
   10547    10428    10326    10302    10440    10761    11285    12004 
   12784    13425    13744    13653    13239    12644    12010    11471 
   11075    10743    10439    10270    10343    10705    11361    12253 
   13309    14508    15846    17208    18316    18906    18864    18186 
   16985    15521    14107    12977    12291    12161    12532    13141 
   13680    13934    13796    13190    12011    10265     8198     6155 
    4460     3357     2844     2680     2660     2747     3057     3712 
    4681     5786     6882     7942     8914     9675    10149    10304 
   10165     9848     9509     9301     9318     9659    10490    11865 
   13618    15423    16950    18003    18522    18534    18105    17297 
   16191    14840    13254    11521     9882     8591     7821     7681 
    8106     8907     9948    11045    11893    12276    12153    11524 
   10449     9183     7987     6986     6355     6281     6763     7570 
    8337     8832     9065     9105     8991     8807     8758     9101 
    9923    11132    12532    13848    14858    15491    15820    16015 
   16288    16863    17895    19252    20531    21367    21613    21272 
   20473    19483    18573    17865    17364    17070    17049    17371 
   18005    18763    19271    19161    18389    17241    16012    14870 
   13907    13123    12412    11642    10790     9992     9404     9029 
    8762     8591     8660     9121     9945    10868    11486    11398 
   10446     8905     7293     6076     5580     5912     6946     8455 
   10233    12141    14063    15787    17085    17909    18338    18382 
   17996    17227    16288    15484    15105    15277    15954    16977 
   18075    18974    19536    19749    19699    19513    19264    18965 
   18604    18287    18288    18833    19946    21399    22710    23373 
   23168    22216    20807    19289    17950    16869    15985    15277 
   14798    14593    14559    14459    14047    13207    12112    11161 
   10738    11017    11825    12716    13282    13344    12903    12038 
   10834     9399     8010     7051     6737     7103     8109     9643 
   11511    13427    15071    16304    17185    17800    18155    18155 
   17651    16481    14591    12212     9847     8104     7438     7899 
    9160    10731    12161    13153    13568    13395    12679    11497 
   10055     8679     7670     7251     7533     8355     9333    10125 
   10552    10634    10578    10603    10795    11115    11491    11889 
   12239    12348    12080    11461    10593     9693     9001     8557 
    8299     8205     8229     8224     7937     7193     6072     4805 
    3637     2837     2606     2961     3765     4834     6078     7499 
    9065    10686    12208    13416    14120    14194    13617    12461 
   10821     8940     7261     6197     5999     6756     8354    10452 
   12553    14205    15205    15585    15453    14931    14107    13024 
   11761    10419     9120     8031     7307     7057     7310     7957 
    8889    10049    11327    12558    13529    14078    14213    13977 
   13411    12639    11814    11060    10497    10171     9999     9883 
    9902    10185    10786    11773    13128    14637    15974    16811 
   16928    16283    14994    13254    11271     9266     7494     6183 
    5528     5677     6591     7978     9456    10647    11215    11099 
   10547     9812     9002     8119     7144     6078     4977     3977 
    3179     2522     1850     1067      229     -529    -1090    -1303 
   -1051     -315      893     2483     4277     6098     7756     9044 
    9824    10075     9850     9311     8799     8749     9515    11244 
   13788    16824    20025    23041    25474    26936    27176    26125 
   23914    20925    17699    14760    12479    10987    10227    10072 
   10397    11068    11927    12791    13408    13624    13579    13425 
   13130    12653    12006    11266    10677    10537    10921    11704 
   12755    13873    14775    15313    15461    15179    14587    13975 
   13515    13234    13237    13594    14106    14504    14704    14714 
   14606    14580    14780    15138    15567    16020    16403    16554 
   16271    15455    14257    13043    12244    12119    12590    13392 
   14264    15036    15671    16193    16642    17140    17844    18825 
   19988    21028    21585    21456    20636    19305    17724    16153 
   14841    13953    13511    13408    13439    13393    13192    12922 
   12711    12584    12499    12417    12333    12276    12186    11913 
   11355    10553     9670     8865     8226     7716     7205     6695 
    6327     6234     6616     7646     9201    10899    12320    13139 
   13213    12710    12088    11823    12149    12978    14027    15042 
   15952    16792    17507    17882    17695    16934    15872    14882 
   14158    13725    13517    13388    13165    12673    11848    10814 
    9791     8944     8343     8047     8153     8747     9793    11001 
   11957    12423    12396    12025    11605    11442    11607    11955 
   12315    12598    12828    13102    13537    14222    15208    16508 
   18080    19780    21352    22493    22963    22667    21659    20126 
   18353    16608    15066    13723    12485    11403    10660    10384 
   10576    11134    11835    12408    12659    12416    11577    10296 
    8842     7432     6271     5510     5213     5375     5935     6779 
    7670     8383     8840     9006     8834     8270     7294     6065 
    4881     4003     3656     3941     4706     5656     6593     7474 
    8301     9100     9960    10911    11793    12333    12382    11920 
   10952     9638     8343     7395     6915     6882     7295     8162 
    9294    10354    11070    11266    10857     9904     8579     7152 
    5968     5268     5063     5189     5454     5749     6023     6227 
    6376     6586     7039     7875     9071    10478    11920    13223 
   14272    15054    15624    16024    16295    16523    16813    17176 
   17500    17668    17622    17305    16680    15829    14932    14151 
   13589    13290    13218    13242    13197    12969    12529    11991 
   11590    11494    11693    11980    12103    11917    11343    10421 
    9433     8759     8704     9378    10652    12208    13689    14852 
   15643    16185    16643    17093    17447    17542    17358    17029 
   16668    16318    15943    15509    15148    15057    15279    15728 
   16256    16685    16884    16760    16253    15401    14268    12936 
   11576    10308     9162     8229     7652     7495     7617     7709 
    7561     7139     6513     5941     5766     6206     7311     8952 
   10846    12665    14154    15157    15605    15492    14910    14015 
   13040    12343    12194    12597    13385    14275    14982    15432 
   15702    15799    15631    15122    14278    13153    11899    10763 
    9931     9467     9298     9273     9339     9591    10132    10973 
   12013    13041    13826    14237    14229    13767    12959    12030 
   11093    10205     9469     9031     9106     9869    11294    13127 
   14929    16265    16893    16814    16275    15574    14855    14165 
   13569    13152    12948    12920    12971    13002    13013    13123 
   13503    14195    15049    15908    16685    17285    17585    17424 
   16720    15660    14637    13968    13702    13728    13958    14241 
   14292    13884    12989    11766    10521     9618     9306     9581 
   10250    11056    11766    12293    12603    12554    12017    11049 
    9863     8715     7771     7067     6530     6021     5455     4885 
    4428     4210     4366     4945     5797     6718     7604     8372 
    8874     8989     8732     8242     7727     7510     7924     9067 
   10765    12704    14512    15881    16677    16905    16675    16200 
   15738    15488    15552    15952    16607    17237    17460    17007 
   15790    13877    11481     8944     6694     5188     4713     5202 
    6277     7518     8669     9560    10079    10249    10169     9933 
    9679     9552     9595     9822    10230    10704    11053    11149 
   11062    11101    11592    12712    14381    16166    17533    18180 
   18032    17182    15892    14480    13223    12296    11725    11451 
   11403    11510    11716    11928    11953    11686    11253    10843 
   10628    10782    11395    12408    13619    14781    15695    16239 
   16384    16166    15616    14897    14298    14002    14150    14935 
   16398    18347    20467    22424    23962    24970    25460    25506 
   25191    24552    23655    22640    21657    20883    20427    20180 
   19951    19638    19232    18753    18184    17515    16768    15982 
   15276    14697    14135    13600    13279    13294    13620    14101 
   14485    14572    14356    13936    13404    12827    12272    11903 
   11847    12007    12244    12524    12818    13056    13158    13080 
   12867    12665    12575    12507    12348    12059    11586    10892 
   10023     9071     8147     7425     7033     6897     6870     6905 
    7020     7230     7612     8265     9150    10140    11168    12178 
   13077    13816    14370    14715    14911    15036    15066    14976 
   14804    14616    14547    14722    15149    15742    16357    16850 
   17141    17194    17030    16665    15996    14939    13556    11972 
   10352     8963     8155     8132     8744     9633    10428    10856 
   10877    10609    10147     9535     8863     8332     8108     8244 
    8798     9828    11268    12925    14574    16002    17058    17759 
