Origin Time       2016/04/16 01:25:00
Lat.              32.753
Long.             130.762
Depth. (km)       12
Mag.              7.3
Station Code      KGS021
Station Lat.      31.2535
Station Long.     130.6324
Station Height(m) 8
Record Time       2016/04/16 01:25:38
Sampling Freq(Hz) 100Hz
Duration Time(s)  140
Dir.              E-W
Scale Factor      3920(gal)/6182761
Max. Acc. (gal)   8.485
Last Correction   2016/04/16 01:25:38
Memo.             
[...]
    6348     6001     5789     5822     6172     6797     7647     8636 
    9568    10370    11158    11929    12518    12858    13005    12923 
   12518    11856    11056    10171     9270     8394     7508     6688 
    6168     6042     6186     6520     7066     7792     8527     9088 
    9442     9671     9804     9823     9767     9610     9232     8630 
    7927     7259     6715     6285     5899     5422     4787     4123 
    3520     2958     2465     2008     1377      523     -202     -430 
    -143      464     1264     2244     3352     4479     5586     6697 
    7758     8654     9328     9803    10074    10065     9774     9365 
    9045     8872     8811     8828     8773     8569     8410     8395 
    8337     8118     7945     8064     8449     8951     9499     9986 
   10212    10159    10037     9964     9935    10013    10303    10764 
   11206    11519    11664    11593    11446    11477    11729    12031 
   12208    12148    11800    11204    10452     9625     8794     8003 
    7231     6417     5528     4621     3817     3295     3218     3534 
    4036     4581     5022     5267     5423     5674     6122     6738 
    7361     7780     7869     7720     7591     7616     7728     7847 
    7886     7728     7449     7256     7113     6812     6335     5877 
    5554     5298     4987     4575     4099     3717     3648     3907 
    4316     4721     5026     5232     5484     5885     6422     7009 
    7395     7361     7055     6835     6860     7007     7128     7170 
    7082     6929     6901     7029     7136     7059     6769     6327 
    5831     5447     5244     5068     4810     4618     4701     5026 
    5401     5746     6171     6781     7498     8145     8662     9060 
    9303     9449     9655     9969    10374    10873    11342    11592 
   11629    11651    11786    11951    12063    12199    12428    12672 
   12735    12523    12126    11637    11071    10455     9826     9185 
    8598     8250     8262     8511     8723     8738     8584     8312 
    8007     7869     8025     8457     9091     9731    10112    10155 
    9952     9598     9274     9169     9223     9250     9201     9137 
    9088     9107     9290     9617     9945    10113     9959     9407 
    8665     8082     7780     7704     7735     7686     7435     6983 
    6434     5896     5358     4815     4394     4201     4135     3912 
    3360     2603     1837     1165      655      325      142       69 
      45       58      229      689     1446     2387     3376     4318 
    5168     5918     6612     7247     7712     7983     8175     8341 
    8427     8348     8101     7923     8006     8178     8297     8483 
    8729     8889     8983     9081     9116     9023     8807     8493 
    8168     8023     8215     8663     9187     9685    10017    10073 
    9912     9647     9334     8990     8647     8336     8072     7876 
    7677     7314     6795     6288     5862     5514     5294     5237 
    5294     5296     5106     4870     4868     5117     5363     5472 
    5567     5725     5816     5756     5575     5262     4876     4627 
    4657     4887     5157     5405     5707     6071     6308     6263 
    6072     6009     6173     6420     6649     6909     7193     7447 
    7672     7831     7829     7692     7518     7322     7148     7110 
    7213     7363     7547     7829     8186     8546     8923     9303 
    9595     9781     9969    10224    10526    10956    11559    12116 
   12471    12747    12998    13116    13087    13018    12982    12946 
   12817    12536    12137    11703    11316    11073    11017    11058 
   11074    11031    11027    11174    11409    11521    11379    11103 
   10912    10818    10691    10550    10479    10428    10267     9920 
    9406     8819     8237     7706     7306     7149     7342     7844 
    8307     8362     8041     7618     7224     6904     6742     6699 
    6584     6290     5949     5781     5824     5977     6187     6393 
    6424     6205     5934     5848     5991     6342     6876     7409 
    7754     7991     8312     8711     9063     9274     9252     8940 
    8401     7756     7079     6474     6163     6284     6732     7280 
    7671     7779     7717     7637     7605     7636     7625     7469 
    7277     7264     7478     7753     7945     8056     8129     8228 
    8440     8747     9041     9301     9508     9597     9651     9809 
   10077    10340    10484    10517    10553    10652    10831    11086 
   11342    11510    11562    11584    11750    12050    12228    12157 
   11941    11677    11451    11376    11395    11308    10981    10453 
    9847     9211     8595     8130     7884     7859     8080     8509 
    8931     9092     8948     8697     8531     8474     8499     8530 
    8351     7877     7337     6896     6417     5783     5134     4644 
    4320     4124     4067     4094     4024     3679     3057     2267 
    1450      753      196     -312     -843    -1414    -2017    -2583 
   -2943    -3024    -2916    -2658    -2257    -1755    -1161     -478 
     293     1169     2109     3002     3789     4551     5378     6227 
    6965     7590     8206     8746     9090     9252     9279     9260 
    9268     9273     9256     9111     8618     7746     6704     5685 
    4829     4257     4023     4113     4448     4964     5672     6546 
    7488     8438     9347    10107    10618    10851    10843    10624 
   10174     9415     8302     6974     5686     4591     3691     2903 
    2122     1324      596       29     -384     -687     -850     -864 
    -831     -800     -702     -508     -271      -83       38      167 
     300      348      302      242      213      157       92      170 
     467      947     1506     2026     2520     3021     3497     3942 
    4350     4719     5055     5324     5542     5697     5597     5093 
    4305     3534     3115     3229     3746     4451     5278     6192 
    7104     7928     8652     9338    10028    10726    11461    12208 
   12837    13222    13269    12970    12572    12332    12226    12088 
   11762    11165    10389     9622     9025     8676     8517     8452 
    8486     8595     8669     8771     9041     9405     9759    10111 
   10461    10842    11295    11729    11988    11922    11460    10719 
    9891     9114     8460     7970     7669     7524     7494     7560 
    7610     7450     7062     6628     6233     5811     5285     4621 
    3895     3279     2906     2778     2784     2831     2920     3098 
    3378     3745     4184     4663     5178     5776     6431     6991 
    7300     7336     7262     7272     7415     7631     7878     8111 
    8294     8456     8618     8752     8861     8986     9171     9525 
   10202    11280    12653    14008    15009    15538    15716    15680 
   15519    15268    14937    14636    14469    14415    14433    14468 
   14448    14324    14069    13742    13446    13249    13252    13489 
   13729    13755    13582    13221    12697    12173    11762    11461 
   11163    10754    10323    10067    10080    10300    10568    10848 
   11245    11760    12349    13109    14039    14974    15810    16498 
   16982    17209    17155    16860    16337    15573    14617    13441 
   11996    10504     9285     8419     7770     7112     6368     5685 
    5157     4775     4584     4606     4737     4876     5030     5257 
    5546     5777     5811     5649     5354     4965     4507     3926 
    3290     2808     2555     2531     2738     3047     3289     3384 
    3331     3219     3171     3277     3569     4018     4520     4970 
    5289     5374     5207     4884     4487     4054     3578     3071 
    2587     2139     1755     1508     1423     1507     1718     1911 
    2021     2026     1854     1653     1678     1881     2066     2228 
    2471     2899     3518     4191     4732     4968     4904     4806 
    4859     5059     5371     5690     5954     6249     6630     7065 
    7471     7722     7860     7978     7986     7889     7835     7801 
    7665     7367     6924     6417     5905     5477     5192     4965 
    4711     4421     4142     3956     3889     3917     4081     4430 
    4913     5456     6051     6710     7359     7841     8107     8235 
    8245     8169     8050     7721     7014     6051     5056     4175 
    3478     2947     2488     1956     1322      774      420      167 
     -30     -191     -307     -268     -122       32      352     1002 
    1955     3122     4365     5559     6656     7657     8622     9654 
   10744    11677    12190    12212    11849    11167    10269     9414 
    8770     8281     7809     7265     6764     6518     6580     6885 
    7342     7823     8274     8711     9103     9373     9432     9305 
    9244     9405     9674     9954    10197    10328    10380    10395 
   10375    10365    10253     9849     9205     8542     8098     7954 
    7893     7775     7682     7607     7496     7367     7172     6888 
    6627     6424     6192     5895     5562     5232     4925     4706 
    4621     4558     4430     4323     4301     4431     4890     5728 
    6788     7951     9091    10050    10802    11366    11763    12063 
   12268    12307    12110    11665    11066    10401     9670     8910 
    8174     7440     6713     6073     5581     5259     5034     4749 
    4405     4128     4003     4114     4458     4909     5300     5508 
    5586     5677     5911     6428     7164     7830     8245     8393 
    8324     8186     8143     8228     8384     8532     8619     8657 
    8656     8676     8813     9034     9378     9931    10553    11168 
   11783    12210    12396    12539    12709    12855    12912    12823 
   12670    12547    12407    12234    12077    11994    12024    12039 
   11954    11828    11538    10862     9797     8494     7123     5866 
    4782     3728     2628     1564      642      -34     -398     -451 
    -246      101      554     1164     1937     2892     4040     5261 
    6403     7451     8447     9376    10198    10862    11297    11570 
   11885    12360    12952    13532    13904    13914    13586    13050 
   12393    11645    10856    10123     9568     9297     9282     9341 
    9368     9357     9203     8788     8169     7463     6662     5716 
    4631     3445     2278     1248      348     -512    -1414    -2312 
   -3080    -3660    -3960    -3816    -3153    -2071     -806      400 
    1411     2222     2911     3606     4429     5336     6219     7048 
    7794     8426     8949     9412     9786     9936     9889     9826 
    9758     9541     9118     8610     8224     8037     8004     8062 
    8169     8309     8486     8728     9076     9550    10083    10572 
   11010    11476    12043    12665    13174    13472    13599    13653 
   13801    14165    14635    15019    15318    15637    16016    16404 
   16734    17029    17281    17398    17350    17062    16365    15261 
   13984    12668    11286     9928     8709     7631     6717     5924 
    5154     4471     3983     3692     3603     3695     3841     3962 
    4077     4181     4318     4609     5071     5656     6306     6901 
    7366     7696     7885     7959     7946     7796     7413     6779 
    6005     5225     4479     3725     2971     2297     1718     1168 
     583      -22     -577    -1068    -1527    -1911    -2052    -1803 
   -1192     -370      456     1117     1613     2104     2746     3603 
    4663     5776     6752     7611     8451     9293    10224    11324 
   12575    13888    15151    16329    17427    18408    19225    19815 
   20131    20228    20170    19919    19387    18532    17377    16029 
   14622    13265    12053    11046    10272     9677     9065     8302 
    7486     6847     6565     6593     6711     6773     6772     6773 
    6864     7067     7377     7786     8181     8450     8671     8916 
    9139     9280     9302     9264     9208     9054     8772     8417 
    8040     7688     7385     7168     7131     7296     7552     7831 
    8171     8559     8914     9159     9213     9115     9078     9282 
    9704    10142    10451    10619    10615    10435    10183     9946 
    9759     9713     9867    10127    10399    10601    10610    10439 
   10228    10092    10103    10212    10318    10365    10290    10073 
    9725     9263     8828     8602     8600     8720     8829     8814 
    8705     8590     8468     8324     8165     7989     7819     7733 
    7861     8225     8648     8969     9193     9416     9705    10084 
   10582    11184    11840    12522    13136    13545    13725    13743 
   13662    13555    13392    13049    12588    12138    11655    11135 
   10636    10120     9579     9097     8797     8769     8971     9272 
    9534     9610     9419     8995     8358     7568     6765     5954 
    5149     4480     3932     3450     3043     2706     2528     2564 
    2766     3123     3613     4179     4795     5392     5847     6123 
    6263     6315     6357     6421     6506     6657     6800     6812 
    6738     6669     6663     6806     7134     7540     7842     8012 
    8149     8259     8365     8595     9001     9513    10067    10611 
   11045    11340    11542    11710    11872    12005    12088    12067 
   11900    11706    11627    11706    11911    12161    12423    12705 
   12966    13159    13257    13147    12661    11756    10513     9022 
    7380     5702     4125     2689     1347       60    -1227    -2512 
   -3675    -4629    -5324    -5733    -5885    -5866    -5783    -5609 
   -5268    -4826    -4332    -3722    -2990    -2190    -1332     -385 
     684     1902     3241     4574     5748     6742     7610     8373 
    9093     9848    10581    11217    11763    12124    12140    11825 
   11353    10862    10405    10010     9780     9817    10057    10298 
   10327    10090     9714     9332     9047     8919     8855     8738 
    8585     8420     8275     8280     8496     8767     8930     8967 
    8917     8819     8670     8356     7760     6924     6041     5329 
    4895     4711     4681     4688     4670     4651     4659     4817 
    5361     6304     7407     8511     9504    10251    10743    11021 
   11089    10979    10698    10251     9716     9109     8398     7639 
    6910     6268     5735     5282     4930     4717     4532     4257 
    3950     3688     3520     3541     3750     4030     4318     4575 
    4782     5004     5329     5826     6468     7075     7529     7890 
    8207     8511     8851     9241     9674    10086    10431    10775 
   11163    11507    11710    11757    11656    11462    11290    11189 
   11108    10974    10806    10726    10744    10729    10610    10383 
   10055     9713     9475     9371     9350     9347     9306     9221 
    9086     8900     8756     8712     8691     8617     8433     8055 
    7510     6963     6565     6370     6376     6512     6689     6834 
    6887     6864     6812     6763     6772     6830     6846     6779 
    6597     6230     5745     5358     5159     5079     5057     5042 
    4982     4867     4700     4526     4405     4298     4176     4143 
    4265     4474     4672     4809     4882     4895     4822     4697 
    4624     4699     4984     5411     5803     6072     6154     5965 
    5605     5267     4977     4619     4071     3343     2613     2085 
    1870     1988     2397     3023     3791     4589     5288     5817 
    6143     6275     6321     6359     6393     6473     6685     7057 
    7560     8144     8761     9369     9926    10413    10881    11361 
   11760    11995    12077    12040    11955    11901    11898    11957 
   12080    12227    12371    12432    12340    12148    11835    11287 
   10560     9727     8785     7815     6848     5815     4685     3528 
    2506     1724     1142      691      347      100      -80     -255 
    -449     -573     -550     -430     -256       -3      340      701 
     958     1062     1061     1022     1014     1080     1226     1423 
    1572     1631     1684     1770     1957     2364     2913     3442 
    3862     4047     3963     3694     3284     2840     2505     2283 
    2198     2278     2461     2781     3345     4144     5113     6196 
    7313     8371     9312    10172    11022    11833    12544    13148 
   13683    14242    14831    15345    15793    16184    16494    16719 
   16745    16550    16234    15761    15095    14232    13157    11925 
   10565     9167     7966     7097     6479     5998     5544     5017 
    4457     4004     3815     3952     4268     4619     4987     5275 
    5433     5536     5611     5723     5896     5994     5997     6039 
    6179     6444     6857     7335     7741     8039     8333     8669 
    8951     9108     9125     8999     8839     8783     8775     8707 
    8574     8398     8248     8214     8316     8516     8756     8976 
    9130     9204     9181     9053     8889     8830     9046     9611 
   10383    11119    11640    11886    11950    12006    12120    12218 
   12231    12150    12030    11968    11995    12068    12109    12092 
   12025    11855    11589    11293    10954    10529     9963     9168 
    8178     7178     6286     5514     4911     4448     4017     3690 
    3574     3595     3684     3851     4100     4454     4932     5521 
    6144     6703     7118     7327     7381     7414     7445     7408 
    7262     7012     6725     6455     6195     5996     5966     6153 
    6498     6811     6991     7115     7198     7218     7224     7248 
    7293     7381     7543     7761     7982     8148     8233     8243 
    8127     7870     7616     7486     7481     7523     7530     7510 
    7483     7424     7394     7471     7635     7831     8011     8145 
    8278     8486     8798     9181     9523     9758     9902     9932 
    9817     9630     9490     9411     9302     9071     8676     8146 
    7566     7020     6578     6215     5822     5379     4922     4484 
    4130     3888     3724     3658     3776     4088     4537     5053 
    5568     6042     6402     6628     6817     7021     7277     7675 
    8238     8865     9471    10028    10466    10760    10973    11024 
   10854    10626    10388    10069     9739     9445     9075     8562 
    7978     7397     6862     6424     6151     6029     5925     5822 
    5764     5723     5709     5706     5685     5712     5802     5854 
    5837     5811     5834     6012     6390     6879     7434     8072 
    8754     9405     9925    10266    10389    10182     9674     9013 
    8233     7352     6488     5693     4896     4061     3265     2581 
    2026     1558     1141      842      722      759      964     1390 
    2016     2767     3603     4490     5386     6294     7242     8212 
    9141     9957    10654    11293    11848    12260    12554    12716 
   12737    12666    12503    12260    11988    11658    11256    10808 
   10297     9737     9121     8409     7644     6914     6297     5820 
    5429     5124     4963     4938     5021     5217     5455     5655 
    5817     5905     5895     5877     5922     6051     6305     6729 
    7330     8046     8810     9641    10485    11191    11703    12055 
   12294    12497    12703    12834    12831    12765    12704    12593 
   12319    11868    11342    10794    10241     9764     9439     9224 
