Origin Time       2016/04/16 01:25:00
Lat.              32.753
Long.             130.762
Depth. (km)       12
Mag.              7.3
Station Code      KGS011
Station Lat.      31.5896
Station Long.     130.3490
Station Height(m) 18
Record Time       2016/04/16 01:25:30
Sampling Freq(Hz) 100Hz
Duration Time(s)  94
Dir.              E-W
Scale Factor      3920(gal)/6182761
Max. Acc. (gal)   20.225
Last Correction   2016/04/16 01:25:30
Memo.             
[...]
  -21012   -21768   -24229   -26826   -28881   -29765   -28957   -26889 
  -23984   -21212   -20187   -20171   -18702   -16612   -17116   -19738 
  -21211   -20819   -19556   -17021   -12871    -8682    -6477    -6923 
   -9520   -13214   -16777   -19670   -22019   -23659   -23977   -22405 
  -19243   -15726   -13351   -13235   -14643   -15924   -17656   -20968 
  -23874   -23623   -20872   -18351   -17200   -16516   -15501   -14894 
  -15824   -18288   -21599   -25131   -28268   -30175   -30199   -28927 
  -27281   -24922   -22059   -20428   -20293   -20449   -21281   -23254 
  -24964   -26010   -27462   -28659   -27617   -23770   -18852   -15743 
  -15793   -17568   -18668   -18386   -18073   -18375   -18108   -16825 
  -15448   -14303   -12970   -11560   -10796   -11247   -13114   -16153 
  -19324   -21416   -22157   -21942   -21005   -19846   -19669   -21174 
  -23358   -24368   -23571   -22295   -21549   -19953   -16380   -12935 
  -12441   -15188   -19203   -21952   -23000   -24495   -26746   -27138 
  -25445   -24473   -24465   -22891   -19944   -18463   -19086   -20584 
  -22383   -23594   -23380   -22221   -20280   -17347   -14593   -13383 
  -13949   -16618   -21085   -24011   -21984   -16696   -12819   -11705 
  -11246   -11395   -14045   -17987   -20332   -20376   -19003   -17579 
  -16924   -16598   -16092   -15628   -16042   -17872   -20157   -21770 
  -22601   -22552   -22335   -23404   -25321   -26441   -26111   -24115 
  -20758   -17765   -16659   -17141   -18041   -18782   -19734   -21185 
  -22422   -22664   -22562   -23250   -23568   -21582   -18588   -17067 
  -17045   -17808   -19599   -21965   -23503   -23645   -22582   -20736 
  -19184   -18331   -17199   -15822   -15901   -18109   -21212   -23529 
  -23255   -19668   -15454   -13933   -14440   -14900   -16087   -18953 
  -21314   -20796   -18195   -15831   -14889   -15213   -16201   -17194 
  -17527   -17409   -18066   -20205   -23109   -25376   -26580   -27008 
  -25531   -21128   -16383   -15095   -17150   -19973   -22912   -26078 
  -27945   -27160   -24556   -22163   -20829   -19708   -18368   -17824 
  -18724   -20037   -21084   -22647   -24038   -22575   -18063   -14332 
  -14028   -15166   -15283   -15200   -16304   -17262   -16296   -14890 
  -15538   -17902   -20284   -21997   -23118   -23476   -22189   -19679 
  -18553   -19483   -20142   -19760   -19378   -18312   -15624   -13338 
  -14067   -17217   -20156   -21569   -22116   -22494   -22311   -21405 
  -20612   -20651   -21365   -22021   -22149   -22064   -22248   -22330 
  -21585   -20366   -19396   -18683   -18636   -19453   -19201   -16604 
  -14019   -13780   -15163   -16788   -18255   -19716   -21034   -20716 
  -17772   -14446   -13901   -16325   -19881   -23745   -27480   -29129 
  -27323   -23789   -21162   -20081   -20074   -21344   -23795   -25838 
  -26022   -24481   -22126   -19909   -18610   -18264   -18534   -19117 
  -18792   -16627   -14012   -12663   -12365   -12278   -12829   -14691 
  -16638   -17091   -16521   -15847   -14968   -13994   -13734   -14818 
  -16943   -19008   -20236   -20752   -20884   -21142   -22886   -26483 
  -29283   -28345   -24156   -19877   -17860   -17834   -18860   -21193 
  -24703   -27966   -29734   -29672   -28237   -26386   -25248   -25736 
  -27065   -26704   -23704   -20121   -17845   -16868   -17207   -19189 
  -21402   -21497   -19424   -16929   -14584   -12584   -11668   -11220 
  -10603   -10856   -11732   -11618   -11031   -10959   -10461    -9799 
  -10986   -13744   -16154   -18427   -21232   -22904   -22720   -22947 
  -24672   -26257   -27021   -27700   -27489   -25407   -22927   -21339 
  -20389   -20981   -24233   -28472   -30823   -30660   -29442   -28019 
  -26592   -26107   -26633   -27023   -26985   -26181   -23589   -19570 
  -15776   -13359   -12525   -12718   -12656   -11213    -8588    -5637 
   -3412    -3362    -5013    -6079    -6759    -8916   -11754   -13424 
  -14241   -15418   -17328   -19735   -22071   -23668   -24406   -24430 
  -23672   -23247   -25057   -28616   -31572   -33009   -33029   -30949 
  -26846   -22876   -20917   -20672   -21245   -22429   -23775   -24513 
  -24267   -22952   -21065   -19742   -19436   -19632   -20032   -20656 
  -21528   -22547   -23086   -22457   -20524   -17831   -15328   -13064 
  -10504    -8378    -8039    -9435   -11295   -13132   -15400   -17420 
  -17545   -15437   -12855   -12082   -13258   -14848   -16661   -18939 
  -20203   -19644   -19104   -19995   -20831   -20415   -20031   -19997 
  -18983   -17741   -18256   -20192   -21720   -22138   -22404   -23556 
  -24719   -24071   -21851   -20541   -21641   -23832   -25517   -26863 
  -27792   -27229   -25356   -23489   -22016   -20769   -19917   -19393 
  -18980   -18762   -19086   -20344   -22207   -23674   -24098   -23580 
  -22898   -22713   -22356   -20533   -17391   -14798   -14058   -14568 
  -15430   -16459   -17122   -16666   -15403   -14327   -13808   -13369 
  -12673   -12609   -13931   -15294   -15408   -15440   -16671   -18442 
  -19987   -21656   -23668   -25468   -26701   -27553   -27736   -26762 
  -24953   -22878   -21178   -20355   -19862   -19669   -21118   -23643 
  -24603   -23809   -23395   -23451   -22436   -20648   -19548   -19165 
  -19112   -20127   -22365   -24667   -26101   -26081   -24349   -21524 
  -18262   -15014   -12940   -13343   -15988   -18996   -20914   -21654 
  -20905   -18319   -15231   -13057   -11512   -10458   -10956   -13317 
  -16057   -17832   -18996   -19805   -19273   -17062   -14070   -11314 
   -9683    -9784   -11634   -14364   -16649   -18355   -20143   -21531 
  -21571   -20653   -20075   -20365   -20860   -20853   -20613   -21184 
  -23084   -25369   -26932   -28003   -28835   -28676   -27375   -25930 
  -24822   -23704   -22616   -21756   -20828   -19853   -19627   -20726 
  -22456   -23332   -22921   -21988   -20673   -18665   -16600   -15287 
  -14580   -13896   -13171   -12946   -13625   -14781   -15415   -15347 
  -15296   -15499   -16093   -17371   -18737   -19445   -19542   -19044 
  -17445   -14673   -12184   -11780   -13252   -14923   -16004   -16964 
  -18209   -19353   -19963   -20451   -21482   -23171   -25326   -27590 
  -29432   -30611   -31179   -30990   -29828   -27743   -24750   -21116 
  -18132   -16972   -17179   -17691   -18063   -18252   -18652   -19493 
  -19752   -18661   -17605   -18318   -20283   -21717   -22352   -23498 
  -25527   -27175   -27533   -26589   -24245   -20914   -17850   -15669 
  -13870   -12086   -10711   -10095   -10190   -11135   -13040   -15245 
  -16638   -16623   -15623   -15028   -15841   -17114   -18026   -20008 
  -23315   -25375   -25244   -24376   -22956   -20813   -19632   -20465 
  -22062   -23107   -23368   -22852   -22031   -21887   -22594   -23260 
  -23135   -22272   -21242   -20935   -21817   -22884   -22988   -22548 
  -22193   -21392   -19834   -18348   -17425   -16636   -16061   -16433 
  -17932   -19795   -20713   -20064   -18427   -16042   -12890   -10449 
  -10520   -12828   -15438   -17165   -18170   -18264   -16959   -14940 
  -13690   -14311   -16703   -19516   -21548   -22723   -23042   -22249 
  -21385   -21862   -22858   -22854   -22213   -21707   -21071   -20256 
  -20079   -21015   -22280   -22479   -21182   -19582   -18989   -19206 
  -19426   -20068   -22016   -24485   -25931   -26096   -25200   -23101 
  -20246   -17577   -15330   -12986   -10493    -8757    -8440    -9277 
  -10554   -11548   -12226   -12978   -13369   -12886   -12536   -13547 
  -15306   -16842   -19063   -22903   -26901   -29131   -29665   -29260 
  -27782   -25251   -22488   -20280   -19134   -19391   -20847   -22667 
  -23789   -23573   -22469   -21605   -21498   -21814   -22287   -23177 
  -24408   -24888   -23959   -22753   -22675   -23866   -25533   -26450 
  -25852   -24236   -22514   -21102   -20114   -19456   -18940   -18563 
  -18165   -17496   -16677   -15966   -15529   -15296   -15089   -15253 
  -16138   -17140   -17503   -17204   -16404   -15282   -14450   -14505 
  -15140   -15389   -14752   -13515   -12425   -12380   -13887   -16760 
  -20347   -23586   -25293   -25332   -24653   -23864   -22994   -22389 
  -22580   -23335   -23989   -24567   -25178   -25278   -24867   -24414 
  -23743   -22902   -22555   -22892   -23412   -23376   -22596   -21818 
  -21496   -20869   -19052   -16578   -14863   -14253   -14221   -15071 
  -17392   -20362   -22373   -22741   -21666   -19522   -17085   -15146 
  -14124   -14647   -16552   -18378   -19420   -19669   -18412   -15605 
  -12848   -11559   -11550   -12088   -13305   -15240   -16847   -17644 
  -18347   -19494   -21215   -23196   -24624   -25150   -24818   -23528 
  -21745   -20580   -20548   -21072   -21327   -20924   -19840   -18316 
  -16969   -16531   -17105   -18187   -19494   -20952   -22057   -22001 
  -20702   -19421   -19579   -20938   -22124   -22496   -22319   -22309 
  -23148   -24380   -24865   -24183   -22357   -19577   -16929   -15309 
  -13994   -12580   -12419   -14204   -16516   -17899   -18675   -19606 
  -20119   -19294   -17255   -15052   -14003   -14640   -16468   -18966 
  -21828   -24504   -26205   -26651   -26396   -25727   -24434   -22894 
  -21979   -22067   -22793   -23779   -24843   -25287   -24551   -23085 
  -21594   -20616   -20356   -20344   -20267   -20536   -21417   -22247 
  -22321   -22017   -21438   -19796   -17784   -17055   -17167   -16736 
  -16074   -16048   -16285   -16000   -15029   -13580   -12227   -11790 
  -12644   -14588   -16663   -17549   -17618   -18541   -20248   -21122 
  -20649   -19756   -19182   -18874   -18838   -19128   -19519   -20228 
  -21375   -22091   -21842   -21241   -21038   -21521   -22283   -22460 
  -21996   -21799   -22545   -24130   -25644   -25915   -24917   -23594 
  -22279   -21141   -20752   -20808   -20604   -20465   -20599   -20194 
  -18948   -17419   -15659   -13736   -12526   -12103   -11454   -10589 
  -10486   -11309   -12625   -14134   -15121   -14896   -14112   -13868 
  -13993   -13926   -14156   -15115   -16180   -16936   -17464   -17469 
  -17199   -17748   -19147   -20191   -20425   -20681   -21628   -22866 
  -23999   -25494   -27355   -28591   -28888   -28870   -28793   -28496 
  -28012   -27522   -26893   -25801   -24607   -24001   -23662   -22564 
  -20677   -19250   -18809   -18271   -16991   -15585   -14279   -12800 
  -11423   -10532   -10315   -10956   -12126   -13195   -14147   -15051 
  -15256   -14545   -13970   -14309   -15135   -16181   -17551   -18262 
  -17459   -16183   -15595   -15714   -16513   -17767   -18456   -17957 
  -17049   -16896   -17640   -18776   -20244   -22197   -24367   -26219 
  -27260   -27396   -27218   -27116   -26435   -24819   -23280   -22630 
  -22595   -22885   -23440   -23994   -24171   -23958   -23996   -24504 
  -24513   -23343   -21712   -20921   -21668   -23763   -26730   -29780 
  -31538   -31062   -28697   -25489   -22213   -19183   -16781   -15584 
  -15479   -15473   -14910   -13862   -12534   -11325   -10608   -10165 
   -9661    -9416    -9937   -10916   -11763   -12807   -14698   -17066 
  -18761   -19029   -18093   -16924   -16444   -16701   -17230   -17788 
  -17801   -16235   -12960    -9349    -7101    -6540    -6722    -7040 
   -7736    -9475   -12508   -15671   -17468   -17933   -17869   -17819 
  -18497   -20299   -22719   -25248   -27818   -30025   -31093   -30839 
  -29803   -28395   -26435   -23577   -20106   -17181   -15859   -15819 
  -15749   -15130   -14783   -15444   -16525   -17061   -17166   -17441 
  -17878   -18315   -19134   -20600   -22123   -23099   -23539   -23414 
  -22592   -21370   -20341   -19691   -18930   -17659   -16131   -14680 
  -13262   -11935   -11496   -12777   -15319   -17817   -19470   -20430 
  -21244   -22039   -22624   -22777   -22321   -21782   -21863   -22141 
  -21983   -21648   -21537   -21593   -21488   -20886   -19654   -18118 
  -16969   -16617   -16788   -16746   -16054   -15079   -14096   -12693 
  -11005   -10067   -10452   -11958   -14211   -16493   -17853   -18061 
  -17763   -17663   -17986   -18426   -18646   -18805   -19173   -19769 
  -20686   -21983   -23342   -24358   -24781   -24603   -24496   -25446 
  -27368   -29282   -30650   -31079   -30083   -28619   -28503   -29593 
  -30464   -31074   -31871   -32503   -32866   -32756   -31255   -28345 
  -24925   -21415   -18701   -18336   -20220   -22636   -24636   -25918 
  -25765   -24134   -21986   -19776   -17281   -14759   -12866   -11707 
  -11386   -12555   -15251   -18659   -21852   -23853   -24281   -23723 
  -22679   -20751   -17311   -12916    -9139    -6996    -6365    -6558 
   -7224    -8515   -10473   -13233   -16993   -21114   -24632   -26880 
  -26857   -24496   -21976   -21397   -22920   -25853   -29345   -32483 
  -35156   -37935   -40208   -40041   -36398   -29975   -22718   -17057 
  -14560   -15877   -20907   -27901   -34439   -39257   -41805   -41306 
  -37606   -32393   -27766   -24085   -21257   -19794   -19168   -18202 
  -17022   -16707   -17714   -19351   -20330   -19524   -16767   -12777 
   -8110    -3052     1513     4456     5738     5619     3489     -545 
   -5129    -9046   -11342   -11620   -10624    -9567    -9256    -9705 
  -10389   -10966   -11397   -11814   -12948   -15963   -21197   -27646 
  -33627   -37255   -37004   -33327   -28842   -25563   -23986   -24591 
  -26930   -29158   -30093   -29745   -28816   -28130   -27599   -26552 
  -24421   -21123   -17683   -15181   -13558   -12504   -11775   -11028 
  -10853   -12372   -15241   -17462   -17340   -15030   -11891    -8722 
   -5189    -1023     2985     6092     8484    10497    12050    12281 
   10008     4858    -2241    -9200   -14658   -18616   -20570   -20322 
  -18711   -16186   -13467   -11942   -12263   -14715   -19886   -27127 
  -34409   -40646   -45461   -47433   -45398   -39990   -32884   -26075 
  -21201   -18738   -18172   -18898   -20902   -24089   -27850   -32014 
  -36268   -39059   -39055   -36387   -31738   -26035   -20885   -17362 
  -15232   -14499   -15445   -17192   -18201   -17202   -13456    -7512 
   -1037     4730     9143    11515    11914    11035     9281     7388 
    5960     4336     1870    -1178    -4832    -9378   -14208   -18492 
  -22240   -25473   -27953   -30068   -32286   -34516   -36499   -37870 
  -38648   -39490   -40889   -42717   -43915   -43475   -42123   -40775 
  -38858   -36079   -33364   -31709   -31536   -32571   -34315   -36731 
  -39402   -40517   -38394   -33300   -26680   -19945   -14192   -10106 
   -8028    -7611    -8047    -8887    -9391    -8278    -5149    -1123 
    2293     4770     6534     6673     4146     -606    -6305   -12146 
  -17996   -23271   -26707   -27801   -27252   -25940   -24345   -23180 
  -23341   -24450   -25497   -26844   -29122   -31685   -33644   -34851 
  -35776   -36532   -36178   -34486   -32831   -32214   -32699   -34055 
  -35521   -36242   -35743   -33777   -30820   -28175   -26855   -26686 
  -26440   -24965   -22120   -18519   -15395   -14174   -14919   -16093 
  -16230   -14930   -12402    -9035    -5838    -4199    -4242    -4870 
   -5568    -6776    -9153   -12615   -16148   -19324   -22411   -24934 
  -26125   -26070   -25484   -24686   -23101   -20551   -18276   -17686 
  -19205   -22487   -26966   -32001   -36552   -39435   -40071   -38846 
  -37061   -35786   -35072   -34935   -35499   -36226   -36657   -37012 
  -37171   -36270   -33904   -31054   -28941   -27354   -25483   -23503 
  -21885   -20437   -18903   -17467   -16557   -16447   -16838   -17055 
  -16523   -14990   -12801   -10395    -7650    -4596    -1712      908 
    3528     6049     8046     9325     9853     9634     9087     8537 
    7457     5042     1144    -3608    -8372   -12276   -14556   -15351 
  -15078   -13834   -12967   -14358   -17732   -21400   -24473   -27047 
  -29353   -31135   -31967   -31964   -31315   -29775   -27397   -25033 
  -23612   -23539   -25027   -27902   -31121   -33342   -33430   -31020 
  -27230   -23496   -20196   -17160   -14449   -12632   -12491   -14202 
  -16951   -19217   -19782   -18709   -16928   -15224   -13726   -12342 
  -11684   -12605   -14947   -17626   -19671   -20757   -20740   -19408 
  -17091   -14985   -14375   -15571   -18168   -21501   -24484   -26292 
  -26759   -26132   -24965   -23355   -21092   -18753   -17306   -17506 
  -19513   -22395   -24928   -26477   -27196   -27981   -29371   -31023 
  -32500   -33191   -32262   -29700   -26568   -24233   -23398   -23716 
  -24460   -25000   -25048   -24752   -24187   -23341   -22625   -22632 
  -23267   -23591   -22667   -20382   -17638   -15685   -15098   -15294 
  -15154   -14298   -13215   -12398   -12267   -13376   -15456   -16974 
  -17114   -16608   -15983   -15556   -16193   -18007   -20104   -22001 
  -24092   -26610   -28545   -29013   -28953   -29805   -31696   -33527 
  -34276   -34087   -33879   -34395   -35678   -37392   -39343   -40714 
  -40371   -38567   -36217   -33610   -31051   -29012   -27234   -24624 
  -20767   -16665   -12990    -9340    -5445    -1674     1250     2800 
    2828     1328    -1165    -3722    -5894    -7504    -8362    -8635 
   -8536    -8063    -7529    -7192    -6308    -4366    -2849    -3388 
   -5517    -8377   -12090   -16520   -20982   -24750   -27288   -28742 
  -29890   -31454   -33694   -36538   -39591   -42396   -45041   -47643 
  -49836   -50815   -49311   -44970   -39302   -34160   -30325   -27467 
  -24799   -22124   -19918   -18477   -17612   -16811   -15645   -14072 
  -12302   -10798    -9926    -9502    -9152    -8624    -8062    -7963 
   -8135    -7603    -6059    -4150    -2242     -281     1303     1808 
     968     -907    -2985    -4608    -6150    -8216   -10627   -13070 
  -15516   -17675   -19058   -19564   -19724   -20414   -22147   -24732 
  -27664   -30425   -32242   -32365   -31149   -29868   -29239   -29021 
  -28909   -28996   -28960   -27850   -25489   -22719   -20343   -18864 
  -18429   -18686   -19112   -19391   -19489   -19526   -19714   -19987 
  -19817   -18955   -17541   -15715   -13843   -12510   -12150   -12977 
  -14940   -17376   -19412   -20624   -20642   -19234   -16691   -13478 
  -10234    -7716    -6583    -7311    -9839   -13818   -18930   -24221 
  -28165   -29958   -29776   -28088   -25783   -23858   -22499   -21631 
  -21453   -21620   -21317   -20588   -20531   -21725   -23464   -24903 
  -25839   -26422   -26765   -26658   -25932   -25174   -25424   -26637 
  -27431   -27007   -25802   -24328   -23065   -22608   -22973   -23535 
  -23676   -23374   -22970   -22299   -20976   -18743   -15551   -12244 
   -9530    -7182    -5314    -4282    -4203    -5255    -6905    -8006 
   -8114    -7483    -6768    -7013    -8618   -10855   -13168   -15669 
  -18246   -20430   -21674   -21944   -22270   -23257   -24061   -24048 
  -23959   -25020   -27551   -30743   -33618   -35335   -35144   -33154 
  -30553   -28361   -26730   -25562   -24871   -24719   -25158   -25874 
  -26353   -26326   -25677   -24527   -23239   -21983   -20552   -18679 
  -16643   -15176   -14788   -15525   -17039   -18709   -19967   -20630 
  -20483   -18954   -16000   -12470    -9440    -7839    -7901    -8766 
   -9387    -9726   -10583   -12273   -14099   -15332   -16157   -17304 
  -18850   -20009   -20398   -20545   -20886   -21380   -21936   -22384 
  -22437   -22033   -21399   -20886   -20931   -21876   -23562   -25182 
  -25796   -25015   -23023   -20478   -18353   -17212   -17058   -17971 
