Origin Time       2016/04/16 01:25:00
Lat.              32.753
Long.             130.762
Depth. (km)       12
Mag.              7.3
Station Code      KGS012
Station Lat.      31.6057
Station Long.     130.5740
Station Height(m) 4
Record Time       2016/04/16 01:25:30
Sampling Freq(Hz) 100Hz
Duration Time(s)  170
Dir.              E-W
Scale Factor      3920(gal)/6182761
Max. Acc. (gal)   25.350
Last Correction   2016/04/16 01:25:30
Memo.             
[...]
   10501    11392    11575    11808    12367    12511    11382     9404 
    7862     7367     7472     7375     6940     7031     8398    10614 
   12468    13344    13753    14268    15103    16217    16777    15911 
   13957    11868    10004     8245     6635     5012     3127     1750 
    1855     2952     4143     5776     8301    10381    10150     8275 
    7470     8433     8880     7529     6139     6746     9127    11083 
   10736     8592     6706     6285     6608     6612     6612     7066 
    7790     9264    11526    11981     8542     4198     3542     6097 
    7864     7530     6709     6402     6946     8496     9713     9466 
    9165    10032    10669     9659     7700     6171     6072     8578 
   12861    14188    10112     5734     6750    11330    13403    11060 
    7902     7569     9990    12234    12168    10472     8486     6653 
    5202     4560     5260     6897     8329     9371    10083    10268 
   10152     9338     8225     8891    10488     9881     7511     6485 
    8124    10389     9834     6245     3345     3755     6355     7703 
    4933      519      440     5261    10273    12838    13560    13112 
   11469     9817     9873    11038    11472    10672     9801    10081 
   11114    11904    12443    13353    14316    13905    12141    10727 
   10319    10152     9348     7994     7040     6575     6349     6963 
    8430     9978    11062    10862     9457     9181    10931    12034 
   10789     8898     8286     8551     8046     6351     5074     5747 
    7532     8841     9546    10155    11023    11428    10210     8778 
    8892     8910     6997     4079     1810      877      897      934 
     843     1487     2884     4152     5555     7408     8390     7853 
    7054     7365     9441    11855    11612     8916     6687     6045 
    5870     3874     -404    -3582    -2874      209     2709     4021 
    4997     6138     7716     9382    10818    12337    13516    13044 
   10681     8348     7361     6370     4566     3337     3892     6595 
   11207    15726    16981    13737     8700     6278     7754    10295 
   10394     7628     5568     7271    10956    12415    10566     8255 
    7835     9266    11647    13669    13770    11668     9478     9740 
   12284    14221    12744     8428     5417     6664    10200    11506 
    8953     5700     5556     8750    12427    13898    12872    10517 
    7984     6680     7705    10376    12460    11875     8608     5294 
    4568     6122     7482     6785     4650     3517     4584     6724 
    8189     7809     5694     3331     2677     4679     7806     9407 
    8964     8289     8973    11099    13749    15704    16172    15204 
   13216    11219    10594    11135    11769    12380    12819    12805 
   12588    11721     9178     6078     5243     7155     9480    10248 
    9634     8739     8089     8528    10789    13035    12984    12287 
   14193    17629    18213    14365     9034     6282     7451     9949 
   10575     9499     8611     8916    10887    12997    13011    11528 
    9874     9055    10464    12639    12234     9340     7162     8348 
   12542    15638    14445    11181     9380    10053    12975    15641 
   14857    12174    11079    11990    13926    14970    13049     9363 
    6799     6617     7700     7171     4282     2293     3556     6270 
    8093     8932     9030     8667     9231    10936    12109    11813 
   10222     7462     4883     5208     8214    11194    13784    15133 
   12831     8840     7166     7826     8548     8557     8163     6618 
    4881     5488     6529     4585     1242      422     2368     4825 
    7179     8417     7425     5491     4181     3830     4252     5673 
    6721     5694     4689     5431     6822     8196     8922     7744 
    4510      813    -1430    -1511      118     2300     3974     5703 
    8264    10984    13003    12750     9014     3679      430     1662 
    6221    10111     9541     4583     1226     4312     9801    11248 
    7887     3644     2846     5236     7207     8016     9340    10841 
   10635     8370     5860     5438     7050     8504     9416    10861 
   12572    13574    13266    11594     9000     6249     4730     5053 
    5922     6422     6651     6850     7674     8859     8665     6137 
    2750      711      777     2175     3780     4826     4460     3418 
    3573     4188     3474     2159     2422     5144     9067    11359 
   10117     7105     5459     5775     6474     6435     6025     5873 
    6253     7878    11009    14062    15078    13740    11537    10642 
   11330    11617    10074     7344     6118     8323    11874    13735 
   13899    14069    15559    17895    19252    19226    18339    16760 
   15349    15405    16720    17380    16630    15859    16174    16897 
   16956    15792    13312    11335    11579    12540    12085    10500 
    9399     9316    10134    12228    14766    15717    14754    13533 
   13384    14083    14290    12988    10949     9829     9624     9477 
    9672    10778    12836    15084    16180    15509    13709    11832 
   10226     8965     7967     6473     4645     3744     4077     5019 
    5631     5030     3535     2852     4083     5665     5356     3740 
    3226     4500     5878     5658     3971     2159     1427     2225 
    3780     4728     4885     5725     7926     9780    10068     9717 
    9695    10097    10816    11518    11432    10744    10500     9698 
    7100     4620     4174     4942     5553     5454     4647     4156 
    5846    10482    15275    16262    14110    12340    12045    11944 
   10789     9211     8646     9339    10912    12517    12992    12495 
   11744    11032    11098    11353     9599     6390     4918     5825 
    7226     8352     9256     9755    10266    11002    11306    11596 
   13111    15892    18793    19903    18249    15590    14196    14313 
   14821    14430    12455     9637     7982     8502     9503     9223 
    7709     5466     3647     2815     1944     1339     1463      640 
   -1923    -4559    -4725    -2223       34      404     -699    -1933 
    -726     2556     4534     4507     4179     4514     4754     3232 
     480     -678      626     2333     2695     2003     1857     3140 
    5349     7799     9422     9494     9296    10183    11102    10155 
    7205     4242     3536     4652     4960     4340     4905     6082 
    6199     5413     4313     4933     7893     9324     8013     6919 
    7233     8193     8472     7316     5515     4054     3678     4274 
    4535     4737     6684     9911    12612    14725    16568    17726 
   18256    18439    18027    17013    16696    17798    18375    16749 
   14103    12472    12804    14369    15344    15068    14655    15004 
   15450    14913    13546    12097    10389     7915     5056     2473 
     541     -306      239     1785     3405     5038     7406     9944 
   11654    12649    13044    13223    14050    15221    15464    14346 
   12844    11992    11496    10441     8870     7737     7741     8782 
   10685    13365    15788    16335    14525    12165    11628    12928 
   14596    15582    15144    13592    12042    10914    10730    11886 
   13608    15038    15753    15877    15672    14827    13573    12800 
   12454    12109    11654    10269     7825     5747     5082     5723 
    6459     6356     6186     6527     6934     7342     7524     7156 
    6621     5970     5124     4861     5562     6403     6603     6158 
    5532     4941     4411     4373     4747     5249     6348     8206 
   10494    12728    13930    13182    10844     8410     6323     3797 
     916    -1634    -3582    -4754    -5141    -4775    -3158      -67 
    2945     3944     3231     2558     3050     4596     6253     7056 
    6742     5746     4610     3690     3188     3068     3002     3050 
    3742     5062     6829     9025    10897    11730    11604    10810 
   10650    12759    16233    17841    15796    12294    10319    10061 
   10473    10720    10183     9093     8821    10819    14570    17618 
   17968    16213    14822    14717    14612    13532    11696    10160 
    9841    10109    10038     9883     9796     9157     7606     6010 
    5723     6868     8758    10995    12948    13839    13243    11130 
    8923     8490     9329     9504     8406     7365     7736     9028 
   10500    12069    12836    12400    12086    12968    14711    16006 
   15914    14595    12257     9770     8582     7995     6780     6095 
    6663     7053     6700     6500     7161     8817    10921    12684 
   12970    11741    11655    13428    14041    12598    11551    11877 
   12120    10874     7765     4430     2813     2107     1027      556 
    2026     4312     4344     1449     -510     1503     5381     7664 
    7274     5261     3821     4145     5249     6366     7548     7646 
    6564     6480     7720     9004    10182    10679     9911     9028 
    8976     9782    11059    11814    12064    12511    12712    12556 
   13399    15592    17025    15915    13439    12371    13483    14187 
   12568     9916     7089     4093     2486     2964     4129     5453 
    6995     7478     6830     6738     7372     7660     7652     8380 
    9065     7750     5477     4600     5364     6803     7107     4899 
    2100     1986     4074     4319     1482     -568      623     2553 
    2471      391    -1670    -1449      963     3555     4892     4952 
    4676     5112     7040     9905    11533    11364    11306    12274 
   13255    13298    12967    13764    15719    17253    17292    16074 
   15295    16344    17618    16823    14749    13923    15143    16596 
   16234    14281    12293    10836     9243     6729     3287      178 
    -845      519     2776     4303     4402     3657     3635     4866 
    6009     5751     4209     2848     3097     4498     5401     4816 
    3126     1989     2397     3574     5142     7166     8247     7609 
    7037     8117     9919    10516     9754     9145     9728    11562 
   13782    14811    14210    13419    13646    14726    15993    16806 
   16989    16948    16854    16096    14200    12477    12844    14649 
   15239    13869    12687    13351    14881    15239    13460    10688 
    9231     9627     9878     8651     6913     5783     5537     6275 
    7767     9907    13084    16638    19079    20455    21273    21133 
   20970    22198    24378    26640    27833    27138    26739    28829 
   31471    32377    32269    31834    30817    29465    28018    27193 
   27391    26951    24673    21640    18986    16921    15342    13717 
   11354     8642     6713     5156     3134     1521     1218     1713 
    1438     -290    -2459    -4805    -7116    -7893    -7350    -7451 
   -8802   -10492   -11280   -10860   -10915   -12606   -14469   -15138 
  -14540   -12564   -10468   -10240   -10921   -10978   -10879   -10641 
  -10927   -12366   -13154   -12511   -10774    -7051    -2353    -1325 
   -4643    -5379     -959     3985     6773     6898     5983     7566 
   10849    12318    13776    16834    15822    10397     8544    12009 
   16465    20317    22698    21632    19968    21982    25914    27865 
   27225    26641    26522    25337    23255    20161    17771    17088 
   15417    11797     8272     6869     6895     6677     5639     4745 
    6367     8633     7795     5078     1863    -2221    -5787    -7204 
   -6876    -5552    -2115     3160     9317    16661    21353    20058 
   17043    17939    22269    23362    19683    19210    22733    23027 
   22587    26075    27884    26411    27267    28181    25180    22327 
   20447    16269    11390     8211     6607     5120     3263     3540 
    4709     2693      451     1317     1715      242     -458    -1306 
   -4088    -5697    -4414    -2977    -1678      473     2817     5699 
    8998    11146    11847    12314    13208    13756    12842    10634 
    8695     7842     7086     6486     6844     7052     7004     6320 
    3018     -471     -574     1862     4243     4610     3553     3321 
    5566     8976    10883    12751    15180    16345    17748    20899 
   24392    26466    27002    26194    24433    24067    26398    28173 
   24173    15473     8589     5380     4851     6521     7738     7509 
    6838     4649     -587    -7525   -11656   -11197   -10566   -11783 
  -10711    -6110    -1240     1919     4246     6732     8585    11085 
   14464    15761    16067    18068    20507    19513    15534    15158 
   18610    21130    24108    28130    29422    26399    22690    24279 
   28837    28125    20993    11974     3672    -1905    -3016    -4353 
   -7960    -8194    -4065     2232     8784    12273    11024     5705 
     519      600     4834     8892    11305     9741     3367      145 
    5173    11100    12029     9677     7742     8204     9339    11969 
   16506    17683    13048     5926     2434     4305     7335     9440 
    8696     5170     3950     5046     4170      829    -2303    -2320 
    -651    -1023    -2929    -4845    -5774    -4662    -4751    -9149 
  -14151   -14341    -9979    -7383   -11684   -19927   -25765   -26614 
  -22792   -17872   -16355   -16879   -16304   -15113   -13419    -9529 
   -4441    -1949    -2067     -860     1910     2110     -471     -817 
    2182     4843     6971    11074    15939    19517    22916    25619 
   26244    26914    27307    24361    20499    20506    22122    19919 
   15614    13005    12416    15860    23198    28810    29967    29698 
   31282    34988    39116    43697    48680    48459    41096    35525 
   36913    40273    41635    40386    35872    30999    30207    32157 
   33749    34048    32139    29426    26459    21129    15353    12220 
   10126     6694     2198    -1399     -873     4813    10676    11540 
   10466    12512    14299    11663     7780     7128    10959    14742 
   13582    12087    12797    11149    10077    12876    14414    13228 
   12847    13674    14720    16248    16500    12939     6639     1591 
    -319    -2095    -6210   -10997   -13863   -15538   -19267   -23382 
  -24740   -23949   -20174   -16254   -16968   -18815   -19253   -20347 
  -20972   -19059   -15223   -12142   -11610   -12243   -11620    -8856 
   -5130    -2843    -2539    -1891       26      723    -1984    -5968 
   -8167   -10277   -13450   -13684    -9277    -3829     -250     1947 
    3982     5537     6931     8957    10561    11437    11957    12434 
   14336    17398    18826    17270    15731    16887    18978    19058 
   15336    10582     9588    11901    14972    17712    19030    18405 
   16655    16036    18254    20122    18249    16529    18638    22341 
   24882    25418    25046    24741    23902    22591    20480    17535 
   16533    18189    20693    23749    25609    25071    24946    26264 
   27123    26727    25259    23763    23901    25657    27279    27045 
   24571    21209    18438    16433    14937    14189    13772    11987 
    8503     5936     6356     8160     8085     5477     3616     5276 
    8588    10090     8905     6570     4800     3584     2991     4266 
    6066     5402     2665      477     -274       66     2712     8058 
   12317    13066    12058    10100     7911     6619     4475      178 
   -4577    -7031    -5370    -1677     -230    -1376    -2331    -2234 
   -1035      594      151    -2247    -4410    -4595    -2010      148 
   -1328    -4659    -6096    -3562      968     2845      756    -1964 
   -2414     -115     4217     7608     6947     3878     2030     2621 
    5005     6836     6733     5998     5371     4829     3943     1580 
   -1406    -3083    -3423    -2713      116     5031     8564     9068 
   10782    15985    21473    24957    25596    21783    16020    13440 
   13434    13205    11707     7934     3933     2684     4578     8180 
    9700     7041     3693     4223     7810     9289     6986     4819 
    6265     9956    12899    14662    14966    13697    13303    15447 
   18036    18609    17885    16366    13300    10134     9442    11522 
   12902    10898     7985     7420     8244     7662     5671     3731 
    2431     1949     1300     -911    -3048    -1258     3315     5029 
    3495     3179     5170     6769     6656     5466     3628     1024 
   -2384    -3897    -2391    -3360    -8375   -11507   -11352   -12179 
  -14979   -16555   -15047   -11507    -7493    -3772    -1746    -1941 
   -1249      489     -368    -1996    -1444    -1023    -1573    -1056 
    1326     5886    10478    11817    12049    13954    15269    14631 
   13428    11464     9032     8424     8358     5632     2468     2927 
    5793     6989     5228     3745     5668     8340     8384     6917 
    5238     3786     2805     1773     1833     3365     4087     3068 
    1159       21     1080     3114     4080     4080     4500     6144 
    8659    11655    15196    18550    21489    25001    28662    31761 
   34476    36063    36750    37114    35405    32058    30070    28911 
   26661    25001    25775    26761    26159    26948    30864    33998 
   33898    33102    32994    32516    31494    30247    28601    26324 
   23023    18167    12724     9081     8135     8910    10287    11543 
   12184    11574     9601     7241     4957     2209     -611    -2186 
   -1837       -7     1378      563    -1657    -2972    -1752     1530 
    4608     6163     6119     4547     3294     3872     4072     1776 
   -2426    -7887   -13193   -14927   -13742   -14604   -16642   -15992 
  -14215   -12632    -9541    -5653    -3521    -2940    -1527      665 
    1142    -1232    -5523    -9722   -10916    -7353    -1599     1089 
    -992    -3675    -2373     2323     6509     8484     9184     9195 
    8931     8939     8954     9176     9967    10617    11133    11231 
    9868     8617     8138     6141     4088     4498     4658     3326 
    3340     4044     2773      766      700     2798     5280     7274 
    8828     8732     7350     7888    10946    13977    16255    18066 
   18740    19129    20820    23028    23625    22373    20893    20079 
   19877    19789    19329    19439    21433    24588    27301    28970 
   29201    28494    28159    28109    27599    26097    23315    20660 
   20059    20273    18712    15980    13478    10926     9065     9179 
    9960     8599     5255     3272     3795     4476     3929     3188 
    3869     7020    12112    16923    19346    19613    20131    21979 
   23558    23900    23836    23204    21161    18985    18287    18011 
   17093    17806    21831    25855    26455    25724    26803    28387 
   28163    26585    24839    22814    20022    17606    17196    18150 
   18470    16672    12848     9129     7541     7680     7400     5553 
    3172     1836     1652     1488      820      -89    -1035    -2182 
   -3780    -5244    -6015    -7188    -9776   -12309   -13435   -14764 
  -17329   -19092   -18369   -15968   -13270   -10578    -8323    -7548 
   -7586    -6097    -2477     1106     3218     4601     4890     3865 
    4447     6931     7065     5340     6659    10592    13675    15819 
   17798    18625    17302    15231    15546    18201    18567    14525 
   10212     9601    11832    12561     9020     4351     2711     4120 
    6578     7892     6688     4050     2581     3170     4233     4630 
    4620     3609     1266       37     2123     6717    10754    11143 
