Origin Time       2016/04/16 01:25:00
Lat.              32.753
Long.             130.762
Depth. (km)       12
Mag.              7.3
Station Code      KGS010
Station Lat.      31.7123
Station Long.     130.2735
Station Height(m) 16
Record Time       2016/04/16 01:25:28
Sampling Freq(Hz) 100Hz
Duration Time(s)  180
Dir.              N-S
Scale Factor      3920(gal)/6182761
Max. Acc. (gal)   33.361
Last Correction   2016/04/16 01:25:28
Memo.             
[...]
  -10160    -9543    -9131    -8647    -7760    -6314    -4537    -2587 
    -340     1928     3430     3899     3845     3628     3043     1956 
     788      192      650     2073     3948     6193     8837    11034 
   11432     9306     5031      -32    -4023    -5733    -5348    -3803 
   -2098    -1056    -1034    -1896    -2958    -3230    -2503    -1675 
   -1704    -2993    -4923    -5704    -4006     -214     4536     9147 
   12353    12855     9846     3874    -2777    -7410    -8679    -6914 
   -3244      830     3342     3013      402    -3118    -6449    -8840 
  -10139   -10552   -10279    -9623    -8706    -7413    -5685    -3542 
   -1248      743     2085     2501     1798       43    -2273    -4158 
   -4621    -3593    -1935     -296     1240     2390     2775     2653 
    2592     2904     3874     5679     7814     9271     9474     8618 
    6990     4673     2023     -176    -1171     -795      302     1201 
    1481     1168      415     -306     -218      974     2774     4549 
    5948     6811     7066     6771     5983     4530     2350     -140 
   -2182    -2904    -1921       90     2089     3641     4698     5124 
    4814     4136     4003     5003     6717     8447    10058    11751 
   13562    15128    16021    16321    16054    14530    11439     7697 
    4589     2994     3246     4905     6839     7823     7076     4607 
    1390     -947     -927     1737     5625     8688     9624     8004 
    4237     -314    -4023    -5896    -5890    -4919    -4485    -5631 
   -8097   -10684   -12188   -11905    -9608    -5650    -1245     1915 
    2576      603    -2886    -6002    -7139    -6080    -3972    -2178 
   -1535    -2338    -4291    -6638    -8572    -9355    -8628    -6951 
   -5356    -4349    -3852    -3619    -3115    -1574     1237     4409 
    6261     5493     2273    -1865    -5412    -7787    -8992    -9184 
   -8532    -7098    -5158    -3496    -2638    -2140    -1262      142 
    1675     2961     4018     4922     5302     4642     2843      213 
   -2653    -5079    -6794    -7860    -8184    -7734    -6839    -5702 
   -4283    -2963    -2397    -2709    -3406    -4054    -4833    -6100 
   -7645    -8873    -9291    -8616    -6852    -4231    -1086     1999 
    4238     5083     4600     3663     3614     5284     8405    12091 
   15738    19146    21823    22992    22315    20081    17224    15049 
   14102    13723    12990    11608    10060     8900     7990     6851 
    5359     3793     2498     1614     1058      689      477      407 
     319      -85    -1119    -2528    -3566    -3994    -3990    -3454 
   -2089      220     3001     5376     6803     7131     6300     4445 
    2035       76     -319     1022     3248     5346     6685     7047 
    6404     4708     2156     -555    -2772    -4483    -5972    -7443 
   -8930    -9972    -9926    -8821    -7192    -5468    -4165    -3933 
   -4875    -6363    -7573    -7838    -6736    -4093     -247     3661 
    6353     7260     6306     3760      580    -1960    -3044    -2451 
    -638     1216     1902      999    -1025    -3206    -4400    -3853 
   -2009      -83     1295     2073     2148     1703      957     -316 
   -2018    -3637    -4931    -5675    -5770    -5560    -5128    -4270 
   -3162    -1972     -693      187      163     -250        7     1412 
    3496     5425     6698     6972     5813     3149     -450    -4005 
   -6668    -8177    -8649    -8261    -7325    -6099    -4734    -3462 
   -2214     -585     1515     3879     6142     7619     7843     7119 
    6166     5618     5650     5789     5540     4944     4207     3404 
    2622     2028     1709     1709     2150     2883     3491     3947 
    4566     5381     6086     6418     6611     7312     8785    10646 
   12391    13718    14440    14437    13785    12602    10821     8501 
    6199     4594     3855     3594     3407     3203     2916     2339 
    1370       85    -1344    -2651    -3653    -4291    -4234    -3008 
    -820     1408     2636     2102     -138    -3143    -5939    -8044 
   -9248    -9277    -7810    -5006    -1649     1526     4152     5951 
    6733     6571     5671     4305     2839     1444       23    -1320 
   -2370    -3344    -4530    -5522    -5650    -4943    -4061    -3648 
   -3959    -4659    -5110    -4940    -3971    -2044      549     2909 
    4093     3715     2037     -407    -3075    -5331    -6477    -6222 
   -4994    -3583    -2556    -2030    -1700    -1066       53     1302 
    2261     2753     2700     2157     1469     1089     1347     2367 
    3971     5549     6208     5610     4492     3995     4935     7529 
   11032    13915    14935    13862    11211     7670     3868      364 
   -2395    -4203    -5097    -5443    -6155    -8085   -10934   -13665 
  -15729   -17208   -18233   -18560   -17707   -15584   -12731    -9865 
   -7396    -5457    -4372    -4524    -5573    -6344    -5661    -3181 
     464     4190     7167     9112    10002     9815     8831     7798 
    7403     7891     9189    10990    12903    14850    16909    18664 
   19468    19187    17874    15287    11347     6510     1565    -2514 
   -4916    -5575    -5184    -4724    -4909    -5740    -6740    -7504 
   -7583    -6354    -3606      136     4023     7295     9496    10643 
   11133    11258    10959    10162     9042     7885     6924     6265 
    5859     5578     5263     4643     3445     1802      170    -1216 
   -2396    -3310    -3932    -4519    -5246    -6041    -6954    -8206 
   -9847   -11381   -11981   -11368    -9837    -7630    -5105    -2813 
   -1124     -343     -545    -1203    -1780    -2182    -2331    -2086 
   -1429     -343     1136     2693     3702     3564     2453     1422 
    1352     2291     3734     5089     6113     6813     6953     6134 
    4299     1857     -612    -2682    -4190    -5267    -6152    -6809 
   -7104    -7160    -7157    -7196    -7368    -7662    -8151    -8999 
   -9989   -10458    -9896    -8481    -6840    -5311    -3934    -2984 
   -2889    -3708    -4909    -5697    -5469    -3928    -1140     2382 
    5835     8423     9626     9256     7389     4547     1779      168 
      22      659     1158      988      -10    -1537    -3078    -4455 
   -5538    -5980    -5666    -4641    -2878     -582     1784     3868 
    5469     6397     6537     5727     3772     1041    -1391    -2504 
   -1878      337     3525     6815     9339    10458    10119     9070 
    8422     8823    10073    11347    11859    11453    10365     8747 
    6870     5247     4207     3676     3340     2925     2384     1790 
    1308     1351     2229     3768     5644     7523     8751     8625 
    7129     4980     2924     1386      526      167      -23     -118 
    -102     -212     -658    -1294    -1812    -1998    -1884    -1867 
   -2426    -3555    -4733    -5437    -5502    -5100    -4633    -4659 
   -5628    -7628   -10410   -13356   -15584   -16601   -16577   -15843 
  -14623   -13284   -12411   -12312   -12628   -12631   -11696    -9614 
   -6865    -4351    -2678    -1960    -1898    -1882    -1499     -761 
     187     1117     1616     1282      129    -1345    -2632    -3479 
   -3751    -3540    -3285    -3489    -4405    -5984    -7872    -9462 
  -10078    -9246    -6961    -3777     -527     2092     3915     5444 
    7341     9790    12445    14728    16191    16714    16401    15554 
   14847    15084    16600    19017    21517    23189    23465    22446 
   20656    18625    16706    14921    12944    10336     6961     3209 
    -107    -2000    -1843       97     2902     5629     7644     8879 
    9741    10404    10679    10553    10115     9194     7480     4691 
     859    -3116    -5724    -6062    -4413    -1498     2154     5897 
    8758     9895     9144     7105     4801     3153     2287     1398 
    -524    -4003    -8821   -14167   -19094   -22823   -25015   -25913 
  -26098   -26430   -27770   -30087   -32443   -34109   -35174   -36054 
  -36768   -37062   -36905   -36444   -35864   -35305   -34647   -33676 
  -32413   -30888   -28815   -26102   -23219   -20538   -18173   -16291 
  -14781   -13040   -10405    -6519    -1447     4165     9212    12776 
   14624    15011    14349    13188    12111    11489    11443    11710 
   11703    11156    10383     9892    10063    11005    12666    15119 
   18402    22294    26523    30898    35265    39471    43120    45632 
   46626    46012    43959    40913    37557    34670    32751    31768 
   31262    30552    29137    26950    24282    21625    19436    17874 
   16699    15701    15062    14870    15109    15961    17219    18298 
   18809    18347    16747    14657    12955    12057    12030    12735 
   13848    14983    15574    14968    12878     9409     4837     -335 
   -5491   -10342   -15003   -19436   -23118   -25225   -25036   -22517 
  -18425   -13648    -8801    -4341     -506     2815     5641     7380 
    7161     4450     -731    -7724   -15418   -22580   -27915   -30559 
  -30730   -29226   -26627   -23478   -20408   -17768   -15563   -13506 
  -11122    -8051    -4183      227     4315     7018     7862     7037 
    5098     2664       55    -2710    -5544    -7923    -8911    -7758 
   -4546     -206     4235     8044    10464    11042    10016     7820 
    4853     1483    -2204    -6035    -9519   -12463   -14861   -16195 
  -15964   -14436   -12344   -10496    -9398    -9011    -9119    -9414 
   -9324    -8195    -5616    -2034     1289     3570     5084     6459 
    8026     9528    10200     9438     7295     4243      788    -2789 
   -6383    -9723   -12603   -15279   -17754   -19389   -19711   -18559 
  -15905   -12106    -7725    -3421       84     2465     3751     3851 
    2638      234    -3324    -8220   -14238   -20534   -26043   -29720 
  -30746   -28915   -24701   -18927   -12603    -6868    -2553      202 
    1537     1396     -145    -2614    -5549    -8575   -11245   -13328 
  -14806   -15690   -15956   -15231   -13225   -10373    -7200    -3719 
     285     4800     9264    12709    14428    14456    13284    11277 
    8694     6006     3663     1742      170     -986    -1642    -1748 
   -1138      243     2131     4171     5844     6492     6145     5543 
    5145     5284     6456     8746    12190    16893    22316    27439 
   31245    33099    33253    32603    31734    30797    29998    29177 
   27791    25664    22792    19333    15917    12911    10076     7142 
    3844       73    -3658    -6615    -8231    -8322    -7323    -5450 
   -2662      597     3888     6744     8643     9738    10365    10645 
   10835    11244    12189    13686    15299    16758    18189    19794 
   21277    21810    20962    18806    15670    12362     9498     7200 
    5583     4679     4525     5062     5711     5869     5333     4132 
    2802     2213     2774     4365     6574     8796    10817    12926 
   15469    18811    22871    26706    29166    29690    28533    26494 
   24383    22477    20381    17472    13320     7874     1637    -4262 
   -8622   -11167   -12545   -13516   -14474   -15181   -15331   -15425 
  -16379   -18724   -22337   -26503   -30288   -32904   -33805   -32815 
  -30098   -26126   -21835   -18331   -16204   -15425   -15811   -16973 
  -18278   -19209   -19340   -18520   -17021   -15016   -12637   -10327 
   -8421    -6892    -5519    -3986    -2221     -551      564      583 
    -987    -4083    -8287   -13312   -18729   -24006   -28843   -32854 
  -35518   -36468   -35374   -32189   -27523   -22234   -16977   -12127 
   -7789    -3978     -683     2149     4436     6059     6948     6912 
    5631     2925    -1072    -5977   -11244   -16224   -20332   -23223 
  -24759   -24873   -23838   -22456   -21502   -21100   -20821   -20215 
  -19126   -17604   -15678   -13173    -9812    -5586     -964     3392 
    7109    10154    12480    13971    14735    15128    15481    16147 
   17494    19620    22562    26429    31090    36147    40867    44443 
   46538    47159    46333    43995    40240    35659    30829    25988 
   21559    17992    15461    14219    14363    15401    16625    17535 
   17764    16895    14682    11313     7171     2727    -1530    -5444 
   -9052   -12303   -15106   -17382   -19389   -21415   -23291   -24935 
  -26285   -27040   -27225   -27056   -26561   -25810   -24915   -23849 
  -22320   -19886   -16386   -12027    -7246    -2564     1742     5653 
    9069    11866    14053    15619    16518    16948    17348    18154 
   19506    21043    22467    23901    25322    26513    27393    28062 
   28632    29168    29747    30309    30767    31123    31330    31354 
   31236    30952    30346    29268    27610    25212    21997    18166 
   13955     9460     5060     1314    -1736    -4562    -7688   -11391 
  -15571   -19886   -23893   -27116   -29338   -30740   -31515   -31603 
  -30949   -29842   -28796   -27967   -27049   -25793   -24135   -22119 
  -19768   -16808   -13135    -9256    -5784    -3078    -1271     -142 
     844     2167     3965     5994     7842     9223    10248    11258 
   12353    13534    14821    16127    17633    19514    21342    22391 
   22075    20311    17790    15618    14657    15240    17257    20295 
   23880    27559    30662    32500    32889    32095    30435    28100 
   25180    21537    16901    11439     5664      -48    -5328    -9781 
  -13209   -15567   -16892   -17244   -16746   -15931   -15842   -17429 
  -20992   -26218   -32285   -38178   -43184   -46880   -49133   -50251 
  -50761   -51142   -51654   -52072   -51968   -51436   -50723   -49405 
  -47175   -44473   -41564   -38586   -36107   -34374   -33033   -31963 
  -31235   -30413   -29209   -27932   -26573   -24753   -22392   -19719 
  -16933   -14178   -11658    -9612    -8277    -7680    -7567    -7711 
   -8075    -8575    -9066    -9522    -9763    -9376    -8279    -6767 
   -5068    -3339    -1693      -25     1782     3863     6577    10060 
   14108    18496    22949    27190    30922    33893    36171    38002 
   39593    41026    42238    43137    43817    44488    45172    45763 
   46231    46588    46867    47028    46916    46462    45499    43611 
   40582    36316    30592    23523    15492     6731    -2345   -10871 
  -18058   -23688   -27898   -30673   -31929   -31872   -30689   -28352 
  -25242   -22082   -19317   -17267   -16101   -15575   -15261   -14707 
  -13531   -11710    -9417    -6576    -3119      623     4361     8264 
   12631    17449    22300    26690    30359    33168    35213    36933 
   38779    40893    43077    45203    47317    49070    49930    49810 
   48814    47098    44911    42261    39054    35549    32263    29460 
   27019    24678    22110    18945    14907    10052     4755     -674 
   -6031   -11146   -15931   -20219   -23891   -27048   -29715   -31680 
  -32664   -32613   -31872   -30929   -30097   -29518   -29133   -28713 
  -28147   -27394   -26392   -25341   -24570   -24231   -24452   -25298 
  -26403   -27315   -27826   -27694   -26827   -25314   -23212   -20684 
  -17755   -14159    -9784    -4901       59     4627     8242    10456 
   11225    10919    10130     9333     8681     8084     7326     6310 
    5117     3838     2514     1092     -369    -1688    -2868    -4009 
   -5047    -5847    -6348    -6431    -6176    -6092    -6683    -8113 
  -10156   -12336   -14257   -15582   -15963   -15248   -13641   -11492 
   -8909    -5847    -2590      269     2281     3203     3038     2093 
     500    -1566    -3665    -5578    -7008    -7446    -6895    -5608 
   -3608    -1222     1032     3015     4556     5545     6386     7219 
    7727     7930     7968     7968     8397     9556    11201    12844 
   14066    14601    14209    12936    11216     9533     8419     8200 
    8655     9388    10153    10861    11530    12087    12391    12474 
   12409    12317    12487    13153    14423    16190    18156    20095 
   21801    22930    23110    22207    20409    17871    14562    10530 
    6022     1510    -2356    -5076    -6616    -7412    -7954    -8511 
   -9160    -9741    -9961    -9652    -8882    -7951    -7228    -6767 
   -6362    -5913    -5431    -4952    -4652    -4789    -5490    -6753 
   -8517   -10705   -13235   -15878   -18495   -21107   -23446   -25212 
  -26343   -26663   -26103   -24994   -23714   -22478   -21422   -20677 
  -20311   -20196   -20002   -19406   -18251   -16473   -14177   -11742 
   -9544    -7712    -6350    -5600    -5287    -4840    -3749    -1837 
     809     3748     6473     8847    10865    12437    13465    13904 
   13884    13555    13008    12424    11982    11726    11658    11810 
   12246    13203    15010    17693    20910    24284    27501    30337 
   32763    34786    36415    37846    39346    40866    42039    42587 
   42513    42030    41413    40749    39851    38526    36737    34566 
   32108    29451    26738    24013    21214    18418    15639    12681 
    9519     6375     3537     1292     -150     -748     -689     -233 
     309      516      208     -511    -1580    -2936    -4265    -5259 
   -5911    -6235    -6171    -5785    -5272    -4879    -4809    -5204 
   -6171    -7611    -9223   -10780   -12144   -13276   -14297   -15379 
  -16689   -18356   -20182   -21683   -22572   -22874   -22714   -22160 
  -21338   -20510   -19938   -19839   -20366   -21518   -23057   -24749 
  -26451   -27828   -28456   -28139   -27070   -25749   -24534   -23435 
  -22428   -21635   -21001   -20044   -18456   -16340   -13671   -10507 
   -7300    -4382    -1745      783     3430     6169     8757    11157 
   13354    14986    15782    15841    15263    14303    13446    12834 
   12219    11329     9896     7782     5163     2343     -474    -3139 
   -5481    -7353    -8712    -9633   -10144   -10231   -10055    -9833 
   -9600    -9271    -8818    -8315    -7924    -7789    -7672    -7191 
   -6372    -5271    -3636    -1446      959     3226     5149     6772 
    8179     9285    10084    10657    10885    10535     9597     8257 
    6640     4701     2408      -48    -2496    -4990    -7503    -9879 
  -12172   -14374   -16141   -17224   -17511   -16756   -14822   -11837 
   -8067    -3885      335     4320     7878    10861    13333    15570 
   17753    20073    22737    25592    28358    30957    33350    35402 
   36941    37955    38635    39069    39134    38744    37775    35954 
   33374    30515    27535    24280    20682    16666    12148     7264 
    2271    -2618    -7145   -11116   -14533   -17455   -19962   -22177 
  -24036   -25318   -26025   -26282   -26147   -25821   -25547   -25279 
  -24824   -24101   -23085   -21772   -20212   -18501   -16802   -15252 
  -13946   -12992   -12304   -11724   -11310   -11070   -10830   -10433 
   -9612    -7964    -5458    -2508      572     3581     6294     8770 
   11143    13169    14630    15629    16218    16369    16211    15874 
   15469    15120    14776    14507    14351    13886    12917    11708 
   10453     9221     8065     7061     6305     5945     6105     6661 
    7253     7609     7637     7318     6741     5971     4855     3296 
    1533     -243    -1959    -3407    -4590    -5670    -6643    -7588 
   -8585    -9407    -9735    -9485    -8712    -7445    -5827    -4132 
   -2493     -950      396     1528     2373     2591     1962      693 
    -876    -2562    -4230    -5693    -6843    -7709    -8406    -9004 
