Origin Time       2016/04/16 01:25:00
Lat.              32.753
Long.             130.762
Depth. (km)       12
Mag.              7.3
Station Code      KGS036
Station Lat.      31.8360
Station Long.     129.8678
Station Height(m) 6
Record Time       2016/04/16 01:25:29
Sampling Freq(Hz) 100Hz
Duration Time(s)  128
Dir.              N-S
Scale Factor      3920(gal)/6182761
Max. Acc. (gal)   40.704
Last Correction   2016/04/16 01:25:29
Memo.             
[...]
   -5296    -6775    -7586    -7518    -7186    -6907    -6788    -6963 
   -6966    -6264    -5277    -4525    -3958    -3715    -3857    -3900 
   -3796    -4069    -4904    -6160    -7555    -8526    -8716    -8457 
   -8285    -8162    -7536    -6162    -4502    -3310    -3031    -3456 
   -4064    -4741    -5661    -6656    -7390    -7711    -7504    -6904 
   -6631    -7368    -8644    -9127    -8213    -6421    -4766    -4283 
   -4796    -4911    -3977    -2361     -819     -607    -1957    -3546 
   -4716    -5614    -6186    -6925    -8259    -9514   -10254   -10901 
  -11531   -11925   -12456   -13443   -14276   -14234   -13310   -11724 
   -9722    -7622    -5400    -2883     -128     2738     5346     6948 
    6945     5324     2663     -142    -2533    -4637    -6754    -8835 
  -10487   -11509   -12313   -13030   -13042   -11945    -9821    -7406 
   -6162    -6476    -7079    -6956    -6065    -4988    -4514    -4729 
   -5111    -5223    -4883    -4153    -3087    -1834     -685      176 
     207    -1266    -3934    -6786    -8975    -9919    -9646    -9097 
   -9230   -10081   -10921   -10973   -10132    -8953    -7690    -6233 
   -4786    -3463    -2187    -1512    -2094    -3695    -5594    -7221 
   -8523   -10065   -11952   -13163   -12875   -11254    -8762    -5957 
   -3523    -1715     -416      307      226     -771    -2553    -4649 
   -6406    -7314    -7274    -6690    -6181    -6143    -6461    -6763 
   -7128    -8026    -9344   -10171   -10035    -9540    -9192    -8787 
   -8279    -7935    -7647    -6861    -5261    -3317    -1683     -401 
     761     1682     1881      931    -1001    -3189    -5007    -6398 
   -7903   -10013   -12113   -13064   -12814   -11999   -10971   -10040 
   -9107    -7540    -5523    -3938    -3044    -2881    -3500    -4267 
   -4764    -5474    -6432    -6909    -6825    -6828    -7121    -7298 
   -6951    -5977    -4895    -4686    -5555    -6732    -7886    -9253 
  -10425   -10559    -9676    -8732    -8336    -7929    -6402    -3338 
     424     3507     5238     5791     5179     3139      -78    -3856 
   -7789   -11530   -14546   -16478   -17405   -17428   -16420   -14281 
  -11067    -7058    -2992      146     1848     2334     2230     2081 
    1644       94    -2560    -5100    -6620    -7743    -9534   -11795 
  -13583   -14398   -13970   -12577   -11306   -10489    -9631    -8840 
   -8230    -7548    -6948    -6730    -6977    -7498    -7674    -7035 
   -5720    -4062    -2182     -131     1840     3465     4736     5515 
    5387     4315     2545     -130    -3873    -8061   -12092   -16038 
  -19686   -22089   -22449   -20632   -17220   -13515   -10919    -9707 
   -8778    -7258    -5413    -3668    -2359    -2003    -2387    -2480 
   -1624      -80     1278     1750     1346      393     -952    -2760 
   -4911    -6944    -8598    -9758   -10256   -10037    -9114    -7931 
   -7411    -8019    -8980    -8875    -7672    -6935    -7409    -8323 
   -8989    -9323    -9247    -8822    -8372    -7913    -7096    -5675 
   -3848    -2224    -1455    -1831    -2921    -3835    -4128    -4176 
   -4440    -4690    -4519    -4082    -3865    -4342    -5684    -7467 
   -9367   -11600   -13873   -15337   -15856   -15798   -15295   -14145 
  -11912    -8543    -4662    -1298      475      491     -256     -904 
   -1241    -1097     -490       67      -50    -1252    -3384    -5454 
   -6484    -6496    -6085    -5713    -5844    -6799    -8463   -10416 
  -11859   -12007   -11092   -10036    -8936    -7126    -4639    -2275 
    -627      111      107     -253     -964    -2369    -4550    -7166 
   -9644   -11454   -12295   -12126   -10999    -8929    -6486    -4825 
   -4313    -4362    -4764    -5563    -6116    -5946    -5560    -5474 
   -5632    -5664    -5199    -4339    -3285    -2076    -1426    -2154 
   -3864    -5841    -8057   -10429   -12297   -12953   -12377   -11171 
   -9822    -8496    -7264    -6388    -6275    -6690    -6944    -6911 
   -6685    -6152    -5519    -4885    -3675    -1612      452     1417 
    1192      519      -87     -586    -1127    -1949    -3059    -4124 
   -4978    -5687    -6286    -7020    -8132    -9354   -10298   -10993 
  -11903   -13447   -15349   -16830   -17468   -17198   -15684   -12658 
   -8746    -5151    -2498     -847     -586    -1690    -2975    -3631 
   -3861    -3908    -3949    -4019    -3677    -2474     -631     1011 
    1799     1803     1500     1075     -108    -2790    -6414    -9559 
  -11501   -12427   -12869   -13458   -14272   -14503   -13580   -11936 
  -10338    -9368    -9090    -8608    -6804    -3898    -1665    -1671 
   -3611    -5822    -6971    -6887    -6415    -6309    -6224    -5765 
   -5352    -4841    -3496    -1693     -380      376      895      923 
    -106    -1938    -3285    -3341    -2764    -2709    -3903    -6612 
  -10260   -13389   -15036   -15478   -15202   -14341   -12963   -11017 
   -8800    -6994    -5397    -3576    -2233    -1915    -2380    -3603 
   -5397    -7001    -7609    -6796    -5025    -3280    -1954    -1022 
    -624     -884    -1821    -3180    -4362    -5233    -6264    -7475 
   -8408    -8999    -9563   -10309   -11080   -11360   -10943   -10428 
  -10247    -9831    -8614    -7035    -5705    -4494    -3168    -2022 
   -1507    -1785    -2826    -4495    -6278    -7534    -8085    -8014 
   -7550    -7442    -8316    -9449    -9553    -8457    -6579    -4220 
   -2226    -1272     -823     -161      547      433    -1121    -3244 
   -4405    -4507    -4511    -4901    -5404    -5452    -4889    -4087 
   -3720    -4569    -6729    -9460   -11790   -13024   -13374   -13429 
  -13110   -12269   -11217    -9927    -8068    -6184    -5386    -5612 
   -5716    -5184    -4195    -2791    -1195      135      825      454 
    -987    -2782    -4346    -5894    -7924   -10196   -11763   -12132 
  -11668   -10873    -9709    -7821    -5393    -3222    -1766     -647 
     490     1046       76    -2237    -4540    -5880    -6557    -7144 
   -7218    -5983    -3947    -2842    -3887    -6579    -9155   -10600 
  -11716   -13434   -15233   -16141   -16072   -15456   -14546   -13412 
  -11933    -9923    -7467    -4682    -1573     1291     2918     3141 
    2743     2437     2409     2285     1447     -227    -2355    -4449 
   -5874    -6323    -6294    -6332    -6408    -6499    -6729    -6855 
   -6793    -7030    -7518    -7440    -6608    -5956    -6417    -7908 
   -9589   -10836   -11559   -11916   -12025   -11619   -10346    -8563 
   -7034    -6102    -5674    -5506    -5338    -5075    -4730    -4104 
   -3131    -2171    -1312     -424      -16     -596    -1893    -3471 
   -4623    -4346    -3021    -2167    -2332    -3328    -5029    -6788 
   -8019    -9001    -9977   -10606   -10432    -9040    -6654    -4640 
   -4214    -5113    -6335    -7226    -7459    -7208    -7250    -7801 
   -8108    -7692    -6769    -5706    -4929    -4601    -4198    -3362 
   -2654    -2830    -4190    -6410    -8518    -9600    -9546    -9034 
   -8990    -9548    -9753    -8976    -7970    -7930    -9028   -10114 
   -9926    -8463    -6662    -4993    -3153     -949     1288     3088 
    3869     3023      723    -2044    -4523    -6398    -7365    -7475 
   -7339    -7406    -7655    -8036    -8546    -9039    -9295    -9062 
   -8357    -7942    -8573    -9840   -10859   -11333   -11192   -10423 
   -9409    -8737    -8693    -8880    -8693    -8121    -7197    -5515 
   -3171    -1062      -48     -340    -1380    -2306    -2613    -2025 
    -365     1754     2880     1965     -621    -3304    -4755    -5111 
   -5334    -5992    -7044    -8128    -9011    -9759   -10364   -10702 
  -10785   -10714   -10555   -10450   -10512   -10492   -10055    -9430 
   -8934    -8346    -7729    -7640    -7978    -8014    -7305    -5962 
   -4526    -3262    -1699      432     2453     3472     3418     2947 
    2385     1321     -588    -2963    -5024    -6421    -7383    -8128 
   -8813    -9834   -11438   -13099   -13834   -13402   -12628   -12112 
  -11510   -10507    -9295    -8015    -6863    -6194    -5956    -5902 
   -5955    -5777    -4946    -3619    -2160     -769      189      542 
     638      444     -538    -2226    -4259    -6624    -8943   -10419 
  -10814   -10492    -9731    -8451    -6625    -4815    -3674    -3069 
   -2463    -1973    -2169    -2960    -3789    -4611    -5564    -6417 
   -7025    -7451    -7745    -8150    -8998   -10278   -11522   -12135 
  -11870   -10767    -8965    -7005    -5648    -5197    -5532    -6317 
   -7005    -7315    -7269    -6836    -6144    -5276    -4005    -2354 
    -806      263      670      110    -1387    -3112    -4691    -6438 
   -8179    -9178    -9278    -8830    -8101    -7282    -6349    -5265 
   -4356    -3823    -3610    -3532    -3005    -1805     -803     -723 
   -1373    -2499    -4101    -6188    -8670   -11087   -12859   -13845 
  -14084   -13555   -12595   -11678   -10608    -8919    -6966    -5700 
   -5555    -6099    -6673    -7131    -7581    -7550    -6361    -4300 
   -2303     -763      513     1761     3012     3752     3090      891 
   -2030    -4967    -7484    -9309   -10745   -11990   -12767   -13138 
  -13119   -12375   -11243   -10434   -10190   -10262    -9696    -7742 
   -5278    -3606    -2703    -1746     -338     1149     2078     2180 
    1631      813       29     -747    -2025    -4394    -7442    -9821 
  -10732   -10551   -10191   -10385   -11291   -12369   -12805   -12196 
  -10589    -8688    -7700    -7677    -7559    -7027    -6273    -5186 
   -4033    -3451    -3528    -3833    -4147    -4571    -5169    -5786 
   -6031    -5591    -4497    -2874    -1128     -129     -430    -1804 
   -3716    -5707    -7518    -9141   -10613   -11616   -11639   -10895 
  -10216    -9954    -9838    -9226    -7558    -5333    -3671    -2819 
   -2219    -1641    -1373    -1727    -2884    -4941    -7791   -10859 
  -13175   -14308   -14674   -14452   -13319   -11254    -8632    -6081 
   -4350    -3662    -3465    -3195    -3091    -3712    -4749    -5229 
   -4827    -4081    -3484    -2940    -2056     -691      670     1078 
     123    -1586    -3389    -5253    -7368    -9659   -11526   -12311 
  -12012   -11072   -10085    -9733   -10154   -10827   -11291   -11404 
  -11311   -11199   -11062   -10946   -10658    -9587    -7794    -6170 
   -5075    -3943    -2192       10     2011     3541     4669     5115 
    4452     2755      547    -1668    -3668    -5399    -6714    -7518 
   -8048    -8532    -8943    -9325    -9725    -9918    -9730    -9373 
   -9311    -9741   -10216   -10247    -9883    -9090    -7596    -5701 
   -4322    -4206    -5220    -6315    -6776    -7043    -7502    -7710 
   -7340    -6653    -6149    -6226    -6706    -6852    -5878    -3392 
      50     3078     4521     3972     1918     -483    -2458    -4096 
   -5660    -7224    -8728    -9898   -10538   -10849   -11234   -11986 
  -13224   -14777   -16015   -16237   -15186   -13085   -10394    -7376 
   -4128    -1046     1378     2956     3877     4598     5133     5057 
    4698     5065     6452     8181     9411     9655     8719     6473 
    2927    -1508    -6194   -10860   -15557   -20023   -23841   -26871 
  -29102   -30541   -31147   -30926   -30041   -28474   -26057   -23021 
  -20195   -18219   -16488   -13980   -10905    -8217    -6214    -4449 
   -2389       44     2461     4492     6176     7829     9522    10957 
   11864    12056    11144     8824     5411     1579    -2109    -5222 
   -7724   -10112   -12860   -15968   -18855   -20505   -20271   -18498 
  -15976   -13133   -10101    -7092    -4505    -2855    -2457    -3180 
   -4459    -5832    -7474    -9362   -10995   -12258   -12875   -12285 
  -10781    -9091    -7444    -5767    -3879    -1533     1140     3634 
    5650     7190     8283     8931     9018     8587     8042     7424 
    6481     5646     5496     5850     6102     5683     4413     2274 
   -1083    -5572   -10348   -14978   -19766   -24791   -29346   -32510 
  -34101   -34560   -34350   -34016   -33909   -33651   -32375   -29397 
  -24687   -18641   -11699    -4420     2552     8583    12905    14881 
   14814    14064    13733    13544    12530    10468     8245     6648 
    5396     3903     2135      326    -1838    -4825    -8020   -10757 
  -13497   -16314   -18779   -21192   -23505   -25008   -25695   -25720 
  -24718   -22776   -20536   -18534   -17074   -16493   -17411   -20101 
  -23927   -27984   -31435   -33399   -33234   -30802   -26343   -20096 
  -12187    -2933     7010    16964    26434    34706    40759    43810 
   43815    41423    37386    32148    26307    21156    17724    15468 
   12998     9465     4835     -315    -5595   -11603   -19042   -27174 
  -34528   -40806   -46598   -52165   -57374   -61633   -64268   -65302 
  -64813   -62590   -58916   -54324   -49051   -42991   -35461   -25727 
  -13919     -961    12171    24860    36364    45716    52362    56130 
   57454    57451    56448    54057    50705    46822    42385    38162 
   34815    31706    27596    21592    13827     4923    -4749   -14636 
  -24143   -33275   -42329   -51050   -58608   -64430   -68190   -69310 
  -67332   -62308   -54107   -42399   -28411   -14602    -2220     8445 
   16942    23095    26818    28007    27553    26959    26097    24198 
   22324    21680    23325    28315    34178    37435    37917    35843 
   30955    23636    13942     2469   -10066   -23738   -37871   -51001 
  -61439   -67695   -70149   -70260   -68146   -62970   -54509   -43406 
  -30626   -17348    -5025     5091    12219    16436    18639    19303 
   18024    14691    10577     7483     6190     6783     8644    10660 
   13252    17409    22783    28608    33624    36624    37860    37461 
   34617    28938    20520     9763    -2367   -14302   -23834   -29533 
  -31782   -31631   -31164   -33069   -37054   -40523   -42448   -43284 
  -43588   -43614   -43149   -42521   -42499   -43122   -43491   -41687 
  -36188   -27717   -17895    -7625     2736    13329    23708    32102 
   37109    38472    36754    33362    29963    27854    26988    25561 
   22170    17408    12675     8623     4908     1061    -2943    -7452 
  -13083   -19529   -25980   -31931   -37098   -41645   -45937   -50226 
  -54534   -57666   -57313   -52532   -44645   -35283   -25622   -16447 
   -7654      841     7910    12154    13246    11802     9408     8256 
    9287    11520    13509    14525    14177    12246     9456     6911 
    5042     3919     3393     2585      528    -2374    -5276    -8176 
  -10717   -12512   -13942   -14622   -13463   -10355    -6453    -2922 
     213     3285     6071     7909     7580     3819    -3503   -12967 
  -22448   -30480   -36391   -39902   -41623   -42582   -42691   -41169 
  -37696   -32572   -26925   -22199   -19004   -16991   -15536   -14262 
  -13106   -12184   -11362   -10190    -8248    -5057     -472     4860 
   10196    15042    19090    22308    24547    25632    25659    24654 
   22193    17593    11135     4380     -972    -3984    -5129    -5929 
   -7359    -9250   -10828   -11601   -11984   -12521   -13513   -15304 
  -17387   -18970   -20683   -23176   -25440   -26452   -26151   -24330 
  -20969   -16966   -13074    -9403    -6125    -3175     -150     2635 
    4526     5929     7334     7938     7255     5821     3612      790 
   -1009     -495     1910     5253     8622    11284    13488    15571 
   16471    14650     9770     2675    -5604   -14244   -22230   -28327 
  -31769   -32413   -30546   -26790   -21425   -14566    -7103     -293 
    5179     9396    12547    14283    14042    11370     6553     1076 
   -3598    -6874    -8535    -8560    -7243    -5069    -2496      117 
    2530     4653     6508     8100     9102     8982     7873     6170 
    3523     -276    -5019   -10687   -16745   -22360   -26820   -28873 
  -27767   -24111   -18913   -13282    -8310    -4738    -2812    -1877 
    -834      671     2232     3490     4091     3602     2232     1020 
    1186     3060     5817     8849    12020    14827    16261    15089 
   10962     4716    -3073   -12317   -22162   -31227   -38963   -45162 
  -49186   -50581   -49173   -45166   -39188   -31698   -23123   -14046 
   -5048     3249    10020    14266    15687    14956    12787     9907 
    7262     5447     4986     6226     8324    10239    11641    12362 
   12500    11761     9164     4528    -1503    -7951   -13433   -17435 
  -20325   -21750   -21278   -19367   -16266   -12013    -6913    -1089 
    4740     9399    12587    14407    14905    13811    10251     4199 
   -2979    -9954   -15920   -20554   -24066   -26220   -26188   -23935 
  -20586   -17697   -16224   -15966   -16234   -16198   -15287   -13722 
  -11552    -8675    -5763    -3319    -1174      706     2639     5343 
    8259     9915    10098     9309     7621     5296     2910      702 
   -2020    -6072   -11231   -17061   -23202   -28513   -31800   -32918 
  -32397   -30476   -27223   -23408   -20331   -18483   -17107   -15223 
  -12253    -8361    -4530    -1387     1132     3036     4457     6050 
    8229    10498    12189    12852    12108    10064     7375     4906 
    3190     2047     1090       28    -1130    -2025    -2558    -2953 
   -3555    -4712    -6380    -8180    -9715   -11068   -12818   -15104 
  -17425   -19251   -20461   -21209   -21318   -20492   -19070   -17698 
  -16400   -15076   -14659   -16117   -19059   -22350   -24970   -26323 
  -26354   -25364   -23820   -21931   -19471   -16101   -11275    -4400 
    4237    13276    21171    26941    30286    31133    29076    23922 
   16735     9230     2555    -2973    -7759   -11922   -14815   -16321 
  -16871   -16401   -14479   -10809    -6024    -1834      635     1696 
    2011     1564     -216    -3529    -7541   -10687   -11796   -11077 
   -9536    -7551    -4787    -1179     2624     5517     6660     6177 
    4809     2922      286    -3276    -7367   -11366   -14993   -18352 
  -21573   -24239   -25267   -23761   -19726   -13971    -7544    -1188 
    4593     9054    11325    11337    10176     8934     7690     5833 
    2695    -2139    -8664   -16359   -24087   -30281   -33743   -34409 
  -33305   -31826   -30586   -29176   -27419   -25256   -21814   -16630 
  -10817    -6210    -3679    -2704    -2471    -2109     -736     1777 
    5204     9422    14052    18580    22373    24541    24569    22379 
   17698    10783     3214    -3522    -9069   -13548   -17062   -19566 
  -21256   -22514   -23084   -22793   -22105   -20916   -18873   -16712 
  -15513   -15582   -16604   -17979   -19143   -19774   -19643   -18368 
  -15358   -10324    -3684     3838    11800    19775    26585    31026 
   33065    32982    30624    26046    19435    11179     2525    -5469 
  -12669   -18575   -22322   -23473   -21885   -18242   -13946    -9747 
   -5840    -2659     -544      341     -520    -3623    -8519   -13990 
  -18830   -22453   -25068   -26772   -27017   -25234   -21489   -16480 
  -10807    -4650     1431     6442    10166    13112    15443    16612 
   15680    12354     7369     1932    -2466    -4732    -5236    -5142 
   -5136    -5358    -5124    -3478     -853     1486     2672     2408 
    1145     -742    -4028    -9404   -15791   -22036   -27889   -31695 
  -31965   -29981   -26905   -22718   -18173   -13652    -8450    -2304 
