Origin Time       2016/04/16 01:25:00
Lat.              32.753
Long.             130.762
Depth. (km)       12
Mag.              7.3
Station Code      KGS011
Station Lat.      31.5896
Station Long.     130.3490
Station Height(m) 18
Record Time       2016/04/16 01:25:30
Sampling Freq(Hz) 100Hz
Duration Time(s)  94
Dir.              N-S
Scale Factor      3920(gal)/6182761
Max. Acc. (gal)   28.879
Last Correction   2016/04/16 01:25:30
Memo.             
[...]
  -15756   -11751    -7974    -5168    -4098    -6400   -12519   -20204 
  -25375   -25971   -24518   -23790   -22517   -19176   -15479   -13721 
  -14487   -16612   -18094   -17585   -14928   -10742    -5535      863 
    8419    14726    16125    12831     8174     3108    -2375    -6414 
   -7853    -6582    -2192     4471    11130    15787    17109    14427 
    8514     1612    -4074    -7590    -8711    -6968    -1919     5256 
   10947    12298    10333     6195     -748    -8895   -16334   -23000 
  -26560   -24173   -17707   -11100    -5967    -3090    -3327    -6203 
  -10713   -15509   -18911   -20086   -19061   -16518   -13356   -10172 
   -7007    -3463     -228      978        1    -1541    -2607    -3054 
   -2100     1542     7597    13071    14892    13515    10988     7555 
    3117    -1411    -4614    -4914    -2274     1627     5026     6349 
    5092     1811    -3119    -8439   -12266   -14164   -14629   -13826 
  -11174    -5995      487     4890     4323     -806    -7250   -12826 
  -17423   -19652   -17733   -13360    -9289    -6092    -4309    -4361 
   -4890    -5447    -7274   -10410   -12924   -13222   -11938   -10066 
   -7119    -2923     1091     3348     3826     3795     3973     3945 
    3572     3356     3477     3676     3661     3350     2796     1785 
    -239    -3752    -8457   -13183   -16654   -17515   -14789    -9917 
   -5624    -2338      717     2791     2645      214    -3645    -8107 
  -12526   -15863   -16656   -14659   -11859    -9304    -5934    -2295 
    -436    -1540    -5851   -12062   -18022   -21663   -20546   -14625 
   -7237     -848     4172     7698     9059     7542     4251     1423 
     -20     -286      155      606      792     1358     2568     3129 
    1410    -2638    -7270   -11014   -13617   -14165   -11697    -7886 
   -4918    -2766    -1664    -2856    -5887    -8725   -10285   -11512 
  -13178   -13935   -12430    -9040    -5214    -2635    -2289    -4003 
   -6813   -10040   -13602   -15870   -14198    -9515    -5362    -2482 
     112     1318     -204    -3101    -5164    -6239    -7206    -7660 
   -6437    -3115     1922     7630    12270    14228    12659     7754 
    1346    -4415    -8791   -10973    -9650    -5163      334     4325 
    5165     2948     -958    -5209    -9209   -12923   -16016   -17533 
  -16842   -14221   -10252    -5829    -2507    -1582    -3231    -6606 
  -10628   -14477   -16296   -14317    -9941    -5228     -112     4608 
    6222     3513    -1651    -6866   -11466   -14782   -15135   -12214 
   -7844    -3763     -177     2784     4197     3692     1435    -2427 
   -6792    -9928   -11231   -10879    -9137    -6972    -4592     -688 
    4432     7949     8048     5962     3642     1182    -1998    -5567 
   -9011   -11967   -13533   -12528    -9187    -5351    -1961     1188 
    3671     5250     5872     4213     -482    -6541   -11745   -15266 
  -16403   -13776    -8353    -3482     -591      351    -1377    -5482 
  -10499   -15237   -18158   -17931   -15509   -12698    -9322    -4835 
    -314     2794     3844     3372     2005     -646    -4289    -7775 
  -10955   -13465   -13690   -11335    -8324    -5586    -1902     2696 
    5788     6002     4757     3555     1814     -997    -3606    -4804 
   -4916    -4550    -3090      280     4480     6990     6444     3595 
    -100    -3343    -5382    -6811    -8618   -11007   -13718   -15404 
  -14421   -11745    -9600    -8303    -7369    -6928    -7575   -10090 
  -13760   -16122   -15492   -12111    -7530    -3760    -1912    -1820 
   -2982    -4758    -6647    -8613    -9781    -8613    -5084     -531 
    3586     6191     7456     7880     6853     4006       44    -4124 
   -7240    -8177    -6845    -3547     1142     5720     8241     7274 
    2601    -4332   -10943   -15675   -18485   -18431   -15030   -10641 
   -6936    -4007    -3058    -4487    -7041    -9846   -12313   -13806 
  -13618   -11410    -8062    -4648    -1625      687     2066     2257 
    1138     -463    -1315    -1484    -2015    -2799    -2533     -458 
    3208     7101     9005     7966     5144     2321      106    -2368 
   -5348    -7682    -8531    -7853    -6554    -5961    -5729    -4856 
   -3994    -4389    -6599   -10383   -14545   -17491   -18306   -17345 
  -15376   -12710   -10354    -9772   -10598   -11485   -12074   -11984 
  -10493    -8049    -5709    -3705    -2133    -1377    -1298    -1640 
   -2821    -5194    -7518    -7558    -4739     -321     4491     8536 
   10698    11059     9887     6548     1354    -4236    -9423   -13760 
  -16425   -16171   -12301    -6624    -1571     2291     3899     1949 
   -2433    -7689   -13466   -19013   -22274   -21390   -17373   -12856 
   -8912    -6002    -4898    -5942    -9559   -16000   -23967   -30239 
  -31846   -28144   -19876    -8962     1465     9503    14345    14789 
   11474     6865     2612      437     1574     4913     8980    12831 
   15721    17134    15750    11108     5382      520    -3587    -6687 
   -7425    -5477    -1914     1718     4047     4175     1273    -4470 
  -11185   -17220   -21261   -21017   -15504    -7467     -565     3494 
    3985     1142    -3491    -8980   -15727   -23118   -28268   -29089 
  -26522   -22171   -16751   -11255    -6838    -4092    -3024    -3097 
   -3827    -4464    -3586     -301     5245    12099    18472    22535 
   23154    19947    13597     5541    -2261    -7426    -8749    -6950 
   -3824    -1174      113      -97    -1358    -2917    -4503    -5777 
   -5899    -4505    -2026      544     2264     3401     4595     4867 
    3007     -221    -3782    -7718   -11747   -15243   -17518   -17745 
  -16708   -16077   -15750   -15415   -15912   -17210   -18410   -18929 
  -18243   -15900   -12050    -7738    -4051    -1174      933     2063 
    2119     1155     -558    -2396    -3617    -4010    -4083    -4237 
   -4380    -4653    -5573    -6996    -7795    -7080    -5251    -3298 
   -1343      774     1827      661    -1679    -3327    -3158     -796 
    3256     8170    12887    15606    15335    12738     8453     2979 
   -2413    -6768   -10020   -12145   -13067   -12826   -11858   -11187 
  -11426   -12406   -14312   -17486   -21046   -23131   -22044   -17233 
  -10083    -2837     3241     7164     7075     2692    -3281    -8746 
  -13522   -17008   -17984   -16082   -12735    -9562    -6952    -5491 
   -5310    -5701    -6756    -8346    -9400    -8763    -5318     1199 
    9230    16260    20628    21840    19589    14209     7719     2721 
     430      143      483      899     1614     2586     2924     1855 
    -367    -3505    -7650   -12279   -16211   -17612   -14873    -9247 
   -4009     -399     1582      773    -2583    -5931    -7818    -8619 
   -8742    -8587    -8870   -10101   -12528   -16053   -19864   -22747 
  -23921   -23391   -21389   -17938   -13170    -7687    -2223     2762 
    6453     7799     6861     4507     1901      656     1299     3057 
    5127     6184     5258     2944     -142    -3794    -7527   -11141 
  -14460   -16525   -16231   -13409    -8560    -2235     4258     8657 
    9147     5876      843    -4078    -7422    -7729    -5035     -672 
    3455     5040     3575      542    -3220    -7458   -11276   -14214 
  -16116   -16039   -13835   -10434    -6284    -1824     2201     4661 
    4059      888    -2826    -6355    -9190   -10387    -9739    -7313 
   -4011    -1496     -173       36    -1194    -3108    -4736    -6423 
   -8858   -12232   -15597   -16926   -15788   -14126   -13158   -12900 
  -13815   -15162   -15050   -13358   -10958    -7875    -3743     1271 
    5702     7812     7677     6695     5567     4139     2390      467 
   -1523    -3333    -4616    -5311    -5733    -5780    -5010    -3524 
   -1692       18     1175     2039     2925     3752     4624     5629 
    6575     6931     5905     3336       -7    -2847    -4066    -3839 
   -3274    -3025    -3380    -4563    -6412    -8555   -10689   -12428 
  -12998   -11732    -9482    -7992    -7838    -8738   -10425   -12117 
  -12666   -11351    -8274    -4361    -1057      222     -780    -2831 
   -4860    -6799    -8321    -8193    -5641    -1896      537      581 
    -451    -1429    -3120    -5707    -7407    -7035    -4816    -1050 
    3533     7617    10414    11609    10655     7588     3788      399 
   -2943    -6663    -9909   -11550   -11362    -9821    -7887    -6708 
   -6786    -7932    -9915   -12405   -14447   -14624   -12331    -8794 
   -5817    -3932    -2975    -3205    -4810    -7140    -8784    -8809 
   -7716    -6583    -6022    -6170    -6857    -7575    -7668    -7137 
   -6900    -7533    -8592    -9737   -11035   -11854   -11033    -8153 
   -3949      226     3333     5134     5823     5759     5472     5260 
    4707     3244     1142     -751    -1628     -842     1374     3659 
    4674     4000     1919    -1268    -5032    -8088    -9534    -9676 
   -9178    -8527    -7736    -6516    -5156    -4183    -3688    -3610 
   -3910    -4653    -5969    -7581    -8740    -8863    -8279    -7953 
   -8501    -9993   -11975   -13743   -15321   -16836   -17243   -15397 
  -11612    -7337    -3717    -1039      368        1    -1767    -3825 
   -5355    -5826    -4710    -2059     1167     3959     6104     7548 
    7439     5225     1916    -1155    -3586    -5345    -6350    -6653 
   -6266    -5087    -3305    -1568     -837    -1793    -3813    -5434 
   -6054    -5997    -5347    -3886    -1775      234     1193      596 
   -1353    -3972    -6675    -9304   -11654   -13325   -14221   -14609 
  -14583   -13565   -11262    -8851    -7599    -7416    -7673    -7683 
   -6801    -5323    -4359    -4411    -4854    -4607    -3120    -1127 
     132      189    -1031    -3341    -5722    -7410    -8351    -8025 
   -6005    -3131     -837      -63     -625    -1553    -2462    -3487 
   -4239    -4412    -4539    -5288    -6498    -7216    -6892    -5793 
   -4252    -3052    -3403    -5309    -7492    -8904    -9198    -8307 
   -6307    -3797    -1729     -503     -241    -1351    -3483    -5288 
   -5996    -5812    -4981    -3570    -1713      386     2591     4639 
    5843     5620     3985     1122    -2610    -6069    -8085    -8838 
   -9160    -9212    -8867    -8062    -6679    -5242    -4781    -5495 
   -6660    -7649    -8294    -8733    -9054    -8966    -8174    -6803 
   -5353    -4441    -4361    -5120    -6635    -8206    -8790    -8065 
   -6261    -3749    -1260      352      486     -954    -3382    -5884 
   -7545    -7656    -6301    -4494    -3210    -2335    -1261     -407 
    -664    -1949    -3786    -5891    -7734    -8896    -9211    -8365 
   -6407    -4105    -2377    -1792    -2338    -3573    -5172    -7006 
   -8806    -9959    -9836    -8682    -7672    -7712    -8616    -9549 
  -10020   -10192   -10138    -9351    -7640    -5536    -3365    -1304 
     224     1274     2292     3435     4591     5211     4681     3234 
    1597      213     -825    -1644    -2468    -3447    -4596    -5840 
   -7084    -8194    -8846    -8531    -6877    -4241    -1985    -1461 
   -2741    -4945    -7296    -9187   -10055    -9990    -9789   -10221 
  -11340   -12313   -12344   -11519   -10346    -9297    -8692    -8551 
   -9094   -10718   -12877   -14067   -13044    -9763    -5477    -1769 
     439     1082     1030     1677     3712     6715     9378    10070 
    8522     5828     2922      494    -1105    -1865    -1734    -1310 
   -1607    -2923    -4859    -6661    -7778    -8383    -8657    -8519 
   -8640    -9864   -11817   -13501   -14192   -13672   -12521   -11759 
  -11807   -12054   -11693   -10560    -8985    -7589    -7115    -8032 
  -10125   -12305   -13427   -13117   -11546    -8932    -5447    -1450 
    2738     6711     9304     9674     8527     6973     5560     4684 
    4549     4965     5649     6522     7727     8969     9195     7738 
    5107     2280     -175    -2156    -3528    -3942    -2991     -719 
    1999     3940     4319     3131      690    -2678    -6343    -9726 
  -12506   -14277   -14786   -14321   -13930   -14497   -15461   -16114 
  -16823   -17621   -17937   -17527   -16422   -15038   -13856   -12696 
  -11369   -10168    -9500    -9507    -9551    -8940    -8106    -7782 
   -7761    -7194    -5520    -2953     -388     1109      900     -783 
   -3139    -5830    -8921   -11746   -12946   -11762    -8942    -5775 
   -2438     1163     4073     5527     5635     4211      977    -3101 
   -6598    -9153   -10653   -10657    -9461    -8129    -7425    -7484 
   -8119    -8856    -9267    -9182    -8230    -6327    -4058    -1658 
    1098     4132     7058     9248    10186    10286    10514    11117 
   11377    10785     9965     9770    10110    10221     9531     8254 
    6946     5468     3432     1073    -1191    -3061    -4266    -4868 
   -5232    -5745    -6940    -9268   -12657   -16787   -20864   -23236 
  -22986   -20926   -18156   -15702   -14714   -15288   -16692   -18589 
  -20967   -23779   -26849   -29661   -31475   -31904   -30925   -28450 
  -24652   -20020   -14942   -10000    -5727    -1771     2555     7318 
   12097    16190    18818    19798    19433    17811    15096    12110 
   10011     9274     9249     9048     8770     9555    12157    15818 
   18950    20487    20214    18225    14913    11259     7974     4843 
    1590    -1750    -5072    -7953    -9901   -10809   -10886   -10598 
  -10536   -11329   -13629   -18093   -25172   -34242   -43214   -49186 
  -50139   -47068   -41549   -33105   -23507   -15433    -8701    -4752 
   -4529    -5952    -8741   -12075   -13366   -13029   -12618   -11630 
   -9589    -6242     -807     6170    13085    18941    23168    25472 
   26020    25064    23123    21223    20424    21339    23681    26446 
   28917    30675    30797    28554    24534    19841    15068    10496 
    6260     2000    -2972    -8584   -14273   -20138   -25661   -28874 
  -28794   -26701   -24138   -21547   -19148   -17322   -16561   -17586 
  -20425   -24384   -28841   -32566   -33558   -31763   -29503   -26673 
  -21848   -16957   -12846    -8434    -5563    -6390   -11204   -18679 
  -25296   -28085   -26546   -20871   -11073     1103    13291    24759 
   33693    37451    36009    30583    21981    12127     4343      655 
     404     3009     8396    14196    17740    18602    16420    10980 
    4095    -2021    -6568    -9479   -10649   -10046    -8043    -5503 
   -3295    -2247    -3394    -6985   -12074   -17761   -23249   -27103 
  -28558   -28426   -27434   -25654   -23052   -19227   -14148    -8569 
   -3681    -1224    -2459    -7105   -13848   -21390   -28619   -33890 
  -35444   -32462   -25531   -16852    -8840    -2647     1173     2398 
    1905      888     -442    -1795    -1690      450     3454     6610 
    9353    10332     9279     6999     3871      476    -2106    -3281 
   -2856     -697     2583     5607     7631     9186    10654    11457 
   11391    10674     8717     4763     -622    -5528    -8177    -8328 
   -7027    -5481    -4848    -6063    -9436   -14988   -22126   -29001 
  -33904   -36332   -35528   -31277   -26491   -23066   -19411   -16669 
  -16488   -16770   -17297   -18198   -17159   -13847    -9328    -4067 
    1879     8481    14475    18007    18303    16025    12280     7806 
    3549      787      523     3249     8336    13620    16857    17064 
   14060     8649     3204       31     -412     1027     3213     4954 
    5701     5767     5361     4374     2864      882    -1579    -4258 
   -7025    -9973   -12518   -13801   -13884   -13565   -13624   -14435 
  -16375   -19856   -24163   -27670   -29076   -27313   -22570   -17880 
  -15128   -12429    -9832    -9112    -9483   -10599   -12483   -14079 
  -15152   -15284   -13682   -10076    -4705     1338     6957    11432 
   13865    13807    11933     9698     8708     9606    11516    13049 
   13245    11975     9785     7061     3828      367    -2392    -3433 
   -2370      597     4575     7813     8550     5944      173    -7463 
  -15081   -21642   -26531   -28310   -26563   -23032   -19090   -15882 
  -14536   -13953   -13836   -15294   -16616   -16021   -14084   -11177 
   -7452    -3451      393     3760     6023     6310     4748     2537 
     603     -681    -1416    -1951    -1868     -150     3385     7741 
   12019    16043    19196    20382    19375    16689    12927     8975 
    5924     4498     4643     5742     7003     7182     5328     1949 
   -2292    -7397   -12926   -18564   -24487   -29989   -33368   -33440 
  -31714   -30700   -29522   -27599   -27248   -28100   -28681   -28832 
  -27597   -25467   -23430   -21113   -18636   -16202   -13514   -10657 
   -8563    -7201    -5503    -4238    -3825    -2638     -155     3274 
    7237    10878    13982    16571    18507    19977    21094    21759 
   21878    21268    19530    16553    12874     8792     4052    -1251 
   -6591   -11345   -14786   -16421   -16279   -15045   -14076   -14569 
  -16650   -19853   -24003   -28652   -32237   -32907   -30855   -27390 
  -21880   -15252   -10737    -7984    -5912    -5519    -6519    -8075 
   -9307    -9383    -8179    -5162     -103     6316    12922    18171 
   20867    20450    17234    12670     8365     5239     3308     1788 
     480      161     1101     2744     4379     5595     6315     6539 
    6535     6582     6475     5970     5481     5816     6805     7242 
    6366     4031      539    -2983    -5454    -6633    -6967    -7573 
   -9565   -13172   -18096   -23689   -28409   -30811   -30856   -28423 
  -23272   -17364   -12302    -7726    -4662    -3905    -4377    -5780 
   -8084   -10833   -13889   -16461   -17072   -15129   -11075    -5898 
    -980     3555     7548     8652     6457     3167     -496    -4129 
   -6472    -7278    -7058    -5631    -2380     2404     7407    11300 
   13396    13456    11443     8103     4777     2168      444      -77 
     583     1698     2675     3625     4583     4981     4063     1324 
   -2827    -7136   -10734   -13633   -16329   -19170   -21999   -24535 
  -26415   -27230   -27006   -25411   -22485   -20190   -18607   -16112 
  -14098   -12763   -10916   -10400   -11004   -10824   -10636   -10672 
  -10559   -10763   -11015   -10513    -8557    -5125     -757     4230 
    9256    13458    16487    18403    18933    18221    17140    15783 
   14184    12841    11208     8448     4350     -689    -5126    -7554 
   -8070    -7483    -6745    -6901    -8349   -10544   -13047   -16033 
  -19244   -21763   -23032   -22992   -21970   -20489   -18378   -15598 
  -13233   -11857   -11383   -12172   -14018   -15941   -17266   -17593 
  -16759   -15081   -13087   -11203    -9791    -9265    -9790   -10662 
  -10647    -9022    -5736    -1036     4529     9869    13864    16078 
   16414    14974    12540    10403     9617    10164    11193    12206 
   12842    12395    10718     8206     5124     1740    -1801    -5368 
   -8322   -10116   -10977   -11393   -11470   -11150   -10764   -10830 
  -11838   -14462   -18747   -23574   -27540   -29604   -29522   -27847 
  -25188   -21987   -18617   -15797   -14631   -15320   -16934   -18345 
  -18503   -16912   -13630    -8680    -2617     3537     9172    13600 
   16301    17731    18195    17489    16090    14944    14700    15740 
   18065    21309    24986    28471    30832    31040    28403    22749 
