Origin Time       2016/04/16 01:25:00
Lat.              32.753
Long.             130.762
Depth. (km)       12
Mag.              7.3
Station Code      KGS018
Station Lat.      31.3757
Station Long.     130.5449
Station Height(m) 51
Record Time       2016/04/16 01:25:32
Sampling Freq(Hz) 100Hz
Duration Time(s)  176
Dir.              E-W
Scale Factor      3920(gal)/6182761
Max. Acc. (gal)   15.173
Last Correction   2016/04/16 01:25:33
Memo.             
[...]
   18624    18640    18418    17914    17161    16093    14672    13378 
   13064    13965    15337    16290    16465    16011    15306    14393 
   12988    11375    10394    10340    10731    11005    10862    10192 
    9176     8178     7292     6475     5859     5335     4683     4323 
    4855     6340     8522    10852    12445    12892    12620    12090 
   11286    10116     8693     7098     5461     4301     4217     5194 
    6581     7824     9055    10657    12432    13888    15248    17102 
   18954    19493    18364    16449    14794    14048    14174    14458 
   14488    14644    15102    15363    15103    14573    14158    14197 
   14979    16492    18213    19358    19483    18703    17294    15278 
   12482     9023     5536     2590      267    -1262    -1399      -58 
    1705     2844     3592     4887     6955     9049    10378    10932 
   11218    11330    10847     9602     7921     6258     4888     3887 
    3451     3941     5318     6983     8556    10400    12927    15775 
   18191    19676    20109    19900    19781    20013    20076    19026 
   16202    12012     7716     4329     2362     2168     3676     6264 
    9236    12119    14589    16305    16859    15856    13274     9836 
    6630     4370     3167     2805     3336     4998     7294     9037 
    9503     8860     7723     6717     6241     6296     6484     6241 
    5328     4278     4093     5387     7941    11040    14078    16681 
   18707    20391    21811    22340    21444    19584    17780    16694 
   16511    17255    18607    19646    19355    17485    14737    12092 
   10016     8518     7878     8631    10754    13459    15769    17098 
   17405    16873    15791    14812    14624    15103    15360    15066 
   14913    15293    15580    14997    13510    11756    10123     8257 
    6021     4280     3906     4684     5805     6751     7355     7532 
    7390     7258     7398     7942     8806     9478     9488     9030 
    8659     8500     8097     7231     6401     6061     6028     6067 
    6392     7348     8964    10922    12826    14280    14872    14478 
   13446    12318    11473    11113    11222    11436    11316    10807 
   10164     9674     9605    10021    10560    10610     9805     8527 
    7709     7960     9109    10419    11059    10724     9816     8849 
    8177     8155     8865    10055    11473    12755    13394    13276 
   12770    12114    11229    10235     9543     9316     9277     9109 
    8780     8572     8894     9849    10934    11592    11932    12338 
   12714    12737    12446    12138    12040    12298    12947    13922 
   15086    15978    16094    15544    14915    14663    14857    15382 
   16247    17291    18037    18171    17564    16068    13726    10705 
    7209     3776     1134     -143      274     2218     4951     7707 
   10097    11924    13040    13465    13358    12942    12492    12152 
   11913    11946    12410    12907    12698    11370     9193     7130 
    6352     7339     9561    12109    14408    16247    17517    18210 
   18376    18005    17373    17065    17261    17599    17734    17543 
   16961    16079    15272    14768    14325    13676    12828    11823 
   10838    10301    10263    10275    10057     9382     7669     4571 
     816    -2250    -3812    -3792    -2636    -1238     -302      174 
     478      655      573      182     -374     -669     -145     1386 
    3570     5952     8302    10491    12374    13964    15539    17312 
   19038    20204    20680    20678    20125    18804    16947    15222 
   14230    14174    14934    16129    17208    17787    17812    17448 
   16959    16624    16497    16324    15963    15668    15632    15575 
   15103    14202    13153    12301    11861    11660    11283    10585 
    9660     8532     7241     5885     4445     2796      928     -886 
   -2232    -2737    -2064      -39     3312     7724    12386    16373 
   19382    21336    21944    21197    19642    17972    16630    15618 
   14481    12821    11060    10176    10381    10853    10904    10530 
   10033     9770     9984    10631    11511    12473    13314    13664 
   13325    12556    11774    11148    10543     9669     8384     7056 
    6387     6911     8618    10810    12611    13700    14106    13720 
   12510    10881     9528     8937     9033     9247     9009     8419 
    8121     8243     8096     7262     6394     6453     7496     8815 
    9990    11171    12546    14019    15246    15921    16151    16316 
   16546    16700    16772    16927    17164    17258    16919    15922 
   14297    12387    10665     9590     9429     9985    10699    11174 
   11423    11566    11496    10835     9262     7038     5069     4243 
    4723     5935     7313     8766    10241    11290    11513    11149 
   10726    10380     9964     9465     9077     9031     9355     9761 
    9854     9487     8917     8620     8909     9700    10459    10700 
   10735    11158    11835    12189    11884    11154    10868    11667 
   12997    13690    13280    12200    11037    10254    10279    11102 
   12099    12650    12480    11612    10476     9586     9069     8795 
    8640     8497     8433     8809     9920    11580    13213    14303 
   14682    14440    13783    12885    11719    10182     8329     6367 
    4665     3617     3222     3233     3766     5181     7467    10108 
   12427    14024    14959    15437    15546    15419    15285    15157 
   14685    13558    12070    10968    10664    10847    11023    11113 
   11345    11878    12672    13565    14621    16196    18363    20604 
   22317    23214    23077    21765    19713    17844    16767    16311 
   15797    14593    12589    10309     8456     7419     7210     7580 
    8168     8675     8890     8729     8380     8167     8059     7682 
    7033     6554     6465     6685     7076     7299     7028     6399 
    5692     4801     3476     1829      253     -882    -1200     -456 
    1069     2842     4570     6056     7139     7922     8708     9877 
   11773    14385    17303    20129    22717    24865    26066    25829 
   24085    21180    17705    14386    11877    10479    10098    10424 
   11083    11822    12608    13260    13310    12540    11209     9767 
    8682     8105     7665     7034     6405     6156     6406     7025 
    7924     9252    11129    13215    14926    15982    16479    16617 
   16453    15949    15251    14666    14310    14023    13570    12868 
   12128    11666    11491    11410    11538    12090    12764    13065 
   13087    13279    13795    14597    15729    17217    18900    20352 
   21160    21311    21009    20180    18573    16404    14387    12995 
   12116    11440    10975    11148    12152    13326    13627    12668 
   11092     9907     9472     9368     9150     8695     7848     6447 
    4845     3833     3680     3721     3300     2608     2276     2725 
    3976     5686     7518     9327    10763    11229    10546     9380 
    8846     9587    11098    12101    11709    10068     7903     5876 
    4571     4426     5127     5649     5271     4164     3136     3049 
    4219     6256     8459    10335    11800    12985    14059    15175 
   16415    17678    18444    17987    16206    13824    11734    10542 
   10369    10686    10643     9854     8810     8240     8342     9074 
   10439    12143    13719    14938    15760    16229    16425    16330 
   15882    15325    15195    15678    16349    16843    17261    17775 
   18349    18684    18337    17189    15553    13840    12368    11335 
   10849    10761    10510     9520     7714     5625     4169     4110 
    5501     7831    10629    13631    16443    18496    19625    20332 
   21167    22146    22888    23029    22436    21092    18939    16064 
   12702     8941     4978     1538     -522     -929      181     2827 
    6969    12001    16779    19870    20193    18021    14779    11677 
    9220     7546     6448     5475     4247     2544      524    -1218 
   -2140    -1976     -497     2421     6416    10570    13951    16176 
   17282    17358    16449    14616    12088     9259     6423     3618 
     932    -1189    -2358    -2679    -2549    -2372    -2414    -2595 
   -2554    -1961     -622     1502     4130     6637     8382     9239 
    9730    10550    12073    14014    15353    15125    13191    10105 
    6865     4477     3099     2067     1051      637     1604     4269 
    8506    13604    18343    21726    23317    23029    21119    18382 
   15860    14285    13825    13911    13554    12375    11026    10418 
   10899    12247    14091    16180    18292    19919    20487    20026 
   18972    17586    16104    14939    14334    14177    14401    15162 
   16328    17371    18017    18301    18151    17640    17341    18009 
   19851    22108    23501    23062    20535    16483    11963     7721 
    4004      907    -1574    -3421    -4407    -4293    -2991     -630 
    2336     5172     7075     7487     6409     4491     2641     1477 
    1269     1950     3017     3993     4833     5610     6419     7554 
    9222    11141    12654    13329    13367    13397    14043    15402 
   16832    17515    17255    16566    16183    16582    17748    19274 
   20798    22153    23043    23161    22778    22538    22557    22220 
   20945    18909    17061    16417    17226    18899    20712    22313 
   23447    23690    22897    21340    19245    16677    13712    10508 
    7328     4571     2658     1725     1568     1746     1778     1646 
    1814     2620     4116     6193     8344     9716     9776     8713 
    6951     4664     2065     -499    -2734    -4037    -3640    -1571 
    1222     3656     5118     5543     5184     4600     4674     6128 
    9191    13680    19088    24650    29420    32604    34000    33881 
   32509    30011    26625    22788    19078    15984    13537    11529 
    9944     8889     8371     8280     8550     9301    10734    12890 
   15350    17297    18159    17806    16290    13895    10996     7803 
    4530     1544     -635    -1468     -744     1221     3684     5882 
    7562     8939    10153    11066    11555    11694    11606    11349 
   10977    10519     9876     8934     7835     6933     6573     6986 
    8248    10232    12761    15762    18954    21443    22276    21610 
   20547    19881    19703    19773    19887    19977    19928    19695 
   19382    18961    18244    16863    14491    11573     9172     7918 
    7524     7237     6575     5439     3982     2737     2352     3211 
    5282     7972    10539    12657    14237    15170    15533    15504 
   15055    14215    13448    13312    13892    14798    15476    15517 
   14919    14013    13041    11989    10881     9948     9227     8146 
    6033     3031       21    -2297    -3807    -4725    -5288    -5554 
   -5485    -5128    -4502    -3522    -2153     -432     1689     4324 
    7322    10119    12130    13260    13890    14431    14919    15096 
   14833    14132    13035    11894    11222    11225    11831    12773 
   13553    13833    13786    13707    13559    13127    12421    11748 
   11446    11674    12229    12565    12323    11540    10269     8706 
    7479     7096     7441     8026     8372     8140     7265     6044 
    4959     4522     5068     6434     8029     9324    10015     9834 
    8733     6997     4919     2808     1115      273      407     1294 
    2675     4310     5850     7058     7841     7992     7349     6094 
    4669     3547     3070     3095     3059     2685     2226     1973 
    2040     2632     3912     5681     7812    10515    13794    17360 
   20911    23963    25821    26041    24735    22395    19524    16546 
   13909    11945    10667     9797     8971     8141     7743     8098 
    9018    10166    11341    12471    13518    14331    14592    14012 
   12619    10693     8508     6350     4409     2536      485    -1918 
   -4902    -8313   -11254   -12831   -12917   -11758    -9446    -6113 
   -2154     1958     5924     9643    13112    16224    18677    20167 
   20578    20002    18735    17291    16280    15970    16226    16965 
   18097    19301    20376    21306    22021    22569    23138    23769 
   24362    24904    25444    25861    25974    25762    25229    24320 
   23107    21903    21041    20532    20083    19537    19121    19086 
   19282    19349    19245    19282    19570    19622    18698    16578 
   13883    11510     9888     8970     8628     8694     8762     8389 
    7558     6709     6380     6955     8465    10529    12659    14519 
   15844    16388    16079    14967    12993    10205     7105     4383 
    2380      935     -279    -1392    -2382    -3453    -4951    -6665 
   -7709    -7415    -5967    -4039    -2160     -568      447      351 
   -1046    -2948    -4151    -4118    -3041    -1267      964     3396 
    5698     7596     9009    10034    10762    11145    11132    10900 
   10717    10657    10659    10572    10104     9139     7960     6968 
    6467     6649     7444     8482     9507    10653    12096    13792 
   15671    17564    19052    19758    19621    18919    18152    17745 
   17846    18386    19279    20510    21987    23425    24452    24837 
   24692    24453    24578    25168    25890    26249    25998    25223 
   24062    22728    21613    21041    21026    21132    20630    19016 
   16265    12719     9027     5941     3964     3273     3774     5168 
    7313    10347    14244    18601    23003    27216    30904    33574 
   34926    34893    33443    30655    26896    22792    18969    15833 
   13636    12422    11877    11611    11300    10520     9048     7134 
    5221     3629     2331     1052     -376    -2005    -3877    -5903 
   -7708    -8699    -8587    -7676    -6443    -5214    -4101    -2894 
   -1409      169     1547     2519     2938     2842     2399     1818 
    1243      523     -671    -2429    -4407    -6040    -7121    -8062 
   -9203   -10359   -11320   -12038   -12374   -12169   -11301    -9676 
   -7446    -5055    -2855     -712     1714     4500     7523    10574 
   13310    15465    16948    17638    17548    16985    16241    15398 
   14411    13331    12386    11856    12088    13321    15288    17376 
   19195    20808    22485    24316    26127    27711    28981    29868 
   30270    30147    29604    28794    27821    26823    25909    25041 
   24270    23790    23570    23415    23274    23033    22358    21082 
   19321    17117    14442    11497     8501     5436     2462       88 
   -1277    -1531     -847      433     2057     3888     5693     7029 
    7470     7069     6278     5480     5008     5052     5318     5374 
    5003     4079     2707     1435      967     1639     3260     5440 
    7833    10192    12450    14494    15955    16520    16162    15069 
   13651    12322    11254    10566    10433    10950    12062    13533 
   15060    16391    17276    17596    17399    16752    15829    14938 
   14320    14142    14428    14830    14958    14779    14369    13667 
   12629    11385    10160     9136     8520     8486     8948     9641 
   10347    10971    11579    12344    13388    14701    16181    17710 
   19149    20471    21837    23220    24316    24961    25052    24203 
   22097    18983    15572    12615    10539     9337     8741     8489 
    8462     8505     8389     8125     7900     7721     7420     6921 
    6337     5769     5109     4168     2915     1473      -41    -1599 
   -3164    -4550    -5487    -5775    -5319    -4202    -2664     -848 
    1325     3937     6723     9008    10187    10202     9375     7971 
    6049     3658     1144     -884    -1993    -2186    -1729     -761 
     887     3374     6518     9928    13302    16597    19890    22962 
   25223    26198    25855    24494    22497    20183    17891    16023 
   14963    14975    15991    17662    19581    21164    21830    21564 
   20815    19972    19221    18598    18025    17453    17050    17149 
   17770    18477    18923    19158    19458    20012    20615    20780 
   20295    19416    18509    17746    17204    17031    17306    18009 
   19139    20464    21408    21697    21552    21009    19729    17499 
   14451    10921     7332     4170     1763        4    -1501    -3055 
   -4565    -5536    -5610    -4875    -3476    -1512      702     2730 
    4197     4805     4456     3371     1950      537     -599    -1159 
   -1003     -302      816     2411     4459     6784     9016    10716 
   11857    12769    13545    13942    13786    13146    12159    10956 
    9713     8513     7328     6394     6236     7199     9326    12483 
   16294    20125    23294    25344    26099    25677    24522    22983 
   21077    18945    16900    15161    13959    13401    13167    12828 
   12244    11441    10434     9434     8899     9118     9956    11007 
   11791    12077    12024    11808    11335    10520     9422     8047 
    6447     4934     3846     3227     3037     3402     4363     5745 
    7474     9589    11902    14190    16490    18768    20690    21875 
   22099    21400    20157    18800    17410    15874    14255    12723 
   11378    10389     9972    10260    11437    13603    16421    19310 
   21949    24309    26245    27470    27913    27655    26742    25288 
   23375    20973    18243    15604    13352    11521    10077     8944 
    7969     7087     6430     6055     5805     5603     5393     4922 
    3971     2551      901     -474    -1089     -919     -266      642 
    1699     2761     3625     4156     4427     4720     5302     6124 
    6898     7444     7750     7837     7800     7757     7627     7133 
    6108     4750     3458     2541     2129     2122     2365     3027 
    4448     6668     9432    12370    15086    17342    19157    20586 
   21545    21984    22089    22077    21947    21524    20609    19086 
   17060    14911    13135    12085    11834    12257    13230    14624 
   16245    17935    19516    20713    21407    21739    21781    21378 
   20399    18890    16948    14859    13192    12322    12185    12572 
   13251    14056    14948    15887    16787    17377    17168    15920 
   13836    11185     8242     5456     3291     2067     1913     2599 
    3620     4628     5584     6525     7424     8238     8924     9338 
    9313     8860     8046     6960     5904     5355     5611     6477 
    7546     8678     9892    11094    12007    12415    12456    12354 
   12028    11231     9893     8314     7063     6540     6733     7421 
    8415     9625    10964    12221    13130    13548    13530    13247 
   12797    12203    11499    10575     9359     8162     7339     6949 
    6986     7508     8448     9509    10348    10733    10465     9435 
    7850     6113     4510     3239     2443     2017     1670     1243 
     851      762     1161     2090     3610     5636     7787     9712 
   11328    12630    13442    13582    13190    12619    12194    12221 
   12908    14175    15709    17294    18971    20765    22507    23886 
   24559    24481    23980    23259    22286    21199    20304    19771 
   19605    19711    19896    19995    20007    19989    19968    20066 
   20472    21147    21840    22434    22965    23357    23402    22990 
   22216    21270    20318    19416    18446    17240    15754    13994 
   12027    10084     8360     6800     5282     3759     2151      376 
