Origin Time       2016/04/16 01:25:00
Lat.              32.753
Long.             130.762
Depth. (km)       12
Mag.              7.3
Station Code      KGS004
Station Lat.      32.0145
Station Long.     130.1927
Station Height(m) 3
Record Time       2016/04/16 01:25:24
Sampling Freq(Hz) 100Hz
Duration Time(s)  184
Dir.              E-W
Scale Factor      3920(gal)/6182761
Max. Acc. (gal)   39.663
Last Correction   2016/04/16 01:25:24
Memo.             
[...]
   12039    12405    12153    11321    10598     9961     8939     7710 
    6541     5977     5840     5332     4360     2967     1550      865 
    1056     1573     1922     2381     3007     3400     3919     4893 
    6042     6884     6566     5131     3779     3236     3553     3595 
    1974     -674    -3028    -4500    -5183    -5461    -5095    -4362 
   -3542    -1990      117     2294     3892     4460     5014     5962 
    6999     7764     7862     8118     8968    10463    12399    13121 
   12324    11156    10630    11525    12819    13117    12110    10053 
    7990     6633     6313     6895     7110     6301     4582     2454 
     586    -1097    -2367    -3443    -4809    -5745    -6249    -6058 
   -4126    -1091     1611     2658     1956     1142      786      411 
      85       77     1021     2983     4638     5221     5476     5947 
    5803     4534     3411     3160     3113     3181     3250     3061 
    3492     5269     7797     9400     8938     7326     5923     5523 
    6303     7847     9727    10890    11377    12413    13329    13111 
   11973    10768    10274     9912     9527     9287     8379     7083 
    5873     4727     3816     2687     1704     1338     1233     1264 
     708     -108     -334     -677    -1061    -1147    -1269    -1645 
   -2443    -3141    -3795    -4409    -3780    -1677     1448     4623 
    6263     6663     7097     7607     7543     6480     4889     3530 
    2600     2176     2202     2426     2436     1994     1604     1535 
    1826     2691     3326     3124     2904     2900     2334     1030 
    -158     -480       33     1583     3723     4836     4715     4123 
    3679     4218     5159     5580     6029     7127     8766     9757 
    9329     8368     7918     8723     9886     9821     9033     8097 
    7071     6173     5523     5670     6012     5856     5368     4386 
    3884     4597     5957     7253     7259     6022     4773     4386 
    5329     6481     7062     7398     7012     6227     5732     5118 
    3816     1558     -633    -1704    -1951    -1524     -724     -100 
     125       77      703     2104     3398     4212     3771     1814 
    -596    -2660    -3715    -3498    -2871    -2354    -1433      311 
    2314     3808     4872     5571     6133     7415     8909     9405 
    9008     8029     6632     5037     3478     2395     1686     1400 
    1553     1706     2277     3407     4622     5503     5804     6372 
    7246     7792     8414     8839     9074     9734    10397    10777 
   10630    10233    10107     9319     8017     7383     7862     9272 
    9777     8573     6829     5228     4561     5037     5991     6579 
    6297     6107     5800     4086     1654     -218     -762      -76 
    1031     1953     1686      126    -1665    -3135    -3977    -4373 
   -4497    -3845    -2529    -1385    -1322    -2210    -2682    -2357 
   -1550     -237      975     1562     1945     2988     4999     6962 
    8180     8812     8516     7537     6450     5114     4504     5839 
    8650    11368    12558    12843    13407    13918    13780    12396 
   10156     8194     7023     7053     7413     7064     6189     5014 
    4475     4513     4097     3446     2695     2097     1704     1413 
    1984     2723     2666     2017      910     -132    -1243    -2518 
   -3255    -3451    -2865    -1562     -314      517     1073     2564 
    5105     7414     9168     9896     9569     8968     8240     7281 
    5288     2517      869      634     1136     1832     1801     1139 
     990     1826     2708     2718     2518     3024     4038     4679 
    4035     2609     2020     2863     4840     6779     7305     6979 
    6953     7593     8557     9066     9570    10722    12026    12821 
   12706    12093    11426    10783    10300     9691     9556    10332 
   10872    10383     8588     6264     4635     3678     3351     2896 
    1884     1364     1194     1266     1585     1417     1136      649 
    -532    -2245    -4132    -5238    -5732    -6002    -5709    -5370 
   -5277    -5657    -6380    -6974    -7806    -7823    -6115    -3864 
   -1943    -1116    -1121     -347     1522     3715     5712     8014 
   11059    14178    17107    19448    20225    19299    17719    16889 
   16653    16036    15065    13945    13079    12714    12367    12390 
   12995    13050    12228    10980     9544     8372     7685     7587 
    7744     7732     7727     6627     3416     -831    -4640    -6663 
   -6601    -5160    -3383    -3003    -3671    -3782    -3365    -2677 
   -2369    -2847    -3487    -3870    -3510    -2789    -2345    -1974 
   -1503     -161     2262     4861     6885     7939     8579     8960 
    9350    10760    11985    11792    10899    10026     9745     9303 
    7887     6253     5056     4918     5433     5294     4215     2585 
    1710     2227     3130     3929     4242     3508     1973      520 
     321     1273     1984     1997     1558      822      354      594 
    1544     3126     5188     7451     9343    10473    10800    10558 
   10510    10644    10289     9486     8425     7457     6807     6083 
    4983     3568     2669     2410     1838     1407     1852     3162 
    4934     5776     5471     4938     4473     4290     3816     2465 
     846      129      978     1921     1919     1448      464      186 
    1257     2332     3029     3258     3276     3805     4681     5421 
    5497     5054     4594     4436     5366     7287     9149    10057 
    9477     8035     6708     6125     6651     7443     7761     7896 
    8007     8352     8866     8823     7923     6360     4822     4077 
    4180     4733     5084     4876     4574     4620     4947     5156 
    5190     5718     6525     6892     6688     5310     3059      978 
    -956    -2210    -2350    -1944    -1336    -1017    -1062    -1469 
   -2456    -3245    -3549    -3479    -2815    -2063    -1657    -1928 
   -2311    -1602     -458      688     2107     3391     4964     6761 
    7828     7995     7869     8636    10085    11179    12088    12525 
   12410    12009    10919     9604     8264     6885     6088     5521 
    4853     3955     2813     2121     1848     1926     2586     3831 
    5713     7181     7149     5744     3631     2182     2100     2808 
    4183     6222     8626    11151    12880    13312    13214    13267 
   13708    14049    13630    12906    12150    10695     8334     6121 
    4969     4118     3276     3096     3261     3689     4150     3697 
    2150     -284    -2545    -3570    -3598    -2992    -2719    -3406 
   -4434    -5295    -5408    -4933    -4211    -2752     -924      900 
    2299     2828     3429     4327     5484     6710     6510     5301 
    4541     4788     6182     7557     8331     8754     8924     9548 
   10369    10875    11400    11861    12444    13530    15024    16143 
   15600    13790    12224    11593    12382    14333    16451    18267 
   19557    20467    21139    20850    18996    15940    12687     9721 
    6676     3220     -755    -4699    -7909   -10783   -13793   -16871 
  -19904   -22397   -24088   -25064   -25550   -26225   -26308   -24165 
  -19976   -14825   -10517    -8175    -6295    -3772     -465     3909 
    8496    12414    15502    17982    20371    22773    25343    28130 
   31038    33286    33324    31889    30404    28590    26207    22371 
   16752    10463     3992    -1796    -6207    -9154   -10130   -10021 
  -10219   -11469   -14185   -17528   -20381   -21626   -21155   -20121 
  -18219   -15393   -12384    -8939    -5330    -1878     1450     4636 
    8427    13083    18122    22845    26404    28996    31225    33434 
   36351    40335    44790    48380    50106    50670    50808    49786 
   47209    43259    37837    31453    25378    20884    18053    15947 
   14038    11895     9934     9212     9555     9973     9641     9339 
   10094    11231    12468    13202    12567    11222     9502     7482 
    4977      891    -5086   -12186   -18800   -24020   -28226   -31787 
  -35997   -41062   -45387   -48225   -48599   -46699   -44442   -42488 
  -40831   -39110   -37599   -37349   -37880   -38813   -39906   -40045 
  -38507   -34341   -27275   -17828    -6897     2722     9407    14311 
   19016    24918    31677    37554    41354    43236    45362    49390 
   54747    59474    61454    60703    58059    53761    48886    45437 
   44983    45232    42990    39564    35087    27810    20050    13916 
    8741     3889    -2260   -10608   -19255   -26021   -30867   -35620 
  -41283   -47615   -53181   -54832   -51130   -43586   -34700   -26842 
  -21726   -20245   -21043   -22279   -23055   -21356   -16842   -10897 
   -3472     4354    11375    18470    26039    32800    36285    36405 
   35757    34970    34004    32724    30254    27167    23919    21160 
   19689    18830    18628    18561    17963    18136    19199    20139 
   20051    18562    15993    11400     4529    -3638   -12558   -21153 
  -28708   -34883   -39154   -40906   -39786   -37595   -35614   -32749 
  -28899   -24714   -19832   -14223    -8494    -2983     1545     4552 
    6250     6712     6924     7970    10052    13009    15687    16946 
   17443    18925    22222    27346    33705    40315    46676    51112 
   51727    48698    43147    36729    30316    23539    16397     8363 
    -202    -7161   -11401   -12836   -11693    -8353    -4094     -868 
    1487     3610     5477     8089    11235    13412    14111    13497 
   12630    13118    15111    17863    21114    23423    23588    22624 
   21151    19179    17144    15476    13700    11570    10368     9974 
    8988     6851     2837    -3048    -8456   -11996   -14791   -17223 
  -19306   -21428   -23381   -24630   -24759   -24289   -23982   -23059 
  -19342   -12520    -4877     1658     6223     8402     8800     9363 
   11093    13826    17220    19718    19652    15967     9466     3317 
    -778    -2846    -2303     1007     5276     7421     6682     5116 
    2934      378     -232      719     2134     3852     4615     4272 
    3016     1010     -956    -2293    -2093    -1067     -230     2463 
    8441    16159    23344    28135    29716    28481    26303    24914 
   23485    20563    16774    14494    14365    14797    14600    12470 
    8885     6447     6222     8338    12357    16958    20648    22243 
   22443    22061    20902    19883    19664    20149    21054    20481 
   17091    11775     5545     -830    -6896   -12368   -16277   -18323 
  -18833   -17879   -15537   -11327    -6518    -3983    -3473    -3535 
   -4658    -6540    -7794    -7946    -7589    -7910    -8751    -9360 
  -10113   -10511    -9229    -5616     -423     4407     6734     5950 
    4404     4007     4613     5432     5769     6105     6451     6201 
    5254     3418     1249    -1121    -3953    -6334    -8312    -9945 
  -10654   -10254    -7576    -3192      883     4072     5470     5013 
    3701     1816       13    -1349    -2946    -5644    -8725   -10588 
  -12480   -15139   -16741   -17166   -17126   -16507   -15514   -15606 
  -17421   -19573   -21598   -23619   -25277   -26338   -26443   -24676 
  -20681   -15685   -10482    -4729     1706     7399    11053    13458 
   15453    18030    21681    25079    27205    27190    25071    22941 
   22031    22612    24292    25275    24838    23369    21718    20582 
   19180    17381    14985    11278     7254     3496      389    -1356 
   -2808    -4411    -5970    -7741    -7892    -5319    -1096     4377 
   10024    14289    16632    17508    18106    18281    18193    19583 
   21624    20971    16997    12264     7230      709    -6904   -15405 
  -21930   -21860   -17178   -12070    -8453   -10361   -17189   -22075 
  -23684   -24898   -26717   -30043   -34703   -38760   -41020   -41433 
  -40000   -36561   -31530   -25610   -19061   -12162    -5807    -1028 
    2913     8249    15550    22670    27692    31581    35580    38396 
   38435    35736    31713    29006    28918    30266    31595    31259 
   28237    23239    18023    13785    10206     7254     4969     3636 
    4542     7398    10473    11942    11074     9822     9298     9063 
   10360    13250    16145    18267    19246    19690    20208    21647 
   24611    27618    29717    30990    32385    34714    37078    39702 
   42780    45478    47967    50061    51170    50857    48688    45597 
   42569    39026    34689    29306    23996    21391    20339    18265 
   14999    11218     7896     5893     5055     3257    -1070    -6581 
  -11595   -16252   -20854   -24911   -28040   -30362   -33379   -37126 
  -39709   -40938   -40768   -38472   -34806   -32042   -30825   -29814 
  -28939   -28102   -25922   -22260   -18336   -15038   -12530   -11911 
  -14714   -19393   -23968   -28177   -30924   -32236   -32846   -32494 
  -31370   -29486   -27348   -25219   -21995   -17845   -13431    -8532 
   -3649     -383      173     -554    -1078     -695     2015     6034 
    9334    11160    11439    11682    12355    13399    15627    18176 
   20099    21546    22918    24710    27330    31389    35949    38549 
   38311    36530    34658    32522    29760    27332    25141    22483 
   20061    17752    15330    13959    13007    10747     7738     4942 
    1783    -1793    -4931    -7866   -11117   -14440   -18053   -21504 
  -23713   -24671   -23608   -20158   -16206   -12915   -10463    -8760 
   -7045    -4873    -1736     2391     7428    14184    22453    31545 
   40686    48542    54205    57331    59422    62290    65268    66905 
   65879    62553    59015    56002    53741    51261    47085    41687 
   35271    29097    24764    21728    19578    17133    13146     8366 
    3444    -2002    -8181   -14326   -20380   -27341   -34844   -41875 
  -47995   -52741   -55762   -57008   -57059   -56209   -54114   -51705 
  -49858   -48206   -46683   -44883   -42462   -40271   -38770   -36917 
  -33091   -27208   -20703   -14241    -8791    -6185    -5271    -2845 
    1312     4947     7657    10952    14584    17880    21465    24445 
   26070    27135    27576    27393    26900    25799    23804    20854 
   17323    13603    10239     7669     5635     3833     1746     -181 
   -1098    -1558    -1849    -2562    -4258    -6316    -8829   -10831 
  -11331   -11497   -10751    -9202    -9009    -9860   -11490   -13620 
  -15037   -15921   -15408   -13195   -10160    -6736    -4414    -3605 
   -3604    -3547    -2825    -1622      510     3654     7702    12191 
   15973    19700    24152    28871    33579    37310    39662    41458 
   43354    45530    46791    46509    44759    41072    37115    34933 
   34513    35088    35390    34638    33038    31032    29309    28244 
   27003    24719    22406    21363    20926    20913    22466    25470 
   28796    31206    33186    35137    34481    32363    32007    31094 
   28652    26247    22622    17592    12442     8239     5471     2536 
   -1624    -7071   -13429   -19141   -24512   -30886   -37640   -43224 
  -46189   -46332   -43376   -36978   -29170   -21372   -13808    -7579 
   -2917      871     3978     6265     8094     9898    11366    12537 
   13520    14567    17118    21343    25533    28244    28810    27608 
   26450    26929    28052    29090    30149    29509    27267    24413 
   20827    17734    15293    12455     9295     5736      827    -5674 
  -13213   -20350   -25664   -30092   -33740   -36099   -38088   -39292 
  -39273   -38698   -38333   -38908   -40247   -41554   -41679   -39571 
  -36381   -33941   -32475   -31931   -31212   -29185   -26044   -21643 
  -16274   -10763    -5705    -1133     2860     5223     5938     6044 
    5687     4579     2910     1613     1887     3570     5698     8426 
   11783    14714    17145    20098    23495    26871    30113    32220 
   33130    33941    34675    35639    37411    39448    41248    42647 
   43645    44369    44587    44436    43858    41721    38093    34321 
   31010    28591    27223    26260    24835    22272    18513    13781 
    8104     2041    -2892    -5788    -7386    -8408    -9098   -10085 
  -11296   -12295   -13313   -14600   -16647   -19015   -20409   -20421 
  -18535   -15264   -12313    -9843    -7988    -7230    -6654    -5113 
   -1683     2602     5134     5697     5419     5307     5626     5771 
    6162     6324     5558     4981     5015     5955     7633     8453 
    8060     6930     6220     6691     7329     8082     8850     9123 
    9120     8357     6402     2956    -1540    -5727    -9401   -12754 
  -15359   -16613   -16751   -16821   -16879   -16551   -15780   -14370 
  -12491   -10116    -7499    -5620    -4647    -4718    -5758    -7103 
   -8916   -10868   -12134   -12755   -12364   -10290    -7429    -5136 
   -3527    -2157     -289     2450     5743     8533     9474     9155 
    8664     8090     7810     7875     8030     7697     6308     4686 
    3302     2178     2085     2983     4176     5069     5619     6251 
    7434     9821    12436    13881    13990    12598    10785     9973 
   10184    11231    12077    11754    10996    10784    11929    13925 
   15036    15001    14366    13654    13185    12709    12366    12140 
   11908    11836    11750    11843    12181    12355    12472    12270 
   11377    10105     8817     8255     8450     8565     8260     7102 
    5619     5017     5196     6079     7483     8522     9065     9198 
    9069     9305     9799    10148    10171     9621     8354     6304 
    4313     2853     1332      -36    -1248    -2464    -3275    -3494 
   -2669    -1303     -161     1456     3434     5393     7397     8751 
    9401     9445     8685     7444     5724     3740     1701     -631 
   -2915    -4809    -5982    -6264    -5607    -3788    -1691      299 
    2446     4319     6012     7135     7523     7909     8215     8632 
    9174     9461     9744     9638     9017     8414     7599     6769 
    6565     6883     7255     7330     7026     6373     6056     6704 
    7353     7173     6515     5597     4272     2419      306    -1880 
   -4463    -7130    -9383   -11382   -12704   -13137   -13320   -13441 
  -13600   -13658   -13307   -12954   -12813   -13194   -14351   -15399 
  -15959   -16157   -16194   -16838   -17945   -19360   -21019   -21931 
  -21761   -20076   -16504   -11813    -7032    -3326     -472     2561 
    5927     9836    13811    17448    20768    23054    24599    25683 
   26246    27010    27512    27700    28535    30084    32300    34400 
   35543    35721    34666    32680    30229    27716    25775    24171 
   22563    20290    16834    13172     9645     6309     3829     1952 
     587     -209     -901    -1464    -1977    -2541    -3012    -3536 
   -3858    -3733    -3308    -2376    -1394    -1080    -1116    -1120 
    -778      136     1377     2533     3078     3094     2794     2305 
    2373     2827     2939     2518     1516      597       56      -68 
     505     1038     1340     1394      863      376     -136     -486 
    -255     -150        7      -47     -655     -730       -5     1470 
    3487     5408     6900     7607     8425     9895    11050    11607 
   11158     9990     9443     9857    11072    12101    12278    12000 
   11002     9832     9336     9234     9626    10478    11229    11420 
   10807     9629     8214     7149     6573     5729     4923     4690 
