Origin Time       2016/04/16 01:25:00
Lat.              32.753
Long.             130.762
Depth. (km)       12
Mag.              7.3
Station Code      KGS019
Station Lat.      31.2776
Station Long.     130.3008
Station Height(m) 10
Record Time       2016/04/16 01:25:37
Sampling Freq(Hz) 100Hz
Duration Time(s)  101
Dir.              N-S
Scale Factor      3920(gal)/6182761
Max. Acc. (gal)   8.155
Last Correction   2016/04/16 01:25:37
Memo.             
[...]
   -2085    -1254     -485     -555    -1463    -2545    -3078    -2606 
   -1263      360     1639     1991     1077     -747    -2324    -2552 
   -1612     -708     -633    -1311    -2242    -2781    -2503    -1607 
    -815     -741    -1145    -1175     -538      256      680      551 
      58     -242       45      484       33    -1691    -3777    -4879 
   -4367    -2929    -2062    -2312    -2659    -2161    -1026       85 
     670      544      225      591     1596     2124     1357     -524 
   -2621    -3770    -3449    -2339    -1372     -864     -852    -1103 
    -869      286     1832     2790     2450      891     -855    -1435 
    -320     1589     2785     2517     1242      -45     -772    -1092 
   -1368    -1683    -1918    -1874    -1381     -755     -602     -966 
   -1599    -2510    -3324    -3208    -1902      120     2155     3355 
    3148     1821      104    -1534    -2783    -3209    -2744    -2116 
   -1993    -2053    -1635     -709      176      396     -429    -2156 
   -3898    -4497    -3627    -2050     -633      436     1316     1905 
    1999     1626      910      -93    -1318    -2515    -3070    -2237 
    -176     1502     1287     -562    -2558    -3241    -1982      376 
    1955     1508     -398    -1990    -2093    -1167     -533     -893 
   -1889    -2794    -3192    -3057    -2575    -2258    -2825    -4127 
   -4890    -4328    -2809     -947      471      479     -912    -2415 
   -2723    -1677     -401     -197    -1075    -1773    -1291       -2 
     906      688     -628    -2520    -4152    -4773    -4269    -3166 
   -1869     -382      815      832     -143     -744     -217      743 
    1035      275    -1024    -2020    -2311    -2246    -2536    -3488 
   -4619    -5116    -4454    -2699     -701      242     -398    -1741 
   -2501    -2125     -861      526     1248     1209     1082     1423 
    1954     2010     1234     -348    -2292    -3796    -4263    -3748 
   -2678    -1459     -604     -490     -738     -711     -400     -150 
      41      533     1316     1789     1684     1479     1445     1090 
    -150    -2144    -4140    -5227    -4955    -3823    -2674    -1748 
    -947     -421     -267     -226     -104      -90     -424    -1190 
   -2395    -3638    -3826    -2172      551     2613     3025     2003 
     472     -538     -687     -459     -266      -34      254      421 
     387      153     -244     -751    -1382    -2030    -2559    -3095 
   -3535    -3376    -2630    -1923    -1473     -908     -105      457 
     284     -506    -1310    -1567    -1063     -108      619      667 
       1    -1287    -2884    -4044    -3946    -2378      -16     1876 
    2154      621    -1598    -2792    -2281     -957      -27        1 
    -606    -1021     -710     -256     -614    -1834    -3184    -3974 
   -3870    -3018    -2051    -1526    -1267     -685      310     1151 
    1278      700      -23     -415     -674    -1287    -2225    -3020 
   -3291    -2851    -1849     -959     -864    -1372    -1640    -1335 
    -863     -605     -627     -840     -964     -708     -179      374 
    1024     1657     1588      524     -880    -1889    -2209    -1842 
   -1395    -1807    -3019    -3837    -3356    -1676      489     2279 
    3121     2905     1737      -83    -1842    -2700    -2385    -1369 
    -388       62     -161     -804    -1319    -1576    -2197    -3537 
   -4891    -5159    -3976    -2166     -953     -890    -1897    -3654 
   -5469    -6402    -5957    -4441    -2607    -1141     -412     -338 
    -369       38      874     1829     2702     3155     2689     1218 
    -806    -2847    -4477    -5452    -5883    -6033    -5919    -5288 
   -4005    -2420    -1169     -569     -357     -156        8     -123 
    -602    -1288    -2009    -2552    -2736    -2619    -2401    -1996 
   -1214     -512     -649    -1484    -1990    -1495     -335      555 
     457     -528    -1686    -2401    -2479    -2032    -1352     -745 
    -411     -445     -690     -719     -425     -222     -318     -466 
    -532     -518     -194      473      966     1037     1127     1462 
    1691     1597     1368     1147      832      255     -729    -1958 
   -2822    -3017    -2971    -2975    -2721    -1979     -970        1 
     667      813      580      383      413      508      438      129 
    -409    -1046    -1396    -1058      -32     1139     1587      792 
    -810    -2152    -2682    -2820    -3015    -3118    -2953    -2600 
   -2091    -1481    -1025     -905    -1029    -1157    -1105     -890 
    -594     -154      309      221     -747    -2011    -2663    -2539 
   -2346    -2830    -4014    -5198    -5623    -5080    -3873    -2465 
   -1273     -561     -408     -709    -1109    -1142     -766     -533 
    -772    -1061     -948     -577     -459    -1020    -2098    -2878 
   -2767    -1995    -1127     -621     -741    -1208    -1488    -1621 
   -1875    -2055    -1985    -1998    -2466    -3292    -3921    -3831 
   -3120    -2391    -2231    -2788    -3440    -3240    -2035     -537 
     627     1209     1129      619      254      402      778      818 
     406     -129     -549     -713     -478      -90     -101     -812 
   -2079    -3219    -3383    -2478    -1126       91      846     1105 
    1220     1545     1809     1325        5    -1410    -2186    -2190 
   -1786    -1501    -1659    -2210    -2923    -3621    -4038    -3751 
   -2570     -892      569     1357     1338      568     -572    -1465 
   -1771    -1652    -1468    -1379    -1266     -982     -599     -363 
    -534    -1245    -2301    -3089    -2960    -1905     -703      -97 
     -78     -225     -421     -876    -1540    -2025    -2089    -1823 
   -1455    -1097     -720     -384     -161       93      451      659 
     525       49     -827    -1843    -2301    -2006    -1520    -1225 
   -1119    -1210    -1485    -1841    -2175    -2277    -1858     -920 
     114      752      700       83     -525     -729     -751    -1021 
   -1715    -2551    -2900    -2514    -1958    -1821    -1930    -1757 
   -1166     -461      -63     -279    -1018    -1825    -2473    -3142 
   -3932    -4534    -4352    -3065    -1276     -217     -390    -1069 
   -1419    -1314    -1025     -846     -870     -895     -776     -757 
   -1124    -1766    -2451    -3096    -3544    -3563    -3098    -2321 
   -1466     -753     -453     -737    -1387    -1897    -1820    -1027 
     135     1015     1206      717     -210    -1128    -1671    -1926 
   -2077    -2001    -1703    -1484    -1379    -1123     -689     -275 
     -82     -369    -1092    -1627    -1448     -770     -185       27 
     -48     -238     -273      109      741      980      265    -1377 
   -3373    -4907    -5328    -4635    -3489    -2404    -1281     -119 
     570      482     -157    -1023    -1679    -1568     -719      132 
     507      620      723      774      801      836      601      -60 
    -863    -1546    -2026    -2136    -1925    -1886    -2310    -2885 
   -3174    -3083    -2744    -2124    -1126      -52      548      367 
    -576    -2000    -3398    -4187    -4019    -3082    -1972    -1176 
    -683     -246       31     -121     -486     -552     -177      335 
     613      450     -101     -598     -465      271      923      957 
     295     -947    -2458    -3770    -4526    -4610    -4129    -3242 
   -1989     -493      836     1506     1327      451     -830    -2144 
   -3172    -3812    -4155    -4398    -4656    -4741    -4297    -3158 
   -1581      -79      920     1205      825      127     -479     -792 
    -733     -254      396      665      320     -262     -707    -1142 
   -1884    -3027    -4278    -5023    -4824    -3843    -2624    -1595 
    -855     -438     -524    -1041    -1492    -1552    -1354    -1227 
   -1531    -2452    -3656    -4438    -4293    -3235    -1700     -316 
     549     1035     1347     1352      808     -225    -1300    -1989 
   -2387    -3020    -4056    -4896    -4936    -4345    -3773    -3602 
   -3734    -3827    -3544    -2890    -2275    -1956    -1721    -1178 
    -106     1270     2307     2521     2061     1431     1030     1116 
    1698     2226     1920      622    -1045    -2389    -3132    -3261 
   -2957    -2585    -2341    -2105    -1716    -1132     -392      348 
     724      490      -81     -349      244     1615     2949     3535 
    3300     2485     1464      606       55     -127       50      319 
     443      437      215     -417    -1194    -1554    -1435    -1260 
   -1328    -1648    -2042    -2248    -2141    -1871    -1741    -1951 
   -2359    -2659    -2890    -3346    -4033    -4673    -4925    -4544 
   -3859    -3642    -4135    -4802    -5004    -4367    -2790     -786 
     488      275    -1010    -2519    -3830    -4822    -5494    -6034 
   -6576    -6940    -6798    -5996    -4784    -3801    -3604    -4155 
   -4879    -5164    -4704    -3543    -1999     -487      772     1864 
    2889     3531     3259     1988      236    -1176    -1588    -1001 
      46     1103     2022     2655     2737     2158     1201      391 
      45      -26     -319    -1041    -1720    -1735    -1110     -318 
     233      263     -120     -287      263     1275     2038     2102 
    1588     1013      813      998     1329     1547     1384      605 
    -919    -3076    -5402    -7355    -8591    -8841    -7937    -6169 
   -4277    -3027    -2765    -3190    -3500    -3004    -1832     -810 
    -477     -633     -755     -392      662     2187     3494     3861 
    3127     1613     -292    -2086    -3213    -3542    -3388    -3003 
   -2364    -1369      -40     1391     2517     2933     2476     1250 
    -426    -2069    -3297    -3875    -3466    -1678     1453     4969 
    7323     7555     5870     3190      556    -1290    -2201    -2469 
   -2217    -1280      295     2045     3261     3355     2389     1011 
    -207    -1143    -1890    -2372    -2350    -1612      -50     2161 
    4372     5607     5087     2772     -667    -4183    -6675    -7594 
   -7203    -6040    -4574    -3312    -2574    -2151    -1659    -1226 
   -1475    -2775    -4797    -6655    -7414    -6739    -4971    -2646 
    -325     1567     3147     4810     6365     6877     5507     2397 
   -1244    -3979    -5116    -4921    -4140    -3489    -3236    -3088 
   -2649    -1875    -1082     -848    -1717    -3673    -6036    -7738 
   -7834    -6255    -3971    -2250    -1878    -2794    -4228    -5327 
   -5695    -5399    -4698    -3842    -2921    -1804     -313     1538 
    3291     4088     3351     1445     -588    -1838    -1963    -1074 
     412     1821     2528     2346     1393     -264    -2365    -4304 
   -5675    -6527    -7137    -7759    -8147    -7464    -5171    -1665 
    2113     5181     6699     6293     4413     2061      -77    -1885 
   -3186    -3620    -3177    -2166     -846      478     1527     2393 
    2984     2616     1062    -1010    -2924    -4341    -5261    -6101 
   -7103    -8035    -8789    -9519   -10064    -9786    -8035    -4821 
   -1108     1829     3310     3395     2535     1157     -547    -2258 
   -3351    -3535    -3277    -3279    -3806    -4565    -4961    -4575 
   -3583    -2732    -2968    -4731    -7207    -8692    -7904    -4836 
    -638     3021     4739     4053     1717     -767    -2059    -1652 
      92     2351     4185     4728     3544     1059    -1661    -3716 
   -4777    -4939    -4497    -3685    -2734    -2033    -1846    -2121 
   -2700    -3370    -3930    -4404    -4813    -4849    -4154    -2723 
    -836     1112     2825     4431     6256     8170     9612     9939 
    8581     5531     1691    -1596    -3259    -3010    -1588     -354 
    -203     -822    -1236    -1032     -782    -1196    -2300    -3706 
   -5126    -6270    -6676    -6176    -5329    -4810    -4547    -3851 
   -2102      875     4798     8743    11148    10976     8646     5417 
    2652     1309     1206     1383     1352     1291     1475     1970 
    2426     2260     1140     -963    -3871    -7134   -10144   -12344 
  -13224   -12389    -9936    -6599    -3154       63     2899     5104 
    6403     6464     5081     2738      513     -778     -959     -286 
     678     1203      714     -879    -2945    -4403    -4577    -3621 
   -2122     -723      130      329        2     -602    -1134    -1242 
    -740      217     1219     1925     2329     2756     3602     4981 
    6461     7259     6873     5561     4158     3304     2963     2776 
    2397     1550      205    -1366    -2657    -3261    -3293    -3000 
   -2131     -394     1770     3509     4215     3517     1435    -1317 
   -3767    -5335    -5965    -5927    -5545    -5013    -4293    -3284 
   -2155    -1258     -802     -694     -584       -9     1426     3705 
    6228     8160     9081     9236     8947     7954     5777     2589 
    -732    -3333    -4753    -4882    -4025    -2756    -1496     -428 
     366      794      594     -543    -2324    -3819    -4510    -4742 
   -4929    -5052    -4874    -4149    -2704     -646     1210     1703 
     464    -1882    -4227    -5540    -5621    -5005    -4141    -3354 
   -3076    -3436    -4072    -4535    -4563    -4165    -3724    -3760 
   -4210    -4197    -2945     -670     1694     3291     3681     2803 
    1256      197       24     -132    -1093    -2768    -4609    -6061 
   -6659    -6116    -4439    -2057      221     1500     1062    -1331 
   -5125    -9222   -12452   -14000   -13854   -12532   -10492    -8208 
   -6319    -5257    -4813    -4260    -3022    -1163      730     2087 
    2860     3513     4438     5343     5527     4781     3577     2558 
    2197     2560     3120     3110     2264     1055      212      192 
     856     1495     1415      482     -777    -1433     -703     1385 
    3784     5232     5160     3708     1361    -1244    -3439    -4800 
   -5364    -5479    -5479    -5376    -4866    -3761    -2313    -1043 
    -297     -105     -437    -1331    -2678    -4031    -4914    -5245 
   -5198    -4920    -4537    -4187    -3855    -3366    -2747    -2300 
   -2170    -2246    -2431    -2567    -2370    -1890    -1583    -1525 
   -1226     -383      947     2582     3932     4164     3076     1245 
    -625    -2011    -2584    -2374    -1750     -956      148     1774 
    3859     5839     6731     5790     3082     -594    -4089    -6160 
   -5947    -3639     -413     2265     3447     3155     1938      390 
    -854    -1403    -1328     -814       58     1065     1858     2378 
    2738     2882     2718     2287     1701     1120      759      691 
     779      899      831       68    -1602    -3618    -5265    -6401 
   -7244    -7899    -8376    -8571    -8088    -6564    -4120    -1205 
    1712     4128     5630     6195     6055     5401     4585     4049 
    3584     2413      338    -1947    -3586    -4199    -4079    -3867 
   -3874    -3807    -3215    -2036     -733     -111     -801    -2530 
   -4197    -4737    -3773    -1636      889     2922     3929     3925 
    3299     2707     2783     3448     3982     3906     3144     1674 
    -165    -1583    -2062    -1595     -385     1003     1727     1447 
     512     -564    -1383    -1828    -2149    -2581    -3022    -3261 
   -3164    -2557    -1398      -36     1003     1362      974      127 
    -699    -1312    -1934    -2777    -3846    -4925    -5587    -5675 
   -5599    -5628    -5281    -3985    -1913      272     1918     2472 
    1756      165    -1691    -3248    -4074    -4071    -3390    -2283 
   -1148     -259      448     1113     1663     1800     1366      583 
    -260     -857     -788     -169      135     -487    -1780    -3077 
   -3758    -3502    -2475    -1055      513     2052     3351     4157 
    4274     3760     2894     1882      682     -753    -2174    -3126 
   -3176    -2109     -293     1387     2348     2609     2275     1483 
     603     -190    -1153    -2390    -3502    -4125    -4317    -4259 
   -4003    -3506    -2578    -1033      718     1693     1332     -117 
   -2176    -4358    -5983    -6483    -5697    -3678     -727     2338 
    4480     5079     4183     2240     -209    -2545    -4253    -5232 
   -5614    -5445    -4712    -3369    -1460      551     1918     2252 
    1775     1014      427       84     -360    -1200    -2303    -3294 
   -3945    -4267    -4381    -4471    -4724    -5194    -5829    -6421 
   -6463    -5432    -3228     -284     2468     3885     3382     1377 
   -1106    -2989    -3488    -2384     -190     1993     3138     2939 
    1600     -601    -3131    -5121    -5890    -5317    -3975    -2896 
   -2690    -3067    -3405    -3411    -3198    -2962    -2757    -2614 
   -2542    -2435    -2157    -1598     -779      -26      235        0 
    -252     -169      219      793     1225      895     -375    -2029 
   -3538    -4800    -5785    -6416    -6669    -6469    -5712    -4561 
   -3428    -2517    -1592     -340     1110     2094     2013      895 
    -858    -2674    -3634    -2982     -788     2267     5185     6779 
    6420     4616     2481      942      463      965     1941     2828 
    3299     3239     2566     1311     -196    -1530    -2404    -2587 
   -2068    -1292     -879    -1213    -2190    -3095    -3129    -2241 
   -1053     -170       15     -688    -2034    -3434    -4302    -4242 
   -3233    -1821     -882     -853    -1272    -1332     -723      123 
     379     -379    -1728    -2802    -2952    -2225    -1366    -1080 
   -1464    -2318    -3442    -4552    -5411    -5958    -6104    -5777 
   -5140    -4586    -4615    -5536    -7004    -8053    -7906    -6633 
   -4930    -3551    -2790    -2307    -1706    -1073     -675     -557 
    -730    -1386    -2597    -3988    -4867    -4621    -3275    -1728 
   -1013    -1340    -2175    -2996    -3660    -4208    -4576    -4522 
   -3865    -2774    -1691     -902     -261      578     1677     2677 
    3135     3026     2680     2264     1694     1004      463      436 
    1056     1982     2688     2778     1927       -6    -2687    -5332 
   -7126    -7752    -7394    -6334    -4894    -3471    -2389    -1871 
   -1951    -2311    -2403    -1949    -1221     -695     -573     -648 
    -501      136     1035     1504     1058      -55    -1359    -2651 
   -3753    -4377    -4417    -4012    -3390    -2880    -2801    -3190 
   -3898    -4688    -5111    -4741    -3508    -1638      377     1746 
    1900     1098      105     -504     -501       63      832     1317 
    1336     1136      932      688      314     -185     -512     -247 
     623     1704     2502     2607     1943      873     -225    -1317 
   -2448    -3433    -4045    -4254    -4154    -3849    -3495    -3222 
   -3046    -3051    -3482    -4436    -5561    -6200    -5935    -4893 
   -3480    -2037     -737      385     1366     2193     2585     2084 
     747     -642    -1337    -1242     -819     -688    -1134    -1838 
   -2172    -1886    -1425    -1362    -1730    -2071    -1839     -764 
     915     2599     3744     4250     4467     4667     4663     4055 
    2693      983     -258     -445      314     1487     2600     3373 
    3626     3161     1791     -375    -2730    -4348    -4453    -2942 
    -512     1799     3177     3282     2276      579    -1449    -3462 
