Origin Time       2016/04/16 01:25:00
Lat.              32.753
Long.             130.762
Depth. (km)       12
Mag.              7.3
Station Code      KGS019
Station Lat.      31.2776
Station Long.     130.3008
Station Height(m) 10
Record Time       2016/04/16 01:25:37
Sampling Freq(Hz) 100Hz
Duration Time(s)  101
Dir.              E-W
Scale Factor      3920(gal)/6182761
Max. Acc. (gal)   7.718
Last Correction   2016/04/16 01:25:37
Memo.             
[...]
    7404     6883     6275     5500     4833     4751     5420     6440 
    7313     7854     8022     7780     7286     6813     6459     6257 
    6368     6875     7560     8104     8263     7689     6241     4640 
    3917     4313     5383     6599     7539     8021     8169     8227 
    8395     8717     9032     9077     8739     8227     7874     7817 
    7939     7980     7645     6860     5995     5621     5923     6420 
    6436     5794     4802     3855     3196     2873     2979     3744 
    5041     6259     7010     7492     7975     8476     8897     9083 
    8935     8567     8100     7432     6386     5060     3867     3183 
    3146     3652     4336     4854     5224     5549     5758     6003 
    6635     7513     8072     7926     7042     5726     4601     4250 
    4702     5469     6204     6926     7544     7776     7601     7331 
    7181     7003     6622     6192     6001     6158     6633     7383 
    8238     8804     8716     8075     7414     7075     6858     6456 
    6019     6055     6883     8249     9406     9620     8747     7307 
    6033     5441     5601     6135     6583     6802     6965     7264 
    7623     7751     7434     6685     5838     5506     6038     7148 
    8320     9281    10045    10669    10899    10271     8863     7538 
    7095     7501     8103     8370     8213     7827     7546     7525 
    7440     6922     6092     5370     5114     5438     5955     6054 
    5710     5521     5834     6384     6791     6780     6163     5240 
    4669     4678     5081     5702     6227     6307     6019     5724 
    5610     5735     6128     6609     6916     7018     6976     6859 
    6939     7358     7783     7912     7895     7985     8087     7789 
    6846     5608     4767     4723     5287     5850     5931     5722 
    5912     6917     8383     9460     9611     9071     8468     8131 
    7833     7218     6328     5416     4603     4043     3951     4268 
    4603     4618     4459     4656     5488     6622     7431     7492 
    6887     6122     5733     6013     6853     7670     7889     7586 
    7299     7232     7019     6310     5258     4398     4280     5152 
    6769     8420     9336     9400     9313     9681    10216    10273 
    9749     9039     8416     7783     6899     5734     4748     4563 
    5252     6290     7118     7491     7494     7474     7754     8138 
    8005     7133     6042     5410     5533     6299     7368     8347 
    8930     9017     8682     8078     7424     6980     6835     6773 
    6520     6069     5675     5673     6218     6945     7324     7411 
    7614     7997     8316     8312     7862     7214     6896     7201 
    7857     8354     8454     8215     7812     7563     7689     7944 
    7909     7467     6721     5937     5565     5908     6863     8006 
    8800     8830     8091     7101     6328     5695     5003     4412 
    4230     4550     5115     5502     5535     5499     5874     6749 
    7532     7570     6932     6336     6439     7230     8047     8208 
    7561     6483     5499     4966     5066     5744     6606     7230 
    7517     7544     7325     6867     6408     6371     6966     8061 
    9280    10106    10311    10178     9997     9762     9378     8761 
    7930     7176     6841     6832     6710     6273     5865     6156 
    7521     9413    10552     9960     7786     5186     3512     3454 
    4638     6065     7034     7524     7796     7961     7915     7557 
    7010     6528     6272     6229     6294     6453     6811     7355 
    7887     8190     8184     7924     7529     7155     6925     6875 
    7049     7447     7832     7821     7332     6788     6663     6941 
    7214     7096     6484     5827     5927     7013     8312     8848 
    8371     7405     6632     6321     6257     6117     5822     5628 
    5795     6213     6506     6406     5896     5178     4603     4498 
    4987     6007     7344     8518     8891     8182     6756     5282 
    4299     3973     4003     3895     3447     2855     2430     2452 
    2948     3524     3779     3664     3440     3605     4547     6053 
    7496     8339     8319     7627     6927     6772     7188     7968 
    8807     9172     8611     7089     4995     3135     2330     2703 
    3704     4788     5771     6681     7514     8206     8755     9193 
    9490     9610     9670     9912    10375    10705    10421     9352 
    7872     6644     5996     5773     5878     6526     7855     9680 
   11546    12854    13236    12841    12024    10974     9787     8588 
    7429     6298     5262     4539     4429     5132     6482     7812 
    8348     7936     7112     6413     5971     5686     5473     5435 
    5795     6516     7112     7034     6157     4914     4016     3889 
    4294     4678     4803     4803     4811     4836     4913     5177 
    5678     6121     6036     5284     4183     3199     2740     3017 
    3753     4348     4499     4388     4418     4919     5840     6763 
    7345     7509     7199     6410     5421     4708     4741     5896 
    8163    10949    13414    14936    15237    14252    12084     9147 
    6227     4179     3521     4295     6124     8334    10218    11291 
   11368    10609     9422     8103     6684     5260     4145     3524 
    3225     2941     2506     2018     1807     2194     3096     3937 
    4225     3931     3214     2294     1523     1173     1328     2013 
    3193     4602     5625     5647     4725     3659     3435     4621 
    6905     9053     9753     8812     7268     6161     5578     4939 
    3664     1657     -427    -1622    -1528     -447     1189     3150 
    5310     7542     9590    10787    10258     7818     4430     1604 
     528     1407     3344     5220     6670     8053     9713    11419 
   12426    12046    10415     8649     7867     8134     8693     8888 
    8528     7735     6842     6258     6243     6929     8328    10093 
   11614    12451    12394    11412     9754     7802     5906     4463 
    3943     4616     6158     7697     8523     8634     8496     8451 
    8460     8227     7458     6231     5181     5040     5977     7574 
    9205    10406    11090    11485    11799    11954    11687    10905 
    9896     9132     8949     9252     9386     8586     6623     4119 
    2276     1898     2788     4320     6241     8730    11781    14769 
   16671    16702    14926    12131     9164     6728     5208     4300 
    3395     2333     1387      866     1075     2298     4573     7686 
   11253    14563    16679    16991    15638    13353    10968     9118 
    8033     7515     7426     7989     9374    11377    13445    14688 
   14264    12164     9307     6809     5509     5852     7636    10022 
   12018    12929    12553    11171     9452     8198     7862     8251 
    8801     9132     9267     9217     8720     7655     6209     4413 
    2140     -300    -2066    -2282     -489     2947     6805     9842 
   11700    12762    13242    12991    12154    11233    10684    10801 
   11528    12439    13051    12959    12024    10534     8915     7408 
    6199     5818     6934     9333    11619    12452    11591     9580 
    7058     4534     2380      821     -108     -444     -205      452 
    1325     2419     3650     4698     5519     6498     7995    10194 
   13080    16096    18165    18263    15991    11861     7043     2801 
      51     -915     -303     1701     5000     8806    11325    11064 
    8286     4678     1853      427       94      195      396      923 
    2105     3821     5268     5276     3440      906     -569     -232 
    1317     2909     3670     3671     3925     5323     7578     9383 
    9619     8357     6613     5389     5042     5178     5144     4737 
    4287     4213     4669     5394     5803     5483     4701     4165 
    4291     4956     5711     5924     5120     3556     2083     1394 
    1554     2081     2508     2853     3405     4331     5500     6365 
    6235     5121     4022     3931     4783     5587     5417     4137 
    2253      450     -789    -1492    -2077    -2745    -3134    -2763 
   -1656     -256     1145     2695     4792     7654    10808    13156 
   13909    13340    12375    11572    10737     9335     7051     4275 
    2015      970      907     1035      683     -297    -1392    -1770 
   -1161     -206      305      216      -12      180     1027     2320 
    3593     4572     5265     5597     5425     4865     4293     4131 
    4695     6133     8169    10028    11010    10836     9431     7050 
    4468     2506     1572     1782     3073     5180     7648     9770 
   10801    10534     9412     8000     6654     5675     5224     5053 
    4814     4517     4517     5200     6475     7539     7538     6428 
    4951     3909     3740     4515     6051     8187    10995    14361 
   17393    18888    18440    16584    14087    11572     9354     7320 
    5357     3806     3083     3258     4288     6013     7765     8748 
    8904     8835     9006     9493    10137    10581    10547    10151 
    9686     9452     9782    10740    11947    12899    13327    13317 
   13023    12216    10495     8057     5847     4906     5610     7231 
    8343     8159     7198     6364     5953     5815     5829     5924 
    6077     6395     7023     7987     9023     9651     9476     8600 
    7896     8466    10562    13300    15317    15646    14272    11934 
    9347     6822     4616     3164     2794     3465     4901     6692 
    8218     8972     8939     8373     7448     6321     5347     4915 
    5184     6085     7237     8035     8065     7283     5910     4259 
    2569     1178      650     1420     3488     6281     8694     9872 
   10019    10054    10796    12412    14011    14246    12870    11103 
   10252    10444    10791    10312     8533     5809     3341     2422 
    3319     5104     6686     7676     8342     9153    10102    10434 
    9479     7458     5309     3832     3068     2631     2378     2414 
    2752     3349     4155     4798     4841     4442     4141     4256 
    4652     4848     4523     3885     3335     3050     3020     3176 
    3409     3741     4417     5593     7157     8946    10765    12152 
   12412    11161     8840     6450     4893     4611     5310     6024 
    5835     4510     2505      598     -567     -725      -39     1090 
    2402     3901     5586     7288     8754     9676     9812     9287 
    8536     7961     7818     8060     8220     7760     6616     5387 
    4832     5155     5911     6417     6400     6388     7072     8412 
    9773    10506    10200     8928     7379     6263     5663     5297 
    4976     4575     4112     4018     4679     5670     6136     5719 
    4564     2992     1559      905     1250     2188     3055     3520 
    3742     4029     4537     5301     6343     7578     8684     9282 
    9172     8472     7611     6964     6526     6098     5516     4676 
    3612     2676     2362     2895     4252     6271     8489    10180 
   10719    10044     8673     7039     5266     3614     2590     2700 
    4089     6175     7931     8502     7531     5433     3230     1708 
    1026     1132     2226     4526     7608    10396    11800    11165 
    8564     4974     1730     -330     -989     -302     1592     4403 
    7523    10090    11507    11753    11079     9827     8464     7228 
    6033     5010     4659     5279     6596     7957     8778     8911 
    8608     8133     7589     7090     6782     6530     5875     4678 
    3646     3770     5242     7339     9296    10812    11800    12139 
   11693    10360     8204     5780     3993     3207     2984     3000 
    3507     4833     6954     9523    11851    12972    12342    10304 
    7598     5021     3350     2998     3927     5640     7198     7864 
    7577     6760     6013     5712     5689     5584     5441     5662 
    6501     7831     9253    10203    10241     9491     8558     7918 
    7575     7262     6898     6720     6880     7129     7004     6322 
    5544     5481     6444     7821     8662     8579     7833     6785 
    5703     4813     4232     4049     4369     5078     5736     5936 
    5834     5987     6599     7414     8208     8954     9639    10106 
   10007     9014     7355     6061     6180     7828    10237    12342 
   13385    13426    13228    13358    13569    13219    12008    10298 
    8859     8095     7744     7464     7091     6397     5281     4066 
    3178     2708     2549     2703     3203     3970     4851     5534 
    5714     5523     5228     4630     3556     2551     2302     2828 
    3786     5055     6487     7563     7835     7374     6579     5783 
    5204     5143     5866     7172     8381     8844     8463     7723 
    7133     6670     5816     4236     2465     1694     2655     4848 
    6897     7636     6854     5258     3892     3390     3781     4895 
    6405     7604     7823     7082     5973     5015     4340     3822 
    3366     3131     3339     3917     4573     5212     6139     7675 
    9613    11285    12050    11575    10009     8151     7144     7447 
    8168     7914     6177     3622     1437      594     1316     3034 
    4922     6431     7501     8385     9211     9837    10106    10019 
    9675     9121     8252     6934     5300     3871     3265     3839 
    5448     7341     8629     9029     9017     9294    10018    10689 
   10757    10026     8714     7509     7411     8974    11707    14628 
   17057    18633    18937    17466    14305    10679     8134     7110 
    6746     6081     5034     4194     4122     4954     6235     7087 
    7014     6425     6051     6164     6507     6758     6958     7391 
    8238     9515    10967    11983    12017    10996     9205     7080 
    5000     3126     1605      857     1358     3077     5211     6701 
    7010     6309     5219     4439     4260     4438     4624     4741 
    4916     5166     5288     5100     4681     4238     3878     3602 
    3443     3533     4044     5111     6798     8972    11273    13281 
   14483    14348    12796    10312     7590     5289     3838     3376 
    3983     5589     7657     9404    10335    10421     9938     9207 
    8434     7752     7468     8153    10081    12575    14299    14189 
   11971     8318     4721     2623     2342     3159     4401     5946 
    7761     9559    10908    11416    10961     9806     8453     7309 
    6551     6238     6242     6271     6210     6099     5867     5362 
    4557     3741     3394     3684     4344     5072     5688     6141 
    6632     7317     7757     7261     5823     4259     3410     3526 
    4256     4967     5242     5232     5319     5548     5612     5299 
    4846     4658     4750     4777     4537     4292     4484     5332 
    6779     8460     9795    10395    10309     9816     9143     8519 
    8194     8075     7746     7101     6558     6476     6800     7343 
    7975     8516     8721     8345     7330     6058     5168     4942 
    5021     4827     4102     3012     2014     1627     2062     3001 
    3866     4408     4903     5743     6950     8220     9289    10003 
   10249    10105     9757     9175     8212     7021     6230     6575 
    8218    10528    12557    13589    13399    12249    10549     8628 
    6890     5732     5198     5097     5398     6123     7053     7846 
    8299     8390     8238     8034     7866     7703     7505     7194 
    6759     6464     6596     7158     8053     9182    10272    11000 
   11275    11104    10359     8946     7073     5231     3987     3683 
    4226     5258     6416     7295     7582     7394     7110     6984 
    7129     7476     7721     7602     7196     6806     6625     6624 
    6671     6800     7241     7959     8528     8631     8192     7192 
    5815     4524     3784     3791     4377     5112     5602     5709 
    5518     5131     4618     4108     3862     4220     5355     7043 
    8748     9938    10493    10709    10761    10487     9885     9430 
    9668    10566    11511    11886    11386    10114     8681     7754 
    7348     6944     6233     5479     5283     6076     7685     9370 
   10359    10303     9322     7877     6642     6180     6548     7350 
    8291     9329    10196    10352     9602     8313     6918     5592 
    4516     4022     4298     5265     6770     8616    10410    11588 
   11734    10936     9728     8587     7624     6857     6400     6162 
    5844     5377     5002     4929     5152     5397     5299     4792 
    4146     3705     3723     4194     4696     4619     3764     2634 
    1911     1796     2038     2416     2996     3893     5025     6177 
    7001     7054     6179     4800     3752     3727     4726     6107 
    7215     7876     8265     8502     8596     8659     8849     9224 
    9808    10501    10879    10409     9007     7198     5672     4813 
    4683     5104     5746     6379     6902     7223     7300     7086 
    6421     5300     4158     3554     3625     3994     4231     4294 
    4284     4120     3760     3360     3077     3035     3396     4180 
    5033     5474     5461     5429     5778     6532     7444     8339 
    9267    10313    11405    12359    12934    12877    12127    11003 
    9952     9065     8011     6506     4770     3467     3204     4036 
    5391     6430     6573     5906     5144     5031     5739     6812 
    7617     7831     7566     7054     6414     5740     5146     4696 
    4493     4758     5508     6273     6481     6065     5438     5119 
    5487     6548     7864     8931     9527     9682     9636     9723 
    9916     9726     8848     7615     6665     6409     6868     7697 
    8347     8435     7961     7167     6207     5064     3869     3041 
    2948     3613     4737     5902     6787     7192     7108     6849 
    6675     6378     5681     4811     4380     4848     6035     7153 
    7489     6956     6021     5314     5224     5688     6367     7042 
    7709     8290     8434     7696     6026     3996     2417     1833 
    2307     3473     4865     6255     7716     9365    10893    11471 
   10341     7544     4033     1114     -268       21     1287     2529 
    3186     3371     3523     3989     4776     5614     6291     6855 
    7468     8095     8386     7984     6848     5263     3826     3277 
    3963     5666     7932    10150    11576    11788    10951     9474 
    7756     6252     5339     5123     5581     6724     8373     9907 
   10502     9735     7859     5710     4419     4703     6305     8308 
    9844    10453    10051     8853     7341     6072     5421     5489 
    6184     7332     8734    10146    11243    11614    11044     9775 
    8242     6740     5456     4503     3975     4079     4930     6242 
    7433     8034     7927     7357     6864     6977     7770     8820 
    9534     9459     8548     7249     6123     5291     4503     3706 
    3226     3422     4376     5785     6963     7262     6666     5714 
    4818     4069     3654     3850     4752     6270     8023     9357 
    9843     9594     9065     8646     8336     7955     7527     7248 
    7302     7707     8218     8574     8754     8804     8660     8222 
    7448     6449     5553     5140     5314     5843     6410     6862 
    7216     7498     7677     7759     7772     7729     7695     7712 
