Origin Time       2016/04/16 01:25:00
Lat.              32.753
Long.             130.762
Depth. (km)       12
Mag.              7.3
Station Code      KGS017
Station Lat.      31.3954
Station Long.     130.8702
Station Height(m) 64
Record Time       2016/04/16 01:25:35
Sampling Freq(Hz) 100Hz
Duration Time(s)  122
Dir.              N-S
Scale Factor      3920(gal)/6182761
Max. Acc. (gal)   8.009
Last Correction   2016/04/16 01:25:35
Memo.             
[...]
   -5107    -5214    -5338    -5437    -5463    -5429    -5346    -5206 
   -5070    -4988    -4946    -4960    -5040    -5174    -5337    -5454 
   -5484    -5445    -5340    -5180    -4994    -4828    -4737    -4739 
   -4827    -4990    -5181    -5347    -5468    -5552    -5585    -5522 
   -5370    -5181    -4975    -4769    -4591    -4439    -4334    -4350 
   -4523    -4817    -5168    -5493    -5735    -5887    -5916    -5810 
   -5595    -5294    -5007    -4840    -4776    -4777    -4831    -4968 
   -5197    -5428    -5559    -5547    -5409    -5180    -4904    -4652 
   -4495    -4493    -4684    -5018    -5381    -5696    -5954    -6113 
   -6102    -5920    -5592    -5172    -4830    -4691    -4716    -4878 
   -5182    -5549    -5869    -6051    -6046    -5896    -5701    -5511 
   -5309    -5094    -4924    -4856    -4898    -5041    -5267    -5538 
   -5807    -6010    -6115    -6136    -6049    -5831    -5558    -5327 
   -5162    -5056    -5058    -5196    -5436    -5744    -6046    -6255 
   -6274    -6057    -5718    -5370    -5052    -4879    -4946    -5162 
   -5399    -5613    -5743    -5752    -5687    -5587    -5457    -5319 
   -5179    -5097    -5166    -5334    -5462    -5548    -5638    -5705 
   -5749    -5787    -5804    -5840    -5879    -5792    -5518    -5106 
   -4696    -4431    -4308    -4296    -4433    -4694    -4989    -5224 
   -5289    -5163    -4966    -4758    -4458    -4073    -3738    -3531 
   -3554    -3940    -4633    -5415    -6106    -6548    -6587    -6221 
   -5600    -4886    -4196    -3590    -3154    -2988    -3109    -3467 
   -3953    -4449    -4901    -5183    -5103    -4664    -4039    -3406 
   -2960    -2863    -3096    -3493    -3905    -4283    -4606    -4826 
   -4956    -5037    -4977    -4714    -4420    -4275    -4221    -4130 
   -4084    -4186    -4287    -4232    -4049    -3825    -3705    -3789 
   -3967    -4065    -4036    -3924    -3782    -3672    -3648    -3762 
   -4089    -4568    -4975    -5241    -5515    -5820    -5957    -5845 
   -5684    -5651    -5667    -5659    -5702    -5822    -6059    -6495 
   -7016    -7349    -7339    -7037    -6611    -6190    -5833    -5538 
   -5183    -4723    -4340    -4152    -4156    -4375    -4721    -5051 
   -5344    -5630    -5852    -5963    -6029    -6068    -6003    -5812 
   -5571    -5399    -5403    -5639    -6090    -6631    -7093    -7377 
   -7430    -7217    -6753    -6060    -5171    -4264    -3707    -3783 
   -4470    -5557    -6652    -7343    -7517    -7200    -6367    -5151 
   -3915    -3064    -2851    -3340    -4358    -5495    -6416    -6997 
   -7103    -6674    -5939    -5223    -4750    -4657    -4949    -5441 
   -5874    -6146    -6279    -6224    -5950    -5444    -4745    -4094 
   -3590    -3131    -2854    -2918    -3270    -3901    -4805    -5779 
   -6473    -6619    -6203    -5434    -4605    -3948    -3566    -3500 
   -3762    -4283    -4912    -5400    -5501    -5261    -4923    -4590 
   -4284    -4103    -4062    -3994    -3823    -3688    -3604    -3387 
   -2966    -2510    -2306    -2529    -2993    -3311    -3328    -3111 
   -2760    -2507    -2683    -3395    -4430    -5499    -6483    -7362 
   -8066    -8499    -8586    -8336    -7896    -7359    -6762    -6250 
   -5969    -5995    -6233    -6460    -6743    -7178    -7412    -7268 
   -7200    -7573    -8083    -8268    -8144    -8009    -7994    -7985 
   -7790    -7374    -6718    -5732    -4531    -3400    -2519    -1965 
   -1879    -2481    -3827    -5570    -7114    -8065    -8493    -8592 
   -8122    -6649    -4428    -2409    -1328    -1264    -1848    -2772 
   -4109    -5768    -7266    -8321    -8914    -8979    -8509    -7692 
   -6687    -5602    -4930    -5193    -6185    -7502    -8915    -9901 
  -10028    -9453    -8472    -7270    -6073    -5037    -4128    -3439 
   -3309    -3728    -4301    -5002    -6095    -7411    -8321    -8234 
   -7008    -5025    -2826     -749      989     1897     1398     -330 
   -2386    -4168    -5584    -6463    -6472    -5537    -3897    -1992 
    -575     -119     -245     -744    -1887    -3343    -4514    -5216 
   -5326    -4872    -4042    -2894    -1573     -419      189      116 
    -412    -1220    -2299    -3639    -5157    -6460    -7144    -7257 
   -7013    -6442    -5478    -4261    -3261    -2653    -2094    -1567 
   -1461    -1794    -2267    -2661    -2924    -3200    -3646    -4245 
   -4873    -5460    -6044    -6579    -6810    -6561    -5948    -5182 
   -4393    -3661    -3080    -2732    -2671    -2846    -3098    -3429 
   -4021    -4866    -5839    -6978    -8259    -9323    -9683    -9122 
   -7848    -6355    -5207    -4634    -4424    -4410    -4577    -4744 
   -4651    -4299    -4108    -4542    -5542    -6805    -8108    -9023 
   -9190    -8738    -7999    -7236    -6684    -6508    -6717    -7219 
   -7852    -8347    -8578    -8760    -8987    -9047    -8900    -8660 
   -8441    -8474    -8595    -8162    -6964    -5394    -3989    -3117 
   -2819    -3062    -3831    -4903    -5873    -6328    -6114    -5504 
   -4914    -4601    -4601    -4716    -4758    -4648    -4375    -4319 
   -5078    -6648    -8392    -9655   -10162   -10066    -9541    -8504 
   -6843    -4877    -3412    -2962    -3311    -4124    -5314    -6923 
   -8870   -10578   -11293   -10803    -9476    -7785    -5930    -4005 
   -2353    -1436    -1554    -2611    -4058    -5414    -6554    -7213 
   -6996    -6033    -4840    -3652    -2630    -2308    -2998    -4177 
   -5021    -5163    -4927    -4950    -5286    -5330    -4817    -4080 
   -3388    -2652    -1694     -687     -315    -1039    -2197    -2689 
   -2354    -1751    -1157     -624     -218      162      512      535 
     178     -208     -413     -558     -782    -1220    -2014    -3020 
   -4056    -5140    -6164    -6984    -7545    -7698    -7385    -6682 
   -5839    -5334    -5324    -5437    -5290    -4869    -4518    -4523 
   -4805    -5169    -5514    -5771    -5764    -5132    -3826    -2469 
   -1597    -1151     -972    -1075    -1439    -1954    -2518    -3085 
   -3792    -4889    -6199    -7147    -7565    -7759    -7809    -7522 
   -7048    -6913    -7314    -7998    -8749    -9417    -9853   -10031 
   -9769    -8875    -7765    -7111    -7153    -7813    -8963   -10336 
  -11514   -12186   -12284   -11933   -11367   -10740   -10153    -9808 
   -9786    -9827    -9545    -8789    -7761    -6776    -6066    -5695 
   -5437    -4910    -3949    -2700    -1376      -88      999     1575 
    1437      665     -392    -1252    -1739    -2132    -2693    -3356 
   -3881    -4168    -4341    -4524    -4811    -5290    -5895    -6504 
   -6995    -7229    -7211    -6981    -6423    -5527    -4646    -4051 
   -3473    -2584    -1483     -565     -313     -890    -1898    -2813 
   -3431    -3881    -4278    -4476    -4451    -4480    -4677    -4845 
   -4791    -4646    -4750    -5082    -5224    -4811    -3928    -3224 
   -3137    -3335    -3390    -3217    -2847    -2299    -1513     -501 
     286      121    -1208    -3147    -5105    -6701    -7402    -6876 
   -5390    -3465    -1780     -951     -851    -1036    -1648    -2939 
   -4582    -5933    -6743    -7573    -9092   -10999   -12268   -12285 
  -11266    -9649    -7635    -5600    -4246    -4023    -4884    -6348 
   -7641    -8374    -8652    -8426    -7624    -6480    -5340    -4511 
   -3993    -3529    -3301    -3862    -5184    -6517    -7332    -7728 
   -7833    -7565    -6892    -5981    -5434    -5918    -7311    -9029 
  -10782   -12335   -13430   -14117   -14431   -14312   -13987   -13666 
  -13133   -12079   -10474    -8494    -6302    -4190    -2714    -2219 
   -2472    -3058    -3728    -4352    -4852    -5036    -4518    -3114 
   -1283      233     1049     1199      844      -47    -1519    -3085 
   -4136    -4645    -4875    -4933    -4561    -3420    -1766     -232 
     603      325    -1029    -3092    -5341    -7083    -7944    -8122 
   -8108    -8287    -8513    -8456    -8291    -8304    -8331    -8076 
   -7663    -7617    -8126    -8712    -8830    -8297    -7294    -6146 
   -4961    -3777    -2871    -2533    -2676    -3022    -3466    -3899 
   -4071    -3816    -3036    -1937    -1039     -476      -17      286 
     136     -508    -1287    -2016    -2973    -4304    -5838    -7218 
   -7831    -7337    -6039    -4489    -3060    -1712     -390      705 
    1645     2638     3541     4157     4330     3853     2745     1220 
    -368    -1543    -2220    -2777    -3331    -3651    -3785    -4086 
   -4609    -5145    -5704    -6367    -7052    -7716    -8366    -8948 
   -9499   -10012   -10256   -10062    -9525    -8887    -8433    -8318 
   -8514    -8998    -9742   -10487   -10893   -10796   -10149    -9026 
   -7667    -6330    -5254    -4535    -4154    -4167    -4381    -4372 
   -4161    -4101    -4274    -4680    -5444    -6568    -7989    -9554 
  -10828   -11470   -11467   -10745    -9177    -6987    -4747    -2937 
   -1727    -1148    -1119    -1457    -2019    -2580    -2843    -2750 
   -2510    -2441    -2715    -3188    -3704    -4076    -3772    -2658 
   -1417     -549     -276    -1055    -3044    -5787    -8561   -10509 
  -11056   -10509    -9566    -8482    -7217    -5912    -4865    -4317 
   -4343    -4573    -4378    -3781    -3230    -2658    -1883    -1140 
    -636     -339     -189     -319     -895    -1765    -2540    -2743 
   -2080     -890      200      829      971      731      -38    -1556 
   -3487    -5085    -5805    -5696    -5348    -5325    -5807    -6676 
   -7725    -8947   -10516   -12323   -13912   -14970   -15506   -15563 
  -15201   -14537   -13321   -11122    -8162    -5275    -3102    -1674 
    -718     -235     -506    -1471    -2508    -2954    -2758    -2523 
   -2743    -3152    -3126    -2513    -1667     -888     -288     -144 
    -890    -2624    -4780    -6548    -7665    -8505    -9263    -9552 
   -9164    -8510    -8015    -7756    -7532    -7006    -6219    -5666 
   -5654    -6009    -6365    -6521    -6557    -6678    -6933    -7016 
   -6566    -5595    -4413    -3480    -3195    -3379    -3464    -3277 
   -2970    -2647    -2405    -2223    -2086    -2282    -2935    -3706 
   -4295    -4601    -4632    -4662    -4848    -4828    -4452    -4417 
   -5334    -6634    -7197    -6633    -5479    -4590    -4512    -5127 
   -5970    -6882    -8033    -9378   -10487   -10947   -10666    -9839 
   -8773    -7639    -6476    -5383    -4499    -3868    -3571    -3782 
   -4338    -4889    -5413    -5839    -5819    -5177    -4019    -2744 
   -1908    -1731    -2020    -2345    -2209    -1575     -913     -558 
    -575     -990    -1732    -2449    -2789    -2953    -3303    -3606 
   -3341    -2375    -1135     -287     -187     -738    -1685    -2830 
   -4043    -5141    -5784    -5641    -4713    -3489    -2577    -2145 
   -2167    -2799    -3936    -5177    -6404    -7551    -8239    -8218 
   -7816    -7691    -8247    -9400   -10807   -12267   -13782   -15126 
  -15792   -15513   -14317   -12525   -10778    -9276    -7616    -5759 
   -4254    -3523    -3349    -3109    -2463    -1643    -1215    -1441 
   -1785    -1633    -1197    -1015    -1198    -1598    -2121    -2723 
   -3498    -4510    -5434    -5992    -6332    -6398    -5856    -4988 
   -4393    -4021    -3582    -3014    -2152    -1136     -588     -696 
   -1235    -2276    -3780    -5224    -6120    -6261    -5651    -4657 
   -3716    -2791    -1737     -875     -470     -269       38      514 
     968      976      384     -718    -2428    -4563    -6533    -7940 
   -8648    -8836    -8985    -9299    -9543    -9500    -9200    -8669 
   -7754    -6579    -5623    -5013    -4531    -4152    -4000    -4237 
   -4908    -5696    -6355    -7033    -7907    -8925    -9708    -9746 
   -8931    -7666    -6504    -5631    -4739    -3682    -2691    -1985 
   -1735    -2108    -3047    -4200    -5164    -5812    -6231    -6411 
   -6288    -5971    -5612    -5246    -4895    -4595    -4205    -3573 
   -2926    -2536    -2328    -2305    -2712    -3670    -5035    -6571 
   -8184    -9637   -10471   -10638   -10365    -9712    -8922    -8382 
   -8258    -8503    -8852    -8962    -8597    -7626    -6117    -4318 
   -2500     -972        2      294     -170    -1309    -2835    -4589 
   -6628    -8716   -10252   -10909   -10772   -10030    -8915    -7674 
   -6445    -5301    -4373    -3697    -3064    -2335    -1553     -818 
    -434     -675    -1324    -1927    -2096    -1579     -506      839 
    2398     4040     5348     5859     5316     3865     2044      372 
   -1017    -2245    -3368    -4396    -5409    -6398    -7206    -7689 
   -7793    -7545    -7071    -6685    -6699    -7037    -7421    -7627 
   -7469    -7010    -6511    -6106    -5673    -4996    -4189    -3611 
   -3430    -3645    -4169    -5005    -6353    -8073    -9651   -10721 
  -10920    -9980    -8252    -6433    -5031    -4203    -3977    -4460 
   -5536    -6776    -7717    -7929    -7260    -6138    -5268    -4954 
   -4905    -4837    -4810    -4897    -5139    -5552    -5916    -5982 
   -5736    -5259    -4587    -3718    -2724    -1853    -1496    -1803 
   -2393    -2870    -3173    -3223    -3090    -3142    -3515    -4136 
   -5005    -6057    -7181    -8168    -8809    -9320   -10088   -11155 
  -12363   -13447   -13941   -13604   -12685   -11394    -9616    -7471 
   -5565    -4331    -3641    -3204    -2762    -1968     -677      855 
    2390     3971     5607     6952     7532     7257     6534     5838 
    5232     4352     2892      877    -1517    -3967    -6042    -7790 
   -9544   -11009   -11751   -11965   -11887   -11644   -11586   -11760 
  -11748   -11399   -11112   -11305   -11864   -12248   -11992   -11156 
  -10180    -9259    -8383    -7714    -7461    -7805    -8725    -9736 
  -10254   -10013    -9139    -7975    -6635    -5062    -3465    -2098 
    -969     -104      343      397      298      128     -312    -1117 
   -2017    -2618    -2802    -2747    -2711    -2852    -3149    -3560 
   -4136    -4962    -6104    -7417    -8428    -8800    -8615    -8019 
   -7165    -6527    -6576    -7336    -8687   -10516   -12430   -13918 
  -14683   -14599   -13723   -12336   -10828    -9741    -9564   -10140 
  -10765   -10942   -10590    -9651    -8007    -5793    -3311     -789 
    1429     2866     3358     3158     2573     1847     1203      652 
     150      -69       74      154     -374    -1802    -3870    -5957 
   -7870    -9692   -11095   -11715   -11593   -10881    -9753    -8527 
   -7506    -6812    -6359    -5965    -5596    -5356    -5140    -4692 
   -4070    -3581    -3372    -3470    -3786    -3834    -3069    -1589 
    -115      770     1155     1324     1193      651     -118     -975 
   -1924    -2795    -3320    -3466    -3272    -2668    -1785     -993 
    -573     -826    -2139    -4435    -6908    -8630    -9275    -9132 
   -8639    -8081    -7633    -7571    -8130    -9121    -9992   -10263 
   -9757    -8691    -7551    -6674    -6050    -5600    -5473    -5794 
   -6320    -6637    -6549    -6177    -5652    -5047    -4554    -4192 
   -3741    -3143    -2551    -2154    -2114    -2411    -2822    -3207 
   -3684    -4342    -5125    -6054    -7027    -7757    -8207    -8456 
   -8377    -7948    -7358    -6749    -6254    -6055    -6195    -6522 
   -6968    -7593    -8308    -8942    -9554   -10381   -11318   -11802 
  -11500   -10652    -9640    -8743    -7955    -7001    -6013    -5430 
   -5131    -4650    -3808    -2712    -1579     -565      324     1080 
    1647     2030     2359     2787     3409     4228     4993     5246 
    4767     3711     2336      779    -1071    -3306    -5594    -7442 
   -8659    -9343    -9596    -9486    -9108    -8482    -7674    -6999 
   -6716    -6701    -6652    -6383    -5958    -5678    -5694    -5732 
   -5519    -5199    -5080    -5184    -5253    -5048    -4588    -4144 
   -3839    -3468    -2955    -2559    -2597    -3151    -4012    -5034 
   -6297    -7850    -9554   -11132   -12286   -12862   -12927   -12584 
  -11778   -10546    -9279    -8435    -8107    -8122    -8384    -8936 
   -9714   -10345   -10403    -9861    -9034    -8196    -7301    -6107 
   -4562    -2868    -1301      -94      665      936      606     -201 
   -1029    -1523    -1603    -1352     -948     -654     -719    -1031 
   -1195    -1119    -1127    -1498    -2116    -2719    -3346    -4176 
   -5205    -6277    -7065    -7251    -6899    -6314    -5677    -5013 
   -4423    -4206    -4550    -5203    -5654    -5591    -5159    -4708 
   -4378    -4182    -4198    -4545    -5414    -6814    -8326    -9453 
  -10068   -10390   -10558   -10438    -9928    -9036    -7715    -6104 
   -4563    -3340    -2540    -2122    -1840    -1538    -1378    -1622 
   -2173    -2498    -2098     -946      463     1609     2398     2839 
    2699     1812      242    -1889    -4335    -6636    -8339    -9171 
   -9049    -8174    -6923    -5558    -4345    -3623    -3412    -3399 
   -3435    -3650    -4166    -4933    -5641    -5794    -5192    -4206 
   -3309    -2574    -1818     -948      -69      570      762      552 
     190     -105     -257     -223      104      629     1001      996 
     647       88     -645    -1770    -3481    -5459    -7107    -8183 
   -8870    -9394    -9773    -9947   -10045   -10365   -11134   -12262 
  -13411   -14316   -14857   -14998   -14857   -14520   -13859   -12809 
  -11566   -10473    -9839    -9682    -9607    -9247    -8661    -8037 
   -7443    -6899    -6359    -5834    -5489    -5295    -4962    -4384 
   -3798    -3617    -4154    -5293    -6494    -7281    -7596    -7611 
   -7418    -6990    -6401    -5890    -5462    -4794    -3779    -2765 
   -2161    -2157    -2743    -3707    -4771    -5764    -6512    -6790 
   -6492    -5706    -4688    -3843    -3500    -3591    -3722    -3599 
   -3150    -2328    -1097      318     1444     1987     2043     1879 
    1660     1320      850      568      765     1222     1357      751 
    -603    -2464    -4534    -6493    -7915    -8415    -8059    -7348 
   -6714    -6292    -6075    -6005    -5974    -5920    -5965    -6342 
   -7214    -8617   -10344   -12044   -13404   -14073   -13736   -12421 
  -10560    -8716    -7287    -6433    -6055    -5889    -5838    -6011 
   -6448    -7126    -8012    -8936    -9669   -10087   -10129    -9745 
   -8862    -7478    -5745    -3909    -2311    -1311    -1027    -1307 
   -1940    -2736    -3498    -4063    -4367    -4504    -4734    -5273 
   -6052    -6680    -6726    -6065    -4949    -3811    -2907    -2253 
   -1872    -1888    -2450    -3474    -4591    -5426    -5744    -5587 
   -5361    -5478    -6062    -6972    -7874    -8412    -8387    -7892 
   -7282    -6863    -6686    -6646    -6626    -6644    -6818    -7054 
   -6993    -6363    -5285    -4162    -3346    -2984    -3125    -3859 
   -5140    -6490    -7245    -7128    -6384    -5523    -5064    -5154 
   -5458    -5661    -5741    -5771    -5805    -5724    -5209    -4120 
   -2715    -1416     -432      365     1130     1763     2059     1962 
    1628     1360     1312     1298     1072      548     -274    -1323 
   -2476    -3599    -4530    -5186    -5707    -6329    -7136    -7962 
   -8589    -8972    -9120    -8991    -8651    -8302    -8077    -8007 
