Origin Time       2016/04/16 01:25:00
Lat.              32.753
Long.             130.762
Depth. (km)       12
Mag.              7.3
Station Code      KGS015
Station Lat.      31.4304
Station Long.     131.0110
Station Height(m) 34
Record Time       2016/04/16 01:25:33
Sampling Freq(Hz) 100Hz
Duration Time(s)  160
Dir.              E-W
Scale Factor      3920(gal)/6182761
Max. Acc. (gal)   14.275
Last Correction   2016/04/16 01:25:33
Memo.             
[...]
    -257     -833    -1012     -548      800     2525     3594     3536 
    2579     1408      430     -765    -2760    -5640    -8927   -11849 
  -13781   -14521   -14158   -12752   -10299    -7111    -3834    -1096 
     519      660     -628    -3105    -6077    -8659   -10466   -11486 
  -11937   -12040   -11655   -10615    -9083    -7418    -5960    -4943 
   -4619    -5301    -6919    -8870   -10484   -11345   -11369   -10686 
   -9482    -8031    -6526    -4986    -3440    -1801       32     1600 
    2296     2302     2055     1508      556     -804    -2480    -3769 
   -3620    -1811      831     3420     5527     6856     7164     6361 
    4362     1152    -2993    -7339   -10725   -12467   -12852   -12270 
  -10881    -9034    -7300    -6169    -5702    -5441    -4773    -3526 
   -1995     -377     1313     2985     4490     5561     5776     5032 
    3806     2633     1765     1447     1748     2236     2588     2934 
    3400     3991     4592     4689     3637     1135    -2715    -7291 
  -11406   -13749   -13644   -11421    -7791    -3383      811     3803 
    5547     6645     7637     8542     8747     7725     5605     2919 
     160    -2257    -3773    -4162    -3977    -3865    -3885    -3685 
   -3009    -1993     -858      463     1875     2735     2443     1014 
    -861    -2502    -4015    -5613    -6938    -7516    -7145    -5994 
   -4522    -3153    -2031     -925      444     2019     3364     3807 
    3059     1517     -292    -2059    -3718    -5437    -7247    -8875 
   -9984   -10092    -8918    -7042    -5180    -3367    -1538      107 
    1121     1048       75     -946    -1317    -1106     -677      -25 
     933     2067     3064     3580     3549     3162     2557     1653 
     329    -1273    -2911    -4607    -6564    -8870   -11271   -13032 
  -13353   -12350   -11064   -10253   -10018   -10446   -11538   -12705 
  -13194   -12829   -11881   -10552    -9082    -7906    -7263    -7048 
   -6949    -6573    -6006    -5880    -6490    -7478    -8353    -8660 
   -7956    -6166    -3778    -1492      199     1225     1884     2393 
    2591     2155     1067     -321    -1678    -2857    -3660    -3736 
   -2860    -1063     1489     4437     7083     8654     8960     8356 
    7081     5255     3086      592    -2295    -5231    -7570    -8844 
   -8812    -7509    -5347    -2746       12     2386     3479     2690 
     188    -3423    -7116    -9749   -11018   -11135    -9970    -7468 
   -4210    -1046     1545     3701     5674     7217     7802     7153 
    5530     3468     1494      122     -619     -966     -880     -476 
     111     1013     2130     2943     2948     1942      -79    -2770 
   -5607    -8277   -10445   -11871   -12463   -12014   -10337    -7315 
   -3153     1470     5840     9348    11471    11854    10490     8028 
    5513     3416     1531     -317    -2081    -3456    -4031    -3557 
   -2002      148     2083     3375     3956     3864     3122     1613 
    -726    -3661    -6704    -9403   -11284   -11952   -11514   -10368 
   -8943    -7432    -5798    -4395    -3536    -3023    -2672    -2444 
   -2365    -2357    -2052    -1269     -267      409      279     -580 
   -1662    -2502    -2986    -3337    -3732    -4267    -4957    -5483 
   -5651    -6028    -7094    -8339    -9211    -9532    -9015    -7729 
   -5926    -3647    -1448     -177     -115    -1139    -2837    -4489 
   -5570    -5964    -5923    -5740    -5228    -3984    -2192     -596 
     430     1008     1146      902      385     -458    -1380    -2050 
   -2708    -3668    -4815    -6047    -7235    -8092    -8707    -9124 
   -8846    -7670    -5848    -3561    -1047     1337     3286     4507 
    4828     4395     3520     2474     1507      724      -39     -988 
   -2033    -2774    -2892    -2445    -1749    -1001     -223      591 
    1509     2329     2622     2314     1390     -135    -1707    -2738 
   -2840    -1765       77     2076     3818     4697     4478     3577 
    2379      977     -756    -2791    -4703    -6201    -7139    -7183 
   -6362    -5209    -4351    -4293    -4834    -5243    -5174    -4812 
   -4599    -4808    -5451    -6557    -8032    -9637   -11146   -12290 
  -12748   -12235   -10665    -8218    -5326    -2621     -599      671 
    1174      681     -881    -3263    -6023    -8705   -10974   -12500 
  -13022   -12511   -10885    -8032    -4314     -463     2909     5489 
    7268     8277     8500     8078     7172     5816     4172     2471 
     901     -111     -273      246     1236     2451     3462     4043 
    4241     3928     3085     2136     1267      387     -327     -815 
   -1432    -2464    -3956    -5655    -6964    -7655    -8013    -8094 
   -7684    -6681    -5250    -3760    -2466    -1314     -291      398 
     678      511     -248    -1482    -2817    -3846    -4104    -3305 
   -1714        9     1297     1735     1057     -498    -2320    -4098 
   -5969    -8034   -10114   -11795   -12618   -12220   -10446    -7666 
   -4534    -1497     1276     3873     6289     8339     9991    11224 
   11964    12321    12516    12569    12191    10962     8685     5789 
    2961      701     -572     -802     -427      162      848     1520 
    2118     2612     2639     1803       35    -2634    -6016    -9569 
  -12613   -14737   -15964   -16548   -16757   -16687   -16323   -15722 
  -14695   -12991   -11041    -9590    -8812    -8149    -6913    -5147 
   -3698    -3247    -3656    -4509    -5554    -6591    -7464    -8136 
   -8591    -8793    -8727    -8319    -7628    -6857    -6008    -5262 
   -5131    -5749    -6684    -7378    -7512    -7157    -6734    -6536 
   -6500    -6537    -6450    -5831    -4443    -2449     -317     1287 
    1824     1373      281    -1336    -3466    -6079    -8905   -11254 
  -12610   -13087   -12942   -12324   -11218    -9382    -6851    -3934 
    -914     1630     3056     3127     1894     -286    -2886    -5311 
   -6970    -7696    -7610    -6932    -5954    -4631    -2902    -1043 
     547     1398     1186     -113    -2167    -4275    -5814    -6444 
   -6040    -4797    -3093     -984     1681     4699     7689    10345 
   12346    13467    13718    13248    12212    10749     9015     7135 
    5317     3930     3340     3690     4703     5761     6403     6516 
    6125     5421     4587     3563     2315      864     -724    -2230 
   -3418    -4074    -4133    -3829    -3536    -3579    -3999    -4573 
   -5213    -5841    -6150    -5980    -5272    -3873    -1822      743 
    3568     6109     8073     9551    10500    10823    10522     9486 
    7824     5990     4389     3427     3361     3886     4241     3824 
    2663     1145     -397    -1748    -2771    -3504    -4101    -4625 
   -5166    -5829    -6750    -7976    -9190   -10015   -10076    -9181 
   -7619    -5796    -4181    -3246    -3209    -3984    -5224    -6555 
   -7746    -8716    -9226    -8821    -7486    -5684    -3838    -2371 
   -1595    -1692    -2907    -5099    -7651    -9947   -11533   -12351 
  -12734   -12878   -12660   -12008   -11182   -10401    -9654    -9059 
   -8624    -8104    -7530    -7203    -7071    -6838    -6423    -5646 
   -4152    -1908      606     2820     4479     5410     5431     4653 
    3360     1800      235    -1160    -2314    -3149    -3562    -3480 
   -2969    -2287    -1806    -1796    -2304    -3250    -4459    -5721 
   -6808    -7613    -8259    -8857    -9374    -9632    -9378    -8523 
   -7148    -5682    -4637    -4047    -4022    -4755    -5885    -7003 
   -7971    -8623    -8957    -9107    -9038    -8777    -8568    -8593 
   -8767    -8822    -8756    -8903    -9383    -9922   -10037    -9311 
   -7708    -5313    -2193     1371     5019     8292    10603    11523 
   11029     9552     7647     5649     3787     2372     1579     1578 
    2504     3810     4889     5636     5909     5639     4930     3927 
    2958     2413     2422     2682     2917     3205     3645     4216 
    4820     5298     5575     5733     5882     5967     5723     4880 
    3474     1822      286     -787    -1071     -488      727     2218 
    3604     4779     5882     6815     7327     7255     6468     4767 
    2080    -1274    -4697    -7592    -9582   -10491   -10086    -8223 
   -5090    -1187     2728     5894     7818     8338     7514     5642 
    3248      660    -1947    -4210    -5887    -7034    -7627    -7524 
   -6798    -5658    -4351    -3197    -2515    -2589    -3363    -4547 
   -5914    -7190    -8360    -9580   -10656   -11364   -11585   -11030 
   -9581    -7567    -5383    -3254    -1462     -404     -301    -1126 
   -2732    -4724    -6631    -8281    -9623   -10510   -10910   -10946 
  -10726   -10278    -9493    -8307    -6927    -5675    -4919    -4924 
   -5535    -6379    -7147    -7613    -7643    -7256    -6606    -5673 
   -4063    -1463     1793     4922     7145     7783     6652     4125 
     699    -2952    -6413    -9594   -11977   -12993   -12499   -10588 
   -7500    -3617      370     3872     6636     8319     8785     8288 
    7248     6212     5585     5614     6372     7391     8104     8252 
    7533     5855     3548      991    -1436    -3398    -4761    -5515 
   -5835    -6142    -6687    -7374    -8173    -9026    -9671    -9861 
   -9399    -8407    -7386    -6793    -6785    -7127    -7452    -7483 
   -6903    -5708    -4266    -2827    -1518     -285      960     1998 
    2641     2895     2651     1756      301    -1487    -3425    -5268 
   -6719    -7408    -6925    -5370    -3353    -1432       34      907 
    1253     1033      164    -1144    -2598    -3968    -4885    -5089 
   -4692    -3829    -2551    -1178      -46      837     1557     2279 
    3152     4031     4806     5565     6258     6581     6195     5061 
    3393     1389     -793    -2861    -4394    -5125    -4931    -3874 
   -2440    -1234     -740    -1265    -2815    -5137    -7699   -10069 
  -12221   -14220   -16177   -18127   -19799   -20913   -21217   -20545 
  -19116   -17169   -14706   -11919    -9108    -6469    -4250    -2554 
   -1311     -588     -435     -578     -621     -409      -83       30 
    -489    -1743    -3287    -4568    -5269    -5332    -4996    -4557 
   -3939    -2877    -1455      103     1608     2685     3027     2513 
    1226     -377    -1759    -2654    -2944    -2459    -1199      610 
    2633     4296     5040     4660     3115      510    -2649    -5570 
   -7735    -9167   -10001   -10386   -10625   -10790   -10923   -11202 
  -11635   -12297   -13239   -14067   -14208   -13440   -11828    -9544 
   -7158    -5263    -4060    -3521    -3268    -2874    -2367    -2117 
   -2437    -3245    -4210    -5074    -5742    -6227    -6521    -6744 
   -7121    -7458    -7377    -6770    -5483    -3465    -1089     1064 
    2369     2600     2105     1270      286     -683    -1313    -1267 
    -540      612     1897     3125     4223     5045     5360     5079 
    4343     3197     1684      298     -469     -554      -54      778 
    1719     2853     4172     5478     6688     7730     8525     9189 
    9903    10675    11253    11275    10535     9100     7301     5544 
    4015     2672     1461      344     -610    -1252    -1609    -1748 
   -1729    -1796    -2161    -2783    -3448    -3744    -3275    -2119 
    -469     1605     3799     5767     7253     7816     6861     3981 
    -579    -5852   -10678   -14136   -15804   -15915   -14898   -13083 
  -10926    -8695    -6515    -4643    -3014    -1430      -13     1044 
    1609     1661     1202      291     -830    -1991    -3026    -3827 
   -4623    -5585    -6621    -7583    -8337    -8843    -9112    -9226 
   -9216    -8900    -8226    -7322    -6228    -4999    -3708    -2569 
   -1906    -1742    -2019    -2920    -4584    -6760    -9038   -11111 
  -12530   -13016   -12526   -11217    -9643    -8050    -6732    -6329 
   -6953    -8713   -11570   -14806   -17946   -20609   -22283   -22943 
  -22695   -21429   -19211   -16271   -12771    -9063    -5748    -3224 
   -1700    -1312    -2008    -3672    -6135    -9040   -11955   -14572 
  -16667   -18029   -18599   -18415   -17609   -16474   -15207   -13828 
  -12282   -10591    -9032    -7821    -6824    -5835    -4734    -3351 
   -1626      342     2332     3947     4989     5596     5945     6249 
    6651     6998     7105     7102     7138     7141     7151     7227 
    7164     6818     6221     5273     3978     2766     1981     1731 
    2095     3000     4486     6490     8600    10431    11678    12450 
   13239    14279    15639    17230    18704    19673    19806    19061 
   17689    15887    13722    11178     8288     5325     2659      610 
    -461     -419      455     1832     3341     4538     5248     5330 
    4728     3819     2756     1541      537       -2       38      634 
    1402     2016     2341     2408     2447     2515     2421     2026 
    1226      115    -1053    -2127    -2963    -3615    -4150    -4227 
   -3785    -3268    -2927    -2904    -3404    -4396    -5760    -7403 
   -8935    -9878   -10134    -9695    -8446    -6587    -4448    -2187 
    -136     1518     2900     3794     3930     3458     2675     1994 
    1845     2436     3631     4853     5549     5570     4922     3707 
    2127      344    -1533    -3488    -5532    -7548    -9469   -11256 
  -12556   -13103   -13120   -12821   -12300   -11676   -10840    -9789 
   -8797    -8073    -7956    -8702   -10105   -11942   -14081   -16258 
  -18358   -20477   -22548   -24190   -24926   -24536   -23076   -20819 
  -18298   -15933   -13988   -12717   -12180   -12347   -13146   -14381 
  -15865   -17414   -18837   -20049   -20923   -21141   -20509   -19150 
  -17283   -15146   -13027   -11075    -9313    -7857    -6885    -6514 
   -6880    -7977    -9394   -10755   -11957   -12713   -12716   -11891 
  -10183    -7686    -4631    -1214     2214     5109     7091     8088 
    8061     6921     4748     1865    -1164    -3718    -5502    -6505 
   -6604    -5648    -3787    -1302     1451     3974     6051     7708 
    8781     9073     8548     7216     5203     2862      513    -1628 
   -3354    -4674    -5729    -6433    -6707    -6642    -6308    -5858 
   -5454    -5089    -4759    -4459    -4107    -3547    -2631    -1378 
     195     2068     3961     5661     7124     8253     9111     9832 
   10476    11153    11813    12347    12796    13127    13292    13378 
   13409    13343    13278    13381    13635    13878    14039    14113 
   14002    13598    12965    12299    11713    11144    10536    10023 
    9774     9838    10286    11213    12542    14014    15318    16120 
   16172    15485    14294    12848    11319     9850     8508     7241 
    5853     4122     2146      197    -1509    -2713    -3334    -3526 
   -3481    -3429    -3527    -3816    -4262    -4741    -5146    -5418 
   -5547    -5571    -5471    -5101    -4309    -3162    -1909     -798 
     -32      226     -138    -1017    -2168    -3471    -4792    -6028 
   -7244    -8439    -9626   -10811   -11788   -12391   -12623   -12529 
  -12150   -11532   -10754    -9822    -8734    -7696    -6876    -6339 
   -6233    -6646    -7577    -9015   -10864   -12836   -14628   -16202 
  -17544   -18456   -18784   -18510   -17706   -16511   -15095   -13683 
  -12540   -11768   -11206   -10710   -10238    -9696    -9006    -8220 
   -7405    -6384    -4905    -2848     -143     2957     5863     8162 
    9588     9913     9181     7636     5597     3362     1102     -973 
   -2606    -3730    -4414    -4640    -4366    -3736    -2910    -1919 
    -750      631     2079     3225     3868     4012     3676     2982 
    1951      352    -1815    -4251    -6685    -8690    -9843   -10086 
   -9571    -8485    -7037    -5461    -4020    -2890    -2144    -1830 
   -1952    -2436    -3085    -3621    -3922    -4009    -3901    -3663 
   -3337    -2923    -2420    -1834    -1353    -1392    -2240    -3873 
   -6099    -8635   -11115   -13160   -14510   -15123   -14989   -13981 
  -12001    -9183    -5895    -2480      818     3791     6257     8006 
    8879     8867     8168     7043     5698     4347     3083     1975 
    1171      731      761     1309     2231     3378     4682     6077 
    7376     8403     9034     9136     8752     8017     7045     6039 
    5120     4321     3769     3489     3417     3613     4077     4673 
    5324     6017     6667     7111     7228     7026     6620     6247 
    6257     6790     7754     9062    10578    12059    13335    14353 
   14983    15118    14761    13829    12353    10609     8805     7100 
    5734     4946     4798     5106     5630     6137     6398     6205 
    5496     4431     3198     1977      840     -330    -1533    -2613 
   -3350    -3551    -3223    -2470    -1398     -171     1009     1909 
    2249     1818      724     -771    -2360    -3661    -4536    -5049 
   -5275    -5285    -5014    -4403    -3361    -1766      245     2457 
    4732     6732     8042     8489     8024     6605     4399     1758 
   -1118    -4157    -7132    -9854   -12280   -14330   -15975   -17241 
  -18036   -18212   -17675   -16503   -14946   -13248   -11561    -9940 
   -8461    -7252    -6403    -5965    -5899    -6106    -6519    -7026 
   -7501    -7851    -8073    -8240    -8331    -8356    -8472    -8806 
   -9429   -10357   -11559   -12910   -14189   -15359   -16446   -17275 
  -17856   -18400   -18857   -19188   -19608   -20209   -20921   -21668 
  -22253   -22491   -22384   -21959   -21127   -19851   -18237   -16358 
  -14329   -12378   -10588    -8953    -7536    -6322    -5291    -4527 
   -4006    -3526    -3015    -2624    -2302    -1839    -1256     -632 
     -90      233      472      730      997     1435     2112     2815 
    3329     3620     3678     3445     2925     2084      926     -384 
   -1648    -2655    -3271    -3548    -3656    -3893    -4535    -5602 
   -6913    -8208    -9232    -9907   -10239   -10209    -9931    -9562 
   -9022    -8156    -7034    -5698    -4091    -2339     -601     1171 
    2973     4613     5958     6902     7269     7016     6060     4265 
    1806    -1068    -4180    -7172    -9632   -11256   -11855   -11458 
  -10353    -8970    -7703    -6925    -6918    -7632    -8776    -9998 
  -10822   -10882   -10114    -8539    -6213    -3286       61     3521 
    6668     9227    11045    11928    11781    10744     9106     7221 
    5425     3910     2716     1882     1446     1357     1562     2012 
    2550     3013     3314     3361     3109     2615     1908      963 
     -61     -832    -1148     -997     -487      154      695     1008 
     960      522     -121     -764    -1191    -1213     -870     -274 
     633     1906     3445     5222     7185     9149    11041    12728 
   13934    14473    14213    13156    11381     8934     6138     3544 
    1473       -7     -927    -1404    -1566    -1516    -1452    -1600 
   -2046    -2783    -3785    -4928    -6110    -7365    -8572    -9521 
  -10294   -10890   -11077   -10857   -10339    -9538    -8635    -7790 
   -6895    -6069    -5514    -5094    -4849    -4952    -5230    -5614 
   -6218    -6819    -7154    -7151    -6596    -5290    -3410    -1370 
     525     2075     3111     3586     3516     2965     2075      879 
    -509    -1751    -2722    -3391    -3598    -3320    -2638    -1702 
