Origin Time       2016/04/16 01:25:00
Lat.              32.753
Long.             130.762
Depth. (km)       12
Mag.              7.3
Station Code      KGS022
Station Lat.      31.2804
Station Long.     131.0504
Station Height(m) 12
Record Time       2016/04/16 01:25:38
Sampling Freq(Hz) 100Hz
Duration Time(s)  91
Dir.              N-S
Scale Factor      3920(gal)/6182761
Max. Acc. (gal)   3.424
Last Correction   2016/04/16 01:25:38
Memo.             
[...]
   13591    13549    13539    13586    13566    13524    13565    13602 
   13562    13538    13549    13552    13568    13586    13563    13540 
   13571    13576    13522    13543    13622    13586    13513    13536 
   13558    13582    13619    13548    13485    13564    13613    13563 
   13542    13547    13549    13578    13592    13543    13520    13575 
   13596    13566    13551    13523    13551    13612    13570    13532 
   13563    13562    13552    13576    13567    13548    13577    13559 
   13524    13587    13600    13527    13541    13573    13566    13586 
   13556    13508    13566    13623    13562    13516    13549    13558 
   13563    13593    13565    13507    13531    13583    13570    13539 
   13529    13527    13544    13550    13513    13530    13560    13491 
   13488    13575    13549    13472    13504    13568    13538    13509 
   13546    13540    13543    13616    13605    13541    13580    13626 
   13639    13662    13612    13589    13672    13668    13596    13601 
   13623    13621    13600    13553    13524    13551    13576    13531 
   13483    13493    13506    13490    13481    13508    13523    13512 
   13535    13577    13590    13545    13493    13552    13644    13632 
   13596    13621    13650    13658    13667    13630    13595    13658 
   13678    13625    13665    13700    13649    13623    13627    13600 
   13564    13546    13538    13563    13589    13535    13483    13540 
   13585    13524    13473    13485    13507    13526    13519    13505 
   13538    13572    13562    13533    13516    13538    13567    13535 
   13465    13457    13544    13608    13566    13513    13518    13545 
   13556    13527    13508    13552    13616    13627    13596    13614 
   13623    13570    13594    13717    13767    13726    13717    13766 
   13818    13808    13705    13585    13570    13585    13530    13506 
   13521    13508    13480    13414    13314    13269    13283    13295 
   13330    13374    13375    13347    13320    13356    13424    13436 
   13448    13485    13502    13508    13513    13523    13540    13524 
   13465    13440    13492    13535    13519    13525    13566    13591 
   13622    13608    13504    13452    13478    13461    13427    13427 
   13444    13463    13417    13356    13383    13373    13293    13293 
   13342    13429    13564    13622    13588    13527    13451    13362 
   13286    13290    13343    13402    13530    13655    13654    13596 
   13593    13655    13700    13692    13677    13690    13757    13851 
   13918    13915    13835    13747    13701    13676    13659    13686 
   13750    13756    13695    13585    13409    13261    13231    13266 
   13302    13313    13237    13126    13151    13297    13396    13394 
   13328    13253    13199    13152    13188    13236    13179    13142 
   13116    13095    13239    13421    13502    13590    13659    13603 
   13505    13526    13676    13851    13981    14019    13936    13806 
   13745    13767    13798    13747    13584    13419    13300    13133 
   13001    13050    13138    13134    13078    12988    12927    12982 
   13121    13201    13206    13240    13262    13289    13441    13590 
   13541    13374    13255    13164    13097    13226    13567    13946 
   14209    14247    14092    13887    13757    13756    13821    13827 
   13751    13700    13636    13413    13118    12899    12812    12871 
   12983    13023    13035    13125    13244    13311    13281    13234 
   13283    13350    13395    13496    13611    13614    13473    13342 
   13380    13573    13805    13990    14091    14093    13996    13815 
   13594    13452    13498    13674    13890    14055    14048    13929 
   13838    13696    13375    13065    12988    13000    12985    12983 
   12910    12819    12867    12985    13075    13150    13188    13223 
   13400    13657    13747    13635    13471    13341    13199    13038 
   12981    13085    13290    13446    13490    13516    13611    13870 
   14188    14322    14302    14253    14164    14046    13976    13975 
   14027    14108    14113    13985    13824    13737    13711    13722 
   13745    13711    13652    13634    13627    13627    13685    13730 
   13650    13534    13490    13476    13566    13865    14209    14411 
   14432    14251    14069    14142    14240    14107    13902    13780 
   13784    13844    13804    13783    13908    13962    13844    13631 
   13322    13155    13393    13723    13698    13391    13130    13127 
   13401    13714    13820    13854    13985    14002    13776    13458 
   13221    13214    13305    13106    12684    12494    12697    13077 
   13346    13392    13314    13260    13224    13058    12796    12721 
   12927    13139    13152    13107    13212    13444    13577    13506 
   13473    13662    13867    13862    13732    13624    13524    13434 
   13433    13466    13503    13688    13946    14014    13965    14057 
   14278    14400    14229    13879    13746    13944    14198    14331 
   14290    14140    14174    14470    14716    14642    14290    13816 
   13196    12338    11426    10934    11118    11630    11878    11620 
   11136    10941    11425    12469    13399    13798    13912    13967 
   13898    13680    13319    12792    12248    12027    12365    13103 
   13813    14385    14934    15053    14334    13371    13095    13683 
   14600    15206    15299    15090    14789    14529    14322    14110 
   14033    14212    14540    14861    15050    15073    14937    14510 
   13677    12746    12317    12654    13547    14533    14954    14482 
   13579    12918    12754    13014    13470    13811    13846    13530 
   12928    12332    12155    12551    13142    13407    13320    13398 
   14113    15143    15609    15076    13913    13018    12999    13403 
   13462    13290    13407    13616    13234    12249    11599    12001 
   12926    13279    12833    12317    12279    12547    12762    13011 
   13758    15052    16238    16680    16300    15487    14697    13987 
   13189    12540    12508    12910    13055    12871    12801    12999 
   13275    13364    13472    14119    15210    16067    16273    16044 
   15620    14946    14175    13567    13243    13237    13389    13438 
   13212    12871    12783    13013    13351    13609    13730    13742 
   13630    13426    13146    12685    12051    11419    10951    10674 
   10440    10173    10087    10253    10350    10251    10318    10918 
   11863    12641    13102    13289    13125    12809    12694    12838 
   13061    13256    13472    13592    13541    13740    14539    15605 
   16460    17018    17259    17072    16640    16267    15901    15483 
   15121    14644    13875    13012    12305    11872    11614    11308 
   11047    11066    11352    11841    12426    12747    12545    12038 
   11566    11343    11505    11882    12134    12198    12304    12607 
   13003    13471    14147    14929    15479    15548    15195    14782 
   14647    14725    14655    14267    13820    13659    13636    13310 
   12699    12190    11927    11675    11276    11044    11337    12102 
   12999    13613    13724    13477    13266    13362    13758    14383 
   15099    15663    15857    15672    15364    15181    15180    15260 
   15452    15948    16622    17106    17279    17206    16803    16012 
   15012    14101    13609    13606    13801    13961    14080    14286 
   14650    14964    14968    14700    14398    14204    14016    13620 
   12907    11879    10678     9663     9138     9224     9934    10911 
   11710    12329    12886    13332    13706    14178    14764    15318 
   15662    15639    15292    14821    14326    13803    13199    12546 
   12155    12253    12554    12779    13145    13843    14716    15449 
   15807    15945    16149    16394    16441    16020    15121    14060 
   13155    12474    11876    11252    10534     9812     9359     9335 
    9912    11238    12955    14306    14842    14795    14506    14046 
   13601    13337    13173    13065    13052    13184    13525    14003 
   14459    14816    15049    15135    15091    15013    14959    14846 
   14662    14562    14633    14775    14762    14405    13810    13242 
   12607    11669    10717    10340    10714    11491    12116    12081 
   11304    10336     9746     9595     9833    10627    11910    13288 
   14389    14913    14912    14800    14766    14777    14935    15305 
   15804    16338    16630    16377    15694    14832    13960    13388 
   13340    13653    14132    14729    15220    15352    15141    14669 
   14023    13445    13116    12882    12462    11856    11195    10495 
    9847     9429     9440    10024    11075    12382    13679    14700 
   15433    15922    16073    15983    15970    16096    16193    16219 
   16130    15837    15310    14528    13513    12467    11884    12175 
   13053    13827    14274    14588    14643    14123    13255    12540 
   12103    11905    11899    11853    11684    11670    11931    12087 
   11857    11509    11414    11712    12351    13049    13487    13571 
   13326    12902    12643    12772    13250    13971    14755    15362 
   15762    16125    16502    16699    16653    16551    16401    16107 
   15783    15542    15283    14887    14376    13809    13303    12938 
   12627    12250    11701    11052    10470     9979     9646     9667 
   10128    10775    11250    11483    11608    11696    11762    11915 
   12211    12695    13488    14259    14486    14320    14267    14405 
   14341    13939    13711    14034    14541    14738    14620    14384 
   14075    13739    13454    13300    13520    14225    14944    15088 
   14716    14228    13746    13227    12727    12541    12776    12997 
   12886    12491    11926    11478    11513    12031    12720    13473 
   14256    14704    14645    14428    14361    14494    14802    15097 
   15129    14985    14941    15004    15017    14975    15051    15343 
   15721    16110    16549    16817    16599    15985    15357    14831 
   14292    13892    13737    13503    12966    12154    11146    10339 
   10273    10947    11741    12121    12161    12219    12402    12582 
   12769    13055    13339    13583    13746    13634    13367    13340 
   13558    13503    12843    12111    12135    12955    13921    14621 
   15018    15142    15220    15449    15637    15685    15874    16290 
   16521    16189    15491    14922    14599    14263    13697    12839 
   11897    11292    11259    11714    12336    12723    12676    12218 
   11413    10472     9880    10055    11008    12344    13392    13641 
   13269    12938    12991    13197    13297    13458    13995    14803 
   15521    15910    15708    14927    14105    13581    13217    13031 
   13303    13865    14055    13601    12812    12111    11760    11658 
   11532    11345    11229    11261    11365    11400    11473    12027 
   13158    14295    15024    15382    15496    15550    15734    16135 
   16678    17153    17323    17016    16316    15599    15129    14701 
   13937    12932    12172    11834    11805    12132    12814    13551 
   13988    13973    13715    13584    13733    14071    14334    14279 
   13982    13554    12987    12616    12913    13791    14724    15207 
   15053    14577    14359    14648    15188    15733    16233    16467 
   16059    15086    14193    13756    13493    12989    12143    11270 
   10864    11127    11869    12573    12721    12458    12236    12061 
   11900    12058    12679    13359    13567    13332    13165    13447 
   14213    15363    16624    17428    17473    17066    16517    15870 
   15241    14813    14581    14400    14210    14116    14232    14461 
   14680    14897    14883    14259    13170    12233    11841    11836 
   11790    11465    10981    10610    10509    10660    10998    11462 
   11965    12506    12983    13131    12969    12835    12958    13253 
   13552    13881    14330    14874    15413    15839    16111    16257 
   16364    16386    15932    14814    13466    12377    11697    11421 
   11408    11350    11162    11119    11392    11900    12406    12808 
   13277    13711    13752    13352    12762    12367    12348    12377 
   12156    11974    12377    13421    14519    15079    15144    15222 
   15435    15432    15285    15506    16224    16821    16584    15597 
   14483    13740    13538    13633    13714    13793    14034    14374 
   14563    14499    14245    13987    13802    13401    12821    12655 
   13075    13579    13781    13597    13062    12597    12602    13036 
   13799    14656    15155    15223    15209    15391    15733    15912 
   15619    14845    13734    12485    11509    11222    11635    12447 
   13251    13599    13395    13133    13310    13879    14514    15033 
   15443    15696    15556    14942    14127    13476    13190    13226 
   13409    13486    13254    12874    12711    12744    12694    12641 
   12692    12659    12593    12530    12084    11210    10450    10092 
    9902     9708     9677     9955    10423    10912    11385    11864 
   12374    13022    13847    14661    15325    15844    16193    16291 
   16104    15926    16178    16806    17355    17417    16844    15845 
   14796    14027    13789    14003    14285    14360    14083    13525 
   13052    12844    12837    12925    12903    12707    12413    12036 
   11696    11451    11047    10403     9798     9448     9472     9952 
   10732    11572    12417    13209    13785    14146    14553    15353 
   16541    17729    18595    18960    18810    18251    17433    16643 
   16103    15819    15614    15230    14582    13870    13288    12701 
   11971    11348    11038    10975    11184    11650    12134    12476 
   12537    12121    11424    11051    11432    12479    13685    14590 
   15077    15125    14675    14019    13765    14174    14902    15386 
   15303    14766    14188    13880    13829    13875    13948    14044 
   14041    13797    13466    13468    13772    13745    13115    12335 
   11899    11838    11916    11915    11735    11522    11427    11370 
   11325    11627    12712    14388    15771    16372    16506    16465 
   16382    16455    16571    16511    16426    16526    16696    16722 
   16685    16774    16841    16519    15666    14570    13865    13951 
   14457    14741    14565    14038    13392    12856    12646    12804 
   12974    12777    12273    11767    11487    11571    12016    12664 
   13276    13580    13554    13505    13647    13970    14386    14633 
   14492    14162    13950    13959    14105    14104    13759    13181 
   12519    11958    11896    12541    13574    14506    15080    15249 
   15161    15125    15281    15499    15651    15660    15384    14812 
   14196    13759    13560    13501    13331    12941    12519    12346 
   12581    13040    13350    13439    13489    13517    13419    13219 
   13071    13146    13429    13673    13715    13720    13899    14163 
   14348    14413    14354    14305    14354    14269    13903    13475 
   13128    12758    12398    12221    12294    12558    12923    13286 
   13514    13556    13368    12923    12566    12821    13722    14892 
   15949    16501    16291    15469    14409    13372    12544    12143 
   12244    12636    12938    12927    12709    12465    12424    12746 
   13121    13230    13360    13818    14353    14565    14338    13750 
   12913    11993    11164    10595    10520    11049    12002    13106 
   14042    14550    14794    15087    15356    15316    14870    14328 
   14164    14493    15014    15224    14794    13993    13223    12490 
   11795    11411    11533    12067    12617    12725    12432    12268 
   12612    13366    14141    14687    15059    15348    15538    15595 
   15548    15472    15369    15176    14905    14640    14482    14429 
   14288    13880    13254    12632    12301    12564    13539    14860 
   15870    16172    15919    15537    15209    14968    14893    14901 
   14888    14730    14150    13170    12202    11455    10797    10204 
    9897    10047    10702    11734    12671    13089    13186    13312 
   13385    13386    13567    13974    14400    14652    14655    14514 
   14445    14526    14648    14671    14538    14350    14226    14117 
   14006    14082    14467    14947    15291    15471    15399    14929 
   14120    13193    12352    11788    11594    11731    12047    12176 
   11856    11262    10747    10575    10888    11566    12303    12950 
   13421    13574    13466    13325    13363    13749    14376    14937 
   15320    15599    15760    15682    15225    14285    13121    12412 
   12574    13420    14502    15389    15768    15610    15170    14674 
   14320    14272    14322    14103    13537    12825    12232    11992 
   12172    12527    12717    12510    11847    11031    10421    10102 
   10046    10176    10355    10466    10570    10876    11417    12070 
   12783    13467    13978    14357    14878    15596    16108    16093 
   15587    14830    14217    14016    14117    14228    14206    14013 
   13554    12976    12683    12869    13381    13904    14211    14287 
   14159    13864    13544    13328    13173    13025    12943    12864 
   12606    12208    11910    11809    11779    11810    12076    12565 
   13113    13689    14238    14619    14824    14913    15058    15491 
   16085    16451    16377    15855    15003    14101    13430    13069 
   12994    13118    13170    12936    12523    12165    12010    12092 
   12332    12497    12514    12623    12841    13017    13203    13383 
   13490    13598    13754    13925    14160    14509    14708    14516 
   14122    13723    13408    13323    13415    13465    13409    13357 
   13330    13277    13374    13711    14040    14247    14382    14412 
   14313    14149    13930    13582    13159    12810    12621    12565 
   12449    12148    11744    11357    11104    11148    11587    12317 
   13010    13373    13512    13703    14002    14339    14620    14756 
   14761    14686    14469    14015    13423    13006    12923    12928 
   13001    13469    14144    14587    14688    14475    14155    14045 
   14186    14440    14650    14620    14280    13669    12832    12051 
   11745    11969    12428    12979    13573    13978    14049    13922 
   13820    13897    14175    14513    14765    14836    14773    14731 
   14740    14739    14695    14568    14411    14372    14486    14614 
   14643    14535    14320    14117    14065    14246    14538    14556 
   14119    13491    12860    12208    11812    11921    12163    12179 
   12045    11801    11404    10959    10741    10945    11404    11894 
   12366    12643    12548    12229    11894    11640    11692    12270 
   13328    14572    15541    16014    16161    16076    15756    15253 
   14674    14261    14161    14189    14070    13741    13359    13135 
   13172    13478    14017    14672    15285    15674    15680    15349 
   14944    14673    14551    14505    14420    14213    13833    13191 
   12345    11516    10931    10769    10997    11403    11809    12033 
   11973    11814    11826    12144    12800    13588    14096    14167 
   14049    14012    14007    13815    13510    13281    13105    13058 
   13264    13623    13977    14219    14266    14168    14186    14559 
   15235    15937    16354    16347    16109    15877    15676    15533 
