Origin Time       2016/04/16 01:25:00
Lat.              32.753
Long.             130.762
Depth. (km)       12
Mag.              7.3
Station Code      KGS018
Station Lat.      31.3757
Station Long.     130.5449
Station Height(m) 51
Record Time       2016/04/16 01:25:32
Sampling Freq(Hz) 100Hz
Duration Time(s)  176
Dir.              N-S
Scale Factor      3920(gal)/6182761
Max. Acc. (gal)   19.440
Last Correction   2016/04/16 01:25:33
Memo.             
[...]
   -8570    -8170    -8035    -8351    -8694    -8753    -8526    -8012 
   -7516    -7555    -8132    -8950    -9789   -10184    -9793    -9044 
   -8390    -7520    -6178    -4738    -3275    -1543      -85      178 
    -800    -2103    -2708    -2448    -2020    -1845    -1626    -1461 
   -2232    -4123    -6034    -6945    -6737    -5944    -5140    -4249 
   -3183    -2827    -4077    -6542    -8863    -9742    -8869    -7166 
   -5728    -4687    -3624    -2656    -2315    -2731    -3693    -5074 
   -6567    -7462    -7055    -5141    -2437     -387      -88    -1541 
   -3998    -6557    -8317    -8546    -7263    -5417    -4183    -4265 
   -5580    -7304    -8704    -9854   -11197   -12677   -13769   -14172 
  -14005   -13474   -12708   -11814   -11037   -10712   -10975   -11420 
  -11151    -9826    -8084    -6465    -5017    -3816    -3128    -3262 
   -4239    -5665    -6932    -7600    -7858    -8045    -7924    -7343 
   -6728    -6244    -5534    -4427    -3188    -2208    -1797    -2002 
   -2417    -2471    -2169    -2177    -2888    -3880    -4507    -4663 
   -4817    -5189    -5138    -4249    -3538    -4104    -5286    -5736 
   -5440    -5358    -6011    -7077    -7440    -6004    -3339    -1369 
   -1008    -1669    -2761    -3992    -4901    -5315    -5397    -5234 
   -5063    -4989    -4455    -3106    -1617     -727     -305     -177 
   -1025    -3522    -7294   -11249   -14181   -15444   -15644   -15603 
  -14951   -13387   -11929   -11219   -10474    -9281    -8452    -8551 
   -9286   -10226   -10905   -11028   -11205   -12337   -14182   -15633 
  -16134   -15959   -15522   -15113   -14754   -14144   -13215   -12081 
  -10545    -8819    -7832    -7729    -7405    -6206    -4670    -3511 
   -2976    -2834    -2373    -1200      -70      149     -220     -573 
   -1187    -2362    -3631    -4475    -4787    -4547    -3703    -2250 
    -264     1836     3150     3102     2153      926     -573    -2296 
   -4033    -5884    -7731    -8963    -9389    -9518    -9553    -9113 
   -8242    -7386    -6623    -6055    -5885    -5693    -4889    -3635 
   -2485    -1679    -1295    -1506    -2361    -3958    -6611   -10250 
  -14135   -17209   -18337   -16982   -14016   -10950    -8407    -6334 
   -4928    -4224    -3943    -4296    -5525    -7103    -8449    -9243 
   -8887    -7124    -4914    -3560    -3275    -3402    -3564    -3973 
   -4981    -6434    -7355    -6882    -5340    -3752    -2845    -2792 
   -3184    -3203    -2598    -2312    -3377    -5547    -7711    -9098 
   -9513    -9210    -8838    -8860    -9105    -8964    -7704    -5027 
   -1689     1067     2832     4140     5164     5273     4167     2350 
     351    -1593    -3312    -4655    -5449    -5523    -5107    -4942 
   -5507    -6486    -7429    -8273    -8975    -9365    -9286    -8561 
   -7309    -6194    -5813    -6074    -6339    -5995    -5082    -4344 
   -4314    -4732    -5224    -5806    -6415    -6614    -5986    -4540 
   -2643     -761      349     -331    -3020    -6646    -9932   -12304 
  -13663   -14221   -14658   -15567   -16724   -17498   -17657   -17287 
  -16509   -15584   -14739   -13851   -12627   -10933    -8859    -6772 
   -5194    -4319    -3954    -3853    -3693    -3199    -2681    -2798 
   -3697    -5141    -7086    -9360   -11230   -11821   -10974    -9460 
   -8096    -7093    -6207    -4994    -3328    -1803    -1125    -1400 
   -2358    -3779    -5338    -6456    -6697    -6191    -5492    -5073 
   -4887    -4276    -2523      132     2593     4406     5890     6790 
    6366     4401     1379    -1800    -4322    -6087    -7591    -9002 
   -9879    -9981    -9629    -9288    -9286    -9695   -10416   -11467 
  -12709   -13274   -12155    -9492    -6590    -4721    -4270    -4906 
   -6246    -7995    -9572   -10136    -9203    -7274    -5580    -4939 
   -5275    -6218    -7435    -8686   -10111   -11842   -13449   -14494 
  -14964   -14676   -13274   -11093    -8811    -6537    -4465    -3360 
   -3521    -4619    -6501    -8811   -10532   -10990   -10460    -9212 
   -7150    -4782    -3156    -2615    -2702    -2997    -3288    -3326 
   -2870    -1822     -289     1265     2236     2402     1923     1101 
     343      -81     -387     -955    -1780    -2632    -3371    -3867 
   -4076    -4315    -5098    -6541    -8294   -10046   -11633   -12907 
  -14039   -15357   -16594   -17128   -16883   -16281   -15833   -16078 
  -17062   -18046   -18347   -17823   -16476   -14519   -12593   -11058 
   -9613    -8339    -7988    -8702   -10099   -12220   -14783   -16706 
  -17280   -16563   -14756   -12251    -9773    -7709    -5845    -4075 
   -2475     -777     1210     3227     5194     7264     9146    10401 
   11109    11376    10908     9647     7718     4856     1169    -2207 
   -4323    -5321    -5618    -5317    -4664    -4112    -4001    -4622 
   -6010    -7609    -8729    -9125    -8856    -8022    -6813    -5520 
   -4470    -4040    -4356    -5008    -5563    -5996    -6198    -5784 
   -4798    -3730    -2821    -2157    -2055    -2749    -4163    -6110 
   -8049    -8957    -8327    -6728    -4941    -3494    -2989    -3713 
   -5088    -6223    -6702    -6534    -5925    -5332    -5082    -4936 
   -4594    -4194    -3904    -3691    -3628    -3857    -4377    -5102 
   -5846    -6225    -5960    -5201    -4180    -2875    -1364     -183 
     -12    -1098    -3122    -5580    -8149   -10672   -12896   -14391 
  -14894   -14683   -14405   -14537   -15122   -15940   -16739   -17256 
  -17222   -16591   -15544   -14206   -12616   -10868    -9252    -8300 
   -8297    -8901    -9434    -9295    -8479    -7735    -7743    -8391 
   -9220    -9991   -10531   -10750   -10981   -11538   -12095   -12105 
  -11462   -10334    -8831    -7166    -5588    -4038    -2463    -1319 
   -1207    -2231    -4008    -5940    -7277    -7382    -6192    -4140 
   -1861     -190      234     -447    -1527    -2393    -2844    -2954 
   -2822    -2708    -3142    -4334    -5646    -6134    -5517    -4337 
   -3372    -3079    -3310    -3575    -3796    -4469    -5912    -7706 
   -8971    -9116    -8283    -7161    -6386    -6101    -6300    -7293 
   -9180   -11328   -12837   -13244   -12831   -12329   -12036   -11404 
   -9936    -8135    -6820    -6058    -5336    -4188    -2666    -1331 
    -407      460     1273     1547     1133      312     -691    -1853 
   -3210    -4712    -5952    -6201    -5258    -3827    -2542    -1479 
    -856    -1191    -2653    -4871    -7361    -9713   -11641   -13110 
  -13941   -13737   -12947   -12820   -13648   -14621   -15316   -15749 
  -15729   -15240   -14605   -13879   -12968   -12226   -11919   -11529 
  -10667    -9872    -9640    -9718    -9799    -9746    -9112    -7626 
   -5775    -4193    -3020    -1953     -697      394      614       13 
    -473     -115      854     1726     2136     1988     1200     -113 
   -1727    -3563    -5453    -7111    -8503    -9633   -10237   -10011 
   -8751    -6579    -4350    -3033    -2554    -2350    -2689    -4043 
   -6043    -8218   -10627   -13119   -15130   -16509   -17478   -17953 
  -17783   -17047   -15620   -13518   -11513   -10015    -8088    -4954 
   -1516      668      970     -152    -1651    -2644    -3206    -3839 
   -4502    -4999    -5510    -6125    -6573    -6574    -6081    -5293 
   -4536    -3964    -3475    -3029    -2751    -2630    -2342    -1654 
    -941     -711     -849     -968     -945     -731     -282      219 
     421       94     -691    -1595    -2273    -2684    -3007    -3294 
   -3664    -4461    -5609    -6625    -7590    -8921   -10392   -11496 
  -12156   -12431   -12358   -12326   -12663   -13092   -13350   -13603 
  -13729   -13204   -11861    -9932    -7631    -5363    -3779    -3157 
   -3220    -3680    -4349    -4930    -5392    -6147    -7263    -8305 
   -9022    -9185    -8442    -7055    -5779    -5058    -4982    -5298 
   -5339    -4649    -3506    -2495    -1994    -2130    -2791    -3672 
   -4558    -5451    -6522    -8041   -10042   -12022   -13275   -13504 
  -12999   -12311   -11933   -12193   -13020   -13828   -13977   -13264 
  -11886   -10215    -8640    -7287    -6024    -5044    -4961    -5908 
   -7233    -8420    -9428   -10096   -10249   -10049    -9533    -8588 
   -7422    -6255    -4964    -3414    -1696      -39     1272     1897 
    1791     1387     1047      792      621      532      389       24 
    -652    -1729    -3117    -4242    -4523    -4069    -3384    -2810 
   -2487    -2390    -2448    -2811    -3738    -5355    -7565    -9957 
  -11926   -12979   -13045   -12604   -12263   -12143   -11982   -11715 
  -11697   -12303   -13495   -14874   -15958   -16395   -16087   -15152 
  -13778   -12115   -10312    -8653    -7491    -7029    -7332    -8289 
   -9314    -9539    -8558    -6669    -4435    -2323     -716      -51 
    -627    -2193    -4034    -5376    -5632    -4840    -3887    -3653 
   -4129    -4708    -4870    -4402    -3538    -2970    -3198    -3947 
   -4495    -4272    -3114    -1396       50      495     -186    -1716 
   -3590    -4946    -5118    -4380    -3504    -2958    -2829    -2843 
   -2296     -694     1518     3411     4411     4202     2722      778 
    -346      -70     1190     2485     2756     1447    -1014    -3661 
   -5795    -7156    -7709    -7628    -7217    -6633    -5907    -5039 
   -4023    -3254    -3533    -5100    -7325    -9637   -11824   -13555 
  -14637   -15475   -16499   -17703   -19021   -20238   -20773   -20364 
  -19289   -17591   -15238   -12867   -11210   -10274    -9898   -10224 
  -11151   -12195   -13119   -13918   -14337   -14217   -13729   -12729 
  -10888    -8460    -5924    -3433    -1380     -461     -653    -1158 
   -1404    -1133        5     1986     4232     6316     8133     9475 
   10048     9674     8336     6326     4292     2583      706    -1962 
   -5413    -9328   -13176   -16030   -17126   -16320   -13985   -10945 
   -8065    -5601    -3429    -1811    -1245    -1806    -3399    -6070 
   -9407   -12535   -14974   -16530   -16851   -16097   -15189   -14829 
  -14953   -15039   -14307   -12147    -8991    -6070    -4114    -3161 
   -3150    -3762    -4433    -5229    -6851    -9468   -12552   -15632 
  -18105   -19083   -18312   -16431   -14119   -11866   -10269    -9492 
   -8744    -7001    -3777      816     5880     9943    12099    12367 
   10958     8257     5190     2572      347    -2012    -4742    -7820 
  -11180   -14378   -16568   -17094   -15778   -13027    -9949    -7661 
   -6519    -6350    -6692    -6824    -6581    -6792    -8269   -10983 
  -14377   -17651   -19746   -19797   -17802   -14537   -10934    -7620 
   -4512    -1146     2260     4838     6132     6137     4810     2452 
    -217    -2862    -5552    -8129   -10425   -12631   -14819   -16639 
  -17814   -18399   -18365   -17509   -15903   -13898   -11653    -9084 
   -5976    -1951     2901     7511    10710    12055    11614     9629 
    6541     3124      233    -1661    -2653    -3347    -4496    -6379 
   -8378    -9423    -8950    -7154    -4664    -2283     -635      162 
     460      731     1025      742     -734    -3388    -6748   -10194 
  -13202   -15605   -17273   -17736   -16675   -14452   -11732    -8978 
   -6542    -4758    -3826    -3790    -4240    -4314    -3623    -2921 
   -3486    -5850    -9459   -13507   -17447   -20664   -22502   -22724 
  -21559   -19594   -17543   -15705   -13862   -11772    -9534    -7570 
   -6284    -5927    -6739    -8670   -11188   -13717   -15705   -16463 
  -15725   -13973   -11840    -9741    -8176    -7646    -8110    -8986 
   -9674    -9867    -9526    -8685    -7356    -5539    -3331    -1131 
     687     2372     4318     6241     7646     8595     9388    10014 
   10183     9354     6963     3284     -334    -2626    -3419    -3364 
   -3124    -2913    -2650    -2411    -2619    -3650    -5493    -8064 
  -11336   -14966   -18392   -21070   -22410   -22303   -21425   -20157 
  -18097   -15070   -11548    -8124    -5391    -3938    -3872    -4737 
   -6046    -7449    -8605    -9577   -10937   -12905   -15100   -17118 
  -18383   -18167   -16478   -14112   -11643    -9195    -7135    -5838 
   -4926    -3715    -1914      421     2820     4596     5640     6503 
    7698     9437    11644    13784    15042    15032    14171    13097 
   12076    11097     9942     8254     6003     3600     1369     -568 
   -1958    -2819    -3693    -4907    -6441    -8349   -10494   -12449 
  -13995   -15134   -15763   -15812   -15463   -14801   -13779   -12813 
  -12476   -12713   -13202   -13720   -13833   -13230   -12140   -10867 
   -9627    -8995    -9600   -11434   -14169   -17533   -20799   -22870 
  -23384   -22957   -22159   -21120   -20042   -19099   -18146   -17146 
  -16159   -14801   -12595    -9628    -6267    -2770      476     2895 
    4161     4355     3797     3093     2859     3106     3531     4172 
    5112     6276     7856     9895    11649    12263    11577     9958 
    7869     5787     4064     2570      806    -1656    -5115    -9543 
  -14291   -18697   -22553   -25505   -27023   -27149   -26262   -24518 
  -22266   -20046   -17969   -16057   -14630   -13693   -12897   -12286 
  -12092   -12046   -11773   -11335   -10784    -9882    -8698    -7732 
   -7200    -7004    -7252    -7919    -8571    -9069    -9716   -10387 
  -10654   -10540   -10168    -9376    -8041    -6124    -3665    -1042 
    1113     2550     3686     4969     6443     8081    10050    12541 
   15533    18692    21499    23469    24252    23618    21584    18522 
   14940    11276     7887     4905     2272      160    -1170    -1886 
   -2387    -2939    -3790    -5177    -7036    -9048   -11201   -13729 
  -16400   -18796   -20869   -22434   -23048   -22676   -21713   -20542 
  -19486   -18648   -17680   -16189   -14295   -12483   -11037   -10002 
   -9628   -10212   -11676   -13665   -15633   -16858   -17018   -16559 
  -16079   -15728   -15346   -14814   -14154   -13379   -12395   -11002 
   -8898    -6050    -2968     -191     2120     3970     5335     6135 
    6344     6151     5836     5534     5176     4615     3802     2749 
    1365     -431    -2554    -4911    -7486   -10223   -12790   -14553 
  -15161   -14900   -14322   -13861   -13641   -13442   -13146   -13066 
  -13574   -14728   -16350   -18206   -20071   -21579   -22227   -21878 
  -20964   -20022   -19234   -18295   -16756   -14576   -12196   -10196 
   -8864    -8015    -7509    -7608    -8387    -9465   -10493   -11202 
  -11246   -10422    -8750    -6326    -3435     -600     1777     3691 
    5229     6372     7387     8730    10397    12100    13734    15094 
   15902    16383    16908    17335    17416    17220    16650    15357 
   13369    11102     8881     7027     5891     5270     4507     3431 
    2371     1458      605     -271    -1329    -2752    -4642    -7166 
  -10491   -14382   -18224   -21584   -24369   -26494   -27973   -29056 
  -29867   -30353   -30521   -30281   -29494   -28370   -27356   -26690 
  -26379   -26268   -26025   -25493   -24975   -24674   -24257   -23429 
  -22251   -20567   -18089   -15079   -12092    -9360    -7048    -5385 
   -4185    -3053    -1911     -674      842     2393     3655     4922 
    6574     8351     9880    11150    12062    12428    12555    12978 
   13682    14246    14409    14026    13155    12368    12126    12220 
   12419    12698    12679    11783     9841     7095     3842      316 
   -3356    -7124   -10667   -13371   -14924   -15463   -15090   -13942 
  -12442   -10965    -9787    -9330    -9735   -10666   -12007   -14015 
  -16666   -19568   -22452   -25146   -27342   -28842   -29548   -29128 
  -27390   -24718   -21372   -17143   -12295    -7761    -4074    -1172 
     882     2012     2308     1477     -739    -3674    -6334    -8255 
   -9118    -8553    -6767    -4476    -2238     -492      202     -271 
   -1315    -2276    -2689    -2312    -1420     -489      257      659 
     529        6     -467     -704     -889    -1132    -1465    -2126 
   -3292    -4901    -6977    -9507   -12118   -14418   -16205   -17286 
  -17568   -17283   -16788   -16138   -15258   -14259   -13330   -12849 
  -13318   -14630   -16038   -17072   -17747   -18011   -17818   -17334 
  -16492   -15044   -13210   -11441    -9791    -8278    -7250    -6826 
   -6699    -6619    -6407    -5768    -4567    -3096    -1779     -832 
    -477     -843    -1490    -1918    -2203    -2516    -2789    -3054 
   -3305    -3313    -3055    -2723    -2223    -1305      -30     1366 
    2775     4122     5301     6241     6892     7355     7861     8452 
    8749     8220     6664     4156      804    -3103    -7048   -10596 
  -13516   -15727   -17380   -18627   -19242   -18976   -17986   -16717 
  -15749   -15501   -15942   -16827   -17900   -18812   -19135   -18604 
  -17410   -16097   -14976   -13994   -13153   -12604   -12487   -12929 
  -13942   -15214   -16275   -16849   -16758   -15863   -14284   -12217 
   -9650    -6489    -2781     1194     4989     8183    10433    11451 
   11192     9873     7757     5237     2854      910     -528    -1343 
   -1517    -1251     -691      109      999     1848     2752     3814 
    4716     4907     4120     2276     -648    -4319    -8070   -11223 
  -13252   -13958   -13594   -12612   -11401   -10343    -9778    -9812 
  -10332   -11140   -12084   -13062   -14030   -15022   -15982   -16764 
  -17323   -17583   -17379   -16723   -15790   -14707   -13591   -12493 
  -11251    -9786    -8336    -7141    -6272    -5916    -6292    -7312 
   -8838   -10933   -13426   -15710   -17136   -17305   -16180   -14314 
  -12659   -11672   -11001   -10202    -9091    -7462    -5223    -2774 
    -652      915     1698     1616     1302     1404     1739     1886 
    1733     1182      209     -750    -1179    -1120     -972    -1051 
   -1638    -2831    -4268    -5598    -6787    -7688    -8156    -8396 
   -8575    -8648    -8694    -8880    -9251    -9827   -10704   -11739 
  -12497   -12887   -13166   -13300   -13135   -12652   -11600    -9708 
   -7233    -4681    -2420     -871     -402     -908    -2079    -3895 
   -6164    -8086    -9023    -9025    -8182    -6526    -4619    -3069 
   -1789     -423     1119     2819     4490     5638     6054     6146 
    6154     5907     5503     5189     4940     4837     5088     5404 
    5256     4737     4329     4136     4103     4211     4058     3186 
    1626     -524    -3281    -6358    -9412   -12408   -15186   -17262 
  -18393   -18816   -18752   -18268   -17674   -17244   -16921   -16799 
  -17089   -17633   -18298   -19249   -20340   -21130   -21644   -22189 
  -22684   -22964   -23216   -23518   -23644   -23533   -23111   -21991 
  -20119   -17933   -15572   -12969   -10498    -8573    -7169    -6300 
   -6202    -6839    -7956    -9417   -10947   -12036   -12463   -12328 
  -11506    -9881    -7852    -5808    -3718    -1711      -29     1537 
    3092     4159     4503     4399     3906     2926     1757      828 
     294      205      478      750      883     1272     2213     3572 
    5120     6618     7697     8087     7780     6909     5711     4504 
    3399     2116      411    -1522    -3359    -4907    -6018    -6714 
   -7152    -7248    -6803    -5927    -4868    -3824    -3124    -3047 
   -3553    -4575    -6227    -8389   -10475   -11942   -12668   -12725 
