Origin Time       2016/04/16 01:25:00
Lat.              32.753
Long.             130.762
Depth. (km)       12
Mag.              7.3
Station Code      KGS008
Station Lat.      31.7621
Station Long.     130.5699
Station Height(m) 15
Record Time       2016/04/16 01:25:26
Sampling Freq(Hz) 100Hz
Duration Time(s)  201
Dir.              E-W
Scale Factor      3920(gal)/6182761
Max. Acc. (gal)   51.314
Last Correction   2016/04/16 01:25:26
Memo.             
[...]
   -9463    -8614   -12868   -14715   -11677    -7196    -4608    -4323 
   -4623    -3861    -2683    -3556    -8126   -14726   -18271   -15572 
   -9983    -7155    -8548   -11331   -12590   -12034   -10380    -7561 
   -3676      -76      767    -2088    -6034    -8220    -8479    -8385 
   -9613   -11528   -11294    -8190    -4992    -5046    -8676   -11718 
  -11181   -10617   -13031   -13494    -7487     -229      985    -2890 
   -6116    -5787    -2864      365     2487     3794     4791     5600 
    7780    11574    12122     5238    -5858   -13733   -14331   -10918 
  -10023   -12542   -12916    -9225    -6744    -7593    -7039    -3936 
   -4063   -10573   -18408   -21081   -19797   -19647   -18622   -11257 
   -1294     2009    -2644    -8398    -9244    -5501    -3159    -6623 
  -12606   -14481   -11084    -7303    -5691    -3252      731     2078 
    -175    -2418    -3747    -5253    -4086     1442     4140    -3270 
  -15830   -22897   -21615   -17417   -15955   -16869   -14844    -8271 
   -3289    -5210   -10659   -13202   -12184   -10018    -5503     3151 
   12085    14620     9510     3195     3315    10154    15784    14480 
   10242     9138    10027     7586      718    -5739    -7573    -6243 
   -6136    -9631   -16139   -23362   -27289   -24388   -17134   -12860 
  -14372   -17161   -16880   -13987   -11616   -12677   -17913   -24201 
  -25214   -18189   -10285   -10562   -16064   -16409   -10387    -6183 
   -7714   -10877   -10486    -4352     5296    11745    10893     7307 
    7734    12300    16477    17866    16750    12761     5664    -2294 
   -8168   -11092   -12500   -14420   -16568   -16268   -13243   -11472 
  -13876   -18595   -22538   -25094   -26458   -26098   -24120   -21510 
  -19576   -19298   -19081   -15366    -8669    -5114    -8230   -14162 
  -17718   -18033   -16535   -13469    -8825    -4835    -3837    -3651 
     171     7290    12561    11933     5679    -2379    -8525   -11781 
  -12329   -10982   -10904   -14675   -19020   -18020   -12498    -9750 
  -12692   -16585   -17489   -16455   -14890   -12543   -10247    -8889 
   -6307     -546     6199    10972    12860    11439     7538     4787 
    5983     8720     9433     9376    10405     9711     5309     1196 
    1182     3467     6252    11455    18323    20753    14943     4859 
   -2682    -5504    -6674    -9648   -14131   -16562   -14666   -10034 
   -5869    -4677    -8328   -16328   -22644   -19775    -9259    -2165 
   -5091   -11945   -13272    -8016    -2121     1027     3152     4718 
    3387       65     -722     1488      800    -5944   -12648   -12719 
   -8957    -7873   -10615   -14841   -18903   -21505   -22231   -22283 
  -22261   -21400   -19594   -17854   -16802   -15855   -14286   -12416 
  -10790    -9904   -10543   -11888   -11652   -10083   -10248   -12912 
  -14673   -13046   -10249    -9387    -9788    -8743    -5669    -2073 
    1704     6444    10711    12231    11584    10133     7197     2101 
   -2767    -2675     3474     9493     8480     1193    -5293    -5995 
   -2661      586     2310     2296      189    -2681    -4179    -3937 
   -2661     -796      155    -1951    -6424   -10177   -11935   -13002 
  -15045   -19111   -25124   -30615   -31657   -26999   -19844   -15142 
  -16037   -20901   -24062   -22371   -18536   -15502   -13083   -11982 
  -13999   -17631   -19173   -17805   -16084   -15066   -12917   -10299 
  -11376   -16792   -21480   -21434   -17909   -13751   -10101    -8005 
   -8663   -10512   -10334    -7775    -5231    -4075    -3484    -2101 
     -42      634    -1890    -6747   -10876   -11877   -10584    -9534 
   -8267    -4282     1194     3774     1939    -1294    -2437    -1081 
     806     1469      739     -673    -2355    -3666    -3588    -2234 
   -1136    -1749    -3425    -3806    -2762    -2685    -3838    -3804 
   -2171    -2159    -6011   -11884   -17260   -20849   -20652   -15758 
   -9147    -5723    -8139   -13406   -15004   -11390    -8592   -11170 
  -15430   -15193   -10812    -7677    -6775    -4127     -612    -1927 
   -7320    -9230    -4640     2212     8003    13379    17964    18757 
   14800     9876     7998     7862     5381      251    -3669    -3694 
   -1502     -446    -1667    -3933    -5300    -4548    -1927     1388 
    3208     1054    -4273    -9110   -12435   -15355   -15350    -9237 
   -1144     1704     -321    -1505     -568     -287    -1012     -947 
    -574    -2136    -5284    -7555    -8882   -11168   -14718   -17663 
  -17614   -14105    -8995    -4107     -809     -203    -1522    -2631 
   -1889     1466     6243     8475     4714    -3691   -11949   -17086 
  -19649   -21793   -25340   -29177   -29223   -23584   -15740   -11309 
  -12778   -18012   -23702   -27621   -27404   -22122   -15343   -12016 
  -12919   -15304   -17159   -17838   -16891   -15628   -16211   -16494 
  -12436    -7008    -7385   -12665   -14268    -9282    -3913    -2576 
   -2189     1031     5694     8773    10085    10147     8487     6233 
    6023     8699    12040    13261    11946     9547     7898     8310 
   10283    12323    13606    13324    10237     4510    -1206    -4494 
   -6052    -7763    -9465    -9673    -8555    -8496   -10850   -14401 
  -18295   -22423   -25285   -25749   -24555   -21981   -17367   -11650 
   -8001    -8582   -11487   -13157   -13005   -12957   -13881   -15445 
  -18222   -22582   -26265   -26469   -23726   -21084   -20128   -19142 
  -15132    -8624    -4948    -6991   -10276   -10455    -9957   -11583 
  -12827   -11670   -10611   -11313   -11070    -7167    -1173     3182 
    4775     6212     9514    11589     7632     -958    -6831    -5739 
   -1345      463    -1162    -3106    -3935    -4607    -5263    -4745 
   -2807     -913     -549    -1955    -4214    -5389    -4423    -3088 
   -3226    -3987    -4789    -6915    -9722   -10799   -10724   -11995 
  -14093   -14187   -11891    -9958    -9789    -9484    -7932    -7070 
   -8395   -10516   -11406   -10990   -10570   -11167   -12794   -14207 
  -13667   -10597    -6402    -3229    -2209    -3407    -5831    -7797 
   -8521    -7627    -4525     -728      503    -1278    -2265      905 
    6478     9779     9178     6860     5132     4980     6250     6944 
    4648      311    -2140     -935     2146     5143     6537     4318 
   -1306    -6346    -7421    -6144    -6109    -7198    -7143    -6237 
   -6461    -8421   -11153   -13505   -14410   -12620    -8185    -3102 
     840     2479       34    -6276   -11844   -12736   -11047   -11092 
  -12929   -13598   -12645   -12409   -14058   -16726   -19248   -20771 
  -21023   -20395   -18872   -15988   -13062   -12638   -14093   -14007 
  -11302    -7833    -4954    -2525     -714     -781    -3163    -5916 
   -6788    -5588    -3145     -321     1673     2304     2428     3093 
    4112     4286     3395     3015     4800     8284    10714    10440 
    8871     6965     3754      -98    -1599     1076     6125     8956 
    6072     -993    -6629    -6817    -2845      983     2314     2104 
    1088    -1762    -6104    -9178    -9245    -8050    -8790   -12178 
  -15691   -17082   -17075   -17862   -20466   -23885   -26062   -25501 
  -21920   -16832   -14089   -17096   -24671   -31827   -34772   -34101 
  -32801   -31614   -28788   -24321   -20643   -18678   -16472   -12653 
   -8579    -6031    -5050    -4712    -4630    -5141    -6097    -6127 
   -3829      499     5194     9260    12828    16098    18797    19811 
   18445    16614    16747    17730    16007    10385     3917      415 
      65      141     -287     1016     4755     7420     6077     2174 
   -1579    -4418    -6527    -7775    -8591    -9915   -11306   -11785 
  -12731   -16689   -22844   -26543   -24420   -17609   -10011    -6078 
   -7956   -12435   -14586   -14683   -15957   -16873   -13083    -6269 
   -3091    -4993    -6521    -4907    -4160    -7704   -13201   -17164 
  -19603   -21399   -21425   -18956   -15226   -11652    -9227    -8630 
   -9797   -12200   -15162   -17880   -19230   -18210   -15180   -11277 
   -7060    -2359     3909    12385    20419    23152    18895    11298 
    4877      713    -2481    -6043   -10375   -13250   -10472    -1528 
    7859    12118    11778    10156     7934     4204      247    -1335 
    -844     -846     -805     2817     9828    14355    12455     7344 
    3799     2048     -238    -4308   -10850   -20602   -31921   -39854 
  -39875   -32075   -20944   -11178    -4485    -1261    -3437   -12775 
  -26831   -38925   -44108   -44173   -43416   -41746   -37128   -31678 
  -29374   -29800   -28955   -25156   -20944   -19486   -20523   -20810 
  -18827   -16882   -17218   -18546   -18201   -15468   -11129    -6436 
   -2634     1404     8781    19209    27067    28095    25681    26129 
   30105    33273    32787    29683    26208    23318    21355    20649 
   20277    18558    14794     9759     5786     4935     5459     2642 
   -4873   -12280   -14095    -9924    -3829     -589    -3178   -11302 
  -21566   -30566   -37025   -40657   -41150   -37699   -29205   -16860 
   -4616     3854     6397     3563      -13     -939    -2617    -9056 
  -16826   -19163   -14618    -8143    -5480    -8422   -14565   -18557 
  -14501    -1715    12439    19714    19575    15957     9411     -479 
   -9529   -13007   -11560    -8585    -5138     -782     2861     3056 
     251    -1648      391     5768    11335    13341     9299      747 
   -7252   -11413   -12538   -11797    -7939     -543     6115     7009 
    2198    -4919   -11335   -14445   -12550    -6965     -914     3956 
    7475     8580     5696     -580    -6390    -8355    -7259    -4804 
      43     7688    14508    16003    11263     3449    -2500    -3962 
   -3087    -3039    -3727    -3445    -1820      374     2430     3533 
    2567      262       68     3855     8393     8600     3464    -2111 
   -2372     1951     3907     -829    -8401   -13430   -17320   -24145 
  -32801   -38903   -40973   -41288   -41986   -42525   -40963   -36835 
  -32637   -32099   -36349   -41632   -41664   -33678   -22261   -14874 
  -12439    -8872    -1862     3190     2683      150     -312      540 
   -1247    -8307   -18486   -26586   -28320   -22168   -11445    -3825 
   -4505   -10176   -13459   -11870    -7895    -3747     -283     1216 
   -1757   -10514   -21989   -30168   -31305   -27283   -22702   -19716 
  -18221   -18406   -19948   -20627   -18490   -15325   -15824   -22723 
  -33249   -40681   -40869   -36577   -33990   -35533   -37067   -33660 
  -26939   -22635   -22366   -22924   -22765   -23959   -27194   -29590 
  -28686   -25181   -20788   -15840   -10351    -5388    -1980     -315 
     339     1756     5008     8895    10908     8857     2772    -4107 
   -7447    -4803     2751    10586    13878    12431    11232    14574 
   19529    18916    11599     4589     3638     6573     7892     6592 
    5686     5694     4329     1458    -1533    -5480   -12200   -20593 
  -26455   -27361   -25893   -25378   -24802   -21252   -15310   -10538 
   -8959    -9661   -10633   -10500    -8442    -3338     4274    10195 
    9938     3462    -4368    -7479    -3852     3093     8719    11413 
   13329    17789    25240    32960    38352    40347    40052    41321 
   46336    51222    51079    46916    43019    40992    39953    39194 
   38122    35678    31873    28355    24828    17338     3649   -11592 
  -21023   -23190   -22794   -23643   -26461   -32158   -42071   -54034 
  -62219   -63419   -59910   -55137   -50671   -46688   -43075   -41161 
  -42735   -46444   -48602   -47437   -43881   -38879   -31776   -22228 
  -12534    -6025    -3540    -2727     -803     2426     4892     4546 
     680    -4787    -7849    -6465    -2308     2177     6163     9986 
   13921    18102    22694    26361    25679    18915     9142     1375 
   -1430      845     5253     7047     4080    -1565    -7085   -11667 
  -15401   -17841   -18984   -19889   -21613   -25380   -32511   -42060 
  -50360   -54127   -53298   -50486   -47573   -44023   -39466   -36010 
  -35603   -36379   -34763   -29754   -22409   -13487    -3444     6579 
   14292    17715    17680    17250    18317    20245    21943    23511 
   24753    23763    19242    13579    10497    10092    10051     9780 
    9605     9212     8316     6529     3683      493    -2915    -7638 
  -13521   -18470   -21559   -24589   -29388   -34605   -37271   -36958 
  -35162   -32166   -27989   -24658   -24472   -26431   -27565   -27759 
  -29407   -32835   -35287   -33664   -27357   -19250   -13074    -9879 
   -7793    -3882     2766     8743     9923     7190     5357     7284 
   11734    15724    17139    16325    15707    16783    18299    18260 
   16624    15027    14043    11910     6859     -473    -7578   -11767 
  -11561    -7728    -2843      677     1933      901    -2767    -9143 
  -16263   -21052   -22975   -24633   -27570   -30122   -30376   -28584 
  -26458   -24763   -22036   -17697   -14223   -13551   -14746   -16355 
  -17385   -16000   -10470    -1449     8179    15577    19468    19680 
   16578    11483     6334     2493      357     -149      384       63 
   -2892    -6929    -8127    -5055       80     5220    10351    15213 
   18271    18801    17652    15805    13685    11395     8953     6758 
    5473     5231     5933     7966    11442    15438    18650    19929 
   18193    12615     3251    -7920   -17336   -23352   -28382   -35082 
  -42501   -48471   -52979   -57299   -62208   -67683   -72689   -75826 
  -77300   -79172   -82718   -86479   -87681   -85055   -79836   -74392 
  -70093   -66318   -61088   -52937   -42767   -32687   -23002   -12457 
   -1338     7257    10304     8425     4969     2504     1283      -61 
   -2531    -4738    -3685     1605     8716    14640    17992    18334 
   15779    12174    10649    12432    15395    17694    20472    23997 
   25504    23764    21145    19797    19010    17264    15352    15137 
   15806    14838    12082     9898    10382    13668    17752    20316 
   21263    22175    23497    23592    20538    14801     9369     6310 
    4901     3671     2059      448      313     3221     8766    14165 
   16061    13294     7941     2736    -1441    -4702    -6830    -7861 
   -9049   -12122   -16523   -18717   -16217   -10544    -5118    -2083 
   -1524    -2181    -1907     1597     8371    15219    19153    20242 
   20108    19998    20677    22494    24028    21368    11605    -3081 
  -16627   -24133   -25410   -24122   -24321   -27354   -31043   -32367 
  -30873   -28874   -28844   -30844   -32541   -32022   -29986   -28327 
  -27900   -28754   -30347   -30823   -28750   -25896   -25431   -27264 
  -28144   -26079   -21906   -17214   -12917    -9650    -8017    -7582 
   -6568    -3903     -544     2334     4810     6352     4445    -2358 
  -11264   -17482   -18801   -16551   -12811    -8473    -4324    -1213 
    1251     3567     4564     2502    -2286    -6856    -8584    -7980 
   -7789    -9528   -11670   -11815    -9499    -5567       99     8030 
   16432    21332    20725    17155    14943    15582    16835    15810 
   12148     8484     7339     8207     8924     8356     7434     8300 
   12008    16615    17914    14134     8647     5434     4884     5177 
    4696     3189     1444      620     1815     4171     5176     4043 
    3148     5837    12124    17625    17802    12347     5272      565 
   -1329    -2975    -6767   -11827   -15942   -18928   -21441   -23945 
  -26661   -29016   -30846   -32633   -34573   -36797   -39394   -42619 
  -46383   -49418   -50646   -49792   -46632   -41288   -34686   -28794 
  -25696   -25821   -27767   -29342   -28996   -26279   -21282   -15371 
  -11063    -9579    -9963   -10258    -8883    -5904    -2643      631 
    4521     7445     7064     4397     2114     1408     1924     2294 
    1383    -1216    -4904    -7541    -7702    -6291    -4977    -4454 
   -3616    -1100     2197     3994     3273     1008    -1278    -3098 
   -4778    -6675    -9233   -13004   -17436   -20440   -21028   -20190 
  -18870   -17977   -18297   -19783   -22150   -24451   -25170   -23810 
  -21663   -20673   -20618   -19193   -14979    -8310     -853     5469 
    9343     9618     6491     2081    -1410    -2803    -2326    -1102 
     -26      584     1240     2355     3164     2306    -1209    -6670 
  -12007   -16296   -20057   -23286   -24891   -24315   -22115   -18836 
  -15326   -12921   -12827   -15700   -20176   -23883   -26320   -28395 
  -31029   -33962   -34923   -31677   -24138   -15134    -9188    -8153 
   -9689   -10374    -8705    -6153    -5231    -6429    -8201    -9442 
  -10474   -11629   -12235   -11185    -8234    -4644    -1448     1783 
    5141     7827     9645    11336    13643    16512    19912    24329 
   29548    34763    38966    40752    39966    38759    39509    42219 
   44991    46684    47394    47569    47980    48543    47851    45376 
   42676    41626    41811    40797    37020    31315    25931    22162 
   19419    16742    13982    11512     9269     6551     2667    -2606 
   -8502   -13823   -18424   -22755   -26444   -28407   -28168   -27165 
  -27753   -30654   -34408   -37220   -39059   -41059   -43315   -45047 
  -45894   -46041   -45561   -44081   -41843   -40104   -39762   -40699 
  -41825   -41684   -39797   -36808   -33898   -32066   -31065   -29231 
  -24913   -18684   -13156    -9831    -7362    -3341     2470     7670 
   10354    10809    10050     8717     6964     4479     1052    -2747 
   -5519    -6256    -5641    -5383    -6668    -9056   -10690   -10514 
   -9963   -11298   -15136   -20905   -27749   -34140   -38766   -41029 
  -40766   -39049   -37388   -36068   -34644   -33225   -32740   -33329 
  -33359   -31729   -29699   -29442   -31709   -35191   -38203   -40316 
  -41750   -42254   -41516   -39849   -37669   -35007   -32042   -29316 
  -27186   -25164   -22101   -17683   -13265   -10731   -10729   -12120 
  -13004   -11587    -6978       23     7901    15246    20589    23165 
   23121    21140    18563    16634    15605    14859    13515    11640 
   10336     9931     9824     9960    10405     9973     7217     2866 
    -825    -2890    -3697    -3245     -885     3664     9625    15570 
   20188    23153    25048    26415    27593    28326    27298    23607 
   18730    15635    15426    16255    15924    13889    10776     7340 
    3774     -204    -4819    -9856   -13969   -15496   -14380   -11787 
   -9096    -7881    -8956   -10923   -11349   -10426   -10980   -13911 
  -16484   -15643   -11422    -5945     -233     5553    10559    14048 
   15977    16234    14251     9790     4357      743      313     1942 
    3948     5778     7405     8014     6605     3770     1191     -570 
   -2015    -2984    -2551     -836      309     -281    -1013      451 
    4176     8384    11596    13514    14887    16342    17071    15704 
   12464     9282     7562     7177     7568     7906     6520     2379 
   -3207    -7896   -10900   -13468   -16853   -20948   -25306   -29983 
  -34865   -39321   -43069   -46627   -50201   -53065   -54706   -55527 
  -56129   -57121   -59068   -61315   -62314   -61748   -60639   -59606 
  -58407   -56712   -54652   -52773   -51130   -48865   -45472   -41123 
  -35759   -29890   -25114   -22339   -20698   -18263   -13676    -7149 
    -180     5125     7722     8309     8465     9998    13141    16507 
