Origin Time       2016/04/16 01:25:00
Lat.              32.753
Long.             130.762
Depth. (km)       12
Mag.              7.3
Station Code      KGS012
Station Lat.      31.6057
Station Long.     130.5740
Station Height(m) 4
Record Time       2016/04/16 01:25:30
Sampling Freq(Hz) 100Hz
Duration Time(s)  170
Dir.              N-S
Scale Factor      3920(gal)/6182761
Max. Acc. (gal)   21.860
Last Correction   2016/04/16 01:25:30
Memo.             
[...]
    5417     5407     5934     6356     6397     6432     6572     6320 
    5655     5090     4535     4115     4699     6256     7685     8145 
    7669     7172     7598     8935    10303    10524     8861     6064 
    4235     4435     5447     5804     5306     4548     4358     4857 
    4786     3171     1081      262      991     2161     2373     1019 
    -847    -1081     1232     4447     6689     7571     6913     5373 
    4949     6211     7698     8402     8740     9145     9007     8110 
    7573     7984     8663     8903     8258     6740     5752     7208 
   10594    12861    12316     9935     7355     6109     6810     7946 
    7384     5071     3148     3611     5803     6980     6596     7002 
    9085    11628    13267    12568     9753     7630     8095    10264 
   12530    13573    12664    11053    10930    12271    13266    13447 
   13550    13970    15305    17573    19215    19234    18053    16143 
   14371    14059    15303    16660    16593    14835    12715    11764 
   12101    12900    13556    13880    13839    13431    13000    13167 
   13965    14519    13965    12906    13328    15834    18164    18291 
   16831    14982    13333    13105    15120    17492    17232    14369 
   11415     9709     9707    11647    13772    13714    11693    10237 
   10569    10599     8646     6455     6463     9017    12017    12381 
    9872     8367    10161    11965    10482     7117     4723     4517 
    5649     6099     5658     5917     7016     7725     7415     6624 
    6930     9007    11318    12436    12113    10489     9033     9882 
   13458    17872    19431    15277     7513     2866     5066     9646 
   11308    10235     7812     5556     5914     8026     8556     7249 
    6079     4793     2349      535     1760     5453     8581     8986 
    7504     5747     4437     4657     6749     9083    10312    10521 
   10131     9545     8581     6460     3869     3267     5557     8249 
    8896     8240     7881     7767     7777     8310     8562     7482 
    5567     3839     2949     3311     4187     4172     3840     5149 
    7664     8434     6362     3910     3485     4867     6888     8688 
    9783    10951    12713    13903    13681    11819     8752     6611 
    6494     7269     8335     9803    11470    13222    14434    14099 
   12565    11241    10742    10557    10182     9573     8701     7785 
    7186     6495     5344     4712     5538     7344     9168     9928 
    9205     8550     9187     9881     9367     8512     8620     9390 
    9622     8692     6722     4334     2637     2560     4373     8288 
   13141    15513    14284    12116    10059     7686     6645     7687 
    8742     8184     6701     5815     5805     6163     6418     6182 
    6625     8691    10290     9697     8095     7206     7593     8698 
    9534     9099     6887     4293     3460     4662     6922     8578 
    7588     5531     6846    11470    14717    13763    10092     7383 
    7694     9939    11995    12217    10167     7287     5588     5920 
    7572     8887     8963     8701     9235    10177    10157     8638 
    6878     6158     6107     6028     5954     6184     6755     7154 
    7591     9040    10933    12041    12430    11871     9859     7728 
    7119     7944     9464    11049    11902    11913    11874    12175 
   12890    13747    13474    12149    11786    12437    12608    12511 
   12118    10499     8933     9056     9823     9706     8290     6104 
    5230     7349    11350    14571    14634    11845    10137    11707 
   13874    14264    14140    15060    16298    16725    16877    17682 
   18682    19376    20196    21227    22394    23356    22748    20357 
   17117    13330    10381     9707    10562    11936    12605    10816 
    7140     4625     5241     8183    11285    12466    10616     6895 
    4326     4787     6895     7372     5125     2489     1464     2368 
    4900     7753     9787    10659    10187     8892     7104     5331 
    4948     5424     5338     5287     5931     7039     8329     8981 
    8109     6508     6594     8731    10771    12086    12190     9858 
    7970     9718    11744    10514     7481     3974     1371     1946 
    3673     3039     1140      751     1433     1716     2651     4131 
    4329     3961     4218     4858     5825     6912     7487     7515 
    7754     8580     8964     7932     6210     4614     3482     4008 
    6711     9948    11666    11491     9968     7578     5760     4951 
    3904     3514     4773     6020     6939     8202     8503     7168 
    5120     3336     3521     6352     8656     7360     4650     4659 
    7537     9987    10018     8768     8196     8669     9073     8883 
    8626     8148     7170     6566     6171     5099     4499     5460 
    7375    10170    13302    14644    13815    12070    10095     9189 
    9944    10931    11168    10426     8643     6801     6151     6884 
    8674    11135    13154    13354    11842    11044    12643    14593 
   14277    12165    10806    11440    11986    10225     7714     7498 
    9831    12440    13676    13729    13440    13613    14848    16120 
   15198    12026     8860     7424     7962     9083     9281     9089 
    9306     9510     9595    10108    11231    12386    12869    12274 
   10548     8431     6800     6137     6250     6027     5474     5771 
    6589     6862     6532     6384     7242     8096     7791     7619 
    8547    10421    12692    13693    13592    14487    16140    16591 
   15045    12434    11000    11987    14085    15444    15395    14495 
   13704    12907    11565    10390    10109    10300    10521    10424 
    9859     9855    11013    11739    10853     9566     9107     9522 
   10355    10448     9109     7403     6352     5308     3496     2038 
    2804     5410     7131     5821     2160     -622      208     3748 
    6599     6799     5092     3610     3962     5585     6582     5984 
    4861     5459     8589    12407    14597    14625    13084    10589 
    8091     6779     7465    10082    13040    14243    13409    11958 
   11208    11609    12626    13090    12413    11425    11040    11138 
   11529    11981    12252    13106    15019    17064    18461    19205 
   19330    19016    18382    17207    15738    14374    13272    12811 
   12753    12230    11036     9931    10202    11723    12385    11791 
   11947    13523    15108    14907    12467     9842     9345    10400 
   11268    12096    13291    13775    13072    12242    12264    12821 
   12318    10569     9851    10930    11885    11261     9365     7151 
    5267     3710     1795      -38     -128     1097     2019     3175 
    5739     8794    10041     8938     7290     6386     6522     7484 
    8171     8410     8911     8723     6659     3745     2010     3125 
    7127    11256    12524    10689     7825     6216     6606     8204 
    9088     7594     5247     4648     5499     7034     9475    11941 
   13355    13102    11120     9433     9702    10439     9710     7875 
    6473     6116     6506     6780     5668     3843     3271     3840 
    4649     5927     7920    10247    11989    12592    12726    12750 
   12009    10060     6780     2992      831     1206     2619     3066 
    1723     -393    -1584    -1376     -702     -842    -1615    -1532 
    -476      613     1988     4269     6601     7075     5351     3497 
    3233     4549     6558     8249     9560    11094    12701    13663 
   13542    12627    11962    12234    12931    13319    13403    13206 
   12902    13506    14914    15667    15759    16186    17041    18098 
   19085    19357    18608    17284    16234    16072    16388    16301 
   15626    14571    13722    14260    16284    17968    18116    17565 
   17180    17238    17925    18467    17998    16795    15208    13453 
   12228    11955    12107    12089    12015    11657    10508     9324 
    9035     9445    10554    12693    15095    16189    15398    13817 
   12673    12021    11653    11585    11367    10896    10896    11546 
   12071    11833    11129    10245     8683     6683     5700     6133 
    6638     6443     5912     5442     5514     5896     5584     4840 
    4690     5337     7176    10415    13389    14259    13192    11230 
    8933     6826     5430     4793     4612     4720     4739     3756 
    2302     2212     3581     5552     7927     9726     9989     9457 
    8808     7742     6559     6207     6720     7485     8461     9103 
    8374     6920     6024     5137     3270     1250      293      265 
     597     1146     2059     3613     5687     7335     7982     8108 
    7886     7512     8257    10335    11402     9758     7125     6209 
    7332     8801     9229     8638     8105     8371     8833     8604 
    7722     7184     8009     9902    11326    11351    10729    10322 
   10036     9535     8812     8358     8665    10093    12736    15277 
   15756    13958    11486     9813     9124     8799     8651     9058 
    9780    10009     9689     9488     9839    10693    11544    11725 
   10959     9682     9147    10089    11570    12784    14028    15200 
   15556    14611    12986    12374    13421    14847    15540    15777 
   16530    17548    17064    15283    14273    14065    13508    12670 
   12182    12626    14051    14942    13790    11767    11259    12274 
   12696    12073    12102    13055    13288    11874     9549     7944 
    8233     9483     9608     8323     6497     4368     2617     1975 
    1908     1560      759      357     1292     3003     4405     5148 
    5113     4745     4986     5819     6358     5976     5331     5904 
    7278     7829     7682     7414     6660     5130     3190     2204 
    2880     3466     2801     2208     1924     1287     1662     3107 
    3241     2179     1667     1345      722      723     1440     1836 
    1897     2669     4423     6265     6960     5959     5044     6851 
   10051    10929     9535     8332     7842     7414     6917     6454 
    6021     6311     8256    10781    11752    10936     9930    10129 
   11374    12284    11961    11020    10781    11609    12204    11216 
    9216     7655     7061     7106     7084     6834     7252     8356 
    8618     7868     7930     9537    11492    12652    12740    12368 
   12638    13565    14084    13605    12440    11777    12444    13678 
   14502    14399    13035    11366    10941    11741    12727    13612 
   14873    16619    18119    18664    18261    17414    16435    14994 
   13108    11700    11124    10834    10415     9536     8321     7607 
    7502     7154     6338     5528     5045     5280     5986     6059 
    5624     5808     6505     6913     7001     7102     7237     7104 
    6465     5368     4408     4882     7140     9488    10040     8813 
    7591     7542     7948     7903     7730     8158     8841     8730 
    7932     7863     9601    12568    14856    15602    15830    16371 
   17440    18782    18961    17341    15208    13620    13279    15188 
   18336    19578    18040    16179    15634    15899    16087    15547 
   14832    14832    14307    11882     8247     4318      527    -2459 
   -4431    -5461    -5146    -3899    -2759    -1545     -319     -300 
   -1124    -1378    -1202     -780      122      201    -1506    -2980 
   -1668     1987     5982     9262    11221    11731    11796    12560 
   14146    15558    15722    14381    11888     8759     5515     3050 
    1898     1038       92      532     2519     4649     6336     7353 
    7454     7307     7908     9074     9544     7838     4233     3137 
    6491     8630     7251     6607     7996    10405    13090    15279 
   17899    19936    18911    16624    16224    18482    21894    23878 
   23905    21806    17843    15843    16859    16286    12714    10280 
   10443    10159     9316    10562    13572    15751    14838    11410 
    9854    12292    15089    15576    14100    10994     8211     7005 
    6238     6250     8302    12118    15804    18301    20497    21590 
   20478    18733    17098    14870    12654    11825    12187    13548 
   16511    16892    10740     4864     5460     7135     6646     7400 
    7159     2923    -1165    -3576    -6552    -7799    -5745    -3794 
   -2975    -1598     -165      183       11      141     -605    -3043 
   -4687    -4038    -2388      345     4703     9156    12074    14177 
   17211    20807    23292    23746    22125    18633    13044     5682 
   -1773    -6997    -8623    -7768    -6587    -5953    -5567    -4361 
   -1758      778     2025     2056      893     -115     -199     -123 
    1161     2319      109    -2673    -2528      345     6469    13467 
   16553    16165    15073    13937    13093    12980    13211    11934 
    8879     6392     4441     2406     2031     2825     2246     1499 
    4290     9864    14626    18069    20566    21902    22543    22576 
   22762    23521    24665    27063    28906    28594    29348    32837 
   35851    33307    25255    18661    16784    18393    22571    26319 
   28370    29929    29710    27256    24568    23303    24170    24995 
   23334    21112    18527    12686     7796    10031    14987    15274 
   10634     4596      719      716     2815     5406     8717    11825 
   14846    18263    19942    20724    20896    17052    11943     9218 
    7388     5974     3859     -196    -5076    -7830    -5586    -2451 
   -2510    -2430     -842     1331     3283     2784     -143    -4385 
   -9652   -15157   -19482   -21595   -23067   -25169   -25290   -20414 
  -10775      936    12094    20442    24982    27050    26277    21308 
   15653    13895    16033    18594    17017    11123     6196     6559 
   11993    16824    16827    16513    20065    24905    28577    30531 
   28958    24314    21126    20957    21138    20835    20257    18169 
   16010    16857    19040    19609    20029    22494    25285    24795 
   20754    15399     9640     4196      500     -929    -1170     -502 
    2136     4903     5505     5796     6869     6623     5205     5100 
    5696     4956     3254      591    -3209    -5443    -4697    -3255 
   -1985      -30     2269     4391     5789     7864    13118    17443 
   15818    10723     5611     2853     3023     2863      885    -1326 
    -594     4230     8618    10094    11550    14835    18394    18642 
   14743    11283    11281    11997    11277     9518     7644     9246 
   14131    14876    10324     7293     8025     9858    11147    11538 
   10726     7586     2719     -787    -3185    -5735    -7040    -8551 
  -10308    -9519    -9290   -10931   -10756    -8588    -3889     1701 
    2699      905     1579     3806     4381     4176     5689     8148 
    9836    10286    10533    11739    12270    11057     9126     7690 
    7337     6433     5089     5866     8583    11534    13600    14454 
   15173    17360    21820    25689    24806    20869    17789    14789 
   10574     7858     8288     9342    10615    13842    16925    17056 
   15468    15202    16069    15476    14290    14269    15100    16310 
   14983    10825     8858     9380     9982    10955    10968    10294 
   11449    12732    12271    11553    11156    10111     8415     8263 
   10637    12168    10169     7084     6504     7586     6579     4136 
    4329     6848     9742    13960    19006    22588    24389    24359 
   21269    16401    13374    13325    15427    19053    21831    21548 
   20083    19620    19366    18915    18359    16736    14248    11948 
    9900     7528     5159     5179     7650     8699     7668     7323 
    8404     9594     8358     4234      707     -551     -746     -877 
   -1149     -368     1132     1659     2477     4422     5641     5725 
    5326     4546     4440     5370     6002     5869     4597     1989 
      81     -434    -1262    -2623    -4059    -4966    -3806     -783 
    2660     4968     4136     1029    -1879    -3770    -3428     -382 
    3597     6892     8665     9456     9977     8715     5029      933 
   -1025       25     1671     1613        8    -1878    -1931     -490 
    -187    -1039    -2124    -3098    -2856    -1693     -825     -297 
     491     2681     6626    10956    14239    15579    14799    13294 
   12713    12948    13554    14824    15617    14545    13155    13635 
   14851    13930    11365     9787     9495    10860    14417    17895 
   19277    18493    17051    17531    19803    20994    19647    16490 
   14281    15801    18683    19930    21286    23547    26030    28122 
   27664    24865    21690    18170    14465    11304     9304     9007 
   10158    11625    11543     9910     9316    10341    10903    10659 
   11733    15024    17924    16966    13265    11463    12423    13047 
   11117     6584     1899      531     2507     3700     2510     2163 
    3637     5171     6917     8137     7167     5621     4789     4252 
    4819     5341     3211      183      443     2057      291    -1352 
     998     3476     4427     6111     8092     8653     8063     7126 
    5705     3786     1231    -1702    -4008    -5590    -6087    -4501 
   -1987    -1142    -1518      186     4071     5932     4262     2856 
    3351     3142     1939      827     -623    -1224      -84      742 
    1179     4051     9281    13516    15366    16474    17542    17749 
   17957    19318    20971    22245    22298    20408    19225    20544 
   22519    24309    25404    25242    25910    28165    29447    28246 
   25320    22235    20072    18245    15946    14108    13889    14475 
   15096    16803    18601    18093    17064    17702    18501    19505 
   21997    23450    21878    20333    21373    22994    23322    24660 
   28458    31627    32969    34491    35583    34888    33578    32323 
   30504    28550    27264    26422    25553    24211    21823    18729 
   16011    14333    14224    15597    16947    17066    16381    15960 
   15273    12279     7091     1729    -2540    -5234    -7430   -10493 
  -14073   -17106   -17817   -15267   -12229   -12393   -15676   -19637 
  -22836   -23615   -20755   -17409   -17284   -18659   -19278   -20509 
  -21931   -21655   -20993   -19657   -15096    -9811    -7976    -9659 
  -12724   -14101   -12756   -10492    -8625    -8726   -10041    -8767 
   -5110    -1867     -226     -230      410     2919     5096     5903 
    5695     4227     2374     1521     1562     1896     2547     4722 
    8932    11866    10886     8589     7100     5031     2794     2396 
    2551     1422     1037     2906     4348     3739     3152     3520 
    4047     5415     7371     7539     5726     3273      337    -1677 
    -867     1461     3050     4071     5677     8090    10922    13657 
   15946    18019    20447    22622    22470    19922    17277    15506 
   14757    15104    15266    14617    14211    14811    16486    18845 
   20963    22646    24359    25488    25763    26866    29462    31590 
   32135    32713    34526    36278    36205    34247    32204    31038 
   29051    25513    22154    19592    17969    18325    19722    20216 
   19904    19285    17965    16059    13803    11084     9102     9323 
   10399     9501     6324     3279     1727      461    -1439    -2796 
   -2141      -62     1381     2117     3621     4864     3882     1503 
    -360     -999      -97     2176     4098     4250     3501     3165 
