Origin Time       2016/04/16 01:25:00
Lat.              32.753
Long.             130.762
Depth. (km)       12
Mag.              7.3
Station Code      KGS017
Station Lat.      31.3954
Station Long.     130.8702
Station Height(m) 64
Record Time       2016/04/16 01:25:35
Sampling Freq(Hz) 100Hz
Duration Time(s)  122
Dir.              E-W
Scale Factor      3920(gal)/6182761
Max. Acc. (gal)   8.585
Last Correction   2016/04/16 01:25:35
Memo.             
[...]
  -26643   -25054   -23695   -22816   -22521   -22676   -23161   -23992 
  -25042   -26244   -27530   -28504   -28892   -28795   -28420   -27974 
  -27640   -27617   -27906   -28268   -28599   -28924   -29191   -29157 
  -28551   -27444   -26119   -24991   -24595   -25068   -26082   -27260 
  -28266   -28934   -29379   -29685   -29681   -29174   -28382   -27760 
  -27516   -27713   -28349   -29193   -29962   -30522   -30769   -30530 
  -29749   -28574   -27333   -26513   -26353   -26725   -27434   -28162 
  -28636   -28878   -28922   -28813   -28779   -28900   -28873   -28406 
  -27536   -26396   -25172   -24226   -23835   -24082   -24913   -26118 
  -27388   -28452   -29227   -29748   -30012   -30010   -29947   -30167 
  -30708   -31194   -31201   -30739   -30258   -30083   -30164   -30333 
  -30539   -30867   -31264   -31539   -31678   -31768   -31822   -31746 
  -31469   -31206   -31081   -30779   -30039   -29014   -28056   -27337 
  -26891   -26879   -27357   -28016   -28412   -28325   -27944   -27627 
  -27363   -26802   -25888   -25097   -24854   -24969   -24870   -24351 
  -23852   -24001   -25177   -27261   -29672   -31724   -32956   -33442 
  -33609   -33790   -34127   -34468   -34525   -34215   -33494   -32318 
  -30870   -29420   -28212   -27521   -27510   -28078   -28792   -29137 
  -28950   -28384   -27700   -27081   -26531   -25973   -25303   -24551 
  -23979   -23762   -23945   -24678   -26009   -27634   -29158   -30413 
  -31359   -31894   -31896   -31302   -30123   -28615   -27303   -26622 
  -26748   -27673   -29258   -31161   -32799   -33724   -33848   -33226 
  -32083   -30814   -29643   -28643   -27925   -27508   -27304   -27119 
  -26666   -25949   -25277   -24875   -24712   -24511   -24074   -23414 
  -22534   -21477   -20329   -19234   -18490   -18275   -18488   -18955 
  -19529   -20094   -20593   -20998   -21455   -22254   -23357   -24441 
  -25317   -25990   -26555   -26932   -27022   -27000   -27067   -27284 
  -27627   -28166   -29081   -30259   -31224   -31585   -31313   -30740 
  -30341   -30209   -30087   -29992   -30127   -30445   -30903   -31532 
  -32080   -32347   -32435   -32276   -31800   -31204   -30657   -30200 
  -29853   -29767   -30195   -31033   -31867   -32415   -32627   -32724 
  -33054   -33753   -34601   -35101   -34772   -33539   -31889   -30536 
  -29793   -29519   -29574   -29890   -30288   -30578   -30709   -30720 
  -30651   -30525   -30286   -30036   -30089   -30391   -30437   -29880 
  -28724   -27121   -25297   -23467   -21758   -20246   -19017   -18144 
  -17669   -17659   -18080   -18712   -19370   -20027   -20724   -21624 
  -22928   -24445   -25773   -26824   -27697   -28345   -28521   -28017 
  -27054   -26156   -25727   -25945   -26768   -27920   -28881   -29054 
  -28192   -26608   -24993   -23998   -23855   -24346   -25104   -25889 
  -26489   -26754   -26838   -26974   -27278   -27773   -28313   -28784 
  -29194   -29450   -29498   -29521   -29644   -29867   -30273   -30700 
  -30694   -30238   -29809   -29748   -30137   -30941   -32057   -33385 
  -34815   -36081   -36856   -37061   -36864   -36338   -35531   -34562 
  -33257   -31359   -29002   -26502   -24312   -23044   -22897   -23501 
  -24377   -25107   -25374   -25149   -24583   -23786   -23020   -22839 
  -23608   -25124   -26846   -28349   -29526   -30558   -31637   -32624 
  -33231   -33438   -33405   -33269   -33102   -32946   -32715   -32234 
  -31665   -31375   -31407   -31578   -31652   -31381   -30820   -30343 
  -30248   -30493   -30832   -31073   -31084   -30906   -30729   -30586 
  -30533   -30700   -30972   -31111   -30995   -30544   -29593   -27946 
  -25776   -23744   -22528   -22415   -23227   -24431   -25610   -26679 
  -27535   -28128   -28604   -29073   -29535   -29928   -30275   -30583 
  -30611   -30144   -29207   -28033   -27109   -26860   -27272   -28072 
  -29026   -29921   -30630   -31185   -31672   -32282   -33072   -33658 
  -33594   -32697   -30959   -28574   -26018   -23947   -22904   -23005 
  -23921   -25111   -26192   -27069   -27727   -28167   -28473   -28699 
  -28862   -28915   -28640   -27888   -26843   -25804   -24927   -24338 
  -24255   -24786   -25817   -27189   -28735   -30176   -31271   -32127 
  -32934   -33638   -34122   -34289   -34211   -34225   -34555   -35110 
  -35712   -36157   -36056   -35139   -33566   -31699   -29966   -28717 
  -27977   -27636   -27533   -27394   -27070   -26592   -26127   -25902 
  -25934   -26065   -26290   -26829   -27778   -28911   -29981   -30904 
  -31618   -32049   -32197   -32169   -32079   -31974   -31859   -31651 
  -31243   -30754   -30376   -30084   -29803   -29499   -29077   -28470 
  -27705   -26865   -26224   -26239   -27151   -28743   -30537   -31988 
  -32698   -32585   -31783   -30406   -28576   -26723   -25469   -25132 
  -25656   -26827   -28220   -29300   -29849   -29982   -29849   -29593 
  -29217   -28423   -27142   -25911   -25226   -25212   -25850   -26940 
  -28241   -29585   -30662   -31199   -31284   -31122   -30719   -30016 
  -29078   -28037   -26945   -25806   -24702   -23708   -22883   -22278 
  -21904   -21775   -21802   -21794   -21685   -21704   -22273   -23528 
  -25133   -26601   -27511   -27666   -27242   -26701   -26540   -26957 
  -27797   -28817   -29809   -30688   -31497   -32122   -32260   -31800 
  -31029   -30354   -29931   -29717   -29681   -29887   -30574   -31904 
  -33649   -35319   -36485   -37007   -36963   -36571   -36054   -35465 
  -34826   -34036   -32904   -31428   -29660   -27640   -25562   -23700 
  -22264   -21432   -21271   -21667   -22444   -23424   -24418   -25205 
  -25701   -26063   -26368   -26574   -26785   -27072   -27257   -27123 
  -26627   -25863   -25136   -24824   -25078   -25989   -27623   -29683 
  -31633   -33023   -33618   -33423   -32689   -31679   -30497   -29284 
  -28278   -27674   -27587   -27971   -28542   -28886   -28803   -28414 
  -27825   -27059   -26178   -25196   -24189   -23385   -22914   -22710 
  -22672   -22872   -23544   -24812   -26535   -28286   -29584   -30276 
  -30418   -30075   -29477   -28898   -28388   -28020   -27954   -28242 
  -28870   -29691   -30494   -31269   -32099   -32983   -33829   -34440 
  -34579   -34030   -32706   -30879   -28993   -27353   -26258   -25921 
  -26250   -26981   -27830   -28569   -29160   -29697   -30260   -30976 
  -32025   -33358   -34675   -35664   -36081   -35842   -35019   -33845 
  -32626   -31542   -30774   -30434   -30358   -30314   -30187   -29986 
  -29790   -29679   -29530   -29160   -28604   -27901   -27072   -26221 
  -25448   -24997   -25077   -25468   -25806   -26027   -26236   -26570 
  -27115   -27803   -28521   -29214   -29914   -30747   -31781   -32879 
  -33802   -34315   -34263   -33772   -33062   -32170   -31077   -29746 
  -28142   -26362   -24650   -23286   -22387   -21925   -21873   -22105 
  -22454   -22875   -23300   -23610   -23750   -23734   -23607   -23274 
  -22558   -21496   -20349   -19479   -19148   -19322   -19861   -20678 
  -21675   -22784   -23991   -25298   -26685   -28096   -29375   -30349 
  -30974   -31246   -31210   -30987   -30743   -30650   -30713   -30847 
  -31000   -31190   -31540   -32115   -32875   -33770   -34797   -35847 
  -36590   -36835   -36603   -35935   -35064   -34340   -33934   -33821 
  -33906   -34128   -34440   -34750   -34979   -35070   -35021   -34966 
  -35073   -35357   -35684   -35836   -35592   -34865   -33683   -32051 
  -30028   -27831   -25719   -23903   -22540   -21664   -21202   -21092 
  -21260   -21551   -21770   -21783   -21528   -20953   -20096   -19180 
  -18517   -18353   -18728   -19469   -20419   -21528   -22696   -23817 
  -24921   -26161   -27701   -29529   -31418   -33098   -34342   -35033 
  -35273   -35227   -35013   -34875   -34999   -35355   -35927   -36651 
  -37363   -37961   -38344   -38395   -37988   -36983   -35414   -33534 
  -31735   -30390   -29667   -29461   -29490   -29494   -29429   -29458 
  -29710   -30099   -30470   -30715   -30749   -30462   -29786   -28887 
  -28121   -27782   -27940   -28403   -28851   -29059   -28979   -28619 
  -28028   -27340   -26643   -25999   -25459   -25010   -24822   -25062 
  -25652   -26495   -27410   -28221   -28994   -29731   -30247   -30395 
  -30099   -29373   -28356   -27263   -26241   -25364   -24632   -23921 
  -23257   -22819   -22647   -22742   -23037   -23314   -23379   -23145 
  -22705   -22308   -22109   -22104   -22370   -23057   -24171   -25652 
  -27288   -28644   -29474   -29811   -29705   -29332   -28902   -28399 
  -27817   -27242   -26668   -26106   -25636   -25355   -25344   -25539 
  -25782   -25899   -25666   -25042   -24274   -23670   -23482   -23728 
  -24155   -24539   -24775   -24749   -24411   -23839   -23174   -22585 
  -22181   -21929   -21781   -21749   -21774   -21749   -21768   -22041 
  -22586   -23322   -24195   -25099   -26103   -27562   -29537   -31624 
  -33450   -34841   -35687   -35974   -35782   -35151   -34193   -33254 
  -32602   -32357   -32581   -33046   -33316   -33053   -32184   -30951 
  -29581   -28138   -26848   -26110   -26178   -26980   -28080   -28986 
  -29510   -29618   -29272   -28606   -27987   -27704   -27693   -27822 
  -28255   -29103   -30079   -30831   -31143   -30942   -30416   -29876 
  -29489   -29301   -29300   -29449   -29697   -30043   -30565   -31260 
  -31995   -32696   -33432   -34282   -35218   -36142   -36888   -37214 
  -36946   -36141   -34987   -33696   -32685   -32329   -32469   -32626 
  -32464   -31912   -31063   -30098   -29178   -28323   -27507   -26633 
  -25428   -23734   -21657   -19470   -17630   -16620   -16647   -17499 
  -18680   -19839   -20895   -21701   -22016   -21718   -20777   -19360 
  -17885   -16751   -16236   -16465   -17273   -18345   -19523   -20770 
  -22029   -23220   -24186   -24874   -25476   -26196   -27074   -28037 
  -29044   -29978   -30533   -30477   -29833   -28770   -27407   -25757 
  -23930   -22149   -20662   -19790   -19732   -20403   -21508   -22676 
  -23629   -24110   -23988   -23415   -22662   -22113   -22202   -23204 
  -25080   -27427   -29817   -32012   -33942   -35619   -37010   -38062 
  -38705   -38952   -38914   -38631   -38108   -37420   -36763   -36434 
  -36666   -37428   -38438   -39292   -39588   -39154   -38051   -36406 
  -34417   -32304   -30340   -28795   -27743   -27122   -26813   -26692 
  -26676   -26656   -26598   -26588   -26553   -26269   -25587   -24489 
  -23145   -21869   -20934   -20451   -20373   -20631   -21127   -21605 
  -21846   -21776   -21389   -20850   -20388   -20083   -19987   -20173 
  -20678   -21522   -22669   -23934   -25019   -25762   -26121   -26097 
  -25872   -25718   -25828   -26290   -27106   -28240   -29633   -31161 
  -32567   -33587   -34089   -33993   -33287   -32134   -30850   -29720 
  -28800   -28019   -27334   -26700   -26027   -25188   -24109   -22823 
  -21455   -20176   -19112   -18250   -17583   -17231   -17212   -17448 
  -17909   -18492   -19034   -19445   -19764   -20131   -20596   -21102 
  -21534   -21783   -21892   -21978   -22137   -22477   -23021   -23631 
  -24145   -24525   -24768   -24792   -24594   -24295   -24010   -23880 
  -24020   -24449   -25235   -26449   -27994   -29640   -31142   -32324 
  -33063   -33381   -33522   -33800   -34431   -35430   -36573   -37477 
  -37924   -38028   -37898   -37521   -36953   -36302   -35733   -35453 
  -35449   -35497   -35499   -35508   -35574   -35725   -35919   -36001 
  -35789   -35258   -34521   -33723   -32970   -32198   -31247   -30079 
  -28744   -27296   -25859   -24589   -23541   -22686   -21890   -20953 
  -19873   -18871   -18164   -17837   -17942   -18616   -19859   -21478 
  -23325   -25228   -26985   -28557   -29866   -30679   -30892   -30581 
  -29911   -29048   -28082   -27139   -26461   -26226   -26359   -26555 
  -26602   -26670   -27024   -27741   -28765   -29928   -31036   -32032 
  -33071   -34377   -35950   -37529   -38772   -39442   -39534   -39170 
  -38430   -37434   -36420   -35641   -35286   -35324   -35563   -35742 
  -35612   -35176   -34545   -33737   -32855   -31992   -30949   -29619 
  -28310   -27252   -26525   -26247   -26234   -26138   -25835   -25280 
  -24399   -23322   -22381   -21805   -21694   -22074   -22815   -23708 
  -24522   -25055   -25304   -25394   -25412   -25315   -24972   -24379 
  -23720   -23313   -23380   -23885   -24667   -25468   -26103   -26542 
  -26743   -26805   -26847   -26851   -26839   -26876   -27079   -27604 
  -28465   -29518   -30611   -31714   -32752   -33539   -33965   -34016 
  -33786   -33369   -32705   -31768   -30700   -29627   -28533   -27386 
  -26203   -24996   -23849   -22943   -22408   -22348   -22723   -23318 
  -23983   -24526   -24677   -24326   -23445   -22132   -20788   -19882 
  -19665   -20152   -21206   -22639   -24253   -25877   -27413   -28728 
  -29622   -29938   -29673   -28986   -28124   -27307   -26685   -26380 
  -26482   -27059   -28103   -29418   -30776   -32005   -32968   -33655 
  -34098   -34293   -34309   -34253   -34090   -33701   -33148   -32585 
  -32013   -31452   -30975   -30540   -30077   -29530   -28920   -28398 
  -28030   -27744   -27483   -27313   -27333   -27490   -27642   -27597 
  -27240   -26764   -26396   -26132   -25964   -25864   -25695   -25444 
  -25132   -24663   -24016   -23276   -22584   -22116   -21981   -22242 
  -22866   -23701   -24657   -25625   -26413   -26991   -27400   -27610 
  -27667   -27738   -28020   -28613   -29436   -30265   -30875   -31320 
  -31815   -32388   -33003   -33728   -34648   -35850   -37330   -38883 
  -40251   -41218   -41700   -41827   -41709   -41379   -40985   -40586 
  -40103   -39520   -38846   -38128   -37389   -36541   -35589   -34691 
  -33941   -33247   -32412   -31328   -30093   -28926   -28039   -27485 
  -27199   -27175   -27347   -27509   -27510   -27272   -26771   -26104 
  -25352   -24552   -23878   -23500   -23408   -23566   -23970   -24572 
  -25339   -26230   -27149   -28031   -28837   -29472   -29906   -30120 
  -30119   -29964   -29553   -28822   -27908   -26932   -26033   -25306 
  -24650   -23934   -23132   -22285   -21521   -21064   -21074   -21463 
  -22057   -22777   -23635   -24682   -25871   -27089   -28199   -29034 
  -29584   -29984   -30379   -30892   -31555   -32365   -33301   -34207 
  -34842   -35025   -34791   -34388   -34019   -33827   -33931   -34314 
  -34874   -35496   -35997   -36272   -36335   -36153   -35644   -34798 
  -33727   -32577   -31391   -30223   -29207   -28337   -27560   -26938 
  -26420   -25893   -25368   -24856   -24342   -23870   -23525   -23360 
  -23371   -23552   -23939   -24607   -25542   -26516   -27325   -27964 
  -28446   -28785   -29023   -29128   -29086   -28900   -28488   -27824 
  -26989   -26109   -25296   -24581   -23965   -23391   -22810   -22263 
  -21763   -21318   -20970   -20797   -20927   -21473   -22493   -23955 
  -25620   -27100   -28137   -28665   -28746   -28549   -28247   -27965 
  -27830   -27951   -28376   -29067   -29838   -30455   -30844   -30978 
  -30782   -30272   -29555   -28752   -28031   -27510   -27101   -26638 
  -26092   -25499   -24950   -24607   -24521   -24630   -24892   -25276 
  -25766   -26298   -26755   -27053   -27117   -26972   -26771   -26631 
  -26624   -26843   -27377   -28257   -29366   -30499   -31476   -32170 
  -32579   -32836   -33096   -33476   -33973   -34465   -34767   -34792 
  -34563   -34072   -33325   -32380   -31277   -30161   -29225   -28531 
  -28094   -27950   -28182   -28799   -29629   -30560   -31525   -32381 
  -33043   -33485   -33692   -33683   -33525   -33302   -33100   -32973 
  -32849   -32562   -32023   -31323   -30654   -30192   -29981   -29870 
  -29614   -29105   -28451   -27817   -27321   -26981   -26668   -26244 
  -25622   -24727   -23691   -22799   -22161   -21786   -21720   -21922 
  -22228   -22428   -22437   -22423   -22542   -22893   -23565   -24408 
  -25211   -25895   -26409   -26741   -26861   -26749   -26525   -26271 
  -26021   -25874   -25792   -25697   -25621   -25621   -25822   -26286 
  -26986   -27908   -28930   -29918   -30769   -31267   -31256   -30897 
  -30480   -30181   -30125   -30335   -30670   -30970   -31098   -31002 
  -30828   -30792   -31012   -31466   -32061   -32717   -33366   -33980 
  -34533   -34927   -35121   -35181   -35188   -35158   -35062   -34899 
  -34702   -34503   -34277   -34024   -33857   -33837   -33917   -34017 
  -34026   -33877   -33614   -33328   -33091   -32970   -32954   -32977 
  -32999   -32954   -32810   -32552   -32130   -31574   -30918   -30185 
  -29528   -29034   -28639   -28335   -28099   -27847   -27555   -27211 
  -26801   -26377   -25926   -25444   -24988   -24504   -23949   -23409 
  -22997   -22838   -23037   -23645   -24581   -25637   -26651   -27507 
  -28158   -28659   -29004   -29200   -29350   -29470   -29442   -29144 
  -28535   -27756   -27011   -26430   -26091   -26007   -26199   -26646 
  -27232   -27884   -28530   -29124   -29737   -30468   -31510   -32941 
  -34558   -36167   -37612   -38781   -39681   -40256   -40448   -40352 
  -40077   -39666   -39195   -38754   -38366   -38018   -37715   -37445 
  -37143   -36782   -36362   -35787   -34973   -33977   -32967   -32111 
  -31419   -30734   -29889   -28834   -27658   -26455   -25274   -24189 
  -23275   -22596   -22132   -21773   -21437   -21053   -20556   -20048 
  -19768   -19808   -20065   -20410   -20617   -20503   -20119   -19568 
  -18969   -18491   -18247   -18254   -18485   -19007   -19884   -21038 
  -22365   -23713   -24896   -25903   -26800   -27609   -28323   -28938 
  -29502   -30030   -30528   -31042   -31596   -32160   -32626   -32879 
  -32875   -32632   -32159   -31411   -30352   -29038   -27643   -26376 
  -25393   -24797   -24559   -24571   -24709   -24850   -25006   -25227 
  -25455   -25663   -25900   -26241   -26783   -27495   -28186   -28749 
  -29180   -29501   -29727   -29804   -29719   -29476   -29033   -28434 
  -27735   -26883   -25858   -24680   -23394   -22185   -21224   -20520 
  -20047   -19717   -19405   -19155   -19120   -19327   -19673   -20054 
  -20411   -20727   -21021   -21352   -21715   -22026   -22280   -22490 
  -22683   -22974   -23418   -23980   -24637   -25374   -26157   -26932 
  -27682   -28377   -28962   -29482   -29969   -30390   -30728   -30934 
  -30998   -31036   -31127   -31177   -30982   -30438   -29636   -28655 
  -27603   -26696   -25958   -25264   -24601   -23960   -23342   -22840 
  -22530   -22397   -22369   -22428   -22611   -22863   -23137   -23504 
  -23932   -24304   -24610   -24851   -25029   -25169   -25286   -25440 
  -25645   -25829   -25901   -25815   -25577   -25280   -25132   -25228 
  -25490   -25831   -26119   -26232   -26205   -26135   -26038   -25900 
  -25743   -25647   -25723   -25987   -26351   -26748   -27171   -27617 
  -28047   -28404   -28665   -28829   -28974   -29159   -29348   -29547 
  -29771   -30018   -30321   -30665   -31015   -31389   -31785   -32157 
  -32523   -32985   -33569   -34249   -35003   -35761   -36468   -37079 
  -37534   -37698   -37439   -36825   -35940   -34852   -33754   -32816 
  -32104   -31620   -31316   -31147   -31074   -31087   -31188   -31365 
  -31649   -32096   -32686   -33400   -34294   -35333   -36440   -37660 
  -38962   -40141   -41003   -41325   -40964   -40057   -38813   -37447 
  -36213   -35215   -34370   -33580   -32770   -31907   -30996   -30061 
  -29128   -28166   -27171   -26232   -25407   -24732   -24274   -24057 
