Origin Time       2016/04/16 01:25:00
Lat.              32.753
Long.             130.762
Depth. (km)       12
Mag.              7.3
Station Code      KGS005
Station Lat.      31.9006
Station Long.     130.4513
Station Height(m) 42
Record Time       2016/04/16 01:25:23
Sampling Freq(Hz) 100Hz
Duration Time(s)  174
Dir.              N-S
Scale Factor      3920(gal)/6182761
Max. Acc. (gal)   61.201
Last Correction   2016/04/16 01:25:24
Memo.             
[...]
     761      317      136      473     1040     1500     1871     2009 
    1795     1594     1600     1614     1636     1745     1708     1434 
    1098      872      909      988      929      914      671       73 
    -398     -489     -137      296      255      155      410      352 
    -388    -1138    -1304     -815      143      876      707     -177 
   -1080    -1204     -337      668     1146     1155      884      703 
     755      768      639      385      295      973     2043     2348 
    1864     1367     1333     2059     3023     3095     2059      850 
     872     2426     3780     3584     2507     1308      287      150 
     855     1254      622     -373     -521     -117     -368    -1202 
   -1871    -2171    -2253    -1997    -1065      108      648      485 
     375      861     1282     1054     1104     1726     1638      724 
     240      475      763      479     -755    -2327    -2981    -2625 
   -1777     -718     -288     -785    -1386    -1378     -612      302 
    1021     2139     3798     5069     4851     3445     2287     1970 
    1898     1158      -48     -794    -1078     -681      320      428 
    -502    -1118     -931     -246      291      472     1092     2493 
    3524     3008     1543      295     -728    -1614    -2164    -2538 
   -2036       36     1966     1997      404    -1858    -2588     -416 
    2261     3185     2415     1097     1499     4018     5955     5125 
    1950     -948    -1785    -1303      -62     1910     3589     3746 
    2039     -240    -1470    -1786    -1604     -581     1470     4289 
    6383     6844     6658     5556     3086     1298     1736     3913 
    7102     9691     8977     4779      244    -2101    -2021     -490 
    1244     2208     2382     2926     3924     4090     3402     2857 
    3405     4334     3640     2962     4290     4642     2764     1439 
    1510     1211    -1085    -4505    -6682    -6925    -5293    -2134 
     356      563      434     2101     3602     2689      557    -1510 
   -2078     1163     5907     7481     5630     1589    -2838    -3710 
      43     5548     8379     5484      619    -1419    -1699     -171 
    3894     7174     7558     4804      293    -1914    -1495    -1107 
    -116     2573     4977     3659    -2632   -10245   -13684   -10667 
   -3346     3177     5047     2268    -3432    -8556    -8296    -3348 
     958     3972     7192     8707     7173     3323      -21      -21 
     806     -648    -2912    -3944    -2362     1537     4306     4850 
    5004     3946     1146    -1228    -2559    -3434    -3801    -2251 
    3305    10077    11698     6940      328    -4192    -6202    -5542 
   -1741     1192    -1030    -6070    -9843   -10540    -7682    -3514 
    -360     2085     2873      858    -1033      -61     3063     7627 
   12322    13195     9080     4954     4491     5474     5575     4971 
    3150     -733    -5668    -8806    -7120    -1494     2250      893 
   -2277    -3681    -2412      342     2057     3513     6199     7875 
    7927     7412     6352     6095     7110     7409     5208       83 
   -6160    -9773    -8698    -5212    -2054      313      152    -3396 
   -7126    -8622    -6825     -820     6434    10807    12204    12778 
   13311    11539     6129     1009     -524     -662    -1652    -2531 
   -1860      596     2099    -1883    -9464   -13618   -13425   -11077 
   -5182     3343    10706    15112    15403    12222     8791     5976 
    4092     5110     7605     9143     9440     7130     2706     -597 
   -1328      229     1568      -42    -3062    -5793    -8182    -8723 
   -8272    -8823    -7821    -3460      980     2091      508     -823 
     -64     3635     7971     7249     1695    -1323     2376     9637 
   13770    11518     6369     2274     -730    -3248    -4931    -4831 
   -1990     1805     2838     1442     1078     1306      314     -168 
    1049     2649     3894     5509     7947     8575     4282    -1741 
   -3894    -2900    -2306    -2686    -3458    -4669    -6977    -8877 
   -6223     -157     3867     5193     5246     3998     2589     1780 
    1133      772      531     -734    -3522    -6838    -9267    -8923 
   -4637      836     3194     1959      526     2443     7045     9316 
    7560     6181     7414     9026    10672    12614    11735     6990 
    2319      352     -482    -2741    -6699    -9100    -7180    -3933 
   -3994    -6983    -9510    -8306    -1658     6971    11511    10765 
    8297     7810    10909    15694    17460    13498     6442      300 
   -3743    -6619   -10281   -14229   -15515   -15489   -17099   -18617 
  -17618   -13910    -9080    -5866    -4477    -3785    -3984    -2497 
    4553    14721    21256    21690    19980    20843    23748    23925 
   19310    13120     8364     4705      736    -4913   -12149   -18205 
  -19547   -13823    -3047     5114     4528    -2421    -7834    -6787 
   -2420    -1468    -3798    -1802     6605    13625    13596     7904 
    -317    -6873    -8646    -7319    -5782    -5248    -6151    -7563 
   -8978   -11295   -13945   -15793   -15974   -13284    -9413    -7445 
   -6793    -4370     1228     8095    13764    17699    20017    20480 
   18967    16630    14407    10593     5610     3365     3337     1737 
   -1812    -6662   -12073   -15017   -14001   -10634    -7422    -7028 
   -8751    -8921    -5784      120     6383    10561    11662     9068 
    4804     1984      358     -487      597     2491     2569      693 
    -144     1912     4229     5119     6566     8704     9614     8188 
    5636     5359     7205     7480     5126     1362    -1726    -2992 
   -4434    -7074   -10486   -15119   -19286   -19820   -15174    -6592 
     727     2429       44    -2347    -1575     3375    10834    17914 
   20914    17976    11557     4954      827      643     1878     1543 
     104    -2092    -5872    -9801   -11725   -11279    -7467     -144 
    7293    12032    12505     7722     1529    -1072     -258     1364 
    2433     3195     3158      793    -2460    -4430    -5284    -4453 
   -2865    -3030    -3711    -3582    -3405    -2275      455     4056 
    8861    15025    19546    18432    12617     6905     3599     2033 
    1231     -153    -3740   -10117   -17463   -21239   -17608    -8398 
     235     4260     4288     3900     6289    11170    16580    21052 
   22692    20948    17925    14503     9023     2104    -2184    -1851 
    -132    -2570   -11160   -20735   -23762   -18075    -7244     3014 
    7802     5907      315    -4170    -4377     -577     4189     6649 
    5587     1196    -4802    -9187    -9835    -7201    -4421    -4148 
   -5957    -8741    -9985    -6447      886     9410    17134    20476 
   18785    15981    15255    17216    19204    17174    10657     2029 
   -5864   -10558   -12454   -13099   -12524   -11594   -11739   -12888 
  -13984   -13470    -9984    -3755     2459     6131     8886    13692 
   20022    24440    24275    19567    12593     6891     4487     3376 
     520    -3191    -4245    -3366    -5438   -11546   -18296   -22327 
  -21482   -16810   -11484    -6547    -2079     1028     1995      995 
     751     3523     6706     8506    10543    11077     8290     4707 
    1485    -1178    -3071    -5586    -6807    -4287      -45     4233 
    6912     5657     1349    -3229    -4992    -2332     2035     4062 
    2904     1903     4330     7570     7015     3106     -275       34 
    3459     6227     6074     2804    -1699    -3543    -2188     -343 
     289     -753    -2159    -2964    -4167    -5508    -5958    -4324 
     792     6326     7794     7395     9307    12777    15582    16424 
   14473    10059     3578    -3063    -6269    -5726    -4605    -5242 
   -6896    -7448    -6789    -6167    -5642    -3857     -340     2620 
    3376     3422     4318     6210     9026    12364    14330    12647 
    7039     -733    -6544    -6362    -2271      -54    -1829    -5123 
   -6326    -4766    -2592    -1168     -971    -2025    -3464    -4197 
   -2431     1986     5526     6019     4666     2338     -377    -1941 
   -1904    -1333    -1368    -2583    -3420    -2073      263     2934 
    6251     8504     9021     7761     3730    -1296    -5054    -7409 
   -6630    -2001     2748     3603     -938    -7641   -10153    -7814 
   -4225      -88     3709     5255     4889     4019     5303    10386 
   15689    17225    15563    13038    10599     7426     2809    -2273 
   -6222    -8093    -7781    -6434    -6614    -9816   -13960   -15487 
  -12328    -5360     1248     5331     9265    13582    16562    18322 
   19080    18718    17033    12667     6688     2597      -25    -3829 
   -8028   -10520    -9911    -5780     -444     4059     7341     7995 
    6881     6979     7966     8209     6591     2658    -1115    -2856 
   -3629    -4127    -4321    -4659    -5482    -6324    -6657    -5858 
   -2438     2810     6028     6307     7211    11138    16187    18927 
   18773    18319    19297    19941    16612     7978    -2117    -8723 
  -11279   -11096    -8978    -7639    -8971   -11325   -13148   -12547 
   -7305     -911      659    -1838    -2890      238     6390    12463 
   14863    12714     7706      777    -6056    -9819   -11257   -12372 
  -13115   -13481   -12624    -9934    -7562    -6117    -3744      -55 
    4238     8267    10944    12031    11796    10026     6893     4218 
    3726     4315     4061     3339     3581     4943     5503     3125 
   -1492    -5491    -6722    -5022    -1773     1739     5146     8111 
    9608     8595     6026     4678     5500     6528     5752     3510 
    1542     -125    -2678    -6187   -10472   -14869   -17573   -17618 
  -14692    -9020    -3647    -1750    -2348    -3107    -3544    -2218 
    3077    10110    14290    14464    11912     8559     6358     5556 
    5316     4878     3402      131    -4734    -8860    -9039    -5199 
    -424     4059     9608    15641    18906    17647    13947    11067 
    9988    10145    10676     9816     6798     2752    -1062    -2751 
   -1554     -103     -318    -1679    -3798    -5901    -6507    -4702 
    -545     5003    10470    13212    11466     7578     4255     1931 
     339    -2696    -8315   -13028   -13795   -11840   -11421   -16126 
  -22323   -22173   -14591    -5377     -311     -956    -4056    -6429 
   -8092    -9604   -10662   -10194    -5905     2645    10865    14386 
   14245    13037    12183    12242    11677     9346     5994     1822 
   -1645    -1686      235      435     -135     2034     6775    11779 
   15230    14809    10683     6183     3304     3572     8880    17314 
   22813    20922    12939     3364    -2717    -1640     5020    12976 
   20072    24790    24359    17821     8757     2434     2236     7688 
   14165    17630    17454    14469    10862     8502     6649     4867 
    3494     1601     -862    -2288    -1679      240     1739     1167 
   -2911    -9683   -15411   -18765   -21468   -22896   -21175   -16780 
  -12062    -9695   -10802   -15505   -23752   -33006   -39373   -40567 
  -36449   -30249   -25675   -22429   -18871   -15084   -12554   -13227 
  -17051   -21890   -26060   -28456   -28103   -24526   -17783    -9420 
   -1665     5852    14898    25323    37086    50712    63911    73147 
   76265    71976    60716    44675    26324     8648    -4812   -11287 
  -10475    -6505    -6539   -13298   -21865   -28181   -33382   -36412 
  -32495   -18900     1512    19074    26078    25577    23843    22261 
   19992    18467    20342    24168    23063    11993    -4711   -18151 
  -25517   -30735   -35172   -35512   -33796   -36027   -41668   -47839 
  -52832   -52215   -45925   -40291   -37104   -34253   -31227   -24626 
   -8655    15958    40261    55929    62404    65454    70413    72820 
   62536    44717    33535    25917    16646    17257    32485    48990 
   54432    47519    32301    17013     9683     5852    -1416   -10510 
  -18068   -20197   -17624   -13915    -5461     9731    27795    44084 
   52452    52292    48222    39107    21218    -1714   -18845   -23930 
  -19521   -11569    -8526   -13008   -16674   -13694    -9191   -14483 
  -35150   -61480   -77927   -76457   -59806   -40636   -27719   -17294 
   -8025    -3563     -507     6053    14154    17884    12797      348 
  -15532   -30503   -38918   -42430   -46216   -44118   -31445   -20643 
  -19599   -20302   -16154    -4450    10580    19390    25573    34402 
   41141    47474    57186    66637    72624    70257    55447    36885 
   25687    20747    16824    13437    10380     5480    -2009   -11722 
  -23532   -36742   -50058   -61865   -69522   -69666   -63162   -56540 
  -53957   -53925   -52278   -44148   -30973   -21412   -18143   -15113 
   -5981    12188    33582    48118    53324    51994    47894    41527 
   29753    15051     1314    -9100    -9963    -3195     2828     7440 
    6130    -5925   -20873   -30817   -31293   -22829   -10392     6984 
   26121    40826    53110    60863    57096    44455    32830    24921 
   17681    15225    21655    30401    33209    27685    17088     7663 
    -399   -11232   -20859   -22349   -17681   -12861    -9690    -5736 
    2373    14504    26195    32822    32539    26286    17068     7927 
   -1457   -11472   -17949   -19281   -17903   -13600    -8553    -6766 
   -6129    -4183    -1143     4437    12321    18293    20359    21168 
   19619     9952    -6728   -21795   -28798   -28890   -30150   -40241 
  -59301   -80364   -94413   -95584   -85052   -69780   -55028   -40851 
  -24592    -3735    20970    45261    63955    73404    73136    64986 
   52694    41662    35770    35193    36486    35078    28154    14488 
   -3973   -21636   -33339   -35841   -29069   -17919    -9053    -5589 
   -5167    -3011     4782    18424    32392    40885    41417    31943 
   13874    -5477   -16605   -12173     5359    23822    35190    38900 
   32290    15397    -1944   -11326   -11056    -4128     1358     2984 
    5605     9979    12684     9217    -1039   -13347   -25152   -34819 
  -41513   -48802   -57887   -66976   -74443   -74669   -65236   -52397 
  -39701   -26096    -9973    10713    32883    50704    62990    70395 
   71812    67811    63269    62772    66314    67850    58946    40229 
   19514     -213   -16678   -23948   -18923    -3663    12707    19156 
   15121     8236     6382    12312    20920    28744    36303    40698 
   41990    44650    47402    47195    43549    34309    18325     -938 
  -16271   -22624   -20662   -12500    -2567     2396      646    -4317 
   -9367   -11732    -7698     2087    10329    10182      830   -12408 
  -22395   -25602   -21016   -10485     -923     2737      679    -5428 
  -11854   -16150   -18621   -18962   -18401   -18756   -19641   -18827 
  -13499    -5979    -2272    -4307   -11094   -19691   -24868   -24663 
  -21262   -16226    -9303    -1651     3221     3276    -1345    -9400 
  -17252   -21527   -20920   -13948    -1160    13072    23530    25804 
   17772     2960   -10533   -17489   -17942   -13856    -9883   -10143 
  -13040   -16433   -19466   -18955   -13426    -4741     5643    16239 
   23463    23335    16533     8179     1380    -4334    -9292   -11845 
  -10131    -5262     -633      956    -4810   -20978   -40410   -52447 
  -54851   -50776   -44012   -36784   -27913   -16999    -6243     3073 
   11345    19037    26866    35674    44150    49510    49675    43124 
   31160    18889    10343     7430    10816    16911    20690    20960 
   19290    18153    18882    19808    18938    16466    12174     5078 
   -1696    -3898    -2736    -1796    -3444    -7898   -13332   -18585 
  -22803   -25773   -28732   -31142   -32048   -33153   -36226   -40866 
  -44282   -42853   -35060   -21159    -2851    15435    28166    32314 
   30296    25863    19607    16047    20446    27787    31515    30601 
   25410    17497     9872     7384    11279    16883    20463    18368 
    9488       -2    -3450      748     8031    10710     4631    -8735 
  -23364   -31556   -28156   -14741      266    10235    14370    13090 
    8209     2880    -1451    -4393    -4277     3462    20454    40408 
   55482    60986    57391    49224    39423    30478    23358    15783 
    9923     9262    10027     7774     2512    -3897    -8714   -10699 
  -10860   -10751   -11555   -12899   -13822   -14548   -16274   -19556 
  -23569   -27795   -31905   -34867   -35658   -32549   -24851   -15332 
   -6343     2514    11699    21262    31031    40061    47914    54475 
   58343    57271    49956    38155    25272    12638     2133    -2615 
   -2535    -3152    -8922   -21215   -37092   -51130   -60303   -63843 
  -61946   -56585   -51168   -49081   -49400   -46327   -36819   -23256 
   -9154     1856     6485     4449     -880    -5156    -6877    -6725 
   -5814    -7050   -12928   -22286   -31924   -38691   -38880   -29224 
  -11807     6308    20545    31170    39571    46544    52856    59065 
   64076    64029    55661    41317    26283    12993     2454    -3151 
   -3805    -3119    -3728    -5940   -10873   -19066   -28528   -38138 
  -47050   -51025   -47701   -39934   -29019   -15353    -1844    10816 
   22120    28728    29583    24561    12383    -2979   -13277   -15267 
  -10653    -2177     4291     4316     1845     1504     1123    -1490 
   -5637   -12385   -19054   -17335    -6625     6851    20458    29884 
   29573    22323    14265     8536     8117    13795    21550    26351 
   25665    19411     9529       55    -5167    -3719     4929    16198 
   21433    15308      330   -15145   -22448   -19220   -10153    -1172 
    4606     6349     2328    -8346   -21157   -29888   -31623   -27988 
  -23457   -19147   -14062    -8745    -1841     5531     8539     8001 
    6640     3894      986    -1785    -5276    -6076    -4036    -2975 
    -501     4758     7676     6291     2869     1346     5482    13168 
   20754    27999    33215    34932    35004    34201    31976    29201 
   26647    22557    13780      967   -11148   -20084   -25443   -25736 
  -20937   -13364    -5406     2268     9515    12496     6903    -4901 
  -17217   -27098   -33116   -33944   -30639   -25658   -19526   -11739 
   -1987     9040    18961    26939    34066    40558    45383    46663 
   43846    38229    30000    19163     8564     1386    -3625    -8604 
  -11245    -9482    -5178    -2345    -3614    -6595    -8988   -11670 
  -13965   -15482   -17045   -17374   -15717   -12728    -9144    -8387 
  -13666   -22126   -27585   -26908   -22134   -17487   -15397   -16404 
  -19222   -20621   -18762   -13833    -6576     1628    11423    23662 
   34289    39492    39514    34740    27389    22085    20172    19358 
   18486    18551    18842    18271    18625    19681    19679    18943 
   16537    12031     8277     8153    12170    18086    22615    23622 
   20897    16051    11471     9508    10997    14431    16367    12117 
     186   -15130   -27993   -34991   -35449   -30831   -25055   -22407 
  -23302   -24967   -25266   -24038   -22152   -20201   -18241   -16028 
  -13553   -11172    -7937    -2005     6001    13030    16623    16928 
   16598    17292    17660    15893    11569     6012     2179     2043 
    4393     7355    10894    13744    12122     4968    -4401   -12057 
  -15499   -15075   -13454   -11848    -9511    -6935    -6400    -7943 
