Origin Time       2016/04/16 01:25:00
Lat.              32.753
Long.             130.762
Depth. (km)       12
Mag.              7.3
Station Code      KGS021
Station Lat.      31.2535
Station Long.     130.6324
Station Height(m) 8
Record Time       2016/04/16 01:25:38
Sampling Freq(Hz) 100Hz
Duration Time(s)  140
Dir.              N-S
Scale Factor      3920(gal)/6182761
Max. Acc. (gal)   7.877
Last Correction   2016/04/16 01:25:38
Memo.             
[...]
  -17888   -17552   -17244   -16866   -16379   -15822   -15401   -15257 
  -15266   -15273   -15271   -15328   -15472   -15631   -15650   -15489 
  -15245   -14988   -14756   -14586   -14510   -14702   -15400   -16547 
  -17780   -18784   -19518   -20096   -20581   -20959   -21182   -21187 
  -20921   -20396   -19779   -19337   -19131   -18958   -18590   -18034 
  -17645   -17783   -18338   -18894   -19179   -19107   -18724   -18263 
  -17942   -17753   -17603   -17380   -16896   -16038   -14863   -13489 
  -12105   -10963   -10130    -9460    -8918    -8669    -8847    -9440 
  -10388   -11619   -13048   -14563   -16046   -17478   -18886   -20194 
  -21259   -22020   -22572   -23066   -23422   -23368   -22817   -21903 
  -20758   -19509   -18264   -17059   -16042   -15453   -15347   -15576 
  -15955   -16358   -16853   -17626   -18663   -19685   -20375   -20640 
  -20680   -20714   -20735   -20601   -20213   -19600   -18950   -18440 
  -18057   -17740   -17482   -17208   -16830   -16400   -16020   -15733 
  -15517   -15322   -15206   -15276   -15490   -15728   -15904   -16112 
  -16580   -17343   -18179   -18773   -19003   -19143   -19495   -19974 
  -20337   -20572   -20835   -21170   -21445   -21511   -21321   -20947 
  -20561   -20359   -20369   -20302   -19803   -18870   -17819   -16860 
  -15948   -15083   -14425   -13997   -13659   -13414   -13443   -13846 
  -14502   -15194   -15783   -16251   -16652   -17070   -17541   -17976 
  -18333   -18607   -18653   -18449   -18357   -18675   -19190   -19476 
  -19390   -19076   -18718   -18378   -18012   -17579   -17119   -16667 
  -16107   -15300   -14273   -13174   -12219   -11590   -11295   -11227 
  -11258   -11219   -11020   -10755   -10551   -10495   -10669   -11025 
  -11408   -11780   -12190   -12699   -13477   -14636   -16024   -17468 
  -18900   -20154   -21018   -21560   -22078   -22664   -23076   -23108 
  -22821   -22392   -21936   -21507   -21152   -20930   -20854   -20847 
  -20807   -20736   -20729   -20804   -20892   -20987   -21056   -20958 
  -20706   -20584   -20739   -20915   -20779   -20284   -19613   -18949 
  -18436   -18129   -17896   -17546   -17021   -16401   -15818   -15310 
  -14878   -14597   -14451   -14257   -13957   -13770   -13912   -14282 
  -14604   -14773   -14950   -15377   -16081   -16787   -17246   -17408 
  -17231   -16663   -15810   -14911   -14154   -13571   -13102   -12729 
  -12520   -12562   -12860   -13321   -13849   -14424   -15132   -16037 
  -16948   -17573   -17841   -17888   -17883   -17907   -17907   -17812 
  -17686   -17614   -17544   -17405   -17240   -17092   -16928   -16708 
  -16505   -16448   -16534   -16664   -16850   -17128   -17427   -17706 
  -17999   -18255   -18333   -18218   -18160   -18363   -18597   -18483 
  -17977   -17325   -16794   -16491   -16314   -16061   -15632   -15122 
  -14672   -14321   -13990   -13608   -13317   -13334   -13655   -14038 
  -14239   -14259   -14356   -14749   -15333   -15798   -16010   -16128 
  -16402   -16935   -17606   -18234   -18750   -19156   -19441   -19589 
  -19745   -20118   -20675   -21153   -21360   -21358   -21341   -21361 
  -21316   -21060   -20507   -19725   -18831   -17860   -16859   -15968 
  -15318   -14959   -14897   -15049   -15339   -15804   -16452   -17222 
  -18101   -19110   -20225   -21281   -22038   -22388   -22447   -22460 
  -22544   -22525   -22117   -21222   -20043   -18860   -17761   -16672 
  -15540   -14466   -13649   -13191   -13058   -13186   -13509   -13902 
  -14319   -14855   -15576   -16432   -17276   -17903   -18206   -18307 
  -18424   -18609   -18771   -18857   -18846   -18723   -18557   -18500 
  -18577   -18651   -18640   -18533   -18273   -17813   -17309   -17026 
  -16954   -16854   -16611   -16281   -15873   -15302   -14520   -13584 
  -12672   -12043   -11887   -12185   -12791   -13559   -14351   -15147 
  -16082   -17290   -18802   -20496   -22146   -23564   -24653   -25366 
  -25731   -25877   -25889   -25702   -25208   -24364   -23251   -22024 
  -20858   -19859   -18956   -18006   -16969   -15921   -14918   -14009 
  -13311   -12851   -12571   -12506   -12701   -13099   -13591   -14059 
  -14403   -14626   -14865   -15259   -15750   -16113   -16207   -16075 
  -15818   -15561   -15386   -15269   -15189   -15164   -15176   -15234 
  -15376   -15625   -15952   -16248   -16435   -16522   -16489   -16290 
  -15939   -15484   -14964   -14474   -14128   -13929   -13777   -13601 
  -13424   -13344   -13483   -13886   -14440   -14909   -15048   -14814 
  -14440   -14208   -14263   -14536   -14781   -14882   -15014   -15381 
  -15968   -16634   -17276   -17875   -18518   -19308   -20175   -20936 
  -21477   -21771   -21862   -21855   -21752   -21353   -20530   -19473 
  -18446   -17481   -16513   -15620   -14939   -14460   -14056   -13619 
  -13176   -12904   -12876   -12881   -12742   -12593   -12607   -12762 
  -12978   -13239   -13603   -14084   -14559   -15031   -15677   -16495 
  -17293   -17980   -18590   -19180   -19812   -20518   -21257   -21951 
  -22608   -23275   -23872   -24279   -24566   -24901   -25288   -25609 
  -25852   -26065   -26242   -26375   -26401   -26238   -25945   -25590 
  -25128   -24540   -23913   -23310   -22702   -22026   -21255   -20419 
  -19527   -18511   -17379   -16302   -15467   -14988   -14915   -15189 
  -15620   -15995   -16246   -16515   -16942   -17464   -17916   -18139 
  -18059   -17831   -17723   -17833   -18043   -18172   -18138   -18052 
  -18096   -18293   -18513   -18634   -18663   -18729   -18884   -18967 
  -18794   -18412   -17942   -17366   -16646   -15918   -15409   -15191 
  -15163   -15198   -15163   -15010   -14940   -15185   -15794   -16716 
  -17802   -18893   -19926   -20868   -21703   -22429   -22997   -23280 
  -23114   -22515   -21767   -21128   -20638   -20211   -19777   -19318 
  -18815   -18263   -17681   -17006   -16232   -15517   -14983   -14653 
  -14522   -14559   -14760   -15128   -15575   -16013   -16461   -16930 
  -17393   -17837   -18189   -18243   -17832   -17093   -16316   -15578 
  -14805   -13986   -13140   -12266   -11428   -10832   -10681   -10942 
  -11404   -11900   -12357   -12736   -13019   -13221   -13392   -13558 
  -13646   -13539   -13227   -12859   -12629   -12618   -12802   -13116 
  -13485   -13892   -14349   -14823   -15268   -15775   -16631   -18049 
  -19832   -21467   -22662   -23562   -24342   -24970   -25434   -25770 
  -25843   -25409   -24405   -23096   -21877   -20898   -19980   -18954 
  -17889   -16954   -16267   -15920   -16003   -16449   -16979   -17351 
  -17570   -17749   -17922   -18040   -18083   -18128   -18225   -18269 
  -18093   -17674   -17173   -16754   -16474   -16305   -16122   -15828 
  -15536   -15384   -15413   -15608   -15861   -16045   -16101   -16043 
  -15993   -16113   -16445   -16907   -17373   -17651   -17532   -17013 
  -16295   -15536   -14752   -13854   -12795   -11691   -10745   -10157 
  -10027   -10235   -10589   -11031   -11575   -12312   -13378   -14702 
  -16054   -17319   -18501   -19543   -20312   -20767   -21009   -21099 
  -21046   -20823   -20355   -19693   -19081   -18730   -18615   -18487 
  -18162   -17833   -17905   -18524   -19437   -20292   -20918   -21343 
  -21672   -21957   -22223   -22440   -22429   -22042   -21324   -20368 
  -19257   -18092   -16910   -15730   -14693   -13893   -13220   -12645 
  -12308   -12308   -12643   -13185   -13716   -14124   -14511   -15098 
  -15947   -16794   -17308   -17437   -17362   -17288   -17257   -17135 
  -16815   -16347   -15886   -15567   -15408   -15275   -14965   -14439 
  -13963   -13869   -14186   -14637   -15006   -15335   -15786   -16495 
  -17404   -18214   -18728   -19049   -19327   -19648   -19989   -20160 
  -20019   -19609   -19065   -18564   -18288   -18280   -18403   -18482 
  -18523   -18705   -19063   -19405   -19623   -19879   -20375   -20986 
  -21371   -21344   -20904   -20179   -19385   -18666   -18012   -17425 
  -17000   -16762   -16616   -16481   -16387   -16478   -16864   -17442 
  -17996   -18392   -18593   -18652   -18726   -18978   -19435   -19959 
  -20272   -20113   -19482   -18644   -17891   -17350   -16969   -16565 
  -16049   -15630   -15554   -15795   -16196   -16729   -17437   -18276 
  -19119   -19853   -20482   -21021   -21340   -21322   -21012   -20526 
  -20029   -19622   -19220   -18729   -18140   -17463   -16816   -16419 
  -16364   -16520   -16748   -17093   -17658   -18373   -19080   -19678 
  -20031   -20027   -19733   -19333   -18918   -18466   -17942   -17338 
  -16764   -16331   -15921   -15495   -15357   -15710   -16347   -16971 
  -17464   -17859   -18238   -18626   -19038   -19570   -20252   -20833 
  -21009   -20749   -20157   -19352   -18442   -17526   -16752   -16104 
  -15393   -14582   -13782   -13173   -12895   -12839   -12789   -12577 
  -12177   -11728   -11349   -11073   -10830   -10483    -9971    -9301 
   -8615    -8155    -8064    -8307    -8610    -8684    -8588    -8630 
   -9030    -9771   -10664   -11481   -12048   -12354   -12553   -12796 
  -13095   -13320   -13419   -13412   -13253   -12973   -12715   -12625 
  -12760   -13026   -13337   -13708   -14169   -14768   -15513   -16354 
  -17232   -18079   -18857   -19566   -20157   -20544   -20705   -20795 
  -21020   -21432   -21971   -22481   -22819   -23003   -23101   -23158 
  -23208   -23237   -23247   -23249   -23132   -22742   -22080   -21338 
  -20813   -20719   -20906   -20957   -20572   -19754   -18797   -18050 
  -17606   -17344   -17140   -16908   -16636   -16312   -15897   -15499 
  -15293   -15266   -15175   -14804   -14234   -13786   -13687   -13862 
  -14124   -14424   -14779   -15202   -15689   -16145   -16466   -16606 
  -16559   -16436   -16432   -16572   -16690   -16625   -16336   -15957 
  -15665   -15475   -15334   -15250   -15248   -15296   -15342   -15449 
  -15720   -16090   -16511   -17088   -17815   -18589   -19430   -20302 
  -21082   -21727   -22146   -22216   -21968   -21527   -21069   -20772 
  -20628   -20479   -20222   -19922   -19752   -19813   -20042   -20260 
  -20363   -20430   -20585   -20846   -21147   -21413   -21600   -21683 
  -21709   -21756   -21781   -21590   -20995   -19958   -18609   -17173 
  -15807   -14518   -13294   -12187   -11318   -10844   -10751   -10885 
  -11178   -11654   -12347   -13229   -14196   -15162   -16063   -16833 
  -17430   -17842   -18093   -18148   -17947   -17556   -17053   -16432 
  -15713   -14944   -14219   -13682   -13405   -13392   -13607   -13954 
  -14367   -14860   -15467   -16151   -16812   -17375   -17756   -17880 
  -17861   -17965   -18319   -18882   -19531   -20029   -20227   -20195 
  -20030   -19770   -19449   -19117   -18838   -18681   -18724   -19058 
  -19630   -20171   -20484   -20698   -21055   -21614   -22154   -22321 
  -22002   -21374   -20585   -19639   -18504   -17260   -16121   -15190 
  -14368   -13588   -12962   -12653   -12667   -12771   -12765   -12678 
  -12589   -12582   -12811   -13338   -14030   -14650   -15036   -15244 
  -15461   -15761   -16062   -16244   -16218   -15973   -15545   -14941 
  -14169   -13311   -12505   -11852   -11433   -11382   -11732   -12328 
  -12997   -13666   -14368   -15233   -16329   -17500   -18464   -19049 
  -19380   -19723   -20156   -20642   -21185   -21670   -21919   -21861 
  -21456   -20766   -20083   -19677   -19561   -19629   -19779   -19888 
  -19830   -19573   -19323   -19335   -19574   -19841   -19889   -19509 
  -18786   -17936   -17057   -16249   -15674   -15439   -15549   -15941 
  -16513   -17232   -18184   -19436   -20898   -22288   -23301   -23852 
  -24106   -24267   -24354   -24219   -23785   -23181   -22624   -22266 
  -22142   -22137   -22041   -21734   -21307   -20927   -20682   -20430 
  -19783   -18534   -16994   -15595   -14422   -13391   -12563   -12040 
  -11802   -11739   -11848   -12275   -13061   -14046   -15075   -16068 
  -16912   -17509   -17873   -18187   -18696   -19397   -19966   -20159 
  -20062   -19938   -19957   -20057   -20055   -19818   -19292   -18555 
  -17816   -17193   -16699   -16393   -16301   -16409   -16697   -17026 
  -17236   -17352   -17446   -17460   -17273   -16847   -16289   -15782 
  -15431   -15207   -15078   -15075   -15230   -15530   -15966   -16551 
  -17202   -17812   -18412   -19100   -19949   -20952   -22004   -23011 
  -23939   -24782   -25583   -26389   -27150   -27724   -28004   -27974 
  -27626   -26984   -26194   -25441   -24860   -24433   -23941   -23199 
  -22303   -21534   -21088   -20958   -20984   -20965   -20799   -20485 
  -20068   -19669   -19382   -19175   -18965   -18723   -18527   -18429 
  -18320   -18099   -17763   -17274   -16615   -15908   -15299   -14822 
  -14406   -14000   -13650   -13311   -12872   -12402   -12051   -11926 
  -12099   -12481   -12890   -13236   -13509   -13729   -13890   -13996 
  -14146   -14426   -14809   -15281   -15875   -16517   -17050   -17462 
  -17889   -18362   -18742   -18901   -18824   -18623   -18469   -18453 
  -18514   -18499   -18330   -18129   -18086   -18282   -18668   -19080 
  -19347   -19500   -19718   -20100   -20584   -21017   -21225   -21167 
  -20974   -20760   -20528   -20237   -19821   -19262   -18664   -18164 
  -17750   -17258   -16643   -16094   -15838   -15988   -16504   -17141 
  -17617   -17838   -17817   -17627   -17454   -17424   -17501   -17567 
  -17542   -17366   -16902   -16118   -15206   -14400   -13793   -13313 
  -12835   -12293   -11734   -11284   -10985   -10741   -10426    -9949 
   -9342    -8756    -8298    -7949    -7595    -7152    -6601    -5952 
   -5334    -4941    -4854    -5023    -5348    -5785    -6411    -7352 
   -8607   -10007   -11465   -13042   -14691   -16187   -17353   -18166 
  -18639   -18843   -18958   -19101   -19225   -19163   -18792   -18252 
  -17774   -17424   -17234   -17283   -17491   -17673   -17772   -17734 
  -17495   -17175   -16912   -16714   -16593   -16518   -16474   -16575 
  -16929   -17592   -18555   -19683   -20838   -21908   -22817   -23685 
  -24656   -25625   -26365   -26745   -26778   -26565   -26210   -25800 
  -25404   -25038   -24650   -24114   -23375   -22501   -21527   -20457 
  -19350   -18255   -17247   -16437   -15896   -15675   -15783   -16150 
  -16673   -17213   -17638   -17956   -18259   -18489   -18439   -17950 
  -16993   -15748   -14516   -13523   -12882   -12575   -12480   -12524 
  -12712   -13082   -13683   -14458   -15197   -15768   -16224   -16664 
  -17174   -17785   -18407   -18889   -19158   -19298   -19454   -19651 
  -19768   -19723   -19557   -19348   -19208   -19254   -19486   -19766 
  -19941   -19961   -19893   -19846   -19857   -19823   -19612   -19177 
  -18512   -17720   -17019   -16545   -16320   -16327   -16516   -16827 
  -17201   -17557   -17855   -18208   -18750   -19425   -20093   -20672 
  -21077   -21278   -21366   -21394   -21280   -20916   -20320   -19636 
  -19012   -18532   -18198   -17949   -17714   -17502   -17318   -17102 
  -16879   -16769   -16827   -16999   -17154   -17158   -16951   -16569 
  -16104   -15711   -15569   -15692   -15952   -16283   -16652   -17012 
  -17368   -17713   -17957   -18051   -18041   -18019   -18076   -18296 
  -18707   -19234   -19772   -20295   -20763   -21086   -21277   -21410 
  -21454   -21344   -21065   -20647   -20166   -19775   -19632   -19711 
  -19864   -20000   -20099   -20234   -20449   -20627   -20621   -20367 
  -19835   -18987   -17859   -16597   -15370   -14325   -13528   -12954 
  -12607   -12565   -12838   -13296   -13836   -14487   -15330   -16372 
  -17441   -18282   -18789   -18989   -18944   -18752   -18496   -18234 
  -18016   -17798   -17475   -17020   -16512   -16059   -15743   -15540 
  -15303   -14987   -14680   -14422   -14239   -14129   -13956   -13621 
  -13166   -12673   -12262   -11996   -11783   -11559   -11327   -11045 
  -10683   -10263    -9911    -9804    -9989   -10407   -11002   -11699 
  -12454   -13257   -14093   -14923   -15638   -16125   -16345   -16364 
  -16303   -16241   -16176   -16084   -15945   -15792   -15755   -15928 
  -16231   -16474   -16455   -16072   -15418   -14691   -14049   -13488 
  -12879   -12221   -11655   -11273   -11124   -11287   -11852   -12819 
  -14046   -15328   -16531   -17668   -18809   -19897   -20769   -21312 
  -21542   -21541   -21429   -21392   -21515   -21650   -21652   -21518 
  -21263   -20920   -20572   -20280   -20022   -19708   -19247   -18620 
  -17887   -17105   -16258   -15303   -14285   -13328   -12526   -11870 
  -11257   -10615   -10016    -9572    -9367    -9494   -10002   -10835 
  -11858   -12915   -13880   -14766   -15724   -16806   -17944   -19027 
  -19907   -20524   -20939   -21203   -21279   -21153   -20914   -20678 
  -20537   -20451   -20291   -20023   -19686   -19355   -19057   -18690 
  -18218   -17767   -17471   -17323   -17166   -16907   -16608   -16335 
  -16097   -15892   -15721   -15557   -15345   -15105   -14860   -14551 
  -14171   -13769   -13352   -12935   -12532   -12132   -11721   -11275 
  -10823   -10454   -10217   -10103   -10047    -9963    -9917   -10084 
  -10509   -11149   -11940   -12727   -13408   -14017   -14559   -14997 
  -15353   -15663   -15934   -16138   -16158   -15958   -15726   -15637 
  -15686   -15797   -15881   -15893   -15906   -16017   -16250   -16534 
  -16770   -16926   -17004   -17026   -17142   -17543   -18254   -19157 
  -20127   -21053   -21853   -22515   -23050   -23487   -23788   -23849 
  -23628   -23156   -22552   -21978   -21485   -21022   -20490   -19751 
  -18801   -17833   -16970   -16174   -15365   -14447   -13384   -12297 
  -11342   -10567    -9954    -9529    -9310    -9275    -9404    -9651 
   -9966   -10351   -10825   -11418   -12143   -12930   -13689   -14452 
  -15266   -16073   -16748   -17159   -17268   -17132   -16843   -16546 
  -16366   -16309   -16332   -16383   -16430   -16513   -16640   -16804 
  -17030   -17299   -17620   -18018   -18385   -18614   -18743   -18825 
  -18852   -18778   -18621   -18513   -18543   -18656   -18737   -18767 
  -18847   -19047   -19345   -19670   -19954   -20172   -20324   -20400 
  -20396   -20351   -20300   -20241   -20197   -20217   -20289   -20341 
  -20343   -20314   -20295   -20336   -20433   -20489   -20431   -20272 
  -20049   -19845   -19794   -19949   -20252   -20599   -20917   -21240 
  -21626   -22042   -22365   -22477   -22321   -21915   -21314   -20614 
  -19928   -19283   -18636   -17996   -17373   -16724   -16092   -15612 
  -15363   -15355   -15519   -15663   -15676   -15658   -15695   -15761 
  -15878   -16064   -16212   -16205   -16011   -15690   -15390   -15205 
  -15162   -15298   -15580   -15900   -16224   -16603   -17158   -17991 
  -18985   -19903   -20692   -21426   -22145   -22815   -23316   -23535 
  -23471   -23272   -23107   -23004   -22849   -22521   -21989   -21339 
  -20772   -20456   -20308   -20132   -19915   -19783   -19845   -20158 
  -20652   -21171   -21624   -21975   -22210   -22360   -22424   -22329 
  -22064   -21723   -21353   -20931   -20446   -19916   -19345   -18703 
  -18012   -17355   -16728   -16138   -15667   -15293   -14903   -14456 
  -13954   -13449   -13042   -12756   -12498   -12187   -11809   -11405 
  -11055   -10867   -10919   -11110   -11229   -11177   -11004   -10815 
  -10687   -10641   -10714   -10982   -11520   -12317   -13236   -14147 
  -15034   -15902   -16720   -17430   -17972   -18386   -18780   -19218 
  -19726   -20253   -20710   -21053   -21288   -21465   -21678   -21981 
