Origin Time       2016/04/16 01:25:00
Lat.              32.753
Long.             130.762
Depth. (km)       12
Mag.              7.3
Station Code      KGS003
Station Lat.      32.0559
Station Long.     130.5874
Station Height(m) 176
Record Time       2016/04/16 01:25:20
Sampling Freq(Hz) 100Hz
Duration Time(s)  300
Dir.              E-W
Scale Factor      3920(gal)/6182761
Max. Acc. (gal)   80.871
Last Correction   2016/04/16 01:25:20
Memo.             
[...]
   27663    27801    27981    27860    27835    27885    27728    27685 
   27858    27934    27869    27829    27817    27734    27767    27942 
   27908    27779    27837    27822    27733    27846    27905    27810 
   27817    27844    27778    27753    27877    27970    27822    27743 
   27869    27785    27701    27950    27980    27684    27732    27964 
   27799    27708    27967    27930    27667    27751    27948    27827 
   27728    27949    27938    27644    27757    27986    27780    27718 
   28003    27923    27628    27776    27964    27783    27767    27960 
   27826    27666    27885    27985    27760    27721    27910    27849 
   27705    27841    27910    27817    27853    27866    27760    27763 
   27874    27875    27793    27816    27865    27817    27802    27847 
   27801    27788    27895    27864    27776    27854    27833    27738 
   27877    27938    27760    27758    27893    27833    27737    27869 
   27943    27738    27745    27949    27811    27707    27941    27943 
   27675    27738    27971    27834    27745    27968    27895    27628 
   27789    28011    27818    27767    27962    27822    27688    27891 
   27927    27746    27768    27901    27791    27659    27851    27973 
   27748    27732    27969    27782    27513    27778    27955    27731 
   27730    27839    27624    27492    27638    27625    27475    27568 
   27745    27731    27786    27888    27758    27721    27978    28150 
   28133    28116    28082    28020    28037    28016    27851    27703 
   27592    27400    27352    27751    28375    28744    28632    28195 
   27703    27434    27755    28355    28344    27866    27522    27177 
   27151    27779    28068    27731    27749    27986    27778    27706 
   28369    28954    28471    27349    26380    25827    26282    27647 
   28617    28881    29144    29291    29113    29006    28678    27837 
   27377    27549    27206    26196    25924    26606    26967    27103 
   27663    27807    27398    27503    28000    28267    28556    29008 
   29140    28294    26574    25193    25118    26724    29485    31303 
   31103    29989    28646    27374    27057    27385    26997    26012 
   25516    25693    26444    27969    30081    31586    30719    27637 
   25170    25678    28389    30180    29397    27324    25360    24243 
   25030    27849    30760    31557    30350    28816    28044    28131 
   28485    28751    28946    27967    25246    23414    24645    27048 
   28280    28605    28417    27232    26352    27453    28699    27781 
   25852    24692    24559    25427    26845    28043    29358    31266 
   32489    31808    30458    29958    29846    29285    28009    25900 
   23998    24149    25972    26613    25269    24728    26642    29286 
   30697    30536    29378    27908    26330    24497    22824    22102 
   22332    23464    26047    29563    32331    33410    33072    31862 
   29949    27449    25249    25096    27982    31908    32884    29470 
   24775    23281    26513    31881    35331    34464    29928    25262 
   24532    28343    32597    32943    28850    22119    15648    14260 
   21056    32683    41454    41381    32626    21724    16460    19444 
   26901    33635    36578    33931    26529    20215    21141    28625 
   36164    38061    33296    25185    19118    19171    24621    29946 
   28947    20374    10802     8807    16962    31369    44061    46564 
   36483    20669    10259    10859    18698    27359    33820    36904 
   35240    30196    26792    27641    30342    31705    29729    24646 
   20993    23694    31482    38760    42123    40605    33582    23042 
   13332     7840     9696    20436    34412    41332    37216    28101 
   21908    21030    23104    25684    29067    33728    36435    33907 
   28492    24705    24061    26878    33343    40833    44733    42061 
   33316    22933    16564    16783    23127    32503    38541    36665 
   28471    19005    12399     9803    12091    20627    31984    39012 
   38117    33544    34099    40947    44926    40011    29408    18787 
   10393     4645     5034    15747    34946    53919    61787    52891 
   31318     7969    -6234    -6571     3184    16639    32805    50295 
   59247    53175    38380    23718    12782     6676     6600    11235 
   17072    24846    36601    47395    50034    43535    31535    18124 
    7454     3398     9518    26925    48989    64268    65603    54097 
   36704    19096     4349    -2926     -216     9104    18914    24669 
   26048    25324    26389    34217    47817    58458    57639    42189 
   17636    -1679    -4439     9178    32913    57617    71614    67464 
   48300    26198    13985    17648    29763    33044    20412      677 
  -13782   -11349    12526    46566    70628    70688    48775    20575 
     796    -5052     1616    14152    26381    36413    43411    47660 
   49006    44919    32703    12539    -6714   -11781     1041    25295 
   51968    69801    68430    48955    24239     6437    -1536    -5056 
   -8237    -4823    13062    40103    61945    70299    66550    53460 
   32753     9659    -8067   -13013     -913    24344    51154    67226 
   67355    55487    39435    25460    16798    13575    12198    10096 
   11343    19099    28822    35404    37297    34597    29991    25872 
   21579    19117    23474    33521    39352    33715    24062    23252 
   32428    43880    50300    46735    34183    20175    11704    10247 
   14143    22216    31957    37393    32374    16983     1726     -383 
   11217    25404    34439    38739    39837    38229    36091    36223 
   37811    36875    32701    27568    20973    12518     6128     6926 
   17496    35517    53926    65420    66314    56270    36395    11017 
  -10075   -18018   -11448     6095    27581    42791    45046    37041 
   27840    22779    20776    21278    24251    28072    31311    32424 
   32848    36825    43669    47254    42474    30983    22098    23348 
   31209    36661    35764    28798    15910      793    -8565    -8035 
   -1355     6313    14735    25090    35351    43056    47895    50571 
   49763    41472    26135    12508     9667    17844    28800    36054 
   41887    51612    65760    78531    81238    68911    43789    13782 
  -11353   -26334   -31810   -28256   -15529     2636    21291    37953 
   49527    51370    43042    31368    24233    23345    27813    38778 
   54059    64496    60838    45750    32305    26784    24162    19438 
   14894    17350    28943    43716    52982    49810    33988    12514 
   -9394   -27976   -34554   -23273     1063    27816    49927    67170 
   77432    75119    60924    39935    15900    -5660   -16815   -11511 
    9798    37944    60621    71092    69899    61181    49026    37053 
   29280    26152    23766    20030    15115     9227     4306     2980 
    6079    12332    19057    24798    29465    31382    28416    20745 
   11436     4254      835     2668    10638    21807    33443    45493 
   56684    63296    63225    58682    51612    41323    28969    18810 
   14922    17453    21552    22124    20159    20842    24270    25180 
   22845    21658    23201    25441    26170    24851    23635    24594 
   26683    26627    21494    12802     7157     9976    20046    31644 
   42567    55862    71130    81445    80992    70163    52310    30399 
    9479    -3601    -5993      618    13092    27188    38581    43716 
   41555    35008    26409    16173     6174     -498     -691     6245 
   16625    26284    33529    37397    36790    33146    30591    31841 
   35998    39136    38365    36124    35473    34171    29215    20747 
    9420    -2448    -9617    -8274      840    13597    26658    38621 
   46481    48296    47786    48645    48175    40293    23227     2952 
  -11622   -14265    -3483    16900    38880    54493    62713    67473 
   67910    60739    48198    35001    22417    10167     1738     2944 
   14973    33014    51251    64893    69208    62462    48781    34746 
   23408    12684     1576    -5898    -7676    -6891    -3693     6271 
   21383    32880    36906    38091    40352    41617    40279    40632 
   44666    45890    38973    27008    16327    10357     9260    13231 
   23106    37314    50319    55903    52691    44407    35909    29169 
   20835     7542    -6453   -13047    -9100     2889    19575    39737 
   60539    73155    70446    56511    41309    28460    14918     1742 
   -4965    -4583    -1970     2564    13387    30101    44777    49761 
   45462    37675    28923    18357     7863     2389     4764    11718 
   18286    25135    35546    48329    57712    58510    50545    37697 
   25318    18258    17368    20422    25918    32023    36404    38730 
   39106    36084    28214    16421     6461     6268    16814    31846 
   46157    55490    55445    46100    31678    18368    12604    15063 
   20234    23868    25091    23828    22114    24178    29403    29574 
   20202     9449     8235    17915    33366    49250    60348    63410 
   57647    43678    26685    15221    13512    18572    24936    28786 
   27888    23306    19095    16547    14394    13329    14213    15780 
   18089    22814    28421    32345    35159    38452    43676    48776 
   47069    37415    26208    17088     9672     5068     5981    13161 
   23085    32151    42119    54718    65426    69204    65898    57460 
   44367    25280     2342   -15235   -19258   -10615     4516    22028 
   40097    53849    56564    47584    31887    13646    -2585    -9103 
   -1085    17163    35480    45859    47491    44918    41757    37433 
   30865    25432    23958    23204    22005    24673    32178    39716 
   40871    32475    19014     8574     6296    15337    35389    57386 
   68911    65183    49679    29121    11730     4896     9549    19107 
   27733    35159    42313    48518    51897    49866    41287    28265 
   14466     2705    -4027    -1618    10132    23647    31361    33924 
   35974    38686    38101    30320    17894     7273     1945     1585 
    5686    14759    25879    31133    27382    23206    27951    38514 
   44375    40712    31221    21681    15318    15098    23107    34612 
   42414    45508    46089    43971    37879    28921    20037    13012 
    8876     8494    11860    18160    23803    23377    15689     4988 
   -3069    -4230     2254    13071    24607    36717    51290    67026 
   78111    79596    70734    54714    38279    27677    25361    30707 
   39976    48488    53145    51567    43560    32999    25293    23096 
   24598    26166    25815    24942    28552    40235    55197    64546 
   65534    60365    49744    34849    20339    10944     8685    12655 
   18278    20339    19068    18802    20903    23029    22948    19567 
   12961     5247      963     5115    17966    33288    45021    51322 
   50879    42215    26677     9627    -1597    -4442    -2134     4772 
   18160    34393    46030    49291    45828    38077    26009    10950 
   -2955   -13398   -20340   -23078   -20062    -9941     6310    23701 
   36514    42744    43178    39654    35570    33516    32548    30619 
   27368    23295    19460    17985    20233    25252    30675    34460 
   35182    32153    27584    26126    30664    39818    48550    52197 
   51180    49844    51136    54366    58759    66296    77254    86472 
   87633    79314    65317    49914    37027    32306    38256    49436 
   57780    60721    61256    61320    59564    54765    46656    36049 
   25584    16414     7480     1141     3650    17413    36233    50608 
   56143    53823    46811    41209    42316    47738    50508    46712 
   36847    23977    10897    -2201   -15201   -25466   -30163   -27954 
  -17653     1052    24367    44476    54602    53031    41886    24950 
    7384    -4558    -5592     3237    13887    20538    24342    27340 
   28745    26674    18886     5433    -9322   -21262   -29446   -32591 
  -26963   -10828    11933    35802    56840    71483    77666    76879 
   72434    66030    58785    54295    55990    63951    75507    84774 
   85104    74484    54860    30249     7324    -9216   -20445   -28675 
  -33425   -33265   -28328   -18895    -4734    10779    20656    19638 
    7045   -11840   -27123   -31137   -23887   -10760     2622    11921 
   15778    18093    24556    36728    51626    64975    71622    66847 
   51613    32508    16261     7967    11090    25492    47015    68644 
   83566    90354    91383    86771    75407    58554    38354    15466 
   -8033   -25722   -32186   -27631   -13942     6684    28918    44990 
   47608    34454    11407   -11635   -27825   -35305   -36224   -32538 
  -19561     8833    49418    92491   128775   149910   151323   135616 
  109959    80770    52221    29500    18020    18366    25170    33317 
   43904    56919    63617    53557    23557   -19202   -59951   -83715 
  -82222   -59710   -29783    -1782    23564    46996    67207    80002 
   81923    76582    69960    64632    60633    55337    46040    32411 
   15075    -4277   -21059   -27272   -16539    10119    44493    73046 
   83046    71223    43721    10740   -17178   -31892   -31799   -23166 
  -10643     7105    27749    46787    64199    75150    68882    44019 
   11762   -14860   -29548   -33000   -27191   -13854     2429    15476 
   23585    32959    51040    75101    94347   102483    99964    90241 
   78202    67261    60208    59467    63452    68529    72927    76406 
   78743    78846    73915    59059    30441    -8739   -49211   -82389 
  -99725   -94047   -69527   -39767   -16914    -6372    -4591    -5734 
   -6808    -3242     5925    16486    28003    39808    49270    59349 
   72637    85790    96217   103342   106304   104606    97055    83459 
   65855    45680    24939     6032    -9466   -18981   -22777   -23975 
  -23289   -20727   -14847    -3428     9333    18771    27535    37370 
   46456    54827    63945    74626    85081    92368    94128    87820 
   76398    68916    70160    78416    90236   101582   108483   109075 
  105015    97248    81116    53342    19559   -12711   -40422   -60319 
  -67329   -58614   -37288   -13819      850     3509    -1383    -6405 
   -6896    -1269    10215    22860    31137    32677    26767    16864 
    9830     8877    13464    21753    28756    28423    19203     5816 
   -4587    -8548    -7326    -4359    -3107    -4156    -5482    -5378 
   -2725     1985     5170     3863     -554    -4379    -5997    -6729 
   -7944   -10465   -14355   -17121   -15944   -10414     -900    11380 
   22717    31522    41244    53777    66954    78314    84178    79898 
   64628    42255    17989    -3957   -19019   -22799   -15354    -1209 
   14509    28576    39771    46984    48408    42851    31454    17783 
    6494     2436     8719    24564    44031    57561    59782    53640 
   44630    35163    24089     9029   -10655   -31678   -47092   -51143 
  -42844   -23214     5893    38969    67111    83271    87882    87493 
   86716    83867    74267    55817    32167    10316    -4384    -8831 
    -398    20485    46882    68130    75067    64525    41670    16332 
   -1270    -2573    15416    46552    78274   100035   108595   106600 
   97716    82446    61083    37761    16698     -945   -14435   -20711 
  -15488     2994    32104    64289    87812    93775    83196    63619 
   42126    24774    16707    16867    18861    20309    22390    24145 
   25883    30740    38739    44339    41647    29013     8888   -12794 
  -28972   -35095   -30430   -17552     -932    14042    23523    28192 
   32099    37645    41814    40078    32288    22207    14606    11915 
   12919    17077    24353    29780    25798     9107   -15539   -38824 
  -55287   -61327   -51913   -29114    -2775    18276    28845    29041 
   22639    10206    -8365   -26891   -35796   -30832   -13386    15300 
   50611    83015   105812   116617   115374   105346    91032    75549 
   61301    50207    44616    46490    53439    60117    63826    66467 
   70024    71716    68614    63359    59184    54134    45026    32958 
   21324    12703     8521     8517    12640    22771    39471    58745 
   74947    85418    89670    87068    77220    61471    42872    23472 
    4376   -11804   -22873   -28317   -26278   -14176     7210    33432 
   58204    75078    80755    76352    64337    46546    25340     3624 
  -17365   -37335   -52765   -57064   -47479   -28507    -5580    18656 
   39761    52084    55432    56070    59533    65416    71447    76472 
   79484    79823    76412    70046    63467    55139    41340    22965 
    3693   -13773   -27796   -37142   -40374   -37786   -32759   -27933 
  -24024   -20819   -15167    -4982     5977    13900    18486    19850 
   19751    21471    26393    35132    48041    63077    75927    82288 
   82264    80628    79771    77205    68919    52247    29210     5696 
  -12555   -21468   -20857   -15378   -10932   -11369   -17061   -24296 
  -28142   -26458   -19853    -9905     1302    11394    18416    21833 
   22861    22544    20766    19730    23995    35255    51899    70348 
   84953    91745    89900    79709    63972    47212    32664    23085 
   19812    20890    23824    27256    30459    34689    42756    55697 
   70093    79947    82059    76293    63704    47617    31311    15971 
    3729    -2525    -2513     2004     9819    21357    37072    55249 
   72626    84374    84309    70524    47582    20365    -7871   -32182 
  -47605   -52071   -45481   -29227    -6199    19517    41784    53954 
   52747    38563    14659   -11467   -31274   -40459   -38566   -28890 
  -18572   -13324   -12737   -11331    -3854    11045    31437    53871 
   74706    90915   102123   111222   120271   128412   132815   129293 
  116022    94951    68589    40654    16797     1551    -3336     1113 
   11885    25927    40522    51538    54107    46224    30194    10202 
   -9548   -24579   -31786   -30451   -20065      559    31277    67588 
  100651   122659   131094   126798   111925    89831    63611    37099 
   15101      200    -7272    -8996    -7839    -5619    -4552    -6844 
  -13088   -23258   -35658   -46743   -52424   -48797   -35954   -19005 
   -2909     9536    16627    18678    17603    16126    17579    24048 
   36285    53718    72884    88671    97893   101405   101465    97546 
   87614    71993    53479    35371    20262     9200     2310     -366 
     123     1512     2126     1331    -2259   -11312   -26295   -42446 
  -53903   -58019   -53440   -40006   -18645    10360    43761    75151 
   99476   114350   120855   119976   109510    88833    62028    37760 
   25445    28514    45069    69822    93531   107315   104442    81276 
   42941      883   -35178   -60325   -75317   -83399   -86278   -85174 
  -78886   -63542   -39893   -13447    10295    26678    34551    36625 
   36481    37722    42953    52531    63921    73218    78420    80243 
   81293    84586    91346    99028   102298    96971    81527    57975 
   32107     9664    -5092    -8874    -1999    12116    29642    45595 
   54162    52611    44181    33456    21976    12700     9402    10970 
   13738    16395    20497    26889    33772    37998    35384    23605 
    5095   -14890   -30752   -37427   -31722   -14904     8244    32055 
   49417    55397    51055    39828    25834    13140     4153     1124 
    5001    14295    26817    39614    50332    58593    62196    57103 
