Origin Time       2016/04/16 01:25:00
Lat.              32.753
Long.             130.762
Depth. (km)       12
Mag.              7.3
Station Code      KGS007
Station Lat.      31.8143
Station Long.     130.3032
Station Height(m) 4
Record Time       2016/04/16 01:25:26
Sampling Freq(Hz) 100Hz
Duration Time(s)  171
Dir.              E-W
Scale Factor      3920(gal)/6182761
Max. Acc. (gal)   51.526
Last Correction   2016/04/16 01:25:27
Memo.             
[...]
    6226     5815     6184     7417     9320    11925    14923    17605 
   19512    20595    20916    20689    20500    20797    21096    20350 
   18291    15852    14118    13472    13797    14985    16935    19130 
   20649    20567    18727    16403    15091    14921    15150    15220 
   14790    13560    11537     9197     7155     5819     4729     2408 
   -2094    -8305   -15188   -21804   -27359   -31182   -32639   -31357 
  -28040   -24544   -22565   -22246   -22135   -20735   -18015   -14907 
  -11984    -9461    -7553    -6023    -4506    -3458    -3431    -3914 
   -4138    -3942    -3397    -2699    -2118    -1891    -2403    -3335 
   -3135     -696     3588     8713    13869    18913    24354    30134 
   34671    35999    33768    29498    24933    20886    17728    15751 
   14783    14467    14525    14520    14207    13768    13325    12748 
   11998    11361    11351    12261    13708    14882    15156    14520 
   13585    12758    11783    10377     8654     6714     4312     1321 
   -1832    -4818    -7940   -11529   -15124   -17499   -17709   -15803 
  -12457    -8692    -5805    -4923    -6351    -8874   -10481   -10668 
  -10719   -11467   -12273   -12107   -10693    -8439    -5858    -3403 
   -1381     -160     -385    -2040    -3775    -3996    -2320      229 
    2383     3871     5103     5959     5832     4691     3329     2705 
    3230     4628     6440     8225     9408     9745     9663     9771 
   10218    10616    10733    10958    11750    13112    14743    16235 
   17096    16824    14988    11824     8876     7830     8676    10037 
   10682    10273     9488     9172     9282     9554    10403    11944 
   13458    14386    14531    13873    12706    10949     8141     4770 
    2066      731      786     1669     2627     3683     5339     7333 
    8702     8895     8046     6544     4930     3662     2737     1730 
     162    -2045    -4567    -7330   -10646   -14512   -18508   -22545 
  -26656   -30223   -32418   -33200   -33250   -32978   -32083   -30181 
  -27742   -26106   -26053   -26718   -26579   -25263   -24020   -24215 
  -25739   -27384   -28089   -27258   -24739   -20952   -16462   -11452 
   -5890      140     6431    12864    19396    25831    31809    36996 
   41532    46150    51309    56714    61972    66783    70571    72737 
   73019    71473    68504    65054    62505    61790    62750    64547 
   66208    67084    66978    65513    62116    56896    50613    43742 
   36054    26945    16202     4724    -5724   -13582   -18397   -21072 
  -23137   -25568   -28512   -31905   -35893   -40775   -46649   -53010 
  -58925   -63596   -66613   -68073   -68504   -68251   -67137   -64665 
  -59725   -51213   -40090   -28998   -19697   -12627    -7960    -5571 
   -4538    -3789    -2956    -2005     -874      345     1548     2452 
    2442     1328     -501    -2793    -5343    -7563    -8804    -8456 
   -5671      274     9366    20570    32065    42322    50844    57761 
   63159    66408    66502    63766    59359    53161    44687    34227 
   22398    10757     1279    -5120    -8622   -10535   -12620   -15504 
  -18859   -22679   -27257   -32323   -37230   -41733   -45890   -49614 
  -52514   -53977   -53429   -50397   -44672   -36702   -27385   -17867 
  -10058    -6268    -7316   -11735   -17065   -20894   -21437   -18357 
  -12658    -5389     2971    11911    20974    29896    37944    44125 
   48267    51211    53653    55502    56350    55518    52300    47083 
   41281    36167    32533    30718    30553    31709    33839    36680 
   39907    42599    43568    42225    39111    35319    31547    28235 
   25769    23972    21760    18007    12166     3901    -6608   -18546 
  -30903   -42333   -51693   -59100   -65160   -69799   -72593   -72712 
  -69021   -61735   -53110   -46097   -42275   -40581   -38750   -35692 
  -31611   -27105   -23010   -20024   -18273   -17598   -17242   -15672 
  -11797    -5875      700     6545    11180    14316    15372    14624 
   14025    15935    21272    28947    36802    43664    49641    54413 
   57337    58660    59128    58832    57092    53227    47130    39633 
   32118    25054    17665     9605     2075    -3059    -5282    -5888 
   -6361    -7401    -8666    -9206    -8701    -7779    -7241    -7497 
   -8173    -7765    -4990      -61     6230    12922    18593    21537 
   20304    15278     8531     1679    -4807   -11512   -19038   -26540 
  -32267   -34968   -34275   -30317   -23609   -15074    -5317     5500 
   15939    23266    25964    24799    22114    20390    20959    23837 
   27834    31222    32968    32594    30092    26078    21157    16667 
   14025    12720    11565     9919     7044     2297    -4166   -11032 
  -16432   -19351   -20400   -21128   -22204   -22650   -21729   -20236 
  -19368   -20361   -23928   -28712   -32773   -35569   -36598   -34817 
  -30211   -23601   -15935    -8368    -1327     5139    10723    15572 
   19685    22608    23993    23480    20991    17347    13848    11486 
   10988    12878    17412    24312    32726    42070    51825    60512 
   66443    69328    70115    69676    68140    64650    58213    49762 
   41906    36796    35153    35774    36122    33943    28238    19890 
   11247     4273    -1193    -7056   -14605   -23223   -31419   -38350 
  -44384   -50316   -55959   -59955   -61126   -59394   -55493   -50754 
  -46469   -43407   -42213   -42798   -44238   -45790   -47056   -47993 
  -48364   -47282   -44200   -39539   -34246   -29055   -24174   -19468 
  -14698   -10261    -7309    -6840    -9042   -12658   -15228   -15206 
  -13030    -9256    -3662     3564    11942    20653    28264    34146 
   38902    43017    46125    47881    48452    48177    47647    46865 
   44851    41081    36215    31209    26691    22801    19276    16694 
   15562    14403    11915     8468     4879     2271     1709     2986 
    4811     5909     5630     4455     3368     2533     1940     2111 
    3071     4060     4058     2058    -2255    -8379   -15501   -22415 
  -27706   -30874   -32640   -33726   -34176   -34036   -33588   -32881 
  -32255   -32388   -33379   -35093   -36898   -37164   -34993   -30821 
  -25061   -18202   -11175    -4115     3661    11890    19634    26715 
   33558    40528    47113    51749    54136    56124    56403    51990 
   47406    46642    45358    41871    38177    34752    32278    30422 
   29436    30134    30659    30423    29824    27516    23401    16971 
    7102    -4007   -14166   -23502   -30833   -34798   -36751   -38306 
  -39558   -40271   -39779   -37830   -36056   -36028   -37424   -38609 
  -38176   -36155   -33102   -29273   -25456   -22876   -22109   -23014 
  -25030   -26920   -27301   -25917   -23585   -21255   -19761   -19341 
  -19027   -17663   -15265   -12073    -7783    -2694     2137     5668 
    7582     8785    10390    12755    15917    19875    24209    28312 
   31750    33880    34147    33061    32087    32468    34510    37693 
   40981    43781    46652    50267    54565    59208    63694    67139 
   68948    69040    67161    63370    58605    54175    51385    50995 
   52679    55094    56354    54805    49891    42685    34876    27209 
   19765    12365     4044    -6115   -17531   -28357   -36549   -40766 
  -41243   -39559   -37398   -36180   -37051   -40196   -45009   -50834 
  -56815   -61906   -65512   -67679   -68953   -70055   -71001   -71091 
  -69955   -67941   -65428   -61955   -56621   -49164   -40151   -30845 
  -22914   -17407   -14186   -12442   -11458   -10897   -10669   -10887 
  -11728   -13049   -14255   -14635   -13857   -11921    -8878    -4843 
     137     6122    12860    19774    26411    32434    37592    41688 
   44424    45700    45740    44950    43817    42431    40161    36464 
   31759    27189    23784    21851    21149    20990    20301    18555 
   16213    14260    13795    15400    18599    22179    25047    26865 
   27922    28538    28810    28581    27517    25478    22484    18332 
   12777     5874    -1842    -9287   -15402   -19672   -22305   -23865 
  -24372   -23454   -21096   -17663   -13625    -9265    -4329     1642 
    8371    14766    19772    22960    24311    23892    21819    18011 
   12536     6133      -72    -4873    -7729    -9051    -9153    -8293 
   -7009    -5250    -2425     1731     6849    12094    16387    18743 
   18910    17440    15021    12015     8508     4603      642    -3065 
   -6356    -8953   -10725   -12080   -13587   -15244   -16782   -18677 
  -21647   -25552   -29581   -32706   -34232   -34243   -33183   -31731 
  -30824   -30786   -31101   -31258   -31095   -30942   -31421   -32551 
  -33866   -34908   -35154   -34456   -32832   -30116   -26820   -23890 
  -21694   -20155   -19097   -18366   -17785   -16702   -14023    -9151 
   -2585     4522    11059    16357    20349    23499    26483    29669 
   32846    35588    37428    37883    37108    35837    34541    33362 
   32199    30797    28991    26760    24535    23073    23157    25644 
   30608    36840    42894    47882    51557    54311    56798    59493 
   62497    65408    67540    68241    67060    64055    59795    55164 
   51083    47801    44849    41842    38787    35683    32560    29704 
   27225    25013    22893    20223    16383    11714     7021     2720 
   -1046    -4336    -7604   -11436   -16306   -22570   -30079   -37962 
  -45405   -51819   -56323   -58462   -58922   -58896   -59339   -60675 
  -62579   -64089   -64175   -62406   -59028   -54597   -49776   -45012 
  -40249   -35183   -29656   -23820   -18182   -13261    -9023    -4903 
    -462     4034     7924    10915    13194    15010    16460    17891 
   19954    23260    28389    35475    44023    53307    62355    70068 
   75779    79532    81759    82941    83496    83356    81973    78902 
   73990    67521    60079    52050    43308    33576    23312    13625 
    5501     -695    -5271    -8598   -10929   -12876   -15013   -17437 
  -20335   -24064   -28594   -33625   -39028   -44699   -50342   -55612 
  -60320   -64502   -67974   -70255   -71450   -71963   -71370   -69053 
  -65060   -59761   -53928   -48837   -45438   -43454   -41432   -38148 
  -33497   -27967   -22140   -16382   -10688    -4905     1065     7231 
   13380    19222    24703    29499    33297    36589    39753    42513 
   44360    44687    43407    41629    40949    41849    43539    45217 
   46338    46614    46453    46446    46838    47504    48166    48603 
   48093    45822    41994    37502    32827    27856    22440    16619 
   10632     4965      245    -3327    -6259    -9090   -12200   -15921 
  -20091   -24513   -29253   -33804   -37449   -40074   -41976   -43572 
  -44747   -44696   -43234   -41126   -38842   -36187   -32539   -27301 
  -20739   -13737    -7421    -3066     -929      -71      441     1472 
    3867     7618    12061    16479    20119    22659    24317    25349 
   26218    27577    29674    32278    34879    36786    37437    36424 
   33376    28353    21865    14410     6631     -559    -6215    -9585 
  -10437    -8989    -5836    -1938     1814     4687     6077     5815 
    3926      529    -3818    -8523   -13100   -16804   -19173   -20432 
  -21212   -22120   -23239   -24190   -24624   -24505   -24060   -23355 
  -21863   -18724   -13637    -7147       38     7383    14552    21368 
   27430    32251    35568    37187    37222    36266    34918    33316 
   31143    28209    24892    21623    18333    14858    11205     7205 
    2854    -1251    -4442    -6445    -7535    -8335    -8963    -9041 
   -8093    -5592    -1486     3871    10074    16436    22140    26403 
   28524    28415    26541    23591    20541    17809    14800    11077 
    6739     2066    -2432    -6565   -10824   -15552   -20465   -25086 
  -28934   -31366   -31923   -30513   -27346   -23204   -19048   -15488 
  -12680   -10322    -8251    -6719    -6101    -6876    -9337   -13182 
  -17741   -22254   -26133   -29302   -31784   -33480   -34572   -35070 
  -34437   -32212   -28393   -23380   -17713   -11589    -4768     3057 
   11693    20288    28145    35123    41052    45730    49146    51110 
   51232    49325    45733    41528    38256    36850    36966    37689 
   38215    37996    37127    36164    35539    35607    36348    37363 
   38501    39621    40393    40462    39512    37446    34284    30072 
   24994    19281    13077     6381     -903    -8781   -17084   -25424 
  -33154   -39709   -45175   -49954   -54272   -58412   -62396   -65735 
  -67944   -68661   -67763   -65489   -62075   -57698   -52748   -47808 
  -43347   -39449   -35947   -32854   -30331   -28014   -24880   -20299 
  -14552    -8164    -1562     4907    11193    17384    23453    29388 
   35109    40494    45538    50194    54427    58286    61760    64715 
   66864    67957    68029    67267    65824    63707    60533    55779 
   49197    41017    32146    23737    16509    10682     6321     3447 
    1754      768      130     -679    -2099    -4162    -6944   -10646 
  -15135   -20115   -25436   -30882   -36318   -41697   -46586   -50626 
  -53908   -56518   -58461   -59629   -59780   -58826   -56642   -52709 
  -46652   -38757   -29493   -19273    -8367     3124    14533    24976 
   34211    42258    49182    55188    60123    63526    65182    65029 
   63205    60120    56106    51374    45960    39786    33082    26179 
   19353    13190     8452     5684     4912     5420     5940     5271 
    2837    -1207    -6135   -11272   -16509   -22119   -28535   -36033 
  -44417   -53108   -61228   -67906   -72720   -75784   -77598   -78517 
  -78458   -77329   -75012   -71191   -65588   -57985   -48445   -37803 
  -27490   -18673   -11476    -5268      198     4620     7841    10193 
   12379    15107    18698    23044    27920    33062    38005    42364 
   46006    48794    50775    52215    53372    54610    55930    56837 
   57154    57014    56370    55172    53560    51682    49665    47622 
   45497    43101    40178    36575    32469    28235    24268    20757 
   17575    14569    11611     8622     5783     3318     1252     -470 
   -2162    -4384    -7371   -10760   -13881   -16251   -17704   -18298 
  -18233   -17545   -16134   -13989   -11009    -7223    -3125      660 
    3541     5143     5719     5807     5708     5543     5287     4924 
    4550     4155     3771     3594     3715     3997     4246     4468 
    4817     5311     5592     5050     3578     1668     -117    -1227 
   -1407     -964     -336      111      -53     -974    -2068    -2360 
   -1347      533     2418     3707     4292     4582     5154     6304 
    7876     9402    10260     9912     8189     5178     1298    -2714 
   -6422   -10054   -13980   -18105   -21973   -25076   -27089   -28066 
  -28314   -27902   -26549   -24197   -21107   -17454   -13401    -9156 
   -4979    -1340     1362     3048     3926     4535     5460     7017 
    9363    12369    15475    18137    20022    21009    21353    21354 
   21060    20518    19899    19247    18613    18382    18863    19753 
   20569    21007    20805    20049    18973    17527    15745    13559 
   10710     7410     4027      395    -3776    -8383   -13079   -17337 
  -20769   -23462   -25402   -26399   -26646   -26454   -25975   -25229 
  -23968   -21865   -18990   -15787   -12712    -9974    -7409    -4774 
   -2199      -59     1309     1829     1843     1690     1342      720 
      32     -346     -118      746     1953     3138     4017     4330 
    4098     3689     3175     2281      981     -558    -2174    -3592 
   -4501    -4538    -3486    -1803     -122     1607     3692     6167 
    8959    11882    14689    17305    19695    21947    24379    27099 
   29966    32872    35554    37531    38394    38060    36855    35329 
   33809    32272    30686    29235    28206    27479    26438    24567 
   21846    18571    15041    11457     7817     4051      424    -2649 
   -4865    -5834    -5380    -3827    -1646      556     2237     3480 
    4501     5103     5093     4501     3358     1562    -1135    -4807 
   -9124   -13680   -18123   -21994   -24769   -26212   -26683   -26814 
  -27037   -27528   -28289   -29112   -29714   -29889   -29484   -28439 
  -26683   -24054   -20514   -16208   -11374    -6354    -1455     3090 
    6813     9275    10542    10966    10886    10549    10115     9603 
    8946     8249     7877     8220     9358    10973    12533    13558 
   13758    13328    12995    13460    15106    17912    21303    24496 
   27005    28564    29098    28980    28711    28354    27533    25628 
   22143    17195    11312     5099     -610    -4982    -7654    -8815 
   -9171    -9646   -10807   -12589   -14499   -16066   -17165   -17962 
  -18688   -19447   -20232   -21027   -21750   -22292   -22490   -22175 
  -21406   -20315   -18881   -16937   -14282   -10855    -6792    -2363 
    2095     6222     9816    12963    15801    18343    20695    23096 
   25648    28253    30782    33217    35605    38019    40574    43167 
   45413    47039    47983    48228    47833    46982    45976    45105 
   44473    44013    43473    42405    40341    37000    32530    27543 
   22794    18715    15196    11837     8274     4383      404    -3166 
   -5924    -7938    -9846   -12386   -15805   -19881   -24211   -28376 
  -32079   -35186   -37731   -39802   -41345   -42237   -42463   -42058 
  -41054   -39536   -37659   -35762   -34228   -33086   -32022   -30630 
  -28572   -25774   -22476   -18999   -15563   -12314    -9251    -6340 
   -3735    -1444      746     2962     5161     7105     8770    10545 
   12797    15707    19200    22951    26599    29697    31847    32886 
   33037    32860    32693    32483    32008    30987    29223    26662 
   23390    19565    15371    11028     6853     3253      371    -2065 
   -4353    -6560    -8703   -10777   -12756   -14745   -16849   -18984 
  -20948   -22522   -23481   -23628   -22893   -21572   -20441   -20249 
  -21149   -22679   -24239   -25584   -26830   -28019   -28878   -28922 
  -27668   -24939   -21010   -16472   -11944    -7756    -3928     -308 
    3361     7243    11207    14949    18217    21065    23879    26937 
   30304    34034    37979    41689    44761    47068    48623    49485 
   49896    50280    50900    51661    52183    51979    50678    48171 
   44638    40596    36728    33417    30566    27955    25382    22533 
   19157    15222    10909     6704     2984     -332    -3228    -5536 
   -7348    -8903   -10520   -12434   -14570   -16795   -18963   -20723 
  -21874   -22604   -23069   -23239   -23094   -22549   -21509   -20079 
  -18591   -17583   -17490   -18267   -19508   -20844   -22198   -23567 
  -24720   -25351   -25225   -24303   -23000   -21889   -21134   -20473 
  -19647   -18651   -17715   -17028   -16487   -15851   -15060   -14293 
  -13762   -13411   -12789   -11448    -9360    -6791    -4095    -1604 
     519     2275     3771     5328     7304     9765    12473    15006 
   17055    18710    20324    22243    24513    26964    29538    32017 
   33854    34620    34296    33215    31757    30096    28226    26171 
   24165    22518    21331    20390    19304    17720    15590    13170 
   10761     8524     6367     4082     1561    -1119    -3577    -5363 
   -6283    -6487    -6464    -6857    -8175   -10616   -13963   -17622 
  -20970   -23752   -26078   -28136   -29919   -31220   -31791   -31524 
