Origin Time       2016/04/16 01:25:00
Lat.              32.753
Long.             130.762
Depth. (km)       12
Mag.              7.3
Station Code      KGS006
Station Lat.      31.9060
Station Long.     130.7021
Station Height(m) 188
Record Time       2016/04/16 01:25:22
Sampling Freq(Hz) 100Hz
Duration Time(s)  300
Dir.              E-W
Scale Factor      3920(gal)/6182761
Max. Acc. (gal)   108.916
Last Correction   2016/04/16 01:25:22
Memo.             
[...]
  -12410   -12313   -12125   -12033   -12137   -12266   -12313   -12392 
  -12518   -12686   -13127   -13829   -14313   -14305   -14009   -13694 
  -13447   -13134   -12591   -11905   -11319   -11024   -11150   -11723 
  -12560   -13282   -13566   -13373   -12977   -12798   -12872   -12696 
  -12012   -11322   -11438   -12584   -14004   -14880   -15166   -15037 
  -14553   -13982   -13347   -12083    -9828    -7117    -5292    -5488 
   -7443   -10100   -12985   -16130   -19366   -22188   -24121   -24726 
  -23271   -19547   -14687   -10049    -6159    -3344    -2166    -2498 
   -3719    -6091    -9837   -13949   -17381   -19403   -19351   -17737 
  -15980   -14726   -13660   -12557   -11669   -11144   -11051   -11757 
  -13303   -14959   -15716   -15001   -13330   -11745   -10617    -9996 
  -10085   -10515   -10680   -11009   -12583   -15557   -18389   -19074 
  -17459   -14936   -12369   -10085    -8445    -7564    -7471    -8098 
   -9341   -11403   -13858   -15354   -15547   -15494   -15617   -15436 
  -14605   -12850   -10528    -8822    -8431    -9379   -11162   -12856 
  -14316   -16266   -19092   -21907   -22672   -20387   -16224   -11695 
   -7995    -6205    -5984    -6162    -6796    -8284   -10045   -11728 
  -13694   -15823   -17730   -19406   -20164   -18879   -15987   -13078 
  -11020    -9661    -8358    -6601    -4627    -4085    -7211   -13643 
  -20375   -25378   -27803   -26609   -22157   -16856   -12931   -10477 
   -7701    -3720     -582     -506    -2712    -4893    -6160    -7927 
  -11982   -17329   -21042   -22425   -22872   -22705   -21405   -18553 
  -13533    -7233    -2349     -208     -244    -1731    -3587    -5150 
   -7756   -12904   -19756   -26085   -30297   -31756   -30501   -27105 
  -21996   -15661   -10274    -8510    -9874   -11040    -9772    -6569 
   -3735    -3771    -6623    -9144    -9308    -8823   -10662   -15430 
  -19836   -20589   -18777   -16311   -12897   -10026   -10474   -13192 
  -15858   -18016   -17528   -11994    -3744     2074     2239    -2425 
   -8469   -14138   -20511   -27706   -32932   -33549   -30254   -24646 
  -15940    -4427     5034     8076     6343     3318    -1140    -8431 
  -17643   -26080   -31896   -35809   -40008   -44091   -42818   -33078 
  -19041    -4907     8749    20554    28072    29792    25329    15739 
    3193   -10140   -22198   -31577   -39654   -47679   -51846   -48229 
  -38269   -25214   -11795     -659     6936    10466     8902     3044 
   -4421   -11379   -14796   -12533    -7756    -4927    -5279    -8808 
  -16240   -26555   -33709   -31614   -21056    -6519     7857    17497 
   19423    13860     2550   -10982   -22220   -28721   -30743   -31012 
  -32752   -35452   -36053   -33845   -29890   -24436   -17731   -10074 
   -1767     5646    10731    13295    14049    13480     9874     2273 
   -6501   -13921   -20463   -27059   -33232   -38293   -42077   -42447 
  -36091   -24551   -12895    -2375     7321    13277    13827    10618 
    4697    -3256   -11810   -19232   -23788   -26936   -31553   -35793 
  -36480   -33137   -26465   -19278   -12179    -1457    10890    17871 
   16817     8503    -2396    -8147    -8528   -10880   -18140   -25377 
  -26157   -19754   -12037    -8692   -11328   -18265   -24948   -28115 
  -28869   -28349   -25644   -20731   -15663   -11898    -6830     2254 
   11087    13213     8376      216    -8069   -14534   -19335   -23227 
  -26486   -29637   -32005   -32776   -32215   -28660   -21168   -12860 
   -6200    -2066     -866     -638    -1827    -7877   -16051   -19218 
  -16020   -10697    -7076    -6801    -8633    -8005    -2960     1351 
     -20    -5614   -11564   -15453   -17288   -19368   -23220   -27489 
  -29905   -30777   -32971   -36095   -34310   -24657   -11927    -1698 
    3503     2505    -1881    -3585    -1048     1134      119     -799 
    1824     5735     5359    -1502   -10899   -19148   -26808   -32493 
  -33581   -31794   -28001   -21343   -14948   -11743   -11535   -13544 
  -14443   -11578    -8898   -10229   -12451   -11701    -8864    -6876 
   -8076   -12853   -18374   -21242   -21424   -21447   -22889   -25092 
  -26417   -25114   -19352    -8536     4974    15909    19010    13694 
    4401    -4341   -10970   -15870   -19386   -20921   -19456   -14749 
   -8456    -3582    -2330    -6121   -16053   -29530   -40519   -45053 
  -40991   -27766   -11779    -2074      727     3130     8505    12140 
    6484    -8439   -23320   -30890   -32173   -29598   -23557   -15865 
   -9429    -5958    -4901    -4847    -7108   -12552   -16936   -16838 
  -14460   -12043    -9296    -7428    -7527    -7606    -7518   -10514 
  -17829   -26953   -33517   -33455   -25470   -12604     -828     5150 
    3734    -3545   -11822   -16143   -15329   -11504    -6311     -159 
    4434     4896     1613    -4905   -13781   -23095   -31952   -38351 
  -39078   -33856   -25749   -18533   -13405    -8402    -2976       67 
    -585    -2041    -2006    -1299     -264     1340     2216      940 
   -1962    -4540    -6387    -8537   -10530   -10775    -8030    -2100 
    4803     8505     5733    -3577   -16588   -30276   -42346   -49838 
  -51451   -50293   -50403   -51948   -51429   -46092   -36304   -23924 
  -11310    -1003     5162     7264     7746     7707     5483     1689 
    -386      697     3277     3631     -297    -5915    -9953   -13024 
  -17790   -24025   -28543   -30296   -29548   -24150   -14490    -4955 
    2935     8661     8861     2666    -7301   -19275   -31456   -40356 
  -43567   -41206   -34006   -24204   -15502    -8581    -2712      191 
    -342    -1053      492     3645     5944     4982      679    -4035 
   -6185    -7344   -12689   -23941   -36647   -44750   -45279   -39127 
  -28711   -16801    -7431    -3622    -3880    -4405    -3899    -3171 
   -1080     5032    14273    21586    23250    19163    10700      375 
   -9780   -21238   -35496   -50281   -63065   -71906   -72887   -64013 
  -48186   -29562   -12768    -2190     3279     7966    12451    15571 
   17103    16205    12597     6822      -71    -5355    -7404    -8339 
  -11128   -15769   -18936   -17958   -14742   -13327   -14602   -15834 
  -14761   -12946   -14092   -18559   -22539   -23881   -23791   -22308 
  -17959   -12427   -11022   -15822   -22125   -25228   -24726   -21273 
  -16113   -11646    -9139    -7469    -3865     3466    12505    17082 
   11724    -1076   -12616   -17597   -17619   -17917   -22952   -31678 
  -38610   -40900   -38737   -30907   -18481    -8679    -7666   -13759 
  -20454   -22677   -20766   -18824   -17882   -15215   -10058    -4325 
    -397      -66    -3567    -9400   -14243   -15048   -11639    -5712 
     546     5316     7983     8762     8161     5972     1758    -3316 
   -7836   -11056   -11856   -11489   -14183   -20940   -28075   -32507 
  -34277   -35827   -39311   -43079   -43108   -37818   -29329   -20647 
  -13525    -8621    -4598      672     5668     7759     7623     5349 
    -169    -6553   -10888   -14213   -17619   -19183   -17532   -13122 
   -5968     3450    12386    17830    18083    11873       18   -13401 
  -24931   -33924   -40440   -44309   -45561   -43518   -37317   -28789 
  -21668   -17721   -16332   -16386   -17305   -19373   -22096   -22471 
  -17237    -6045     7542    16753    16600     8163    -4968   -18741 
  -26627   -24986   -17138    -6923     3937    13773    21933    26243 
   22681    11983    -1584   -15893   -28080   -33133   -29529   -20802 
  -11833    -5898    -3644    -4837    -9637   -16665   -23698   -29810 
  -33466   -32304   -26330   -18198   -11441    -8401    -8275    -8568 
   -8354    -8933   -12149   -18560   -26324   -31901   -32690   -29116 
  -24053   -19345   -13859    -6680      835     6456     7007     -291 
  -13813   -27569   -36317   -38810   -35329   -25440    -9330    10685 
   29031    39091    38087    27160    10424    -5380   -16711   -25831 
  -35382   -45885   -56274   -63906   -67492   -67951   -65212   -58221 
  -46302   -29352    -9584     8835    24024    37369    48736    55504 
   57548    56899    53530    45863    32118    10907   -15724   -42265 
  -64361   -80019   -87739   -86971   -79026   -65934   -49165   -30936 
  -14876    -2694     6778    14579    20025    20745    15400     5785 
   -6010   -18008   -26877   -31198   -31989   -29804   -25896   -22276 
  -19588   -17679   -14779    -8145      983     8617    13060    13855 
   10917     5989      397    -6145   -12991   -18812   -23526   -27335 
  -29813   -30628   -30464   -30490   -30095   -27801   -23902   -18670 
  -11096    -1463     7991    14397    14816     8370    -1572   -10185 
  -15709   -19342   -22249   -24619   -26251   -26848   -26243   -23939 
  -19405   -14232   -11224   -10014    -7327    -2382     2216     4493 
    3798     -581    -8143   -16220   -22177   -25100   -24724   -21329 
  -15625    -8140    -1068     2799     2276    -3250   -11829   -18727 
  -21626   -20521   -14480    -4857     3287     7177     6914     1132 
  -10935   -26937   -43449   -56506   -61649   -57033   -45182   -29809 
  -13142     2335    13536    18964    18380    13094     7514     5060 
    3363    -2123   -11805   -21895   -29067   -32679   -33004   -30411 
  -26395   -22952   -20495   -17739   -13639    -7993    -1419     3535 
    4030      452    -5007   -11197   -16692   -19738   -19899   -16975 
  -10927    -3172     4273     9047     8685     3161    -5434   -15614 
  -25926   -34725   -42149   -48765   -53004   -52239   -45429   -34772 
  -24025   -14173    -3935     5722    12429    15911    16986    15890 
   13037     8953     3569    -2941   -10018   -17807   -25821   -32322 
  -37216   -41474   -43879   -42256   -36301   -28444   -21947   -17058 
  -11930    -6199     -244     5557     9860    11520    10559     7941 
    5844     6116     8068     9852     9874     5922    -3013   -14330 
  -23827   -29127   -30759   -30083   -27209   -22386   -16553    -9712 
   -1832     5720    10859    12273    10988     8668     4055    -4842 
  -16483   -27444   -35685   -40832   -43440   -43911   -41968   -36988 
  -28471   -17269    -5724     3784     9810    12337    12276    10204 
    6223      342    -7621   -17620   -28281   -36917   -41283   -41319 
  -38928   -35912   -32577   -28193   -21894   -13849    -5654     1778 
    8112    11272    10101     6377      674    -8344   -19892   -30534 
  -36857   -37485   -33463   -26828   -18747    -9340      409     7354 
    9021     7136     4889     3261     3836     8572    14640    17497 
   16567    13562    10571     9720    11672    15550    19459    21036 
   18679    11354    -1263   -16593   -30569   -41581   -49310   -52742 
  -51881   -47925   -42159   -36464   -32900   -32261   -34242   -37966 
  -41764   -43902   -43240   -39029   -31291   -20775    -8390     5007 
   18997    33175    46692    58875    68502    72956    70006    59714 
   44193    25844     5842   -15240   -35782   -52783   -63209   -66579 
  -66259   -66311   -67334   -67764   -67914   -69041   -70025   -68740 
  -64607   -57889   -49335   -40570   -33624   -29721   -26865   -21472 
  -13141    -3252     7434    16729    21694    20682    12838     -936 
  -17314   -33363   -47169   -55321   -54443   -44886   -29677   -12060 
    4978    19650    31138    38379    41794    43668    44722    43744 
   39662    32004    22418    14265     8509     3768     -119    -2915 
   -6418   -12314   -19422   -25727   -31792   -39727   -49059   -56038 
  -56991   -50906   -40083   -28431   -17356    -5588     6848    19032 
   31012    42194    51363    56842    56246    49876    40660    29446 
   14475    -6138   -31640   -56638   -74934   -84735   -87395   -84498 
  -77863   -69187   -58896   -47838   -38662   -32012   -25656   -18318 
   -8066     8932    33660    62707    90004   108071   111496    99935 
   75403    38898    -5803   -49840   -85631  -108632  -115420  -107866 
  -90116   -62853   -31263    -5016    14458    29675    37936    38694 
   34532    24340     8567    -8451   -23698   -34131   -37164   -33897 
  -26819   -18396   -10974    -4481     2859     9741    10397     1840 
  -10961   -21341   -26564   -28179   -32231   -44436   -65585   -93389 
 -122500  -144814  -153140  -140537  -102710   -48845     1315    36687 
   58316    66248    59657    45301    31647    20788    12612     8689 
   10312    15310    17538    14318    10803    11867    15706    15248 
    2938   -21885   -50548   -72542   -83621   -83197   -68519   -41130 
  -13495     1616     4527     4508     5234     2423    -7354   -22523 
  -36009   -40582   -37961   -34300   -30378   -23745   -12641     2394 
   13643    13108     5086    -2012    -6132    -6815    -5604    -8193 
  -14888   -18544   -17183   -16901   -21887   -31461   -43725   -56591 
  -66795   -69685   -62073   -45012   -22660       -9    17433    26194 
   29296    33221    41554    53961    67379    77416    80264    75778 
   68733    63696    60763    56408    45243    24439    -3591   -33913 
  -59175   -71833   -72387   -68336   -63437   -56920   -52278   -54549 
  -61919   -70144   -77115   -80429   -78054   -68634   -52491   -34164 
  -15204     9764    41804    75065   103714   122016   126243   117432 
   99288    75508    47466    17675    -8512   -29255   -45087   -54370 
  -57088   -56547   -57208   -63409   -76131   -91313  -103158  -110737 
 -117577  -120401  -112487   -97478   -79933   -56413   -26582     8211 
   49738    92546   126037   145631   150987   144148   128728   103098 
   63245    12058   -41885   -90398  -129899  -160596  -180039  -184578 
 -175670  -156517  -127752   -90448   -49231    -9763    24001    45054 
   44732    25626      740   -20703   -36934   -47607   -50005   -40928 
  -20388     7296    35231    58448    76789    92244   104580   110327 
  105329    86380    52758    10808   -27512   -55355   -75281   -92104 
 -106759  -115605  -112389   -93384   -61567   -24801     9105    36539 
   57535    70009    68826    53168    27808    -1607   -25818   -37070 
  -40136   -41783   -42022   -42612   -44596   -42238   -29603    -7888 
   15312    35391    52977    60489    47380    21998    -3164   -30433 
  -56125   -71121   -80706   -88705   -89690   -85216   -79754   -73487 
  -68094   -62766   -51790   -35366   -20144    -8853      379     9857 
   21683    34962    46275    55737    65334    73232    76146    72330 
   61429    46113    31101    18505     5495   -12203   -34471   -58349 
  -82723  -105344  -120761  -124646  -115856   -95956   -69783   -44359 
  -25141   -14040    -9510    -7906    -7380    -8249    -9450    -8524 
   -4864     -942     1217     2750     6212    11924    16124    15895 
   13459    12512    14993    20376    25330    26813    23971    15882 
     997   -20201   -43740   -65629   -84577   -98657  -104755  -101380 
  -88464   -68622   -47114   -27634   -11837    -1484     2839     4498 
    9460    21356    39145    58592    75185    85548    86943    78207 
   60655    37832    15276    -2350   -14551   -23432   -30184   -35521 
  -42188   -53533   -69265   -84528   -92241   -85744   -63906   -35115 
  -11057     3779    11522    11463     -143   -21436   -45014   -64168 
  -74082   -71744   -56845   -32240    -4671    18661    34909    42531 
   38917    26435    12134      395    -7393   -12092   -17011   -23008 
  -28225   -32619   -37148   -41812   -45961   -47625   -44592   -36472 
  -24335   -10985     -369     5419     6707     5441     4043     2974 
    1018    -2721    -8528   -15564   -22413   -28365   -30928   -25097 
   -8849    13950    36501    52952    60236    56395    39507    10709 
  -23895   -56594   -82595   -98983  -102817   -94551   -77351   -51899 
  -19462    12617    37885    55988    63561    57413    43532    25032 
    -313   -27776   -50520   -66662   -74794   -73187   -63074   -48155 
  -32191   -17536    -4787     4677     6846     -732   -14813   -29627 
  -42040   -51135   -55610   -54150   -46914   -35682   -22507    -8439 
    5876    18918    29470    37764    41360    34742    17995    -2050 
  -19438   -30636   -34633   -35254   -37883   -43999   -51185   -56474 
  -57548   -52925   -43435   -31839   -20706   -10946    -2270     4554 
    7941     6818      523    -9260   -18782   -26190   -31214   -32874 
  -30292   -24112   -15887    -6041     4718    13803    19170    19209 
   13578     6587     3080     2875     3512     3012     -901    -8123 
  -16573   -26571   -37431   -45673   -50022   -50905   -47690   -39601 
  -26900   -10536     8113    26586    42772    56409    67369    73737 
   72139    60901    42602    21994     2407   -15577   -32866   -50055 
  -66605   -80142   -88006   -88752   -79099   -56346   -26775    -2424 
   10859    15786    16588    15498    13213     8371      810    -5670 
   -7868    -6237    -2893      625     4000     7420    11593    17098 
   23023    27857    30171    28584    22320    11443    -2225   -16186 
  -29885   -42606   -52019   -57848   -61609   -63212   -62363   -59572 
  -53993   -44870   -33188   -19379    -3773    11217    22717    28853 
   28151    20474     6986   -12160   -34770   -53764   -64583   -69012 
  -69871   -68193   -62984   -53248   -40494   -27367   -16584    -9647 
   -5921    -5280    -7797   -10991   -11928   -10415    -7697    -3786 
    2218     9898    17315    22729    24899    23627    20913    18652 
   16272    11491     1542   -14988   -35971   -56411   -71304   -77156 
  -73495   -62984   -47908   -29538    -9740     8739    21570    26605 
   26416    23441    20282    21180    26002    30230    30583    25625 
   15642     2803   -10772   -23494   -33657   -39697   -40575   -36016 
  -27136   -17031    -8917    -3289      543     2054     1676     1539 
    3176     8075    17800    31046    43620    50904    48669    34809 
   12268   -12438   -35315   -56270   -72551   -78350   -72726   -58871 
  -39263   -18082     -193    13219    22312    26401    26582    25275 
   23315    21345    20344    18253    11886     2674    -4978    -9967 
  -15165   -24458   -39872   -58052   -72666   -81048   -83316   -79702 
  -73043   -66447   -58591   -47617   -35500   -25040   -16842   -10720 
   -7298    -6568    -6887    -6886    -6790    -7654    -9769   -11502 
  -10579    -7646    -6751   -10958   -20223   -33627   -49743   -64700 
  -74180   -76946   -73804   -66068   -54693   -39075   -19959    -1997 
    9702    14114    13917    11614     8917     7841     7978     6541 
    4345     4441     4782     2077    -1090     -912      748    -1247 
   -8623   -19297   -31497   -43802   -54452   -63387   -69904   -69619 
  -59596   -41767   -19616     3266    23334    37345    43127    42824 
   40305    34367    22875     9011    -3420   -12327   -16763   -19436 
  -21802   -21402   -17962   -13066    -8485    -7569   -11932   -19954 
  -29907   -40793   -50464   -55759   -54616   -45312   -26525     -913 
   25604    47534    60568    63359    59631    54169    48004    40071 
   29495    15688       -6   -14830   -27170   -36026   -40986   -43465 
  -44670   -43092   -36010   -22859    -6394     8861    19785    26375 
   29523    29500    26236    19259     9363    -1465   -12417   -23163 
  -33112   -42243   -49039   -49696   -43563   -33196   -18406    -1670 
    8991    11547     9374     2608    -8596   -21272   -31629   -37800 
  -41691   -44700   -45629   -43171   -35965   -23679    -9027     3595 
