Origin Time       2016/04/16 01:25:00
Lat.              32.753
Long.             130.762
Depth. (km)       12
Mag.              7.3
Station Code      KGS016
Station Lat.      31.4162
Station Long.     130.3225
Station Height(m) 11
Record Time       2016/04/16 01:25:35
Sampling Freq(Hz) 100Hz
Duration Time(s)  102
Dir.              N-S
Scale Factor      3920(gal)/6182761
Max. Acc. (gal)   8.916
Last Correction   2016/04/16 01:25:35
Memo.             
[...]
  -32901   -32220   -30773   -28421   -25845   -24119   -23551   -23650 
  -23772   -23663   -23751   -24836   -27083   -29256   -29878   -28845 
  -26875   -24643   -23134   -23064   -23774   -24074   -23774   -23706 
  -24647   -26310   -27525   -27498   -26599   -25875   -25816   -25820 
  -25082   -23719   -22683   -22779   -24054   -25896   -27498   -28407 
  -28794   -29100   -29411   -29657   -29937   -30082   -29921   -29766 
  -29823   -30041   -30287   -30145   -29373   -28298   -27513   -27473 
  -28137   -29193   -30445   -31582   -32057   -31409   -29739   -27806 
  -26372   -25730   -25711   -25869   -26047   -26335   -26501   -26337 
  -26230   -26760   -27803   -28522   -28655   -28726   -28705   -28149 
  -27244   -26271   -25393   -25159   -25654   -26354   -27207   -28388 
  -29656   -30532   -30491   -29448   -28255   -27928   -28540   -29454 
  -29841   -28873   -26708   -24674   -23797   -24216   -25388   -26305 
  -26728   -27792   -30338   -33458   -35314   -34889   -32746   -30163 
  -27969   -26445   -25631   -25605   -26713   -28866   -31249   -33291 
  -34562   -34272   -32571   -30918   -30142   -29640   -28806   -28026 
  -27921   -28672   -30192   -31974   -32959   -32088   -29566   -27207 
  -26171   -25797   -25333   -24772   -24569   -25377   -27116   -28937 
  -30334   -31048   -30653   -29406   -28179   -27318   -26845   -26769 
  -26716   -26563   -26630   -26755   -26595   -26296   -25980   -25635 
  -25593   -26015   -26074   -24650   -22057   -20053   -20003   -21789 
  -23936   -24822   -24510   -24636   -26231   -28447   -29537   -28733 
  -26708   -24552   -23171   -22909   -23162   -23362   -23979   -25800 
  -28958   -32578   -34897   -34709   -32718   -30380   -28191   -26242 
  -25114   -25036   -25610   -26824   -28587   -30213   -31564   -32748 
  -33180   -32490   -30986   -29227   -27832   -26977   -26734   -27642 
  -29825   -32666   -35373   -37156   -37759   -37508   -36660   -35363 
  -33750   -32073   -30652   -29581   -28757   -27818   -26636   -25937 
  -26439   -27885   -29032   -28530   -26643   -25084   -24861   -25550 
  -26148   -25993   -24959   -23315   -21838   -21059   -20739   -20865 
  -21695   -23004   -24362   -25512   -26310   -26624   -26381   -25664 
  -24800   -24615   -25698   -27496   -29122   -30003   -30038   -29990 
  -30415   -30750   -30484   -29906   -29607   -30121   -31697   -33869 
  -35492   -35738   -34812   -33368   -31991   -31341   -31604   -32146 
  -32490   -32889   -33735   -34772   -35439   -35726   -35531   -34362 
  -32505   -30466   -28162   -26152   -25498   -26100   -26919   -27325 
  -27452   -27458   -27220   -26813   -26064   -24496   -22326   -20098 
  -18238   -17399   -17761   -18626   -19362   -19909   -20325   -20586 
  -20821   -21151   -21412   -21485   -21510   -21675   -22099   -22854 
  -23976   -25285   -26472   -27457   -28111   -28283   -28190   -27977 
  -27673   -27706   -28419   -29513   -30621   -31804   -32957   -33680 
  -34102   -34628   -34986   -34622   -33648   -32675   -32141   -32117 
  -32430   -32804   -33147   -33718   -34403   -34371   -33290   -31692 
  -30160   -29146   -28622   -27883   -26659   -25698   -25615   -26198 
  -26986   -27434   -27066   -26133   -25295   -24718   -24212   -23874 
  -23998   -24742   -25802   -26418   -26262   -25626   -24752   -23721 
  -22593   -21525   -20766   -20313   -19985   -19872   -20267   -21155 
  -22149   -22978   -23671   -24247   -24682   -25077   -25417   -25429 
  -25067   -24902   -25529   -26811   -28190   -29140   -29387   -29392 
  -29884   -30813   -31731   -32712   -34052   -35340   -35658   -34905 
  -33974   -33667   -34290   -35540   -36309   -35605   -33713   -31883 
  -31214   -31987   -33620   -34996   -35276   -34766   -34327   -34121 
  -33784   -33008   -31589   -29894   -28668   -28013   -27674   -27620 
  -27544   -27095   -26736   -27069   -27624   -27447   -26427   -25056 
  -23659   -22470   -21497   -20480   -19731   -20003   -21209   -22328 
  -22615   -22266   -21793   -21469   -21545   -22132   -22893   -23267 
  -22890   -22006   -21478   -21909   -23028   -24576   -26944   -29883 
  -32156   -33276   -33572   -32958   -31692   -30763   -30572   -30689 
  -30492   -29541   -28057   -27073   -27664   -29571   -31268   -31646 
  -30712   -29142   -27713   -26731   -26112   -25777   -25666   -25782 
  -26178   -26676   -26844   -26428   -25859   -25902   -26747   -28077 
  -29487   -30313   -30236   -29916   -29869   -29799   -29385   -28386 
  -26499   -24155   -22637   -22787   -24259   -26211   -28005   -29255 
  -30038   -30784   -31265   -30830   -29912   -29473   -29514   -29641 
  -29924   -30392   -30629   -30466   -30281   -30389   -30985   -31992 
  -32564   -32083   -31007   -29831   -28629   -27713   -27437   -27574 
  -27430   -26637   -25671   -25291   -25798   -26945   -27967   -27997 
  -26867   -25007   -23115   -22273   -22958   -24218   -25016   -25311 
  -25465   -25890   -26856   -28094   -29024   -29096   -27937   -25739 
  -23542   -22523   -22940   -24349   -26238   -27996   -29226   -29996 
  -30296   -29838   -28734   -27701   -27144   -26871   -26705   -26510 
  -26375   -26793   -27765   -28465   -28282   -27546   -27034   -27315 
  -28592   -30358   -31573   -31803   -31376   -30554   -29325   -27837 
  -26675   -26441   -27228   -28613   -30005   -31089   -31655   -31368 
  -30372   -29280   -28367   -27647   -27209   -26938   -26633   -26627 
  -27447   -28700   -29290   -28636   -26867   -24513   -22557   -21787 
  -21918   -22108   -22161   -22472   -23187   -24244   -25600   -26974 
  -27991   -28411   -28212   -27528   -26517   -25480   -24805   -24786 
  -25354   -25882   -25919   -25701   -25563   -25598   -25830   -26120 
  -26089   -25583   -25231   -25928   -27604   -29258   -30205   -30585 
  -30837   -31200   -31661   -32037   -31967   -31337   -30645   -30421 
  -30620   -30776   -30398   -29400   -28312   -27913   -28552   -29639 
  -30041   -29308   -28040   -26905   -26058   -25465   -25011   -24556 
  -24421   -25092   -26194   -26710   -26237   -25298   -24520   -24259 
  -24840   -26121   -27207   -27429   -27018   -26586   -26555   -26901 
  -27192   -27102   -26762   -26638   -27098   -28035   -28937   -29231 
  -28799   -28252   -28234   -28829   -29741   -30471   -30632   -30400 
  -30238   -30221   -30084   -29866   -29772   -29663   -29516   -29747 
  -30598   -31717   -32494   -32590   -32107   -31571   -31540   -31921 
  -32308   -32584   -32529   -31890   -30865   -29772   -28767   -27948 
  -27410   -27126   -26822   -26399   -26007   -25782   -26119   -27101 
  -27928   -27942   -27208   -26114   -25066   -24310   -23943   -23753 
  -23249   -22409   -21880   -22111   -22874   -23664   -24105   -24299 
  -24837   -25937   -27022   -27478   -27317   -26964   -26774   -26957 
  -27358   -27423   -27039   -26661   -26572   -26771   -27073   -27208 
  -27334   -28002   -29277   -30517   -31120   -30746   -29278   -27353 
  -26029   -25769   -26390   -27347   -28122   -28865   -30060   -31615 
  -32784   -32898   -32181   -31506   -31461   -31969   -32350   -32030 
  -31531   -31763   -32483   -32615   -31678   -30063   -28381   -27314 
  -27347   -28093   -28655   -28576   -27920   -27039   -26419   -26204 
  -26088   -25733   -24961   -23919   -23068   -22605   -22283   -21921 
  -21744   -22178   -23477   -25398   -26972   -27095   -25789   -24326 
  -23893   -24510   -25314   -25625   -25390   -25011   -25022   -25602 
  -26595   -27710   -28488   -28662   -28353   -27768   -27242   -27110 
  -27267   -27420   -27561   -27723   -27676   -27337   -27183   -27602 
  -28307   -28887   -29201   -29257   -29281   -29699   -30710   -31945 
  -32867   -33285   -33184   -32465   -31081   -29272   -27646   -26952 
  -27535   -28821   -29885   -30392   -30332   -29936   -30131   -31463 
  -33139   -33982   -33437   -31793   -30069   -29447   -30145   -30964 
  -30780   -29645   -28132   -26979   -26754   -27118   -27140   -26396 
  -25413   -24811   -24695   -25070   -25709   -25895   -25255   -24350 
  -23789   -23414   -22914   -22419   -22149   -22265   -22883   -23681 
  -23882   -23228   -22554   -22811   -23972   -25329   -26261   -26526 
  -26338   -26179   -26377   -26823   -27085   -27013   -26987   -27284 
  -27726   -28330   -29477   -31010   -32359   -33238   -33225   -32075 
  -30617   -30035   -30608   -31617   -32252   -32307   -32174   -32504 
  -33544   -34793   -35593   -35683   -35215   -34493   -33678   -32680 
  -31286   -29662   -28568   -28668   -29805   -31040   -31408   -30568 
  -28777   -26835   -25682   -25483   -25709   -25807   -25521   -25142 
  -25202   -25858   -26679   -26990   -26643   -26099   -25801   -25757 
  -25549   -24808   -23667   -22857   -23236   -24954   -27298   -29159 
  -29676   -28851   -27467   -26352   -25641   -24965   -24268   -23752 
  -23617   -24248   -25667   -27277   -28654   -29781   -30535   -30517 
  -29550   -27977   -26351   -25318   -25400   -26390   -27612   -28698 
  -29474   -29600   -29009   -28238   -27787   -27546   -27207   -26864 
  -26761   -26893   -27160   -27508   -27868   -27965   -27400   -26347 
  -25589   -25644   -26516   -27964   -29493   -30518   -30987   -31522 
  -32456   -33245   -33262   -32413   -31032   -29832   -29360   -29437 
  -29714   -30099   -30412   -30377   -30105   -30093   -30481   -30824 
  -30754   -30168   -28987   -27399   -25897   -24884   -24610   -25206 
  -26421   -27693   -28553   -28789   -28428   -27763   -27248   -26929 
  -26322   -25222   -23970   -23086   -23099   -24239   -25913   -26909 
  -26544   -25157   -23560   -22742   -23196   -24197   -24783   -24830 
  -24640   -24612   -25192   -26370   -27603   -28564   -29395   -30138 
  -30628   -30850   -30828   -30557   -30365   -30712   -31348   -31479 
  -31012   -30566   -30530   -31052   -32050   -32941   -33370   -33769 
  -34479   -35048   -35027   -34537   -33731   -32862   -32352   -31912 
  -30750   -28801   -26864   -25889   -26420   -28242   -30378   -31576 
  -31137   -29515   -27874   -26987   -26490   -25336   -23199   -20961 
  -19867   -20404   -21896   -23208   -23532   -22911   -22312   -22353 
  -22467   -21854   -20594   -19621   -19913   -21626   -23772   -25066 
  -25176   -24630   -24132   -24228   -24763   -25053   -24981   -25175 
  -26241   -28344   -31076   -33438   -34426   -34007   -33155   -32601 
  -32206   -31741   -31385   -31214   -31020   -30635   -29861   -28661 
  -27553   -27150   -27600   -28655   -29869   -30682   -30726   -30216 
  -29682   -29318   -28919   -28253   -27412   -26867   -27088   -28060 
  -29221   -30028   -30427   -30516   -30219   -29415   -28023   -26235 
  -24764   -24267   -24649   -25301   -25637   -25538   -25515   -26091 
  -27051   -27660   -27502   -26786   -26018   -25660   -25830   -26365 
  -27111   -27783   -28006   -27725   -27182   -26583   -25905   -25130 
  -24485   -24264   -24630   -25466   -26328   -26889   -27206   -27376 
  -27393   -27270   -26882   -26117   -25440   -25627   -26792   -28285 
  -29367   -29603   -29046   -28335   -28227   -28929   -29967   -30718 
  -30816   -30191   -29283   -28728   -28687   -28971   -29435   -30014 
  -30613   -31038   -31177   -31225   -31526   -32069   -32419   -32292 
  -31935   -31876   -32362   -33168   -33891   -34151   -33843   -33351 
  -33098   -33096   -33026   -32470   -31256   -29665   -28222   -27266 
  -26721   -26255   -25716   -25282   -25265   -25732   -26189   -26163 
  -25763   -25262   -24823   -24490   -24256   -24239   -24450   -24879 
  -25592   -26141   -25897   -24912   -23750   -22869   -22323   -21937 
  -21503   -20931   -20687   -21199   -22062   -22890   -23698   -24362 
  -24948   -25656   -26279   -26491   -26066   -25050   -24083   -23919 
  -24675   -25674   -26197   -26264   -26309   -26692   -27476   -28185 
  -28429   -28456   -28561   -28914   -29714   -30635   -31021   -30970 
  -31251   -32224   -33307   -33695   -33361   -32761   -32140   -31660 
  -31383   -31103   -30797   -30872   -31501   -32176   -32279   -31594 
  -30291   -28813   -27524   -26635   -26400   -26815   -27584   -28499 
  -29351   -29793   -29605   -29042   -28482   -27819   -26915   -25818 
  -24310   -22450   -21021   -20652   -21266   -22293   -22994   -23102 
  -23119   -23656   -24804   -26101   -26904   -27057   -27066   -27428 
  -28014   -28205   -27625   -26493   -25231   -24327   -24312   -25223 
  -26483   -27541   -28314   -28921   -29443   -30016   -30613   -30862 
  -30547   -29957   -29551   -29593   -30223   -31441   -32895   -34150 
  -35017   -35413   -35336   -34857   -34212   -33884   -34024   -34281 
  -34534   -34879   -35085   -34874   -34286   -33314   -31721   -29458 
  -26915   -24818   -23837   -24043   -24845   -25562   -26023   -26558 
  -27242   -27711   -27910   -28073   -28257   -28511   -28838   -28809 
  -27869   -26028   -23892   -22179   -21438   -21765   -22647   -23617 
  -24692   -25891   -26973   -27540   -27188   -25865   -24093   -22673 
  -22157   -22511   -23244   -23842   -24258   -24993   -26344   -27791 
  -28609   -28705   -28555   -28687   -29161   -29544   -29464   -29003 
  -28762   -29233   -30198   -31391   -32602   -33179   -32777   -31731 
  -30428   -29170   -28139   -27291   -26680   -26726   -27920   -30044 
  -32138   -33588   -34488   -35129   -35843   -36663   -36940   -36049 
  -34166   -31811   -29255   -26776   -24901   -23913   -23638   -24030 
  -25253   -27115   -29039   -30455   -31009   -30672   -29544   -27553 
  -24698   -21257   -17726   -14975   -13817   -14324   -16033   -18422 
  -21218   -24394   -27675   -30204   -31024   -29915   -27626   -25263 
  -23495   -22578   -22754   -23957   -25827   -28326   -31317   -34020 
  -35788   -36622   -36787   -36702   -36526   -35577   -33324   -30483 
  -28361   -27917   -29155   -31040   -32240   -32018   -30909   -30022 
  -29569   -29045   -28202   -27253   -26759   -27208   -28342   -29405 
  -30247   -31337   -32738   -33804   -33754   -32424   -30174   -27300 
  -24362   -22214   -21274   -21346   -21800   -22068   -22092   -22026 
  -22135   -22759   -23656   -24092   -23634   -22402   -20849   -19379 
  -18359   -18213   -18974   -20394   -22325   -24274   -25538   -26125 
  -26588   -27217   -28246   -30007   -32144   -33676   -34087   -33523 
  -32310   -30894   -29785   -29266   -29344   -30021   -31374   -33227 
  -35110   -36568   -37214   -36835   -35571   -33719   -31599   -29634 
  -28153   -27305   -27377   -28619   -30487   -31740   -31562   -30184 
  -28391   -26776   -25599   -24955   -24892   -25562   -26853   -28122 
  -28632   -28008   -26692   -25738   -25782   -26595   -27599   -28469 
  -29039   -29312   -29631   -29987   -29926   -29367   -28685   -28213 
  -27876   -27449   -26899   -26231   -25657   -25567   -25991   -26618 
  -27106   -27231   -26964   -26457   -26067   -26181   -26969   -28296 
  -29732   -30769   -31074   -30460   -29064   -27603   -26692   -26234 
  -26029   -25970   -25749   -25444   -25579   -26228   -27038   -27802 
  -28437   -28923   -29331   -29703   -29918   -29790   -29238   -28150 
  -26615   -25340   -25063   -25832   -27313   -29212   -31024   -32183 
  -32621   -32562   -32101   -31394   -30786   -30384   -30043   -29814 
  -29644   -29216   -28816   -29272   -30628   -32014   -32718   -32454 
  -31215   -29556   -28181   -27191   -26296   -25373   -24598   -24100 
  -23850   -23993   -24529   -25143   -25653   -25946   -26032   -26093 
  -25892   -24857   -22971   -21056   -19976   -19834   -20192   -20472 
  -20332   -20294   -21025   -22017   -22344   -22021   -21705   -21997 
  -23211   -25040   -26648   -27699   -28663   -29687   -30398   -30735 
  -30642   -29908   -29006   -28695   -28904   -29099   -29364   -30287 
  -32026   -34159   -36030   -37022   -37151   -37022   -36894   -36651 
  -36392   -36329   -36454   -36510   -36307   -35990   -35788   -35780 
  -35962   -36262   -36546   -36585   -36084   -34988   -33526   -31865 
  -30157   -28428   -26140   -23080   -20262   -18749   -18771   -20237 
  -22508   -24190   -24456   -23700   -22462   -21088   -20132   -19691 
  -19112   -18206   -17611   -17690   -18288   -19410   -20961   -22235 
  -22694   -22552   -22195   -22025   -22577   -23985   -25778   -27517 
  -29053   -30114   -30587   -31077   -32082   -33308   -34307   -34889 
  -34943   -34405   -33548   -32967   -32912   -33114   -33333   -33454 
  -33346   -33021   -32666   -32285   -31589   -30374   -28759   -27083 
  -25657   -24539   -23680   -23188   -23335   -24405   -26302   -28363 
  -29866   -30570   -30706   -30550   -30181   -29672   -28944   -27842 
  -26820   -26644   -27408   -28509   -29183   -28844   -27536   -26102 
  -25183   -24392   -23235   -21897   -20800   -20428   -21275   -23298 
  -25810   -28066   -29643   -30321   -30048   -29079   -27841   -26637 
  -25472   -24253   -23207   -22993   -24245   -26812   -29719   -31937 
  -32758   -32029   -30425   -28976   -28260   -28167   -28298   -28333 
  -28203   -28277   -28943   -29883   -30418   -30115   -28964   -27679 
  -27151   -27335   -27558   -27569   -27283   -26453   -25221   -24062 
  -23329   -23276   -24129   -25702   -27198   -28023   -28381   -28542 
  -28369   -27704   -26462   -24714   -23049   -22367   -23235   -25409 
  -28022   -30267   -31635   -32047   -31955   -31712   -31321   -31016 
  -31079   -31260   -31202   -31026   -31139   -31659   -32085   -31759 
  -30560   -28968   -27554   -26499   -25780   -25390   -25196   -25126 
  -25310   -25723   -26169   -26748   -27542   -28178   -28497   -28540 
  -27808   -26059   -24058   -22542   -21609   -21260   -21410   -21831 
  -22397   -22832   -22801   -22448   -22205   -22377   -22882   -23275 
  -23241   -22847   -22471   -22674   -23708   -25238   -26776   -28023 
  -28941   -29815   -30929   -32288   -33755   -35006   -35601   -35440 
  -34922   -34508   -34283   -34143   -33982   -33696   -33456   -33584 
  -34151   -34965   -35651   -36008   -36050   -35697   -35083   -34432 
  -33623   -32706   -32033   -31635   -31321   -31104   -30832   -29954 
  -28336   -26473   -24776   -23522   -23040   -23320   -23973   -24574 
  -24704   -24128   -23135   -22528   -23022   -24458   -25894   -26406 
  -25730   -24510   -23551   -22830   -21927   -20785   -19539   -18430 
  -17899   -18154   -18910   -19902   -21129   -22434   -23621   -24786 
  -25804   -26201   -25894   -25407   -25474   -26493   -28011   -29151 
  -29672   -30150   -31188   -32803   -34569   -35671   -35240   -33540 
  -31824   -30809   -30426   -30587   -31239   -32028   -32754   -33625 
  -34457   -34795   -34792   -34792   -34706   -34378   -33859   -33250 
  -32829   -33133   -34357   -35852   -36561   -35892   -34046   -31741 
  -29726   -28373   -27802   -28009   -28679   -29457   -30209   -30807 
  -31061   -30780   -29880   -28419   -26560   -24812   -23820   -23698 
  -24135   -24836   -25491   -25833   -25873   -25665   -24979   -23590 
  -21729   -19932   -18716   -18387   -18684   -19045   -19607   -20952 
  -22904   -24633   -25539   -25526   -24984   -24497   -24336   -24380 
  -24533   -24977   -25831   -26972   -28323   -29844   -31354   -32699 
  -33868   -34740   -35032   -34776   -34369   -34069   -33922   -33896 
  -33858   -33759   -33666   -33388   -32534   -31027   -29110   -27118 
  -25512   -24629   -24505   -25092   -26223   -27544   -28645   -29172 
