Origin Time       2016/04/16 01:25:00
Lat.              32.753
Long.             130.762
Depth. (km)       12
Mag.              7.3
Station Code      KGS022
Station Lat.      31.2804
Station Long.     131.0504
Station Height(m) 12
Record Time       2016/04/16 01:25:38
Sampling Freq(Hz) 100Hz
Duration Time(s)  91
Dir.              E-W
Scale Factor      3920(gal)/6182761
Max. Acc. (gal)   3.587
Last Correction   2016/04/16 01:25:38
Memo.             
[...]
    2349     2706     3067     3202     3083     2870     2555     2166 
    1883     1790     1799     1858     1975     2062     2107     2139 
    2103     2080     2158     2305     2600     3107     3751     4472 
    5055     5168     4837     4308     3737     3365     3260     3223 
    3167     2917     2406     1870     1404     1139     1158     1248 
    1423     1782     2162     2551     2937     3028     2757     2304 
    1857     1685     1922     2388     2800     2969     2841     2559 
    2336     2179     2073     2087     2187     2292     2291     2108 
    1899     1796     1740     1670     1546     1393     1340     1413 
    1496     1583     1698     1684     1444     1064      663      311 
      45     -117     -248     -365     -362     -257      -53      323 
     779     1291     1963     2720     3398     3822     3847     3587 
    3211     2782     2505     2487     2523     2388     1886     1005 
      97     -592     -975     -871     -339      345      947     1205 
    1142     1026      977     1238     1856     2425     2768     2812 
    2443     1866     1308      928      931     1311     1852     2332 
    2582     2598     2534     2505     2591     2761     2880     3029 
    3344     3776     4224     4520     4582     4570     4520     4276 
    3854     3372     2827     2238     1735     1389     1156     1027 
     951      791      543      286      144      280      699     1273 
    1830     2307     2702     2906     2944     2992     3118     3295 
    3534     3778     3838     3716     3576     3433     3285     3235 
    3385     3723     4117     4477     4743     4882     4885     4724 
    4491     4292     4077     3767     3356     2890     2413     1986 
    1699     1518     1409     1461     1630     1801     2032     2356 
    2678     2949     3047     2901     2758     2806     2989     3170 
    3221     3138     2920     2732     2823     3095     3464     3908 
    4234     4446     4535     4308     3867     3508     3373     3409 
    3434     3359     3268     3157     2950     2669     2310     1880 
    1465     1105      847      705      645      677      660      385 
     -26     -265     -171      201      733     1359     2011     2676 
    3362     3963     4489     4975     5264     5416     5577     5626 
    5614     5636     5468     5039     4512     3981     3541     3403 
    3646     3971     4091     3806     3063     2282     1860     1849 
    2199     2619     2700     2269     1379      353     -415     -795 
    -794     -563     -364     -361     -574     -797     -718     -259 
     423     1020     1354     1501     1502     1386     1277     1263 
    1336     1404     1319     1073      898      938     1205     1792 
    2552     3115     3339     3308     3196     3153     3178     3312 
    3604     3885     3970     3815     3451     3014     2617     2205 
    1847     1788     1951     2050     2025     1943     1910     1961 
    1971     1969     2178     2606     3067     3457     3753     3949 
    3995     4012     4170     4435     4826     5225     5406     5349 
    4933     4187     3488     2978     2636     2528     2568     2640 
    2763     2936     3139     3362     3480     3408     3252     3083 
    3017     3193     3529     3897     4052     3737     3097     2442 
    1974     1801     1876     2086     2307     2350     2277     2328 
    2496     2770     3155     3428     3498     3483     3497     3615 
    3837     4090     4185     4043     3783     3344     2704     2169 
    1885     1711     1536     1319     1134     1010      877      872 
    1144     1616     2147     2637     3058     3254     3007     2522 
    2099     1752     1553     1513     1384     1062      615       48 
    -490     -756     -838     -912     -916     -863     -725     -438 
    -166      159      668     1134     1469     1811     2209     2597 
    2888     3060     3056     2917     2802     2731     2751     2904 
    2960     2714     2299     1992     1948     2166     2548     3018 
    3448     3631     3512     3209     2882     2648     2435     2145 
    1839     1569     1455     1671     2170     2737     3193     3468 
    3603     3714     3859     3993     4111     4210     4182     4045 
    3985     3967     3871     3707     3339     2699     1959     1187 
     420     -141     -357     -232      146      556      882     1207 
    1463     1572     1663     1746     1745     1706     1703     1749 
    1746     1748     1914     2130     2313     2542     2728     2864 
    3098     3397     3739     4080     4225     4220     4153     3867 
    3400     2905     2360     1853     1518     1321     1226     1163 
    1086     1144     1411     1796     2133     2164     1863     1399 
     877      408      140      134      213      254      348      432 
     450      515      716     1150     1770     2413     3054     3611 
    3924     3957     3828     3750     3907     4239     4472     4390 
    4016     3529     3120     2983     3146     3386     3488     3315 
    2811     2122     1433      843      432      117     -251     -633 
    -984    -1186     -996     -490       57      500      800     1071 
    1481     2067     2832     3763     4613     5089     5201     5087 
    4840     4653     4715     4935     5110     5147     4975     4617 
    4273     4061     3952     3874     3682     3301     2802     2190 
    1438      686      124     -232     -377     -273      -30      272 
     684     1174     1661     2158     2628     2932     3138     3429 
    3793     4169     4484     4622     4593     4435     4172     3950 
    3950     4119     4319     4608     4955     5212     5350     5389 
    5358     5165     4665     3893     3044     2403     2073     1852 
    1600     1398     1336     1413     1616     1997     2594     3268 
    3880     4469     4985     5357     5638     5767     5766     5814 
    5824     5741     5681     5488     5193     4966     4590     4215 
    4128     4029     3763     3435     3081     2902     2955     3027 
    3112     3184     3080     2930     2868     2877     3000     3164 
    3313     3428     3334     3010     2615     2256     2015     1954 
    1981     1948     1881     1872     1980     2270     2651     3023 
    3421     3764     3985     4169     4382     4651     4885     4930 
    4804     4552     4122     3551     2989     2604     2476     2454 
    2437     2455     2407     2375     2534     2781     3054     3342 
    3594     3824     3943     3943     3979     4047     4034     3896 
    3635     3373     3247     3211     3188     3170     3189     3115 
    2711     2134     1645     1230      969      957     1097     1341 
    1574     1689     1727     1613     1328     1005      679      424 
     354      454      592      602      425      210      106       74 
     119      396      937     1602     2223     2710     3084     3368 
    3504     3540     3683     3964     4213     4335     4353     4281 
    4092     3890     3804     3853     4087     4441     4785     5116 
    5420     5686     5811     5748     5660     5477     5203     5010 
    4721     4263     3820     3405     3029     2742     2568     2627 
    2935     3321     3599     3737     3845     3909     3882     3819 
    3658     3389     3164     2986     2827     2781     2833     2865 
    2856     2791     2620     2520     2618     2737     2898     3166 
    3374     3517     3649     3824     4174     4551     4788     4962 
    5027     4977     4922     4758     4499     4352     4224     4068 
    4079     4173     4237     4293     4218     4046     3881     3713 
    3753     4053     4356     4619     4881     5135     5449     5789 
    6160     6615     7026     7324     7522     7518     7318     7051 
    6664     6111     5578     5156     4861     4853     5028     5121 
    5129     4978     4547     4070     3760     3579     3560     3631 
    3550     3247     2722     2004     1332      776      249      -67 
    -157     -262     -363     -369     -208      241      842     1365 
    1754     1961     2034     2145     2307     2610     3158     3592 
    3654     3560     3386     3112     2788     2357     1983     1929 
    2061     2176     2267     2296     2263     2215     2136     2177 
    2511     2958     3301     3490     3484     3353     3131     2751 
    2341     2020     1703     1496     1516     1576     1556     1514 
    1535     1661     1864     2128     2415     2687     2927     3095 
    3199     3277     3354     3476     3517     3223     2645     2065 
    1572     1165      916      763      555      211     -250     -704 
   -1009    -1012     -708     -260      293      925     1537     2075 
    2476     2721     2857     2920     3069     3413     3770     3995 
    4034     3837     3500     3122     2792     2663     2691     2687 
    2607     2441     2112     1691     1413     1413     1641     1958 
    2266     2610     2992     3376     3763     4037     4203     4346 
    4290     3978     3616     3312     3139     3042     2823     2554 
    2324     2043     1761     1587     1605     1853     2237     2629 
    2936     3156     3376     3634     3845     3871     3681     3378 
    3104     2973     2945     2952     3015     3018     2863     2761 
    2796     2837     3013     3355     3628     3876     4216     4534 
    4730     4725     4430     3978     3637     3530     3629     3862 
    4171     4456     4637     4769     4875     5002     5225     5473 
    5700     5895     5889     5608     5293     5111     4959     4770 
    4480     4013     3564     3223     2885     2667     2694     2904 
    3155     3359     3598     3842     3957     3978     3973     3952 
    3833     3578     3375     3319     3273     3082     2780     2525 
    2318     2079     1840     1635     1503     1434     1334     1188 
    1039      954      988     1019      937      869      955     1262 
    1818     2546     3306     3867     4036     3953     3728     3326 
    2974     2857     2915     3022     2914     2501     2048     1719 
    1569     1651     1822     1943     2001     2006     2000     1914 
    1731     1604     1535     1452     1346     1182     1032      926 
     782      666      626      594      569      604      729      985 
    1392     1878     2358     2837     3290     3546     3526     3332 
    3061     2902     2958     3118     3301     3389     3327     3196 
    2980     2749     2785     3119     3535     3963     4312     4451 
    4433     4229     3807     3359     2898     2358     1924     1644 
    1475     1562     1871     2173     2403     2543     2574     2567 
    2427     2098     1745     1424     1184     1096     1086     1147 
    1356     1634     1842     2005     2206     2441     2598     2600 
    2573     2640     2698     2660     2580     2528     2499     2394 
    2172     1951     1906     2002     2034     1984     1985     2119 
    2398     2748     3077     3376     3679     3887     3855     3663 
    3464     3258     3001     2707     2368     1920     1367      732 
     133     -234     -380     -366     -190       44      289      615 
     996     1351     1665     1885     1979     1943     1673     1270 
     974      833      897     1140     1422     1770     2130     2325 
    2361     2325     2329     2498     2781     3044     3323     3663 
    4004     4272     4360     4253     4082     3927     3836     3761 
    3636     3574     3568     3521     3479     3378     3235     3178 
    3095     3012     3117     3277     3443     3765     4065     4179 
    4250     4284     4286     4417     4700     5171     5812     6362 
    6735     6977     7019     6969     6913     6762     6527     6193 
    5684     5036     4308     3580     2961     2511     2292     2270 
    2323     2372     2340     2325     2478     2668     2843     3080 
    3240     3269     3201     3023     2868     2761     2610     2496 
    2472     2550     2776     2984     3035     3058     3108     3119 
    3082     3019     3022     3142     3153     2934     2673     2413 
    2189     2140     2205     2404     2754     3061     3335     3563 
    3586     3490     3277     2902     2503     2062     1668     1423 
    1056      520      -24     -574     -966    -1105    -1094     -866 
    -445       35      565     1094     1608     2116     2467     2558 
    2509     2490     2511     2551     2720     3021     3334     3547 
    3498     3260     3047     2884     2806     2763     2588     2344 
    2072     1719     1397     1134      892      651      278     -105 
    -234     -178      -60       54       80       66       19     -106 
    -176      -38      290      738     1191     1493     1629     1670 
    1641     1623     1697     1763     1769     1778     1822     1902 
    1940     1909     1880     1822     1684     1507     1363     1351 
    1556     1881     2179     2419     2546     2561     2551     2533 
    2569     2689     2761     2695     2493     2128     1594     1060 
     688      494      525      708      913     1209     1562     1840 
    2111     2371     2544     2710     2855     2892     2828     2681 
    2532     2393     2211     2042     1947     1949     2077     2380 
    2850     3354     3761     4022     4179     4309     4383     4326 
    4241     4180     3866     3269     2643     1986     1343      752 
      94     -500    -1012    -1589    -2112    -2528    -2851    -2958 
   -2919    -2851    -2636    -2270    -1912    -1577    -1230     -909 
    -570     -153      265      651     1052     1384     1573     1745 
    1981     2231     2515     2783     2851     2712     2545     2409 
    2276     2157     2013     1839     1665     1429     1202     1102 
     995      843      790      774      699      705      859     1015 
    1121     1236     1368     1506     1621     1787     2078     2360 
    2561     2713     2827     2921     2966     3025     3146     3219 
    3238     3226     3175     3201     3348     3521     3632     3700 
    3805     3942     4128     4377     4610     4820     4979     4954 
    4719     4379     4017     3677     3418     3298     3252     3133 
    2963     2861     2768     2621     2521     2530     2702     2962 
    3104     3207     3369     3446     3461     3509     3580     3746 
    3978     4105     4137     4143     4075     3960     3890     3892 
    3936     3963     3941     3938     3978     3965     3937     3982 
    4047     4088     4056     3943     3881     3910     4081     4434 
    4680     4724     4800     4822     4670     4537     4491     4518 
    4603     4619     4598     4579     4398     4117     3929     3834 
    3848     3876     3862     3946     4007     3893     3728     3603 
    3554     3589     3609     3606     3645     3636     3471     3237 
    3089     3020     2958     2909     2792     2593     2428     2316 
    2251     2271     2456     2707     2859     3059     3382     3709 
    3932     3956     3904     3878     3816     3743     3706     3732 
    3779     3712     3488     3143     2730     2250     1773     1435 
    1225     1110     1051     1041     1214     1474     1616     1728 
    1916     2120     2281     2410     2581     2804     2968     3012 
    3005     2921     2666     2341     2118     2033     2025     2026 
    2012     1954     1803     1594     1442     1336     1207     1014 
     714      383      124      -95     -284     -433     -559     -580 
    -485     -396     -227      115      490      888     1289     1527 
    1704     1936     2096     2166     2188     2147     2117     2102 
    1959     1690     1441     1299     1242     1220     1323     1574 
    1790     1906     1977     2050     2161     2248     2232     2085 
    1889     1819     1853     1832     1776     1771     1787     1736 
    1537     1220      882      582      439      515      688      877 
    1103     1358     1591     1712     1767     1954     2309     2645 
    2886     3118     3316     3479     3629     3651     3547     3373 
    3107     2838     2689     2630     2578     2545     2597     2707 
    2753     2702     2705     2854     3032     3216     3449     3617 
    3672     3701     3689     3617     3571     3565     3559     3609 
    3785     4018     4227     4407     4557     4725     4911     5015 
    5130     5352     5531     5619     5614     5394     5061     4831 
    4688     4581     4566     4600     4609     4564     4366     4107 
    3989     3837     3598     3511     3501     3442     3393     3404 
    3571     3786     3871     3982     4212     4464     4735     4975 
    5134     5304     5474     5517     5425     5283     5184     5168 
    5165     5109     5066     5098     5085     4941     4801     4733 
    4630     4455     4256     4003     3678     3357     3049     2761 
    2593     2520     2448     2429     2457     2454     2511     2651 
    2771     2895     3070     3241     3301     3235     3219     3350 
    3498     3559     3516     3420     3343     3293     3214     2990 
    2734     2614     2503     2387     2330     2279     2287     2300 
    2219     2232     2367     2377     2318     2286     2151     2017 
    2001     1932     1782     1709     1771     1913     2096     2303 
    2532     2762     2835     2691     2528     2488     2573     2746 
    2902     3005     3050     2951     2752     2580     2530     2714 
    3046     3310     3495     3568     3417     3080     2633     2212 
    1954     1775     1568     1334     1072      771      407       74 
    -121     -187      -73      184      412      584      839     1166 
    1452     1782     2161     2479     2777     3031     3210     3421 
    3614     3708     3780     3755     3522     3303     3252     3260 
    3324     3428     3418     3309     3149     2933     2774     2725 
    2731     2787     2882     2932     2866     2715     2519     2352 
    2358     2480     2590     2732     2855     2885     2911     3016 
    3241     3564     3863     4067     4233     4413     4512     4483 
    4454     4463     4467     4494     4481     4342     4165     3973 
    3678     3380     3162     2905     2667     2580     2602     2751 
    2980     3100     3149     3225     3280     3388     3555     3676 
    3838     3984     3967     3882     3752     3551     3382     3299 
    3313     3386     3429     3504     3653     3738     3740     3706 
    3581     3440     3335     3154     2983     2878     2737     2662 
    2659     2632     2621     2578     2522     2597     2766     2959 
    3145     3227     3284     3395     3440     3433     3432     3446 
    3505     3514     3437     3332     3203     3106     3013     2880 
    2821     2858     2931     2947     2794     2621     2520     2376 
    2276     2298     2372     2505     2601     2612     2660     2695 
    2652     2658     2768     2870     2856     2793     2772     2714 
    2606     2513     2385     2287     2296     2296     2300     2384 
    2490     2503     2366     2233     2196     2168     2185     2226 
    2219     2262     2306     2234     2172     2225     2279     2295 
    2352     2421     2423     2336     2211     2120     2013     1877 
