Origin Time       2016/04/16 01:25:00
Lat.              32.753
Long.             130.762
Depth. (km)       12
Mag.              7.3
Station Code      KGS004
Station Lat.      32.0145
Station Long.     130.1927
Station Height(m) 3
Record Time       2016/04/16 01:25:24
Sampling Freq(Hz) 100Hz
Duration Time(s)  184
Dir.              N-S
Scale Factor      3920(gal)/6182761
Max. Acc. (gal)   44.882
Last Correction   2016/04/16 01:25:24
Memo.             
[...]
   -4293    -4317    -4377    -4259    -4206    -4216    -4273    -4323 
   -4148    -4098    -4168    -4142    -4116    -3958    -3910    -3972 
   -3892    -3981    -3979    -3809    -3884    -3899    -3803    -3857 
   -3912    -3878    -3893    -4020    -4023    -3997    -4150    -4255 
   -4392    -4512    -4470    -4548    -4601    -4617    -4717    -4646 
   -4579    -4526    -4406    -4347    -4230    -4202    -4132    -4003 
   -4058    -3781    -3431    -3400    -3280    -3399    -3591    -3419 
   -3346    -3323    -3326    -3505    -3546    -3578    -3653    -3626 
   -3680    -3673    -3540    -3439    -3485    -3817    -4002    -3809 
   -3639    -3536    -3515    -3600    -3708    -3942    -4027    -3663 
   -3226    -3234    -3585    -3902    -4259    -4490    -4418    -4401 
   -4348    -4380    -4763    -4987    -5097    -5203    -5052    -5003 
   -4936    -4717    -4704    -4632    -4366    -4071    -3938    -3969 
   -3778    -3741    -3866    -3718    -3859    -4002    -3780    -3848 
   -3941    -3896    -3992    -4015    -4126    -4348    -4382    -4390 
   -4543    -4719    -4790    -4908    -5062    -4912    -4547    -4300 
   -4263    -4316    -4247    -4197    -4236    -4031    -3590    -3325 
   -3498    -3796    -3893    -3876    -3597    -3313    -3522    -3964 
   -4704    -5477    -5496    -5433    -5831    -6146    -6127    -5477 
   -4567    -4158    -3918    -3660    -3603    -3786    -4251    -4564 
   -4463    -4125    -3943    -4343    -4520    -4005    -3517    -2976 
   -2492    -2454    -2522    -2786    -3160    -3263    -3365    -3508 
   -3353    -2908    -2700    -3007    -3362    -3295    -2694    -2207 
   -2407    -2803    -3309    -3835    -3775    -3478    -3348    -3255 
   -3061    -2742    -2719    -2847    -2904    -3220    -3423    -3502 
   -3787    -4182    -5148    -6336    -6901    -6934    -6410    -5944 
   -6053    -5833    -5433    -5665    -6144    -6275    -5782    -5232 
   -5504    -6226    -6502    -6033    -5568    -5588    -5108    -4197 
   -3666    -3252    -3266    -3677    -3516    -2864    -2455    -2741 
   -3466    -3912    -3810    -3351    -2900    -2634    -2638    -2761 
   -2530    -2425    -2846    -3126    -3386    -3861    -4280    -4683 
   -4731    -4702    -5219    -5571    -5111    -4312    -4327    -5103 
   -5329    -5377    -5698    -5605    -5378    -5233    -5108    -4931 
   -4432    -4449    -5240    -5910    -6333    -6196    -5514    -5595 
   -6701    -7503    -7206    -6242    -5122    -4153    -3483    -2194 
     -26     1295     1083      593      441       91     -368     -325 
    -383    -1106    -1619    -1230     -273      307      120     -149 
    -242     -247     -422    -1382    -2362    -2676    -3379    -4559 
   -5457    -6000    -6109    -6238    -7172    -8821    -9812    -8724 
   -6627    -5464    -5375    -5475    -4788    -3875    -3912    -4448 
   -5415    -6892    -7989    -8413    -8020    -7258    -7277    -7883 
   -8154    -7972    -7883    -8270    -8849    -8546    -6469    -3801 
   -2201    -1885    -2945    -4475    -4634    -3400    -2134    -2046 
   -3156    -4167    -4497    -4552    -4521    -3765    -1625     1043 
    2922     2887      921     -189     1357     3666     3896      977 
   -2542    -3613    -3042    -2673    -2947    -4066    -5482    -6183 
   -6355    -6956    -7755    -7286    -5786    -5404    -6492    -7241 
   -6832    -6213    -5912    -5400    -5054    -5832    -7418    -8893 
   -9403    -8493    -7181    -6434    -5371    -3640    -2672    -2716 
   -2463    -1313      519     2285     3271     3416     2834     1937 
     826     -211     -102      166     -919    -2181    -2722    -3398 
   -5210    -7460    -8089    -7597    -7857    -8993   -10446   -11024 
  -10086    -8641    -7959    -8666    -8923    -6571    -3276    -1770 
   -2538    -4508    -6199    -6160    -4187    -2631    -2545    -1683 
     311     1355      630    -1236    -2928    -3040    -1528     -351 
    -808    -1642    -1823    -1797    -1675     -682     1242     2769 
    4040     6126     7402     6099     3503     2118     2729     3398 
    2810     1766      -86    -3568    -7592   -10214   -10697   -10622 
  -11418   -12659   -13690   -13994   -13645   -12764   -10997    -9333 
   -8568    -8096    -7802    -7509    -6954    -6694    -7206    -8501 
  -10145   -11114   -10621    -9276    -7857    -5677    -2599      166 
    1963     2601     1744    -1008    -5238    -9099   -11258   -11581 
  -10799   -10636   -11457   -11768   -10771    -9109    -7590    -6139 
   -4965    -4208    -3081    -1912    -1161     -555     -711    -1577 
   -2108    -1803     -833      150     1182     1752      402    -1856 
   -3129    -3704    -4253    -4307    -3276    -2460    -3340    -4345 
   -3754    -2731    -3009    -4599    -6286    -7337    -7800    -7715 
   -7227    -6417    -4932    -2607     -244     1236     2219     3197 
    3894     4671     6159     7873     8182     6310     4053     2860 
    1551    -1238    -4733    -6667    -6438    -5916    -6634    -8465 
   -9816    -9811    -9775   -10283   -10759   -11000   -10523    -9768 
   -9754    -9914    -9190    -7498    -5934    -5474    -5527    -5382 
   -5212    -5268    -5856    -7129    -8599    -9732   -10709   -11496 
  -11032    -9230    -7298    -5787    -4831    -4581    -5101    -6175 
   -6996    -7023    -6415    -6247    -7185    -7964    -7849    -7394 
   -6592    -4959    -1865     1994     4505     5228     5334     5732 
    6221     5586     3943     2415     1096     -155    -1414    -2622 
   -3732    -4636    -3986    -2069    -1660    -3363    -5751    -7510 
   -7634    -6576    -5201    -3823    -2655    -1535     -437      844 
    2273     3032     3514     4393     4192     1092    -3726    -7074 
   -8167    -8052    -7003    -6247    -7312    -9391   -10599   -10184 
   -8858    -7487    -6566    -6424    -7047    -8652   -10298   -10021 
   -8136    -5975    -4590    -4972    -6135    -6947    -6996    -5336 
   -3218    -3093    -4965    -7608   -10285   -12475   -12967   -10783 
   -6800    -2265     1620     3083     1562    -1940    -5419    -6983 
   -6810    -6181    -6103    -7009    -8646   -10764   -12299   -11846 
   -9759    -7260    -4977    -2986    -1659    -1266     -578     1284 
    3821     6139     6376     3907      690    -1460    -2008    -2079 
   -3114    -4875    -6555    -7447    -7778    -8533    -9246    -9208 
   -8262    -6314    -3829     -884     1789     2949     2778     1040 
   -1967    -3933    -4101    -4035    -5058    -6998    -8719    -9098 
   -7518    -5163    -3971    -4018    -4480    -4590    -3771    -2811 
   -3099    -5134    -8062   -10255   -11160   -11668   -12318   -12299 
  -11277   -10295    -9275    -7338    -4988    -3310    -3607    -5956 
   -8116    -8806    -8645    -8503    -8677    -8414    -7647    -6466 
   -3876     -321     2793     4565     4882     5125     5803     6621 
    7863     8973     9816    10300     9352     7248     4412      901 
   -1891    -3324    -4134    -4951    -6030    -7033    -7661    -8101 
   -8542    -9218   -10538   -12050   -12495   -12626   -14085   -15969 
  -17469   -19304   -20990   -21412   -20073   -16784   -12055    -7588 
   -5223    -4718    -4719    -4350    -2827     -851      259      228 
   -1067    -2573    -3233    -3264    -2174      -81     2416     5519 
    7985     8354     6933     4375     1578     -267     -709     -705 
   -1745    -3606    -4990    -5575    -5889    -6599    -7184    -6367 
   -4234    -1669      506     1736     2004     1109     -895    -3105 
   -4762    -6121    -7393    -7482    -6483    -6521    -8084    -9382 
   -8483    -5591    -3322    -2629    -1963     -520      915      994 
    -341    -1861    -2604    -2545    -3150    -5058    -7111    -8914 
   -9987    -9826    -8921    -7359    -5665    -4101    -2225    -1245 
   -1728    -2352    -2633    -2882    -3159    -3114    -2904    -3459 
   -4555    -5024    -4515    -3798    -3615    -3642    -3673    -3848 
   -3839    -3774    -4334    -6102    -8854   -11267   -12585   -13258 
  -14108   -15345   -16000   -15493   -14555   -14050   -13612   -11761 
   -8434    -5133    -3127    -3500    -5777    -7869    -8420    -6690 
   -3195     -233      642      -10     -392       31      356      936 
    2239     3890     5871     7356     7420     6550     5694     5325 
    5095     4824     4419     3207     1529      145    -1216    -2507 
   -2972    -2446    -1491     -337      442       68      -85      920 
    1114     -359    -2205    -3698    -4898    -5775    -6289    -7045 
   -8342    -9194    -8663    -7262    -6628    -6778    -6124    -5058 
   -4981    -5978    -7188    -7640    -8261   -10247   -12188   -13049 
  -13510   -13754   -13673   -13418   -13189   -13260   -13681   -13619 
  -11728    -8569    -6129    -4673    -3432    -2470    -1966    -1168 
     683     2882     4363     5067     5242     4815     3914     3140 
    2992     3788     5204     6004     5685     4532     2724     1333 
    1334     2028     2280     1517     -224    -2661    -5121    -6674 
   -7801    -8983    -9779   -10699   -11748   -12602   -13628   -13841 
  -12890   -12243   -12325   -12318   -11112    -8737    -6728    -5732 
   -5207    -4757    -4400    -4153    -3939    -4160    -4913    -5694 
   -6350    -6753    -6678    -5623    -3259     -657     1212     2082 
    1652      948     1402     2861     4402     5406     5294     3416 
     512    -1620    -2384    -2485    -3207    -4754    -5948    -6852 
   -7870    -8311    -8239    -8370    -9339   -11126   -12291   -12125 
  -11399   -10453    -9149    -7925    -7761    -8364    -8513    -8310 
   -7901    -6862    -5326    -3370    -1141      987     2221     1759 
     862     1268     2671     3995     4734     5010     5034     4714 
    4135     3944     4506     4642     3374     1786     1149     1761 
    2726     2345      677    -1166    -3083    -4848    -5608    -4736 
   -3099    -2505    -3568    -5950    -8300    -9066    -8567    -7863 
   -8217   -10285   -12446   -13493   -14039   -14482   -14741   -14858 
  -15293   -16153   -16494   -15773   -14162   -12006    -9838    -7437 
   -4536    -1822      157     1433     2643     4006     4471     3860 
    3433     3792     4286     4282     4156     4588     5268     4477 
    1282    -2253    -3802    -3316    -2035    -1455    -1917    -3231 
   -5606    -7617    -8022    -8006    -8436    -9171   -10346   -11846 
  -12753   -12441   -11506    -9940    -7285    -4302    -1641     -115 
    -183     -209      317      159     -593    -1259    -1887    -3362 
   -6406    -9844   -12046   -12963   -12792   -11071    -8052    -5345 
   -4386    -4898    -5496    -5284    -5048    -6034    -7302    -7341 
   -6998    -7843    -9638   -10964   -11080   -10049    -8141    -5604 
   -3049    -2057    -2989    -4611    -6633    -7964    -7050    -5017 
   -3145    -1684    -1359    -2265    -3822    -4870    -4112    -1760 
    1369     4461     6668     7682     7556     7481     8683    10730 
   12757    13818    13472    12339    10833     9421     8239     6657 
    4938     3524     2055      884     1030     2276     3087     2553 
     617    -2436    -5786    -9394   -13262   -16290   -18582   -21116 
  -24071   -27190   -29502   -30521   -30891   -30630   -29267   -27223 
  -25998   -25807   -25075   -23788   -22461   -20538   -18159   -15505 
  -13220   -12405   -12433   -12022   -10091    -6318    -1888     2519 
    6482     9077    10600    12195    14826    18535    22476    26249 
   28757    28680    26904    25093    24036    23343    21992    20250 
   18714    16602    13198     9474     6882     5135     2778    -1129 
   -6141   -10753   -14815   -18911   -22224   -24424   -25887   -26591 
  -26939   -26699   -25479   -24279   -23471   -22487   -20941   -18555 
  -16019   -14590   -14219   -13258   -11160    -9342    -7677    -5392 
   -3207    -1222      622     2694     6217    10668    15031    19015 
   21573    22333    21888    20508    18443    16428    15483    15141 
   13812    10869     5953     -379    -5948    -9778   -12844   -15913 
  -18962   -22018   -25264   -28785   -32400   -35878   -39308   -42256 
  -44019   -45369   -46767   -46829   -45258   -42703   -38626   -32630 
  -25297   -18125   -11947    -5644      663     5839    10206    14000 
   16926    18622    19085    19119    19613    21589    24939    28007 
   29518    28884    27197    26274    25547    24083    22272    20500 
   19117    17777    15864    13969    12298     9281     3985    -2425 
   -9016   -15554   -21532   -26601   -29985   -31410   -31849   -31096 
  -28536   -25194   -22304   -19826   -17131   -14820   -13960   -14559 
  -16542   -19332   -22018   -24576   -27055   -29828   -32706   -34606 
  -36044   -37289   -37141   -35228   -31143   -25549   -21238   -18465 
  -14599    -9013    -3305     2190     8844    16825    24497    30406 
   34294    36686    37973    39313    42096    45346    47898    50034 
   52242    55518    59011    60204    58909    55384    49143    41486 
   33865    26574    19297    10357    -1429   -14162   -24783   -33113 
  -40903   -48339   -54865   -59944   -62443   -61617   -58929   -58087 
  -59689   -60602   -60582   -61196   -62090   -61983   -60171   -56904 
  -51415   -43685   -36402   -31044   -27282   -24202   -20434   -15808 
  -10356    -3645     3978    12261    21414    31340    41659    51734 
   60178    65200    66641    66105    64758    62713    59028    52814 
   45356    38546    33073    29342    26570    22780    18062    14575 
   12966    11436     7150    -1568   -13247   -24627   -32826   -36597 
  -37752   -39047   -41379   -44827   -49302   -54570   -59295   -60396 
  -57611   -53629   -49213   -43933   -37966   -32034   -26402   -20487 
  -14284    -7391      705     9406    18624    27634    34519    38320 
   38424    34648    28273    21033    14926    11925    12597    15343 
   16548    13444     6879     -555    -7491   -13545   -18532   -22606 
  -25679   -28004   -30435   -33038   -35445   -37209   -37637   -36299 
  -33118   -29113   -25767   -23719   -22513   -19686   -14546    -9776 
   -5757    -2094      634     3868     8475    14730    23094    32081 
   40187    45644    46666    44614    42240    40966    40572    39815 
   37006    30658    20676     8150    -5566   -18576   -27932   -32354 
  -33626   -33520   -33965   -37216   -43151   -49918   -55416   -57950 
  -57127   -52941   -46286   -39056   -31866   -25585   -21362   -18388 
  -16117   -14112   -11010    -7249    -3833     -638     2069     4605 
    7341     9706    12021    15241    19642    23778    26529    29226 
   32317    35376    38429    40360    40448    38680    35249    31102 
   26440    20924    14279     6504    -1286    -8683   -16121   -22374 
  -25784   -27318   -29553   -33420   -38336   -43455   -47588   -50055 
  -50893   -50248   -48194   -44865   -40609   -35508   -30229   -26352 
  -24447   -24500   -26185   -27694   -27979   -27056   -24299   -20500 
  -16832   -12677    -8191    -3812     1154     6639    12269    18367 
   24997    31169    36207    41017    45664    49258    50896    48221 
   40982    32492    24965    19665    17159    15973    15127    13706 
   10689     7662     5968     4787     3651     1713    -2366    -7798 
  -13006   -17445   -20811   -24132   -28648   -33692   -38158   -41088 
  -42816   -44659   -45682   -45086   -44881   -46304   -47480   -45340 
  -39926   -34391   -29033   -22958   -18159   -16019   -16295   -17175 
  -16062   -13785   -11978    -9851    -6825    -2530     3087     9347 
   16199    23027    29237    35464    42179    49176    54452    56069 
   55495    54721    54241    54054    52491    47991    41908    36741 
   33582    31852    30867    30307    29726    28728    27031    24161 
   19108    11882     3569    -4763   -11940   -18989   -27387   -34979 
  -39469   -41158   -41414   -41955   -42704   -42138   -39910   -36001 
  -30665   -24636   -18825   -14189   -10497    -8135    -7564    -7523 
   -8491   -11486   -15226   -18779   -21815   -23765   -25014   -26460 
  -28501   -31073   -33757   -35449   -34545   -30187   -23401   -16151 
   -9428    -3817      338     4322     9261    14345    19003    23866 
   29149    34538    39795    44346    47076    47830    48247    49727 
   51786    52617    51486    49169    45845    41690    37105    31474 
   24727    18339    12457     5869    -1337    -9323   -18076   -25741 
  -31678   -37351   -42832   -46273   -47820   -48709   -48530   -48365 
  -49474   -50175   -49811   -48514   -45294   -41431   -39106   -38853 
  -40710   -43877   -47075   -50173   -53299   -55563   -56328   -55165 
  -52104   -48479   -45203   -42962   -42213   -42022   -40935   -38003 
  -33560   -28550   -23203   -17749   -12532    -6959     -671     6193 
   13330    19727    25705    32104    38847    45704    50642    52302 
   52087    50856    49165    47364    44798    42249    40710    40336 
   41540    42597    41529    39013    37087    37522    38600    37724 
   34883    30270    24125    17157    10311     3920    -2468    -9114 
  -15255   -19680   -23726   -29056   -35299   -41795   -47142   -50165 
  -51119   -50409   -49183   -48910   -48807   -48102   -47686   -47558 
  -47052   -45944   -43969   -40366   -34914   -28879   -23409   -18829 
  -15374   -13044   -11254    -8826    -5370    -1919     1400     4732 
    7166     8757     9394     8808     8742    10073    11692    13329 
   15342    17285    18549    18866    18133    17196    17989    21283 
   25631    29590    32482    33304    31583    28183    24441    21508 
   19576    17458    14469    11072     7190     2675    -2103    -7057 
  -12008   -17003   -21883   -25574   -28432   -31542   -34686   -38076 
  -41682   -44287   -45126   -43937   -41249   -38541   -36500   -34288 
  -31546   -29671   -29149   -28859   -28230   -26629   -23758   -20499 
  -17373   -14612   -12368   -10554    -9350    -8616    -8168    -8159 
   -8196    -7899    -7564    -7259    -6431    -4845    -2879     -340 
    2823     5755     8533    11761    15575    19933    24419    28884 
   32767    35668    38395    40345    40749    40384    38989    36278 
   33274    31054    29676    28241    26141    22321    16279     9505 
    2900    -3118    -7554   -10597   -13169   -15599   -18453   -22583 
  -27340   -30945   -32928   -33700   -33152   -31579   -29423   -26662 
  -24116   -22395   -20876   -19527   -18434   -16780   -14294   -11143 
   -7100    -2689     1209     4345     6555     8462    10887    13339 
   15443    17225    18516    20457    24726    30976    37418    42792 
   46255    47146    46189    45059    44639    45049    45929    46349 
   45607    42973    37931    31334    23905    16223     9299     2137 
   -6361   -15120   -23709   -32171   -40211   -48204   -55675   -61248 
  -63623   -61941   -57470   -52570   -48259   -44554   -40995   -36795 
  -32092   -27761   -24045   -20588   -17210   -14534   -12743   -11356 
  -10712   -10583    -9822    -8058    -5880    -4170    -2991    -2147 
   -2693    -5210    -8299   -10748   -12076   -12135   -11635   -11275 
  -11457   -11918   -12513   -13590   -13976   -12905   -10928    -8627 
   -7340    -7074    -7215    -8844   -11582   -13776   -14507   -13305 
