Origin Time       2016/04/16 01:25:00
Lat.              32.753
Long.             130.762
Depth. (km)       12
Mag.              7.3
Station Code      KGW005
Station Lat.      34.1138
Station Long.     133.6354
Station Height(m) 2
Record Time       2016/04/16 01:26:00
Sampling Freq(Hz) 100Hz
Duration Time(s)  145
Dir.              N-S
Scale Factor      7845(gal)/8223790
Max. Acc. (gal)   14.588
Last Correction   2016/04/16 01:26:01
Memo.             
[...]
   -1344    -1405    -1453    -1485    -1507    -1522    -1491    -1424 
   -1367    -1298    -1163     -978     -792     -648     -575     -564 
    -584     -630     -726     -859     -946     -928     -832     -715 
    -579     -422     -265     -110       11       74      122      197 
     305      438      577      756      985     1247     1530     1799 
    2033     2203     2270     2267     2220     2124     2042     2008 
    1965     1885     1821     1765     1674     1568     1455     1316 
    1223     1205     1216     1224     1232     1260     1300     1310 
    1281     1196     1065      911      737      562      406      272 
     160       37     -109     -259     -422     -607     -758     -846 
    -899     -926     -969    -1065    -1151    -1163    -1107     -989 
    -816     -606     -378     -190     -105      -91      -75      -39 
     -22      -65     -136     -163     -133      -65       10       45 
      36       49       71       35      -52     -170     -337     -540 
    -764     -989    -1135    -1169    -1136    -1035     -868     -714 
    -627     -615     -665     -718     -728     -723     -714     -693 
    -704     -777     -866     -936     -994    -1051    -1094    -1090 
   -1048    -1008     -989     -989     -934     -766     -496     -167 
     183      550      897     1175     1424     1653     1823     1965 
    2092     2130     2057     1887     1609     1258      897      540 
     195      -98     -280     -342     -338     -298     -268     -301 
    -353     -398     -469     -584     -715     -835     -935    -1008 
   -1031    -1009     -950     -847     -710     -568     -464     -434 
    -492     -641     -826     -951     -982     -959     -943     -938 
    -929     -908     -827     -685     -532     -376     -222     -105 
     -35       10       37       52      102      222      406      621 
     800      923     1039     1165     1294     1441     1533     1534 
    1507     1453     1383     1332     1262     1188     1155     1119 
    1020      843      596      315       25     -276     -575     -822 
   -1011    -1175    -1305    -1416    -1544    -1649    -1694    -1706 
   -1713    -1736    -1792    -1910    -2102    -2303    -2457    -2533 
   -2529    -2488    -2401    -2241    -2062    -1903    -1714    -1464 
   -1166     -842     -526     -240       29      299      575      811 
     961     1042     1073     1050      973      841      680      531 
     410      288      136      -60     -286     -549     -845    -1107 
   -1313    -1459    -1512    -1535    -1620    -1744    -1858    -1954 
   -2026    -2068    -2111    -2165    -2208    -2205    -2146    -2084 
   -2014    -1898    -1748    -1554    -1314    -1086     -911     -787 
    -675     -540     -402     -272     -121       86      355      657 
     916     1097     1240     1356     1431     1457     1409     1279 
    1113      949      814      726      699      726      796      903 
    1051     1251     1455     1591     1672     1723     1723     1657 
    1509     1302     1092      919      770      603      446      321 
     183       11     -199     -441     -673     -868     -997    -1077 
   -1144    -1189    -1210    -1244    -1294    -1345    -1402    -1471 
   -1549    -1644    -1771    -1903    -1988    -2033    -2049    -1998 
   -1904    -1852    -1854    -1881    -1935    -2003    -2084    -2231 
   -2417    -2559    -2663    -2714    -2686    -2609    -2442    -2178 
   -1927    -1728    -1567    -1449    -1348    -1236    -1097     -931 
    -735     -526     -352     -187      -32       78      144      147 
      89       23       10       78      233      461      724     1016 
    1341     1641     1884     2041     2061     1980     1856     1701 
    1548     1433     1339     1258     1243     1275     1271     1225 
    1127      942      747      608      479      342      234      157 
      99       78       86       71       39       35       25      -28 
    -117     -229     -330     -400     -405     -310     -175      -47 
      70      144      159      128       54      -54     -168     -259 
    -311     -332     -344     -360     -373     -390     -402     -437 
    -549     -692     -797     -923    -1065    -1152    -1220    -1291 
   -1305    -1267    -1224    -1156    -1063     -955     -811     -625 
    -429     -274     -180     -126      -97      -60       32      144 
     225      301      369      395      378      319      216       72 
     -97     -303     -525     -704     -828     -900     -905     -850 
    -762     -662     -550     -445     -348     -275     -245     -244 
    -245     -237     -202     -125      -27       91      279      495 
     637      710      754      741      660      526      378      286 
     283      337      418      526      665      788      869      926 
     959      947      893      824      727      602      495      410 
     340      299      268      229      191      195      243      279 
     311      352      388      425      456      508      576      587 
     558      522      464      423      413      405      421      499 
     592      607      553      495      380      174      -45     -256 
    -484     -673     -811     -969    -1143    -1298    -1435    -1548 
   -1617    -1632    -1642    -1692    -1744    -1788    -1837    -1825 
   -1715    -1552    -1350    -1115     -897     -730     -645     -637 
    -622     -553     -418     -217      -14      180      394      584 
     719      845      987     1138     1266     1356     1418     1449 
    1451     1456     1502     1632     1833     2026     2144     2207 
    2236     2208     2121     1996     1838     1684     1564     1470 
    1359     1216     1065      900      711      506      288       45 
    -201     -405     -572     -711     -800     -880    -1000    -1148 
   -1296    -1447    -1615    -1792    -1984    -2181    -2340    -2485 
   -2612    -2655    -2614    -2520    -2363    -2172    -1981    -1787 
   -1613    -1466    -1289    -1093     -929     -781     -668     -638 
    -649     -685     -785     -899    -1007    -1143    -1252    -1317 
   -1393    -1478    -1614    -1856    -2147    -2475    -2840    -3172 
   -3426    -3595    -3704    -3781    -3804    -3761    -3678    -3619 
   -3619    -3640    -3636    -3601    -3544    -3461    -3317    -3084 
   -2810    -2550    -2280    -2001    -1714    -1425    -1208    -1065 
    -962     -905     -890     -901     -915     -899     -816     -634 
    -406     -203      -13      168      318      468      660      864 
    1038     1162     1269     1398     1575     1811     2069     2301 
    2528     2747     2879     2909     2874     2783     2687     2655 
    2686     2745     2824     2936     3048     3106     3119     3117 
    3092     3052     3009     2960     2898     2826     2732     2594 
    2446     2316     2182     2010     1787     1578     1433     1297 
    1146      993      835      715      669      649      626      645 
     715      756      766      791      785      731      654      537 
     395      266      129      -13     -117     -191     -297     -459 
    -649     -855    -1058    -1189    -1270    -1374    -1506    -1686 
   -1915    -2161    -2381    -2538    -2631    -2677    -2697    -2693 
   -2644    -2578    -2517    -2466    -2447    -2454    -2481    -2548 
   -2655    -2782    -2891    -2949    -2983    -3025    -3086    -3159 
   -3164    -3076    -2957    -2853    -2789    -2767    -2785    -2841 
   -2898    -2932    -2938    -2889    -2767    -2628    -2501    -2359 
   -2234    -2161    -2076    -1953    -1817    -1655    -1412    -1081 
    -724     -346       68      442      710      951     1193     1379 
    1540     1723     1933     2174     2420     2652     2863     3094 
    3368     3595     3732     3824     3847     3789     3665     3474 
    3232     3003     2822     2647     2446     2245     2079     1923 
    1729     1567     1439     1286     1132      950      711      479 
     286       95     -112     -315     -491     -668     -857    -1026 
   -1185    -1368    -1574    -1791    -2025    -2258    -2439    -2559 
   -2640    -2675    -2688    -2718    -2754    -2787    -2851    -2956 
   -3065    -3152    -3252    -3376    -3489    -3577    -3638    -3640 
   -3585    -3501    -3407    -3295    -3134    -2944    -2740    -2523 
   -2340    -2209    -2096    -1971    -1823    -1657    -1462    -1229 
    -958     -643     -306       22      337      626      847     1004 
    1113     1120     1009      855      702      552      440      342 
     222      110        8     -108     -225     -324     -388     -399 
    -306      -78      221      535      855     1170     1479     1764 
    2015     2262     2515     2774     3041     3288     3503     3704 
    3871     3987     4095     4176     4218     4248     4248     4233 
    4251     4236     4148     4012     3839     3638     3416     3173 
    2894     2598     2312     2043     1794     1570     1402     1293 
    1209     1161     1136     1109     1113     1129     1124     1116 
    1109     1101     1060      940      728      441       98     -291 
    -727    -1193    -1648    -2065    -2463    -2878    -3303    -3713 
   -4122    -4552    -5000    -5468    -5946    -6427    -6895    -7319 
   -7676    -7936    -8081    -8091    -7948    -7650    -7244    -6812 
   -6396    -5992    -5632    -5336    -5080    -4834    -4591    -4315 
   -4028    -3792    -3591    -3368    -3107    -2826    -2577    -2393 
   -2269    -2209    -2215    -2285    -2420    -2573    -2673    -2755 
   -2867    -2980    -3109    -3280    -3435    -3585    -3784    -3989 
   -4162    -4301    -4405    -4460    -4433    -4314    -4102    -3774 
   -3341    -2811    -2180    -1503     -868     -317      172      630 
    1053     1449     1831     2196     2554     2871     3114     3292 
    3427     3535     3615     3649     3623     3547     3433     3260 
    3029     2801     2624     2501     2486     2632     2911     3304 
    3776     4252     4672     5073     5499     5937     6389     6895 
    7431     7978     8496     8932     9267     9504     9640     9652 
    9522     9274     8922     8460     7898     7252     6538     5809 
    5093     4379     3697     3065     2475     1956     1478      999 
     540      133     -189     -383     -448     -382     -190       72 
     326      521      646      683      615      481      314      105 
    -147     -444     -823    -1293    -1825    -2415    -3045    -3690 
   -4347    -5027    -5719    -6376    -6974    -7484    -7855    -8111 
   -8267    -8284    -8191    -8029    -7786    -7446    -7007    -6490 
   -5906    -5270    -4623    -3978    -3311    -2627    -1971    -1360 
    -799     -337        0      206      288      295      263      174 
      -8     -311     -733    -1215    -1718    -2228    -2717    -3164 
   -3589    -3998    -4360    -4698    -5008    -5235    -5413    -5597 
   -5749    -5879    -6029    -6165    -6238    -6227    -6106    -5871 
   -5528    -5059    -4490    -3861    -3203    -2560    -1984    -1514 
   -1146     -846     -584     -319      -37      234      464      599 
     608      521      357      141      -98     -328     -552     -807 
   -1090    -1399    -1732    -2047    -2312    -2502    -2597    -2551 
   -2338    -1982    -1528    -1011     -460       86      599     1085 
    1543     1977     2430     2902     3369     3825     4270     4754 
    5277     5768     6183     6480     6589     6438     5987     5260 
    4337     3348     2431     1649     1035      606      334      144 
     -23     -206     -386     -526     -619     -646     -552     -309 
      43      471      984     1576     2220     2878     3520     4113 
    4614     5036     5404     5721     5989     6204     6380     6519 
    6610     6679     6708     6659     6547     6343     5984     5503 
    4953     4309     3561     2740     1890     1042      246     -460 
   -1093    -1641    -2060    -2362    -2590    -2756    -2859    -2914 
   -2971    -3065    -3173    -3257    -3336    -3438    -3519    -3541 
   -3539    -3555    -3581    -3612    -3665    -3734    -3828    -3990 
   -4220    -4498    -4799    -5139    -5502    -5849    -6177    -6498 
   -6799    -7053    -7260    -7425    -7496    -7482    -7477    -7508 
   -7564    -7657    -7782    -7928    -8093    -8260    -8437    -8615 
   -8777    -8955    -9147    -9306    -9406    -9470    -9486    -9437 
   -9340    -9170    -8911    -8568    -8087    -7450    -6718    -5952 
   -5179    -4413    -3667    -2980    -2366    -1798    -1267     -787 
    -338      105      558     1007     1439     1854     2254     2651 
    3073     3504     3904     4260     4584     4858     5038     5115 
    5119     5065     4989     4951     4939     4973     5115     5344 
    5644     6037     6471     6898     7369     7862     8306     8733 
    9126     9408     9609     9790     9922    10029    10181    10328 
   10400    10413    10355    10183     9876     9474     9020     8517 
    8021     7551     7076     6635     6251     5873     5479     5108 
    4785     4514     4303     4121     3939     3770     3639     3549 
    3488     3438     3345     3163     2841     2323     1622      789 
    -151    -1140    -2114    -3038    -3889    -4692    -5481    -6249 
   -7041    -7885    -8739    -9626   -10540   -11421   -12213   -12910 
  -13541   -14089   -14543   -14939   -15275   -15480   -15535   -15479 
  -15253   -14833   -14276   -13583   -12779   -11937   -11125   -10380 
   -9703    -9107    -8567    -8024    -7485    -6959    -6412    -5863 
   -5333    -4791    -4228    -3659    -3109    -2636    -2278    -2027 
   -1904    -1898    -1952    -2049    -2158    -2211    -2184    -2101 
   -1954    -1740    -1485    -1193     -866     -503     -118      256 
     606      886     1105     1341     1618     1927     2273     2624 
    2963     3307     3645     3979     4310     4577     4750     4847 
    4903     4969     5066     5190     5319     5413     5435     5339 
    5139     4923     4768     4731     4852     5113     5456     5838 
    6219     6561     6822     7013     7105     7076     6993     6899 
    6812     6795     6860     6968     7102     7240     7350     7411 
    7415     7350     7200     6952     6615     6189     5686     5147 
    4641     4190     3780     3381     2944     2439     1872     1209 
     417     -487    -1459    -2419    -3295    -4074    -4718    -5171 
   -5501    -5746    -5930    -6119    -6296    -6419    -6523    -6609 
   -6655    -6664    -6597    -6446    -6249    -6046    -5898    -5818 
   -5803    -5895    -6102    -6384    -6724    -7109    -7480    -7786 
   -7998    -8091    -8068    -7969    -7835    -7693    -7565    -7465 
   -7439    -7493    -7538    -7547    -7530    -7419    -7192    -6841 
   -6361    -5783    -5116    -4369    -3573    -2764    -1962    -1192 
    -475      183      772     1325     1910     2550     3248     3989 
    4718     5389     5973     6448     6791     6979     7041     6990 
    6835     6640     6480     6350     6247     6196     6176     6139 
    6097     6026     5887     5760     5692     5679     5779     5989 
    6249     6556     6905     7238     7519     7771     7998     8139 
    8198     8208     8124     7929     7668     7345     6964     6559 
    6150     5778     5490     5258     5047     4837     4564     4178 
    3685     3071     2350     1591      841      112     -525    -1031 
   -1441    -1773    -2062    -2384    -2735    -3098    -3518    -3984 
   -4434    -4814    -5093    -5282    -5389    -5428    -5440    -5467 
   -5524    -5633    -5790    -5995    -6276    -6601    -6949    -7300 
   -7603    -7860    -8077    -8194    -8228    -8222    -8209    -8224 
   -8253    -8262    -8226    -8136    -7996    -7819    -7626    -7399 
   -7132    -6858    -6608    -6384    -6162    -5931    -5707    -5489 
   -5267    -5049    -4816    -4549    -4256    -3919    -3501    -2979 
   -2350    -1636     -868     -112      565     1143     1613     1995 
    2327     2636     2956     3292     3628     3958     4271     4600 
    4918     5158     5350     5544     5733     5915     6143     6427 
    6732     7091     7515     7931     8310     8655     8968     9242 
    9468     9674     9853     9968    10055    10149    10241    10366 
   10537    10720    10909    11101    11240    11300    11308    11242 
   11048    10759    10423    10015     9532     9004     8411     7739 
    7022     6308     5590     4833     4077     3360     2648     1930 
    1229      564      -56     -616    -1102    -1509    -1821    -2037 
   -2184    -2282    -2366    -2450    -2531    -2632    -2768    -2902 
   -3007    -3109    -3207    -3311    -3476    -3719    -4035    -4442 
   -4947    -5510    -6112    -6775    -7470    -8158    -8826    -9445 
   -9979   -10396   -10720   -11006   -11245   -11422   -11556   -11610 
  -11557   -11406   -11152   -10779   -10314    -9782    -9190    -8560 
   -7931    -7344    -6822    -6378    -6021    -5741    -5490    -5215 
   -4891    -4506    -4059    -3578    -3065    -2504    -1930    -1385 
    -851     -344      106      538     1011     1533     2102     2749 
    3477     4245     4994     5665     6212     6597     6829     6957 
    7003     6985     6971     7026     7145     7298     7495     7699 
    7869     8047     8243     8424     8602     8796     8995     9169 
    9328     9460     9520     9530     9499     9400     9262     9103 
    8908     8669     8368     8005     7600     7172     6774     6462 
    6245     6119     6085     6093     6095     6075     6019     5900 
    5682     5370     5012     4641     4271     3937     3662     3454 
    3315     3252     3250     3267     3276     3287     3217     3021 
    2775     2461     2038     1556     1015      399     -203     -715 
   -1142    -1493    -1791    -2079    -2376    -2716    -3129    -3593 
   -4045    -4440    -4791    -5112    -5398    -5656    -5906    -6131 
   -6304    -6423    -6469    -6446    -6413    -6389    -6386    -6424 
   -6494    -6554    -6566    -6543    -6500    -6415    -6313    -6224 
   -6127    -6016    -5934    -5867    -5756    -5636    -5528    -5377 
   -5190    -4951    -4617    -4212    -3740    -3180    -2578    -1988 
   -1452    -1012     -689     -469     -314     -187      -59      128 
     421      796     1236     1768     2347     2898     3418     3875 
    4220     4455     4591     4641     4645     4627     4590     4558 
    4531     4464     4360     4263     4194     4171     4186     4147 
    3991     3731     3369     2910     2369     1795     1236      702 
     190     -287     -756    -1228    -1692    -2184    -2713    -3269 
   -3867    -4527    -5240    -5945    -6573    -7096    -7512    -7785 
   -7894    -7865    -7697    -7423    -7129    -6851    -6608    -6408 
   -6219    -6004    -5727    -5358    -4873    -4266    -3566    -2816 
   -2074    -1389     -766     -201      276      631      877     1051 
    1169     1266     1386     1520     1675     1869     2091     2326 
    2555     2743     2872     2926     2917     2876     2839     2863 
    3007     3277     3647     4060     4444     4719     4847     4818 
