Origin Time       2016/04/16 01:25:00
Lat.              32.753
Long.             130.762
Depth. (km)       12
Mag.              7.3
Station Code      KGW006
Station Lat.      34.2496
Station Long.     134.1856
Station Height(m) 70
Record Time       2016/04/16 01:26:10
Sampling Freq(Hz) 100Hz
Duration Time(s)  111
Dir.              E-W
Scale Factor      7845(gal)/8223790
Max. Acc. (gal)   3.585
Last Correction   2016/04/16 01:26:11
Memo.             
[...]
    4136     4180     4237     4294     4332     4356     4364     4357 
    4345     4330     4326     4341     4372     4431     4515     4606 
    4706     4806     4895     4980     5054     5116     5173     5212 
    5244     5275     5309     5350     5393     5433     5479     5526 
    5571     5609     5633     5644     5637     5611     5575     5532 
    5479     5431     5383     5346     5328     5324     5335     5359 
    5374     5379     5379     5363     5337     5309     5279     5250 
    5217     5182     5139     5086     5027     4956     4866     4765 
    4649     4514     4376     4233     4091     3959     3840     3754 
    3701     3680     3699     3753     3825     3916     4008     4091 
    4168     4233     4298     4356     4405     4453     4498     4535 
    4579     4618     4654     4698     4731     4757     4780     4793 
    4807     4823     4837     4852     4862     4862     4860     4849 
    4838     4838     4850     4880     4923     4981     5059     5147 
    5247     5358     5459     5548     5616     5643     5638     5601 
    5536     5464     5383     5281     5161     5016     4849     4661 
    4456     4255     4074     3925     3812     3738     3699     3682 
    3681     3694     3712     3726     3748     3778     3817     3877 
    3950     4048     4183     4337     4504     4679     4847     5004 
    5144     5271     5389     5487     5571     5649     5714     5765 
    5800     5809     5793     5759     5706     5643     5566     5481 
    5404     5333     5289     5282     5305     5368     5475     5603 
    5748     5894     6022     6126     6189     6210     6189     6120 
    6014     5879     5713     5529     5333     5127     4926     4738 
    4579     4461     4391     4359     4349     4342     4326     4289 
    4225     4148     4062     3983     3940     3939     3989     4098 
    4252     4442     4657     4885     5127     5370     5601     5815 
    5998     6148     6273     6359     6419     6458     6463     6448 
    6417     6369     6315     6257     6197     6141     6080     6016 
    5948     5859     5748     5618     5471     5321     5175     5046 
    4941     4852     4785     4734     4691     4657     4630     4604 
    4591     4596     4623     4675     4753     4857     4992     5150 
    5327     5524     5727     5933     6135     6318     6475     6604 
    6691     6736     6732     6683     6601     6482     6338     6189 
    6042     5902     5776     5660     5551     5437     5310     5184 
    5058     4938     4833     4738     4653     4587     4538     4511 
    4513     4530     4558     4588     4600     4600     4583     4540 
    4486     4419     4341     4258     4172     4090     4020     3970 
    3958     3983     4044     4143     4261     4387     4518     4633 
    4722     4796     4857     4904     4935     4953     4963     4963 
    4947     4916     4868     4804     4735     4648     4548     4436 
    4299     4148     3981     3800     3632     3487     3369     3306 
    3288     3319     3396     3508     3649     3802     3964     4133 
    4299     4468     4634     4781     4909     5020     5112     5193 
    5263     5328     5382     5409     5420     5414     5379     5327 
    5258     5162     5058     4943     4811     4672     4515     4341 
    4158     3969     3796     3640     3501     3397     3317     3261 
    3241     3252     3304     3412     3559     3750     3973     4197 
    4418     4612     4766     4884     4970     5031     5085     5142 
    5204     5263     5312     5359     5397     5422     5437     5437 
    5420     5385     5333     5278     5216     5159     5134     5138 
    5174     5247     5337     5437     5545     5653     5760     5859 
    5942     6018     6073     6097     6097     6066     6011     5948 
    5881     5823     5790     5776     5791     5836     5902     5992 
    6087     6177     6268     6345     6413     6474     6517     6547 
    6556     6531     6488     6427     6350     6268     6172     6060 
    5930     5776     5606     5422     5223     5027     4852     4700 
    4571     4467     4398     4359     4340     4357     4411     4477 
    4553     4618     4654     4658     4621     4541     4433     4301 
    4159     4017     3866     3711     3550     3385     3219     3048 
    2880     2737     2624     2554     2536     2565     2655     2803 
    2999     3248     3530     3831     4144     4441     4712     4963 
    5188     5397     5605     5813     6035     6264     6484     6694 
    6872     6999     7079     7094     7045     6932     6762     6548 
    6297     6018     5737     5452     5179     4938     4725     4563 
    4461     4419     4446     4529     4637     4758     4873     4978 
    5090     5219     5382     5574     5772     5968     6137     6262 
    6350     6393     6399     6385     6355     6320     6272     6195 
    6096     5979     5842     5705     5572     5447     5329     5220 
    5123     5027     4926     4818     4695     4558     4433     4317 
    4215     4155     4131     4145     4203     4298     4415     4534 
    4638     4730     4800     4850     4889     4918     4953     5004 
    5060     5136     5235     5350     5476     5613     5745     5860 
    5940     5981     5962     5875     5727     5528     5279     5008 
    4718     4430     4162     3898     3653     3435     3240     3080 
    2957     2863     2811     2801     2822     2879     2971     3099 
    3253     3412     3589     3781     3987     4213     4436     4641 
    4819     4946     5017     5032     4993     4922     4824     4710 
    4603     4502     4407     4326     4255     4197     4155     4128 
    4140     4200     4297     4433     4598     4773     4946     5096 
    5227     5343     5437     5522     5599     5656     5692     5706 
    5689     5651     5582     5485     5366     5227     5080     4932 
    4787     4653     4533     4426     4330     4238     4147     4052 
    3946     3838     3727     3611     3501     3397     3299     3217 
    3153     3105     3075     3059     3061     3092     3137     3194 
    3268     3349     3450     3574     3727     3924     4168     4455 
    4777     5117     5466     5795     6081     6323     6509     6640 
    6732     6779     6786     6772     6736     6686     6632     6575 
    6515     6443     6346     6222     6060     5867     5661     5448 
    5252     5093     4974     4896     4857     4850     4873     4916 
    4984     5077     5189     5317     5440     5529     5584     5602 
    5575     5529     5476     5424     5390     5371     5358     5335 
    5277     5178     5035     4843     4614     4359     4095     3850 
    3626     3435     3288     3173     3092     3040     3002     2983 
    2972     2959     2944     2926     2909     2896     2886     2886 
    2901     2924     2974     3052     3148     3269     3415     3586 
    3784     4002     4237     4475     4707     4935     5143     5316 
    5466     5593     5701     5809     5911     6018     6137     6255 
    6369     6477     6564     6625     6646     6624     6558     6447 
    6319     6188     6060     5957     5879     5813     5760     5709 
    5647     5579     5495     5400     5298     5193     5098     5012 
    4932     4880     4858     4860     4889     4939     4989     5034 
    5065     5084     5084     5066     5040     5009     4982     4970 
    4969     4985     5022     5069     5134     5211     5282     5350 
    5420     5491     5563     5629     5684     5719     5732     5722 
    5691     5636     5568     5494     5416     5348     5293     5242 
    5197     5157     5124     5100     5077     5066     5074     5097 
    5136     5184     5235     5289     5339     5391     5441     5497 
    5564     5632     5694     5756     5805     5842     5860     5850 
    5822     5772     5711     5644     5560     5467     5374     5268 
    5164     5080     5017     4989     4985     4982     4985     4974 
    4941     4885     4808     4716     4621     4521     4422     4318 
    4220     4137     4063     4005     3977     3974     4001     4060 
    4147     4256     4378     4491     4603     4698     4776     4843 
    4889     4922     4945     4958     4976     4997     5016     5040 
    5062     5077     5074     5035     4955     4824     4634     4398 
    4129     3840     3562     3302     3071     2886     2744     2656 
    2624     2640     2697     2779     2866     2948     3014     3061 
    3094     3121     3159     3218     3295     3391     3500     3607 
    3701     3778     3838     3878     3896     3893     3873     3827 
    3750     3653     3542     3438     3354     3308     3312     3365 
    3465     3595     3738     3889     4036     4176     4306     4414 
    4498     4561     4599     4614     4612     4591     4553     4495 
    4421     4345     4276     4215     4176     4171     4202     4263 
    4351     4461     4587     4715     4850     4992     5143     5314 
    5497     5671     5827     5945     6010     6025     5987     5904 
    5782     5626     5458     5279     5096     4918     4750     4598 
    4472     4376     4314     4275     4247     4228     4199     4149 
    4085     3994     3886     3774     3659     3562     3497     3468 
    3488     3559     3672     3812     3951     4067     4153     4200 
    4205     4183     4147     4116     4104     4120     4174     4256 
    4364     4498     4648     4806     4965     5113     5239     5328 
    5377     5391     5368     5324     5278     5227     5185     5171 
    5190     5248     5354     5498     5667     5840     5998     6127 
    6203     6231     6216     6157     6088     6021     5949     5886 
    5829     5772     5722     5675     5625     5575     5513     5435 
    5344     5240     5131     5019     4914     4830     4773     4753 
    4774     4826     4903     4988     5073     5161     5246     5320 
    5391     5448     5485     5503     5491     5441     5352     5219 
    5051     4855     4631     4399     4174     3962     3774     3612 
    3474     3350     3229     3118     3013     2924     2878     2868 
    2893     2955     3036     3130     3241     3345     3443     3535 
    3603     3643     3653     3634     3593     3530     3461     3393 
    3330     3289     3273     3281     3325     3393     3480     3586 
    3703     3824     3951     4074     4195     4320     4431     4535 
    4629     4704     4784     4870     4962     5073     5193     5319 
    5451     5571     5684     5786     5869     5948     6016     6066 
    6103     6120     6122     6114     6088     6054     6016     5967 
    5910     5841     5756     5667     5563     5440     5297     5124 
    4932     4727     4504     4278     4058     3848     3651     3461 
    3281     3118     2970     2841     2735     2647     2584     2544 
    2525     2544     2587     2647     2735     2836     2951     3079 
    3206     3330     3443     3530     3600     3650     3686     3719 
    3748     3786     3852     3932     4036     4172     4326     4487 
    4644     4784     4909     5011     5078     5115     5139     5169 
    5204     5240     5300     5370     5435     5503     5567     5621 
    5674     5710     5729     5738     5734     5719     5689     5645 
    5601     5557     5526     5514     5510     5519     5526     5510 
    5467     5383     5250     5081     4888     4680     4480     4299 
    4144     4024     3943     3898     3888     3916     3984     4090 
    4228     4396     4590     4801     5031     5263     5499     5737 
    5965     6178     6363     6509     6625     6721     6808     6889 
    6968     7056     7146     7233     7315     7376     7406     7398 
    7342     7241     7098     6914     6713     6508     6303     6107 
    5927     5775     5652     5548     5464     5397     5320     5227 
    5115     4985     4839     4669     4484     4293     4097     3919 
    3765     3630     3523     3437     3364     3314     3289     3298 
    3342     3411     3496     3597     3704     3816     3929     4039 
    4153     4278     4413     4560     4710     4862     5012     5159 
    5308     5455     5602     5753     5895     6012     6115     6204 
    6292     6388     6489     6596     6687     6744     6772     6751 
    6671     6551     6400     6232     6066     5904     5760     5647 
    5571     5530     5502     5476     5454     5422     5386     5358 
    5344     5355     5389     5436     5501     5575     5659     5764 
    5886     6022     6177     6336     6497     6660     6815     6966 
    7106     7230     7335     7411     7461     7489     7493     7474 
    7439     7378     7291     7176     7025     6848     6642     6407 
    6161     5910     5660     5417     5175     4942     4719     4509 
    4321     4155     4003     3875     3754     3622     3481     3319 
    3149     2986     2844     2732     2659     2621     2621     2648 
    2697     2772     2874     3002     3160     3327     3503     3686 
    3870     4050     4222     4387     4544     4687     4822     4951 
    5065     5162     5240     5300     5346     5366     5354     5310 
    5229     5117     4989     4845     4698     4553     4401     4247 
    4077     3894     3716     3522     3310     3092     2867     2641 
    2421     2201     1993     1800     1617     1459     1325     1220 
    1156     1128     1138     1190     1274     1404     1568     1753 
    1975     2222     2486     2786     3106     3434     3761     4066 
    4338     4576     4781     4965     5123     5267     5413     5551 
    5689     5834     5973     6126     6295     6469     6659     6856 
    7052     7254     7452     7631     7785     7908     8004     8068 
    8108     8135     8139     8120     8087     8039     7969     7890 
    7807     7719     7624     7519     7399     7261     7110     6957 
    6817     6694     6588     6497     6438     6397     6365     6349 
    6342     6334     6326     6305     6265     6211     6135     6043 
    5940     5829     5714     5603     5502     5416     5346     5296 
    5273     5271     5286     5308     5324     5344     5367     5386 
    5417     5463     5524     5603     5689     5772     5846     5904 
    5945     5960     5952     5934     5895     5840     5780     5715 
    5649     5575     5486     5395     5304     5209     5130     5058 
    4984     4900     4801     4691     4583     4482     4405     4367 
    4363     4395     4463     4546     4641     4741     4842     4942 
    5023     5081     5112     5109     5097     5081     5054     5035 
    5027     5034     5059     5098     5147     5197     5243     5285 
    5317     5346     5375     5397     5420     5448     5475     5498 
    5513     5508     5481     5435     5367     5283     5186     5086 
    4989     4892     4793     4704     4622     4556     4514     4490 
    4494     4525     4567     4623     4688     4750     4811     4868 
    4931     5008     5101     5217     5346     5478     5616     5745 
    5859     5957     6048     6137     6219     6295     6354     6385 
    6389     6380     6347     6299     6246     6185     6130     6080 
    6030     5995     5975     5964     5968     5991     6025     6062 
    6093     6112     6108     6072     6006     5913     5802     5683 
    5557     5432     5314     5201     5101     5023     4955     4897 
    4841     4770     4679     4565     4434     4293     4140     3990 
    3856     3744     3672     3647     3678     3766     3897     4055 
    4228     4390     4534     4657     4746     4803     4833     4839 
    4837     4828     4816     4810     4801     4797     4804     4816 
    4835     4864     4895     4938     4978     5003     5015     5009 
    4981     4939     4882     4818     4748     4673     4587     4490 
    4380     4266     4159     4066     3994     3937     3889     3844 
    3797     3757     3721     3696     3689     3694     3713     3750 
    3798     3870     3969     4088     4233     4398     4567     4737 
    4896     5036     5173     5298     5421     5557     5699     5838 
    5968     6081     6174     6239     6280     6309     6328     6340 
    6354     6367     6381     6385     6374     6355     6320     6272 
    6222     6157     6080     5995     5896     5788     5668     5536 
    5398     5251     5096     4934     4758     4584     4409     4228 
    4055     3901     3759     3642     3543     3462     3406     3366 
    3352     3362     3388     3435     3504     3584     3681     3789 
    3896     4014     4140     4263     4390     4500     4588     4664 
    4719     4761     4789     4801     4800     4787     4765     4738 
    4703     4684     4687     4700     4742     4803     4861     4920 
    4963     4977     4972     4946     4915     4891     4868     4866 
    4887     4918     4961     5009     5063     5130     5196     5268 
    5347     5418     5485     5540     5574     5599     5611     5610 
    5610     5610     5616     5633     5648     5665     5687     5709 
    5732     5752     5771     5792     5803     5798     5771     5709 
    5614     5487     5327     5151     4966     4777     4598     4437 
    4302     4190     4095     4029     3984     3950     3931     3919 
    3913     3921     3936     3962     4008     4060     4117     4182 
    4243     4301     4348     4388     4437     4492     4564     4660 
    4773     4899     5026     5136     5235     5319     5383     5437 
    5481     5509     5529     5537     5549     5570     5585     5603 
    5630     5653     5667     5661     5632     5589     5533     5472 
    5416     5360     5314     5271     5224     5184     5150     5113 
    5076     5026     4961     4880     4780     4676     4573     4463 
    4357     4260     4174     4105     4052     4017     4012     4021 
    4041     4068     4088     4104     4117     4118     4107     4090 
    4078     4074     4081     4107     4147     4189     4248     4317 
    4386     4467     4557     4665     4793     4928     5071     5217 
    5351     5470     5566     5636     5688     5724     5738     5742 
    5737     5727     5717     5707     5707     5721     5744     5778 
    5807     5827     5848     5850     5841     5826     5796     5760 
    5722     5678     5636     5593     5548     5506     5464     5429 
    5405     5381     5358     5333     5293     5242     5174     5092 
    5008     4912     4812     4722     4639     4572     4527     4494 
    4477     4473     4473     4483     4494     4498     4492     4464 
    4418     4348     4248     4133     4008     3882     3771     3682 
    3618     3581     3568     3585     3636     3705     3792     3893 
    4001     4107     4202     4279     4338     4375     4398     4418 
    4436     4469     4522     4588     4676     4776     4877     4980 
    5070     5144     5204     5250     5286     5312     5320     5323 
    5313     5289     5260     5221     5177     5139     5097     5050 
    5000     4942     4885     4831     4769     4710     4660     4615 
    4576     4541     4510     4484     4456     4426     4393     4356 
    4321     4289     4263     4251     4247     4255     4274     4299 
