Origin Time       2016/04/16 01:25:00
Lat.              32.753
Long.             130.762
Depth. (km)       12
Mag.              7.3
Station Code      KGW003
Station Lat.      34.2644
Station Long.     133.7896
Station Height(m) 12
Record Time       2016/04/16 01:26:05
Sampling Freq(Hz) 100Hz
Duration Time(s)  110
Dir.              E-W
Scale Factor      7845(gal)/8223790
Max. Acc. (gal)   4.188
Last Correction   2016/04/16 01:26:06
Memo.             
[...]
  -11086   -11199   -11277   -11321   -11346   -11383   -11455   -11577 
  -11724   -11873   -12010   -12114   -12168   -12186   -12181   -12172 
  -12179   -12198   -12224   -12249   -12248   -12202   -12127   -12052 
  -12019   -12054   -12139   -12218   -12268   -12291   -12290   -12272 
  -12248   -12212   -12162   -12098   -12027   -11952   -11870   -11786 
  -11712   -11641   -11564   -11495   -11438   -11379   -11302   -11196 
  -11057   -10914   -10810   -10768   -10794   -10868   -10949   -11005 
  -11029   -11041   -11029   -10996   -10955   -10908   -10845   -10793 
  -10778   -10804   -10862   -10930   -10982   -10996   -10974   -10926 
  -10882   -10862   -10883   -10963   -11101   -11290   -11506   -11693 
  -11824   -11893   -11892   -11840   -11757   -11646   -11538   -11464 
  -11422   -11416   -11439   -11472   -11511   -11549   -11576   -11580 
  -11553   -11496   -11431   -11392   -11394   -11430   -11485   -11545 
  -11589   -11605   -11592   -11560   -11511   -11450   -11398   -11358 
  -11327   -11303   -11279   -11257   -11234   -11204   -11176   -11161 
  -11165   -11192   -11234   -11272   -11287   -11271   -11226   -11175 
  -11134   -11094   -11048   -11011   -10982   -10949   -10910   -10864 
  -10813   -10752   -10692   -10646   -10632   -10662   -10736   -10821 
  -10878   -10897   -10887   -10849   -10805   -10768   -10733   -10704 
  -10682   -10673   -10697   -10766   -10882   -11038   -11198   -11333 
  -11445   -11538   -11626   -11736   -11869   -12017   -12181   -12343 
  -12487   -12619   -12725   -12776   -12785   -12785   -12787   -12787 
  -12781   -12762   -12717   -12649   -12563   -12459   -12341   -12210 
  -12089   -12008   -11954   -11912   -11865   -11803   -11743   -11696 
  -11641   -11572   -11488   -11411   -11349   -11290   -11230   -11168 
  -11091   -10998   -10890   -10766   -10623   -10480   -10372   -10309 
  -10295   -10320   -10376   -10451   -10547   -10652   -10736   -10785 
  -10795   -10785   -10806   -10908   -11076   -11275   -11469   -11639 
  -11776   -11877   -11954   -12031   -12131   -12244   -12344   -12405 
  -12415   -12384   -12341   -12312   -12306   -12313   -12329   -12337 
  -12317   -12270   -12216   -12178   -12175   -12183   -12179   -12159 
  -12124   -12055   -11937   -11792   -11647   -11530   -11461   -11431 
  -11426   -11453   -11506   -11570   -11645   -11718   -11777   -11809 
  -11780   -11673   -11523   -11360   -11196   -11064   -10974   -10914 
  -10889   -10890   -10899   -10906   -10903   -10893   -10903   -10952 
  -11021   -11079   -11109   -11118   -11130   -11149   -11175   -11199 
  -11196   -11155   -11094   -11047   -11037   -11060   -11084   -11091 
  -11083   -11071   -11079   -11125   -11180   -11210   -11211   -11207 
  -11232   -11325   -11483   -11666   -11838   -11975   -12055   -12077 
  -12048   -11983   -11909   -11834   -11746   -11630   -11481   -11319 
  -11183   -11110   -11102   -11145   -11217   -11284   -11337   -11383 
  -11411   -11421   -11407   -11352   -11253   -11138   -11026   -10940 
  -10889   -10856   -10824   -10793   -10764   -10735   -10709   -10687 
  -10669   -10669   -10689   -10714   -10744   -10762   -10741   -10685 
  -10602   -10525   -10512   -10592   -10760   -11003   -11280   -11535 
  -11731   -11858   -11942   -11992   -11993   -11954   -11890   -11808 
  -11736   -11693   -11662   -11639   -11632   -11655   -11726   -11823 
  -11912   -11974   -12001   -12004   -12001   -12002   -12009   -12037 
  -12098   -12170   -12236   -12283   -12271   -12195   -12101   -12010 
  -11937   -11898   -11896   -11921   -11959   -11994   -12021   -12043 
  -12066   -12081   -12079   -12063   -12028   -11980   -11958   -11970 
  -11983   -11971   -11927   -11836   -11686   -11512   -11354   -11237 
  -11156   -11083   -11002   -10921   -10837   -10762   -10719   -10708 
  -10720   -10755   -10802   -10837   -10840   -10809   -10767   -10750 
  -10768   -10821   -10908   -11009   -11111   -11207   -11290   -11356 
  -11407   -11449   -11503   -11577   -11661   -11750   -11835   -11897 
  -11925   -11935   -11936   -11931   -11944   -12002   -12098   -12209 
  -12314   -12386   -12411   -12382   -12310   -12236   -12162   -12078 
  -11992   -11896   -11808   -11766   -11774   -11796   -11820   -11851 
  -11885   -11909   -11904   -11848   -11711   -11504   -11264   -11014 
  -10795   -10640   -10555   -10524   -10521   -10524   -10525   -10523 
  -10496   -10440   -10359   -10263   -10170   -10099   -10065   -10079 
  -10147   -10255   -10397   -10575   -10785   -11022   -11268   -11484 
  -11630   -11696   -11712   -11712   -11706   -11700   -11684   -11646 
  -11595   -11549   -11514   -11508   -11543   -11599   -11651   -11696 
  -11739   -11784   -11835   -11881   -11913   -11936   -11934   -11902 
  -11869   -11843   -11831   -11854   -11911   -11969   -12008   -12035 
  -12046   -12042   -12027   -12002   -11975   -11940   -11875   -11788 
  -11696   -11605   -11534   -11488   -11461   -11468   -11512   -11570 
  -11628   -11681   -11727   -11765   -11797   -11821   -11824   -11803 
  -11759   -11684   -11585   -11476   -11368   -11287   -11253   -11249 
  -11241   -11204   -11138   -11068   -11020   -11009   -11044   -11122 
  -11217   -11303   -11358   -11361   -11304   -11204   -11086   -10975 
  -10897   -10862   -10875   -10933   -11021   -11128   -11250   -11391 
  -11550   -11718   -11888   -12056   -12213   -12355   -12480   -12571 
  -12625   -12664   -12718   -12803   -12914   -13020   -13104   -13153 
  -13159   -13147   -13131   -13119   -13136   -13184   -13247   -13317 
  -13367   -13377   -13344   -13265   -13127   -12946   -12742   -12526 
  -12313   -12132   -12010   -11952   -11937   -11928   -11881   -11777 
  -11614   -11427   -11253   -11107   -11002   -10909   -10793   -10651 
  -10485   -10318   -10185   -10098   -10046   -10022   -10004    -9981 
   -9952    -9926    -9915    -9922    -9930    -9921    -9890    -9845 
   -9817    -9832    -9871    -9900    -9913    -9917    -9925    -9952 
  -10007   -10099   -10216   -10332   -10434   -10527   -10627   -10747 
  -10886   -11016   -11114   -11179   -11211   -11233   -11275   -11335 
  -11383   -11392   -11367   -11313   -11254   -11221   -11226   -11261 
  -11310   -11341   -11322   -11254   -11163   -11062   -10966   -10878 
  -10808   -10754   -10710   -10697   -10733   -10828   -10970   -11125 
  -11256   -11335   -11354   -11330   -11290   -11246   -11203   -11171 
  -11157   -11164   -11198   -11267   -11373   -11473   -11512   -11465 
  -11353   -11240   -11179   -11191   -11267   -11391   -11554   -11742 
  -11931   -12109   -12270   -12406   -12542   -12684   -12814   -12918 
  -12984   -13000   -12964   -12888   -12784   -12653   -12502   -12339 
  -12172   -12017   -11881   -11781   -11724   -11706   -11722   -11753 
  -11772   -11762   -11713   -11634   -11554   -11512   -11520   -11583 
  -11691   -11813   -11928   -12010   -12048   -12043   -12000   -11919 
  -11803   -11628   -11389   -11110   -10788   -10444   -10138    -9894 
   -9725    -9632    -9570    -9518    -9485    -9464    -9468    -9495 
   -9525    -9563    -9628    -9715    -9821    -9944   -10060   -10150 
  -10224   -10289   -10351   -10440   -10570   -10724   -10890   -11052 
  -11187   -11302   -11418   -11527   -11612   -11681   -11750   -11838 
  -11952   -12100   -12271   -12438   -12590   -12723   -12846   -12970 
  -13072   -13151   -13230   -13284   -13298   -13273   -13203   -13099 
  -12976   -12834   -12696   -12595   -12536   -12510   -12498   -12471 
  -12420   -12357   -12297   -12233   -12162   -12083   -12015   -11979 
  -11983   -12001   -12010   -11988   -11919   -11827   -11723   -11599 
  -11449   -11271   -11067   -10866   -10693   -10578   -10550   -10594 
  -10683   -10808   -10939   -11057   -11163   -11237   -11268   -11260 
  -11225   -11187   -11171   -11175   -11202   -11241   -11241   -11168 
  -11025   -10821   -10598   -10409   -10263   -10166   -10120   -10114 
  -10131   -10168   -10235   -10345   -10507   -10710   -10933   -11161 
  -11371   -11557   -11726   -11870   -11989   -12097   -12204   -12322 
  -12448   -12548   -12611   -12633   -12610   -12542   -12452   -12355 
  -12252   -12152   -12059   -11982   -11952   -11979   -12040   -12128 
  -12236   -12352   -12459   -12550   -12640   -12718   -12768   -12788 
  -12781   -12748   -12688   -12611   -12521   -12406   -12286   -12174 
  -12066   -11947   -11811   -11649   -11492   -11387   -11354   -11396 
  -11492   -11604   -11713   -11805   -11847   -11838   -11817   -11796 
  -11772   -11757   -11738   -11699   -11647   -11589   -11514   -11419 
  -11286   -11076   -10801   -10489   -10164    -9863    -9602    -9369 
   -9171    -9013    -8901    -8862    -8889    -8966    -9085    -9220 
   -9332    -9393    -9383    -9317    -9239    -9196    -9212    -9297 
   -9437    -9599    -9753    -9875    -9942    -9961    -9963    -9984 
  -10050   -10156   -10282   -10417   -10551   -10673   -10795   -10949 
  -11161   -11446   -11766   -12052   -12270   -12418   -12507   -12565 
  -12623   -12691   -12775   -12865   -12946   -13020   -13096   -13182 
  -13292   -13402   -13481   -13497   -13423   -13258   -13024   -12754 
  -12468   -12178   -11877   -11553   -11218   -10893   -10605   -10377 
  -10197   -10033    -9871    -9725    -9613    -9543    -9495    -9439 
   -9355    -9250    -9150    -9080    -9050    -9065    -9120    -9208 
   -9320    -9445    -9579    -9715    -9842    -9942   -10003   -10014 
   -9969    -9886    -9791    -9702    -9640    -9629    -9664    -9714 
   -9771    -9842    -9941   -10088   -10263   -10442   -10604   -10732 
  -10848   -11002   -11221   -11507   -11836   -12159   -12439   -12698 
  -12968   -13267   -13608   -13964   -14292   -14562   -14762   -14893 
  -14986   -15078   -15183   -15300   -15417   -15510   -15566   -15564 
  -15498   -15391   -15261   -15122   -15007   -14940   -14913   -14916 
  -14913   -14870   -14778   -14636   -14440   -14212   -13998   -13822 
  -13693   -13597   -13482   -13311   -13088   -12807   -12476   -12122 
  -11745   -11368   -11044   -10790   -10600   -10462   -10339   -10216 
  -10102   -10008    -9944    -9907    -9876    -9823    -9737    -9596 
   -9402    -9202    -9032    -8919    -8903    -8966    -9077    -9217 
   -9348    -9441    -9517    -9578    -9616    -9649    -9679    -9678 
   -9653    -9612    -9558    -9539    -9591    -9724    -9917   -10126 
  -10308   -10449   -10536   -10588   -10625   -10646   -10656   -10675 
  -10706   -10743   -10795   -10868   -10963   -11105   -11296   -11504 
  -11696   -11865   -12002   -12122   -12235   -12347   -12438   -12486 
  -12509   -12537   -12576   -12634   -12730   -12866   -13038   -13240 
  -13433   -13563   -13621   -13631   -13605   -13567   -13532   -13474 
  -13382   -13273   -13150   -13018   -12880   -12725   -12568   -12433 
  -12309   -12188   -12059   -11878   -11626   -11321   -10976   -10613 
  -10255    -9904    -9576    -9304    -9099    -8958    -8873    -8822 
   -8795    -8804    -8851    -8910    -8947    -8929    -8845    -8721 
   -8586    -8453    -8352    -8293    -8266    -8293    -8375    -8499 
   -8654    -8826    -8984    -9119    -9238    -9329    -9387    -9429 
   -9485    -9576    -9724    -9927   -10183   -10477   -10795   -11130 
  -11484   -11844   -12191   -12522   -12819   -13057   -13221   -13297 
  -13284   -13201   -13073   -12923   -12764   -12613   -12472   -12334 
  -12188   -12017   -11828   -11650   -11497   -11371   -11237   -11075 
  -10887   -10692   -10525   -10417   -10365   -10355   -10376   -10432 
  -10544   -10720   -10933   -11144   -11307   -11387   -11368   -11259 
  -11087   -10899   -10717   -10546   -10390   -10255   -10160   -10129 
  -10168   -10268   -10422   -10611   -10835   -11092   -11375   -11669 
  -11956   -12218   -12460   -12691   -12920   -13153   -13375   -13562 
  -13684   -13744   -13753   -13740   -13730   -13728   -13738   -13748 
  -13728   -13668   -13586   -13510   -13495   -13567   -13706   -13868 
  -14010   -14099   -14137   -14150   -14154   -14143   -14111   -14038 
  -13911   -13751   -13578   -13406   -13238   -13061   -12877   -12708 
  -12564   -12455   -12390   -12371   -12373   -12387   -12413   -12432 
  -12457   -12496   -12523   -12511   -12455   -12378   -12320   -12320 
  -12388   -12494   -12594   -12654   -12652   -12587   -12480   -12357 
  -12231   -12091   -11914   -11709   -11493   -11287   -11115   -10987 
  -10912   -10901   -10940   -10990   -11014   -11001   -10979   -10982 
  -11021   -11072   -11090   -11037   -10920   -10783   -10682   -10627 
  -10593   -10561   -10519   -10465   -10411   -10365   -10328   -10307 
  -10308   -10326   -10358   -10405   -10477   -10584   -10716   -10854 
  -10995   -11136   -11265   -11364   -11425   -11448   -11442   -11437 
  -11457   -11516   -11593   -11658   -11699   -11711   -11696   -11662 
  -11630   -11641   -11713   -11827   -11942   -12009   -12004   -11939 
  -11830   -11692   -11566   -11476   -11396   -11322   -11261   -11187 
  -11076   -10933   -10744   -10514   -10284   -10095    -9944    -9814 
   -9695    -9589    -9512    -9482    -9499    -9562    -9645    -9717 
   -9769    -9807    -9849    -9927   -10065   -10249   -10447   -10625 
  -10762   -10849   -10893   -10894   -10876   -10864   -10879   -10947 
  -11074   -11253   -11484   -11767   -12105   -12496   -12937   -13406 
  -13856   -14235   -14534   -14767   -14959   -15130   -15291   -15430 
  -15543   -15647   -15750   -15838   -15888   -15877   -15796   -15661 
  -15511   -15371   -15242   -15125   -15024   -14936   -14874   -14840 
  -14813   -14782   -14742   -14686   -14628   -14570   -14496   -14399 
  -14264   -14071   -13851   -13643   -13450   -13269   -13082   -12850 
  -12568   -12240   -11869   -11483   -11115   -10801   -10563   -10420 
  -10370   -10412   -10539   -10717   -10917   -11118   -11307   -11492 
  -11688   -11890   -12071   -12229   -12375   -12519   -12672   -12822 
  -12950   -13032   -13051   -13007   -12908   -12776   -12647   -12559 
  -12536   -12591   -12718   -12900   -13128   -13382   -13659   -13965 
  -14285   -14596   -14860   -15047   -15159   -15206   -15184   -15103 
  -14985   -14825   -14623   -14373   -14084   -13787   -13505   -13247 
  -13005   -12773   -12545   -12337   -12171   -12032   -11869   -11659 
  -11395   -11086   -10782   -10534   -10336   -10174   -10018    -9833 
   -9614    -9367    -9127    -8946    -8850    -8838    -8891    -8962 
   -9019    -9053    -9066    -9074    -9109    -9185    -9282    -9394 
   -9524    -9667    -9826   -10004   -10184   -10357   -10525   -10693 
  -10866   -11052   -11250   -11457   -11659   -11834   -11974   -12094 
  -12231   -12402   -12590   -12762   -12893   -12968   -12999   -12997 
  -12968   -12915   -12822   -12680   -12501   -12291   -12100   -11951 
  -11851   -11813   -11834   -11873   -11904   -11912   -11889   -11827 
  -11719   -11576   -11416   -11253   -11133   -11090   -11098   -11117 
  -11121   -11084   -11011   -10937   -10866   -10788   -10716   -10646 
  -10580   -10513   -10428   -10323   -10224   -10135   -10045    -9958 
   -9873    -9794    -9745    -9741    -9769    -9822    -9880    -9930 
   -9979   -10050   -10143   -10255   -10357   -10426   -10473   -10500 
  -10497   -10463   -10401   -10323   -10262   -10239   -10255   -10323 
  -10436   -10575   -10710   -10816   -10862   -10831   -10750   -10654 
  -10577   -10559   -10621   -10768   -11005   -11310   -11642   -11947 
  -12179   -12314   -12352   -12322   -12249   -12181   -12155   -12167 
  -12194   -12212   -12171   -12081   -11989   -11936   -11969   -12073 
  -12208   -12356   -12479   -12541   -12557   -12536   -12469   -12383 
  -12294   -12174   -12025   -11875   -11724   -11597   -11537   -11539 
  -11584   -11658   -11751   -11853   -11947   -12005   -12010   -11975 
  -11913   -11828   -11731   -11637   -11551   -11479   -11434   -11422 
  -11427   -11438   -11457   -11476   -11476   -11457   -11437   -11426 
  -11437   -11488   -11583   -11695   -11805   -11889   -11937   -11955 
  -11958   -11983   -12046   -12118   -12187   -12240   -12270   -12302 
  -12345   -12391   -12439   -12476   -12474   -12448   -12420   -12379 
  -12322   -12275   -12262   -12289   -12363   -12479   -12594   -12672 
  -12700   -12653   -12557   -12484   -12480   -12548   -12661   -12769 
  -12842   -12874   -12880   -12891   -12930   -12988   -13055   -13147 
  -13267   -13390   -13483   -13518   -13487   -13402   -13284   -13161 
  -13066   -13003   -12969   -12958   -12941   -12892   -12811   -12704 
  -12600   -12498   -12394   -12305   -12209   -12067   -11890   -11681 
  -11433   -11156   -10874   -10609   -10389   -10214   -10079    -9957 
   -9811    -9636    -9440    -9231    -9023    -8830    -8652    -8483 
   -8329    -8174    -8005    -7831    -7684    -7586    -7543    -7553 
   -7611    -7723    -7892    -8089    -8290    -8464    -8603    -8726 
   -8843    -8959    -9094    -9252    -9436    -9652    -9879   -10084 
  -10250   -10382   -10507   -10625   -10739   -10862   -10984   -11097 
  -11200   -11295   -11376   -11454   -11535   -11618   -11700   -11789 
  -11885   -11978   -12052   -12093   -12089   -12043   -11946   -11804 
  -11649   -11507   -11389   -11300   -11240   -11196   -11159   -11124 
  -11091   -11036   -10937   -10802   -10629   -10423   -10215   -10027 
   -9853    -9694    -9543    -9393    -9263    -9182    -9170    -9242 
   -9382    -9551    -9715    -9859    -9975   -10081   -10226   -10434 
  -10693   -10978   -11245   -11461   -11615   -11722   -11808   -11908 
  -12044   -12224   -12438   -12657   -12845   -12991   -13108   -13227 
  -13375   -13554   -13749   -13940   -14090   -14192   -14269   -14341 
  -14412   -14509   -14634   -14747   -14844   -14918   -14949   -14953 
  -14921   -14827   -14683   -14506   -14316   -14142   -13969   -13761 
  -13501   -13180   -12819   -12474   -12185   -11951   -11762   -11596 
  -11437   -11290   -11173   -11082   -11001   -10913   -10802   -10673 
  -10527   -10384   -10287   -10272   -10353   -10514   -10689   -10782 
  -10768   -10697   -10612   -10551   -10524   -10488   -10407   -10284 
  -10139   -10002    -9891    -9837    -9861    -9949   -10072   -10204 
  -10320   -10401   -10450   -10507   -10596   -10712   -10854   -11011 
  -11186   -11377   -11564   -11711   -11804   -11859   -11893   -11913 
  -11929   -11952   -11983   -12021   -12042   -12029   -11996   -11935 
  -11817   -11651   -11468   -11269   -11092   -10990   -10975   -11056 
  -11207   -11371   -11521   -11642   -11708   -11722   -11691   -11638 
  -11592   -11556   -11518   -11472   -11434   -11415   -11408   -11398 
  -11348   -11234   -11061   -10836   -10574   -10307   -10050    -9828 
   -9653    -9526    -9450    -9417    -9413    -9443    -9504    -9563 
   -9603    -9607    -9582    -9558    -9541    -9537    -9541    -9530 
   -9497    -9458    -9413    -9354    -9277    -9180    -9078    -8992 
   -8929    -8895    -8892    -8931    -9009    -9121    -9258    -9391 
   -9489    -9533    -9517    -9452    -9370    -9289    -9242    -9254 
   -9319    -9413    -9525    -9643    -9752    -9842    -9910    -9961 
  -10022   -10111   -10214   -10331   -10481   -10643   -10760   -10801 
  -10763   -10667   -10559   -10490   -10476   -10513   -10578   -10638 
