Origin Time       2016/04/16 01:25:00
Lat.              32.753
Long.             130.762
Depth. (km)       12
Mag.              7.3
Station Code      KGW002
Station Lat.      34.4727
Station Long.     134.3139
Station Height(m) 4
Record Time       2016/04/16 01:26:56
Sampling Freq(Hz) 100Hz
Duration Time(s)  66
Dir.              N-S
Scale Factor      7845(gal)/8223790
Max. Acc. (gal)   2.798
Last Correction   2016/04/16 01:26:57
Memo.             
[...]
   -1661    -1594    -1528    -1474    -1445    -1452    -1479    -1516 
   -1556    -1591    -1620    -1648    -1679    -1709    -1736    -1752 
   -1755    -1740    -1703    -1642    -1568    -1491    -1420    -1362 
   -1318    -1289    -1269    -1262    -1270    -1290    -1329    -1378 
   -1426    -1476    -1528    -1579    -1634    -1692    -1750    -1807 
   -1858    -1892    -1907    -1900    -1865    -1809    -1742    -1677 
   -1621    -1578    -1545    -1518    -1502    -1495    -1505    -1543 
   -1605    -1680    -1769    -1871    -1962    -2031    -2072    -2070 
   -2025    -1954    -1877    -1800    -1732    -1674    -1622    -1582 
   -1563    -1570    -1594    -1640    -1699    -1768    -1845    -1921 
   -1975    -1995    -1982    -1941    -1876    -1796    -1698    -1590 
   -1494    -1408    -1340    -1308    -1308    -1329    -1370    -1425 
   -1486    -1549    -1614    -1671    -1713    -1746    -1765    -1764 
   -1744    -1698    -1628    -1547    -1464    -1390    -1334    -1306 
   -1293    -1287    -1289    -1289    -1286    -1294    -1321    -1372 
   -1443    -1509    -1564    -1595    -1597    -1579    -1549    -1497 
   -1436    -1395    -1372    -1352    -1343    -1343    -1352    -1387 
   -1448    -1525    -1622    -1732    -1841    -1956    -2079    -2184 
   -2265    -2322    -2346    -2335    -2290    -2209    -2097    -1972 
   -1844    -1723    -1630    -1563    -1512    -1480    -1467    -1466 
   -1478    -1505    -1545    -1606    -1690    -1776    -1852    -1918 
   -1956    -1960    -1934    -1875    -1796    -1722    -1658    -1605 
   -1563    -1534    -1517    -1521    -1559    -1618    -1692    -1781 
   -1872    -1964    -2062    -2149    -2208    -2250    -2270    -2261 
   -2228    -2176    -2111    -2045    -1982    -1925    -1875    -1838 
   -1814    -1800    -1800    -1800    -1795    -1794    -1807    -1826 
   -1857    -1890    -1912    -1923    -1925    -1922    -1915    -1906 
   -1892    -1876    -1864    -1859    -1861    -1867    -1876    -1872 
   -1856    -1831    -1791    -1737    -1686    -1640    -1605    -1583 
   -1572    -1567    -1572    -1586    -1597    -1614    -1638    -1665 
   -1699    -1738    -1769    -1786    -1780    -1744    -1668    -1559 
   -1431    -1286    -1129     -974     -838     -743     -688     -669 
    -684     -728     -797     -888    -1003    -1139    -1289    -1435 
   -1554    -1645    -1698    -1717    -1713    -1684    -1630    -1556 
   -1471    -1385    -1308    -1243    -1183    -1142    -1123    -1133 
   -1175    -1242    -1328    -1421    -1509    -1586    -1644    -1679 
   -1698    -1698    -1677    -1648    -1613    -1574    -1541    -1512 
   -1482    -1456    -1437    -1431    -1433    -1437    -1433    -1420 
   -1404    -1385    -1374    -1381    -1393    -1409    -1435    -1466 
   -1498    -1535    -1571    -1593    -1605    -1615    -1613    -1595 
   -1575    -1552    -1528    -1502    -1460    -1405    -1356    -1306 
   -1258    -1229    -1223    -1242    -1289    -1356    -1431    -1507 
   -1587    -1672    -1769    -1877    -1985    -2076    -2141    -2182 
   -2203    -2209    -2203    -2185    -2158    -2124    -2087    -2047 
   -2012    -1979    -1952    -1945    -1954    -1980    -2026    -2081 
   -2134    -2184    -2227    -2262    -2288    -2308    -2324    -2328 
   -2319    -2296    -2255    -2201    -2149    -2096    -2046    -2007 
   -1980    -1961    -1956    -1958    -1956    -1952    -1945    -1929 
   -1912    -1907    -1900    -1894    -1892    -1883    -1871    -1867 
   -1873    -1895    -1941    -2000    -2050    -2079    -2088    -2079 
   -2053    -2029    -2003    -1975    -1938    -1884    -1811    -1732 
   -1655    -1587    -1533    -1497    -1479    -1479    -1486    -1482 
   -1463    -1429    -1378    -1321    -1266    -1198    -1117    -1030 
    -938     -845     -758     -679     -611     -562     -526     -508 
    -508     -519     -544     -592     -638     -677     -712     -718 
    -681     -622     -540     -445     -365     -305     -253     -229 
    -236     -255     -297     -369     -463     -565     -681     -799 
    -903     -980    -1007     -974     -900     -800     -687     -575 
    -475     -391     -329     -292     -275     -280     -317     -379 
    -468     -585     -723     -868    -1016    -1170    -1325    -1471 
   -1599    -1706    -1787    -1837    -1854    -1841    -1806    -1763 
   -1714    -1667    -1621    -1568    -1509    -1456    -1410    -1372 
   -1354    -1352    -1362    -1389    -1422    -1456    -1491    -1525 
   -1554    -1590    -1632    -1675    -1718    -1753    -1775    -1791 
   -1803    -1804    -1807    -1826    -1868    -1935    -2022    -2106 
   -2178    -2236    -2280    -2322    -2361    -2397    -2424    -2436 
   -2428    -2397    -2354    -2301    -2243    -2187    -2138    -2098 
   -2064    -2025    -1979    -1926    -1873    -1818    -1771    -1737 
   -1715    -1703    -1703    -1714    -1729    -1749    -1769    -1788 
   -1811    -1833    -1845    -1852    -1858    -1859    -1852    -1844 
   -1830    -1825    -1844    -1873    -1902    -1934    -1965    -1985 
   -2006    -2026    -2043    -2060    -2072    -2083    -2093    -2093 
   -2068    -2025    -1969    -1907    -1854    -1807    -1753    -1703 
   -1661    -1620    -1583    -1561    -1547    -1540    -1554    -1579 
   -1611    -1657    -1706    -1755    -1804    -1856    -1900    -1939 
   -1977    -2011    -2039    -2062    -2070    -2070    -2057    -2027 
   -1985    -1934    -1865    -1787    -1707    -1624    -1543    -1467 
   -1398    -1339    -1296    -1264    -1246    -1232    -1227    -1230 
   -1240    -1248    -1246    -1233    -1215    -1202    -1205    -1215 
   -1223    -1227    -1221    -1202    -1174    -1138    -1100    -1075 
   -1069    -1074    -1089    -1115    -1142    -1188    -1247    -1308 
   -1370    -1429    -1475    -1516    -1553    -1593    -1637    -1688 
   -1752    -1826    -1900    -1971    -2033    -2084    -2130    -2185 
   -2253    -2336    -2447    -2579    -2724    -2879    -3041    -3207 
   -3379    -3550    -3709    -3852    -3982    -4095    -4189    -4266 
   -4314    -4322    -4298    -4243    -4159    -4055    -3946    -3828 
   -3708    -3588    -3470    -3362    -3272    -3203    -3161    -3156 
   -3191    -3261    -3361    -3488    -3639    -3796    -3951    -4093 
   -4199    -4258    -4271    -4220    -4109    -3950    -3751    -3526 
   -3291    -3063    -2853    -2667    -2511    -2390    -2312    -2265 
   -2243    -2253    -2289    -2346    -2407    -2455    -2478    -2470 
   -2421    -2331    -2214    -2084    -1944    -1800    -1663    -1525 
   -1393    -1279    -1185    -1120    -1097    -1105    -1132    -1182 
   -1242    -1293    -1337    -1371    -1390    -1389    -1363    -1312 
   -1244    -1173    -1100    -1019     -940     -866     -797     -741 
    -700     -668     -645     -625     -598     -569     -538     -490 
    -421     -336     -224      -98       25      152      266      344 
     388      395      361      303      232      140       39      -60 
    -160     -253     -328     -378     -392     -372     -317     -237 
    -144      -52       36      117      186      229      237      207 
     135       32      -86     -217     -355     -490     -625     -760 
    -877     -973    -1046    -1084    -1084    -1055    -1000     -909 
    -797     -681     -569     -476     -421     -398     -414     -476 
    -583     -734     -932    -1166    -1425    -1701    -1962    -2193 
   -2388    -2532    -2616    -2650    -2641    -2586    -2498    -2396 
   -2288    -2189    -2114    -2066    -2058    -2095    -2177    -2295 
   -2432    -2573    -2695    -2787    -2825    -2795    -2701    -2546 
   -2342    -2107    -1864    -1615    -1379    -1174    -1007     -886 
    -824     -828     -900    -1039    -1237    -1470    -1714    -1942 
   -2135    -2284    -2371    -2396    -2354    -2251    -2110    -1952 
   -1798    -1653    -1528    -1433    -1367    -1336    -1352    -1418 
   -1539    -1718    -1939    -2181    -2423    -2635    -2786    -2863 
   -2867    -2818    -2733    -2632    -2520    -2397    -2259    -2104 
   -1935    -1765    -1613    -1493    -1424    -1417    -1467    -1570 
   -1714    -1880    -2050    -2209    -2349    -2467    -2567    -2646 
   -2710    -2772    -2826    -2872    -2910    -2940    -2960    -2978 
   -2999    -3028    -3056    -3090    -3133    -3183    -3231    -3276 
   -3311    -3322    -3315    -3291    -3241    -3176    -3105    -3017 
   -2909    -2772    -2605    -2412    -2205    -2006    -1831    -1688 
   -1580    -1512    -1480    -1482    -1514    -1582    -1671    -1776 
   -1902    -2038    -2176    -2307    -2416    -2489    -2524    -2523 
   -2482    -2405    -2299    -2165    -2023    -1884    -1746    -1624 
   -1534    -1478    -1456    -1483    -1540    -1602    -1665    -1728 
   -1771    -1792    -1799    -1784    -1748    -1692    -1610    -1503 
   -1385    -1260    -1143    -1053    -1003     -986     -996    -1019 
   -1044    -1071    -1105    -1142    -1181    -1220    -1244    -1256 
   -1254    -1219    -1151    -1073     -989     -913     -861     -841 
    -851     -885     -926     -953     -963     -969     -976     -985 
   -1008    -1038    -1067    -1097    -1109    -1093    -1050     -973 
    -877     -785     -685     -585     -491     -395     -307     -238 
    -186     -160     -176     -225     -302     -396     -486     -556 
    -606     -619     -591     -531     -453     -361     -259     -167 
     -94      -54      -49      -90     -178     -307     -468     -653 
    -854    -1058    -1250    -1408    -1522    -1590    -1606    -1571 
   -1494    -1382    -1254    -1124    -1017     -939     -893     -884 
    -907     -970    -1085    -1243    -1426    -1621    -1813    -1999 
   -2162    -2297    -2405    -2481    -2520    -2538    -2528    -2486 
   -2425    -2351    -2265    -2188    -2128    -2088    -2079    -2104 
   -2160    -2243    -2354    -2477    -2604    -2732    -2851    -2955 
   -3052    -3150    -3249    -3355    -3468    -3576    -3674    -3753 
   -3800    -3817    -3807    -3776    -3735    -3685    -3632    -3585 
   -3550    -3519    -3489    -3470    -3461    -3461    -3485    -3538 
   -3613    -3716    -3835    -3955    -4052    -4110    -4125    -4091 
   -4014    -3916    -3802    -3681    -3561    -3430    -3296    -3171 
   -3041    -2911    -2802    -2709    -2621    -2552    -2500    -2457 
   -2440    -2451    -2466    -2488    -2532    -2592    -2668    -2771 
   -2882    -2998    -3111    -3211    -3289    -3350    -3385    -3385 
   -3353    -3299    -3229    -3154    -3083    -3017    -2963    -2925 
   -2901    -2891    -2887    -2889    -2907    -2932    -2952    -2970 
   -2967    -2945    -2910    -2849    -2752    -2632    -2490    -2323 
   -2143    -1956    -1750    -1540    -1341    -1152     -978     -846 
    -746     -666     -626     -618     -622     -643     -677     -696 
    -704     -702     -676     -629     -560     -476     -398     -338 
    -297     -272     -265     -275     -303     -344     -392     -454 
    -529     -611     -704     -804     -900     -992    -1080    -1150 
   -1202    -1237    -1263    -1285    -1305    -1327    -1343    -1340 
   -1312    -1258    -1178    -1089    -1003     -931     -888     -866 
    -862     -882     -920     -966    -1031    -1104    -1178    -1256 
   -1334    -1413    -1495    -1580    -1658    -1711    -1726    -1710 
   -1663    -1584    -1491    -1401    -1308    -1212    -1115    -1011 
    -899     -787     -679     -585     -522     -481     -467     -484 
    -521     -561     -610     -665     -726     -797     -873     -945 
   -1021    -1093    -1148    -1189    -1201    -1185    -1152    -1104 
   -1051    -1004     -954     -896     -837     -784     -741     -722 
    -738     -785     -864     -969    -1075    -1167    -1237    -1277 
   -1281    -1256    -1198    -1102     -961     -769     -535     -276 
     -14      225      422      550      602      581      495      346 
     156      -63     -303     -538     -749     -927    -1058    -1139 
   -1177    -1170    -1124    -1053     -966     -877     -814     -796 
    -824     -905    -1042    -1213    -1405    -1617    -1819    -1995 
   -2142    -2257    -2330    -2361    -2351    -2296    -2196    -2077 
   -1952    -1818    -1687    -1571    -1470    -1385    -1318    -1277 
   -1275    -1313    -1389    -1502    -1642    -1787    -1937    -2085 
   -2209    -2315    -2407    -2478    -2533    -2574    -2582    -2556 
   -2512    -2452    -2384    -2334    -2315    -2328    -2377    -2442 
   -2519    -2602    -2682    -2751    -2808    -2839    -2833    -2792 
   -2698    -2532    -2299    -2016    -1698    -1370    -1062     -780 
    -537     -359     -232     -140      -90      -79      -98     -151 
    -241     -349     -479     -637     -797     -942    -1070    -1162 
   -1208    -1237    -1254    -1248    -1225    -1181    -1105    -1004 
    -886     -749     -612     -500     -409     -340     -295     -263 
    -257     -283     -340     -419     -504     -585     -661     -728 
    -783     -820     -846     -855     -849     -823     -769     -681 
    -564     -423     -266      -98       56      189      307      409 
     491      565      621      649      648      615      556      477 
     390      310      253      234      263      333      434      572 
     728      884     1030     1151     1244     1310     1329     1297 
    1221     1115      997      870      739      616      500      386 
     283      197      126       76       47       35       25       32 
      55       82      122      172      221      265      306      337 
     357      353      324      271      190       79      -56     -214 
    -392     -587     -785     -977    -1156    -1310    -1418    -1467 
   -1460    -1405    -1317    -1212    -1096     -973     -869     -780 
    -697     -625     -561     -511     -486     -481     -506     -573 
    -677     -807     -946    -1069    -1169    -1254    -1321    -1372 
   -1424    -1466    -1494    -1512    -1502    -1455    -1390    -1304 
   -1192    -1058     -916     -784     -668     -571     -499     -454 
    -440     -448     -460     -471     -495     -540     -595     -657 
    -731     -807     -872     -915     -923     -903     -858     -787 
    -702     -616     -525     -429     -332     -246     -182     -139 
    -110      -94      -97     -120     -151     -197     -271     -365 
    -477     -603     -720     -826     -923     -994    -1032    -1044 
   -1028     -985     -931     -873     -818     -780     -751     -710 
    -653     -622     -634     -683     -783     -916    -1060    -1219 
   -1377    -1509    -1615    -1694    -1744    -1776    -1791    -1786 
   -1767    -1749    -1726    -1706    -1717    -1745    -1784    -1845 
   -1911    -1987    -2073    -2147    -2199    -2239    -2272    -2295 
   -2297    -2262    -2196    -2133    -2076    -2027    -1996    -1972 
   -1956    -1956    -1956    -1946    -1934    -1922    -1912    -1898 
   -1868    -1826    -1781    -1734    -1690    -1655    -1632    -1644 
   -1691    -1761    -1854    -1964    -2079    -2188    -2289    -2370 
   -2420    -2442    -2432    -2398    -2353    -2296    -2227    -2151 
   -2068    -1979    -1900    -1852    -1848    -1890    -1980    -2106 
   -2238    -2370    -2497    -2601    -2675    -2735    -2762    -2739 
   -2679    -2592    -2471    -2328    -2180    -2020    -1852    -1706 
   -1583    -1474    -1397    -1368    -1374    -1410    -1480    -1583 
   -1701    -1814    -1900    -1942    -1949    -1952    -1930    -1878 
   -1803    -1706    -1583    -1439    -1277    -1097     -915     -749 
    -607     -488     -402     -356     -356     -388     -450     -533 
    -633     -738     -838     -915     -959     -977     -966     -939 
    -903     -843     -764     -679     -594     -503     -423     -373 
    -352     -336     -332     -352     -376     -402     -434     -454 
    -454     -450     -436     -409     -373     -333     -299     -294 
    -324     -388     -469     -550     -622     -681     -734     -791 
    -869     -958    -1034    -1093    -1115    -1086    -1030     -955 
    -854     -761     -700     -664     -664     -699     -741     -772 
    -803     -853     -940    -1071    -1219    -1350    -1471    -1584 
   -1664    -1714    -1750    -1757    -1738    -1710    -1657    -1575 
   -1480    -1382    -1266    -1152    -1073    -1013     -962     -951 
    -980    -1007    -1048    -1131    -1246    -1381    -1533    -1677 
   -1780    -1837    -1867    -1869    -1859    -1852    -1838    -1826 
   -1831    -1826    -1811    -1811    -1822    -1837    -1871    -1929 
   -2034    -2176    -2303    -2415    -2527    -2608    -2646    -2651 
   -2627    -2586    -2544    -2475    -2373    -2281    -2193    -2095 
   -2011    -1945    -1892    -1887    -1919    -1962    -2034    -2134 
   -2234    -2331    -2424    -2498    -2559    -2612    -2641    -2650 
   -2632    -2594    -2551    -2485    -2386    -2282    -2191    -2111 
   -2053    -2020    -2004    -2019    -2081    -2169    -2267    -2380 
   -2482    -2550    -2571    -2548    -2511    -2465    -2390    -2305 
   -2232    -2150    -2034    -1911    -1826    -1768    -1722    -1715 
   -1763    -1863    -2008    -2178    -2344    -2490    -2601    -2669 
   -2701    -2710    -2705    -2677    -2598    -2454    -2257    -2058 
   -1890    -1718    -1535    -1404    -1341    -1327    -1371    -1462 
   -1563    -1667    -1804    -1968    -2095    -2192    -2303    -2380 
   -2396    -2386    -2370    -2338    -2293    -2245    -2203    -2178 
   -2174    -2180    -2188    -2212    -2292    -2411    -2502    -2575 
   -2677    -2794    -2898    -2990    -3061    -3096    -3117    -3122 
   -3100    -3065    -3029    -2983    -2929    -2878    -2836    -2798 
   -2758    -2704    -2633    -2558    -2466    -2374    -2315    -2273 
   -2243    -2231    -2215    -2174    -2121    -2087    -2060    -2025 
   -1996    -1979    -1964    -1948    -1902    -1817    -1721    -1629 
   -1566    -1543    -1528    -1521    -1547    -1593    -1640    -1701 
   -1776    -1861    -1965    -2074    -2174    -2277    -2380    -2442 
   -2466    -2486    -2504    -2511    -2509    -2497    -2474    -2467 
   -2477    -2481    -2496    -2538    -2598    -2685    -2787    -2875 
   -2945    -2998    -3030    -3067    -3094    -3090    -3090    -3099 
   -3096    -3102    -3114    -3106    -3090    -3115    -3171    -3229 
   -3284    -3345    -3400    -3451    -3489    -3489    -3454    -3415 
   -3369    -3308    -3253    -3213    -3200    -3235    -3310    -3391 
   -3468    -3539    -3595    -3642    -3688    -3717    -3727    -3731 
   -3717    -3676    -3615    -3530    -3415    -3287    -3176    -3084 
   -3017    -2975    -2945    -2938    -2965    -3011    -3075    -3159 
   -3245    -3317    -3380    -3433    -3465    -3474    -3470    -3450 
   -3407    -3360    -3316    -3265    -3210    -3160    -3103    -3049 
   -3015    -2983    -2945    -2911    -2868    -2803    -2744    -2701 
   -2666    -2654    -2667    -2669    -2663    -2673    -2681    -2673 
   -2652    -2621    -2590    -2563    -2539    -2511    -2482    -2461 
