Origin Time       2016/04/16 01:25:00
Lat.              32.753
Long.             130.762
Depth. (km)       12
Mag.              7.3
Station Code      KGW003
Station Lat.      34.2644
Station Long.     133.7896
Station Height(m) 12
Record Time       2016/04/16 01:26:05
Sampling Freq(Hz) 100Hz
Duration Time(s)  110
Dir.              N-S
Scale Factor      7845(gal)/8223790
Max. Acc. (gal)   4.799
Last Correction   2016/04/16 01:26:06
Memo.             
[...]
   -3815    -3775    -3747    -3721    -3713    -3705    -3666    -3584 
   -3464    -3323    -3204    -3127    -3082    -3053    -3033    -3010 
   -2976    -2921    -2837    -2721    -2575    -2400    -2218    -2062 
   -1949    -1881    -1838    -1780    -1686    -1584    -1518    -1520 
   -1598    -1723    -1861    -1995    -2107    -2203    -2282    -2342 
   -2388    -2454    -2546    -2663    -2809    -2975    -3137    -3292 
   -3423    -3505    -3553    -3589    -3630    -3696    -3786    -3890 
   -4003    -4113    -4202    -4261    -4286    -4278    -4263    -4278 
   -4334    -4423    -4523    -4606    -4671    -4710    -4718    -4693 
   -4652    -4594    -4534    -4473    -4395    -4286    -4140    -3948 
   -3736    -3547    -3397    -3294    -3229    -3163    -3065    -2951 
   -2833    -2721    -2627    -2560    -2527    -2531    -2573    -2629 
   -2677    -2695    -2688    -2667    -2652    -2662    -2710    -2770 
   -2802    -2813    -2818    -2820    -2810    -2774    -2679    -2535 
   -2380    -2251    -2192    -2223    -2334    -2505    -2713    -2909 
   -3078    -3231    -3364    -3469    -3553    -3605    -3628    -3631 
   -3599    -3537    -3465    -3388    -3319    -3279    -3262    -3267 
   -3292    -3315    -3310    -3288    -3260    -3229    -3208    -3199 
   -3190    -3176    -3156    -3127    -3087    -3026    -2967    -2938 
   -2934    -2949    -2983    -3026    -3071    -3121    -3154    -3152 
   -3099    -3001    -2878    -2771    -2728    -2763    -2844    -2945 
   -3030    -3083    -3118    -3148    -3173    -3213    -3262    -3299 
   -3310    -3288    -3248    -3208    -3171    -3133    -3107    -3096 
   -3092    -3106    -3149    -3223    -3329    -3466    -3615    -3755 
   -3863    -3920    -3932    -3931    -3929    -3951    -4006    -4079 
   -4153    -4203    -4213    -4203    -4195    -4190    -4187    -4178 
   -4133    -4036    -3912    -3780    -3657    -3550    -3469    -3412 
   -3373    -3336    -3288    -3240    -3204    -3183    -3167    -3154 
   -3140    -3138    -3161    -3190    -3203    -3207    -3206    -3208 
   -3222    -3225    -3202    -3160    -3113    -3079    -3073    -3096 
   -3133    -3159    -3141    -3056    -2920    -2775    -2654    -2590 
   -2592    -2636    -2717    -2833    -2979    -3140    -3279    -3375 
   -3435    -3472    -3511    -3576    -3665    -3757    -3831    -3871 
   -3859    -3797    -3707    -3609    -3523    -3446    -3354    -3248 
   -3152    -3079    -3029    -2997    -2947    -2855    -2739    -2627 
   -2555    -2548    -2601    -2686    -2772    -2852    -2934    -3013 
   -3083    -3145    -3204    -3269    -3334    -3381    -3399    -3395 
   -3384    -3387    -3400    -3419    -3435    -3451    -3466    -3481 
   -3499    -3522    -3542    -3546    -3514    -3427    -3310    -3204 
   -3146    -3145    -3180    -3215    -3241    -3268    -3311    -3352 
   -3360    -3331    -3283    -3235    -3213    -3203    -3171    -3102 
   -3005    -2882    -2740    -2590    -2447    -2330    -2253    -2215 
   -2199    -2187    -2172    -2150    -2128    -2139    -2201    -2312 
   -2442    -2565    -2668    -2776    -2907    -3060    -3229    -3391 
   -3497    -3523    -3470    -3366    -3258    -3198    -3202    -3254 
   -3325    -3385    -3424    -3445    -3449    -3442    -3429    -3403 
   -3373    -3348    -3312    -3260    -3218    -3198    -3192    -3196 
   -3215    -3230    -3222    -3196    -3156    -3098    -3026    -2953 
   -2876    -2802    -2744    -2701    -2659    -2621    -2589    -2548 
   -2492    -2431    -2389    -2371    -2374    -2388    -2385    -2349 
   -2309    -2293    -2299    -2311    -2309    -2272    -2200    -2124 
   -2073    -2060    -2079    -2123    -2181    -2238    -2288    -2319 
   -2330    -2334    -2351    -2380    -2413    -2461    -2513    -2552 
   -2571    -2556    -2505    -2446    -2413    -2413    -2436    -2451 
   -2444    -2435    -2448    -2493    -2559    -2620    -2659    -2688 
   -2721    -2759    -2817    -2899    -2984    -3046    -3059    -3021 
   -2960    -2918    -2933    -3009    -3107    -3199    -3276    -3336 
   -3384    -3402    -3369    -3291    -3200    -3132    -3100    -3115 
   -3180    -3283    -3383    -3457    -3492    -3483    -3437    -3380 
   -3322    -3258    -3192    -3130    -3075    -3033    -3001    -2967 
   -2938    -2934    -2974    -3042    -3111    -3161    -3177    -3163 
   -3144    -3121    -3064    -2986    -2926    -2876    -2825    -2792 
   -2789    -2810    -2853    -2895    -2925    -2948    -2967    -2967 
   -2937    -2898    -2889    -2938    -3051    -3203    -3358    -3488 
   -3588    -3662    -3703    -3697    -3672    -3667    -3700    -3775 
   -3886    -3994    -4059    -4068    -4039    -3984    -3901    -3801 
   -3704    -3608    -3507    -3404    -3316    -3275    -3292    -3349 
   -3403    -3438    -3446    -3427    -3407    -3407    -3406    -3399 
   -3402    -3414    -3429    -3440    -3437    -3402    -3336    -3248 
   -3153    -3075    -3015    -2967    -2930    -2893    -2859    -2844 
   -2856    -2890    -2930    -2955    -2960    -2955    -2938    -2930 
   -2949    -2974    -2997    -3030    -3073    -3125    -3187    -3246 
   -3289    -3333    -3383    -3426    -3457    -3478    -3491    -3483 
   -3457    -3438    -3423    -3399    -3365    -3326    -3262    -3172 
   -3079    -3002    -2940    -2896    -2862    -2817    -2752    -2663 
   -2546    -2427    -2324    -2243    -2191    -2157    -2130    -2114 
   -2116    -2150    -2214    -2295    -2382    -2447    -2466    -2444 
   -2404    -2363    -2353    -2396    -2488    -2604    -2721    -2824 
   -2906    -2974    -3019    -3061    -3121    -3198    -3287    -3384 
   -3492    -3619    -3754    -3882    -3986    -4055    -4086    -4079 
   -4058    -4060    -4097    -4147    -4195    -4228    -4240    -4225 
   -4191    -4132    -4044    -3932    -3796    -3631    -3433    -3219 
   -3029    -2890    -2801    -2743    -2686    -2605    -2500    -2392 
   -2316    -2290    -2313    -2359    -2409    -2447    -2458    -2440 
   -2411    -2390    -2376    -2361    -2358    -2376    -2415    -2482 
   -2577    -2694    -2844    -3032    -3244    -3469    -3684    -3855 
   -3975    -4058    -4102    -4118    -4121    -4113    -4085    -4029 
   -3951    -3861    -3776    -3704    -3653    -3631    -3639    -3692 
   -3794    -3927    -4069    -4203    -4295    -4321    -4291    -4217 
   -4112    -4009    -3950    -3940    -3967    -4000    -4008    -3979 
   -3923    -3848    -3770    -3697    -3642    -3603    -3577    -3586 
   -3640    -3738    -3859    -3978    -4074    -4132    -4148    -4137 
   -4121    -4106    -4085    -4052    -4003    -3946    -3888    -3844 
   -3842    -3880    -3913    -3915    -3883    -3831    -3776    -3712 
   -3623    -3515    -3397    -3277    -3159    -3037    -2905    -2768 
   -2635    -2516    -2431    -2388    -2370    -2358    -2338    -2307 
   -2281    -2272    -2270    -2281    -2309    -2340    -2369    -2389 
   -2390    -2376    -2369    -2378    -2397    -2420    -2424    -2408 
   -2390    -2385    -2417    -2505    -2650    -2851    -3083    -3281 
   -3403    -3440    -3403    -3322    -3240    -3183    -3165    -3192 
   -3252    -3327    -3426    -3561    -3728    -3921    -4126    -4315 
   -4460    -4560    -4614    -4618    -4585    -4527    -4446    -4355 
   -4263    -4171    -4081    -3994    -3913    -3839    -3759    -3655 
   -3535    -3422    -3322    -3246    -3203    -3172    -3141    -3113 
   -3080    -3037    -2988    -2934    -2872    -2803    -2720    -2609 
   -2479    -2355    -2257    -2205    -2211    -2250    -2284    -2278 
   -2222    -2134    -2050    -2008    -2030    -2101    -2192    -2273 
   -2323    -2332    -2300    -2243    -2169    -2087    -2023    -2003 
   -2046    -2169    -2350    -2543    -2698    -2779    -2791    -2768 
   -2745    -2758    -2822    -2926    -3029    -3111    -3192    -3296 
   -3446    -3634    -3824    -3996    -4163    -4337    -4510    -4660 
   -4764    -4808    -4792    -4734    -4669    -4611    -4552    -4494 
   -4455    -4442    -4459    -4510    -4595    -4703    -4812    -4900 
   -4947    -4943    -4876    -4748    -4594    -4444    -4318    -4190 
   -4036    -3873    -3716    -3577    -3462    -3350    -3222    -3076 
   -2913    -2736    -2563    -2413    -2297    -2209    -2134    -2038 
   -1899    -1733    -1559    -1387    -1230    -1090     -951     -820 
    -712     -645     -633     -662     -700     -727     -747     -780 
    -855     -990    -1185    -1431    -1687    -1911    -2083    -2209 
   -2308    -2393    -2479    -2578    -2697    -2835    -2967    -3075 
   -3154    -3218    -3291    -3388    -3526    -3701    -3894    -4078 
   -4236    -4359    -4445    -4514    -4573    -4625    -4669    -4710 
   -4760    -4837    -4934    -5022    -5051    -4996    -4857    -4650 
   -4399    -4140    -3905    -3699    -3515    -3331    -3136    -2945 
   -2782    -2668    -2617    -2617    -2662    -2740    -2818    -2866 
   -2891    -2905    -2906    -2909    -2918    -2928    -2938    -2945 
   -2928    -2878    -2803    -2717    -2644    -2616    -2650    -2743 
   -2868    -3005    -3140    -3267    -3400    -3557    -3742    -3946 
   -4144    -4303    -4417    -4494    -4557    -4618    -4656    -4653 
   -4612    -4534    -4418    -4279    -4152    -4063    -4005    -3954 
   -3890    -3794    -3672    -3542    -3418    -3304    -3221    -3176 
   -3167    -3177    -3196    -3203    -3176    -3121    -3038    -2933 
   -2814    -2690    -2569    -2481    -2442    -2452    -2492    -2519 
   -2505    -2451    -2363    -2254    -2133    -2004    -1884    -1796 
   -1768    -1799    -1871    -1964    -2068    -2181    -2305    -2436 
   -2560    -2668    -2768    -2868    -2978    -3113    -3269    -3419 
   -3532    -3601    -3645    -3682    -3738    -3816    -3877    -3882 
   -3813    -3665    -3459    -3238    -3037    -2876    -2751    -2659 
   -2608    -2610    -2659    -2739    -2836    -2932    -3018    -3103 
   -3172    -3198    -3175    -3100    -2984    -2856    -2731    -2605 
   -2477    -2338    -2189    -2052    -1962    -1939    -1964    -2001 
   -2030    -2045    -2060    -2107    -2203    -2330    -2454    -2555 
   -2636    -2732    -2868    -3044    -3229    -3396    -3532    -3642 
   -3748    -3851    -3917    -3932    -3890    -3790    -3676    -3565 
   -3478    -3442    -3447    -3473    -3530    -3624    -3740    -3848 
   -3928    -3960    -3935    -3858    -3746    -3611    -3468    -3350 
   -3284    -3264    -3281    -3315    -3335    -3346    -3357    -3368 
   -3379    -3396    -3419    -3447    -3472    -3473    -3442    -3379 
   -3300    -3229    -3183    -3172    -3200    -3254    -3315    -3377 
   -3426    -3457    -3501    -3574    -3658    -3735    -3790    -3804 
   -3771    -3715    -3661    -3640    -3688    -3817    -4016    -4256 
   -4514    -4764    -4974    -5131    -5243    -5323    -5381    -5429 
   -5476    -5510    -5514    -5487    -5429    -5354    -5282    -5217 
   -5155    -5089    -5005    -4899    -4772    -4625    -4460    -4271 
   -4044    -3784    -3515    -3253    -2991    -2732    -2492    -2276 
   -2102    -1984    -1906    -1846    -1796    -1748    -1690    -1609 
   -1507    -1401    -1302    -1235    -1208    -1206    -1212    -1235 
   -1279    -1334    -1413    -1520    -1642    -1781    -1942    -2116 
   -2281    -2415    -2501    -2555    -2612    -2691    -2803    -2952 
   -3129    -3317    -3511    -3700    -3873    -4003    -4055    -4014 
   -3892    -3712    -3532    -3422    -3403    -3462    -3580    -3719 
   -3844    -3965    -4107    -4284    -4498    -4725    -4928    -5093 
   -5219    -5301    -5356    -5395    -5417    -5429    -5448    -5476 
   -5516    -5564    -5611    -5660    -5714    -5765    -5798    -5791 
   -5744    -5688    -5656    -5691    -5825    -6043    -6303    -6559 
   -6782    -6955    -7064    -7092    -7028    -6883    -6700    -6512 
   -6342    -6195    -6052    -5898    -5736    -5562    -5377    -5186 
   -4985    -4761    -4502    -4207    -3878    -3538    -3234    -2990 
   -2803    -2663    -2539    -2411    -2267    -2114    -1954    -1796 
   -1632    -1459    -1278    -1101     -942     -801     -669     -533 
    -386     -211       -9      195      376      525      641      734 
     823      922     1019     1090     1100     1024      861      630 
     360       76     -201     -468     -723     -970    -1210    -1447 
   -1692    -1966    -2286    -2647    -3026    -3395    -3738    -4047 
   -4325    -4592    -4865    -5117    -5312    -5427    -5458    -5427 
   -5377    -5347    -5347    -5375    -5414    -5448    -5476    -5510 
   -5559    -5603    -5622    -5590    -5481    -5296    -5058    -4810 
   -4600    -4475    -4440    -4464    -4511    -4553    -4565    -4548 
   -4510    -4442    -4326    -4155    -3940    -3700    -3459    -3254 
   -3095    -2967    -2844    -2709    -2555    -2408    -2286    -2191 
   -2107    -2008    -1856    -1653    -1422    -1196    -1020     -919 
    -877     -869     -872     -859     -837     -823     -827     -845 
    -870     -903     -946     -981     -982     -932     -838     -718 
    -603     -526     -508     -568     -704     -890    -1092    -1290 
   -1490    -1717    -1989    -2315    -2700    -3133    -3597    -4086 
   -4571    -5017    -5413    -5746    -6030    -6315    -6625    -6955 
   -7296    -7604    -7835    -7997    -8098    -8148    -8168    -8154 
   -8090    -7990    -7858    -7685    -7465    -7202    -6925    -6673 
   -6460    -6300    -6192    -6110    -6030    -5933    -5780    -5549 
   -5255    -4923    -4561    -4186    -3820    -3477    -3180    -2945 
   -2752    -2592    -2446    -2285    -2111    -1933    -1742    -1539 
   -1310    -1032     -715     -380      -47      236      451      603 
     680      688      643      564      471      363      236       93 
     -68     -255     -464     -700     -950    -1208    -1444    -1636 
   -1783    -1906    -2046    -2258    -2551    -2893    -3246    -3569 
   -3820    -4005    -4137    -4230    -4310    -4391    -4471    -4552 
   -4652    -4814    -5062    -5390    -5760    -6127    -6450    -6702 
   -6871    -6952    -6972    -6963    -6970    -7005    -7056    -7110 
   -7132    -7096    -6994    -6808    -6535    -6192    -5809    -5409 
   -5034    -4710    -4455    -4271    -4163    -4114    -4102    -4094 
   -4067    -4010    -3913    -3784    -3634    -3453    -3231    -2982 
   -2717    -2457    -2235    -2088    -2030    -2052    -2115    -2172 
   -2195    -2182    -2146    -2087    -2004    -1908    -1819    -1749 
   -1703    -1675    -1648    -1601    -1535    -1468    -1393    -1318 
   -1262    -1225    -1213    -1248    -1324    -1425    -1535    -1636 
   -1710    -1746    -1738    -1709    -1669    -1630    -1605    -1587 
   -1563    -1528    -1490    -1466    -1462    -1485    -1522    -1543 
   -1528    -1479    -1405    -1341    -1320    -1358    -1459    -1621 
   -1826    -2062    -2316    -2556    -2774    -2970    -3134    -3265 
   -3362    -3422    -3440    -3418    -3366    -3311    -3284    -3312 
   -3407    -3568    -3775    -4002    -4222    -4413    -4550    -4633 
   -4668    -4676    -4680    -4681    -4661    -4629    -4598    -4563 
   -4525    -4476    -4393    -4268    -4106    -3917    -3712    -3522 
   -3379    -3303    -3306    -3384    -3505    -3634    -3750    -3835 
   -3882    -3909    -3944    -3997    -4064    -4131    -4159    -4112 
   -3970    -3734    -3414    -3067    -2768    -2563    -2466    -2471 
   -2536    -2601    -2633    -2635    -2610    -2602    -2663    -2809 
   -3022    -3272    -3514    -3719    -3885    -4008    -4088    -4140 
   -4166    -4171    -4183    -4217    -4278    -4360    -4455    -4549 
   -4622    -4644    -4606    -4517    -4396    -4294    -4241    -4241 
   -4288    -4355    -4395    -4407    -4401    -4382    -4369    -4375 
   -4380    -4374    -4357    -4329    -4278    -4191    -4060    -3893 
   -3704    -3523    -3385    -3289    -3222    -3179    -3157    -3152 
   -3149    -3133    -3087    -3013    -2928    -2844    -2759    -2660 
   -2524    -2346    -2158    -2004    -1907    -1881    -1925    -2027 
   -2166    -2322    -2466    -2579    -2650    -2674    -2651    -2583 
   -2471    -2312    -2111    -1902    -1715    -1568    -1476    -1441 
   -1445    -1468    -1493    -1493    -1459    -1385    -1275    -1136 
    -970     -783     -591     -421     -289     -207     -167     -144 
    -141     -147     -149     -153     -163     -156     -135     -102 
     -54       14      106      217      334      454      546      577 
     535      425      265       89      -95     -289     -481     -661 
    -808     -896     -945     -994    -1078    -1221    -1428    -1672 
   -1922    -2151    -2346    -2511    -2667    -2808    -2914    -2986 
   -3042    -3083    -3099    -3086    -3038    -2963    -2898    -2895 
   -2960    -3064    -3175    -3249    -3288    -3335    -3422    -3577 
   -3811    -4083    -4352    -4549    -4611    -4552    -4414    -4225 
   -4035    -3859    -3696    -3572    -3496    -3442    -3393    -3333 
   -3252    -3152    -3015    -2844    -2641    -2389    -2092    -1761 
   -1431    -1143     -909     -726     -579     -436     -272      -83 
     147      417      696      951     1155     1308     1416     1485 
    1521     1513     1455     1378     1318     1294     1296     1304 
    1297     1243     1120      932      687      399      109     -174 
    -484     -837    -1237    -1680    -2135    -2569    -2964    -3321 
   -3636    -3912    -4152    -4368    -4583    -4820    -5085    -5354 
   -5584    -5744    -5830    -5867    -5883    -5899    -5921    -5935 
   -5925    -5879    -5811    -5748    -5705    -5671    -5621    -5529 
   -5360    -5093    -4750    -4364    -3977    -3642    -3395    -3231 
   -3126    -3042    -2934    -2798    -2677    -2590    -2517    -2428 
   -2273    -2007    -1649    -1273     -950     -734     -638     -639 
    -691     -750     -804     -850     -861     -837     -793     -745 
    -715     -734     -795     -877     -955     -997    -1005    -1013 
   -1057    -1169    -1358    -1586    -1798    -1960    -2049    -2058 
   -2022    -1979    -1956    -1969    -2011    -2061    -2118    -2184 
   -2259    -2347    -2442    -2538    -2646    -2768    -2884    -2982 
   -3057    -3090    -3083    -3048    -2999    -2947    -2907    -2895 
   -2911    -2941    -2965    -2982    -2998    -3015    -3040    -3071 
   -3082    -3063    -3038    -3017    -3010    -3038    -3105    -3190 
   -3264    -3294    -3264    -3184    -3063    -2909    -2737    -2546 
   -2319    -2070    -1817    -1580    -1414    -1350    -1382    -1499 
   -1658    -1813    -1956    -2101    -2239    -2357    -2444    -2511 
   -2548    -2548    -2519    -2485    -2452    -2419    -2389    -2346 
   -2263    -2142    -2000    -1868    -1764    -1707    -1711    -1775 
   -1868    -1952    -2007    -2030    -2033    -2062    -2153    -2292 
   -2465    -2659    -2848    -3022    -3190    -3357    -3519    -3655 
   -3748    -3786    -3778    -3731    -3653    -3559    -3457    -3350 
   -3256    -3180    -3113    -3059    -3005    -2925    -2822    -2701 
