Origin Time       2016/04/16 01:25:00
Lat.              32.753
Long.             130.762
Depth. (km)       12
Mag.              7.3
Station Code      KGW004
Station Lat.      34.3473
Station Long.     134.0374
Station Height(m) 2
Record Time       2016/04/16 01:26:09
Sampling Freq(Hz) 100Hz
Duration Time(s)  144
Dir.              N-S
Scale Factor      7845(gal)/8223790
Max. Acc. (gal)   8.314
Last Correction   2016/04/16 01:26:09
Memo.             
[...]
   -8182    -8371    -8595    -8787    -8922    -9023    -9134    -9248 
   -9337    -9406    -9456    -9486    -9524    -9578    -9626    -9660 
   -9690    -9725    -9765    -9814    -9875    -9918    -9923    -9923 
   -9944    -9977   -10003   -10019   -10019    -9992    -9944    -9877 
   -9769    -9616    -9443    -9281    -9171    -9121    -9103    -9076 
   -9018    -8927    -8818    -8721    -8664    -8631    -8610    -8603 
   -8615    -8630    -8631    -8604    -8553    -8483    -8398    -8330 
   -8298    -8274    -8248    -8232    -8205    -8158    -8093    -8024 
   -7955    -7898    -7878    -7882    -7890    -7912    -7962    -8017 
   -8050    -8054    -8039    -8016    -7985    -7946    -7917    -7903 
   -7921    -7964    -7979    -7960    -7928    -7863    -7770    -7684 
   -7618    -7561    -7503    -7464    -7439    -7406    -7365    -7326 
   -7291    -7260    -7236    -7245    -7288    -7346    -7406    -7460 
   -7510    -7581    -7673    -7782    -7921    -8078    -8251    -8451 
   -8649    -8830    -9011    -9184    -9315    -9410    -9472    -9479 
   -9437    -9390    -9333    -9252    -9165    -9086    -9028    -8984 
   -8938    -8911    -8903    -8889    -8891    -8924    -8968    -9016 
   -9077    -9124    -9109    -9045    -8976    -8895    -8795    -8723 
   -8692    -8699    -8775    -8896    -8997    -9097    -9234    -9362 
   -9472    -9605    -9737    -9856    -9968   -10045   -10088   -10120 
  -10123   -10072    -9964    -9828    -9718    -9640    -9533    -9396 
   -9271    -9158    -9030    -8899    -8787    -8695    -8626    -8569 
   -8515    -8467    -8424    -8382    -8345    -8332    -8372    -8474 
   -8606    -8738    -8876    -9015    -9132    -9217    -9270    -9296 
   -9297    -9281    -9270    -9266    -9243    -9197    -9142    -9081 
   -9015    -8949    -8883    -8808    -8735    -8664    -8590    -8513 
   -8447    -8384    -8326    -8299    -8310    -8333    -8359    -8379 
   -8379    -8338    -8262    -8170    -8086    -8013    -7955    -7900 
   -7812    -7692    -7555    -7410    -7279    -7194    -7160    -7177 
   -7227    -7302    -7377    -7450    -7538    -7639    -7736    -7813 
   -7882    -7977    -8102    -8237    -8364    -8471    -8550    -8595 
   -8594    -8557    -8529    -8533    -8571    -8610    -8621    -8599 
   -8549    -8479    -8391    -8283    -8198    -8175    -8175    -8164 
   -8162    -8189    -8233    -8275    -8301    -8310    -8317    -8310 
   -8283    -8268    -8289    -8349    -8447    -8553    -8660    -8792 
   -8937    -9086    -9234    -9355    -9468    -9593    -9698    -9768 
   -9826    -9875    -9909    -9936    -9957    -9958    -9936    -9894 
   -9833    -9737    -9599    -9463    -9355    -9259    -9192    -9193 
   -9250    -9331    -9418    -9501    -9568    -9622    -9659    -9670 
   -9645    -9606    -9582    -9560    -9537    -9536    -9555    -9572 
   -9596    -9634    -9666    -9667    -9629    -9562    -9497    -9448 
   -9404    -9346    -9279    -9220    -9171    -9111    -9034    -8945 
   -8829    -8676    -8502    -8330    -8179    -8050    -7969    -7942 
   -7925    -7928    -7964    -7996    -8005    -8016    -8037    -8062 
   -8087    -8132    -8191    -8244    -8280    -8324    -8383    -8434 
   -8477    -8526    -8557    -8542    -8492    -8436    -8365    -8268 
   -8167    -8082    -8000    -7894    -7759    -7623    -7504    -7395 
   -7283    -7159    -7017    -6866    -6714    -6581    -6475    -6400 
   -6351    -6311    -6265    -6219    -6185    -6169    -6176    -6199 
   -6230    -6278    -6350    -6424    -6489    -6544    -6593    -6644 
   -6711    -6820    -6976    -7132    -7280    -7452    -7643    -7832 
   -8012    -8176    -8340    -8525    -8725    -8915    -9090    -9262 
   -9443    -9653    -9886   -10114   -10335   -10547   -10763   -10996 
  -11230   -11437   -11616   -11759   -11863   -11943   -12015   -12060 
  -12042   -11956   -11857   -11770   -11708   -11673   -11641   -11593 
  -11523   -11446   -11388   -11348   -11322   -11296   -11240   -11160 
  -11078   -10989   -10867   -10712   -10543   -10346   -10123    -9913 
   -9729    -9571    -9448    -9351    -9270    -9217    -9178    -9135 
   -9088    -9035    -8970    -8876    -8723    -8527    -8299    -8028 
   -7726    -7437    -7171    -6875    -6547    -6228    -5935    -5680 
   -5481    -5329    -5215    -5124    -5035    -4954    -4911    -4900 
   -4892    -4895    -4920    -4947    -4973    -4994    -4997    -4999 
   -5023    -5093    -5246    -5445    -5645    -5849    -6056    -6224 
   -6355    -6481    -6609    -6733    -6867    -7028    -7203    -7356 
   -7461    -7537    -7609    -7662    -7696    -7715    -7717    -7712 
   -7700    -7688    -7697    -7732    -7792    -7900    -8046    -8201 
   -8344    -8476    -8630    -8800    -8964    -9137    -9317    -9471 
   -9614    -9788    -9979   -10150   -10299   -10434   -10570   -10709 
  -10854   -11003   -11167   -11348   -11541   -11726   -11880   -11998 
  -12091   -12158   -12178   -12151   -12077   -11939   -11734   -11473 
  -11183   -10887   -10597   -10331   -10092    -9861    -9625    -9381 
   -9120    -8851    -8587    -8336    -8108    -7902    -7715    -7557 
   -7442    -7371    -7344    -7342    -7307    -7236    -7172    -7109 
   -7013    -6874    -6683    -6447    -6204    -5994    -5825    -5680 
   -5533    -5386    -5270    -5213    -5196    -5209    -5267    -5346 
   -5427    -5518    -5593    -5651    -5717    -5786    -5868    -5985 
   -6104    -6214    -6342    -6511    -6723    -6980    -7244    -7479 
   -7689    -7865    -8010    -8144    -8240    -8272    -8275    -8248 
   -8197    -8151    -8121    -8109    -8104    -8073    -8027    -8004 
   -8004    -8025    -8101    -8189    -8252    -8338    -8451    -8573 
   -8725    -8880    -9031    -9201    -9367    -9518    -9667    -9811 
   -9975   -10169   -10372   -10586   -10810   -11036   -11265   -11497 
  -11734   -11966   -12162   -12295   -12370   -12406   -12441   -12478 
  -12491   -12469   -12415   -12314   -12167   -12002   -11834   -11658 
  -11480   -11302   -11132   -10972   -10821   -10689   -10561   -10403 
  -10223   -10060    -9922    -9787    -9632    -9477    -9342    -9216 
   -9111    -9047    -9000    -8939    -8856    -8729    -8561    -8374 
   -8171    -7985    -7844    -7738    -7657    -7601    -7548    -7491 
   -7441    -7395    -7326    -7214    -7068    -6925    -6801    -6682 
   -6555    -6417    -6278    -6147    -6016    -5887    -5765    -5651 
   -5529    -5401    -5266    -5124    -4992    -4901    -4889    -4968 
   -5128    -5381    -5711    -6057    -6389    -6752    -7167    -7568 
   -7943    -8332    -8718    -9086    -9440    -9752   -10011   -10228 
  -10413   -10584   -10743   -10897   -11057   -11213   -11356   -11503 
  -11643   -11734   -11777   -11808   -11797   -11719   -11615   -11521 
  -11452   -11396   -11349   -11317   -11291   -11268   -11271   -11296 
  -11321   -11346   -11379   -11377   -11340   -11302   -11267   -11217 
  -11148   -11062   -10947   -10781   -10588   -10411   -10239   -10073 
   -9930    -9778    -9591    -9388    -9180    -8947    -8703    -8490 
   -8321    -8168    -8040    -7929    -7805    -7672    -7523    -7345 
   -7127    -6868    -6598    -6345    -6087    -5809    -5539    -5292 
   -5040    -4787    -4561    -4347    -4144    -3984    -3851    -3742 
   -3665    -3608    -3592    -3649    -3771    -3944    -4166    -4434 
   -4756    -5119    -5526    -5987    -6462    -6926    -7416    -7940 
   -8454    -8938    -9390    -9798   -10152   -10459   -10725   -10940 
  -11110   -11252   -11371   -11441   -11457   -11452   -11431   -11391 
  -11338   -11284   -11226   -11141   -11003   -10817   -10619   -10413 
  -10193    -9985    -9825    -9690    -9566    -9467    -9382    -9279 
   -9186    -9127    -9104    -9124    -9175    -9270    -9431    -9632 
   -9842   -10069   -10324   -10604   -10878   -11138   -11394   -11641 
  -11866   -12050   -12178   -12262   -12320   -12353   -12344   -12278 
  -12143   -11939   -11666   -11338   -10963   -10540   -10066    -9558 
   -9032    -8502    -7974    -7460    -6949    -6465    -6056    -5737 
   -5509    -5348    -5246    -5212    -5243    -5339    -5508    -5730 
   -5988    -6268    -6566    -6907    -7307    -7755    -8241    -8738 
   -9213    -9661   -10075   -10386   -10575   -10683   -10709   -10627 
  -10447   -10187    -9891    -9599    -9301    -8999    -8711    -8437 
   -8164    -7890    -7612    -7339    -7075    -6805    -6523    -6227 
   -5931    -5675    -5479    -5351    -5301    -5327    -5409    -5544 
   -5727    -5942    -6173    -6417    -6711    -7071    -7473    -7931 
   -8444    -8972    -9501   -10029   -10543   -11033   -11496   -11913 
  -12253   -12495   -12637   -12687   -12647   -12528   -12341   -12110 
  -11861   -11603   -11315   -10970   -10566   -10114    -9614    -9080 
   -8525    -7967    -7399    -6843    -6336    -5881    -5474    -5121 
   -4789    -4459    -4152    -3896    -3705    -3615    -3642    -3786 
   -4044    -4392    -4806    -5240    -5653    -6049    -6427    -6760 
   -7042    -7285    -7489    -7654    -7797    -7939    -8062    -8166 
   -8267    -8385    -8517    -8655    -8826    -9027    -9220    -9397 
   -9566    -9733    -9877    -9979   -10049   -10073   -10044    -9964 
   -9823    -9616    -9347    -9042    -8729    -8404    -8068    -7759 
   -7528    -7395    -7354    -7404    -7537    -7722    -7955    -8252 
   -8618    -9030    -9471    -9940   -10412   -10864   -11313   -11772 
  -12224   -12667   -13086   -13464   -13795   -14077   -14319   -14531 
  -14713   -14870   -14997   -15088   -15159   -15209   -15233   -15234 
  -15187   -15051   -14808   -14461   -14025   -13525   -12997   -12464 
  -11950   -11493   -11115   -10812   -10571   -10392   -10247   -10092 
   -9921    -9725    -9495    -9250    -8985    -8692    -8376    -8054 
   -7738    -7435    -7142    -6848    -6552    -6270    -5998    -5737 
   -5493    -5255    -5046    -4893    -4784    -4698    -4602    -4472 
   -4318    -4164    -4017    -3880    -3766    -3663    -3570    -3504 
   -3447    -3388    -3345    -3302    -3254    -3235    -3240    -3261 
   -3323    -3443    -3622    -3859    -4148    -4455    -4762    -5053 
   -5287    -5470    -5621    -5741    -5836    -5917    -5981    -6025 
   -6057    -6096    -6164    -6273    -6426    -6623    -6856    -7122 
   -7425    -7756    -8108    -8469    -8827    -9184    -9544    -9895 
  -10200   -10453   -10655   -10809   -10943   -11056   -11126   -11180 
  -11250   -11338   -11469   -11650   -11867   -12133   -12428   -12718 
  -13012   -13297   -13529   -13694   -13784   -13803   -13770   -13699 
  -13598   -13500   -13423   -13355   -13297   -13261   -13227   -13193 
  -13146   -13062   -12958   -12869   -12820   -12802   -12773   -12749 
  -12721   -12623   -12476   -12309   -12050   -11684   -11296   -10918 
  -10528   -10125    -9702    -9240    -8734    -8175    -7574    -6956 
   -6323    -5682    -5069    -4492    -3923    -3355    -2820    -2344 
   -1952    -1641    -1398    -1212    -1069     -986    -1000    -1120 
   -1325    -1595    -1900    -2234    -2604    -2982    -3355    -3743 
   -4136    -4525    -4901    -5242    -5529    -5751    -5918    -6058 
   -6156    -6195    -6205    -6197    -6173    -6154    -6170    -6247 
   -6389    -6585    -6815    -7088    -7396    -7726    -8078    -8436 
   -8785    -9182    -9648   -10139   -10642   -11157   -11666   -12159 
  -12637   -13090   -13509   -13892   -14265   -14629   -14955   -15244 
  -15518   -15776   -16000   -16209   -16395   -16518   -16588   -16636 
  -16663   -16659   -16600   -16468   -16289   -16075   -15839   -15611 
  -15377   -15107   -14832   -14569   -14308   -14047   -13776   -13479 
  -13157   -12819   -12468   -12114   -11790   -11511   -11259   -11045 
  -10903   -10813   -10731   -10654   -10594   -10520   -10397   -10245 
  -10066    -9849    -9586    -9271    -8935    -8602    -8253    -7898 
   -7561    -7225    -6872    -6534    -6210    -5894    -5620    -5408 
   -5251    -5146    -5067    -4993    -4927    -4858    -4780    -4718 
   -4700    -4725    -4776    -4861    -4950    -4986    -4984    -4986 
   -5007    -5039    -5063    -5085    -5113    -5158    -5224    -5281 
   -5286    -5250    -5197    -5154    -5151    -5220    -5351    -5512 
   -5687    -5861    -5996    -6075    -6102    -6096    -6069    -6050 
   -6053    -6048    -6034    -6042    -6054    -6089    -6184    -6319 
   -6474    -6658    -6848    -7010    -7134    -7221    -7258    -7276 
   -7311    -7381    -7462    -7534    -7618    -7723    -7811    -7905 
   -8039    -8181    -8330    -8510    -8680    -8830    -8999    -9162 
   -9281    -9351    -9408    -9456    -9493    -9543    -9629    -9745 
   -9869   -10000   -10129   -10233   -10312   -10400   -10517   -10671 
  -10860   -11086   -11342   -11615   -11885   -12137   -12349   -12523 
  -12664   -12768   -12834   -12849   -12784   -12636   -12420   -12140 
  -11794   -11394   -10956   -10473    -9960    -9454    -8982    -8569 
   -8221    -7925    -7695    -7523    -7366    -7198    -6997    -6727 
   -6393    -6026    -5656    -5305    -4997    -4748    -4571    -4459 
   -4401    -4374    -4338    -4274    -4190    -4098    -4009    -3937 
   -3894    -3874    -3855    -3805    -3703    -3524    -3254    -2909 
   -2512    -2087    -1661    -1255     -882     -565     -322     -137 
      11      126      194      205      164       71      -70     -236 
    -418     -643     -928    -1264    -1636    -2033    -2439    -2829 
   -3200    -3574    -3956    -4344    -4753    -5212    -5725    -6272 
   -6840    -7408    -7959    -8477    -8945    -9340    -9655    -9913 
  -10116   -10263   -10380   -10482   -10567   -10642   -10717   -10804 
  -10908   -11036   -11196   -11392   -11624   -11907   -12235   -12590 
  -12957   -13335   -13709   -14069   -14416   -14724   -14975   -15163 
  -15282   -15322   -15272   -15137   -14929   -14663   -14343   -13983 
  -13591   -13178   -12754   -12313   -11858   -11384   -10872   -10355 
   -9859    -9374    -8954    -8645    -8401    -8187    -8028    -7938 
   -7843    -7707    -7595    -7503    -7384    -7277    -7213    -7168 
   -7156    -7175    -7195    -7209    -7229    -7236    -7198    -7117 
   -7010    -6881    -6736    -6588    -6427    -6227    -5968    -5667 
   -5339    -4992    -4630    -4283    -3963    -3659    -3384    -3165 
   -3019    -2959    -2975    -3046    -3138    -3222    -3303    -3373 
   -3402    -3412    -3458    -3547    -3662    -3800    -3959    -4114 
   -4280    -4483    -4707    -4959    -5260    -5603    -5968    -6345 
   -6741    -7157    -7580    -8019    -8467    -8901    -9292    -9628 
   -9913   -10137   -10303   -10432   -10536   -10616   -10693   -10779 
  -10878   -10987   -11097   -11192   -11276   -11372   -11500   -11668 
  -11855   -12042   -12248   -12484   -12707   -12849   -12891   -12866 
  -12772   -12598   -12380   -12139   -11866   -11558   -11225   -10868 
  -10489   -10096    -9683    -9213    -8698    -8170    -7638    -7118 
   -6625    -6148    -5676    -5223    -4811    -4446    -4116    -3834 
   -3624    -3451    -3294    -3198    -3164    -3168    -3242    -3397 
   -3593    -3828    -4122    -4450    -4783    -5084    -5335    -5522 
   -5630    -5661    -5641    -5590    -5555    -5589    -5706    -5921 
   -6252    -6664    -7087    -7484    -7825    -8095    -8318    -8513 
   -8694    -8873    -9073    -9292    -9521    -9749    -9948   -10096 
  -10192   -10237   -10230   -10199   -10172   -10170   -10201   -10258 
  -10312   -10336   -10316   -10253   -10157   -10041    -9910    -9788 
   -9698    -9621    -9517    -9379    -9224    -9054    -8870    -8672 
   -8444    -8191    -7919    -7651    -7426    -7264    -7171    -7110 
   -7041    -6979    -6924    -6829    -6691    -6543    -6403    -6268 
   -6124    -5985    -5857    -5726    -5590    -5451    -5324    -5235 
   -5188    -5171    -5190    -5244    -5337    -5471    -5620    -5749 
   -5868    -5980    -6088    -6245    -6481    -6739    -6990    -7231 
   -7439    -7612    -7747    -7827    -7894    -7987    -8090    -8202 
   -8344    -8502    -8660    -8808    -8946    -9066    -9128    -9103 
   -9031    -8957    -8899    -8884    -8928    -9007    -9089    -9184 
   -9304    -9454    -9628    -9807    -9972   -10096   -10166   -10199 
  -10214   -10230   -10277   -10366   -10494   -10651   -10820   -10993 
  -11161   -11306   -11422   -11523   -11596   -11637   -11672   -11732 
  -11809   -11880   -11928   -11936   -11896   -11805   -11653   -11438 
  -11173   -10860   -10508   -10137    -9747    -9328    -8899    -8476 
   -8055    -7645    -7253    -6871    -6509    -6180    -5864    -5570 
   -5312    -5093    -4926    -4822    -4791    -4812    -4850    -4891 
   -4912    -4897    -4878    -4901    -4972    -5098    -5294    -5543 
   -5821    -6107    -6385    -6648    -6881    -7084    -7283    -7481 
   -7669    -7852    -8028    -8194    -8380    -8588    -8760    -8868 
   -8949    -9026    -9092    -9135    -9147    -9113    -9032    -8955 
   -8938    -8961    -8961    -8929    -8892    -8851    -8810    -8776 
   -8739    -8676    -8581    -8486    -8424    -8406    -8421    -8460 
   -8507    -8559    -8629    -8710    -8796    -8918    -9101    -9355 
   -9648    -9948   -10260   -10575   -10859   -11088   -11267   -11406 
  -11515   -11599   -11637   -11605   -11507   -11375   -11232   -11071 
  -10908   -10764   -10598   -10380   -10152    -9942    -9745    -9563 
   -9379    -9190    -9012    -8878    -8810    -8783    -8766    -8768 
   -8795    -8862    -8969    -9090    -9216    -9316    -9364    -9398 
   -9437    -9485    -9552    -9612    -9644    -9662    -9683    -9737 
   -9852   -10025   -10230   -10457   -10696   -10935   -11152   -11319 
  -11429   -11497   -11539   -11549   -11556   -11578   -11597   -11607 
  -11604   -11592   -11597   -11622   -11643   -11672   -11708   -11716 
  -11681   -11603   -11473   -11276   -11007   -10698   -10404   -10150 
   -9929    -9726    -9539    -9351    -9155    -8943    -8702    -8424 
   -8117    -7796    -7496    -7238    -7022    -6840    -6671    -6501 
   -6335    -6186    -6057    -5942    -5848    -5767    -5701    -5661 
   -5630    -5603    -5590    -5570    -5544    -5549    -5595    -5676 
   -5775    -5891    -6052    -6269    -6520    -6794    -7119    -7496 
   -7901    -8332    -8777    -9200    -9585    -9929   -10230   -10501 
  -10748   -10987   -11232   -11466   -11672   -11847   -11988   -12069 
  -12091   -12067   -12001   -11928   -11875   -11844   -11832   -11842 
  -11865   -11913   -11994   -12104   -12252   -12447   -12667   -12900 
  -13144   -13378   -13559   -13653   -13648   -13539   -13336   -13084 
  -12818   -12555   -12305   -12064   -11824   -11587   -11342   -11087 
  -10840   -10616   -10412   -10230   -10068    -9913    -9775    -9656 
   -9549    -9458    -9396    -9364    -9346    -9346    -9364    -9390 
   -9439    -9529    -9647    -9755    -9818    -9826    -9788    -9736 
   -9684    -9621    -9532    -9433    -9342    -9254    -9163    -9081 
   -9012    -8935    -8835    -8718    -8602    -8490    -8371    -8243 
   -8122    -8010    -7894    -7758    -7616    -7499    -7399    -7318 
