Origin Time       2016/04/16 01:25:00
Lat.              32.753
Long.             130.762
Depth. (km)       12
Mag.              7.3
Station Code      KGW008
Station Lat.      34.1644
Station Long.     133.9243
Station Height(m) 2
Record Time       2016/04/16 01:26:41
Sampling Freq(Hz) 100Hz
Duration Time(s)  83
Dir.              N-S
Scale Factor      7845(gal)/8223790
Max. Acc. (gal)   3.448
Last Correction   2016/04/16 01:26:42
Memo.             
[...]
   -4982    -5017    -5040    -5042    -5034    -5027    -5027    -5036 
   -5035    -5019    -4996    -4970    -4950    -4951    -4981    -5043 
   -5146    -5267    -5381    -5472    -5539    -5576    -5584    -5571 
   -5543    -5512    -5509    -5532    -5544    -5547    -5540    -5517 
   -5487    -5462    -5445    -5445    -5448    -5454    -5455    -5458 
   -5470    -5493    -5518    -5533    -5517    -5472    -5410    -5336 
   -5267    -5223    -5198    -5196    -5213    -5235    -5262    -5300 
   -5320    -5321    -5321    -5327    -5333    -5339    -5344    -5343 
   -5335    -5298    -5225    -5151    -5093    -5040    -4989    -4943 
   -4900    -4870    -4868    -4896    -4951    -5020    -5085    -5136 
   -5186    -5248    -5321    -5398    -5479    -5563    -5644    -5725 
   -5806    -5886    -5957    -6003    -6011    -5992    -5952    -5884 
   -5803    -5718    -5616    -5506    -5413    -5336    -5262    -5197 
   -5152    -5124    -5121    -5142    -5166    -5197    -5240    -5287 
   -5336    -5382    -5420    -5459    -5494    -5506    -5505    -5495 
   -5470    -5421    -5346    -5262    -5190    -5140    -5117    -5109 
   -5103    -5093    -5082    -5081    -5093    -5105    -5121    -5139 
   -5151    -5167    -5188    -5198    -5205    -5217    -5225    -5221 
   -5208    -5196    -5189    -5192    -5204    -5220    -5243    -5287 
   -5352    -5428    -5503    -5579    -5637    -5660    -5663    -5665 
   -5670    -5674    -5686    -5691    -5689    -5683    -5655    -5618 
   -5594    -5576    -5560    -5549    -5541    -5530    -5506    -5481 
   -5455    -5424    -5402    -5377    -5352    -5341    -5347    -5366 
   -5387    -5395    -5394    -5390    -5381    -5382    -5395    -5414 
   -5456    -5519    -5598    -5686    -5764    -5814    -5845    -5864 
   -5860    -5846    -5826    -5787    -5726    -5653    -5576    -5508 
   -5448    -5400    -5362    -5344    -5343    -5356    -5377    -5406 
   -5456    -5526    -5595    -5653    -5689    -5701    -5697    -5686 
   -5679    -5679    -5679    -5668    -5644    -5625    -5622    -5622 
   -5614    -5620    -5640    -5653    -5655    -5641    -5607    -5567 
   -5526    -5497    -5481    -5478    -5486    -5501    -5498    -5498 
   -5517    -5541    -5566    -5583    -5579    -5552    -5528    -5513 
   -5514    -5536    -5567    -5585    -5580    -5555    -5512    -5462 
   -5424    -5401    -5404    -5436    -5481    -5530    -5585    -5636 
   -5682    -5717    -5715    -5683    -5634    -5583    -5535    -5483 
   -5420    -5344    -5265    -5197    -5140    -5105    -5092    -5088 
   -5093    -5130    -5202    -5302    -5418    -5525    -5609    -5676 
   -5744    -5817    -5904    -6006    -6095    -6148    -6173    -6176 
   -6150    -6103    -6033    -5940    -5844    -5763    -5694    -5625 
   -5539    -5452    -5375    -5301    -5233    -5184    -5147    -5120 
   -5107    -5112    -5135    -5182    -5252    -5333    -5421    -5512 
   -5597    -5670    -5727    -5776    -5819    -5864    -5906    -5945 
   -5979    -6000    -6006    -6000    -5994    -5989    -5984    -5976 
   -5953    -5898    -5811    -5717    -5618    -5521    -5443    -5377 
   -5308    -5242    -5201    -5193    -5208    -5233    -5263    -5293 
   -5319    -5341    -5352    -5343    -5319    -5294    -5283    -5285 
   -5298    -5320    -5332    -5341    -5375    -5432    -5508    -5587 
   -5649    -5688    -5692    -5672    -5647    -5611    -5574    -5541 
   -5517    -5508    -5508    -5501    -5481    -5445    -5381    -5313 
   -5262    -5216    -5164    -5115    -5082    -5071    -5085    -5103 
   -5104    -5088    -5062    -5036    -5026    -5043    -5081    -5127 
   -5184    -5250    -5324    -5401    -5467    -5514    -5544    -5562 
   -5574    -5579    -5587    -5605    -5621    -5629    -5622    -5607 
   -5606    -5609    -5594    -5568    -5537    -5505    -5495    -5499 
   -5497    -5483    -5441    -5373    -5300    -5240    -5206    -5193 
   -5186    -5169    -5143    -5117    -5105    -5093    -5082    -5081 
   -5090    -5113    -5143    -5175    -5204    -5227    -5250    -5292 
   -5356    -5439    -5516    -5570    -5616    -5656    -5692    -5730 
   -5753    -5748    -5732    -5719    -5711    -5715    -5711    -5674 
   -5618    -5562    -5503    -5452    -5416    -5382    -5343    -5302 
   -5267    -5242    -5228    -5223    -5215    -5204    -5185    -5161 
   -5152    -5164    -5197    -5240    -5279    -5316    -5341    -5350 
   -5336    -5300    -5263    -5243    -5235    -5248    -5293    -5356 
   -5417    -5460    -5483    -5490    -5475    -5441    -5406    -5379 
   -5366    -5363    -5366    -5373    -5389    -5409    -5417    -5409 
   -5395    -5382    -5366    -5363    -5374    -5385    -5405    -5427 
   -5437    -5436    -5418    -5395    -5375    -5354    -5336    -5325 
   -5312    -5298    -5287    -5282    -5277    -5278    -5287    -5297 
   -5297    -5292    -5287    -5275    -5259    -5242    -5215    -5196 
   -5200    -5220    -5252    -5286    -5292    -5254    -5200    -5155 
   -5116    -5088    -5073    -5063    -5051    -5038    -5013    -4982 
   -4962    -4954    -4961    -4977    -4993    -5008    -5016    -5026 
   -5054    -5104    -5162    -5212    -5238    -5247    -5263    -5289 
   -5312    -5332    -5344    -5343    -5323    -5286    -5252    -5225 
   -5193    -5151    -5093    -5040    -4996    -4963    -4943    -4932 
   -4926    -4934    -4942    -4938    -4926    -4909    -4892    -4873 
   -4860    -4862    -4866    -4872    -4889    -4916    -4943    -4977 
   -5008    -5030    -5058    -5093    -5136    -5185    -5227    -5258 
   -5273    -5279    -5289    -5301    -5323    -5344    -5336    -5294 
   -5246    -5206    -5181    -5169    -5169    -5169    -5162    -5144 
   -5117    -5093    -5076    -5074    -5092    -5112    -5120    -5116 
   -5108    -5097    -5089    -5085    -5071    -5055    -5040    -5022 
   -5011    -5013    -5019    -5036    -5074    -5131    -5201    -5278 
   -5358    -5436    -5510    -5589    -5656    -5709    -5756    -5800 
   -5830    -5834    -5798    -5719    -5616    -5510    -5436    -5395 
   -5367    -5347    -5328    -5300    -5275    -5271    -5282    -5301 
   -5328    -5362    -5400    -5443    -5497    -5545    -5568    -5570 
   -5555    -5524    -5495    -5478    -5459    -5443    -5437    -5439 
   -5439    -5425    -5409    -5398    -5391    -5390    -5397    -5413 
   -5422    -5428    -5437    -5445    -5448    -5452    -5441    -5429 
   -5452    -5506    -5567    -5620    -5649    -5655    -5653    -5656 
   -5661    -5678    -5706    -5734    -5753    -5764    -5771    -5764 
   -5746    -5726    -5698    -5672    -5656    -5633    -5599    -5560 
   -5518    -5481    -5445    -5400    -5339    -5268    -5200    -5136 
   -5088    -5066    -5047    -5023    -5007    -4985    -4956    -4935 
   -4912    -4882    -4864    -4862    -4877    -4905    -4961    -5034 
   -5116    -5206    -5286    -5348    -5405    -5455    -5489    -5521 
   -5552    -5574    -5589    -5602    -5617    -5647    -5687    -5719 
   -5748    -5775    -5790    -5803    -5818    -5829    -5838    -5850 
   -5846    -5805    -5740    -5661    -5572    -5481    -5405    -5354 
   -5327    -5321    -5339    -5374    -5425    -5486    -5543    -5590 
   -5647    -5702    -5753    -5800    -5840    -5880    -5926    -5967 
   -6003    -6035    -6042    -6023    -5998    -5965    -5934    -5913 
   -5888    -5857    -5838    -5826    -5805    -5783    -5765    -5738 
   -5710    -5702    -5702    -5703    -5718    -5740    -5756    -5767 
   -5771    -5759    -5736    -5706    -5670    -5622    -5564    -5495 
   -5420    -5352    -5309    -5294    -5316    -5366    -5424    -5503 
   -5597    -5678    -5746    -5810    -5863    -5913    -5961    -5980 
   -5958    -5904    -5825    -5715    -5603    -5519    -5463    -5435 
   -5435    -5441    -5443    -5462    -5489    -5514    -5533    -5536 
   -5524    -5505    -5493    -5498    -5530    -5594    -5671    -5749 
   -5823    -5871    -5879    -5873    -5868    -5875    -5908    -5954 
   -5992    -6014    -6011    -5994    -5987    -5996    -6003    -6006 
   -6010    -6014    -6031    -6072    -6127    -6165    -6180    -6165 
   -6104    -6006    -5894    -5776    -5665    -5571    -5489    -5417 
   -5356    -5300    -5242    -5193    -5174    -5184    -5211    -5256 
   -5323    -5417    -5536    -5649    -5732    -5788    -5806    -5800 
   -5803    -5805    -5803    -5796    -5765    -5715    -5663    -5622 
   -5594    -5563    -5530    -5491    -5443    -5395    -5346    -5292 
   -5256    -5243    -5231    -5228    -5240    -5244    -5240    -5239 
   -5244    -5252    -5259    -5252    -5217    -5157    -5088    -5011 
   -4927    -4839    -4747    -4672    -4623    -4580    -4546    -4542 
   -4557    -4587    -4631    -4673    -4700    -4729    -4770    -4820 
   -4895    -4986    -5060    -5104    -5134    -5154    -5169    -5188 
   -5196    -5193    -5196    -5193    -5179    -5171    -5182    -5212 
   -5273    -5373    -5489    -5603    -5711    -5802    -5872    -5933 
   -5991    -6048    -6104    -6148    -6186    -6227    -6269    -6300 
   -6309    -6300    -6285    -6282    -6277    -6272    -6266    -6247 
   -6216    -6184    -6166    -6160    -6143    -6119    -6080    -6014 
   -5944    -5879    -5815    -5778    -5767    -5764    -5768    -5776 
   -5795    -5825    -5859    -5904    -5953    -5996    -6048    -6112 
   -6196    -6304    -6421    -6534    -6623    -6679    -6711    -6729 
   -6736    -6733    -6721    -6701    -6677    -6644    -6592    -6520 
   -6426    -6309    -6176    -6043    -5930    -5822    -5707    -5579 
   -5435    -5294    -5181    -5096    -5036    -4996    -4958    -4923 
   -4900    -4884    -4869    -4847    -4824    -4811    -4804    -4812 
   -4831    -4851    -4877    -4909    -4951    -5012    -5089    -5179 
   -5279    -5367    -5433    -5487    -5545    -5605    -5659    -5701 
   -5722    -5714    -5694    -5670    -5626    -5570    -5509    -5435 
   -5362    -5300    -5252    -5238    -5250    -5263    -5277    -5290 
   -5302    -5317    -5341    -5371    -5394    -5405    -5409    -5402 
   -5394    -5383    -5354    -5309    -5275    -5247    -5225    -5211 
   -5189    -5164    -5143    -5131    -5138    -5175    -5243    -5310 
   -5360    -5390    -5402    -5408    -5422    -5443    -5455    -5464 
   -5467    -5452    -5420    -5375    -5312    -5235    -5148    -5066 
   -5008    -4984    -5000    -5039    -5089    -5150    -5209    -5271 
   -5333    -5375    -5401    -5402    -5364    -5314    -5262    -5193 
   -5111    -5004    -4873    -4746    -4622    -4476    -4321    -4176 
   -4052    -3960    -3902    -3871    -3869    -3916    -4013    -4129 
   -4253    -4376    -4471    -4538    -4594    -4642    -4683    -4715 
   -4733    -4741    -4743    -4738    -4712    -4665    -4606    -4541 
   -4475    -4422    -4388    -4383    -4406    -4440    -4461    -4464 
   -4450    -4436    -4437    -4452    -4483    -4526    -4576    -4623 
   -4665    -4718    -4772    -4810    -4831    -4830    -4807    -4776 
   -4729    -4654    -4575    -4492    -4396    -4301    -4209    -4140 
   -4107    -4098    -4097    -4113    -4152    -4217    -4309    -4414 
   -4529    -4648    -4773    -4899    -5030    -5177    -5321    -5443 
   -5545    -5620    -5667    -5710    -5746    -5773    -5796    -5810 
   -5823    -5836    -5850    -5883    -5925    -5968    -6021    -6084 
   -6162    -6261    -6378    -6505    -6633    -6755    -6856    -6921 
   -6949    -6940    -6891    -6822    -6748    -6673    -6609    -6563 
   -6540    -6539    -6548    -6564    -6598    -6623    -6640    -6671 
   -6698    -6727    -6767    -6810    -6856    -6906    -6933    -6912 
   -6855    -6789    -6713    -6624    -6538    -6463    -6396    -6338 
   -6313    -6330    -6401    -6535    -6718    -6932    -7167    -7411 
   -7659    -7893    -8118    -8330    -8506    -8631    -8703    -8715 
   -8671    -8571    -8418    -8228    -8001    -7755    -7512    -7276 
   -7056    -6874    -6721    -6596    -6507    -6458    -6446    -6459 
   -6480    -6509    -6555    -6623    -6708    -6795    -6886    -6978 
   -7036    -7047    -7007    -6918    -6789    -6642    -6488    -6320 
   -6148    -5983    -5825    -5683    -5564    -5460    -5352    -5232 
   -5090    -4927    -4764    -4608    -4471    -4360    -4271    -4215 
   -4195    -4197    -4222    -4268    -4322    -4371    -4407    -4437 
   -4464    -4486    -4496    -4496    -4495    -4486    -4455    -4411 
   -4374    -4340    -4310    -4287    -4266    -4248    -4241    -4233 
   -4222    -4217    -4225    -4248    -4284    -4352    -4459    -4599 
   -4783    -4980    -5169    -5354    -5519    -5655    -5759    -5830 
   -5868    -5873    -5853    -5805    -5710    -5576    -5400    -5162 
   -4887    -4595    -4279    -3967    -3685    -3423    -3194    -3017 
   -2878    -2778    -2727    -2724    -2763    -2836    -2943    -3071 
   -3217    -3380    -3555    -3746    -3963    -4194    -4425    -4652 
   -4858    -5046    -5224    -5375    -5510    -5641    -5742    -5800 
   -5826    -5831    -5826    -5813    -5798    -5788    -5786    -5806 
   -5845    -5879    -5914    -5964    -6016    -6079    -6166    -6281 
   -6415    -6556    -6702    -6855    -7011    -7165    -7307    -7447 
   -7601    -7769    -7943    -8118    -8283    -8441    -8596    -8731 
   -8841    -8922    -8984    -9027    -9040    -9035    -9026    -8999 
   -8954    -8888    -8791    -8676    -8557    -8424    -8281    -8133 
   -7987    -7867    -7773    -7712    -7697    -7715    -7739    -7770 
   -7798    -7811    -7793    -7730    -7627    -7499    -7362    -7230 
   -7084    -6913    -6718    -6493    -6247    -6003    -5760    -5532 
   -5316    -5104    -4900    -4720    -4572    -4457    -4376    -4318 
   -4270    -4230    -4223    -4228    -4214    -4197    -4182    -4133 
   -4055    -3979    -3908    -3836    -3763    -3696    -3631    -3559 
   -3497    -3447    -3407    -3403    -3438    -3492    -3566    -3657 
   -3750    -3844    -3948    -4071    -4214    -4369    -4534    -4692 
   -4830    -4936    -5003    -5019    -4988    -4946    -4918    -4893 
   -4874    -4869    -4860    -4851    -4858    -4872    -4889    -4923 
   -4956    -4989    -5043    -5128    -5244    -5395    -5567    -5736 
   -5887    -6015    -6124    -6200    -6231    -6210    -6129    -5998 
   -5844    -5697    -5559    -5429    -5309    -5185    -5058    -4953 
   -4872    -4803    -4760    -4745    -4737    -4726    -4712    -4693 
   -4684    -4696    -4734    -4800    -4888    -4980    -5063    -5147 
   -5251    -5366    -5478    -5571    -5649    -5730    -5818    -5908 
   -6003    -6091    -6156    -6193    -6200    -6177    -6147    -6126 
   -6112    -6108    -6110    -6114    -6107    -6089    -6076    -6075 
   -6096    -6139    -6183    -6222    -6266    -6319    -6385    -6471 
   -6585    -6711    -6826    -6917    -6961    -6945    -6881    -6785 
   -6639    -6446    -6219    -5961    -5674    -5360    -5046    -4753 
   -4484    -4260    -4093    -3979    -3919    -3899    -3905    -3936 
   -4000    -4093    -4197    -4311    -4442    -4563    -4665    -4768 
   -4869    -4968    -5076    -5171    -5229    -5238    -5189    -5107 
   -5017    -4934    -4877    -4854    -4851    -4866    -4893    -4923 
   -4962    -5000    -5042    -5096    -5148    -5193    -5217    -5220 
   -5211    -5190    -5161    -5134    -5116    -5109    -5105    -5092 
   -5060    -5027    -5013    -5031    -5070    -5121    -5192    -5270 
   -5358    -5451    -5529    -5593    -5648    -5691    -5734    -5791 
   -5854    -5923    -6002    -6085    -6168    -6249    -6334    -6415 
   -6498    -6588    -6658    -6708    -6750    -6781    -6808    -6828 
   -6815    -6763    -6671    -6539    -6374    -6192    -6025    -5879 
   -5741    -5628    -5551    -5512    -5525    -5576    -5629    -5694 
   -5780    -5864    -5957    -6056    -6147    -6237    -6318    -6381 
   -6426    -6447    -6438    -6396    -6332    -6262    -6203    -6172 
   -6154    -6134    -6106    -6065    -6008    -5945    -5887    -5846 
   -5826    -5830    -5859    -5915    -5995    -6087    -6170    -6243 
   -6323    -6404    -6490    -6597    -6717    -6845    -6994    -7142 
   -7261    -7339    -7371    -7356    -7292    -7180    -7041    -6889 
   -6735    -6598    -6475    -6370    -6289    -6201    -6095    -5981 
   -5860    -5737    -5626    -5529    -5437    -5339    -5239    -5131 
   -5011    -4880    -4745    -4592    -4429    -4271    -4114    -3959 
   -3812    -3681    -3568    -3457    -3346    -3252    -3196    -3190 
   -3248    -3353    -3483    -3634    -3796    -3970    -4158    -4359 
   -4567    -4770    -4961    -5139    -5309    -5468    -5611    -5726 
   -5800    -5844    -5873    -5891    -5896    -5906    -5933    -5965 
   -5988    -5991    -5984    -5968    -5944    -5917    -5876    -5819 
   -5760    -5703    -5637    -5578    -5521    -5447    -5344    -5220 
   -5081    -4945    -4837    -4757    -4706    -4693    -4719    -4777 
   -4862    -4981    -5111    -5212    -5287    -5347    -5387    -5427 
   -5471    -5524    -5594    -5689    -5798    -5918    -6050    -6201 
   -6354    -6508    -6662    -6809    -6951    -7094    -7233    -7353 
   -7441    -7491    -7501    -7462    -7383    -7291    -7182    -7056 
   -6910    -6736    -6543    -6351    -6168    -6000    -5845    -5698 
   -5562    -5433    -5314    -5221    -5142    -5057    -4968    -4881 
   -4807    -4747    -4695    -4641    -4590    -4537    -4468    -4374 
   -4256    -4121    -3970    -3819    -3672    -3528    -3410    -3339 
   -3308    -3308    -3341    -3388    -3442    -3492    -3541    -3609 
   -3709    -3847    -4025    -4237    -4452    -4638    -4779    -4872 
   -4930    -4962    -4970    -4949    -4904    -4852    -4796    -4737 
   -4688    -4657    -4638    -4635    -4645    -4648    -4642    -4633 
   -4612    -4585    -4576    -4588    -4608    -4629    -4637    -4634 
   -4626    -4619    -4612    -4606    -4604    -4617    -4633    -4642 
   -4649    -4639    -4610    -4550    -4456    -4329    -4171    -3986 
   -3789    -3615    -3489    -3416    -3395    -3414    -3470    -3557 
   -3666    -3801    -3948    -4101    -4263    -4436    -4604    -4773 
   -4941    -5077    -5150    -5157    -5111    -5032    -4950    -4873 
   -4797    -4725    -4646    -4552    -4440    -4324    -4220    -4133 
   -4069    -4036    -4017    -4017    -4040    -4072    -4112    -4186 
   -4299    -4450    -4633    -4842    -5071    -5298    -5494    -5645 
   -5746    -5810    -5849    -5867    -5861    -5841    -5809    -5757 
   -5686    -5606    -5521    -5432    -5352    -5275    -5188    -5090 
   -4996    -4905    -4834    -4797    -4781    -4770    -4753    -4727 
   -4703    -4664    -4610    -4541    -4456    -4382    -4327    -4278 
   -4233    -4194    -4140    -4068    -3982    -3898    -3836    -3793 
   -3766    -3769    -3797    -3850    -3927    -4017    -4122    -4238 
   -4355    -4480    -4608    -4730    -4850    -4970    -5071    -5142 
   -5189    -5212    -5196    -5140    -5076    -5001    -4909    -4807 
   -4687    -4558    -4445    -4352    -4279    -4218    -4171    -4144 
