Origin Time       2016/04/16 01:25:00
Lat.              32.753
Long.             130.762
Depth. (km)       12
Mag.              7.3
Station Code      KGW007
Station Lat.      34.2271
Station Long.     134.4009
Station Height(m) 2
Record Time       2016/04/16 01:26:20
Sampling Freq(Hz) 100Hz
Duration Time(s)  109
Dir.              N-S
Scale Factor      7845(gal)/8223790
Max. Acc. (gal)   4.118
Last Correction   2016/04/16 01:26:21
Memo.             
[...]
     734      730      723      710      691      677      665      660 
     666      681      702      719      726      734      733      724 
     719      712      704      708      719      738      777      827 
     881      943     1005     1053     1088     1104     1104     1092 
    1071     1038      999      961      923      893      874      854 
     831      805      772      738      702      664      635      614 
     596      595      606      621      642      668      689      706 
     718      726      727      720      708      693      677      661 
     648      638      631      630      630      627      626      616 
     600      583      561      540      529      518      518      523 
     532      550      566      583      603      621      633      648 
     668      688      707      731      766      810      857      913 
     967     1009     1050     1088     1113     1138     1166     1192 
    1210     1229     1246     1258     1260     1254     1236     1205 
    1165     1120     1073     1030      986      935      880      819 
     743      660      575      488      405      329      259      193 
     141       99       70       60       65       78      101      139 
     187      241      303      379      460      549      648      750 
     854      957     1053     1139     1213     1274     1324     1367 
    1395     1405     1395     1355     1282     1189     1073      943 
     811      672      526      383      244      112       -5     -108 
    -191     -255     -297     -317     -313     -278     -222     -151 
     -55       63      197      346      504      661      812      953 
    1075     1179     1260     1325     1371     1398     1399     1378 
    1340     1281     1202     1115     1013      905      792      664 
     526      388      249      118        5      -86     -151     -193 
    -212     -207     -183     -143      -83      -11       81      189 
     305      437      576      702      826      943     1053     1151 
    1239     1312     1364     1395     1401     1383     1347     1289 
    1209     1120     1020      908      792      669      546      425 
     306      187       81      -14      -97     -164     -217     -255 
    -274     -280     -276     -257     -222     -178     -121      -52 
      22       98      174      255      346      446      556      677 
     796      903      999     1081     1138     1170     1178     1163 
    1131     1077     1003      924      838      743      654      572 
     498      433      375      319      266      217      176      147 
     129      129      149      193      255      338      445      562 
     684      814      945     1065     1173     1269     1343     1398 
    1433     1452     1459     1455     1444     1429     1405     1363 
    1297     1206     1100      982      858      734      615      511 
     421      341      278      228      184      152      125      106 
     102      116      144      180      225      282      342      414 
     506      612      728      855      977     1084     1178     1259 
    1325     1377     1409     1420     1413     1391     1358     1318 
    1285     1247     1204     1162     1116     1058      997      935 
     869      801      741      685      630      579      540      503 
     477      467      464      469      487      515      542      557 
     566      560      532      504      471      432      400      370 
     349      344      342      342      346      344      334      317 
     289      259      233      218      216      233      272      322 
     383      451      519      587      653      722      788      850 
     915      973     1020     1065     1105     1132     1158     1181 
    1194     1202     1202     1190     1159     1116     1065     1004 
     938      866      787      704      622      535      456      387 
     330      284      243      201      159      120       85       59 
      47       56       87      140      205      278      355      429 
     502      576      648      712      766      811      846      869 
     885      897      899      889      869      832      783      726 
     658      584      514      448      383      324      278      245 
     229      232      241      255      279      315      363      419 
     481      545      604      661      719      776      831      881 
     928      977     1020     1053     1081     1101     1116     1131 
    1147     1167     1183     1193     1196     1190     1173     1147 
    1117     1085     1051     1012      970      929      890      850 
     808      757      697      633      556      468      379      286 
     193      114       49       -1      -37      -60      -75      -94 
    -117     -135     -147     -148     -129      -99      -55        4 
      74      156      251      349      445      538      618      673 
     712      741      753      753      751      747      741      733 
     718      693      660      621      577      531      486      437 
     392      355      324      306      303      311      341      386 
     432      475      517      550      576      598      619      637 
     650      668      692      719      746      773      800      826 
     851      864      859      845      816      766      706      638 
     564      499      446      398      364      349      344      346 
     355      365      383      403      421      444      472      504 
     545      598      657      722      792      858      918      966 
    1000     1026     1038     1032     1020      997      966      939 
     912      890      864      831      791      737      662      577 
     488      402      321      246      176      112       55       20 
       8       13       47      102      163      230      297      356 
     410      461      521      594      676      766      864      959 
    1051     1133     1204     1263     1298     1313     1312     1289 
    1247     1192     1127     1062      996      931      868      804 
     738      666      589      514      433      353      286      224 
     175      144      124      116      120      129      152      190 
     243      310      387      464      549      633      714      789 
     857      909      950      974      980      969      947      911 
     861      808      753      697      639      581      526      471 
     425      390      353      328      315      302      292      288 
     283      287      302      329      372      422      477      542 
     606      665      712      745      765      770      762      747 
     730      712      692      677      672      664      657      657 
     658      661      662      657      648      629      603      576 
     546      522      506      500      503      513      523      533 
     545      558      579      603      633      672      720      778 
     845      919      994     1075     1165     1258     1347     1439 
    1525     1601     1660     1698     1713     1705     1676     1626 
    1560     1485     1394     1285     1167     1039      903      769 
     639      508      383      270      156       47      -49     -129 
    -198     -252     -283     -305     -311     -297     -266     -225 
    -167      -99      -23       59      153      251      353      464 
     571      672      772      866      954     1035     1111     1181 
    1240     1291     1329     1351     1359     1355     1339     1314 
    1282     1246     1208     1169     1124     1074     1021      965 
     903      847      805      770      743      731      730      735 
     750      772      795      822      850      877      911      940 
     969      999     1036     1080     1121     1158     1196     1229 
    1254     1270     1278     1274     1256     1230     1200     1161 
    1111     1059     1005      943      873      801      734      673 
     622      579      545      522      502      486      477      467 
     449      437      425      417      414      410      413      423 
     438      464      496      530      568      600      630      657 
     676      685      688      676      645      604      556      499 
     441      394      353      318      289      266      251      238 
     228      220      212      212      218      221      222      225 
     225      225      232      248      268      292      318      338 
     352      355      344      326      301      271      238      207 
     182      157      133      110       87       71       62       49 
      37       25        9       -8      -18      -23      -22      -16 
      -8        4       16       29       40       44       43       40 
      32       22       10       -1      -11      -27      -47      -70 
     -91     -112     -129     -144     -159     -170     -178     -184 
    -176     -156     -121      -68       -1       68      141      211 
     270      317      349      368      378      376      367      353 
     337      324      306      289      279      270      259      248 
     240      238      232      224      220      217      224      244 
     279      329      387      457      540      618      693      770 
     842      913      985     1053     1127     1205     1282     1360 
    1436     1499     1548     1583     1610     1628     1636     1640 
    1636     1629     1617     1597     1571     1539     1503     1472 
    1436     1399     1366     1329     1297     1281     1271     1267 
    1282     1314     1352     1401     1452     1499     1548     1598 
    1641     1680     1714     1736     1749     1753     1746     1733 
    1713     1687     1663     1640     1620     1599     1576     1554 
    1534     1518     1506     1499     1502     1506     1512     1518 
    1522     1528     1534     1543     1560     1586     1613     1649 
    1690     1728     1761     1794     1819     1837     1846     1846 
    1833     1818     1794     1761     1725     1684     1637     1584 
    1526     1463     1393     1317     1235     1147     1062      981 
     895      807      724      643      572      510      459      422 
     400      394      403      418      444      486      535      592 
     656      718      774      826      870      903      935      963 
     981      996     1011     1020     1026     1034     1031     1024 
    1009      989      962      924      877      831      776      711 
     648      587      526      475      425      375      326      275 
     217      162      110       59       14      -25      -62      -89 
    -102     -108     -101      -76      -41       -8       31       78 
     117      143      163      178      186      186      174      148 
     121       97       78       63       55       55       63       75 
      87       97      108      118      136      159      187      224 
     265      317      380      449      517      583      638      681 
     710      707      677      623      540      432      303      159 
       9     -148     -311     -464     -610     -743     -862     -961 
   -1046    -1123    -1185    -1240    -1286    -1317    -1334    -1333 
   -1308    -1270    -1216    -1148    -1070     -984     -896     -807 
    -722     -641     -568     -504     -446     -396     -360     -337 
    -322     -321     -333     -360     -394     -436     -486     -542 
    -608     -681     -753     -831     -912     -984    -1051    -1101 
   -1124    -1131    -1117    -1084    -1039     -985     -919     -850 
    -778     -704     -625     -529     -422     -314     -197      -71 
      45      164      282      382      467      526      552      544 
     500      423      314      180       27     -140     -318     -506 
    -689     -869    -1055    -1242    -1420    -1594    -1761    -1912 
   -2041    -2138    -2201    -2226    -2201    -2130    -2015    -1854 
   -1653    -1413    -1142     -842     -522     -194      140      476 
     797     1107     1405     1687     1949     2191     2400     2578 
    2720     2821     2889     2925     2922     2889     2830     2748 
    2656     2565     2478     2403     2340     2286     2246     2215 
    2188     2172     2162     2153     2155     2163     2165     2163 
    2162     2161     2166     2172     2178     2189     2203     2214 
    2223     2239     2255     2259     2262     2267     2273     2280 
    2289     2300     2316     2332     2343     2353     2359     2359 
    2354     2346     2330     2311     2290     2259     2220     2178 
    2126     2066     2006     1935     1857     1779     1695     1610 
    1530     1457     1393     1340     1298     1258     1220     1182 
    1138     1090     1048     1013      990      987      999     1023 
    1063     1111     1166     1228     1296     1366     1439     1512 
    1580     1642     1703     1760     1811     1865     1917     1960 
    1996     2019     2034     2037     2022     1991     1944     1880 
    1806     1725     1637     1552     1471     1397     1324     1246 
    1161     1070      980      886      789      695      606      526 
     460      407      370      352      338      326      313      295 
     275      255      221      172      105       18      -82     -207 
    -351     -506     -679     -864    -1053    -1256    -1470    -1690 
   -1917    -2150    -2381    -2601    -2814    -3014    -3194    -3350 
   -3480    -3577    -3639    -3658    -3630    -3554    -3431    -3267 
   -3075    -2866    -2639    -2397    -2146    -1884    -1610    -1336 
   -1059     -778     -500     -237       10      230      413      556 
     657      714      731      710      652      568      464      344 
     217       79      -58     -187     -311     -419     -514     -595 
    -654     -697     -730     -739     -724     -683     -611     -513 
    -383     -230      -67      108      287      461      630      788 
     931     1060     1173     1266     1339     1389     1414     1414 
    1386     1328     1247     1146     1023      889      756      623 
     502      398      303      225      172      136      108       94 
      91      103      129      167      214      276      344      422 
     500      575      642      711      774      835      886      923 
     946      959      961      959      961      962      967      974 
     972      962      947      927      905      885      872      864 
     870      897      950     1026     1129     1254     1391     1537 
    1679     1811     1933     2038     2128     2203     2263     2307 
    2324     2316     2281     2205     2097     1964     1795     1588 
    1350     1081      788      472      147     -166     -463     -745 
   -1000    -1224    -1425    -1594    -1719    -1813    -1878    -1910 
   -1910    -1891    -1849    -1779    -1684    -1561    -1408    -1227 
   -1023     -797     -564     -338     -128       63      225      360 
     461      530      566      575      560      521      460      378 
     278      170       47      -90     -237     -400     -579     -758 
    -940    -1111    -1255    -1370    -1440    -1464    -1447    -1383 
   -1275    -1123     -927     -689     -413     -106      225      581 
     951     1327     1701     2064     2412     2735     3019     3261 
    3456     3604     3708     3774     3802     3794     3757     3694 
    3601     3488     3352     3187     2999     2798     2583     2359 
    2133     1907     1691     1498     1333     1202     1111     1055 
    1024     1011     1012     1023     1031     1036     1038     1035 
    1038     1042     1055     1080     1113     1156     1208     1263 
    1314     1356     1386     1397     1382     1341     1273     1189 
    1100     1009      929      859      803      765      745      730 
     724      723      724      718      704      692      676      662 
     660      668      685      718      751      784      815      845 
     870      892      915      931      934      924      907      882 
     846      815      803      795      785      780      770      758 
     746      724      695      661      626      589      552      515 
     480      444      411      383      359      338      328      319 
     313      306      298      284      263      241      216      189 
     166      152      149      159      182      220      265      318 
     383      460      540      638      751      868      993     1129 
    1278     1431     1591     1761     1933     2107     2286     2461 
    2631     2783     2910     3009     3075     3109     3109     3076 
    3010     2911     2781     2629     2457     2265     2066     1865 
    1671     1491     1316     1147      981      814      641      468 
     305      149       -2     -143     -261     -357     -429     -473 
    -491     -486     -464     -430     -390     -348     -310     -279 
    -251     -225     -197     -153      -98      -27       62      160 
     256      342      414      464      486      473      429      351 
     245      124       -2     -126     -243     -341     -427     -508 
    -585     -662     -754     -855     -961    -1075    -1196    -1312 
   -1414    -1499    -1564    -1603    -1615    -1601    -1564    -1517 
   -1453    -1378    -1304    -1227    -1140    -1053     -955     -842 
    -715     -575     -415     -243      -64      112      278      425 
     565      693      805      903      989     1058     1119     1178 
    1243     1304     1355     1397     1425     1436     1431     1414 
    1395     1377     1360     1347     1343     1348     1362     1387 
    1424     1475     1541     1617     1695     1777     1863     1953 
    2046     2146     2251     2353     2452     2542     2617     2681 
    2731     2762     2768     2745     2691     2602     2481     2326 
    2130     1902     1640     1348     1034      699      349       -9 
    -365     -711    -1044    -1359    -1638    -1884    -2089    -2250 
   -2363    -2432    -2447    -2409    -2322    -2187    -2008    -1788 
   -1528    -1227     -885     -515     -121      292      708     1116 
    1502     1857     2173     2432     2639     2790     2882     2937 
    2955     2944     2910     2849     2771     2677     2558     2424 
    2276     2107     1934     1753     1567     1385     1210     1050 
     903      772      665      584      533      526      553      612 
     696      803      927     1063     1213     1383     1564     1755 
    1964     2176     2388     2594     2789     2970     3123     3248 
    3348     3415     3447     3462     3457     3424     3372     3303 
    3219     3126     3026     2925     2822     2724     2628     2535 
    2450     2376     2312     2261     2219     2189     2173     2165 
    2166     2182     2209     2245     2290     2344     2407     2474 
    2539     2601     2655     2708     2759     2808     2849     2887 
    2918     2947     2974     3003     3029     3044     3052     3052 
    3038     3015     2983     2936     2879     2814     2740     2656 
    2575     2493     2415     2346     2285     2220     2150     2064 
    1965     1857     1736     1611     1483     1351     1223     1101 
     997      916      862      837      837      859      901      958 
