Origin Time       2016/04/16 01:25:00
Lat.              32.753
Long.             130.762
Depth. (km)       12
Mag.              7.3
Station Code      KGW006
Station Lat.      34.2496
Station Long.     134.1856
Station Height(m) 70
Record Time       2016/04/16 01:26:10
Sampling Freq(Hz) 100Hz
Duration Time(s)  111
Dir.              N-S
Scale Factor      7845(gal)/8223790
Max. Acc. (gal)   3.548
Last Correction   2016/04/16 01:26:11
Memo.             
[...]
    2785     2714     2629     2540     2454     2377     2316     2265 
    2224     2196     2174     2160     2154     2154     2170     2204 
    2262     2343     2430     2512     2598     2687     2776     2855 
    2925     2983     3024     3052     3064     3063     3059     3059 
    3068     3082     3095     3117     3141     3171     3203     3231 
    3252     3265     3272     3283     3298     3304     3299     3284 
    3256     3215     3165     3099     3026     2955     2884     2822 
    2762     2704     2650     2602     2565     2535     2512     2490 
    2469     2452     2440     2428     2423     2428     2442     2459 
    2485     2513     2540     2563     2574     2578     2579     2582 
    2589     2594     2601     2602     2597     2589     2579     2574 
    2579     2604     2635     2675     2724     2774     2822     2866 
    2899     2921     2925     2920     2907     2889     2867     2843 
    2814     2783     2754     2733     2731     2745     2776     2814 
    2856     2895     2933     2967     2997     3011     3011     2997 
    2961     2917     2866     2803     2743     2694     2663     2662 
    2695     2758     2839     2924     2999     3055     3086     3100 
    3102     3082     3040     2982     2914     2848     2786     2733 
    2695     2675     2678     2702     2747     2803     2862     2920 
    2970     3003     3022     3018     2994     2963     2926     2886 
    2840     2789     2744     2717     2712     2721     2739     2770 
    2814     2867     2925     2986     3042     3083     3107     3109 
    3086     3049     3010     2972     2951     2945     2944     2943 
    2947     2953     2951     2938     2915     2878     2829     2770 
    2701     2636     2583     2543     2525     2528     2544     2567 
    2592     2617     2644     2674     2701     2721     2740     2752 
    2762     2771     2782     2792     2798     2795     2783     2768 
    2747     2717     2681     2639     2587     2538     2490     2444 
    2403     2369     2344     2331     2327     2338     2363     2390 
    2417     2447     2479     2519     2554     2593     2636     2678 
    2720     2763     2803     2840     2860     2866     2852     2824 
    2783     2733     2674     2609     2535     2451     2367     2281 
    2203     2143     2098     2073     2069     2074     2097     2138 
    2189     2255     2328     2403     2475     2544     2600     2636 
    2663     2674     2675     2671     2671     2682     2705     2740 
    2782     2830     2868     2890     2901     2890     2853     2805 
    2748     2690     2635     2589     2548     2515     2481     2446 
    2412     2378     2342     2308     2284     2263     2253     2262 
    2292     2336     2400     2477     2555     2639     2721     2805 
    2879     2938     2982     3002     3003     2984     2949     2918 
    2895     2874     2856     2843     2837     2844     2868     2905 
    2949     2999     3042     3073     3092     3090     3059     3005 
    2936     2855     2770     2700     2647     2609     2590     2593 
    2616     2658     2708     2766     2829     2886     2929     2955 
    2957     2943     2914     2872     2829     2792     2775     2783 
    2820     2884     2967     3068     3177     3280     3361     3414 
    3423     3388     3316     3215     3094     2965     2839     2721 
    2623     2550     2498     2471     2461     2458     2463     2471 
    2482     2497     2509     2516     2513     2504     2492     2482 
    2486     2497     2519     2551     2590     2628     2660     2701 
    2751     2799     2848     2893     2920     2934     2936     2922 
    2903     2895     2899     2921     2961     3021     3092     3171 
    3245     3310     3353     3365     3341     3283     3192     3083 
    2965     2844     2725     2617     2525     2459     2421     2409 
    2424     2461     2517     2582     2646     2701     2739     2759 
    2766     2756     2733     2704     2678     2664     2668     2697 
    2749     2820     2894     2961     3024     3071     3090     3088 
    3068     3032     2988     2941     2889     2832     2785     2751 
    2728     2721     2729     2747     2782     2835     2895     2960 
    3021     3073     3109     3122     3107     3068     3015     2955 
    2890     2833     2785     2751     2736     2747     2775     2818 
    2878     2943     2999     3042     3063     3056     3019     2952 
    2860     2758     2654     2550     2438     2312     2178     2041 
    1907     1786     1682     1606     1563     1549     1563     1603 
    1667     1749     1840     1929     2010     2085     2160     2232 
    2300     2355     2401     2438     2461     2477     2497     2527 
    2567     2617     2664     2700     2721     2731     2724     2702 
    2659     2597     2520     2428     2327     2234     2157     2098 
    2069     2069     2092     2135     2196     2263     2331     2396 
    2455     2508     2552     2581     2593     2589     2578     2579 
    2601     2641     2695     2771     2862     2959     3061     3161 
    3248     3314     3360     3377     3369     3333     3272     3200 
    3125     3048     2972     2903     2843     2795     2768     2759 
    2772     2810     2863     2926     2998     3065     3109     3136 
    3142     3132     3119     3114     3103     3092     3079     3049 
    3015     2982     2951     2930     2922     2920     2920     2920 
    2918     2907     2880     2836     2775     2705     2631     2562 
    2504     2457     2427     2409     2404     2409     2421     2444 
    2477     2515     2546     2558     2554     2548     2555     2577 
    2617     2678     2751     2826     2893     2944     2982     3003 
    3011     3015     3015     3014     3014     3017     3015     3009 
    2991     2959     2920     2875     2818     2748     2668     2582 
    2494     2407     2311     2205     2095     1984     1884     1803 
    1744     1711     1713     1741     1779     1817     1854     1885 
    1898     1884     1850     1799     1741     1683     1637     1613 
    1609     1632     1683     1749     1826     1910     1985     2053 
    2107     2147     2170     2170     2154     2133     2107     2096 
    2106     2138     2196     2270     2365     2478     2601     2735 
    2872     3001     3113     3204     3275     3315     3330     3326 
    3306     3276     3250     3225     3194     3157     3119     3071 
    3009     2932     2844     2756     2678     2617     2573     2546 
    2533     2532     2544     2569     2606     2658     2721     2792 
    2863     2932     2998     3056     3109     3163     3226     3300 
    3379     3461     3538     3600     3647     3676     3685     3676 
    3647     3605     3549     3470     3379     3280     3172     3069 
    2975     2886     2808     2737     2673     2614     2558     2504 
    2455     2405     2350     2289     2219     2143     2072     2008 
    1954     1911     1876     1852     1841     1837     1845     1863 
    1895     1939     1989     2038     2084     2128     2180     2239 
    2309     2386     2465     2546     2628     2706     2783     2866 
    2945     3013     3069     3119     3164     3200     3231     3257 
    3273     3287     3294     3299     3302     3300     3300     3302 
    3298     3284     3257     3215     3168     3113     3053     2995 
    2938     2879     2817     2759     2713     2682     2659     2641 
    2633     2617     2586     2546     2493     2430     2367     2311 
    2265     2241     2241     2253     2277     2299     2305     2300 
    2286     2274     2267     2273     2289     2313     2351     2394 
    2440     2490     2539     2586     2636     2694     2756     2821 
    2886     2944     3003     3067     3122     3172     3213     3238 
    3249     3244     3226     3200     3165     3126     3083     3033 
    2975     2913     2844     2768     2686     2602     2519     2436 
    2347     2253     2155     2061     1975     1902     1841     1786 
    1729     1672     1617     1563     1514     1471     1431     1394 
    1356     1317     1279     1246     1219     1210     1224     1258 
    1306     1368     1437     1506     1567     1611     1644     1671 
    1690     1705     1721     1738     1763     1792     1818     1838 
    1856     1858     1846     1823     1795     1765     1742     1736 
    1752     1792     1857     1937     2030     2134     2228     2307 
    2366     2407     2428     2444     2465     2492     2528     2581 
    2646     2720     2801     2880     2951     3003     3032     3036 
    3015     2972     2911     2839     2764     2691     2620     2556 
    2506     2465     2431     2420     2438     2479     2546     2623 
    2713     2825     2940     3053     3171     3281     3387     3488 
    3578     3663     3751     3832     3908     3986     4064     4140 
    4217     4286     4337     4365     4368     4353     4321     4279 
    4230     4172     4112     4048     3983     3923     3871     3831 
    3807     3796     3792     3786     3782     3781     3788     3805 
    3831     3858     3885     3910     3931     3937     3932     3929 
    3925     3920     3908     3890     3871     3855     3846     3840 
    3844     3855     3861     3867     3871     3865     3859     3861 
    3859     3847     3823     3784     3727     3653     3570     3478 
    3385     3296     3208     3123     3052     2990     2938     2907 
    2896     2905     2921     2941     2961     2972     2974     2959 
    2921     2870     2799     2714     2621     2520     2405     2285 
    2163     2038     1915     1802     1698     1615     1556     1522 
    1512     1522     1556     1603     1663     1736     1813     1894 
    1977     2057     2120     2173     2215     2247     2281     2324 
    2385     2474     2592     2736     2911     3107     3299     3478 
    3643     3780     3886     3970     4032     4086     4133     4171 
    4205     4233     4256     4278     4289     4299     4297     4266 
    4210     4124     3994     3824     3618     3379     3113     2835 
    2565     2324     2115     1941     1799     1686     1605     1556 
    1535     1547     1591     1663     1755     1864     1981     2096 
    2212     2335     2467     2606     2751     2896     3033     3157 
    3265     3345     3399     3429     3429     3404     3357     3288 
    3199     3080     2930     2758     2569     2367     2163     1968 
    1787     1621     1470     1336     1228     1144     1085     1051 
    1030     1013     1007     1019     1050     1097     1167     1256 
    1348     1449     1557     1663     1773     1885     1998     2101 
    2180     2224     2226     2176     2073     1921     1723     1491 
    1240      982      726      484      266       75      -94     -240 
    -364     -471     -560     -631     -684     -720     -738     -735 
    -711     -666     -602     -526     -448     -370     -297     -228 
    -167     -120      -75      -21       40      114      201      303 
     432      587      758      935     1105     1256     1382     1475 
    1528     1547     1537     1501     1457     1425     1413     1435 
    1501     1614     1763     1937     2126     2308     2471     2606 
    2701     2758     2783     2791     2792     2792     2805     2836 
    2887     2964     3067     3187     3325     3468     3605     3732 
    3844     3932     3997     4039     4062     4068     4074     4093 
    4135     4200     4291     4406     4541     4684     4830     4974 
    5107     5225     5328     5408     5472     5529     5576     5618 
    5667     5721     5787     5864     5948     6029     6093     6129 
    6133     6104     6037     5931     5791     5621     5432     5235 
    5044     4866     4707     4575     4475     4403     4357     4325 
    4295     4261     4223     4178     4128     4071     4012     3939 
    3851     3747     3628     3504     3376     3245     3118     2986 
    2849     2706     2548     2374     2178     1949     1699     1437 
    1171      918      688      490      334      221      144      117 
     136      193      272      361      448      519      573      614 
     641      649      643      627      608      591      581      585 
     604      633      660      683      699      696      675      645 
     610      569      545      548      585      673      808      982 
    1190     1420     1656     1887     2106     2305     2486     2641 
    2766     2860     2941     3025     3118     3232     3369     3519 
    3678     3842     3997     4140     4261     4357     4418     4441 
    4425     4376     4307     4232     4163     4104     4064     4050 
    4058     4087     4125     4156     4180     4187     4178     4158 
    4124     4087     4055     4033     4025     4036     4083     4170 
    4287     4433     4598     4762     4927     5085     5216     5314 
    5374     5387     5358     5289     5194     5082     4949     4804 
    4646     4464     4263     4028     3759     3459     3129     2779 
    2427     2076     1742     1440     1166      928      733      577 
     459      370      310      271      249      234      221      217 
     230      251      274      298      307      291      253      189 
      94      -17     -128     -236     -330     -409     -481     -544 
    -599     -660     -730     -804     -877     -942     -990    -1016 
   -1017     -992     -931     -830     -683     -490     -253       22 
     334      670     1013     1352     1667     1934     2142     2277 
    2332     2317     2238     2116     1982     1842     1715     1621 
    1559     1525     1524     1547     1601     1684     1792     1917 
    2052     2189     2327     2457     2582     2708     2832     2961 
    3103     3248     3388     3528     3657     3767     3852     3906 
    3924     3901     3842     3757     3639     3499     3338     3165 
    2986     2813     2652     2512     2400     2319     2269     2246 
    2257     2300     2366     2444     2528     2609     2678     2733 
    2783     2821     2844     2862     2878     2905     2955     3038 
    3149     3276     3410     3547     3677     3793     3892     3964 
    4010     4043     4071     4106     4152     4197     4233     4247 
    4225     4163     4059     3928     3771     3584     3385     3186 
    2982     2782     2597     2435     2312     2236     2205     2226 
    2289     2385     2513     2671     2853     3059     3280     3503 
    3721     3925     4101     4247     4359     4431     4468     4475 
    4446     4379     4289     4190     4074     3956     3834     3699 
    3542     3360     3144     2906     2652     2398     2162     1946 
    1759     1602     1478     1381     1302     1247     1217     1216 
    1237     1281     1333     1386     1431     1471     1509     1552 
    1613     1696     1800     1921     2052     2182     2313     2450 
    2587     2718     2835     2933     3019     3096     3169     3244 
    3322     3406     3492     3581     3658     3707     3717     3686 
    3609     3480     3295     3053     2768     2442     2092     1737 
    1397     1093      845      657      530      468      467      525 
     629      766      919     1065     1198     1321     1433     1547 
    1676     1826     2010     2228     2478     2756     3048     3334 
    3605     3838     4010     4118     4155     4110     4000     3828 
    3613     3372     3123     2884     2664     2474     2332     2241 
    2185     2163     2172     2196     2224     2255     2289     2324 
    2362     2407     2459     2521     2594     2678     2763     2844 
    2915     2974     3007     3014     2986     2917     2802     2636 
    2430     2196     1971     1773     1615     1493     1404     1334 
    1279     1239     1204     1178     1161     1147     1139     1142 
    1155     1183     1230     1304     1401     1509     1632     1769 
    1919     2077     2249     2425     2598     2759     2902     3011 
    3080     3109     3114     3114     3121     3138     3173     3223 
    3265     3280     3261     3206     3111     2984     2839     2685 
    2532     2386     2254     2141     2050     1991     1975     2001 
    2068     2174     2317     2488     2675     2866     3049     3223 
    3383     3523     3646     3750     3835     3906     3973     4039 
    4113     4191     4263     4327     4372     4392     4387     4351 
    4286     4199     4093     3978     3869     3773     3709     3686 
    3700     3735     3784     3838     3890     3932     3967     3990 
    4000     3996     3970     3923     3871     3817     3767     3732 
    3712     3704     3719     3759     3819     3898     3990     4079 
    4156     4210     4228     4213     4164     4081     3979     3869 
    3754     3647     3561     3492     3456     3459     3500     3572 
    3676     3805     3955     4113     4271     4431     4581     4715 
    4831     4935     5027     5113     5194     5277     5359     5445 
    5532     5616     5687     5741     5768     5755     5701     5599 
    5439     5212     4927     4602     4251     3883     3511     3133 
    2749     2382     2046     1746     1489     1281     1124     1021 
     977      989     1053     1151     1266     1395     1528     1651 
    1753     1829     1875     1898     1903     1898     1885     1877 
    1876     1878     1881     1881     1877     1871     1856     1826 
    1784     1722     1638     1537     1418     1296     1185     1107 
    1069     1074     1128     1233     1393     1602     1856     2147 
    2463     2781     3075     3330     3541     3690     3774     3801 
    3786     3750     3707     3658     3618     3596     3588     3580 
    3576     3563     3530     3474     3384     3258     3114     2949 
    2772     2600     2450     2336     2254     2193     2154     2133 
    2135     2165     2208     2259     2319     2380     2436     2486 
    2528     2570     2613     2655     2698     2748     2808     2874 
    2948     3024     3087     3133     3160     3163     3142     3103 
    3055     3003     2953     2901     2849     2810     2778     2755 
    2758     2789     2843     2924     3022     3136     3265     3397 
    3524     3647     3763     3874     3981     4078     4167     4247 
    4315     4372     4406     4419     4410     4382     4345     4305 
    4266     4236     4214     4197     4187     4185     4197     4220 
    4258     4305     4363     4437     4521     4617     4727     4843 
    4959     5077     5186     5287     5389     5497     5616     5741 
    5871     5996     6097     6156     6161     6107     6000     5850 
    5670     5474     5267     5054     4846     4649     4460     4287 
    4133     3989     3858     3740     3636     3551     3480     3424 
    3383     3349     3326     3307     3291     3279     3267     3254 
    3248     3254     3273     3306     3357     3430     3515     3613 
    3719     3819     3919     4017     4105     4186     4253     4295 
    4310     4295     4243     4159     4052     3928     3802     3684 
    3591     3524     3483     3470     3481     3503     3537     3574 
