Origin Time       2016/04/16 01:25:00
Lat.              32.753
Long.             130.762
Depth. (km)       12
Mag.              7.3
Station Code      KGW002
Station Lat.      34.4727
Station Long.     134.3139
Station Height(m) 4
Record Time       2016/04/16 01:26:56
Sampling Freq(Hz) 100Hz
Duration Time(s)  66
Dir.              E-W
Scale Factor      7845(gal)/8223790
Max. Acc. (gal)   1.746
Last Correction   2016/04/16 01:26:57
Memo.             
[...]
   -3993    -3998    -4000    -4002    -3986    -3951    -3919    -3886 
   -3846    -3809    -3786    -3771    -3770    -3784    -3794    -3796 
   -3793    -3786    -3785    -3797    -3819    -3850    -3894    -3947 
   -3993    -4021    -4039    -4044    -4044    -4054    -4055    -4033 
   -3998    -3958    -3920    -3897    -3888    -3892    -3909    -3929 
   -3944    -3964    -3993    -4017    -4044    -4066    -4082    -4106 
   -4135    -4153    -4168    -4178    -4164    -4145    -4135    -4114 
   -4104    -4116    -4132    -4156    -4187    -4203    -4214    -4228 
   -4236    -4237    -4238    -4237    -4233    -4241    -4238    -4218 
   -4197    -4172    -4144    -4124    -4109    -4095    -4086    -4079 
   -4068    -4054    -4036    -4031    -4036    -4052    -4074    -4090 
   -4097    -4099    -4097    -4087    -4079    -4078    -4081    -4093 
   -4117    -4137    -4145    -4152    -4159    -4163    -4175    -4190 
   -4205    -4218    -4228    -4222    -4213    -4202    -4180    -4164 
   -4159    -4153    -4143    -4143    -4151    -4164    -4192    -4223 
   -4251    -4291    -4341    -4380    -4410    -4430    -4437    -4438 
   -4436    -4415    -4380    -4341    -4294    -4248    -4205    -4156 
   -4107    -4055    -3991    -3936    -3906    -3888    -3877    -3877 
   -3877    -3867    -3861    -3861    -3858    -3856    -3866    -3880 
   -3905    -3939    -3954    -3937    -3910    -3871    -3834    -3811 
   -3793    -3781    -3769    -3751    -3740    -3747    -3765    -3788 
   -3821    -3859    -3893    -3921    -3939    -3947    -3951    -3954 
   -3959    -3973    -3987    -3996    -4001    -4006    -3996    -3965 
   -3929    -3893    -3848    -3804    -3770    -3740    -3719    -3712 
   -3703    -3685    -3672    -3662    -3662    -3686    -3735    -3793 
   -3861    -3936    -4005    -4067    -4125    -4164    -4199    -4247 
   -4291    -4338    -4393    -4434    -4445    -4437    -4409    -4367 
   -4329    -4289    -4256    -4233    -4213    -4178    -4143    -4110 
   -4082    -4081    -4102    -4125    -4156    -4197    -4233    -4274 
   -4317    -4353    -4382    -4417    -4448    -4464    -4475    -4471 
   -4444    -4403    -4353    -4297    -4245    -4197    -4148    -4106 
   -4081    -4060    -4040    -4024    -4013    -4017    -4041    -4078 
   -4118    -4155    -4172    -4159    -4116    -4051    -3965    -3879 
   -3807    -3748    -3709    -3693    -3692    -3690    -3690    -3684 
   -3681    -3696    -3723    -3757    -3805    -3847    -3871    -3888 
   -3893    -3879    -3863    -3844    -3821    -3811    -3809    -3817 
   -3842    -3885    -3928    -3970    -4010    -4052    -4095    -4140 
   -4180    -4214    -4245    -4268    -4278    -4271    -4247    -4209 
   -4164    -4117    -4077    -4055    -4058    -4063    -4077    -4110 
   -4158    -4207    -4261    -4302    -4320    -4326    -4321    -4291 
   -4248    -4195    -4136    -4087    -4051    -4029    -4021    -4024 
   -4020    -4002    -3978    -3954    -3936    -3937    -3951    -3975 
   -4008    -4043    -4077    -4102    -4106    -4083    -4058    -4043 
   -4033    -4039    -4062    -4093    -4129    -4170    -4205    -4243 
   -4276    -4293    -4295    -4294    -4283    -4256    -4218    -4171 
   -4107    -4039    -3977    -3919    -3873    -3847    -3828    -3821 
   -3828    -3846    -3861    -3878    -3893    -3896    -3893    -3890 
   -3883    -3874    -3863    -3839    -3804    -3766    -3736    -3717 
   -3713    -3732    -3771    -3825    -3889    -3947    -3998    -4044 
   -4078    -4102    -4128    -4147    -4163    -4182    -4189    -4178 
   -4162    -4118    -4055    -3993    -3931    -3878    -3842    -3823 
   -3804    -3792    -3794    -3811    -3844    -3897    -3951    -4008 
   -4063    -4101    -4128    -4159    -4182    -4190    -4187    -4162 
   -4117    -4078    -4050    -4031    -4024    -4027    -4033    -4050 
   -4082    -4116    -4143    -4168    -4191    -4205    -4228    -4256 
   -4278    -4295    -4305    -4294    -4271    -4253    -4240    -4225 
   -4218    -4217    -4217    -4228    -4248    -4276    -4310    -4347 
   -4376    -4403    -4433    -4452    -4455    -4445    -4421    -4384 
   -4347    -4302    -4248    -4187    -4122    -4059    -4003    -3959 
   -3923    -3899    -3899    -3913    -3929    -3948    -3969    -3996 
   -4027    -4050    -4055    -4052    -4035    -4013    -3997    -3971 
   -3939    -3917    -3904    -3899    -3906    -3906    -3896    -3889 
   -3882    -3870    -3870    -3888    -3897    -3909    -3936    -3965 
   -3998    -4044    -4085    -4120    -4164    -4203    -4222    -4222 
   -4194    -4136    -4068    -3997    -3927    -3879    -3858    -3851 
   -3865    -3899    -3931    -3956    -3989    -4012    -4027    -4054 
   -4079    -4102    -4128    -4145    -4137    -4104    -4050    -3970 
   -3877    -3793    -3719    -3661    -3619    -3582    -3543    -3508 
   -3484    -3470    -3469    -3481    -3499    -3524    -3555    -3588 
   -3620    -3645    -3655    -3655    -3657    -3661    -3663    -3665 
   -3658    -3636    -3612    -3593    -3577    -3582    -3626    -3693 
   -3769    -3852    -3927    -3981    -4031    -4072    -4094    -4110 
   -4116    -4106    -4107    -4110    -4097    -4090    -4086    -4074 
   -4066    -4055    -4021    -3978    -3944    -3912    -3894    -3910 
   -3931    -3954    -3994    -4035    -4074    -4132    -4189    -4225 
   -4266    -4307    -4327    -4338    -4330    -4284    -4218    -4156 
   -4099    -4066    -4054    -4052    -4064    -4090    -4113    -4139 
   -4176    -4220    -4270    -4325    -4382    -4430    -4482    -4531 
   -4572    -4608    -4627    -4612    -4577    -4530    -4456    -4359 
   -4252    -4129    -3998    -3882    -3784    -3703    -3640    -3593 
   -3574    -3600    -3663    -3748    -3850    -3954    -4039    -4113 
   -4180    -4233    -4286    -4345    -4391    -4431    -4475    -4502 
   -4507    -4491    -4448    -4388    -4330    -4270    -4205    -4140 
   -4072    -4005    -3955    -3924    -3899    -3883    -3885    -3899 
   -3924    -3962    -4005    -4036    -4071    -4107    -4135    -4153 
   -4178    -4191    -4192    -4197    -4189    -4153    -4102    -4029 
   -3944    -3863    -3789    -3719    -3661    -3611    -3580    -3572 
   -3574    -3586    -3613    -3655    -3712    -3774    -3835    -3899 
   -3964    -4032    -4091    -4132    -4147    -4144    -4126    -4090 
   -4035    -3969    -3897    -3828    -3774    -3732    -3705    -3703 
   -3727    -3769    -3827    -3896    -3956    -4006    -4051    -4081 
   -4094    -4097    -4081    -4059    -4055    -4060    -4058    -4060 
   -4055    -4044    -4051    -4074    -4105    -4153    -4205    -4251 
   -4303    -4359    -4398    -4429    -4464    -4492    -4506    -4502 
   -4471    -4417    -4357    -4298    -4233    -4172    -4112    -4041 
   -3975    -3913    -3850    -3790    -3735    -3678    -3628    -3588 
   -3565    -3561    -3570    -3584    -3605    -3639    -3693    -3759 
   -3823    -3878    -3937    -3994    -4033    -4051    -4048    -4009 
   -3944    -3873    -3793    -3716    -3669    -3647    -3646    -3673 
   -3726    -3785    -3856    -3946    -4031    -4117    -4215    -4301 
   -4369    -4423    -4442    -4423    -4391    -4341    -4274    -4213 
   -4163    -4112    -4066    -4028    -3991    -3955    -3925    -3902 
   -3889    -3886    -3885    -3888    -3904    -3936    -3987    -4069 
   -4171    -4279    -4396    -4517    -4629    -4731    -4818    -4880 
   -4916    -4926    -4908    -4869    -4819    -4754    -4679    -4603 
   -4519    -4431    -4356    -4287    -4228    -4186    -4153    -4133 
   -4128    -4125    -4116    -4098    -4078    -4054    -4023    -3981 
   -3936    -3889    -3839    -3788    -3738    -3690    -3649    -3619 
   -3607    -3615    -3645    -3689    -3743    -3801    -3851    -3890 
   -3910    -3904    -3875    -3831    -3776    -3735    -3709    -3686 
   -3667    -3651    -3626    -3596    -3565    -3522    -3468    -3411 
   -3350    -3296    -3250    -3204    -3164    -3126    -3096    -3079 
   -3075    -3078    -3088    -3115    -3156    -3206    -3272    -3354 
   -3440    -3541    -3669    -3816    -3967    -4124    -4274    -4415 
   -4557    -4685    -4796    -4904    -4997    -5058    -5093    -5101 
   -5077    -5031    -4974    -4889    -4781    -4668    -4549    -4434 
   -4333    -4233    -4133    -4039    -3946    -3867    -3820    -3796 
   -3794    -3819    -3856    -3898    -3946    -3986    -4000    -3989 
   -3963    -3916    -3861    -3815    -3765    -3719    -3694    -3676 
   -3669    -3689    -3734    -3800    -3894    -3986    -4063    -4133 
   -4194    -4237    -4268    -4282    -4266    -4225    -4174    -4113 
   -4045    -3974    -3892    -3796    -3692    -3581    -3472    -3377 
   -3302    -3245    -3213    -3207    -3222    -3256    -3303    -3361 
   -3426    -3501    -3582    -3663    -3747    -3839    -3928    -3998 
   -4039    -4062    -4063    -4050    -4033    -4003    -3959    -3916 
   -3874    -3834    -3800    -3771    -3757    -3753    -3751    -3751 
   -3754    -3761    -3775    -3794    -3808    -3801    -3771    -3724 
   -3661    -3600    -3557    -3526    -3505    -3489    -3472    -3459 
   -3457    -3453    -3447    -3447    -3445    -3440    -3451    -3464 
   -3470    -3480    -3487    -3481    -3473    -3464    -3443    -3429 
   -3411    -3373    -3327    -3284    -3227    -3177    -3148    -3119 
   -3095    -3080    -3052    -3015    -2986    -2963    -2941    -2934 
   -2947    -2972    -3015    -3076    -3144    -3213    -3284    -3348 
   -3404    -3462    -3522    -3584    -3640    -3681    -3704    -3707 
   -3694    -3670    -3632    -3585    -3527    -3476    -3440    -3410 
   -3395    -3407    -3439    -3495    -3569    -3655    -3753    -3851 
   -3947    -4033    -4113    -4185    -4247    -4302    -4341    -4356 
   -4356    -4347    -4329    -4311    -4297    -4278    -4266    -4263 
   -4271    -4286    -4313    -4341    -4357    -4363    -4352    -4322 
   -4295    -4282    -4278    -4283    -4297    -4307    -4320    -4348 
   -4395    -4457    -4537    -4615    -4665    -4708    -4734    -4725 
   -4706    -4677    -4635    -4612    -4615    -4617    -4631    -4671 
   -4710    -4766    -4846    -4923    -5001    -5100    -5205    -5310 
   -5417    -5499    -5551    -5580    -5578    -5539    -5476    -5386 
   -5271    -5142    -5004    -4869    -4743    -4633    -4533    -4441 
   -4364    -4303    -4261    -4252    -4275    -4324    -4392    -4476 
   -4560    -4630    -4687    -4733    -4769    -4793    -4803    -4795 
   -4780    -4758    -4720    -4673    -4623    -4556    -4468    -4372 
   -4275    -4187    -4126    -4097    -4087    -4099    -4128    -4159 
   -4195    -4247    -4307    -4388    -4483    -4572    -4654    -4718 
   -4753    -4773    -4787    -4779    -4752    -4714    -4654    -4585 
   -4522    -4455    -4392    -4344    -4289    -4230    -4178    -4124 
   -4067    -4021    -3979    -3946    -3942    -3955    -3982    -4039 
   -4126    -4241    -4376    -4521    -4660    -4787    -4887    -4958 
   -5004    -5023    -5022    -5004    -4966    -4905    -4814    -4695 
   -4560    -4421    -4287    -4164    -4055    -3969    -3908    -3873 
   -3861    -3866    -3883    -3908    -3935    -3965    -4003    -4031 
   -4039    -4025    -3986    -3928    -3866    -3812    -3778    -3775 
   -3804    -3858    -3932    -4023    -4122    -4225    -4320    -4399 
   -4461    -4498    -4513    -4507    -4473    -4407    -4313    -4197 
   -4066    -3923    -3774    -3623    -3472    -3321    -3175    -3048 
   -2948    -2882    -2844    -2836    -2853    -2901    -2967    -3042 
   -3121    -3198    -3264    -3321    -3366    -3396    -3410    -3397 
   -3366    -3321    -3265    -3229    -3218    -3227    -3258    -3299 
   -3341    -3384    -3419    -3446    -3465    -3480    -3489    -3485 
   -3468    -3442    -3395    -3334    -3272    -3206    -3138    -3068 
   -2995    -2921    -2848    -2781    -2728    -2704    -2713    -2755 
   -2832    -2944    -3092    -3271    -3458    -3640    -3820    -3978 
   -4097    -4183    -4241    -4266    -4263    -4237    -4192    -4140 
   -4097    -4059    -4020    -3979    -3935    -3877    -3816    -3757 
   -3690    -3634    -3604    -3589    -3597    -3626    -3657    -3694 
   -3740    -3784    -3821    -3850    -3855    -3835    -3794    -3731 
   -3649    -3551    -3440    -3322    -3207    -3109    -3029    -2982 
   -2964    -2967    -3010    -3096    -3206    -3334    -3481    -3636 
   -3801    -3970    -4118    -4251    -4382    -4487    -4575    -4660 
   -4725    -4774    -4820    -4842    -4834    -4811    -4770    -4722 
   -4684    -4645    -4602    -4576    -4558    -4557    -4585    -4626 
   -4677    -4753    -4843    -4953    -5082    -5215    -5332    -5428 
   -5497    -5543    -5574    -5589    -5587    -5578    -5564    -5536 
   -5489    -5422    -5328    -5212    -5097    -4976    -4849    -4734 
   -4633    -4546    -4482    -4426    -4369    -4311    -4251    -4182 
   -4086    -3959    -3823    -3680    -3527    -3391    -3267    -3142 
   -3040    -2953    -2882    -2848    -2848    -2867    -2898    -2937 
   -2983    -3026    -3059    -3080    -3087    -3092    -3092    -3073 
   -3049    -3025    -2990    -2944    -2890    -2830    -2774    -2717 
   -2652    -2589    -2535    -2473    -2400    -2334    -2272    -2219 
   -2203    -2220    -2267    -2357    -2474    -2616    -2778    -2932 
   -3057    -3152    -3208    -3227    -3215    -3184    -3140    -3090 
   -3055    -3034    -3024    -3032    -3060    -3100    -3165    -3254 
   -3354    -3470    -3597    -3719    -3828    -3924    -3994    -4039 
   -4066    -4068    -4043    -4006    -3970    -3925    -3873    -3817 
   -3759    -3697    -3630    -3553    -3478    -3419    -3384    -3373 
   -3380    -3393    -3416    -3453    -3496    -3534    -3572    -3611 
   -3643    -3680    -3716    -3750    -3794    -3842    -3888    -3944 
   -4001    -4045    -4090    -4118    -4113    -4090    -4052    -3986 
   -3906    -3827    -3738    -3651    -3595    -3553    -3534    -3566 
   -3630    -3700    -3785    -3873    -3964    -4088    -4233    -4380 
   -4521    -4645    -4748    -4852    -4965    -5077    -5198    -5328 
   -5443    -5557    -5661    -5736    -5795    -5844    -5860    -5846 
   -5817    -5760    -5668    -5555    -5420    -5268    -5128    -5012 
   -4923    -4896    -4938    -5016    -5115    -5228    -5336    -5433 
   -5516    -5572    -5599    -5590    -5537    -5437    -5287    -5100 
   -4876    -4612    -4324    -4024    -3728    -3458    -3237    -3069 
   -2956    -2896    -2884    -2905    -2956    -3042    -3146    -3268 
   -3412    -3554    -3689    -3817    -3920    -3983    -4010    -4006 
   -3987    -3969    -3963    -3981    -4009    -4035    -4055    -4077 
   -4102    -4133    -4178    -4228    -4278    -4338    -4396    -4437 
   -4469    -4502    -4531    -4573    -4619    -4646    -4646    -4610 
   -4529    -4425    -4315    -4191    -4068    -3962    -3867    -3797 
   -3771    -3781    -3824    -3910    -4020    -4144    -4282    -4421 
   -4550    -4662    -4747    -4797    -4810    -4797    -4773    -4747 
   -4723    -4696    -4675    -4665    -4662    -4660    -4665    -4688 
   -4726    -4780    -4847    -4927    -5008    -5086    -5154    -5211 
   -5260    -5300    -5314    -5297    -5254    -5188    -5105    -5013 
   -4916    -4837    -4785    -4750    -4734    -4731    -4725    -4706 
   -4676    -4631    -4565    -4494    -4422    -4349    -4280    -4217 
   -4148    -4072    -3991    -3920    -3865    -3835    -3827    -3832 
   -3855    -3883    -3896    -3901    -3908    -3896    -3877    -3867 
   -3846    -3815    -3789    -3746    -3693    -3651    -3599    -3532 
   -3478    -3422    -3369    -3338    -3311    -3289    -3292    -3315 
   -3360    -3427    -3504    -3581    -3674    -3770    -3842    -3904 
   -3955    -3974    -3977    -3977    -3939    -3866    -3792    -3700 
   -3596    -3522    -3476    -3439    -3435    -3473    -3524    -3604 
   -3719    -3835    -3959    -4105    -4243    -4374    -4500    -4603 
   -4681    -4756    -4818    -4860    -4889    -4900    -4889    -4872 
   -4846    -4810    -4784    -4766    -4750    -4741    -4718    -4680 
   -4648    -4623    -4604    -4598    -4604    -4625    -4665    -4733 
   -4824    -4931    -5050    -5167    -5273    -5367    -5436    -5483 
   -5521    -5544    -5541    -5510    -5466    -5408    -5333    -5260 
   -5188    -5116    -5066    -5036    -5017    -5016    -5044    -5090 
   -5139    -5189    -5233    -5263    -5281    -5293    -5293    -5281 
   -5260    -5232    -5192    -5146    -5090    -5017    -4939    -4865 
   -4781    -4693    -4619    -4548    -4488    -4452    -4423    -4399 
   -4388    -4368    -4342    -4329    -4315    -4299    -4287    -4263 
   -4228    -4210    -4202    -4210    -4232    -4243    -4241    -4230 
   -4212    -4189    -4168    -4155    -4140    -4110    -4074    -4051 
   -4036    -4020    -4009    -3998    -3981    -3973    -3974    -3970 
   -3973    -3984    -3994    -4008    -4017    -4035    -4072    -4128 
   -4197    -4289    -4399    -4519    -4641    -4756    -4850    -4918 
   -4959    -4968    -4941    -4892    -4822    -4726    -4606    -4464 
   -4305    -4147    -3994    -3844    -3709    -3601    -3516    -3449 
   -3384    -3321    -3269    -3225    -3194    -3188    -3196    -3230 
   -3315    -3424    -3543    -3670    -3793    -3905    -4009    -4085 
   -4126    -4149    -4159    -4159    -4159    -4159    -4156    -4172 
   -4209    -4263    -4359    -4476    -4577    -4669    -4753    -4820 
   -4874    -4908    -4922    -4941    -4959    -4972    -4988    -4989 
   -4968    -4920    -4845    -4756    -4679    -4603    -4527    -4488 
   -4463    -4426    -4403    -4376    -4336    -4317    -4310    -4298 
   -4307    -4363    -4448    -4550    -4675    -4785    -4869    -4947 
   -5008    -5042    -5065    -5080    -5071    -5042    -4985    -4907 
   -4826    -4731    -4619    -4521    -4431    -4341    -4256    -4178 
   -4105    -4059    -4048    -4048    -4059    -4088    -4113    -4129 
   -4144    -4131    -4106    -4085    -4040    -3969    -3888    -3805 
   -3738    -3689    -3651    -3620    -3600    -3609    -3645    -3703 
   -3797    -3908    -4020    -4135    -4251    -4351    -4425    -4475 
   -4502    -4502    -4492    -4476    -4460    -4440    -4410    -4368 
   -4320    -4256    -4182    -4099    -4009    -3923    -3850    -3798 
   -3776    -3776    -3801    -3869    -3950    -4023    -4112    -4202 
   -4258    -4294    -4322    -4334    -4340    -4365    -4391    -4396 
   -4406    -4426    -4448    -4471    -4492    -4506    -4499    -4476 
   -4446    -4398    -4332    -4268    -4191    -4095    -4016    -3959 
   -3908    -3882    -3878    -3871    -3874    -3905    -3947    -3975 
   -4003    -4043    -4095    -4156    -4197    -4205    -4190    -4158 
   -4107    -4039    -3937    -3816    -3701    -3591    -3481    -3391 
   -3334    -3303    -3308    -3348    -3402    -3476    -3577    -3674 
   -3767    -3865    -3936    -3974    -4009    -4035    -4044    -4072 
   -4116    -4136    -4158    -4190    -4207    -4225    -4247    -4251 
