Origin Time       2016/04/16 01:25:00
Lat.              32.753
Long.             130.762
Depth. (km)       12
Mag.              7.3
Station Code      KGW005
Station Lat.      34.1138
Station Long.     133.6354
Station Height(m) 2
Record Time       2016/04/16 01:26:00
Sampling Freq(Hz) 100Hz
Duration Time(s)  145
Dir.              E-W
Scale Factor      7845(gal)/8223790
Max. Acc. (gal)   7.363
Last Correction   2016/04/16 01:26:01
Memo.             
[...]
    5532     5760     5980     6146     6237     6245     6162     6016 
    5840     5652     5505     5346     5107     4854     4619     4383 
    4199     4067     3951     3838     3661     3427     3211     3063 
    3024     3071     3148     3253     3384     3510     3647     3800 
    3959     4139     4315     4472     4638     4811     4969     5117 
    5246     5282     5157     4909     4606     4260     3890     3562 
    3311     3171     3150     3207     3288     3346     3350     3283 
    3146     3011     2926     2902     2979     3118     3265     3414 
    3510     3550     3603     3682     3757     3801     3788     3712 
    3622     3542     3474     3430     3429     3488     3551     3562 
    3557     3518     3407     3248     3024     2721     2385     2041 
    1703     1390     1116      874      630      392      220      136 
     103      101      125      159      195      259      395      650 
    1039     1533     2068     2574     3010     3352     3628     3892 
    4149     4367     4523     4618     4656     4662     4649     4633 
    4653     4692     4698     4668     4584     4413     4186     3964 
    3762     3566     3373     3191     3019     2817     2601     2452 
    2398     2400     2461     2601     2762     2880     2948     2947 
    2921     2957     3071     3262     3503     3721     3873     3958 
    3986     3989     3990     4001     4039     4079     4085     4032 
    3883     3669     3450     3226     3009     2830     2686     2582 
    2531     2506     2492     2515     2584     2701     2868     3025 
    3146     3272     3393     3515     3688     3916     4174     4461 
    4776     5090     5332     5463     5487     5400     5246     5086 
    4905     4741     4660     4627     4591     4558     4540     4500 
    4421     4333     4230     4063     3842     3630     3435     3276 
    3210     3211     3188     3149     3136     3126     3145     3208 
    3294     3369     3412     3433     3435     3445     3496     3542 
    3549     3544     3504     3418     3321     3223     3095     2930 
    2751     2542     2311     2107     1972     1903     1844     1780 
    1729     1680     1630     1543     1409     1274     1125      961 
     822      712      643      652      749      901     1058     1193 
    1281     1327     1350     1390     1483     1626     1826     2073 
    2343     2627     2890     3121     3331     3503     3631     3748 
    3869     3964     4031     4066     4081     4118     4137     4125 
    4172     4255     4322     4371     4353     4283     4172     4040 
    3962     3932     3932     3990     4083     4197     4351     4490 
    4534     4483     4372     4217     4039     3852     3677     3550 
    3473     3454     3480     3469     3415     3358     3312     3298 
    3308     3307     3306     3312     3299     3256     3184     3076 
    2980     2913     2856     2811     2759     2716     2735     2767 
    2743     2678     2583     2450     2277     2053     1764     1457 
    1185      962      795      699      685      754      835      874 
     893      905      938     1004     1094     1242     1413     1530 
    1618     1718     1811     1904     2007     2083     2134     2204 
    2330     2516     2727     2955     3196     3387     3508     3578 
    3580     3563     3588     3655     3784     3928     4029     4090 
    4151     4270     4430     4604     4797     4981     5152     5283 
    5341     5336     5285     5192     5050     4869     4662     4467 
    4329     4236     4159     4110     4093     4088     4068     4040 
    4008     3956     3904     3847     3786     3771     3811     3886 
    4005     4185     4384     4537     4635     4671     4599     4473 
    4352     4251     4205     4228     4305     4403     4499     4577 
    4584     4457     4236     3989     3727     3492     3334     3227 
    3161     3127     3118     3102     3053     3001     2957     2941 
    2974     2988     2938     2844     2706     2527     2323     2126 
    1966     1850     1786     1776     1764     1723     1684     1634 
    1583     1571     1568     1553     1556     1549     1502     1426 
    1355     1334     1409     1571     1757     1953     2218     2493 
    2705     2859     2953     3029     3100     3161     3257     3365 
    3465     3604     3767     3927     4063     4140     4190     4243 
    4284     4334     4401     4468     4548     4646     4757     4882 
    5017     5135     5239     5325     5352     5301     5178     5019 
    4857     4695     4561     4480     4450     4464     4472     4441 
    4359     4225     4078     3946     3855     3828     3842     3867 
    3905     3929     3937     3943     3920     3865     3827     3804 
    3800     3851     3924     4006     4126     4284     4477     4676 
    4828     4918     4923     4833     4675     4452     4153     3834 
    3562     3339     3134     2937     2786     2683     2613     2584 
    2540     2446     2388     2389     2388     2392     2450     2546 
    2650     2776     2895     2971     3018     3015     2947     2839 
    2721     2636     2608     2636     2736     2894     3083     3281 
    3456     3586     3662     3661     3591     3484     3355     3240 
    3172     3149     3186     3307     3481     3623     3685     3690 
    3673     3623     3543     3453     3345     3218     3095     2970 
    2840     2766     2774     2782     2755     2708     2635     2562 
    2505     2461     2458     2511     2629     2781     2913     3048 
    3194     3306     3383     3423     3426     3416     3395     3383 
    3411     3440     3435     3407     3380     3342     3265     3168 
    3084     3026     3009     3030     3103     3232     3407     3624 
    3839     4021     4175     4286     4345     4376     4392     4415 
    4484     4594     4712     4872     5082     5277     5418     5501 
    5513     5493     5460     5401     5312     5208     5107     5005 
    4909     4858     4800     4657     4463     4245     3983     3676 
    3346     3011     2708     2463     2265     2100     1968     1852 
    1738     1625     1525     1436     1358     1324     1325     1308 
    1275     1297     1414     1611     1871     2172     2494     2844 
    3208     3555     3885     4202     4461     4606     4661     4687 
    4700     4714     4748     4795     4827     4854     4882     4916 
    4982     5063     5103     5105     5058     4932     4788     4671 
    4567     4464     4364     4282     4220     4170     4117     4067 
    4035     4009     3960     3905     3892     3902     3898     3861 
    3781     3665     3537     3427     3325     3175     2976     2754 
    2501     2254     2065     1961     1904     1876     1885     1910 
    1954     2072     2239     2421     2647     2913     3142     3294 
    3373     3369     3323     3288     3248     3184     3122     3064 
    3002     2956     2921     2901     2917     2953     2986     3015 
    3025     2975     2818     2584     2334     2079     1837     1609 
    1395     1242     1181     1173     1189     1242     1324     1424 
    1544     1710     1900     2066     2215     2342     2415     2428 
    2384     2328     2276     2224     2188     2153     2130     2162 
    2247     2378     2559     2803     3094     3396     3659     3879 
    4077     4217     4315     4421     4560     4769     5031     5297 
    5555     5768     5931     6060     6129     6154     6193     6224 
    6204     6148     6060     5933     5792     5620     5405     5194 
    5007     4837     4676     4490     4260     4009     3743     3476 
    3199     2926     2714     2565     2446     2338     2243     2162 
    2123     2120     2141     2199     2295     2384     2448     2509 
    2590     2682     2778     2879     2980     3088     3194     3284 
    3384     3550     3784     4021     4251     4476     4671     4876 
    5121     5382     5641     5872     6029     6058     5977     5854 
    5699     5479     5215     4931     4614     4284     3982     3704 
    3481     3348     3281     3248     3207     3129     2990     2781 
    2525     2238     1945     1701     1544     1474     1455     1436 
    1375     1277     1182     1121     1112     1151     1252     1405 
    1553     1680     1799     1898     2022     2182     2374     2590 
    2810     3017     3196     3364     3566     3801     4045     4261 
    4409     4480     4468     4374     4225     4064     3924     3811 
    3732     3700     3705     3750     3815     3859     3883     3886 
    3873     3870     3871     3871     3854     3780     3662     3501 
    3265     3011     2802     2640     2546     2505     2465     2419 
    2355     2259     2126     1949     1759     1551     1323     1107 
     908      737      626      553      514      525      552      546 
     546      614      722      859     1071     1355     1717     2169 
    2656     3161     3693     4240     4784     5292     5752     6165 
    6519     6822     7083     7275     7411     7510     7506     7360 
    7125     6801     6411     6039     5705     5406     5163     4974 
    4842     4747     4668     4573     4430     4237     4025     3815 
    3622     3457     3307     3160     3024     2875     2702     2560 
    2490     2465     2486     2563     2640     2685     2728     2759 
    2737     2681     2640     2621     2620     2662     2739     2816 
    2891     2951     2965     2949     2899     2770     2577     2361 
    2115     1826     1509     1167      784      400       71     -178 
    -338     -411     -418     -373     -303     -209      -79       81 
     315      642     1026     1466     1919     2315     2662     2978 
    3258     3532     3821     4117     4431     4756     5026     5208 
    5317     5373     5405     5445     5524     5636     5699     5663 
    5552     5356     5109     4882     4666     4448     4263     4135 
    4041     3990     4012     4097     4258     4507     4781     5058 
    5350     5613     5836     6023     6164     6293     6405     6462 
    6501     6525     6520     6521     6484     6386     6288     6183 
    6058     5925     5752     5537     5298     5034     4720     4355 
    3989     3661     3333     3006     2755     2605     2546     2559 
    2620     2743     2929     3138     3331     3503     3678     3819 
    3909     4005     4079     4143     4255     4372     4457     4546 
    4649     4756     4881     5023     5164     5282     5339     5317 
    5231     5097     4945     4795     4656     4568     4515     4455 
    4365     4202     3965     3682     3339     2984     2663     2363 
    2085     1858     1721     1695     1783     1991     2288     2612 
    2915     3184     3400     3551     3684     3816     3925     4048 
    4212     4390     4554     4680     4727     4696     4612     4479 
    4286     4063     3854     3659     3456     3277     3150     3048 
    2961     2887     2771     2586     2335     1971     1470      900 
     355      -93     -406     -619     -757     -811     -824     -853 
    -890     -899     -861     -803     -734     -634     -540     -493 
    -450     -392     -305     -141       93      372      684     1008 
    1298     1525     1705     1873     2065     2296     2567     2841 
    3106     3384     3624     3773     3813     3684     3385     3009 
    2606     2243     1996     1852     1784     1790     1844     1927 
    2079     2326     2636     2941     3217     3508     3831     4178 
    4563     4954     5323     5663     5957     6161     6285     6400 
    6535     6663     6777     6914     7064     7198     7307     7391 
    7429     7441     7429     7354     7196     6967     6694     6407 
    6108     5818     5549     5336     5200     5124     5127     5182 
    5250     5356     5510     5706     5968     6282     6613     6952 
    7306     7650     7942     8160     8324     8426     8444     8379 
    8212     7916     7506     7010     6426     5734     4946     4052 
    3051     2004      989       60     -741    -1374    -1833    -2200 
   -2515    -2770    -2970    -3088    -3094    -2994    -2771    -2377 
   -1833    -1212     -584       -5      513      973     1355     1642 
    1838     1952     1972     1875     1676     1425     1119      765 
     430      129     -139     -321     -405     -437     -429     -382 
    -303     -172       40      298      572      866     1152     1420 
    1661     1873     2095     2326     2578     2901     3246     3578 
    3931     4295     4666     5053     5445     5830     6174     6450 
    6662     6820     6905     6933     6957     6995     7075     7221 
    7437     7716     8023     8313     8572     8785     8928     8980 
    8970     8953     8968     9073     9294     9595     9929    10260 
   10547    10725    10733    10600    10372    10068     9721     9364 
    8995     8619     8256     7916     7581     7238     6922     6677 
    6467     6239     5975     5644     5205     4652     3987     3258 
    2538     1859     1213      584       -2     -513     -939    -1247 
   -1408    -1429    -1313    -1069     -764     -448     -131      139 
     364      608      830      954      987      923      797      687 
     622      641      754      931     1138     1331     1497     1624 
    1647     1553     1389     1115      695      159     -499    -1255 
   -2038    -2801    -3469    -3983    -4301    -4386    -4268    -3986 
   -3573    -3138    -2743    -2363    -1972    -1543    -1084     -621 
    -155      315      788     1224     1584     1892     2182     2485 
    2835     3221     3605     3939     4170     4271     4243     4110 
    3915     3686     3480     3353     3299     3281     3304     3375 
    3454     3551     3719     3951     4248     4596     4916     5190 
    5436     5632     5819     6004     6145     6249     6292     6270 
    6214     6146     6104     6099     6095     6085     6042     5946 
    5829     5711     5606     5510     5394     5235     5063     4932 
    4864     4861     4901     4935     4905     4758     4490     4112 
    3653     3161     2658     2158     1694     1328     1123     1077 
    1208     1535     1992     2509     2999     3335     3456     3384 
    3177     2941     2774     2714     2752     2809     2792     2616 
    2222     1644      959      209     -508    -1090    -1528    -1819 
   -1923    -1858    -1691    -1448    -1119     -739     -360       17 
     387      743     1101     1456     1826     2227     2617     2986 
    3333     3632     3856     3991     4052     4032     3921     3757 
    3565     3343     3129     2963     2863     2820     2803     2785 
    2752     2695     2623     2554     2511     2513     2546     2590 
    2635     2658     2658     2641     2587     2502     2396     2270 
    2118     1925     1713     1493     1282     1143     1088     1119 
    1247     1462     1750     2062     2351     2631     2905     3192 
    3526     3912     4333     4756     5148     5452     5651     5784 
    5825     5757     5623     5432     5211     5017     4858     4737 
    4665     4615     4557     4441     4171     3746     3211     2609 
    2018     1482     1059      814      680      606      579      522 
     413      288      164       71       47       83      168      310 
     480      669      892     1140     1418     1718     2030     2359 
    2656     2896     3123     3364     3651     4014     4440     4878 
    5278     5613     5864     6057     6247     6473     6741     7029 
    7291     7534     7742     7844     7860     7850     7847     7921 
    8109     8340     8564     8773     8937     9038     9081     9057 
    8946     8748     8499     8209     7827     7330     6731     6077 
    5431     4855     4411     4110     3925     3807     3692     3589 
    3534     3492     3437     3423     3481     3585     3759     4009 
    4309     4642     4989     5344     5675     5922     6066     6097 
    6010     5834     5603     5283     4854     4383     3916     3454 
    2978     2455     1892     1321      758      218     -321     -866 
   -1355    -1755    -2062    -2281    -2415    -2451    -2420    -2354 
   -2266    -2158    -2010    -1813    -1602    -1390    -1204    -1047 
    -882     -727     -581     -388     -157       90      353      594 
     781      900      928      888      804      704      627      572 
     513      442      355      237      114       52      102      275 
     542      847     1155     1449     1706     1912     2069     2205 
    2323     2420     2528     2648     2766     2896     3019     3096 
    3119     3069     2926     2729     2517     2282     2018     1769 
    1557     1378     1259     1204     1171     1124     1028      859 
     600      305       64      -68      -31      244      739     1416 
    2201     2978     3663     4223     4657     4977     5201     5347 
    5410     5397     5355     5314     5273     5243     5248     5270 
    5281     5263     5173     4970     4676     4315     3902     3504 
    3206     3021     2937     2974     3127     3329     3496     3580 
    3539     3361     3071     2710     2346     2064     1894     1865 
    1989     2223     2527     2866     3177     3406     3551     3667 
    3747     3774     3824     3912     4000     4095     4195     4279 
    4380     4514     4645     4730     4737     4656     4494     4263 
    4014     3801     3620     3499     3487     3553     3677     3851 
    4016     4135     4178     4129     4036     3920     3767     3593 
    3438     3315     3215     3129     3037     2924     2781     2600 
    2404     2205     2039     1988     2050     2187     2381     2574 
    2731     2870     2986     3068     3150     3272     3422     3601 
    3842     4172     4595     5085     5597     6072     6482     6825 
    7072     7211     7279     7288     7242     7167     7076     6980 
    6886     6782     6621     6373     6048     5630     5092     4472 
    3828     3219     2679     2223     1914     1800     1845     2016 
    2253     2489     2751     3019     3241     3443     3686     4001 
    4391     4868     5435     6034     6608     7101     7454     7649 
    7709     7663     7553     7439     7365     7318     7290     7273 
    7268     7271     7273     7283     7299     7277     7194     7056 
    6889     6720     6542     6358     6176     5989     5793     5552 
    5224     4810     4337     3815     3240     2667     2181     1796 
    1498     1250      984      683      330     -108     -610    -1142 
   -1669    -2123    -2447    -2640    -2718    -2706    -2652    -2612 
   -2602    -2594    -2550    -2461    -2338    -2177    -2012    -1869 
   -1750    -1664    -1609    -1566    -1502    -1437    -1414    -1422 
   -1439    -1468    -1498    -1497    -1437    -1323    -1138     -897 
    -668     -463     -259      -59      164      418      679      929 
    1146     1279     1314     1285     1240     1219     1227     1269 
    1363     1490     1661     1946     2358     2884     3526     4220 
    4873     5437     5948     6424     6872     7327     7798     8256 
    8660     8980     9212     9352     9433     9495     9540     9590 
