Origin Time       2016/04/16 01:25:00
Lat.              32.753
Long.             130.762
Depth. (km)       12
Mag.              7.3
Station Code      KGW007
Station Lat.      34.2271
Station Long.     134.4009
Station Height(m) 2
Record Time       2016/04/16 01:26:20
Sampling Freq(Hz) 100Hz
Duration Time(s)  109
Dir.              E-W
Scale Factor      7845(gal)/8223790
Max. Acc. (gal)   3.646
Last Correction   2016/04/16 01:26:21
Memo.             
[...]
    8731     8770     8800     8816     8811     8796     8768     8721 
    8661     8591     8513     8426     8333     8251     8174     8101 
    8040     7987     7931     7869     7811     7754     7695     7638 
    7593     7562     7537     7518     7514     7522     7530     7545 
    7573     7596     7619     7650     7676     7704     7739     7770 
    7804     7836     7863     7882     7892     7894     7890     7882 
    7877     7867     7855     7836     7808     7784     7754     7711 
    7676     7643     7605     7572     7535     7496     7469     7452 
    7447     7460     7489     7528     7572     7624     7685     7751 
    7824     7908     7993     8078     8168     8253     8333     8410 
    8480     8529     8561     8577     8575     8556     8527     8494 
    8463     8426     8388     8357     8330     8303     8280     8262 
    8243     8232     8243     8270     8310     8375     8457     8553 
    8665     8792     8927     9071     9209     9340     9477     9603 
    9718     9828     9923     9996    10052    10088    10104    10104 
   10081    10030     9965     9879     9760     9624     9477     9312 
    9142     8974     8806     8638     8473     8314     8155     8000 
    7852     7720     7608     7518     7444     7392     7357     7333 
    7321     7319     7335     7372     7418     7469     7530     7593 
    7654     7709     7755     7789     7813     7827     7827     7824 
    7821     7813     7807     7807     7805     7808     7817     7825 
    7834     7838     7831     7820     7803     7781     7767     7756 
    7751     7761     7782     7819     7867     7924     7990     8062 
    8131     8190     8240     8298     8359     8418     8487     8559 
    8635     8719     8793     8866     8943     9003     9047     9080 
    9094     9099     9099     9101     9112     9131     9153     9180 
    9215     9246     9277     9305     9328     9344     9352     9347 
    9335     9328     9310     9285     9262     9228     9186     9147 
    9107     9065     9026     8985     8945     8907     8863     8818 
    8772     8726     8676     8615     8546     8469     8376     8271 
    8160     8047     7929     7816     7707     7605     7515     7427 
    7344     7272     7206     7152     7115     7094     7096     7119 
    7168     7241     7330     7435     7560     7692     7831     7977 
    8117     8251     8383     8503     8607     8695     8762     8803 
    8822     8823     8803     8762     8700     8622     8532     8428 
    8316     8194     8062     7919     7770     7619     7460     7296 
    7138     6983     6833     6691     6571     6474     6399     6353 
    6345     6366     6412     6486     6592     6724     6878     7041 
    7211     7383     7555     7730     7903     8073     8224     8357 
    8472     8560     8627     8665     8667     8657     8633     8581 
    8513     8433     8334     8224     8114     8002     7882     7765 
    7647     7531     7426     7323     7229     7165     7114     7079 
    7075     7082     7103     7140     7177     7225     7279     7322 
    7366     7414     7460     7515     7573     7634     7701     7771 
    7846     7929     8016     8105     8190     8266     8334     8398 
    8449     8484     8517     8540     8545     8537     8517     8483 
    8434     8371     8301     8224     8133     8040     7960     7890 
    7834     7803     7789     7798     7832     7892     7973     8071 
    8179     8303     8444     8599     8768     8955     9155     9371 
    9599     9826    10053    10268    10446    10594    10706    10766 
   10771    10731    10646    10524    10362    10170     9956     9705 
    9428     9139     8822     8492     8162     7820     7480     7152 
    6840     6548     6282     6052     5852     5680     5545     5443 
    5375     5339     5339     5377     5454     5556     5687     5846 
    6018     6200     6393     6593     6801     7009     7213     7415 
    7608     7789     7951     8081     8186     8257     8290     8294 
    8260     8190     8095     7977     7847     7712     7576     7446 
    7326     7219     7130     7056     7003     6966     6957     6983 
    7042     7150     7310     7520     7793     8113     8472     8862 
    9261     9659    10046    10401    10731    11022    11261    11458 
   11610    11711    11766    11772    11738    11657    11523    11348 
   11125    10852    10544    10211     9860     9512     9174     8850 
    8548     8278     8040     7836     7672     7543     7449     7388 
    7354     7344     7357     7392     7446     7522     7614     7715 
    7823     7928     8027     8121     8209     8281     8344     8397 
    8441     8474     8499     8509     8513     8513     8509     8502 
    8490     8469     8431     8374     8303     8224     8129     8028 
    7931     7839     7753     7668     7592     7526     7468     7438 
    7437     7453     7491     7551     7635     7746     7879     8029 
    8197     8371     8553     8746     8941     9135     9325     9505 
    9667     9806     9917     9996    10044    10068    10061    10021 
    9965     9892     9798     9699     9591     9477     9369     9259 
    9147     9040     8928     8811     8696     8591     8497     8421 
    8367     8329     8302     8283     8270     8251     8221     8185 
    8144     8097     8044     7990     7938     7886     7831     7765 
    7695     7614     7520     7414     7287     7137     6976     6804 
    6619     6440     6276     6130     6015     5935     5896     5887 
    5910     5967     6039     6124     6216     6319     6440     6581 
    6739     6925     7132     7352     7580     7805     8025     8239 
    8437     8617     8769     8891     8978     9049     9107     9161 
    9221     9285     9358     9439     9509     9572     9629     9670 
    9698     9707     9688     9644     9572     9479     9373     9250 
    9115     8976     8823     8661     8492     8314     8124     7917 
    7695     7458     7218     6980     6748     6527     6316     6115 
    5926     5746     5585     5443     5314     5208     5130     5077 
    5049     5049     5080     5148     5244     5367     5517     5687 
    5868     6060     6259     6470     6686     6905     7125     7337 
    7528     7696     7844     7969     8055     8108     8133     8122 
    8073     7987     7873     7732     7572     7398     7211     7021 
    6831     6648     6481     6334     6219     6148     6119     6139 
    6205     6308     6450     6635     6852     7087     7340     7605 
    7869     8143     8426     8711     9007     9302     9579     9833 
   10062    10261    10422    10542    10619    10648    10627    10555 
   10434    10263    10050     9810     9545     9256     8954     8650 
    8343     8032     7739     7470     7227     7021     6851     6711 
    6613     6554     6528     6544     6590     6664     6777     6924 
    7106     7329     7585     7873     8182     8500     8820     9132 
    9427     9695     9931    10137    10312    10457    10577    10677 
   10747    10791    10816    10820    10808    10777    10719    10638 
   10535    10405    10251    10069     9868     9661     9454     9252 
    9065     8896     8742     8603     8484     8387     8305     8232 
    8167     8109     8052     8000     7962     7938     7919     7911 
    7908     7897     7869     7815     7734     7627     7489     7329 
    7152     6957     6755     6552     6347     6145     5952     5772 
    5613     5471     5351     5254     5175     5123     5097     5103 
    5144     5232     5362     5533     5749     6006     6290     6596 
    6917     7245     7580     7919     8255     8583     8900     9207 
    9497     9771    10030    10254    10443    10598    10717    10793 
   10829    10829    10791    10717    10617    10493    10345    10180 
    9996     9792     9576     9347     9104     8857     8610     8371 
    8147     7947     7785     7666     7593     7566     7584     7636 
    7717     7827     7960     8106     8274     8454     8641     8829 
    9018     9204     9387     9560     9730     9894    10039    10166 
   10269    10350    10407    10423    10405    10354    10257    10133 
    9981     9791     9572     9337     9084     8823     8559     8284 
    7998     7701     7415     7149     6907     6698     6524     6389 
    6297     6241     6219     6223     6251     6308     6382     6467 
    6563     6660     6752     6847     6941     7026     7098     7155 
    7192     7207     7198     7167     7117     7060     7001     6933 
    6871     6813     6760     6718     6682     6662     6659     6666 
    6690     6727     6771     6833     6905     6984     7076     7176 
    7284     7404     7533     7663     7797     7931     8063     8187 
    8302     8407     8505     8592     8660     8715     8757     8779 
    8787     8781     8760     8726     8683     8633     8577     8517 
    8454     8388     8324     8262     8191     8114     8033     7951 
    7865     7777     7688     7607     7528     7453     7395     7349 
    7317     7299     7292     7299     7325     7358     7406     7466 
    7541     7630     7731     7842     7948     8048     8149     8232 
    8291     8334     8349     8333     8284     8209     8118     8002 
    7860     7711     7550     7384     7225     7068     6926     6808 
    6704     6616     6548     6494     6465     6462     6480     6515 
    6577     6666     6774     6909     7076     7256     7444     7650 
    7860     8062     8245     8403     8533     8640     8726     8795 
    8847     8881     8900     8911     8912     8899     8870     8841 
    8803     8753     8702     8640     8560     8464     8357     8232 
    8093     7950     7807     7665     7533     7411     7304     7210 
    7126     7061     7011     6975     6960     6960     6970     6984 
    7003     7028     7067     7115     7176     7253     7342     7435 
    7537     7645     7749     7852     7951     8037     8110     8162 
    8194     8213     8212     8191     8163     8111     8044     7967 
    7873     7769     7666     7561     7458     7354     7249     7160 
    7088     7030     6993     6975     6976     6990     7025     7080 
    7144     7218     7307     7404     7515     7631     7751     7878 
    8002     8124     8241     8344     8428     8490     8527     8543 
    8540     8515     8467     8404     8328     8229     8121     8002 
    7870     7730     7589     7444     7292     7132     6967     6802 
    6650     6517     6401     6301     6227     6180     6151     6147 
    6166     6210     6284     6372     6480     6613     6760     6924 
    7114     7321     7542     7780     8033     8290     8543     8796 
    9036     9252     9447     9625     9782     9915    10019    10095 
   10153    10191    10204    10197    10169    10116    10046     9961 
    9857     9733     9579     9398     9201     8996     8792     8594 
    8404     8235     8086     7959     7858     7781     7732     7705 
    7699     7716     7753     7809     7888     7985     8106     8247 
    8397     8556     8721     8885     9038     9175     9301     9397 
    9459     9497     9497     9471     9432     9377     9305     9223 
    9131     9036     8934     8823     8711     8596     8482     8365 
    8253     8147     8047     7954     7877     7817     7767     7723 
    7685     7655     7634     7622     7612     7607     7608     7608 
    7612     7614     7609     7608     7595     7568     7541     7501 
    7457     7416     7373     7329     7284     7231     7176     7114 
    7045     6978     6907     6833     6755     6679     6605     6529 
    6462     6408     6358     6322     6305     6301     6318     6359 
    6427     6520     6640     6790     6963     7157     7375     7612 
    7863     8122     8375     8617     8856     9081     9289     9483 
    9652     9780     9877     9944     9969     9953     9896     9802 
    9670     9497     9297     9070     8820     8557     8290     8023 
    7756     7501     7263     7048     6867     6724     6613     6534 
    6494     6486     6497     6534     6596     6673     6768     6893 
    7036     7195     7376     7574     7788     8012     8237     8461 
    8676     8874     9061     9225     9354     9451     9517     9549 
    9545     9506     9437     9337     9205     9051     8876     8679 
    8464     8245     8020     7792     7570     7356     7156     6983 
    6840     6739     6686     6677     6718     6806     6930     7094 
    7295     7522     7777     8056     8344     8631     8922     9197 
    9444     9672     9873    10038    10172    10266    10314    10322 
   10292    10223    10119     9979     9802     9601     9373     9124 
    8866     8596     8317     8035     7755     7492     7249     7026 
    6833     6673     6538     6438     6369     6320     6295     6297 
    6320     6361     6423     6504     6602     6724     6867     7022 
    7190     7360     7519     7659     7778     7867     7919     7935 
    7925     7896     7850     7793     7732     7676     7627     7584 
    7543     7512     7484     7449     7418     7384     7339     7299 
    7268     7248     7249     7277     7338     7435     7568     7742 
    7944     8164     8403     8655     8910     9166     9424     9676 
    9930    10183    10434    10687    10933    11167    11385    11578 
   11736    11853    11921    11943    11925    11871    11781    11657 
   11504    11335    11146    10937    10716    10489    10255    10018 
    9784     9556     9344     9146     8969     8822     8704     8610 
    8542     8503     8486     8483     8494     8517     8549     8587 
    8634     8688     8742     8792     8842     8887     8929     8976 
    9028     9086     9139     9193     9252     9315     9379     9444 
    9508     9576     9644     9709     9776     9836     9895     9957 
   10011    10064    10112    10150    10187    10224    10260    10289 
   10311    10328    10338    10336    10322    10288    10243    10185 
   10114    10038     9953     9859     9767     9679     9598     9529 
    9462     9393     9336     9282     9219     9151     9081     9004 
    8924     8837     8737     8631     8523     8411     8311     8222 
    8132     8043     7964     7879     7782     7685     7581     7472 
    7364     7264     7168     7089     7038     7006     6990     6994 
    7006     7025     7052     7082     7114     7149     7180     7214 
    7253     7292     7340     7400     7465     7531     7597     7654 
    7701     7736     7749     7739     7701     7634     7548     7446 
    7335     7230     7127     7029     6943     6860     6786     6720 
    6650     6583     6527     6473     6432     6401     6374     6363 
    6373     6396     6444     6523     6624     6751     6905     7075 
    7257     7453     7650     7854     8060     8266     8474     8684 
    8888     9085     9269     9444     9606     9745     9869     9965 
   10030    10060    10046    10002     9929     9830     9728     9621 
    9504     9385     9259     9124     8978     8823     8665     8502 
    8334     8164     7987     7813     7662     7528     7418     7342 
    7302     7294     7310     7348     7402     7468     7543     7632 
    7731     7835     7950     8073     8198     8326     8461     8598 
    8733     8856     8964     9055     9113     9139     9144     9124 
    9092     9059     9019     8980     8946     8915     8896     8880 
    8860     8839     8811     8787     8766     8752     8748     8749 
    8765     8804     8854     8924     9009     9101     9207     9309 
    9408     9508     9605     9698     9782     9855     9922     9977 
   10022    10057    10077    10081    10064    10030     9979     9907 
    9825     9742     9652     9559     9468     9385     9304     9224 
    9151     9092     9038     8988     8941     8891     8846     8808 
    8777     8752     8733     8725     8718     8715     8726     8738 
    8750     8766     8777     8777     8775     8769     8762     8748 
    8726     8706     8672     8625     8579     8533     8490     8446 
    8406     8372     8337     8299     8260     8218     8177     8133 
    8083     8040     8002     7963     7933     7900     7869     7842 
    7809     7789     7782     7763     7746     7730     7696     7659 
    7622     7576     7528     7474     7418     7361     7307     7253 
    7198     7138     7072     6999     6922     6836     6743     6644 
    6542     6444     6353     6268     6196     6137     6095     6070 
    6057     6052     6048     6043     6044     6042     6041     6053 
    6070     6102     6151     6212     6285     6376     6473     6574 
    6673     6771     6860     6926     6971     6998     7020     7034 
    7036     7044     7072     7110     7155     7213     7284     7365 
    7450     7534     7616     7696     7761     7812     7846     7870 
    7885     7886     7882     7877     7869     7859     7848     7830 
    7808     7776     7720     7657     7597     7531     7468     7416 
    7365     7321     7291     7275     7271     7276     7298     7322 
    7350     7399     7460     7524     7603     7700     7817     7952 
    8098     8257     8426     8595     8761     8916     9055     9175 
    9266     9329     9373     9401     9413     9409     9398     9390 
    9379     9362     9344     9317     9269     9198     9116     9027 
    8920     8804     8703     8617     8540     8492     8471     8471 
    8494     8533     8587     8650     8718     8776     8824     8863 
    8889     8905     8924     8947     8962     8974     8991     9001 
    9004     9003     8988     8961     8919     8853     8765     8665 
    8553     8436     8311     8187     8059     7929     7812     7701 
    7599     7507     7411     7321     7248     7175     7101     7041 
    6990     6951     6924     6906     6909     6932     6966     7013 
    7082     7156     7231     7325     7425     7519     7626     7735 
    7831     7923     8010     8086     8160     8230     8291     8355 
    8408     8449     8483     8510     8533     8556     8571     8583 
    8598     8617     8631     8646     8661     8667     8658     8644 
    8618     8579     8538     8490     8444     8398     8355     8310 
    8278     8252     8230     8222     8222     8228     8244     8263 
    8276     8286     8302     8311     8319     8337     8365     8394 
    8418     8449     8479     8503     8517     8520     8517     8499 
    8467     8428     8376     8307     8230     8147     8062     7983 
    7916     7855     7798     7746     7704     7672     7650     7636 
    7631     7635     7649     7670     7697     7731     7769     7815 
    7862     7908     7960     8016     8068     8124     8176     8215 
    8244     8259     8262     8251     8228     8198     8160     8110 
    8048     7974     7893     7803     7708     7619     7541     7464 
    7385     7310     7238     7175     7125     7082     7048     7029 
    7013     6998     6994     6994     6987     6990     7005     7021 
    7051     7089     7134     7186     7236     7283     7330     7369 
    7398     7418     7426     7422     7411     7396     7383     7371 
