Origin Time       2016/04/16 01:25:00
Lat.              32.753
Long.             130.762
Depth. (km)       12
Mag.              7.3
Station Code      KGW001
Station Lat.      34.5452
Station Long.     134.2804
Station Height(m) 3
Record Time       2016/04/16 01:26:56
Sampling Freq(Hz) 100Hz
Duration Time(s)  60
Dir.              E-W
Scale Factor      7845(gal)/8223790
Max. Acc. (gal)   1.416
Last Correction   2016/04/16 01:26:57
Memo.             
[...]
   -1686    -1684    -1682    -1663    -1632    -1615    -1609    -1582 
   -1545    -1545    -1575    -1603    -1636    -1683    -1728    -1755 
   -1759    -1742    -1722    -1701    -1676    -1663    -1661    -1667 
   -1674    -1684    -1717    -1763    -1806    -1833    -1841    -1838 
   -1819    -1775    -1718    -1660    -1614    -1588    -1567    -1554 
   -1582    -1629    -1669    -1710    -1755    -1799    -1844    -1878 
   -1895    -1906    -1914    -1910    -1888    -1854    -1809    -1759 
   -1721    -1691    -1653    -1625    -1636    -1663    -1683    -1690 
   -1672    -1651    -1628    -1583    -1540    -1517    -1506    -1514 
   -1535    -1568    -1615    -1668    -1729    -1794    -1838    -1871 
   -1900    -1908    -1896    -1876    -1838    -1800    -1777    -1759 
   -1746    -1755    -1787    -1818    -1840    -1859    -1868    -1856 
   -1837    -1802    -1746    -1683    -1618    -1564    -1522    -1475 
   -1431    -1431    -1455    -1478    -1507    -1534    -1554    -1575 
   -1587    -1588    -1597    -1618    -1644    -1655    -1644    -1628 
   -1610    -1587    -1549    -1516    -1498    -1485    -1478    -1487 
   -1498    -1507    -1526    -1553    -1572    -1578    -1583    -1587 
   -1575    -1560    -1544    -1525    -1522    -1537    -1560    -1583 
   -1579    -1561    -1551    -1540    -1526    -1513    -1507    -1528 
   -1561    -1590    -1615    -1653    -1695    -1728    -1744    -1755 
   -1776    -1799    -1806    -1803    -1796    -1787    -1767    -1721 
   -1664    -1614    -1576    -1549    -1521    -1498    -1502    -1517 
   -1533    -1553    -1572    -1598    -1641    -1682    -1714    -1753 
   -1806    -1863    -1907    -1939    -1980    -2008    -2011    -2015 
   -2026    -2029    -2022    -2007    -1993    -1988    -1991    -1996 
   -1993    -1984    -1973    -1965    -1958    -1945    -1933    -1934 
   -1949    -1965    -1971    -1973    -1979    -1969    -1939    -1904 
   -1888    -1891    -1892    -1891    -1896    -1907    -1917    -1921 
   -1917    -1914    -1923    -1922    -1899    -1865    -1826    -1783 
   -1742    -1707    -1679    -1664    -1668    -1694    -1734    -1787 
   -1858    -1930    -1981    -2014    -2026    -2018    -1995    -1956 
   -1908    -1865    -1831    -1799    -1773    -1769    -1779    -1786 
   -1792    -1791    -1775    -1757    -1742    -1714    -1683    -1669 
   -1656    -1651    -1660    -1672    -1705    -1759    -1809    -1852 
   -1894    -1923    -1948    -1956    -1929    -1883    -1837    -1776 
   -1694    -1614    -1547    -1495    -1485    -1509    -1549    -1598 
   -1649    -1695    -1722    -1732    -1740    -1736    -1710    -1676 
   -1630    -1576    -1530    -1487    -1451    -1431    -1428    -1433 
   -1449    -1459    -1456    -1449    -1448    -1453    -1452    -1441 
   -1435    -1440    -1453    -1460    -1460    -1471    -1506    -1560 
   -1615    -1660    -1706    -1761    -1817    -1850    -1857    -1852 
   -1852    -1857    -1845    -1825    -1825    -1836    -1838    -1842 
   -1838    -1818    -1799    -1798    -1794    -1784    -1790    -1798 
   -1795    -1780    -1760    -1745    -1738    -1717    -1680    -1652 
   -1644    -1644    -1644    -1657    -1702    -1771    -1833    -1878 
   -1906    -1917    -1917    -1911    -1894    -1863    -1830    -1795 
   -1755    -1733    -1721    -1723    -1759    -1800    -1823    -1848 
   -1888    -1919    -1946    -1984    -2004    -1988    -1956    -1906 
   -1844    -1794    -1749    -1713    -1694    -1682    -1682    -1703 
   -1744    -1796    -1845    -1887    -1904    -1884    -1852    -1823 
   -1781    -1738    -1699    -1655    -1621    -1603    -1587    -1580 
   -1583    -1590    -1606    -1614    -1599    -1591    -1602    -1606 
   -1584    -1571    -1588    -1606    -1609    -1613    -1606    -1595 
   -1602    -1602    -1587    -1572    -1557    -1543    -1535    -1534 
   -1539    -1553    -1564    -1574    -1591    -1606    -1637    -1680 
   -1719    -1753    -1784    -1804    -1813    -1807    -1803    -1818 
   -1826    -1819    -1821    -1821    -1804    -1784    -1764    -1729 
   -1684    -1647    -1624    -1617    -1625    -1641    -1658    -1668 
   -1669    -1675    -1684    -1686    -1669    -1645    -1628    -1610 
   -1588    -1579    -1576    -1575    -1587    -1597    -1587    -1593 
   -1622    -1632    -1622    -1622    -1630    -1640    -1651    -1656 
   -1669    -1691    -1711    -1736    -1763    -1786    -1813    -1830 
   -1826    -1818    -1811    -1799    -1781    -1761    -1745    -1737 
   -1726    -1717    -1729    -1753    -1769    -1787    -1811    -1819 
   -1814    -1826    -1861    -1892    -1914    -1927    -1937    -1952 
   -1966    -1969    -1962    -1949    -1933    -1907    -1859    -1796 
   -1752    -1736    -1723    -1710    -1705    -1696    -1692    -1696 
   -1703    -1725    -1768    -1826    -1898    -1965    -2011    -2038 
   -2056    -2053    -2026    -1988    -1952    -1923    -1902    -1885 
   -1878    -1883    -1895    -1900    -1911    -1946    -1987    -2022 
   -2047    -2065    -2079    -2073    -2034    -2000    -1975    -1939 
   -1898    -1871    -1850    -1833    -1838    -1854    -1872    -1891 
   -1906    -1904    -1876    -1829    -1777    -1729    -1695    -1692 
   -1718    -1760    -1787    -1796    -1806    -1819    -1822    -1822 
   -1822    -1807    -1783    -1771    -1772    -1779    -1787    -1799 
   -1792    -1755    -1707    -1648    -1601    -1582    -1551    -1499 
   -1464    -1449    -1445    -1449    -1460    -1498    -1557    -1606 
   -1649    -1699    -1757    -1806    -1826    -1815    -1779    -1726 
   -1669    -1618    -1571    -1544    -1541    -1551    -1575    -1618 
   -1679    -1746    -1799    -1833    -1846    -1836    -1817    -1781 
   -1721    -1658    -1614    -1587    -1575    -1584    -1610    -1638 
   -1672    -1717    -1772    -1821    -1850    -1868    -1872    -1865 
   -1852    -1826    -1809    -1821    -1849    -1883    -1912    -1942 
   -1982    -2018    -2027    -2026    -2025    -2023    -2026    -2018 
   -2008    -2006    -1991    -1958    -1921    -1876    -1829    -1776 
   -1718    -1669    -1638    -1625    -1629    -1647    -1677    -1717 
   -1759    -1806    -1842    -1859    -1867    -1873    -1877    -1873 
   -1858    -1845    -1848    -1842    -1811    -1776    -1746    -1703 
   -1644    -1576    -1512    -1460    -1420    -1386    -1358    -1344 
   -1350    -1360    -1377    -1401    -1441    -1497    -1549    -1583 
   -1599    -1611    -1621    -1615    -1599    -1579    -1547    -1512 
   -1482    -1460    -1468    -1501    -1544    -1590    -1630    -1665 
   -1688    -1695    -1692    -1686    -1663    -1632    -1603    -1579 
   -1561    -1563    -1568    -1576    -1590    -1591    -1590    -1588 
   -1574    -1556    -1537    -1526    -1535    -1540    -1535    -1537 
   -1534    -1526    -1509    -1490    -1490    -1507    -1535    -1587 
   -1645    -1695    -1736    -1780    -1826    -1854    -1856    -1842 
   -1826    -1817    -1811    -1817    -1846    -1894    -1939    -1973 
   -1989    -1987    -1969    -1946    -1908    -1867    -1831    -1802 
   -1792    -1799    -1794    -1773    -1737    -1686    -1637    -1591 
   -1559    -1547    -1552    -1572    -1602    -1626    -1641    -1656 
   -1679    -1710    -1738    -1767    -1804    -1852    -1898    -1938 
   -1979    -2014    -2025    -1996    -1933    -1849    -1749    -1644 
   -1560    -1518    -1520    -1548    -1586    -1621    -1653    -1683 
   -1691    -1676    -1676    -1696    -1713    -1725    -1740    -1755 
   -1772    -1781    -1786    -1798    -1815    -1833    -1846    -1872 
   -1906    -1935    -1964    -1985    -1991    -1980    -1944    -1899 
   -1875    -1852    -1821    -1795    -1783    -1788    -1803    -1817 
   -1836    -1859    -1881    -1888    -1873    -1849    -1830    -1813 
   -1800    -1795    -1790    -1794    -1806    -1799    -1768    -1732 
   -1698    -1665    -1632    -1601    -1576    -1563    -1544    -1509 
   -1487    -1478    -1482    -1502    -1524    -1534    -1533    -1518 
   -1486    -1435    -1377    -1324    -1270    -1223    -1196    -1185 
   -1192    -1221    -1259    -1291    -1316    -1341    -1371    -1404 
   -1425    -1428    -1413    -1383    -1343    -1310    -1285    -1255 
   -1237    -1242    -1250    -1244    -1248    -1282    -1327    -1377 
   -1435    -1493    -1556    -1617    -1649    -1661    -1660    -1648 
   -1637    -1632    -1637    -1652    -1663    -1669    -1676    -1686 
   -1703    -1722    -1737    -1749    -1755    -1753    -1748    -1737 
   -1732    -1736    -1748    -1767    -1787    -1806    -1837    -1878 
   -1922    -1971    -2019    -2052    -2074    -2095    -2089    -2070 
   -2061    -2053    -2049    -2060    -2079    -2096    -2114    -2123 
   -2126    -2139    -2161    -2176    -2199    -2218    -2215    -2212 
   -2212    -2191    -2146    -2093    -2046    -2001    -1949    -1892 
   -1837    -1799    -1779    -1752    -1726    -1728    -1752    -1781 
   -1809    -1833    -1858    -1881    -1908    -1926    -1919    -1902 
   -1883    -1867    -1854    -1841    -1829    -1830    -1837    -1848 
   -1856    -1861    -1858    -1852    -1845    -1818    -1773    -1740 
   -1713    -1682    -1656    -1624    -1582    -1553    -1534    -1528 
   -1551    -1587    -1629    -1683    -1729    -1771    -1822    -1858 
   -1884    -1906    -1911    -1904    -1885    -1852    -1826    -1813 
   -1790    -1763    -1748    -1740    -1717    -1677    -1647    -1615 
   -1583    -1553    -1525    -1513    -1520    -1533    -1560    -1597 
   -1625    -1645    -1657    -1655    -1651    -1657    -1667    -1671 
   -1665    -1657    -1658    -1663    -1671    -1698    -1726    -1746 
   -1764    -1769    -1745    -1705    -1665    -1621    -1564    -1513 
   -1475    -1472    -1505    -1535    -1572    -1624    -1674    -1721 
   -1759    -1786    -1799    -1790    -1775    -1764    -1753    -1742 
   -1729    -1719    -1717    -1726    -1755    -1794    -1819    -1829 
   -1845    -1859    -1852    -1852    -1875    -1884    -1885    -1875 
   -1836    -1787    -1744    -1706    -1680    -1669    -1661    -1657 
   -1675    -1706    -1729    -1742    -1757    -1772    -1775    -1768 
   -1765    -1763    -1752    -1728    -1692    -1661    -1638    -1621 
   -1624    -1642    -1679    -1737    -1803    -1867    -1935    -2001 
   -2050    -2079    -2091    -2073    -2016    -1923    -1809    -1691 
   -1578    -1479    -1408    -1359    -1312    -1263    -1216    -1170 
   -1131    -1111    -1102    -1093    -1086    -1102    -1140    -1171 
   -1188    -1205    -1216    -1213    -1219    -1221    -1201    -1174 
   -1147    -1121    -1090    -1062    -1063    -1107    -1162    -1200 
   -1225    -1243    -1251    -1247    -1223    -1192    -1174    -1142 
   -1086    -1026     -976     -943     -926     -913     -922     -942 
    -958     -984    -1015    -1038    -1062    -1078    -1071    -1063 
   -1053    -1026    -1012    -1020    -1046    -1097    -1169    -1256 
   -1350    -1435    -1518    -1590    -1634    -1665    -1664    -1632 
   -1602    -1563    -1517    -1487    -1474    -1471    -1478    -1494 
   -1512    -1532    -1547    -1544    -1525    -1498    -1464    -1431 
   -1412    -1418    -1445    -1495    -1566    -1632    -1687    -1752 
   -1818    -1872    -1911    -1937    -1938    -1908    -1852    -1781 
   -1699    -1630    -1587    -1560    -1554    -1579    -1606    -1626 
   -1648    -1653    -1636    -1597    -1534    -1453    -1367    -1300 
   -1247    -1198    -1185    -1221    -1273    -1344    -1441    -1543 
   -1637    -1728    -1806    -1872    -1926    -1971    -2012    -2039 
   -2045    -2039    -2022    -1999    -1975    -1954    -1945    -1952 
   -1969    -2001    -2046    -2095    -2135    -2158    -2168    -2181 
   -2193    -2201    -2208    -2214    -2222    -2232    -2236    -2249 
   -2281    -2334    -2412    -2497    -2565    -2617    -2646    -2641 
   -2604    -2551    -2488    -2405    -2305    -2201    -2104    -2014 
   -1946    -1921    -1908    -1891    -1878    -1878    -1892    -1914 
   -1956    -2023    -2096    -2151    -2189    -2199    -2181    -2150 
   -2104    -2033    -1953    -1885    -1833    -1809    -1833    -1896 
   -1984    -2091    -2195    -2288    -2367    -2415    -2427    -2417 
   -2398    -2371    -2354    -2347    -2351    -2373    -2417    -2474 
   -2533    -2592    -2644    -2687    -2714    -2720    -2708    -2695 
   -2687    -2673    -2651    -2617    -2578    -2546    -2500    -2442 
   -2392    -2335    -2272    -2214    -2149    -2069    -1992    -1930 
   -1871    -1803    -1729    -1653    -1605    -1580    -1561    -1554 
   -1564    -1578    -1595    -1628    -1669    -1709    -1750    -1794 
   -1821    -1833    -1833    -1822    -1818    -1821    -1817    -1811 
   -1817    -1833    -1852    -1881    -1918    -1946    -1958    -1964 
   -1954    -1917    -1873    -1822    -1759    -1705    -1658    -1628 
   -1629    -1649    -1683    -1733    -1773    -1806    -1846    -1877 
   -1890    -1884    -1858    -1826    -1790    -1740    -1696    -1664 
   -1628    -1605    -1603    -1603    -1599    -1587    -1576    -1574 
   -1559    -1518    -1464    -1405    -1354    -1316    -1282    -1239 
   -1181    -1117    -1053    -1000     -966     -957     -972     -999 
   -1039    -1094    -1151    -1213    -1275    -1313    -1314    -1281 
   -1193    -1050     -872     -687     -521     -380     -282     -253 
    -291     -378     -504     -645     -766     -859     -929     -963 
    -953     -915     -877     -834     -776     -733     -715     -712 
    -738     -805     -889     -977    -1060    -1136    -1209    -1266 
   -1305    -1348    -1393    -1426    -1452    -1467    -1462    -1433 
   -1402    -1386    -1374    -1377    -1420    -1497    -1579    -1657 
   -1715    -1753    -1773    -1775    -1748    -1706    -1672    -1648 
   -1621    -1595    -1580    -1582    -1617    -1683    -1761    -1846 
   -1921    -1973    -2006    -2019    -2023    -2037    -2046    -2033 
   -2007    -1965    -1907    -1840    -1775    -1718    -1674    -1636 
   -1610    -1587    -1566    -1559    -1568    -1583    -1597    -1609 
   -1622    -1622    -1617    -1628    -1636    -1632    -1640    -1660 
   -1679    -1702    -1732    -1780    -1845    -1911    -1977    -2052 
   -2130    -2207    -2265    -2304    -2335    -2370    -2400    -2424 
   -2451    -2481    -2505    -2513    -2505    -2481    -2435    -2370 
   -2301    -2228    -2147    -2057    -1972    -1896    -1819    -1749 
   -1707    -1692    -1691    -1696    -1713    -1736    -1755    -1752 
   -1718    -1676    -1632    -1586    -1537    -1486    -1429    -1378 
   -1329    -1285    -1246    -1210    -1192    -1188    -1182    -1171 
   -1154    -1135    -1136    -1156    -1177    -1204    -1248    -1304 
   -1352    -1383    -1389    -1372    -1348    -1320    -1282    -1247 
   -1219    -1189    -1143    -1077     -994     -903     -812     -722 
    -645     -577     -531     -526     -558     -621     -707     -818 
    -955    -1090    -1209    -1328    -1436    -1503    -1534    -1544 
   -1518    -1463    -1393    -1308    -1224    -1150    -1081    -1036 
   -1028    -1046    -1089    -1173    -1296    -1421    -1530    -1624 
   -1687    -1710    -1702    -1671    -1628    -1588    -1554    -1535 
   -1537    -1548    -1566    -1586    -1613    -1637    -1636    -1617 
   -1599    -1575    -1547    -1532    -1530    -1537    -1568    -1624 
   -1690    -1755    -1814    -1852    -1876    -1892    -1895    -1888 
   -1868    -1833    -1783    -1717    -1647    -1571    -1501    -1452 
   -1429    -1444    -1491    -1556    -1648    -1750    -1826    -1878 
   -1910    -1927    -1939    -1934    -1914    -1895    -1880    -1872 
   -1863    -1841    -1825    -1817    -1804    -1802    -1807    -1804 
   -1802    -1798    -1780    -1741    -1687    -1636    -1584    -1518 
   -1448    -1379    -1317    -1275    -1246    -1217    -1215    -1247 
   -1296    -1358    -1431    -1507    -1579    -1632    -1660    -1672 
   -1679    -1679    -1668    -1640    -1611    -1599    -1597    -1598 
   -1621    -1669    -1742    -1825    -1892    -1945    -1995    -2039 
   -2062    -2061    -2053    -2046    -2020    -1975    -1926    -1881 
   -1837    -1792    -1757    -1738    -1740    -1752    -1764    -1787 
   -1811    -1815    -1809    -1796    -1776    -1759    -1753    -1750 
   -1765    -1818    -1910    -2027    -2170    -2326    -2466    -2583 
   -2668    -2712    -2733    -2740    -2729    -2698    -2641    -2559 
   -2479    -2425    -2376    -2322    -2288    -2272    -2241    -2196 
   -2158    -2142    -2151    -2168    -2177    -2188    -2212    -2250 
   -2284    -2292    -2282    -2273    -2266    -2272    -2301    -2350 
   -2434    -2548    -2660    -2744    -2790    -2805    -2795    -2754 
   -2669    -2543    -2397    -2258    -2135    -2038    -1975    -1945 
   -1926    -1910    -1896    -1881    -1842    -1788    -1750    -1718 
   -1683    -1657    -1648    -1655    -1674    -1680    -1675    -1669 
   -1667    -1672    -1699    -1744    -1807    -1885    -1971    -2070 
   -2168    -2231    -2255    -2228    -2157    -2065    -1954    -1858 
   -1806    -1786    -1795    -1848    -1925    -2014    -2114    -2201 
   -2254    -2262    -2230    -2154    -2041    -1925    -1818    -1728 
   -1663    -1620    -1597    -1609    -1648    -1705    -1771    -1845 
   -1929    -2018    -2092    -2119    -2124    -2130    -2120    -2101 
   -2089    -2092    -2110    -2123    -2146    -2193    -2246    -2296 
   -2346    -2389    -2428    -2463    -2484    -2486    -2461    -2415 
   -2361    -2285    -2185    -2091    -2016    -1965    -1939    -1933 
   -1941    -1958    -1975    -2003    -2049    -2102    -2155    -2212 
   -2273    -2309    -2316    -2319    -2319    -2319    -2330    -2338 
   -2346    -2361    -2361    -2340    -2305    -2245    -2177    -2116 
   -2057    -2007    -1973    -1956    -1956    -1977    -2015    -2058 
   -2114    -2196    -2278    -2330    -2355    -2353    -2313    -2247 
   -2166    -2087    -2043    -2034    -2042    -2070    -2107    -2138 
   -2192    -2258    -2296    -2313    -2307    -2261    -2185    -2101 
   -2023    -1941    -1854    -1783    -1717    -1652    -1613    -1594 
   -1588    -1609    -1642    -1694    -1771    -1868    -1980    -2079 
   -2141    -2155    -2123    -2058    -1969    -1861    -1755    -1679 
   -1653    -1679    -1729    -1806    -1926    -2076    -2227    -2354 
   -2455    -2529    -2569    -2573    -2536    -2466    -2392    -2322 
   -2251    -2196    -2155    -2137    -2150    -2177    -2212    -2262 
   -2307    -2343    -2388    -2430    -2458    -2473    -2466    -2448 
   -2431    -2400    -2355    -2312    -2272    -2230    -2173    -2100 
   -2042    -2007    -1972    -1933    -1906    -1898    -1895    -1892 
   -1896    -1907    -1923    -1953    -1995    -2038    -2079    -2110 
   -2126    -2138    -2143    -2138    -2135    -2138    -2143    -2160 
   -2163    -2139    -2111    -2096    -2079    -2062    -2062    -2072 
   -2072    -2077    -2085    -2085    -2081    -2066    -2038    -2022 
   -2049    -2098    -2155    -2238    -2342    -2439    -2525    -2592 
