Origin Time       2016/04/16 01:25:00
Lat.              32.753
Long.             130.762
Depth. (km)       12
Mag.              7.3
Station Code      KGW001
Station Lat.      34.5452
Station Long.     134.2804
Station Height(m) 3
Record Time       2016/04/16 01:26:56
Sampling Freq(Hz) 100Hz
Duration Time(s)  60
Dir.              N-S
Scale Factor      7845(gal)/8223790
Max. Acc. (gal)   2.091
Last Correction   2016/04/16 01:26:57
Memo.             
[...]
   -5791    -5782    -5767    -5763    -5759    -5752    -5745    -5738 
   -5733    -5727    -5713    -5692    -5676    -5656    -5626    -5601 
   -5594    -5601    -5609    -5606    -5609    -5634    -5678    -5730 
   -5779    -5811    -5815    -5792    -5751    -5697    -5648    -5617 
   -5578    -5518    -5459    -5433    -5441    -5467    -5505    -5526 
   -5522    -5530    -5541    -5529    -5525    -5535    -5526    -5512 
   -5513    -5526    -5539    -5564    -5616    -5670    -5709    -5760 
   -5825    -5877    -5915    -5937    -5944    -5931    -5886    -5831 
   -5787    -5742    -5707    -5671    -5617    -5572    -5551    -5529 
   -5510    -5525    -5563    -5587    -5609    -5649    -5689    -5725 
   -5756    -5791    -5840    -5886    -5921    -5961    -5992    -5996 
   -5984    -5968    -5945    -5929    -5926    -5921    -5914    -5925 
   -5935    -5940    -5953    -5962    -5967    -5977    -5996    -6025 
   -6042    -6042    -6052    -6068    -6077    -6089    -6092    -6077 
   -6054    -6029    -5989    -5953    -5934    -5908    -5864    -5823 
   -5788    -5759    -5740    -5733    -5745    -5779    -5823    -5875 
   -5921    -5973    -6027    -6046    -6035    -6011    -5962    -5902 
   -5857    -5814    -5768    -5740    -5737    -5749    -5773    -5793 
   -5805    -5830    -5864    -5891    -5922    -5967    -6012    -6043 
   -6064    -6085    -6095    -6104    -6120    -6124    -6108    -6087 
   -6066    -6049    -6034    -6035    -6041    -6037    -6038    -6033 
   -6006    -5994    -5989    -5975    -5960    -5953    -5942    -5926 
   -5913    -5910    -5923    -5935    -5937    -5948    -5968    -5983 
   -5989    -5983    -5965    -5940    -5894    -5837    -5788    -5748 
   -5719    -5682    -5640    -5621    -5613    -5618    -5656    -5711 
   -5760    -5782    -5795    -5826    -5859    -5876    -5888    -5891 
   -5883    -5864    -5849    -5853    -5871    -5881    -5899    -5927 
   -5940    -5942    -5946    -5938    -5917    -5879    -5807    -5726 
   -5655    -5589    -5533    -5501    -5485    -5475    -5472    -5481 
   -5491    -5486    -5491    -5517    -5529    -5519    -5506    -5495 
   -5481    -5462    -5447    -5431    -5410    -5400    -5390    -5386 
   -5409    -5464    -5528    -5589    -5659    -5727    -5768    -5791 
   -5807    -5813    -5802    -5786    -5757    -5715    -5684    -5660 
   -5626    -5595    -5571    -5533    -5494    -5475    -5474    -5470 
   -5472    -5506    -5552    -5594    -5645    -5707    -5768    -5821 
   -5860    -5899    -5945    -5998    -6042    -6056    -6048    -6026 
   -5991    -5956    -5918    -5877    -5846    -5818    -5790    -5779 
   -5786    -5810    -5856    -5911    -5960    -5991    -6014    -6041 
   -6061    -6066    -6073    -6089    -6110    -6131    -6141    -6143 
   -6142    -6134    -6120    -6112    -6130    -6160    -6188    -6211 
   -6223    -6226    -6230    -6235    -6239    -6235    -6214    -6199 
   -6199    -6208    -6219    -6224    -6228    -6212    -6158    -6110 
   -6085    -6056    -6018    -5988    -5954    -5899    -5853    -5834 
   -5826    -5818    -5798    -5779    -5783    -5787    -5779    -5778 
   -5792    -5810    -5819    -5830    -5859    -5886    -5884    -5859 
   -5813    -5752    -5676    -5595    -5528    -5466    -5409    -5362 
   -5313    -5270    -5228    -5186    -5154    -5130    -5113    -5116 
   -5136    -5154    -5163    -5169    -5162    -5139    -5116    -5093 
   -5063    -5042    -5035    -5017    -5000    -4994    -4989    -4981 
   -4976    -4972    -4976    -4993    -5019    -5040    -5058    -5078 
   -5088    -5086    -5092    -5098    -5088    -5067    -5050    -5023 
   -4989    -4959    -4949    -4963    -4984    -4992    -5005    -5031 
   -5062    -5080    -5090    -5120    -5161    -5204    -5266    -5328 
   -5387    -5462    -5516    -5540    -5563    -5572    -5552    -5521 
   -5503    -5472    -5401    -5328    -5273    -5223    -5166    -5112 
   -5076    -5046    -5011    -4992    -4986    -4993    -5022    -5055 
   -5086    -5127    -5175    -5224    -5259    -5278    -5283    -5273 
   -5267    -5292    -5313    -5310    -5309    -5312    -5317    -5333 
   -5359    -5390    -5422    -5458    -5501    -5536    -5572    -5625 
   -5661    -5682    -5713    -5741    -5756    -5769    -5783    -5792 
   -5805    -5834    -5881    -5937    -5998    -6057    -6120    -6185 
   -6237    -6273    -6300    -6301    -6285    -6276    -6266    -6264 
   -6269    -6264    -6254    -6257    -6255    -6250    -6262    -6273 
   -6273    -6277    -6278    -6278    -6299    -6323    -6339    -6373 
   -6417    -6444    -6462    -6488    -6511    -6528    -6542    -6538 
   -6519    -6494    -6470    -6453    -6420    -6385    -6369    -6365 
   -6370    -6385    -6404    -6416    -6405    -6389    -6382    -6354 
   -6313    -6278    -6230    -6177    -6158    -6160    -6165    -6184 
   -6199    -6192    -6184    -6165    -6130    -6099    -6070    -6035 
   -5996    -5954    -5933    -5942    -5956    -5948    -5929    -5904 
   -5867    -5810    -5742    -5670    -5601    -5530    -5463    -5421 
   -5405    -5401    -5402    -5410    -5427    -5447    -5455    -5462 
   -5485    -5517    -5545    -5579    -5617    -5648    -5668    -5680 
   -5698    -5715    -5724    -5732    -5736    -5727    -5713    -5706 
   -5715    -5729    -5746    -5775    -5807    -5829    -5850    -5883 
   -5923    -5977    -6044    -6102    -6143    -6193    -6246    -6289 
   -6332    -6374    -6405    -6448    -6517    -6586    -6650    -6739 
   -6851    -6939    -6993    -7045    -7103    -7160    -7233    -7319 
   -7387    -7435    -7481    -7510    -7537    -7581    -7624    -7643 
   -7647    -7627    -7581    -7537    -7506    -7489    -7480    -7465 
   -7446    -7427    -7404    -7387    -7361    -7319    -7276    -7226 
   -7163    -7115    -7088    -7060    -7033    -7010    -6994    -6971 
   -6949    -6930    -6899    -6867    -6840    -6787    -6732    -6683 
   -6604    -6523    -6469    -6413    -6365    -6353    -6355    -6351 
   -6365    -6409    -6458    -6490    -6521    -6550    -6559    -6564 
   -6564    -6546    -6527    -6527    -6519    -6500    -6490    -6488 
   -6480    -6467    -6469    -6480    -6482    -6475    -6460    -6432 
   -6399    -6367    -6319    -6254    -6196    -6133    -6044    -5956 
   -5895    -5856    -5823    -5815    -5829    -5830    -5825    -5830 
   -5818    -5780    -5742    -5694    -5623    -5552    -5495    -5439 
   -5382    -5329    -5263    -5182    -5105    -5039    -4985    -4945 
   -4912    -4891    -4878    -4878    -4885    -4881    -4864    -4847 
   -4830    -4801    -4773    -4754    -4725    -4680    -4635    -4591 
   -4540    -4492    -4452    -4419    -4396    -4374    -4342    -4299 
   -4251    -4210    -4186    -4175    -4168    -4152    -4125    -4105 
   -4102    -4117    -4147    -4192    -4245    -4299    -4352    -4405 
   -4486    -4600    -4725    -4849    -4977    -5096    -5194    -5266 
   -5319    -5363    -5400    -5412    -5397    -5367    -5336    -5302 
   -5271    -5260    -5273    -5285    -5296    -5321    -5360    -5400 
   -5432    -5451    -5454    -5443    -5412    -5360    -5305    -5254 
   -5194    -5127    -5074    -5046    -5031    -5026    -5055    -5123 
   -5186    -5259    -5370    -5490    -5590    -5683    -5757    -5791 
   -5795    -5788    -5764    -5721    -5675    -5643    -5630    -5629 
   -5641    -5699    -5786    -5872    -5962    -6061    -6147    -6226 
   -6309    -6386    -6448    -6511    -6578    -6659    -6763    -6870 
   -6964    -7056    -7157    -7250    -7326    -7396    -7460    -7506 
   -7527    -7519    -7485    -7435    -7366    -7290    -7214    -7130 
   -7044    -6968    -6903    -6856    -6839    -6835    -6841    -6851 
   -6862    -6864    -6845    -6818    -6777    -6702    -6605    -6492 
   -6363    -6250    -6148    -6039    -5925    -5821    -5751    -5718 
   -5713    -5740    -5798    -5857    -5914    -5988    -6061    -6115 
   -6162    -6196    -6211    -6211    -6205    -6207    -6216    -6228 
   -6241    -6243    -6227    -6203    -6184    -6170    -6168    -6174 
   -6173    -6169    -6180    -6189    -6200    -6235    -6284    -6303 
   -6277    -6211    -6110    -5971    -5814    -5659    -5497    -5337 
   -5205    -5088    -4978    -4903    -4847    -4806    -4787    -4776 
   -4760    -4742    -4737    -4748    -4765    -4784    -4822    -4854 
   -4861    -4873    -4895    -4907    -4918    -4928    -4918    -4918 
   -4945    -4988    -5035    -5078    -5123    -5169    -5208    -5246 
   -5286    -5305    -5304    -5302    -5306    -5300    -5278    -5266 
   -5260    -5233    -5201    -5174    -5135    -5104    -5080    -5046 
   -5013    -4985    -4955    -4931    -4903    -4884    -4877    -4880 
   -4899    -4926    -4953    -4988    -5035    -5086    -5135    -5186 
   -5244    -5286    -5302    -5317    -5344    -5383    -5448    -5533 
   -5616    -5702    -5791    -5879    -5976    -6081    -6183    -6276 
   -6349    -6394    -6408    -6393    -6361    -6311    -6247    -6181 
   -6114    -6073    -6077    -6110    -6168    -6254    -6354    -6443 
   -6501    -6536    -6559    -6552    -6512    -6455    -6399    -6349 
   -6311    -6280    -6254    -6237    -6212    -6162    -6110    -6072 
   -6027    -5979    -5949    -5952    -5967    -5976    -5985    -5999 
   -6006    -5994    -5973    -5968    -5968    -5972    -5989    -6027 
   -6088    -6168    -6250    -6331    -6420    -6513    -6602    -6690 
   -6771    -6835    -6880    -6924    -6971    -7018    -7053    -7086 
   -7137    -7182    -7213    -7257    -7312    -7372    -7446    -7518 
   -7561    -7578    -7581    -7551    -7460    -7325    -7177    -7023 
   -6885    -6787    -6728    -6701    -6714    -6764    -6829    -6898 
   -6974    -7064    -7157    -7238    -7319    -7414    -7510    -7589 
   -7631    -7635    -7607    -7546    -7456    -7344    -7236    -7148 
   -7079    -7040    -7045    -7083    -7123    -7173    -7226    -7257 
   -7275    -7291    -7295    -7285    -7275    -7267    -7263    -7264 
   -7267    -7256    -7219    -7165    -7098    -7023    -6955    -6883 
   -6808    -6737    -6683    -6644    -6612    -6577    -6538    -6505 
   -6486    -6471    -6462    -6492    -6559    -6629    -6706    -6802 
   -6894    -6963    -7014    -7042    -7041    -7025    -7017    -7010 
   -7007    -7023    -7049    -7067    -7076    -7072    -7044    -6988 
   -6913    -6818    -6723    -6644    -6566    -6480    -6389    -6299 
   -6203    -6088    -5968    -5871    -5788    -5711    -5643    -5582 
   -5539    -5503    -5462    -5439    -5421    -5377    -5333    -5301 
   -5260    -5225    -5201    -5171    -5142    -5115    -5100    -5092 
   -5086    -5090    -5080    -5038    -4994    -4965    -4931    -4892 
   -4854    -4818    -4785    -4762    -4756    -4758    -4753    -4745 
   -4748    -4761    -4781    -4811    -4846    -4885    -4912    -4914 
   -4907    -4901    -4873    -4814    -4739    -4650    -4552    -4445 
   -4337    -4256    -4205    -4163    -4139    -4132    -4137    -4159 
   -4178    -4176    -4175    -4171    -4147    -4120    -4102    -4081 
   -4055    -4032    -4014    -3996    -3979    -3982    -4003    -4031 
   -4077    -4143    -4205    -4263    -4320    -4369    -4399    -4398 
   -4369    -4324    -4280    -4270    -4284    -4317    -4395    -4517 
   -4642    -4761    -4873    -4974    -5080    -5174    -5231    -5268 
   -5309    -5348    -5385    -5441    -5530    -5630    -5737    -5845 
   -5946    -6038    -6119    -6173    -6197    -6189    -6151    -6104 
   -6069    -6038    -6000    -5975    -5960    -5931    -5891    -5853 
   -5822    -5806    -5795    -5767    -5733    -5715    -5710    -5717 
   -5740    -5773    -5798    -5810    -5838    -5876    -5917    -5975 
   -6049    -6122    -6169    -6189    -6185    -6142    -6072    -5988 
   -5879    -5752    -5643    -5551    -5458    -5379    -5325    -5283 
   -5262    -5278    -5323    -5375    -5413    -5443    -5478    -5509 
   -5529    -5539    -5525    -5489    -5422    -5323    -5209    -5090 
   -4968    -4858    -4762    -4685    -4642    -4622    -4631    -4680 
   -4738    -4803    -4870    -4915    -4934    -4942    -4947    -4956 
   -4970    -4982    -4976    -4959    -4959    -4959    -4946    -4942 
   -4954    -4956    -4946    -4939    -4927    -4905    -4874    -4826 
   -4761    -4693    -4630    -4580    -4548    -4531    -4534    -4564 
   -4606    -4641    -4662    -4671    -4656    -4606    -4540    -4475 
   -4403    -4333    -4274    -4217    -4183    -4191    -4236    -4321 
   -4438    -4554    -4664    -4780    -4882    -4969    -5050    -5115 
   -5158    -5194    -5206    -5198    -5197    -5201    -5204    -5225 
   -5247    -5259    -5285    -5314    -5314    -5296    -5265    -5216 
   -5181    -5159    -5124    -5101    -5123    -5142    -5134    -5139 
   -5152    -5140    -5120    -5111    -5089    -5047    -4999    -4932 
   -4843    -4739    -4646    -4585    -4545    -4502    -4464    -4437 
   -4409    -4391    -4398    -4419    -4431    -4425    -4399    -4351 
   -4284    -4215    -4149    -4081    -4023    -4000    -4021    -4074 
   -4147    -4232    -4313    -4349    -4348    -4340    -4326    -4298 
   -4263    -4247    -4253    -4263    -4276    -4278    -4258    -4228 
   -4187    -4139    -4087    -4025    -3963    -3902    -3840    -3796 
   -3755    -3707    -3665    -3627    -3591    -3570    -3574    -3605 
   -3653    -3715    -3800    -3886    -3959    -4043    -4124    -4176 
   -4205    -4225    -4238    -4251    -4256    -4256    -4275    -4314 
   -4365    -4431    -4510    -4590    -4673    -4760    -4849    -4945 
   -5027    -5086    -5130    -5154    -5142    -5093    -5032    -4978 
   -4918    -4857    -4818    -4807    -4820    -4860    -4918    -5000 
   -5096    -5193    -5290    -5381    -5445    -5494    -5547    -5602 
   -5647    -5672    -5689    -5703    -5699    -5682    -5659    -5628 
   -5590    -5545    -5498    -5464    -5433    -5400    -5377    -5375 
   -5374    -5367    -5379    -5405    -5427    -5467    -5535    -5599 
   -5656    -5707    -5738    -5760    -5776    -5768    -5756    -5748 
   -5724    -5691    -5655    -5626    -5623    -5622    -5609    -5602 
   -5609    -5628    -5652    -5670    -5692    -5722    -5726    -5705 
   -5692    -5698    -5709    -5724    -5745    -5764    -5776    -5783 
   -5779    -5757    -5719    -5665    -5602    -5536    -5474    -5424 
   -5377    -5327    -5285    -5263    -5258    -5277    -5310    -5337 
   -5367    -5413    -5455    -5481    -5516    -5552    -5567    -5572 
   -5571    -5545    -5514    -5479    -5422    -5364    -5323    -5285 
   -5240    -5194    -5157    -5112    -5090    -5120    -5152    -5184 
   -5239    -5293    -5329    -5355    -5370    -5406    -5454    -5486 
   -5526    -5570    -5576    -5570    -5590    -5622    -5645    -5688 
   -5738    -5745    -5736    -5752    -5759    -5745    -5741    -5732 
   -5701    -5679    -5671    -5661    -5665    -5683    -5689    -5686 
   -5686    -5703    -5732    -5757    -5773    -5769    -5748    -5715 
   -5671    -5618    -5571    -5537    -5517    -5495    -5494    -5540 
   -5590    -5633    -5701    -5784    -5854    -5915    -5962    -5989 
   -5991    -5965    -5927    -5868    -5795    -5742    -5694    -5638 
   -5594    -5570    -5572    -5593    -5622    -5670    -5711    -5729 
   -5737    -5755    -5768    -5757    -5741    -5730    -5702    -5671 
   -5670    -5686    -5711    -5759    -5792    -5807    -5818    -5815 
   -5790    -5760    -5741    -5705    -5614    -5514    -5435    -5363 
   -5310    -5273    -5250    -5240    -5221    -5200    -5197    -5190 
   -5173    -5171    -5175    -5161    -5135    -5112    -5097    -5086 
   -5078    -5084    -5084    -5070    -5080    -5105    -5127    -5152 
   -5178    -5201    -5213    -5208    -5216    -5240    -5262    -5285 
   -5309    -5337    -5371    -5401    -5448    -5491    -5486    -5475 
   -5493    -5512    -5514    -5516    -5544    -5575    -5576    -5580 
   -5610    -5638    -5664    -5713    -5787    -5861    -5930    -5992 
   -6053    -6124    -6192    -6249    -6304    -6331    -6297    -6242 
   -6180    -6091    -5994    -5908    -5841    -5798    -5775    -5793 
   -5836    -5872    -5938    -6029    -6096    -6142    -6193    -6251 
   -6292    -6320    -6367    -6420    -6447    -6473    -6521    -6573 
   -6610    -6642    -6669    -6681    -6663    -6628    -6609    -6604 
   -6596    -6608    -6629    -6623    -6600    -6602    -6646    -6686 
   -6728    -6804    -6863    -6866    -6864    -6895    -6917    -6902 
   -6868    -6825    -6777    -6721    -6658    -6609    -6586    -6573 
   -6543    -6517    -6534    -6582    -6637    -6682    -6705    -6731 
   -6741    -6731    -6739    -6733    -6656    -6583    -6551    -6486 
   -6407    -6353    -6312    -6288    -6264    -6218    -6193    -6201 
   -6218    -6245    -6292    -6345    -6377    -6378    -6355    -6303 
   -6249    -6218    -6157    -6069    -5989    -5896    -5811    -5776 
   -5773    -5787    -5807    -5831    -5867    -5888    -5896    -5927 
   -5950    -5934    -5918    -5910    -5895    -5881    -5864    -5850 
   -5849    -5830    -5809    -5807    -5803    -5793    -5813    -5852 
   -5880    -5904    -5937    -5964    -5981    -5987    -5989    -6002 
   -6015    -6052    -6137    -6243    -6355    -6475    -6593    -6689 
   -6754    -6797    -6806    -6772    -6714    -6652    -6606    -6582 
   -6571    -6600    -6671    -6737    -6791    -6845    -6880    -6913 
   -6940    -6932    -6916    -6928    -6941    -6948    -6957    -6964 
   -6971    -6976    -6978    -6978    -6980    -7007    -7051    -7096 
   -7146    -7192    -7226    -7244    -7219    -7167    -7109    -7044 
   -6987    -6952    -6924    -6902    -6893    -6868    -6829    -6806 
   -6782    -6732    -6667    -6616    -6589    -6583    -6597    -6642 
   -6713    -6785    -6843    -6905    -6975    -7011    -7011    -7017 
   -7047    -7074    -7080    -7079    -7079    -7069    -7052    -7049 
   -7047    -7020    -6988    -6960    -6919    -6893    -6889    -6895 
   -6917    -6928    -6909    -6871    -6820    -6774    -6741    -6711 
   -6681    -6658    -6652    -6660    -6663    -6667    -6697    -6732 
   -6743    -6748    -6766    -6785    -6818    -6871    -6909    -6941 
   -6997    -7048    -7071    -7086    -7121    -7144    -7111    -7048 
   -6994    -6936    -6878    -6835    -6820    -6832    -6851    -6878 
   -6945    -7044    -7121    -7165    -7194    -7206    -7219    -7248 
   -7240    -7188    -7114    -6997    -6874    -6791    -6710    -6625 
   -6564    -6539    -6546    -6547    -6556    -6613    -6681    -6698 
   -6697    -6723    -6770    -6791    -6772    -6736    -6701    -6670 
   -6650    -6659    -6708    -6750    -6782    -6847    -6917    -6957 
   -6985    -7028    -7069    -7086    -7079    -7067    -7048    -7022 
   -6999    -7001    -7007    -6983    -6967    -6975    -6976    -6997 
   -7034    -7072    -7134    -7183    -7182    -7190    -7218    -7203 
   -7182    -7191    -7172    -7121    -7121    -7145    -7142    -7148 
   -7195    -7248    -7252    -7238    -7230    -7184    -7118    -7078 
