Origin Time       2016/04/16 01:25:00
Lat.              32.753
Long.             130.762
Depth. (km)       12
Mag.              7.3
Station Code      KGW004
Station Lat.      34.3473
Station Long.     134.0374
Station Height(m) 2
Record Time       2016/04/16 01:26:09
Sampling Freq(Hz) 100Hz
Duration Time(s)  144
Dir.              E-W
Scale Factor      7845(gal)/8223790
Max. Acc. (gal)   6.518
Last Correction   2016/04/16 01:26:09
Memo.             
[...]
   -1878    -1790    -1725    -1676    -1629    -1578    -1513    -1424 
   -1332    -1247    -1179    -1135    -1100    -1069    -1053    -1043 
   -1013     -963     -912     -880     -892     -951    -1028    -1111 
   -1208    -1329    -1463    -1605    -1776    -1979    -2205    -2461 
   -2716    -2952    -3186    -3397    -3601    -3813    -4012    -4187 
   -4333    -4429    -4480    -4530    -4611    -4706    -4789    -4868 
   -4941    -5024    -5144    -5283    -5400    -5475    -5528    -5555 
   -5537    -5498    -5459    -5409    -5363    -5332    -5312    -5286 
   -5229    -5142    -5034    -4897    -4708    -4472    -4240    -3981 
   -3662    -3343    -3028    -2700    -2394    -2107    -1833    -1593 
   -1391    -1228    -1096     -990     -920     -869     -818     -784 
    -788     -824     -882     -970    -1086    -1221    -1368    -1516 
   -1637    -1719    -1795    -1890    -2000    -2142    -2311    -2485 
   -2659    -2844    -3022    -3140    -3199    -3231    -3240    -3229 
   -3207    -3213    -3257    -3281    -3296    -3306    -3271    -3213 
   -3148    -3095    -3090    -3127    -3225    -3379    -3542    -3742 
   -4001    -4268    -4546    -4843    -5134    -5421    -5727    -6049 
   -6355    -6632    -6880    -7087    -7253    -7375    -7419    -7381 
   -7279    -7109    -6875    -6571    -6201    -5805    -5383    -4938 
   -4495    -4060    -3642    -3264    -2941    -2679    -2470    -2322 
   -2243    -2214    -2215    -2272    -2367    -2493    -2651    -2836 
   -3029    -3207    -3364    -3480    -3528    -3519    -3476    -3424 
   -3364    -3275    -3164    -3033    -2863    -2655    -2412    -2135 
   -1852    -1599    -1378    -1185    -1031     -915     -850     -853 
    -926    -1070    -1282    -1551    -1833    -2098    -2373    -2675 
   -2984    -3272    -3508    -3701    -3854    -3956    -4041    -4153 
   -4293    -4423    -4529    -4627    -4712    -4774    -4837    -4908 
   -4978    -5032    -5053    -5034    -4974    -4866    -4698    -4464 
   -4172    -3836    -3485    -3148    -2837    -2560    -2338    -2169 
   -2037    -1944    -1911    -1961    -2081    -2263    -2498    -2752 
   -3029    -3345    -3682    -4031    -4375    -4695    -4981    -5204 
   -5351    -5460    -5529    -5560    -5545    -5439    -5232    -4947 
   -4614    -4238    -3834    -3419    -2967    -2461    -1958    -1491 
   -1074     -723     -457     -279     -166     -117     -160     -298 
    -530     -861    -1269    -1711    -2176    -2656    -3138    -3605 
   -4062    -4513    -4954    -5355    -5710    -6025    -6277    -6457 
   -6581    -6666    -6704    -6702    -6687    -6644    -6566    -6463 
   -6323    -6138    -5906    -5613    -5266    -4889    -4494    -4082 
   -3666    -3265    -2847    -2408    -1975    -1535    -1081     -665 
    -324      -52      163      314      372      332      203       13 
    -217     -487     -770    -1047    -1345    -1691    -2061    -2446 
   -2825    -3173    -3495    -3807    -4110    -4422    -4750    -5082 
   -5401    -5682    -5900    -6044    -6120    -6145    -6115    -6046 
   -5952    -5833    -5694    -5529    -5331    -5096    -4812    -4490 
   -4133    -3763    -3419    -3095    -2792    -2535    -2324    -2182 
   -2107    -2093    -2134    -2212    -2347    -2552    -2824    -3164 
   -3562    -4023    -4518    -4994    -5447    -5876    -6264    -6596 
   -6872    -7069    -7148    -7110    -6961    -6683    -6318    -5910 
   -5476    -5044    -4625    -4202    -3778    -3366    -2965    -2582 
   -2249    -1977    -1763    -1615    -1532    -1485    -1468    -1509 
   -1599    -1710    -1829    -1941    -2004    -2007    -1971    -1919 
   -1857    -1764    -1630    -1489    -1333    -1148     -959     -783 
    -611     -434     -263     -120       29      156      191      171 
     131       47      -76     -237     -444     -697    -1008    -1351 
   -1714    -2111    -2552    -3026    -3499    -3971    -4433    -4850 
   -5235    -5570    -5819    -6021    -6165    -6214    -6177    -6035 
   -5792    -5475    -5093    -4695    -4317    -3942    -3584    -3317 
   -3160    -3071    -3084    -3235    -3492    -3824    -4251    -4776 
   -5371    -6023    -6697    -7334    -7912    -8418    -8842    -9177 
   -9405    -9521    -9545    -9502    -9370    -9135    -8842    -8517 
   -8108    -7589    -7023    -6415    -5738    -5039    -4341    -3640 
   -2984    -2388    -1845    -1377     -977     -627     -341     -166 
     -94      -85     -156     -303     -491     -746    -1075    -1452 
   -1857    -2265    -2660    -3034    -3346    -3589    -3771    -3883 
   -3929    -3912    -3835    -3697    -3474    -3171    -2809    -2382 
   -1921    -1418     -857     -280      268      777     1228     1618 
    1945     2199     2363     2438     2428     2309     2092     1813 
    1417      888      311     -297     -982    -1703    -2408    -3106 
   -3800    -4471    -5066    -5540    -5911    -6193    -6370    -6462 
   -6496    -6505    -6493    -6440    -6358    -6261    -6160    -6096 
   -6061    -6010    -5949    -5898    -5852    -5815    -5813    -5859 
   -5942    -6049    -6172    -6303    -6432    -6546    -6643    -6706 
   -6704    -6650    -6556    -6407    -6224    -6060    -5923    -5803 
   -5691    -5585    -5490    -5387    -5273    -5148    -4996    -4795 
   -4575    -4360    -4147    -3956    -3811    -3682    -3554    -3424 
   -3262    -3073    -2856    -2597    -2316    -2034    -1759    -1521 
   -1344    -1235    -1217    -1296    -1455    -1665    -1881    -2068 
   -2250    -2477    -2720    -2947    -3198    -3468    -3700    -3896 
   -4035    -4082    -4077    -4031    -3902    -3704    -3470    -3215 
   -2943    -2640    -2309    -1958    -1595    -1240     -911     -623 
    -415     -294     -241     -238     -253     -284     -352     -469 
    -638     -881    -1190    -1505    -1811    -2110    -2380    -2627 
   -2860    -3082    -3298    -3488    -3639    -3763    -3863    -3905 
   -3856    -3731    -3547    -3331    -3126    -2938    -2814    -2792 
   -2840    -2951    -3126    -3326    -3528    -3724    -3913    -4085 
   -4237    -4411    -4606    -4800    -4994    -5164    -5265    -5260 
   -5161    -5013    -4831    -4619    -4401    -4190    -3991    -3781 
   -3535    -3283    -3055    -2847    -2683    -2605    -2598    -2647 
   -2751    -2896    -3063    -3231    -3396    -3576    -3744    -3870 
   -3990    -4113    -4212    -4311    -4445    -4612    -4803    -5012 
   -5242    -5468    -5691    -5915    -6134    -6359    -6590    -6806 
   -7009    -7176    -7291    -7361    -7356    -7246    -7053    -6781 
   -6438    -6077    -5727    -5409    -5111    -4806    -4484    -4128 
   -3732    -3329    -2938    -2578    -2282    -2072    -1929    -1830 
   -1784    -1803    -1878    -2006    -2193    -2436    -2695    -2971 
   -3292    -3643    -4008    -4387    -4783    -5186    -5570    -5935 
   -6281    -6562    -6768    -6918    -7009    -7020    -6960    -6855 
   -6700    -6462    -6148    -5809    -5472    -5134    -4807    -4518 
   -4243    -3951    -3658    -3393    -3145    -2911    -2731    -2598 
   -2490    -2416    -2386    -2408    -2478    -2584    -2716    -2844 
   -2957    -3042    -3073    -3049    -2971    -2844    -2690    -2515 
   -2328    -2149    -1975    -1815    -1695    -1620    -1605    -1669 
   -1814    -2041    -2371    -2818    -3353    -3954    -4612    -5296 
   -5968    -6615    -7218    -7753    -8189    -8513    -8731    -8880 
   -8980    -9007    -8962    -8866    -8694    -8428    -8077    -7635 
   -7111    -6546    -5949    -5316    -4696    -4118    -3570    -3052 
   -2563    -2088    -1651    -1275     -969     -728     -544     -395 
    -265     -136      -21       47       51      -13     -162     -388 
    -635     -888    -1178    -1503    -1806    -2066    -2304    -2517 
   -2713    -2903    -3092    -3277    -3429    -3522    -3565    -3546 
   -3447    -3303    -3159    -3026    -2913    -2836    -2791    -2770 
   -2754    -2724    -2690    -2658    -2616    -2567    -2529    -2508 
   -2521    -2602    -2752    -2945    -3179    -3437    -3681    -3921 
   -4197    -4496    -4789    -5089    -5395    -5687    -5973    -6268 
   -6563    -6862    -7157    -7429    -7665    -7874    -8070    -8251 
   -8428    -8600    -8758    -8884    -8965    -9015    -9007    -8918 
   -8792    -8641    -8421    -8141    -7819    -7449    -7045    -6620 
   -6138    -5616    -5107    -4614    -4140    -3704    -3310    -2972 
   -2693    -2454    -2236    -2026    -1831    -1658    -1463    -1254 
   -1065     -912     -815     -767     -745     -718     -650     -544 
    -425     -301     -163      -32      124      356      637      907 
    1147     1375     1576     1714     1833     1981     2104     2134 
    2083     1962     1741     1444     1136      815      480      164 
    -133     -422     -668     -846    -1019    -1255    -1498    -1722 
   -2026    -2388    -2709    -3006    -3289    -3492    -3600    -3669 
   -3726    -3748    -3750    -3761    -3762    -3753    -3748    -3755 
   -3751    -3732    -3727    -3738    -3754    -3821    -3982    -4215 
   -4502    -4833    -5184    -5539    -5906    -6289    -6667    -7032 
   -7389    -7734    -8078    -8440    -8785    -9081    -9302    -9447 
   -9502    -9452    -9325    -9153    -8945    -8730    -8529    -8352 
   -8193    -8005    -7793    -7603    -7437    -7273    -7145    -7064 
   -7014    -6998    -7001    -7013    -7020    -7005    -6972    -6926 
   -6863    -6797    -6743    -6686    -6606    -6512    -6401    -6274 
   -6138    -5984    -5806    -5605    -5366    -5084    -4793    -4504 
   -4207    -3919    -3640    -3360    -3090    -2852    -2643    -2450 
   -2261    -2081    -1937    -1802    -1665    -1551    -1428    -1313 
   -1243    -1175    -1078     -953     -777     -529     -229       47 
     263      427      526      562      556      500      405      271 
     102      -64     -217     -360     -464     -499     -498     -472 
    -388     -255     -103       59      233      403      550      683 
     827      957     1016      977      838      621      332      -35 
    -449     -870    -1296    -1746    -2212    -2669    -3149    -3659 
   -4152    -4599    -5026    -5448    -5844    -6201    -6547    -6879 
   -7160    -7387    -7576    -7735    -7858    -7939    -7978    -7997 
   -8027    -8071    -8133    -8215    -8295    -8363    -8417    -8451 
   -8474    -8517    -8546    -8543    -8519    -8454    -8341    -8217 
   -8085    -7909    -7690    -7423    -7099    -6739    -6356    -5958 
   -5574    -5206    -4831    -4423    -3996    -3573    -3167    -2775 
   -2424    -2134    -1890    -1691    -1540    -1412    -1293    -1188 
   -1100    -1024     -943     -835     -670     -421     -102      241 
     569      872     1161     1418     1653     1884     2089     2266 
    2409     2498     2533     2505     2409     2253     2026     1734 
    1404     1038      629      187     -230     -625    -1081    -1586 
   -2066    -2538    -2992    -3400    -3766    -4094    -4395    -4676 
   -4950    -5225    -5478    -5678    -5819    -5915    -5972    -6023 
   -6100    -6160    -6153    -6112    -6075    -6023    -5950    -5911 
   -5929    -5942    -5968    -6062    -6173    -6284    -6421    -6563 
   -6714    -6895    -7061    -7177    -7256    -7298    -7283    -7206 
   -7052    -6821    -6551    -6280    -6026    -5780    -5510    -5204 
   -4868    -4506    -4166    -3859    -3543    -3229    -2926    -2616 
   -2336    -2102    -1891    -1725    -1593    -1463    -1337    -1196 
   -1035     -855     -649     -459     -303     -170      -81      -27 
      29      109      225      361      502      656      800      907 
     993     1069     1113     1151     1193     1219     1237     1237 
    1198     1125      981      781      565      284      -59     -411 
    -796    -1202    -1595    -2010    -2477    -2970    -3456    -3940 
   -4405    -4826    -5205    -5543    -5840    -6114    -6343    -6505 
   -6615    -6686    -6694    -6583    -6347    -6029    -5632    -5143 
   -4610    -4097    -3639    -3261    -2967    -2755    -2616    -2542 
   -2519    -2538    -2594    -2697    -2856    -3067    -3314    -3596 
   -3892    -4170    -4417    -4626    -4784    -4872    -4887    -4854 
   -4807    -4741    -4658    -4577    -4498    -4409    -4310    -4228 
   -4164    -4113    -4069    -4001    -3904    -3792    -3663    -3554 
   -3466    -3360    -3245    -3141    -3034    -2911    -2770    -2635 
   -2504    -2377    -2288    -2224    -2161    -2096    -2041    -2001 
   -1952    -1880    -1813    -1729    -1615    -1460    -1262    -1039 
    -799     -553     -355     -195      -55       54      140      199 
     184       75     -124     -413     -767    -1146    -1526    -1895 
   -2231    -2508    -2718    -2875    -2978    -3029    -3037    -3014 
   -2965    -2896    -2806    -2690    -2546    -2393    -2239    -2079 
   -1898    -1707    -1537    -1402    -1329    -1325    -1371    -1467 
   -1594    -1729    -1873    -1998    -2095    -2207    -2319    -2417 
   -2520    -2620    -2683    -2712    -2714    -2685    -2646    -2636 
   -2647    -2652    -2694    -2791    -2920    -3078    -3279    -3516 
   -3782    -4072    -4406    -4774    -5152    -5536    -5925    -6311 
   -6700    -7092    -7487    -7894    -8303    -8706    -9117    -9510 
   -9837   -10096   -10270   -10355   -10369   -10312   -10176    -9953 
   -9668    -9339    -8968    -8590    -8214    -7821    -7426    -7042 
   -6673    -6340    -6038    -5752    -5486    -5233    -4974    -4726 
   -4521    -4360    -4236    -4164    -4139    -4132    -4137    -4159 
   -4175    -4162    -4120    -4050    -3943    -3793    -3609    -3395 
   -3137    -2835    -2479    -2070    -1620    -1144     -666     -193 
     270      708     1119     1491     1831     2142     2385     2562 
    2704     2785     2790     2775     2758     2708     2631     2544 
    2427     2265     2072     1852     1606     1347     1088      837 
     627      446      263      106      -14     -166     -332     -463 
    -591     -767     -994    -1252    -1561    -1927    -2319    -2754 
   -3238    -3734    -4228    -4715    -5181    -5632    -6083    -6523 
   -6934    -7314    -7646    -7913    -8131    -8307    -8441    -8553 
   -8653    -8741    -8811    -8847    -8834    -8750    -8612    -8476 
   -8324    -8144    -7969    -7785    -7584    -7376    -7150    -6924 
   -6690    -6439    -6186    -5921    -5641    -5368    -5104    -4864 
   -4639    -4395    -4140    -3897    -3657    -3442    -3267    -3123 
   -3013    -2915    -2840    -2783    -2725    -2681    -2641    -2593 
   -2546    -2502    -2479    -2467    -2430    -2386    -2343    -2286 
   -2214    -2130    -2026    -1875    -1696    -1497    -1259     -989 
    -684     -346        8      373      718     1007     1246     1431 
    1549     1599     1564     1455     1289     1093      896      683 
     436      168     -112     -417     -731    -1016    -1262    -1493 
   -1711    -1912    -2116    -2326    -2493    -2624    -2778    -2934 
   -3057    -3167    -3277    -3395    -3522    -3640    -3740    -3835 
   -3936    -4044    -4170    -4303    -4417    -4514    -4604    -4706 
   -4819    -4939    -5090    -5271    -5441    -5590    -5725    -5829 
   -5911    -5972    -5995    -5999    -6012    -6026    -6056    -6114 
   -6153    -6158    -6150    -6112    -6058    -6004    -5942    -5876 
   -5813    -5760    -5714    -5656    -5590    -5505    -5404    -5309 
   -5233    -5169    -5109    -5058    -5023    -5009    -5017    -5044 
   -5082    -5108    -5116    -5121    -5135    -5140    -5121    -5084 
   -5027    -4932    -4812    -4673    -4506    -4326    -4136    -3932 
   -3736    -3543    -3352    -3179    -3037    -2943    -2894    -2870 
   -2853    -2821    -2782    -2731    -2660    -2592    -2515    -2396 
   -2232    -2034    -1821    -1593    -1356    -1125     -903     -683 
    -476     -306     -190     -135     -120     -137     -193     -294 
    -454     -670     -928    -1243    -1594    -1962    -2373    -2811 
   -3244    -3667    -4072    -4428    -4719    -4962    -5164    -5325 
   -5447    -5525    -5567    -5590    -5580    -5526    -5451    -5364 
   -5271    -5189    -5140    -5115    -5104    -5107    -5108    -5116 
   -5136    -5164    -5209    -5247    -5246    -5227    -5206    -5182 
   -5159    -5143    -5128    -5103    -5067    -5022    -4959    -4880 
   -4803    -4752    -4730    -4745    -4780    -4797    -4791    -4770 
   -4742    -4708    -4675    -4661    -4684    -4738    -4816    -4903 
   -4977    -5051    -5127    -5190    -5248    -5298    -5329    -5341 
   -5348    -5339    -5312    -5287    -5267    -5244    -5201    -5105 
   -4985    -4857    -4704    -4550    -4415    -4270    -4101    -3925 
   -3759    -3591    -3407    -3221    -3017    -2792    -2560    -2327 
   -2104    -1878    -1636    -1383    -1128     -859     -579     -302 
     -47      168      359      525      626      685      754      810 
     807      760      691      592      459      295      116      -79 
    -301     -557     -835    -1123    -1414    -1707    -2007    -2297 
   -2559    -2808    -3060    -3307    -3538    -3751    -3950    -4133 
   -4282    -4398    -4510    -4600    -4653    -4691    -4730    -4758 
   -4766    -4776    -4797    -4812    -4831    -4860    -4882    -4908 
   -4943    -4999    -5097    -5219    -5352    -5522    -5713    -5902 
   -6095    -6277    -6439    -6588    -6724    -6858    -7007    -7156 
   -7283    -7400    -7500    -7545    -7539    -7495    -7387    -7227 
   -7042    -6855    -6691    -6539    -6394    -6249    -6083    -5922 
   -5768    -5602    -5448    -5301    -5148    -4999    -4845    -4688 
   -4545    -4391    -4225    -4074    -3935    -3798    -3661    -3518 
   -3358    -3183    -3006    -2829    -2655    -2481    -2303    -2139 
   -1987    -1829    -1679    -1541    -1395    -1247    -1104     -947 
    -781     -633     -483     -325     -174      -21      120      222 
     302      367      400      405      370      292      175       31 
    -137     -340     -577     -838    -1129    -1445    -1772    -2107 
   -2435    -2729    -2994    -3227    -3423    -3599    -3773    -3947 
   -4105    -4253    -4407    -4577    -4761    -4953    -5148    -5362 
   -5576    -5800    -6052    -6301    -6551    -6810    -7063    -7307 
   -7543    -7769    -7981    -8155    -8268    -8314    -8289    -8194 
   -8051    -7897    -7750    -7586    -7408    -7238    -7074    -6897 
   -6705    -6507    -6290    -6056    -5806    -5537    -5275    -5027 
   -4776    -4519    -4270    -4014    -3761    -3527    -3307    -3075 
   -2833    -2596    -2376    -2177    -1998    -1844    -1717    -1599 
   -1499    -1431    -1374    -1318    -1273    -1242    -1208    -1171 
   -1151    -1136    -1112    -1105    -1121    -1148    -1185    -1223 
   -1263    -1325    -1401    -1487    -1579    -1664    -1744    -1821 
   -1903    -1993    -2065    -2115    -2172    -2241    -2311    -2388 
   -2475    -2578    -2693    -2805    -2921    -3049    -3168    -3279 
   -3412    -3563    -3711    -3861    -4017    -4171    -4309    -4431 
