Origin Time       2016/04/16 01:25:00
Lat.              32.753
Long.             130.762
Depth. (km)       12
Mag.              7.3
Station Code      KGW008
Station Lat.      34.1644
Station Long.     133.9243
Station Height(m) 2
Record Time       2016/04/16 01:26:41
Sampling Freq(Hz) 100Hz
Duration Time(s)  83
Dir.              E-W
Scale Factor      7845(gal)/8223790
Max. Acc. (gal)   2.206
Last Correction   2016/04/16 01:26:42
Memo.             
[...]
   -2656    -2658    -2639    -2604    -2560    -2520    -2477    -2432 
   -2400    -2392    -2411    -2444    -2479    -2515    -2550    -2589 
   -2614    -2621    -2629    -2652    -2685    -2721    -2764    -2801 
   -2832    -2871    -2922    -2986    -3052    -3109    -3165    -3237 
   -3330    -3443    -3561    -3647    -3700    -3719    -3705    -3669 
   -3624    -3578    -3544    -3528    -3511    -3485    -3440    -3376 
   -3294    -3203    -3130    -3082    -3056    -3055    -3071    -3092 
   -3111    -3126    -3141    -3172    -3218    -3269    -3325    -3379 
   -3426    -3464    -3489    -3497    -3508    -3530    -3551    -3561 
   -3563    -3546    -3503    -3442    -3372    -3316    -3289    -3280 
   -3283    -3295    -3306    -3311    -3310    -3312    -3321    -3326 
   -3345    -3383    -3437    -3492    -3535    -3551    -3553    -3544 
   -3534    -3537    -3547    -3551    -3549    -3530    -3489    -3435 
   -3381    -3335    -3302    -3279    -3250    -3217    -3194    -3187 
   -3184    -3180    -3180    -3183    -3191    -3199    -3196    -3188 
   -3186    -3180    -3168    -3156    -3153    -3159    -3173    -3203 
   -3238    -3271    -3308    -3349    -3379    -3399    -3416    -3430 
   -3450    -3473    -3495    -3503    -3489    -3450    -3402    -3364 
   -3345    -3330    -3323    -3325    -3314    -3289    -3261    -3223 
   -3186    -3163    -3160    -3163    -3161    -3163    -3159    -3149 
   -3153    -3173    -3204    -3246    -3284    -3316    -3336    -3336 
   -3321    -3287    -3241    -3211    -3203    -3203    -3218    -3245 
   -3265    -3291    -3327    -3360    -3387    -3399    -3384    -3342 
   -3283    -3213    -3140    -3075    -3041    -3033    -3045    -3088 
   -3141    -3186    -3227    -3257    -3276    -3303    -3348    -3402 
   -3453    -3499    -3530    -3543    -3542    -3530    -3505    -3474 
   -3439    -3392    -3341    -3300    -3272    -3242    -3218    -3210 
   -3211    -3217    -3227    -3248    -3283    -3331    -3384    -3433 
   -3473    -3497    -3507    -3507    -3489    -3459    -3426    -3388 
   -3353    -3317    -3276    -3234    -3204    -3186    -3186    -3213 
   -3265    -3325    -3379    -3419    -3443    -3457    -3459    -3451 
   -3438    -3429    -3433    -3447    -3466    -3485    -3495    -3492 
   -3495    -3516    -3547    -3589    -3631    -3653    -3653    -3631 
   -3584    -3527    -3476    -3437    -3410    -3380    -3348    -3310 
   -3272    -3241    -3218    -3199    -3192    -3196    -3207    -3227 
   -3250    -3271    -3296    -3308    -3298    -3275    -3249    -3225 
   -3203    -3180    -3159    -3133    -3115    -3109    -3107    -3106 
   -3103    -3090    -3071    -3046    -3014    -2990    -2979    -2979 
   -2986    -2998    -2997    -2972    -2921    -2853    -2774    -2688 
   -2617    -2569    -2546    -2556    -2601    -2648    -2685    -2708 
   -2717    -2712    -2698    -2704    -2737    -2775    -2809    -2839 
   -2860    -2866    -2855    -2829    -2798    -2778    -2792    -2847 
   -2922    -3011    -3102    -3184    -3257    -3323    -3388    -3443 
   -3477    -3496    -3511    -3516    -3516    -3518    -3510    -3485 
   -3454    -3419    -3387    -3373    -3372    -3369    -3362    -3355 
   -3354    -3357    -3360    -3365    -3376    -3395    -3418    -3445 
   -3478    -3507    -3522    -3518    -3492    -3461    -3430    -3391 
   -3342    -3296    -3261    -3250    -3260    -3276    -3291    -3292 
   -3288    -3284    -3273    -3253    -3231    -3208    -3177    -3140 
   -3109    -3094    -3092    -3099    -3119    -3141    -3146    -3126 
   -3094    -3071    -3071    -3099    -3137    -3183    -3246    -3316 
   -3376    -3420    -3446    -3458    -3476    -3488    -3491    -3496 
   -3499    -3489    -3468    -3437    -3402    -3365    -3342    -3338 
   -3335    -3331    -3325    -3312    -3307    -3312    -3295    -3250 
   -3194    -3133    -3090    -3080    -3079    -3067    -3042    -3007 
   -2970    -2920    -2844    -2767    -2701    -2644    -2597    -2559 
   -2535    -2525    -2531    -2555    -2592    -2636    -2688    -2747 
   -2808    -2866    -2915    -2951    -2970    -2990    -3009    -3001 
   -2964    -2917    -2866    -2818    -2775    -2740    -2729    -2743 
   -2774    -2806    -2828    -2853    -2882    -2913    -2956    -3009 
   -3060    -3106    -3134    -3146    -3146    -3132    -3113    -3100 
   -3082    -3052    -3010    -2955    -2902    -2859    -2817    -2785 
   -2755    -2731    -2725    -2737    -2762    -2792    -2832    -2876 
   -2926    -2984    -3044    -3090    -3126    -3154    -3171    -3186 
   -3200    -3213    -3225    -3225    -3200    -3163    -3127    -3107 
   -3102    -3113    -3141    -3171    -3191    -3210    -3223    -3230 
   -3226    -3213    -3207    -3211    -3223    -3235    -3242    -3238 
   -3226    -3203    -3168    -3133    -3107    -3099    -3107    -3117 
   -3122    -3117    -3095    -3061    -3014    -2956    -2905    -2857 
   -2814    -2791    -2787    -2782    -2764    -2740    -2721    -2702 
   -2687    -2677    -2668    -2663    -2675    -2705    -2737    -2763 
   -2795    -2847    -2903    -2956    -3003    -3036    -3063    -3105 
   -3159    -3221    -3281    -3319    -3331    -3316    -3280    -3241 
   -3194    -3134    -3082    -3041    -3001    -2961    -2929    -2898 
   -2884    -2895    -2911    -2926    -2941    -2959    -2974    -2980 
   -2982    -2974    -2967    -2965    -2955    -2937    -2925    -2909 
   -2891    -2875    -2859    -2848    -2833    -2816    -2805    -2799 
   -2797    -2794    -2792    -2797    -2810    -2830    -2856    -2887 
   -2925    -2960    -2975    -2983    -3006    -3046    -3090    -3127 
   -3149    -3164    -3172    -3173    -3180    -3188    -3190    -3194 
   -3204    -3208    -3211    -3215    -3208    -3186    -3161    -3148 
   -3150    -3168    -3184    -3194    -3199    -3196    -3191    -3186 
   -3177    -3169    -3157    -3145    -3144    -3157    -3179    -3203 
   -3222    -3227    -3234    -3241    -3245    -3254    -3277    -3311 
   -3339    -3352    -3365    -3379    -3376    -3360    -3330    -3291 
   -3262    -3242    -3221    -3196    -3161    -3111    -3045    -2976 
   -2922    -2876    -2841    -2820    -2797    -2764    -2737    -2716 
   -2705    -2713    -2731    -2748    -2766    -2791    -2828    -2868 
   -2913    -2961    -3003    -3037    -3067    -3092    -3118    -3140 
   -3153    -3161    -3153    -3132    -3111    -3090    -3076    -3071 
   -3075    -3095    -3133    -3172    -3198    -3213    -3218    -3213 
   -3202    -3191    -3183    -3165    -3146    -3137    -3132    -3138 
   -3159    -3175    -3184    -3199    -3218    -3234    -3246    -3257 
   -3264    -3269    -3273    -3268    -3258    -3253    -3252    -3250 
   -3250    -3253    -3264    -3272    -3269    -3256    -3234    -3215 
   -3207    -3204    -3207    -3219    -3229    -3221    -3196    -3163 
   -3144    -3152    -3171    -3190    -3206    -3215    -3223    -3230 
   -3227    -3218    -3203    -3183    -3156    -3126    -3111    -3114 
   -3123    -3140    -3156    -3157    -3142    -3114    -3076    -3049 
   -3041    -3055    -3080    -3111    -3133    -3136    -3130    -3118 
   -3107    -3109    -3105    -3086    -3063    -3041    -3017    -2997 
   -2992    -3009    -3052    -3109    -3171    -3234    -3292    -3352 
   -3404    -3445    -3474    -3491    -3495    -3487    -3469    -3450 
   -3438    -3430    -3411    -3379    -3338    -3292    -3238    -3177 
   -3127    -3099    -3080    -3061    -3034    -2988    -2925    -2863 
   -2809    -2767    -2752    -2749    -2751    -2774    -2829    -2909 
   -2998    -3083    -3153    -3203    -3227    -3222    -3190    -3149 
   -3122    -3100    -3071    -3049    -3042    -3040    -3052    -3082 
   -3109    -3129    -3138    -3132    -3121    -3102    -3069    -3029 
   -2978    -2920    -2870    -2833    -2806    -2786    -2781    -2798 
   -2839    -2896    -2967    -3037    -3100    -3150    -3188    -3215 
   -3231    -3230    -3215    -3190    -3157    -3127    -3102    -3087 
   -3090    -3113    -3160    -3213    -3262    -3302    -3331    -3346 
   -3343    -3321    -3296    -3289    -3295    -3307    -3317    -3325 
   -3338    -3349    -3354    -3352    -3327    -3281    -3226    -3171 
   -3118    -3075    -3033    -2986    -2934    -2879    -2832    -2792 
   -2756    -2727    -2713    -2720    -2747    -2789    -2848    -2915 
   -2979    -3046    -3126    -3207    -3281    -3343    -3384    -3410 
   -3430    -3446    -3451    -3454    -3466    -3483    -3491    -3487 
   -3451    -3411    -3388    -3366    -3341    -3323    -3307    -3281 
   -3245    -3203    -3165    -3130    -3087    -3034    -2980    -2936 
   -2901    -2875    -2863    -2863    -2870    -2876    -2871    -2859 
   -2855    -2859    -2871    -2890    -2906    -2917    -2933    -2955 
   -2986    -3036    -3094    -3141    -3164    -3168    -3159    -3146 
   -3141    -3136    -3130    -3134    -3138    -3136    -3133    -3125 
   -3115    -3111    -3109    -3109    -3113    -3121    -3133    -3145 
   -3168    -3208    -3254    -3300    -3336    -3352    -3349    -3326 
   -3280    -3221    -3153    -3078    -3006    -2937    -2879    -2840 
   -2822    -2829    -2844    -2856    -2871    -2875    -2870    -2863 
   -2849    -2820    -2776    -2721    -2679    -2654    -2640    -2652 
   -2681    -2710    -2749    -2791    -2833    -2884    -2933    -2974 
   -3017    -3051    -3079    -3111    -3144    -3167    -3180    -3194 
   -3213    -3227    -3240    -3250    -3242    -3223    -3206    -3190 
   -3177    -3175    -3180    -3188    -3187    -3177    -3146    -3090 
   -3029    -2972    -2922    -2882    -2843    -2789    -2729    -2659 
   -2583    -2509    -2440    -2401    -2398    -2415    -2454    -2516 
   -2579    -2632    -2678    -2721    -2766    -2816    -2879    -2940 
   -2988    -3033    -3076    -3113    -3150    -3186    -3215    -3237 
   -3260    -3289    -3325    -3369    -3426    -3474    -3515    -3554 
   -3585    -3605    -3619    -3622    -3626    -3624    -3615    -3603 
   -3588    -3565    -3535    -3510    -3503    -3518    -3530    -3530 
   -3520    -3504    -3495    -3488    -3473    -3451    -3415    -3360 
   -3295    -3226    -3172    -3144    -3118    -3087    -3061    -3037 
   -3026    -3037    -3053    -3060    -3053    -3017    -2955    -2882 
   -2808    -2735    -2658    -2575    -2489    -2411    -2353    -2309 
   -2272    -2249    -2246    -2258    -2289    -2351    -2442    -2546 
   -2660    -2771    -2870    -2964    -3059    -3142    -3219    -3284 
   -3327    -3350    -3362    -3360    -3345    -3317    -3272    -3207 
   -3123    -3046    -2999    -2974    -2967    -2984    -3019    -3064 
   -3109    -3153    -3190    -3210    -3223    -3241    -3264    -3299 
   -3336    -3373    -3410    -3446    -3491    -3541    -3589    -3640 
   -3689    -3734    -3775    -3801    -3800    -3786    -3754    -3708 
   -3666    -3634    -3622    -3628    -3650    -3682    -3717    -3740 
   -3740    -3727    -3711    -3707    -3712    -3715    -3708    -3693 
   -3666    -3636    -3605    -3580    -3570    -3569    -3566    -3562 
   -3559    -3566    -3582    -3603    -3622    -3636    -3646    -3646 
   -3634    -3619    -3592    -3551    -3504    -3461    -3440    -3453 
   -3474    -3492    -3510    -3530    -3555    -3588    -3628    -3677 
   -3716    -3744    -3751    -3719    -3662    -3600    -3522    -3427 
   -3331    -3244    -3160    -3084    -3021    -2960    -2903    -2862 
   -2829    -2814    -2833    -2875    -2930    -2999    -3063    -3119 
   -3175    -3219    -3257    -3298    -3331    -3348    -3346    -3329 
   -3310    -3298    -3283    -3258    -3223    -3180    -3129    -3065 
   -2995    -2928    -2859    -2789    -2729    -2669    -2608    -2539 
   -2458    -2374    -2295    -2218    -2139    -2058    -1987    -1930 
   -1903    -1895    -1890    -1895    -1922    -1964    -2019    -2089 
   -2160    -2220    -2266    -2292    -2292    -2262    -2209    -2147 
   -2079    -2007    -1942    -1878    -1822    -1771    -1738    -1732 
   -1741    -1776    -1837    -1903    -1968    -2033    -2096    -2172 
   -2265    -2363    -2461    -2551    -2627    -2687    -2732    -2752 
   -2754    -2737    -2705    -2669    -2640    -2619    -2606    -2602 
   -2604    -2604    -2610    -2635    -2663    -2695    -2740    -2792 
   -2855    -2933    -3017    -3114    -3227    -3354    -3489    -3615 
   -3723    -3807    -3852    -3866    -3863    -3856    -3846    -3828 
   -3801    -3771    -3740    -3697    -3650    -3605    -3559    -3524 
   -3503    -3481    -3458    -3449    -3445    -3440    -3450    -3476 
   -3515    -3580    -3676    -3798    -3948    -4116    -4287    -4459 
   -4619    -4765    -4878    -4942    -4958    -4938    -4876    -4776 
   -4649    -4494    -4327    -4168    -4017    -3880    -3748    -3627 
   -3514    -3396    -3281    -3180    -3082    -2991    -2925    -2882 
   -2856    -2841    -2837    -2833    -2825    -2820    -2814    -2806 
   -2811    -2839    -2880    -2929    -2990    -3065    -3157    -3252 
   -3335    -3402    -3449    -3473    -3474    -3461    -3440    -3416 
   -3387    -3362    -3352    -3343    -3333    -3321    -3308    -3298 
   -3299    -3315    -3330    -3341    -3350    -3342    -3295    -3213 
   -3111    -2992    -2857    -2697    -2506    -2290    -2057    -1818 
   -1576    -1350    -1161    -1011     -900     -837     -816     -834 
    -889     -969    -1059    -1169    -1298    -1435    -1564    -1686 
   -1800    -1914    -2023    -2118    -2189    -2234    -2241    -2201 
   -2123    -2025    -1914    -1792    -1669    -1559    -1468    -1402 
   -1359    -1329    -1308    -1300    -1314    -1358    -1426    -1526 
   -1675    -1852    -2034    -2209    -2369    -2504    -2620    -2721 
   -2817    -2915    -3019    -3126    -3232    -3348    -3481    -3613 
   -3742    -3863    -3955    -4016    -4052    -4050    -4012    -3950 
   -3861    -3748    -3613    -3465    -3321    -3183    -3056    -2944 
   -2844    -2768    -2732    -2731    -2766    -2839    -2941    -3073 
   -3222    -3361    -3491    -3600    -3676    -3728    -3784    -3842 
   -3894    -3924    -3916    -3863    -3788    -3697    -3599    -3507 
   -3420    -3329    -3240    -3159    -3086    -3026    -2980    -2947 
   -2938    -2964    -3021    -3096    -3177    -3261    -3349    -3433 
   -3505    -3576    -3655    -3744    -3828    -3912    -3989    -4054 
   -4099    -4131    -4147    -4153    -4155    -4155    -4152    -4152 
   -4162    -4167    -4158    -4136    -4105    -4064    -4006    -3932 
   -3850    -3767    -3690    -3632    -3597    -3585    -3608    -3680 
   -3793    -3935    -4093    -4243    -4360    -4434    -4461    -4442 
   -4371    -4256    -4106    -3916    -3696    -3468    -3231    -2986 
   -2755    -2535    -2312    -2084    -1859    -1656    -1495    -1385 
   -1323    -1312    -1356    -1437    -1528    -1624    -1721    -1807 
   -1890    -1977    -2064    -2143    -2209    -2255    -2265    -2232 
   -2185    -2130    -2070    -2012    -1968    -1948    -1958    -1995 
   -2058    -2137    -2208    -2276    -2349    -2428    -2532    -2656 
   -2776    -2893    -3002    -3087    -3160    -3235    -3312    -3391 
   -3468    -3542    -3605    -3663    -3712    -3736    -3734    -3707 
   -3651    -3576    -3495    -3427    -3376    -3334    -3291    -3246 
   -3206    -3180    -3180    -3203    -3245    -3304    -3372    -3446 
   -3514    -3569    -3634    -3715    -3786    -3855    -3925    -3993 
   -4041    -4054    -4032    -3989    -3935    -3882    -3838    -3789 
   -3727    -3653    -3557    -3430    -3289    -3159    -3032    -2907 
   -2797    -2701    -2619    -2540    -2458    -2382    -2319    -2281 
   -2288    -2338    -2431    -2562    -2717    -2868    -3015    -3153 
   -3277    -3393    -3495    -3566    -3605    -3605    -3551    -3442 
   -3288    -3115    -2947    -2787    -2648    -2535    -2442    -2377 
   -2338    -2327    -2351    -2409    -2489    -2584    -2686    -2781 
   -2866    -2937    -2990    -3033    -3065    -3075    -3078    -3086 
   -3098    -3121    -3145    -3159    -3173    -3194    -3207    -3221 
   -3231    -3229    -3217    -3194    -3165    -3148    -3150    -3161 
   -3176    -3180    -3165    -3133    -3080    -3019    -2951    -2868 
   -2785    -2708    -2633    -2570    -2519    -2457    -2380    -2303 
   -2236    -2195    -2173    -2160    -2157    -2185    -2238    -2293 
   -2344    -2389    -2432    -2475    -2512    -2543    -2577    -2608 
   -2631    -2647    -2652    -2666    -2693    -2721    -2754    -2778 
   -2789    -2789    -2771    -2743    -2718    -2698    -2675    -2652 
   -2623    -2590    -2554    -2517    -2500    -2515    -2569    -2660 
   -2781    -2918    -3064    -3217    -3365    -3504    -3634    -3763 
   -3885    -4000    -4106    -4202    -4287    -4352    -4392    -4414 
   -4423    -4422    -4413    -4406    -4418    -4453    -4502    -4548 
   -4576    -4592    -4603    -4599    -4580    -4545    -4502    -4455 
   -4406    -4355    -4299    -4245    -4203    -4162    -4120    -4086 
   -4058    -4028    -3994    -3951    -3890    -3802    -3690    -3572 
   -3462    -3369    -3294    -3226    -3153    -3073    -3002    -2936 
   -2894    -2899    -2947    -3032    -3137    -3248    -3357    -3461 
   -3553    -3632    -3697    -3755    -3815    -3870    -3913    -3951 
   -3973    -3964    -3924    -3848    -3762    -3673    -3582    -3508 
   -3457    -3420    -3387    -3350    -3317    -3310    -3333    -3387 
   -3446    -3495    -3539    -3566    -3563    -3542    -3503    -3446 
   -3380    -3322    -3277    -3252    -3250    -3258    -3264    -3262 
   -3254    -3245    -3245    -3264    -3306    -3377    -3470    -3568 
   -3663    -3757    -3842    -3920    -3984    -4039    -4097    -4156 
   -4205    -4256    -4313    -4368    -4410    -4418    -4396    -4360 
   -4314    -4263    -4218    -4164    -4094    -4009    -3899    -3766 
   -3630    -3510    -3410    -3338    -3292    -3262    -3256    -3262 
   -3262    -3262    -3275    -3294    -3306    -3311    -3306    -3284 
   -3246    -3184    -3102    -3003    -2899    -2787    -2664    -2550 
   -2450    -2361    -2305    -2295    -2317    -2389    -2513    -2666 
   -2840    -3041    -3256    -3462    -3661    -3865    -4062    -4228 
   -4360    -4457    -4526    -4568    -4591    -4596    -4584    -4558 
   -4530    -4496    -4452    -4401    -4342    -4278    -4205    -4124 
   -4035    -3932    -3816    -3693    -3573    -3476    -3415    -3381 
   -3365    -3368    -3381    -3402    -3439    -3484    -3535    -3584 
   -3618    -3634    -3634    -3623    -3604    -3574    -3534    -3474 
   -3388    -3279    -3152    -3029    -2936    -2875    -2844    -2820 
   -2791    -2771    -2759    -2739    -2701    -2636    -2551    -2452 
   -2359    -2278    -2212    -2163    -2128    -2098    -2079    -2072 
   -2060    -2053    -2084    -2139    -2208    -2285    -2359    -2435 
   -2513    -2587    -2666    -2752    -2841    -2943    -3057    -3173 
   -3276    -3357    -3414    -3457    -3492    -3516    -3541    -3570 
   -3605    -3647    -3693    -3734    -3769    -3813    -3856    -3889 
