Origin Time       2016/04/16 01:25:00
Lat.              32.753
Long.             130.762
Depth. (km)       12
Mag.              7.3
Station Code      KMM004
Station Lat.      32.9320
Station Long.     131.1214
Station Height(m) 556
Record Time       2016/04/16 01:25:12
Sampling Freq(Hz) 100Hz
Duration Time(s)  300
Dir.              N-S
Scale Factor      7845(gal)/8223790
Max. Acc. (gal)   261.455
Last Correction   2016/04/16 01:25:12
Memo.             
[...]
   -1848    -1845    -1842    -1844    -1846    -1846    -1845    -1846 
   -1852    -1849    -1841    -1838    -1844    -1849    -1850    -1846 
   -1845    -1846    -1846    -1846    -1848    -1845    -1840    -1842 
   -1846    -1846    -1844    -1845    -1852    -1852    -1845    -1841 
   -1849    -1849    -1845    -1846    -1848    -1846    -1845    -1846 
   -1848    -1849    -1850    -1848    -1846    -1846    -1846    -1845 
   -1845    -1848    -1846    -1845    -1846    -1845    -1842    -1842 
   -1848    -1849    -1845    -1841    -1844    -1846    -1848    -1846 
   -1846    -1849    -1850    -1849    -1846    -1842    -1842    -1844 
   -1848    -1852    -1849    -1848    -1846    -1842    -1844    -1848 
   -1846    -1846    -1850    -1849    -1845    -1844    -1844    -1845 
   -1848    -1846    -1842    -1841    -1844    -1845    -1845    -1845 
   -1845    -1848    -1850    -1848    -1845    -1845    -1844    -1845 
   -1848    -1846    -1845    -1848    -1848    -1844    -1846    -1849 
   -1848    -1842    -1844    -1846    -1844    -1845    -1848    -1848 
   -1848    -1846    -1842    -1841    -1845    -1849    -1846    -1846 
   -1849    -1846    -1846    -1848    -1842    -1840    -1846    -1850 
   -1849    -1846    -1844    -1845    -1842    -1841    -1844    -1844 
   -1844    -1846    -1848    -1846    -1844    -1842    -1845    -1846 
   -1846    -1849    -1848    -1842    -1844    -1846    -1846    -1848 
   -1848    -1846    -1844    -1841    -1844    -1845    -1844    -1845 
   -1846    -1849    -1849    -1848    -1845    -1846    -1848    -1846 
   -1845    -1845    -1846    -1846    -1844    -1840    -1840    -1845 
   -1848    -1845    -1846    -1849    -1845    -1840    -1842    -1842 
   -1842    -1848    -1848    -1846    -1845    -1844    -1845    -1846 
   -1846    -1848    -1846    -1844    -1844    -1842    -1844    -1846 
   -1846    -1844    -1844    -1846    -1850    -1849    -1845    -1842 
   -1844    -1846    -1848    -1844    -1845    -1846    -1844    -1845 
   -1848    -1846    -1846    -1848    -1848    -1849    -1845    -1842 
   -1844    -1848    -1846    -1844    -1844    -1846    -1845    -1846 
   -1848    -1848    -1852    -1849    -1844    -1844    -1844    -1844 
   -1849    -1849    -1845    -1844    -1845    -1848    -1846    -1848 
   -1849    -1846    -1844    -1848    -1852    -1850    -1845    -1844 
   -1844    -1848    -1850    -1852    -1849    -1849    -1849    -1845 
   -1844    -1846    -1848    -1850    -1849    -1846    -1844    -1842 
   -1846    -1849    -1848    -1848    -1848    -1849    -1848    -1844 
   -1845    -1848    -1848    -1849    -1849    -1846    -1845    -1844 
   -1841    -1844    -1848    -1849    -1849    -1848    -1845    -1846 
   -1848    -1845    -1845    -1846    -1845    -1842    -1844    -1848 
   -1849    -1848    -1842    -1842    -1845    -1844    -1845    -1848 
   -1846    -1844    -1840    -1841    -1845    -1845    -1845    -1848 
   -1849    -1844    -1838    -1842    -1842    -1842    -1846    -1846 
   -1844    -1844    -1844    -1845    -1846    -1845    -1846    -1848 
   -1844    -1841    -1845    -1845    -1845    -1848    -1845    -1842 
   -1842    -1846    -1848    -1845    -1844    -1845    -1846    -1849 
   -1846    -1841    -1842    -1846    -1848    -1850    -1848    -1841 
   -1842    -1849    -1849    -1845    -1846    -1848    -1846    -1849 
   -1849    -1845    -1844    -1845    -1846    -1846    -1848    -1848 
   -1841    -1837    -1845    -1850    -1848    -1848    -1846    -1844 
   -1845    -1846    -1845    -1845    -1846    -1848    -1846    -1846 
   -1848    -1850    -1849    -1846    -1846    -1848    -1848    -1849 
   -1849    -1848    -1845    -1844    -1844    -1842    -1845    -1846 
   -1845    -1845    -1848    -1846    -1845    -1844    -1846    -1849 
   -1849    -1845    -1846    -1849    -1846    -1845    -1845    -1844 
   -1846    -1849    -1846    -1845    -1846    -1845    -1846    -1846 
   -1841    -1841    -1845    -1846    -1848    -1849    -1845    -1845 
   -1848    -1846    -1842    -1845    -1848    -1845    -1845    -1850 
   -1850    -1845    -1842    -1844    -1848    -1849    -1845    -1845 
   -1848    -1842    -1840    -1845    -1846    -1845    -1846    -1852 
   -1848    -1840    -1838    -1841    -1844    -1849    -1852    -1848 
   -1845    -1846    -1848    -1848    -1845    -1846    -1848    -1850 
   -1849    -1845    -1844    -1846    -1849    -1846    -1842    -1841 
   -1845    -1848    -1845    -1844    -1844    -1846    -1850    -1850 
   -1852    -1850    -1850    -1857    -1861    -1864    -1867    -1868 
   -1872    -1877    -1877    -1876    -1873    -1868    -1867    -1861 
   -1854    -1854    -1856    -1863    -1871    -1861    -1849    -1841 
   -1833    -1830    -1837    -1859    -1903    -1938    -1937    -1894 
   -1796    -1653    -1532    -1522    -1622    -1749    -1907    -2118 
   -2263    -2220    -2026    -1807    -1665    -1636    -1641    -1611 
   -1656    -1744    -1674    -1630    -1850    -2104    -2303    -2538 
   -2504    -2053    -1528    -1080     -919    -1366    -1930    -2083 
   -2189    -2380    -2161    -1742    -1852    -2205    -2239    -2004 
   -1381     -812    -1057    -1667    -2267    -2882    -3046    -2606 
   -1817    -1138     -950    -1101    -1606    -2181    -2150    -1831 
   -1718    -1703    -1702    -1759    -1902    -1781    -1418    -1412 
   -1632    -1895    -2288    -2203    -1557    -1230    -1386    -1514 
   -1777    -2650    -3202    -2458    -1858    -2305    -2290    -1642 
   -1544    -1922    -2205    -2193    -1864    -1297    -1146    -1908 
   -2521    -2440    -2455    -2366    -1615     -876    -1000    -1861 
   -2625    -2828    -2475    -1494     -820    -1479    -2586    -3357 
   -3387    -2265    -1339    -1317    -1452    -2023    -2685    -2565 
   -2396    -2154    -1201     -677     -796     -805    -1377    -1992 
   -1588    -1532    -2411    -2920    -2779    -2138    -1048     -271 
    -279     -834    -1497    -1985    -2265    -2265    -1998    -1733 
   -1566    -1702    -2481    -2874    -1665      -31      206    -1449 
   -3600    -3399    -1576    -1714    -2543    -1286      -74    -1088 
   -2668    -2363     -672     -346    -1352    -1701    -1878    -2792 
   -3694    -3855    -2925    -1571    -1526    -2338    -1846     -797 
   -1050    -1655    -1999    -3061    -4072    -3944    -3468    -3064 
   -2552    -2403    -1962     -739     -692    -1852    -1971    -1695 
   -1982    -2043    -2438    -2328     -645      -93    -1460    -2600 
   -2783    -1968    -1057    -1304    -1878    -1651    -1081    -1000 
   -1755    -2802    -3383    -3519    -3037    -2686    -3071    -2533 
   -1709    -1930    -1775    -2049    -3030    -2012     -673    -1911 
   -2610     -969     -608    -2288    -3443    -3339    -2327    -1441 
   -1844    -3096    -3250    -1993    -2317    -3369    -2019    -1781 
   -4025    -4823    -4793    -4499    -2169     -203     -342     -521 
    -589    -2076    -4440    -5239    -3140     -409      862     1329 
     660     -827    -1386    -1699    -2366    -2646    -1845     -372 
    -502    -1102     -518    -1121    -3352    -5462    -5579    -4510 
   -4105    -1953     -379    -3198    -4873    -3167    -2569    -3271 
   -3056    -2515    -3774    -6019    -6019    -4471    -3861    -2759 
    -870    -1101    -1968    -1113    -1230    -2006    -1194    -1807 
   -4866    -6589    -4720    -1290     -471     -804      575     -170 
   -2583    -3060    -3793    -3551    -2066    -3963    -5675    -4055 
   -3846    -4396    -2673    -1418    -1813    -1414      -75      645 
     862     1003     1038     1374      812    -1927    -5536    -8024 
   -7134    -4352    -4769    -5495    -1624     1081    -1133    -3611 
   -4897    -5551    -5059    -4866    -3811     -870     -125    -2072 
   -3516    -4152    -3508    -2540    -3651    -4598    -4003    -3167 
   -1545     -961    -2022     -962      622    -1426    -3341    -1748 
   -1425    -3920    -5578    -8172   -12287   -11819    -7969    -5873 
   -3607     -741     -102    -2863    -5309    -2644      540     -259 
   -1890    -1216      576    -1919    -6936    -6916    -4014    -3142 
   -3929    -5265    -5722    -5224    -3349       94      289    -2775 
   -3476    -1759      919     2400     -853    -4356    -3909    -5915 
  -10569    -8631    -2706    -1965    -4733    -6907    -5948      849 
    6663     5209     1833      344    -1848    -6994   -11904   -10671 
   -4972    -1628    -1405     -587    -1260    -5807    -6564    -1753 
    -295     -993     1308     2628     2177     2482     1347      854 
    4009     5772     6351     9950    10343     2759    -6704   -12641 
  -14976   -13412    -7799    -3983    -4203    -1169      970    -5356 
   -5998     5765     8476    -6458   -17285   -15573   -15700   -10883 
    8170    12754    -4016    -2921     9713    -3721   -16681     -765 
    5317   -13683   -21348   -16777   -21024   -23784   -20426   -15714 
   -6026     -216      234      487      -70    12611    21455    -6640 
  -31617   -14415      961    -3119    14087    32553    18258       41 
  -14972   -35264   -38709   -15867     6498     5073     3171     4266 
  -16622   -18496     8094    -6529   -38963   -24084      369    -3763 
  -12954   -12603    -6955    -1872    -4261   -21612   -38128   -16160 
   13755    -1125   -15764    -7827   -16251   -19846    -9533   -14656 
  -24111   -24410   -22480   -27286   -24517    -6782   -16918   -39167 
  -16943    10766     9626    20480    34801    20358    10049     7761 
  -13898   -29107   -13541    20243    25424   -13024   -25207    -3526 
   -1015     2165    19172    19857     2857   -13009    -8149    11997 
   19880    23322    24854     5717     2057    22918    19481    17884 
   36078     4634   -44651   -16653    26882    12366   -10829   -11033 
   -1104    -8078   -22113     3322    29552    28648    32771    15257 
  -21602   -21362     2037   -12869   -41536   -11578    10710   -36211 
  -43640     8853    26075    23588    18639   -17760   -25998     2037 
   -3462    -9132     2667   -16596   -26091    -2667    -7245   -20719 
    6836    30616    20194    14654    13489    -5308   -12310     -903 
   14650    27908    -1729   -28554    17408    33512   -19124   -19236 
    5919   -28497   -40767    -5686    -4393    -2936    36805    35814 
  -26979   -66415   -24931    34915    31947    20483    37492    21385 
  -19066   -36678   -26254    10940    51641    54305    23244    -8116 
  -33153   -34470    -4450    18577    33916    50315    42568    28202 
   26470     9764   -22682   -38241   -39356   -39926   -28242   -28741 
  -52303   -45974   -21270   -27126   -39676   -43934   -46025   -14844 
   21196    -3165   -37336   -20129     -216   -11249   -29444   -45679 
  -53333   -32896    -1771    -8637   -38562   -34520    -8365    11731 
   45036    50647    -3384    -8910    31118     1356   -36436   -26370 
  -20231       94    35957    22426   -33382   -46449   -10100     1440 
   -5062    11443    15797    -4220     1591    23850    12602    -9699 
   -6705     7137    22580    27177    -3065   -48460   -56351   -14423 
    7260   -24864   -29894    24937    70044    65325    16104   -46824 
  -35329    45191    61766    17173   -21701   -69196   -71982   -12314 
    7406   -24132   -20308    11067     8869     2492   -13505   -42080 
    7271    74529    52735     1179   -35253   -76977   -80469   -27364 
  -28309   -61645   -44289   -74560   -97565   -44309   -59417   -88103 
  -48012   -59389   -84342    -9922    45076   -13829   -40001    18986 
   25604   -36583   -69885   -55896   -39525   -31205     1107    15406 
  -48023   -64138    25027    44840   -20692   -16622    28181      483 
  -33264     2567    26164   -40061  -117801   -70811     3932   -28115 
  -36192     2802   -40432  -113467  -127110  -106355  -111614  -106829 
   -5717    62874   -49523  -187386  -164299   -89221  -110177   -93260 
    7051   -12006  -101057   -97141   -74864   -31313    73072    97276 
   29015     4095    32865    51830    57805    54665    45334    77198 
  128426   104253    -2833   -77993   -53092    -5362    -2323   -31347 
  -38176    14298    71548    75354    46147    46681   100932   150742 
  159140   144541   112669    90738    96522    85926    70503   111838 
  180688   184233   120852   111555   153215   119275    94776   183832 
  234249   175737   140412   143969   112842    94150   119842   121081 
   80310    60439    76546    70823    66880   120268   184542   207863 
  185980   165761   150811    66742      629    56797    93472    54349 
   71361   115676   114370   124962   121551    86981    94660    98192 
   57496    64727   133201   156586   136536   158221   182927   167296 
  162909   186255   178785   135888   144686   155089   102429   111748 
  144540    82490    62201   119766   132587   135693   143630    99721 
   64902    73662    57549    11244     8694    49017    43314    21743 
   65267    80163    33853    52269   111447   115885   107634   132663 
  151652   115052    58980    35696   -10774   -77067   -88786   -86814 
 -102986   -90367   -58614   -54326   -39572    23380    47042    17967 
   17763     -411   -78825  -157080  -201629  -202663  -168848  -135386 
 -122292  -130817  -150318  -162579  -158116  -162703  -179479  -157750 
 -114747   -93845   -84654  -104409  -141212  -168031  -213653  -255348 
 -274549  -275857  -205818   -70930    70908   153589   132875    96228 
   67328   -24428  -113458  -157509  -202126  -191305  -106066   -75658 
 -122022  -132669  -102122   -53213    28136    76924    92624   113651 
   83832    48253    73811    80811    37582    -9478   -42006   -64478 
  -88129   -99041   -80724   -41519   -14377   -32995   -79747  -152449 
 -244066  -267251  -217972  -186016  -175008  -139973   -95351   -97927 
 -126609   -95952   -44204   -42348   -25728    34495    59490    35772 
   14373   -10027   -48952   -73589   -92310  -104095   -93067  -112008 
 -152288  -132401   -83459   -82182  -114160  -130219  -114747  -101424 
 -118393  -118257  -104021  -129274  -116991   -50987   -54056   -78771 
  -32472     3684     7677    24876     3420   -46955   -39499      625 
   14038    17906    27552    33388    32820    18158    -4942   -13905 
   -7292     3361    12096    25826    52983    79159    98770   104375 
   93155   106185   118898    88021    86793   120113   108013   103048 
  144193   139163    88844    67780    40387   -25394   -67693   -63864 
  -51119   -38103   -16568     2701    21907    54319    76441    68477 
   54811    55178    63549    72384    81149    76632    70233   100915 
  135220   134293   126766   120322   110719   102082    94950    80107 
   31311    -4788     6525    -7824   -27345     2682    25926    49119 
   88956    86288    60519    62978    74702    60574    37137    33224 
   26256    28772    40297    -3396   -44748   -29977   -36240   -54492 
  -60057   -81927   -78341   -58283   -58729   -44786   -46322   -81193 
  -99134  -124360  -151764  -132217  -103088   -79919   -35359      761 
   -4563   -21417   -10103    16004    34488    49160    69943   113725 
  159719   157500   132726   120638    82395    39681    34241     1965 
  -48645   -28198    26088    48177    48421    36752    23409    16776 
    9255    -3848   -22932   -34570   -39677   -65430  -102774  -116367 
 -118025  -140217  -168129  -177763  -176268  -162132  -141974  -133137 
 -122438  -112293  -110421  -101831  -101799  -108141   -87351   -69488 
  -78949   -71799   -57352   -74544   -88673   -73669   -66927   -75735 
  -57215   -16074    -2527   -26442   -51935   -63117   -75919   -83575 
  -72370   -53761   -52370   -66155   -63956   -59958   -71319   -80231 
  -90525   -95613   -88601   -89757   -87321   -59031   -34794   -41639 
  -43903   -25879   -31592   -61889   -75856   -75955   -76388   -72457 
  -69628   -68218   -57150   -36159   -18885   -25315   -49044   -54575 
  -41808   -47726   -67112   -66553   -63601   -74016   -59832   -40034 
  -71011  -105248   -99558  -105362  -122605  -115913  -112810  -116689 
 -104121   -95512   -98977  -102026   -96352   -68669   -39613   -32115 
  -24845    -6180     4733     1935     6384    11855     2628    12753 
   26735    -6326   -29388    -5849     9059    11593    10401    -9759 
  -23137    -2663    34917    52731    55237    65835    68983    62768 
   58198    46434    30593    17928    18789    29181     9423   -28297 
  -33605   -28350   -44373   -60376   -59651   -48753   -45932   -51101 
  -44871   -39376   -40612   -31912   -35546   -52465   -39279   -31618 
  -70075   -81094   -49269   -53011   -81376   -79436   -71254   -76315 
  -41786     1579   -30522   -53094    -6277      429   -31016   -14489 
   -3630   -43190   -51013   -27838   -56994  -101947  -114826  -115547 
  -98251  -102828  -152166  -163838  -139027  -116835   -62128   -45615 
 -108078  -112112   -67305   -68296   -43121   -11819   -33525   -14773 
    8382   -18219   -13699   -12460   -25355     3507    28829    48004 
   61503    29764    22311    65276    74027    58536    54819    42439 
   50602    75683    78343    87650   105079   108992   121522   134900 
  118021    98234   120262   149813   142911   132079   138489   134948 
  115651   102921   101123    99067    97931    96435    95947   102828 
  106924   115646   138707   150234   149485   160903   174725   175944 
  181588   202842   217228   227273   255968   269045   243201   225612 
  228891   211539   171938   139072   122079   120249   114739    93595 
   85063    95057    96801    83760    73118    86759   112194   118570 
  112371   110701   118591   133130   140371   141021   138069   128511 
  125698   128046   119109   106821   106330   116075   125027   126440 
  129798   140926   141439   127670   116233   106601    97587    93900 
   92813    90115    84466    90111   107106   105420    89696    88716 
   95678    94853    87777    79321    72752    65427    50222    29013 
   10717    -4930   -25600   -48099   -59771   -63163   -65593   -57284 
  -44624   -46253   -48192   -35048   -23495   -27819   -32551   -23697 
  -17693   -23114   -28930   -34978   -42074   -45424   -45812   -44302 
  -41484   -42342   -42657   -31660   -23234   -34112   -43447   -34932 
  -26771   -28984   -31851   -24549    -5691    10995    12415     1763 
   -1452    11226    18490    10773     5023     7443     8673     5026 
    2010    -3507   -13475    -9931     5632     7269    -4602    -6825 
    6019    11025    -3834   -21012   -30775   -34651   -32212   -31205 
  -39040   -46437   -42021   -38273   -44902   -49913   -51000   -49852 
  -53655   -73278   -84894   -77915   -81175   -92773   -95864   -99307 
 -100903   -93141   -91153   -96411   -89155   -72684   -65564   -67749 
  -73892   -83608   -84705   -72759   -64782   -61842   -53380   -47518 
  -48783   -48303   -47444   -51354   -57388   -62428   -63383   -60648 
  -57275   -56224   -62748   -67702   -59805   -52085   -50723   -43515 
  -31993   -28722   -34031   -37449   -38828   -46511   -54058   -52222 
  -49167   -51273   -56157   -64361   -72686   -74885   -68755   -61165 
  -63994   -71146   -72866   -77252   -79793   -71116   -65577   -65985 
  -65222   -74316   -87085   -88652   -89968   -93550   -92291   -94857 
