Origin Time       2016/04/16 01:25:00
Lat.              32.753
Long.             130.762
Depth. (km)       12
Mag.              7.3
Station Code      KMM009
Station Lat.      32.6858
Station Long.     130.9856
Station Height(m) 443
Record Time       2016/04/16 01:25:10
Sampling Freq(Hz) 100Hz
Duration Time(s)  300
Dir.              E-W
Scale Factor      3920(gal)/6182761
Max. Acc. (gal)   639.537
Last Correction   2016/04/16 01:25:10
Memo.             
[...]
   -7979    -7985    -7991    -8016    -8019    -8001    -7991    -7977 
   -7982    -8006    -7999    -7978    -7986    -7999    -7984    -7986 
   -8004    -7982    -7959    -7982    -7999    -7991    -8000    -8012 
   -8008    -8001    -7991    -7982    -7973    -7966    -7984    -7998 
   -7985    -7989    -8012    -8014    -7994    -7975    -7974    -7990 
   -7998    -7995    -7993    -7981    -7971    -7984    -8001    -7997 
   -7983    -7987    -7997    -7991    -7994    -8010    -7995    -7968 
   -7980    -8005    -7997    -7974    -7970    -7984    -7999    -8010 
   -8010    -7996    -7979    -7972    -7984    -7999    -7995    -7981 
   -7977    -7980    -7987    -8017    -8037    -8005    -7971    -7980 
   -7989    -7976    -7961    -7956    -7969    -8002    -8036    -8036 
   -8002    -7974    -7973    -7979    -7986    -7993    -7988    -7988 
   -8007    -8017    -8010    -8000    -7971    -7941    -7947    -7977 
   -7995    -8011    -8031    -8020    -7994    -7987    -7979    -7971 
   -7976    -7980    -7981    -7992    -8011    -8014    -7991    -7979 
   -7993    -8008    -8011    -7995    -7978    -7966    -7959    -7971 
   -7988    -7988    -7990    -8000    -8009    -8015    -8014    -8012 
   -7989    -7956    -7963    -7988    -7988    -7992    -8002    -7986 
   -7969    -7983    -8002    -8003    -8004    -8004    -7996    -7982 
   -7975    -7984    -7987    -7976    -7981    -8000    -8010    -7999 
   -7980    -7986    -8008    -8011    -7997    -7980    -7962    -7957 
   -7974    -8001    -8003    -7989    -8001    -8017    -8006    -7989 
   -7986    -7986    -7976    -7976    -7991    -7990    -7986    -7991 
   -7991    -7995    -8006    -8007    -7999    -7985    -7976    -7977 
   -7980    -7986    -7992    -7994    -8000    -8003    -8004    -8002 
   -7984    -7980    -7996    -7996    -7992    -7992    -7971    -7963 
   -7992    -8003    -7992    -7998    -8003    -7992    -7991    -8000 
   -7989    -7977    -7975    -7982    -7999    -8007    -7998    -7982 
   -7967    -7980    -8013    -8026    -8010    -7983    -7977    -7987 
   -7976    -7974    -7993    -7989    -7979    -7991    -8003    -8002 
   -7999    -7999    -8002    -8005    -7995    -7972    -7955    -7969 
   -7993    -8000    -8008    -8012    -7997    -7987    -7992    -7984 
   -7967    -7971    -7988    -7996    -8000    -8003    -7998    -7999 
   -8006    -7995    -7973    -7975    -7985    -7987    -7993    -7987 
   -7970    -7980    -8005    -8015    -8006    -7991    -7986    -7985 
   -7985    -7987    -7983    -7983    -7996    -8006    -8006    -8002 
   -7996    -7984    -7971    -7967    -7975    -7995    -8012    -8005 
   -7996    -8001    -8000    -7984    -7978    -7989    -7985    -7971 
   -7980    -7995    -7994    -8000    -8015    -7999    -7969    -7971 
   -7992    -7995    -7994    -8001    -7990    -7986    -8009    -8009 
   -7980    -7972    -7977    -7975    -7984    -8006    -8012    -7994 
   -7985    -7992    -7994    -7989    -7988    -7985    -7982    -7985 
   -7980    -7984    -8014    -8022    -7994    -7985    -7996    -7985 
   -7974    -7981    -7983    -7983    -7991    -7998    -8000    -8003 
   -8003    -7998    -7989    -7984    -7982    -7979    -7982    -7985 
   -7988    -7999    -8006    -7998    -7984    -7979    -7993    -8012 
   -8010    -7990    -7968    -7964    -7989    -8014    -8007    -7985 
   -7975    -7980    -7996    -8004    -7992    -7983    -7995    -8002 
   -7985    -7978    -7994    -7993    -7979    -7992    -8019    -8011 
   -7983    -7975    -7978    -7980    -7990    -7995    -7987    -7982 
   -7986    -7997    -7996    -7983    -7988    -8009    -8010    -7995 
   -7979    -7969    -7983    -8006    -7997    -7973    -7976    -7999 
   -8007    -8002    -7999    -7991    -7982    -7989    -7987    -7968 
   -7969    -7997    -8013    -8009    -8002    -7991    -7978    -7977 
   -7979    -7981    -7991    -8008    -8006    -7984    -7981    -7995 
   -7999    -7995    -7988    -7972    -7968    -7991    -8010    -8004 
   -7996    -7995    -7989    -7989    -7990    -7982    -7983    -7995 
   -8000    -7992    -7984    -7982    -7984    -7986    -7993    -8002 
   -8007    -8003    -7986    -7975    -7984    -7987    -7985    -7986 
   -7985    -7988    -8005    -8008    -7983    -7968    -7984    -8006 
   -8010    -8003    -7997    -7987    -7974    -7973    -7977    -7980 
   -7992    -7998    -7999    -8013    -8016    -7989    -7970    -7983 
   -7993    -7984    -7981    -7982    -7974    -7986    -8014    -8011 
   -7992    -7991    -7994    -7988    -7979    -7976    -7983    -7995 
   -8003    -8001    -7995    -7997    -7997    -7990    -7981    -7982 
   -7987    -7983    -7974    -7980    -8000    -8015    -8012    -7997 
   -7986    -7986    -7996    -8000    -7979    -7960    -7968    -7989 
   -8005    -8008    -8003    -7996    -7994    -7992    -7981    -7980 
   -7986    -7986    -7993    -8006    -8004    -7991    -7986    -7991 
   -7995    -7993    -7981    -7970    -7979    -8001    -8017    -8013 
   -7988    -7963    -7971    -7997    -8001    -7987    -7988    -7999 
   -7995    -7988    -8000    -8006    -7995    -7989    -7983    -7973 
   -7976    -7988    -7995    -8000    -8001    -7998    -7992    -7984 
   -7979    -7983    -7995    -8006    -8006    -7996    -7980    -7976 
   -7984    -7985    -7983    -7991    -8003    -8006    -8002    -8001 
   -7997    -7987    -7983    -7983    -7977    -7975    -7983    -7991 
   -7994    -7997    -8004    -8012    -8004    -7994    -7989    -7975 
   -7970    -7983    -7982    -7976    -7993    -8009    -8012    -8010 
   -7996    -7981    -7976    -7975    -7976    -7987    -8000    -8001 
   -7996    -7996    -7999    -7988    -7974    -7981    -7993    -7993 
   -7992    -7988    -7978    -7968    -7930    -7863    -7781    -7660 
   -7527    -7434    -7242    -6759    -6142    -5740    -5529    -5255 
   -5042    -5076    -5069    -4947    -5244    -6410    -8387   -10101 
   -9720    -7574    -6580    -6970    -5450    -1993     -934    -4189 
   -9266   -13132   -13665   -12014   -14458   -20352   -17093    -4233 
    1158    -4317    -6312       58     2776    -9589   -27350   -28907 
  -16230   -12049   -19280   -19727    -7266    10300    22008    14111 
   -7730   -19846   -21199   -23829   -25842   -28517   -31818   -19009 
   10386    27293    23578    19769    14738    -2038   -18215   -24605 
  -28436   -34160   -35111   -23556    -3739    16222    31585    32230 
   19433     9784     -355   -21749   -42827   -54066   -55747   -41867 
  -15236     6642    20534    35109    39694    23325     4731    -8726 
  -38244   -67763   -60826   -37499   -25646    -7345    19580    28652 
   28224    36475    28462    -4367   -24910   -27272   -37704   -44292 
  -25902    -9845   -17121   -15154    11359    28423    23216    13150 
     -38   -18444   -33351   -38371   -33768   -27945   -20642     -548 
   19143    20896    20615    20600    -1014   -24405   -15876     -913 
  -12927   -28583   -17265     8205    16740      -18   -25411   -40236 
  -32473    -3903    21932    20324     -242   -10055    -1648     7891 
    5398   -10090   -34398   -50036   -41983   -27628   -13372    11660 
   21282     3703    -3376     6087     2994    -5557    -7942   -32173 
  -64795   -42330     8804     6426   -11780    21408    45424    20082 
    3152   -13941   -63859   -74755   -16541    19304      728    -7387 
    8525    16991    26413    35032    11326   -26260   -34085   -23235 
  -20749   -20931   -27641   -49537   -48069    -2233    34398    23363 
  -11973   -35143   -33956   -33479   -47802   -55168   -52149   -41409 
  -11820    16924    25014    37467    65076    72823    43561     9970 
    1325    -3028   -30776   -61964   -72785   -68679   -42252     -585 
    8117    -8206    14881    61466    62833    28725     6226    -8170 
  -25833   -31301   -32831   -55883   -79361   -70074   -45180   -13608 
   43821    86927    74930    49644    27896   -13917   -52526   -59128 
  -53326   -68133   -83200   -57007   -16537     4764    33634    75899 
   85903    45639   -10851   -46399   -50358   -46122   -48274   -39157 
  -29291   -25130     4260    46232    69497    76806    67532    46772 
   27097    -4532   -54227   -90119   -88257   -78959   -96404   -95259 
  -29136    35704    49671    62855    68921    27593     -992    16306 
   10160   -31287   -46068   -15593    23253    19556   -21215   -37730 
  -26578    -6272    28529    19537   -40581   -45677     7709    32930 
   29884    26986    -2708   -57015   -69493   -34257   -23157   -40417 
  -42679   -34164    -4497    53133    75264    33663   -12576   -19304 
   -7168    -6023   -20328   -49119   -70812   -54330   -19114     7473 
   41217    68687    47908     8393      706     7308     2044   -16618 
  -40019   -53171   -52586   -26780      558   -24784   -50869   -23986 
   -6886     -785    24820     7711   -36850   -30571    -7900      454 
   11268   -16709   -74490   -85669   -49643     4079    62438    80338 
   52102    38815    48226    26731   -36843  -100436  -121490   -92175 
  -48857   -12966    31632    82602   135990   171216   127561    18041 
  -73678  -119042  -136910  -143984  -151633  -141547   -87438   -15788 
   25317    43728    86408   135094   143109   157521   185283   133716 
   32236   -28302   -72813  -144137  -236754  -303143  -300812  -242293 
 -115109    64545   180673   186115   157954   158948   170030   157105 
  134353    77061   -48186  -162109  -226016  -268888  -245859  -155166 
  -59213    32983   122774   193972   229755   212746   134263    16556 
  -79593  -139523  -195768  -244812  -282198  -275609  -158396     3736 
   84827    98573   112457   157650   232632   297867   329193   285861 
  124072   -89621  -226037  -231615  -203850  -236790  -256188  -208359 
 -123312    35539   233367   318237   288412   256111   208641   101299 
  -30788  -175440  -311015  -367882  -332715  -219245   -71061    27428 
  108592   212658   268665   274315   253687   181810    84702      280 
  -79199  -198636  -354062  -424919  -371963  -301276  -240260  -155404 
  -46177   121198   318207   424505   430117   400945   298254    97336 
 -112714  -291164  -406637  -376384  -272779  -216506  -148117   -31567 
   65117   171492   328169   438715   418352   276901    83071   -56100 
 -133215  -204777  -227174  -202725  -202966  -159001    -8965   145108 
  216746   211792   184198   156177    48030  -141106  -284518  -359790 
 -397277  -346228  -209706   -61304    69101   190718   292129   319786 
  283307   248241   151312   -59636  -240523  -306350  -334088  -353703 
 -346202  -292653  -164831    12082   212702   401867   468899   403539 
  324987   260357   157487    68623    39714   -39392  -183409  -277410 
 -307726  -256467  -141541   -86071   -69232   -22339    47220   172183 
  286067   259693   138551    47121   -17292  -142021  -261744  -275090 
 -284854  -284255  -120697   105418   224128   257818   243129   194127 
  137936    51929   -51874  -108662  -116222  -111000  -107797  -123497 
 -168272  -214438  -233960  -215843  -139317   -13549   111084   228028 
  367134   461692   418236   307443   211207    91218   -13481   -32567 
  -50459  -139301  -233790  -299388  -358229  -374226  -325774  -254430 
 -155569     4514   192548   350221   451309   447100   303821   127114 
   33253   -23160  -110715  -194369  -230447  -227337  -221649  -243403 
 -256728  -212455  -128339   -23253   106665   242816   334805   350714 
  336729   327156   284690   168966   -40323  -301648  -500041  -534491 
 -438309  -378909  -357289  -204047    19397   182516   355976   521253 
  552015   467559   326716    98326  -196606  -410495  -468603  -464247 
 -443959  -359846  -241416  -122172    47355   236278   368897   467885 
  504069   414456   266160    62276  -206261  -327114  -227112  -124418 
  -98613   -46752    30360    55616    39165    30836    32705    19509 
  -30404  -102258  -144216  -109423    -2654   110880   161184    96024 
  -49895  -123165  -103025  -139385  -212557  -197126  -130550   -47336 
  100380   283110   431768   507236   492974   392032   205211   -44863 
 -278994  -417152  -449668  -404790  -321650  -252217  -171056   -25967 
  117121   196654   218539   154467    17417  -123394  -225298  -253813 
 -205314  -117214     3949   182616   375109   481073   460380   325238 
  137134    24727    22583     5448   -62005   -64298   -57679  -200633 
 -376019  -433953  -489469  -573245  -534030  -364560  -142400   108432 
  335012   519008   680049   775249   753543   614998   409395   152777 
 -207846  -580458  -752051  -745588  -735200  -733016  -684347  -562831 
 -332670   -45372   204984   418671   567756   539449   369556   244545 
  190796    55233  -135797  -149791   -15336    15181   -13592    76996 
  191684   201862   156475    92762    19465   -12872    -9139   -14182 
  -52824  -120568  -138613   -78074   -26624    -1660    45305    73417 
   30109   -32980   -86489  -177610  -266825  -292628  -294516  -273775 
 -195824   -83007    57895   215361   315388   331081   319160   262754 
   74794  -208217  -446977  -556087  -548400  -509501  -481466  -411369 
 -266127   -54840   199308   427969   580448   707834   856194   899377 
  711845   426863   196235   -46785  -321495  -506617  -576060  -569809 
 -509760  -449692  -379281  -216406    50177   347429   587986   722630 
  721896   562612   321769   122677   -66932  -329066  -574385  -708564 
 -823220  -973086 -1016684  -897071  -745801  -585423  -320306    29433 
  376220   655952   808376   857951   860889   738532   412883    23731 
 -216520  -339239  -511253  -661977  -615452  -449121  -359780  -300181 
  -99587   181769   434982   647700   708283   604680   476201   280888 
  -40426  -339977  -513554  -578816  -545556  -476227  -464728  -487411 
 -445476  -284628   -35793   218694   408083   453812   322590   136896 
   40816    31311    62808   137847   208437   224267   231005   229487 
  172165   101522    62389    21079   -53439  -118488  -121521   -99707 
  -84405   -39573     8603     6420   -16917   -38105   -69042   -93664 
 -107596  -113922   -85607   -16213    78603   191429   299316   383700 
  436950   415217   288828   113480   -56437  -227702  -357782  -399502 
 -422914  -448099  -412418  -347444  -267455  -131709   -15997    11770 
   17802    34084    17914   -34287  -109319  -199987  -262082  -266751 
 -212177   -92456    40491   135136   211874   264305   275061   259964 
  208781   148130   138875   156047   168463   215142   278452   268570 
  169573    46656   -53892  -124199  -173315  -197271  -191078  -180000 
 -156146   -97725   -59510   -79569  -119961  -145339  -123899   -62439 
  -11445    41759    98988   106489    89574    94563   106477   123483 
  128113    49521  -132832  -337960  -453729  -391887  -162401    80480 
  230357   335416   392119   311081    89369  -173178  -355632  -403071 
 -368933  -353118  -388617  -387729  -288161  -148581    -3111   155200 
  293356   400245   481207   520038   546295   583258   526991   293216 
   33474   -69972   -98732  -188801  -289327  -325906  -324501  -350644 
 -430989  -487414  -413668  -237176   -59576   139690   424387   694638 
  796346   749113   679495   594000   375907    24495  -328777  -657845 
 -904933  -885937  -690108  -567586  -480434  -297528   -41342   228692 
  483263   703599   859592   877956   652990   221948  -166657  -367972 
 -430084  -416225  -411953  -412948  -366148  -349650  -311743  -107954 
  172528   400488   519338   459089   290946   154374    39290   -65275 
  -72493   -24482   -51115   -83430   -13958    44228    -7357   -73450 
  -85451   -91687   -97803   -72485   -63450  -114857  -187888  -263793 
 -346054  -356730  -231202   -46653    98638   210134   309687   365230 
  375593   391728   414498   391635   295863   128056   -97967  -312689 
 -409726  -390040  -364371  -352581  -267910  -108689    38813   142435 
  223275   281986   272321   162582    23619   -51672   -81968  -134420 
 -182440  -173055  -156197  -150645   -86963     3812    47931    90546 
  168098   224756   240358   246256   235473   202352   172291   127195 
   54305    -5310   -66045  -172756  -282374  -339600  -352719  -314375 
 -210463   -90449    11463   114714   210348   288496   356764   371256 
  304040   203176   132370   124681   128734    75479   -16302  -134283 
 -271681  -341352  -312414  -252523  -190634  -119536   -29762    78162 
  160712   199963   206818   166814   114132    95697    75123    27742 
   -4451    -5621   -13992   -16737    53085   146475   148364    78440 
   18123   -10580    -2229    34555    54788    27673   -24033   -69848 
 -100196   -98918   -87725  -106516  -110648   -55243    14400    56147 
   72116    63744    37109    24617    45534    46672   -28061  -127530 
 -179563  -189244  -167532  -119008   -77800   -55767   -47328   -44409 
   -6340    75168   157843   226095   264104   232385   150342    88502 
   53734    -9084   -97829  -145040  -126650   -92589   -86450   -85067 
  -71904   -96941  -164104  -197390  -157632   -71164    14164    71530 
  112082   157251   207391   221118   169794    94118    25236   -51658 
 -107408   -97815   -63970   -55931   -67574  -101811  -143775  -141096 
  -98481   -70504   -72300   -79445   -76260   -62021   -28531    23120 
   73649   110948   111050    73829    61903    91443   118534   135115 
  124938    52442   -43426  -110917  -161725  -185448  -170517  -160180 
 -163077  -158512  -142081   -87985    10708   103965   133024    86543 
   24012    -2064    -1055    20230    48267    39869     5869   -12162 
  -23886   -30705    -9497     4786   -32524   -92242  -128981  -131551 
 -122216  -128970  -120246   -61968    24946   120317   182965   175753 
  132062    82188    24366   -30575   -80089  -138350  -179295  -165906 
 -132601  -115927  -103748   -75844    -5051    82709   113339    84671 
   60663    77909    88728    30986   -38983   -47197   -36286   -30275 
    9199    59966    77040    57112    12975   -34244   -81627  -147745 
 -214593  -232687  -202487  -170337  -134518   -60268    42936   145346 
  227090   255549   207595   122007    54802       68   -52305   -68501 
  -48134   -33216   -44693   -65391   -56787    -6984    43642    56551 
   51007    53936    26654   -46546   -85166   -66250   -66100   -75341 
  -40016   -12499   -27503   -36187   -16683    29010    83918   103365 
   75651    25267   -21128   -39788   -20430    24316    50970    20349 
  -58128  -130108  -126780   -50503    13736    16781   -28791   -96248 
 -147900  -154440  -107199   -25378    29269    24125   -10196   -51373 
  -83321   -90096   -75588   -25242    55016   108900   111085    83997 
   44949   -17091   -85343   -87084   -21990    22412    26348    25925 
   16229   -17656   -62439   -91507   -82993   -37164    33318   115967 
  178647   187360   151571   100929    39855   -23352   -51308   -43133 
  -47012   -73896   -88116   -58530    13562    79832    98955    84330 
   64547    43880     4829   -47222   -86159  -119793  -155524  -166453 
 -141486   -98398   -51752    -2490    48950    96753   143153   190173 
  221374   211457   145013    42411   -52142  -135806  -233754  -315205 
 -330046  -307704  -294568  -258836  -165146   -41101    87973   223899 
  345831   422444   435686   364935   226367    79901   -37873  -107957 
