Origin Time       2016/04/16 01:25:00
Lat.              32.753
Long.             130.762
Depth. (km)       12
Mag.              7.3
Station Code      KMM007
Station Lat.      32.8267
Station Long.     131.1226
Station Height(m) 548
Record Time       2016/04/16 01:25:12
Sampling Freq(Hz) 100Hz
Duration Time(s)  300
Dir.              E-W
Scale Factor      3920(gal)/6182761
Max. Acc. (gal)   420.327
Last Correction   2016/04/16 01:25:12
Memo.             
[...]
    1755     1746     1737     1726     1725     1710     1687     1701 
    1734     1749     1750     1752     1751     1730     1704     1711 
    1741     1771     1797     1807     1803     1804     1790     1752 
    1723     1700     1675     1687     1721     1733     1741     1763 
    1782     1787     1780     1758     1729     1703     1697     1701 
    1713     1739     1761     1772     1793     1788     1757     1741 
    1721     1700     1701     1704     1717     1746     1765     1782 
    1799     1802     1800     1787     1769     1746     1705     1679 
    1687     1693     1702     1736     1756     1753     1749     1737 
    1738     1747     1733     1741     1780     1797     1804     1797 
    1767     1739     1710     1711     1733     1705     1684     1715 
    1741     1762     1769     1749     1754     1762     1739     1735 
    1743     1739     1736     1728     1741     1782     1790     1785 
    1783     1741     1699     1680     1678     1721     1754     1749 
    1767     1777     1773     1785     1760     1724     1714     1682 
    1675     1726     1768     1785     1782     1781     1797     1772 
    1739     1761     1768     1737     1710     1681     1679     1710 
    1726     1740     1744     1720     1724     1751     1760     1765 
    1767     1780     1808     1803     1780     1758     1722     1704 
    1694     1674     1706     1759     1758     1742     1741     1748 
    1759     1748     1734     1742     1727     1700     1704     1723 
    1744     1766     1787     1811     1808     1784     1774     1756 
    1731     1728     1716     1710     1729     1730     1719     1715 
    1711     1722     1715     1691     1715     1752     1758     1770 
    1783     1801     1822     1799     1766     1764     1749     1723 
    1713     1711     1723     1731     1729     1744     1748     1737 
    1722     1686     1682     1720     1736     1755     1786     1784 
    1773     1763     1751     1762     1761     1736     1748     1778 
    1778     1763     1755     1747     1723     1692     1692     1704 
    1693     1693     1716     1746     1777     1779     1769     1780 
    1772     1747     1751     1751     1746     1758     1750     1739 
    1757     1763     1750     1747     1739     1716     1691     1688 
    1722     1752     1757     1767     1780     1783     1761     1726 
    1721     1729     1710     1713     1755     1784     1781     1760 
    1750     1751     1728     1711     1724     1729     1732     1740 
    1736     1750     1775     1768     1760     1777     1786     1769 
    1745     1730     1714     1694     1689     1695     1716     1747 
    1751     1753     1776     1764     1738     1753     1763     1744 
    1720     1708     1738     1781     1791     1804     1816     1795 
    1759     1726     1707     1699     1684     1689     1710     1711 
    1717     1741     1748     1745     1744     1737     1735     1737 
    1744     1772     1803     1821     1813     1779     1763     1767 
    1759     1748     1727     1706     1711     1706     1678     1673 
    1688     1705     1734     1754     1752     1746     1745     1746 
    1748     1760     1785     1804     1808     1798     1785     1784 
    1774     1745     1733     1718     1673     1661     1688     1700 
    1713     1743     1749     1739     1731     1730     1741     1750 
    1743     1744     1773     1811     1820     1798     1768     1731 
    1700     1706     1731     1757     1775     1753     1730     1736 
    1720     1691     1680     1678     1692     1704     1699     1722 
    1754     1751     1742     1733     1701     1659     1636     1643 
    1656     1661     1682     1735     1794     1830     1843     1839 
    1772     1612     1468     1412     1311     1168     1300     1810 
    2270     2375     2375     2313     1779      983      624      666 
     657      632      920     1616     2378     2905     3262     3404 
    3025     1870      332     -671     -889     -399      841     2040 
    2492     2496     2368     2354     2899     4162     5358     5333 
    4260     2683      492    -1022     -394      788      760      643 
    1544     2816     3423     3148     3206     3911     2873    -1159 
   -4759    -4037    -1032      531     2080     4638     4981     2503 
     631     1014     2276     3534     5003     5767     5326     4256 
    2072     -162       40     1218      411     -485     2110     5671 
    5388     3169     2497     1522    -1189    -3939    -5698    -5719 
   -3881    -2349    -1273     2461     7749     8995     6208     4985 
    5404     2830    -1563    -1985     2730     6549     4168      -85 
    -210     -304    -5267    -9784    -6206     3954    11265    11523 
   10607    11100     7011    -2348    -8138    -7697    -8846   -13198 
  -12886    -5902     1353     5388     8702    13051    16033    14569 
    9369     4724     1186    -5338   -12089   -12497    -9119    -4854 
    3352    12917    18177    17995    12321     4192    -1687    -6793 
  -11600    -9126     1766    11031    11216     5029      578     2850 
    6937     4079    -3994    -8250    -9019   -10935    -8568     2141 
   13428    18751    18892    15063     8401     2642     -858    -6570 
  -15654   -21316   -17188    -4893     6085    10133    10809    11532 
   12551     9842     1768    -1332     4820     9215     4033    -7290 
  -14168   -12805   -11038   -10555    -9262   -11245   -14297   -10631 
    -775     6643     5430     1841     6019    13022    10668     1075 
   -3959    -1865     -870    -5790    -9955    -4116     8309    14216 
   13406    16402    18209     9142    -3343   -11786   -15384    -9617 
     260      477    -7064   -12006   -14508   -16577   -14208    -6048 
    4129    11508    12485    10172    11016    11877     7363     1350 
   -4040   -10109   -12551    -6753     6868    22089    32541    39202 
   39611    24195    -5755   -33224   -42805   -36441   -26737   -17370 
   -3964     6551     3612     -389     9592    19700    15142     3161 
   -8487   -17762   -19927   -13225    -4171     -219    -1333    -3349 
   -1757     4431     8038     5910     1465    -7771   -18099   -14268 
    3876    18692    24199    27042    22819     5062   -13470   -16411 
   -7165       40      389    -3365   -11794   -23443   -28982   -23167 
  -11004     3237    17093    24971    22811    11800     3551     8006 
   10621    -1277   -12743   -14811   -16384   -15973    -4170    13214 
   21041    16173     7160     5092    13421    17308     8612     1668 
   -2838   -17368   -32259   -31697   -22904   -20667   -19656    -8005 
    4281     5324     3926     7332    11550    13716    11097     2558 
   -5993    -7865    -3183     4518    18784    37768    42996    31980 
   17348    -7305   -40564   -56896   -47266   -27901   -14366    -7042 
    4624    24992    39856    28464    -2101   -20102   -21253   -28436 
  -40291   -35597   -14334     3600     7918    11475    30748    55223 
   59785    42835    22162     2935   -19202   -29666   -13879     3742 
   -3947   -17338    -8013    10781     8372   -12570   -15934     8656 
   15828   -23172   -61940   -49695    -7756    12519     6891     7384 
   13792    -4371   -44631   -69249   -61053   -38131   -15026    13226 
   44304    57093    40749    16798     6695     1973    -5780    -5729 
    5127     8939   -12668   -48439   -57722   -28858    -4429   -12725 
  -28731   -20440     4030     9535    -4724    -6024     6003     8554 
   -1018   -18185   -38684   -51182   -50337   -40344   -22493     4389 
   30354    37132    24057    12451    15016    23114    27079    25744 
   14166    -9036   -26020   -24302   -13161    -2039     5143     4660 
   -8000   -37624   -76339  -104532  -106885   -80032   -33837    16429 
   53329    62473    47123    18784    -9213   -16133    -4642    -6842 
  -30192   -50454   -52422   -34491    -3382    27113    52121    70023 
   68243    36397   -16763   -61277   -71059   -56142   -39779   -22736 
   -6216    -3364    -6903     7441    40948    61016    37077   -14707 
  -44874   -35420   -10390    13771    38475    55214    44297     6339 
  -26932   -37323   -42761   -50185   -37554      271    33366    33465 
   10199    -3753    -4731   -12975   -22494   -19742   -17259   -23920 
  -26562    -9706    21301    37217    27176    16479    14909     6600 
   -1662     8137    22094    20401    11717    10751    17811    22985 
   10582   -24559   -56320   -51952   -21823    -1178    10565    38290 
   75711    94091    86021    63000    34182     7131    -6926    -1706 
    5492   -12161   -45146   -56366   -39635   -24164   -21693    -8589 
   28352    56029    38728      396    -9280    13990    45609    72128 
   79200    52764     -959   -56234   -76809   -56605   -41394   -56001 
  -71296   -74427   -84305   -97619   -82779   -27214    31620    52289 
   51410    65790    90794   100645    86060    53276    14198   -14024 
  -15764     5725    30044    47956    66392    79507    69903    40279 
    9888   -17077   -51294   -87114  -105998  -109978  -106136   -84799 
  -55395   -42554   -34829    -3854    44002    80394   102905   126751 
  134182    97239    34508   -10978   -18660     3339    35230    65947 
   86486    69573     6579   -54253   -69985   -61950   -75747  -118844 
 -151515  -136948   -80464   -10245    53668   102943   127624   118554 
   85210    50682    29093    24244    37717    60887    82339   101896 
  112713   102968    77455    51355    36456    15440   -48479  -133949 
 -163605  -115698   -49107    -4464    34911    72453    71163    28998 
    4558    22246    28522   -18286   -78465   -89756   -46019    35936 
  147467   240805   261824   217919   144122    59865   -26137   -95746 
 -119877   -95836   -58444   -42037   -48331   -47997   -22696     2243 
   -5845   -43935   -85493  -103563   -88950   -55115   -17259    18935 
   52731    71405    61618    45732    54467    85533   113996   113726 
   76599    16851   -52344  -122071  -164058  -159291  -130062   -90012 
  -34944     4302    -7223   -51506   -82148   -70691   -25937    14772 
   28896    37389    60851    71951    46570    17483    11201     8797 
    8851    28190    48354    47868    44956    54470    57796    42408 
   19898     3155    -6246   -12424   -11163     1684    14203    17637 
   14610    -4657   -44991   -72709   -65091   -51807   -52509   -48481 
  -30013    -9443    -3290   -17626   -40774   -57724   -67848   -79779 
  -79790   -35262    40614   101862   146755   184306   191391   161720 
  113923    59500     1243   -55032   -92080   -94940   -64230   -20349 
   10489    38172    69362    59590    -3260   -74922  -128796  -151494 
 -119867   -35802    57050   127037   183842   224913   234240   226274 
  219816   208359   174799   116470    62827    44256    52290    61936 
   65300    76629   111141   149656   148926    94212    11567   -76988 
 -171779  -257565  -290993  -239710  -126247   -17486    59117   126969 
  175992   178309   141334    77215      118   -57336   -73013   -43125 
   34851   145732   243205   291079   290609   248908   166908    56305 
  -64401  -166480  -216785  -221801  -213973  -179380   -93355     3790 
   66734    82463    32797   -74144  -194297  -283219  -318917  -320743 
 -305299  -265312  -206560  -121400     6708   141724   220558   214442 
  140187    36589   -66447  -145134  -176488  -172138  -178016  -206761 
 -219304  -195160  -157308  -126823  -106617   -98251  -115234  -169196 
 -239388  -280710  -260113  -180213   -72046    40358   151225   251984 
  324508   353092   344128   327402   318706   304427   273152   232202 
  199021   180651   155243   107844    64393    47852    47363    47452 
   38217      918   -73570  -156393  -199162  -184828  -141652   -85565 
    5156   129677   255078   359798   431100   461102   447187   387414 
  304978   230924   163878    97205    37344   -14950   -51855   -53762 
  -24892     3088    14623    14484    -6153   -60632  -138027  -207810 
 -246726  -255474  -242960  -206337  -140515   -58847     8730    43401 
   56057    62351    48072    -8115   -94075  -170009  -198976  -178151 
 -125579   -41915    56190   119166   125451    80444   -11563  -124130 
 -222608  -284692  -291979  -247821  -181195  -124189   -89698   -59269 
  -18650    18074    45477    74066    99760   111716   108452    91686 
   73054    69123    77739    87165    93521    89478    63057    24149 
   -2267   -13852   -22788   -32086   -42384   -58523   -86618  -123946 
 -155573  -170097  -165384  -143288  -112046   -77624   -38437    -3677 
   13347    14147     -468   -34864   -80425  -112313  -108285   -73138 
  -27315    24770    88145   149338   178587   157762    89730   -14937 
 -135299  -234503  -289374  -304118  -279851  -220735  -154465  -105760 
  -84789   -89631  -103689  -108762   -89267   -45188    -1568    23457 
   37268    46553    46162    41580    41743    38459    25825     8124 
  -11525   -26383   -37849   -58510   -82925   -96568  -105825  -116977 
 -118635  -104898   -80657   -57781   -52559   -65927   -85855  -101483 
  -97775   -63489    -1904    78676   163000   231810   282351   311211 
  294977   226170   126751    22547   -54785   -80513   -63976   -28599 
    6075    23500    20277      314   -39244   -95499  -149371  -186002 
 -204635  -201071  -164581  -102946   -36220    35843   105467   139405 
  131607   110631    94958    86375   101098   168203   284504   413541 
  530597   622377   664708   634910   517917   307462    31379  -234048 
 -392381  -420415  -407654  -409551  -393787  -368466  -352751  -332348 
 -306646  -245151  -136208   -28057    72220   180021   274691   330636 
  329308   271161   192424   128750    91452    80039    78858    72202 
   65646    69237    71539    44385   -12948   -70762  -113118  -135720 
 -133859  -112160   -76302   -33612      113    14563     6051   -32320 
 -103014  -187528  -247936  -253196  -197776  -104507   -11097    59973 
  109052   144892   171076   178215   160545   130196   106711   105090 
  114884   109970    96925    97374   100446    83089    41392   -12736 
  -66626  -106658  -113595   -83162   -26222    44483   103552   126531 
  110362    67867    31990    35547    58667    58018    40701    38487 
   52422    61832    48699    11398   -34128   -65475   -65226   -28965 
   34131   101628   153532   183321   175884   123049    52540   -16332 
  -91448  -157337  -180411  -153156   -89964   -20298    22923    39276 
   40921    19906   -26828   -84129  -131279  -152378  -147409  -124696 
  -80234    -7383    76568   142829   173442   165807   145331   152285 
  194066   236754   260914   281923   302720   310497   302293   281822 
  262403   256643   263011   270882   264130   238773   203565   163367 
  113847    37989   -61438  -144342  -185434  -194252  -172777  -116104 
  -47070     3367    24249    15490   -17708   -58058   -77779   -56700 
    -324    70211   142217   200497   227800   241739   263481   274252 
  255573   215812   173159   140922   116582    93074    72784    52791 
   15101   -55028  -151776  -256564  -350567  -419084  -463302  -489997 
 -477049  -398795  -272301  -122604    44824   208363   332938   410154 
  452634   461544   435486   394782   362355   337928   307693   266922 
  219071   159575    91747    32554   -20686   -79963  -137434  -184494 
 -229730  -287182  -360802  -437525  -492394  -506175  -475188  -404323 
 -307528  -208748  -122287   -40830    37622    97945   144131   195349 
  246487   281988   305176   322093   319273   283603   221676   143974 
   53151   -54122  -173326  -280982  -364715  -434324  -485937  -511387 
 -526559  -548437  -569153  -569338  -550620  -529211  -502536  -452662 
 -361992  -227435   -80359    37865   115358   151953   141120    94018 
   43269     9849   -14271   -33974   -31831    -1682    41069    76322 
   84415    54838   -12803  -112384  -222475  -307464  -343693  -337638 
 -308147  -264086  -202501  -125029   -55682   -23653   -30458   -55722 
  -80528   -87577   -64201   -13915    49894   117715   189551   258837 
  298453   289689   240362   165935    95174    63448    64746    62158 
   45761    33766    40429    64744    90355    98570    88992    72730 
   50545    21586    -3989   -21212   -35387   -48463   -57628   -56621 
  -31070    22897    80877   125052   165122   203367   224207   217850 
  193501   170180   150390   126125   107551   109556   128360   148676 
  157497   145588   101126    21982   -73550  -165437  -232751  -246285 
 -199173  -119126   -34053    46287   122827   192958   239732   246873 
  209848   138040    63886    19792    14825    43866    86987   119800 
  140956   157569   157532   131851    91718    43474    -7140   -39660 
  -44328   -29659    -5741    16414    30070    39088    48007    58022 
   70298    82279    92912   108043   129495   157106   195195   238038 
  264393   256011   213657   151027    78634     5129   -53883   -89543 
 -108525  -119015  -132016  -158618  -188511  -201942  -198615  -189977 
 -178512  -162694  -144765  -121786   -91452   -67306   -64896   -83566 
 -111589  -134777  -144018  -142956  -141470  -138417  -121705   -87270 
  -45095   -11528      351    -8730   -28336   -50603   -69003   -74556 
  -64730   -44475   -13684    25657    59539    78021    81863    71801 
   48451    17364   -13484   -37299   -47662   -46038   -49022   -68613 
  -99273  -132847  -156882  -153610  -125478   -94154   -71536   -56950 
  -53642   -64923   -82438   -97354  -107889  -105805   -79469   -35341 
    6847    39826    62214    62193    38852     5170   -39969   -98178 
 -149650  -178717  -189900  -186403  -164517  -129930   -96339   -74327 
  -69223   -76921   -84387   -85522   -87255   -92201   -92160   -80295 
  -56187   -26627      -22    21395    39248    56509    71437    76730 
   70646    60124    58408    75806   101882   114896   108164    83975 
   43428    -3960   -46668   -81226  -105686  -116587  -115275  -111087 
 -109741  -105324   -93461   -75284   -49135   -16622    16501    48930 
   77607    95703   102599   104648   109447   120883   139347   164131 
  189901   206731   208138   194203   167519   134241   104032    79819 
   55649    30902    17409    26711    55943    86074    94330    74176 
   38410     4751   -10792     3500    47438   106992   161502   197819 
  218978   234716   247114   247531   227442   190518   148090   109406 
   80751    59378    36102    20033    30318    58113    77360    79037 
   68546    54189    44525    42218    46211    54435    56596    43737 
   23181     2079   -23902   -48323   -54312   -41329   -24162   -14779 
  -13503   -12841    -8247      821    14455    31162    44471    44727 
   29191     3732   -26624   -60387   -94175  -123063  -144653  -158188 
 -162176  -149373  -110953   -56546   -12661     3177    -9812   -40898 
  -70921   -86956   -92773   -94467   -88054   -69336   -42420   -14263 
    8567    18221     8981   -18094   -57119   -97408  -122292  -124396 
 -116220  -112369  -114294  -114457  -107993  -102965  -111477  -132622 
 -158666  -186852  -212862  -227213  -224300  -204742  -168421  -115072 
  -53777     -125    38489    66088    89959   112875   130314   134639 
  123028   103296    85224    67030    43299    15745   -14110   -47516 
  -80977  -109508  -133591  -155301  -175407  -192965  -203338  -201761 
