Origin Time       2016/04/16 01:25:00
Lat.              32.753
Long.             130.762
Depth. (km)       12
Mag.              7.3
Station Code      KMM008
Station Lat.      32.6878
Station Long.     130.6582
Station Height(m) 4
Record Time       2016/04/16 01:25:08
Sampling Freq(Hz) 100Hz
Duration Time(s)  257
Dir.              E-W
Scale Factor      3920(gal)/6182761
Max. Acc. (gal)   771.115
Last Correction   2016/04/16 01:24:53
Memo.             
[...]
   -4087    -4096    -4107    -4096    -4098    -4105    -4086    -4084 
   -4097    -4105    -4105    -4094    -4099    -4111    -4103    -4095 
   -4093    -4093    -4089    -4083    -4093    -4099    -4098    -4105 
   -4108    -4110    -4103    -4098    -4105    -4089    -4078    -4090 
   -4085    -4091    -4100    -4087    -4091    -4098    -4097    -4112 
   -4113    -4087    -4069    -4079    -4099    -4102    -4098    -4103 
   -4099    -4096    -4099    -4102    -4100    -4088    -4076    -4081 
   -4096    -4092    -4084    -4095    -4099    -4093    -4098    -4113 
   -4112    -4101    -4106    -4109    -4103    -4093    -4091    -4097 
   -4083    -4084    -4096    -4078    -4071    -4074    -4091    -4118 
   -4100    -4095    -4120    -4115    -4105    -4102    -4102    -4105 
   -4085    -4083    -4113    -4109    -4073    -4068    -4090    -4094 
   -4091    -4101    -4101    -4091    -4089    -4097    -4109    -4095 
   -4077    -4105    -4123    -4097    -4098    -4111    -4098    -4076 
   -4072    -4094    -4095    -4081    -4096    -4095    -4080    -4093 
   -4113    -4119    -4110    -4097    -4099    -4109    -4093    -4076 
   -4097    -4111    -4090    -4085    -4098    -4095    -4087    -4090 
   -4100    -4106    -4097    -4085    -4079    -4079    -4088    -4093 
   -4105    -4126    -4123    -4115    -4112    -4082    -4059    -4076 
   -4093    -4085    -4086    -4100    -4099    -4086    -4088    -4105 
   -4115    -4104    -4089    -4095    -4093    -4080    -4096    -4106 
   -4107    -4115    -4101    -4087    -4085    -4085    -4094    -4098 
   -4099    -4107    -4108    -4105    -4104    -4099    -4093    -4090 
   -4079    -4067    -4080    -4103    -4106    -4104    -4104    -4095 
   -4089    -4103    -4112    -4104    -4106    -4103    -4079    -4068 
   -4067    -4066    -4080    -4100    -4115    -4114    -4106    -4107 
   -4096    -4091    -4112    -4117    -4096    -4082    -4083    -4087 
   -4090    -4093    -4088    -4090    -4101    -4095    -4105    -4123 
   -4105    -4094    -4097    -4087    -4087    -4100    -4100    -4095 
   -4097    -4101    -4104    -4102    -4091    -4088    -4100    -4102 
   -4101    -4105    -4105    -4095    -4077    -4069    -4081    -4096 
   -4101    -4104    -4104    -4087    -4076    -4089    -4105    -4103 
   -4093    -4098    -4106    -4101    -4103    -4102    -4097    -4097 
   -4093    -4097    -4103    -4106    -4114    -4107    -4092    -4085 
   -4085    -4098    -4103    -4104    -4125    -4116    -4081    -4073 
   -4077    -4082    -4089    -4094    -4101    -4097    -4086    -4092 
   -4101    -4096    -4095    -4102    -4096    -4085    -4078    -4075 
   -4089    -4102    -4104    -4109    -4104    -4088    -4091    -4106 
   -4105    -4103    -4103    -4090    -4091    -4096    -4091    -4110 
   -4119    -4103    -4101    -4089    -4078    -4094    -4089    -4082 
   -4098    -4090    -4077    -4091    -4100    -4100    -4110    -4109 
   -4103    -4094    -4076    -4083    -4095    -4089    -4097    -4104 
   -4094    -4093    -4093    -4101    -4115    -4115    -4114    -4119 
   -4103    -4075    -4067    -4073    -4075    -4096    -4112    -4102 
   -4099    -4092    -4092    -4119    -4115    -4102    -4103    -4079 
   -4072    -4087    -4086    -4089    -4092    -4093    -4108    -4110 
   -4104    -4105    -4103    -4093    -4089    -4095    -4089    -4088 
   -4101    -4109    -4113    -4104    -4088    -4087    -4085    -4084 
   -4094    -4095    -4088    -4085    -4085    -4097    -4108    -4097 
   -4096    -4101    -4089    -4090    -4095    -4093    -4097    -4094 
   -4099    -4107    -4097    -4094    -4098    -4094    -4096    -4099 
   -4096    -4090    -4090    -4096    -4096    -4102    -4111    -4102 
   -4091    -4091    -4093    -4093    -4082    -4080    -4095    -4101 
   -4103    -4101    -4086    -4083    -4093    -4098    -4103    -4101 
   -4099    -4105    -4101    -4098    -4104    -4099    -4093    -4090 
   -4088    -4095    -4105    -4102    -4091    -4090    -4095    -4096 
   -4101    -4107    -4102    -4094    -4095    -4098    -4092    -4091 
   -4093    -4083    -4079    -4081    -4074    -4078    -4091    -4103 
   -4113    -4117    -4118    -4113    -4100    -4096    -4100    -4101 
   -4096    -4091    -4085    -4077    -4078    -4084    -4082    -4089 
   -4106    -4109    -4109    -4111    -4108    -4105    -4097    -4083 
   -4086    -4092    -4086    -4093    -4113    -4113    -4109    -4105 
   -4091    -4088    -4089    -4090    -4102    -4105    -4102    -4099 
   -4090    -4093    -4095    -4084    -4082    -4082    -4083    -4091 
   -4094    -4096    -4107    -4109    -4104    -4099    -4091    -4085 
   -4085    -4092    -4106    -4112    -4102    -4091    -4089    -4093 
   -4093    -4099    -4103    -4090    -4088    -4100    -4099    -4096 
   -4101    -4107    -4104    -4097    -4099    -4096    -4088    -4084 
   -4083    -4088    -4097    -4100    -4103    -4108    -4106    -4098 
   -4094    -4096    -4088    -4084    -4096    -4103    -4099    -4098 
   -4097    -4093    -4090    -4092    -4099    -4102    -4100    -4097 
   -4093    -4092    -4086    -4084    -4093    -4091    -4084    -4088 
   -4087    -4082    -4093    -4101    -4100    -4106    -4107    -4101 
   -4106    -4109    -4108    -4108    -4103    -4102    -4102    -4092 
   -4087    -4086    -4088    -4094    -4093    -4091    -4093    -4088 
   -4097    -4110    -4107    -4103    -4103    -4095    -4088    -4091 
   -4093    -4093    -4095    -4090    -4089    -4101    -4098    -4093 
   -4103    -4099    -4090    -4090    -4086    -4084    -4088    -4093 
   -4098    -4100    -4100    -4102    -4100    -4096    -4097    -4106 
   -4112    -4105    -4098    -4088    -4089    -4101    -4097    -4095 
   -4104    -4097    -4097    -4105    -4097    -4090    -4087    -4078 
   -4090    -4107    -4104    -4099    -4101    -4097    -4094    -4098 
   -4095    -4085    -4085    -4090    -4098    -4103    -4091    -4085 
   -4091    -4090    -4091    -4101    -4108    -4105    -4096    -4095 
   -4100    -4101    -4101    -4103    -4100    -4100    -4103    -4100 
   -4095    -4093    -4094    -4097    -4100    -4097    -4090    -4093 
   -4099    -4098    -4100    -4096    -4084    -4084    -4094    -4098 
   -4102    -4099    -4095    -4097    -4097    -4094    -4093    -4089 
   -4085    -4085    -4092    -4096    -4096    -4094    -4093    -4096 
   -4102    -4107    -4107    -4103    -4099    -4098    -4101    -4098 
   -4089    -4086    -4080    -4079    -4093    -4100    -4101    -4101 
   -4097    -4099    -4098    -4091    -4092    -4093    -4095    -4100 
   -4098    -4095    -4095    -4092    -4097    -4104    -4105    -4107 
   -4107    -4103    -4097    -4095    -4093    -4087    -4085    -4084 
   -4081    -4085    -4095    -4100    -4105    -4104    -4098    -4096 
   -4097    -4097    -4100    -4101    -4097    -4091    -4087    -4088 
   -4091    -4094    -4101    -4109    -4107    -4101    -4099    -4102 
   -4102    -4095    -4094    -4094    -4089    -4088    -4091    -4097 
   -4101    -4096    -4095    -4100    -4098    -4093    -4090    -4091 
   -4098    -4100    -4100    -4095    -4085    -4087    -4096    -4101 
   -4106    -4107    -4101    -4097    -4097    -4099    -4101    -4093 
   -4086    -4090    -4090    -4086    -4090    -4094    -4094    -4099 
   -4101    -4095    -4089    -4088    -4093    -4099    -4101    -4102 
   -4098    -4091    -4094    -4098    -4099    -4102    -4095    -4088 
   -4089    -4094    -4099    -4099    -4094    -4090    -4084    -4087 
   -4090    -4089    -4099    -4115    -4120    -4113    -4099    -4089 
   -4086    -4086    -4089    -4094    -4099    -4098    -4095    -4099 
   -4108    -4116    -4116    -4104    -4089    -4082    -4084    -4087 
   -4088    -4092    -4098    -4102    -4106    -4105    -4098    -4093 
   -4086    -4083    -4086    -4080    -4081    -4096    -4106    -4113 
   -4110    -4092    -4081    -4078    -4079    -4075    -4029    -3947 
   -3874    -3850    -3868    -3859    -3770    -3645    -3617    -3694 
   -3618    -3523    -3711    -3516    -3031    -3270    -3124    -2734 
   -3954    -4278    -2907    -3082    -3441    -3246    -4550    -5347 
   -4374    -3412    -2748    -3161    -5884    -6606    -3756    -2256 
   -1749    -4729    -8821    -4642    -3139    -4759     1490     -996 
  -10744    -6246     4297     3337    -2715     2753     5294    -3431 
     874    12056    17242    13905    -4344    -5047    14669     8600 
   -1338     8983      553    -7199     7172    -2965   -13823     7825 
    7367   -14136   -11342   -13607   -29251   -18629   -13307   -34623 
  -36031   -26495   -32185   -30896   -18268   -16999   -27541   -20860 
  -11026   -26989   -21728     2102   -13223   -24823   -10812   -12314 
  -11810     1245    11002    15259    20973    31319    25656    26928 
   47765    43324    31435    30740    25560    19963      645   -15001 
  -20444   -34793   -27644   -20641   -34392   -34440   -35982   -26384 
   -7138   -14569    -6849     5398    -2252     9525     9284    -8849 
   -8471   -11592   -14903    -8113    -7250    -5340    -4628   -11371 
  -10926    -3435     6378    11139    -1724   -11430   -18608   -33663 
  -21907    -8532   -17632      399    22755    26314    41831    41686 
   31394    31012     7242   -17097   -26969   -37952   -40046   -53588 
  -60449   -35432   -18003    -3787    14342     9756     3279    25908 
   47468    24972    -3181    -7010   -11391      228    14789     4927 
   -1659   -12223   -23593   -10107    -3108   -12684   -20189   -30992 
  -29532   -17418   -29582   -30280     3565    -8189   -53713   -27581 
   31410    22604   -17209   -18086    -2163   -17855   -43460      387 
   53146     2661   -22169    30119    26844    26261    41430     2395 
   17698    50073     3106    -4997    29518    20724    15627    24337 
    8481    24505    88221    69537   -22284   -16715    37895    16891 
   -5495    20301    54173    44498   -20700     7156   105935    58987 
   -5093    51804    54174   -10256   -27841   -21323   -63994  -124418 
  -76503   -38027  -128880  -110081    17993      839   -84215   -71984 
   -4477   -12245   -70994    -6452    55241   -53081   -77347    77175 
  134226    44370    28859   118068   126407    88541   130218    67502 
  -89710   -56782     8898   -55769   -39138     3128     9619    79077 
   29855   -32281    89342    81791    33067   161397   107044   -47487 
   15805    81910    72909    32873   -64538   -50898     -240   -40071 
  -13562   -10640  -106823  -119600  -110111  -150425  -149501  -137559 
 -114251   -63371   -39463   -11871     6345   -33231   -34171    63657 
  162480   161855    61472     3886   113729   200925   115328    86242 
  147203   124449    68473   -15123   -72299   -18669   -75536  -168969 
  -51571    -8574  -108304   -62516     1017   -16066    -5762   -46115 
  -81083   -16411    57427   116117    83073   -51502   -64211    57715 
   89542     6913     9107    89983    46327    18976   122220    60937 
  -13666   208399   279274    22461   -60085    85827   176757   134279 
   18763    -1756    55594    25830   -46385   -79064   -72863   -75035 
 -157387  -185326   -60889    -1684     8146   152117   196239    44799 
    -874    21222   -68077   -73133    26393   -30627  -121354  -102296 
 -222661  -353771  -155928    22682  -124336  -182311    15741    45613 
 -133194   -44229   272286   284134    67856    50011   157385   179155 
  142363    99712    11242  -116599  -148326   -50854    61261    85355 
   20927     5370    69746    88940    92533   161928   185128   151411 
  262385   449008   390921   123973    67014   325478   464364   300039 
  197503   319040   427984   398117   324005   280291   223605    83292 
  -57912   -88579  -131625  -192182  -112327   -87707  -223041  -236394 
 -165525  -190623  -179284  -141915  -221464  -314251  -343882  -416221 
 -519154  -560998  -591050  -620026  -577704  -529562  -525344  -504279 
 -464284  -405630  -331589  -275125  -167895   -13668    39821    12981 
   42119    76658    11663   -66136  -106241  -212800  -328189  -342108 
 -333617  -297305  -180672  -106598   -83282   -27541      617    57063 
  203825   258032   233253   323316   426335   471109   597321   687414 
  564572   436305   490369   515405   364860   264463   315957   340486 
  323089   294056   113024  -117464  -157323  -160134  -330916  -482812 
 -451353  -397547  -438992  -455169  -393543  -348047  -329215  -294506 
 -242573  -198115  -167216   -83276   -18027  -121622  -217924   -81750 
  101712    99155    54061   108181   148831   150921   123948     9094 
  -91737   -74028   -13687     9738    12255    27979    77695   171282 
  225106   206087   274451   432881   506348   550666   658380   732151 
  770538   819063   795098   688801   564154   440593   358301   285309 
  122841   -57914  -117413  -105531  -146568  -208429  -192863  -144853 
 -151787  -184528  -221862  -281520  -321421  -363706  -464409  -540610 
 -541645  -519984  -459294  -347358  -279930  -295347  -288854  -212194 
 -151209  -157619  -190047  -205540  -214965  -272319  -393004  -504062 
 -594307  -709605  -791978  -838452  -912236  -963756  -996431 -1077658 
-1139262 -1116082 -1031182  -837106  -569180  -421981  -358541  -211373 
  -61753    35812   150998   227792   240896   258990   294962   338169 
  361726   365007   440462   614577   755433   786775   799265   864967 
  966641  1047034  1022121   944694   979675  1116264  1207274  1211137 
 1199239  1154640   968610   720890   589383   531814   422572   288270 
  195412   100005   -24730   -90974   -90421  -151305  -295438  -378933 
 -332957  -258186  -254121  -300959  -334081  -362732  -415190  -449257 
 -465213  -516934  -573379  -579553  -555865  -540920  -514651  -450619 
 -407152  -413463  -425248  -453543  -494113  -512937  -556625  -650895 
 -746555  -814794  -852060  -812739  -631944  -387013  -257737  -226216 
 -151281   -54606    38525   172996   282839   319441   322717   304505 
  291585   331685   426997   561897   714540   816329   813892   738514 
  637179   545505   475947   365984   222579   153757   119465    16003 
 -109733  -199594  -247548  -244078  -222998  -221617  -240828  -278782 
 -310282  -292486  -225394  -172913  -177198  -173795  -116206   -64209 
  -41063      513    76012   147841   170578   162569   180317   225519 
  268514   259114   142879    12743    17474    82745    63104    -2426 
  -28685    -4962    14272   -42459  -119787  -130270  -122929  -153034 
 -201460  -254022  -289846  -270839  -213365  -171132  -146527  -106939 
  -40726    48491   143908   216462   248637   250145   260567   311656 
  383266   432685   468573   563391   738801   892386   932698   893318 
  850686   854219   921551  1001321  1024096   960164   789189   572251 
  436619   401642   405400   395343   316182   179186    65779    -8723 
  -82504  -153648  -207950  -232297  -224668  -220316  -225936  -235607 
 -276169  -332051  -370023  -404151  -457689  -525386  -573012  -619172 
 -714467  -807682  -854850  -887803  -885543  -838812  -789506  -743807 
 -698905  -647683  -595225  -582611  -598646  -580261  -498021  -375074 
 -278510  -247287  -226376  -184894  -167204  -157207  -121188   -95660 
  -93033   -91755   -88083   -82591   -79576   -79785   -77283   -75136 
  -79329   -79901   -62292   -46050   -48397   -35009     2087    23721 
   35256    64712   104617   126397    96954    36815    11086    15602 
   12337    23129    60825    81232    73403    80909   102134    98028 
   95038   127778   154090   171174   221580   249647   214984   201219 
  240272   248791   174559    77136    35787    32922     9996   -38986 
  -82219   -98268  -102232  -115747  -141726  -173079  -191022  -183247 
 -159983  -143073  -143917  -143079  -119371   -94917   -96703   -89470 
  -28444    50959    89885   104901   140093   175629   179994   180207 
  201550   234610   266641   280281   274441   263456   235283   185226 
  146224   131783   108584    60286    27364    32651    38673    26988 
   21983    24166    10848     -433    27028    58888    38186     1265 
   11859    62517   123425   198665   287751   339038   324612   295856 
  275664   249621   243453   255822   257362   258101   258824   254453 
  256827   252598   234313   212413   174831   126062   106737   125941 
  130923    66327   -38613   -95731   -90491   -80217   -95294  -136004 
 -181894  -205261  -216814  -235347  -243603  -217494  -163065  -112559 
  -86898   -73904   -55508   -31977   -10097     7236    19204    24967 
   25545    23984    15792    -4412   -30289   -49794   -51572   -39632 
  -38163   -56084   -76316  -100711  -156026  -236947  -292782  -294354 
 -276059  -276528  -287788  -300399  -318413  -326446  -330943  -369873 
 -432955  -483343  -521694  -553807  -577392  -577954  -518916  -407552 
 -305962  -252340  -239391  -237157  -208509  -150025  -107745   -87803 
  -26149    68962   103399    71917    52164    68909   105353   138934 
  142429   129168   132003   156836   196339   234347   264864   308229 
  377495   448543   470768   418009   306288   164230    43054     -666 
   26354    79629   134562   171244   179245   167776   144943   126575 
  124493   120008   103699    99644   119807   152074   190005   223651 
  238161   238890   226766   190092   147456   122900   105674    89688 
   81823    70291    48638    28396    15871    13406    18467    21652 
   21997    33858    73396   128520   167516   189322   217545   249096 
  250232   206480   149781   113083    98576    97951    92881    68421 
   42597    37843    40172    24859     5137     4232    -2104   -45075 
  -92785  -101101   -97097  -120615  -148608  -158624  -161863  -152709 
 -140055  -157725  -181599  -167322  -139924  -133291  -135628  -142288 
 -163982  -178969  -167034  -168824  -200974  -195511  -142183  -127319 
 -166035  -190039  -185572  -191217  -219060  -248196  -258086  -253262 
 -237461  -197087  -142222   -98292   -71929   -57045   -31125    12084 
   27090    -1207   -21333   -16049   -18036   -37779   -56975   -55672 
  -35107   -22899   -30123   -32347   -15788     6687    15325      902 
   -7210    14230    31750    29085    22133     4569    -6630     3396 
   -5803   -20977     3122    24121    13824     9806    11539    -4078 
  -29056   -41418   -26771    -1894     4921    -2634   -11184   -17159 
  -14604   -19761   -48734   -63208   -41144   -23943   -26105   -25110 
  -23403   -29321   -37159   -36700   -14200    18933    33012    35205 
   47175    61007    70569    83575    93724    90034    80878    79641 
   80629    76052    72412    75288    85761    99988   110518   124275 
  147486   165691   180018   210168   247050   274744   298373   304291 
  274240   232470   207058   184111   143998   100715    70518    39476 
   -7119   -57911   -93138  -107978  -117571  -137345  -158425  -166587 
 -171760  -183156  -195155  -210199  -222411  -215836  -203682  -206430 
 -214995  -221967  -231312  -233234  -228126  -227390  -216922  -178562 
 -111437   -32018    19412    32301    44478    55708    41587    33553 
   53037    70343    78557    84181    75111    61532    67176    82240 
   85735    82286    79368    76354    86917   114739   132040   127665 
  122181   121281   110862    82139    36059    -8989   -27175   -19532 
