Origin Time       2016/04/16 01:25:00
Lat.              32.753
Long.             130.762
Depth. (km)       12
Mag.              7.3
Station Code      KMM017
Station Lat.      32.2561
Station Long.     130.9257
Station Height(m) 154
Record Time       2016/04/16 01:25:16
Sampling Freq(Hz) 100Hz
Duration Time(s)  250
Dir.              N-S
Scale Factor      3920(gal)/6182761
Max. Acc. (gal)   102.472
Last Correction   2016/04/16 01:25:16
Memo.             
[...]
    5535     5533     5529     5531     5538     5540     5537     5531 
    5528     5536     5539     5533     5532     5534     5532     5528 
    5532     5538     5539     5538     5533     5528     5533     5538 
    5538     5535     5528     5531     5538     5535     5531     5533 
    5535     5533     5530     5534     5533     5533     5540     5538 
    5531     5530     5532     5537     5536     5532     5532     5535 
    5534     5528     5528     5534     5532     5532     5536     5535 
    5537     5536     5531     5533     5535     5531     5533     5535 
    5535     5536     5532     5526     5527     5534     5538     5535 
    5536     5539     5535     5533     5532     5528     5527     5527 
    5533     5539     5535     5534     5535     5529     5529     5534 
    5536     5533     5532     5535     5532     5533     5539     5531 
    5531     5539     5533     5531     5533     5530     5534     5536 
    5534     5534     5533     5535     5535     5534     5535     5532 
    5537     5538     5532     5535     5536     5527     5529     5536 
    5537     5531     5530     5538     5539     5540     5537     5530 
    5532     5534     5532     5531     5533     5536     5534     5535 
    5539     5538     5538     5538     5532     5531     5532     5530 
    5533     5537     5537     5536     5537     5539     5534     5528 
    5528     5531     5533     5534     5536     5540     5541     5538 
    5533     5528     5531     5531     5527     5530     5539     5539 
    5535     5538     5539     5535     5534     5531     5530     5534 
    5534     5532     5532     5537     5543     5540     5534     5533 
    5533     5530     5526     5527     5528     5533     5543     5545 
    5541     5540     5540     5534     5526     5524     5524     5526 
    5531     5537     5541     5543     5541     5537     5532     5525 
    5527     5530     5531     5535     5539     5540     5540     5537 
    5534     5530     5529     5530     5528     5533     5537     5541 
    5545     5536     5528     5531     5530     5530     5534     5533 
    5532     5529     5531     5538     5538     5537     5533     5528 
    5534     5535     5534     5535     5531     5533     5537     5535 
    5533     5534     5533     5533     5533     5533     5530     5530 
    5533     5535     5539     5539     5534     5534     5534     5530 
    5530     5533     5534     5534     5534     5534     5537     5539 
    5533     5529     5531     5534     5535     5539     5540     5538 
    5535     5531     5529     5531     5531     5530     5535     5539 
    5538     5537     5535     5534     5532     5529     5531     5536 
    5537     5536     5538     5537     5530     5534     5540     5534 
    5529     5530     5531     5534     5534     5537     5539     5533 
    5532     5533     5534     5533     5535     5536     5532     5533 
    5536     5532     5532     5532     5530     5532     5533     5533 
    5534     5536     5538     5537     5539     5533     5523     5530 
    5538     5535     5530     5526     5528     5537     5539     5532 
    5527     5531     5537     5538     5535     5533     5533     5530 
    5532     5538     5536     5531     5532     5534     5534     5534 
    5531     5532     5534     5533     5530     5528     5531     5536 
    5538     5533     5530     5533     5536     5538     5539     5532 
    5528     5528     5527     5532     5536     5534     5535     5538 
    5539     5534     5528     5530     5531     5531     5535     5535 
    5534     5535     5532     5533     5532     5531     5536     5537 
    5533     5531     5528     5530     5532     5530     5528     5522 
    5510     5500     5480     5448     5420     5389     5346     5292 
    5232     5176     5122     5068     5019     4978     4947     4901 
    4839     4834     4942     5109     5247     5368     5486     5480 
    5308     5191     5276     5398     5440     5597     5923     6138 
    6165     6195     6183     6032     6012     6316     6669     6797 
    6728     6457     5950     5522     5469     5499     5390     5580 
    6288     7014     7228     6952     6629     6455     6186     5730 
    5291     5058     5022     4968     4894     5160     5710     5973 
    5908     5844     5466     4174     2218     1180     2255     3925 
    4007     2999     2481     2734     3619     5051     6250     6484 
    6053     5426     4162     1985      147      -61     1807     5778 
    9760    11155    10519     9127     7192     5677     5090     4856 
    4982     5821     6989     7067     5695     5128     6425     7776 
    8374     8840     8139     4940     1680     1100     1416     1756 
    3890     6924     9229    10228     8726     5390     2961     3294 
    5844     8020     9199    10648    10783     7614     2944      171 
     237     1625     4100     7575     9196     7386     4539     2847 
    1476      -29      120     2142     4712     7585     9605     8836 
    6223     4674     4860     5308     6495     9935    12602     9887 
    3959      242    -1144    -2555    -3142     -824     3590     7241 
    9171     9060     5763     1454      322     2464     4002     2757 
    1214     1413     1215      408     2786     7353     8849     9151 
   12906    15729    12576     7754     6223     6881     8541    11949 
   13310     9452     7818    12122    13056     7808     3813     3843 
    6761    11200    13457    11575     6866      223    -7154   -11835 
  -11420    -6585     1811    11043    14996    10586      673    -8326 
  -10174    -6268    -3390    -1509     1590      985    -3591    -3908 
    -201     -916    -3306     2384    11926    15979    15818    12883 
    5616    -1665    -3078      515     4293     7409    10898    12471 
   13225    18440    24086    20141     8528     -694    -3932    -4310 
   -4765    -2070     7027    15373    16599    14150    10832     7224 
    4669     4962    12632    25347    30347    22631    10288      436 
   -6615   -11500   -12290    -7830     -237     5626     4214    -3121 
   -7699    -7017    -6224    -6431    -4539      215     4009     1920 
   -3518    -6725    -8421    -6126     5639    21255    30518    29790 
   21967    12502     2964    -4644    -5779    -3342    -1245     2971 
    6754     3164    -6941   -13787    -9552     -692     1096    -1220 
    2213     8229    10574    14248    18319    13108     1426    -7920 
  -10936    -3913     9291    17235    14939     7635     2129    -3423 
  -13154   -19716   -11363     9641    25573    25352    18824    17224 
   17125    16391    22807    38308    51908    51303    33822     6749 
  -19632   -39435   -48586   -39976   -14855    10690    23515    23306 
   11417    -9489   -27089   -31025   -25842   -16767     1808    25349 
   34730    28897    22261    13368    -5024   -24811   -31121   -19465 
   -2732     5163     6599     6451       95   -12133   -18371   -12531 
   -2165     7287    19482    30846    26451     5860   -10489   -12136 
   -5851     5504    23216    44045    58884    57413    42579    21945 
   -6044   -32485   -38855   -24731    -3910    15747    31041    37600 
   34013    22284    11178    13620    22964    18384     2370    -5546 
   -1972     5962    15754    24947    31979    34553    23459    -5310 
  -39815   -63170   -68863   -60323   -39364    -6713    28317    50887 
   52486    35490     9778   -14050   -29553   -33203   -25260   -11293 
     712     6077     8675    10409     6263     -681    -3219     -783 
    6317    16067    27206    45668    68316    76745    65541    48782 
   32105    11663    -7264   -18280   -22009   -18172    -7816     1284 
     695    -4822     -340    14571    23557    16362     2239    -5005 
  -11872   -26365   -29983   -10658    11835    22144    25985    30735 
   41211    53480    51713    30862     2605   -20166   -29578   -29011 
  -28597   -25382    -7383    17536    24299    10891      945     5226 
   12283    14069    19314    30181    34007    29469    22262     9026 
   -8477   -18594   -16537   -11744   -12644   -10653     5104    21251 
   17259     3304     3769    19497    35965    45426    45448    36402 
   22746     6475    -6053    -4950     1000    -1203    -6624   -14394 
  -31847   -49876   -51031   -38221   -31355   -29057    -7722    25011 
   37571    32443    30357    28730    17906     4781    -2015    -6264 
  -11546   -18483   -27162   -30675   -25601   -15719    -2955     9884 
   21939    32433    33976    25272    14896     9939    11681    16120 
   20545    24838    26416    22937    13431     2268    -1513     1637 
    4343     2224    -6316   -16963   -22536   -22087   -20172   -18643 
  -15354   -10054     -921    12133    18607    12880      181   -14897 
  -23842   -18921    -7130     1021     5575     7831     5590     3624 
    7425    11631    10497     4644    -2801    -4084     6736    23679 
   35230    35545    26845    14559     2861    -3561    -1045     6674 
   14338    20594    20373    11460     2229    -2880    -5727    -4448 
    2611    13432    24219    30183    27994    19743    15367    18290 
   16742     9506     9583    15526    13388    -3463   -26410   -37356 
  -32618   -24272   -11778     8536    23474    30908    41576    47949 
   41211    31588    29575    32218    28514    16438     8182     7217 
    2670    -6974   -13211   -13135    -8599    -3928    -1834     2224 
   10620    18068    20673    19339    16303    14297    13320     7854 
   -4402   -15809   -19843   -20696   -22695   -21571   -13555    -2049 
    7742    13858    14996    11604     9965    13997    20563    28296 
   40148    55428    65456    60947    43566    22523     2250   -13684 
  -21896   -24861   -20215    -6103     7536    15220    19753    19739 
   12651     2011    -7913   -20872   -40188   -58129   -67625   -68130 
  -54757   -24177    12752    41456    54043    47033    26631     5075 
  -12990   -24066   -23141   -15910    -8782     1343    12322    17343 
   18556    19078    15454     8177     3362     2602     2934     2092 
    -621    -2382       18     4614    10833    22771    38188    47351 
   46236    37883    24387     8470    -6045   -16650   -20401   -17882 
  -13881    -9838    -6102    -5727    -8095   -10245   -10926    -5513 
    4414     4272    -9441   -23443   -28825   -24875   -15181    -3733 
    6991    12900    16503    23090    25170    14918      938    -4965 
   -3474      918    10236    25892    40985    46178    40012    28576 
   17733    10663     9809    14897    19791    19996    18958    17009 
    9553      358    -3140     -335     6245    12203    13629    14700 
   17296    12229      137    -6372    -6583    -5220      316     8621 
   11419     5912    -1697    -8293   -16825   -25838   -29950   -26773 
  -18394    -6122    10851    26954    35206    35936    29113    13917 
   -3899   -15778   -17795   -11692     -325    13386    22988    21381 
   10178      794     -499     1861     5597    10703    13855    16899 
   23593    27748    24834    21333    19566    14632     5054    -9155 
  -26455   -38919   -39774   -30631   -15023     4439    20029    24712 
   21577    16539    10822     5852     5249    10282    18779    26658 
   30306    29269    26181    25642    24685    11683    -7417   -10703 
     -35     1876    -4067     3026    19758    26655    25747    29769 
   38228    48893    62475    66707    54876    41323    29335    10478 
   -6532   -10861    -6763     -445     2727    -2468   -13583   -24025 
  -29780   -32101   -34106   -31283   -20489   -12198   -13170   -15241 
   -9865     6142    28137    40982    39622    36170    36732    36916 
   34254    30717    29073    28015    23430    14855     6626     1960 
    -960    -3129    -2135     3665    14513    25859    28541    21139 
   12697     7042        7    -6181    -9306   -14626   -18472   -14101 
   -9180   -10589   -11631    -6311     3787    16365    24054    16677 
   -2405   -24110   -46988   -66618   -75161   -74228   -69407   -59547 
  -44092   -27591    -9442    10667    23732    28894    35739    43968 
   48380    50435    50254    45750    39153    30804    18637     8850 
    6864     5768     2199     1932     3227    -1219   -11794   -23924 
  -31264   -28714   -19315   -10959   -11411   -26067   -48619   -66021 
  -74417   -73452   -57222   -27180     3880    28609    43126    40538 
   24619     2472   -26342   -50806   -55028   -44043   -29784   -14138 
   -2603    -5989   -22184   -38000   -45819   -45695   -41513   -34961 
  -22060    -4402    10365    18870    22364    26686    35166    42895 
   46141    42965    31219    16238     8145    12199    29164    55996 
   83030   102199   110374   102753    82431    62028    44441    27831 
   22594    35458    53942    64022    60100    38612     5350   -24121 
  -41495   -47744   -41618   -21219     6207    27865    37917    39982 
   40993    46173    55478    63208    62339    47498    17401   -19485 
  -47952   -59738   -54984   -34899    -8745     6624     5820    -5008 
  -21577   -39182   -52094   -57489   -49643   -26040     1952    22418 
   33721    34044    18904    -4036   -17985   -18589   -10114     6632 
   26678    43914    58861    69203    66888    49407    26670    13807 
   16661    28578    41921    55301    67611    77063    83588    83663 
   77381    71302    64995    56583    51346    51529    51690    48381 
   46955    49510    48091    39330    26547     8534   -18490   -52403 
  -86221  -116616  -142560  -156095  -145865  -108654   -55611    -7175 
   28528    57938    73399    61532    30098    -8383   -44638   -66286 
  -71074   -63401   -47078   -31998   -24843   -20859   -13809    -2439 
   12718    30152    46188    57680    61676    53546    33928    12824 
    1245     7015    32671    68022    96578   110016   108685    95027 
   72748    48597    28014    10504    -5299   -17223   -24575   -28954 
  -29141   -23849   -15704    -7826       11     8194    12649    11413 
    7623      189   -13294   -28225   -38776   -44298   -46494   -41920 
  -22669    10192    41677    56506    52354    36507    16334    -2064 
  -12990   -14196   -10070    -7051    -5086    -4493   -12761   -26785 
  -30627   -23389   -18056   -14714    -4537    10753    23255    31562 
   39591    49902    60031    64625    63192    59457    52862    41951 
   31610    23888    11923    -7218   -27581   -43573   -55098   -64117 
  -66565   -57281   -40632   -22468    -5191     8845    23154    39367 
   47453    42691    30995    15709     2383     -201     5710    10579 
   11371     8516      -31   -11787   -21382   -31036   -41311   -46021 
  -45904   -43748   -36141   -24815   -16350   -11024    -6597    -4754 
   -7307   -14207   -23781   -31590   -35314   -35684   -30877   -21397 
  -12183    -3168     7592    14628    12655     7140     6309     9373 
   13281    20087    29405    37972    46587    53807    53488    45437 
   33361    19818    11691    12868    16226    18086    26201    44848 
   67147    83823    88743    79799    59442    35095    18310    14697 
   18156    21872    25638    31109    36666    38776    37701    36403 
   35930    36300    36294    32391    21739     5609   -10386   -20474 
  -22337   -16446    -6697     -513    -2203    -9259   -18464   -28694 
  -34781   -29598   -15223     -733     8659    11307     5000    -8181 
  -19503   -23850   -22725   -15114    -1010    11516    17796    21032 
   20637    15969    12167    11643    14612    21687    31270    42206 
   52411    57900    57771    54421    50404    45780    37489    20838 
   -5790   -34008   -51874   -55670   -46635   -28110    -9684    -2584 
   -9504   -22959   -33314   -34629   -26737   -14476    -1131    11208 
   17698    13977    -1960   -27357   -54314   -75782   -86580   -84273 
  -73437   -59568   -42174   -21783    -4101     5367     3080   -10027 
  -25667   -36015   -39161   -34812   -23951   -10276     2024     8944 
    7139    -4869   -26385   -52144   -71869   -78683   -74205   -60528 
  -38163   -11736    14172    36299    48057    44451    27100      973 
  -28273   -52550   -64381   -62774   -49171   -23413    10446    41278 
   59924    64524    54324    32434     8832    -8918   -16280   -10032 
    8354    35173    65032    89537   100748    95436    74221    39535 
    1371   -26701   -41435   -42066   -23116     9552    39695    58329 
   63692    54276    31622     6741    -6564    -4921     9110    32190 
   55092    68961    71383    61212    39944    13738   -11834   -32346 
  -44004   -46181   -40245   -28206   -13989    -2637     3311     4789 
    4334     5507     8766     8718     1664    -9995   -22337   -33179 
  -40240   -39178   -28703   -13426     2502    16405    21975    13987 
   -1492   -11789   -10544     1231    18142    31465    36767    37345 
   36291    35226    39129    50317    63179    72018    74058    63020 
   35161      600   -26372   -42482   -51246   -53855   -52105   -49781 
  -47655   -47336   -52980   -61708   -66401   -65411   -56246   -34013 
   -3751    22089    36510    37891    25400     1216   -29188   -60814 
  -89150  -109605  -118663  -113475   -91544   -54321   -12499    21708 
   47410    67094    78763    84597    88057    87562    83744    79025 
   72019    61872    50058    35840    18183      685   -10499   -13256 
  -12871   -13200    -8072     7812    28172    43653    51954    54456 
   51333    44381    35610    24996    13511     1585    -9707   -17231 
  -20923   -21992   -21530   -22792   -27225   -33219   -36762   -32738 
  -22617   -13399    -8516    -7922    -9545    -9347    -5400     1387 
    7744    10454    10774     9245     3190    -5674   -12969   -18104 
  -19824   -13134     3690    26739    51308    73716    91512   103796 
  110619   112471   109716   103266    94398    84030    74357    66813 
   59701    52611    48540    50681    58908    68532    73844    71447 
   61423    46897    30383    14336     1511    -9712   -22182   -35098 
  -45651   -49645   -45520   -37928   -30941   -24095   -18187   -15237 
  -11965    -4645     3824    10738    15233    12307       18   -14665 
  -24830   -28729   -28373   -29306   -35197   -43506   -49946   -50981 
  -42585   -23409      106    17980    26601    26996    20814    14569 
   16323    26862    38857    43811    38860    23828      406   -22918 
  -39427   -49338   -50620   -41409   -24761    -3974    17041    34957 
   50060    61794    67742    66778    58485    44529    29858    17394 
    6523    -2486    -8621   -12397   -15016   -16559   -15819   -13060 
  -11391   -11866   -10717    -5146     2970     9440    11194     8290 
    1447    -8817   -18297   -21393   -17510    -8807     3924    18332 
   29446    33729    31786    26353    19805    16529    20944    31160 
   42284    51582    56420    54777    48672    43196    42458    46360 
   51190    54081    54238    49647    38433    23279    10568     4931 
    4727     5642     6958     8652     8765     7830     9662    16890 
   27050    36707    47568    59479    67785    72288    73435    67263 
   53445    36808    21069     7304    -3117    -7015    -2885     6569 
   16224    21941    22230    16211     6487      169    -1430    -3432 
   -8641   -16693   -24911   -30323   -32205   -30242   -24689   -17324 
  -10741    -8307   -12401   -21874   -32702   -42921   -53847   -63402 
