Origin Time       2016/04/16 01:25:00
Lat.              32.753
Long.             130.762
Depth. (km)       12
Mag.              7.3
Station Code      KMM014
Station Lat.      32.3961
Station Long.     130.8268
Station Height(m) 300
Record Time       2016/04/16 01:25:13
Sampling Freq(Hz) 100Hz
Duration Time(s)  255
Dir.              E-W
Scale Factor      3920(gal)/6182761
Max. Acc. (gal)   117.618
Last Correction   2016/04/16 01:25:13
Memo.             
[...]
      11       -4        7        8      -10        3        9        1 
      11        5       -1       14        9       -6       -1        8 
      17       11      -11      -13       17       19      -14       -4 
      16        0       19       28      -12      -10        9       -2 
      -3       10       18        4      -12        9       29       12 
      -7      -10       -3       11        8       -4       11       23 
       3      -11       -7       -1       15       25       15       -6 
     -10       10       12       -2        8       16        4        0 
      12       10       -4       11       17      -15      -20       -2 
      18       32       10        0       19        3      -20      -12 
      11       25        1       -4       17        3       -7        5 
       9       17        8      -11        0       15        2       -5 
       5       13       18       10      -10      -13        6       28 
      20      -11      -10       15        5       -9        8       15 
       9        8        5       10        6      -17      -11       16 
      21       15        0      -20       -4       26       19        1 
      -2       -2       12       15      -11      -14        4       14 
      20       14        3       -5       -1       10        1        4 
      14        2        3        0        7       24       -2      -17 
       4       15       15        4       -1        4       -6      -11 
       5       18       22       21       -2      -22       -8       10 
      12       13       10        5        4       -1       -3        9 
      19       11        3       11       -3      -27       -5       20 
      13       13       20        6      -20       -9       19        3 
      -7       17       14       14       22       -8      -14       10 
       1       -3       10        5        9       14       -8       -9 
      15        0       -4       33       28       -2      -12      -21 
      -8       15       14       15       19        4      -12       -9 
      12       28       15       -8      -11       -4       11       17 
       1        5       18        5       -2       10       16       14 
     -13      -35       -1       28       18       13        9       -4 
      -3        5        6        0        2       20       24       -7 
     -31       -8       20       15        6        1       -2        6 
      16       17       -2       -7       17       11      -11       -3 
      16       16        2      -11      -18        1       39       23 
     -12        4        0      -22        7       35       24        1 
      -4       -1      -17       -1       28        7        4       17 
     -10      -12       15        6       -6        9       17       14 
       3       -6        3        3       -3       -3        6       18 
       3       -5       12        9        7       17       10       -3 
      -5       -3       -4       -3        6       23       32       14 
     -23      -22       23       26       -7        6        6      -17 
       2       14       13       23        4       -7        2        4 
       6        1        2       18       12       -2        4        5 
      -9       -7        8        3       14       30        1      -10 
      13       -2      -15        7       13        8        5       -6 
       6       23        8       -4        2        8       14        4 
     -20       -9       13        5       17       23       -5       -2 
       3       -6       16       15      -12        1       17       11 
       3      -12       -6       27       25       -3       -7       -3 
      -2        5        8       12       18        7        3        8 
      -6       -7        3       -7        1       26       19        6 
       2      -11       -2       17       10        8        2      -17 
      -6       11       23       29      -11      -17       15        2 
       3       12       -2        1       -2        8       28        4 
      -5       10       -1       -7       -8        0       29       24 
      -3       -5        2        9        7        0        8        2 
      -6       14        9       -7       11       10       -2        6 
       9        7        3        2        3       -1       13       23 
       8        1       -2       -4        2        5       11       13 
       1       -6        5       14        4        4        5        0 
      14       13      -12      -11        3       16       19        7 
       4        6       -7      -10       20       25       -7       -7 
       7        0       -3        0       20       25       -4       -8 
       6        6        7        8        4        7        6        1 
       6        8        0       -6        9       27       10      -14 
      -6       11       12        5        3       -2        3        2 
     -20      -20      -24      -48      -54      -78     -101      -95 
    -126     -152     -135     -137     -155     -164     -151     -116 
     -91      -32      104      234      327      435      383       52 
     -80      243      553      772      891      332     -540     -892 
    -669      620     2432     2465      940     -651    -2883    -4484 
   -3132     -349     2456     4849     3236    -2314    -6406    -6750 
   -2266     5537     9249     6123    -1029    -9188   -10510     -784 
    9689    11967     8181    -1643   -12922   -11279     -183     5660 
    9331    11454     2931    -8593   -10904    -6978    -1727     3699 
    4123    -2029    -5571    -2191      286     -156     2691     4173 
   -2004    -4447     1126     2472      956     1134    -2882    -4895 
    1883     7658     6922     3054    -1614    -3095     -877      375 
     133     -719    -2087    -1700      159      823     -524    -1794 
    -518      495    -1023    -2787    -4991    -3974     4156     9807 
    8160     4258    -1825    -4383      -34     1838      617      352 
    -634      566     4107     3933       84    -5132   -10162    -7146 
    5151    13793    11637     1250   -10544   -11499    -2060     4094 
    5098     2936    -8034   -20175   -15692     2363    14682    14544 
    7040    -3591    -9451    -6419    -1993     3034    10773    11770 
    3713    -6828   -15702   -13184     1058    12274    17660    16928 
    1757   -15380   -15403    -7909    -2614     7277    12350      459 
  -12902   -13096    -6853     4602    23288    27863     6321   -18468 
  -30230   -28230   -11195    10766    24861    26643    13863    -4996 
  -15733   -14566    -4995     4735     7998    10913    17039    13818 
   -4567   -24981   -32133   -19519     4498    22311    25465    16307 
    2513    -3504     3520     6980    -8274   -22432   -20812   -19329 
   -9850    19257    32416    12916    -4683    -7703    -8442     -673 
    7691    -2723   -19674   -28205   -20324     8877    32428    32606 
   27411    16572    -9155   -26583   -21684   -12410     -454    20559 
   32222    19877   -10849   -37754   -32951    -2644    19349    21867 
   11523   -11008   -27852   -16715     4232    12226    10246     -319 
  -11942   -16133   -13339     6676    32227    34546    19310    -3351 
  -26107   -27173    -8663    13258    30259    23532    -8519   -28712 
  -15955     9818    26346    20107     -795    -9024    -8768    -9054 
   -3961   -11444   -15103    17831    34421     1286   -24661   -28737 
  -31263   -11889    20694    30033    15706    -9136   -25919   -19807 
   -2804     9031     9247     5234     5968     4166     4817     9906 
    1789    -1894    14127    12620    -7436    -2880    15618    15801 
    5895    -8596   -23821   -20123     1911    27984    36586    13028 
  -19502   -33647   -20788    10397    30039    16472   -18831   -44112 
  -40617   -14418    12648    19958     6579   -12410    -9880    15745 
   28378    24298    16541     -183   -10966    -9296    -9557    -2699 
   16339    24548    12880    -2536   -11246   -12012    -2069    11434 
    8739   -12300   -29605   -35780   -31811    -8565    12806     9354 
    7235    14213     8301     3781     7657      105    -8454   -16101 
  -32458   -26524     5617    30190    40768    29913    -1547   -22592 
  -20954     6282    39896    19198   -45574   -71940   -39769    16412 
   63642    58376    -6915   -54316   -25184    29385    39967     3415 
  -38664   -43788    -9707    23557    28839    22870    21611    24906 
   36070    31264   -11780   -53624   -48994   -14894     1866    -5697 
  -11101    -7288    -4445   -12402   -25571   -21369    -4148     5779 
   15875    33186    31755    -2221   -34246   -43569   -24858    28435 
   65987    56608    30062    -4488   -28507   -17227    -1575    -9926 
  -18066   -17856   -24570   -13290    14099    13009     2436     7595 
    1527    -1614    21458    26838     -476   -22747   -42226   -64440 
  -51559     9849    74919    83971    21248   -45404   -43668    -7422 
   19138    38503    18499   -28283   -33112     6687    50712    57142 
    8149   -55217   -71410   -28933    13221    26010    40139    48849 
   22319   -24342   -45210   -35493   -26214    -4042    28294    16033 
  -20872   -11019    25918    30748    14093    -1096   -11867    -6379 
   -6561   -23813   -20202    -6683   -14094    -2981    41792    58104 
   39103    21980   -16440   -65651   -69651   -35923     5392    41763 
   54124    37175    15301     -235   -18287   -20348    -1932     8333 
   10355    18565    25392     1456   -46211   -58634   -41504   -28985 
   17099    75082    62273    11533   -19960   -44087   -36641    10045 
   36924    26098     2762   -23435   -46084   -43260    -9784    17205 
   16319    13075    15403     8843    -6165   -31513   -38315     3487 
   33046    15960    11453    20436    -3434   -30262   -16044    10409 
   17882    20038     8676   -24029   -28428     7848    28207    17092 
   -6140   -32774   -26595     5158    -1662   -19791    -9056    -7142 
    5162    48218    48119    -5934   -31217   -19691   -21748   -17778 
   21210    50458    38595    10441   -13599   -11337    24867    46635 
   35079    24827     9883   -27159   -46598   -24122     6087    30668 
   48435    29615   -12913   -41357   -53907   -37864     3021    15688 
   -9482   -30198   -29646   -13555    16562    40014    26304    -3993 
   -6481    12202    18179     5217    -8786    -7187    12954    29486 
   23358     8668    -7043   -14661     4887    23592    14524     5668 
   15776    22935     3834   -27121   -32270   -21287   -36675   -51456 
  -18348    18575     -631   -50661   -72972   -62151   -30336    33603 
   84250    59498     6196    -8831     4713    23916    30109    10717 
  -18123   -39033   -32849     5814    28763    -9314   -71610   -79073 
  -21544    52348   103035    76836   -31882  -117633  -111048   -42344 
   45381    83209    17262   -80071   -95067   -15650    71519    87402 
   47326    10682    18218    65086    84043    50365     8717   -19497 
  -14583    24732    34119     5705    13019    38441    13988   -13739 
   -6857   -19706   -45864   -42160   -30341   -40541   -74280  -106330 
  -96415   -34790    41379    70556    38906     6269     3132     7215 
   31849    75453    68509    12030   -25243   -45262   -51918   -11752 
   42881    50507    21292     9271    22513    30205    24588     4910 
  -22143   -35771   -42207   -43374   -33452   -35137   -41149   -11995 
   37913    59140    61271    74146    76597    61899    40524     6194 
  -12965    -4231    -4853    -7006    22739    59354    67671    51842 
   12340   -47246   -95066  -115619  -107683   -64910    -8471    24020 
   31233    46973    73118    80182    65166    27439   -36220   -98302 
 -130218  -126266   -84358     2069    85798    79396    24802    32928 
   38056   -38282   -67720    -1049    23391   -15411   -43615   -58285 
  -55009   -21285    13167    11621   -12447   -32630   -55213   -45021 
   11757    36717    19429    22394    47750    71212    74554    58316 
   65429    95425    90696    37375   -20263   -51489   -63941   -59602 
  -37783    -7744    23307    26629     -947   -10003    -6972   -32458 
  -53456   -45455   -38797   -20674    25323    59406    80365   108652 
   93747    27507    -5671     2589   -11930   -47670   -75297  -108148 
 -144789  -130088   -44908    32385    43999    37881    48115    34101 
    1660    15217    53104    38150    -3350    -2687    39501    88893 
   98409    65081    46624    38378     4263   -26491   -41150   -71319 
 -108949   -95301     8293   115299    91875   -17622   -82199   -88673 
  -83294   -84829   -70936   -31035     6292    42363    66772    29925 
  -31413   -22367    17160   -14363   -72086   -89882   -94842   -77518 
   -7823    77962   122842   116183    95448    74985    24882   -54782 
 -111100  -112183   -76337   -28389    -4669   -13180    12806    81778 
  116171   103769    88747    62066   -19720  -116772  -148359  -118726 
  -24588   115975   160700    71959   -25453   -46307     3685    60625 
  101347   116145    55602   -20537   -44951   -58060   -57256   -24168 
   28034    85415   114244    88968    -2545  -111117  -142198  -108926 
  -66001    -2832    44831    23588   -14364    -4192    31634    23063 
  -45465   -82392   -48469    -7994    33379    65054    34241   -25600 
  -71455   -97683   -69125    13856    78872    70037    -1472   -96854 
 -154775  -109589      520    87630   135263   134093    92335    62944 
   32224   -33427  -101231  -130411  -103366   -47420   -16025     5075 
   81125   185517   184706    49120   -91908  -158941  -155824   -88099 
  -16115    -2781   -14064     1941    50814    82757    52186    13652 
    3677    -1599     -825   -20915   -51943   -32492     8242    22549 
   20524     5250   -18593   -28439   -17801     3581    24535    39478 
   57667    79757    82560    44442   -21680   -62418   -55423   -30724 
    -310    35478    55522    44639    21128    11589    18262    36249 
   43381     2499   -71464  -102689   -43471    59491   128181   118583 
   45594    13803    44584    10690   -67370   -89826  -110048  -108338 
  -15728    70985    76535    32912    -2166    24746    64432    49239 
   28235    16421   -31521   -67122   -62180   -71687   -78714   -51365 
  -36307   -56827   -67713   -33635    24590    57268    38298     3834 
   10558    51003    62383    19373   -39978   -80105   -79994   -24917 
   45773    57875   -10152   -85084   -91661   -62232   -30453    25245 
   67316    56787    14903   -38234   -59187   -39106   -37696   -38922 
  -11687     3760    24048    55885    33739   -12072   -21203   -26473 
  -11974    57528    91334    45829    12131    16147    19510    20480 
   12282     -586    14376    59486   100456    88925      100   -99618 
 -110485   -66659   -59209   -61921   -62110   -89810   -62468    55582 
  151489   160158    99166     6414   -60425   -66193   -29292     4317 
   11293   -14247   -61162   -72992   -29889    21926    58611    65869 
   20827   -32305   -22791    31569    77457    91396    40033   -51638 
  -79217   -38788    -7604    25714    56823    30919    -2512     1115 
    8565    27534    43597    10996   -37592   -55255   -48955   -30970 
   -7752    -5277   -23109   -15725    12654    27333    52674    83563 
   62804     7887   -39077   -95172  -149726  -149330   -79134    12618 
   53155    17080   -49964   -56312    31878   105201    87442    24694 
  -59996  -128871  -117617   -48601    25556    63933    37633   -15512 
  -38083   -25709     5457    49930    70076    32573   -12746   -24526 
  -25312    -9515    29877    49321    36113     8132   -38999   -66980 
  -27568    38156    93362   135973   120716    41336   -41606   -84663 
  -67925    -9402    39833    49185    22538     4933    23212    11288 
  -60736   -92796   -49768   -20806   -19668     4550    34074    35693 
   31162    53326    72583    43037    -5961   -30247   -30784   -22822 
  -12039     8603    21829    -5314   -44690   -46682   -33884   -33728 
  -13538    34180    62461    54939    48853    48691     6700   -75678 
 -130725  -115297   -58334   -24273   -22245      747    48226    66389 
   41794     7336    -5315     9757    20071   -16410   -90207  -132711 
  -98607   -22707    33813    60408    82433    93744    73831    45331 
   25940   -23905  -100499  -130512  -117348  -111768   -92337   -36926 
   28451    74039    75829    30935   -25800   -44286    -8296    49312 
   79939    61300    16805   -24493   -45889   -35986   -20846   -24045 
  -11943    36014    87996   109233    68901   -20755   -76877   -63713 
  -29959    -4809     9668    -5537   -33153    -8889    70567   129977 
  116312    40177   -53754  -105265   -79038   -26235   -11901   -17581 
  -21990   -35559   -27010    26220    72800    72092    63730    82543 
   94264    67377    12792   -39423   -55984   -31106     4190    15919 
      79   -29700   -60479   -67576   -36784    14683    54774    49382 
    1495   -44179   -65642   -66721   -42231      394    21270    -5956 
  -31962     -762    38416    16944   -45296   -89459   -69489     6886 
   62721    46816   -20540   -91236  -114547   -86165   -41119     7203 
   39499    47673    67773    89745    69021    25809    -5453   -23320 
  -13044    26598    56239    52388    23783   -12364   -43011   -65010 
  -69290   -50578   -23755     1357    21414    37978    62527    86404 
   92959    84068    55354     4253   -40437   -50479   -32224    -2288 
   27016    28870   -12748   -60268   -67226   -35803    12506    56266 
   72201    71289    74123    64993    39751     9411   -36033   -71948 
  -60328   -29109    -2983    28222    34134    -3977   -32333   -26776 
  -21004   -10489    31116    74162    62017    -5091   -70785   -97853 
  -80855   -31947    13702    39886    47383    33904    23842    16089 
  -16735   -37760   -12401    28058    57283    62501    33975   -13172 
  -54664   -69778   -62650   -61676   -61082   -36844   -10869    -3788 
   14656    50701    63459    37612    -6261   -34202   -21939    12414 
   31695    16191   -23649   -44967   -21673    26117    74997   102709 
   88467    50475     -240   -68698  -103616   -72364   -21636    14696 
   16494   -25741   -41066    18107    76596    70947    24032   -35049 
  -74728   -59496   -10780    41008    78795    45957   -47158   -95514 
  -61707    11666    69962    77866    63420    57767    43438     3833 
  -57238  -105536  -101806   -49217    23115    64531    32539   -33700 
  -56923   -17925    50957    91715    54152   -26485   -67150   -54032 
  -22262    27941    97115   132359    95675    32771    12144    30030 
   26528   -18614   -61562   -60142   -24514    -3932    -8666     8356 
   33684    19687     6322    10330   -21390   -70827   -87333   -78583 
  -53576   -18906    -4204      261    33364    80011    87471    48652 
    2066   -33217   -48062   -29276     2491    16157     1108   -29647 
  -41093   -25750     3502    44818    59709    14471   -43217   -55004 
  -21119    22059    41560    35384    14320   -15477   -25402     2898 
   24870    14481    15784    35194    33688    15252   -13893   -62842 
  -97583   -84979   -41511     7773    50202    65405    39729     2940 
   -4937     9025    19111    21053    10410   -17976   -38458   -25601 
   -1620     2879   -10690   -35472   -61913   -60502   -15953    47595 
   93893   102030    80396    52635    26817     7668     5311     7841 
