Origin Time       2016/04/16 01:25:00
Lat.              32.753
Long.             130.762
Depth. (km)       12
Mag.              7.3
Station Code      KMM010
Station Lat.      32.6136
Station Long.     130.4874
Station Height(m) 2
Record Time       2016/04/16 01:25:11
Sampling Freq(Hz) 100Hz
Duration Time(s)  235
Dir.              E-W
Scale Factor      3920(gal)/6182761
Max. Acc. (gal)   106.514
Last Correction   2016/04/16 01:25:11
Memo.             
[...]
    8887     8899     8916     8904     8877     8883     8908     8904 
    8900     8907     8898     8896     8891     8889     8915     8908 
    8877     8896     8910     8887     8890     8913     8912     8883 
    8866     8894     8920     8901     8896     8908     8888     8876 
    8894     8910     8909     8887     8888     8908     8893     8882 
    8898     8912     8903     8883     8895     8906     8887     8892 
    8913     8903     8888     8895     8898     8891     8897     8900 
    8895     8898     8894     8892     8905     8907     8895     8890 
    8887     8890     8908     8908     8894     8898     8896     8887 
    8893     8906     8907     8889     8890     8907     8894     8884 
    8903     8911     8890     8884     8908     8906     8893     8901 
    8901     8895     8889     8890     8910     8903     8881     8901 
    8912     8888     8889     8907     8902     8884     8887     8916 
    8909     8879     8897     8908     8884     8890     8907     8900 
    8891     8891     8900     8904     8897     8891     8891     8897 
    8893     8887     8905     8910     8893     8900     8906     8886 
    8880     8901     8917     8904     8886     8892     8903     8899 
    8892     8895     8906     8900     8879     8895     8921     8905 
    8891     8905     8897     8878     8891     8913     8902     8882 
    8893     8905     8894     8897     8905     8899     8896     8890 
    8892     8905     8906     8892     8891     8904     8900     8889 
    8902     8902     8885     8893     8902     8896     8899     8896 
    8891     8906     8904     8888     8897     8907     8899     8890 
    8897     8909     8894     8884     8904     8892     8876     8903 
    8906     8893     8900     8896     8893     8901     8901     8902 
    8900     8894     8894     8900     8907     8899     8885     8898 
    8900     8881     8895     8909     8896     8898     8900     8894 
    8895     8891     8896     8901     8896     8898     8897     8901 
    8908     8895     8889     8895     8892     8902     8905     8891 
    8896     8902     8895     8896     8901     8899     8894     8898 
    8906     8896     8888     8898     8898     8891     8901     8903 
    8889     8893     8901     8897     8897     8900     8896     8893 
    8893     8889     8889     8901     8900     8889     8902     8906 
    8891     8895     8904     8896     8890     8898     8905     8902 
    8898     8887     8882     8901     8906     8899     8904     8895 
    8882     8893     8910     8904     8891     8899     8910     8896 
    8891     8904     8903     8894     8900     8891     8883     8909 
    8912     8890     8892     8886     8885     8906     8905     8899 
    8895     8887     8896     8900     8899     8901     8902     8909 
    8898     8880     8891     8906     8898     8894     8902     8896 
    8885     8890     8902     8900     8885     8894     8910     8907 
    8904     8891     8892     8911     8890     8882     8915     8911 
    8882     8888     8901     8895     8888     8897     8907     8891 
    8883     8898     8904     8903     8898     8896     8909     8903 
    8884     8894     8908     8894     8891     8904     8903     8888 
    8879     8898     8909     8890     8895     8901     8893     8898 
    8898     8901     8905     8886     8884     8910     8914     8892 
    8891     8898     8889     8888     8902     8908     8889     8881 
    8902     8901     8887     8899     8905     8897     8893     8894 
    8907     8904     8886     8902     8913     8893     8892     8901 
    8896     8891     8888     8900     8905     8886     8892     8907 
    8895     8896     8901     8893     8899     8901     8894     8903 
    8900     8888     8893     8901     8901     8893     8891     8900 
    8896     8890     8899     8902     8898     8897     8894     8894 
    8897     8891     8897     8911     8897     8886     8904     8910 
    8889     8882     8904     8900     8878     8894     8909     8900 
    8896     8900     8896     8881     8888     8911     8908     8896 
    8894     8891     8891     8900     8905     8902     8901     8895 
    8895     8900     8894     8896     8896     8883     8894     8905 
    8895     8895     8905     8911     8896     8883     8899     8901 
    8887     8894     8905     8900     8892     8896     8899     8903 
    8902     8893     8900     8895     8878     8900     8915     8903 
    8901     8891     8878     8892     8910     8907     8894     8890 
    8901     8897     8888     8908     8911     8883     8890     8901 
    8887     8897     8917     8905     8884     8880     8902     8915 
    8897     8894     8900     8888     8884     8895     8907     8903 
    8889     8894     8897     8882     8895     8917     8903     8889 
    8898     8895     8889     8904     8917     8899     8881     8895 
    8902     8889     8897     8910     8899     8886     8891     8900 
    8905     8902     8902     8900     8883     8887     8913     8918 
    8904     8894     8908     8913     8899     8927     8955     8932 
    8930     8952     8950     8965     9001     9015     9021     9035 
    9069     9132     9194     9233     9247     9276     9362     9456 
    9527     9583     9611     9638     9702     9797     9890     9958 
    9996    10073    10252    10401    10438    10456    10428    10373 
   10444    10517    10314     9943     9807     9956     9944     9531 
    9088     8804     8406     8126     8340     8393     7650     6586 
    6009     6057     5948     5478     5401     5467     5039     4898 
    5751     6662     6797     6625     6625     6638     6821     7702 
    8374     8164     8545     9588     9606     8775     9378    11645 
   12358    11500    12190    12733    10249     7781     8920    11309 
   11088     8970     7425     6758     6573     7185     8817    10253 
   10432    10680    11723    12010    11017    10127     9876     9482 
    8561     7254     6678     7582     7975     7565     8910    10541 
    9330     7501     7996     8450     7007     7015     8964     8938 
    8245     9466     9609     8432     9089    10931    12377    13125 
   12641    11477    10967    10729     8927     6213     5263     5274 
    4921     5438     5766     6352     8985    10511    10530    11906 
   13467    13820    13589    13009    12005    11187    10825    10856 
   11216    10401     7734     5101     5075     7346     8264     7744 
    9192    12953    16252    16977    17159    19076    20449    19143 
   16846    15250    13250    10331     7401     4796     2709     2175 
    4107     6281     7027     8140    11227    16200    19553    19084 
   17574    15339    12271    11209    11328    11465    11723    10228 
    8916     9363     8946     7679     7350     8768     9861     9364 
   10534    12311     9631     3163    -1110    -1859    -3354    -3123 
    2533     8141     9754     9228     8914    12358    18548    18951 
   12230     6320     5518     7779     9258    10360    10917     8601 
    7866    10604     9745     5678     7143    11264    12231    16031 
   20703    18457    12273     6122     3190     5900    12041    17693 
   16486    11004    11609    14821    13578     9999     5083     2539 
    4135     5238     9714    16919    16488     9379     4606     4636 
    5282     7509    11216    10789    10276    14322    20463    24562 
   22295    17161    15700    17512    17472    16492    22927    31105 
   23918     6302    -1692      824     5914    11670    13646    14563 
   17664    18614    21567    27086    27138    22523    20082    19863 
   15578    10809    10381     6826     -615    -5245    -4130      259 
    2644     7193    12277    11248    16106    27361    29315    25096 
   24789    28741    32833    33379    31914    27272    14855     4709 
    5549     6227     4427     7079     7253      356    -6085    -5698 
     655     7587    11784    13348    15285    20547    28035    33713 
   30344    16641     3917     3264    11462    13380     5152    -2432 
   -5783    -3790     8303    22665    26749    23728    23136    25366 
   26833    23986    12705     1290     1560     6258     6867     3964 
   -1379    -2778    -1207     -102     8704    18574    18198    16997 
   18522    16786    14206    15632    21440    20966     7427    -1687 
    4166    11088    10885     5599     -595    -2325     2399    13533 
   21746    20923    20396    23527    28502    31523    25502    15090 
    7478     1351    -4509    -9086   -13813   -18117   -16892   -11731 
   -3316     8681    10828     4273     8892    20547    18818     5729 
     557     4345      120   -14001   -23871   -24487   -22096   -19420 
  -16694   -13453    -2350    12560    13757     5724     1706    -3579 
   -5977     1601     5169     1419     -652       16     2335    -3089 
  -15374   -13134     2453    13546    19870    22451    22868    23813 
   18648    12809    10260     7889     9569     6008      218     6311 
   10981     5863    -1634     -992    11960    12801    -3647    -9763 
    -359    20355    39937    31250     5038    -3583    12923    34309 
   35751    22601    16729    14328     9455     8306     5563      815 
    5913    18113    24103    21232    15803    14457    20275    26832 
   23311    10932     7066    21028    34150    33032    31434    37328 
   43089    42507    37177    30407    25272    30750    40274    38964 
   32619    23284     9600     3652     4942     -801    -8943     -874 
   13003     9872     3118     8297    11268     6957     3465      239 
    5124    19337    18613     4226     -495    -3515   -16202   -30771 
  -41531   -44594   -44439   -43157   -30711   -16049   -15298   -19802 
  -15713    -8223    -7876    -9941    -2847    13941    25489    22858 
   17620    17560    23087    33150    38046    32692    19138    10269 
   22807    43607    48771    42581    45322    62461    80660    86942 
   88418    99333   108238   108635   109643   106872   111141   125218 
  125256   113908   102748    88907    73984    62093    50355    30003 
    5404   -12879   -24338   -26868   -26444   -33212   -44328   -56947 
  -65342   -63916   -58172   -58661   -68661   -74274   -76584   -83146 
  -84148   -89646  -101415  -105144  -107416  -106806  -105801  -116024 
 -127389  -129105  -125750  -130619  -141339  -143731  -141952  -129987 
  -98349   -73423   -66452   -57280   -51809   -50427   -32706   -15883 
   -7275     8075    12952    21037    49809    59367    53797    66845 
   86092   107768   135944   151626   150023   148236   150821   141085 
  119553   108738   105598    99087   102129   112791   115100   110288 
   99044    77353    51087    29926    17024     9318     8881    17865 
   25325    21513     8191    -7243   -16902   -23231   -31433   -35550 
  -34793   -36890   -35926   -27927   -28084   -32625   -26596   -25612 
  -28110    -9465    17966    42464    64685    73418    80447    90895 
   94052    96495    92834    77691    61715    49216    40719    30697 
   10194   -19877   -48547   -61698   -60938   -65100   -75453   -80209 
  -86702   -98265  -103704  -105465  -105423   -91934   -65645   -40698 
  -31379   -40550   -49019   -51308   -64572   -78888   -79962   -81275 
  -86289   -92992  -104940  -117090  -128887  -134185  -126753  -112180 
  -81277   -41318   -12700    20217    57896    88487   119096   133928 
  140176   160774   170746   166775   166548   161579   156126   144614 
  104475    53218    23411    17938    25855    35958    39528    42810 
   57261    69858    64816    58123    52114    30874    15310    17409 
   17237    20688    32068    34437    27379    13562    -8925   -36720 
  -62227   -75144   -83625   -92960   -89537   -87759   -99272  -104364 
 -111384  -125599  -126995  -128790  -134814  -130321  -130886  -130114 
 -114385  -104174   -92439   -75191   -77581   -75188   -48981   -29906 
  -11373    25641    63229    87642   103926   111782   104603   104039 
  121472   124977   115302   117662   118925   107563   103280   110764 
  106948    91764    87613    94259   101547   104715   101452   101354 
  107521   112257   116573   116991   109075   103841   100427    91359 
   83674    71500    53577    44204    31250     3256   -22872   -40184 
  -63130   -93169  -114892  -136523  -156288  -138560   -95171   -68016 
  -59081   -59722   -66459   -68011   -60219   -48438   -31121   -11799 
   -1358     7015    17237    16982    -1461   -31193   -48378   -52200 
  -55601   -38616    -8854     2117     6686    16583    27954    40584 
   43326    39771    45133    61277    79467    82173    79988    92467 
   91881    67599    50587    47986    49303    47299    38029    29638 
   33277    46750    57250    58294    47489    26218     5771   -12181 
  -32941   -48560   -53336   -53481   -51418   -45537   -41369   -44000 
  -47125   -43292   -33007   -24614   -17903     2341    28728    42232 
   51408    63646    74660    81541    70960    46866    38247    46419 
   52016    48103    35519    32059    41144    35878    27990    35080 
   28640     3818   -17519   -26650   -22458   -16038   -20188   -27837 
  -26199   -27706   -36235   -37575   -42338   -46381   -36294   -25260 
  -10929     3567     2173     2018    11249    10312     2605    -1386 
   -8753   -15666   -17414   -21461   -19275    -9465    -7939    -5951 
    2391     8093    21918    43734    61855    83151   107085   126969 
  147230   164325   172617   176909   176099   169371   157420   132387 
  104731    90632    78877    60255    43350    32566    19329      578 
  -15062   -28483   -34817   -30226   -31962   -33749   -24652   -24781 
  -35447   -40506   -44402   -55432   -68402   -81123   -99775  -117300 
 -126823  -139408  -153078  -158084  -158749  -156235  -150593  -145791 
 -141283  -131953  -116849  -107315  -103599   -90613   -75880   -72150 
  -61195   -39398   -32999   -36895   -28196   -15926    -8754     3145 
   17197    31130    53868    86865   122770   148607   164569   174143 
  165891   151032   141604   127037   115739   115008   118732   121513 
  109708    86054    63451    47424    47312    55001    61242    72201 
   77385    73554    68659    58405    55697    65647    64963    57039 
   56734    49464    31781    16087    -4800   -23146   -23200   -29396 
  -45484   -41301   -33618   -43601   -47196   -42749   -51698   -68701 
  -76959   -76673   -77711   -70327   -52220   -45262   -43442   -35759 
  -28353   -17174   -10613   -15303   -19100   -17013   -10925   -13318 
  -31539   -47091   -48456   -50239   -58852   -59705   -51207   -38390 
  -18798    -4199     3580    16796    26561    28552    33542    42364 
   51381    55902    53348    41003    15770    -7381   -17868   -20170 
   -8763    11988    26444    32564    34892    39234    41335    39594 
   52019    75324    89964    98166   106580   112765   112588   107247 
   98206    86028    75006    58067    39169    39514    49580    52433 
   58771    69255    68029    61545    62352    57682    41982    25762 
   15039    11852     6964    -3108   -13468   -26503   -37440   -45756 
  -53071   -51375   -49168   -56837   -62375   -61110   -67555   -80879 
  -87933   -95703  -100756   -82441   -57362   -51581   -52914   -48015 
  -42507   -35597   -25993   -21978   -14983     4535    20874    31204 
   41345    40364    33174    33105    30293    11387   -13708   -17898 
   -1175    11282    18110    22470    23462    35158    52043    57068 
   53948    43260    29727    34861    52798    62655    68250    74915 
   78955    75090    62319    42049    17856    15694    34766    40134 
   42974    55030    58378    58777    49350    24393    14873    18428 
   10751     3508     4865     6258    10680    18491    23488    23562 
   15932     2548    -3676     -432    -3736    -8416     5605    27811 
   35463    27304    12967    -2308   -12037   -14419   -17465   -17921 
  -12201   -16190   -25742   -18567   -11329   -20750   -23139   -13181 
   -6087    -2681    -9695   -25324   -24623    -9888    -3395    -2085 
   -2267    -8703   -18912   -32477   -42042   -43480   -46576   -49842 
  -49349   -49735   -51013   -50612   -48013   -43429   -32144   -12202 
    7609    26620    48557    64181    71082    77423    81680    79145 
   67629    52534    49246    51181    43442    38621    37736    31071 
   27381    21970    14467    20949    34897    47784    56650    52634 
   45016    43326    42751    44804    53461    66966    73737    71400 
   73601    73891    66594    63313    56517    41262    31860    25073 
   12135     6419     6623    -6826   -25630   -36275   -42690   -44277 
  -40843   -29765    -8162     7742     6500    -1284    -8919   -14221 
  -10717    -4402    -3693    -6213   -11769   -21219   -30397   -34260 
  -33185   -26100    -8028    11158    21241    28471    32322    30533 
   26687    12544   -12352   -30904   -39633   -46876   -52695   -53898 
  -50538   -46968   -52169   -68736   -85226   -90232   -83735   -71129 
  -54627   -37284   -30151   -33040   -36262   -43092   -47878   -40490 
  -33697   -30105   -17344    -7398   -11728   -17327   -17148   -13468 
   -6143     5682    20318    33713    48860    67593    83072    94986 
  108374   118890   122076   125679   135065   143643   144170   139306 
  132184   114872    88829    66518    49536    40578    38757    29058 
   15170    12329    12237     7465     6531     7957     8032    10780 
   12034     7010     1081    -4319   -13705   -21034   -20217   -21641 
  -29772   -31597   -24852   -25492   -35948   -48367   -64148   -71401 
  -61884   -51822   -42836   -30206   -20727   -11937    -4991    -3633 
   -2473     -378     7590    21433    30473    37862    43556    42135 
   42748    45024    42158    40901    45488    52646    56186    47473 
   30226    21095    23840    28190    28359    23281    14200     1737 
  -13429   -26360   -34778   -39705   -42724   -39347   -24481   -11566 
   -7668    -6904   -13091   -18292   -17930   -24892   -31363   -29088 
  -28068   -29322   -29892   -27345   -19399   -14065   -13568    -9729 
    -866    10771    21626    31956    49474    69276    79796    82418 
   78896    74580    81119    89634    87149    81765    75971    67750 
   66512    66149    52903    37351    27687    17848    14880    16515 
    5616    -9661   -18323   -28103   -33467   -26096   -16670    -9596 
     164     2988    -8329   -20731   -26512   -30048   -34243   -40804 
  -45688   -42537   -33838   -26584   -23783   -24550   -28211   -30349 
  -26010   -17945    -4576    16004    32418    38860    40210    37994 
   32415    23137    15652    20830    30249    29913    28110    28908 
   25787    23269    23081    23626    26942    26173    20906    22237 
   27880    31504    34518    33976    29824    26035    19333     8724 
    3677     7558     7082    -2947   -14122   -22627   -26762   -31944 
  -40604   -41610   -37344   -36038   -32679   -25293   -14881     -985 
   13582    27277    37423    40515    37932    34723    34947    35144 
   30902    22657    11640     2250    -2428    -1760     4644     8555 
    5820     6333    11639    15961    23385    35129    44285    49108 
   49395    41380    31300    30638    31148    21705    10523      627 
  -10590   -16753   -19838   -20578   -11572    -2406     1177     8949 
