Origin Time       2016/04/16 01:25:00
Lat.              32.753
Long.             130.762
Depth. (km)       12
Mag.              7.3
Station Code      KMM013
Station Lat.      32.3650
Station Long.     130.5099
Station Height(m) 3
Record Time       2016/04/16 01:25:14
Sampling Freq(Hz) 100Hz
Duration Time(s)  230
Dir.              N-S
Scale Factor      3920(gal)/6182761
Max. Acc. (gal)   154.775
Last Correction   2016/04/16 01:25:14
Memo.             
[...]
    1022     1007     1005     1026     1051     1045     1015     1000 
    1000     1013     1036     1042     1017      999     1013     1026 
    1013     1015     1047     1057     1031     1005      996     1004 
    1030     1058     1048      997      969      993     1028     1041 
    1037     1036     1021     1001     1020     1045     1032     1013 
    1013     1015     1020     1039     1032      996      994     1023 
    1045     1055     1029      996     1002     1016     1025     1032 
    1024     1021     1036     1023      978      983     1036     1063 
    1072     1061     1003      970      991     1017     1033     1048 
    1043     1009      966      963     1016     1083     1100     1055 
     990      962      997     1048     1056     1034     1014     1003 
    1003     1005     1002     1012     1036     1054     1051     1024 
    1000     1000     1020     1046     1055     1030     1007     1011 
    1014     1009     1010     1020     1028     1025     1015      999 
     998     1035     1069     1047      992      969     1008     1074 
    1095     1044      971      959     1027     1083     1050      977 
     948      990     1059     1076     1006      935      976     1089 
    1140     1091      985      922      981     1084     1099     1024 
     961      971     1012     1039     1025      980      990     1068 
    1105     1046      958      940     1013     1103     1112     1008 
     904      933     1054     1129     1100     1005      942      974 
    1071     1115     1028      908      894      990     1111     1153 
    1060      928      903      996     1101     1133     1091     1020 
     980      992     1006      993      980      984     1013     1045 
    1043     1025     1011     1005     1027     1056     1059     1044 
    1024     1017     1026     1023     1007      998     1000     1009 
    1023     1026     1012     1004     1015     1031     1041     1047 
    1040     1023     1017     1022     1024     1023     1021     1013 
    1008     1019     1027     1014     1004     1010     1020     1026 
    1027     1026     1027     1025     1027     1031     1028     1024 
    1026     1023     1020     1025     1022     1011     1007     1010 
    1011     1018     1026     1024     1022     1025     1028     1028 
    1026     1028     1028     1025     1023     1019     1016     1017 
    1014     1008     1014     1027     1027     1021     1024     1031 
    1030     1024     1021     1018     1016     1017     1019     1016 
    1015     1023     1029     1027     1024     1020     1017     1024 
    1025     1017     1020     1029     1026     1016     1010     1015 
    1020     1026     1036     1033     1022     1021     1023     1023 
    1015     1011     1011     1011     1022     1027     1025     1033 
    1030     1020     1017     1016     1020     1020     1025     1031 
    1019     1017     1023     1019     1022     1023     1018     1017 
    1019     1028     1028     1019     1029     1025     1017     1027 
    1020     1015     1022     1020     1026     1023     1013     1021 
    1018     1025     1039     1019     1017     1025     1013     1022 
    1024     1016     1026     1020     1023     1034     1018     1023 
    1030     1013     1019     1025     1014     1018     1018     1019 
    1024     1018     1018     1022     1022     1028     1026     1020 
    1022     1021     1022     1026     1022     1017     1014     1014 
    1022     1024     1021     1021     1018     1019     1026     1028 
    1027     1025     1020     1016     1018     1023     1025     1023 
    1021     1019     1016     1019     1024     1021     1020     1026 
    1025     1024     1025     1022     1016     1014     1017     1022 
    1025     1026     1023     1016     1016     1021     1020     1016 
    1020     1026     1025     1021     1022     1022     1020     1025 
    1028     1020     1018     1022     1018     1018     1024     1019 
    1015     1022     1028     1025     1023     1022     1018     1014 
    1018     1020     1019     1025     1026     1018     1022     1028 
    1022     1019     1023     1024     1018     1015     1020     1021 
    1020     1027     1028     1022     1023     1026     1020     1019 
    1025     1021     1012     1016     1021     1018     1019     1025 
    1024     1024     1029     1026     1020     1019     1018     1014 
    1015     1018     1018     1018     1026     1031     1029     1024 
    1022     1021     1015     1012     1014     1013     1016     1025 
    1026     1026     1030     1027     1020     1021     1022     1015 
    1017     1024     1023     1019     1018     1019     1021     1024 
    1024     1020     1020     1026     1027     1023     1024     1023 
    1014     1012     1018     1018     1017     1020     1022     1023 
    1025     1031     1033     1027     1024     1024     1019     1013 
    1015     1015     1012     1019     1025     1023     1022     1023 
    1019     1023     1029     1028     1027     1024     1018     1017 
    1020     1021     1022     1018     1013     1012     1014     1023 
    1031     1029     1026     1027     1020     1016     1023     1024 
    1014     1011     1016     1016     1017     1025     1030     1028 
    1025     1025     1023     1018     1018     1021     1019     1019 
    1020     1020     1023     1027     1023     1021     1024     1021 
    1014     1014     1020     1019     1015     1021     1027     1024 
    1026     1031     1025     1021     1025     1025     1022     1028 
    1036     1043     1053     1069     1084     1098     1111     1118 
    1122     1139     1176     1222     1259     1277     1297     1345 
    1409     1443     1433     1408     1410     1466     1539     1542 
    1459     1375     1342     1311     1247     1180     1112      996 
     840      698      550      312       62       15      144      123 
    -177     -464     -451     -263     -188     -240     -262     -176 
      50      420      842     1181     1373     1506     1741     2089 
    2408     2492     2258     2082     2365     2783     2605     1730 
    1057     1422     2417     2916     2545     1854     1276      779 
     443      465      464       73      -70      409      396     -966 
   -2291    -1464     1305     3522     3312      993    -1771    -2809 
    -848     2334     3341     1087    -1853    -1597     1906     4080 
    2772      737      233     1217     2753     2999     1069    -1114 
   -1232      381     1553     1301      552      437     1443     2892 
    3375     3112     2550      676    -1513    -1474      796     3081 
    3204     1220     -447      256     3114     5326     4491     2240 
    1698     2854     3015     1284     -422    -1043     -642      796 
    1993     1576      360      924     4322     7176     6206     2984 
     614      776     2930     4134     2970     1276       -4    -1670 
   -3414    -4680    -4628    -2219     -277    -1374    -2528    -1415 
     552     1317     -336    -2713    -2764     -502     1636     2378 
    3034     4629     5678     4940     2879      669     -353      563 
    3237     5546     5208     4023     4604     5624     4972     3072 
    2936     6620     9855     7250     1029    -3686    -5836    -5699 
   -3307    -1499    -3443    -8859   -14623   -14569    -5781     4665 
    8790     6414     2660     2155     4555     6794     5708      927 
   -1707      859     3593     2925      486     -280     2475     4632 
     809    -4951    -4668      613     4351     3567     1055     2687 
    8013     9871     6674     1875    -2376    -2091     4277     9929 
    8079      269    -5067    -1744     5911     9351     7216     3654 
     823      321     4432     9370     8200     2031    -1945    -1370 
    -539    -1812    -3332    -4940    -6559    -5826    -3887    -4907 
   -8356    -8597    -3031     3455     6764     8698     9560     7008 
    1227    -3294    -1983     1219     -592    -6467   -11750   -11424 
   -3869     2813     2609     -427    -2593    -1829     2664     5926 
    4661     2299     3558     8229    10262    10496    15138    16735 
    8213    -1881    -7391    -5436     6020    14931    10813     1591 
   -2741      190     7514    10954     7878     6473    11495    16438 
   11974      644    -5964    -5541    -3159    -3139    -6791    -7246 
   -1604      821    -5906   -16592   -21064   -13272     1474    11394 
   11109     5729     4469    11561    18135    10380    -6402   -10123 
    1980     8164    -1242   -13485   -14128    -2791     4287    -2175 
   -7606    -1902     5702     8531     6326       22    -4572    -2564 
    5638    15210    19937    16649     6551    -1325     2097    13083 
   19917    17289    11392     5792    -4443   -15878   -14616     2426 
   19428    21510    11020     3271     9221    17535    11085    -6048 
  -19341   -21125   -15388   -11224    -9521    -9180   -11646   -13855 
  -11901    -8075    -7908    -9929    -9910    -7021     -147     5423 
    2066    -6904    -9759     -274     9041     4060    -7334   -11631 
   -5200     9741    20833    17175     7455     4643     9684    14952 
   12196     6004     9345    18612    16658      867   -10367     -945 
   17723    19731     3118   -12164   -13362    -3222     2314    -5829 
  -14754   -16665   -16174   -10430      179     6246     5517     3998 
    5871     7390     3907    -2532    -8732   -11537    -7493     1776 
   10442    12468     2767   -14318   -20287    -6496     9109     9622 
    3534     5584    14574    21106    17620     5306    -3019    -4248 
   -8803   -15422    -9775    10915    23627    10475    -8444    -9763 
   -2812    -5374   -17564   -25320   -13502    12448    24136    13706 
    6506    10891    14192    17358    17078     3583    -9698    -6498 
    6746    14102    10892     5713     3196     1956      946    -1691 
   -1275     5679     6921    -3863   -11553    -1430    20912    29020 
    7799   -18261   -22218    -7714     7873     7301    -5514    -7272 
   -1598    -5244    -9001    -5267    -3021    -7060   -14959   -18762 
  -11950    -1395      747    -5530    -6075     5818    16002    12905 
    5996     5271     6325     7543     9970     8281     4082     1585 
    2494    10420    19860    23705    22115    14627     5251     2315 
    5470     4430    -3707    -7506    -3072    -1451    -8416   -16327 
  -15200    -6922    -3250    -7426   -13892   -18795   -19090   -15854 
  -13221   -10469    -5981    -2427    -3136    -7533   -10177    -3498 
   10102    16126    11024     5009     3229     5903     9426     7043 
    1457     1127     6824    14549    19888    18216    11811     9154 
   11530    10656     3258    -5399   -13418   -20174   -22169   -18968 
  -10018     1718     4191    -4158    -9541    -7082    -1429     4314 
    4922     2210     3760     5712     5013     7160    10118     9305 
    8076    10269    14015    12376     4854     2799     8823    12085 
    8542     3393     3013     9635    14743     9990     2072     -418 
   -1230    -4288    -6282    -9075   -17218   -23065   -19054   -13182 
  -15409   -25029   -31644   -25163   -10050      791     2585      474 
    1187     6520    13915    18857    18197    13838     7993      216 
   -5039     -877     9066    13738    10369     8920    15875    21867 
   17910     7700    -1019    -1627     5606    11072     9380     2592 
   -7586   -13142    -7783    -3780    -9858   -16195   -14523    -8411 
   -7828   -14951   -17504    -6791     6543     7055    -1082    -3779 
    1455     7902     5226    -7057   -11989    -2987     3080    -4875 
  -12621    -5003     8896    13043     6262    -1343    -2476      811 
    4287     4194      568     1295     7645    10834     8442     6005 
    8107    12848    10298    -3749   -16346   -15171    -4863     3621 
    5449     2774     -716    -2741      407     8228    11838     7465 
    3106     3524     3334    -1869   -11550   -18916   -14246    -2279 
    2623    -4068   -14655   -15983    -6548     1677     1919    -5961 
  -16543   -20137   -14711    -5340     2985     8870    12569    12396 
    8469     3401      292    -2683    -9760   -15669   -14852    -9849 
   -6895   -12532   -21744   -21435    -8223     7869    13881    11030 
   12542    21839    27282    22177    15499    14148    16708    20636 
   19111    13067    14901    23344    27012    27275    28543    28400 
   28335    29854    29421    28125    29742    35695    45014    52044 
   54887    57681    58512    52545    40433    22073    -1399   -21484 
  -36719   -51956   -58477   -48822   -38982   -43717   -47889   -39041 
  -36280   -43102   -39396   -31450   -32739   -35521   -38359   -48411 
  -57286   -57172   -57804   -59969   -58499   -59326   -58500   -49097 
  -37983   -27372   -15925   -13090   -22230   -30439   -32688   -37663 
  -46996   -58896   -75257   -89352   -94457   -93356   -82845   -60367 
  -37298   -22639   -14361    -6306     2317     2960    -1126     6811 
   22881    29966    29940    31254    34632    42950    59015    80561 
  103928   126822   150309   173729   191626   202498   209637   214982 
  218922   222036   226792   233521   238919   240149   230501   197874 
  136268    64244    17864     3879    -9965   -42015   -72466   -77498 
  -56002   -23758    -2830   -11207   -47967   -95077  -135537  -158305 
 -160916  -152528  -142570  -148001  -185198  -219414  -213379  -207584 
 -224026  -228916  -233287  -243869  -234696  -224645  -230283  -231890 
 -223460  -211477  -196573  -177730  -157062  -135006  -111212   -89113 
  -67759   -44106   -21823    -3243    17871    46997    80622   112817 
  140339   162122   181842   201219   216513   228364   237197   239223 
  237062   235129   229316   213591   189071   160588   128054    87234 
   37856   -14629   -61354   -86101   -74347   -38716    -3088    28359 
   46966    43345    37474    39934    38921    28491     1231   -39569 
  -70759   -83146   -90502   -95611   -75773   -23672    28501    48186 
   41627    39067    46482    44478    31139    17430      666   -19622 
  -33388   -36981   -32021   -24984   -27351   -38699   -49243   -57792 
  -69318   -79642   -76506   -55797   -22721    16127    52583    78940 
   94735   107495   120783   129129   130366   125979   113028    91313 
   65902    39163    12434    -9740   -23746   -30783   -31866   -24095 
   -5863    20742    48902    68218    73488    66325    51058    33287 
   17009     4345    -1616     1116     6041     3628    -3580   -10216 
  -18587   -23504   -15711     3152    26671    41837    32511     2327 
  -29373   -50418   -62064   -71679   -82964   -95726  -108845  -121896 
 -138507  -158466  -175147  -185671  -186883  -175642  -157252  -134616 
 -107812   -84027   -66084   -50037   -33879   -17548    -6625    -1922 
    6628    18310    28699    41250    47834    42547    37805    41723 
   52312    69547    96559   132288   169948   201948   218310   212148 
  189906   165080   145407   127008   102444    73790    46663    24409 
   11592     2720   -11324   -24196   -32138   -40641   -46064   -45815 
  -47520   -55130   -63051   -66176   -68856   -75007   -81622   -87442 
  -90702   -88064   -81795   -74073   -63934   -57864   -66893   -84650 
  -90340   -82083   -73899   -67419   -61553   -61254   -61854   -55059 
  -39426   -14717    14306    36541    47516    54237    62967    69981 
   70664    64024    48051    25907     7447     -674     2386    15452 
   34749    53693    69600    84197    96506   104657   109892   112093 
  108063    96114    75551    45517    13277    -7222   -14429   -19234 
  -25518   -28760   -22483    -1706    27764    52606    66035    70539 
   71669    72062    67909    51179    20142   -16501   -51923   -84501 
 -107403  -116088  -114814  -102950   -82742   -68035   -61123   -51954 
  -37740   -19614    -3297    -3108   -20789   -40397   -53127   -58191 
  -51546   -37854   -30961   -35518   -47362   -63766   -79755   -85367 
  -75173   -52847   -23606     7094    27073    29824    27813    28721 
   24162    14587     6648    -1384    -9218   -12090    -9955    -8729 
   -9958    -6748     2931    14909    28233    42176    53085    58552 
   60780    63313    66386    70334    74811    72351    56195    28149 
   -8182   -41867   -50927   -33772   -15438    -4748     5672    10973 
    9476    10501    18099    28577    32122    22801     6430   -12155 
  -32765   -50221   -56549   -48454   -27720     -147    21660    23877 
   13350    14674    32427    51087    66852    82203    93657    99317 
   97209    84726    63130    36839    13713     4436    16330    42012 
   61669    65612    62142    60599    60830    59758    56664    50031 
   36972    16039   -10919   -37165   -57307   -73892   -86678   -87422 
  -74483   -55317   -37017   -25383   -20723   -16139   -12304   -15121 
  -13852     3546    23074    28988    27499    25966    24753    28337 
   37065    42610    38661    23031     1583    -8593     1334    19751 
   32537    37193    36898    33593    26251    10971   -14726   -47104 
  -77636   -99263  -109147  -106577   -94134   -77258   -60881   -52872 
  -57261   -61665   -56208   -51091   -54968   -61091   -60635   -52666 
  -43316   -37540   -34354   -31391   -27713   -24379   -20856   -12255 
    1251    13168    22064    29610    32621    29447    26527    28643 
   31766    30997    24889    15546    11639    19822    33845    42978 
   43216    33393    13150    -7124   -10509     4956    26999    46122 
   55733    52582    42612    32131    23007    18961    23933    38842 
   59324    74435    76802    70322    61593    50829    36962    24240 
   16062    10822     7800     8330    11437    13538    11426     3026 
  -13471   -36556   -59430   -76740   -87957   -91725   -86836   -77428 
  -69413   -65948   -69153   -79108   -89670   -94004   -91183   -80938 
  -64658   -49635   -39580   -34616   -36012   -36532   -29741   -21491 
  -11470     6006    26513    44591    59521    71282    79439    83232 
   85261    88642    92934    96792    96049    83335    54483    17686 
   -4180      797    14195    18139    18297    22962    32880    45949 
   54188    48480    27433    -1173   -28904   -56625   -85631  -105905 
 -105039   -82270   -50696   -29273   -28320   -39247   -45449   -42287 
  -36524   -34819   -40162   -49648   -57493   -62293   -64309   -61989 
  -56341   -52254   -52002   -49928   -39782   -25463   -13751    -3017 
    9666    23029    37328    53260    67727    75286    73210    63702 
   49994    38551    39363    53245    71450    87174    95394    90701 
   70644    35767    -6966   -37042   -36344   -16938    -4363    -1210 
    -102    -4560   -11671    -9557     2768    16756    25368    27264 
   28536    34458    39046    33479    20117     7440      669     2195 
   10080    18817    23791    21179    13283     9819    13680    19864 
   28297    39779    46819    40609    19600    -8831   -30164   -35973 
  -34545   -35317   -36131   -36291   -40576   -50156   -63918   -78815 
  -86912   -80971   -62868   -43483   -33065   -35651   -46122   -47744 
  -32351   -15125    -8092    -7000   -10030   -19363   -32512   -40048 
  -29992    -4892    20268    42275    66259    88681   106068   119084 
  122712   113664    95952    72419    46741    27088    18219    17925 
