Origin Time       2016/04/16 01:25:00
Lat.              32.753
Long.             130.762
Depth. (km)       12
Mag.              7.3
Station Code      KMM007
Station Lat.      32.8267
Station Long.     131.1226
Station Height(m) 548
Record Time       2016/04/16 01:25:12
Sampling Freq(Hz) 100Hz
Duration Time(s)  300
Dir.              N-S
Scale Factor      3920(gal)/6182761
Max. Acc. (gal)   279.263
Last Correction   2016/04/16 01:25:12
Memo.             
[...]
   -7151    -7151    -7162    -7183    -7190    -7180    -7166    -7153 
   -7141    -7127    -7131    -7166    -7180    -7131    -7080    -7087 
   -7109    -7112    -7132    -7175    -7198    -7193    -7175    -7143 
   -7108    -7079    -7055    -7074    -7138    -7183    -7193    -7208 
   -7223    -7208    -7180    -7171    -7181    -7177    -7134    -7080 
   -7070    -7092    -7098    -7079    -7078    -7114    -7152    -7174 
   -7196    -7197    -7166    -7123    -7100    -7126    -7174    -7185 
   -7159    -7140    -7151    -7158    -7146    -7158    -7184    -7170 
   -7135    -7124    -7134    -7142    -7123    -7118    -7152    -7166 
   -7141    -7131    -7139    -7129    -7094    -7074    -7101    -7133 
   -7135    -7138    -7177    -7226    -7234    -7192    -7158    -7170 
   -7165    -7111    -7086    -7126    -7170    -7154    -7105    -7094 
   -7111    -7113    -7124    -7167    -7207    -7203    -7162    -7136 
   -7148    -7153    -7136    -7136    -7143    -7119    -7086    -7092 
   -7140    -7163    -7141    -7139    -7178    -7205    -7187    -7148 
   -7136    -7152    -7148    -7122    -7122    -7152    -7169    -7145 
   -7119    -7133    -7133    -7104    -7121    -7170    -7179    -7163 
   -7163    -7181    -7184    -7147    -7102    -7089    -7092    -7096 
   -7110    -7125    -7135    -7148    -7162    -7185    -7214    -7219 
   -7183    -7138    -7127    -7123    -7090    -7094    -7165    -7217 
   -7215    -7194    -7169    -7137    -7098    -7062    -7048    -7071 
   -7116    -7144    -7147    -7160    -7180    -7178    -7171    -7183 
   -7173    -7128    -7100    -7120    -7150    -7143    -7123    -7155 
   -7215    -7219    -7170    -7139    -7146    -7137    -7107    -7113 
   -7148    -7160    -7135    -7108    -7106    -7114    -7109    -7106 
   -7141    -7188    -7176    -7136    -7139    -7176    -7190    -7167 
   -7147    -7148    -7145    -7130    -7127    -7151    -7166    -7148 
   -7139    -7171    -7201    -7170    -7105    -7083    -7100    -7105 
   -7104    -7129    -7172    -7178    -7148    -7142    -7165    -7161 
   -7129    -7108    -7118    -7140    -7135    -7120    -7132    -7163 
   -7202    -7238    -7249    -7220    -7137    -7062    -7071    -7113 
   -7112    -7095    -7112    -7146    -7158    -7151    -7142    -7145 
   -7152    -7132    -7111    -7133    -7171    -7176    -7154    -7166 
   -7188    -7164    -7133    -7133    -7143    -7140    -7114    -7110 
   -7151    -7185    -7182    -7173    -7178    -7170    -7114    -7061 
   -7072    -7102    -7103    -7102    -7135    -7180    -7189    -7174 
   -7185    -7205    -7188    -7152    -7142    -7148    -7139    -7115 
   -7099    -7123    -7162    -7169    -7162    -7164    -7147    -7097 
   -7059    -7084    -7142    -7169    -7175    -7192    -7202    -7185 
   -7146    -7127    -7152    -7158    -7114    -7085    -7103    -7134 
   -7138    -7127    -7141    -7174    -7180    -7158    -7149    -7157 
   -7157    -7137    -7130    -7154    -7164    -7145    -7131    -7131 
   -7129    -7112    -7094    -7118    -7167    -7187    -7195    -7226 
   -7241    -7185    -7093    -7048    -7056    -7064    -7071    -7103 
   -7150    -7174    -7160    -7152    -7185    -7214    -7201    -7185 
   -7184    -7171    -7133    -7101    -7109    -7147    -7155    -7125 
   -7109    -7114    -7110    -7099    -7103    -7143    -7187    -7186 
   -7174    -7185    -7173    -7116    -7059    -7066    -7133    -7182 
   -7183    -7187    -7201    -7176    -7128    -7118    -7150    -7165 
   -7146    -7143    -7161    -7158    -7127    -7090    -7085    -7111 
   -7128    -7140    -7168    -7182    -7163    -7126    -7111    -7133 
   -7148    -7142    -7160    -7196    -7192    -7149    -7113    -7119 
   -7153    -7163    -7148    -7158    -7175    -7147    -7104    -7109 
   -7149    -7164    -7149    -7144    -7151    -7141    -7102    -7071 
   -7096    -7143    -7162    -7176    -7191    -7180    -7153    -7131 
   -7133    -7170    -7186    -7157    -7142    -7145    -7126    -7098 
   -7094    -7119    -7152    -7165    -7160    -7160    -7156    -7127 
   -7106    -7128    -7163    -7165    -7155    -7156    -7150    -7141 
   -7140    -7150    -7166    -7165    -7143    -7143    -7158    -7144 
   -7116    -7101    -7106    -7122    -7128    -7133    -7165    -7196 
   -7179    -7136    -7125    -7148    -7152    -7133    -7133    -7159 
   -7161    -7137    -7138    -7165    -7161    -7141    -7149    -7159 
   -7144    -7129    -7126    -7132    -7153    -7150    -7116    -7122 
   -7154    -7142    -7108    -7111    -7141    -7156    -7144    -7136 
   -7157    -7178    -7160    -7136    -7159    -7195    -7199    -7187 
   -7175    -7147    -7100    -7062    -7084    -7149    -7155    -7104 
   -7106    -7154    -7158    -7119    -7102    -7130    -7165    -7169 
   -7167    -7185    -7186    -7155    -7150    -7179    -7196    -7181 
   -7151    -7124    -7113    -7104    -7082    -7084    -7132    -7165 
   -7156    -7144    -7140    -7131    -7106    -7086    -7119    -7175 
   -7171    -7141    -7160    -7191    -7179    -7158    -7162    -7192 
   -7212    -7197    -7172    -7149    -7108    -7061    -7046    -7086 
   -7133    -7137    -7119    -7119    -7132    -7134    -7124    -7138 
   -7194    -7219    -7183    -7160    -7166    -7156    -7135    -7135 
   -7162    -7189    -7191    -7198    -7234    -7227    -7146    -7092 
   -7127    -7184    -7187    -7156    -7172    -7224    -7170    -7018 
   -6984    -7108    -7184    -7175    -7307    -7576    -7590    -7201 
   -6798    -6644    -6607    -6677    -6996    -7505    -7832    -7692 
   -7517    -7745    -7873    -7432    -6662    -6017    -5747    -5642 
   -5770    -6508    -7553    -8549    -9129    -8730    -7712    -6701 
   -6211    -6756    -7605    -7893    -7485    -6460    -5913    -6036 
   -5608    -5642    -7310    -8767    -8208    -5906    -4801    -7519 
  -10728   -10756    -9410    -8089    -5805    -2725    -1615    -4711 
   -8986   -11020   -11539   -10396    -7211    -4563    -4582    -6801 
   -8661    -7930    -5300    -3466    -4431    -6695    -7646    -8313 
  -10010   -10547    -7788    -3094    -1080    -4369    -9077   -10588 
   -8994    -6759    -5642    -4962    -4957    -7946   -11443   -11557 
   -9987    -8418    -7590    -9031   -10747   -11266   -12392   -12159 
   -6215     3016     7181     3185    -3536    -8101   -10617   -12299 
  -13065   -12554   -11734   -10836    -8281    -4531    -1418      388 
    1437     2988     1898    -5943   -15605   -19829   -18718   -16684 
  -16813   -16748   -11897    -4364      225      924     -708    -1997 
   -1875    -4889   -10858   -12565    -9136    -3679     2852     5607 
     690    -7628   -14324   -17193   -15308   -11607    -9038    -5909 
   -3113    -4303    -6309    -4083     -247    -1533    -9919   -18990 
  -21148   -17184   -13638   -13182   -11408    -3065     8752    14386 
    9424     -601    -7914   -12128   -16849   -20791   -19997   -12930 
   -2812     3250     1714    -3465    -5588    -5540   -10308   -15500 
  -13821   -11623   -11578    -9252    -4931     1917     7740     6001 
     189    -7475   -20271   -30896   -29122   -19319   -10892    -4622 
    1098     4490     2651    -7609   -19450   -17545    -6333    -4759 
  -10590    -7202     4693    10131     3655    -8015   -15167   -10509 
     320     2396    -5983   -15095   -21100   -23645   -24036   -23163 
  -15661    -4461    -1740    -6336    -9371    -9643    -6109     1908 
    9833    13035     6500    -9061   -22567   -27059   -24512   -15265 
    -331     6632    -5459   -21853   -23152    -9595     7389    15753 
   12444     3311    -8352   -18753   -20907   -15003    -6616       26 
   -3987   -22411   -36791   -32070   -18786    -5240     8412    13006 
    4631    -9571   -20253   -17671    -3993     7773    11987     6850 
   -9201   -24936   -27132   -14630     6730    19881    12146    -2987 
  -13086   -21524   -26107   -21679    -9170     6527    12682      334 
  -17535   -23116   -19464   -16610   -14442   -12834   -13664   -15734 
  -17844   -16660    -7718     4656    11073    10481     5689      160 
    2184     7907     5503    -1013    -8415   -20650   -29362   -25811 
  -14239    -5614    -8721   -16018   -16532   -19214   -28914   -27045 
   -5066    13937    11084       98    -1847     3323     7413     6966 
    6551     7696     1562    -9171   -14507   -21371   -28310   -19014 
    1074     9891    -1351   -14208    -7543     6346     9542     4216 
   -3490    -5679    -9195   -28156   -44413   -37022   -21603   -20723 
  -27871   -18832     9552    30957    26733    13836    15610    25000 
   19967    -6498   -36077   -47082   -47307   -48279   -34574    -3288 
   16928    14925    13078    20026    19925    11003     8058    11489 
    2571   -27500   -54461   -43404    -7780    -1114   -22714   -17253 
   21019    35546    -2325   -49981   -56827   -36236   -30495   -37472 
  -31472   -16875    -9565    -7085     -960    10646    19004    21026 
   32191    43729    26706     -605     1445    26397    38772    17993 
  -24186   -51535   -48675   -43923   -61272   -82057   -75888   -41493 
   -4864     4913    -9400    -7766    17810    21661    -4297   -13036 
    4969    11371    -6210   -17180     -801    15976     4923    -5856 
   12047    24740      705   -35705   -51719   -40865   -12746    15949 
   35109    42658    32563    13376     4993     -637   -22719   -55008 
  -72689   -54396   -13470     8942     4213    -2748    -5403   -12369 
  -27425   -54098   -79404   -80905   -63796   -38754     4109    55462 
   76242    50031    11680    13108    53877    71842    34670   -18311 
  -47746   -55748   -52552   -36021    -3677    32844    46139    20008 
  -25592   -66197   -99981  -104716   -53938    11275    37346    25508 
   -2595   -25399   -37771   -44101   -19132    36158    64021    46434 
   18340    -5035   -21735   -21735      278    38959    65771    53753 
   17060   -15048   -23506    -4549    14436     7632   -18330   -51903 
  -76265   -72363   -53828   -40839   -30202   -17722    -3584     6060 
   -9442   -43941   -46701    -3731    41232    64490    67033    50179 
   27766     4587   -18232   -17520     5136    14672     1016   -23659 
  -45549   -43799   -15130    18258    40643    42190    21041     8440 
   23254    33942    20011      657    -5882     1379     6171    -9741 
  -33790   -43167   -39917   -32921   -17805     8872    33375    39503 
   25483     2238   -13793   -17332   -16342   -20144   -35787   -58414 
  -69219   -55269   -23732    10805    41673    64197    72228    63067 
   42852    27221    25098    31681    32877    13405   -21264   -55137 
  -81206   -86636   -68709   -49995   -38154   -10465    40224    80007 
   83841    59174    16107   -28301   -62837   -81088   -41780    57180 
  128678   122084    75604    34750    10918   -10219   -35222   -48751 
  -42311   -31727   -41584   -59275   -46562    -4805    33585    41717 
   14387   -23010   -55179   -93310  -119913   -89303     3393   100844 
  130149    74674     5954    -8961    -3738   -19791   -32048   -36895 
  -46558   -36593     3770    65155   129686   151671   112607    46894 
  -31051  -125665  -205261  -228324  -180944   -82196    16974    71863 
   83981    80775    71279    47203    22961    19672    19014     8657 
    4425      972      -79    26776    78277   121398   125037    84822 
   27795   -25547   -76307  -115354  -118372   -84818   -42055   -15565 
  -26021   -57813   -49330     7379    40880     4426   -74214  -140178 
 -175939  -188921  -168057  -110459   -36333    26807    55261    66862 
   96161   125627   123664   100148    67141    25858     3819    22244 
   62020    98343   104895    59514    -8524   -52645   -76416   -99349 
 -117363  -129488  -143239  -151869  -134102   -73193    20787   106286 
  143046   124533    76045    37093    22811     9771   -17354   -41539 
  -39957   -11795    22519    36120    14992   -22561   -40208   -14261 
   30940    36380     4371    -4943    23065    56235    60936    25637 
  -20736   -57439   -94026  -118055  -106827   -65176   -13250    26788 
   44072    41882    18095   -27012   -74046   -99619   -94619   -63171 
   -9168    55937   109459   151266   184856   184387   141563    76761 
    6567   -44802   -64476   -76711   -95209  -102687   -86567   -59122 
  -54623   -87335  -131039  -162723  -174687  -170318  -161472  -128727 
  -46376    60001   157940   242305   304032   338845   345286   307428 
  238092   186423   174644   164451   101761     9023   -30352   -12212 
  -18038   -80343  -153949  -202704  -237226  -263682  -265037  -225744 
 -139277   -34499    35556    52907    43570    46585    75225    98593 
   87781    52180    12073    -7594    16415    64851    90721    78353 
   55940    44299    29766    -3727   -56678  -110716  -130175   -97013 
  -39542    -9818   -31296   -63670   -58081   -49009   -88251  -134180 
 -131870  -100676   -67603   -29065    15263    53177    66860    58961 
   51315    31834   -23466   -83868   -95829   -45936    31112    88080 
  118089   135725   135505   116347    76690    18334   -20162   -22303 
  -14951    -4663     3545   -10891   -42874   -75952  -103870  -118716 
 -119298  -118865  -128466  -149323  -183786  -228701  -260799  -257126 
 -223712  -183376  -146641  -109419   -59342     7807    63972    84269 
   75191    43552    15747    36155    86611   109840   102136    88786 
   65476     7039   -99913  -231736  -347654  -421829  -447613  -435587 
 -396533  -339912  -277089  -207776  -138431   -89337   -71920   -84011 
  -98383   -68751    17810   125715   212483   261874   291215   321349 
  338269   313535   250249   180143   122818    79395    54629    47525 
   41150    22817    -5089   -36184   -67724  -101677  -137423  -157389 
 -145219  -115323   -92541   -82505   -85842  -108798  -144318  -169744 
 -159011   -98155    -1539   100585   181264   221207   222688   211058 
  192526   148034    82416    24832    -4657   -10207   -16722   -45699 
  -97715  -154965  -205706  -258057  -307120  -327806  -315536  -277393 
 -211303  -134618   -73355   -29463     2312    15214     7842     -233 
    7615    30774    62505    89166   105707   130280   167580   191467 
  185773   152497    94633    24860   -40132   -87111  -109874  -124383 
 -140461  -137186   -98529   -28767    53370   122837   172790   202892 
  209492   203577   193087   170864   135697    99242    74063    54853 
   23438   -19542   -52848   -63570   -62239   -67887   -79271   -80037 
  -66742   -42027    -7118    38747   114707   217689   296213   321131 
  302048   245828   169319    98937    35302   -36789  -112509  -175682 
 -227509  -268255  -284942  -278779  -247412  -179103  -103025   -66965 
  -75467  -101390  -121337  -122848  -106401   -86903   -82346  -100922 
 -130123  -134012   -92098   -35799    -3742     7219    13898    18213 
   17950    25563    52970    82440   110448   139776   132180    90870 
   52587     7618   -44832   -95019  -152182  -210819  -271799  -335784 
 -377113  -391915  -389662  -350377  -264849  -164655   -84264   -25136 
   32500    89607   118789   104121    63218    25829    22308    53996 
   84717   108642   135612   154555   172591   173438   123263    47561 
  -26357  -101325  -166196  -218820  -263761  -281147  -258718  -208650 
 -139800   -62118    10674    85824   162163   215883   243369   241659 
  211131   186867   170466   130456    79151    37374       66   -39398 
  -87306  -138105  -176301  -203411  -234706  -274570  -309669  -327716 
 -324517  -298073  -251382  -184256   -87327    34062   150758   238696 
  291057   311774   313677   307918   287736   231467   146367    74729 
   40215    47190    88483   133703   162911   166987   131815    68308 
   -3154   -85874  -177739  -259253  -314448  -328218  -298709  -243015 
 -163449   -56902    43596    88408    71946    40170    37114    64831 
  100092   129042   146584   160763   193777   245105   284836   276534 
  214499   143577    89750    30494   -38634   -99381  -147872  -182498 
 -189179  -163112  -125213   -96044   -80690   -72153   -51907   -22107 
   -5777    -5433   -15340   -33095   -40447   -29495   -13628    16972 
   84554   173130   250051   303973   324839   300704   253576   214134 
  164687    92277    45697    51623    74877    94556   114208   130223 
  137190   116563    43821   -65464  -155865  -187962  -164553  -110730 
  -59641   -33412   -19748      816    14267     3281   -15292   -19580 
   -7068    15548    31571    25767    20594    50144    99404   126954 
  123785   117007   119272   108830    79558    56206    58795    82763 
   99258    87626    50733    -4743   -53546   -75508   -97722  -132734 
 -156705  -165857  -167839  -171137  -183727  -185423  -156980  -105544 
  -41199    27728    95769   165669   230290   257358   235275   199461 
  170045   145840   140746   158699   190094   225305   242718   228237 
  196548   169323   147313   101372    16763   -62222   -90555   -77085 
  -55514   -49986   -58556   -70278   -79969   -73232   -53044   -50747 
  -72201   -86615   -66748   -18202    24205    48762    79341   111973 
  118533   103031    86563    70029    40456     6391    -5087      109 
   -5781   -22933   -31767   -22614    -7356    -1034      985    -1203 
  -19518   -41358   -52899   -70129   -96118  -110429  -109128  -102838 
  -88858   -60970   -22927    26898    90108   153177   200056   223378 
  216231   177938   123947    62375     5044   -18997   -14791    -8329 
   -4474    -5777    -1581    17902    19545   -15866   -61179  -108620 
 -168472  -220838  -239911  -224884  -180606  -112418   -41845    13680 
   57055    81139    74212    56814    52909    63217    81718    97024 
  105301   116030   129618   131222   104035    49102    -6862   -44113 
  -78091  -116510  -142288  -155278  -159074  -153227  -155084  -174148 
 -199028  -217434  -221665  -200910  -152383   -96048   -42994    16797 
   82691   143265   189992   220820   241152   252594   246782   216630 
  172777   138155   117133    93328    56195     1184   -64591  -115213 
 -139276  -143795  -129745   -92194   -32061    31627    79935    99483 
   70907     8138   -49615   -83003   -77205   -25103    55812   131017 
  166242   167901   168411   164505   135279    82571    20590   -27016 
  -44950   -44428   -38708   -39821   -57290   -87594  -129060  -176459 
 -214546  -233943  -231388  -211824  -192899  -184758  -180027  -172882 
 -163194  -149813  -135845  -119704   -92079   -54379   -17046    10644 
   20557    14718     7401     5445     4716     6920    11892    13674 
   15054    12270    -6508   -32095   -49339   -68742  -107058  -162668 
 -227508  -291779  -335016  -340837  -314875  -269066  -206407  -129765 
  -44631    37672    94370   107382    86134    63293    59821    65117 
   65057    66117    77917    97884   109572    96769    69530    44992 
   21061    -1312   -11145   -13391   -21200   -36977   -60888   -82317 
  -93754  -115594  -152676  -184668  -206273  -220625  -228647  -229784 
 -218390  -194223  -161102  -121943   -86898   -60900   -31597     6614 
   44633    79988   112761   136231   149773   156896   153961   138305 
  110746    69511    13633   -52114  -115585  -167310  -204042  -219598 
 -219837  -225590  -245687  -277061  -307536  -320360  -319544  -311540 
