Origin Time       2016/04/16 01:25:00
Lat.              32.753
Long.             130.762
Depth. (km)       12
Mag.              7.3
Station Code      KMM005
Station Lat.      32.8761
Station Long.     130.8774
Station Height(m) 124
Record Time       2016/04/16 01:25:09
Sampling Freq(Hz) 100Hz
Duration Time(s)  300
Dir.              E-W
Scale Factor      3920(gal)/6182761
Max. Acc. (gal)   482.302
Last Correction   2016/04/16 01:25:09
Memo.             
[...]
  -15006   -15037   -14967   -14911   -14831   -14756   -14826   -14933 
  -14923   -14906   -14954   -14947   -14863   -14833   -14852   -14810 
  -14791   -14906   -15003   -14957   -14910   -14914   -14848   -14774 
  -14833   -14911   -14893   -14893   -14949   -14960   -14912   -14850 
  -14794   -14779   -14860   -14990   -15034   -14963   -14862   -14790 
  -14769   -14817   -14911   -14991   -15010   -14937   -14819   -14765 
  -14789   -14838   -14919   -15007   -15010   -14922   -14858   -14838 
  -14773   -14749   -14894   -15034   -14997   -14938   -14917   -14817 
  -14743   -14821   -14913   -14919   -14920   -14952   -14938   -14865 
  -14837   -14862   -14842   -14826   -14904   -14944   -14893   -14900 
  -14947   -14922   -14866   -14817   -14788   -14828   -14916   -14981 
  -15004   -14961   -14841   -14740   -14753   -14839   -14931   -15022 
  -15056   -14964   -14833   -14786   -14776   -14759   -14834   -14968 
  -14985   -14924   -14926   -14925   -14852   -14830   -14901   -14914 
  -14856   -14844   -14852   -14848   -14915   -15023   -15022   -14882 
  -14767   -14759   -14767   -14823   -14983   -15055   -14956   -14882 
  -14889   -14864   -14831   -14827   -14803   -14815   -14910   -15006 
  -15060   -15020   -14848   -14697   -14700   -14804   -14937   -15038 
  -15041   -14932   -14779   -14720   -14789   -14876   -14981   -15083 
  -15003   -14821   -14776   -14813   -14827   -14881   -14970   -14970 
  -14876   -14862   -14916   -14861   -14820   -14898   -14901   -14849 
  -14899   -14948   -14904   -14856   -14863   -14882   -14868   -14867 
  -14903   -14906   -14878   -14891   -14908   -14880   -14861   -14857 
  -14857   -14886   -14911   -14920   -14947   -14947   -14880   -14803 
  -14799   -14839   -14860   -14926   -15012   -14963   -14861   -14856 
  -14841   -14784   -14836   -14941   -14950   -14927   -14937   -14899 
  -14825   -14824   -14885   -14890   -14875   -14942   -14962   -14859 
  -14819   -14871   -14864   -14838   -14901   -14958   -14918   -14874 
  -14888   -14889   -14864   -14869   -14878   -14861   -14864   -14889 
  -14916   -14940   -14915   -14857   -14848   -14870   -14877   -14896 
  -14922   -14908   -14867   -14873   -14901   -14866   -14837   -14889 
  -14909   -14858   -14875   -14950   -14923   -14849   -14874   -14909 
  -14863   -14864   -14937   -14916   -14828   -14834   -14879   -14869 
  -14893   -14964   -14947   -14854   -14834   -14860   -14848   -14887 
  -14977   -14966   -14872   -14820   -14817   -14836   -14879   -14923 
  -14944   -14934   -14901   -14870   -14857   -14863   -14875   -14888 
  -14913   -14924   -14892   -14872   -14887   -14858   -14809   -14847 
  -14914   -14914   -14925   -14972   -14926   -14833   -14859   -14895 
  -14835   -14835   -14920   -14930   -14876   -14881   -14911   -14867 
  -14824   -14884   -14923   -14882   -14901   -14947   -14897   -14831 
  -14839   -14871   -14880   -14896   -14916   -14896   -14872   -14895 
  -14911   -14892   -14876   -14871   -14880   -14904   -14901   -14885 
  -14894   -14885   -14850   -14855   -14895   -14887   -14859   -14914 
  -14971   -14898   -14823   -14853   -14866   -14842   -14898   -14972 
  -14922   -14847   -14877   -14884   -14831   -14875   -14956   -14917 
  -14864   -14892   -14892   -14836   -14845   -14920   -14924   -14871 
  -14883   -14902   -14872   -14882   -14923   -14906   -14862   -14847 
  -14857   -14879   -14911   -14925   -14914   -14897   -14861   -14823 
  -14850   -14909   -14917   -14907   -14917   -14887   -14834   -14852 
  -14904   -14890   -14862   -14900   -14918   -14879   -14891   -14926 
  -14864   -14810   -14875   -14918   -14875   -14900   -14974   -14920 
  -14821   -14841   -14874   -14841   -14873   -14960   -14959   -14896 
  -14869   -14850   -14817   -14838   -14916   -14953   -14918   -14870 
  -14850   -14860   -14885   -14902   -14902   -14897   -14887   -14878 
  -14896   -14910   -14874   -14845   -14877   -14891   -14863   -14892 
  -14946   -14916   -14859   -14865   -14862   -14836   -14892   -14969 
  -14921   -14831   -14853   -14894   -14850   -14849   -14930   -14936 
  -14879   -14902   -14929   -14856   -14818   -14888   -14913   -14871 
  -14889   -14926   -14890   -14853   -14868   -14871   -14865   -14896 
  -14920   -14909   -14893   -14879   -14867   -14864   -14864   -14867 
  -14895   -14928   -14909   -14869   -14881   -14892   -14864   -14881 
  -14925   -14889   -14828   -14863   -14919   -14878   -14854   -14924 
  -14923   -14853   -14882   -14933   -14875   -14838   -14897   -14904 
  -14845   -14869   -14933   -14896   -14840   -14870   -14897   -14878 
  -14905   -14955   -14918   -14843   -14836   -14867   -14882   -14895 
  -14897   -14885   -14883   -14878   -14870   -14890   -14910   -14894 
  -14891   -14914   -14894   -14852   -14870   -14894   -14858   -14847 
  -14901   -14913   -14882   -14918   -14955   -14881   -14830   -14886 
  -14892   -14830   -14864   -14944   -14901   -14830   -14879   -14921 
  -14869   -14868   -14932   -14918   -14859   -14872   -14897   -14864 
  -14861   -14910   -14908   -14869   -14878   -14898   -14891   -14891 
  -14900   -14892   -14876   -14868   -14870   -14874   -14881   -14882 
  -14883   -14907   -14911   -14879   -14881   -14901   -14864   -14842 
  -14901   -14920   -14868   -14872   -14911   -14876   -14850   -14910 
  -14917   -14847   -14860   -14935   -14911   -14846   -14882   -14923 
  -14863   -14842   -14907   -14911   -14863   -14893   -14926   -14868 
  -14838   -14899   -14920   -14875   -14873   -14900   -14892   -14885 
  -14890   -14873   -14857   -14872   -14899   -14915   -14899   -14865 
  -14872   -14913   -14910   -14865   -14858   -14894   -14906   -14920 
  -14989   -15035   -15034   -15130   -15348   -15529   -15651   -15728 
  -15536   -15048   -14765   -15137   -16055   -17136   -17893   -17568 
  -15394   -11696    -8564    -8191   -10830   -15391   -20269   -23047 
  -21953   -17523   -11615    -6870    -6176    -8975   -11799   -14281 
  -18146   -21986   -22283   -18216   -14282   -14142   -15196   -15138 
  -14732   -13647   -11655   -11232   -14942   -20008   -19849   -11533 
    -743      394   -11637   -25298   -29086   -24042   -19506   -15240 
   -4822     1919    -5446   -19175   -30161   -32936   -25722   -17741 
  -13453    -4929     6471     8509     -651   -13602   -25933   -33312 
  -30507   -18823    -7778    -7733   -15476   -11432     7202    12548 
   -7279   -31084   -41869   -40343   -32576   -26762   -26456   -21842 
  -12284   -13655   -21761   -20520   -14884    -9495     -613      104 
  -10793   -14429   -11347   -12800   -12003   -12575   -17916   -12542 
   -4878   -10669   -16325   -14723   -10050     -885     -451   -22549 
  -41842   -28674    -6206    -7722   -24036   -32363   -28528   -24554 
  -28249   -33242   -30153   -16700    -5524    -8407   -16928   -18989 
  -11109      557     8253    10050     -750   -17898   -21061   -13212 
  -11921   -20187   -25770   -18902    -8195    -7376   -14706   -19185 
  -16895   -13781   -17027   -28613   -45548   -58343   -58335   -47931 
  -30044    -8162     5328     6130     4825     7958    13416    17207 
    7071   -21788   -46038   -48625   -41287   -35222   -29752   -26192 
  -28187   -26550   -11264     2255      118    -3126     7029    19002 
   11620   -15203   -40134   -42024   -25594   -19511   -26697   -18131 
    9699    22024     4657    -8381     2193    12164     9064    -2520 
  -28531   -56754   -60772   -40015   -11977    -6044   -29827   -44098 
  -35367   -20836    -5082     2718     7866    22650    32339    30497 
   22881     5178   -13474   -18532   -13189    -4751    -3676   -18446 
  -43112   -64910   -70863   -58601   -37784   -16511     1667    14401 
   22728    33367    46319    46144     9943   -59193  -108433  -101592 
  -57052    -1508    29762    19213     5222    15313    20908   -10190 
  -53588   -60091   -25214    19071    37429    19021    -6741   -13632 
   -9574    -5442     1793     5303    -2833    -5474     3940     1953 
  -15933   -24452   -15797   -10445   -17421   -19874      838    27703 
   19711   -12714   -23767   -20175   -34577   -47088   -27416    -1223 
    7390     3986   -24914   -77864  -117257  -123009   -90474   -34370 
   -1352    -2105    -6867    -6253   -12953   -41733   -73206   -63204 
  -14510    30237    47368    43309    29575    14164    20710    57255 
   79869    63172    33954    10961     9404    38033    57645    28513 
  -30003   -68618   -69505   -51048   -40784   -48887   -54208   -42836 
  -22968   -15430   -36374   -52278   -28662    18869    78697   149092 
  201996   190310    96008   -21819   -83616   -84973   -59499   -13454 
   28050    26813    -1411   -28949   -51347   -74484  -113280  -135541 
  -80338    33412   112156   104860    67403    58217    57679    26422 
  -51988  -124961  -122396   -71536   -17286    39802    83814    87769 
   47438      -28   -24638   -67659  -152708  -193419  -105278    54004 
  135477    91053    38399    43249    29079   -20092   -46925   -48774 
  -43120   -25877    10202    51711    62033    34337     6928    -1217 
  -10788   -31407   -63689   -99528  -109602  -110604  -109104   -43546 
   62242   117550   120851   110227    94209    74689    69749    91379 
   87205    12799   -71086   -95361   -72630   -42389   -27953   -31130 
  -22547    14258    60102   104406   139590   142814    92928    -1782 
  -73239   -82142   -94164  -127639  -104547   -46287   -52061   -72204 
   19232   167493   203751   130372    98422   151979   206088   187087 
   93653   -29846  -119031  -105857   -19853    15013   -36326   -73538 
  -44196   -15840   -10861    14943    51443    74756    90222    83963 
   49698    12739    22266   110777   167179    79913   -21825    10686 
  103782   107759    -5007  -122686  -144302  -124059  -159314  -196597 
 -167118  -150888  -172375  -143145  -100273  -140211  -228599  -283543 
 -269023  -206930  -156498  -157060  -183149  -147208   -46746     1763 
  -49889  -142072  -194005  -177990  -131394   -81260   -43255   -25741 
   -8714    12100    21594    13648   -25120  -106510  -185223  -195113 
 -150669  -134719  -168138  -177173  -162717  -206549  -287462  -326673 
 -315508  -270884  -209931  -182199  -183190  -172707  -169569  -116462 
   26216   127166   151706   166541   178070   194999   147060    -2476 
 -118103  -164183  -191323  -182070  -182787  -217116  -227218  -240580 
 -268426  -258845  -246856  -269891  -309321  -338873  -308597  -228257 
 -159969  -136111  -167987  -201898  -188978  -156178  -110826   -45481 
   11135    15353   -27530   -55414   -26794    60433   137564   112039 
   18893   -32983     2592    84823   135475   138500   142048   171847 
  210454   239110   237285   176316   107627   120287   199419   288962 
  360462   389905   381560   364152   357118   356282   358732   380792 
  416753   447985   482227   525225   548268   534590   526729   514853 
  397038   154182  -136189  -383997  -494168  -452648  -325147  -209885 
 -228995  -365848  -456402  -373071  -153433   -28920   -73060  -113558 
 -108049   -58247    48644   153653   275024   419086   543619   626850 
  643819   580244   433010   245832    -8471  -353151  -613026  -723761 
 -773033  -752489  -672550  -573957  -477356  -401836  -304385  -170675 
  -63145   -12146    -3831    11623    66760    79965    21946    -5266 
   21230    37013      886   -35197     1436    39234    38497    74171 
  109687    61640   -33704  -103534  -114739   -48868    48993    79504 
   63513   128577   295265   391454   274581   153094   254837   371018 
  314122   180485    11841  -110061   -37947   161009   289493   277435 
  244744   271920   303214   369142   505087   591451   524063   347849 
  214049   197823   223606   217857   117173  -131289  -388549  -476108 
 -484420  -520452  -496784  -432433  -408691  -363136  -259769   -75053 
  189560   360150   379743   407259   471692   482182   433677   339433 
  192486    33057  -110929  -240273  -320827  -339540  -304473  -152202 
   84631   233644   322924   437201   444813   347282   323442   365097 
  344215   259941   185220   141419   123913   109148    81232    43152 
  -40356  -151941  -236486  -312490  -359816  -331810  -257624  -122389 
   82950   226106   263424   328497   415316   397463   346436   335255 
  245630   121280    83564    42718   -30804   -48584   -20637   -59618 
 -192198  -284257  -313481  -310857  -227562  -143948  -130147  -166072 
 -207843   -93502   185015   365437   316106   179365    87797    -8470 
 -121258  -155904  -133738  -134629  -169866  -211384  -189585  -100338 
  -58621   -98008  -132612  -161066  -246937  -337370  -357443  -357906 
 -346519  -253421  -138241   -80727   -36906    29720   107788   177992 
  219292   218844   177066   112624    31161   -48276  -102694  -173045 
 -247920  -273799  -293585  -338901  -394213  -431702  -401298  -329262 
 -227447   -51673   101640   160742   241878   346312   329556   185719 
     300  -213173  -460493  -639542  -601312  -417574  -296180  -226963 
 -126497   -42411    35362   122994   134427    56824   -74339  -253358 
 -428632  -521999  -484446  -392977  -380313  -374595  -260145  -107125 
   36962   178005   261267   294716   323315   339017   350142   347253 
  282610   145733   -54031  -283868  -455379  -512752  -492789  -462460 
 -459294  -470049  -475280  -479174  -436748  -306657  -119806   111080 
  345072   489997   515994   447953   348613   257012   160050    73813 
  -32818  -240277  -529205  -760752  -775574  -550358  -231132    19740 
  153610   229129   320305   433772   502952   492255   401264   199386 
  -36236  -169555  -231779  -269683  -224780  -133144  -123306  -189663 
 -193716   -94763    44683   205749   331135   371031   422509   502194 
  505567   434196   310597   147569    -4579  -182425  -380826  -470767 
 -430437  -353991  -292783  -229118  -127719     -941   119860   251061 
  387533   503274   615541   672296   608032   489780   371741   222394 
   26013  -183759  -340841  -382605  -318209  -249761  -238353  -214248 
  -87627   101275   234162   308932   360555   365727   357923   328072 
  215135    73596   -70860  -280931  -499081  -595077  -547239  -423844 
 -319810  -253044  -137905   -11673    40940   103134   191312   232979 
  239153   196588   129935    91337    38624     -353     7410    -5541 
  -23177     -937    39469   101527   185894   246948   247286   185904 
   74716   -58677  -143257  -118816   -21196    67182   129720   183779 
  212944   198946   140421    69998    21534   -38478  -148006  -273609 
 -306290  -207254  -114882   -86009   -20736    78937   121992    91004 
   38330     1934   -17317   -42901  -110280  -182204  -192091  -158328 
 -109265   -57586   -14553    36729    84668   142117   230484   259630 
  194111   120011    62027   -18766  -146370  -287516  -345571  -269541 
 -134296   -54090   -41748   -28542   -13613   -53912  -109020  -126375 
 -149845  -174066  -195307  -258092  -299293  -253465  -166770   -96711 
  -46010     3954    14661   -52389  -110445   -70247   -27176   -70515 
 -134869  -192426  -223981  -169417   -73015     2013    76960   174943 
  241106   219717   179187   135615     1427  -174081  -309875  -398916 
 -387961  -264321  -106824    12042    58144    26550   -52617  -117444 
 -134277   -96547    -1779    79880    71108     5491   -68197  -150319 
 -214420  -244909  -284253  -348420  -404193  -413978  -365595  -282825 
 -182016   -71082    16428    50291    37347     7812   -23458   -53846 
  -65368   -57419   -72123  -143103  -243648  -314768  -347241  -373968 
 -395331  -404924  -390643  -306988  -174614   -44363    90032   188234 
  226326   265500   288803   247299   163433    53779   -55674  -135181 
 -189949  -211417  -209504  -207519  -199932  -196649  -191723  -146383 
  -45452    70287   126868   127975   126932   126090   122465    94355 
   12904  -103011  -234227  -343232  -394348  -370308  -250092  -116161 
  -37972    58053   191274   319331   419473   418526   303306   194730 
  166924   154076    94394    53856    90714   116512    25881  -150204 
 -297919  -343063  -247890   -45736   119299   210301   312226   388355 
  399789   427166   463404   430487   353710   252670    91122   -64308 
 -113946   -72997   -30674   -73882  -211884  -379299  -482240  -445287 
 -310884  -164059   -21847    93543   155619   205712   284102   333261 
  316100   293094   272294   208355    93719   -32141  -102426  -108826 
  -93254   -94063  -121836  -128027  -105193   -75582   -12995    23841 
  -29299   -95908  -130824  -144875  -120458   -78211   -44321   -22183 
  -29470   -68668  -132831  -193976  -216767  -211847  -174637  -105521 
  -47529     5238    62259    99262   146431   229011   308389   360410 
  378594   351496   293916   211100    84552   -56205  -160974  -231792 
 -279187  -306992  -326332  -317115  -281754  -242448  -170534   -77580 
    4593   103486   189185   213883   217399   211432   166264    92286 
  -15749  -189486  -405764  -578010  -617873  -524733  -413647  -342877 
 -244930  -113185    30049   201879   316703   320673   299182   250055 
  132044     1143  -123842  -229220  -257962  -230954  -188466  -150858 
 -161228  -206445  -234297  -203119   -96474    30567   139475   250440 
  367394   474030   527985   513690   474802   382987   202610    16308 
 -148365  -311477  -413825  -450440  -445143  -381974  -299765  -218259 
 -118543   -25297    64287   153229   183192   144674    55760   -87032 
 -220373  -283232  -283171  -255034  -248989  -246851  -208519  -152968 
  -67194    39787   113418   151443   151147   118779    98800    87431 
   54004     3687   -41108   -71916   -91672   -87183   -63677   -46721 
  -14224    47456   102449   132587   148691   182012   246558   307387 
  347753   370874   342725   255162   171894   122176    60617   -30866 
 -136904  -248482  -314757  -289371  -204431  -107815   -16937    67201 
  137600   171113   154053    91402     6908   -78942  -160305  -201358 
 -173300  -113545   -74709   -57107   -16540    50687   104546   142641 
  173995   184050   178451   183094   190250   173484   148483   119858 
   66771    17766    -9678   -28237   -22248    -2512     1301    -4585 
  -10295   -12080    -2364    26418    68835    97425    98006    80943 
   61916    44801     7954   -59775  -141326  -211380  -236421  -197576 
 -114994   -30336    31497    85382   151430   213648   243115   232073 
  181014    97213    20427   -13578   -11245    11112    32731    30679 
    3023   -35981   -53200   -30794     5289    35857    59847    73510 
   77569    74833    72169    69720    46700    -6920   -76860  -142381 
 -173820  -160040  -132127  -115063  -104089   -83213   -42559    10662 
   73473   135790   173256   193518   211890   210177   172350   101974 
    9813   -84688  -165163  -225723  -263117  -278979  -275052  -250915 
 -211292  -161811  -114568   -80018   -44956     -762    39511    62307 
   53872    15351   -27525   -54141   -63256   -61473   -46532   -21018 
  -13923   -39417   -75183  -106269  -130191  -142810  -143337  -124227 
  -78577   -15828    40779    65559    62944    64981    77877    86428 
   91426    95697   106153   132212   155903   165104   169000   163121 
  138203    93347    42297     5486   -24808   -62998  -102248  -144281 
 -180556  -172444  -123513   -74785   -37435   -18212   -16612    -8124 
