Origin Time       2016/04/16 01:25:00
Lat.              32.753
Long.             130.762
Depth. (km)       12
Mag.              7.3
Station Code      KMM012
Station Lat.      32.5078
Station Long.     130.6024
Station Height(m) 3
Record Time       2016/04/16 01:25:11
Sampling Freq(Hz) 100Hz
Duration Time(s)  255
Dir.              N-S
Scale Factor      3920(gal)/6182761
Max. Acc. (gal)   197.465
Last Correction   2016/04/16 01:25:11
Memo.             
[...]
  -12774   -12785   -12736   -12742   -12793   -12769   -12727   -12773 
  -12802   -12747   -12747   -12809   -12784   -12724   -12767   -12813 
  -12755   -12728   -12794   -12794   -12728   -12759   -12817   -12757 
  -12715   -12793   -12811   -12727   -12739   -12821   -12783   -12714 
  -12778   -12821   -12735   -12721   -12813   -12788   -12698   -12759 
  -12837   -12750   -12703   -12806   -12812   -12708   -12744   -12839 
  -12769   -12694   -12789   -12833   -12723   -12723   -12840   -12802 
  -12696   -12767   -12840   -12735   -12695   -12813   -12810   -12695 
  -12748   -12852   -12763   -12687   -12798   -12835   -12715   -12720 
  -12835   -12789   -12693   -12779   -12849   -12738   -12711   -12833 
  -12809   -12688   -12750   -12842   -12750   -12697   -12813   -12831 
  -12712   -12733   -12837   -12774   -12692   -12784   -12839   -12732 
  -12716   -12828   -12802   -12696   -12762   -12840   -12743   -12698 
  -12808   -12816   -12711   -12741   -12835   -12776   -12707   -12787 
  -12820   -12726   -12729   -12828   -12798   -12711   -12764   -12822 
  -12745   -12720   -12803   -12797   -12723   -12755   -12811   -12756 
  -12719   -12791   -12804   -12730   -12746   -12814   -12781   -12735 
  -12784   -12804   -12740   -12739   -12801   -12780   -12731   -12764 
  -12785   -12735   -12734   -12785   -12774   -12739   -12774   -12807 
  -12772   -12759   -12801   -12796   -12755   -12770   -12786   -12743 
  -12735   -12778   -12767   -12729   -12760   -12796   -12762   -12750 
  -12794   -12783   -12738   -12762   -12791   -12751   -12744   -12793 
  -12782   -12733   -12758   -12794   -12752   -12735   -12800   -12803 
  -12740   -12761   -12812   -12760   -12722   -12788   -12798   -12723 
  -12738   -12809   -12767   -12714   -12783   -12820   -12742   -12736 
  -12822   -12795   -12712   -12764   -12826   -12744   -12710   -12809 
  -12808   -12706   -12745   -12838   -12774   -12710   -12798   -12825 
  -12717   -12720   -12823   -12779   -12692   -12768   -12826   -12724 
  -12702   -12818   -12810   -12711   -12765   -12850   -12763   -12700 
  -12798   -12820   -12714   -12736   -12843   -12784   -12695   -12782 
  -12833   -12716   -12700   -12820   -12802   -12703   -12767   -12847 
  -12751   -12699   -12806   -12814   -12703   -12736   -12844   -12782 
  -12703   -12788   -12827   -12720   -12712   -12819   -12792   -12700 
  -12765   -12838   -12748   -12710   -12814   -12814   -12713   -12749 
  -12835   -12760   -12689   -12782   -12825   -12732   -12738   -12829 
  -12777   -12694   -12768   -12826   -12742   -12727   -12818   -12803 
  -12720   -12765   -12831   -12757   -12711   -12802   -12819   -12723 
  -12734   -12813   -12769   -12711   -12777   -12808   -12728   -12727 
  -12812   -12791   -12721   -12767   -12813   -12748   -12729   -12802 
  -12795   -12726   -12756   -12815   -12768   -12728   -12786   -12800 
  -12737   -12749   -12804   -12767   -12723   -12774   -12797   -12742 
  -12747   -12803   -12779   -12733   -12764   -12788   -12748   -12740 
  -12783   -12778   -12745   -12773   -12797   -12758   -12751   -12796 
  -12784   -12743   -12767   -12794   -12756   -12748   -12796   -12785 
  -12740   -12767   -12795   -12751   -12741   -12795   -12789   -12737 
  -12762   -12804   -12762   -12737   -12786   -12782   -12728   -12754 
  -12804   -12760   -12726   -12786   -12800   -12732   -12746   -12818 
  -12784   -12726   -12782   -12812   -12735   -12726   -12806   -12791 
  -12724   -12773   -12822   -12743   -12709   -12795   -12803   -12726 
  -12756   -12828   -12768   -12711   -12788   -12815   -12728   -12738 
  -12825   -12782   -12707   -12770   -12814   -12732   -12720   -12813 
  -12797   -12711   -12757   -12828   -12756   -12712   -12804   -12815 
  -12716   -12743   -12835   -12774   -12700   -12781   -12819   -12721 
  -12721   -12824   -12789   -12702   -12772   -12834   -12736   -12704 
  -12815   -12815   -12711   -12753   -12841   -12758   -12687   -12789 
  -12823   -12714   -12727   -12836   -12786   -12698   -12781   -12835 
  -12732   -12719   -12829   -12800   -12698   -12759   -12835   -12748 
  -12699   -12794   -12805   -12709   -12742   -12832   -12763   -12697 
  -12792   -12830   -12727   -12729   -12830   -12793   -12707   -12771 
  -12829   -12740   -12716   -12816   -12806   -12713   -12758   -12830 
  -12753   -12703   -12789   -12803   -12720   -12742   -12821   -12774 
  -12710   -12778   -12823   -12742   -12732   -12821   -12801   -12725 
  -12771   -12816   -12743   -12716   -12794   -12799   -12732   -12760 
  -12811   -12758   -12721   -12782   -12794   -12737   -12760   -12818 
  -12773   -12728   -12783   -12801   -12737   -12738   -12791   -12769 
  -12735   -12778   -12801   -12751   -12748   -12798   -12780   -12737 
  -12772   -12798   -12749   -12741   -12793   -12781   -12739   -12773 
  -12800   -12751   -12739   -12791   -12784   -12737   -12760   -12794 
  -12752   -12733   -12787   -12792   -12737   -12753   -12803   -12767 
  -12733   -12784   -12798   -12742   -12752   -12803   -12769   -12730 
  -12788   -12813   -12746   -12745   -12811   -12775   -12709   -12763 
  -12812   -12748   -12727   -12796   -12782   -12711   -12756   -12825 
  -12767   -12731   -12806   -12808   -12719   -12740   -12819   -12770 
  -12707   -12779   -12816   -12728   -12724   -12819   -12792   -12713 
  -12772   -12825   -12739   -12715   -12815   -12807   -12705   -12750 
  -12838   -12760   -12699   -12798   -12819   -12708   -12727   -12832 
  -12775   -12694   -12788   -12843   -12736   -12722   -12831   -12800 
  -12700   -12766   -12840   -12748   -12707   -12808   -12807   -12702 
  -12735   -12829   -12767   -12698   -12793   -12834   -12725   -12722 
  -12829   -12794   -12699   -12761   -12826   -12740   -12716   -12822 
  -12818   -12718   -12753   -12831   -12760   -12698   -12785   -12816 
  -12723   -12734   -12826   -12784   -12709   -12775   -12824   -12741 
  -12722   -12810   -12796   -12712   -12754   -12822   -12759   -12721 
  -12801   -12811   -12726   -12739   -12808   -12763   -12719   -12792 
  -12821   -12746   -12741   -12809   -12784   -12720   -12763   -12809 
  -12752   -12730   -12789   -12785   -12731   -12760   -12804   -12757 
  -12732   -12792   -12797   -12739   -12754   -12800   -12764   -12733 
  -12780   -12792   -12740   -12750   -12799   -12767   -12729   -12776 
  -12797   -12745   -12745   -12796   -12781   -12746   -12781   -12805 
  -12756   -12750   -12797   -12777   -12735   -12774   -12802   -12750 
  -12738   -12791   -12775   -12720   -12758   -12806   -12756   -12734 
  -12796   -12783   -12713   -12743   -12790   -12729   -12690   -12739 
  -12705   -12581   -12587   -12724   -12804   -12835   -12837   -12651 
  -12321   -12206   -12395   -12536   -12493   -12434   -12345   -12374 
  -12842   -13360   -13246   -12469   -11598   -11260   -11494   -12137 
  -13034   -13473   -13369   -13388   -13472   -13415   -13118   -12420 
  -11725   -11514   -11854   -12438   -13178   -14267   -14951   -14456 
  -13225   -12240   -12449   -13506   -13989   -13261   -11468   -10138 
  -11344   -13451   -13428   -12342   -11946   -11982   -12737   -13615 
  -13271   -12077   -10841   -10543   -11185   -11036   -10534   -10994 
  -11184   -10912   -11921   -13867   -14622   -14095   -14473   -15623 
  -14940   -13072   -13016   -14581   -15852   -16490   -16441   -16142 
  -17016   -18360   -18171   -16189   -12830    -9875    -9605   -11041 
  -12844   -14308   -13480   -11035    -9489    -9403    -9116    -7309 
   -7274   -10675   -13470   -13920   -12555   -10923   -11504   -12092 
  -10991   -10523   -10250    -9740   -10604   -12289   -13650   -14797 
  -16606   -19033   -20957   -21566   -19577   -16775   -15344   -11988 
   -8362    -9483   -10963   -10225   -11743   -14497   -14607   -12562 
  -11335   -12407   -12566   -10137    -9506   -12444   -15395   -15639 
  -14226   -13914   -15295   -17614   -18158   -12991    -6394    -5392 
   -6124    -4131    -6112   -15194   -21335   -19863   -17514   -15764 
  -11436    -6629    -3931    -2414    -4084   -10408   -14561   -15113 
  -17256   -16969   -12793   -10372    -8116    -6683   -10472   -13685 
  -13646   -16829   -19924   -16931   -12943    -9005      -41     7648 
    2747    -9459   -13983   -12767   -16421   -20430   -19928   -21125 
  -24222   -23376   -17850   -11204    -6168    -2666    -1213    -3525 
   -8799   -12369   -11848   -10161    -7990    -6119    -8742   -17171 
  -27353   -31117   -27915   -23724   -16179    -7225    -3785      755 
    9407    13803    16119    16890     6780    -5573    -9225   -12951 
  -17590   -16756   -14607   -15499   -20077   -26031   -25121   -12104 
   -1401   -11069   -26217   -26527   -20842   -13396    -1181     5177 
    3194    -1611   -10696   -28171   -48095   -53564   -46312   -35632 
  -15628     4934     8936     1916     -993     1458     2538     3241 
    3355     -485    -9031   -19500   -20110   -12810    -8375      539 
    5889    -6105   -18935   -25076   -28344   -23737   -12838     6359 
   27277    26851     5877   -14882   -25418   -28610   -29386   -25604 
  -20298   -18676    -9792     7798    14129     4060    -9084   -22013 
  -33654   -32348   -20942   -12284    -5295      413     1671     -618 
   -9157   -21152   -24818   -25140   -35313   -36906   -16325    -2625 
   -5654    -7954   -13419   -20200   -15379    -5563     2398     4353 
   -2548    -4654    -1082    -4791    -9429   -12030   -24338   -45679 
  -62512   -56929   -25962     3958    16805    19733    12552     2413 
    3138     6553     4646    -1549   -13003   -19774   -15854    -6233 
    6236    16490    22281    17535     4491     2415    -3236   -28938 
  -45957   -46103   -43207   -30938   -10342     2391     3164     4935 
    4101   -16330   -37848   -36673   -24837   -15413    -7557     1326 
    5210    -2555   -10615   -19390   -36797   -47456   -40427   -18108 
    9664    31060    43831    44419    36284    27227    13567    -4202 
  -19596   -24606   -18422   -19604   -30544   -29339   -10894    12452 
   20267      582   -25399   -34625   -27563   -17908   -18056   -19649 
  -15808   -15369   -16722   -14771   -12574   -16401   -29745   -44473 
  -50438   -45295   -36208   -31914   -28728   -21352   -12144    -4960 
   -2547    -5563    -7121     1938    12834    16515    19248    15089 
   -2990   -19670   -22992   -26939   -43271   -56313   -58601   -62059 
  -59373   -32785     8466    34914    30002     2548   -24308   -38034 
  -39477   -18835    16310    26269     3216   -25879   -48609   -58795 
  -43256   -11514     -477   -18170   -36320   -35882   -12259    21130 
   45453    58050    53026    30649     9001    -5038   -14277   -16943 
  -17387   -24491   -45442   -71293   -67890   -32887    -1931    13863 
    9126   -17396   -39578   -46132   -35454    -6855    16732    22882 
   16804    -2531   -28683   -48934   -58681   -63416   -71323   -76017 
  -70813   -62657   -51202   -35085   -14687    15093    39121    44155 
   45202    45518    40904    37900    31362    21243    15754     2963 
  -23958   -51588   -73336   -79021   -59352   -39017   -36315   -37046 
  -36901   -33900   -17770    -1436     1016     2260     8242     6049 
   -6652   -17082   -22979   -29592   -28602   -19067   -14482   -13663 
   -6877     4825    14078    14330     3841   -13880   -31676   -45222 
  -60257   -69853   -60201   -48779   -41957   -20923     3002    17271 
   27332    28855    24204    18651    16331    24029    27387    19337 
   17171    20521    18995    12340     4802     2204    -6330   -24227 
  -24770    -6637     5027    11021    24365    37258    32243    19243 
   21071    27952    27285    26690    21572    10045     5712     4392 
   -6437   -19351   -27033   -36623   -47908   -49800   -37189   -21024 
  -17202   -17761   -11479   -10491   -13188   -11030   -15798   -22778 
  -17157   -11433   -18252   -27764   -39293   -69409  -109049  -131133 
 -132322  -114278   -81527   -51099   -23182     1159    10950    14046 
   13480     2322   -14058   -33103   -53538   -73871   -99051  -118891 
 -125206  -130592  -134796  -133796  -136891  -141428  -144031  -148853 
 -148670  -141221  -132583  -113911   -74612   -25083    15279    42728 
   67537    89964   104397   118013   133373   140741   140345   139111 
  139221   141456   141716   139591   143493   151114   154156   151427 
  141619   121568    84120    31833   -12699   -36685   -49399   -63360 
  -78061   -83202   -82468   -86417   -93071  -104711  -125031  -144264 
 -161148  -179755  -190965  -197172  -209333  -218756  -222204  -228452 
 -228397  -215616  -197787  -178276  -165785  -163711  -167017  -178892 
 -183340  -164998  -150186  -149964  -147851  -154059  -173354  -185377 
 -183066  -165587  -134468   -92306   -30345    37446    81877   110794 
  141319   162407   167760   169831   174258   176054   176103   180384 
  185611   194099   211335   217855   204866   193191   195184   207424 
  212449   201332   192602   190320   178910   157954   134702   111225 
   88643    66200    44684    30114    22144    13214     3769    -3358 
  -11092   -19200   -27325   -39014   -56909   -82466  -111440  -142427 
 -182897  -226630  -262294  -291965  -309655  -306532  -287111  -248224 
 -179693   -95199   -36075   -25281   -40192   -61880   -91097  -111855 
 -113460  -107921   -97498   -72411   -34195     5286    43558    83507 
  118060   141984   162547   186250   210956   234502   257427   278734 
  294085   298678   296953   295206   286422   268772   249206   216694 
  163338   103786    52844    27078    28780    35735    44537    59914 
   70638    77138    84834    90133    95015   101058    97546    75666 
   42166     4307   -39064   -84421  -121651  -145883  -167650  -197050 
 -222251  -234175  -241312  -245196  -246775  -251335  -251849  -246430 
 -240169  -232452  -230639  -232975  -225827  -217724  -215327  -199929 
 -167059  -136292  -118125  -107910  -104115  -111446  -128055  -145529 
 -157234  -155969  -132293   -80073   -11739    44796    87168   131437 
  165021   180278   199669   221942   234238   244842   248469   239856 
  236268   238121   234201   230713   234529   241636   241315   222232 
  181985   128036    81171    60749    50940    33421    32157    55086 
   68824    65327    54184    27224    -9515   -40875   -75914  -123012 
 -167637  -197073  -213252  -222911  -226684  -213430  -189736  -186711 
 -204397  -216948  -223501  -228681  -222091  -203335  -180286  -155357 
 -138293  -138335  -149683  -169118  -195238  -212905  -207312  -183746 
 -159987  -144714  -132398  -114929   -96241   -87123   -85343   -82164 
  -73525   -56280   -35171   -16692     3222    24562    40018    51594 
   66406    78082    75873    62191    40865    16808      198    -7432 
   -4189    12938    35951    58265    72079    70404    64564    63616 
   63502    61747    51891    30928     9828     -642     2789    14749 
   27221    32775    17963   -17597   -56281   -87778  -107562  -111489 
 -100240   -73623   -33845     7190    35281    48442    55554    60493 
   58450    50356    49701    58434    60597    58996    68826    79018 
   78008    79271    85419    86509    87610    91042    88405    81971 
   81183    87141    94489   102270   112049   119409   119712   114334 
  107897   102286    95355    90164    89471    83951    69025    53313 
   34390      289   -38818   -63857   -81314   -99930  -107266  -101644 
  -99588  -103727  -107945  -113883  -119597  -122754  -126217  -130832 
 -136804  -143295  -152551  -169991  -191804  -209218  -220302  -230464 
 -241155  -242889  -233093  -220595  -202274  -169645  -131564   -98812 
  -72184   -55221   -50341   -52765   -54502   -51235   -48275   -47268 
  -41360   -27488    -7306    15439    39890    66432    89998   107095 
  118296   127757   139151   147841   151883   153910   153509   154492 
  158568   160294   162351   167787   169340   169834   177358   184613 
  187290   191801   195134   187372   164222   127640    87452    52344 
   21527       30    -5456    -2604      151     1997     3728     5072 
    2173    -8593   -23321   -36676   -51818   -70911   -87026   -93781 
  -93915   -91475   -80942   -61346   -44570   -37041   -36713   -44175 
  -59677   -74629   -80003   -80421   -80588   -72877   -55406   -36832 
  -23199   -17162   -18450   -20418   -17720   -11250      379    12832 
   12587     -366   -17313   -34134   -42517   -41279   -38829   -31952 
  -17406    -1338    17549    34262    36546    29761    13812   -19867 
  -56934   -84344  -106443  -123711  -136085  -148733  -163627  -174609 
 -176738  -178169  -184723  -190553  -192664  -187742  -174635  -160536 
 -138747  -100145   -56972   -19546     8501    21575    23348    19205 
   10983      -67   -15896   -29155   -30554   -26744   -20374    -5082 
   12599    23315    30351    40474    57256    77344    94400   109019 
  120525   121948   109817    86519    57526    30987    15350    12972 
   20090    33876    50122    63490    74593    81274    76484    63402 
   46727    21180    -6999   -24173   -36893   -48466   -45413   -33614 
  -27672   -19137    -3753     6294    14689    31864    48455    59986 
   76944    91079    86578    68032    37291   -10163   -64412  -111420 
 -143003  -156716  -156448  -149599  -144322  -142158  -140960  -141491 
 -139483  -131193  -124888  -125022  -123199  -117641  -113292  -107254 
  -97466   -87303   -80645   -80385   -84004   -88815   -91600   -84302 
  -65912   -41324   -12854    12818    31030    50371    74197    93970 
  109731   124669   134151   136833   137469   139704   142547   144117 
  144061   141624   139699   142706   149039   155376   161939   167301 
  165426   152853   133505   115417   103176    91628    72754    45237 
   12352   -20061   -46341   -65763   -78389   -82247   -80251   -80396 
  -79505   -66026   -49369   -46802   -50823   -51962   -55837   -62785 
  -67072   -64969   -58589   -56610   -59446   -61969   -68091   -77632 
  -82063   -82983   -84341   -79590   -68487   -57988   -46549   -33804 
  -23318    -9741     8079    19324    21472    19573    10977    -6567 
  -25976   -40892   -52744   -61481   -62726   -59406   -56180   -49607 
  -41619   -38058   -36764   -37268   -38323   -34165   -27399   -19819 
   -5702    11631    23078    28662    32555    36836    40230    34754 
   19587     4284   -15483   -47887   -79140   -93990   -94708   -84670 
  -64016   -38590   -13944     6356    17064    17972     9680   -11834 
  -41174   -66520   -87936  -107422  -117838  -119492  -122050  -125993 
 -125759  -123763  -123642  -122281  -116717  -104690   -84348   -59017 
  -31064    -2210    20596    32694    33951    25245    10337    -9259 
  -39702   -81179  -117000  -133466  -132659  -117836   -94137   -72217 
  -54098   -36279   -17414     6447    35311    61862    80379    90377 
   95061    96829    95275    88622    73591    53119    37717    28356 
   19233    12024     7137     3197     3238     7476    16061    30933 
   48643    64008    74710    80255    81139    75508    61131    41713 
   23290     7757    -4965   -12826   -17142   -23984   -31203   -35615 
  -44626   -57473   -63961   -63086   -56620   -41427   -20512    -2410 
   11654    22237    25038    21416    17775    15863    14871    14070 
   12918    13774    18443    24923    32401    43100    56995    68829 
