Origin Time       2016/04/16 01:25:00
Lat.              32.753
Long.             130.762
Depth. (km)       12
Mag.              7.3
Station Code      KMM015
Station Lat.      32.2161
Station Long.     130.4046
Station Height(m) 5
Record Time       2016/04/16 01:25:17
Sampling Freq(Hz) 100Hz
Duration Time(s)  233
Dir.              E-W
Scale Factor      3920(gal)/6182761
Max. Acc. (gal)   116.880
Last Correction   2016/04/16 01:25:17
Memo.             
[...]
    7351     7351     7350     7349     7350     7351     7353     7351 
    7349     7350     7349     7350     7351     7349     7349     7350 
    7350     7350     7350     7350     7351     7351     7351     7352 
    7352     7352     7351     7351     7352     7352     7350     7350 
    7349     7349     7349     7350     7350     7350     7351     7351 
    7349     7349     7351     7351     7349     7347     7350     7353 
    7352     7351     7351     7349     7350     7353     7351     7348 
    7349     7352     7350     7348     7349     7350     7351     7351 
    7350     7350     7351     7348     7347     7350     7350     7349 
    7350     7351     7351     7351     7350     7350     7351     7353 
    7353     7353     7353     7353     7352     7350     7349     7353 
    7354     7350     7348     7349     7348     7348     7350     7352 
    7351     7350     7351     7351     7351     7351     7350     7351 
    7350     7351     7350     7349     7350     7352     7349     7350 
    7351     7351     7352     7351     7350     7351     7350     7350 
    7350     7350     7351     7351     7350     7351     7352     7351 
    7350     7351     7352     7351     7352     7352     7350     7351 
    7352     7350     7350     7352     7350     7349     7351     7351 
    7349     7350     7351     7352     7353     7351     7349     7349 
    7350     7349     7349     7350     7350     7349     7349     7350 
    7351     7351     7351     7351     7351     7350     7350     7352 
    7352     7351     7352     7352     7349     7350     7351     7350 
    7349     7350     7350     7349     7350     7350     7348     7350 
    7351     7348     7350     7351     7350     7350     7353     7353 
    7351     7352     7353     7350     7348     7350     7350     7349 
    7348     7349     7350     7351     7350     7350     7349     7351 
    7352     7351     7349     7348     7350     7352     7350     7350 
    7351     7354     7353     7350     7349     7350     7351     7353 
    7353     7353     7355     7359     7362     7368     7377     7387 
    7397     7412     7434     7460     7486     7516     7553     7595 
    7639     7679     7713     7738     7755     7766     7770     7765 
    7755     7738     7714     7676     7608     7501     7361     7214 
    7082     6970     6861     6737     6595     6459     6360     6303 
    6289     6321     6388     6479     6611     6803     7039     7271 
    7460     7619     7808     8057     8310     8478     8553     8596 
    8622     8547     8289     7895     7482     7100     6725     6342 
    5994     5732     5521     5294     5122     5192     5602     6262 
    6980     7613     8159     8667     9134     9509     9779    10001 
   10180    10244    10153     9886     9336     8480     7545     6799 
    6263     5734     5057     4382     3954     3741     3493     3077 
    2699     2751     3416     4531     5799     7075     8386     9658 
   10651    11254    11624    12004    12497    12948    13001    12407 
   11318    10174     9290     8676     8107     7382     6642     6068 
    5432     4547     3651     2963     2549     2551     3080     4032 
    5161     6129     6695     7044     7636     8687    10018    11242 
   12163    13050    14188    15189    15254    14240    12853    11753 
   11030    10179     8641     6549     4419     2664     1472      452 
    -914    -2235    -2562    -1659     -204     1168     2629     4710 
    7293     9697    11309    12031    12633    13640    14303    14037 
   13137    11899    10654     9641     8803     8175     7696     7373 
    7289     7096     6714     6306     5608     5023     5232     5722 
    6108     6497     6428     5995     5842     5862     5855     5665 
    4916     4010     3682     3682     3419     3049     3365     4955 
    7384     9431    10350    10432    10126     9417     8392     7504 
    7187     7326     7179     6260     4544     2135      -52     -774 
     232     2480     5297     8285    11373    14142    16198    17317 
   16891    15255    14003    13575    13056    12138    11311    11013 
   11174    10884     8942     5479     2303      939     1386     2841 
    4043     3826     2666     2096     2554     3563     4843     5980 
    6437     6586     7514     9726    12814    16039    18939    21159 
   22016    21179    18981    15714    11770     7840     4415     1693 
    -542    -2959    -5717    -8027    -9462   -10719   -12161   -12636 
  -11032    -7899    -3809     1883     8914    15473    20567    24533 
   27341    28251    26796    23195    18206    12819     7911     4463 
    3559     4929     6229     5245     1975    -1722    -3130     -936 
    2676     5172     7164    10027    13484    16002    15987    13780 
   10808     7599     5096     3978     2867      972     -732    -1509 
   -1272    -1159    -2524    -3990    -3192      330     5844    12194 
   18153    22467    24733    26244    27000    25949    24474    22886 
   19015    13185     7089     1271    -2817    -4758    -6683    -8533 
   -8445    -7479    -6426    -2464     5020    11607    14785    16690 
   18832    20652    20673    17365    12868    11029    11836    13210 
   13493    12392    11714    11364     9639     6833     2376    -3955 
   -8913   -10368    -8565    -5030    -3780    -5290    -3468     3948 
   11350    14268    13996    14606    18708    24176    26790    25666 
   22343    17513    11915     7507     5516     4991     4406     2815 
    -130    -3893    -8460   -14389   -20378   -23645   -22449   -17711 
  -11242    -3509     4005     9635    14553    19062    21815    23895 
   27460    33092    39706    44575    44945    40127    31570    20616 
    7618    -4863   -13944   -21659   -28971   -31126   -26186   -17686 
   -8692     -573     6264    11425    12774    10289     9270    13092 
   18593    22287    22890    20469    18048    16814    13231     5967 
   -1751    -6791    -9140    -9899    -8767    -6185    -2575     3395 
   11585    20681    29346    35023    36766    36447    34796    30261 
   22591    14156     6896     1608     -753    -1191    -2737    -6403 
  -11423   -16429   -18920   -19385   -19882   -17495    -9926     -491 
    7918    15233    22705    29933    32609    29291    24728    22535 
   21529    18212    11000     2908    -1697    -2020    -1485    -3059 
   -5182    -5203    -3336     -860     2308     7790    16368    26453 
   35901    42206    42870    38070    30126    21278    12672     4032 
   -4318   -10603   -14419   -17253   -19653   -20459   -19285   -17331 
  -14386    -8824    -1073     6813    12973    16406    18561    21800 
   26107    29462    30069    28685    27207    24631    20636    18472 
   17340    12309     3347    -6140   -15552   -25502   -33361   -34672 
  -28672   -17549    -3513    10426    21708    27857    26593    20842 
   15939    12980    12313    15842    20921    21378    15920     8021 
     715    -4872    -9867   -15267   -18997   -18175   -12206    -3049 
    6620    15747    24554    32463    38333    42208    44223    42070 
   33163    19735     7745      337    -3674    -7286   -13263   -20316 
  -25110   -28292   -30974   -32427   -33362   -32530   -27002   -17196 
   -4254    10813    24805    35055    41286    44837    47545    48405 
   44129    35898    28362    21878    14680     8001     2707    -1397 
   -3213    -4050    -5853    -5473     -834     4935     9370    12209 
   14604    18129    20996    20571    18126    15143    10704     4424 
   -3130   -10263   -14093   -13515   -10140    -6130    -2510     -155 
     453     1655     5338     9783    12744    12835    10014     6886 
    6750    10575    16553    21585    23770    24490    24508    20508 
   11105      223    -7114    -9307    -9650   -10651   -10342    -7546 
   -3207     2212     7301    10556    12753    14341    14004    11667 
   10057    12482    18851    25118    27941    27525    25432    22209 
   17190     9565      523    -6625   -10274   -11809   -11860    -9845 
   -6796    -3617     -161     2350     3635     4627     3819     1307 
     429      894      947     2465     6534    12580    19501    23072 
   21339    18418    16128    11940     5190    -2185    -6314    -4787 
   -1821    -1298     -941     1634     6970    13152    16266    17534 
   19863    20824    18835    14659     7518     -321    -3996    -3450 
   -2020     -731     1430     3662     3069     -162    -1136     3484 
   11284    17013    17090    12794     9012     8679    11764    17313 
   22994    26784    28236    26451    20756    12226     2561    -6276 
  -11811   -13235   -12583   -11167    -8257    -4187     -301     2340 
    3479     3821     3045     1599     2081     5236    10362    16130 
   19407    19848    20248    21315    22214    21651    18197    12799 
    6873      375    -5075    -6427    -3199     1702     4743     5512 
    6064     6528     5499     3285     1454      396    -1015    -3131 
   -5443    -7996    -9487    -7676    -3633     -416     1761     4407 
    6828     7460     6626     5640     5853     6894     6763     6685 
    8763    10984    12236    13911    15644    16517    16177    14597 
   13621    15589    20111    24299    26951    29410    31088    30479 
   28442    24014    15505     6983     1436    -4538   -11227   -15100 
  -16260   -16600   -17214   -18389   -18268   -15610   -12097    -8653 
   -4487     -511     1418     2278     6101    15084    25652    33414 
   37841    38577    35610    32274    30921    30070    28041    24778 
   20140    14225     9258     7398     7850     8798     9529     9601 
    8802     7651     5335       80    -6348   -10590   -12906   -14257 
  -13877   -12027    -9452    -6610    -4633    -3156     -213     4183 
    8464    12028    14692    16222    17114    18005    18321    17076 
   15820    17328    20425    21395    19857    18297    17562    16336 
   12619     4829    -4967   -11954   -14458   -13820   -11021    -7176 
   -3269     1501     7477    12115    13462    12662    11108     8904 
    5928     2225    -1437    -2292     2165    10353    18633    24179 
   25342    24293    25062    27426    28707    28301    26968    24684 
   20178    13089     5319    -1318    -6060    -8453    -9476   -11147 
  -14196   -17302   -17818   -14609    -9752    -5127    -1380     -203 
   -1817    -3271    -2128     1480     6406    11448    14165    12549 
    8288     4542     3485     5841     9382    12381    15572    16966 
   14213    10102     7608     6737     7239     8308     8964     8741 
    7295     6846    10213    15869    21021    24319    24021    20804 
   18442    18609    20637    24933    32136    40304    46421    49499 
   49547    47270    45235    44525    43711    43083    43717    44213 
   42800    39209    33368    24755    13615     2096    -7688   -15084 
  -19395   -21116   -22850   -26142   -30542   -34803   -38404   -42787 
  -48747   -54690   -59511   -64238   -69742   -74392   -75159   -70764 
  -63055   -53978   -43635   -33688   -26370   -20753   -14982    -7576 
    2873    15875    29522    42479    54545    65599    73781    77264 
   77487    76252    72803    66950    58994    47386    32047    15422 
    -947   -14860   -22621   -24529   -24804   -26041   -28609   -30785 
  -28546   -20490    -9582     2104    14318    25987    36396    45140 
   51140    55339    59593    63217    65409    67006    69167    72567 
   76089    77836    76990    73299    67935    62684    55977    44998 
   31160    19062    11321     5205    -4016   -16100   -27211   -35986 
  -42652   -46809   -48892   -49387   -48057   -44774   -38648   -30428 
  -23483   -18267   -13908   -11873   -10674    -7184    -2308     2605 
    6654     6900     2666    -3414   -11175   -21608   -30780   -33235 
  -29644   -26551   -29258   -37458   -48255   -58514   -65098   -66772 
  -62068   -48106   -26232    -2476    19097    37228    49682    55983 
   59349    60884    59665    57565    57741    62210    70800    80808 
   89598    96011    99950   100777    94881    80429    61981    43303 
   24072     4694   -13831   -31105   -47396   -63765   -79277   -90919 
  -97624  -102129  -107109  -110215  -108555  -103439   -94599   -81495 
  -68726   -57840   -44448   -26998    -6381    17516    42841    66609 
   85863    95836    94952    87942    80009    75334    78432    89057 
  100813   109799   116192   118565   118131   118405   115883   104901 
   85193    57508    25232     -834   -12906   -16529   -21144   -25966 
  -22623    -9589     3322     9509    14380    20273    22551    23739 
   26186    23098    12231      910    -4132    -3321    -1594    -1207 
   -2967   -11533   -27906   -45320   -61206   -76518   -85974   -84743 
  -74496   -60655   -50186   -46156   -47201   -50048   -44124   -19230 
   18013    52565    77675    94564   102970    99817    89617    79979 
   71667    66525    62874    48939    21253   -10473   -37364   -54414 
  -60407   -58215   -52144   -48207   -49948   -55368   -62323   -69289 
  -75404   -84324   -96884  -104596  -103914  -100507   -92318   -74316 
  -53010   -35956   -22431    -9425     3862    16961    30964    47195 
   62041    68926    67907    64803    61354    57574    57451    64991 
   81017   104161   131395   157101   175150   182562   177565   160195 
  136949   114481    92932    74274    64306    62108    59759    51738 
   40549    32251    27651    24873    23880    20493     7115   -18574 
  -52180   -86397  -115692  -138660  -155815  -168299  -176257  -176988 
 -168702  -150475  -118590   -72991   -22540    20207    45810    55543 
   60404    64582    62579    57019    57198    64111    72625    76858 
   73314    61277    38403     8373   -18199   -35600   -38814   -24977 
   -4636     9991    14533     7794    -4142   -12760   -18901   -25185 
  -26556   -18502    -4410    10339    21255    26296    32348    45007 
   55805    57147    53087    45662    31561    12702    -4239   -15543 
  -20377   -17158    -7277     3123    10394    16193    22336    26696 
   24657    14046    -1541   -15201   -22778   -24277   -22375   -22224 
  -27401   -36346   -45135   -49801   -48332   -42525   -34290   -24126 
  -13921    -5821      174     5516    10289    12958    13361    12887 
   13539    16552    20277    23787    28359    32758    35708    39172 
   42810    43790    41254    35563    29146    24023    18046    11390 
    6201       81    -8042   -15427   -22431   -30518   -37705   -42765 
  -47068   -48985   -42858   -29447   -18881   -14481    -9778    -4063 
     276     7183    20544    40834    64195    80111    84319    84421 
   84100    80412    72760    63858    56854    49556    37746    21819 
    1437   -22168   -42047   -53720   -57447   -56264   -55721   -58285 
  -61214   -61099   -53484   -35072   -11345    10340    28576    41928 
   49364    50475    43141    32296    25705    22692    22906    26254 
   24883    15155      802   -16354   -33127   -44855   -50259   -49745 
  -44240   -35308   -25720   -18657   -14924   -14121   -15104   -14535 
  -11221    -7924    -6725    -7856   -10243   -12699   -14209   -11463 
   -3172     7124    17165    26753    34822    39655    40543    41526 
   49444    65517    84356    99326   105643   103609    98597    94226 
   89160    80598    67633    52457    37729    23602     9454    -5412 
  -21904   -38388   -52088   -61901   -66583   -66107   -63015   -58255 
  -51777   -45270   -40294   -37115   -33312   -24323    -9202     8395 
   24908    37468    42890    39580    28082    10719    -7265   -19344 
  -23275   -23567   -24988   -26216   -25330   -24269   -23659   -22416 
  -20080   -15400    -7670     2892    16158    29686    40019    47132 
   53003    58608    64304    69732    74121    76748    75505    68297 
   56059    41895    28957    18992    11302     3123    -7422   -17241 
  -21369   -19072   -11254     2651    21458    40386    54848    64517 
   70755    74036    75589    75464    72694    68123    61828    53754 
   45396    36346    25704    14820     3360   -10956   -26783   -40468 
  -49827   -53650   -54147   -55055   -55187   -53356   -52310   -52609 
  -53401   -54509   -52781   -45745   -35198   -22471    -9379     -576 
    3205     5411     7253     9534    13114    16490    19079    20850 
   20353    17123    10826      898   -10705   -22558   -35662   -46671 
  -49291   -43547   -33212   -20444    -8294      747     8158    15329 
   20730    22769    21761    20466    21394    23709    26302    29831 
   33844    36864    39791    45544    55003    65638    75578    84923 
   91219    92314    89789    82481    67110    44905    20882       38 
  -16464   -31389   -46388   -60475   -73371   -85768   -95149   -96072 
  -86263   -68252   -46738   -28205   -17704   -15029   -17236   -19767 
  -17236    -7504     7795    24755    39023    47752    50071    48164 
   45039    41257    38300    38734    40796    41178    39451    36035 
   32431    30427    29653    30372    33663    37763    38686    34021 
   25359    15905     7206     1005     -159     3649     9662    14295 
   14942    11872     6710     1205    -1046     4306    17299    31988 
   42647    49087    52530    50413    39708    21769     1583   -14852 
  -23411   -24365   -20917   -15539    -9025    -1827     5089    10040 
   12098    12700    12653     9636     1956    -7910   -15654   -20200 
  -23030   -24103   -22899   -19521   -14839   -11898   -12821   -16248 
  -19733   -21433   -21263   -21423   -23622   -26608   -26985   -22298 
  -13382    -2184    10327    22019    30874    37871    44313    49820 
   52872    50757    41680    27792    13815     4052     1832     6000 
   10479    12109    11356     8120     4259     2515     2785     5934 
   13329    21390    26061    28039    28426    27390    27743    30996 
   33961    34378    33135    31562    30075    28060    25748    23899 
   21934    20162    19450    18115    14736    10783     7633     4711 
    1076    -3276    -7240    -8063    -3163     5401    11256     9819 
    1997    -7714   -15633   -21116   -24862   -27854   -30511   -30282 
  -24265   -13538    -1381     8465    13313    15500    19373    25321 
   31091    34433    34435    32679    30985    29836    29432    29229 
   28073    24756    17219     4105   -12525   -27711   -37355   -40578 
  -37821   -30059   -20812   -14316   -10575    -6097     1214    10864 
   20957    30171    39123    47385    52743    54838    54385    51076 
   45409    38620    30628    21388    12724     5952     -443    -8727 
  -19810   -32563   -43086   -48157   -48630   -45797   -38603   -26038 
   -9134     8444    22125    30568    35942    40616    44733    45458 
   40216    29528    15328     1277    -7185    -8005    -3552     2961 
    8175    11487    15257    17911    15756     9450     1263    -7161 
  -13821   -18656   -22792   -25881   -27735   -28500   -27476   -24740 
  -22256   -21412   -20006   -15617    -8851    -1072     4772     6832 
    8379    10847    12343    13437    14840    15657    15365    13945 
   11968    10094     9454    10782    12430    12842    12306    11813 
   11883    11414    10097     9690    10518    11368    11787    11894 
   11826    11434    10211     7043      646    -8110   -16331   -22227 
  -25761   -26878   -25316   -21441   -15857    -9608    -4576    -1164 
