Origin Time       2016/04/16 01:25:00
Lat.              32.753
Long.             130.762
Depth. (km)       12
Mag.              7.3
Station Code      KMM004
Station Lat.      32.9320
Station Long.     131.1214
Station Height(m) 556
Record Time       2016/04/16 01:25:12
Sampling Freq(Hz) 100Hz
Duration Time(s)  300
Dir.              E-W
Scale Factor      7845(gal)/8223790
Max. Acc. (gal)   346.683
Last Correction   2016/04/16 01:25:12
Memo.             
[...]
   -2177    -2177    -2173    -2172    -2174    -2176    -2178    -2177 
   -2176    -2173    -2173    -2178    -2178    -2176    -2174    -2172 
   -2170    -2177    -2178    -2173    -2173    -2178    -2180    -2172 
   -2166    -2172    -2176    -2174    -2176    -2176    -2174    -2174 
   -2173    -2169    -2169    -2169    -2170    -2173    -2174    -2174 
   -2177    -2178    -2174    -2169    -2170    -2177    -2177    -2173 
   -2173    -2176    -2177    -2173    -2170    -2172    -2176    -2176 
   -2169    -2170    -2180    -2176    -2173    -2176    -2174    -2172 
   -2173    -2177    -2178    -2177    -2174    -2174    -2174    -2173 
   -2170    -2176    -2177    -2176    -2177    -2176    -2176    -2174 
   -2169    -2170    -2174    -2173    -2172    -2176    -2178    -2177 
   -2176    -2172    -2168    -2170    -2176    -2176    -2176    -2177 
   -2178    -2177    -2168    -2165    -2174    -2180    -2178    -2181 
   -2178    -2172    -2174    -2178    -2172    -2173    -2184    -2181 
   -2172    -2170    -2170    -2169    -2173    -2176    -2174    -2176 
   -2178    -2176    -2170    -2173    -2178    -2176    -2173    -2172 
   -2172    -2176    -2176    -2172    -2173    -2177    -2180    -2174 
   -2170    -2176    -2182    -2176    -2172    -2174    -2173    -2176 
   -2178    -2173    -2170    -2173    -2174    -2177    -2174    -2170 
   -2172    -2173    -2174    -2174    -2174    -2178    -2181    -2177 
   -2174    -2173    -2172    -2174    -2177    -2177    -2177    -2178 
   -2174    -2170    -2169    -2170    -2174    -2177    -2177    -2177 
   -2176    -2172    -2174    -2177    -2173    -2174    -2177    -2172 
   -2169    -2174    -2177    -2173    -2170    -2172    -2173    -2174 
   -2177    -2180    -2178    -2176    -2173    -2173    -2172    -2170 
   -2174    -2181    -2178    -2174    -2173    -2172    -2172    -2172 
   -2174    -2177    -2176    -2170    -2173    -2178    -2176    -2176 
   -2176    -2170    -2170    -2178    -2180    -2173    -2173    -2177 
   -2178    -2176    -2173    -2174    -2176    -2173    -2176    -2177 
   -2174    -2176    -2174    -2169    -2173    -2177    -2177    -2178 
   -2176    -2173    -2174    -2173    -2172    -2173    -2176    -2177 
   -2176    -2173    -2172    -2174    -2178    -2177    -2172    -2168 
   -2169    -2173    -2174    -2176    -2176    -2174    -2173    -2174 
   -2170    -2170    -2176    -2176    -2172    -2172    -2174    -2173 
   -2174    -2176    -2177    -2178    -2180    -2177    -2173    -2173 
   -2173    -2178    -2181    -2174    -2172    -2172    -2172    -2174 
   -2173    -2172    -2176    -2178    -2177    -2174    -2170    -2176 
   -2181    -2177    -2173    -2176    -2177    -2174    -2173    -2173 
   -2178    -2180    -2180    -2177    -2173    -2170    -2170    -2170 
   -2178    -2184    -2181    -2176    -2172    -2172    -2176    -2178 
   -2180    -2177    -2176    -2174    -2169    -2172    -2174    -2176 
   -2178    -2176    -2170    -2169    -2172    -2177    -2180    -2177 
   -2176    -2176    -2176    -2178    -2177    -2170    -2173    -2180 
   -2177    -2173    -2174    -2174    -2174    -2176    -2176    -2176 
   -2177    -2176    -2173    -2173    -2174    -2174    -2173    -2172 
   -2176    -2176    -2174    -2178    -2178    -2173    -2174    -2177 
   -2172    -2173    -2177    -2174    -2173    -2176    -2176    -2177 
   -2177    -2173    -2172    -2174    -2174    -2177    -2177    -2176 
   -2174    -2172    -2174    -2176    -2172    -2173    -2176    -2174 
   -2174    -2174    -2173    -2176    -2176    -2172    -2170    -2177 
   -2178    -2177    -2176    -2176    -2174    -2174    -2173    -2174 
   -2176    -2177    -2177    -2173    -2172    -2173    -2174    -2173 
   -2172    -2176    -2173    -2170    -2173    -2176    -2177    -2178 
   -2177    -2174    -2173    -2177    -2180    -2178    -2177    -2176 
   -2172    -2172    -2173    -2176    -2180    -2174    -2169    -2172 
   -2174    -2177    -2174    -2172    -2176    -2178    -2174    -2172 
   -2173    -2174    -2174    -2173    -2172    -2174    -2177    -2177 
   -2177    -2176    -2174    -2176    -2178    -2178    -2174    -2173 
   -2173    -2174    -2176    -2177    -2174    -2173    -2176    -2177 
   -2176    -2176    -2177    -2176    -2173    -2172    -2173    -2173 
   -2177    -2180    -2172    -2169    -2174    -2173    -2174    -2178 
   -2177    -2173    -2174    -2174    -2176    -2176    -2174    -2173 
   -2172    -2173    -2176    -2180    -2181    -2176    -2173    -2177 
   -2177    -2173    -2174    -2177    -2173    -2170    -2173    -2174 
   -2173    -2176    -2178    -2178    -2178    -2177    -2173    -2176 
   -2180    -2180    -2178    -2177    -2177    -2180    -2184    -2184 
   -2184    -2189    -2193    -2196    -2201    -2199    -2192    -2188 
   -2189    -2188    -2178    -2169    -2163    -2158    -2168    -2185 
   -2208    -2239    -2267    -2284    -2277    -2232    -2182    -2142 
   -2087    -2016    -1981    -2016    -2074    -2135    -2249    -2384 
   -2430    -2392    -2365    -2362    -2296    -2123    -1954    -1908 
   -1962    -1933    -1810    -1912    -2227    -2408    -2556    -2876 
   -3111    -3084    -2767    -2124    -1586    -1420    -1317    -1451 
   -2064    -2635    -2860    -3013    -3183    -3179    -3051    -2794 
   -2084    -1328    -1192    -1472    -1852    -2245    -2648    -2955 
   -2795    -2389    -2173    -2262    -2511    -2203    -1495    -1294 
   -1509    -1829    -1953    -1830    -1911    -1941    -1892    -2262 
   -2891    -3242    -2647    -1530    -1175    -1418    -1694    -1972 
   -1961    -2089    -2716    -2929    -2467    -2100    -2220    -2477 
   -2347    -2390    -2913    -2982    -2546    -1925    -1514    -1988 
   -2489    -2363    -1791     -685     -456    -1856    -3207    -3770 
   -3597    -2235     -569     -328    -1648    -2790    -2816    -2636 
   -2373    -2401    -3440    -3483    -2370    -2824    -3603    -2747 
   -1864    -1409    -1058    -1583    -1867    -1655    -2185    -2061 
   -1583    -2644    -3102    -2267    -2582    -3358    -2706    -1023 
     129     -619    -2558    -3308    -2579    -2007    -1979    -2523 
   -3406    -3275    -2712    -2695    -2251    -1598    -1624    -2369 
   -3175    -2420    -1155    -1894    -3114    -2766    -1611    -1313 
   -2810    -3852    -2504     -722       36     -739    -2702    -3708 
   -4167    -5201    -5408    -4584    -3491    -2161    -1196    -1069 
   -1314    -1482    -2168    -3593    -4509    -4704    -4656    -3457 
   -1677    -1605    -2732    -2857    -1449      318     -116    -2610 
   -3420    -2685    -3034    -3407    -3226    -2943    -1449     -344 
   -1472    -3223    -3863    -2431     -120      530       79     -414 
   -2461    -5421    -6536    -5819    -3971    -1925    -1507    -1810 
   -1688    -1337     -761    -1098    -2587    -3996    -4541    -3793 
   -2160    -1328    -2025    -2794    -4183    -5954    -4417    -2053 
   -2817    -3307    -1895    -1252    -2180    -2270    -1386    -3095 
   -5321    -5533    -7438    -9127    -6208    -2143     -229      234 
    -526    -2231    -4399    -5583    -4104    -2118     -907      606 
     246    -1679    -1914    -1294    -1111    -1737    -2859    -2764 
   -1543       49      612     -162    -2088    -6529    -9208    -8272 
   -7786    -6702    -5478    -4540    -2494    -2724    -3788    -3219 
   -3171    -2698    -2766    -5513    -7774    -7138    -6459    -7655 
   -8394    -7638    -5081    -2042    -1965    -2102     -630     -638 
    -664    -1060    -3488    -4236    -3113    -2259    -2739    -4575 
   -2350     2100     1549      311      -51    -2974    -4176    -4973 
   -9616   -11483    -7002    -2173      -76     -243    -1726    -1413 
     357      658      216    -1677    -5760    -7416    -6978    -9001 
   -9687    -6902    -5598    -4914    -2964    -2119    -2269    -3387 
   -4145     -560     3312      591    -4225    -5084    -4210    -3079 
   -2381    -4623    -7565    -8777    -8148    -4271     -553      799 
    3107     3213       51      380     2245      -58    -2269     -537 
     715    -1982    -8037   -14805   -16942   -14859   -14580   -13313 
   -8289    -5387    -4972    -4860    -6057    -7446    -5660      444 
    2219    -2610    -3888    -2342    -1223      781    -1098    -5672 
   -4654     2241     5825     2096      -94      544    -3634    -8349 
   -9238    -9410    -5971      818     3082     1560     1922     2097 
    -614    -5101    -9244    -8839    -6436   -10524   -17290   -18154 
  -15076    -9607    -2376     1440     1113    -2128    -6268    -5443 
    -888     -737    -5363    -8989   -11387   -11029    -5235    -3977 
  -11749   -17271   -15480    -9436    -4726    -5047    -3060     6292 
   13748    12078     7969     6647     4887     1895    -4827   -14991 
  -17194   -10663    -8467   -14689   -19302   -13374    -5694    -6381 
   -8583    -6459    -6023   -13857   -18804    -8939    -3084   -10990 
  -13902   -11784   -13487    -8391     3249     3748    -1494     9579 
   27599    24318      309   -20941   -24942   -24032   -30904   -24435 
   -6154    -2605     7874    28593    22446     5175     2111     4303 
    5825    -1638   -13007    -1560    31159    47803    37401    20497 
    9408    12433    16929    16634    28911    36031    34874    36971 
   13880   -11128    -1609     9968    12141     6878    -9522   -13092 
   -6349    -2826     4114     6122    -9713   -37332   -39631     2976 
   34642    28804    29034    32023    25606    21859    -3437   -26127 
   -9915     2602     1833    -4137   -17055    -7322     2142    -6646 
  -11556   -22222   -14740    17142    27035    29600    37134    20628 
   11407    30551    30057    14634     6056   -14320   -21224    -6274 
    6143    20248    22223    17481    16920     6284    12521    18522 
  -17325   -38794   -23990   -19291   -12722    11727    36270    54344 
   47613     4966   -22686     2253    18602     3442     8124    23562 
   29205    13545   -11126     1489    14297    19761    49447    44273 
    7302     6604    31468     5637   -60222   -45912     1982   -26870 
  -58585   -45088   -15222    10534     4926    13824    58293    46080 
  -14619    -9401    32528    22295   -10492   -39040   -57769   -26109 
   29158    36243    -1759   -15357    10791     9136   -31695   -56952 
  -34686    14856    18767   -13050     1422    28240     5965   -38137 
  -64729   -48050   -22279   -50386   -77954   -55898   -46313   -55072 
  -58062   -75712   -75080   -46755   -33034   -24867   -30659   -24551 
   31379    21652   -61473   -45380    46826    55433    -9796   -41411 
  -27503   -19677   -37170   -54704   -28557    26963    57867    57368 
   27572   -15480   -14882    22215    13045   -42627   -49135   -12291 
  -29550   -89468  -115852  -102828   -79699   -71359   -83223   -81835 
  -56706   -35849   -30771   -51626   -89375   -91207   -53562   -35085 
  -58966   -85010   -75879   -59325   -59649   -54378   -40637   -21674 
     622   -11473   -41482   -34167   -50441  -102246   -94455   -67363 
  -53328   -20433   -35066   -92831  -105929   -66220   -30442   -47079 
  -79749   -61199   -11759    -8588   -60623   -87550   -55143   -18954 
  -25188   -74520  -118386   -94242   -33681   -28530   -70286   -86620 
  -77928   -48663     -766     3292   -19580     2440    24678     2200 
    -959    10547   -12067    14764    69612    25455   -25218   -13073 
  -11896    11101    67047    73769    38565    38236    49678    30954 
   35475    40880     9024    -8430    -1725    22936    54922    38591 
  -51159   -92955   -12672    32351    33621    52883     6459    -2710 
   55941    37941    16147    47553    59100    68477   100256   115600 
   84014    12170   -38582    15187   118119   124918    79516    83953 
   81766    69685    87760    80484    57106    94410   186645   209709 
   98182     6489    54399   103034    49858    52473   120253    70667 
    -488    29092    63362    48095    -6848   -32109   -24425   -45142 
    2282    65823   -23512  -112068   -21224   127040   140984    59402 
   41520    66605    80172    78659    51595    80238   142483   149925 
  144678    98949    18461    11221    49897    76061    72260    23683 
   -8385    16556    36256    23457    24618    47515    57631    31617 
   -4862   -23363   -34704   -20331     5692    25790    73210    90914 
   64828    59363    18388   -43694   -16707    30315    -3511   -23101 
   74594   163408   108697    47420    76647    75409    34194    22149 
   19611    26590    33859    22064    13369   -15341   -58193   -48697 
  -45364   -99640  -109865   -70762   -40767    17307   107018   165669 
  139878   101873   139851   145947    88141    81923    88635    64620 
   77596   114613   162757   209109   175644   152346   215291   201698 
  102928    66243    56874    10636   -21172   -34447   -65273   -72283 
  -40833   -21766   -42292   -67979   -28817     8704   -17304    -1684 
   22404     6400    43544    45341   -17041    40722   125107    39159 
 -112788  -202522  -221714  -194802  -190243  -211794  -227272  -250053 
 -259556  -246017  -230239  -219169  -233188  -242963  -202672  -154541 
 -121073   -74931   -23658     5398   -29983  -107987  -141220  -163998 
 -234474  -259519  -205545  -178810  -182819  -150727   -98760   -36949 
    1399   -45989  -110752  -137617  -166803  -176187  -172999  -195914 
 -211883  -223352  -246133  -270979  -319756  -365534  -340062  -257342 
 -177741  -112288   -61252   -22883    43731   100867    74902    39359 
   44909    47260    79054   136950   174424   210055   239722   258801 
  197419     1223  -142684  -160239  -179631  -180937  -171468  -203921 
 -191473  -180070  -260216  -281647  -198629  -116241     8995   131484 
  159464   211530   280173   272978   291870   333545   306132   280480 
  291315   277624   244703   243098   259430   227758   149971    42026 
 -101864  -186079  -177149  -206872  -287254  -294282  -237324  -233112 
 -281854  -290227  -254160  -215013  -154228   -66897    13373    78603 
  128727   129082    86188    61380    37227     -263     4644    16677 
    9742    32049    43260    15149   -21189   -72935   -92033   -59090 
  -69658  -106563  -121047  -163988  -186598  -188689  -259355  -293750 
 -251029  -247938  -234598  -184273  -186196  -188146  -145646  -115445 
  -83841   -51193   -51329   -35024    13728    15951   -45034   -83066 
  -54432     3148    57389   102289   138982   170232   205059   219136 
  180674   149620   146152   112027    84168    74218    50715    80326 
  125138   101298   101073   129728    84651    17756    -8594   -19026 
  -14272   -11458   -15163    12263    48582    76453   123001   166490 
  185822   193484   192315   199602   222813   222652   198699   202599 
  225936   239067   255472   258651   233014   213906   199874   143000 
   56606    14947     6421   -37617   -72665   -55141   -38431   -13743 
   40220    57821    26203    -1417   -19008   -28775    -7911    20767 
   30427    70691   147792   182498   179339   180552   161604   148919 
  174847   189155   188788   204471   218515   234028   256454   258757 
  237439   201487   164259   135962    91723    36074    20487    44532 
   63715    72936    67086    33268    22121    48151    41854     9173 
     849    -2786    -3384    12706    22933    60919   131711   150772 
  151167   196904   213676   206806   243195   259060   236807   242117 
  243689   207848   171562   141798   122627   119259    86602    18501 
  -33718   -55782   -60747   -65475   -79512   -71334   -36362   -10358 
   13605    47687    82583   114388   133802   167945   227237   242104 
  221454   224672   195093   119061    84084    74455    39031    22545 
   16491   -33184   -81076  -102459  -135010  -160791  -157971  -141412 
 -113832   -76100   -35021    17595    65249    68121    56277    61599 
   42290     9111    -3538   -27199   -47930   -35379   -29940   -32157 
  -21498   -33877   -49925   -21848    -2669   -30817   -42431   -20042 
  -16866   -23695    -6609    10083    14959    27056    34716    25338 
    4368   -29492   -53146   -51825   -61087   -73438   -55521   -44887 
  -54002   -50679   -60316   -71539   -32352     1764    -4525    14125 
   44089    40720    33848    21686    -4128    -4876    17004    21946 
   -2043   -24418   -25659   -33933   -61211  -103816  -143294  -147802 
 -162313  -202026  -205642  -216166  -259588  -269989  -284589  -318427 
 -303405  -277866  -287864  -294484  -269691  -227627  -207443  -211376 
 -211887  -213694  -215307  -197509  -167076  -157577  -176662  -167080 
 -116914  -102670  -124794  -125705  -111470   -88350   -64547   -67913 
  -70591   -52234   -39170   -36526   -44142   -54636   -47902   -42699 
  -56145   -80308  -128159  -169425  -160686  -161293  -205044  -227869 
 -209120  -192723  -189767  -174247  -176096  -204519  -181786  -140483 
 -153654  -147850  -118080  -143777  -160582  -120433  -105436  -126565 
 -152554  -196280  -191035  -116008  -110767  -157751  -133667  -117072 
 -130211  -116683  -159139  -187547  -112534  -106259  -133104   -60411 
  -69631  -136490   -88130   -66753   -85448   -49740   -55767   -68586 
  -42350   -49179   -41574   -25888   -51244   -51791   -57872   -81378 
  -41530   -14412   -30574   -12224   -10366   -34008   -28610   -39075 
  -69159   -66923   -43777   -23109   -12567   -23141   -42133   -52131 
  -59532   -65867   -61030   -37975     2732    40552    63553    90834 
  123838   141022   138063   119684    92884    73646    68785    67429 
   62218    67778    91075   110389   110814    86862    53053    53732 
   72716    54965    23279    12309     7307     5942     2284   -18161 
  -28692   -16243    -6245     -874     5629    10755    21080    35838 
   53023    73531    97264   128636   157122   174457   187486   190109 
  189704   199891   197937   180017   175752   183375   185282   179259 
  171948   177418   182232   159511   131028   122818   123122   125166 
  130642   135835   140838   151108   168342   177140   170973   167223 
  169996   174777   183467   189795   192423   192586   183681   172395 
  167652   165397   166981   172492   173317   171279   175926   186115 
  190374   184064   175937   174810   180920   185094   179325   170071 
  167212   168806   162140   141301   121811   116371   113258   104568 
   96799    87801    78177    79049    86316    88284    89873    96336 
  103631   112234   116942   108303    95671    91647    86418    69580 
   55768    55559    51524    32481    11584      170    -4483    -9479 
  -19580   -33142   -38186   -30240   -27398   -35802   -37430   -31540 
  -32945   -39575   -40327   -38146   -41868   -46842   -48903   -53798 
  -61457   -66900   -71092   -77280   -78633   -73406   -73021   -67339 
  -48510   -42005   -47321   -41127   -30180   -20795   -12663   -15198 
  -16767   -13968   -27675   -39609   -29597   -29909   -49137   -62319 
  -79309  -106964  -121513  -129915  -150095  -160362  -153724  -152524 
 -151650  -146203  -154491  -165477  -160600  -155830  -160558  -166719 
 -172975  -180891  -191903  -199087  -199064  -206248  -217436  -218504 
 -217024  -217485  -216993  -220167  -225235  -223777  -212965  -202043 
 -200853  -200759  -194690  -190125  -188153  -186023  -184897  -185340 
