Origin Time       2016/04/16 01:25:00
Lat.              32.753
Long.             130.762
Depth. (km)       12
Mag.              7.3
Station Code      KMM019
Station Lat.      32.4548
Station Long.     130.1807
Station Height(m) 7
Record Time       2016/04/16 01:25:16
Sampling Freq(Hz) 100Hz
Duration Time(s)  167
Dir.              N-S
Scale Factor      3920(gal)/6182761
Max. Acc. (gal)   58.404
Last Correction   2016/04/16 01:25:16
Memo.             
[...]
    -608     -610     -610     -607     -608     -609     -609     -609 
    -609     -610     -610     -608     -607     -610     -612     -609 
    -607     -610     -610     -608     -608     -609     -610     -608 
    -608     -610     -611     -609     -609     -610     -608     -608 
    -608     -609     -610     -610     -609     -610     -610     -610 
    -610     -609     -609     -611     -610     -608     -608     -610 
    -609     -607     -609     -611     -609     -608     -612     -612 
    -607     -607     -609     -610     -611     -610     -609     -610 
    -609     -605     -605     -609     -611     -608     -609     -613 
    -611     -606     -607     -611     -610     -607     -609     -613 
    -612     -608     -608     -610     -608     -607     -609     -611 
    -610     -609     -610     -609     -607     -606     -610     -612 
    -611     -609     -609     -608     -608     -607     -608     -610 
    -609     -608     -609     -609     -608     -610     -610     -609 
    -611     -612     -608     -606     -609     -611     -609     -609 
    -610     -610     -609     -609     -610     -610     -608     -607 
    -609     -612     -610     -607     -608     -608     -609     -610 
    -611     -612     -609     -607     -608     -610     -611     -610 
    -610     -611     -607     -606     -610     -611     -609     -610 
    -613     -610     -606     -609     -611     -608     -607     -611 
    -612     -610     -609     -609     -610     -609     -607     -608 
    -610     -609     -611     -612     -611     -611     -610     -609 
    -608     -605     -605     -610     -611     -609     -609     -611 
    -612     -610     -606     -607     -609     -609     -609     -611 
    -611     -608     -607     -609     -609     -609     -609     -609 
    -610     -608     -606     -606     -609     -611     -612     -613 
    -613     -610     -608     -608     -608     -610     -611     -610 
    -610     -609     -608     -608     -610     -612     -610     -608 
    -610     -611     -609     -608     -607     -609     -610     -609 
    -613     -615     -609     -602     -605     -609     -609     -609 
    -612     -613     -609     -607     -609     -610     -607     -607 
    -611     -613     -609     -607     -611     -613     -609     -607 
    -609     -609     -608     -608     -608     -608     -608     -608 
    -610     -612     -611     -608     -607     -606     -607     -609 
    -611     -612     -609     -606     -607     -608     -609     -609 
    -610     -610     -607     -606     -603     -599     -599     -598 
    -591     -579     -565     -550     -537     -526     -517     -511 
    -507     -504     -503     -499     -483     -450     -409     -383 
    -386     -421     -472     -502     -488     -453     -451     -510 
    -622     -751     -849     -886     -840     -737     -693     -816 
   -1046    -1208    -1172     -946     -704     -628     -712     -798 
    -738     -554     -444     -471     -469     -329     -172     -255 
    -655    -1069    -1133     -775     -325     -224     -463     -684 
    -665     -394      -87     -105     -521     -935     -911     -583 
    -478     -691     -836     -874    -1094    -1248     -822       25 
     579      478      150     -181     -920    -1800    -1906    -1004 
      53       25    -1101    -1885    -1454     -365      347      -37 
   -1108    -1521    -1181    -1372    -2321    -2911    -2122      -85 
    1813     2089      301    -1594    -1091      518      906      548 
     -72    -1096    -1720    -1147      331     1279      944      254 
    -101      -76      127     -123     -381     -125     -390    -1034 
   -1022     -678      -24     1069     1828     1821     1012     -220 
   -1232    -2070    -2290    -1257      -39      147     -724    -1947 
   -2276    -1700    -1169     -296      325    -1062    -2827    -2461 
    -942       14     -152     -901     -461      458     -815    -2622 
   -1606     1016     2206     1394       52     -913    -1359     -319 
    1700     2252      681    -1548    -2671    -2113     -751      707 
    1383      414     -985    -1436    -1227     -692     -935    -2785 
   -4254    -4355    -3523     -929     1581     1382       86     -400 
     124     1346     1692      266    -1524    -2443    -2703    -1847 
     470     2121     1226     -949    -1510      522     2715     2805 
    1213    -1158    -3227    -3490    -3161    -4195    -4357    -1761 
     776      598     -723      266     2646     2425      603      432 
    1152      790      -44       97       20    -1273    -2525    -2712 
    -265     3557     3944      873    -2069    -2804       -2     3907 
    3769      319    -1924    -3248    -4266    -2284      739      916 
     130     1195     3478     4045     1305    -1631    -2509    -3348 
   -3803    -1544      986      260    -2190    -4397    -6285    -4862 
    1661     7373     5739    -1334    -7404    -8879    -5162     1473 
    7529    11881    11295     2772    -6041    -5808     1006     6826 
    7212      541   -10102   -15404    -7571     6789    11559     3995 
   -3616    -5179    -4727    -4173    -3260    -3157    -1300     3884 
    6431     4060     1612      311    -1314    -3174    -5174    -5585 
   -3810    -2006     -239      924      716     2406     6371     6685 
    1821    -1295      -13     1090     1333     2546     3727     3806 
    3277     3144     1745    -1731    -3918    -5402    -7387    -5997 
   -1903     1165     2268     -464    -6177    -9266    -6592     -246 
    5494     6494     1338    -4780    -6070    -3447     2627    11232 
   15051    10755     1722    -7679   -10973    -7119    -3388    -1049 
    3812     6654     2189    -5360    -9500    -5544     3689     7658 
    6699     7263     5189    -1390    -8294   -12913    -8570     3725 
   10479     8314     3304    -3080    -9733   -11377    -5052     3505 
    7831     7599     2958    -3293    -3907     1064     3148      934 
     937     3145     2487    -2808    -9786    -8953      811     4635 
    -111    -2362    -2814    -6362   -12306   -15893    -6915    10901 
   17478     9379     -777    -8903   -15416   -14915    -4565     5430 
    5261      681      144     4377     9359     9796     3985    -4661 
   -9763    -8372    -2862     2713     3432      211    -1728    -2593 
   -2484     -536    -1557    -8378   -12365    -2380    14498    18400 
    6312    -6213    -6785     1379     2301    -5472    -3538     6709 
    6841     -982    -4915    -6193    -4947     3499    10088     6019 
   -1684    -8229   -11181    -5711     2517     4209     2288     6854 
   16675    18667     8703    -4598   -12034   -10626    -4293     3144 
    8662     6977     1027     -759    -1108    -4285    -5598    -4341 
   -3352     -606     1617    -4991   -15024   -11121     4430    13520 
   12150     5867    -1057    -3234     -696     2883     5496      443 
  -12139   -15040    -2056    11775    17020    11853    -4735   -24229 
  -36686   -35978   -17388     8775    22360    18371     6847    -3236 
   -6673    -1533     6097     9534     8520     3147    -1750      279 
    1823    -2586    -3364      793    -1499    -9819   -11653    -7184 
   -6110    -5250     -405     1334     -558     -199      390    -4401 
  -11902   -10181     3160    13729    12446     4444    -2086    -2931 
    1648    10001    13836     3051   -10597    -9676     -180    10312 
   19327    15005      191    -6156    -2266     3599    11445    17063 
   12331     1327    -7840   -14836   -18661   -14662    -3943     4674 
    5567     2115    -1849    -6969   -13073   -15167   -10675    -6609 
   -5768    -2582    -1276    -5705    -6302    -1006     3663     6545 
    6535     4622     5458     7544     7398     6820     6677     4172 
   -2189   -10105   -11649      377    18207    24304    11730    -9741 
  -23469   -21855   -11827    -2438     3429     7470    11306    12290 
   10056     6806     -205    -7985    -6916     -524      855    -2154 
   -3850    -3243    -4641    -9147   -10142    -6203    -4076    -4897 
   -4361    -1639     2203     4921     3347      523     -442    -6129 
  -15719   -14020     -767     6327     2763    -2356    -6576   -12119 
  -14806    -9941    -1886     5143     9772     6891     -757    -3948 
   -3689    -4621    -4903     -490     8075    14967    17480    14972 
    5639    -4098    -7946   -11010   -15029   -16099   -14210    -8853 
   -1106     3991     3379    -3300    -9125    -6313    -2807    -5313 
   -4573     1473     5679     7471     5683    -1099    -6241    -3406 
    6263    16803    20825    13129    -2216   -12029    -9494      251 
    8969     8896     -508   -11199   -15772    -8219     6259    10511 
    4992     2611     -446    -8755   -12993   -10413    -5639     1687 
    7893     5217    -4390   -12727   -14802    -7423     8082    19750 
   17140     4870    -5165    -6221    -2525    -2205    -5936   -10230 
  -11687    -9012    -5655    -4314    -4466    -4328    -2674     -537 
    2159     3466    -1732    -8335    -6287      649     3429     2715 
    2626     1383    -3597    -5832      420     7186     6875     2550 
   -2101    -5130    -4620     -627     6486    13286    11758     2959 
     -17     4137     3667    -1878    -7596   -14435   -17452   -10176 
    1950     9343    10694    10257     9363     5347    -4597   -15262 
  -14797    -2961     8134    12270    12807    11063     3017    -8006 
  -12402   -10214    -7017    -3518      434     4228     6990     6602 
    4172     1687    -2852    -9070   -11154    -5828      551      490 
   -1206     -295    -4618   -13489   -13692    -2239     9123     9828 
    2759    -3378    -6456    -7996    -9065   -10430   -10766    -8030 
   -3519    -1064     -954        2     1800     2316      739    -3993 
  -10738   -13842    -7175     6869    15610    12166     1845    -8180 
  -11971    -6927     3072    10893    11747     8395     6922     6757 
    4067       76    -2176     -722     3476     3564    -1787    -3865 
    -843     -540    -5113    -7941    -5270    -1213      749     -261 
   -5722   -11727   -10390    -1025     7104     6244     1359    -1316 
   -3057    -2706    -1305    -3522    -4512     -167     2728     2754 
    6294    11420    11871     7895      157    -9269   -14435   -14411 
  -10053    -3230     -833    -3238    -4211    -1228     5109    10236 
    8678     2640    -3363    -9015   -11414    -7110    -1345      920 
    4430    12553    19879    20291    12758      661    -9087   -10937 
   -8137    -6064    -3196      658     3591     6883     7107     1138 
   -4892    -6876    -6449    -3826      493     1549    -5272   -14481 
  -16512    -9963     1560    11074    10367      756    -8471   -10172 
   -4685     3081     8461     5091    -7502   -18532   -19765   -10930 
    4027    17089    21002    14368     2655    -5376    -5282      586 
    7167    12447    17126    19259    17139    13270     8858     2540 
   -1714     2416    10400    12997     9735     4062      133     2565 
    8531    11410    10321     5850    -1672    -6885    -8455   -10832 
  -10453    -4700      680     4556     6837     5738     2838    -3815 
  -13292   -16387   -10391    -2396     -188    -4098    -6352    -2257 
    2549    -1630   -13798   -19243    -9012     7880    18217    19063 
   12039    -3659   -23425   -36432   -37028   -26912   -10855     4905 
   13616    11301     4805     5958    11892    10248     1353    -3838 
   -1610     2716     3871     -194    -4763    -2297     7341    19484 
   27656    27391    22437    18178    17060    17213    11935     -627 
  -16186   -30414   -38476   -37418   -28801   -15368    -1122     6014 
    2854    -1259      728     4326     6103     3336    -7775   -19856 
  -24044   -23799   -20980    -8233    15494    35355    35146    15989 
   -9134   -31192   -45590   -48222   -39675   -26004   -14962   -11735 
  -12333    -9698    -4622    -1066    -2400   -11083   -21680   -22702 
  -10183     8431    24328    31728    26027     9804    -4757    -8097 
   -1872     7123    15155    21392    22859    15722      -27   -20569 
  -35929   -32504    -8721    21023    41982    45755    28863     2503 
  -13696   -15683    -9021     4793    17768    19558    14640    13038 
   13344     8172    -5233   -22916   -34490   -31516   -16596     1347 
   13326    12890     2376    -9263   -17324   -21805   -22454   -19276 
  -14686   -13963   -18359   -21089   -17718   -10033       19     9218 
   12498     6709    -5059   -11616    -5307     9238    22829    25817 
   11572   -12678   -29138   -27839   -13803     3419    17717    24887 
   25517    25954    26280    18083      766   -15683   -26127   -30428 
  -23931    -6260    12197    23185    25261    19056    11694    12027 
   15713    11665      925    -4217     2291    13003    15541     1773 
  -26282   -54447   -62010   -38580      159    31211    47451    42336 
   15203    -7192    -5912     6172    16244    21953    23786    25837 
   24612    10944   -10455   -20351    -6354    20928    41190    43256 
   23836   -12346   -48649   -63720   -47650   -15867     5089     9252 
    3553   -15054   -37759   -38660   -16846     3041     7161    -1895 
  -11987    -8465     5933    13222     7190    -6928   -26801   -42163 
  -35755   -11717     4686     3388    -2957    -5266      125    17288 
   33137    23937    -8464   -37267   -50291   -54002   -46143   -20315 
   19673    62831    91504    88485    56272    15826   -19809   -48344 
  -61723   -53921   -32853   -13798    -6238    -7237    -7250     1618 
   20276    40049    48205    35372     1924   -35429   -54576   -47642 
  -22937     2947    16567    16987    13659    17814    27078    24478 
    3322   -24702   -46336   -54751   -48901   -33767   -14137     9225 
   29090    30921    12633   -10243   -23506   -25330   -17461     -314 
   19361    31004    29097    15961     3864     2811     4497    -5684 
  -25192   -36266   -29191   -11515     3658     9377     5815    -5793 
  -24004   -43640   -55553   -51146   -32133    -9099    11984    27898 
   30772    18966     4762       21     3131     5422     2144    -4697 
   -7328     1100    16620    26028    19697     2674   -10618   -14388 
  -12623    -7303    -1565    -2466    -8055    -6408     7256    25658 
   37683    34104    17067     1363    -6242   -13588   -21908   -21722 
  -11387      940     8034     5546    -5032   -14914   -18109   -14182 
   -5087      936    -1157    -2822     4100    16390    26209    32350 
   40987    50674    50803    37837    16123    -9696   -32493   -41892 
  -30478    -3958    20169    30547    24514     1977   -25210   -39750 
  -36766   -20251      829    14028    14553     5197   -11473   -29996 
  -38933   -30847   -11779     6273    16858    17233     6335    -8588 
  -16608   -14309    -4510     4964     6350     3671     3855     4306 
     916    -5544   -10736    -9842    -3170     4751     9343     7175 
    -544    -7583    -8812    -3133     7223    16924    19200    10566 
   -1321    -2893     4807     7673     1384    -6164    -9327    -5809 
    6152    18300    17577     6824      -79     3292    14615    27537 
   35737    35768    25752     9419    -2257    -2817     2249     3834 
   -1379   -11452   -22600   -28567   -22000    -3179    16922    27764 
   27010    17345     3143   -11549   -22834   -25473   -17623    -5090 
    4753    10341    13735    16181    17802    16457     8160    -7926 
  -24065   -26969   -13972      289     3241    -1307    -5801    -8426 
   -6892    -1925    -1412    -8493   -17849   -24976   -27950   -25113 
  -16121    -2533    11044    19211    22919    26723    31001    33090 
   28942    17796     5978    -3028    -9304    -7675     4468    19961 
   29982    30166    21124     8389    -2040    -7952    -9552    -9446 
  -10775   -11197    -5959     3364     9991     9737     3386    -5147 
  -11646   -14658   -13454    -6130     7641    23453    33468    35215 
   32263    25393    14791     1962   -14730   -32872   -42561   -38219 
  -23719    -7503     2163      385   -10283   -18298   -14435     -464 
   17629    31560    32517    21377     5581    -8500   -13630    -7783 
     555     2864    -2044   -11731   -23614   -33295   -33792   -24764 
  -16633   -15675   -16384   -12376    -4222     1566    -1020   -11540 
  -23867   -28802   -20845    -5498     5710     5279    -5989   -21241 
  -33088   -36007   -28404   -14349     1220    14027    17369     8953 
   -2741    -8521    -7211     1086    16363    30846    35230    29415 
   19188    10135     5230     4451     6452     8891    10466    12851 
   16142    17397    15587    11221     5347     2358     3602     1902 
   -6065   -11788    -7901     1407     8187    10704    11388    11527 
   11413    10217     6540     2050     -945    -4232   -10734   -18648 
  -20719   -11778     4793    19916    24569    17015     4932    -3830 
   -4418     5885    20641    29315    28605    17799    -1852   -20728 
  -30945   -35374   -37255   -34483   -25095    -9667     7729    21061 
   24588    14843    -1614   -11049    -7589     3832    14574    20006 
   22072    19836     7467   -14370   -36318   -47098   -41115   -24116 
   -7747     -241    -2852    -9363   -12903   -12491    -9790    -7187 
   -6291    -5912    -6024    -7452    -7228     -957     9405    14715 
   10904     4040    -1421    -6127    -9814   -13876   -20578   -26357 
  -27090   -24470   -20766   -16222   -11816    -7102     -105     6905 
   10465    13494    19111    22113    15906     1292   -15291   -25822 
  -26310   -20891   -14941    -8890    -2516     2837     7611    12982 
   17773    19344    14601     3656    -5376    -4935     2144    11454 
   22731    31171    28841    15804     1214    -6211    -6077    -3349 
    -933     1122     3665     7542    10514     8078     1010    -3330 
     292     9789    18889    22733    22474    21598    19723    18174 
   21537    27813    29468    22167     6925   -10998   -25601   -32675 
  -29958   -19526    -6394     5097    10696     8237    -1442   -15923 
  -28045   -28528   -15387     2350    12684    12733     6289    -2878 
   -8211    -5644    -1278    -1879    -4268    -2805      493     2545 
    4753     6256     5200     3133      103    -5257   -11123   -15159 
  -16853   -14205    -5347     5145     9920     6941    -2274   -14376 
  -23362   -25423   -20780   -12011    -3053     4807    12903    20554 
   25087    24686    20009    14527    11558     9847     4279    -7294 
  -18643   -20931   -14986    -9850    -7806    -2197     9630    21193 
   22758    10816    -7021   -21172   -26215   -18337    -1202    13840 
   18084     9111    -6985   -18691   -20617   -14174    -4694    -2252 
  -10679   -20851   -22050   -12047     1706    10023    11485    10051 
    8126     4180    -2178    -6526    -7376    -7382    -7228    -7228 
   -7736    -8219    -7914    -5031    -1445    -3610   -12735   -21494 
  -21835   -13931    -5317     -166     1747     -556    -5285    -7781 
   -7371    -6596    -6236    -5328    -4835    -6908   -11133   -15439 
  -17769   -16411   -11303    -3052     7010    14610    16751    15460 
   12803     9292     7069     7637     9545    10803     9558     3750 
   -5508   -14249   -20858   -24114   -20402    -9463     3814    14472 
