Origin Time       2016/04/16 01:25:00
Lat.              32.753
Long.             130.762
Depth. (km)       12
Mag.              7.3
Station Code      KMM003
Station Lat.      32.9336
Station Long.     130.5477
Station Height(m) 14
Record Time       2016/04/16 01:25:10
Sampling Freq(Hz) 100Hz
Duration Time(s)  300
Dir.              N-S
Scale Factor      3920(gal)/6182761
Max. Acc. (gal)   176.808
Last Correction   2016/04/16 01:25:11
Memo.             
[...]
   -5165    -5161    -5163    -5161    -5155    -5153    -5152    -5153 
   -5158    -5163    -5164    -5163    -5162    -5162    -5164    -5161 
   -5156    -5155    -5158    -5159    -5160    -5165    -5167    -5161 
   -5156    -5158    -5161    -5161    -5157    -5153    -5156    -5162 
   -5168    -5169    -5164    -5160    -5160    -5162    -5164    -5162 
   -5158    -5154    -5158    -5166    -5166    -5156    -5150    -5152 
   -5161    -5172    -5169    -5158    -5156    -5158    -5159    -5162 
   -5160    -5158    -5157    -5153    -5156    -5162    -5162    -5157 
   -5154    -5157    -5162    -5162    -5163    -5171    -5178    -5172 
   -5161    -5161    -5167    -5163    -5152    -5149    -5157    -5163 
   -5164    -5162    -5158    -5156    -5154    -5155    -5162    -5163 
   -5153    -5150    -5154    -5156    -5159    -5160    -5161    -5167 
   -5172    -5168    -5164    -5165    -5163    -5163    -5166    -5165 
   -5160    -5159    -5164    -5169    -5170    -5165    -5158    -5155 
   -5151    -5150    -5155    -5156    -5158    -5164    -5161    -5149 
   -5146    -5154    -5159    -5156    -5154    -5156    -5161    -5168 
   -5175    -5178    -5173    -5166    -5166    -5168    -5162    -5156 
   -5156    -5155    -5155    -5159    -5159    -5161    -5162    -5154 
   -5156    -5168    -5163    -5143    -5134    -5145    -5162    -5175 
   -5177    -5166    -5155    -5160    -5165    -5160    -5157    -5157 
   -5157    -5163    -5168    -5171    -5167    -5156    -5153    -5159 
   -5167    -5168    -5157    -5152    -5158    -5161    -5161    -5162 
   -5159    -5159    -5164    -5164    -5162    -5159    -5151    -5149 
   -5155    -5157    -5162    -5169    -5168    -5166    -5167    -5164 
   -5156    -5153    -5154    -5155    -5159    -5162    -5160    -5159 
   -5162    -5164    -5159    -5158    -5162    -5161    -5160    -5162 
   -5161    -5161    -5164    -5164    -5163    -5162    -5163    -5166 
   -5167    -5164    -5162    -5158    -5152    -5153    -5158    -5162 
   -5165    -5162    -5158    -5159    -5162    -5156    -5148    -5153 
   -5165    -5162    -5156    -5158    -5157    -5156    -5162    -5171 
   -5176    -5171    -5164    -5161    -5157    -5155    -5163    -5171 
   -5170    -5163    -5154    -5154    -5161    -5158    -5155    -5156 
   -5154    -5161    -5169    -5166    -5163    -5164    -5159    -5152 
   -5152    -5156    -5155    -5154    -5160    -5165    -5165    -5163 
   -5160    -5159    -5163    -5162    -5156    -5157    -5159    -5158 
   -5159    -5161    -5167    -5172    -5169    -5164    -5156    -5149 
   -5154    -5163    -5169    -5169    -5165    -5160    -5160    -5165 
   -5168    -5166    -5163    -5161    -5155    -5151    -5157    -5163 
   -5161    -5160    -5165    -5167    -5161    -5156    -5156    -5152 
   -5148    -5154    -5163    -5162    -5158    -5162    -5169    -5173 
   -5173    -5170    -5168    -5162    -5157    -5158    -5159    -5158 
   -5159    -5158    -5157    -5159    -5161    -5163    -5161    -5155 
   -5156    -5159    -5153    -5155    -5166    -5173    -5172    -5163 
   -5154    -5155    -5160    -5162    -5164    -5163    -5162    -5162 
   -5161    -5161    -5162    -5160    -5159    -5160    -5158    -5153 
   -5151    -5155    -5159    -5159    -5162    -5168    -5169    -5163 
   -5160    -5163    -5164    -5160    -5157    -5158    -5160    -5162 
   -5163    -5165    -5166    -5163    -5162    -5163    -5159    -5155 
   -5158    -5159    -5157    -5159    -5164    -5162    -5157    -5159 
   -5167    -5165    -5157    -5154    -5155    -5158    -5163    -5171 
   -5173    -5164    -5156    -5159    -5161    -5160    -5161    -5166 
   -5167    -5159    -5148    -5148    -5157    -5164    -5160    -5154 
   -5159    -5167    -5167    -5165    -5163    -5161    -5162    -5161 
   -5157    -5156    -5156    -5154    -5159    -5166    -5168    -5167 
   -5163    -5162    -5161    -5158    -5156    -5159    -5162    -5161 
   -5160    -5162    -5164    -5164    -5166    -5162    -5153    -5151 
   -5153    -5156    -5163    -5165    -5162    -5164    -5167    -5162 
   -5157    -5156    -5156    -5158    -5165    -5168    -5159    -5151 
   -5159    -5169    -5167    -5161    -5161    -5158    -5154    -5158 
   -5162    -5162    -5164    -5164    -5161    -5157    -5158    -5162 
   -5161    -5159    -5160    -5158    -5155    -5156    -5157    -5158 
   -5158    -5157    -5158    -5161    -5164    -5165    -5162    -5161 
   -5163    -5159    -5153    -5153    -5144    -5125    -5111    -5097 
   -5083    -5069    -5042    -4997    -4945    -4872    -4774    -4732 
   -4741    -4657    -4441    -4008    -3285    -2674    -2566    -2957 
   -3809    -4708    -5008    -4487    -3154    -1671    -1125    -1472 
   -2036    -2405    -2388    -2494    -3144    -4400    -6072    -6810 
   -6350    -6587    -8147    -9698    -9694    -7838    -6336    -7183 
   -9515   -11706   -13010   -14019   -15178   -14117    -9891    -7016 
   -9463   -14753   -17132   -14878   -10264    -5036    -1637    -1217 
    -504     3131     8531    11283     7377     -413    -4569    -1289 
    5350     8780     7274     3511     1816     3640     4409      254 
   -6237   -10447   -11332    -9976    -7594    -6968    -9516   -13521 
  -18209   -23654   -26898   -23321   -13974    -6688    -4678    -1870 
    3714     4866     -742    -8683   -17749   -24832   -22374   -10363 
    3198    11976    13462     8586     2138     -448     1373     1372 
   -4092    -7985    -4010     4130     9986     9953     4771    -1285 
   -3570     -535     2060    -2151    -8499    -9110    -7238    -9319 
  -12895   -14955   -18338   -23207   -24336   -17455    -5526      761 
   -4705   -15026   -20548   -18568   -12308    -7654    -7552    -7353 
   -1776     6130     9279     5607     -171    -1771     2377     7732 
    9795     9468     9065     8197     6174     4344     3623     1899 
   -1294    -2526    -1831    -3047    -5369    -4627    -1362     -579 
   -7068   -19487   -27551   -26037   -21292   -16203    -8706    -1858 
   -1269    -4977    -4497     -282    -1514    -9012   -14740   -16026 
  -18064   -20692   -16287    -6301    -2651    -7242    -8425    -3389 
   -2897    -7834    -8833    -7637    -9143    -8507    -4277    -1031 
    1067     3177     5143     8113    10270    11409    18596    28971 
   28120    16610     7765     4783     2947     -342    -6353   -13345 
  -16263   -16567   -21199   -27502   -26665   -21513   -21847   -25940 
  -25578   -21521   -19374   -21055   -27334   -37298   -40677   -26101 
   -1812    11499    10643    13661    31472    50067    48123    25718 
    3604    -4755    -5122    -7084   -11597   -14671   -12405    -2291 
    9887    12508     3928    -9993   -24384   -33537   -37086   -35814 
  -23225    -1205    14896    15754     9306     9180    15082    16757 
   11306     3280    -1991    -1333     3285     3811    -5357   -16849 
  -21692   -24307   -30705   -39148   -46904   -47201   -33325   -15952 
  -12918   -18677   -10989     7651    15788    16259    23332    32204 
   31853    21599    13340    15620    18230    13735     9721     6849 
   -2897   -17364   -27038   -32073   -39588   -46482   -41303   -25028 
  -13583   -11343    -4706     8546    16043    16671    17093    14162 
    2742   -12489   -21117   -17421    -9733    -9897   -12378    -7546 
   -3204   -10420   -26520   -41523   -48659   -43104   -23354     -896 
    9712     7652       14    -8722   -14533   -11088       40     7778 
   11378    21821    38732    47322    39069    22782     9323    -3397 
  -13977   -12513    -4794    -5461    -9945    -3544    11209    20945 
   20113     6950   -13994   -27331   -26630   -20585   -15585   -14829 
  -20803   -25665   -21042   -13534   -13859   -22192   -31375   -36728 
  -38800   -36225   -26516   -18483   -21298   -26043   -21052    -7357 
    9098    25526    41344    51412    51523    46903    40177    28213 
   14471     5810      629    -8964   -20707   -25238   -29079   -38626 
  -37238   -21914   -17549   -25150   -19640    -3292     2054        7 
    6580    15951    14774     8356     9425    15776    16074    10954 
    8618     6095    -4432   -18872   -27529   -31281   -32803   -26921 
  -17063   -14084   -15903   -11780    -1673     3141     -198    -4247 
   -8640   -14948   -17749   -16123   -15788   -17299   -13281      352 
   16317    24378    21800    12694     3054    -1596     3230    14871 
   20191    11973    -2604   -15209   -18612    -8248     5636     6070 
   -6565   -16256   -15583    -8132    -1221    -4365   -17015   -31139 
  -39075   -33419   -21554   -15682   -11426    -3832     2403     5137 
    9173    15927    15949     3285   -11772   -11250     7805    24238 
   25001    18609    10143     2127    -7232   -29021   -57557   -74624 
  -69582   -39370    -2303    10570    -7599   -33998   -38899   -11206 
   27352    45051    40926    36813    39566    40787    33137    15127 
   -6439   -24080   -38303   -49051   -52327   -49560   -43871   -36323 
  -33319   -39473   -43793   -31175    -8179     5429     8933    13647 
   22524    36021    48836    48371    32998    17637    16434    24382 
   24859     9031   -17301   -34656   -30479   -19874   -22612   -32876 
  -30019   -13033    -6753   -19102   -28092   -26168   -27475   -34942 
  -36405   -26869   -16521    -9303     3619    21347    31810    28174 
   16482     8061     3172    -2356    -1057    12877    26820    31241 
   35541    40280    32934    11951   -14578   -34022   -38146   -38574 
  -46760   -51600   -41118   -23153    -9646    -1104     1961    -5254 
  -19141   -29703   -30306   -23952   -19336   -16046    -6801    13616 
   46174    82231   107621   112684   100426    86920    79141    64130 
   35351     5242   -18086   -39647   -60369   -73870   -80557   -84904 
  -83823   -83234   -99851  -123702  -130181  -126296  -130506  -138055 
 -141714  -143840  -135946  -106347   -63271   -26618    -6157     2317 
    4546     1732    -4457   -10305   -14578   -17364   -11199    12160 
   46890    80910   107274   123613   130124   126366   116239   111591 
  114331   107037    85980    76719    85349    89615    86776    83240 
   70015    44689    15756   -13717   -45159   -69296   -69004   -50301 
  -37694   -34608   -32364   -36634   -50519   -70867   -96693  -109751 
  -96179   -75667   -63863   -60114   -62965   -61295   -52491   -49663 
  -57659   -72401   -79334   -60617   -25694    -3233     2202    12198 
   35047    58645    68606    56367    34363    26675    35263    45616 
   48262    40652    34229    42889    56415    61725    57411    37058 
   11039     -498    -5608   -15122   -24121   -29517   -33149   -42223 
  -56670   -65366   -66665   -65093   -59295   -49027   -39161   -29608 
  -11090    12667    19840     7943    -4802   -12591   -17032   -19307 
  -26019   -38007   -44343   -35161   -18777    -9264    -1639     9426 
   19989    36576    54683    51251    27038     4922    -2915     2775 
   17045    34390    47673    50418    40477    19812      624    -4836 
   -4058    -7575   -11918   -17824   -25446   -13636    26471    66585 
   83724    81171    69977    61123    54225    39745    20640     5034 
   -9601   -25032   -35836   -42650   -54633   -68924   -70570   -63667 
  -61521   -59612   -53961   -50827   -52974   -54594   -50617   -47091 
  -46371   -43519   -39916   -34971   -27184   -22485   -19082    -6179 
   16267    39585    57471    65357    66966    68160    65224    61886 
   65931    71100    73637    76691    76085    67254    50535    24771 
   -4963   -21904   -19120    -8464      -15     1912    -7036   -21000 
  -30304   -37643   -47353   -54924   -56751   -50753   -30197      337 
   22421    34824    49684    63229    65570    55401    36233    17948 
    8433      428   -17386   -39749   -52036   -55971   -59873   -59408 
  -58328   -69904   -87062   -93222   -88933   -82010   -75356   -66731 
  -51243   -34045   -28197   -35712   -43665   -39730   -21428    10842 
   46828    63542    54888    38118    25601    18623    19099    26914 
   37763    51878    63397    54505    27836     7401     2732     7066 
   10510     8945    10675    20988    29504    26683    22744    32582 
   52743    72827    87427    89158    75893    57981    42148    29284 
   25173    29530    36525    44572    49398    49269    43206    26455 
   10537     8914     8924    -1397   -14508   -27386   -41639   -49131 
  -47172   -45180   -50760   -61663   -68760   -70895   -71823   -65773 
  -46857   -21614    -5199      407    13827    43915    79265   106549 
  114622    98823    69527    44660    33173    29267    24708    16927 
    2946   -18181   -39696   -55302   -63621   -63593   -57020   -50567 
  -44732   -31190    -9543    11290    28274    42820    56414    74175 
   96224   116986   138771   161428   169688   153298   127723   112255 
   94924    63666    36562    13197   -21614   -53324   -73833   -98197 
 -128223  -154373  -174068  -190508  -206037  -222461  -242487  -258716 
 -254236  -226411  -191218  -163019  -144325  -128955  -114164  -106306 
 -107044  -111311  -116254  -114955  -100012   -79359   -68742   -71423 
  -78476   -84961   -91746   -98380  -108700  -123414  -125460  -102827 
  -67591   -33056      621    38086    82171   127730   161550   176918 
  186832   203637   212694   205726   205917   220366   228740   224436 
  207969   168821   108843    49388      254   -50088  -104107  -147556 
 -176261  -200921  -227796  -248965  -260487  -273641  -284052  -270898 
 -241814  -225524  -226249  -227490  -222108  -209859  -187063  -152576 
 -107501   -57463   -14890    18969    52456    83800   107371   121576 
  129447   137650   143793   146588   156307   168521   172149   179414 
  194033   193024   177344   172234   176479   177626   177328   171839 
  153727   128324   110844   105861    97550    77192    56367    41180 
   19878   -14300   -46357   -64481   -77746   -94495  -116117  -147585 
 -183743  -203142  -192747  -155424  -101162   -55310   -37943   -29867 
   -9743    10041    19959    28039    39781    58359    81491   101999 
  118159   132894   152165   174468   184520   167157   121813    71847 
   40399    20760     2784    -5730     -927     6461     5087    -5302 
  -17742   -25965   -27358   -26760   -33684   -51195   -72878   -90536 
 -101980  -108727  -109670  -104264   -94991   -82983   -70613   -64584 
  -65814   -67122   -66601   -66836   -66415   -64093   -60138   -53834 
  -45980   -37510   -26385   -11953     3574    18768    29749    29018 
   12437   -12050   -27691   -29367   -22752    -9408     3999    10743 
   21146    43593    68297    85221    93495    92400    84984    78248 
   69115    54718    40696    24478     6741     2253    11238    19288 
   22500    18453     4279    -8698   -14705   -26147   -48980   -77846 
 -109991  -137035  -142650  -123838   -95130   -74293   -72460   -85074 
 -100212  -117425  -136837  -149720  -155134  -157224  -152345  -137189 
 -117301  -101246   -89884   -75238   -50647   -19475    10947    37607 
   54913    58253    59606    78513   117808   160691   188509   195201 
  191520   191713   195459   201172   212837   218673   204897   174495 
  132036    89723    63930    51185    46095    44929    31689     6737 
  -16996   -40894   -64120   -81393   -93560  -103329  -115188  -126281 
 -127918  -121884  -116313  -116786  -123175  -129454  -133816  -138685 
 -144386  -150210  -150456  -138661  -114150   -74362   -18546    41645 
   89621   116014   121141   114707   111393   118469   131073   139457 
  141564   147480   160024   171849   181592   180601   160458   136390 
  115502    87915    59634    35774     5418   -28044   -48735   -59201 
  -73753   -94148  -115066  -137405  -162531  -189298  -215407  -233659 
 -238502  -230766  -212737  -187479  -155098  -116710   -86605   -75407 
  -71495   -65257   -62895   -64782   -64287   -59579   -51362   -43590 
  -36667   -20091    10726    43696    66947    83195    97951   107936 
  113821   124744   141364   153588   155867   151071   141322   122978 
   95684    67142    37248     3422   -23273   -42136   -67560   -97450 
 -118884  -132304  -146245  -160862  -168944  -171278  -174482  -176701 
 -173731  -164419  -147250  -128440  -117383  -112029  -104477   -89517 
  -65335   -36303   -10298     8991    21343    24826    21133    19128 
   23348    33052    51757    78963   105371   126470   141854   145387 
  134590   120046   109914    97291    79120    63968    51801    41217 
   38735    38567    32674    23694     8209   -14071   -38035   -67061 
  -96442  -116711  -128771  -128634  -108891   -74828   -39859   -11179 
   11412    25248    30545    36842    46518    47958    31842     6998 
   -6265    -5169    -4008    -5724    -8843   -19411   -39346   -67253 
  -96369  -111260  -108755  -100473   -88951   -72743   -58398   -45840 
  -32361   -20931    -5042    22060    53114    83128   110580   126448 
  127770   124538   121546   111685    90054    60717    33090    18654 
   19119    23605    25968    27232    24714    13538    -4451   -21190 
  -35027   -48856   -58052   -56063   -43117   -27221   -14450     1928 
   24246    38212    35587    23711     8000   -10811   -28253   -41342 
  -48757   -47001   -36235   -17468     7509    29722    43053    48762 
   47837    42151    34618    28135    26731    31367    39494    47899 
   53283    52787    44598    30560    14458    -1399   -17489   -35564 
  -51751   -62927   -72004   -78392   -79942   -78783   -81294   -90648 
  -98014   -95222   -83921   -67380   -48862   -31063   -13683     4326 
   21390    32178    35005    38535    49878    60422    58807    48304 
   38770    37377    46594    59095    65715    68016    70335    68543 
   57657    39589    23226    18553    21344    20999    16276     7450 
    -880     -418     5311     6923    -1659   -24266   -55342   -80695 
  -95294  -102079   -94787   -70809   -44760   -27060   -13210     1800 
   14417    18690    14837     6058    -1986    -1287     8828    21883 
   30630    34320    40244    46567    42820    31387    20927    11565 
    6696    12804    22041    24889    27182    34391    41132    42193 
   36873    25595    10541    -7967   -30693   -49509   -57612   -59372 
  -56425   -50411   -47952   -46026   -37258   -23880   -13136    -9862 
  -13294   -17977   -21605   -30037   -45383   -59348   -70036   -82882 
  -94303   -98069   -96924   -95762   -96622  -101203  -106568  -102447 
  -82615   -53954   -25296     3784    34982    65157    91976   114984 
  131583   139650   142082   139437   124894    97792    67371    38766 
   11679   -13749   -37393   -59588   -80619   -98914  -111136  -113613 
 -105642   -92284   -77039   -59951   -44252   -31707   -18434    -3434 
    7234     9004     2685    -9325   -21910   -32687   -43678   -47701 
  -37002   -19898    -6824     2240    10720    20068    28329    32276 
   33694    36817    43904    57859    76314    89446    94101    95269 
   92796    81619    61420    36172     9411   -15320   -33589   -44757 
  -56984   -74879   -91571  -103703  -108809   -99890   -82224   -69927 
  -67817   -69954   -68246   -57314   -33838    -2532    23507    37073 
   40950    41003    40496    38147    34085    31877    34137    38450 
   35399    24956    21852    28118    33964    37534    36415    29185 
