Origin Time       2016/04/16 01:25:00
Lat.              32.753
Long.             130.762
Depth. (km)       12
Mag.              7.3
Station Code      KMM022
Station Lat.      32.1945
Station Long.     130.0265
Station Height(m) 4
Record Time       2016/04/16 01:25:22
Sampling Freq(Hz) 100Hz
Duration Time(s)  234
Dir.              E-W
Scale Factor      3920(gal)/6182761
Max. Acc. (gal)   91.134
Last Correction   2016/04/16 01:25:22
Memo.             
[...]
    6095     6098     6096     6096     6100     6103     6101     6101 
    6101     6099     6098     6097     6097     6100     6104     6101 
    6097     6097     6099     6097     6096     6101     6102     6101 
    6106     6112     6114     6115     6122     6131     6137     6146 
    6160     6171     6179     6194     6206     6204     6210     6227 
    6238     6241     6241     6235     6239     6261     6262     6217 
    6182     6197     6200     6135     6068     6085     6105     6014 
    5915     5966     6090     6048     5822     5756     5939     6027 
    5970     5982     6057     6129     6136     6068     6058     6123 
    6191     6218     6183     6195     6177     5877     5485     5421 
    5724     6055     6067     5794     5576     5648     5830     5823 
    5837     6097     6216     5998     5940     6433     6947     6847 
    6612     6648     6473     6167     6108     6020     5797     5683 
    5777     6029     6196     6060     5706     5618     6108     6432 
    5921     5427     5856     6418     6188     5961     6562     7316 
    7313     6669     6327     6412     6095     5748     6202     6783 
    6875     6983     6927     6008     5112     5532     6322     5933 
    5301     6146     7553     7477     6180     5350     5433     5791 
    5894     5707     5997     7119     7866     7624     7253     7015 
    6730     6443     6000     5812     6494     7530     7703     6823 
    6288     6564     6335     5597     5498     5724     5464     5012 
    5121     5564     5395     5014     5390     6126     6505     6228 
    5684     6152     7156     6707     5749     6623     8109     7776 
    6398     5848     5937     5525     4543     4282     5531     6962 
    7101     6506     6273     6039     5115     3910     3336     4115 
    5531     6162     6690     7677     7613     6536     6091     6691 
    7197     6165     4903     5853     7454     7276     6274     5920 
    5837     5289     5086     6026     6950     6762     5613     4095 
    3129     3563     5243     6912     7525     7226     7136     7768 
    7947     7164     6510     6753     7487     7468     6808     6696 
    6523     5429     4140     3562     3562     3439     3665     4795 
    6223     8318    10957    12080    11367     9860     7714     5596 
    4161     3750     4789     6194     6580     6292     6357     7169 
    7822     6889     4701     3208     2975     3385     4975     7149 
    7450     6517     7536    10109    10728     9087     8439     8860 
    7439     5658     6907     9309     9409     8008     7676     8179 
    7710     6450     5495     4889     4283     3522     2750     2868 
    4456     5282     3361     1215     2016     5596     9213    11135 
   13072    15141    14240    10384     6957     5732     5201     3083 
      36    -1301     -212     1269      658    -1958    -3855    -2423 
    1503     2873     1104     3382    10385    14193    12684    10776 
   12247    14888    12981     7155     4267     6307     8032     5317 
     750     -520     2314     5347     5707     5266     6059     5786 
    3692     4763    11059    16393    15395    10873     8764     9787 
    9650     7947     9365    12891    12102     7783     6600     9529 
   11266     8398     3621     1087     1657     3906     4815     2495 
     134     1280     3491     3657     3919     6073     7737     6533 
    4181     5624    11435    16176    16599    13306     8490     4781 
    1371    -1786    -1166     1521     2059      998     -331      362 
    4405     6646     2877    -1827      -72     5252     7468    10064 
   16065    19235    15971    10091     7494     8282     6785     3603 
    2130      657     -208     -203     -629     1484     3539     1477 
    1381     5628     9955    12933    12722     9529     6471     5189 
    7716    10474     6378       54      522     5844     9994    11777 
   11964    11507     9825     4699    -1339    -3979    -3863    -2312 
    -542      575     4188    10069    13086    11894     7103     1214 
    -475     1791     5253     9900    13315    13815    13475    13168 
   11179     6146     2810     5289     6826     4922     5829     8266 
    9814    10357     6340     2700     5252     7527     6601     7183 
   11570    16589    15354     9429     6615     5845     5067     7110 
   11215    15187    16375    13337    10288     7223     2219      105 
     377      542     4770    10059     9861     7575     7301     6567 
    4155     4046     7217     8261     6133     5257     4604     1861 
    2080     6984     9039     5821     3479     3306      706    -2744 
   -1611     1741     3540     5284     5661     2954      636      239 
    -858    -2434      -35     7044    13700    16844    16802    13976 
   10011     7273     4507     -557    -4365    -3893    -3448    -3893 
    -212     4566     4890     5567     8998    10217     9742     9856 
    9358     9041     9947     9730     7479     7487    10487    10733 
    8680     9693    12063    11675     9682     7362     4790     5022 
    8209     9240     6632     4847     7910    11711     8883     3331 
    4235     9524     9868     5486     5898    11242    13478    11207 
    6609     2972     3349     3411     -666    -4988    -5803    -3288 
     -37     1194      448     -119     2109     5778     5347     3273 
    7458    14040    15109    13826    14960    16854    16344    11821 
    5820     2078      180    -1623    -4307    -6470    -4031     1159 
    2425     1107     3778     9601    11030     5615     1306     4463 
    9091     7557     2679     1182     4382     8826    11491    14188 
   20087    25599    23369    13871     5979     3715     1813    -2811 
   -6178    -5003    -1437      959     1447     1157     1417     2923 
    5040     6817     9049    11734    12470    11982    11439     9688 
    9808    12352    11306     7702     8065    10252     7611     2847 
    2790     4326     1885    -1161    -1506    -3228    -8345   -11313 
   -8855    -3716     2148     6779     8425     9141    10158    10922 
   12557    15085    16328    16431    16816    15630    12635    10761 
    9505     7258     3737    -1422    -5656    -6229    -5117    -5010 
   -4959    -3578    -2275    -2220    -1759     1647     6917     9815 
    9921    10033    10756    11256    11419    11915    12920    14326 
   16328    18147    18638    17546    15300    11560     6322     2875 
    2020     -573    -3967    -3076      238     1324      736      918 
    1548      604    -1474    -2097     -359     2639     4954     6899 
   10999    16232    19802    20365    17278    13953    13995    13694 
    9052     4039     2766     1592    -3011    -8295   -10103    -8325 
   -7802   -10353   -11871   -10435    -6054      871     7686    14214 
   20602    22830    20738    19906    21328    20600    17298    14937 
   12181     5268    -2647    -6775    -8716   -10297   -10062    -7109 
   -1633     4586     9124    11197    11584    12199    13245    13513 
   13866    14911    16050    16872    16527    14805    11974     9159 
    8411     8926     8330     6061     2229    -2403    -5322    -4208 
    -800     1000      703     -358    -1696    -2912    -3709    -2081 
    2886     6894     7401     7007     8390    11889    13638    10593 
    7459     7983     8187     6033     4700     5037     5085     2930 
   -1547    -4241    -2325      679      964      751     5064    11741 
   13350    10734     9935    10466     8574     5356     5377     8391 
   10044    10621    12128    12827    10979     7190     3932     2573 
    1677     1585     3216     4385     4813     6688     8955     9219 
    7827     6051     4459     3574     4081     5371     5495     5458 
    7435     9160     8326     5917     2853     1316     3315     4757 
    1430    -3156    -4759    -5200    -6587    -5433      630     6863 
    9944    11866    13418    14129    13577    10749     7238     5990 
    6654     6940     6445     7643    11569    13850    12067    10524 
   10662     9064     5424     1500    -1859    -3153    -1853     -113 
    -467    -2570    -3107     -627     1993     2683     3518     6057 
    8766    10219    10860    13473    18946    22073    20928    20415 
   21325    20325    16954    13444    10698     6333      788    -1654 
   -2071    -5110    -9482   -10125    -6658    -3018     -802      545 
     714      789     2914     6755     9866    11517    14059    18001 
   20670    21749    22168    20673    17016    12223     6883     1897 
   -2214    -5066    -6861    -8694    -8783    -4850      126     2264 
    1732     1443     3520     5867     6971     9127    11660    12053 
   11022     9967    10134    10310     6744     1593     -608    -1205 
   -1513      -45     3569     7618     9210     8277     7466     7362 
    7397     8337    10217    10713     8582     6812     8197    10311 
    9387     6080     4264     6123     9051     8632     5622     5366 
    8938    11216    10092     9924    12291    12536     7767     1068 
   -2154    -1657    -2740    -5091    -2862     2802     4745     1184 
   -1692      487     3916     5568     7694    10682    13299    15902 
   17526    16533    14748    14907    14749    10149     4054     3168 
    4966     1882    -3762    -5811    -5870    -6585    -6048    -2505 
    3182     8369    10523     9645     8542     9889    12650    13075 
    9988     7245     7892     9938    11955    13485    12642    10541 
    7840     3049      452     3329     5582     2607    -1691    -1043 
    4732     8794     9034     9239     9006     8235     9350    11077 
   12415    13326    11645     8341     7436     9190     9662     7003 
    3683     1676     1154     2544     5953     8831     7208     2271 
   -1255    -2518    -2835    -3266    -4474    -4215     -150     5151 
    7262     7237     9938    14218    14763    12127    10285     9937 
    8971     5493     1685     1542     4302     6401     6515     6112 
    7782    10994    11595     9274     8614    10679    12055    11002 
    9617    10483    12224    11756     9093     6233     3897      747 
   -3421    -6064    -6312    -5158    -2080     1394     2289     2282 
    3581     4985     5422     4439     2190      122       16     2249 
    4429     5200     6600     9545    12150    13052    13201    12957 
   10658     7561     6294     5565     6253    11256    16358    16540 
   14240    13022    11928     8532     4515     3463     4388     4844 
    4557     3192     2572     5150     6949     4347     2613     4983 
    5972     3018      315     -189    -1279    -4088    -4983    -1084 
    5268     9330     9640    10810    16340    21471    21103    18250 
   17291    16218    12601     9454     9449    10577     9553     5639 
    1212    -1307    -2317    -2940    -2420      133     3897     7035 
    7875     6973     6510     5478     1929    -1234     -854     1699 
    3112     1744      617     2817     5667     7352    10736    15848 
   18414    16510    12621     9698     8069     6378     3987     2254 
    3907     8544    11273    10860    11470    13342    13186    11654 
   11419    12507    11897     7792     4407     5205     5815     2089 
   -3082    -5201    -4394    -3632    -3774    -3886    -3835    -4197 
   -4563    -2710     2347     8354    12653    13931    13043    12617 
   13044    13108    13603    15411    18486    22733    27097    30355 
   31044    27811    21462    13148     4188    -2350    -5347    -6539 
   -6740    -6344    -6602    -7878    -9758   -11853   -13510   -14298 
  -13662   -10435    -4658      987     3755     4147     4178     4146 
    3418     2966     4832     8378    11005    13377    17671    22005 
   23741    24482    26029    27133    26939    25840    23346    19356 
   14598     8293      238    -6718   -10635   -12875   -14030   -12119 
   -6000     2995    11444    15788    16638    17571    20014    22315 
   21860    18387    13990    10160     7605     5074     1232    -1405 
   -3049    -8439   -16529   -21709   -23429   -24258   -23445   -18276 
   -7878     5834    18613    26794    30149    30327    27831    22202 
   15232    10784     9599     9690    11392    14564    15160    11230 
    6189     2494     -550    -1142     4252    14364    23888    29157 
   30094    27711    21702    12838     5095     2135     4836    11996 
   19751    22776    18680     9441    -3083   -18970   -34454   -43270 
  -46157   -46797   -41957   -27769    -7952    10272    22913    31136 
   37201    41469    43559    42999    41773    41979    38813    28098 
   15901     8735     3744    -4638   -14994   -21843   -25317   -27296 
  -24355   -14532     -560    12965    20672    22410    22421    18793 
    7389    -6902   -16471   -19288   -16337   -10311    -3707     3417 
    9935    12457    10885     9183     9544    12430    18332    26510 
   34720    38849    37545    34177    29079    20349    10492     4091 
    3930     9281    15616    17993    13893     4522    -6051   -16155 
  -26708   -35957   -41104   -40908   -34344   -23236   -11665      985 
   17181    32541    39617    35320    20309     -935   -20327   -34238 
  -46360   -57176   -61332   -57586   -48859   -37000   -22562    -4911 
   12645    25685    36933    49173    63009    79232    95085   108123 
  115719   117175   120133   123943   114444    90233    66334    50083 
   34930    16313     -650   -13737   -27026   -39153   -48514   -59820 
  -76040   -95296  -113174  -127343  -137494  -137639  -121347   -94320 
  -68216   -46329   -23912     2254    29263    49632    58173    60976 
   68588    80943    91621    95915    88817    70879    50808    33333 
   16288     -711   -13347   -16045    -7364     7337    18069    15996 
    2271   -13137   -25126   -32728   -30546   -17543      464    18691 
   32550    41051    45840    43057    30268    12997    -1452    -9503 
  -11549    -7867     1978    14575    22103    18457     6858    -3586 
   -7874    -5564     1086     8041    13966    18812    19175    13051 
    4724    -2627   -10717   -17253   -14332     1381    24828    47537 
   61619    65441    64320    60215    51840    40991    29054    18029 
   10334     3650    -3537    -9606   -14905   -20708   -27500   -34296 
  -38340   -38411   -36240   -33042   -26642   -13535     5751    24048 
   33839    35720    34605    31444    25356    17716    10249     3069 
   -5328   -16503   -29531   -41571   -51684   -60063   -62936   -55260 
  -36978   -12867    10581    30336    45932    53728    52677    47081 
   39437    33596    33994    37223    40645    46207    50622    50202 
   45231    34104    16183    -4136   -21227   -32787   -39013   -39129 
  -32688   -20934    -5879     8203    17043    22301    27760    30940 
   28492    24264    22231    20593    17547    14501    12114     8097 
    1062    -8141   -18853   -29022   -35867   -39523   -39580   -32793 
  -19739    -5697     5995    14470    18580    16429     8146    -2130 
  -10781   -16919   -21285   -26757   -33720   -36659   -31160   -20163 
   -8996     1323    11709    21819    31475    39826    45498    48158 
   44948    33782    21796    17117    18269    19676    19020    18001 
   17192    13716     6880     -840    -5387    -2294     8715    23300 
   36364    45289    49008    45357    35005    24145    18612    17116 
   12991     4083    -7145   -21258   -37229   -50153   -58437   -62393 
  -61197   -55343   -45904   -33437   -19578    -6347     5134    13902 
   20200    26203    33431    41784    51008    60649    68682    70395 
   61358    44540    28448    14998     -275   -15890   -26753   -33104 
  -36227   -36746   -36911   -36502   -34683   -32936   -30665   -24920 
  -13825     1886    19053    34475    46578    54151    54992    48361 
   37544    27385    20717    16465    11211     4326    -1020    -2794 
   -3277    -5291    -8318   -11557   -16534   -24149   -31686   -35096 
  -33029   -25636   -13374      310    10975    18693    25819    31593 
   35034    38210    41752    43188    42228    41228    40149    37636 
   33800    28672    22353    14595     4367    -6455   -13747   -16212 
  -14970   -11564    -7957    -4577    -1351      267      595     1811 
    4886    10164    16361    20238    20755    19522    17578    14412 
    9435     3343    -3457   -11196   -18223   -22577   -24388   -24412 
  -24216   -25165   -25634   -24729   -25204   -29154   -35664   -42372 
  -46119   -44288   -37793   -29192   -17930    -3695    10101    21980 
   34129    47191    59586    70280    79161    86427    91577    92547 
   88554    81683    72631    60415    46202    31008    13775    -4842 
  -22882   -39687   -53248   -60360   -60787   -56746   -49331   -38875 
  -29897   -27537   -27993   -25795   -22878   -19336   -11229     1597 
   17444    33454    43778    46439    46567    47731    47996    46318 
   42752    36260    28103    20106    11938     3387    -4764   -11414 
  -15589   -16313   -12993    -7897    -5538    -7117    -9832   -12386 
  -15524   -19007   -22520   -25678   -26599   -23528   -16218    -6727 
    1299     6808    11180    14749    18321    23796    31172    39100 
   46527    52264    55322    54782    49430    39490    28536    20535 
   13685     3952    -7152   -17006   -25268   -30192   -31555   -31102 
  -28410   -24060   -21594   -22662   -24177   -22987   -20554   -18523 
  -15352    -9400     -432    10340    22336    36339    49693    57018 
   56521    50265    40301    28174    17149    10346     6635     3299 
     342    -2461    -7378   -15119   -24828   -35560   -44651   -47883 
  -42706   -30429   -14424     2267    17352    29027    36010    40102 
   45307    51317    54427    54288    52704    49255    43283    35296 
   25032    13375     3527    -2984    -7501   -10986   -13874   -18568 
  -27186   -38125   -48152   -54499   -55006   -49128   -37230   -20389 
   -2523    11041    18443    20070    14328     3092    -5518    -6164 
     614    12806    28946    46924    62609    73175    79583    82578 
   80927    75421    67838    57189    44170    32052    20393     7496 
   -5625   -18959   -32649   -44265   -51776   -54314   -52634   -49862 
  -46984   -42350   -35856   -27527   -15813    -1251    13519    27653 
   40030    47991    51848    53162    50287    42349    33348    27033 
   21245    12484     1581    -9296   -19245   -26846   -30854   -32147 
  -32416   -32047   -30317   -26746   -21640   -15089    -5877     6166 
   18429    29183    38611    45917    49048    45930    37070    27029 
   20502    18101    18399    21529    26559    30241    30450    26324 
   18998    11802     6402     3263     3530     6763    10691    12982 
   11619     6183    -1987   -11470   -19941   -24270   -22455   -13472 
     833    13812    20757    23660    22592    14262     2050    -8077 
  -14708   -17309   -16610   -14366   -12292   -13472   -16770   -17747 
  -16200   -12775    -5490     6469    21053    35279    47727    57783 
   63767    64977    63268    61255    60214    59459    57431    52880 
   45529    35872    24448    11859    -1731   -16651   -32352   -47892 
  -63246   -77851   -89242   -95168   -94993   -88129   -75149   -60618 
  -48781   -36772   -19727     1142    22634    42140    57110    70052 
   83521    93536    97280    95165    86823    74331    60270    43743 
