Origin Time       2016/04/16 01:25:00
Lat.              32.753
Long.             130.762
Depth. (km)       12
Mag.              7.3
Station Code      KMM015
Station Lat.      32.2161
Station Long.     130.4046
Station Height(m) 5
Record Time       2016/04/16 01:25:17
Sampling Freq(Hz) 100Hz
Duration Time(s)  233
Dir.              N-S
Scale Factor      3920(gal)/6182761
Max. Acc. (gal)   116.551
Last Correction   2016/04/16 01:25:17
Memo.             
[...]
   11340    11377    11363    11344    11401    11376    11356    11394 
   11387    11399    11404    11360    11353    11393    11404    11350 
   11330    11375    11387    11381    11388    11399    11418    11384 
   11331    11350    11384    11392    11384    11351    11337    11350 
   11382    11427    11413    11363    11361    11385    11390    11370 
   11367    11382    11384    11397    11411    11365    11299    11336 
   11429    11433    11359    11298    11343    11422    11398    11385 
   11422    11394    11364    11353    11328    11374    11433    11400 
   11354    11374    11412    11381    11337    11382    11406    11362 
   11381    11411    11346    11309    11393    11420    11321    11345 
   11436    11395    11373    11392    11366    11347    11363    11400 
   11380    11352    11358    11360    11397    11358    11304    11408 
   11421    11311    11361    11460    11414    11342    11365    11434 
   11417    11340    11366    11426    11413    11374    11283    11300 
   11458    11379    11294    11484    11446    11226    11334    11489 
   11372    11347    11451    11345    11261    11375    11419    11366 
   11337    11356    11375    11388    11411    11404    11353    11352 
   11431    11380    11248    11281    11327    11277    11285    11367 
   11415    11424    11426    11387    11362    11389    11363    11281 
   11393    11697    11805    11772    11802    11706    11653    11800 
   11855    11893    11989    11925    11869    11951    11861    11520 
   11199    11065    11189    11413    11372    11048    10699    10502 
   10418    10186     9940    10081    10466    10751    10825    10822 
   10886    10877    10805    10839    11193    11976    12608    12644 
   12421    12157    11771    11375    11097    10945    11078    11455 
   11591    11387    11167    10844    10350    10087    10248    10743 
   11495    12165    12530    12895    13266    13418    13426    13251 
   13191    13607    13980    13852    13339    12505    11486    10690 
   10189     9386     8201     7532     7698     8239     8744     8783 
    8512     8453     8426     8261     8438     9568    11487    13031 
   13680    13942    13904    13652    13936    14979    15854    15891 
   15756    15842    15379    14197    12729    10964     9243     8168 
    8030     8734     9615    10334    10779    10444     9477     8563 
    8107     8376     9273    10414    11601    12640    13502    14262 
   14619    14736    15304    16259    17055    17431    17109    15673 
   13317    11250    10294     9832     9137     8141     7010     6139 
    5535     4795     4121     4108     5126     6781     7878     8330 
    9463    11266    12783    14484    16692    18190    18234    17699 
   17169    15915    14215    13165    12618    12300    11835    10027 
    7409     6319     7094     7968     8175     8534    10177    12923 
   14970    15382    14672    12951    10717     9380     9754    12229 
   16291    19439    19795    18170    15716    12699     9921     8247 
    7435     7297     8298    10034    11422    12125    11293     7637 
    2804      138      137     1484     3624     5592     6197     6056 
    6253     6935     8854    11581    13023    14491    18398    22307 
   23579    24298    25840    26076    24801    23600    21630    18155 
   14836    12616    10217     7362     6618     8858    10699    10008 
    8384     6599     3827     1384     1573     4139     8340    13074 
   14608    12913    13120    15208    14807    13290    14657    17511 
   18497    18069    18202    18643    18044    15833    12298     8448 
    5019     1707    -2037    -6064    -8725    -7160    -2343     -174 
   -1136     -217     3183     9364    18704    24325    23728    23844 
   23692    19817    18805    21181    21479    20124    16646    12204 
   10758    10686     8954     5719     2160      -12     1543     7302 
   13832    17498    18873    19159    17307    16374    19926    23258 
   23616    24412    25109    23172    19372    15434    11382     6690 
    3107     2373     4108     8390    13749    15465    11843     5857 
     285    -3401    -5094    -4970    -1921     1908     3923     8312 
   14189    12618     7006     7121    10015    11958    15108    18173 
   19516    18919    16451    13712    13588    19653    26676    24341 
   17245    17076    21508    22145    20090    19737    19847    18425 
   15845    11690     7968     9075    11853     9570     4488     1789 
     556     -757    -1425    -1867    -1911     -685      298      462 
    1892     4331     4164      605     -355     5331    13433    20215 
   25557    31765    38729    36654    25160    17211    12597     4712 
   -2767    -5414    -4193      968    11587    20734    18652     9938 
    4372    -1037    -9308   -13338    -8707     6131    26054    37789 
   38552    33245    25323    18116    15820    21386    27995    29945 
   28886    24586    20030    17293    11718     3404     -587     3131 
   11287    20026    25146    22222    13498     4136    -3721    -7623 
   -6639     -657    10104    19170    20093    13060     3029    -5715 
  -14553   -20556   -15834    -2899     8415    17110    25600    26622 
   21267    18977    16027    12984    16457    21273    23968    24234 
   18816    11421     6296     1562    -1232      326     3415     6787 
    9505     7778     6423    13066    21135    24360    27695    31722 
   32977    33201    33883    32156    25489    15931     7782     2813 
     217    -1398    -3879    -8481   -13933   -18175   -20696   -19624 
  -12975    -4421     3093    13411    27539    36908    33892    25533 
   22155    22142    24338    30569    35851    35479    29678    20340 
    9542      309    -3575    -4548    -7953    -8937    -1917     6507 
   12326    16916    15556    12313    15823    16694    10687     7859 
    8073     8138     9398    11722    14770    16566    16560    15158 
   11301     7243     6860    10862    15371    15469    13033    15651 
   25142    33471    33304    26953    19810    11028      169    -7239 
   -9235    -7370    -1229     5334     8711    10090     6220      195 
    1012     1951    -1497     -651     5078    12029    17255    16647 
   14524    13565     9386     5979     5611     2403    -1238    -1939 
   -2606    -2345     1906    10377    20255    25778    25907    27112 
   28696    27020    27686    30465    31257    31394    30861    31755 
   32819    29502    24785    19504    11347     2905    -4998   -14621 
  -23617   -25689   -22192   -20954   -17747    -6021     4576    10382 
   19353    25524    20721    16155    21514    28368    30300    30883 
   31104    29604    26230    22348    19568    14737     6694     1437 
     870      744     -230     -747    -1273    -2240    -2089      738 
    6702    16116    25484    27648    24819    24622    23797    19026 
   14023     9832     8063     9955    11409     8304     1043    -6274 
  -12108   -16336   -13786    -4779     2275    10392    26040    37224 
   32371    22415    18861    16572    16186    23912    34063    40935 
   40681    32560    25444    20758    13262     5748     2448     2887 
    5183     6909     4996     -227    -4269    -7257   -12977   -17582 
  -15720    -9336    -2056     2413     4265     9042    12345     5084 
   -3243     -421     6435    15386    31480    42293    41885    38502 
   30800    23167    24383    26478    23711    21101    19405    16565 
   11772     5407      378    -1350    -2416    -5891    -9172    -8123 
   -4687    -3695    -6299   -11769   -18162   -19323   -11824    -1038 
    9168    22913    37009    36851    24694    18984    20416    22242 
   27114    32263    35064    37392    36710    32372    26434    20034 
   15218    11119     4547    -2670    -7227    -9745    -8390    -2032 
    1673      100      327     3197     7179    13550    18588    20439 
   19222    11123     1280     -614     3338     9488    16943    20574 
   20184    19441    15816     9374     5970     6980    10981    16596 
   20739    23740    27588    29045    24416    16185     9127     3957 
    -718    -3678    -3474    -1309     1697     4930     6927     7577 
   11425    22956    33839    32629    24693    17809     9346     -567 
   -8975   -17166   -22531   -17915    -7943    -3467     -770     6514 
   14772    19153    15494    10290    14562    20976    22740    24574 
   25728    26320    28450    30182    31588    32873    31634    25280 
   14147     3620    -1176    -1033     -105      429     3257     8520 
   11270     9837    10338    14104    13775     9644     7541     6431 
    4472     1892     -711    -1719     -510     5254    17581    28872 
   29657    26457    27164    22984    14002    11512    12275    11860 
   12034    10848     9949    11665    12137     7701      550    -4077 
   -6631   -10557   -11403    -4670     3319     8545    13762    14475 
    8707     7368    12792    17420    22013    26462    27154    25613 
   23094    21407    21673    22379    24481    27263    28451    28445 
   26609    21351    14079     7800     3201     -416    -2288    -2106 
   -1128      111      646     -441    -1480    -1696    -1460     -588 
    -450     -488     2061     6983    11510    11525     7231     4738 
    3807     1994     4210    11507    20901    30268    32965    27491 
   21910    18429    13812    12181    18074    26874    32398    33146 
   31760    31341    30994    27881    22219    17151    12729     6099 
   -1184    -4928    -5787    -6807    -7391    -7426    -8273    -7740 
   -5156    -2981    -1581    -1072    -2124    -4817    -8215    -8762 
   -4370     2202    10001    20708    27160    21092    12041     9124 
    5887     2603     4393     7680     9998     9770     5171    -1625 
   -8875   -15160   -17343   -15087   -14092   -15805   -13321    -6587 
     -89     8823    23593    40519    50728    55984    64526    70250 
   70956    74599    78580    80798    83277    82292    75474    63667 
   50012    38573    29332    21053    14181     8181     2112    -3720 
  -11677   -25119   -38981   -46053   -50777   -57112   -57630   -51599 
  -46533   -43250   -40124   -35077   -25421   -14196    -5563      950 
    9670    24867    43119    54275    54488    49482    44150    39736 
   35966    32104    30821    34267    37157    32785    22145     9982 
   -3195   -20966   -44227   -63618   -69270   -65560   -58747   -49418 
  -42071   -37729   -33611   -31181   -29340   -25279   -17714    -6756 
    4470    17566    37815    61391    80415    95423   107287   112723 
  114884   115380   109345    99634    90922    81924    73473    65352 
   54349    41054    28630    17871     7579    -2822   -15300   -31125 
  -43285   -45033   -42905   -43716   -42333   -35801   -28675   -23323 
  -19646   -16588   -11923    -4616     6175    21898    40399    52294 
   50500    42933    36909    28456    19498    11972     1965    -7499 
  -14905   -23553   -33677   -45618   -60384   -76891   -89974   -97894 
 -105563  -110767  -112194  -114305  -110708   -98810   -85089   -67594 
  -47059   -30276   -17014    -3786     9354    23907    44037    65733 
   82776    98793   114641   124839   128897   128291   124819   120024 
  110314    95441    80560    64637    43429    19028    -4884   -31016 
  -64167   -97846  -116416  -117841  -111450   -96776   -72703   -48689 
  -32780   -23706   -14803     -336    22726    53691    83946   105278 
  126013   152939   170472   171469   168390   165745   160319   150619 
  135902   114230    83594    47925    12534   -21822   -56837   -89238 
 -108277  -115267  -123520  -129182  -120645  -103426   -85975   -64772 
  -33803     3733    40462    75609   106728   129126   149002   167538 
  175709   175816   169136   149781   120794    87558    55652    29796 
    8097   -11368   -31527   -53683   -70774   -81477   -93468  -103890 
 -105060   -99323   -88382   -70706   -47587   -21948     1332    17941 
   26278    29184    28802    26173    29625    40168    48816    51966 
   47412    35613    20605     4108    -9927   -18189   -24506   -33263 
  -43411   -48929   -40109   -12585    27105    69449   103438   118935 
  122367   125278   120207   104144    90726    85645    86629    85298 
   74271    60385    45372    24111     2133   -14962   -30477   -43968 
  -45829   -34612   -20149    -6031     5030     9083     9233     1910 
  -17574   -39649   -55019   -62036   -61957   -57168   -47178   -33756 
  -20893    -7361     4561    10225    13558    13707     3711   -12114 
  -27606   -40037   -41985   -34087   -27844   -31175   -42584   -57066 
  -74056   -89497   -94916   -88434   -70228   -44793   -25013   -13700 
   -3178     5982    11947    22134    40537    61304    79215    91779 
   95763    90516    77281    58270    36020    10443   -16651   -42864 
  -67126   -77775   -67473   -54382   -49402   -43443   -39275   -41408 
  -38548   -20686    13652    62083   114214   148455   157099   157040 
  151062   133367   116026   102007    87544    75172    60612    45132 
   37112    39027    44957    42727    28111     6809   -15163   -34617 
  -49008   -49435   -35278   -22421   -14186    -4979      226     3521 
   12131    23863    33464    38738    43771    51394    59147    65138 
   61522    39752     6100   -29679   -68502  -105635  -122296  -118169 
 -114398  -114098  -111227  -107866  -101884   -95240   -86992   -68189 
  -42449   -14284    19429    56970    92934   118240   135806   160585 
  183136   191644   195219   191458   179372   168659   155688   134906 
  107230    74996    41881     9439   -20554   -47795   -74177   -94544 
 -106067  -114478  -117586  -115114  -112080  -101373   -83451   -66622 
  -46830   -26366   -13252    -3527    10286    31378    54036    66336 
   70092    76978    82639    76112    58200    32468     4273   -20293 
  -42176   -57142   -54509   -42061   -39520   -43925   -43970   -45191 
  -48449   -48001   -45951   -42364   -35377   -26338   -16196    -5993 
    3525    14138    28039    40992    47259    50362    51549    46475 
   39944    36754    33638    29131    24238    20664    18596    16966 
   18977    27557    40708    56501    74708    94036   111429   124130 
  131725   133397   128751   120562   109832    96210    81495    67558 
   57491    54688    56466    55558    49121    40457    33460    29298 
   25789    20655    15513    13201    14332    18021    21960    22414 
   17128     7741    -2108   -12713   -29470   -50151   -61671   -60807 
  -55334   -46093   -35265   -29302   -25404   -20730   -17004   -12428 
   -6910    -1613     5902    17156    28443    31755    28506    29881 
   33222    31027    26936    19186     6126    -5864   -17086   -28409 
  -33579   -31644   -30474   -31568   -30111   -28937   -29108   -25798 
  -18137    -6009    10494    30927    51606    61143    60638    64920 
   71665    73486    76669    79420    75262    64580    46706    26288 
   10950      407    -9501   -22099   -36239   -45749   -50237   -55004 
  -57468   -54808   -49795   -39110   -22253    -5337    10884    26839 
   37653    36255    27855    25119    22824    16170    16243    24476 
   34390    42496    45575    45735    44593    39345    31764    26247 
   21251    12833     3230    -3656   -10435   -20641   -30665   -37789 
  -47094   -57168   -59395   -57057   -57077   -56478   -53550   -50439 
  -47753   -45825   -43876   -40184   -32265   -18551    -2544    13812 
   33776    52418    57536    52702    51264    50466    47175    47045 
   44925    37348    27191    12035    -4775   -18900   -33569   -43362 
  -37123   -21493    -9721      349    11305    17701    14517     2190 
   -7213    -7439    -4609     5476    27645    51409    63448    60820 
   53681    46907    36726    28600    26033    27410    35732    47831 
   56545    60023    59782    58232    55070    48847    41065    33463 
   26601    22078    20298    19043    17526    17108    17117    14608 
    9771     6157     4958     4384     3129     1815     1169      643 
     205      352     1757     6871    16686    25696    27990    27143 
   28257    28455    25635    21893    19335    20097    23474    26144 
   24655    16930     6700      547      576     5546    14415    22433 
   20237     8543     -538    -4389    -9426   -15866   -17210    -9635 
    1056    12117    29126    45705    49570    46087    42724    33241 
   18600     6878    -1207    -4307    -3479    -1602     6892    25502 
   47708    63256    69764    72903    71377    63009    51079    34691 
   16968     4978     -493     -911      465     1041     1672     -175 
  -11106   -33095   -57410   -72414   -76807   -75296   -67793   -54605 
  -39364   -25132   -16837   -16050   -16325   -12601    -6320    -1383 
     552     1858     5165     9687    13754    17323    18523    12787 
    2873    -3187    -8271   -16982   -22759   -22045   -20322   -20607 
  -20028   -17958   -16238   -12239    -3314     8868    23091    36895 
   43819    45054    47615    47594    43489    43100    45649    48076 
   49885    47595    41177    32240    20949     9759     2186     -803 
   -1882    -4019    -7350   -10490   -12665   -13685   -13182   -11381 
   -8748    -4370     2170     9425    15313    15769    10967    10014 
   13980    17521    26006    39094    48186    53176    52963    46204 
   37798    29716    24010    24070    26102    25545    24494    23557 
   19952    14283     9481     7132     6592     5872     3511      -89 
   -2514    -3155    -3949    -4333    -3440    -3103    -2904     -845 
    3991    14233    28634    36815    35053    32357    28021    15748 
    3523    -2626    -5831    -6821    -4937      765     8182    15895 
   25440    32963    38113    42840    41860    36216    30956    25544 
   21097    18216    16305    17497    23585    34575    46868    55384 
   58654    57902    53799    44445    28583    10229    -3912   -11540 
  -17015   -22251   -23178   -22215   -25912   -30272   -29550   -27025 
  -25740   -24285   -21641   -18658   -17131   -17114   -15853   -12045 
   -7669    -3938     -755      752     -169    -2758    -6950   -12642 
  -17523   -19671   -19568   -17663   -13491    -6575     3098    15126 
   27567    33714    31433    31842    38671    43914    48240    50858 
   45652    36305    27454    19569    14439    13873    18748    24876 
   24619    16201     4153    -7408   -19593   -33988   -42143   -36024 
  -23876   -13490    -3213     4558    11157    21309    28984    31311 
   35029    40105    43506    48878    56561    61934    63321    59746 
   51188    41236    33345    27541    21550    15062    10274     7701 
    5358     2063     -639     -788     1697     7672    18626    29538 
   32861    30077    24203    14344     5244     1770     3531    10481 
   20485    28507    29989    25405    18859    10818     3783     1639 
    1423     1713     5697    13892    23627    31667    37609    40861 
   38623    34580    33404    30124    21340    11905     6220     4616 
    4999     5326     4917     4382     5016     6917     8487     7264 
    3074     -635    -2647    -5162    -7310    -6089    -3100    -2332 
   -3357    -3846    -3820    -2546     1548     9010    19462    27615 
   28854    28820    29697    25990    20865    17661    14843    16404 
   22548    28199    31430    30884    25944    17703     7876     -611 
