Origin Time       2016/04/16 01:25:00
Lat.              32.753
Long.             130.762
Depth. (km)       12
Mag.              7.3
Station Code      KMM001
Station Lat.      33.1208
Station Long.     131.0687
Station Height(m) 432
Record Time       2016/04/16 01:25:14
Sampling Freq(Hz) 100Hz
Duration Time(s)  300
Dir.              N-S
Scale Factor      3920(gal)/6182761
Max. Acc. (gal)   163.878
Last Correction   2016/04/16 01:25:15
Memo.             
[...]
   15551    15548    15546    15549    15549    15557    15567    15556 
   15553    15559    15548    15544    15547    15541    15546    15548 
   15545    15560    15561    15552    15558    15552    15546    15553 
   15552    15553    15555    15552    15557    15553    15541    15547 
   15554    15553    15549    15549    15560    15557    15545    15548 
   15552    15556    15556    15538    15539    15557    15556    15557 
   15557    15550    15559    15553    15542    15553    15550    15544 
   15555    15549    15548    15561    15554    15548    15550    15548 
   15553    15556    15554    15554    15554    15554    15549    15549 
   15555    15542    15543    15565    15559    15548    15556    15551 
   15551    15556    15547    15546    15553    15555    15559    15553 
   15543    15546    15551    15554    15553    15551    15560    15558 
   15545    15546    15551    15558    15554    15542    15551    15555 
   15546    15553    15555    15551    15551    15548    15555    15562 
   15552    15551    15553    15548    15552    15552    15546    15548 
   15550    15555    15557    15551    15553    15556    15550    15548 
   15549    15550    15553    15550    15553    15554    15546    15553 
   15554    15543    15553    15557    15551    15561    15552    15539 
   15551    15555    15550    15547    15546    15557    15559    15553 
   15557    15552    15544    15552    15555    15551    15551    15553 
   15555    15554    15553    15552    15550    15556    15550    15541 
   15561    15565    15546    15553    15552    15543    15559    15556 
   15546    15560    15557    15551    15556    15548    15548    15560 
   15553    15548    15553    15553    15549    15551    15557    15557 
   15554    15555    15547    15549    15555    15547    15552    15557 
   15543    15551    15559    15548    15555    15552    15541    15557 
   15558    15549    15562    15557    15545    15552    15557    15558 
   15552    15541    15550    15556    15545    15550    15560    15556 
   15553    15556    15556    15545    15545    15560    15557    15551 
   15556    15551    15552    15551    15543    15555    15556    15547 
   15557    15559    15554    15557    15546    15545    15557    15548 
   15549    15563    15555    15547    15550    15553    15552    15548 
   15553    15555    15548    15550    15550    15553    15559    15543 
   15545    15563    15550    15543    15557    15553    15552    15554 
   15547    15552    15555    15548    15552    15551    15550    15558 
   15552    15548    15552    15553    15557    15552    15544    15550 
   15556    15551    15550    15554    15561    15553    15544    15551 
   15553    15553    15554    15545    15550    15557    15550    15553 
   15553    15547    15554    15554    15550    15555    15552    15552 
   15558    15551    15546    15554    15554    15547    15548    15557 
   15555    15547    15554    15557    15547    15555    15557    15549 
   15556    15551    15546    15557    15550    15547    15554    15544 
   15548    15558    15551    15558    15559    15545    15552    15560 
   15550    15545    15549    15554    15555    15550    15547    15551 
   15553    15547    15548    15558    15555    15549    15557    15548 
   15543    15564    15556    15543    15558    15553    15547    15559 
   15553    15549    15553    15545    15552    15559    15547    15552 
   15564    15553    15547    15553    15555    15549    15546    15554 
   15558    15554    15549    15545    15552    15553    15546    15554 
   15554    15547    15555    15553    15549    15558    15549    15547 
   15556    15548    15548    15556    15549    15552    15554    15551 
   15557    15552    15544    15552    15555    15548    15548    15555 
   15554    15544    15551    15559    15548    15549    15552    15546 
   15555    15555    15546    15554    15553    15545    15555    15556 
   15548    15553    15552    15551    15553    15547    15552    15557 
   15546    15551    15560    15553    15547    15550    15554    15553 
   15551    15552    15548    15549    15553    15551    15558    15558 
   15544    15552    15561    15545    15547    15556    15550    15553 
   15555    15556    15557    15543    15542    15559    15557    15548 
   15549    15553    15554    15547    15545    15553    15553    15550 
   15551    15552    15554    15551    15555    15558    15545    15549 
   15561    15548    15545    15557    15554    15554    15553    15549 
   15554    15548    15544    15557    15559    15551    15550    15553 
   15554    15551    15549    15549    15549    15551    15552    15553 
   15557    15549    15543    15552    15551    15548    15555    15551 
   15555    15559    15544    15549    15558    15545    15548    15559 
   15555    15557    15554    15545    15550    15550    15549    15560 
   15553    15544    15556    15557    15545    15547    15556    15550 
   15545    15555    15553    15545    15555    15554    15548    15554 
   15548    15551    15560    15543    15543    15559    15549    15538 
   15534    15524    15521    15507    15483    15472    15454    15427 
   15404    15370    15335    15309    15284    15273    15287    15319 
   15363    15402    15427    15416    15384    15377    15396    15446 
   15543    15631    15659    15591    15421    15244    15142    15133 
   15289    15625    16026    16344    16473    16476    16467    16352 
   16041    15590    15001    14333    13873    14006    14901    16204 
   17359    18041    17872    16672    15159    14126    13634    13817 
   14743    15802    16584    16957    16625    15723    14701    13965 
   13927    14413    14969    15758    16710    16961    16233    15644 
   16070    16318    15276    14654    15640    15882    14332    13883 
   15530    16279    15029    14369    15511    17029    17922    17712 
   16517    15736    15729    15598    15035    14155    13577    13737 
   13929    13796    14441    16870    19354    19786    19870    20257 
   18353    15483    14601    14148    12828    12804    15163    17351 
   16817    14914    13863    12888    11158    10571    12071    13326 
   13703    15158    17034    18017    17917    16012    14819    15965 
   15552    14000    15057    15990    14565    14516    16698    17533 
   16027    14191    13639    13902    13787    14965    18591    20982 
   19658    17188    16186    15414    12781    10855    11931    12706 
   12611    14463    17120    18571    18322    16465    14721    14411 
   14894    14287    12654    13057    15288    16447    17324    19246 
   20728    21051    20723    18624    14384    11231    10733    11286 
   13459    17273    19267    17761    14654    12810    12991    13425 
   13356    13166    13562    15170    15882    14714    14826    16515 
   16008    13684    14262    17955    20632    21370    21726    21894 
   20774    17561    14281    13439    13154    10787     8496     9377 
   12685    16113    17573    16025    13949    13568    13031    11917 
   12142    13415    15104    17089    18295    18310    17911    18012 
   18257    17732    17354    17468    16128    14030    14877    17929 
   19155    19828    21410    19516    13710     8021     3790     3308 
    6854    11515    18935    26887    27809    22674    14580     4817 
     486     3611     8748    15443    22409    23900    20333    15122 
    8376     3324     4174     9795    17510    24159    27156    27036 
   23273    16403    12547    14175    16069    17253    20736    22721 
   18442     9698     2488     2616     7147     9654    12963    20204 
   25646    23580    17600    16575    20746    23565    24431    23369 
   19383    17706    17690    11618     4752     6566    10505     7952 
    4424     7258    13175    15860    16494    20628    27692    30764 
   26966    19548    10924     2184    -2373     1398     9961    17734 
   25027    29639    25525    15686     7173       26    -3568     1448 
   12237    25348    37765    39590    30667    23409    19575    13815 
    8899     9118    13976    19263    20063    16607    12388    10245 
   10222     8053     6984    16442    31364    39295    36125    23670 
   11299     7150     4917     -776      -18    14465    29867    31640 
   24510    19230    17922    17920    16395    14838    14850    12107 
    9720    14642    19852    21970    25947    25565    18409    11711 
    7318     8354    15562    22769    26423    22049    12772     9099 
    7834     6516     9803    13985    22771    37887    40543    26674 
   11600     1894     1425     9616    21547    43266    70283    80095 
   67603    44110    13250   -16122   -26396   -21680   -15305     2182 
   30059    44080    41370    35826    31598    31706    34113    29774 
   18782     7937     6407    22471    41561    40120    26401    12769 
  -12047   -38235   -46835   -48308   -33654    20044    86917   124006 
  119587    88729    47818     7573   -10934    -9674    -2698    31831 
   76719    77935    39746   -21098   -79598   -82279   -58739   -68232 
  -66638    -8116    64201    89316    68353    60919    87577   112966 
  117180    90918    46859    24393     9491   -41578  -103973  -118636 
  -85393   -46740   -15234    27138    76395    96688    80332    62557 
   49402    13440   -32661   -34111    25099    82542    85095    72373 
   77200    44283   -36742   -89863   -90982   -72175   -47886   -25718 
   -6956    14992    21001     3388     1967    20506    41365    84825 
  112746    84537    58632    48397    18152     -201    10117    18777 
   22689    18550    -8778   -39545   -47515   -32726    -5481    11285 
    6871     5552    14140    11009     -168     4407    26198    45836 
   55931    63478    60583    41559    23471    10673    -6455   -19389 
  -14941     2152    27703    61051    76126    47151     6515     3844 
   13200    -6303   -14660    16167    50116    69781    73870    61137 
   47104    27216     9792    37193    77703    56707    -3081   -32708 
  -41319   -77071  -109736   -75691    -3988    43053    65154    78696 
   79978    56516    12512   -15533   -11077     6752    28306    47336 
   54550    52309    44014    29191     7013   -13388   -22929   -34802 
  -47709   -49145   -58857   -68824   -38972    10422    38897    51208 
   57636    55413    41365    28801    34852    47845    61264    72821 
   62750    40464    20814   -15003   -55699   -55115   -20418     2668 
   19339    53972    70452    28115   -27317   -36017   -23633   -20330 
   13806    89425   136560   120354    78492    23355   -46579   -92573 
  -93813   -61926    -2380    62399    91526    79831    51167    11953 
  -25468   -34010   -12564    27978    74400    95689    85199    65570 
   35217    -9641   -39792   -37671   -23454    -8811    19688    42571 
   19132   -23940   -40537   -45989   -45394   -18868    10095    11953 
   -3421   -14133    -5858    19604    42061    55228    70365    71976 
   42719    12001     5681     9223    14144    29130    46586    53000 
   51223    39272     8053   -22527   -19183     5560    16411    17332 
   19925    14749      187   -16201   -16490    10414    36349    35243 
   24975    32483    40788     9956   -40245   -58116   -50429   -37220 
   -3501    42991    66233    53423    19406    -8486   -10410     5738 
   31596    71377   109136   119044    99783    65709    17377   -43388 
  -78459   -67970   -46861   -26363     6281    30706    29725    10607 
  -11379   -12291     9382    29873    51035    89069   119018    97443 
   40086     2853   -12144   -31170   -33521      998    48630    82610 
   94682    85218    56978    20978    -2462     -685    22085    49138 
   59099    43062    20399     8530    -7425   -27878   -29210   -24197 
  -36279   -45971   -29997     2541    32430    51736    56791    45114 
   34913    42643    49913    44885    39638    35185    27302    20565 
   25159    45936    65722    66012    51936    34705    10733   -25569 
  -55732   -54717   -30339    -7785    11896    33751    32454    -2083 
  -26719   -20309   -14833   -18024   -14385    -9351     7556    44159 
   66453    70289    81007    82490    60387    31179     8984     8482 
   26182    37519    35570    27575    25363    32535    29757    18057 
   20636    27103    14529    -5627     2650    42961    59576    31370 
   11491    14273     1000   -19916   -15294     3491    21031    38695 
   47135    47079    46994    42908    39692    46128    53001    46944 
   33937    32527    39320    39875    41183    44314    39664    34593 
   34067    38404    46677    41260    27516    29276    31471    23633 
   35312    71931   100826   105793    97369    84142    69238    54443 
   38063    26354    25284    33293    54176    79032    91059    97443 
  104882   110397   127163   154885   172789   181695   187639   191467 
  199230   193704   169626   156510   143627   105063    70190    65347 
   81647   113444   145124   156681   150836   124755    78224    36759 
   15856    15861    30646    44895    59659    75511    78775    77526 
   75223    54908    28541    13132    -1261   -15739   -23161   -21368 
   -4282    26085    55839    77124    98086   118858   121331   110373 
   99504    70132    17033   -31587   -69866  -116382  -163959  -189755 
 -198476  -203223  -196660  -175566  -151531  -126049   -87636   -28044 
   44397    92440    85308    47413     4704   -59309  -125182  -147320 
 -154010  -175579  -168578  -123342   -87946   -70288   -45404   -30032 
  -63474  -133353  -192371  -222529  -237176  -242921  -224498  -175908 
 -111573   -45402     2002    12442    12308    26252     9234   -51676 
  -89614   -88410   -78243   -62601   -56617   -77120  -107233  -133586 
 -159593  -176737  -167803  -126064   -65546   -24469   -18544   -22716 
  -35871   -73384  -116511  -140194  -140017  -121064   -88966   -54827 
  -26057    10535    45260    40903    15842    13297    22511    36042 
   67931    98411   107792   101110    82820    66784    64020    67071 
   76057    89474    93629    85791    60490    12032   -38127   -74177 
  -96443   -92660   -70489   -63715   -70044   -66309   -65505   -84037 
 -103038  -101283   -84414   -70803   -65496   -55759   -36076   -21221 
  -12460    16243    67822   111922   136106   149386   152695   140535 
  109860    66779    30703    12484     1225    -7322    -2362    11251 
   20919    31278    39243    27269     1498   -11744    -8916    -9539 
  -11500     9618    43359    49430    33026    33890    48498    49764 
   47045    60410    82624    97005    98487    84246    51360    23493 
   30196    51107    61432    78621    96835    95635    96290   106028 
  105318   103668   112702   118773   122680   135749   147442   150168 
  144349   119570    82534    54266    41183    41666    39007    15106 
  -12134   -22341   -25314   -34071   -51317   -69791   -88462  -117308 
 -136283  -123792  -104034   -84572   -54409   -45632   -68614   -83711 
  -88454  -103596  -113016   -89033   -28442    37934    82421   113848 
  123374    85022    29611    -1901   -22898   -42037   -41236   -22862 
   -4156     6079     2242   -20549   -54952   -84709  -106690  -122355 
 -122565  -103461   -78142   -62086   -44852    -5819    39663    65746 
   84784   111812   124988   107232    74136    43446    17905    -6527 
  -24827   -29868   -31320   -33592   -25129    -7426     2058       75 
     580    14050    43292    70124    71018    58303    44235    16955 
  -14812   -34198   -47686   -59003   -63658   -69315   -79121   -79622 
  -68048   -58789   -55281   -50327   -54442   -72813   -77089   -61161 
  -48862   -30195    14599    74765   130048   162771   167043   151429 
  123957    91817    64635    50058    50055    62734    83405   100285 
  106521   103583    89534    75246    74437    75506    77571    96914 
  123161   141976   157600   169676   175564   172647   156004   125824 
   87396    55644    37616    22409    13542    23806    41391    42079 
   29758    32321    49611    58157    61063    73381    83894    76848 
   68370    81754   104501   110350   104158   103684    95415    62622 
   32646    32712    41617    35402    34264    58803    83211    87732 
   84068    66638    30265   -12513   -59296  -102180  -127559  -128896 
  -97155   -48372   -19184    -6311     8401     2518   -35772   -75563 
 -100751  -121159  -128670  -105512   -70257   -51834   -41029   -33382 
  -47201   -68599   -74566   -73676   -67342   -46015   -16207    13516 
   39664    57752    57206    26799   -14683   -33256   -30566   -26404 
  -19633    -5384     7210    13355    13063     1695    -7251     2092 
   13453    13621     9920     6904     7243    11935    18291    18670 
    9927     4962     2984    -7076   -10031     6993    34671    65045 
   85418    85408    81189    80830    54309    -5464   -48956   -54212 
  -56892   -66512   -53626   -15633    15230    22868    26818    35692 
   31434    17933    17642    30334    49260    72894    85675    85585 
   89933    85916    57408    24999     1228   -14770   -11853     4870 
   18846    32945    52286    68161    72621    76559    93682   109588 
  112135   120276   138580   142333   117880    72626    27566     6565 
   12381    33134    64628   105725   148113   172697   162247   126507 
   86510    43869     5753    -2301    19824    45117    57824    62285 
   67410    66093    47759    20053    -4752   -16046   -11147    -1894 
    8131    19867    25730    26524    25870    25467    31832    41018 
   46117    54441    67179    67276    44571     8889   -28405   -64621 
  -96971  -115632  -112411   -94593   -73298   -45871   -16571    -6618 
  -15686   -24124   -29514   -32572   -30212   -30622   -36897   -45122 
  -58290   -74359   -85757   -92513   -94290   -84048   -60895   -39001 
  -27364   -17992   -19200   -45238   -68331   -62378   -47108   -35925 
  -21633   -10660    -8044    -3346     3227     1648      654    11548 
   26153    39816    51531    49804    33065    14264     2819     4666 
   23216    48131    60913    59610    56313    48243    27638     9040 
    7601    15195    22241    33679    46717    41266    14528    -6589 
   -6747     1244     3403    -2422    -9420    -9123    -6497   -15831 
  -35551   -46776   -43606   -36309   -22645     2822    26319    33491 
   23984     5461   -11925   -27416   -40870   -35112    -6777    15182 
   17655    18584    20719    11232    -2954    -9649   -10434    -6304 
     796     3737     1671    -3538    -9436    -8572     1816    17703 
   32225    38343    39634    40641    32985    16832     8130    11894 
   18027    21933    29018    34787    26319    12894     9248     4363 
   -7810   -13236    -6387     3909     5477    -4321   -15693   -24444 
  -33875   -41477   -42286   -39646   -41938   -50097   -57075   -55515 
  -46988   -43333   -45128   -41214   -33362   -26738   -17174    -7076 
   -1701     7655    26644    43231    53101    64302    72431    67378 
   50441    31559    20992    17842    14985    16211    26638    39617 
   46498    42393    25495     1648   -15214   -15129    -2526    16623 
   43328    67785    77422    81591    83942    65879    32895    12403 
    1480   -15230   -29356   -34463   -37269   -36124   -27204   -16487 
  -10081    -8313   -12607   -27090   -45303   -53243   -50456   -42157 
  -26620    -3444    25686    51759    58573    45642    30298    25094 
