Origin Time       2016/04/16 01:25:00
Lat.              32.753
Long.             130.762
Depth. (km)       12
Mag.              7.3
Station Code      KMM013
Station Lat.      32.3650
Station Long.     130.5099
Station Height(m) 3
Record Time       2016/04/16 01:25:14
Sampling Freq(Hz) 100Hz
Duration Time(s)  230
Dir.              E-W
Scale Factor      3920(gal)/6182761
Max. Acc. (gal)   137.835
Last Correction   2016/04/16 01:25:14
Memo.             
[...]
    4198     4217     4231     4220     4203     4203     4213     4221 
    4226     4217     4195     4189     4198     4201     4206     4221 
    4225     4218     4218     4214     4199     4201     4217     4215 
    4200     4197     4207     4213     4216     4219     4215     4208 
    4211     4214     4208     4209     4212     4206     4209     4221 
    4218     4201     4196     4206     4216     4220     4217     4207 
    4199     4208     4217     4213     4217     4224     4215     4200 
    4194     4194     4197     4214     4234     4228     4206     4201 
    4203     4206     4219     4231     4223     4203     4191     4184 
    4186     4208     4239     4258     4247     4206     4168     4167 
    4203     4242     4253     4231     4193     4164     4170     4203 
    4232     4248     4252     4224     4179     4168     4195     4219 
    4232     4240     4231     4206     4181     4169     4187     4228 
    4259     4249     4204     4171     4179     4203     4226     4242 
    4235     4214     4203     4188     4160     4177     4244     4283 
    4269     4225     4167     4146     4177     4214     4236     4251 
    4243     4199     4152     4153     4203     4260     4282     4258 
    4200     4158     4162     4190     4215     4240     4251     4237 
    4208     4182     4170     4184     4216     4239     4236     4216 
    4197     4187     4187     4209     4239     4241     4227     4214 
    4199     4187     4186     4196     4208     4218     4223     4216 
    4207     4210     4211     4211     4216     4208     4200     4220 
    4238     4215     4179     4184     4223     4240     4220     4191 
    4179     4200     4232     4233     4211     4192     4193     4216 
    4241     4236     4193     4169     4207     4252     4243     4197 
    4162     4175     4220     4244     4228     4198     4189     4209 
    4230     4230     4211     4193     4196     4227     4247     4216 
    4165     4155     4196     4248     4257     4220     4193     4196 
    4206     4215     4216     4201     4190     4208     4238     4245 
    4215     4170     4154     4188     4241     4257     4238     4213 
    4198     4193     4193     4198     4210     4217     4222     4231 
    4223     4200     4185     4187     4200     4218     4233     4231 
    4209     4193     4199     4209     4218     4223     4215     4205 
    4210     4217     4208     4196     4203     4210     4210     4217 
    4219     4207     4201     4208     4211     4212     4218     4217 
    4206     4205     4210     4207     4205     4210     4210     4206 
    4211     4215     4208     4205     4210     4211     4208     4211 
    4209     4202     4208     4217     4213     4210     4215     4214 
    4205     4202     4209     4212     4213     4215     4211     4205 
    4208     4212     4210     4212     4217     4208     4203     4215 
    4218     4208     4209     4215     4211     4204     4205     4207 
    4211     4220     4217     4207     4207     4211     4207     4205 
    4210     4208     4208     4219     4219     4204     4196     4208 
    4217     4208     4204     4210     4212     4213     4212     4204 
    4203     4213     4219     4210     4208     4214     4215     4217 
    4216     4208     4202     4204     4209     4208     4209     4216 
    4215     4209     4212     4209     4201     4205     4215     4218 
    4214     4214     4217     4210     4207     4211     4208     4205 
    4207     4207     4205     4210     4218     4216     4209     4211 
    4207     4201     4207     4218     4220     4215     4213     4210 
    4200     4201     4210     4208     4213     4216     4209     4214 
    4216     4206     4205     4208     4213     4209     4205     4214 
    4211     4209     4222     4213     4206     4215     4211     4210 
    4215     4215     4214     4202     4198     4217     4213     4199 
    4213     4213     4204     4217     4216     4207     4215     4213 
    4209     4215     4212     4207     4203     4202     4214     4221 
    4211     4208     4211     4209     4210     4209     4207     4212 
    4216     4211     4211     4213     4212     4209     4207     4209 
    4209     4206     4211     4213     4205     4208     4217     4213 
    4214     4221     4209     4201     4210     4209     4202     4206 
    4213     4217     4213     4207     4211     4211     4207     4211 
    4210     4207     4213     4214     4207     4211     4213     4208 
    4211     4217     4215     4212     4208     4208     4208     4204 
    4207     4213     4210     4213     4215     4207     4208     4215 
    4211     4210     4216     4214     4207     4210     4211     4208 
    4209     4213     4214     4210     4208     4210     4208     4208 
    4210     4208     4208     4213     4215     4210     4209     4215 
    4215     4211     4212     4212     4209     4213     4217     4211 
    4207     4211     4208     4205     4210     4211     4208     4213 
    4216     4216     4217     4212     4208     4210     4208     4205 
    4207     4205     4208     4214     4212     4213     4214     4207 
    4214     4224     4212     4204     4211     4208     4205     4214 
    4210     4202     4211     4212     4204     4210     4216     4210 
    4207     4210     4212     4213     4214     4213     4207     4204 
    4207     4210     4210     4213     4214     4211     4211     4214 
    4210     4205     4208     4211     4204     4202     4209     4208 
    4208     4216     4217     4213     4218     4218     4208     4200 
    4206     4214     4212     4210     4212     4205     4196     4205 
    4215     4211     4213     4219     4214     4210     4216     4217 
    4214     4211     4205     4199     4202     4210     4213     4215 
    4217     4214     4209     4212     4217     4214     4209     4210 
    4206     4198     4201     4207     4204     4206     4217     4217 
    4210     4216     4222     4214     4210     4213     4210     4206 
    4208     4209     4209     4212     4215     4216     4219     4221 
    4221     4226     4236     4245     4253     4264     4274     4275 
    4282     4308     4334     4355     4385     4417     4443     4482 
    4540     4582     4607     4652     4718     4775     4805     4811 
    4787     4753     4754     4777     4769     4747     4757     4741 
    4622     4414     4163     3887     3626     3452     3356     3239 
    3088     2999     2975     2890     2649     2272     1909     1751 
    1869     2197     2659     3173     3664     4128     4461     4470 
    4257     4123     4263     4738     5237     5240     4754     4249 
    4091     4422     5164     6037     6644     6666     6163     5322 
    4262     3350     3086     3716     4998     5993     5828     4929 
    4638     5686     7241     7598     6180     4200     2938     2766 
    3664     4768     4436     2468      923     1673     3790     4652 
    3474     1933     1766     2742     3089     2270     1701     2083 
    2748     3585     4783     5430     5107     5281     6663     7798 
    7553     6132     4198     2872     2765     3098     3391     3854 
    3938     3279     2702     3240     4984     6246     5883     5531 
    6111     6435     6196     5696     5014     4775     5487     6496 
    6242     4811     4755     6856     8596     8250     6754     5370 
    4481     4678     5811     6047     4487     2059      263      322 
    1050      346     -568      348     1839     2229     2073     2068 
    2642     3735     3672     2162     1089     1339     2730     4899 
    7344     9614    11149    11143     8716     4631     1075    -1144 
   -1950    -1198      107     1399     3296     5227     5672     5220 
    6236     8989    10962     9974     6713     3949     3625     6135 
   10008    11414     7783     1016    -3703    -2360     2383     4421 
    2845      831      249      865     1684     2465     2748     1643 
     610     2117     5118     5867     4029     3047     3918     4689 
    4606     4740     6116     8193     8732     6388     3960     5525 
    9929    12624    11978     8506     3984     2897     6733    10497 
    9590     4957     1585     2941     6284     7085     4903     1909 
     898     4451    11312    15668    14740    11561     7520     2903 
     796     1714     3076     4424     6395     7012     3910     -548 
   -3566    -6078    -6412    -2052     3254     4796     2917     -103 
   -3814    -7960    -9686    -6838    -2370     -797    -1821    -2880 
   -5718   -11419   -15064   -14307   -11263    -4673     3958     6889 
    4464     3643     4626     6463    11643    18756    23096    22926 
   19491    12232     2846      594     7261    12736    14523    14558 
   10195     5799     6031     4722      215      340     6859    14365 
   19704    21348    19531    17456    14718     9947     8374    12693 
   15843    12476     6549     1690    -4691   -10496    -8355    -1127 
    1912      712     1168     4401     7356     7681     3829     -514 
    3133    11212    11207     4739     2352     3812     2340    -1442 
   -2766    -1507     1782     5194     2073    -7916   -16538   -17584 
  -11168    -3727    -1613    -3858    -5676    -4385     -467     4494 
    9533    13308    13080     6942    -1423    -3732     2365    10807 
   17532    22543    24961    24734    23889    23397    20363    10466 
   -2990    -9474    -4700     5552    12326     9033     -783    -6203 
   -5578    -4184    -2073      123     1320     5654    11480     9251 
   -1250    -8227    -8123    -8976   -12019   -14041   -15599   -12762 
   -1310    10746    12238     7249     4887     1938    -2127     -189 
    5043     5853     2003      246     7116    17712    22263    23164 
   26457    26577    17908     7119     2013     4193    12320    17585 
    8632    -8698   -15088    -5998     3054     2648      112      -46 
     610     5026     9928     8190     3996     2943     4852     9761 
   17011    22026    19642    11788     4735     1819     2424      854 
   -5016    -7182    -3191    -1703    -4918    -5889    -4524    -7275 
  -10735    -5277     6430    14229    15439    12151     5174    -3501 
   -9367   -11841   -14352   -13823    -5358     5392    11294    14438 
   15652    10487     3540     2983     3410       23     -451     3101 
    7600    14667    19210    14958     9377    11429    18464    22902 
   21445    15696     7964     1368     -145     3721     9440    11232 
    5379    -3189    -8077    -6296     2220     6579       -5    -8114 
  -14070   -17413   -11148    -1843    -2186    -6312    -3399     4315 
    9739    10029     7200     6284     9379    12306    11597    10778 
   12390     9926     2142      587     5128     1471    -8271    -8526 
    -494     2887     2138     3855     4467      944     -832     2001 
    3891     3275     5373     8928    10301    12905    14926    10006 
    1758    -3448    -4270    -2760    -3500    -4454      781     9356 
   14917    17298    15879     8529     1116        1     1391     2295 
    5187     9413    11265     8866     4937     3479     3722     2761 
    -323    -3485    -3339    -2274    -4300    -4956     -809     3099 
    4965     7701     7769      676    -7223    -8614    -4741      959 
    3555      496    -1362     1993     4175     2775     3699    10027 
   18945    23400    18122    10276     8954     9286     4883     1224 
    4136     8935     8455     2625    -2884    -3376     -121     2572 
    3544     4185     5635     7456     6154      671    -4984    -9253 
  -10155    -2861     8730    14997    14396    11458     8050     2513 
   -5389   -13024   -18531   -19967   -14032    -3681     2033     2825 
    6587    12654    14834    14534    13676     8756     1884     -869 
   -2241    -7142   -11800   -10555    -2035    10434    19130    19944 
   14898     6600    -1240    -2968     3605    11536    13127    11359 
   11668    14574    17774    16018     9245     5002     5265     6199 
    6545     5270     1417    -2768    -3040     3266    11499    14399 
   12846    11340     8628     1734    -5008    -5895    -4110    -5759 
  -12735   -20661   -22558   -19986   -18575   -18864   -18698   -12860 
    1090    15611    21376    17140    11715    13968    20131    22696 
   23618    25251    23650    20975    25339    32393    31677    27324 
   22982    10204    -4475    -2630     9921    14025    10511     7503 
    4918     7646    15466    15644    11169    16417    27285    31105 
   27862    23207    15664     4255    -3951    -7878   -13594   -19549 
  -22574   -24923   -27386   -28552   -27384   -23437   -17876   -14548 
  -16427   -19695   -20003   -20367   -21747   -18442    -9843    -2512 
     470      535    -1720    -2201     3457     9748    12685    18469 
   29355    38996    43992    47567    51452    53923    55621    58122 
   60541    63291    69191    76936    81019    80619    78308    73086 
   64206    55110    50665    54131    62962    70757    75665    78844 
   81000    83524    83432    74868    56526    30561     2206   -25644 
  -59557  -101250  -137370  -153429  -149723  -142508  -136647  -119902 
  -97622   -81088   -73024   -83398  -102975  -110659  -112663  -118988 
 -127972  -140184  -151704  -157600  -163707  -171372  -170645  -160547 
 -145736  -117735   -73751   -37577   -25161   -19355    -7233     6009 
   21726    41273    58212    70887    81846    95314   117314   146771 
  174742   196122   211471   219804   221476   219971   213001   194621 
  167354   139250   113648    92430    80829    79547    79140    71618 
   61194    55022    53563    52827    44784    25224     5208    -3506 
   -1957     6679    18826    29685    39719    48076    51081    51283 
   51740    46745    30143     7797    -9586   -21431   -30411   -30841 
  -19627    -4246     7741    12690     9910     4632      868    -2656 
   -4604    -2387     2158     5265     4709    -1405   -12640   -20794 
  -22728   -27211   -34799   -40934   -48193   -56654   -67049   -81465 
  -95064  -104663  -111125  -112219  -106091   -97254   -94339  -100576 
 -110571  -119463  -127238  -136035  -147899  -156983  -154116  -143048 
 -128911  -106272   -75865   -44947   -15976     9505    31743    53142 
   72165    87840   104558   124804   143162   152022   148714   131980 
  100741    63493    37240    33111    45380    58954    75443   104895 
  137124   160793   174493   175235   163489   133982    85558    42718 
   27071    24547     7682   -17847   -28340   -26011   -26781   -40423 
  -67861   -95260  -106127   -99879   -85865   -64962   -34323    -2524 
   15877    15659     4019   -11123   -25715   -36510   -46247   -62546 
  -84966  -103765  -116327  -130490  -146469  -154657  -150226  -135689 
 -117049   -99246   -80740   -58134   -32536    -7967    15226    40514 
   63181    73703    70561    55656    35817    24535    24188    26765 
   31737    40753    49811    55745    57083    53404    45706    35088 
   24856    19650    21672    30003    40857    49872    57344    66235 
   75464    84713    97097   111245   123496   131108   128771   114742 
   95582    80212    73611    72831    70223    61860    48191    30310 
    9392   -11930   -28152   -35601   -37165   -38126   -42878   -53480 
  -68334   -83626   -89207   -70132   -29912     2849    14700    22541 
   30580    23549     1515   -21506   -38360   -52074   -63981   -69131 
  -68056   -66453   -68904   -78039   -88080   -90622   -86062   -77404 
  -64873   -51637   -44207   -43210   -40991   -33694   -26818   -24932 
  -25215   -24654   -25462   -27229   -25604   -22167   -20260   -16673 
   -6910     9833    30977    52605    72975    92227   108903   118102 
  115411   106660   106315   118763   132424   137200   132580   117854 
   91211    56812    24353     3128    -8571   -21615   -36359   -44645 
  -45937   -39539   -20552     5829    26229    35220    36072    31197 
   23818    17593     8323   -10023   -33987   -53508   -63541   -68186 
  -71691   -73826   -73829   -69447   -57040   -39181   -25528   -20236 
  -16530    -9836    -2916     4987    12793     8874    -7326   -18637 
  -20528   -21739   -20017   -11050      207    10303    18829    26080 
   34711    45563    56361    63526    62582    51637    33370    13234 
   -2164   -11027   -16782   -16828    -6906     7887    22128    35717 
   50953    70217    87777    95616    96174    93110    82871    65547 
   49560    38209    24397     5005   -15922   -37433   -57209   -68055 
  -67653   -59202   -45600   -27836    -7606     7187     9187     3661 
    2585    10271    19776    21845    14350     1731    -9955   -14827 
   -9084     2639    10119    11444    10345     6348      648    -2837 
   -4362    -6011    -6792    -2931     6099    13923    13271       35 
  -23802   -46065   -55430   -55839   -57135   -57818   -51818   -41155 
  -26938    -4368    22906    40440    43533    42060    38942    30144 
   21145    18020    16534     9452    -6584   -27561   -42456   -45416 
  -44714   -46665   -44368   -36790   -30841   -24370   -15391    -8952 
   -4184     4158    14667    20801    19431    13213     7496     7319 
   13572    22873    33241    44037    51883    53810    49401    39965 
   29734    22053    17388    16296    17354    16923    15547    18670 
   28642    41019    48217    42910    22297    -5968   -25701   -29157 
  -26786   -26323   -22533   -19135   -25507   -37266   -46332   -48726 
  -43446   -37134   -36136   -37494   -35443   -31239   -28862   -22889 
   -6703    13613    29187    40370    50569    57433    54565    39357 
   17972     1664    -4735    -6827    -9457    -9914    -5823     -912 
    1239     1788     2108     3328     8983    20203    33179    45177 
   55317    58354    49191    31851    14197     1350    -3982    -3010 
     222     2025      -86    -5218    -9398    -9666    -5871     -302 
    3355     2753    -1087    -5991   -10168   -10982    -7283     -661 
    7758    17764    27617    34579    39687    47464    58784    70822 
   81410    88088    88901    85019    79241    73688    68452    61125 
   48815    31945    15048      776   -12928   -25263   -31424   -31269 
  -28602   -24995   -20171   -15382   -13361   -13279   -12190   -10922 
  -10459    -9545    -8383    -8093    -9004   -10798   -12992   -15628 
  -18403   -20657   -21692   -19137   -11060      771    12608    19407 
   15494     2327    -8099    -7522    -2363      585     4734    10200 
   10595     5747     -784    -8860   -16612   -19601   -17029   -10905 
   -3077     2056     -307    -9144   -20581   -32683   -42956   -48037 
  -48324   -47267   -45486   -40814   -33050   -23155   -10898     3231 
   16412    23111    19001     6833    -6726   -18700   -31508   -45115 
  -51642   -46422   -34374   -21278    -9673      857    12424    24636 
   34346    38466    36539    31333    26940    26516    27995    25362 
   17479     7962     -600    -6024    -7322    -6357    -4699    -3359 
   -3280    -2908     -820     2373     6560    10816    13759    15046 
   13908    11909    12603    16999    24580    33945    43108    50720 
   53746    48322    33466    15947    10685    20945    30690    33069 
   36494    41861    45090    46823    48190    49434    47586    38272 
   23749    12011     8424     9326     8060     5456     3816      809 
