Origin Time       2016/04/16 01:25:00
Lat.              32.753
Long.             130.762
Depth. (km)       12
Mag.              7.3
Station Code      KMM022
Station Lat.      32.1945
Station Long.     130.0265
Station Height(m) 4
Record Time       2016/04/16 01:25:22
Sampling Freq(Hz) 100Hz
Duration Time(s)  234
Dir.              N-S
Scale Factor      3920(gal)/6182761
Max. Acc. (gal)   93.687
Last Correction   2016/04/16 01:25:22
Memo.             
[...]
  -10050   -10044   -10045   -10052   -10043   -10033   -10044   -10052 
  -10043   -10038   -10045   -10049   -10043   -10040   -10046   -10048 
  -10041   -10039   -10043   -10044   -10045   -10044   -10040   -10044 
  -10048   -10045   -10045   -10051   -10048   -10039   -10043   -10047 
  -10038   -10034   -10045   -10048   -10038   -10038   -10050   -10052 
  -10041   -10042   -10052   -10051   -10040   -10038   -10041   -10039 
  -10032   -10027   -10028   -10027   -10018   -10007   -10006   -10008 
   -9993    -9978    -9976    -9974    -9962    -9955    -9956    -9951 
   -9936    -9935    -9951    -9958    -9948    -9941    -9956    -9986 
  -10005   -10006   -10021   -10065   -10106   -10111   -10116   -10174 
  -10229   -10193   -10123   -10158   -10283   -10278   -10113   -10054 
  -10147   -10188   -10126   -10013    -9926    -9912    -9888    -9899 
  -10039   -10139   -10082    -9996   -10025   -10189   -10313   -10278 
  -10221   -10283   -10436   -10514   -10311    -9860    -9524    -9569 
   -9835   -10124   -10394   -10402    -9997    -9459    -9212    -9530 
  -10082   -10269   -10170   -10043    -9864    -9844   -10148   -10591 
  -10837   -10569   -10048    -9873    -9972    -9824    -9439    -9478 
  -10203   -10852   -10624    -9880    -9578    -9689    -9624    -9580 
   -9892   -10121    -9676    -9035    -9344   -10270   -10555   -10384 
  -10324    -9948    -9281    -9059    -9414    -9952   -10412   -10765 
  -10930   -10517    -9652    -9300    -9628    -9660    -9307    -9597 
  -10688   -11351   -10669    -9472    -9103    -9164    -8775    -8748 
   -9513   -10120   -10535   -10940   -10753   -10237   -10023    -9888 
   -9501    -9131    -9365   -10090   -10553   -10708   -10916   -10922 
  -10338    -9539    -9288    -9439    -9274    -8789    -8667    -9648 
  -11135   -11297   -10419   -10480   -10945   -10364    -9829   -10253 
  -10416    -9846    -9489    -9767   -10541   -11212   -11067   -10902 
  -11366   -10825    -8720    -7467    -8235    -9416    -9821    -9471 
   -9249   -10241   -11227   -10740    -9927    -9391    -8769    -8683 
   -9131    -9917   -10816   -10544    -9755   -10189   -10944   -10965 
  -11058   -11730   -12153   -11714   -11401   -11832   -11786   -10471 
   -8739    -7440    -6806    -7311    -8635    -9136    -8181    -6782 
   -6483    -8308   -11091   -12512   -12331   -12451   -13390   -13121 
  -11135    -9625    -9409    -9541   -10036   -11008   -11000    -9376 
   -7982    -7802    -7932    -7926    -7520    -7234    -8303    -9634 
   -9965   -10375   -11343   -12432   -13000   -11753    -8892    -6529 
   -6186    -7938   -10586   -12441   -13353   -13951   -13307   -11439 
  -10630   -11008   -10486    -8715    -6795    -5698    -5779    -6976 
   -9445   -11168    -8712    -3987    -2430    -4548    -6809    -7635 
   -8229    -9998   -12888   -15819   -18269   -19671   -18112   -13650 
  -10017    -9459    -9888    -8690    -6285    -4625    -5093    -7522 
   -9072    -8157    -7359    -8215    -9498   -10905   -13037   -15512 
  -16533   -14878   -12233   -10763   -10542   -11516   -13423   -13590 
  -10805    -9541   -12024   -12501    -8821    -6013    -5069    -4610 
   -5918    -8192   -10297   -12568   -12706   -10004    -8785   -10021 
   -9435    -6670    -5005    -5039    -6812   -10305   -13073   -14140 
  -14334   -12254    -8057    -6864   -11310   -15600   -12711    -4835 
    -924    -4163    -8456    -9158    -8972    -9671    -8224    -4174 
   -1636    -3719    -9359   -14737   -17233   -17409   -16701   -15076 
  -12695   -11269   -11251   -11256   -10951   -10451    -8729    -6669 
   -6964    -8448    -8665    -9392   -11304   -11574    -9454    -6742 
   -6355    -9345   -11829   -12803   -14994   -15772   -12503    -6967 
   -1395    -1017    -8028   -14599   -15389   -14874   -14881   -10464 
   -3546    -2675    -8480   -15048   -16868   -12763   -11010   -15583 
  -16963   -11664    -6519    -5065    -6178    -7091    -8535   -12267 
  -12754    -8428    -7004   -10636   -14546   -14665   -10775    -7026 
   -4354    -1299    -1680    -6578   -10433   -11260   -11393   -11458 
  -11050    -9802    -8547   -10286   -13391   -13800   -14867   -18368 
  -19054   -15888   -10752    -4233      129     -104    -3017    -6315 
   -8870   -11399   -13441   -12956   -11966   -11474    -9015    -7020 
   -8447   -11346   -14219   -16520   -17927   -17900   -14693    -9659 
   -5497    -4368    -8895   -13003   -10114    -7647    -8292    -5093 
   -1061    -1825    -4750    -6650    -6167    -4699    -5700    -7572 
   -7184    -7123   -10952   -15374   -12815    -5159    -2871    -8098 
  -16669   -25057   -26733   -20553   -13282    -7418    -3044    -2343 
   -3954    -5123    -7080   -10348   -11157    -8104    -5421    -5621 
   -6611    -7575   -10287   -14445   -17014   -16133   -13236   -11414 
  -12543   -15488   -16418   -13575    -9515    -5657    -2936    -4094 
   -8183   -12455   -15955   -16861   -15333   -13616   -10727    -5485 
   -1539    -2916    -8862   -15652   -17647   -12034    -6097    -6336 
   -7983    -9023   -13977   -19212   -19133   -16418   -12418    -7346 
   -4636    -3390    -2171    -4122    -7373    -5755     -894      539 
   -2035    -5277    -8040    -9723   -10310   -11809   -15080   -18509 
  -21490   -24211   -25092   -22750   -16413    -7568    -2780    -4628 
   -6512    -4340    -2539    -4432    -5308    -1663     2242     3383 
    2809     1246    -1667    -7807   -14719   -16062   -14759   -18378 
  -24517   -26655   -24466   -21162   -18606   -17648   -18752   -19087 
  -15166   -10108    -8715    -9349    -8864    -6725    -2972     1170 
    5578    10465    10969     3487    -8110   -17621   -20768   -18259 
  -15067   -13307   -11892   -11682   -14319   -18512   -20140   -16885 
  -12374   -10811   -11123   -11628   -12914   -14443   -14056    -9296 
   -1063     3391     -844    -7534    -7676    -2286      729     -964 
   -3993    -7269   -10312   -10590    -8366    -7338    -9880   -15413 
  -20882   -22842   -21479   -19876   -19234   -16734   -10576    -4729 
   -1680     -551    -3621    -9232   -10069    -6935    -6833    -9713 
  -10996   -10752   -11216   -11204    -9431    -8911   -13266   -20736 
  -25234   -22848   -15929   -10647    -9741   -10625   -11786   -13167 
  -12322    -9315    -8268    -9418    -9701    -8987    -6744    -2301 
   -1024    -6172   -12282   -14841   -13336    -8656    -5691    -8233 
  -12822   -15902   -18212   -18889   -16160   -11356    -6529    -3868 
   -5084    -8679   -12066   -14130   -14657   -14124   -13785   -14524 
  -14842   -12078    -7119    -4035    -3446    -2286     -417     -446 
   -3688    -9603   -14744   -15657   -14092   -12890   -11998   -11581 
  -11238    -9752    -8187    -7341    -6376    -5892    -6510    -5879 
   -2400      280     -454    -2252    -5193   -10076   -13541   -14983 
  -16576   -17356   -17316   -18261   -18533   -17232   -16908   -17499 
  -18553   -20440   -18930   -12596    -7174    -5548    -5950    -5814 
   -3282     -299      228     -965    -3255    -7881   -12451   -11779 
   -6260    -1872    -1518    -3196    -5648   -10187   -17472   -24430 
  -26669   -24791   -21888   -18020   -14236   -12393   -11267   -10390 
   -9826    -7749    -4041     -501     1557     1603     -417    -3948 
   -6738    -7912    -9850   -12394   -12949   -12103   -11116    -8941 
   -6755    -8402   -13645   -17798   -17887   -14690   -10870    -7912 
   -5150    -3421    -4536    -6988    -8309    -8633   -10219   -14488 
  -18443   -19865   -21869   -23938   -20998   -14166    -8741    -6911 
   -8168    -9644    -9473   -10212   -12765   -13585   -10861    -8300 
  -10298   -14095   -14136   -11508   -10123   -10499   -10971   -10028 
   -7755    -5080    -2577    -1005    -1722    -4978    -7388    -7168 
   -8751   -12850   -13422    -9954    -7394    -6721    -6982    -9018 
  -12517   -15789   -17914   -18646   -18457   -18195   -17466   -15057 
  -11473    -8454    -6097    -4071    -3030    -2367     -969      375 
     451    -1054    -4151    -7491    -9327   -10446   -12637   -16304 
  -19978   -20888   -18166   -14424   -12953   -14638   -18153   -21691 
  -23451   -22680   -20004   -15615   -10760    -8840    -9245    -6908 
   -2024      692     1048     1516     2188     2062      563    -1607 
   -2982    -3721    -4833    -6508    -9454   -14258   -18958   -21222 
  -21798   -22889   -25283   -27355   -26676   -23803   -19629   -12153 
   -3172     1926     3106     4428     7019     6797       67    -8600 
  -12036   -11521   -12298   -13414   -11670    -9410    -9159    -9043 
   -8512    -8760    -9614   -11080   -13060   -15312   -18324   -20534 
  -18963   -14545   -11641   -11555   -11548   -10582    -9526    -6941 
   -2040     2292     3695     2785     1174     -686    -3318    -6193 
   -8674   -11535   -15056   -18952   -22377   -22872   -20326   -17567 
  -15499   -13801   -12349   -11617   -13646   -16442   -15051   -11237 
   -8565    -5949    -3623    -2875    -2786    -2686    -2221    -1438 
   -2010    -4396    -6873    -9616   -13867   -16844   -14784    -9662 
   -6677    -7439    -9912   -12051   -13058   -13012   -11986    -9888 
   -7914    -8777   -12629   -14919   -13102    -9785    -6596    -3806 
   -2822    -3835    -5991    -7140    -4618    -1232    -2419    -7724 
  -12535   -14686   -15672   -15997   -14072   -10874    -8662    -7823 
   -8292    -9453   -10811   -12952   -15754   -18739   -20866   -18930 
  -12738    -8517    -9318   -10112    -7473    -4265    -4168    -7608 
  -12154   -15944   -18768   -19126   -16141   -13107   -12706   -13122 
  -12395   -10665    -8598    -7655    -8382    -9583   -10782   -10528 
   -7923    -6098    -6058    -6740   -10763   -17108   -18727   -13916 
   -8459    -7102    -8293    -8125    -7046    -6387    -4767    -2639 
   -1057       25    -1346    -4756    -6536    -8118   -12943   -17696 
  -18320   -17020   -15811   -13966   -12711   -13100   -14216   -14737 
  -12238    -6612    -2062    -1123    -2042    -2160     -445     1847 
    2489     1351      246    -1399    -5921   -11993   -16719   -20172 
  -22751   -23803   -22783   -19575   -16653   -16538   -17253   -15805 
  -12244    -9112    -9369   -12192   -13073   -11069    -9011    -6962 
   -3714     -203     2598     4441     5258     5385     4261     -216 
   -7948   -14495   -16963   -17055   -16101   -15011   -15874   -17325 
  -16666   -15142   -14085   -13589   -14266   -15343   -15633   -14799 
  -12853   -10563    -8747    -7943    -7878    -6919    -4338    -1442 
      44      -83     -830    -2548    -5114    -6911    -9194   -13058 
  -15578   -15455   -14555   -14696   -16360   -17712   -17193   -15519 
  -13368   -10944    -8849    -8123   -10130   -13630   -14271   -11439 
   -9338    -8943    -7517    -4705    -2608    -2645    -4280    -6060 
   -7834   -10464   -13428   -13963   -11281   -10125   -13428   -16607 
  -15515   -12452   -10660    -9614    -8378    -8236   -10341   -13577 
  -14957   -12922    -9977    -9496   -11316   -13237   -14461   -15396 
  -16678   -18043   -17556   -14651   -11050    -7434    -4207    -2197 
    -578     1235     3165     5041     4096     -899    -5870    -8611 
  -11606   -15703   -18810   -19617   -18856   -18008   -16638   -12818 
   -7405    -3853    -3871    -5877    -7780   -10552   -15416   -19391 
  -19543   -16849   -13436   -10808    -8178    -3616      529      742 
    -808     -694     -511    -2772    -6034    -8221    -9734   -11666 
  -13675   -13484   -10416    -7840    -7927    -9154   -10414   -12426 
  -16763   -23580   -29547   -31952   -31165   -27201   -20478   -13451 
   -8377    -6880    -9039   -12362   -14200   -13615   -11965   -11015 
   -9893    -7886    -6424    -5809    -5914    -7711   -10627   -13065 
  -14961   -17031   -19613   -21912   -21089   -14451    -3636     6355 
   12613    16205    19884    24461    27696    28458    28058    26202 
   20938    12755     4190    -3705   -10957   -17275   -22356   -25295 
  -25674   -25386   -25934   -25666   -23258   -20257   -16665   -10296 
   -2263     4019     7434     8449     8178     7796     6312     2421 
   -2702    -7035    -9636   -10938   -12277   -14963   -19081   -23762 
  -30711   -42095   -54227   -63010   -69863   -75503   -77835   -75946 
  -69933   -60460   -49959   -40517   -30629   -18320    -5186     6575 
   16728    25453    32463    37905    43088    47655    47751    41129 
   30534    19469     9392     1989     -824      365     2326     1847 
   -1660    -7328   -15717   -27240   -39249   -46890   -46211   -37507 
  -25782   -16775   -13783   -17126   -23911   -30969   -36964   -39690 
  -38174   -34842   -29716   -20487    -8572     1949     7870     6926 
   -1405   -14919   -31225   -48132   -61038   -67324   -68570   -63071 
  -47790   -25885    -2576    19323    38505    54476    65645    69658 
   66806    60521    53164    43925    32374    19001     4630    -9300 
  -23263   -34242   -35347   -30532   -29540   -31537   -33258   -36696 
  -42434   -51322   -62780   -68571   -65292   -59340   -51262   -36743 
  -17457     2451    19777    30947    34596    32175    24909    15586 
   10235    11258    15101    19807    25695    29552    27133    18375 
    4929   -11640   -28559   -44901   -61772   -77061   -86726   -88516 
  -81256   -66814   -49900   -33600   -20012   -10270    -2146     8344 
   24437    46343    70577    92252   107162   113613   110616    94488 
   63713    24247   -17481   -60587  -101190  -131534  -150249  -157809 
 -152180  -133461  -103351   -69446   -41390   -17823     3549    17446 
   25199    34067    45316    58362    73482    86193    90611    86052 
   74918    58915    40474    23753    10702      708    -4537    -4730 
   -5058    -8321   -12587   -18320   -29005   -45886   -63993   -73932 
  -71253   -59794   -44205   -27987   -14151    -3254     1895    -3682 
  -17236   -28300   -29859   -23185   -14075    -8320    -7039    -6926 
   -6991   -10630   -18773   -25113   -23090   -13195     -912     7928 
   10607     7842     1626    -7228   -18334   -26256   -23420    -9678 
    7893    20940    25060    21121     8622   -14623   -42954   -66086 
  -80789   -87399   -84475   -73159   -56443   -37841   -21798   -10426 
   -4136    -2301    -3318    -6302    -8385    -5670     1780    11911 
   23922    37347    50900    61396    65961    65732    62041    54188 
   42879    28237     9582   -10385   -27513   -40455   -50835   -60029 
  -67000   -71400   -76501   -85279   -94980   -99086   -94451   -84313 
  -73926   -63035   -46890   -26158    -6173    11639    28995    47042 
   64401    75786    76736    66889    46230    16255   -15586   -41283 
  -59096   -70518   -76188   -75500   -68014   -55895   -41698   -25644 
   -8396     7869    21324    30669    36053    39431    40769    36521 
   24569     7411   -10346   -23633   -28150   -23847   -13947    -1719 
   10280    22218    34820    44072    44791    37082    24738     8875 
  -12773   -37739   -57507   -67552   -69497   -65411   -57759   -49624 
  -41773   -33697   -26128   -20144   -15951   -11852    -4544     6741 
   18379    25700    26622    21585    10219    -7758   -27498   -41056 
  -44580   -39442   -29207   -17756    -8102    -1928      938     2206 
    3670     5975     6983     4210     -600    -3933    -4382    -2114 
    1356     4255     6315     7874     9171     9466     8165     7660 
    8281     5598    -1724    -9833   -14967   -17658   -20854   -22745 
  -19153   -11427    -4910    -3956    -8742   -14347   -15733   -12816 
   -7543     -630     5232     6457     3868     -105    -5289   -11225 
  -17003   -22884   -28905   -34704   -40478   -47119   -54448   -59185 
  -59185   -56069   -50348   -42282   -34758   -29258   -25074   -21531 
  -18463   -16614   -15126   -11905    -7922    -4760    -1431     2760 
    8589    18164    30596    41133    45275    41108    30555    17626 
    4817    -6573   -15208   -20129   -21889   -23623   -28370   -34779 
  -38775   -38343   -33374   -24081   -12459    -1807     6867    14890 
   21866    26425    29094    29176    25084    18830    13507     9374 
    4591    -2219    -9869   -15819   -19388   -23293   -30230   -38076 
  -43658   -46742   -45720   -37728   -22552    -3162    14708    27059 
   33141    31791    24771    17700    13012     9774     8011     8084 
    9861    13726    19083    23201    23573    19653    12411     2305 
  -11301   -26534   -38794   -45657   -48133   -47462   -43522   -37005 
  -30379   -25974   -24907   -26485   -28491   -28534   -25161   -19004 
  -11287    -1856     9102    19725    27032    27871    21212     9139 
   -4772   -17152   -26879   -34345   -37863   -37298   -37397   -40268 
  -43173   -44772   -45342   -44144   -40684   -35752   -30174   -24595 
  -19889   -15549    -9831    -3193     2635     8741    16697    25248 
   33429    41442    47491    48912    45100    36975    25832    13942 
    3490    -6380   -17372   -27818   -35783   -41810   -44215   -39717 
  -30206   -21044   -15647   -14754   -15638   -14416   -12130   -11987 
  -13185   -14968   -19268   -26998   -37975   -50006   -59002   -64237 
  -67156   -67306   -64470   -59336   -52060   -42921   -31989   -19373 
   -7556       80     3790     6811    10518    13635    15603    17190 
   18327    17796    13661     4379    -8053   -18602   -24283   -25143 
  -22023   -16403    -9077      663    12367    23925    33294    39342 
   43080    45476    44246    37381    25337     8865   -10352   -29581 
  -45751   -56542   -63536   -69318   -72108   -69326   -61683   -50324 
  -35816   -19975    -3922    11954    24905    32368    34251    30852 
   23437    14744     7128     1408    -3018    -6056    -5907    -1870 
    3221     5285     3578       28    -4725   -10674   -15870   -17501 
  -15311   -11796    -8369    -4946    -2888    -4030    -8431   -15599 
  -24683   -33807   -42175   -49899   -55869   -58547   -57020   -50802 
  -40459   -28203   -15612    -1868    13193    27731    40090    48570 
   51956    51065    46601    38347    27513    16607     7221     -692 
   -7344   -12862   -18768   -26444   -35922   -46862   -56866   -63078 
  -65863   -65730   -62303   -56856   -50370   -42568   -33580   -23893 
  -13580    -2354     9105    19030    26776    32521    35188    34330 
   31878    30027    30232    32157    32329    27543    18096     6142 
   -5524   -14147   -19807   -24920   -30085   -33403   -33611   -31155 
  -26059   -18252    -9344    -1769     2239     2424     1696     1921 
     145    -6992   -17752   -27476   -32910   -33690   -31765   -28643 
  -24583   -20583   -18307   -18309   -19251   -20091   -21871   -24390 
  -26275   -28327   -29675   -27516   -23256   -20305   -19082   -17879 
  -14538    -8025     -210     5959     9595    11525    12675    13248 
   12005     7392      498    -4244    -3068     2878     9820    16346 
   21727    22815    17769     8633    -1461    -9216   -11743    -9150 
   -4319     -694      -49    -1677    -4481    -6745    -5272      322 
    5672     7031     5187     2144    -3099   -12622   -26424   -42766 
  -59413   -75204   -89188   -98820  -102156   -99037   -90030   -76346 
  -60326   -45099   -31727   -18989    -6273     6605    19440    30960 
   40349    46977    49354    47914    46147    46606    48921    51421 
