Origin Time       2016/04/16 01:25:00
Lat.              32.753
Long.             130.762
Depth. (km)       12
Mag.              7.3
Station Code      KMM016
Station Lat.      32.1966
Station Long.     130.7757
Station Height(m) 149
Record Time       2016/04/16 01:25:17
Sampling Freq(Hz) 100Hz
Duration Time(s)  300
Dir.              N-S
Scale Factor      3920(gal)/6182761
Max. Acc. (gal)   92.982
Last Correction   2016/04/16 01:25:17
Memo.             
[...]
   -7584    -7616    -7620    -7597    -7610    -7626    -7588    -7567 
   -7602    -7618    -7609    -7635    -7643    -7596    -7573    -7604 
   -7638    -7639    -7629    -7634    -7622    -7614    -7645    -7653 
   -7623    -7623    -7662    -7685    -7678    -7669    -7641    -7609 
   -7653    -7743    -7774    -7756    -7742    -7698    -7610    -7579 
   -7638    -7689    -7703    -7757    -7836    -7856    -7825    -7745 
   -7588    -7424    -7332    -7313    -7401    -7662    -8024    -8278 
   -8338    -8249    -7996    -7626    -7333    -7207    -7203    -7304 
   -7574    -8129    -8973    -9808   -10177    -9876    -9084    -8148 
   -7338    -6692    -6308    -6518    -7277    -8107    -8723    -9235 
   -9871   -10246    -9355    -7043    -4495    -2970    -2864    -3629 
   -4397    -4989    -5952    -7707    -9819   -10987   -10375    -8702 
   -6999    -5492    -4367    -3873    -3997    -5189    -7889   -11119 
  -13347   -14149   -13790   -12224    -9482    -6428    -4273    -3553 
   -4038    -4896    -5190    -5219    -6109    -7712    -8852    -9010 
   -8337    -7029    -5071    -2955    -2374    -4292    -7217    -8811 
   -8309    -7017    -6927    -8982   -12084   -14221   -14960   -15137 
  -14667   -12815    -9628    -6352    -4702    -5231    -7271   -10033 
  -12162   -12374   -11274   -10142    -9195    -8107    -6829    -5746 
   -4762    -3257    -1864    -1802    -3308    -6501   -10919   -14779 
  -16416   -15235   -12231    -9134    -6691    -5395    -5607    -6128 
   -5489    -4560    -5572    -8566   -11016   -11103    -9544    -7999 
   -6562    -3593     1232     5194     5570     2713     -928    -3593 
   -5573    -7638    -9128    -9844   -10825   -11405   -10249    -8105 
   -6435    -6238    -7728   -10226   -13140   -15024   -14234   -12658 
  -13094   -13951   -12671   -10347    -8986    -8219    -6523    -4201 
   -3397    -4825    -7428   -10268   -11301    -9315    -8135   -10945 
  -14115   -13108    -8501    -4068    -2394    -2602    -3656    -6552 
   -9674    -9888    -8412    -7665    -7660    -8294    -9320   -10010 
  -10169    -9369    -7884    -7145    -6412    -4792    -5475    -9878 
  -14216   -16484   -17318   -16150   -13421   -11270   -10959   -12210 
  -12404    -7950      659     7235     5567    -3727   -14156   -20202 
  -20543   -16682   -10747    -4575    -1332    -3677    -7938    -8681 
   -7513    -7030    -5552    -4972   -10135   -19171   -24215   -19590 
   -7579     3205     7512     5958     -982   -10506   -15820   -14692 
  -10764    -7016    -4647    -4216    -5829    -9734   -14051   -14577 
  -10395    -4436      836     2696    -1704    -9897   -15082   -13450 
   -6863    -2502    -7122   -16935   -22815   -23448   -21706   -17357 
  -10242     -387    12493    21938    16823    -4149   -27507   -36181 
  -25661   -10003    -5414   -11398   -17886   -20218   -18467   -15073 
  -14414   -16766   -19054   -20865   -23126   -24142   -18918    -4661 
   12526    21246    15254     -218   -13443   -17367   -10646     4116 
   15277    12025      895    -5622    -7902   -13616   -24574   -34960 
  -38147   -34715   -29358   -20952    -8186     2499     6597     5154 
   -1514   -11008   -18718   -22073   -18852   -11349    -5910     -312 
    8365    12349    10180     9920    12205    14435    14947     7074 
   -6221    -8647     2909    15136    17972     9521    -4957   -17783 
  -26983   -30620   -24719   -13922    -7245    -7004   -12961   -24967 
  -37916   -44091   -37965   -17674    11171    34339    38488    25327 
   10196     3068     2755     6816    11413    11410     8020     4123 
   -2545   -11997   -16362    -9352     3319    11251    11063     3237 
  -12076   -29494   -38255   -32832   -18639    -6139     -870      438 
    2390     5080     6554     3298    -7220   -18927   -21515   -16287 
  -13773   -15557   -14310    -6149     7348    22099    30076    23244 
    7592    -1604    -3179    -9337   -23315   -34054   -31815   -16558 
    3197    13349     8085    -7791   -28828   -44834   -48201   -44512 
  -36089   -18941     4136    28470    44938    39387    17300    -3010 
  -18709   -29227   -26471   -13088     2431    17671    26443    19137 
   -3695   -32100   -55030   -63645   -56048   -40321   -26050   -16359 
  -11201    -6821     3363    15225    15960     1786   -21054   -42159 
  -50426   -45997   -37619   -25942    -9867     4387    15224    26528 
   35531    35062    23182     4178   -15723   -28555   -26304   -12203 
      63     3668    -1215   -15414   -33677   -45387   -44588   -34546 
  -30398   -44429   -66864   -79134   -71271   -41062     -925    26914 
   36473    36910    33334    27420    20645    12245     3790     2435 
   12739    25324    25963    15827     4581    -6974   -20416   -33949 
  -47680   -56792   -51509   -33678   -14452    -1069     1637    -5271 
  -14410   -25743   -37952   -37965   -22617    -5505     3408     2834 
   -3718    -6717    -1411     5717     9319     8244     2366    -2631 
    -136     9029    19928    28243    31339    28768    21471    10243 
   -1518    -5432      218     2759    -5235   -14428   -18960   -23037 
  -26686   -28479   -31128   -35410   -41428   -48631   -49721   -38194 
  -17761     3030    15311    14157     6534     2797     4234     5958 
    1808    -8254   -14163    -9568      164     9544    17636    20651 
   15738     8950     8445    13939    17264    11835    -1093   -12922 
  -13586    -3919     2536    -3327   -16277   -27474   -36388   -45053 
  -47147   -37139   -21342    -7292     3404    10199    13745    17457 
   25995    38310    43202    33778    18728     9407     7845     8597 
    4398    -7985   -26886   -47217   -61629   -64683   -55384   -39944 
  -28543   -21303   -10640      450     1170    -7360   -11295    -1437 
   19979    44646    62920    68414    61525    49218    36698    19169 
   -6953   -33892   -54054   -65389   -66439   -59522   -50104   -42286 
  -41381   -49785   -60005   -63019   -56612   -42707   -27437   -16788 
   -5945    12351    33897    50520    58250    54997    40994    20024 
    -177   -10085    -7228     1282     7981     9715     4583    -6369 
  -17068   -24613   -33114   -42571   -46587   -43423   -37178   -33260 
  -36112   -43340   -47319   -44022   -33414   -20368   -14234   -16476 
  -22839   -33370   -40920   -32316    -8254    20258    43095    49959 
   37191    14678    -5014   -16776   -19936   -17912   -18043   -21352 
  -21223   -14751    -4565     5021     6521    -3535   -15624   -20053 
  -17462    -8752     4325    14029    17685    18056    14176     5951 
   -5056   -19609   -33226   -38051   -34234   -23787    -5260    15941 
   27147    20572     2335   -10944   -10173    -1489     7318    13553 
   15878    17371    22572    27242    24461    14377      767    -9495 
   -8374     1786     9007     6050    -4064   -15740   -28066   -39231 
  -42181   -37393   -36597   -44352   -53070   -56514   -50880   -35396 
  -20432   -14668   -12325    -6759     1170     9010    13730    12893 
    8095     2692     -983    -3598    -7359    -8719    -5132    -4203 
   -8324    -7617     2752    17798    32581    42097    38519    20441 
   -2563   -21381   -34303   -41936   -44127   -40285   -28842   -11864 
     948     2664     -857     -643     2213      305    -9522   -22129 
  -25902   -14234     4148    16776    23075    27088    25692    13773 
   -7783   -30661   -43631   -43512   -35487   -24119   -15928   -17135 
  -18981    -7022    12352    18357     4144   -19409   -38167   -44442 
  -39168   -26807   -13476    -7412    -9436   -10329    -5139      326 
    -994    -8867   -17026   -21852   -24486   -22488   -11408     5863 
   19649    20663     8714    -5624   -11572    -5546     7168    12882 
    2829   -15787   -29731   -30111   -16996    -2222     4101     3481 
   -1163    -9379   -18516   -24033   -22574   -17774   -16706   -15702 
   -8321    -1898    -1309     1648     9334    17700    25154    25386 
   12733    -6221   -21266   -29184   -30810   -26465   -17957   -11094 
   -9318    -8314    -4968    -3280    -5950   -10250   -12128    -9210 
   -4296    -1891     1456     9932    15102     6092   -14349   -34029 
  -42546   -36531   -22089    -8291     3526    13411    15799    11961 
   10860    15279    21827    23334    12481    -5226   -16231   -15636 
   -6532     4796     8963      495   -16488   -33424   -44629   -47936 
  -42706   -30643   -14371     4407    20388    26942    27815    32184 
   37969    36212    25309    10963     1302    -2931   -12931   -31246 
  -45420   -50974   -54221   -58272   -61884   -59814   -44455   -17276 
    8385    22307    26796    26853    22856    17536    15903    16139 
   11050    -2119   -15832   -20114   -16028   -11265    -8134    -3640 
    5267    17766    28346    31083    25071    13939     3448     2702 
   16259    32421    33455    15305   -11606   -32166   -36142   -29101 
  -26814   -33459   -39638   -39973   -36297   -29702   -21355   -15223 
  -16158   -25940   -39123   -48447   -55355   -64252   -69836   -63551 
  -46939   -28216   -13926    -9511   -16293   -26447   -30554   -25999 
  -14872    -1313     8712     9998     2620    -6861   -10912    -7042 
    2311    14047    25785    35023    41726    45351    40046    24154 
    5993    -5720    -8105    -5020    -5430   -16404   -37561   -56025 
  -51460   -23311     1565     3938   -10874   -32912   -51790   -51353 
  -25728    11401    42506    61577    68313    57540    30037     -457 
  -27451   -58901   -96009  -126380  -140300  -137847  -123503  -102621 
  -79557   -59015   -46612   -42308   -40984   -42489   -49600   -55788 
  -49308   -29525    -4849    18636    34882    37156    24937     4409 
  -15658   -25463   -17338     6221    32874    51458    58829    60880 
   68998    89264   114006   128628   125589   107755    85585    71380 
   65545    56399    39281    21570    10078     5198     2672    -4131 
  -18830   -36781   -47559   -43740   -26543    -4654     9716     8723 
   -3058   -13235   -13443    -5227     1162    -4016   -21973   -47036 
  -69445   -79935   -74529   -54144   -26858    -4332    10641    23216 
   35193    41275    33195     8313   -22127   -36470   -22825     6531 
   30107    39447    38642    35257    37757    44028    38194    18021 
    3640     8359    27634    52112    70377    72554    61419    47669 
   37716    31792    24970    12754     -919    -7866    -4407     8188 
   25621    40101    45697    48348    58724    71781    68882    39852 
   -9213   -63135  -104666  -123550  -123139  -114064  -104140   -96120 
  -91762   -92755   -96295   -98876  -101256  -101868   -96773   -85994 
  -69969   -47954   -23909    -7701    -6719   -13831   -12890    -2520 
    1869    -7618   -24325   -36513   -30830    -2458    35815    65391 
   76977    70539    52465    35360    24800    10649   -14410   -40146 
  -51150   -43472   -26679   -15751   -18917   -29880   -36856   -36430 
  -30927   -22190   -14854   -13338   -13770    -7643     8969    33929 
   61558    83516    91459    81241    56116    27206     8677     8941 
   25167    48092    67516    74176    68666    60651    52429    38218 
   16158   -10891   -39523   -66018   -86842  -100954  -109410  -112638 
 -110043   -99863   -81139   -61057   -52537   -57406   -61168   -48497 
  -15520    29924    71508    96028   105664   109645   109037   100236 
   84404    66231    50569    39333    27792     8853   -18514   -48776 
  -73784   -86370   -87882   -88798   -95292  -104737  -115820  -128837 
 -138806  -139367  -128880  -112439   -99384   -91507   -81641   -67588 
  -53357   -40953   -32386   -31035   -36321   -45576   -55921   -59183 
  -46993   -21852     6267    31001    51082    66867    80591    92415 
   95531    83782    60000    33486    16216    15475    23439    24635 
   14748     1507    -8958   -16536   -22310   -27050   -30452   -29284 
  -21063    -8884      745     4365     5992    14543    33558    55438 
   69146    69852    60655    49710    43510    38995    26271     2081 
  -22851   -33400   -25761   -11771    -9052   -25883   -55347   -83930 
 -102182  -108750  -107481  -102049   -95014   -86745   -72267   -48375 
  -24747   -16892   -28568   -50399   -71457   -84234   -85251   -76795 
  -64249   -49811   -30831    -6564    15910    27513    26463    17104 
    7221     8403    24095    41798    50574    52521    51850    50855 
   53365    58737    60987    58336    53786    47798    38744    28278 
   19802    12515     4433    -1704    -3559    -3569    -5029    -8884 
  -13801   -17577   -18007   -14028    -6635      947     4446     4216 
    6860    16864    31005    41423    40861    28518    12921     3704 
    1044    -1739   -10631   -26698   -41647   -43256   -28818    -6630 
   13674    25889    26574    18843    12015    11160    13632    16123 
   18499    20904    20927    16808    13017    15959    24602    33989 
   42782    51284    58691    62536    60009    52428    43421    31893 
   12739   -15364   -47909   -80157  -109640  -133019  -143634  -137570 
 -122709  -111999  -109668  -110829  -109016  -103487   -99680   -99018 
  -97005   -92801   -87099   -76414   -59306   -38909   -18569     -608 
   13627    23367    28516    30059    29153    29913    41342    67480 
   99463   125022   137374   132841   113196    88958    70993    62895 
   62140    62722    59603    52961    45310    37062    27093    13520 
   -5027   -26681   -47669   -64501   -76751   -89665  -108058  -129481 
 -146815  -154225  -150257  -137518  -120579  -103808   -89143   -75485 
  -61752   -49193   -38856   -29721   -20951   -11906     -438    12498 
   19757    16388     4546   -13175   -36680   -64320   -89919  -104900 
 -104393   -88955   -63046   -36366   -20941   -22158   -36445   -56694 
  -74380   -83474   -85908   -84748   -79512   -71551   -60964   -43185 
  -16632    13236    38216    51735    51644    41885    31749    31065 
   41931    56446    65172    64443    57556    53985    61701    76606 
   85153    77075    52526    20910    -5299   -18248   -17743   -10195 
   -3990    -1428       33      667     1864     5031     3089   -10992 
  -32326   -49392   -53320   -42731   -22591     2636    28824    48275 
   56807    57949    54470    46531    38711    38879    49131    63092 
   72199    72107    64868    55445    45736    36038    29111    25467 
   22458    20607    19245    13178     1711   -13643   -36101   -63627 
  -85999   -96484   -94300   -82572   -68958   -59794   -54774   -52008 
  -51691   -51342   -47256   -40752   -33020   -20559    -3471    11579 
   18841    18087    15564    19949    34227    54307    73289    84956 
   86043    77470    64578    53575    46365    42556    42852    44669 
   42562    35752    26456    15128     4899     1413     4886    11939 
   21370    32675    44098    53588    60859    65777    66819    65257 
   63556    60461    56395    56459    62880    72591    80600    81306 
   72792    59403    45470    31313    15398    -5251   -31025   -54819 
  -70087   -78282   -82978   -85337   -85063   -81689   -76653   -72082 
  -69079   -69610   -75211   -84570   -94522   -98716   -89563   -68233 
  -45297   -30009   -24752   -25535   -26455   -26212   -27994   -35359 
  -49725   -66181   -73238   -64617   -48476   -38935   -41727   -50916 
  -57274   -56281   -49139   -40584   -34067   -28983   -24254   -19768 
  -14245    -5760     6593    20938    32039    36517    36715    36023 
   35590    36901    39967    39198    28792     9774   -10802   -23781 
  -24869   -18759   -13410   -14089   -21688   -33534   -48312   -67070 
  -87522  -104016  -111915  -108609   -97083   -85462   -76544   -67215 
  -56609   -45067   -34441   -32234   -42902   -57909   -64290   -57846 
  -44433   -32922   -27438   -27709   -32974   -40579   -47334   -53241 
  -59852   -66372   -69267   -67085   -62834   -58572   -50922   -35282 
  -12556    11584    31790    44640    49208    48115    45174    44212 
   50218    64721    81963    94531    98414    92617    79115    61894 
   45571    35108    31341    27360    15937    -1627   -19313   -33265 
  -41456   -44014   -43299   -40083   -33644   -24931   -17075   -12682 
  -11799   -14147   -19083   -22640   -20264   -11694     -998     6164 
    7629     7751    11081    17598    26264    35173    41866    46819 
   50062    49793    47520    46006    44646    43237    44586    49575 
   55416    58978    58066    52525    44811    36597    27359    18684 
   15579    20946    32983    47235    57533    58434    49102    33126 
   16318     5462     4010     8350    11959    12160    11086    11649 
   15451    21918    27199    28721    27649    24836    22088    23046 
   26448    26982    23419    17003     6976    -6769   -22689   -38769 
  -52003   -59760   -61201   -57140   -52071   -52892   -61043   -71120 
  -77913   -79894   -77929   -72638   -63537   -51834   -41454   -34923 
  -29348   -21976   -17891   -21719   -28724   -32641   -30389   -19988 
   -5998     2162     3761     5927    11828    19331    23619    20270 
   10698     -706   -11204   -17700   -19122   -19101   -20988   -23989 
  -24546   -20734   -15900   -17333   -29372   -46855   -59120   -61304 
  -56624   -49418   -42759   -39146   -38306   -36891   -31709   -23606 
  -17655   -17262   -19372   -18814   -15781   -14115   -14701   -16103 
  -17934   -19855   -20875   -20428   -18610   -16335   -14672   -13108 
  -10334    -7400    -7664   -12204   -17600   -19632   -17042   -11860 
   -7692    -5971    -4433    -1073     2898     4876     3489    -1595 
  -10309   -20352   -28716   -36186   -44526   -51569   -54814   -55273 
  -54226   -50877   -44552   -37835   -36057   -40293   -44265   -42404 
  -35330   -25600   -15637    -9235    -8882   -13450   -19215   -22255 
  -22529   -23551   -26396   -27899   -24913   -17635   -10337    -8581 
  -14108   -24961   -37121   -44734   -45576   -43176   -40386   -37385 
  -34941   -34002   -34334   -35088   -34068   -28514   -19040    -9862 
   -4401    -2914    -3289    -2964    -1099     1338     3109     3145 
    1985     4026    12806    24844    34675    41431    45827    46768 
   43491    37224    31290    30188    35465    44279    52852    58751 
   61566    62693    63723    65258    66014    63924    60427    59701 
   61035    58027    47671    34003    22427    14675     8329      763 
   -6976   -12171   -14795   -18033   -24143   -30065   -29251   -19053 
   -2756    15427    31864    43472    50641    55043    55138    49990 
   42832    36830    32728    29957    27188    24078    22187    22949 
   25676    28397    30345    31582    29626    21727    10673     1392 
   -4848    -8622   -11057   -15455   -24857   -37376   -47585   -52855 
  -55274   -58109   -63503   -71543   -78723   -79719   -71903   -57278 
  -41863   -32365   -30012   -29717   -26920   -22362   -20746   -26713 
  -40006   -54493   -64038   -66579   -62108   -51506   -37439   -23701 
  -13144    -6309    -1748     3175    10590    19759    27910    32929 
   33494    28484    18162     5532    -4376    -7520    -3690     3011 
    6489     2813    -6671   -16303   -20642   -18593   -13116    -7895 
   -4900    -2796     1800     9912    18754    23859    21885    13318 
    2215    -7422   -14342   -19222   -21183   -16696    -3977    13551 
   29549    38408    37660    29172    16700     3108    -8887   -17279 
