Origin Time       2016/04/16 01:25:00
Lat.              32.753
Long.             130.762
Depth. (km)       12
Mag.              7.3
Station Code      KMM006
Station Lat.      32.7934
Station Long.     130.7772
Station Height(m) 34
Record Time       2016/04/16 01:25:08
Sampling Freq(Hz) 100Hz
Duration Time(s)  300
Dir.              N-S
Scale Factor      3920(gal)/6182761
Max. Acc. (gal)   827.201
Last Correction   2016/04/16 01:25:08
Memo.             
[...]
    4319     4305     4283     4262     4257     4270     4278     4283 
    4300     4310     4297     4277     4259     4247     4257     4276 
    4280     4282     4302     4327     4333     4316     4296     4287 
    4283     4278     4273     4273     4280     4278     4266     4265 
    4280     4288     4293     4304     4307     4309     4312     4307 
    4297     4295     4294     4284     4277     4284     4279     4265 
    4277     4297     4289     4272     4268     4262     4258     4273 
    4280     4270     4280     4307     4314     4306     4304     4296 
    4290     4298     4297     4283     4279     4285     4281     4281 
    4290     4287     4281     4294     4302     4291     4286     4287 
    4282     4289     4299     4289     4283     4298     4300     4282 
    4272     4279     4282     4275     4276     4283     4283     4286 
    4291     4286     4279     4284     4292     4296     4297     4289 
    4281     4288     4295     4287     4279     4287     4292     4291 
    4298     4304     4299     4298     4302     4288     4273     4276 
    4269     4258     4269     4286     4286     4283     4287     4291 
    4290     4299     4306     4291     4272     4268     4274     4291 
    4302     4296     4289     4293     4299     4302     4299     4290 
    4279     4268     4270     4271     4265     4272     4284     4282 
    4286     4300     4299     4292     4299     4301     4286     4282 
    4291     4294     4295     4291     4274     4267     4284     4293 
    4284     4280     4283     4285     4288     4287     4284     4291 
    4303     4302     4293     4288     4290     4293     4292     4284 
    4272     4266     4275     4285     4281     4277     4286     4299 
    4307     4311     4308     4300     4302     4305     4293     4277 
    4265     4259     4267     4282     4285     4269     4262     4278 
    4291     4292     4298     4304     4301     4295     4291     4284 
    4283     4293     4294     4281     4274     4276     4276     4286 
    4305     4301     4282     4283     4293     4290     4283     4282 
    4281     4286     4294     4291     4283     4293     4306     4297 
    4283     4283     4288     4291     4294     4291     4280     4274 
    4275     4278     4282     4284     4282     4290     4300     4294 
    4284     4287     4289     4286     4291     4297     4293     4290 
    4288     4284     4281     4281     4282     4281     4283     4292 
    4294     4283     4281     4286     4282     4281     4282     4278 
    4280     4290     4298     4300     4303     4301     4296     4299 
    4301     4290     4281     4284     4286     4286     4286     4284 
    4276     4271     4274     4271     4268     4278     4290     4292 
    4290     4289     4288     4293     4299     4296     4294     4300 
    4298     4288     4288     4295     4292     4287     4290     4289 
    4280     4277     4283     4286     4281     4276     4273     4275 
    4285     4291     4283     4280     4286     4289     4293     4300 
    4301     4300     4304     4296     4279     4280     4291     4285 
    4280     4286     4288     4285     4287     4283     4278     4285 
    4292     4289     4292     4300     4294     4280     4281     4289 
    4290     4290     4287     4280     4283     4292     4285     4271 
    4276     4292     4292     4283     4286     4295     4301     4302 
    4291     4276     4279     4294     4296     4288     4288     4290 
    4287     4290     4289     4281     4283     4291     4289     4283 
    4282     4284     4290     4293     4285     4272     4275     4290 
    4294     4288     4285     4285     4285     4293     4296     4285 
    4277     4284     4291     4285     4280     4282     4284     4286 
    4288     4284     4280     4287     4299     4299     4295     4294 
    4287     4283     4291     4292     4287     4291     4295     4289 
    4288     4290     4289     4290     4291     4283     4278     4283 
    4282     4275     4275     4279     4276     4275     4284     4290 
    4288     4283     4276     4278     4287     4293     4292     4289 
    4291     4294     4293     4295     4297     4293     4292     4294 
    4289     4283     4287     4293     4292     4291     4292     4288 
    4281     4288     4292     4278     4270     4276     4275     4276 
    4288     4285     4274     4282     4291     4288     4294     4303 
    4294     4284     4290     4292     4284     4283     4286     4287 
    4290     4289     4280     4283     4294     4293     4285     4286 
    4288     4284     4286     4289     4285     4283     4287     4286 
    4286     4292     4292     4285     4283     4287     4287     4282 
    4279     4276     4271     4275     4287     4293     4294     4295 
    4287     4280     4292     4303     4294     4289     4294     4291 
    4288     4297     4295     4280     4279     4284     4284     4288 
    4293     4289     4289     4292     4286     4277     4282     4293 
    4291     4283     4280     4281     4283     4286     4285     4284 
    4286     4290     4292     4290     4289     4287     4283     4287 
    4286     4276     4281     4294     4289     4281     4282     4282 
    4282     4287     4290     4288     4286     4287     4288     4287 
    4289     4287     4285     4291     4299     4300     4300     4301 
    4296     4286     4285     4287     4283     4285     4292     4289 
    4280     4278     4281     4283     4286     4286     4280     4278 
    4284     4289     4292     4292     4284     4280     4289     4296 
    4289     4282     4284     4286     4288     4295     4297     4289 
    4286     4285     4280     4280     4288     4290     4284     4282 
    4288     4287     4283     4286     4289     4284     4283     4289 
    4292     4290     4291     4290     4288     4292     4295     4288 
    4283     4287     4290     4291     4292     4289     4288     4290 
    4284     4273     4276     4285     4286     4284     4282     4282 
    4287     4290     4288     4286     4286     4287     4290     4291 
    4287     4285     4288     4293     4294     4291     4290     4291 
    4289     4290     4292     4289     4284     4284     4287     4286 
    4285     4286     4284     4277     4276     4281     4285     4285 
    4285     4284     4284     4289     4288     4284     4292     4300 
    4296     4294     4295     4289     4288     4293     4289     4286 
    4290     4288     4283     4282     4283     4286     4290     4286 
    4278     4275     4280     4287     4284     4276     4277     4283 
    4288     4293     4292     4288     4289     4294     4295     4288 
    4284     4287     4287     4286     4289     4289     4285     4285 
    4289     4288     4290     4294     4289     4287     4287     4283 
    4286     4296     4294     4285     4284     4284     4282     4286 
    4289     4282     4278     4285     4290     4288     4289     4287 
    4279     4280     4289     4290     4287     4287     4284     4281 
    4287     4291     4285     4285     4292     4292     4287     4285 
    4284     4287     4300     4305     4272     4231     4262     4355 
    4381     4269     4191     4391     4659     4440     3864     3747 
    4310     4999     5291     4690     3181     2483     4126     6209 
    5953     3605     1127      614     3378     7153     6667      834 
   -2971     1032     7523    10471     9795     3629    -3804     -596 
    9507    13266     9775     -106   -11382    -6253    12294    17185 
    3993    -9397   -12484      -48    21274    25665     3884   -17488 
  -13396     6525    17421    13118     1144    -9181    -6181     6413 
   11002     7089     2666    -4800    -7176     6561    17967     8869 
   -4573    -4648     4848    17275    23185     8778   -13800   -11654 
   16021    33069    17896   -11167   -24594   -14406     6659    16884 
    3044   -17413   -13225    17788    41778    29784     -618   -13840 
   -9678    -4408    -4866   -10331    -1204    27459    36765    10478 
  -12054    -5396    10569    12241    -2112   -11907     5250    30623 
   21903   -11816   -24470    -9734     9339    18617     6709   -19416 
  -24891     4332    34619    31234    -1412   -38854   -51057   -15032 
   39553    55115    25550    -9624   -14632    14144    39645    29799 
   -4193   -33066   -38769   -29824   -25695   -16862    11963    41513 
   45333    18015   -16113   -13663    25961    49541    23990   -22362 
  -33377     4564    40218    26461   -18098   -38643   -15900    13848 
   12651    -5503      -45    24077    23308    -2485   -15676   -11159 
   -2783     4655     4509     3774     6432    -9570   -36674   -34026 
   -1346    21630     5465   -41684   -67200   -29318    38664    69393 
   45405     6300   -12449   -13091    -3419    17785    43634    66129 
   72379    52873    33816    37451    40471    24172     9978    24197 
   55930    63492    28115   -16216   -22424    10007    33624    15809 
  -21787   -31029     6904    45298    32779    -7051   -32665   -37985 
  -19167    12361    28073    21432   -10808   -66260  -102034   -80727 
  -13388    57307    63305   -19872   -97459   -84691   -22713    32033 
   53903    19265   -22190     2737    64768   101005   108961   102428 
   79502    53659    41938    25470   -10247   -36278   -41340   -45175 
  -37469    -4312    20151     4729   -29041   -54407   -70206   -70209 
  -61216   -72184  -100514  -120627  -126220  -117076   -87959   -55403 
  -48373   -45999    -8689    46450    93158   124997   127563   108973 
   97489   107390   138964   177231   202085   196851   153326   101687 
   93000   131330   161591   116221   -15962  -154980  -215852  -203962 
 -183397  -202030  -242115  -238107  -176055  -114623  -102762  -125386 
 -107355   -12456    86269   125086   124141   104158    78383    79695 
   99838   100419    82410    59363    35598    35938    60116    51605 
    1459   -21571     1909    29343    46310    47502    16758   -35635 
  -79642   -94137   -87674   -84450   -85634   -79124   -67847   -63124 
  -63924   -57823   -38180    -3072    44724    82214    71249     4554 
  -49919   -15580    73481   120563    98106    44920    10836    17706 
   27154     -551   -50564   -95178  -116835  -104885   -69244   -29635 
   -1341      427   -29178   -73198   -98293   -71528    -8047    25314 
    3549   -20055     4417    73933   152338   179512   114004    -8593 
 -135555  -230850  -213772   -90818    -6047    31567    39984  -109198 
 -278834  -194138    -9496    27682    -2418    27312   121126   259927 
  392962   443579   393670   298371   227555   210112   237477   303285 
  404869   510512   545206   449814   272673   135574   112650   180055 
  227672   173223    76873    26798    23692    41470    61009    51150 
   -6467   -63180   -51682    13800    68059    61654     6159   -35662 
  -32969    22641   133686   253530   321193   294790   184454   130690 
  248603   374641   296603   102352   -16978   -15200    79602   188182 
  203320   129555    72595    70325    78827    73242    45270     3725 
  -32363   -67482   -78214   -13024   132261   289176   365067   339194 
  270214   207701   169564   176598   227757   279504   312690   332402 
  303132   213498   136236   117335   104097    44710   -35614   -78238 
  -59365   -26331   -52906  -153266  -289444  -407033  -429074  -338922 
 -246254  -259801  -357605  -430730  -417842  -358922  -333580  -378489 
 -420135  -359179  -214473   -33508   148794   188256    14854  -157013 
 -165299  -119491   -78306   -44830  -112455  -219839  -220970  -146012 
  -97987  -128281  -212001  -293292  -343193  -357761  -370768  -391725 
 -402824  -427752  -470166  -499459  -491343  -404110  -219106    10186 
  203436   311532   326096   255665   143191    57368   -14308  -120507 
 -220348  -276763  -295196  -263527  -218278  -202779  -181782  -114426 
  -10902    73723   100979    93095    56545   -19690   -76477   -53425 
    6652    44069    70610   102837   144364   226174   354252   495631 
  581238   512024   350987   299050   350250   339614   251653   227432 
  300081   279393   169278   148275   107789    15784    -4587   -24592 
  -37647     -134     6936   -15831   -19035    23238   126444   256218 
  321436   261502   177478   199197   267646   271793   203379    83866 
  -66435  -206770  -311755  -408404  -527849  -645535  -695256  -644290 
 -572384  -582763  -647173  -645357  -527252  -378599  -288478  -236425 
 -194013  -174053  -143767   -71458    18738   119518   230985   347668 
  493467   669849   839394   952214   951453   829314   658034   529172 
  486448   525921   622489   706276   665580   498525   366814   319545 
  233851   139379   135212   117688    14366  -102405  -237109  -398149 
 -513391  -562808  -574227  -586870  -644723  -731568  -792226  -790674 
 -725442  -661867  -661118  -679147  -655378  -578232  -469579  -397313 
 -384606  -384074  -367853  -327808  -272964  -224211  -175226  -125061 
 -111320  -174550  -318526  -500021  -623032  -584328  -436062  -336389 
 -225761    12711   219068   310404   422106   574342   724455   814556 
  786102   726458   692817   661154   660309   686700   704017   682741 
  599182   505273   449615   383227   271790   178483   163348   187389 
  193865   191430   174359   108428    19530   -54989  -116518  -169242 
 -232085  -322354  -447692  -619464  -812304  -968314 -1001870  -865348 
 -712081  -689762  -621246  -374068  -115240   136664   491555   905436 
 1269898  1309535   943484   652991   589457   551850   677022   778882 
  670755   676067   686524   562759   484280   381978   269815   205876 
  113888    23155   -54307  -157069  -260888  -333036  -399133  -483575 
 -525142  -494708  -470350  -449931  -381623  -314944  -271409  -234251 
 -223084  -224803  -206523  -169964  -139920  -120716   -94332   -59545 
  -10898   108905   340488   514063   322185   -87439   -61733   330976 
  232856  -144405   -41326    23600  -237550  -279851  -295639  -419366 
 -393856  -388189  -432494  -453163  -528957  -546963  -494048  -537169 
 -644786  -745307  -841705  -853816  -771401  -667330  -576314  -531993 
 -513057  -454899  -355557  -264574  -202502  -138460   -21785   176990 
  404091   549563   583460   585972   597866   591811   612519   682462 
  713461   677731   603606   525033   494386   466571   373137   248767 
  147581    87863    41814   -20653   -87774  -165991  -272174  -394496 
 -524889  -659860  -772379  -832227  -842671  -825209  -793143  -749985 
 -694542  -622060  -517728  -384907  -279891  -251042  -248922  -196880 
 -104218    -8065    90302   216361   397551   579167   662268   670682 
  705133   753881   706834   505086   313108   495073   899640   805448 
  417762   445662   434740   174637   176730   158403     8514    20937 
  -15642  -125285  -178178  -255456  -354075  -442666  -521834  -592686 
 -626658  -588063  -513296  -417435  -273462  -107632    28266   120782 
  186327   240895   300448   386708   504964   638546   749776   787594 
  745905   658112   556711   519160   606546   712015   666009   531747 
  512444   526647   435020   383594   360971   248628   164828   129851 
   62503   -16330   -81540  -139590  -222914  -328809  -436134  -560603 
 -684570  -773559  -829557  -855493  -839954  -778342  -680421  -561142 
 -434521  -319716  -238340  -194575  -172185  -157550  -139988  -107112 
  -50799    44499   178533   308463   387774   411667   411471   403458 
  366495   302280   275398   304400   307263   271176   256958   243018 
  209750   188706   165929   125843    92672    83579    89623    87716 
   71319    47833    16185   -16854   -37091   -43711   -37589   -21129 
  -14511   -38470   -86808  -132142  -155831  -154048  -134466  -115463 
  -93358   -44376    33100   115158   163422   153587   104160    54326 
   42725    84735   141456   155121   116785    62590    15577   -27779 
  -67620   -97700  -119610  -142016  -170556  -202220  -229670  -244658 
 -242003  -226222  -209287  -200040  -196245  -190799  -180781  -162163 
 -130467   -93439   -65349   -50275   -38593   -14638    27604    80293 
  130749   164733   180369   193550   214201   239414   261867   266604 
  248009   232169   244913   271297   276445   247524   206271   186829 
  190455   177338   124269    57900    10545   -13988   -19158   -10924 
   -2857     2742     1680   -11931   -14542     9404    38244    51714 
   40919     6878   -34589   -75057  -111689  -134422  -140459  -131806 
 -108382   -82717   -74872   -83862   -87305   -71797   -44661   -26668 
  -36349   -63294   -77265   -67378   -47536   -37834   -49262   -75047 
  -99301  -109789  -105715  -101866  -112458  -132405  -145187  -139082 
 -117653   -96463   -80315   -60090   -33723   -10546    -5511   -30488 
  -74450  -103300   -91870   -54117   -30711   -37587   -54297   -66234 
  -74380   -79816   -89908  -108356  -119605  -108715   -78281   -41559 
  -12642     3189    12244    22745    32914    31407    10793   -24195 
  -58546   -75452   -72315   -64764   -65799   -69625   -65661   -55815 
  -48024   -43916   -35275   -13962    13867    37849    58052    78050 
   97632   110872   107269    80760    38884     4034    -3471    11600 
   25238    17957   -16642   -66572  -105004  -116188  -102873   -76659 
  -56086   -52139   -56285   -51737   -28456     8106    42079    64281 
   80384   103777   140390   180081   207368   217367   217429   218652 
  225911   234903   239858   237661   227097   207199   172979   123617 
   71715    27699   -12706   -53124   -88508  -120623  -157626  -197095 
 -230885  -256488  -271909  -273517  -260225  -230755  -182445  -119103 
  -52831     3744    45391    78703   115833   163466   216108   255861 
  267732   256882   241412   232960   233080   234626   221189   185456 
  142113   109663    92381    81265    65089    38495     3046   -33042 
  -64316   -91643  -108446  -106089   -90593   -78748   -85648  -113692 
 -150886  -180212  -190474  -184290  -172017  -155223  -123133   -68679 
   -4887    40390    49662    33887    19392    18644    22921    12775 
  -28139   -85591  -119554  -117564  -103504   -96383   -98401  -100788 
  -89661   -64521   -38511   -22514   -19273   -21159   -14051    12521 
   54808    92892   109871   110445   114869   135737   159367   161189 
  139977   119667   123807   151182   171930   163777   141212   127484 
  120255   104987    81643    60455    48145    46740    50018    45183 
   30931    21856    28450    44924    57083    55289    42665    35857 
   51236    80957    98616    94550    83634    83770   100157   118540 
  109960    63027    11850    -5448      221     1472    -6458   -25975 
  -57390   -84944   -97250   -95932   -87516   -81558   -81977   -82819 
  -74097   -52606   -27738   -10921    -8563   -20065   -34520   -41301 
  -42829   -49659   -63619   -71728   -61376   -35556    -9882     3909 
    7018     5882     5166     2986   -10653   -38339   -65574   -76440 
  -69538   -53699   -36438   -23248   -16713   -10986     1896    21162 
   36698    38814    26788     6453   -11861   -16550    -5815    12523 
   30519    42166    45307    44232    44106    43223    36322    24965 
   13910      215   -21801   -50366   -77204   -94767  -102043  -104292 
 -106881  -109879  -109709  -103230   -89592   -75354   -73082   -85039 
  -97705   -97083   -80970   -61795   -57411   -66106   -63061   -35210 
