Origin Time       2016/04/16 01:25:00
Lat.              32.753
Long.             130.762
Depth. (km)       12
Mag.              7.3
Station Code      KMM003
Station Lat.      32.9336
Station Long.     130.5477
Station Height(m) 14
Record Time       2016/04/16 01:25:10
Sampling Freq(Hz) 100Hz
Duration Time(s)  300
Dir.              E-W
Scale Factor      3920(gal)/6182761
Max. Acc. (gal)   217.251
Last Correction   2016/04/16 01:25:11
Memo.             
[...]
     741      735      729      730      733      735      736      730 
     721      723      726      722      720      723      730      735 
     733      730      729      730      733      737      738      736 
     733      730      727      724      725      728      733      733 
     728      729      737      734      727      732      735      730 
     725      723      724      727      730      726      724      729 
     729      727      731      732      729      729      736      735 
     729      734      740      735      732      729      724      729 
     737      735      732      732      732      730      726      722 
     725      730      731      733      731      731      737      737 
     729      727      728      730      729      728      727      724 
     721      724      731      737      734      729      728      734 
     741      739      731      726      732      740      738      730 
     728      730      729      726      726      728      729      731 
     729      728      733      734      730      727      731      737 
     732      724      725      727      731      735      730      727 
     734      740      737      731      729      734      739      735 
     730      726      723      725      729      731      732      735 
     736      730      727      727      727      733      740      734 
     729      729      730      728      728      731      734      733 
     728      722      721      729      734      731      729      731 
     732      732      731      730      730      732      736      734 
     729      731      729      728      736      740      733      729 
     731      734      734      729      726      729      728      727 
     731      733      730      728      733      735      733      731 
     730      730      727      719      721      736      741      737 
     737      740      736      730      728      727      724      722 
     718      717      730      733      677      576      552      691 
     894      958      742      230     -241      -44      682      917 
     335     -549    -1343    -1647    -1444    -1051     -436      -43 
     -93     -108     -729    -2198    -3060    -2674    -1887    -2296 
   -3795    -3351     -717     1144     1038     -640     -633     3260 
    6465     5636     2744      670     1101     2146     3036     6140 
    8899     8210     7109     8142     9717     8476     5152     5099 
    7862     8708     6655     3238     2419     3649      117    -6025 
   -8450    -9173    -9381    -7133    -4704    -5791    -8830    -8654 
   -5622    -4612    -6558    -7838    -4471     1545     2646    -1649 
   -3221    -2855    -6656    -5373     7617    16825    12469     6820 
    8815     9411     5541     6650     6900    -3333   -11228    -6097 
    1213     2885     7249    16181    19497    16249    10208    -1392 
  -13641   -15343    -8499    -4599    -6003    -7202    -8209    -9036 
   -4880      511     1942     4045     6030     5379     5401     2042 
   -5267    -8109    -4572     1742     4036      922      732     5124 
   10553    13438     9594     2690    -3358    -7969    -7677    -4434 
   -3399    -2816     3975    15544    16597     3853    -6529   -10450 
  -14479   -14758    -6132     6232     9974     2015    -2845      648 
    -317    -8237   -13607   -12663   -10022    -8762    -4679     3437 
   10147    12214    12398    14794    13756     1033   -11364    -6903 
    2120    -2134    -8325    -1433     6779     -241    -9396      161 
   12876     8857     2159     2999     2410    -4281   -12502   -12142 
   -4716       30     7374    19199    22064    12200     2105      260 
    -659    -5361    -5445     4373    16730    16458     2740    -2974 
    8559    16390     4043   -14112   -23377   -27800   -27418   -22113 
  -16555    -6021     7795    12262     7986     1699   -10739   -23863 
  -16687     4492     6946    -5037     1491    18173    14763     2229 
    6727    18112    15400     5655     2909     6771    11684    11611 
    5043    -3060    -7942   -11446   -17700   -19222   -13681   -12466 
   -9248     6694    23033    28009    23790    18563    15320     3565 
  -15405   -21265   -11143    -1628    -1805    -9083   -13059    -9061 
   -7252    -7361      164     6959     3967    -3599    -8639   -10882 
  -20336   -31423   -20959     3785    13089     6110     8672    25547 
   28492    10274     -928     3187     2104   -10814   -15757    -4414 
    -210    -7699    -2106    11366    10711     1596    -4397    -2882 
    5642     8690     6933    15096    27504    28276    15829     2632 
     172      513    -5048   -10485   -18795   -29853   -29205   -22430 
  -20222   -12166     1108     4532    -1871    -8725   -11698    -6467 
    5520     9898     8809    21925    39615    35828    14065     -437 
    2569     6403     5240    10605    12015      544   -12415   -25978 
  -35421   -27316   -10314    -1520     1099     9953    22163    20765 
    4962    -5640      426     9959     7124     -647    -4313    -8625 
  -12098   -13553   -17677   -19743   -17778   -21755   -30443   -26695 
  -12200    -7891    -8792     2608    14864    16260    22422    38994 
   43052    26948    16806    21556    15720    -3537    -9966    -5709 
   -8621    -4359    16527    27369    18818    10404     8417     2535 
  -17493   -39717   -45369   -42975   -31913    -3390    19449    21156 
   14567    14296    22172    20221     2459   -12879   -24045   -37588 
  -36378   -11976    11228    20522    29294    36747    33086    26169 
   23743    20817    12119     -527   -10242   -15618   -21009   -22173 
  -12467    -2609    -6386   -15565   -17790   -21074   -33776   -34890 
   -6910    14100      329    -7989     9194    15857     4074    -1225 
    6501    14474    13915    12189     9285    -9180   -29238   -22686 
   -3151     1646    -5037    -9660    -9600   -12492   -19419   -19232 
  -18798   -24652   -20126    -5414     9694    22110    16906    -1396 
   -7453     -389     7905    10009     1020    -3566    10877    22389 
   12576    -3900   -13783   -12500    -3848    -1907    -3275    -4106 
  -12826   -14690      369    11022     7141     1359     8323    23770 
   22875     4230    -6580     -415    18732    38214    24766   -23599 
  -53754   -40950   -15004     -464     -570    -3439     3630    12827 
   14990    11950     5581     -166     3230    18646    28675     9682 
  -28139   -44750   -30829   -19789   -27087   -37720   -41679   -37031 
  -26402   -20537   -24747   -26502   -13620     1787     -169   -11568 
   -1962    31917    58271    65219    76004    99596   105363    76787 
   47719    39474    27692    -5061   -41338   -55276   -50643   -49441 
  -47162   -33190   -23513   -30958   -45040   -47907   -33724   -13335 
    1878     8457     9627     8926     -293   -13295    -8697     8140 
   15138    13672     9840     3689      593    -1651    -3481     6083 
   18938    21079    22492    23535    17354    20799    35869    42287 
   42006    49853    62754    62780    48228    45009    60230    63161 
   33183   -12777   -48163   -73173  -100077  -119102  -116527   -97033 
  -70166   -40695    -9125    26143    64229    96175   110960   114612 
  115978   102572    72159    51830    58859    77764    78488    60092 
   59210    80755    87311    72388    52677    21680   -24564   -64168 
  -74973   -64650   -60675   -65866   -60676   -46638   -38883   -38209 
  -42840   -51943   -52822   -40342   -30970   -38097   -55273   -61502 
  -46139   -27851   -18968    -8502     1601     7204    21526    40956 
   47877    47979    61027    89679   112015   106969    85298    75139 
   80810    83699    74683    54582    26167     5990     -615   -21387 
  -66903  -109374  -124662  -103644   -63168   -53164   -78807   -85896 
  -60596   -24092     9772    17332     9886    18991    28366    25658 
   19192     -976   -26702   -36027   -34891   -34048   -38232   -50191 
  -48884   -21611    -1043    -6455   -14271   -10531     6452    38934 
   72760   100176   117259   105016    78697    68138    46963     1716 
  -22943   -15398    -4122    -4073   -11179    -2342    17436    18366 
   12564     -290   -50955  -112238  -132850  -110436   -66501   -16389 
   32361    74402   106173   130566   143050   137875   123460    99414 
   60362    18073   -13186   -29229   -40534   -53766   -51460   -34287 
  -27542   -30393   -32572   -42257   -62625   -80864   -83618   -79311 
  -84128   -82882   -48586     5588    38587    45309    53915    64765 
   60471    42368    16501    -7598   -15273   -10622    -9901   -14631 
  -13850      647    30900    72948   118439   157417   177740   173448 
  154377   135034   120153   104662    81569    56602    40090    23927 
    3211   -10584   -16137   -16550   -10295    -2482     1002    -5065 
  -23196   -44604   -64599   -88832  -115765  -135965  -141811  -138433 
 -140318  -139824  -116916   -75200   -31545    -1513    15269    38671 
   66757    78683    66528    27525   -20381   -37936   -19176     5512 
   14201     3877   -14298   -18939    -2161    23165    50088    77279 
   91847    88350    75707    62824    59570    65298    72312    82428 
   88308    78981    59806    40618    30495    22184    -5287   -41300 
  -55781   -48268   -37080   -27500   -23223   -42258   -82840  -109873 
 -105976   -90354   -87816   -96085   -77921   -22727    30038    69914 
  115325   149975   148956   121647    87036    43358    -6450   -43866 
  -67539   -77221   -58716   -21723     6054    15149    10676    -3237 
  -21784   -36120   -42179   -36604   -13687    12076    25733    43307 
   76417   113299   141708   152001   133929    83931    19223   -25204 
  -34041   -24913   -16029    -8641     7233    35691    57755    58798 
   49875    41101    33428    27820    28738    37474    44580    60642 
  105216   151534   168981   169927   161676   137245   101743    59004 
   14839   -24255   -72508  -126234  -150966  -149643  -152894  -159422 
 -157360  -149760  -138267  -121303  -102126   -84521   -66296   -42542 
  -13851    12034    25173    21206     9354     4061     5270     5909 
    9173    17910    27445    32336    27480    16833    12373    18249 
   34910    61078    87693   109314   126043   136724   145146   156804 
  166250   163701   145026   104371    45037    -6337   -31718   -46036 
  -69703  -102642  -139149  -179020  -206777  -206878  -196610  -197637 
 -209549  -224708  -236668  -244935  -252755  -257354  -254527  -234606 
 -186492  -130993   -99400   -87269   -81718   -74303   -51494   -23150 
   -1256    24925    56234    94219   148132   198810   223547   228068 
  218372   198394   185207   179491   155624   107275    60005    31856 
   23821    30451    31715     9880   -27617   -65461   -89926   -89173 
  -80248   -91521  -106961   -97760   -74705   -55143   -43098   -40193 
  -35384   -26211   -32271   -56458   -81093   -97711  -103023   -92131 
  -77764   -83180  -105672  -123959  -134936  -145962  -151206  -143449 
 -123993   -90601   -42684     9302    57819    96725   111959   105647 
  100868   108065   119806   130870   139967   143492   142548   143835 
  142331   123041    86592    51939    34416    34042    42631    53208 
   59585    60081    60920    63594    63954    61599    57269    53229 
   52115    56315    70023    82205    71132    40457    12166    -8378 
  -29516   -50217   -60643   -63618   -73281   -93060  -119553  -148570 
 -165539  -162950  -148165  -115179   -60258   -15074    -2476     4589 
   30986    64071    91510   110882   115303   104511    87177    74954 
   80489   107228   135120   132677    92518    29663   -34257   -71099 
  -76690   -79940   -94858  -109068  -116093  -115419   -95383   -44914 
   21929    63390    53497    24019    15644    22241    29748    34790 
   25186     7156      515     4129    12748    22310    20117     7620 
   -7898   -32890   -58947   -72235   -85134  -101320  -104868   -92449 
  -68329   -40502   -21150   -13062   -15756   -22095   -17860    -8259 
   -5696    -8299   -17996   -32880   -35691   -23714   -10423    -3814 
   -4595    -4398    -1068    -4460   -11238   -13325   -11815    -3220 
   14853    31039    28021     8336      830    16705    31888    28657 
   12774    -5092   -14702   -10673    -6336   -19406   -44639   -64704 
  -72039   -67344   -56115   -45551   -36069   -24390    -9526    11149 
   34876    50185    55323    57427    58801    58267    50035    30137 
    4039   -25012   -54620   -72603   -71765   -60155   -45141   -29175 
  -13636     8590    39918    63863    69205    64276    58323    51737 
   37556     9811   -18228   -28296   -28596   -29631   -13220    33288 
   88692   125446   140910   151723   155857   132571    86586    33624 
  -29816   -95609  -141100  -162310  -167189  -162729  -153690  -136825 
 -117008  -107278  -101414   -81489   -45855   -18153   -17874   -28711 
  -24075     4468    48098    90736   127245   152997   155575   143537 
  138076   137391   130625   115526    81772    23138   -42985   -96383 
 -121083  -109053   -81907   -67009   -65180   -65722   -61020   -53972 
  -53238   -49517   -36368   -32796   -42744   -46640   -39240   -26364 
   -8023    15351    40929    62109    65982    47956    18937   -11773 
  -43372   -74103   -99513  -111943   -98325   -56644    -7785    35047 
   88470   159884   220255   249446   265324   279543   280100   266431 
  245396   213929   171694   117349    49905   -19545   -87847  -158612 
 -217647  -253068  -275521  -294803  -308332  -317985  -331731  -341927 
 -325334  -282180  -237008  -194237  -150424  -119046   -96334   -58515 
   -3939    48624    89142   115944   124550   118919   114425   111739 
  102524    96057    99609   105825   111854   113264    99747    76232 
   56198    36149    10021   -12807   -24670   -20006     9351    54517 
  100489   146587   187391   212420   225127   222349   182222    96194 
  -10244   -99038  -161182  -212400  -249904  -265970  -271300  -270307 
 -261618  -245021  -219725  -195633  -167173  -120208   -73575   -35732 
    8090    46469    71293    97801   126607   152202   176576   193098 
  196059   192868   189646   179442   150492   100735    41247   -10356 
  -48031   -78639   -96136   -92302   -76200   -56504   -39303   -24572 
    -927    24746    35845    39018    39534    28571    10067    -9941 
  -34380   -53504   -62331   -78134   -96122   -90795   -74889   -75433 
  -82794   -81809   -71685   -49976   -23899    -5354     8116    19971 
   29419    43008    67926   100721   127710   138236   135434   125960 
  113681    98860    75771    46875    18728   -12016   -39107   -46977 
  -37648   -23157    -7912     2674     3934     3240     1625    -4582 
    -893    16829    29409    28332    18297    11525    20686    35281 
   39649    33874    17195    -5917   -20660   -24886   -28693   -36854 
  -42731   -31767     -791    28471    37802    37667    38453    31114 
   13291      489     2329     7431     7099     9943    17842    25793 
   36739    49502    59019    67674    79772    93278    98219    87048 
   64980    41822    25051    17538     6660   -22348   -59331   -86902 
 -102828  -106545   -98481   -87181   -79029   -75563   -74236   -65834 
  -44258   -10554    31740    67537    81223    80721    80400    82746 
   82590    70324    44478    15107    -8427   -20146   -18103   -10302 
   -9036   -12970   -12230    -6981     3041    21695    41934    56979 
   67096    73138    77340    72956    49835    16405    -9296   -20597 
  -25685   -34410   -46020   -60032   -79400   -96098  -104794  -111906 
 -116315  -118648  -124013  -121673  -108285   -94626   -71976   -30873 
   17099    64253   102399   119024   123886   128728   128360   125957 
  120999   103737    85464    74890    60305    45100    38797    34091 
   29269    29188    30412    32126    34577    30391    14747    -8005 
  -25675   -30169   -29446   -32252   -36927   -40979   -42114   -40254 
  -44819   -62052   -83240  -100186  -115143  -130726  -143316  -144775 
 -132585  -114465   -97387   -81944   -61839   -29333    11908    51692 
   82167    97947   103032   107812   113776   113318   103523    87792 
   66827    43182    25909    21894    28667    31481    18640     2133 
   -2336     -927    -5528   -13443   -15961   -13654    -8660     3197 
   19074    32009    42674    50098    51123    49122    47337    44147 
   36725    22377     2112   -21002   -46749   -67915   -72242   -67244 
  -74368   -94944  -110375  -109417   -93697   -65457   -29670    -3951 
    1620     2136     5036     1630    -3480    -6693   -14912   -23015 
  -23479   -16213     -272    18959    35272    51609    67338    77419 
   81203    81236    83062    87415    81909    56335    21903    -1367 
   -9745   -13007   -21931   -40717   -57617   -58645   -44676   -24184 
   -9305    -4956    -1248      827   -10714   -30358   -39932   -33139 
  -24719   -28346   -36980   -39912   -30828    -6959    19892    36639 
   44013    50116    61696    70184    60958    39687    21886    12340 
    9499    14350    25387    28464    14214     -787     -416     7329 
    8587    -4841   -30806   -51599   -55183   -46499   -33467   -26313 
  -33572   -46695   -51320   -49128   -49852   -53661   -52476   -40479 
  -23605   -10760     6413    36795    68415    92270   107946   102868 
   73300    42296    29608    32601    32809    12284   -20881   -42361 
  -48208   -50376   -52229   -53809   -57260   -56867   -47434   -32744 
  -14758     6847    33799    68696    99841   110546   101933    83953 
   65389    51587    34720     6041   -26719   -50634   -58890   -52107 
  -42215   -38507   -32813   -20368   -11112    -8466    -7794    -8503 
   -9764    -7675     1493    17968    33661    40467    41512    38024 
   25611    13969    15378    20452    11342   -13723   -36550   -44208 
  -44531   -40062   -25489    -8091     6167    17818    23955    28355 
   39073    54468    64961    61497    42815    15178   -10790   -25104 
  -30994   -39894   -53416   -65372   -69766   -60549   -36821   -10097 
    5064     8094     6271     1775    -4105    -7476      570    25841 
   51846    57977    47777    35739    33571    45365    56186    48687 
   25614     -144   -19162   -32543   -47827   -60022   -57807   -42398 
  -21770    -3420     9532    23194    42986    65674    84789    95355 
   94260    83060    68100    50384    25836    -3763   -32781   -56507 
  -72989   -84561   -91568   -91366   -81807   -59592   -28508    -3715 
    7024     9495     6739     -312    -9273   -23098   -37626   -39599 
  -24963     2880    37473    69317    92051    98627    83985    56166 
   27626     1552   -24431   -49295   -72162   -97747  -125608  -144644 
 -144786  -125925   -99270   -71655   -34413    10610    48626    82847 
  119386   144981   147717   125285    83567    44104    24014    16323 
    5911   -11834   -30297   -41566   -42951   -36375   -29787   -32174 
  -43827   -57887   -66393   -67511   -67274   -65597   -56574   -42784 
  -28983   -14926     -495    12573    20310    21361    19907    17217 
   13231    15878    31159    50928    64038    68233    65380    57137 
   46503    36778    29047    20565     8912    -1175    -3947      323 
    9764    20648    28549    33069    30795    17708    -1610   -23086 
  -44230   -59784   -71515   -82647   -88812   -88109   -82289   -72201 
