Origin Time       2016/04/16 01:25:00
Lat.              32.753
Long.             130.762
Depth. (km)       12
Mag.              7.3
Station Code      KMM006
Station Lat.      32.7934
Station Long.     130.7772
Station Height(m) 34
Record Time       2016/04/16 01:25:08
Sampling Freq(Hz) 100Hz
Duration Time(s)  300
Dir.              E-W
Scale Factor      3920(gal)/6182761
Max. Acc. (gal)   616.319
Last Correction   2016/04/16 01:25:08
Memo.             
[...]
    -672     -664     -661     -657     -664     -680     -683     -677 
    -691     -713     -711     -702     -696     -687     -690     -704 
    -701     -687     -680     -686     -693     -681     -665     -662 
    -666     -677     -686     -678     -669     -676     -685     -692 
    -693     -685     -677     -679     -681     -678     -683     -691 
    -688     -677     -675     -673     -670     -687     -709     -704 
    -699     -715     -719     -704     -693     -684     -675     -676 
    -678     -665     -659     -680     -702     -698     -692     -693 
    -680     -675     -685     -677     -659     -658     -658     -656 
    -663     -677     -690     -700     -703     -695     -683     -683 
    -692     -690     -682     -688     -698     -696     -697     -697 
    -684     -678     -689     -691     -683     -679     -676     -677 
    -679     -680     -680     -685     -692     -687     -680     -688 
    -694     -689     -685     -680     -669     -670     -680     -679 
    -676     -681     -676     -665     -673     -691     -689     -682 
    -689     -691     -687     -694     -702     -701     -705     -710 
    -699     -682     -679     -685     -688     -683     -677     -674 
    -672     -670     -670     -669     -674     -681     -680     -680 
    -681     -678     -679     -690     -695     -690     -690     -692 
    -689     -693     -698     -687     -673     -681     -691     -686 
    -686     -693     -689     -688     -694     -688     -674     -678 
    -694     -695     -677     -666     -670     -680     -686     -678 
    -671     -679     -693     -695     -688     -688     -695     -692 
    -687     -683     -673     -674     -693     -695     -688     -689 
    -684     -675     -682     -688     -679     -676     -682     -682 
    -675     -677     -681     -683     -689     -689     -685     -693 
    -703     -698     -686     -678     -678     -686     -696     -696 
    -686     -686     -690     -681     -678     -687     -680     -668 
    -681     -695     -685     -677     -684     -680     -673     -683 
    -688     -683     -688     -694     -682     -670     -676     -684 
    -682     -681     -683     -685     -692     -697     -695     -691 
    -691     -689     -683     -682     -685     -681     -681     -685 
    -682     -684     -693     -688     -674     -671     -676     -677 
    -675     -678     -683     -691     -699     -692     -674     -673 
    -686     -688     -680     -676     -675     -675     -682     -689 
    -683     -678     -691     -702     -702     -704     -699     -689 
    -693     -699     -687     -678     -680     -677     -673     -676 
    -675     -672     -679     -680     -668     -670     -687     -691 
    -685     -687     -686     -682     -685     -688     -685     -686 
    -691     -694     -693     -694     -690     -679     -679     -685 
    -684     -684     -688     -688     -688     -690     -690     -685 
    -681     -690     -698     -687     -679     -685     -688     -683 
    -676     -669     -667     -675     -683     -681     -677     -676 
    -676     -683     -691     -686     -680     -686     -693     -687 
    -686     -696     -702     -698     -693     -683     -683     -698 
    -697     -685     -682     -682     -679     -680     -680     -673 
    -668     -680     -696     -693     -681     -682     -683     -678 
    -681     -683     -677     -680     -688     -681     -673     -682 
    -690     -685     -684     -684     -680     -685     -694     -693 
    -689     -691     -691     -689     -693     -691     -682     -685 
    -694     -691     -686     -683     -675     -669     -674     -679 
    -674     -677     -685     -682     -676     -684     -690     -686 
    -686     -689     -687     -683     -686     -689     -689     -695 
    -699     -688     -682     -693     -696     -684     -678     -684 
    -684     -679     -679     -674     -670     -677     -682     -679 
    -682     -685     -686     -691     -696     -692     -689     -693 
    -694     -690     -687     -686     -685     -683     -684     -686 
    -687     -687     -684     -682     -687     -688     -683     -679 
    -680     -683     -683     -679     -680     -682     -684     -686 
    -679     -675     -679     -678     -679     -689     -694     -689 
    -685     -687     -688     -687     -691     -698     -699     -698 
    -693     -684     -682     -684     -680     -674     -678     -683 
    -683     -682     -678     -676     -682     -687     -685     -682 
    -680     -683     -689     -688     -684     -681     -680     -683 
    -689     -690     -691     -694     -692     -684     -681     -682 
    -685     -690     -687     -676     -676     -685     -685     -681 
    -681     -677     -671     -675     -685     -684     -682     -689 
    -692     -686     -684     -687     -687     -688     -695     -697 
    -690     -684     -680     -680     -690     -692     -679     -675 
    -685     -687     -682     -687     -690     -683     -683     -688 
    -689     -688     -684     -679     -680     -688     -689     -683 
    -682     -680     -675     -678     -684     -685     -689     -695 
    -695     -694     -695     -693     -686     -682     -682     -686 
    -691     -691     -685     -680     -679     -680     -681     -680 
    -681     -681     -678     -678     -681     -682     -684     -688 
    -690     -688     -687     -687     -687     -691     -697     -690 
    -681     -683     -686     -682     -683     -685     -684     -689 
    -693     -685     -683     -689     -690     -684     -679     -680 
    -683     -682     -681     -677     -671     -680     -695     -691 
    -684     -684     -679     -682     -690     -688     -682     -683 
    -685     -686     -689     -692     -691     -685     -680     -681 
    -685     -686     -690     -692     -685     -681     -681     -683 
    -687     -688     -680     -679     -683     -684     -690     -692 
    -681     -678     -682     -684     -688     -689     -687     -684 
    -683     -689     -690     -683     -682     -686     -686     -686 
    -682     -674     -676     -688     -689     -677     -676     -684 
    -685     -680     -682     -685     -685     -685     -687     -686 
    -685     -691     -691     -686     -688     -685     -678     -683 
    -692     -691     -688     -689     -687     -680     -681     -683 
    -680     -683     -686     -678     -676     -682     -683     -682 
    -687     -685     -679     -683     -686     -682     -684     -688 
    -686     -689     -694     -689     -682     -683     -687     -687 
    -687     -688     -688     -687     -684     -682     -679     -672 
    -672     -682     -691     -690     -660     -623     -645     -723 
    -751     -669     -628     -807     -990     -777     -296      -86 
    -441    -1248    -1833    -1295       50      540     -460    -1709 
   -1889     -478     1566     1723     -777    -3261    -2309     2024 
    4526     1566    -3881    -7750    -6450      683     4771     1347 
   -2568    -5869    -5012     6496    11828      546    -8819   -10592 
   -5875    10747    16030    -5732   -23640   -18758    -2470    13202 
   12905    -2373   -10257    -4360     7260    11757      189    -9890 
   -8863    -6141     6531    19010     5778   -13368   -15306    -7846 
    4895    13803     4171   -13794   -15034     4051    16595     7050 
   -7838   -15408   -11167     7212    17751     4363   -13465   -15222 
    1858    21787    16642   -11050   -27312   -18846      578    12522 
    2790    -9231     8199    30630    21818    -5480   -29960   -34222 
   -8892    16716    16734    10205    16096    15380   -10227   -36834 
  -38597   -23666    -1190    19398    18779     6225     5417     9192 
     578   -16605   -27739   -26852    -9056    27208    43470    11820 
  -22074   -25611   -14048     7713    19160     1663   -10932      612 
   13041    14116     9953     9993    12321     4596    -9012   -18552 
  -24681   -21050    -8163    -4555    -9652     1286    33124    50622 
   21791   -30262   -52794   -25190    23807    43618    20781    -2260 
     320     2575   -13791   -34226   -44707   -38720   -13003    15181 
   25980    22582     5803   -20707   -30173   -15675     -157     5318 
    1912    -4394     1260    17062    20059     2792   -16144   -17637 
   -6708    -3531   -10437   -15356   -15790   -13944   -14180   -23668 
  -35531   -38046   -33647   -21415     9373    54944    89166    92197 
   79179    78065    95772   114756    99428    42557    -6883   -19583 
  -22846   -42874   -79783  -113187  -116060   -86653   -50645   -38703 
  -60184   -93450  -116692  -115289   -72160       74    59247    79758 
   68423    54105    58858    75327    89940    95720    86085    83452 
  121594   168406   164936   123094    83772    53050    32055    22447 
    3648   -38631   -83457  -103951  -110332  -133129  -174550  -217622 
 -251957  -260047  -224349  -151417   -65584     8214    61175   104562 
  136089   129175    92227    77751    99766   128525   157228   188415 
  209369   213719   195525   148748    80838     5612   -59533  -100591 
 -119128  -124112  -119303  -108930   -99215   -81595   -42673     3551 
   26535    22788    25316    62100   116463   148969   151155   139634 
  124263   115537    97506    24869   -93944  -200241  -253223  -242578 
 -189281  -126769   -85056   -77576   -73980   -59553   -70299  -105445 
 -123794  -112273   -66070    13829    75912    74581    58082   101701 
  172311   187940   160318   122435    64919    14605     1734    13941 
   30317    32570    26095    25094    10743   -28460   -63518   -75349 
  -63874   -20129    35941    53949    23422   -19408   -51021   -82879 
 -121928  -152456  -165997  -155986  -102813   -20115    34870    39498 
   28683    33464    55316    88990   134358   168709   156863   114417 
   83146    65641    43118    13035   -22367   -63409   -83674   -64723 
  -41485   -43156   -75998  -152433  -250683  -309373  -283804  -178426 
  -41816    37948   -28050  -165604  -195789  -167211  -179365  -142495 
 -100445  -126451   -99632   -10683    50874    66610    33123   -21076 
  -34440    28458   136029   228300   290437   329148   331314   298162 
  258128   206424   122666    39861      844     8543    33258    20871 
  -45812  -118381  -158179  -166757  -153019  -114516   -45414    36575 
  104304   129167    85044    13349   -17232    -3442    37418   114801 
  228833   318359   304802   208715   111238    46775     6407   -47626 
 -131703  -177050  -126297   -38522   -10224   -64648  -151098  -211872 
 -229418  -210564  -185358  -198371  -236664  -263559  -270665  -210809 
  -68578    52671    75418    43574    50686   135921   242008   311680 
  349543   362091   358504   375288   412430   433820   443247   443187 
  390629   269453   123267     7955   -59602  -103992  -155676  -245216 
 -390104  -536378  -587199  -533011  -442315  -331934  -206792  -138028 
 -144114  -159401  -151869  -122852  -102946  -119521  -127442  -122027 
 -148748  -199243  -248190  -265122  -227401  -140827   -34219    19370 
    1001    -9893     5871     3042   -17046   -62295  -147549  -223689 
 -248654  -240085  -239720  -270778  -321430  -369068  -395192  -398066 
 -390535  -369354  -320138  -231735  -107692    25486   153727   278702 
  388774   469431   499655   461570   394508   360925   374531   426570 
  485424   483192   398645   263757   106258   -19475   -59077   -63762 
 -123872  -212354  -267523  -304787  -308908  -243046  -154936   -93893 
  -43785    13182    64386    89368    76703    34347     5234    37519 
  126083   231061   332271   415669   476752   550057   630207   654876 
  644056   656560   648556   600927   576277   560992   508439   417956 
  299364   170901    32826   -99217  -188489  -249972  -322708  -418688 
 -483802  -460100  -413609  -416356  -427287  -400515  -348405  -321831 
 -321574  -251328   -98701    15977    69548   130794   176343   182151 
  198079   231877   240372   204831   177720   216006   295897   372592 
  417474   416947   396062   369886   332764   296169   262853   235514 
  216573   164385    42481  -100682  -163957  -125189   -62878   -18718 
   24662    58516    62077    43382    24425    12597     3628    23394 
   91653   150279   157841   177090   236672   279709   303577   320657 
  300970   283245   312410   349542   357994   320847   240005   160439 
  107896    59234    -3601   -59919  -106754  -180093  -266004  -334618 
 -395615  -420416  -393780  -363743  -355705  -382033  -434385  -436775 
 -338833  -189710   -56245    70833   178039   130215   -53516  -157439 
 -203578  -264825  -195589   -49437    37409   122785   184237   187200 
  188293   181306   149448   113781    89396    68947    45858    38559 
   42835    21860   -40294  -112007  -139779  -139713  -187404  -274906 
 -344773  -408773  -477204  -510719  -502456  -494641  -523296  -577263 
 -610136  -595056  -527357  -399344  -224974   -56375    69868   179921 
  289899   373635   456498   539450   521498   412591   328513   269013 
  229655   257104   320070   381902   434322   492782   547670   521041 
  496790   565530   599210   586119   588669   556913   496931   419190 
  300984   175854    59533   -58403  -153817  -221704  -264498  -243652 
 -189460  -172445  -129166     4415   152153   269499   384185   501746 
  617633   707124   728498   686454   645004   630740   559355   374717 
  146845   -88018  -383880  -732561  -973129  -921010  -667854  -501057 
 -448643  -386578  -349084  -282666  -146743   -93968   -55932   109670 
  335014   407796    71388  -309868  -268205  -285175  -502558  -460055 
 -415280  -528490  -573978  -653560  -722937  -703357  -702323  -711488 
 -711061  -710987  -703508  -689623  -685937  -703513  -705290  -637964 
 -476675  -246142     2063   227030   380953   443532   447939   403421 
  330946   292237   263125   208094   163112    95144   -10325   -76420 
 -117539  -175069  -210362  -228546  -256263  -263764  -246737  -228789 
 -206108  -176219  -149904  -143357  -163402  -200984  -252126  -307937 
 -356358  -392739  -406142  -379947  -310055  -234077  -201807  -196495 
 -170758  -134664  -109712   -87486   -83382  -106977  -114145   -82082 
  -50698   -33870    20340   142767   257973   208372    16232    -2691 
  186174   245015   231491   313210   332017   346566   426655   454159 
  477896   524852   578614   611196   504138   317780   182251    54918 
  -81856  -194041  -291441  -345509  -332983  -274902  -183200   -79791 
   21192   122288   215905   301732   366931   389892   387565   371881 
  331835   282576   232687   176776   128755    98284   100546   124421 
  119356   111332   135182   136984   118937   119560   130826   182928 
  247086   236717   227076   285696   313133   296144   278712   220420 
  131947    40875   -63585  -157168  -223223  -269896  -299064  -315268 
 -314908  -279513  -203355  -111926   -43399   -20343   -37820   -77088 
 -127563  -178275  -216876  -249493  -283760  -317936  -348721  -361749 
 -358714  -365676  -386755  -403443  -392326  -340433  -263367  -185774 
 -114743   -31962    73022   174724   248684   301305   344632   370373 
  375956   379244   385244   383865   362867   308217   222560   126353 
   38174   -35315   -99797  -164838  -234308  -296631  -330077  -323864 
 -289931  -264454  -277461  -313144  -339332  -349281  -338294  -302494 
 -271127  -265155  -252129  -201821  -133485   -78427   -41405   -13994 
    -944    -8805   -30143   -54095   -70163   -72760   -64759   -49064 
  -29109    -8536    10509    22468    27156    37148    60348    90914 
  122998   156169   188977   220555   253354   282232   290111   266614 
  219242   160695    95921    19781   -69799  -157644  -226648  -274172 
 -305907  -330630  -351778  -358346  -333446  -272036  -190218  -116486 
  -66714   -23071    31656    71509    79088    75427    64402    45641 
   42329    57889    75943    90735   101167   104538   106327   115511 
  129992   146376   161067   161947   142522   109642    73979    36910 
   -7363   -54924   -92592  -111202  -108705   -90490   -67168   -43564 
  -16581    13286    38843    55914    66760    75699    84569    90584 
   90148    78619    54018    28933    16473     8485    -7454   -26327 
  -37076   -34814   -16200    16428    45433    55752    59271    72190 
   86352    89462    80785    60867    34254    14106     8133     6623 
     863      119    12691    33168    53607    70166    80464    81960 
   78871    81357    91597   103033   109430   111647   117254   126658 
  129847   119960   100801    82686    72284    69715    71782    70513 
   59585    44085    31028    19501     9782     4792    -2034   -19300 
  -41842   -60454   -71707   -70808   -54910   -30479    -5641    15566 
   27902    31010    36259    47199    54192    56727    62698    75358 
   95887   122184   144886   153616   144933   125870   109235   101328 
   94383    77162    53854    38655    36562    43005    48603    41098 
   16006   -20067   -59669   -97216  -126075  -143215  -150522  -149399 
 -138674  -114979   -78331   -38822    -9382     8483    23764    39931 
   51926    58044    58500    49628    30064     2970   -27664   -57327 
  -78654   -83149   -70334   -49441   -31217   -19867    -8759     9358 
   31383    51254    66823    76792    79840    79522    84964    96949 
  102094    91240    69380    46100    27673    14274     1811   -12537 
  -26138   -34423   -42342   -60825   -90575  -123493  -152561  -173174 
 -185604  -194640  -199453  -193462  -175393  -149319  -121454   -98854 
  -79112   -50931   -12170    25820    49236    51580    42973    44678 
   65675    95239   119493   131590   130692   125404   127791   135294 
  132447   111805    80062    48536    28025    21667    16634    -5584 
  -46127   -85293  -108200  -118680  -125116  -130884  -131179  -114787 
  -80115   -39752   -10547    -1599    -2378     3267    14986    22611 
   21048    13589     4710    -5773   -19330   -36750   -53917   -64040 
  -71241   -82850   -93177   -94986   -91150   -83915   -74135   -71885 
  -85651  -107241  -121903  -125419  -124794  -130092  -143941  -151424 
 -132345   -86717   -39256   -17044   -17337   -13337     1719    13903 
   19861    17768    -1268   -32200   -56063   -63244   -63910   -72798 
  -91214  -110792  -122952  -119243   -97074   -69599   -54154   -51914 
  -50661   -41820   -30923   -29363   -39231   -54020   -65167   -65511 
  -55057   -41517   -31619   -24351   -14364      889    18115    31626 
   40431    48350    58385    70861    83117    90955    92251    87232 
   77470    66094    56469    47539    33767    13811    -8100   -29693 
  -50717   -68562   -80315   -85849   -83509   -68091   -41361   -17706 
   -8578    -8915    -7648    -1510     8232    21241    34443    44186 
   53195    66442    83179    97231   105055   111290   121167   131408 
  135102   129571   116806   103399    96823    96504    94776    87284 
   76860    68457    64711    64521    62079    52518    39887    31750 
   29407    31177    38048    48042    52221    45334    33611    23783 
   15328     6106    -6567   -25079   -46502   -61782   -61884   -49312 
  -36777   -32252   -33747   -36282   -38184   -38132   -31772   -18038 
   -2294     9534    15694    17733    14273     2050   -15067   -29779 
