Origin Time       2016/04/16 01:25:00
Lat.              32.753
Long.             130.762
Depth. (km)       12
Mag.              7.3
Station Code      KMM009
Station Lat.      32.6858
Station Long.     130.9856
Station Height(m) 443
Record Time       2016/04/16 01:25:10
Sampling Freq(Hz) 100Hz
Duration Time(s)  300
Dir.              N-S
Scale Factor      3920(gal)/6182761
Max. Acc. (gal)   776.545
Last Correction   2016/04/16 01:25:10
Memo.             
[...]
    4911     4914     4892     4865     4877     4908     4903     4886 
    4905     4930     4922     4901     4897     4898     4894     4896 
    4899     4901     4910     4909     4894     4895     4906     4903 
    4892     4892     4904     4913     4908     4899     4896     4903 
    4912     4913     4909     4902     4892     4879     4874     4895 
    4917     4920     4918     4914     4910     4908     4892     4878 
    4887     4890     4891     4909     4925     4919     4905     4904 
    4909     4898     4879     4882     4897     4904     4909     4915 
    4920     4912     4888     4883     4905     4915     4900     4887 
    4894     4916     4922     4902     4892     4891     4887     4895 
    4913     4919     4914     4904     4896     4902     4909     4899 
    4883     4885     4895     4901     4912     4909     4888     4892 
    4920     4928     4912     4896     4892     4892     4900     4914 
    4915     4899     4890     4902     4910     4894     4873     4875 
    4906     4935     4933     4917     4905     4891     4885     4892 
    4894     4890     4896     4913     4924     4921     4912     4901 
    4889     4885     4886     4887     4901     4914     4910     4908 
    4914     4906     4885     4883     4906     4918     4905     4898 
    4901     4903     4903     4901     4903     4903     4898     4901 
    4904     4893     4890     4901     4909     4915     4914     4900 
    4893     4898     4893     4889     4899     4907     4911     4914 
    4900     4884     4892     4905     4898     4899     4917     4920 
    4907     4904     4899     4895     4900     4898     4887     4892 
    4904     4908     4916     4919     4905     4890     4887     4893 
    4904     4912     4905     4886     4890     4921     4921     4891 
    4886     4900     4904     4905     4902     4894     4898     4907 
    4912     4917     4912     4900     4896     4895     4890     4893 
    4899     4903     4907     4905     4896     4898     4905     4904 
    4904     4903     4894     4894     4909     4921     4915     4899 
    4896     4896     4888     4893     4901     4896     4895     4905 
    4912     4912     4905     4902     4906     4911     4917     4910 
    4888     4878     4889     4902     4907     4904     4903     4910 
    4912     4908     4909     4902     4893     4893     4895     4900 
    4906     4903     4897     4898     4906     4906     4896     4894 
    4906     4913     4910     4911     4912     4909     4901     4888 
    4886     4896     4898     4896     4904     4913     4913     4909 
    4909     4907     4902     4897     4894     4894     4896     4895 
    4894     4901     4914     4925     4919     4899     4889     4894 
    4897     4890     4886     4891     4904     4920     4930     4923 
    4908     4894     4880     4877     4884     4891     4903     4924 
    4934     4924     4908     4897     4888     4880     4880     4892 
    4903     4906     4912     4925     4921     4901     4899     4908 
    4900     4887     4886     4889     4893     4904     4916     4923 
    4924     4912     4890     4880     4881     4883     4893     4909 
    4915     4911     4914     4923     4924     4914     4894     4875 
    4877     4890     4889     4891     4905     4919     4926     4925 
    4916     4903     4888     4882     4883     4887     4899     4908 
    4904     4906     4916     4916     4901     4888     4885     4891 
    4903     4911     4913     4916     4913     4903     4900     4898 
    4892     4888     4891     4902     4909     4905     4909     4915 
    4905     4897     4901     4897     4895     4902     4900     4897 
    4900     4897     4900     4912     4911     4902     4902     4906 
    4904     4899     4895     4899     4905     4903     4901     4902 
    4901     4900     4903     4900     4894     4895     4905     4914 
    4910     4900     4897     4900     4907     4909     4901     4897 
    4905     4910     4906     4900     4894     4891     4896     4899 
    4898     4904     4913     4911     4902     4901     4902     4892 
    4883     4883     4884     4880     4860     4811     4754     4713 
    4655     4501     4276     4123     4061     3946     3756     3619 
    3450     2986     2457     2568     3587     4902     5700     6048 
    6404     6041     3799      842     -130     1063     2882     5606 
    9665    12891    12882    11041     9368     6589     2369    -1398 
   -1104     3706     5577     4619     9008    15156    16100    13550 
    9845     7060     6120      331   -10498   -12199    -2862     5765 
   11526    17089    21075    20725    16487     7687    -8624   -22332 
  -21421   -10020     4211    14257    13106     7847     9039    10255 
    7719     6106     2535     -430     1397      815    -4919    -8559 
   -8281    -6309     2716    17263    29588    37639    33846    17847 
    3080    -9715   -22118   -22488   -12983    -2960    10381    24381 
   33299    37861    34974    18616    -3006   -18027   -27110   -26320 
  -18401   -13367    -3554    11964    21471    29277    39777    35070 
   12947    -1982   -10387   -22517   -26797   -22232   -12857     4898 
   23469    33109    29440    20126    18550    13325    -2878   -10972 
   -9162    -8583    -3728     3441     3531     4945     7587     4360 
    6947    11919     4745    -2507     1448     4653     2018      958 
    1341     5310    14906    18038     9487     4511     8678    10952 
   16179    19649     2806   -14415   -14095    -8390     4268    16684 
   10897     -281     2145    17563    29494    26407    21813    15822 
   -4476   -16584    -2994     9767     6260    -1071    -6997    -2890 
   18346    35041    22619   -10259   -30358   -26095   -13421    -2544 
    2692     7518    19896    29859    25462     6178   -14784   -17697 
   -7447    -1060     3839    11358    15382    16318    23300    31002 
   24796    15803    12717     3033     1938    22190    36428    36018 
   34600    24409    -1082   -25588   -43697   -62292   -63700   -37344 
   -4955    23319    43524    50123    48301    25921   -16487   -41959 
  -33865   -20896   -25737   -22276    -5629     5769    31641    53176 
   42025    37622    49975    46207    27943    12362    -6778   -27677 
  -34294   -37967   -39362   -15958    23144    50442    55506    49848 
   42258    23225   -10084   -43870   -54168   -32074    -4517    13087 
   31734    41729    35383    31100    32014    26862    10762   -18693 
  -39783   -28064    -7963     -382    -2873   -23270   -42398   -41525 
  -20712    25942    56878    40082    28793    41224    30533    13691 
   25641    31157    19716    13500     1937   -12805   -13918    -2992 
    9962     9539    -2616   -15087   -30269   -29380    -1117    21723 
   27847    24478     7245    -3228    -7042   -27888   -31266   -10507 
   -5396    13191    36317     9194    -2011    40582    52540    35729 
   41914    37852    19959    27489    32599     9965    -7987   -24286 
  -52863   -54187   -30118   -23714   -14755    19987    42769    45247 
   55753    50754    16759    -6060   -13923   -18625   -15001   -19685 
  -41397   -52671   -29528      159     7553    21206    50353    52059 
   20451    -4710   -18275   -35859   -57983   -70951   -38903    31754 
   84719    88050    41647   -15636   -40848   -47764   -45392   -20205 
   -8462    -4769    55892   118368   125019   126006    95879    14244 
  -59089  -107080  -108511   -66330   -40245   -21859    42041   131195 
  179418   187188   166465    87332   -10467   -70177   -77732   -29247 
     494   -24831   -28956   -12490   -27349   -58104   -78942   -87024 
  -74326   -35939     4540    34432    70985   100849   101207    99762 
  114494   123194   112758    56695   -47849  -135213  -168433  -140998 
  -65157   -10615     3110    17989    25770     5467    -5613    11364 
  -15156   -98796  -113803   -27460    40362    59227    83294   101927 
  103242    95402    59156    10258    -5834     7349    23324    39322 
   41937    33878    60474    74546     1129   -76321   -98612  -116215 
 -126494  -123571  -107503   -52771     4603    51222   107638   103324 
   20372   -35297   -43881   -58241   -51535   -17509   -18894   -23521 
   49836   155408   199925   171236    95514     9420   -22522      810 
  -35616  -174769  -278166  -260478  -193038  -108705    -9298    40839 
   35561    46995    87746   117481   149374   173704   118592    56063 
   94227   118726     9138  -151213  -205541  -138764   -87743   -54576 
   71517   212460   244690   230087   232477   219510   191423   143369 
   59395   -21166  -108430  -219402  -270838  -239952  -186347   -96987 
   38307   145722   183375   162621    80873   -41776  -158521  -227119 
 -219561  -166018  -124001  -111174   -90450   -23429    65882   143386 
  175848   135664    77155    46248     2507   -70553  -137267  -190917 
 -223607  -186872   -84292    52273   207585   281581   217606   150328 
  177076   223764   206062   113805   -20305  -140797  -203781  -197274 
 -131933   -37241    80226   214506   277929   211970    84010   -45779 
 -168956  -260611  -278771  -190709   -63695   -26547   -43115    -3124 
   69588   134967   181994   160767    25627  -196145  -358433  -357456 
 -261992  -168619  -122964  -104086   -81637   -89056   -75677     6319 
   54729    62578   109376   183189   269385   334313   322759   243609 
  122717     -222  -100770  -164498  -119568    -1746    69195   110736 
  150057   154852   142562   100598   -34300  -271777  -529986  -683339 
 -694571  -611663  -437894  -179464    96299   331090   474579   517327 
  511448   442373   284934   100940  -113218  -383539  -578922  -603801 
 -561357  -496863  -308472   -16114   237266   401765   486871   488310 
  451072   450084   457415   349893   153081    70643   153513   212089 
  120452   -43345  -200946  -355003  -448724  -412893  -280915  -111531 
   51129   160262   231611   316528   383599   362616   251540    93841 
  -75983  -256570  -444367  -585982  -616048  -497323  -263636   -26135 
  116006   128235    89718   152659   303520   377857   359925   316740 
  196531    16260  -117083  -233597  -340498  -313128  -192354  -143851 
 -154661  -160607  -179908  -169980   -91268    12651   109203   171860 
  212407   301070   396801   358033   193563    72808    50655    43437 
   81415   209010   279367   199921    83367    19373   -54727  -210356 
 -363719  -387637  -281138  -162580  -164541  -236554  -246925  -236470 
 -207210   -58297   152681   343776   540613   716817   810132   809798 
  736322   605482   391498    42342  -421714  -808418  -922961  -854145 
 -772265  -652058  -506338  -443277  -399393  -261292   -70858   119484 
  281135   350671   354133   382209   439024   478820   487824   433325 
  257033    37846   -70494   -94708  -110022  -111043  -164197  -291997 
 -371628  -335965  -239414  -154255  -106237   -82704   -60786   -13715 
   67270   144419   176454   159246    81418   -25672   -67331   -55364 
  -68626   -96732  -112819   -90248   -10588    31045   -24060   -73104 
  -82073  -135949  -192639  -133322   -12322     9575   -81342  -147159 
 -160256  -215430  -277134  -242323  -107132    78028   250063   402054 
  559858   673868   704545   657222   518128   311812    78817  -173825 
 -389423  -484004  -445702  -375068  -394811  -450746  -451498  -429813 
 -336611  -154589   -19680    52146    98508   100119   101810   106809 
   82902    69348    66961    49911    61671   134769   212101   229064 
  186118   102100     1811   -75025   -99558   -87136  -107501  -162792 
 -176994  -170267  -178512  -146407   -75522    -2825   104715   260219 
  397256   439345   405327   372889   321555   171715   -46797  -231233 
 -368086  -453534  -394549  -218939   -59799    65246   139677   121323 
   71449    20211   -56834  -100107   -67012   -14024    35855   114950 
  183394   180469   152884   138685    73951   -76108  -252372  -378864 
 -410967  -325612  -155245    -2798    62352    53882    14912   -17238 
  -31523   -27474   -31115  -102820  -203272  -251552  -311383  -419439 
 -446744  -281745    10155   209661   247514   268385   248140   117124 
   27733    18103   -36984  -110766  -123485  -108723   -91922   -43519 
   40326   151918   274590   356647   346372   207175   -19003  -209115 
 -305232  -330106  -296912  -203879  -105310   -67988   -13221   141085 
  309663   450641   614417   787739   934780  1012167   922310   637648 
  300486    15777  -255124  -465866  -553762  -597109  -659158  -766705 
 -858705  -789875  -571909  -286679    61725   436722   680911   648960 
  468401   308774   146857    76064   165612   233007   199790   113920 
   11766    -9290    31035   -14320  -158238  -308294  -418924  -462894 
 -419121  -313559  -130490   166767   496724   754203   910839   946811 
  859625   697661   509764   322321   139157   -42643  -236567  -481435 
 -695765  -736464  -692476  -683468  -595617  -394053  -188764    81435 
  451242   734292   875972   948144   895447   737490   616568   528723 
  415799   310548   152440  -164382  -524696  -690364  -609158  -459082 
 -376322  -292314  -160779   -73851   -74339  -160969  -328266  -455812 
 -449397  -375383  -278713  -143820   -16570    53622    98906   172968 
  254381   318273   449052   650115   727535   587069   365403   187948 
   26697  -182690  -411952  -581701  -663724  -720355  -806530  -831082 
 -703431  -498873  -250833   108004   495352   761991   898608   940138 
  971032  1109904  1229962  1081120   711675   326931   -97618  -639382 
-1027264  -982470  -781103  -754491  -707452  -469535  -253120  -127076 
   25461   114040    77568    70607   179169   353628   509578   595547 
  601011   478045   232473    -5744  -162021  -271280  -376703  -480720 
 -497288  -392356  -317934  -316502  -245515  -124515   -37819   108021 
  344925   537606   603759   543533   393741   247502   156957    94659 
   40097   -32707  -162906  -298244  -332221  -286857  -264326  -234689 
 -119027    16678    96083   158244   197763   146802    57694    53364 
  131849   193455   172767    74698   -24663   -71564  -117255  -180593 
 -218278  -236227  -231245  -198494  -175120  -143737   -67442    33933 
  145922   274547   405524   519306   608496   653594   610220   448056 
  197027   -87824  -360354  -549272  -618999  -614125  -543796  -402588 
 -264364  -144231     2026    91125   102955   191771   352956   468368 
  549681   590719   521380   353117   163733   -16136  -191754  -301998 
 -308503  -287827  -272216  -198371   -77344   -15913   -44192   -77296 
  -42741    55407   151002   195468   205261   166504    50652   -71540 
 -110370   -71551   -13942    34183    82392   113030    88786    25158 
  -35112   -77613   -95162   -61573    32294   134163   184062   196586 
  211872   200554   106267   -51632  -204443  -323901  -404330  -413638 
 -346524  -269747  -241563  -221404  -141045   -21438    92998   185824 
  225772   222436   201301   174003   197995   266445   282543   206324 
   69900   -57663  -114420  -116261  -119957  -142884  -144519   -92722 
  -44636   -55470   -91828  -130119  -178456  -213390  -191296   -85117 
   56143   152909   218068   256967   217492   146683   126140   139487 
  133523    77726   -21417  -137300  -252591  -339583  -363641  -336166 
 -301158  -267869  -234072  -213127  -169642   -54267    90535   186188 
  212381   194317   186704   237138   323412   378839   360677   276112 
  176654   107864    56427   -12357  -105787  -211667  -306128  -378117 
 -428388  -420578  -314089  -145124    12102   140687   234833   245804 
  195333   185656   240837   289996   292588   263620   192544    70439 
  -53588  -140873  -173808  -143877  -107611  -122269  -159430  -176425 
 -176896  -165837  -133047   -74797     9371    80416    67570    -1365 
  -16533    37729    96619   161146   252304   300032   257873   189945 
  128714    45319   -46550  -119813  -180504  -228402  -257452  -277734 
 -281983  -226193   -78017   137823   342848   432328   366344   239807 
  153523    92886    40667    37901    46831   -13384   -99273  -151014 
 -197017  -218823  -172714  -115918  -104782   -95694   -68449   -69706 
  -76458   -29522    39046    84254   118147   144487   154355   157711 
  159984   150406   115935    46711   -55900  -170402  -254845  -278464 
 -252237  -191044  -102985   -21566    36365    95150   163990   211367 
  207144   182832   191953   208159   183659   144228   115713    74265 
   -3577  -115345  -226948  -307041  -357192  -368431  -328201  -248605 
 -138057   -19725    71242   134911   186045   224950   238047   214263 
  161734    91789    15682   -52481  -107969  -134661  -108610   -46531 
   10257    35962    28220    10930    -1980   -14806   -21280   -28574 
  -55146   -91791  -109271   -87760   -33620    29005    84762   130027 
  155463   165346   185073   210760   220672   205414   129085   -16106 
 -145826  -197219  -189440  -159433  -141576  -149276  -175012  -205597 
 -197700  -118205     8425   134071   211458   214589   179159   174392 
  193196   148204    25650   -87166  -139898  -150537  -124142   -51333 
   18337    16107   -39287   -76073   -61584   -12520    37312    66338 
   69171    57496    60218    84091   108488   131991   154596   149666 
  116641    83462    46535    -3399   -50555   -94706  -150475  -219409 
 -281016  -292649  -237173  -145222   -41705    67568   159147   207812 
  230267   262013   300070   291680   205420   101253    36814   -35453 
 -162941  -292192  -344877  -309766  -249161  -221192  -201166  -154740 
  -91743     9543   152539   272166   342473   382015   388819   353799 
  279811   199264   141346    67952   -67955  -229842  -343048  -390483 
 -400641  -364530  -239308   -60660    66910   117152   114471    74868 
   68471   114935   127331    82609    33629      669   -28979   -59946 
  -71498   -64496   -84471  -130603  -139343   -96872   -42346    17595 
   82803   120639   122067   111462    92100    60938    39027    35560 
   47260    86619   144068   171604   134943    54302    -2876    -9884 
  -25827   -75160  -112203  -122982  -119168  -105724   -88469   -55689 
  -13380     6639    23203    83486   169610   224430   220413   155572 
   58045   -28523   -96768  -146874  -169810  -185249  -202213  -192271 
 -141126   -53820    59839   160151   208649   223710   234449   221382 
  163611    97964    62492    24391   -45218   -93505   -74254   -27978 
  -11228   -12980     9230    47569    59867    36629   -10829   -75079 
 -130108  -151626  -150602  -147924  -138355   -97204   -29503    38787 
  112957   183847   209901   199206   179272   116461    -8362  -129788 
 -192544  -218129  -227624  -196131  -117062   -22321    74641   164770 
  205347   200828   224353   286740   330853   324162   252282   129309 
    8245   -78101  -124913  -141544  -158433  -186521  -206872  -222239 
 -234615  -201748  -106069     2517    89746   162268   203079   191327 
  148756   108669    88558    84948    83426    72224    29448   -40000 
  -82976   -80418   -70947   -81227   -95563   -90987   -72657   -50270 
  -18662    23301    69049    99939    97564    67165    21203   -21758 
  -38145   -37686   -46353   -64799   -86404  -111905  -130136  -113557 
  -56407    11512    73297   117447   117997    91505    74725    55393 
   15759   -25655   -48381   -49492   -42120   -51618   -79996   -88554 
