Origin Time       2016/04/16 01:25:00
Lat.              32.753
Long.             130.762
Depth. (km)       12
Mag.              7.3
Station Code      KMM002
Station Lat.      33.0185
Station Long.     130.6846
Station Height(m) 30
Record Time       2016/04/16 01:25:11
Sampling Freq(Hz) 100Hz
Duration Time(s)  300
Dir.              E-W
Scale Factor      3920(gal)/6182761
Max. Acc. (gal)   190.266
Last Correction   2016/04/16 01:25:11
Memo.             
[...]
   14563    14562    14569    14573    14575    14586    14587    14574 
   14567    14571    14579    14581    14561    14542    14561    14586 
   14584    14585    14587    14571    14564    14568    14569    14577 
   14582    14580    14584    14580    14564    14553    14556    14570 
   14580    14577    14571    14567    14570    14581    14590    14589 
   14577    14564    14560    14565    14577    14580    14580    14577 
   14560    14555    14567    14574    14583    14586    14584    14586 
   14561    14546    14569    14565    14570    14609    14593    14560 
   14570    14562    14547    14568    14586    14591    14594    14582 
   14572    14569    14569    14575    14577    14581    14584    14574 
   14565    14560    14558    14569    14581    14586    14579    14566 
   14571    14573    14563    14572    14576    14567    14576    14579 
   14572    14584    14588    14576    14570    14567    14565    14561 
   14573    14589    14571    14555    14571    14573    14569    14578 
   14581    14583    14580    14577    14581    14574    14564    14571 
   14582    14577    14563    14560    14569    14575    14580    14589 
   14583    14569    14563    14560    14572    14591    14581    14564 
   14562    14565    14570    14574    14579    14581    14575    14564 
   14563    14574    14575    14566    14583    14596    14572    14567 
   14580    14562    14559    14588    14592    14582    14582    14566 
   14556    14580    14600    14584    14562    14576    14576    14546 
   14564    14588    14560    14569    14603    14576    14553    14579 
   14581    14560    14576    14593    14573    14568    14582    14571 
   14558    14572    14578    14568    14570    14574    14566    14567 
   14579    14585    14578    14573    14572    14560    14561    14589 
   14595    14575    14569    14567    14558    14564    14576    14575 
   14578    14585    14581    14581    14587    14580    14572    14571 
   14573    14574    14573    14573    14575    14573    14569    14572 
   14579    14571    14559    14565    14574    14569    14575    14583 
   14577    14580    14579    14565    14570    14573    14556    14560 
   14573    14565    14571    14581    14578    14590    14587    14572 
   14576    14573    14571    14578    14575    14579    14577    14571 
   14588    14588    14560    14561    14575    14567    14570    14581 
   14574    14571    14577    14578    14568    14572    14588    14568 
   14552    14583    14589    14565    14575    14580    14572    14587 
   14582    14562    14566    14571    14571    14572    14562    14568 
   14582    14570    14570    14583    14578    14582    14585    14572 
   14566    14566    14571    14577    14570    14571    14575    14563 
   14574    14598    14586    14570    14576    14575    14570    14572 
   14571    14566    14570    14578    14567    14551    14565    14590 
   14592    14581    14572    14556    14549    14569    14586    14586 
   14591    14592    14575    14557    14551    14556    14576    14588 
   14582    14571    14572    14575    14571    14571    14574    14573 
   14577    14584    14584    14578    14564    14562    14579    14568 
   14553    14578    14594    14586    14583    14570    14562    14566 
   14569    14576    14573    14575    14587    14573    14560    14570 
   14564    14564    14575    14571    14575    14581    14570    14571 
   14574    14572    14576    14573    14568    14574    14572    14570 
   14579    14577    14566    14578    14590    14583    14581    14578 
   14564    14560    14571    14576    14569    14575    14579    14569 
   14579    14587    14571    14561    14565    14572    14577    14580 
   14581    14575    14568    14572    14571    14564    14570    14578 
   14574    14572    14580    14580    14564    14561    14578    14583 
   14577    14577    14570    14567    14574    14574    14578    14582 
   14573    14572    14573    14566    14571    14577    14579    14584 
   14579    14569    14571    14573    14570    14573    14579    14579 
   14574    14572    14574    14570    14570    14578    14575    14572 
   14579    14578    14566    14564    14567    14566    14572    14579 
   14577    14581    14592    14586    14577    14576    14576    14579 
   14585    14615    14674    14698    14623    14444    14281    14373 
   14793    15241    15269    14789    14280    14314    14830    15115 
   14678    13917    13626    14090    14829    15119    14849    14725 
   15315    16108    15969    14540    12916    12521    13444    14456 
   14549    13807    13027    12998    13925    15363    16479    16579 
   15702    14688    14454    14766    14405    12884    11032    10226 
   11546    14306    15154    11755     8097    10842    19076    24440 
   22877    18550    15819    14203    11621     9362    10271    13370 
   15621    15595    13430    10395     8066     8168    11474    16243 
   20113    21748    20449    17083    15506    18860    23522    23064 
   18118    14830    14890    14243    10861     7740     7219     7734 
    8634    12361    18868    23154    22161    19959    20773    22931 
   24328    25666    25577    18995     5430    -5791    -6416      -96 
    4126     4901     8407    15678    19624    16540    12547    15446 
   24015    30300    30532    27965    25545    21447    13513     3369 
   -4529    -5805     -153     8572    16302    19146    14851     8224 
    7981    16123    25859    30286    29246    25564    19434    12125 
    9507    13405    15045     7330    -2796    -3287     6032    14197 
   16759    18913    22271    23240    20119    16077    14825    14070 
   12232    13779    18619    21069    21179    23511    25502    18409 
    4039    -2824     2963     8816     8246    12363    25551    31266 
   18541     2947     1687     7002     5545     4065    14964    31564 
   36712    29695    26102    31484    31740    15410    -5947   -12760 
   -4095     5983    10249    12553    14116     9943     1816      467 
   10984    27795    43447    53383    54469    45257    27607     6469 
  -10856   -17940   -14808    -8040    -5303    -7637    -7602     -238 
   11546    23309    30939    29874    20649    13293    16599    26723 
   36146    42603    43529    32982     9431   -15042   -24917   -21915 
  -19021   -18388    -8210    20154    53214    64179    47289    24025 
   13930    16495    20079    20944    22125    17908     3726    -9807 
  -10682     -428     7189     1095   -10530    -8502    12551    37334 
   48575    44551    32976    21166    16793    21463    24773    17289 
    3459    -5992    -7958    -5525     1267    11901    20183    22187 
   21774    25699    34191    37546    28566    14287     7053     7635 
    7197      -11   -14200   -27583   -26196    -4464    25850    44841 
   46280    39795    30360    16369     5494    12401    31465    33775 
   10898    -9716    -9982    -5429    -7578    -3191    12072    23458 
   24528    23335    26674    30393    26835    18404    15160    18974 
   20501    16345    14744    16316    10243     -539    -1424     1743 
   -5665    -9443    14775    55394    75688    62646    36803    20113 
   13473     6507    -6137   -25452   -44412   -44452   -20263     8252 
   25175    35805    48082    58646    61612    55756    41381    18009 
   -8412   -20361   -12861    -7795   -16997   -25377   -22802   -11727 
   10647    40712    53197    33939     7630     2605    17334    38897 
   60447    64072    25968   -38574   -81458   -81301   -52676   -13466 
   20368    30911    17347     5312    21131    62284    97427    94520 
   50935    -2772   -26653   -10980     8386     5950     3511    11185 
    4863   -19316   -37726   -34047   -10563    20561    52750    79403 
   85637    76243    71701    64693    40003     9382   -18098   -44831 
  -62059   -59957   -35671     1834    24818    15600   -11338   -27563 
  -18682    10299    54791   105924   129262    97200    36863    -5918 
  -24236   -28120   -21699   -15339   -21195   -45105   -57989    -9203 
   70033    91979    61271    40116    33097    18296    -8016   -21863 
    9258    53568    54339    27313    15344    14492    -4744   -49586 
  -94126  -112084  -106561   -90619   -59237    -4686    51517    74526 
   65965    56110    57633    61803    52189    14799   -41250   -80882 
  -74958   -30532    24753    69559    80446    42871   -14445   -41529 
  -16724    43293   102355   124328    93867    42845    17870    12235 
    -781    -9098     3718    34994    75699    98667    79218    24479 
  -34037   -46093     6217    80260   128900   112287    36450   -24696 
  -52279   -66827   -33900    39371    78930    39507   -57489  -122078 
 -107314   -71549   -37338    25825   100038   146430   144850   100106 
   44856   -11120   -71499   -91967   -32760    65034   115645    79776 
    1932   -67798  -124370  -138411   -83798   -10824    29271    30121 
   21104    41488    47993    -5997   -57813   -67050   -53226    -9268 
   43531    65415    70612    59277    17189   -12791     1087    29566 
   31795    -8778   -50022   -36899     4446    35183    70755    88562 
   34762   -56186   -92387   -49906    20758    73022    86844    62610 
   35383    39150    61740    71182    46278   -18656  -106568  -175887 
 -178779  -110811   -22486    54744   129733   192407   215599   185957 
  105677     9562   -50284   -66367   -66713   -51210   -21766   -11590 
  -18307   -27264   -55932   -84332   -72530   -36026    -6815     6723 
    3837    -6913   -15080   -18237    -8837     9296    22693    38058 
   57157    66248    62652    47785    25792     8933       34   -10086 
  -33309   -68288   -82448   -44944    30122   109134   181501   248198 
  291736   287936   237823   168162   100676    35215   -29600   -90921 
 -148266  -170354  -116151   -28541    -1393   -31046   -21123    59555 
  152009   209129   213916   175430   126181    67601     3510   -19836 
   -3897    -3551   -19065    -6200    34663    57167    38564     9699 
    4166    17803    32819    46078    57545    53102    30124    10994 
   17902    49595    64853    27926   -30276   -65208   -76968   -69881 
  -46609   -47362   -99795  -155219  -154267  -108291   -54417     6945 
   78407   124961   113310    61409    17551    -2255   -26852   -66120 
  -88537   -84372   -85339  -100228   -87968   -41310   -16452   -17851 
     271    32079    73891   144931   208219   214197   162596    92673 
   55059    49019    32694     1428   -32597   -80132  -127581  -137175 
 -109106   -66517    -8126    70609   137597   146952   102357    54124 
   29180    23383    44770    88661   109746    88811    72551   102444 
  148344   150767   119847   114972   131048   117953    76656    48769 
   46623    35138    -9993   -55722   -60837   -41527   -39527   -45238 
  -21878    15165    29844    33725    49619    67227    78042    91835 
  102775    92799    62041    20384   -30317   -85231  -130949  -168163 
 -209030  -231787  -197258  -120387   -48503     3830    43458    71736 
   80510    69421    73732   115791   154132   149097   118318    96896 
   89355    79297    77856   111471   156685   149033    64382   -35191 
  -75459   -68394   -59961   -42080    10960    87373   156632   201117 
  213648   188172   133843    87534    71301    60514    31372   -15423 
  -56399   -42665     9677     2393   -65504   -87497   -53229   -30623 
  -23756   -19724   -30414   -49442   -60875   -45093     3833    55904 
  102260   170231   251803   299120   286687   225084   145695    89719 
   68409    57592    42277    13133   -45884  -127267  -200715  -245129 
 -265314  -273645  -256722  -202807  -130675   -63408   -15259    26747 
   85883   145258   185670   215088   226993   203181   145578    73945 
    8590   -48049  -109989  -174257  -220679  -236288  -211277  -148484 
  -70545     3698    67649   118983   155200   164387   132242    74651 
   23534   -11297   -29836   -42772   -72499  -104905   -89698   -14318 
   65976   103883   122474   152628   181647   200248   203626   169034 
  110759    81664    91921    93425    49730   -18654   -71503   -92473 
  -94021  -103194  -125599  -139800  -127241   -81324   -15847    37492 
   57887    42722     5996   -22622   -27968   -23899   -25838   -39045 
  -63990   -88674   -97647   -87525   -60298   -25156      415     9215 
    9987    17750    40264    66351    74837    55891    18242   -21478 
  -49078   -60179   -57500   -35534     3847    32902    34914    30524 
   40531    53771    58748    74756   121693   191816   255366   274429 
  234078   161307   100529    85525   116917   152885   154222   117496 
   60566     8584   -36952   -88129  -125077  -137099  -148523  -158079 
 -135487   -77625   -17933     9562    -4267   -48537  -110589  -176869 
 -220487  -222375  -196441  -157820   -93110     6961   117352   200596 
  239176   246514   243756   232703   204198   153638    93278    39504 
   -9655   -50786   -76811   -99879  -121833  -129651  -128057  -138133 
 -173707  -219687  -244565  -246701  -245610  -226333  -157574   -53858 
   38462    92206   114006   126067   129729   109933    73412    32653 
  -22017   -93981  -155993  -166572  -116383   -61949   -47189   -26034 
   41854   120467   177058   208240   198494   137556    46796   -34218 
  -71844   -63449   -29687    22470    99364   190824   257456   256984 
  197243   140684   132143   144729   124600    59027   -23987   -92029 
 -141984  -188289  -216658  -212070  -195155  -174016  -125318   -36102 
   71078   152865   192774   217834   256988   304840   314674   240386 
  115628    32184    11948    -3948   -31703   -28071    16189    66197 
   98429   106911    90168    60950    39169    29522    24411    21950 
   28851    48665    72064    82551    80644    82525    71504     6157 
  -97458  -171141  -190051  -190968  -202541  -208331  -176331  -100437 
  -16135    36096    59492    72594    79203    87660    92525    77934 
   52550    25302    -4495   -32344   -63532  -100383  -128316  -134155 
 -102332   -29982    42345    76043    84116    91902    91480    67379 
   31963      911   -31062   -63488   -80062   -71746   -45597   -19935 
  -13059   -30303   -63037   -97623  -125842  -144220  -148367  -134733 
 -100142   -42499    34551   118658   186751   215229   195784   143762 
   87026    33242   -23726   -69257   -87659   -86499   -68317   -18827 
   58027   132803   190788   237785   269162   275063   255572   208472 
  140134    80683    51802    43365    36008    24372    16067    22347 
   43485    62648    64228    44938     9810   -33389   -79991  -124988 
 -160914  -179746  -173318  -140786   -88152   -24035    33963    67198 
   76392    82966    98839   103455    70665     3251   -64503   -96072 
  -90782   -69929   -42958   -17642    -5750    -4250    -2105    -4998 
  -24626   -44690   -33081     5060    28820    29968    39073    58195 
   58036    33319    12604    14300    25326    40178    79060   145034 
  206594   233541   221006   182355   135533    92870    57279    30980 
   18414     6604   -28972   -86126  -133907  -151297  -147632  -137542 
 -113349   -61003     8709    68955   111922   148035   176588   181124 
  154116   113567    76811    36188    -4908   -18660    -5300     2829 
   -7096   -16000    -7523    -2185   -36332  -104017  -161429  -187856 
 -193148  -177666  -138701   -92485   -50504   -12474    15819    32750 
   36401    12912   -37643   -90902  -121915  -121809   -85040    -6998 
   79861   121848   109991    83541    81727   105863   130854   146789 
  149736   122776    63644    -6200   -61553   -90081   -99275   -98710 
  -80821   -33429    37387   111195   166856   187733   178852   163613 
  149241   121950    74987    21828   -25782   -73060  -115043  -123448 
  -90377   -54906   -49217   -60476   -72426   -81231   -74524   -47514 
  -18097   -14300   -45073   -80792   -92295   -82480   -58529   -17363 
   38773    99649   160643   222748   271653   278155   236616   182951 
  148281   117050    66118     6249   -40452   -55110   -32995    -5080 
    3340     9527    27351    38912    24167   -11556   -29840     3195 
   65567   111568   131065   132592   113590    77628    42989    22122 
    6751   -17276   -41430   -45882   -29852    -5719    15730    22200 
    9418    -2952       39     3561    -5091   -19076   -26358   -23584 
  -27229   -49150   -71221   -76621   -71471   -60453   -44975   -35789 
  -33009   -19051    14473    50079    62375    51357    33663     9776 
  -20962   -44853   -56258   -58757   -53783   -46192   -44614   -51085 
  -52259   -35692   -16248   -17848   -39506   -64077   -78149   -77249 
  -67179   -52667   -30571     -261    30160    49566    53095    40492 
   16999     2649    13382    42039    81525   131741   173677   178550 
  142524    92324    59712    49503    44194    37426    34320    31132 
   22087    19172    29142    24470    -7588   -34051   -30299      146 
   47592    93775   122753   134631   124583    91821    65101    62031 
   59784    40068    12114    -7643   -10901   -11183   -19402   -15056 
    7819    24930    32997    46440    65570    82280    89270    85279 
   72900    52769    34530    31964    41613    43424    17840   -34303 
  -80997   -88969   -68938   -53036   -39378    -7404    36469    71108 
   98112   129303   147452   120289    49747   -24235   -69604   -93573 
 -114043  -127214  -131645  -138459  -145558  -142466  -123608   -83851 
  -24714    33428    63984    60672    34542     -805   -34451   -62291 
  -80295   -88572   -97074  -104700   -98617   -77813   -52021   -27595 
   -2573    26957    55389    74116    79324    64205    27720    -9615 
  -24625   -18557    -6388     3530    10202    16835    18611    -1087 
  -36562   -56970   -56485   -53253   -51330   -45939   -32768    -9059 
   12220    17630    19678    36468    63765    84464    84597    61307 
   23711   -22808   -70489   -90344   -67351   -27546     5735    36328 
   70600    99644   106003    95344    93994    98197    80884    42281 
    6509    -9337    -8852    -8079    -6758     9019    34159    52867 
   66719    85759   106302   115186   110371   103752   103250   103821 
   96193    79294    62393    52151    46136    39763    32069    28755 
   33243    37349    34341    29296    26772    20029     2329   -18946 
  -28169   -15011    17393    56674    92340   109130    90069    46077 
    8197    -9104    -8383     4786    24059    40299    37152     9446 
  -21559   -42009   -63932   -93448  -116494  -119310  -104555   -84763 
  -63298   -30702    13898    52704    73484    82138    81692    66663 
   37459     3411   -19258   -22701   -22569   -31482   -37723   -30991 
  -21829   -19744   -12110    10182    30212    33259    19744   -13246 
  -61321  -104392  -131458  -146465  -156520  -162941  -151494  -108241 
  -41366    28514    83618   112517   117254   113795   109062    91325 
   53952     9617   -25719   -52633   -77217   -90373   -81315   -57810 
  -37673   -29934   -31101   -29088    -8116    34217    82656   124786 
  155566   167716   157943   133857   111014   103495   107657   106017 
   88470    59243    35166    30156    33468    28393    20840    19746 
   18272    12721     9544    18178    46404    85338   117677   138047 
  143784   136522   127958   115641    85601    44528     6889   -31164 
  -69383   -92777   -95919   -82015   -54575   -26211   -11506   -11245 
