Origin Time       2016/04/16 01:25:00
Lat.              32.753
Long.             130.762
Depth. (km)       12
Mag.              7.3
Station Code      KMM020
Station Lat.      32.3636
Station Long.     130.1807
Station Height(m) 10
Record Time       2016/04/16 01:25:18
Sampling Freq(Hz) 100Hz
Duration Time(s)  112
Dir.              N-S
Scale Factor      3920(gal)/6182761
Max. Acc. (gal)   52.332
Last Correction   2016/04/16 01:25:18
Memo.             
[...]
   -8651    -8649    -8636    -8647    -8654    -8641    -8637    -8645 
   -8652    -8646    -8635    -8646    -8654    -8638    -8635    -8653 
   -8645    -8632    -8650    -8653    -8634    -8641    -8655    -8646 
   -8636    -8642    -8650    -8647    -8637    -8645    -8654    -8641 
   -8635    -8650    -8649    -8635    -8644    -8656    -8640    -8634 
   -8650    -8648    -8643    -8644    -8646    -8654    -8645    -8634 
   -8651    -8652    -8633    -8641    -8657    -8643    -8634    -8654 
   -8652    -8630    -8640    -8654    -8640    -8637    -8646    -8651 
   -8642    -8635    -8648    -8653    -8640    -8637    -8649    -8650 
   -8637    -8643    -8655    -8639    -8638    -8655    -8648    -8637 
   -8644    -8650    -8645    -8642    -8645    -8646    -8643    -8641 
   -8647    -8650    -8640    -8637    -8650    -8651    -8639    -8640 
   -8649    -8640    -8634    -8651    -8650    -8639    -8643    -8645 
   -8646    -8644    -8635    -8643    -8654    -8642    -8638    -8654 
   -8644    -8634    -8654    -8649    -8633    -8649    -8653    -8641 
   -8643    -8648    -8646    -8643    -8644    -8647    -8645    -8642 
   -8640    -8646    -8652    -8641    -8639    -8650    -8646    -8639 
   -8646    -8650    -8640    -8639    -8652    -8647    -8639    -8645 
   -8645    -8646    -8643    -8642    -8655    -8648    -8637    -8647 
   -8647    -8639    -8644    -8649    -8645    -8641    -8646    -8647 
   -8641    -8645    -8651    -8646    -8646    -8645    -8642    -8644 
   -8644    -8641    -8644    -8646    -8646    -8645    -8651    -8650 
   -8637    -8643    -8653    -8639    -8637    -8649    -8646    -8643 
   -8646    -8648    -8649    -8643    -8638    -8645    -8646    -8637 
   -8644    -8652    -8645    -8640    -8645    -8648    -8643    -8639 
   -8645    -8647    -8643    -8644    -8647    -8649    -8644    -8638 
   -8650    -8652    -8635    -8641    -8655    -8641    -8635    -8651 
   -8650    -8640    -8643    -8647    -8643    -8643    -8644    -8646 
   -8648    -8642    -8645    -8655    -8644    -8638    -8647    -8645 
   -8640    -8641    -8644    -8648    -8643    -8641    -8644    -8646 
   -8648    -8643    -8643    -8647    -8644    -8645    -8644    -8642 
   -8646    -8645    -8646    -8642    -8644    -8652    -8640    -8638 
   -8651    -8647    -8640    -8642    -8646    -8648    -8639    -8636 
   -8646    -8641    -8632    -8636    -8634    -8620    -8620    -8627 
   -8620    -8619    -8619    -8609    -8610    -8608    -8597    -8593 
   -8589    -8586    -8591    -8590    -8581    -8578    -8578    -8568 
   -8560    -8571    -8579    -8572    -8574    -8585    -8577    -8564 
   -8573    -8588    -8591    -8597    -8602    -8588    -8567    -8569 
   -8596    -8629    -8651    -8656    -8658    -8654    -8658    -8716 
   -8809    -8883    -8907    -8878    -8851    -8873    -8916    -8934 
   -8901    -8806    -8652    -8488    -8413    -8450    -8558    -8639 
   -8578    -8413    -8282    -8270    -8414    -8645    -8836    -8922 
   -8853    -8651    -8499    -8563    -8782    -9008    -9186    -9221 
   -9011    -8628    -8282    -8248    -8575    -8929    -9065    -9002 
   -8668    -8102    -7861    -8348    -9086    -9411    -9243    -8858 
   -8527    -8332    -8253    -8475    -9064    -9534    -9215    -8139 
   -7347    -7607    -8357    -8884    -9293    -9549    -9104    -8027 
   -7273    -7626    -8858    -9819    -9528    -8401    -7774    -7951 
   -7997    -7565    -7356    -7980    -9052    -9291    -8192    -7121 
   -7442    -8506    -9044    -9042    -8843    -8324    -7830    -8128 
   -9003    -9576    -9523    -8804    -7977    -7846    -7889    -7592 
   -7575    -8308    -9200    -8600    -6481    -5473    -6853    -9244 
  -10927   -11051   -10024    -8694    -7654    -7558    -8362    -9272 
   -9639    -9200    -8657    -8645    -8458    -7675    -7096    -7600 
   -8792    -9083    -8158    -7547    -7870    -8283    -8577    -9484 
  -10782   -10900    -9443    -8012    -7507    -7498    -7959    -8869 
   -9580    -9716    -9179    -7939    -6797    -6991    -8489    -9944 
  -10647   -11164   -11263    -9689    -7442    -6854    -7348    -7613 
   -8543    -9801    -9455    -8082    -7590    -8281    -9403    -9174 
   -7354    -7770   -11309   -12820   -10097    -7082    -6911    -7889 
   -8010    -8593    -9714    -9023    -7035    -6684    -8762   -10776 
  -10064    -8227    -8394    -9093    -7683    -5907    -6683    -9651 
  -11645   -10238    -7372    -7194    -9937   -11691    -9734    -5671 
   -3120    -3526    -5622    -7382    -8061    -8451    -8442    -8003 
   -8563    -9413    -8786    -8408   -10353   -12362   -11251    -7751 
   -5391    -6567    -9478   -10271    -8785    -7140    -5204    -3270 
   -3679    -6501    -9317   -10581    -9819    -7944    -7215    -7491 
   -7204    -7866    -9825    -9730    -7244    -5746    -6976    -8468 
   -7296    -7286   -11934   -14188    -8801    -2505    -2485    -6754 
   -9476   -10164   -11675   -12926   -11766    -9297    -7400    -6175 
   -4535    -3442    -5365    -9045   -10403    -8522    -7015    -9208 
  -13737   -16714   -15227    -9363    -3998    -4369    -8978   -10746 
   -6864    -3899    -6788   -10810   -11502    -9366    -5726    -4991 
   -9104   -10801    -7511    -6675    -9549   -10123    -8121    -7447 
   -7470    -5751    -4916    -8085   -11516   -10665    -8157    -7893 
   -7777    -6056    -6814   -11934   -16162   -14451    -8861    -5506 
   -5906    -6562    -6366    -5526    -1682     2578    -1006   -12140 
  -19795   -17269   -10240    -6779    -6559    -6343    -6324    -6731 
   -7681    -8937    -8353    -6695    -7944   -12762   -16513   -14592 
   -9022    -4709    -2389    -2680    -5544    -5731    -2679    -2446 
   -6320   -11711   -15677   -15672   -13269    -9758    -5982    -7077 
  -12635   -15787   -15931   -15308   -12267    -6791    -3008    -2196 
    -940     -274    -4014    -9336   -11554   -10780    -9826   -11277 
  -15779   -19463   -16370    -8758    -4805    -4209    -3264    -6396 
  -13672   -15010    -9114    -5473    -7648   -11014   -11719   -11751 
  -14075   -14315    -7253     -108    -1841    -5245    -3968    -7620 
  -15853   -14951    -8761    -7064    -4727    -4628   -13308   -17984 
  -13144   -10897   -12514   -12305   -10300    -4416     4532     5842 
   -4323   -11653    -9213    -8999   -11500    -7969    -4178    -3515 
   -1282    -2651   -11611   -18520   -16847   -12906   -10920    -7907 
   -6535    -8899    -6090     4131    10378     5933    -5159   -14071 
  -14253    -9860    -9124    -9964    -8475   -10333   -15986   -16372 
  -11195    -7203    -4862    -2193      458     2361     1717    -2442 
   -8774   -15259   -16812   -11470    -8674   -12594   -13430    -9441 
   -8841   -11873   -13142   -10165    -5588    -2633      536     1581 
   -4597   -12301   -13816    -9606    -4378    -3632    -7486   -10191 
   -8851    -7467   -11025   -15147   -14416   -15197   -18367   -13530 
   -3635    -2183    -7241    -6965    -5398   -14427   -23942   -14678 
    4801     9124    -4264   -16199   -19746   -22937   -23018   -14057 
   -5997    -5104    -3788     -537    -1316    -6424   -10383   -10301 
   -8502    -6731    -5888    -8988   -15974   -21495   -20336   -12553 
   -4675    -3278    -6228    -5539    -1029     -939    -7529   -15314 
  -18940   -16863   -12873   -11408   -11755    -9704    -4789    -3831 
   -9222   -11637    -7467    -5768    -8288    -7368    -4073    -5204 
  -10275   -14310   -14554   -11410    -6399    -1428      629     -753 
   -4169    -9496   -13734   -12959    -8948    -4654    -1145     -347 
   -4337   -11356   -14240   -11101    -7708    -2993     4169     4324 
   -4475   -12111   -14810   -15410   -14491   -12898   -11970   -11966 
  -12293   -10147    -6587    -5404    -4696    -4661    -7218    -6665 
    -397     3879     -472    -8912   -12427   -10950    -8462    -5922 
   -5870    -9158   -14295   -21093   -23069   -13162     -513     1491 
   -3050    -3667    -4346   -13867   -25725   -24754   -10821      342 
    1245    -3180    -9843   -16729   -20735   -21002   -15442    -3485 
    5919     3089    -6731   -10776    -9187   -10667   -13040   -10951 
  -10146   -12668   -12495   -11177   -12133   -12923   -11447    -5671 
    3034     6235    -1056   -13990   -23401   -23492   -16406    -9565 
   -8574   -12328   -16715   -19894   -18351   -10002    -2490     -646 
     834      285    -7314   -14354   -13678    -8675    -4598    -4225 
   -5773    -7457   -11499   -15293   -14261   -13176   -17586   -20269 
  -10785     2438     1574    -6897    -5299       57    -2365    -7195 
  -10434   -14599   -16198   -11115    -4679    -4349   -10193   -17284 
  -19801   -16681   -14157   -13922   -10281    -4147    -2847    -6456 
   -6654    -1387      -96    -5661   -10329   -12441   -12525    -7754 
   -4225    -9839   -18318   -18742   -11481    -5248    -3007    -1442 
   -2164    -7392   -11258    -8919    -4014    -1954    -4187    -7189 
   -5943    -4098    -9865   -17593   -15311    -8139    -7342    -8758 
   -7068    -7504    -9687    -8029    -5068    -5686    -7864    -5802 
    -169      951    -5284   -14114   -20194   -18785   -11024    -7245 
  -12918   -19487   -19010   -13091    -4786     1146     -114    -4968 
   -8519   -10886   -12088   -12602   -13853   -15316   -16296   -15604 
  -10352    -4642    -7634   -14344   -13226    -7780    -5637    -5506 
   -3500      966     1800    -6136   -14969   -13644    -6202    -5606 
  -11495   -12639    -9264    -8513    -8269    -6333    -5945    -6168 
   -4481    -2165    -1718    -5578   -13908   -21413   -20734   -12540 
   -4688      607     4065     2057    -4723    -9686   -10499   -10448 
  -10276    -6304     -688    -1368    -7742   -12579   -15390   -18380 
  -17974   -13528   -10955   -10160    -6922    -3648    -3815    -7569 
  -14203   -19697   -18218    -9794    -2801    -3213    -5503    -4986 
   -6453    -9172    -5075     1701      538    -4832    -7993   -13777 
  -22320   -24445   -18862   -15403   -19791   -23988   -19807   -12208 
   -7232    -4671    -4783    -5810    -3687     1289     4712     2890 
   -2022    -5708    -8810   -11347   -11357    -9822    -5810     1545 
    5539      936    -6823   -12202   -17983   -24491   -26382   -24174 
  -19355    -8400     1869       37    -6915    -6618    -2379    -2332 
   -5294    -5567    -2818    -1572    -5418   -14133   -20186   -16118 
   -7378    -2767    -2407    -4429    -8396   -12652   -15196   -14443 
  -12376   -12608   -11236    -4156     1472    -1079    -7805   -12555 
  -14410   -14219   -11576    -9012    -9433    -8870    -5572    -6341 
  -10932   -10597    -7050    -8220   -12871   -16601   -17422   -13463 
   -5752     1704     3020    -4862   -13092   -11996    -7067    -6024 
   -5599    -2424       39     -615    -2167    -4283   -10415   -19655 
  -25366   -24113   -17840    -9032     -380     5258     7319     6507 
    3899     -898   -10130   -20160   -23039   -18124   -10487    -2500 
    4040     3454    -6438   -17442   -21804   -22414   -22957   -20803 
  -16594   -12876    -5951     3177     6917     6498     6840     4478 
   -3498   -11152   -12471   -10550   -11480   -13729   -12235    -8207 
   -7233   -10097   -11411    -9131    -6364    -4979    -6071    -8735 
   -9667    -9820   -10267    -5682     4612    11908    11592     5333 
   -4530   -11244   -10904   -10610   -11723    -5662     4635     8907 
   10453    15750    18839    13768     6437     4972     7244     5005 
   -2577    -9772   -15955   -24422   -33087   -35547   -30841   -26172 
  -27299   -33504   -41521   -45056   -37996   -24656   -15977   -15995 
  -21843   -31479   -43184   -52634   -55691   -50898   -38563   -21992 
   -7508     1724     8029    13822    19540    25712    31118    32282 
   30442    29740    26109    13718    -2510   -15001   -22721   -26007 
  -23370   -16444   -12669   -17353   -25306   -27536   -23077   -17638 
  -12617    -4035     6656    13747    15992    12615     6299     5516 
    5845    -3376   -14675   -18282   -20053   -25212   -29979   -32248 
  -34476   -38065   -39529   -33203   -21197   -12701   -11723   -15648 
  -21119   -26203   -25669   -10163    13577    21618     9092    -6214 
  -15044   -18994   -20050   -22746   -29089   -34472   -33337   -23899 
  -11450    -3272     -220     -537    -6247   -18505   -27797   -20995 
   -2584     8421     1629   -17789   -34816   -35887   -23517    -8542 
    7048    21843    28991    29867    31339    33756    37303    43946 
   47765    40042    19780    -8273   -36162   -52000   -46162   -23794 
   -3954      839    -7240   -21405   -33171   -34655   -24591    -7706 
    5979     6817    -2681   -11535   -18291   -33659   -59728   -80756 
  -81089   -59522   -26218     4111    19418    19707    11847    -2522 
  -15949   -13703      222     7917     5992     1431    -3279    -5435 
     964    17398    35651    44212    39741    26806    10607    -1299 
   -1267     6173    11343    18614    33454    39877    20226   -18506 
  -56276   -77366   -73407   -45831    -6208    27742    41176    34423 
   21231    12820     9705     7399     3646    -1530    -9516   -23744 
  -42908   -55728   -54221   -47456   -46419   -47510   -45508   -44779 
  -48837   -53307   -53579   -49824   -40602   -25850   -12821    -1710 
   14226    28626    31496    28157    25865    16960   -10298   -51428 
  -84348   -91184   -75126   -48087   -17985     5741    17281    22708 
   29642    35241    32050    26465    32699    45861    47395    30578 
    2620   -25965   -47898   -62700   -71459   -69881   -55556   -34965 
  -13671     8904    28529    36538    33648    27761    23421    20891 
   14409    -2456   -26227   -50771   -72184   -82927   -76950   -54784 
  -21924    10463    29424    30996    24734    22433    25036    24791 
   16596     8163    10619    16445    11658    -1716   -16399   -28186 
  -34202   -36073   -34651   -30101   -26454   -22511   -11638     5743 
   22280    29466    20855      262   -19084   -29890   -36912   -45583 
  -52513   -53878   -52235   -44872   -26621    -4650    13690    28929 
   36007    32877    30478    32740    32152    28455    27076    25001 
   14749     -804   -10351   -12979   -17078   -19762   -15301   -12381 
  -16898   -23088   -25777   -18648     -217    14562    12117    -2253 
  -17142   -28426   -32575   -25817   -17821   -24346   -44419   -63055 
  -68486   -59340   -45325   -34469   -22414    -9546    -3675      769 
   11177    18681    15530     9609    12086    20228    20066     7073 
   -7269   -12776   -10531    -5796    -5287   -11745   -15800   -11576 
   -7032    -6161    -6025    -6078    -3256     4981    12769    13642 
    7275    -2310    -8760   -10524   -16556   -32032   -42769   -36254 
  -24888   -20395   -14271    -3874     -136    -4801    -9053    -9600 
  -12769   -26332   -47284   -61613   -62174   -52515   -34441   -14745 
   -9145   -20064   -31742   -30365   -14708     2364     4596    -7879 
  -24247   -39584   -49278   -44434   -25294    -8446    -6133    -7156 
    1102    11240    13204     7844    -1151    -9823   -10469     1674 
   21033    39571    53305    59810    59507    50730    29632     8217 
    4471    10147     6360    -1539     -179     5481     8800    16096 
   25546    20557    -2834   -27209   -35062   -26592   -18406   -21097 
  -25495   -21601   -14627   -11552   -10062   -11823   -23464   -37787 
  -41440   -35211   -27359   -22532   -21868   -23079   -23484   -19925 
  -11492   -10530   -26562   -44620   -48671   -41187   -26354    -7652 
    1717    -5784   -16796   -14175     3828    27119    43702    47017 
   37613    20521     5253    -3951   -14622   -26288   -23818    -5123 
    8844     3874    -7750    -9551    -3452     2509     7696     9735 
    1143   -17959   -34785   -35580   -21731    -9037    -6700   -10684 
  -18686   -29147   -34184   -33238   -32241   -25768    -8207     9697 
   13820     1517   -18713   -34417   -36850   -25149    -5872    13047 
   26017    31748    35902    40746    37974    23170     4194   -10522 
  -19867   -23597   -19830   -11445    -5045    -3102    -2643    -1331 
    -329     -410       -1     2588     5934     4076    -6853   -22599 
  -35576   -39185   -30322   -12811     5106    15075    13127     3229 
   -5509    -6010    -1955    -3149    -9083   -14751   -23522   -31463 
  -24828    -9767    -7654   -17087   -18795    -9832    -1690      892 
    2545     8908    15669    11878      911    -2426     5974    17793 
   20341     6230   -15423   -30724   -38333   -39054   -27006    -5228 
   10089    10555     5402     3924     1606    -8401   -21865   -29626 
  -29510   -24641   -16654   -11658   -19252   -33700   -40245   -40175 
  -39140   -29987   -14326    -7072    -8039    -6078    -1647      439 
     112    -2315    -6657   -13258   -21257   -26229   -24632   -15902 
   -3812     5026    10890    18084    22281    15379      118   -10406 
   -9150    -4016    -5472   -13083   -19055   -17750   -11350    -8594 
  -10744    -7588      -73    -2291   -10979    -8585     3631     9423 
    3964    -5619   -13386   -18046   -19901   -17754   -10483     -917 
    7003    12795    17400    21868    27455    32123    31434    21883 
    2569   -18241   -26594   -21258   -13599    -8157     -227    11008 
   20502    24867    23480    15828     4081    -6014   -11844   -16799 
  -23618   -30308   -35409   -39696   -39324   -29214   -14048    -1947 
    6648     9489    -1558   -22857   -40496   -49972   -53445   -48889 
  -35651   -21138   -14214   -16430   -23743   -30072   -30571   -26501 
  -19550    -8649      451    -3030   -20487   -38513   -43588   -38708 
  -32168   -23536   -13840    -7500    -1846     6079    13304    19703 
   23238    13400   -11205   -36772   -53021   -58671   -55624   -50902 
  -51967   -55120   -50865   -40121   -29452   -17071    -2639     3846 
     528     1725    14390    25695    22907    10415     -175    -6860 
  -13121   -16311   -15575   -17135   -20390   -16910    -5053     8543 
   18028    23417    27483    28195    23180    19124    21225    22037 
   12580    -4871   -17889   -18378   -14288   -15123   -15878    -9693 
   -2040     -923    -5089   -10758   -17380   -21237   -16751    -5036 
    4449     1164   -12057   -19573   -15470    -9254   -10116   -18897 
  -28474   -31162   -25616   -12190     6097    19026    18146     5665 
   -8331   -13731    -6978     7127    18517    20879    18292    16207 
   12965     6559    -1803    -9919   -12945    -7334     3420    12310 
   15360    15891    19748    24617    22323     9027   -12181   -34380 
  -51249   -59800   -59192   -47576   -24534     1907    20850    31084 
   35570    32186    23283    17853    15953    10213      351    -8411 
  -12329   -10458    -6566    -7388   -15500   -27786   -40303   -47948 
  -45421   -35031   -25192   -22154   -26972   -35346   -43417   -51324 
  -55327   -49957   -39350   -30126   -21762   -15741   -17408   -23536 
  -23801   -14226    -1983     2222    -4505   -16514   -26354   -27783 
  -21004   -14886   -16168   -21408   -23447   -20332   -16946   -19977 
  -29693   -39850   -46021   -47307   -44051   -37468   -27452   -13832 
    1510    17772    33105    41058    39820    35513    29545    20105 
