Origin Time       2016/04/16 01:25:00
Lat.              32.753
Long.             130.762
Depth. (km)       12
Mag.              7.3
Station Code      KMM019
Station Lat.      32.4548
Station Long.     130.1807
Station Height(m) 7
Record Time       2016/04/16 01:25:16
Sampling Freq(Hz) 100Hz
Duration Time(s)  167
Dir.              E-W
Scale Factor      3920(gal)/6182761
Max. Acc. (gal)   90.010
Last Correction   2016/04/16 01:25:16
Memo.             
[...]
  -10270   -10270   -10270   -10268   -10267   -10271   -10272   -10269 
  -10269   -10269   -10267   -10267   -10269   -10270   -10272   -10271 
  -10268   -10266   -10265   -10268   -10270   -10272   -10272   -10269 
  -10265   -10266   -10269   -10270   -10269   -10270   -10271   -10270 
  -10269   -10269   -10268   -10269   -10271   -10270   -10268   -10267 
  -10267   -10269   -10270   -10271   -10272   -10271   -10269   -10267 
  -10268   -10268   -10268   -10268   -10268   -10269   -10269   -10269 
  -10269   -10269   -10270   -10271   -10269   -10268   -10268   -10266 
  -10266   -10268   -10270   -10274   -10273   -10268   -10266   -10266 
  -10267   -10267   -10268   -10271   -10271   -10268   -10268   -10269 
  -10267   -10266   -10271   -10272   -10268   -10267   -10269   -10270 
  -10268   -10266   -10271   -10271   -10266   -10267   -10269   -10269 
  -10270   -10269   -10267   -10269   -10269   -10268   -10269   -10268 
  -10266   -10267   -10269   -10270   -10268   -10268   -10270   -10269 
  -10266   -10265   -10268   -10270   -10269   -10269   -10268   -10268 
  -10265   -10264   -10270   -10273   -10269   -10267   -10268   -10269 
  -10270   -10268   -10267   -10270   -10271   -10269   -10266   -10266 
  -10270   -10271   -10268   -10270   -10271   -10267   -10266   -10269 
  -10270   -10268   -10267   -10268   -10270   -10268   -10267   -10270 
  -10273   -10271   -10266   -10267   -10270   -10269   -10267   -10269 
  -10270   -10270   -10268   -10267   -10270   -10270   -10269   -10272 
  -10273   -10269   -10266   -10268   -10270   -10269   -10270   -10270 
  -10270   -10269   -10266   -10267   -10271   -10271   -10271   -10274 
  -10273   -10267   -10266   -10269   -10268   -10268   -10269   -10269 
  -10270   -10271   -10272   -10271   -10269   -10268   -10266   -10265 
  -10268   -10269   -10270   -10271   -10272   -10273   -10272   -10269 
  -10267   -10266   -10264   -10263   -10266   -10273   -10277   -10276 
  -10274   -10271   -10266   -10262   -10263   -10267   -10269   -10270 
  -10271   -10271   -10271   -10270   -10268   -10268   -10271   -10272 
  -10269   -10264   -10262   -10263   -10266   -10270   -10273   -10277 
  -10277   -10270   -10263   -10264   -10268   -10268   -10269   -10273 
  -10273   -10269   -10266   -10265   -10268   -10270   -10268   -10266 
  -10267   -10268   -10270   -10273   -10274   -10273   -10268   -10266 
  -10268   -10268   -10265   -10266   -10269   -10269   -10265   -10266 
  -10272   -10276   -10272   -10268   -10267   -10264   -10262   -10267 
  -10274   -10275   -10273   -10269   -10266   -10268   -10270   -10270 
  -10271   -10271   -10267   -10264   -10267   -10272   -10274   -10273 
  -10268   -10267   -10267   -10265   -10265   -10268   -10269   -10270 
  -10271   -10269   -10265   -10260   -10253   -10240   -10225   -10203 
  -10175   -10144   -10110   -10067   -10025    -9988    -9957    -9939 
   -9933    -9935    -9936    -9917    -9854    -9735    -9576    -9429 
   -9364    -9427    -9607    -9826    -9980   -10022   -10006   -10053 
  -10274   -10668   -11082   -11277   -11074   -10545   -10051   -10034 
  -10714   -11857   -12832   -13029   -12309   -11117   -10211   -10090 
  -10656   -11398   -11664   -11039    -9783    -8685    -8515    -9570 
  -11391   -12968   -13328   -12170   -10088    -8039    -6887    -7127 
   -8385    -9695   -10387   -10463   -10332   -10297   -10526   -11155 
  -11830   -11702   -10375    -8592    -7456    -7305    -8102    -9719 
  -11476   -12707   -13242   -13100   -12369   -11302   -10321    -9630 
   -9004    -8466    -8728    -9776   -10027    -8773    -7716    -8539 
  -10610   -12179   -12414   -11166    -8758    -6528    -5902    -7382 
   -9953   -11773   -12244   -11359    -9802    -9777   -11485   -12802 
  -12342   -10115    -7420    -5244    -5002    -8554   -13604   -16500 
  -16785   -14175    -9630    -6410    -5639    -6482    -7615    -8261 
   -9062    -9331    -9057    -9430    -9105    -8253    -8375    -8054 
   -7505    -8018    -8283    -8429    -9526   -10951   -12187   -12098 
  -10400    -9026    -8521    -8985   -10489   -11296   -11660   -12875 
  -13343   -12390   -12037   -13118   -14388   -14731   -13834   -12339 
  -10995    -8863    -6521    -6660    -8941   -11369   -13182   -13845 
  -13145   -11757   -11004   -10862   -10225    -9342    -8555    -8113 
   -9083   -10069    -8150    -4976    -4297    -6616   -11465   -16901 
  -18566   -14804    -7841    -1965     -143    -1938    -7416   -14195 
  -16744   -15020   -11365    -6859    -5601    -9450   -14136   -16362 
  -15967   -12612    -7734    -5450    -7730   -12849   -17617   -18442 
  -13576    -5825      382     2365    -1591    -9644   -15711   -15468 
   -9915    -4343    -2732    -5203   -10859   -15924   -16151   -12345 
   -7663    -5527    -8052   -14152   -19508   -19029   -14922   -11091 
   -5887    -2956    -5799   -10128   -14547   -16064   -10466    -4813 
   -5392    -8352   -11344   -14033   -13435    -9091    -3459       31 
   -2148    -8372   -14148   -15387    -8625     1481     5986     2740 
   -5753   -15657   -21712   -19649   -11083    -4186    -4037    -8105 
  -12570   -14821   -12588    -5904     1155     2261    -5964   -19412 
  -28802   -27466   -16432    -3581     3363     3242    -1295    -8572 
  -15355   -15788   -11053    -8748    -9194    -9117    -8963    -8813 
   -9204   -10457   -12154   -15799   -18563   -14753    -8915    -8742 
  -10147    -9477   -10831   -11544    -8065    -5261    -3613    -2167 
   -7159   -17781   -24618   -22754   -14080    -5709     -951     1787 
     595    -3956    -9076   -13304   -14907   -14888   -11750    -5307 
   -1158      503      401    -4238   -12512   -20069   -20537   -14856 
  -11972   -11198    -7354    -4147    -4963    -7356    -8626    -9590 
  -12048   -11970    -5545     1076     -142    -8380   -16815   -20100 
  -16103    -7466      302     5429     4653    -5780   -18422   -23168 
  -18068    -6834      743    -4145   -17092   -28023   -33657   -31100 
  -16906      842    10336     8531    -4384   -22309   -32649   -31286 
  -22865   -11581     1365    11551     9297    -3842   -19581   -33654 
  -35628   -23991   -10551      745     6970     4917     -918    -8672 
  -17566   -21040   -17432   -15617   -20138   -23402   -20948   -16343 
  -10967    -5398      156     4009    -3321   -21889   -36100   -37781 
  -28240   -10504     6293    12399     5437    -7808   -15827   -14555 
   -7646    -1264    -1102    -4516    -6175    -6368    -6604    -5804 
   -2751    -2200    -7785   -13974   -17012   -20224   -23654   -19776 
   -7602     2948     6326     2330    -7733   -17014   -19050   -16103 
  -13331    -8789     -869     2817    -1967    -6425    -6691    -6305 
    2505    14338     8502    -7549   -20365   -35510   -44566   -29338 
    1414    21134    19160     1324   -18862   -27936   -29956   -31213 
  -22009     -113    16716    16719     6551    -9472   -27368   -35583 
  -34374   -27732   -12138     2929     3659    -4663   -13756   -23969 
  -30323   -24920    -7035    11874    13968      296   -11494   -16395 
  -18613   -13254      617     9656     7797     2164    -6076   -18783 
  -24706   -17481   -10032    -5434     2416     6522     1607   -12006 
  -30096   -41117   -42097   -31730    -6194    19582    24321     7249 
  -16214   -35957   -45838   -31717     -125    17946    16695     9430 
   -4230   -22495   -34152   -33111   -23028   -11486    -4377   -10612 
  -27458   -34708   -29283   -20588    -9621    -4568   -10254   -17549 
  -22136   -24903   -25129   -18985    -5220     6935    11833    13050 
    9200    -1809   -13536   -19938   -22919   -27107   -27968   -15108 
    6480    22667    29291    24811     8807   -12509   -27952   -25366 
   -8658     4142     5364    -2845   -20135   -40022   -44739   -25899 
     905    15997    15622     2871   -20034   -38152   -32565    -9608 
    8998    13884     7643    -6441   -25336   -38237   -33586   -19143 
   -8214      546     6168     4544     2410      799    -6714   -16419 
  -24796   -34664   -42701   -45283   -42466   -29640    -8115    10069 
   18368    16446     5626    -7899   -18697   -22283   -16918   -10291 
   -5873    -1372    -2216    -9969   -18466   -24490   -22627   -11393 
    -316     4337     1051   -10440   -25585   -38424   -39690   -23571 
   -1027    14969    20871    12384    -8547   -27132   -33402   -29441 
  -19408    -6097     5969     9784     1646   -10555   -15192   -13363 
  -12570   -15152   -21238   -28580   -32423   -28243   -16504    -4136 
    4944     5195    -8404   -21947   -23669   -19384    -9717     2523 
    4664    -3031    -9761   -12222   -14322   -14684    -6451     3156 
    1323    -6495   -12663   -18739   -20229   -13842    -6878    -2737 
   -1296    -5022    -9302    -8506    -2993     4022     2800    -8987 
  -20955   -28340   -29042   -20923   -10883    -7062    -9559   -15771 
  -25894   -34254   -31954   -25013   -20528   -13330    -5609    -3388 
   -6099   -14335   -22016   -20063   -11795    -3446      691    -4654 
  -14711   -17755   -11979    -5135    -5502   -13201   -19282   -17691 
   -8421      442    -2127   -10853   -15263   -17847   -20724   -17814 
   -9018    -2796       68     2537     1599    -1498    -5177   -12129 
  -17326   -14430    -9596   -12333   -20753   -25119   -21983   -16964 
  -12257    -4493     4462    10342    11919     9653     5334    -1570 
   -9689   -13519   -12291    -9012    -7765   -12192   -18609   -19763 
  -14739    -6803     1521     2180    -9530   -21920   -29001   -33346 
  -27295   -12108    -2543    -1126     -857    -2031    -8571   -15567 
  -17614   -18516   -18961   -17757   -19522   -24063   -24226   -18560 
  -14098   -13742   -15717   -22908   -31421   -27215   -10532     4261 
   10397     6735    -3985   -13154   -17128   -14763    -5920     2413 
    3503    -5940   -22698   -34311   -30957   -12264    11510    26369 
   26005     9845   -14296   -34313   -46412   -47678   -35365   -15649 
    2100    10708     7323    -3811   -14799   -19780   -16749    -6766 
    3268     3873    -3107    -9751   -15027   -17536   -14554    -6614 
    3379     9476     9176     2735    -9948   -21949   -25834   -23158 
  -17456   -11087    -8527   -11940   -19368   -27567   -31581   -28144 
  -16344      328    10204     8008    -1025   -12866   -20920   -19641 
  -12269    -3532     1846     1201    -2311    -5695    -8570    -9808 
   -6230     -986    -4089   -13898   -22185   -29415   -32702   -26666 
  -15062    -3279     4245     4115      -32    -3856    -9712   -16990 
  -18349   -13432    -7285    -2741    -3925    -8945   -11525   -12297 
  -11924    -8941    -5184    -1586     -645    -8796   -22482   -30187 
  -28984   -19714    -5526     3461     3858      -85    -7419   -16398 
  -22949   -25594   -24921   -20216    -9812     1535     6437     5993 
    2639    -2553    -6288   -10159   -13588   -12782   -13250   -18914 
  -24505   -25621   -21684   -12530     2149    15559    18782    13631 
    2969   -12408   -22502   -16883      816    14465    13600     3460 
   -9889   -20968   -20707   -12260    -5846    -3378    -7580   -20761 
  -32192   -30804   -18753    -2034    12103    14680     5877    -7660 
  -20167   -26494   -25253   -17168    -7102    -4274   -10066   -19699 
  -28695   -31368   -25139   -12880     -550     4098    -3423   -16777 
  -24390   -21135    -7821     7090    13057    13219    12740     8095 
    -179    -9122   -16607   -19099   -18803   -19468   -19313   -15319 
   -8105    -1866     2295     7809    16566    25285    27944    20795 
    4837   -11435   -21820   -31156   -37176   -29725   -12583     3757 
   14182    12860      137   -12768   -18254   -14757    -3390     4771 
   -2411   -22044   -45354   -65461   -70520   -54773   -28201    -4490 
    8439    13537    18848    23803    20370     2222   -26702   -54913 
  -72511   -69442   -42842    -7917    16383    25761    25330    18329 
    9380     3902     -570    -8012   -16298   -24284   -30350   -27070 
  -13147     3012    14903    18191     9782    -7810   -27066   -36128 
  -27595   -10335    -2065   -11959   -31927   -45734   -47403   -39115 
  -21684    -1995    12024    20452    21036    12958     3424    -3026 
   -4060      303     3430     4398     7017     5936    -3523   -14587 
  -19559   -19644   -20065   -19207   -12233    -1940     5020     4821 
   -1608    -9280   -16124   -22018   -24681   -26358   -30024   -30316 
  -25265   -22361   -23088   -22179   -20945   -23470   -27604   -27828 
  -20885   -10933    -5664    -5791   -11659   -23231   -26037   -11704 
    4460    11731    13555    10193     2855    -2084    -5023   -12137 
  -24501   -37046   -42745   -38752   -27118   -10087     5741    11836 
    7202    -1477     -669    14539    28862    32282    27574     9644 
  -25145   -64293   -92812  -101809   -82564   -30877    38621    90974 
   98193    67472    23267   -22079   -56758   -64910   -50812   -34177 
  -25315   -22501   -21514   -23299   -31534   -43198   -51523   -52051 
  -37133     1570    54373    91703    90664    51864    -7321   -60936 
  -86389   -76020   -35054    13830    40368    42438    36474    23743 
    4275   -13076   -28638   -46860   -63901   -72511   -66398   -43685 
  -13467     7586    13831    17133    25970    36596    43202    36078 
    9311   -23752   -46759   -57261   -56422   -42402   -15804    15647 
   35882    29448    -1468   -38437   -65672   -74110   -56028   -10881 
   46437    89647    97639    65370      415   -77199  -135585  -152237 
 -129972   -81561   -17492    45066    83830    88381    66766    36946 
   10559   -13425   -32433   -38941   -37005   -31470   -16092    10796 
   37545    51276    48947    31669    -1204   -43107   -77209   -91444 
  -89922   -78541   -50770    -6304    37075    65845    78534    71279 
   42827     3937   -32227   -58171   -70244   -68025   -57931   -47223 
  -32810   -12152     4478     9455     3993   -15880   -49336   -76283 
  -77618   -50777    -1989    52404    87428    88303    58582    11084 
  -39287   -75571   -84182   -65110   -29066     9327    35422    43775 
   38642    27593    15340    -2178   -26347   -46475   -53140   -46351 
  -28641    -1451    27582    44556    43855    28188    -2949   -45651 
  -82149   -94425   -78509   -41941     2572    40960    60215    53646 
   27162    -7809   -42425   -65114   -63209   -35212     6035    41157 
   54124    39596     5242   -31074   -50649   -47221   -30594   -16720 
  -14882   -20575   -23211   -21004   -18068   -13058    -5020    -2594 
  -13318   -30124   -41563   -44784   -39115   -23878    -3921    12688 
   18400    11381    -2808   -16233   -20732   -16260   -11577    -6842 
    2452    12698    20956    24217    14284   -10664   -40731   -62115 
  -68557   -62045   -42068   -10484    17305    23908     7731   -17490 
  -35725   -40183   -32725   -18173    -5204    -1073    -5717   -16190 
  -24562   -21761    -9804     5017    15045     7253   -17279   -38738 
  -42480   -27310    -5507     2686    -6052   -16960   -22386   -21841 
  -13511     -948     7896     7539    -1090   -11286   -15846   -10018 
    -800    -4019   -19113   -31081   -33683   -28634   -18462    -8740 
   -4259    -4765    -7985    -9491    -2662    11601    21645    18021 
    2321   -17717   -33913   -38893   -28583    -7590     9636    12264 
    5621     -549    -4929    -6364      983    14175    17119     2555 
  -18432   -36147   -46233   -41393   -21443     2502    19648    26538 
   24401    14007    -1912   -16955   -29112   -39799   -44490   -38977 
  -28533   -22132   -24523   -30117   -26232    -8584    16571    39801 
   49866    40597    16846   -10810   -33314   -46190   -49596   -49011 
  -48723   -40568   -14378    21718    47413    49976    29623    -4358 
  -37217   -57506   -62674   -52939   -32282   -12730    -4064    -4135 
   -1303    12333    29031    34958    25216     3026   -22407   -37677 
  -36447   -23173    -7160     1928     1155    -6935   -19061   -28315 
  -31455   -31553   -29528   -29228   -33928   -33327   -17392     8720 
   35948    57444    62531    43114     6287   -28450   -45909   -43235 
  -24667    -1323    11835    12226     9639     8659    10307    16396 
   18595     7078   -14738   -38499   -54798   -52586   -30528      403 
   25149    32035    21831     4343   -14926   -31258   -37436   -34877 
  -31623   -31094   -29696   -22318   -10906    -1096     4938     5738 
    2106    -1150     -882      762    -2882   -13057   -19921   -17896 
  -12106    -5888     -213      928    -6331   -21181   -34519   -36419 
  -27501   -13721     -225     6965     4230    -5235   -12472   -11347 
   -4839     2556    10254    16900    18143     9961    -5821   -20412 
  -25217   -20307   -12714    -5910     1533     7416     5087    -7316 
  -22324   -31114   -28999   -14669     3802    12220     6370    -8990 
  -27641   -39608   -41428   -42782   -47226   -47312   -41435   -31542 
  -14292     9947    31869    38889    22171   -12734   -46531   -62967 
  -56426   -29985     3502    27481    32864    20365    -2039   -21690 
  -27860   -19986    -8020    -1554     -878    -2921    -8740   -17831 
  -24392   -25477   -22035   -12208     3044    15229    17574     8970 
   -8442   -29105   -46016   -52327   -45585   -33920   -25812   -18021 
   -7938    -2299    -3588    -5203     -798     9979    21390    27825 
   27484    18513      316   -22786   -42608   -50575   -43935   -26197 
   -1579    23868    39049    32851     5583   -25853   -41946   -37307 
  -17379     7074    19017     7930   -18585   -42686   -49868   -38772 
  -19257    -1423    10540    16889    16142     8741     1453    -5565 
  -16635   -24750   -21090    -7824     6918    14836    12387     3395 
   -5411    -9546    -9403    -7695    -6997   -12147   -23900   -33978 
  -36247   -29690   -14544     3026    15015    17777    10077    -2408 
   -7686    -1615     6263     4774    -4511   -12018   -14196   -10692 
    -527     8864     4973   -15289   -43113   -64780   -70652   -61358 
  -44535   -29299   -21728   -19159   -14166    -4416     6492    13153 
   11273     -518   -18947   -33653   -33424   -19588    -3778     5560 
    4975    -5102   -19284   -32593   -41137   -39604   -25502    -2850 
   17633    25473    19121     2607   -17502   -30603   -30308   -20761 
  -10407    -5511    -7705   -13253   -14785    -7610     2831     6678 
    1498    -9143   -19262   -20913   -12741    -3598    -3362   -15294 
  -34233   -49094   -49691   -32237    -1562    27958    40319    31885 
   10721   -12802   -28069   -28491   -17760    -7155    -5471   -13329 
  -27847   -41689   -41186   -21676     6719    32949    48168    44207 
   21597    -8054   -28763   -30416   -16190     3532    19116    22097 
   11090    -4262   -12925   -10565     1213    16427    25676    21120 
    4547   -12906   -22442   -24005   -21046   -16627   -13053   -11755 
  -13975   -18244   -20922   -20866   -17985   -13970   -14035   -18793 
  -23368   -25887   -24919   -17555    -7901    -3518    -4443    -6744 
  -10012   -14660   -17435   -16882   -17577   -21507   -24751   -22817 
  -14066    -4442    -2722    -9219   -18327   -24937   -24209   -12317 
    9497    32305    45933    46115    33334    13665    -4337   -18473 
  -28073   -29087   -22562   -14421    -7533    -1479     4193     6841 
