Origin Time       2016/04/16 01:25:00
Lat.              32.753
Long.             130.762
Depth. (km)       12
Mag.              7.3
Station Code      KMM020
Station Lat.      32.3636
Station Long.     130.1807
Station Height(m) 10
Record Time       2016/04/16 01:25:18
Sampling Freq(Hz) 100Hz
Duration Time(s)  112
Dir.              E-W
Scale Factor      3920(gal)/6182761
Max. Acc. (gal)   43.427
Last Correction   2016/04/16 01:25:18
Memo.             
[...]
   -3167    -2525    -2912    -3798    -4056    -3613    -3435    -3386 
   -2947    -2687    -2518    -2069    -2250    -3144    -3561    -3292 
   -3067    -3198    -3180    -2982    -3517    -4502    -4829    -4758 
   -4625    -4299    -4509    -5040    -4494    -3551    -3904    -4692 
   -4289    -3504    -2847     -925     1001       51    -2904    -5300 
   -6144    -5396    -3850    -2839    -3202    -4808    -6735    -7463 
   -5571    -2707    -2767    -4851    -4665    -2954    -2841    -3983 
   -5108    -5742    -5554    -4520    -2536     -906    -2201    -5458 
   -6731    -5550    -4169    -2736    -1079     -765    -2331    -3894 
   -3762    -2945    -3477    -4712    -4333    -3409    -5024    -8203 
   -9696    -8942    -6937    -4181    -1996    -2020    -2763    -1890 
    -760    -1181    -2521    -3871    -4258    -3420    -2961    -3332 
   -3995    -6023    -8394    -8128    -5957    -4004    -2143     -477 
    -487    -2816    -5180    -4425    -1326     -193    -2760    -5870 
   -6527    -5583    -4857    -4540    -4766    -4874    -2731      743 
    2398     1876     -275    -3674    -5968    -6243    -6797    -7409 
   -5267    -1686     -347    -2219    -6052    -7967    -4998     -606 
    1295     1059    -1526    -6064    -8411    -6053    -1738      111 
   -1193    -1570     -288    -3411   -10611   -12027    -5526     1003 
    4147     5232     2704    -3920    -9243    -8379    -3454      -98 
   -2026    -8072   -11479    -8255    -2005     2625     2010    -3344 
   -6402    -4199    -1536    -1870    -2944    -2602    -3488    -5140 
   -3398     -649    -1021    -3534    -6780    -9727    -8597    -1934 
    2107    -1522    -3685     -607     -195    -2734    -2704    -1160 
   -2357    -8263   -15353   -16551   -11873    -8069    -6435    -3156 
    1264     3304     3118     2386     -521    -6176    -9368    -7081 
   -4350    -5180    -7245    -7127    -4543    -2783    -2279      176 
    1546     -855     -758     2659     2954      742    -1934    -6239 
   -7661    -4424    -2469    -2385    -2967    -7423   -13877   -14257 
   -6155      765     -552    -1778     4189    11049    11498     4991 
   -2625    -3133     1610     3331       20    -8918   -19512   -21118 
  -14232    -5343     5466    11126     3670    -8113   -13233   -11241 
   -4302     3373     5275     1516    -1516    -1252    -3303   -11874 
  -17151    -9860    -1052    -1220    -3170    -2908    -3467    -2785 
   -3217    -8514   -11123    -7929    -5419    -4295    -5037   -10387 
  -15945   -20309   -23860   -16038     3232    15686    15082     7033 
   -7636   -21480   -22002   -11190      307     8290     9640      -38 
  -14008   -20584   -19408   -13706    -6124    -3135    -1817     4377 
    7230     1381    -1787     3361     6570     3693     1482    -1640 
   -8091   -11375   -13946   -19190   -18646   -13984   -13156   -11055 
   -2844     7117    12303     9430     1838    -2700     3055    14521 
   16666     8138    -2340   -14316   -22194   -15230      447     9456 
    8625     3919    -2121    -5876    -1216     6228     5419    -1435 
   -7376   -12520   -15984   -14472   -10502    -8115    -5160      -40 
    2013    -1272    -4613    -5832    -5647     -947     6587     8951 
    4922      226     -332     2093      555    -4836    -7691    -9851 
  -13738   -15020   -12221    -7446    -4157    -4786    -6463    -9646 
  -15960   -16979    -8263     2328     7953     7075     1060    -7574 
  -15065   -15169    -8173    -3117    -2117     1563     6274     3646 
   -2681    -3531      142     3855     2971    -5926   -14503   -14182 
  -11196   -11628   -11545    -7986    -3596    -2180    -4270    -6258 
   -6040    -4511     -482     3025    -3102   -13398   -11969    -3013 
    -322    -1178      270      725    -2186    -5136    -2445     3836 
    5055     -511    -8758   -13033   -10806   -10367   -14668   -16335 
  -12023    -5680    -3023    -3413    -1940      133     1313     5250 
    8774     4264    -4508    -9584   -10932    -7689     1768     9516 
    8866     3786    -2718    -9104    -9561    -4148     -223    -3298 
  -12523   -17986   -14669   -12028   -12002    -5686     2795     2808 
   -2102    -5039    -8220   -11671    -9926    -1460     7883     9195 
    1435    -7141    -9427    -4228     3617     7359     4208    -2031 
   -5579    -9360   -14681   -12307    -4521    -2406    -2686    -1349 
   -3735    -7146    -5349    -2227    -2343    -4235    -5085    -5224 
   -7236    -9484   -10523   -11792   -10636    -5250     2824    11181 
   12670     4394    -5551   -12175   -16278   -14134    -4570     2546 
    -430    -7567   -10086    -9526   -12052   -15410   -12195    -2500 
    6658     9042     3893    -1678    -2542    -3756    -6823    -4303 
    2756     5046     2289    -2107   -10498   -20245   -22989   -17281 
   -7624     1112     5223     6085     4922    -1775   -10583   -12731 
   -8182     -828     5542     5218    -1361    -9177   -12438    -6735 
   -1771    -8067   -16805   -19583   -17257    -6713     8750    16917 
   12464    -2209   -15277   -14044    -6750    -6414    -9946   -13310 
  -15270   -12478    -8292    -6854    -5341    -3800    -4891    -5677 
   -4003    -2179     -271      694    -2020    -3923    -1526     -679 
   -4129    -9025   -12316    -9358    -1962     1363    -1720    -7421 
  -10613    -8617    -3188     2640     2804    -5291   -14930   -21572 
  -22646   -15400    -6385    -1753      112    -1109    -2290     1029 
    1308    -5814   -10162    -6338     -668     2749     5024     6161 
    4232    -2999   -12818   -16863   -13829   -11311   -10867    -7913 
   -3996    -2597     -735     3975     7096     4019    -2361    -5576 
   -4248    -1990    -1790    -3889    -7430   -11383   -13202   -11545 
   -9489    -7165    -2201      933       12     -997    -3293    -7726 
   -9279    -6599    -3020    -1490    -2888    -4796    -6012    -8406 
   -9505    -6190    -3172    -3168    -1097     2796      423    -8682 
  -13328    -9876    -7970    -7277      399     8090     7851     4912 
    1211    -4951    -8983    -7611    -3440     1067     4176     3914 
     930    -5725   -16178   -19297   -10227    -3402    -3970    -1298 
    4602     6445     6058     5509     -131    -9182   -11690    -9613 
  -11970   -12800    -3290     8936     9658     -766    -7093    -6488 
   -9567   -13144    -8363     -850     -646    -6351    -7486     -747 
    4808     1966    -4384    -6169    -3178      981     3260     -113 
   -8415   -13840   -12701    -9505    -5711     -926     1194      980 
    1588     1053    -2011    -4591    -5719    -6487    -6429    -7101 
   -9853   -10135    -6337    -5552   -10181   -13883   -14940   -13752 
   -5726     5215     7923     3391      118     -286       74     1642 
    4093     3113    -1953    -5315    -6988   -10972   -12800    -9482 
   -7189    -8297    -9699    -9675    -7115    -3926    -5167   -12108 
  -18345   -14852    -4570     -754    -5129    -8676    -8537    -6360 
   -2045     1786      346    -4626    -7283    -6477    -4959    -5624 
   -7064    -3169     5467     8801     2075    -6631    -9133   -10138 
  -14568   -14422    -7203    -2489    -1684     -610     -928    -3367 
   -5220    -3001     3033     6481     4736      217    -6708   -14073 
  -15811    -9534    -3237    -3892    -5695    -5222    -8149   -11039 
   -5073     4231     6107     2139    -1403    -4561    -7397    -6159 
   -2971    -4284    -7562    -7433    -5887    -3540     1881     7740 
   10294     8462     3828     2049     4950     7840     9148     8944 
    6774     6030     7581     6988     3645     1006    -1124    -3179 
   -2292    -1214    -3618    -3121     2944     6996     7180     7106 
    6442     2709    -7206   -19929   -22834   -13235    -4414    -4704 
   -8075    -6972    -2912    -1009    -1354    -1019      915     2678 
     216    -7386   -13636   -16447   -21299   -24755   -18169    -6190 
   -1738    -7674   -16003   -21052   -22013   -19448   -15781   -11235 
   -3797     5085    11215    10492     4455      518     -404    -1886 
   -1339     2229     4564     4754     5865    10285    15541    18185 
   19506    15869     1060   -15577   -21160   -17268    -6786     8560 
   18092    15118     2678   -16011   -31116   -30901   -22112   -16743 
  -12283    -8017   -11427   -21336   -29647   -32112   -29239   -23962 
  -17238    -7760     2163     4923    -2559   -12075   -16036   -15484 
  -12121    -6946    -2608     1903     8912    16672    24341    32374 
   37893    36544    24987     3810   -18603   -30883   -30870   -25952 
  -17794    -2033    15921    25978    27284    21074     7307    -7263 
  -16591   -21625   -20864   -12159    -1543     3732     1715    -7345 
  -16810   -15833    -5898     1506     3141     4465     7683     9615 
    8951     6074     -382    -6331    -5381      399     7354    11980 
    8021     -975    -4769    -3844    -4913    -8302    -9705    -8998 
  -11630   -17348   -17227   -10451    -8155   -15023   -23254   -23852 
  -15042    -2107     7095     3473   -15995   -37879   -47130   -44175 
  -33808   -18111     -583    16520    28915    28738    14839    -3728 
  -14193   -10509     1312    12205    14844     4819    -7138    -6755 
   -1826    -2687    -1777     2833     2910     1348     6448    17746 
   29264    35006    33797    28791    20538     8328    -7648   -26391 
  -44674   -60940   -70500   -64008   -46133   -30520   -16490     -173 
   11264    16743    23550    28228    22784     8158    -9908   -22545 
  -23808   -16831    -4850     8837    16712    18208    19985    21920 
   20042    14768     8623    10619    28670    48406    48696    30503 
    6670   -17445   -39479   -51388   -47639   -37066   -33648   -37532 
  -39086   -36154   -28092    -5693    28906    54086    57333    44657 
   21211   -10712   -41469   -57905   -52939   -30569    -5163     7623 
    3922    -8516   -25015   -40072   -39168   -21392    -2156    11782 
   18668    15682     8686     6246     9280    14159    20871    28737 
   27814    12861    -8032   -28621   -44407   -46362   -32713   -12341 
    2770     3467    -6989   -17204   -23745   -27817   -25836   -16994 
  -10878   -14217   -17743   -16674   -20822   -25512   -16788    -1965 
    8539    20405    35598    48241    57072    60178    52571    34450 
   11745    -4837    -7360    -2181     -577    -7806   -24616   -43375 
  -51442   -45836   -33528   -19097    -3759     7400     9416     5143 
    2497     4324     1267   -16265   -38921   -47698   -41159   -35030 
  -36056   -37062   -34861   -33226   -30341   -16253    10667    35010 
   43727    40782    36897    34302    25887    12509     6260     8620 
    7791       47    -6174    -8304   -13946   -20634   -12305    14397 
   41971    56327    60676    58826    43005    12458   -17902   -39236 
  -52952   -56266   -48525   -41103   -45420   -57333   -61116   -49079 
  -29982   -14898    -3943    10222    30080    45095    46642    45268 
   49454    47344    29419     2580   -20339   -27216   -16486    -1018 
   10488    17248    14603     5137     2669    10164    16846    16587 
   11903     3728   -13506   -40016   -59718   -61415   -54160   -42266 
  -21881    -3502      867    -2658    -5647   -13455   -29538   -38256 
  -22759     7146    24696    21302    12071     9265     9739     6381 
     610     1438    12792    25936    27842    16024      730   -12166 
  -29103   -50036   -60798   -54925   -42814   -34550   -31877   -33292 
  -34783   -32530   -27124   -21671   -21031   -29749   -42408   -44829 
  -32006   -13466     2510    16165    26267    29715    29403    28390 
   26226    24184    22159    18173    13366    10154    11500    17017 
   16987     5008   -10630   -19101   -19901   -21575   -28837   -33575 
  -28325   -19921   -19844   -27475   -28701   -13640    10507    28286 
   27326     4722   -24368   -38120   -36444   -32399   -23250    -5043 
    8768    10475     8535     6966     3199     2371    11383    25579 
   32869    24643     2114   -23641   -37341   -30270   -10107     9072 
   22460    28904    25860    17796    14339    18324    21729    14204 
   -2480   -13096    -5971    13989    29351    26311     8911    -8288 
  -19126   -25903   -26951   -17313     1007    19002    31158    37377 
   34724    17796    -9473   -31313   -38429   -37642   -35924   -34784 
  -37083   -40454   -38727   -32982   -26922   -21849   -17337    -9636 
    -472      944    -4231    -5202     -205     3937     4029     4730 
    9556    14268    17377    19179    13366     1100    -5097    -1303 
    6245    15989    25182    22382     7620    -2237    -1107      207 
   -3390    -5121     -854     5108     8542    10174    12168    13574 
   11245     6832     5250     2988    -8279   -22384   -23194   -12375 
   -7063   -12117   -20910   -32030   -44351   -49306   -40236   -22274 
   -7960    -5093   -11562   -20749   -27166   -26334   -17353    -6478 
    2419    12390    18582    10827    -6378   -21631   -32446   -36546 
  -29846   -18552   -12794    -9921     -125    13734    18147     8623 
   -6402   -16869   -19060   -15428    -7215     7123    21051    23776 
   18276    14331    12602    12508    16544    21672    23517    23533 
   23539    20299    10136    -2354    -7235    -3695     -809    -2910 
   -5497    -5004    -3348       84    10669    24972    28596    15918 
    -999    -8680    -8546    -7872    -2838     8099     9584    -4591 
  -17429   -21484   -33178   -57761   -72468   -62716   -41085   -20879 
   -6674    -3714    -9248   -10901    -4656     1889     3117    -1625 
  -10169   -13721    -5732     6152    12467    14743    17069    17444 
   12191     4441     -184    -2035     -164     8018    14403     9466 
   -2039   -11214   -16384   -18552   -19094   -18238   -13544    -5343 
    2956     7014     3105    -1961     5161    21755    30445    23590 
    7285    -9307   -17884   -17404   -13672    -9692    -9154   -16887 
  -26969   -29196   -24824   -21629   -22298   -24425   -24597   -21228 
  -14977    -6574     1440     4647     4037     4054     3299      -80 
   -2778    -6579   -16617   -25945   -24100   -14753    -5168     5041 
   15027    22544    28400    29617    23289    16613    18155    27228 
   36301    36470    24963     8470    -5290   -15587   -25038   -29977 
  -21483      -22    19866    25318    17744     5686    -4733    -7761 
    -774     8578    11777     7925    -3670   -20143   -29476   -26686 
  -20103   -15438   -12414   -12389   -16755   -23510   -26679   -20016 
   -7001     -240    -5458   -14275   -17614   -17309   -18948   -23001 
  -25307   -20828   -10731    -2375      778     -209    -4476    -7963 
   -4014     6320    12115     6147    -6406   -15301   -15708   -13193 
  -17064   -27059   -35779   -39942   -37558   -26169   -13031   -10554 
  -17966   -22864   -19753   -14097    -7634     6070    24734    33404 
   25048     7736    -7853   -12970    -2046    18455    31652    28399 
   15882     2938   -10593   -21758   -20322    -5761    10806    21483 
   24004    19365    13226     9111     4036    -1902    -3893    -3629 
   -6686   -11039   -11385    -8758    -6174    -2378     3201     7386 
   10521    17831    27637    29825    21066     8437    -2980   -12878 
  -18280   -16605   -12690   -12747   -16113   -17197   -13740   -11127 
  -13330   -15030   -11754    -6106      785    10171    20533    27217 
   25502    17537    10087     5170     2619     2814     2657     -210 
   -3769    -7058    -9896   -10132    -7482    -3156     1957     5206 
    5451     4300     1521    -4472   -13897   -23149   -26353   -23816 
  -20611   -18598   -18556   -21145   -24494   -25972   -20961    -6196 
   10683    18115    15154     8031     1692    -1210    -1865    -4188 
   -9884   -16301   -19031   -17851   -16340   -15472   -14508   -14321 
  -14969   -14824   -12844    -8952    -4209    -2383    -6586   -12904 
  -14584   -11251    -6807    -2078     3663     7117     4853    -1157 
   -7757   -11752    -8856    -1238     3721     5026     5891     4383 
   -1594    -7276    -9123    -9662   -10072   -10002   -10989   -11761 
   -8617    -2581     1363     -338    -7826   -16263   -17675    -8554 
    5311    14579    17253    18446    20806    22333    19855    12096 
    2815    -2165    -1017     5385    16668    31171    43057    44181 
   32376    12998    -9321   -30213   -43137   -46399   -42773   -34834 
  -27665   -24726   -21617   -15605   -12130   -14084   -18484   -23839 
  -28112   -26401   -18197    -9488    -4352    -1468     -877    -4238 
   -9561   -14013   -15841   -12827    -4488     7102    17794    22551 
   19704    12630     7145     4619    -2726   -19826   -36170   -38765 
  -28542   -14035    -1546     5670     8755    10855    11857    11845 
   14937    23067    30311    28270    15344    -1188   -12319   -16706 
  -18275   -16361    -8037     4842    16743    22688    22295    17785 
   10410     3651      462    -1151    -1424     1604     4055      624 
   -6433   -10829    -9628    -5697    -4309    -5138    -4606    -5700 
  -11858   -18848   -23430   -26602   -27508   -26611   -28121   -33049 
  -36632   -33423   -22630   -10454    -5491    -8791   -12442   -11209 
   -8686    -8772   -10449   -13240   -18629   -23846   -23217   -18704 
  -17827   -19522   -15095    -2569    10646    18124    19522    16741 
   12188     8768     7206     5680     1912    -3723    -4842     4666 
   18416    23559    20793    21040    24097    21738    14833     9875 
    8669     9407    10047     9353     7451     5259     3605     3164 
    3867     3996     2163    -1043    -5026    -7886    -4396     5811 
   13654    14358    13035     9451    -2289   -18347   -29416   -32735 
  -28531   -16196     -609     7767     5026    -2464    -8129    -9790 
   -7385    -4345    -5411    -8533    -8878    -8624   -11051   -13325 
  -12846   -12592   -15578   -18461   -16775   -13254   -12918   -13475 
   -9170    -1125     4067     2493    -4393   -11797   -16616   -20152 
  -23840   -25319   -21810   -15705   -11826   -10992   -12081   -14655 
  -15879   -12991    -7415     -790     6627    11724    11117     8213 
    8715    10873     9686     6415     5486     6297     5582     3805 
    1608    -3397   -10915   -16362   -16151   -11697    -8451    -9360 
  -11318   -11272   -11343   -14175   -17112   -14801    -6382     4349 
   14306    19163    13750     1984    -6426    -8784    -7953    -7073 
   -9819   -16832   -23544   -23508   -13141     1858    11253    13965 
   14060     9739     -405   -10228   -14278   -15395   -16790   -15794 
  -12940   -14030   -18619   -19382   -14439   -10454   -10747   -10157 
   -5496      881     6859     9192     4162    -4775    -9615    -9253 
  -10502   -17584   -26608   -30258   -25157   -14494    -2761     7786 
   14717    16822    15180     9705     1409    -4586    -5484    -4647 
   -4954    -5002    -3264     -445     2553     5710     8995    10316 
    5242    -6744   -18815   -24957   -26495   -27003   -26686   -25436 
  -24533   -22825   -19276   -16210   -14233   -11544    -8296    -5650 
   -3191      -39     1363    -2434    -8502   -11745   -13128   -14555 
  -14006   -10868    -7113    -2410     5268    15395    24394    27847 
   23418    14045     6052     2205      576    -1112    -4083    -7587 
