Origin Time       2016/04/16 01:25:00
Lat.              32.753
Long.             130.762
Depth. (km)       12
Mag.              7.3
Station Code      KMM017
Station Lat.      32.2561
Station Long.     130.9257
Station Height(m) 154
Record Time       2016/04/16 01:25:16
Sampling Freq(Hz) 100Hz
Duration Time(s)  250
Dir.              E-W
Scale Factor      3920(gal)/6182761
Max. Acc. (gal)   95.962
Last Correction   2016/04/16 01:25:16
Memo.             
[...]
    3216     3211     3213     3212     3212     3221     3223     3220 
    3220     3219     3217     3218     3219     3214     3211     3213 
    3210     3210     3220     3218     3216     3221     3217     3218 
    3222     3215     3215     3215     3209     3213     3216     3214 
    3219     3222     3219     3216     3216     3216     3217     3218 
    3215     3212     3212     3216     3223     3224     3219     3216 
    3212     3207     3211     3218     3220     3219     3217     3215 
    3216     3222     3224     3216     3211     3214     3218     3218 
    3215     3215     3217     3216     3215     3216     3218     3218 
    3216     3217     3218     3214     3209     3213     3217     3218 
    3220     3217     3214     3214     3213     3215     3218     3217 
    3220     3222     3217     3215     3220     3220     3214     3214 
    3217     3216     3215     3213     3217     3221     3219     3220 
    3219     3212     3211     3217     3217     3215     3220     3220 
    3216     3218     3214     3212     3224     3222     3212     3214 
    3214     3214     3222     3224     3216     3216     3222     3221 
    3218     3214     3210     3217     3225     3221     3214     3217 
    3222     3218     3218     3221     3215     3209     3212     3222 
    3224     3214     3210     3213     3215     3221     3224     3218 
    3216     3219     3219     3216     3215     3217     3220     3219 
    3216     3215     3212     3208     3215     3221     3217     3218 
    3220     3218     3223     3222     3210     3212     3217     3210 
    3210     3215     3218     3223     3224     3220     3217     3214 
    3217     3219     3214     3212     3213     3212     3218     3222 
    3216     3214     3217     3219     3219     3219     3220     3222 
    3229     3234     3241     3257     3275     3294     3318     3346 
    3375     3402     3429     3458     3478     3486     3488     3499 
    3523     3524     3493     3459     3393     3229     3037     3001 
    3134     3281     3416     3591     3663     3413     2987     2793 
    2887     2962     2990     3114     3119     2937     2869     2809 
    2575     2576     2869     2974     2988     3391     4063     4221 
    3381     2206     1627     1628     1832     2317     3071     3647 
    3703     3393     3325     3838     4231     3520     2030     1247 
    1628     2032     2258     3622     5995     7287     6417     4538 
    3229     2922     3158     3546     3908     4087     4269     4286 
    3338     2127     2360     3908     5714     7441     8210     6075 
     993    -3113    -2901      223     3466     5345     5465     5387 
    5730     4239     1086      320     3147     5468     4713     2670 
     361    -1748     -682     4569     9160     8301     4355     2462 
    2634     2730     2135      -51    -2193     -543     3944     6532 
    5560     3941     3326     1663     -787    -1584     -973     1018 
    5188     8871     8354     4372     1031      568     1571     2228 
    3209     5501     8467    10926    10340     4610    -2605    -4844 
   -1368     3517     6818     7448     5221     1652     -726      325 
    3105     3685     3837     6119     8220     8584     6339     1731 
    -628     2683     8435     9655     4954     1145     1465     2682 
    4406     6637     7379     7604     6227     1723      444     3913 
    2910    -2209    -1950      878     -206     -262     1162    -1191 
    -504     7429    10841     3984    -4197    -5928    -1292     6372 
   12535    11015     1007    -7439    -7797    -4879      357     9744 
   17003    17362    11108    -1788   -13846   -12932      -44    13517 
   18741    11492     -994    -5369      104     8670    13662     9493 
    1455     2959    11571    11434     3776     2112     4053     1960 
    2002     6348     4885      142     3750    10441    11316     9254 
    4337    -4433    -8154    -2635     1959     -290     -921     6146 
   15334    18472    11256    -2205   -11340   -10266    -1977     5984 
   10689    13312     9039    -4007   -13748   -11640    -5823    -3051 
    1386     8804    14428    16735    13682     4031    -3495    -2678 
     -35      935     4072     7991     8712     7776     7211     7419 
    8794     9766    12345    18185    17962     6313    -7405   -14097 
  -11816    -3303     4729     7406     6388     7539    10494     5742 
   -5519    -7593     2535    10733     9492     4643     3653     8015 
   14731    21312    22392     8723   -14781   -25138   -11530    11523 
   24973    19090     1397    -7659    -4426    -2795    -4469     -887 
    8087    16789    18144     6713    -9329   -15939   -11429    -1621 
    8445    12818     8611    -1130   -11437   -14843    -9690    -4259 
    3069    16814    26240    24498    15012      566   -14160   -24264 
  -23985   -10022     7929    20748    33258    44930    38485    12386 
   -9393   -21327   -32797   -32742   -11267    20807    46317    53294 
   44594    26665    -2185   -32370   -43947   -31044    -5935    14792 
   26418    33513    34456    26404    17707    14866     6658   -12282 
  -23216   -20756   -21873   -26887   -24747   -13099     3465    13219 
   14333    18817    22781    13892     4885     7722     5148    -9939 
  -19939   -17852   -11421    -6935    -1112    17524    40346    39766 
   16240    -8645   -29397   -44113   -46998   -40703   -23657     6472 
   34511    50925    62006    61276    38821     6308   -19764   -34370 
  -36651   -26647    -6129    21490    42794    40497    20165     4184 
    3403    11638    15373    13113     9600     -522   -10825    -9532 
   -4815     -658     8695    12146      355   -10530   -12660   -20926 
  -31426   -22738     1595    24226    39890    39262    12289   -20363 
  -26321   -13906   -12454   -17332   -10858     1498     9126     9893 
    5461     5456    12303     8606    -5981    -9061    -1808     -911 
   -6723   -12367   -11291    -3616      298    -1419      365     9666 
   23027    33383    29804    13250     2678     4095    10463    22578 
   33675    31593    15488   -11330   -35934   -39292   -25691   -12861 
   -4575      151     1547     7230    21200    29755    20564     7190 
    4607     5579     1290    -7366   -17491   -28978   -39700   -35014 
   -5458    30648    44328    28271     7504     4374     6353     1847 
    2722     7779      976   -11316    -4905    16343    23683    17745 
   16288    12190    -4390   -23995   -29784   -19807    -9882    -3880 
    5662    21201    36584    32347    12931     7347     8276    -2474 
  -12130   -12768    -8483    -4308    -7828    -8339     4957    16201 
   16053    13176     9454     5464     9018    18386    23139    17729 
    1074   -17274   -22060   -12373     1909    15461    27103    29315 
   17053     2247    -5038    -8619    -9876    -5504     4259    13769 
   14606     4982    -3950     1889    18103    26470    22973    10007 
  -14881   -33978   -23090     8032    31408    32421    13840    -6709 
  -14818   -10995     4415    26642    42994    50528    48418    33507 
   12478    -6622   -18967   -20277   -15236    -9421     1443    16027 
   21192    10202    -8481   -21964   -23462   -18360   -19387   -22915 
  -12929     8871    26264    28650    21941    18494    15711     9974 
    9688    15078    13335      137   -10495   -11327   -11949   -11416 
   -1295    11069    13759    11790    17797    25074    16970    -1902 
  -12580    -9168    -2123     3997    15227    27436    29401    16198 
   -8182   -29078   -37577   -37784   -31801   -23023   -20288   -22749 
  -19680    -8590     4220    15095    20254    17715    13508     7353 
   -6885   -19718   -20188   -15006   -10974    -7256     -258     9651 
   10889     2186    -2849    -2900    -6580   -14637   -20753   -21662 
  -20355   -20777   -20908   -12053     9171    33292    45600    41849 
   30041    11947   -11404   -25254   -21106    -7490     7473    19927 
   22782    12656     -747    -4001     2758     8111     9942    17943 
   33617    45390    42435    25443     4793   -11755   -22741   -26721 
  -22806   -12859      389    12000    16996    14389     1936   -17550 
  -27224   -18238    -2478     9974    19361    24048    21084    13310 
    5161    -1538    -3237     2325     9496    10626     5619     1326 
    2728     9282    14263    10867     5369     5853     9439    11342 
    8168     3906     5194     4285    -4091    -8505    -4636      -98 
    8671    27519    43417    44433    35691    23802    10364    -2382 
   -9344    -7787    -2075     1060     -533     -673     5400    11598 
   13539    15614    20471    25196    28147    29698    27750    23926 
   23998    23591    13101    -2604    -9778    -4886     3604     3226 
   -9051   -19953   -20217   -15083    -6525     8126    20771    20151 
   12424    10888    11469     4743    -5741   -16256   -25415   -26876 
  -18156    -2743     8646     3446   -14138   -29389   -31619   -18251 
    1994    19865    32137    34569    22335    -1000   -19134   -20146 
  -10228      806     7546     4266    -9489   -22642   -22536    -9434 
   10042    30933    43580    42186    32029    17440     3933       26 
    2515     4665     9390    13548     7585    -2082    -1286     9433 
   18503    15995     3972    -4587    -7128   -11246   -12776    -7182 
    1373    15403    26360    15698    -4266   -11176   -10603   -12371 
  -12897    -8164    -2451    -5500   -14357   -11607     5706    19870 
   22376    21510    21452    21881    19127     6956    -1824     4684 
    9078      -46   -12829   -23342   -26742   -16573     -621     7235 
    6179     2145    -3883   -11562   -19596   -27734   -31620   -27572 
  -22929   -27510   -36006   -31829   -12157     9652    25811    35179 
   33273    19205     5428     6832    19297    28202    32370    36852 
   38628    30888    11188   -11526   -24985   -29482   -28396   -18677 
   -5133     2359     4044     2988     -532    -5215   -14181   -29505 
  -38290   -30613   -17844    -8102      358     1729    -2529    -5518 
  -12908   -21750   -21045   -15860   -12301    -8323    -6321    -6201 
    -701     9625    15176    16019    20724    27493    30188    32447 
   38579    44900    45229    35655    18664     7377    13356    30239 
   47857    67087    83173    81563    58195    26765     3262   -10423 
  -19335   -24962   -32062   -43794   -50852   -43109   -19006    14424 
   42708    59312    65668    58753    40019    15840   -10562   -34187 
  -48774   -50293   -36997   -16251    -2705     1753     6333     7100 
   -1074    -3283     9862    28416    44341    52407    50505    45707 
   38068    23549    10119     5979    10092    17155    23253    30894 
   39415    40561    36020    32887    27578    19614    13869     6145 
   -5287   -12677   -12801    -7344     1824     9407    13261    14802 
    7109   -13520   -34004   -43113   -42844   -36258   -25453   -17611 
  -17593   -20926   -23688   -25935   -24617   -20299   -17086   -15578 
  -17764   -19196   -12316    -4436    -5048   -15054   -28694   -33032 
  -23365    -6718    11511    24995    23847     9665    -2192    -5950 
   -7635    -8603   -12269   -25985   -46836   -63721   -67425   -53312 
  -22219    20078    63117    92354   102153   101640    96145    83458 
   67413    50499    24430   -11316   -37753   -42578   -33852   -19846 
   -5876     1930     7630    19347    36881    55844    69054    65194 
   38731    -3469   -45816   -71666   -78981   -77339   -65360   -40872 
  -18265   -11028   -18198   -30220   -37408   -39029   -41276   -44542 
  -43618   -38517   -33318   -27371   -18029    -8318      633    15511 
   35913    51211    56367    50452    27793    -9991   -45303   -64162 
  -68902   -63512   -50635   -37936   -24168     1249    36781    70979 
   96847   108882   102445    81329    56886    41672    41581    51155 
   61016    67536    71433    70033    60745    47997    34888    18359 
   -3414   -27786   -50510   -67996   -76080   -75191   -73014   -69652 
  -57315   -36604   -12812     9550    23542    26548    21208    10383 
   -4434   -23448   -41202   -54516   -70495   -82473   -73013   -42189 
   -1508    33948    52029    57287    50981    27247     1343    -9895 
  -13174   -15346   -12991    -4447     7366    17088    25404    36197 
   42600    42934    51097    67866    78817    77201    60414    27451 
  -11978   -44712   -62629   -55955   -23207    13624    35418    44879 
   43907    30535    13384     2418    -3637   -13174   -28103   -41615 
  -53192   -66315   -74816   -71950   -56418   -27499     5958    29195 
   39243    36854    18827    -7593   -26818   -32181   -30022   -28911 
  -28277   -22495   -10614     2316    14204    30315    46840    51271 
   45472    39800    38033    42446    49657    48994    38200    23022 
    9293     5199    14674    31264    46336    55392    55835    48762 
   43107    45537    50364    49458    41230    27052     9937    -5120 
  -14111   -15867   -12280    -7586    -4494    -2931    -4225    -8065 
   -8758    -3466     4836    12307    14242     6771    -7493   -19817 
  -25043   -26840   -30589   -37318   -43577   -44694   -39691   -30744 
  -19068    -7953    -7310   -22888   -45795   -63958   -73484   -74840 
  -71106   -67296   -64033   -59664   -55267   -51453   -48412   -47196 
  -50298   -62231   -79651   -90070   -87228   -73094   -48254   -12960 
   22653    40890    37969    28336    22887    22119    27787    43184 
   64320    84156   103448   124250   141064   150819   154569   148516 
  131782   111045    89068    64338    43385    37713    47180    63349 
   81700    96487   101890    98037    84562    62931    39945    18531 
   -1766   -18570   -30841   -38884   -37998   -25136    -7293     6464 
   11366     4368   -13612   -34216   -47554   -50973   -47857   -43775 
  -45227   -52883   -59834   -59371   -49603   -35417   -27081   -29489 
  -37673   -47120   -54737   -54843   -47251   -36978   -26323   -14800 
   -2325     7247    10215     7886       48   -13691   -26911   -35345 
  -41463   -43936   -38228   -25346   -10931      291     7767    12813 
   16393    20278    24287    26609    27887    29100    30123    31314 
   33118    37247    45423    54800    60602    59230    48153    31247 
   17841    14144    21659    36570    47750    43142    21231    -6811 
  -29371   -43273   -48345   -43056   -28404   -10538     4827    18802 
   33238    44077    46410    36787    14431   -13834   -39824   -60495 
  -72658   -72932   -63282   -49881   -38386   -30038   -21585   -13547 
  -11485   -13605   -14345   -16644   -22049   -24484   -21765   -15631 
   -7067    -1570    -4954   -13795   -19427   -14286     5620    34824 
   60218    74039    76531    68967    54320    39686    32425    32485 
   30941    22028     8325    -8501   -27984   -43910   -46724   -29634 
    6138    46509    72273    75299    57332    22203   -17476   -44949 
  -55174   -51076   -36654   -17786     2043    20875    36507    49229 
   56435    53887    44708    33127    18190      644   -14050   -21284 
  -20555   -11891     2872    15332    21217    26508    29147    20201 
    6715      -21    -5065   -13398   -19171   -22553   -29968   -38271 
  -41529   -44238   -48664   -44367   -27184    -8760     1463     3674 
    -317   -10112   -23492   -33097   -32018   -22048   -10649    -1019 
   10135    22476    29160    29296    29811    32553    32222    26593 
   19738    15046    10206      986   -10806   -18118   -18290   -12855 
   -2123    12318    27392    40126    47781    50948    51929    49352 
   41753    33755    28821    23286    16033    11429    12107    17221 
   21828    18812     5965   -12373   -30137   -42738   -47079   -41296 
  -25718    -6510     7021    14781    23615    32362    34924    30233 
   18946      994   -21023   -41252   -53905   -56849   -51620   -42699 
  -33651   -23027   -10372     -787      101    -7005   -14621   -18865 
  -22572   -25431   -24077   -17998   -10174    -6681    -9857   -17231 
  -29451   -43855   -51811   -51923   -48550   -44095   -41126   -38173 
  -28013    -8879    12241    28620    37237    36014    26787    17102 
   11898     9235     7024     4980     1723     -916      866     5797 
   11029    13829    10686     2844    -6496   -16687   -23421   -20472 
  -12476   -12245   -21676   -30206   -32876   -32247   -27573   -19150 
  -14652   -19598   -27829   -28837   -21176   -11708    -6973    -9047 
  -13333   -13348    -8347      351    12878    26267    35716    39861 
   41325    43455    45757    46586    46796    44269    36455    28655 
   27007    30550    36139    42288    48632    55760    62272    65721 
   68319    72331    73892    68949    58452    46721    37300    30956 
   30174    38374    52391    66006    76937    81974    75551    58351 
   37478    18279     3341    -3928    -1602     6511    12922    12915 
    8446     4847     4258     4889     5038     4355     2850     1444 
    1997     4566     6969     7859     7420     6898     6762     4268 
   -2946   -14426   -28828   -41823   -45500   -34116    -9218    20178 
   42712    52057    48379    32722     6913   -22007   -45985   -60614 
  -64314   -59085   -48479   -35097   -21636   -10123    -3820    -6219 
  -15221   -28203   -42926   -50658   -46084   -33905   -18441    -1234 
   14789    27258    36049    40029    38707    36199    34393    32080 
   32655    38862    47916    55880    58893    55211    45521    28701 
    5562   -16772   -32006   -40272   -44102   -45558   -47340   -49020 
  -45437   -35068   -21389    -7270     3364     7464     7696     8498 
   11911    16517    19178    19302    17293    12687     7390     6319 
   11869    18973    22197    23530    25387    25728    23543    20369 
   18043    18176    20622    22562    21242    15563     2995   -19317 
  -46436   -65927   -69028   -55636   -30452    -2362    15916    16768 
    2778   -18575   -37500   -44432   -36766   -18302     5306    26894 
   40427    45969    46775    42772    33872    23261    12500     2949 
   -1864     -598     7171    21392    36539    45750    46595    38043 
   20295    -2214   -22528   -34801   -36710   -28964   -14424     1751 
   15555    25295    29501    29121    26271    20724    12729     3924 
   -5181   -13824   -18725   -17309   -10954    -2791     3026     3793 
    2944     3247     1260    -4632   -12151   -20671   -30231   -38937 
  -43998   -44603   -42922   -40766   -39424   -40338   -41427   -39998 
  -37945   -37121   -34590   -26264   -12677     1882    14191    22187 
   24438    21785    17229    15001    18011    25779    36805    49375 
   59784    64954    63652    53968    37317    20871    10293     7012 
   10765    18800    27562    35706    41177    40260    32545    20386 
    6839    -2851    -6599    -6817    -4353    -1863    -3886    -9405 
  -14803   -18940   -21393   -20946   -17068   -10821    -2386     9214 
   22904    35213    43688    49051    51951    50345    43702    35767 
   30299    28701    31161    34871    35816    35378    37992    42896 
   46003    45919    41944    32967    20755     9857     3971     2401 
    2610     3872     5722     8352    12384    17407    22494    25530 
   25920    25954    26683    28310    31555    36017    41568    49418 
   58648    65109    65495    58602    45338    30661    19866    13428 
