Origin Time       2016/04/16 01:25:00
Lat.              32.753
Long.             130.762
Depth. (km)       12
Mag.              7.3
Station Code      KMM021
Station Lat.      32.3793
Station Long.     129.9997
Station Height(m) 10
Record Time       2016/04/16 01:25:19
Sampling Freq(Hz) 100Hz
Duration Time(s)  236
Dir.              E-W
Scale Factor      3920(gal)/6182761
Max. Acc. (gal)   67.330
Last Correction   2016/04/16 01:25:19
Memo.             
[...]
    4677     4087     3536     2559     1877     1714     3116     5596 
    6695     6757     6767     5950     4158     1995     1193     2165 
    2446     1663      741     -419     -520      640     1379     1304 
     732      391      668      918     1161     1922     4021     6827 
    7860     7979     8865     7889     4528     2763     3730     5022 
    6148     8872    13142    15759    14844    12971    12197    11024 
    9051     7638     6261     4318     2928     2363     1974     1640 
     827    -1323    -3334    -3622    -3994    -4416    -3332    -2628 
   -1805      709     1603     -196    -1959    -2604    -2754    -3591 
   -3960    -2603    -1359      601     4311     6486     6513     6195 
    6097     7317     9304    10382    10115     9206     9262     8898 
    6742     6171     7897     9458    10368     8843     5223     4763 
    7398     8033     6899     6763     7135     6679     4266      561 
    -886      389      990    -1287    -5464    -6048    -1051     3093 
    3991     3592     2309     3455     6099     4734     1701      505 
   -1489    -5055    -6443    -2599     3973     7085     6180     7120 
   10807    11253     6755     1775    -1205    -1910     -906     -675 
     -81     2942     3575     -547    -3793    -2806     1465     7002 
    9932     9632    10656    13047    12167     8573     4999     1942 
    1294     1198    -2962    -6694    -4391    -1759    -5038   -11121 
  -14019   -12384   -10076    -8845    -3583     7547    16107    15281 
    9876     7070     5821     2639    -1519    -3101     1312     8720 
   10899     8519     8148     9505    10303     9637     7341     7327 
   10167    11106    10638    12061    12696     8729     3287     1849 
    4389     6171     2793    -3707    -5414      669     7757     8244 
    3126     -811     -216     1111    -1837    -6130    -6047    -2441 
    2420     5207      974    -6068    -7920    -5427    -2823     -776 
    2412     7431    13262    17965    16782     9332     4065     3036 
    1369     1928     7470    12619    15440    18550    20454    17990 
   12210     8264     8897    10184     8377     4464     1549     3262 
    8473    11144     9132     4235    -1362    -5859    -8761    -9381 
   -8142    -6234    -4355    -3811    -2738     1093     3309      571 
   -1147     1041      -73    -3130    -1083      870       47     1053 
    2065     3289     8866    16122    20851    23987    26393    25313 
   18937    10491     5924     7177    11252    15593    15910     9171 
    2532      581    -3242   -10529   -15521   -15393   -10527    -4277 
     -65     2391     2202    -2184    -7697    -9862    -8515    -7559 
   -8624    -9298    -8203    -5838    -4323    -6118    -7839    -4404 
     734     1870      720      876     2615     6603    12310    15272 
   14954    14464    11462     4355    -2210    -4312    -2133      -52 
     144     4152    12659    18873    20906    20042    15550     9006 
    3761     1326     2254     5200     6713     5148     1700      -98 
    1360     1916     -844    -6296   -13466   -15936   -10954    -5657 
   -3425    -2090     -136     3536     6693     5465     2403     2703 
    2208    -4924   -12240   -13872   -13181   -10182    -3461     2435 
    5146     6373     5181     3071     5419    10088    11523    11643 
   13888    19091    25563    27031    23088    21468    21343    16279 
    8959     4939     4819     7510    10722    11763    10526     8036 
    4434     -891    -7919   -15082   -21321   -25547   -25697   -21797 
  -15135    -8051    -5083    -6612    -8047    -6941    -4569    -3588 
   -2479     3347    10570    12949    13509    17319    21947    22230 
   18942    17449    19190    21672    22685    21406    20183    20413 
   19399    17302    16817    17272    17344    16564    14668    12361 
    9255     4681    -1000    -6564    -9701   -11069   -12876   -14296 
  -16017   -20266   -25226   -28086   -29051   -28808   -27636   -27058 
  -26540   -22411   -15296    -9958    -7195    -3669     2167     6076 
    5231     5957    11482    14857    13176    11381    12947    18177 
   24035    25591    24541    26597    30375    31581    31565    32819 
   33357    29350    20759    10931     1227    -6694    -9657    -9951 
  -11738   -14093   -15146   -14522   -13272   -13381   -13932   -13245 
  -12342   -12800   -15241   -17244   -16084   -14465   -14312   -13703 
  -12643   -10349    -5781    -2039     -708      -43     1179     3879 
    7100     8660    10666    16147    22179    24652    24586    24449 
   23345    20540    18357    17191    15161    12226     9596     8942 
   11178    15723    20254    20190    15771    12723    11176     7261 
    1205    -3764    -4828    -3655    -5175   -10368   -15699   -17644 
  -16328   -14033   -10949    -8052    -7871    -9068    -8015    -4601 
   -3746    -9154   -15483   -14695    -7934    -3488    -5727    -9519 
   -7992    -2857      762     3424     7853    13601    18046    19386 
   18685    18585    21253    27168    33517    36905    37630    37517 
   36368    32841    26706    19833    14661    12093    11848    11888 
    9272     5071     1296    -4730   -12829   -17115   -17215   -18301 
  -20514   -20719   -20364   -23016   -28181   -33284   -37431   -39462 
  -38280   -36046   -34946   -33261   -28759   -21493   -11714      -77 
   10176    15862    18287    21808    27753    33175    36154    36696 
   34731    33222    35705    38920    37681    33045    28156    23491 
   20648    21248    22143    20774    17995    14173    10334     6433 
    1155    -3516    -6564   -10377   -15740   -20361   -22212   -23442 
  -26129   -28608   -30316   -30926   -29015   -25656   -23069   -22221 
  -21914   -20538   -19268   -18227   -15079   -10445    -6640    -2502 
    3954    10119    13661    17710    23375    27889    31553    35870 
   39774    40970    38135    33955    32675    33657    32654    27932 
   22998    22499    24449    22477    15621     7671      751    -4394 
   -7641   -10312   -12972   -15241   -17634   -20256   -21724   -20566 
  -17696   -16338   -16576   -15934   -15750   -17037   -16694   -13768 
   -9517    -4100      909     3381     3197     1928     2613     5416 
    6557     7233    12570    20414    25196    27182    27550    25089 
   21372    19424    19370    19940    20326    20088    18413    14286 
    8700     3191    -1823    -4527    -3869    -3090    -5498    -8588 
   -7864    -5990    -8187   -12205   -14691   -16248   -15466   -11635 
   -7959    -6917    -9289   -12458   -11116    -5728    -1807     -935 
   -1061     -835      741     3415     4822     4089     3615     5083 
    6156     5080     4855     7454    11085    14985    18997    22745 
   26294    27155    23967    20354    18442    15980    10965     5417 
    3222     3609     2803      731     -647    -1049    -1529    -2301 
   -1137     2037     4089     4123     1303    -3870    -6297    -5837 
   -6541    -7392    -7299    -7788    -8384    -6631    -1532     2326 
     327    -3398    -2922     1432     7195    13333    18567    19859 
   16125    11187     7403     3663     1473     2173     2661     1311 
     602     2478     6309     9391     9354     7507     5882     3354 
    -554    -3630    -4669    -4428    -3564    -1952    -1245    -4227 
   -8349    -9049    -7454    -5122     -993     4119     8385    10394 
   11054    14217    19904    23502    21597    15343    11131    11383 
    9803     3934    -1033    -1065     3543     8740    11087    11615 
   11505    10448     8321     5214     3877     5917     6960     5012 
    2784     -291    -5083    -8802   -10393   -11374   -11683    -9814 
   -5617     -703     3126     4342     2502      -23     -494     1094 
    4271     8964    13592    16565    17675    15931    10206     3010 
   -1877    -3309    -1895      443     2748     5600     7281     6415 
    5187     5290     5567     4559     2938     2445     3250     4144 
    4865     5697     5228     2029    -2265    -4192    -2595     -115 
     887     1111     1172      659      480     2015     5333     8619 
    9396     7980     7310     8420     8909     7386     5473     2755 
   -2076    -7368   -13284   -18833   -18640   -13625    -9244    -6014 
   -3251     -485     3628     8538    13551    18744    23995    29754 
   35530    40998    46554    49508    47650    42523    35898    29975 
   25346    19474    12541     7776     6984     8154     7175     4389 
    3004     2065     -744    -5452   -11554   -17808   -23589   -30395 
  -38239   -45494   -52172   -58797   -63498   -62847   -57200   -50681 
  -44014   -34660   -21634    -7001     3887     8694    12244    17233 
   20210    19554    17764    17482    20138    25615    31608    35226 
   35695    34202    31947    30317    30595    31848    32000    29698 
   23865    15906     9660     5960     3082      747    -1675    -5730 
  -11933   -20674   -29996   -34842   -34011   -29491   -21320   -11656 
   -4600     -625     1341     1542     1022     1093     2222     4245 
    6902    10888    15542    16572    11755     4722      536     1489 
    5618    10304    16443    23829    29143    31688    32989    33194 
   32022    30071    30001    34026    38481    36969    27638    13620 
    -762   -13566   -24321   -31318   -34495   -35765   -35529   -34809 
  -35170   -35149   -33479   -33803   -39724   -46519   -46901   -41677 
  -36136   -32707   -29846   -25340   -20858   -18262   -15852   -13005 
   -9949    -6125    -2741      672     8149    21242    36936    52030 
   65216    74836    79577    80985    79537    71917    58058    45709 
   42258    46129    51417    55074    53674    42619    24993    12412 
   12240    17957    18092    12814    11102    15961    22706    25626 
   21760    10677    -7117   -27688   -44215   -53956   -59095   -62952 
  -66871   -66172   -55017   -36046   -16812    -1862     6868     8550 
    4182    -2654    -8417   -13644   -19160   -23753   -28464   -33567 
  -35799   -33474   -27061   -18626   -13083   -12619   -13253    -9839 
   -1235     8676    16858    25169    34333    41556    44048    39651 
   28794    16163     7663     6132     9500    14362    19895    25825 
   30802    35159    39322    40910    39632    37029    30893    20032 
    9429     6624    14637    26473    32487    33521    35736    38511 
   38381    33679    22324     4087   -18257   -37948   -46837   -44276 
  -33327   -17528    -6774    -7377   -14361   -21245   -22132   -12449 
    2082    10250     8916     2799    -4865   -15551   -28828   -40305 
  -48282   -52763   -51932   -44855   -32626   -19947   -13455   -14194 
  -18163   -21284   -20340   -15656   -11142    -8909    -8763   -11506 
  -15574   -13530    -1250    13540    20192    16999    10916    10922 
   20387    34565    47065    53134    48790    36962    28772    31471 
   40749    45714    38704    22435     7962     4156    10323    19901 
   27859    32483    34284    35803    39285    42069    36410    19307 
    1928     -639    11417    25124    31761    31375    28991    29097 
   28232    22104    15205    10349     3827    -3948   -10096   -17268 
  -27819   -38183   -44857   -48571   -51473   -54085   -55799   -57248 
  -58212   -55663   -48022   -37064   -26124   -17982   -12745   -11784 
  -18171   -26715   -27910   -23354   -20292   -17146    -8562     4643 
   19633    36528    54262    69113    78032    79747    76283    72165 
   67934    60169    51120    47128    45914    41185    35334    33896 
   36925    40383    39632    34693    30887    30107    29035    26752 
   24169    18878     7785    -8668   -26402   -40495   -49749   -56575 
  -61526   -62627   -59174   -52807   -46884   -43755   -42617   -43343 
  -46461   -47976   -43390   -34279   -25116   -18506   -15404   -15844 
  -18914   -23644   -27892   -27903   -23291   -18209   -16293   -17983 
  -19627   -16853   -11402    -7778    -6563    -6826    -6402    -1687 
    7132    17273    25568    27209    21492    14003     9518    10651 
   19269    32665    44779    53071    58534    61469    61402    58218 
   52149    44078    36745    34617    39369    46819    51661    53066 
   53090    52652    51631    49611    45305    37662    26845    14341 
    2391    -8474   -18594   -26898   -32841   -36678   -39394   -43237 
  -48159   -53302   -60396   -69051   -75706   -77673   -73550   -63860 
  -50724   -36179   -23909   -16989   -13576   -12089   -14529   -19580 
  -20913   -14199     -772    15816    34008    52458    67807    77872 
   82242    80566    75023    70623    69719    68863    63579    54214 
   44960    40303    41904    45536    44256    35233    20419     3330 
  -13080   -27847   -41340   -53616   -64128   -70797   -71464   -67911 
  -63328   -57946   -52587   -50841   -53723   -57997   -59988   -57465 
  -51449   -44930   -37570   -28762   -21447   -16354   -10618    -1762 
   10456    22757    31979    39741    48672    57994    66595    75638 
   85089    91827    92357    86871    79844    73449    66673    61092 
   57274    52498    46209    39575    33598    30232    29093    26413 
   21702    16697     8901    -2960   -14868   -24460   -33853   -45740 
  -59788   -72512   -80682   -84559   -86403   -86663   -85776   -86143 
  -87688   -86899   -80515   -66517   -47034   -31118   -26143   -28835 
  -31867   -31741   -27063   -18430    -8746      720    11199    23777 
   37303    49281    59762    70655    81453    90939    99606   106438 
  109420   109155   106122    99146    89219    78444    65594    48074 
   29489    18729    16575    14757     9719     2121    -8107   -17802 
  -24077   -27987   -31940   -37733   -43465   -47526   -52736   -59536 
  -64741   -67753   -70946   -75242   -78054   -76731   -70938   -60422 
  -45087   -27352   -12138    -4023    -1979     -348     3201     7539 
   12075    16388    19658    20435    19266    18758    17681    13962 
   10733    10270    10682    12405    16742    20576    22574    25705 
   28947    29144    27145    23965    19631    14750     8810     1297 
   -7036   -14287   -18087   -18908   -19739   -20766   -19339   -14423 
   -6922     1196     7282     9364     6652     1522    -2870    -7520 
  -12331   -14493   -14361   -12163    -6926     -860     4521    10281 
   16661    24230    34234    46208    58321    68506    75389    79973 
   83863    85998    84741    80629    75294    69480    61705    51657 
   43387    38156    30067    15671      102    -9833   -13080   -12989 
  -11759    -9981    -8650    -8966   -12782   -20696   -30329   -39968 
  -48854   -55198   -58907   -61871   -64256   -62928   -54933   -42736 
  -31329   -22685   -17330   -14569   -11405    -5972     1095     7325 
    9227     6873     5095     7047    10372    11412    10667    11431 
   14456    18108    22644    29145    35021    35512    29041    19079 
   11749    10259    11898    13111    13771    13563    10636     4954 
   -2907   -12909   -22693   -29843   -35210   -39442   -41829   -42931 
  -42863   -40486   -36220   -31552   -27956   -27041   -28932   -32366 
  -35768   -37074   -34792   -29508   -23631   -18224   -10961      250 
   14285    28402    39830    47512    53164    58817    64974    71012 
   75411    76662    74515    69954    64604    60296    58431    58725 
   58864    56537    51044    43169    35046    28031    20923    12682 
    2757   -10978   -28314   -44933   -57970   -67196   -72106   -73087 
  -72745   -73690   -75428   -74102   -67225   -57066   -47170   -39043 
  -32692   -26781   -19674   -11668    -4921    -1534    -1121     -527 
    2991     9522    17116    23757    29238    34978    42582    52466 
   63113    72743    80260    83259    79344    70171    59893    51318 
   46633    46312    46291    42826    36781    30412    25994    24241 
   22160    18174    14198    10451     5556      -13    -4565    -7418 
   -9914   -14412   -21397   -27989   -31063   -31390   -32805   -37167 
  -41470   -41725   -37883   -32367   -26882   -22230   -18793   -16751 
  -15884   -15513   -15811   -17732   -21002   -24480   -27346   -28016 
  -24267   -15198    -2815     8216    14872    18372    20180    19879 
   18130    17670    20554    25789    30844    33571    31761    25183 
   17652    13451    13778    17332    21951    26458    30673    33148 
   31709    26376    19568    13819    11016    11976    13850    11732 
    5720      984       -1      606      247    -2531    -8773   -18162 
  -27646   -33827   -36165   -35989   -35761   -37664   -40206   -41098 
  -41155   -40871   -39093   -36429   -33226   -26811   -17328    -9942 
   -6374    -2634     3835    11665    18354    23038    26947    30317 
   32157    33546    36949    43800    53588    63751    72288    79022 
   83212    83330    78446    69305    59533    52517    47620    42920 
   37021    27653    15326     4897    -1108    -4773    -7950   -11260 
  -16551   -24611   -32384   -37402   -41400   -47322   -55913   -64514 
  -69935   -72264   -72293   -69032   -62944   -56723   -51847   -48100 
  -44861   -40707   -34322   -26647   -20726   -18657   -18829   -17567 
  -12732    -4011     7873    21188    34365    46396    57040    67636 
   78735    88165    93873    95823    94656    90526    83126    72874 
   61611    51372    42619    34261    25770    17955    11367     6246 
    3688     3773     4037     2728      -57    -4875   -12034   -20663 
  -29852   -38551   -46481   -54400   -62517   -70721   -78427   -83594 
  -84593   -81876   -76070   -67223   -56462   -44825   -32004   -18749 
   -7061     2325     9421    12958    12299    10723    11874    14492 
   16373    18945    23838    31115    40860    51921    61432    66599 
   66590    63691    60442    56416    50490    43421    36007    27854 
   20003    15683    15878    17079    16191    14268    13051    12273 
   11534    10570     8091     2777    -4898   -12538   -18337   -22626 
  -25837   -27633   -28553   -29850   -32009   -34218   -35389   -35708 
  -35511   -34215   -32047   -29886   -27539   -24155   -19377   -13647 
   -7694    -1877     3909    10037    16353    21580    25198    28836 
   33590    38380    42024    44471    45963    46467    46422    46444 
   46237    45972    45937    44059    38618    31530    25728    22209 
   19950    16914    12067     5734    -2149   -11205   -19288   -24538 
  -27115   -28720   -30886   -33401   -35039   -34896   -33344   -31865 
  -30533   -28712   -27604   -27677   -27777   -28429   -30285   -31327 
  -29173   -23697   -16839   -10414    -4870     -263     3578     6956 
   10006    13513    17911    22851    28974    35966    40993    42594 
   42092    40903    38970    34958    28585    21777    15764     9995 
    4302    -1018    -6120   -10401   -12689   -12930   -11763   -10376 
  -10645   -13828   -19702   -26158   -30822   -33243   -33108   -29968 
  -26242   -25047   -26173   -27750   -28380   -26241   -20452   -13716 
   -9086    -5458     -479     5123     9308    12623    17418    23925 
   30371    35778    39981    42367    42044    39436    36833    35542 
   33816    29904    25290    22258    20605    19069    17247    15278 
   13029     9585     4907      845    -1682    -4280    -9068   -15597 
  -20832   -23622   -25184   -25198   -22572   -17297   -10414    -4668 
   -1916    -1394    -3065    -6885   -10371   -12237   -13619   -15094 
