Origin Time       2016/04/16 01:25:00
Lat.              32.753
Long.             130.762
Depth. (km)       12
Mag.              7.3
Station Code      KMM021
Station Lat.      32.3793
Station Long.     129.9997
Station Height(m) 10
Record Time       2016/04/16 01:25:19
Sampling Freq(Hz) 100Hz
Duration Time(s)  236
Dir.              N-S
Scale Factor      3920(gal)/6182761
Max. Acc. (gal)   52.641
Last Correction   2016/04/16 01:25:19
Memo.             
[...]
    -602    -1603    -1888    -1319     -971    -1201    -1710    -2404 
   -3397    -4440    -4988    -5010    -4972    -5345    -6238    -7193 
   -7778    -7996    -7996    -7960    -8105    -8643    -9392    -9514 
   -8591    -7168    -5676    -4600    -4574    -4859    -4791    -5112 
   -5098    -3813    -3226    -4000    -3629    -1850    -1065    -1941 
   -2911    -2789    -2463    -3202    -4324    -4552    -4023    -3603 
   -3437    -3404    -4281    -6192    -7499    -7388    -6638    -5921 
   -5504    -5428    -5911    -6923    -7360    -6901    -6305    -5580 
   -5295    -6500    -8132    -8375    -6823    -4471    -3034    -2923 
   -3232    -3533    -3688    -3403    -2468    -1482    -1254    -1099 
    -958    -2500    -5385    -7338    -7394    -6100    -4614    -3561 
   -2682    -2882    -4914    -6581    -6711    -6997    -7709    -7850 
   -6995    -5899    -6818    -8915    -8328    -5523    -4125    -4313 
   -3883    -3074    -3593    -4786    -5485    -6050    -6124    -5346 
   -4471    -3657    -3352    -4478    -5303    -3586    -1355    -1802 
   -4426    -5711    -3886    -2243    -3117    -4518    -5219    -4439 
   -2764    -3086    -4102    -3947    -4747    -5840    -5304    -4038 
   -3966    -7085   -10309    -8391    -3911    -2305    -3998    -5277 
   -3312     -915     -762    -1407    -2571    -4140    -5462    -7043 
   -7759    -6934    -5501    -2787      356      936     -458    -1755 
   -3289    -3515    -1723    -2534    -6249    -8335    -8937    -8993 
   -7993    -7703    -8492    -8252    -6648    -5417    -4725    -3777 
   -4694    -7930    -9683    -8872    -8371   -10212   -12160   -11381 
   -9119    -5155      -80      715     -931      294      913     -690 
    -628     1292     3073     2308    -1673    -4247    -3751    -4361 
   -6172    -6704    -6904    -6351    -3829    -1287      572     1675 
    -352    -4881    -7962    -7335    -3523     -505     -921    -1679 
   -1455    -2580    -4989    -6393    -5008    -2966    -4279    -8035 
  -10838   -12401   -14120   -14001    -9759    -5943    -5141    -4457 
   -6825   -13096   -15353   -10969    -3833      432    -2883    -7991 
   -7379    -6222   -10023   -12782    -8488    -1465      -58    -6013 
  -11192    -7779    -1289    -1485    -4396     -731     4562     2529 
    -422     3401     8809    10074     5849     -275    -1075      208 
   -2827    -6113    -6698    -5787    -4550    -7056   -13951   -22128 
  -29897   -31878   -25425   -18352   -14609    -9900    -4825    -4095 
   -7101    -8561    -5887    -2560    -2565    -4055    -2094     3417 
    6796     5952     4853     3976     2274     3208     7313    12300 
   16460    14124     4515    -2580    -3610    -5731   -11287   -14202 
  -10228    -4252    -5467   -13494   -18005   -14844   -11053   -13028 
  -17630   -18457   -17579   -18996   -17932   -13500   -11885   -13738 
  -17569   -17591    -6818     4392     5612     3356     2768     5156 
   10257    12473    11429    11238    12348    13917    15403    16308 
   14311     8513     4371     3727     1844    -2205    -6569    -9112 
   -9447   -13356   -20005   -18936   -10634    -5297    -6417    -9611 
   -9512    -7001    -6439    -8401   -12051   -17563   -24267   -28695 
  -25984   -16356    -6631    -2004      111     4001     7177     4753 
   -1720    -6504    -7199    -5681    -3421     -504     1338     1146 
     187     -892     -549     1445     2594     2132      -49    -1310 
    1884     4764     3442     3165     5914     7407     6445     3077 
   -2914    -6767    -8198   -14153   -20726   -19065   -12806    -8751 
   -8173    -8775    -8855   -13541   -23655   -27488   -21703   -18730 
  -22681   -23428   -18178   -13452   -10280    -8719   -10685   -11439 
   -8269    -5352    -2777     1644     6356     8611     7600     5398 
    5104     8429    11656     9304     4228     1389      785     2776 
    5720     6238     6702     9684    12655    15135    17703    15113 
    5025    -5798   -13199   -17740   -19322   -20052   -22106   -25291 
  -28904   -32730   -37872   -41736   -41471   -40611   -37901   -29772 
  -20608   -11728    -3425     -809     -825     2353     6397     9694 
   11971    11039     9011     9180    10058     9995    10114    10239 
    9692    11322    15153    16226    14401    12545     9916     7293 
    5480     1576    -1679    -1326    -4000    -8257    -5658    -4783 
  -14606   -23839   -24830   -23754   -23278   -21874   -19671   -18356 
  -20548   -24627   -25163   -21337   -17546   -15689   -13900   -11475 
   -8166    -4411    -3642    -5128    -4472    -3260    -1030     6721 
   14172    15098    14699    16285    18898    21056    18343    12275 
    8464     7325     8991    11049     9267     5195      117    -4531 
   -7425   -13222   -20657   -22820   -20472   -17178   -15838   -18288 
  -21374   -23736   -28017   -32032   -30207   -23121   -16519   -13318 
  -13279   -15278   -17149   -17528   -15058    -8391      629     8636 
   13633    15879    17096    18450    19500    16836     9315     4437 
    7170    10229     8434     6652     6396     4048      -82    -3290 
   -3127      456     2904     1808     -477    -2322    -4263    -7565 
  -10751   -11816   -14162   -18428   -20172   -21985   -27866   -33221 
  -34129   -32958   -31692   -29712   -26792   -22144   -14885    -8482 
   -6446    -6438    -6509    -8083   -10952   -13574   -13451    -7629 
    1627     8820    13534    17640    18024    12518     6168     4267 
    6972    10964    13931    17103    20212    20595    17609    12886 
    9644     8715     6986     3762      940    -1538    -4814    -9212 
  -13757   -16776   -16960   -15059   -15038   -17728   -18946   -19361 
  -22603   -25868   -24942   -20739   -16425   -15603   -20180   -25883 
  -27848   -27952   -26497   -18035    -5153     1293      643     1600 
    6108     9606     8914     4333      955     3948    11104    16701 
   18800    17917    14727    11809    11577    11846     9295     5233 
    3074     3646     4147      854    -4322    -5728    -4175    -5473 
  -10975   -16661   -19273   -20412   -24029   -30489   -34788   -32630 
  -26449   -21889   -20374   -19266   -18453   -19285   -17793   -11234 
   -5716    -5235    -5268    -2278     2183     4047      415    -4788 
   -4996    -1085     2006     3513     4378     4100     3571     4863 
    8548    12573    12603     8448     6292     8514    10595     8430 
    2711    -1394    -2068    -4068    -8235   -11494   -15895   -22905 
  -27106   -24046   -16873   -10659    -7101    -8217   -12909   -14186 
  -11413    -8925    -6103    -3239    -1371      -31    -1840    -6197 
   -8994   -10817   -12711   -12793   -11094    -9287    -7233    -5536 
   -5080    -3518    -2145    -3095     -233     6214     6732     2512 
      76    -1873    -4429    -5162    -4096    -3754    -3144     1690 
    7969     9211     4842    -2081    -6621    -5026     -610     2312 
    3833     3461      480    -2783    -5902   -10530   -14569   -16836 
  -18020   -14050    -4713      803    -2090    -7224   -10254   -15923 
  -24223   -25936   -19992   -12309    -4535      426      982     2006 
    3936     2602    -1429    -6650   -11256    -9382    -1630     3212 
    4026     5652     7180     6095     1146    -7695   -15925   -21609 
  -26309   -27369   -23467   -17475   -11755    -7613    -4383    -1944 
   -2618    -6359    -9303    -9193    -8038    -6613    -4603    -4734 
   -5641    -3360    -1386     -957     3755    11303    15466    17267 
   19742    20396    15691     8281     4113     3849     3943     3382 
    3464     3278      416    -3458    -3809     -789     -543    -6432 
  -11988   -12123   -12847   -18169   -24559   -30316   -34460   -33693 
  -27644   -21268   -19876   -22500   -23765   -22087   -20130   -18677 
  -15283    -9525    -4506     -686     3912     8491    10794     9146 
    5619     6402    11695    15481    16376    15502    11808     6913 
    6013    11964    19657    20196    12755     4766      921    -1617 
   -5427    -7228    -7411   -10355   -13081   -11965    -8667    -4516 
   -4467   -12422   -20733   -23243   -24853   -27979   -28675   -27017 
  -26215   -25745   -22896   -16631    -9967    -7300    -6135    -1208 
    4898     7521     7046     4987     1818    -2695    -7797   -10842 
  -11519   -11463   -10762    -8422    -2060     7191    12108    10588 
    6839     2752      -11      265     2497     4274     1622    -5741 
  -11029   -11395   -11515   -13122   -13339   -11504    -8727    -5218 
   -3511    -6891   -12863   -16237   -15809   -13723   -12551   -12499 
  -10891    -7128    -5256    -7640   -10874   -13100   -15581   -14898 
   -6676     7308    21392    29348    30141    28989    28003    25543 
   22572    20809    19678    16815    10623     3647     -927    -4281 
   -7595   -10029   -14349   -22829   -30527   -33084   -32095   -30409 
  -29853   -29798   -27830   -23578   -18489   -14225   -12339   -13133 
  -14784   -14742   -12769   -10301    -8047    -6444    -5178    -3657 
   -2377    -1321        2     2576     6360     7411     5499     6460 
   10756    14404    16417    17275    18118    18416    16357    15138 
   17968    21962    24879    27814    30901    32935    32859    29883 
   22571    10386    -3134   -14370   -22108   -24850   -25381   -28215 
  -31708   -35282   -40097   -43152   -45644   -52261   -60753   -65671 
  -64978   -60228   -54761   -49007   -41338   -33976   -29763   -27228 
  -24150   -20195   -15225    -8739     -297    10527    21654    28152 
   29653    30669    31090    27323    20650    16346    17400    21726 
   25163    26351    26840    28491    31874    33997    30748    23301 
   15159     7559     2838     2316     2489      320    -3538    -7872 
  -13310   -21232   -29920   -33645   -29277   -21257   -15077   -11460 
   -9490    -9575   -15628   -30664   -47236   -55538   -56919   -56684 
  -54930   -50856   -45891   -41774   -39366   -37286   -33115   -27442 
  -22644   -17745    -9751      -64     7476    14091    22709    31165 
   36498    38477    36336    31344    28897    30972    33813    34388 
   31814    26121    19813    14161     6157    -3522    -9165   -10086 
   -9231    -6627    -3887    -4818    -9183   -15205   -23255   -31645 
  -37025   -39326   -38420   -32195   -22834   -14203    -6853    -3615 
   -7354   -13278   -15035   -12269    -7902    -3419     2629    11503 
   20179    23648    19815    10096    -2199   -11573   -11268     -191 
   14347    24766    28892    28718    27993    27938    24904    15966 
    5547      743     1225     2479     5210     8960     5546    -8306 
  -24084   -34130   -38802   -38770   -33253   -26962   -25258   -26423 
  -27312   -26773   -24748   -24124   -26005   -28056   -29895   -30983 
  -30639   -31055   -32798   -33859   -30488   -18885    -3893     5812 
   11132    17852    27100    34715    34920    28347    22700    22684 
   27564    35850    45547    52452    49652    33923    14208     1244 
   -6272   -12235   -15192   -15748   -15611   -14324   -14212   -17257 
  -19483   -18177   -17056   -18827   -20630   -19361   -16084   -11976 
   -5024     3053     4347    -3850   -14001   -20265   -25194   -31200 
  -36281   -36358   -28721   -17805    -9486    -1698     8102    16281 
   18962    16187    12976    13972    12326    -1146   -19953   -33433 
  -42273   -47958   -46251   -37262   -29673   -30229   -31727   -21889 
   -3072    11475    14729     8440    -2191   -13658   -25345   -33756 
  -34095   -27319   -19092   -13984   -11186    -7174    -1143     5000 
   10601    20809    39471    58274    67693    68126    62405    52472 
   40305    28154    22064    24242    26609    25121    24942    24528 
   14667    -4318   -19836   -23406   -21294   -24167   -33941   -46582 
  -58038   -65470   -69241   -71225   -70527   -64266   -51900   -37235 
  -24816   -15387    -8953    -7862   -12710   -21441   -31414   -39996 
  -45464   -45017   -36765   -25785   -18894   -15673   -11395    -4179 
    4111    12503    22310    32539    41071    46942    45863    35207 
   22030    12879     4709    -3593    -5718     -662     5774    11262 
   16976    22436    25088    23424    17584     7275    -6169   -19021 
  -28693   -33883   -34893   -35275   -36048   -33082   -27362   -26005 
  -30562   -37241   -42707   -41945   -31577   -16221    -4798    -3567 
   -8461    -5832     6955    16240    16516    14674    12720    12185 
   20600    35968    45909    47144    45597    42912    38300    33448 
   26428    13489    -1097   -10034   -13631   -17488   -24561   -31740 
  -34268   -32148   -27383   -20291   -13983   -13207   -17507   -23434 
  -27947   -28491   -27087   -27970   -30409   -32828   -37310   -44175 
  -49325   -48503   -41942   -34845   -31116   -28896   -25535   -21527 
  -17348   -12843   -11167   -15689   -22133   -22784   -16408    -6327 
    6270    20805    33201    39945    42773    43535    40936    35541 
   30612    28352    29250    32582    35970    36873    36106    35316 
   32059    25935    22878    25533    29031    29184    27105    24837 
   21022    13853     4966    -2320    -6309    -8839   -12978   -19075 
  -25865   -30947   -31762   -31172   -33761   -37350   -38880   -40903 
  -46819   -57849   -70038   -74917   -71425   -65098   -56031   -43466 
  -31448   -22303   -15261    -8165     1450    11097    15640    15652 
   15340    17792    25061    34978    43768    53330    64640    72934 
   76729    78141    75964    68934    58619    45335    29545    14977 
    4835     -498    -1765     -293     1423     -474    -6904   -12743 
  -14987   -17768   -23282   -28576   -34353   -44620   -57313   -65712 
  -66761   -63392   -61625   -63219   -62981   -58726   -54623   -52122 
  -49439   -46142   -40905   -31850   -19683    -6607     5398    14846 
   19427    17390    13444    14835    21012    26832    29770    29233 
   25950    21121    14794     8075     4431     5485     7909     7398 
    2897    -4850   -14523   -21549   -21091   -17009   -18640   -28578 
  -40440   -46719   -46235   -42151   -36514   -31166   -28547   -28856 
  -28319   -22547   -12883    -4880      378     6669    14470    20859 
   25893    30803    34389    35782    34674    30367    25160    22262 
   20382    17423    15052    15545    17878    18303    14707     9186 
    4467      310    -4038    -7054    -7645    -8011   -11398   -17506 
  -22043   -24306   -29898   -39150   -44954   -45718   -44545   -40975 
  -35736   -32466   -31759   -32112   -31861   -28591   -22779   -17929 
  -13839    -6775     2448     8986    12148    14195    14481    11913 
    9436    11376    16565    19721    18893    13973     5135    -4179 
  -12055   -19177   -22988   -21462   -17055   -12147    -7534    -3587 
    -146     1787      593    -2252    -3746    -4359    -6633   -10597 
  -14030   -14958   -13207   -11485   -12959   -17370   -22138   -24328 
  -20537    -9854     3302    14349    23575    29971    29673    25560 
   23074    19260    11651     6585     8380    14196    20264    23158 
   21462    17438    12745     8986     8919    11620    13510    13389 
   11812     8733     4616     2007     1005    -3229   -11289   -16604 
  -16303   -15004   -17104   -20854   -21947   -20583   -18810   -16107 
  -13780   -13539   -12682   -10092    -7871    -6156    -4605    -2603 
    1111     4786     6632     8656    12381    15981    16287    11742 
    4667    -1670    -7457   -12674   -13707    -9496    -3908      327 
    2280      463    -4623   -10013   -13144   -13303   -12183   -12902 
  -17465   -24990   -32434   -37875   -42093   -45585   -45795   -40637 
  -32299   -22624   -11362    -2220      232    -1942    -4558    -5481 
   -2147     3931     6538     5910     7797    12698    17196    19117 
   17593    14365    12824    12768    11695    10719    12044    14264 
   14732    11011     1428   -11146   -22207   -31838   -40328   -44570 
  -44665   -44315   -44358   -43365   -40386   -35018   -28746   -24521 
  -24055   -27553   -33614   -37915   -36269   -29609   -21624   -13510 
   -5910    -1102     1437     5499    11917    17417    19514    19485 
   20820    25389    32512    40677    47816    51932    52926    52823 
   52757    49977    41185    28404    16387     6010    -2980    -7131 
   -4472     1446     5365     3607    -3263   -11649   -21588   -34034 
  -43918   -46268   -42785   -37880   -34610   -33779   -35026   -38172 
  -41400   -42985   -45017   -48752   -50386   -45614   -34167   -19717 
   -7280      480     4497     6668     7606     7539     7169     6446 
    5593     7851    16195    27983    37750    42459    41653    36882 
   30847    24404    17147    11551    11959    19118    29264    36780 
   36426    27608    15168     3015    -8384   -19190   -28920   -35342 
  -35888   -33032   -32097   -32507   -30534   -27901   -28130   -29824 
  -29319   -25266   -18433   -10343    -3433      202     -345    -6794 
  -19507   -33094   -40524   -39616   -31925   -20755   -11479    -7381 
   -6643    -6721    -6410    -3758     1531     5771     6731     7419 
   10026    11959    10995     8107     4418      328    -2436     -692 
    6217    13105    14335    11589    10185    10940    10647     5440 
   -6425   -20693   -31131   -36352   -36666   -31343   -22103   -12081 
   -3490      685    -1251    -6695   -13125   -20356   -25807   -26396 
  -24268   -22950   -23008   -23524   -22859   -20966   -20890   -24317 
  -28741   -30720   -28898   -23360   -15313    -7220    -1040     2643 
    4013     3652     2217      456     -374     1643     7766    16618 
   25474    33130    39167    43387    47663    53115    57177    58297 
   57389    53126    43668    31135    18839     7706    -2842   -13628 
  -24449   -33261   -39248   -45044   -51712   -55514   -53732   -47590 
  -38474   -27391   -16940   -10657    -9862   -12047   -15176   -20157 
  -25760   -27778   -25450   -22386   -20950   -20145   -18067   -14253 
  -10100    -6352    -1372     5862    13073    17201    17908    16458 
   13269     9148     6168     5150     4555     2575     -878    -3976 
   -4969    -3227     1149     5063     3853    -2459    -9696   -14667 
  -16835   -17100   -16113   -15105   -16258   -19499   -22524   -24055 
  -23395   -20389   -17450   -16040   -14388   -12704   -12592   -12410 
  -10830    -9054    -6754    -2294     3797     9000    11667    12748 
   14217    16577    18917    20132    19998    19060    16424    10814 
    4098    -1291    -5776    -9707   -12033   -13210   -14442   -15075 
  -13416    -8246     -668     5176     6461     5057     3745     1236 
   -4821   -12181   -18255   -25078   -33791   -41517   -45764   -46229 
  -43697   -39071   -31735   -21046    -9985    -2022     3788    10064 
   17298    24013    28124    28342    25022    20229    16040    13110 
   12540    15554    20262    23449    24134    22944    20854    18785 
   17328    16099    13756    10449     7720     5339     1953    -2749 
   -8980   -17175   -25601   -30951   -32701   -32951   -32102   -29508 
  -26531   -24492   -23301   -23353   -24127   -24055   -23442   -22831 
  -20808   -15545    -6884     2104     7568     9345     9985    11637 
   14712    16932    15726    11705     7735     6191     7139     8890 
    9953     8874     5516     2491     1034       69      558     3237 
