Origin Time       2016/04/16 01:25:00
Lat.              32.753
Long.             130.762
Depth. (km)       12
Mag.              7.3
Station Code      KMM018
Station Lat.      32.3942
Station Long.     130.3885
Station Height(m) 2
Record Time       2016/04/16 01:25:14
Sampling Freq(Hz) 100Hz
Duration Time(s)  258
Dir.              E-W
Scale Factor      3920(gal)/6182761
Max. Acc. (gal)   100.152
Last Correction   2016/04/16 01:25:14
Memo.             
[...]
   -2073    -2152    -2143    -2086    -2139    -2127    -2097    -2155 
   -2123    -2080    -2155    -2142    -2072    -2135    -2157    -2083 
   -2127    -2161    -2080    -2117    -2167    -2086    -2109    -2167 
   -2093    -2104    -2167    -2102    -2092    -2158    -2117    -2098 
   -2152    -2111    -2099    -2167    -2110    -2076    -2169    -2131 
   -2078    -2160    -2130    -2078    -2155    -2131    -2081    -2152 
   -2140    -2090    -2139    -2129    -2097    -2143    -2126    -2095 
   -2149    -2132    -2090    -2142    -2134    -2090    -2144    -2142 
   -2078    -2133    -2160    -2081    -2113    -2162    -2097    -2111 
   -2154    -2094    -2114    -2165    -2089    -2104    -2181    -2099 
   -2087    -2178    -2104    -2074    -2177    -2126    -2073    -2160 
   -2137    -2084    -2150    -2134    -2087    -2144    -2132    -2086 
   -2139    -2129    -2086    -2151    -2142    -2079    -2147    -2154 
   -2071    -2129    -2164    -2077    -2113    -2167    -2099    -2118 
   -2154    -2092    -2117    -2151    -2082    -2114    -2171    -2101 
   -2105    -2164    -2110    -2100    -2153    -2110    -2091    -2147 
   -2128    -2107    -2147    -2120    -2102    -2158    -2119    -2084 
   -2159    -2119    -2075    -2171    -2135    -2072    -2164    -2135 
   -2063    -2153    -2147    -2065    -2139    -2169    -2084    -2118 
   -2162    -2092    -2113    -2159    -2089    -2108    -2163    -2100 
   -2112    -2157    -2102    -2113    -2147    -2101    -2115    -2147 
   -2102    -2116    -2162    -2106    -2096    -2162    -2119    -2092 
   -2158    -2114    -2089    -2168    -2117    -2079    -2163    -2119 
   -2081    -2170    -2129    -2069    -2157    -2149    -2078    -2137 
   -2143    -2082    -2141    -2152    -2074    -2130    -2169    -2088 
   -2111    -2157    -2098    -2113    -2148    -2098    -2123    -2156 
   -2089    -2113    -2169    -2094    -2101    -2170    -2105    -2092 
   -2162    -2117    -2096    -2149    -2112    -2103    -2157    -2111 
   -2090    -2161    -2126    -2084    -2149    -2124    -2080    -2155 
   -2139    -2075    -2149    -2149    -2072    -2136    -2156    -2082 
   -2124    -2148    -2097    -2138    -2152    -2089    -2128    -2151 
   -2081    -2117    -2156    -2087    -2123    -2171    -2090    -2110 
   -2166    -2096    -2107    -2154    -2094    -2116    -2162    -2100 
   -2118    -2162    -2097    -2103    -2152    -2096    -2096    -2158 
   -2120    -2103    -2157    -2116    -2093    -2160    -2120    -2082 
   -2156    -2125    -2081    -2160    -2144    -2076    -2132    -2142 
   -2098    -2142    -2128    -2082    -2156    -2159    -2075    -2118 
   -2154    -2105    -2131    -2141    -2090    -2125    -2150    -2097 
   -2119    -2151    -2099    -2116    -2160    -2101    -2105    -2162 
   -2104    -2096    -2164    -2114    -2092    -2159    -2115    -2089 
   -2163    -2126    -2088    -2158    -2129    -2083    -2155    -2135 
   -2074    -2147    -2145    -2077    -2142    -2143    -2078    -2151 
   -2161    -2076    -2124    -2155    -2091    -2124    -2150    -2086 
   -2124    -2164    -2090    -2113    -2171    -2102    -2103    -2156 
   -2095    -2104    -2165    -2106    -2110    -2164    -2098    -2101 
   -2165    -2105    -2092    -2163    -2120    -2081    -2150    -2139 
   -2093    -2142    -2128    -2086    -2155    -2139    -2072    -2139 
   -2140    -2092    -2146    -2125    -2092    -2160    -2126    -2075 
   -2151    -2135    -2077    -2146    -2140    -2070    -2138    -2166 
   -2084    -2112    -2151    -2098    -2131    -2149    -2077    -2128 
   -2169    -2074    -2105    -2177    -2091    -2092    -2169    -2113 
   -2102    -2160    -2108    -2093    -2156    -2119    -2092    -2148 
   -2117    -2089    -2156    -2132    -2090    -2146    -2126    -2090 
   -2157    -2135    -2076    -2138    -2141    -2088    -2136    -2141 
   -2089    -2133    -2148    -2090    -2123    -2151    -2099    -2121 
   -2141    -2088    -2128    -2161    -2082    -2107    -2167    -2100 
   -2109    -2163    -2095    -2106    -2173    -2094    -2087    -2177 
   -2114    -2081    -2159    -2117    -2100    -2169    -2106    -2079 
   -2170    -2128    -2072    -2142    -2122    -2065    -2107    -2067 
   -1987    -2004    -1922    -1789    -1805    -1766    -1622    -1592 
   -1566    -1532    -1676    -1765    -1683    -1725    -1779    -1460 
    -874     -669    -1345    -2126    -1699     -946    -2173    -4591 
   -4683    -1974      -48    -1388    -4325    -5660    -4894    -3995 
   -3980    -4309    -4353    -3797    -2645    -1382     -393      -51 
   -1274    -3660    -4602    -1651     3821     5343       14    -5428 
   -5450    -3104    -2405    -2750    -2642    -2350     -333     2984 
     308    -8022   -10194    -4393     -367    -1509    -4443    -7180 
   -5775     2660     8580     3229    -5929    -8361    -2503     4462 
    4101    -2623    -7728    -6630    -2464     -715    -2754    -4237 
    -788     2917     2125      103    -3320    -8415    -7879    -1343 
    1210    -1918    -2790     -933    -1333    -2136     1378     5369 
    1232    -5217    -3941    -1176    -1410    -2894    -5428    -4197 
   -2084    -3884    -3248    -1293    -2310    -1153     2152     2110 
    -856    -3317    -3911    -3760    -3159    -1311    -2590    -7603 
   -6349     2029     5244     -648    -4011     1500     4824     1422 
    -366      930      963    -1325    -4408    -6215    -3323     1606 
     -73    -4826    -5393    -5148    -7018   -10392    -9373     -310 
    4312     -644    -2525     1504     3693     1618    -3505    -7978 
   -8081    -5457      115     7646     6754    -2696    -6194    -1525 
   -1814   -11267   -14078      207    13948    10106    -3398   -13741 
  -12332      721     5141    -7106   -14063    -5891     1976      428 
    2136    13315    11230   -13202   -26136    -5154    19695    16014 
   -3293   -13873   -17557   -22438   -19149    -2594     8501      -90 
  -14043    -8654    17134    32192    13264   -17842   -22205    -1374 
    7509    -2157    -1205     9170     3978    -6855    -2467     8112 
    5441   -12068   -20501    -6892     6039     1860    -8039   -10742 
   -5489     3513     8001     3770     -794    -6624   -16075   -12035 
    5820    12651     9309    17217    20798      648   -13262    -6499 
   -3663   -11839   -19364   -13910     1029     9292     7293      -24 
   -2225       53    -5816   -13530   -13494       82    29244    39726 
    5487   -24127    -5975    17009    10871    -5589   -28031   -40006 
  -10520    28001    23440    -9537   -18670     6422    17680    -8477 
  -26732    -7441     8112   -14070   -35409   -18536     7428     9893 
    1071    -7671   -15519    -8007     5831     8439     9272     1235 
  -14528   -12782    -5588   -10981   -15793    -6284     7418     2731 
   -2252    11472    13840     4452     6495     7676     -483    -7785 
   -2706    13368    15188    -5485   -17320      184    11386   -12721 
  -27635    -5644    14539     8832    -5644    -2654    13520    10160 
  -10562   -10703     7374     2380   -18910   -11838    13766    12519 
   -8588    -3061    24058    14920   -19639    -7295    25879     5868 
  -29448   -15959    12188     3267   -16715   -10111      266    -3796 
   -6546    -5912     1430     8026    -8384   -17227    -2121    -4916 
  -15549    -6443     2870     8771    10088    -6478   -16781    -1989 
   10230     7409     3985   -11306   -40483   -37352     7512    27942 
   -3186   -30497   -26077    -4501    26521    36355    12295   -10308 
  -21414   -33623   -34701   -14078     4014     5416     7649    10109 
    3704     -376    -1492   -14988   -28783   -17134     -807    -4371 
   -2663    15561    25557    18942     7119     2786     7961    -1907 
  -31758   -35761    -8739     2666    -2196     2367     7665     2381 
    2474     9448    10856    10356    -3291   -26591   -27365    -6346 
   16283    23046     5394   -13109    -3376    18133     7740   -27853 
  -33571     6612    34036    12013    -9497    -4931    -3881    -7469 
   -2371     4088    -2396   -18189   -25162    -7616    29720    23807 
  -35953   -36908    24099    33706     -913   -20058   -17705     1762 
   23009    25876    -4716   -37319   -16168    13059     1031       47 
    7353   -17718   -24699     6105     8751   -18735   -17349     6558 
   16158    22468    20164   -16068   -37645    -5133    16779    -7299 
  -18576     2106     3290   -16149    -4675    27265    28300     7429 
   -2055    -5072    -1346    11814     3296   -25728   -28161    -1711 
    7644   -10801   -16589      598     6336      959     2525    -6503 
  -18900     6256    36445    11001   -22830   -10990    -2836   -21471 
  -13894    23701    37591    17774    -9005   -31018   -43647   -38324 
  -12373    -2128   -30414   -38952    -3956    27383    37077    20141 
  -11429   -12190     6759    -2474   -21516   -14099      829    -3733 
  -20577   -21525     -737    12650     9496      630    -1923    18074 
   28029    -1680   -18855    -6528    -5637    -9145    -7508   -13055 
  -14806    -7760     1698     4164   -11830   -13992    21997    36802 
   12743     7881     8915    -6885    -4085    -4596   -29958   -25399 
    6236     9816     1287     5378    -2411   -21481   -25698   -21322 
  -23465   -19397    -5514     1257     9422    27928    33012    16150 
    2556     7541     4807   -21510   -33357   -15254     3006     5337 
   -4705    -3742    20813    31944     8090   -19096   -26560   -18375 
     841     8851   -16309   -33566    -6419    19574     9563    -9518 
  -14964    -7862     8276    17087     1421   -14602    -5280     4981 
  -12503   -35799   -20894    16268    29299    20219    -2062   -24378 
  -19318    -8338   -19454   -24954    -1418    17117    10134    21417 
   47607    24758   -25348   -30430     -202    15177     6650    -6044 
  -14041   -19697   -10533     5383    -7650   -29169   -16990    13088 
   26572     6991   -21642   -22554   -10281    -2208     5524    -2960 
  -27856   -35268    -8856    16782     5226    -9273     6770    12649 
   -4444    -6135     7490    14453     8397    -5885   -15161   -10983 
    1670     -520   -18738   -14064     9278     2564   -27593   -25127 
    9937    17264    -5563    -6972     9524    10454    -7217   -26669 
  -17972     6470    -4802   -17022    19837    40405    12175    -6101 
   -5694    -5700     2124    -2852   -45166   -76242   -35781    30092 
   39585    15324    12409    14732     5435    11799    35082    26270 
  -25575   -55174   -37092   -23089   -24106   -11222    -2022      115 
   22716    38317    28796    17000     1732    -6209    -4164   -25635 
  -48684   -25201    11401    13987     3102     5934    14277     4683 
  -25557   -36270    -5300    19925     8729      267     7302     1988 
  -12261   -14847    -2309     4933   -11996   -35130   -32604      492 
   33830    30526    -8487   -36985   -14384    26320    14792   -26653 
  -16756    24017    23166    -3877    -3309    26285    43986    29058 
   10639     4252     7451    34721    46539     4512   -26055   -13806 
  -13697   -31364   -32578   -15017    -2887   -22082   -53297   -47828 
  -14346    -4007    -9385     6097    14979    -9161   -28024   -10479 
   21096    31317    26123    22958    12659     2438     4141     1788 
  -12287   -22006    -9778    13144    13144    -3154    11871    51989 
   53020    10067   -14671    -2768    -3557   -37893   -58754   -45056 
  -20081    -2834   -21388   -52769   -38641    -6396     6597     6161 
  -14317   -19746    22978    52905    26433    -3745     6642    27703 
   12933   -40708   -74660   -51945   -41177   -66104   -41533    27520 
   64137    80139   108240   125630   109128    62611    11640   -14153 
  -22163   -31936   -26941     1461    19982     6499    -6075    16390 
   34291    12949    -2214      116   -18558   -41271   -40390   -16306 
   21413    27293    -6750   -20626    -5440     7224    10114   -11060 
  -45052   -49509   -25416    -2377    -1751    -7984    27469    81997 
   92294    65504    18825   -37732   -54874   -33908   -34300   -53684 
  -60150   -48230     6345    81895    99092    64560    34547     1473 
  -38706   -47051   -35712   -58987  -100639  -112253   -92730   -44760 
   14943    37806    21455      983    -6865     6784    18220    -6512 
  -25575     4218    33030    14839    -6052    35469   105383   107216 
   53742    34505    56649    71261    45238   -30586  -107479  -103949 
  -18165    50706    23122   -59127   -82164   -20679    38950    63932 
   85331    78415    10514   -82588  -135758  -125404   -89545   -62613 
  -59692   -79121   -62841    -2152    25234    20698    35597    59334 
   83893   105132    87521    37333     4694     3367     5572   -18115 
  -68298  -104575  -100439   -81593   -74879   -83115   -94775   -90818 
  -76571   -61871   -21845    51996   115665   134275   124088   106910 
   79801    37232   -14135   -41668   -29520   -20821   -20273     8474 
   18116   -32533   -48042    45480   130376    74122   -45393   -81145 
  -29902    18960     3438   -62643   -92752   -35285    51601    93847 
   73197     8861   -55704   -75742   -42753    -8283   -28556   -81584 
  -96609   -36555    46289    48381   -12256     6054   105959   131440 
   46839   -38539   -71648   -55660    12046    68991    36775   -34093 
  -33878    36905    92964    88036    39539    -8955   -44536   -97276 
 -158298  -160086   -80832     5795    22921   -13658   -22682    37534 
  103360    85398     3180   -63419   -76352   -12534    88827   101643 
   10404   -49378   -21985    10491    -5694   -25893   -11858     1613 
     842    12826    17240    10522    43893    81731    40472   -32874 
  -64247   -84549  -103984   -82374   -24602    19211     2737   -44526 
  -36075    36741    96688    91318    22619   -54553   -59189    -6549 
    2251   -65706  -146914  -147874   -47547    59844    96252    85148 
   84300    90528    56172     5273   -12311   -21000   -51372   -92668 
 -100395   -39537    26901    13143   -44532   -36152    57449   108711 
   28880   -53130     -451    81836    63061    14063    14876    22434 
   -1090   -60997  -129019  -109931    -5614    54702    33082    -2920 
    9990    62345    69934    36368    24282    -1760   -44228   -34189 
   16057    50339    41792    -7076   -49570   -47419   -19208      626 
   -1048    -5561    12867    37357    31360      950    -8944     7303 
   -1621   -26018    -3773    33726    22492   -22933   -63306   -67447 
  -34793    -1312    22518    31201     6066   -35425   -50201   -11013 
   52456    59376   -16226   -93219   -91606   -31782    29928    77529 
   97661    83140    72176    86275    88062    39851   -44426  -105608 
 -108299   -73858   -13175    58368    86595    80963    83295    69813 
   40270    27068    18754    -5491   -50922   -99856  -109533   -69115 
  -16052    11278    -2635   -27088    -5553    24248   -18523   -69450 
  -36373    17916    12646   -30622   -55783   -37428    -1426    16253 
    3827   -33155   -54193   -34316    -9237   -14690   -50571   -72605 
  -31312    48673    91700    67428    17792   -16388   -20698     7557 
   17096   -42812  -117078  -105327    -9523    62359    60296    44530 
   57342    80438    84081    47043    -4418   -25343   -40799   -83539 
 -104786   -51467    36772    82888    82240    61335    24430      237 
   -1225   -10528   -31901   -57829   -71417   -46541   -12809   -12149 
  -20534   -13019    -6390      145    10892    11515    14184    27011 
   22446    -1813   -14540   -15418   -24198   -44303   -70035   -62599 
   -9441    18594    -2461    -8757    22558    35403     4174   -13483 
   -3424   -18907   -40958   -17596    18898    21222     5015    -1139 
    3812    16605    42016    67169    58504    18896     3137    26342 
   32092      584   -15279     6203    16673   -13119   -44014   -42991 
  -29589   -18720   -12144   -25670   -42718   -20509    23303    25127 
   -9306   -14148    13961    45955    79279    86649    57186    16439 
  -33102   -68110   -57358   -41170   -60692   -80685   -45863    34578 
   82717    62807    30205    18803      622   -37568   -76394   -90105 
  -68183   -35366   -28106   -40592   -33296    -5904     6296    -1377 
   -9856   -10311    -3705     5710    18985    32914    18229   -29474 
  -47641   -17882    -1152    -4774    13516    54149    94292   112773 
   89529    24677   -50935   -83182   -45892     9881    19164   -13668 
  -48378   -48351     7807    60872    28210   -45879   -56501    11434 
   73763    45877   -28163   -41666    -3995     8934   -22311   -60069 
  -54188    -8335    33723    53807    53959    50723    45974     9790 
  -35788   -33766    -6764       74    -2925   -23255   -56405   -37253 
   18980    19615   -28090   -42553    -8911    25735    40624    54301 
   65829    53003    27672    21103    27894    14955   -29417   -75203 
  -88304   -68667   -27721    18004    31506    12749    15849    48718 
   65564    49420     7580   -34046   -40673   -35889   -53131   -56555 
  -23667      464   -10143   -21382    -3275    23324    29077    20409 
    4261   -18072   -23835   -18239   -36453   -63767   -60864   -29294 
   13734    47054    45940    20047     9388    36177    59739    25290 
  -34584   -54909   -34332    -2308    11896    -5330   -19600     3948 
   34604    17339   -36903   -53285    -8241    28478    18108     8207 
   29466    53023    48400    18508    -8659   -15104   -16990   -31784 
  -41783   -15597    37123    63076    45435    15709   -10577   -23550 
  -23915   -42726   -76650   -87287   -66155   -35999   -22848   -25655 
   -8481    47205    99076    97834    54690     8843    -7154    23189 
   60832    47712   -12174   -65279   -76508   -63640   -54730   -40645 
  -18692   -12363    -5077    34278    72556    70868    46294    25149 
   13159     2074   -16949   -36922   -45284   -34154     -555    33659 
   34011    14452    18208    34117    20638   -16299   -31517    -1423 
   44979    59410    27408   -18487   -29319     4686    32694    12051 
  -24411   -30249   -23103   -40110   -76750   -96212   -73760   -27089 
    7409    19527    32176    57724    70547    58984    45046    24478 
  -19506   -52971   -42191   -26597   -39341   -30546    26635    66513 
   49674    18563    -5180   -38116   -64619   -63326   -43281   -22583 
  -14301    -7481    17711    52126    64272    31317   -21858   -42080 
  -30858   -33157   -47431   -41171   -20437    -7053    -2661    -1298 
    2371    10407    16038     4737   -18530   -20056    -1523    -9606 
  -40922   -43685   -21278   -16224   -20518    -3201    24579    32546 
   18977    15404    33830    42879    37379    38011    30571     6118 
  -23288   -57790   -77129   -55495   -17992    -6923   -17423    -7258 
   26658    38516    15879    -2719    11340    40103    47570    28947 
    5665     3985    26676    20733   -38732   -82740   -74291   -59833 
  -49625   -17466    20441    41949    54030    63897    63256    40118 
    6235   -17890   -36196   -49598   -46776   -38105   -36566   -26357 
    4799    36836    49292    49240    51248    51349    23304   -38256 
  -76837   -56863   -25418   -15556   -13206   -10426    -6594    -5400 
     -36    13492    14672    16346    37010    45551    35364    17863 
