Origin Time       2016/04/16 01:25:00
Lat.              32.753
Long.             130.762
Depth. (km)       12
Mag.              7.3
Station Code      KMM014
Station Lat.      32.3961
Station Long.     130.8268
Station Height(m) 300
Record Time       2016/04/16 01:25:13
Sampling Freq(Hz) 100Hz
Duration Time(s)  255
Dir.              N-S
Scale Factor      3920(gal)/6182761
Max. Acc. (gal)   159.820
Last Correction   2016/04/16 01:25:13
Memo.             
[...]
   -1612    -1632    -1665    -1682    -1673    -1634    -1617    -1641 
   -1652    -1642    -1666    -1704    -1671    -1603    -1627    -1690 
   -1669    -1630    -1632    -1644    -1667    -1671    -1640    -1632 
   -1657    -1664    -1646    -1664    -1693    -1658    -1597    -1609 
   -1697    -1700    -1606    -1603    -1667    -1681    -1674    -1659 
   -1652    -1663    -1632    -1612    -1663    -1692    -1666    -1625 
   -1617    -1674    -1687    -1633    -1631    -1656    -1659    -1660 
   -1661    -1667    -1648    -1624    -1644    -1647    -1640    -1676 
   -1679    -1646    -1647    -1641    -1623    -1655    -1687    -1660 
   -1632    -1653    -1664    -1649    -1649    -1652    -1647    -1654 
   -1654    -1646    -1656    -1665    -1643    -1632    -1664    -1676 
   -1641    -1639    -1664    -1660    -1653    -1657    -1648    -1641 
   -1645    -1645    -1655    -1661    -1643    -1641    -1649    -1662 
   -1682    -1653    -1623    -1649    -1668    -1662    -1648    -1643 
   -1649    -1641    -1646    -1659    -1660    -1666    -1645    -1613 
   -1645    -1686    -1665    -1634    -1652    -1678    -1650    -1617 
   -1641    -1665    -1665    -1662    -1649    -1654    -1668    -1640 
   -1609    -1647    -1695    -1656    -1621    -1671    -1684    -1630 
   -1616    -1651    -1688    -1688    -1637    -1607    -1629    -1659 
   -1665    -1651    -1659    -1679    -1649    -1618    -1660    -1687 
   -1645    -1627    -1646    -1666    -1673    -1638    -1622    -1665 
   -1676    -1644    -1635    -1657    -1673    -1652    -1625    -1633 
   -1668    -1683    -1653    -1639    -1656    -1649    -1641    -1646 
   -1646    -1657    -1657    -1640    -1651    -1672    -1646    -1622 
   -1663    -1694    -1665    -1630    -1612    -1635    -1684    -1679 
   -1650    -1642    -1632    -1630    -1652    -1690    -1695    -1638 
   -1614    -1661    -1674    -1638    -1626    -1647    -1672    -1666 
   -1646    -1657    -1652    -1642    -1660    -1648    -1644    -1661 
   -1652    -1657    -1657    -1648    -1652    -1633    -1641    -1671 
   -1662    -1655    -1657    -1647    -1639    -1643    -1665    -1671 
   -1649    -1638    -1640    -1659    -1669    -1643    -1638    -1665 
   -1665    -1644    -1641    -1652    -1657    -1651    -1641    -1645 
   -1680    -1679    -1614    -1613    -1682    -1690    -1639    -1625 
   -1662    -1672    -1635    -1624    -1669    -1685    -1644    -1630 
   -1653    -1675    -1664    -1618    -1631    -1691    -1685    -1636 
   -1625    -1651    -1664    -1650    -1645    -1654    -1654    -1651 
   -1645    -1644    -1674    -1675    -1622    -1617    -1676    -1688 
   -1641    -1636    -1670    -1674    -1682    -1701    -1716    -1767 
   -1810    -1819    -1879    -2003    -2112    -2154    -2241    -2457 
   -2603    -2616    -2701    -2847    -2864    -2815    -2888    -2968 
   -2862    -2707    -2401    -1685    -1130    -1224    -1445    -1471 
   -1315     -904     -352      747     1876      697    -2084    -2956 
   -2219    -1280     1442     4673     4294      279    -4454    -7863 
   -8313    -5024      891     5316     2407    -5581   -10553   -12618 
  -10476     1680    13607    11381      660    -8780   -14660   -10923 
    4051    13614     8900     2237    -4771   -13863   -10114     5313 
   13156     9884     3512    -3435    -8785    -5824     -804    -6845 
  -11489    -4804    -5628   -12035    -3692     6085     -743    -8771 
   -6200    -3712    -1537     7915    11304    -2791   -16065   -14252 
   -8446    -1351    10999    11684    -3219    -9873    -4564      286 
    3996     3564    -1731    -5063    -7063    -9197    -9025    -3666 
    4815     2437   -11258   -16802   -13157    -9000     -299     7722 
    7884     5708     2728    -1596    -4931    -2524     5190     3544 
   -3925     1100     7448     1190    -6871    -9722    -9970    -5759 
    5972    17592    17849    11033     1163   -16632   -26500   -11068 
    8327     7517    -4674   -15256   -20332   -12521     3459     6508 
   -7316   -19502   -19054    -9403     4271    19232    25662    10212 
  -10680   -12171    -9378    -9920     5110    20858    15177     3833 
   -1361   -11774   -24106   -16949     2451     9841    16306    22393 
   -2500   -34715   -27381    -2230     5724     7048    10330    -2450 
  -27131   -27634    -8747    -2892     4865    20669    17085     4620 
    1381    -1970   -11313   -21710   -16598     4647    18660    20057 
   13249      -24   -10360   -13526    -4881     8617     5171    -1671 
    4834     3706    -1243     6561     1913   -23226   -31534   -11700 
    3306    -2363    -8851   -10989   -22536   -39375   -43367   -18462 
   22460    42400    30117    -2966   -30448   -26234    -5523    11871 
   15413    -6530   -23260   -11752    -1420    -3620     1775    19868 
   26144     9081      277     5153    -7163   -19400     -250    21704 
    8662   -26150   -41170   -29290   -13125    14102    40274    19333 
  -25493   -41874   -31127    -4933    19436    21973    11469    -3903 
  -15980   -11756     6298    29369    25345   -16415   -34004   -10256 
   -4422   -13404     1605     3110   -24006   -22124    -6155   -14818 
    2804    40294    21110   -20852   -15490     6742       47   -23245 
  -33141   -23624     4397    47390    48666   -11481   -47175   -37807 
  -28245   -13310   -19453   -48448   -29334     9490    18915    39851 
   53705    11566   -44186   -49991   -10466    18140    18460    17567 
    9554   -10925   -13605    -4226     3911    33606    49642    13796 
  -16131    -8567     3328     6366     2761    -8549   -22836   -32786 
  -36165   -27788    -2602    27635    33294    -6243   -48649   -42307 
  -17984    -3645    14979    17386    -2011   -10062    -2263    14572 
   34101    40129    20163   -19969   -31632    -8847    -6351      414 
   24948     4172   -29071   -27608   -21269     6119    38407    17246 
  -19237   -35024   -35486     -617    35275    26542     4577    -9569 
  -11693    12234    39114    54165    50549     -677   -59787   -60756 
  -19970    23080    32150   -17684   -77431   -90285   -60016   -10221 
   36821    56425    23569   -30765   -30820    10711    45396    84650 
   92752    19458   -56855   -44413     9896    40568    58261    50953 
    2691   -33995   -23554     -844    -4793   -20773   -13209     8926 
   12464   -17301   -61086   -65893   -23353    -4566   -52739  -108345 
  -93120   -16698    46667    60917    51944    24355    -5879    20818 
   71349    92952   109141    67898   -56913  -129225   -97199   -47781 
     446    40948    19377   -32405   -38266     3044    33683    19234 
    -379    -4133    -2408    41163    91014    41173   -65448  -102502 
  -65022   -13520    20205    23105    -2197   -34519   -46739   -48268 
  -45337    -4424    22706   -19982   -31944    35981    91824    90303 
   41770   -31433   -68995   -41011    27680   104348   119269    41947 
  -52484  -120524  -141919   -85994   -17056     8901    25654    24598 
   -4410     1292    22670     1397    -4063     2796   -39376   -48380 
   13001    55078    48131     8263   -35401   -43862   -26726      860 
   33653    38116    14840    -4306   -24128   -37325   -30497   -12987 
   26470    60250    44846    13382    -4944   -23894   -45792   -40279 
    3758    27653    23176    36075    22969   -33294   -64925   -79800 
  -90127   -41046    45452    94480    80013    29317   -22825   -67864 
  -53944    12894    13722   -30335   -19413     9170    14283    10648 
     443     9429    13482   -41932   -74127   -27528     4787    -2915 
  -15298   -37172   -28942    42091    98469    64295   -14095   -53157 
  -37969    17761    68629    35234   -43210   -65407   -56670   -33849 
   22866    16980   -57132   -55989    11550    43843    42777    28841 
   12820    26539    54966    49212    -3655   -76366  -119023   -99865 
  -43704    13952    65143    75442    23676   -29797   -34175    18808 
  103132   141476    93952    -9396   -79861   -44463    23923    45410 
   27104   -34579   -86230   -53384     5409     6151   -28179   -50902 
  -62379   -58482   -15432    37548    36112    -1098     3998    52047 
   67362    21124   -43030   -74240   -61083   -43686   -30862     4489 
   26630    15154    18875    42694    31668   -20740   -42216    -3754 
   39700    54970    63233    73114    36621   -48381   -79092   -41805 
  -32041   -27293    21441    38484     9780     3384    11539     5678 
   -2298    -9014   -30979   -69922   -87495   -34473    60778    98365 
   63652    26421     -790   -19583   -13584   -11188   -15158   -17349 
  -45602   -52269    -2724    42748    76287    87496    25739   -71119 
 -136706  -127287   -36449    26366    -7584   -56117   -60148   -15612 
   67063   116597    86136    22885     1699    52259   107909    72114 
  -29488   -83663   -64395   -14559    46682    59861   -14522   -74063 
  -40866    29993    89108   115301    76960   -11217   -83067   -88475 
  -54864   -41019   -32425    -6964    -9777   -31194   -14322    -5394 
  -42654   -46014    13529    66610    58586    -3541   -49168   -45122 
  -34223   -17346    17489    19824   -28393   -69060   -47987    28734 
  106828   133576    98402    34136   -26674   -58885   -35548    18808 
   47290    41584    21529   -22192   -88076  -114930   -67498    10345 
   71792    92354    66679    15120   -34849   -36169    20307    64832 
   62355    22917   -39998   -82143   -94116   -87532   -54518   -29619 
  -10226    40991    72263    49306     2471   -61474  -105959  -105948 
  -95968   -49215    55435   139200   143791    85834    42267    99067 
  189906   171005    87304    26155   -61736  -125919   -68078    10219 
   10738    10616    54444    77886    68263    57132    37480    -6942 
  -86437  -158690  -152885  -103168   -85116   -97456  -103389   -39880 
   98525   184225   160014    85796   -14628   -95356   -83492      916 
   89843   129674    98654    32429   -40437   -98763  -102388   -74551 
  -55591   -18022    56794   135266   182989   184034   139448    95498 
   78054    23899   -63252   -91625   -63459   -23712   -12683   -90742 
 -199385  -218536  -148259   -36884    91340   177261   145280    -3313 
 -165237  -227947  -182449  -102861   -33594    19435    35536    15743 
    -502    20440    85351   127588    64076   -52312  -116372  -116075 
  -84301   -76350  -120036  -130066   -44839    66060   137702   184586 
  192324   125100    33172   -48057  -120547  -133160  -106991  -121221 
 -152475  -134722   -65242     8052    54511    65183    22387   -48341 
  -70438   -14702    52927    60396    19113   -29915   -74447   -96144 
  -68956    -3584    51822    64751    67605   104094   137198   115097 
   55658   -18364   -85268   -89056   -50169   -53757   -68090   -33727 
   -3312    -3468    -4211     5177    46186   106626    93940   -15029 
  -78555   -22420    42412    61159    65631    38320    -3129   -16881 
  -43500   -96755  -108884   -63341    -2757    63465   139049   162030 
   44311  -154888  -244626  -148053    23245   126471   131801   107775 
  117493   148349   125676    47975     2414    -2354   -11633   -11106 
    6856   -11240   -97172  -174167  -154029   -65458    28400    77505 
   45908    -4720    -3859    17372    19620    14434    12951    -3652 
  -49134   -96459   -85633    -2297    66738    59873     2741   -58146 
  -43262    41952    66172    43688    86809   117963    38926   -50542 
  -32951    70291   133714    85834    -6005   -95613  -142055   -77029 
   15522    24703   -21617   -52144   -38850   -39493   -81322   -88838 
  -45761     -741    36256    47461     5965   -65051  -127867  -150796 
 -107171   -37016    -3374     7125    30871    61969    77872    78598 
   66652    13873   -53472   -54973    -5154    23637    30792    63412 
  126299   154127   101158    -6509  -117036  -158243   -85364    28746 
   68508    42538    24453     3267   -17562     7363    29895    -4562 
  -60193   -79421   -31664    43159    85487    98073    65354   -28154 
 -102328  -114504  -107071   -72908    -7362    28586    -3750   -71890 
  -84181      212    87809    73017   -31872  -112056   -78721    16232 
   65421    55678    47746    60563    51144    23140    17042    -2132 
  -48570   -60985   -41126   -23870   -11343    -7892     8445    29449 
   22766    47604   105287    94966    32990   -26027   -91492  -104048 
  -36921    17357    45698    82749    72978    27967    24635    16036 
  -39920   -85901   -92594   -54355     2781    36850    71018    86347 
   36527   -15858   -35983   -70244   -92247   -50989    17359    66749 
  108447   136158   120564    83072    42808   -15295   -65215   -66955 
  -46335   -37173      -50    78495   117314    82039    21301   -21069 
  -13099    21691    11433   -38362   -59817   -27816    45371   120699 
  129436    51251   -56103  -121243  -116866   -80511   -58008   -48332 
  -42902   -51061   -53593   -17899    22655    36604    45694    28447 
  -14740   -18772    22625    71334    85775    30014   -79274  -171808 
 -157131   -43054    66980   130564   131265    67859    22475    17956 
  -15165   -78571  -126789  -146101  -134879  -101792   -57411    -6993 
   26100     3561   -58791   -71674   -28067    -3694    38322   115735 
  105220    10973   -58525  -101134   -84805    26696   119305   108909 
   33441   -66310  -125066   -65399    64631   153607   176537   124569 
  -10073  -118079  -116073   -82127   -72918   -78924  -126279  -175887 
 -135414   -32174    60663   136871   203886   250419   240003   168118 
   83146   -11030   -97476  -103165   -59150   -62064   -89240   -68532 
   -8090    56868    97848    75204       19   -53773   -39523    13009 
   47446    44380    21939     7751       59   -14915   -11349    17534 
   40282    64361    82122    43551   -18023   -34444   -18243     6011 
   34340    55069    37514   -43963  -136409  -175154  -164171  -110259 
  -24488    39841    47855    43235    70486    78281    37644    10250 
    9950    16221    27127     5110   -43019   -51076   -19773    14994 
   45242    54334    46775    62947    90041    74935     5576   -91592 
 -153722  -130291   -60409    -2917    37732    52730    21837   -15824 
   -5440    38792    72660    86621    89210    62254    -5972   -75929 
 -120241  -140625  -120473   -72673   -35599    -5923    19443    30966 
   29576    -3312   -57682   -91155   -87101   -29159    40410    48264 
   30243    19368     4062    21535    50752    41665    24219     3077 
  -19120     5624    37975     1875   -82320  -145576  -134668   -53762 
   31031    69503    59727    25628     6222    23149    49984    47819 
   18359    -7773    -6766    21499    43903    26999   -12955   -20580 
   20957    64460    91196   110899    86461     9527   -63259  -104306 
 -130588  -161429  -179696  -133958   -36712    38186    74592    76288 
   33509     8322    47511    95539   116470   114864    61269   -35886 
  -96446   -80595   -21956    27069    26424   -27502   -88678   -97973 
  -56332    -4998    39337    62682    61195    50306    31192     6987 
  -23137   -57160   -64425   -48496   -32742     3755    38015    13094 
  -17805    12329    50481    60819    71207    55402    -7929   -67121 
  -89138   -78810   -37536    16925    65671   106376   102725    14885 
  -98247  -136478   -89926   -22269    -2369   -30447   -30103     -591 
    9180    35316    75799    73813    73893   116774   135089    93433 
   15512   -77835  -133852  -122840   -85099   -28568    45130    58064 
   -5593   -57083   -84803  -120189  -109224   -33816    33224    46781 
    5868   -63361   -89630   -21596    84237   130334   118745    93097 
   44551    -7101   -30188   -43938   -31155    25675    60240    45988 
   28414     9156   -13234   -16349   -31644   -72149   -93743   -78762 
  -20763    64001   107838    79944    22578   -10440    -9203      551 
    5386    -2588   -29207   -60815   -92143  -112843   -84421    -2283 
   78622   107708    87165    58501    40916    10714   -27288   -24879 
   11839    14764   -31124   -92206  -144537  -127422   -18799    75486 
   80271    30980   -25802   -53813   -35384     8685    62483   103418 
   70704   -29960   -89186   -66452   -17571    29359    37634   -24998 
  -90059   -98545   -68860     1109    81799    93985    60100    34844 
  -17639   -96378  -135910  -122623   -71326     7954    66072    56503 
    3777   -32634   -24192    21632    82089   108318    48927   -55324 
  -88598   -32208    31125    75973    90631    33780   -42875   -65132 
  -48095   -16088    19303    33424    17208    -6080     -160    21815 
    7657   -35052   -42540    -5203    26511    43019    53751    41809 
   26257    31483    34692    14177   -22679   -35112     3160    44801 
   42613    16784      306      262    10740    22562    26762     9259 
  -36359   -90466  -123930  -111596   -47683    24939    48501    31012 
   26234    32787    16126    -6625    -7150     9914    41713    75588 
   80738    61788    48952    35447    -6020   -45171   -27535     6753 
   -4558   -26360   -27011   -25758   -20791    -8725     3416     3585 
  -27213   -62715   -63351   -38489    -8601     5178   -10762   -22971 
    1172    37988    47744    24860   -15319   -50514   -42910    10256 
   59922    76217    42264   -50314  -133259  -122827   -36323    53172 
  104475    90600    11200   -57893   -56901   -14376    33005    57765 
   14032   -92879  -164250  -128409   -39371    35630    81079    80012 
   52744    45332    55454    58560    41597     9256   -17462   -30738 
  -34067   -30442   -32121   -46168   -54728   -32334     9696    38529 
   45747    22226   -35323   -83662   -76535   -21642    31498    45759 
   25718     3523     9456    32985    41919    39297    34273     7201 
  -46999   -89083   -85187   -56854   -35541   -27140   -26977   -12233 
   25681    56360    67249    70762    61105    38503    21360    15193 
   13810     1205   -29036   -52641   -52854   -36263    -6426    30431 
   47666    33642    12563    -2121    -2053    19918    24645   -12507 
  -54481   -68671   -51041   -13441    31267    75596    90391    60220 
   25163    16204    18105    20025    18144    -5871   -30311   -16455 
   -4002   -32958   -65141   -74133   -62687   -27044    12377    31775 
   29886     2956   -37628   -49550   -13186    37576    66411    56169 
     643   -55940   -62630   -28857    22368    56308    39077     2678 
  -21268   -46078   -66996   -61038   -21292    32147    66812    72143 
   58648    36354    14395     1388    -9819   -29865   -43528   -35558 
  -23743   -27218   -38139   -43758   -34474     4421    68013   119951 
  125666    74943   -13038   -85316   -97268   -64301   -34060   -23501 
   -9346    11818     2578   -42484   -80953   -79571   -37274    15266 
   45552    54648    50063    21955   -25222   -60467   -56479   -22808 
   14379    52199    68767    31632   -27284   -67069   -78622   -43617 
   23927    65963    48630    -2471   -23500    -1997    12128    13456 
   23680    24778    13564    10404    14510    20774    16744   -18331 
  -62134   -67427   -31842     7799    16868    -9067   -30764   -10535 
   29638    42602    28670    16366    12158    15657    26031    21184 
  -15978   -60996   -75327   -51796   -10660    18563    15151    -4499 
   -9897     3112    26111    45678    50059    45048    28526     3855 
