Origin Time       2016/04/16 01:25:00
Lat.              32.753
Long.             130.762
Depth. (km)       12
Mag.              7.3
Station Code      KMM005
Station Lat.      32.8761
Station Long.     130.8774
Station Height(m) 124
Record Time       2016/04/16 01:25:09
Sampling Freq(Hz) 100Hz
Duration Time(s)  300
Dir.              N-S
Scale Factor      3920(gal)/6182761
Max. Acc. (gal)   525.556
Last Correction   2016/04/16 01:25:09
Memo.             
[...]
    4824     4838     4712     4678     4732     4757     4848     4949 
    4874     4698     4628     4672     4712     4774     4925     5004 
    4844     4633     4582     4605     4677     4868     5028     4972 
    4771     4613     4584     4667     4801     4910     4932     4823 
    4675     4636     4684     4767     4857     4876     4823     4737 
    4663     4685     4762     4814     4869     4879     4756     4646 
    4703     4785     4808     4866     4881     4770     4661     4663 
    4729     4762     4814     4907     4847     4670     4633     4713 
    4778     4859     4933     4899     4758     4636     4622     4695 
    4821     4931     4895     4758     4675     4664     4691     4761 
    4844     4854     4795     4755     4750     4757     4760     4723 
    4712     4772     4798     4784     4820     4838     4776     4732 
    4769     4790     4740     4751     4840     4833     4743     4715 
    4738     4730     4746     4829     4829     4734     4734     4794 
    4776     4760     4800     4781     4715     4729     4800     4810 
    4781     4802     4833     4790     4717     4707     4739     4755 
    4784     4817     4802     4775     4741     4712     4757     4796 
    4803     4832     4786     4695     4701     4768     4808     4818 
    4843     4831     4715     4641     4694     4753     4791     4875 
    4925     4811     4673     4685     4710     4693     4782     4903 
    4885     4790     4747     4729     4688     4709     4796     4805 
    4756     4779     4816     4787     4749     4736     4728     4734 
    4770     4829     4877     4853     4768     4706     4681     4684 
    4744     4825     4864     4844     4808     4794     4733     4637 
    4660     4761     4787     4821     4898     4854     4721     4687 
    4726     4733     4758     4844     4878     4797     4731     4738 
    4701     4675     4802     4907     4836     4771     4785     4749 
    4691     4710     4755     4766     4786     4824     4819     4756 
    4712     4736     4783     4814     4824     4811     4787     4747 
    4694     4705     4764     4786     4816     4871     4838     4730 
    4679     4687     4692     4743     4872     4940     4858     4774 
    4752     4661     4588     4704     4844     4863     4867     4860 
    4766     4674     4685     4741     4745     4750     4839     4897 
    4835     4768     4730     4673     4681     4771     4821     4809 
    4790     4776     4787     4796     4766     4737     4721     4703 
    4727     4807     4884     4887     4820     4761     4709     4639 
    4671     4800     4838     4799     4810     4795     4724     4733 
    4811     4807     4727     4713     4753     4753     4785     4874 
    4855     4746     4728     4756     4721     4710     4784     4835 
    4796     4767     4791     4762     4718     4761     4802     4780 
    4768     4771     4790     4817     4790     4753     4739     4707 
    4716     4777     4802     4797     4788     4792     4814     4794 
    4774     4805     4764     4678     4702     4757     4760     4814 
    4895     4854     4726     4666     4689     4712     4759     4875 
    4911     4791     4719     4744     4717     4712     4804     4834 
    4783     4751     4749     4761     4765     4782     4820     4786 
    4728     4737     4744     4755     4801     4812     4810     4796 
    4741     4730     4764     4759     4761     4799     4807     4771 
    4753     4787     4786     4723     4736     4812     4796     4762 
    4795     4766     4697     4734     4815     4813     4774     4795 
    4807     4735     4705     4771     4782     4751     4795     4828 
    4782     4755     4775     4763     4722     4736     4795     4801 
    4774     4779     4779     4756     4740     4742     4777     4814 
    4801     4786     4794     4764     4712     4714     4770     4815 
    4822     4816     4774     4705     4721     4783     4758     4745 
    4821     4843     4772     4748     4782     4758     4710     4761 
    4822     4775     4752     4804     4791     4720     4722     4774 
    4786     4791     4833     4822     4745     4718     4739     4741 
    4764     4813     4838     4819     4753     4697     4698     4726 
    4776     4845     4861     4808     4740     4710     4738     4760 
    4760     4820     4858     4780     4730     4759     4731     4699 
    4786     4848     4787     4756     4794     4774     4728     4754 
    4789     4766     4759     4807     4806     4732     4729     4785 
    4767     4749     4811     4831     4771     4739     4748     4756 
    4765     4776     4784     4781     4764     4764     4781     4789 
    4774     4758     4771     4776     4747     4755     4801     4800 
    4757     4754     4769     4739     4747     4821     4811     4738 
    4764     4809     4762     4739     4786     4791     4747     4755 
    4799     4763     4714     4780     4824     4768     4766     4806 
    4781     4750     4766     4777     4754     4747     4785     4799 
    4774     4776     4773     4740     4735     4756     4779     4800 
    4792     4776     4775     4767     4747     4754     4795     4789 
    4746     4766     4798     4762     4745     4783     4776     4732 
    4760     4822     4800     4753     4777     4782     4726     4743 
    4821     4807     4752     4776     4787     4722     4719     4794 
    4803     4763     4778     4794     4753     4738     4788     4812 
    4777     4762     4772     4762     4761     4765     4741     4736 
    4767     4801     4823     4811     4760     4740     4770     4777 
    4755     4767     4784     4760     4764     4813     4791     4713 
    4734     4813     4785     4725     4782     4819     4747     4737 
    4796     4779     4741     4773     4804     4761     4732     4784 
    4796     4740     4757     4804     4776     4753     4787     4797 
    4759     4756     4794     4792     4756     4754     4775     4771 
    4755     4757     4777     4784     4769     4765     4787     4789 
    4761     4770     4800     4756     4705     4761     4821     4785 
    4758     4793     4778     4715     4732     4784     4775     4790 
    4851     4813     4707     4711     4780     4778     4764     4804 
    4810     4766     4757     4772     4750     4729     4763     4801 
    4781     4763     4779     4775     4758     4759     4772     4789 
    4792     4783     4786     4788     4764     4732     4739     4771 
    4759     4761     4811     4797     4746     4774     4798     4744 
    4735     4805     4814     4747     4743     4785     4759     4737 
    4799     4810     4746     4753     4803     4780     4740     4764 
    4779     4745     4756     4818     4817     4759     4743     4765 
    4764     4765     4792     4795     4757     4739     4762     4775 
    4761     4763     4788     4797     4779     4767     4781     4781 
    4735     4726     4782     4788     4747     4770     4795     4755 
    4752     4819     4817     4728     4723     4802     4795     4744 
    4777     4796     4742     4746     4809     4783     4727     4764 
    4807     4775     4760     4794     4777     4721     4741     4802 
    4797     4773     4792     4798     4755     4718     4731     4783 
    4808     4780     4762     4777     4769     4736     4731     4723 
    4644     4545     4499     4435     4300     4214     4231     4252 
    4257     4249     4084     3762     3580     3732     4241     5151 
    6229     6881     6787     6181     5388     4652     4107     3585 
    3233     3427     3706     4088     5702     8163     9425     7777 
    3547      701     2996     8304    10880     7763     1706    -1744 
    -724     1522     2494     2503     2641     6586    15684    21577 
   16106     2986    -5532    -1572     7191     7070    -3368   -12605 
   -8852     4502    11022     6581     3708     7127    10116     9992 
    8572     9161    14881    18529     9932    -5579   -16602   -17811 
   -7011     6593     9540     6772    10285    21346    30371    21828 
    -945   -10649     2222    12310     -626   -21242   -24759    -8955 
    7942     6996    -7087   -11469     2621    23515    36313    34533 
   21223     8563     7193     7816    -1878   -14647   -19460    -9591 
    9687    13187        5     3409    24826    33669    25427    11608 
    -994    -1089     2091   -11208   -25430   -20520    -7642    -3067 
  -10326   -17463    -6008    17688    30866    33350    32995    25113 
   15337     8989    -5147   -21987   -25525   -20437   -14734    -8672 
   -4651     2548    19764    40061    53269    48157    21655    -3215 
  -10112   -14797   -27986   -38713   -43983   -46094   -33643    -7635 
   12103    20376    25404    32611    44793    53169    41943    17175 
    1094    -1248       45    -5426   -24185   -44303   -44238   -23228 
    2298    18859    23152    23270    27452    36665    50046    51558 
   22534   -12515   -18543    -9248   -16922   -43990   -60400   -36679 
   10398    35360    26120     9413    16354    46691    61290    39033 
    5123    -8288     1952     1715   -29397   -66095   -82084   -61066 
   -9213    25815    21418     9317    19569    54231    87777    85835 
   50308    11062   -17515   -28554   -21213   -20406   -38375   -48182 
  -31623      988    29235    27700    -1310   -15817     8668    45413 
   52150    23775    -8466   -19492   -10836    -4745    -7237     4476 
   24887    28969    29190    36544    38213    32715    12697   -25779 
  -47701   -28081     9692    26140     6598   -11315    13136    53025 
   57783    21680   -19072   -17362    29144    61163    39257   -12504 
  -52302   -48689    -6644    20189     8620    -2421     8863    25489 
   26972     5011   -21075   -26493   -20998   -19939   -11134     6558 
   10911     3041     2274    10363    18981    13889   -11700   -37829 
  -51525   -54409   -44879   -36684   -40104   -35799   -10505    20974 
   44229    61813    74033    73539    65208    56008    36325    10543 
    -578     2135    12873    32290    43716    33214    13923     -617 
   -2368    24791    63153    68327    37541      116   -17632   -10511 
  -11415   -44335   -78163   -74567   -29738    37133    85785    89484 
   65313    43248    46907    66112    69056    50773    -4621   -90580 
 -134114  -119459   -98283   -93413  -103985  -109349   -85403   -27890 
   47624    93014    74561    21162     8371    62566    95280    35800 
  -88675  -186074  -136765    21986   108643    84332    33898     4776 
   23060    59169    46635   -10475   -58093   -31772    72795   136331 
   68695   -60633  -125583   -88283    -8163    40873    22282   -27945 
  -21725    70726   174562   194020   130331    48518   -20565   -51490 
  -65402  -121730  -182183  -208245  -212660  -155236   -49394    29181 
   69968    75360    65135    90473   131098   131327    82998    27094 
   19575    49581    49978       71   -65697  -115070  -125467   -82621 
  -14583    34003    72276   119437   139676   120939    97490    53176 
  -26773   -84158   -89049   -67862   -52606   -75532  -102350   -61163 
   18709    70192    72623    30494    18069    79677   134849   120431 
   37922   -50446   -55779   -21672   -37617   -81497  -118399  -121674 
  -52009    31353    41821    23448    46508    82095    97436    88023 
   36427     7453    48879    59390     4193   -53667   -73256     3808 
  111221    79616   -34379   -60322     -495    88144   141887    66982 
  -51703   -76788   -88699  -136979  -157604  -194844  -239112  -195949 
 -109840   -67353   -89146  -142484  -144373   -72939    -2993    12412 
  -14806   -63152   -83500   -41161    -2668    -3343   -10334   -14150 
   20018    90683   118697    69372   -47359  -154137  -111205    46394 
  144056   139528    66046   -34641   -46323    34291    57402    13342 
  -19999   -43766   -16534    56424    83013    87628   122277   172231 
  248401   343939   409247   421755   393850   343212   265814   165966 
   80861    26104    -5328   -38926  -125433  -229315  -254590  -236516 
 -218846  -149387  -101793  -132234  -140452  -122915   -92541    -4675 
   93199   142444   137962   105255    76334    46399    -3866   -67450 
 -110396  -107330   -29185   120351   243506   290020   316252   334425 
  307184   251174   214252   202251   197843   196062   189857   190547 
  232103   302179   337185   300698   217390   123164    47723    54717 
  147703   216359   219334   211948   219612   248373   287114   309205 
  317041   327495   349638   386023   432433   446574   384950   275678 
  138975   -57227  -322832  -570920  -613929  -409264  -194217  -150201 
 -182129  -185408  -199604  -154817     8084    43843  -108686  -203261 
 -224685  -222525  -174976  -123480   -35843    65339   124465   214649 
  360722   436437   360670   275795   240679   139868      149  -143479 
 -253254  -238713  -201949  -188793   -91373    59141   205934   361931 
  484930   508828   477143   481759   467865   319824   120037    46447 
   45186   -29058  -128962  -176169  -186066  -184004  -170820  -131508 
 -105593  -141320  -201403  -267487  -341094  -339553  -242761  -170345 
 -162187  -144117   -63829   107348   315414   437104   451603   417679 
  358889   291220   244315   177534    37242   -93732  -154806  -242679 
 -403840  -520254  -487967  -409050  -385645  -322134  -187500   -17066 
  180691   262548   163493    23138   -96177  -234792  -358639  -404117 
 -448174  -581727  -710870  -768163  -812842  -823928  -764005  -657628 
 -483454  -254465   -78348    11870   131814   322011   443792   422076 
  323131   205139    59987  -115123  -226054  -223080  -175850   -62962 
  104774   157228   105867   107122   176422   265915   336421   396552 
  469233   498003   467176   419690   365407   283459   141093   -29507 
 -163950  -276776  -415360  -570739  -664542  -649763  -557748  -382691 
 -139561    45763   135568   216844   268410   229588   193966   158226 
  -15549  -198775  -258159  -317098  -363533  -383010  -525132  -728094 
 -806205  -788036  -736749  -562925  -335343  -204607   -56648    91184 
   91204   116848   235102   257515   220859   215099   148564    13826 
  -91419  -178436  -261225  -234204  -109153   -11975    45863    66447 
   64395   116991   176845   164256   110792    66005    62275    44822 
  -32283   -77425   -87385  -126915  -134747   -72013    14664    87512 
  127757   152940   189825   214150   174832    82408    17311    13418 
   34793    28912   -27924   -75354   -86489   -94286   -66158   -20481 
   14402   103128   183827   181410   187024   228706   267448   284768 
  232598   137788    75281    60918   131034   289640   399328   360470 
  264415   228865   258938   298159   296413   231101    90326   -70240 
 -138728   -90851    21426   109915   101793    90456   156924   197501 
  227201   317995   331298   249898   208930   177587   146623   193647 
  260201   238444   121033   -57246  -281700  -491228  -571639  -508222 
 -400442  -303335  -234256  -228359  -227496  -132958    52855   278307 
  466695   553672   540385   455095   370224   338213   322511   283389 
  192763    40615  -150183  -356888  -479467  -393627  -189514   -75229 
  -42122    32276   108175   171387   319983   493300   530958   378884 
   85369  -208425  -389966  -468928  -423378  -271328  -204356  -274555 
 -312714  -256056  -120798    81501   199674   134137     1071   -99442 
 -137500  -103108   -70466  -101044  -170957  -263513  -354516  -393420 
 -390393  -378660  -360249  -327991  -249971  -138571   -60270   -22162 
  -15669   -30889   -15566    19635    47192    77995    46919   -51737 
 -101517  -101388  -120870  -140953  -133971  -114609  -105560  -104711 
  -78922   -58766   -91888   -91648   -15168    62169   141173   188371 
  128788    37751   -42510  -178990  -311228  -332353  -277202  -201949 
 -135478  -109217   -77663   -33464    -9382    58706   139076   142378 
  111176    73297    54502    86911   124550   154191   134113     5009 
 -134479  -174568  -128377   -59041   -18461    -2069     3796    -8527 
  -19657     2618    58441   102462   115693   143589   183282   199670 
  237270   304250   297405   180154    36347   -61312   -89845   -67971 
  -43785   -26142    14352    85417   155085   173384   123540    51737 
   27739    41977    29003    -1787   -53695  -156558  -226547  -200928 
 -129925   -71977   -16648    84712   173928   209573   236531   204492 
  133360   116793   104575    76168    41135   -67622  -189641  -183812 
  -73088     3800    -4163     4712    79383   125792   152259   188226 
  137098    50612    37178    53348    78947   121380   167671   182228 
  117551    43597    22735   -12491   -74091  -111339  -131181   -98631 
   16012    99362   137887   213425   214456   121289   126483   205765 
  225529   254788   340978   375475   302996   176366    29968   -88001 
  -77185    41861   132457   172365   212060   229273   236480   267980 
  274907   233969   160787    55218   -40690   -71097   -50734   -39782 
  -60747  -120145  -229684  -336404  -373622  -329787  -233617  -167087 
 -164870  -167097  -172386  -206346  -211888  -164037  -122272  -110129 
  -90417   -57073   -34561   -28550   -49972   -90796  -129142  -186586 
 -258148  -303458  -310838  -271266  -191377   -90669    14871    85531 
  135497   201084   221962   177322   112688    19335   -65593   -90973 
 -108874  -153468  -197563  -210439  -166197   -67588    67114   196155 
  252838   230847   180321   117926    52202    69399   187809   246851 
  199283   138728    62924     3659      272   -18437   -39580   -16971 
   23858    86694   146191   189023   252097   248483   114884   -17562 
  -46674   -24233   -35265   -82254  -115148  -114150  -116929  -188838 
 -302817  -346302  -255937   -84261    29017    29841   -18460   -78899 
 -118032   -70418    44730   118944   115359    40924   -93182  -149485 
  -65894     6322   -10640   -77811  -174526  -263201  -295886  -271716 
 -227280  -190819  -172111  -144453   -41631   154729   358781   441597 
  379688   258085   141712    76209    57543    28129   -26080   -97592 
 -168886  -207918  -195503  -129140   -62038    -9110    79955   144460 
  126384    81702    31251    12819    62653   113943   153427   191620 
  167196   100301    46402   -10808   -76295  -139640  -170529  -140164 
  -84518   -22572    39800    64896    75660   118925   173384   209746 
  230423   238389   217349   141512    16607  -102641  -148050  -116794 
  -76173   -58349   -43394   -12292    37353    89740   141449   181714 
  189145   199954   236860   277469   338693   400971   402682   351060 
  266615   155377    50694   -32008   -85157   -80361   -54664   -90314 
 -179732  -262742  -279704  -189243   -70283   -13280     3906   -12467 
  -62064   -98794  -120820  -118150   -79394   -80774  -131358  -188251 
 -297939  -415669  -445858  -428384  -383763  -295374  -188005   -75091 
   -7279   -10763     4348    91521   200859   271089   254898   165536 
   70711    -3069   -37703   -23319     3032    15829    -6151   -43508 
  -38220    -2704    55490   155118   246600   269692   221630   168908 
  151832   133491   140400   186904   199097   193789   213714   209709 
  146002    29729  -109228  -226793  -291293  -281344  -215662  -171920 
 -208785  -285730  -314332  -269968  -181958   -74511    13622    42906 
