Origin Time       2016/04/16 01:25:00
Lat.              32.753
Long.             130.762
Depth. (km)       12
Mag.              7.3
Station Code      KMM011
Station Lat.      32.6167
Station Long.     130.8652
Station Height(m) 142
Record Time       2016/04/16 01:25:09
Sampling Freq(Hz) 100Hz
Duration Time(s)  300
Dir.              N-S
Scale Factor      3920(gal)/6182761
Max. Acc. (gal)   597.532
Last Correction   2016/04/16 01:25:09
Memo.             
[...]
  -14870   -14846   -14842   -14849   -14844   -14849   -14861   -14847 
  -14836   -14845   -14846   -14848   -14857   -14852   -14841   -14836 
  -14839   -14853   -14858   -14837   -14822   -14828   -14841   -14858 
  -14865   -14859   -14846   -14841   -14853   -14861   -14851   -14848 
  -14851   -14848   -14848   -14853   -14852   -14851   -14849   -14845 
  -14844   -14840   -14838   -14845   -14844   -14840   -14845   -14843 
  -14842   -14851   -14852   -14851   -14857   -14850   -14838   -14847 
  -14860   -14855   -14849   -14850   -14849   -14851   -14859   -14857 
  -14844   -14838   -14836   -14839   -14852   -14855   -14847   -14846 
  -14843   -14838   -14841   -14845   -14845   -14848   -14851   -14848 
  -14839   -14840   -14856   -14858   -14847   -14851   -14859   -14849 
  -14838   -14845   -14856   -14854   -14853   -14853   -14847   -14852 
  -14856   -14844   -14841   -14848   -14846   -14842   -14846   -14845 
  -14845   -14853   -14845   -14835   -14847   -14853   -14843   -14843 
  -14851   -14848   -14841   -14845   -14851   -14854   -14850   -14847 
  -14848   -14851   -14857   -14857   -14844   -14837   -14845   -14849 
  -14843   -14849   -14860   -14854   -14844   -14848   -14850   -14840 
  -14842   -14848   -14839   -14841   -14856   -14851   -14838   -14839 
  -14844   -14853   -14863   -14859   -14849   -14847   -14846   -14841 
  -14849   -14858   -14850   -14845   -14851   -14850   -14845   -14848 
  -14854   -14854   -14848   -14844   -14841   -14837   -14844   -14854 
  -14851   -14844   -14848   -14852   -14842   -14835   -14843   -14850 
  -14855   -14857   -14850   -14845   -14853   -14850   -14840   -14854 
  -14868   -14859   -14852   -14852   -14842   -14840   -14852   -14857 
  -14852   -14846   -14838   -14833   -14842   -14854   -14853   -14843 
  -14841   -14847   -14852   -14848   -14841   -14841   -14841   -14845 
  -14859   -14869   -14865   -14854   -14841   -14836   -14845   -14854 
  -14854   -14853   -14856   -14850   -14842   -14843   -14842   -14842 
  -14850   -14849   -14849   -14857   -14854   -14845   -14841   -14846 
  -14860   -14862   -14843   -14834   -14843   -14845   -14844   -14855 
  -14856   -14844   -14839   -14839   -14838   -14846   -14855   -14853 
  -14855   -14857   -14848   -14849   -14856   -14848   -14842   -14849 
  -14846   -14837   -14846   -14858   -14853   -14843   -14839   -14839 
  -14848   -14848   -14838   -14843   -14851   -14849   -14851   -14856 
  -14852   -14849   -14857   -14855   -14841   -14842   -14853   -14854 
  -14849   -14846   -14847   -14849   -14843   -14839   -14848   -14852 
  -14847   -14847   -14848   -14843   -14844   -14847   -14844   -14851 
  -14860   -14849   -14838   -14844   -14852   -14855   -14856   -14853 
  -14844   -14846   -14860   -14857   -14842   -14842   -14846   -14843 
  -14845   -14853   -14854   -14844   -14839   -14845   -14851   -14851 
  -14846   -14844   -14847   -14845   -14840   -14844   -14851   -14848 
  -14845   -14851   -14849   -14848   -14861   -14863   -14845   -14844 
  -14859   -14855   -14838   -14837   -14846   -14852   -14854   -14848 
  -14843   -14847   -14854   -14855   -14846   -14832   -14833   -14849 
  -14853   -14847   -14848   -14852   -14848   -14844   -14848   -14855 
  -14855   -14849   -14847   -14855   -14855   -14847   -14844   -14848 
  -14851   -14852   -14850   -14843   -14839   -14844   -14847   -14839 
  -14836   -14848   -14861   -14862   -14851   -14838   -14836   -14839 
  -14841   -14852   -14857   -14840   -14840   -14866   -14866   -14846 
  -14846   -14853   -14848   -14846   -14843   -14844   -14851   -14851 
  -14844   -14846   -14852   -14853   -14852   -14848   -14841   -14839 
  -14845   -14848   -14847   -14851   -14855   -14849   -14835   -14833 
  -14847   -14855   -14848   -14845   -14849   -14848   -14847   -14857 
  -14859   -14845   -14844   -14854   -14851   -14848   -14857   -14859 
  -14848   -14837   -14837   -14849   -14853   -14840   -14838   -14851 
  -14850   -14841   -14841   -14843   -14847   -14856   -14855   -14844 
  -14843   -14854   -14861   -14854   -14847   -14856   -14854   -14829 
  -14830   -14855   -14855   -14844   -14844   -14841   -14837   -14842 
  -14850   -14854   -14855   -14851   -14849   -14851   -14843   -14834 
  -14848   -14862   -14851   -14842   -14847   -14850   -14849   -14849 
  -14849   -14851   -14851   -14844   -14842   -14851   -14852   -14842 
  -14847   -14862   -14854   -14839   -14846   -14852   -14843   -14841 
  -14847   -14846   -14847   -14849   -14846   -14848   -14854   -14848 
  -14841   -14847   -14853   -14854   -14854   -14849   -14845   -14843 
  -14845   -14855   -14861   -14855   -14847   -14840   -14836   -14845 
  -14856   -14851   -14842   -14845   -14846   -14844   -14851   -14858 
  -14847   -14840   -14843   -14842   -14848   -14849   -14837   -14843 
  -14854   -14848   -14851   -14864   -14853   -14837   -14846   -14846 
  -14827   -14819   -14835   -14867   -14876   -14860   -14931   -15152 
  -15408   -15597   -15837   -16188   -16352   -16300   -16838   -18286 
  -19302   -18672   -17555   -18251   -20577   -21675   -19961   -16664 
  -14029   -14315   -18780   -24319   -23620   -14856    -8384   -12906 
  -20316   -19682   -14494   -14382   -18639   -16386    -8254    -4094 
    -327     3535    -5637   -20999   -14677     8191    12022    -4313 
  -19001   -26574   -22711    -4568    14541     8071   -29876   -50395 
  -16420    23058    12410   -25638   -42730   -37286   -36325   -28276 
     -57     5489   -16754   -18807    -9277   -21687   -42670   -46634 
  -19643    17931     3196   -60815   -78216   -22440    19771     5427 
  -16662   -13470     7679    25119     9175   -26837   -51018   -64616 
  -52140    -6275    23117    10205    -9594    -7288     1758    -4629 
  -14463   -15917   -22799   -27653   -17367   -17265   -30811   -30774 
  -20430    -7066    15037    28661     7969   -30828   -47099   -42382 
  -38636   -32122   -13967     -734   -16476   -36466   -29958   -24207 
  -32650   -23331     2857     5715    -6899     8186    12410   -53634 
 -116997   -87584   -13904    27987    26752     9717    22315    37958 
   -1192   -44596   -54618   -61596   -41768     5275    18141    -7969 
  -21998   -10359   -12563   -25140    -2940    27615    17882    -6201 
  -17506   -35200   -48718   -22216    22687    33658    12789    -3099 
   -5420    -2078    -7033   -36488   -55727   -35003   -23652   -41212 
  -47744   -38138   -22288    -6216   -15914   -52510   -85514   -89964 
  -51983    -5879    -7998   -34329   -29449     1471    37550    68699 
   75181    49790    15846     6247    17345     9859   -15327   -18278 
   -3462     5941    21680    39822    35738     5522   -30183   -27676 
   -2444   -33501  -100273  -128631  -114366   -61086   -13651   -35205 
  -57987   -25410   -15979   -51228   -74514   -81729   -78223   -76332 
  -75913    -9785    76804    65792    18955    27853    65295    83076 
   47466    -2527    -8778    -1739    -6076   -14389   -19062     5818 
   35201    27287     3892   -22271   -44151   -37814   -44354   -99749 
 -128131   -72203    -7505       -4     3493    19996    -9765   -50322 
  -37059    -1636    -2669   -70932  -152278  -130107     6797   119442 
   90080    -5562   -13069    45817    39909   -26446   -78685  -114352 
 -115108   -57643    17706    54788    15241   -47960   -41184    22826 
   67022    30400   -67124  -130105  -116088   -37930    52806    59441 
      -3     1346    76750   130428    99089    10177   -44543   -54727 
  -61776   -20212    35224    15020     1922    24857    -6735   -45345 
  -36308   -34066   -53171   -61002   -49893   -50926   -83824  -123678 
 -155572  -168001  -126885   -44078    33629    83941    78543    13353 
  -59953   -97340   -86354   -67727   -87469   -95167   -24475    97852 
  149755    45253   -57758    -6803    25812   -30199     1270    56026 
    5977   -44133    -1633   122987   183014    72444   -23072    20187 
   91568   105256    30205   -95633  -158287  -141876  -123854  -121631 
  -91500    12697   145811   161290    46412   -39563   -36030   -32576 
  -63399   -90498  -119715  -114729   -35340    43390    84508    80575 
   18574   -26394   -59308  -121362  -123686   -79907   -81571   -63737 
    3425    31636    12861     3484    26236    52057    52301    50761 
   44394    27743    55749   104278    65623   -43213   -76176   -10407 
    1049   -83826  -110106     1887   132215   140880    23963  -114974 
 -182311  -191172  -185214  -149675  -119210  -139723  -147896  -102117 
  -59669   -63708   -83724   -87492   -94364  -101269   -64335    12875 
   60888    46821    47142   113893   159554    96544   -32075   -92815 
   -4302   118798   101298    -7103   -35808   -10288   -43065   -83900 
  -78453   -64108   -27511    42962    91422    84382    66609    73198 
   59433    19411    -4093    -7332    29649   106456   142392   105697 
   50206    -9007  -101391  -193689  -211231  -165939  -103956    -8072 
   96029   124492    48530   -81376  -167457  -169799  -135371  -106770 
 -105080  -114524   -87111   -25846     1754   -45474  -108679  -126179 
 -123217  -107704   -29712   123824   247056   227592   182372   239823 
  264479   231565   285913   340739   308334   243845    89707  -106781 
 -197908  -243428  -313935  -341656  -277623  -174154  -148185  -227971 
 -286883  -242042  -198715  -244918  -288889  -269984  -239765  -205535 
 -177406  -169625  -139112  -108523  -118554  -139140  -153960  -151991 
  -92298    76891   377390   696332   741161   380261   108223   311435 
  348228   -79715  -243577  -146057  -255949  -336603  -280234  -245734 
 -211527  -204925  -246685  -299670  -348731  -391301  -438604  -482836 
 -485405  -382439  -187408    12950   166341   170960   103791   318060 
  662304   678464   619364   692382   553495   299896   197921   141214 
  100484    97173    57927    -6785   -29427   -17335   -20242   -71629 
 -214489  -402500  -436763  -223742   -71385  -287641  -508789  -364875 
 -254792  -350692  -280211   -86010    60148   224066   343288   388178 
  419630   423813   381810   323441   273890   189073    93810    79626 
  134433   208573   266958   277677   246025   184636    83691   -61004 
 -228907  -391685  -425321  -169352    90411  -171907  -592304  -453407 
 -213324  -338130  -329886  -200255  -221169  -193541  -191439  -274831 
 -288264  -288181  -295763  -231518   -72763   165256   392648   514136 
  566323   599120   509920   282626   127344    92838    65928    95917 
  144875   105299    61589    -4968   -80267   -31829   -28175  -150314 
 -195092  -174360  -178834  -179720  -178753  -142660   -11894   134173 
  118581   -44740   -91662    21543     2915  -173821  -262110  -281382 
 -288565  -178375   -41574    19870    93612   160450   145707   107546 
  103387   113987   136312   191176   252736   281290   273533   231674 
  175366   132056    84976    21019   -41033   -96222  -151259  -197417 
 -213755  -199162  -173774  -131298   -52784    36566    75513   -32320 
 -321140  -519437  -341112   -90336  -153694  -291632  -295190  -319237 
 -347126  -346968  -387287  -397577  -389355  -432101  -438013  -340458 
 -159235    75997   269408   317651   289492   324769   399259   435482 
  443011   417940   340907   254243   207552   188635   187587   225895 
  273832   297844   300615   225488    44835  -103123   -78430    37886 
   65216     6056   -30328   -47149   -84555  -144909  -236333  -348393 
 -471320  -603906  -653774  -507821  -266969  -123477   -21491   167777 
  326518   285236    85310   -35254    49621   112647    52193    67846 
  119192   111308   159670   252141   320713   351380   291125   180618 
  123134   117176    83896     4441   -52982   -73275   -99613  -122855 
 -148465  -221710  -314271  -358261  -330286  -238420  -146717  -145478 
 -206523  -215197  -146638   -75908  -103424  -236616  -276839  -135161 
  -42683   -36717    73424   209954   284885   384975   480503   529312 
  544576   513419   462732   397754   273436    76379  -143717  -297943 
 -368351  -420003  -470606  -483525  -427424  -275163   -80556   -49797 
 -325942  -596568  -393308   -39092  -119225  -250355  -100342  -105842 
 -253168  -262230  -260436  -270342  -229531  -198472  -168659  -113232 
  -42158    59156   215047   409798   576964   594488   364324   101803 
  163949   345047   259322   156849   210649   176284   115284   124612 
  100583    65286    27579   -38314  -142894  -304814  -429298  -470486 
 -507619  -500822  -388016  -250738  -142569   -40970    77480   209416 
  275349   221224   154588   197289   281007   320487   379768   454246 
  478291   438931   250702   -13135   -69304    20980   -13672   -71529 
   -5150    28010   -39824  -123036  -226914  -352392  -459589  -551582 
 -608543  -581438  -483778  -365847  -246548  -152856  -105553   -13740 
  165161   295944   369041   459335   478247   438461   441107   442702 
  420019   385325   308462   202386    98629    -2665  -111606  -220716 
 -297569  -295784  -161533    10298  -103893  -458395  -455055  -149221 
 -158385  -235397   -67412   -22891   -82369   -76844  -125728  -150641 
  -73664    11489    59315    79092    78034    67022    62109    47742 
    1953   -50638   -44279   135562   581266   922289   366503  -625048 
 -445495   306284    38664  -236892    93475    46397   -48976   101377 
   80878    31279    22706   -13391   -54838  -138519  -243736  -331760 
 -383906  -395163  -375068  -340866  -291195  -151851   213654   776246 
  883864   -91145  -957442  -346280   326955    97526   125189   192434 
   -8006   101942    85766  -110166  -122734  -129715  -129941  -117664 
 -149426  -131657   -19102   157117   372002   572651   535454   127108 
 -216992   -30252   275727   201685    79273   129862    97083   -15013 
  -79263  -102354   -65431   -36339  -122164  -254187  -331510  -352528 
 -300474  -167318   -29634    54056    92855    93254    43511   -59219 
 -143718   -81980    70730   131625   129442   153351   147333    97266 
   57437    52240    55138    13146   -55226   -94295   -92056   -46827 
   11188    26939    17784    22720    10618   -35232   -72199   -67211 
  -12680    45162    16012   -86847  -157054  -174518  -170245  -126142 
  -53289     -147    28106    43350    39561    27358    27549    21486 
  -10581   -38099   -51541   -76104   -83382   -28786    62020   131109 
  138126    75193     2028    -2735    45263    53257   -26687  -143816 
 -206977  -178442  -106090   -55778   -29771    11212    77836   135926 
  136819    71351   -13092   -63371   -67866   -47170   -17784    13109 
   39816    64609    86763    83680    34614   -41601  -103584  -122484 
 -102774   -85308   -96416  -119695  -125622   -88882   -31220   -20655 
  -52895   -71480   -92149  -124887  -132467  -134623  -152875  -159860 
 -159439  -161178  -146974  -113052   -63946   -27942   -51037  -105632 
  -97685    19762   201091   383277   575036   769078   749612   337020 
  -71735   -24938   126996    52142   -13261   -47449   -95848   -67006 
  -51013   -35077    27851     8845  -102274  -192959  -257036  -339399 
 -399766  -400268  -373241  -348963  -318164  -248635  -147839   -52297 
   34869   102395   128237   139450   176253   231265   277453   326532 
  382166   385514   305577   203918   159359   168785   167879   131974 
   63541   -32054  -106244  -134151  -165698  -240427  -329606  -360235 
 -303069  -248617  -290766  -347491  -279946  -148745  -114935  -170720 
 -203606  -187455  -140450   -64848    10568    55618    75294    96699 
  146563   206267   237670   247767   247697   231094   215928   207842 
  181423   141356   105653    59485     4292   -24913   -19648    -8416 
  -25169   -78593  -136259  -169759  -192819  -222901  -253710  -280158 
 -301009  -297916  -249360  -162215   -72265   -13603   -10689   -68799 
 -108270   -43487    41373    48485    46907    85437   129422   169858 
  200100   225086   259176   283628   276842   228580   157034   102855 
   67963    38528    23671     9854   -26563   -68865  -101876  -135627 
 -163557  -164700  -147112  -163837  -249819  -323573  -263206  -149270 
 -168520  -241747  -210185  -167847  -171346  -137609   -85631   -41894 
   19785    84830   143374   189840   199285   179331   171061   186050 
  197061   197785   199347   193151   175550   146251    88069     9987 
  -30315    -4517    24276     5857   -21019   -44255   -90360  -132891 
 -155723  -187154  -236391  -297942  -343070  -317992  -225614  -132596 
  -77914   -49971   -42069   -56214   -69770   -60705   -32558     -118 
   18719    23140    37305    74369   115414   138702   151448   170444 
  196793   222209   232208   216354   180598   133134    75301     6488 
  -75672  -164171  -232256  -252010  -221544  -170218  -142327  -170889 
 -240648  -270934  -200909  -109286   -97346  -101616   -56685   -21388 
   -3310    34265    80799   133468   180741   202681   209280   199021 
  162753   116922    85927    87145   121516   172636   235058   310984 
  355681   252926   -36612  -241047   -99971    79262   -33748  -175362 
 -161866  -170442  -203775  -174002  -129726   -97063   -70481   -69161 
  -85944  -107060  -144502  -187011  -188041  -136750   -77624   -33240 
    9539    37749    35068    18870    -2850   -25903   -19689    24409 
   76661   112566   131063   140910   133929    94729    37728    -5270 
  -22893   -23665   -18485   -14206    -9412    -5391   -13771   -32367 
  -46948   -67085  -110906  -161901  -187578  -182997  -174530  -184058 
 -189613  -164767  -130912  -107434   -81777   -49093   -15530    15067 
   43865    85255   145128   198889   212555   166797    90225    62535 
   91816    76647     4102   -35206   -55591  -109830  -158998  -174887 
 -165438  -127569   -73245   -34545   -35087   -61638   -76726   -62873 
  -32675    -7538    -1560   -12949   -24193   -21623    -6092    15639 
   44620    94508   159034   194066   158426    58504   -41687   -89004 
 -111100  -140527  -154512  -146394  -134602  -115900   -86356   -68443 
  -87540  -116061   -94506   -44465   -36413   -50722   -43632   -38102 
  -35776   -24755   -25985   -31840   -29714   -35002   -41874   -21701 
   34973    99878   140784   155242   155859   154561   144586    99911 
   29899   -10180    -1846     4075   -24407   -58800   -79330   -87646 
  -77136   -58246   -52337   -59035   -60515   -44283   -18906     3473 
    9615   -15756   -46673   -41639   -10270    20376    44432    59110 
   61146    49229    27225     2181   -21763   -34001   -31245   -28262 
  -33267   -43883   -56800   -63483   -57094   -45199   -39706   -34300 
  -13993    13139    25063    12872   -13789   -29063   -19998     2380 
   28040    42448    44023    56977    72019    57574    24527    -1626 
  -18674   -35067   -55789   -73805   -78526   -68171   -50317   -39045 
  -42122   -53965   -64073   -66499   -64032   -62809   -61088   -47119 
  -22239    -9846   -13737    -9821    11351    42335    71701    86485 
   92559    96716    83052    53261    30798    15451    -8139   -39704 
  -66760   -78099   -73336   -59901   -45202   -37565   -40345   -55561 
  -81158   -97262   -95153   -89392   -84939   -77196   -63326   -39751 
  -13814    -4429   -20906   -49937   -65522   -58433   -47747   -46234 
  -40715   -17194    22315    60214    78647    76053    62233    52953 
   56191    57638    48923    46136    51637    47075    27280     -692 
