Origin Time       2016/04/16 01:25:00
Lat.              32.753
Long.             130.762
Depth. (km)       12
Mag.              7.3
Station Code      KMM008
Station Lat.      32.6878
Station Long.     130.6582
Station Height(m) 4
Record Time       2016/04/16 01:25:08
Sampling Freq(Hz) 100Hz
Duration Time(s)  257
Dir.              N-S
Scale Factor      3920(gal)/6182761
Max. Acc. (gal)   651.461
Last Correction   2016/04/16 01:24:53
Memo.             
[...]
   -3040    -3038    -3025    -3015    -3016    -3012    -3018    -3021 
   -3009    -3021    -3035    -3024    -3025    -3037    -3046    -3053 
   -3051    -3048    -3045    -3021    -2994    -2996    -3019    -3033 
   -3039    -3043    -3033    -3023    -3019    -3021    -3040    -3037 
   -3024    -3036    -3030    -3022    -3032    -3029    -3021    -3016 
   -3015    -3022    -3028    -3029    -3030    -3029    -3035    -3051 
   -3054    -3038    -3023    -3017    -3010    -3009    -3027    -3038 
   -3026    -3022    -3026    -3021    -3027    -3034    -3031    -3038 
   -3038    -3028    -3022    -3021    -3028    -3028    -3024    -3029 
   -3026    -3021    -3031    -3041    -3038    -3030    -3018    -3002 
   -3006    -3027    -3041    -3058    -3055    -3030    -3030    -3034 
   -3024    -3022    -3025    -3025    -3030    -3032    -3034    -3039 
   -3037    -3015    -3002    -3009    -3016    -3029    -3043    -3042 
   -3045    -3047    -3034    -3015    -3013    -3023    -3033    -3039 
   -3034    -3024    -3024    -3027    -3030    -3039    -3044    -3039 
   -3035    -3032    -3022    -3011    -3014    -3023    -3027    -3035 
   -3041    -3036    -3029    -3029    -3031    -3028    -3024    -3018 
   -3017    -3018    -3018    -3036    -3050    -3043    -3038    -3033 
   -3024    -3020    -3022    -3024    -3022    -3020    -3023    -3027 
   -3027    -3024    -3030    -3045    -3049    -3036    -3024    -3019 
   -3014    -3017    -3023    -3024    -3023    -3016    -3015    -3030 
   -3039    -3047    -3046    -3021    -3018    -3033    -3023    -3031 
   -3043    -3034    -3043    -3036    -3020    -3031    -3024    -3013 
   -3020    -3017    -3020    -3036    -3035    -3025    -3025    -3027 
   -3038    -3046    -3030    -3033    -3041    -3027    -3027    -3031 
   -3022    -3017    -3016    -3036    -3053    -3041    -3035    -3038 
   -3032    -3026    -3024    -3025    -3019    -3015    -3023    -3020 
   -3011    -3006    -3008    -3026    -3039    -3044    -3047    -3040 
   -3045    -3053    -3043    -3038    -3035    -3028    -3018    -3005 
   -3012    -3019    -3010    -3022    -3046    -3051    -3047    -3045 
   -3039    -3027    -3016    -3019    -3019    -3010    -3011    -3026 
   -3033    -3029    -3024    -3022    -3019    -3021    -3037    -3051 
   -3046    -3036    -3026    -3023    -3024    -3026    -3035    -3033 
   -3023    -3023    -3028    -3027    -3025    -3028    -3024    -3022 
   -3026    -3024    -3030    -3041    -3039    -3034    -3035    -3037 
   -3034    -3023    -3010    -3021    -3033    -3021    -3024    -3032 
   -3028    -3031    -3037    -3043    -3045    -3038    -3033    -3033 
   -3030    -3024    -3016    -3015    -3017    -3020    -3026    -3035 
   -3041    -3037    -3029    -3030    -3026    -3025    -3028    -3029 
   -3037    -3035    -3028    -3030    -3027    -3031    -3037    -3024 
   -3015    -3013    -3014    -3023    -3029    -3036    -3040    -3033 
   -3030    -3034    -3036    -3038    -3033    -3022    -3028    -3040 
   -3033    -3022    -3020    -3015    -3014    -3025    -3032    -3034 
   -3036    -3030    -3036    -3044    -3030    -3019    -3015    -3016 
   -3026    -3025    -3015    -3024    -3036    -3032    -3031    -3038 
   -3032    -3028    -3034    -3039    -3044    -3044    -3037    -3025 
   -3011    -3011    -3020    -3014    -3009    -3016    -3021    -3033 
   -3039    -3039    -3042    -3037    -3036    -3049    -3046    -3027 
   -3016    -3014    -3015    -3018    -3013    -3008    -3017    -3028 
   -3038    -3051    -3053    -3044    -3034    -3023    -3018    -3013 
   -3007    -3018    -3031    -3039    -3050    -3047    -3040    -3040 
   -3034    -3025    -3024    -3021    -3021    -3030    -3037    -3042 
   -3042    -3037    -3034    -3027    -3025    -3027    -3024    -3024 
   -3018    -3015    -3022    -3023    -3018    -3019    -3027    -3028 
   -3026    -3038    -3042    -3033    -3028    -3025    -3035    -3042 
   -3028    -3022    -3022    -3012    -3013    -3023    -3031    -3034 
   -3032    -3037    -3046    -3044    -3035    -3026    -3023    -3024 
   -3029    -3034    -3034    -3028    -3019    -3020    -3025    -3025 
   -3022    -3021    -3029    -3038    -3039    -3031    -3022    -3017 
   -3018    -3023    -3029    -3028    -3021    -3024    -3027    -3027 
   -3035    -3038    -3038    -3037    -3031    -3035    -3039    -3034 
   -3032    -3031    -3031    -3035    -3035    -3027    -3023    -3026 
   -3031    -3037    -3038    -3030    -3023    -3021    -3026    -3029 
   -3025    -3024    -3033    -3033    -3024    -3031    -3036    -3033 
   -3032    -3026    -3022    -3027    -3029    -3027    -3034    -3042 
   -3042    -3039    -3031    -3021    -3019    -3019    -3020    -3019 
   -3015    -3018    -3023    -3029    -3041    -3038    -3027    -3030 
   -3034    -3034    -3030    -3029    -3033    -3032    -3025    -3024 
   -3029    -3031    -3028    -3026    -3031    -3034    -3033    -3035 
   -3031    -3027    -3024    -3020    -3025    -3029    -3024    -3026 
   -3032    -3032    -3035    -3031    -3025    -3030    -3035    -3035 
   -3033    -3030    -3026    -3018    -3019    -3027    -3024    -3021 
   -3026    -3026    -3030    -3034    -3030    -3028    -3028    -3029 
   -3033    -3031    -3025    -3027    -3032    -3031    -3025    -3025 
   -3028    -3022    -3023    -3033    -3033    -3029    -3032    -3035 
   -3036    -3039    -3044    -3039    -3028    -3029    -3028    -3022 
   -3021    -3016    -3013    -3021    -3027    -3034    -3038    -3036 
   -3038    -3043    -3042    -3034    -3030    -3029    -3025    -3024 
   -3022    -3017    -3020    -3024    -3024    -3032    -3040    -3034 
   -3023    -3022    -3029    -3032    -3030    -3025    -3023    -3024 
   -3030    -3032    -3033    -3034    -3032    -3031    -3033    -3033 
   -3032    -3029    -3026    -3024    -3023    -3019    -3017    -3021 
   -3025    -3032    -3044    -3043    -3036    -3028    -3022    -3022 
   -3021    -3016    -3012    -3013    -3024    -3038    -3048    -3051 
   -3045    -3039    -3033    -3027    -3024    -3020    -3014    -3014 
   -3019    -3025    -3028    -3032    -3033    -3031    -3034    -3034 
   -3034    -3030    -3027    -3031    -3030    -3032    -3033    -3021 
   -3022    -3029    -3027    -3032    -3035    -3029    -3033    -3037 
   -3034    -3033    -3032    -3036    -3041    -3037    -3036    -3031 
   -3020    -3018    -3019    -3025    -3027    -3021    -3021    -3025 
   -3026    -3032    -3034    -3031    -3027    -3023    -3028    -3037 
   -3036    -3034    -3031    -3026    -3027    -3024    -3023    -3026 
   -3025    -3026    -3027    -3026    -3031    -3035    -3033    -3032 
   -3030    -3024    -3011    -2998    -3000    -2992    -2943    -2857 
   -2759    -2714    -2777    -2909    -3007    -2989    -2875    -2758 
   -2580    -2472    -2733    -2798    -2494    -2603    -2255    -1641 
   -2712    -3403    -2814    -3214    -2687    -1540    -2523    -3707 
   -4172    -3497     -825      895     -606    -2837    -4190    -5089 
   -2236     -128    -2006      305    -1702    -6660       46     1833 
   -3335     -317     2737      636    -3774     -731     5434     2579 
    2659      796    -1281     3016    -6627    -7129     9827     1478 
  -11491    -6505   -15293   -12818    12263     4166    -7911     8105 
     415   -14240    -2883    -3856   -16685   -12317   -13668   -22567 
  -10847    -8144   -20782   -11359     3320     3712      634    10175 
   24859     8892    -4247     9345    -2344   -12974    -3194   -16665 
  -26007   -25746   -40932   -46391   -36199   -24152   -20398    -8672 
   18464    22913    21643    34038    39561    48855    50686    40782 
   26646    -1184   -13679   -24573   -50708   -48844   -37777   -31760 
  -19008   -18063    -4861    11243    10381    30836    44236    30082 
   24909    16987     5431     -260   -20844   -36439   -30230   -32435 
  -38225   -35617   -34019   -19037    -1249     8982    19772    17094 
   23200    32272    15757    14635    10821   -16082   -15342   -13352 
  -20761    -8857    -8709    -8646     -156    -8400   -14084   -26532 
  -41578   -32670   -27352   -20775    -1121     2350    -2782    13663 
   36557    29343    22073    32113    16318      -59    -2391   -17803 
  -18245    -9797    -6686    13885    25356    14991     8892    -1730 
  -10754     -328    -8372   -21149     7430    12929   -14887    -4851 
    6627   -13264   -21626   -11462     2040     1371   -25643   -22130 
    9440   -18481   -23416    29497    10830    15107    66698    12642 
  -18054    25744     9905     9240    34172    18212    37570    60825 
    9531   -11636    44078    29692   -52330   -39096     9410   -18613 
  -42694   -40940   -28113    14758    11574    21646    95862    59743 
    3669    54547    30529   -28696     4880    26185   -22853   -61093 
    5236    39583   -80593  -102295    11407    10049   -45678   -26291 
   22816    30940   -19607   -26217   -14316   -97461  -126401   -20228 
   28121   -14945     4334    62402    30235    12866   122566   137522 
   22363    66378   135326    23127   -25032   -19167   -66172    -6311 
  -20081  -135963   -64078   -51613  -126096    18658    46889   -73006 
   26247    98129    82658   138448    89390    82091   178522   127179 
   82191    82536   -38632   -83076   -16857   -50047  -130269  -168171 
 -180328  -164515  -152389  -135128   -70498   -21483   -29291     -189 
   83697   103603    45838    11828    54845    95561    22221   -57275 
  -47837   -35253    -2549    19080    -6176   -11486   -96416  -142875 
   24629    65817   -57510     8124   110025    85942    93152    74462 
    6358     5381    26789    24661   -51697  -200118  -212619   -62479 
   20947   -43581   -97199   -28028    24854    55741   158587    71125 
 -104783    84121   257545    13433  -174301   -84830     -409    37866 
   87537    75267    48883   127316   195468   132299    68969    50431 
    4304    14982    64547   -39712  -161709   -63173    11993   -86199 
  -75188     4674   -67696   -91823    13591   -15340   -73960    53956 
   62064   -94077   -10110    95026  -141915  -286280   -55556    38316 
 -180270  -173609   105290    97830  -130724   -70552   123062   104760 
   73864   144768   114752    18037     -736    -6892   -24867   -64867 
 -198022  -236316  -100030   -71432  -129662   -53302    24165     1129 
   94222   304157   320015   145741   109113   282898   390609   255157 
  111597   181240   271183   238745   226304   241751   149022   -34934 
 -164468  -192615  -259465  -366855  -353930  -338098  -430322  -444858 
 -407741  -470539  -506845  -460657  -452656  -472397  -433039  -359991 
 -311149  -201109   -46510    28897   127281   243569   250202   247559 
  298248   377306   445695   379178   219723   131403   108520    84252 
   70244    81737    88028    90613   148593   246133   308675   308809 
  236232   122567    40024    -9328   -72556  -160343  -232285  -210775 
 -119725  -108788  -138003   -44985    59048    75053   185594   377875 
  409712   345918   401227   439202   274828    93655    32470   -44834 
 -106575   -51284   -29600   -97214   -74578    42648    53216   -24358 
   10645    80630    13199   -68285   -63756   -41916    14849   104712 
  153244   149852   130213   158302   204261   139844     3841   -59928 
  -66660  -117269  -206948  -254431  -247246  -252827  -291388  -317301 
 -297593  -216929  -115807   -49616    17840    74478    92892   153961 
  174778    66601    30207    65092   -35476  -139962   -87843   -19771 
   -2111    55009   131926   171124   207531   260063   312828   322988 
  210748    39237   -39307   -76841  -181759  -255699  -214392  -177827 
 -210091  -200519  -144356  -120132   -68722    -8246   -39055   -78178 
  -99325  -222127  -381072  -429198  -439513  -535467  -580132  -375203 
  -57794   106300   121806   101496    90801   163229   278854   339281 
  408918   457563   374701   270736   242858   207331   142636   128969 
  151374   113169    14126   -62477   -82993   -81291   -75833   -44921 
   -6987   -18405   -67137   -94863  -103122  -122997  -141396  -145187 
 -172146  -242925  -305206  -305405  -265482  -265347  -325711  -350963 
 -296502  -232865  -188569  -153503  -109955    -8452   102596   156558 
  234473   354442   403134   380923   391933   431541   398568   306768 
  255177   209551   109688    36532    37502    21584   -54274   -86273 
  -14292    57865    63734    67998   100276   136363   176991   215771 
  231542   221738   204755   187963   123013   -29204  -188046  -254882 
 -269790  -302129  -324672  -317578  -317549  -337650  -361807  -370083 
 -357289  -369138  -435542  -464161  -353170  -195840  -139160  -111118 
  -16780    64576   134293   246753   327196   369728   444532   540560 
  622566   675969   720694   788332   858804   875932   777123   544892 
  271609   100819    54390    -2311  -117085  -191184  -234212  -329010 
 -450306  -559036  -652190  -706575  -714812  -701232  -670293  -598944 
 -516119  -478177  -445050  -395102  -408057  -459331  -465461  -456173 
 -472628  -524835  -579320  -573631  -575858  -651716  -712542  -742339 
 -789127  -742155  -520049  -304344  -231170  -152493    -5938    88072 
  123180   142499   159500   181588   176812   166995   183327   205499 
  231732   253267   274448   319453   358060   356564   337721   325042 
  304048   259556   206245   157701   115715   104437   145079   213618 
  283522   360922   460201   605854   801709   968640  1024160   983572 
  894801   780176   664758   557738   430116   254385    64739   -59291 
 -114106  -156898  -188762  -212507  -270672  -358722  -420055  -408038 
 -341136  -288699  -288669  -304591  -277296  -231375  -226719  -238940 
 -228051  -192117  -131147   -70463   -37642    -8870    41663    76857 
   68425    70559    93892    81156    57733    55635    39006     4598 
  -47001  -128126  -208575  -248639  -256352  -286073  -330550  -314277 
 -242257  -186917  -166830  -148487  -113296   -65000   -13128    28525 
   65753    93659    81340    50799    46556    55509    57361    66944 
   93550   118909   128873   130650   133551   138295   137431   126738 
  115391   124124   159344   185201   179811   173633   181178   185661 
  183080   179652   177740   165096   128801    93149    74163    42321 
    6030    -1917   -14727   -48475   -66287   -90287  -149833  -194805 
 -188900  -169422  -175332  -181887  -153446  -114772  -101697  -120228 
 -162143  -199493  -216602  -231489  -253268  -260040  -221676  -154619 
 -110969   -88993   -61185   -47718   -49353   -23762    21314    38669 
   22395     9474    20614    22181     4615    21948    67239    73437 
   40919    14955    18519    39461    47845    59352    91141   103157 
   97339   114560   135269   140650   165666   217232   259226   281752 
  299843   307388   295882   299431   339359   372413   378401   395455 
  444819   501735   522595   488040   402363   276799   152768    64412 
    3790   -35343   -65464  -106093  -144439  -170772  -195669  -216627 
 -226229  -228749  -235450  -250090  -269755  -296299  -316888  -308768 
 -279004  -258199  -261049  -257041  -206099  -142302  -124572  -137269 
 -151448  -165567  -165739  -154736  -134935   -82608   -19048    15067 
   32701    49287    54292    52375    55179    56393    46853    27125 
    -554   -35845   -78688  -121479  -150876  -170939  -199307  -242882 
 -300867  -370730  -445088  -513302  -555103  -544267  -479612  -394159 
 -316911  -254486  -202716  -150050  -103235   -74379   -37787    18898 
   72349   117977   159474   196242   238132   284146   312568   302790 
  271919   263632   279307   290279   295250   295368   273373   229535 
  190919   174594   164890   139941   103513    85557   103348   119541 
   97820    66475    58390    66239    72745    73158    86629   142477 
  260559   437414   628535   776818   846339   818916   711067   582368 
  472034   355184   210904    76642   -15067   -80164  -131183  -162453 
 -189362  -228265  -265558  -282823  -274723  -251877  -237864  -248700 
 -280896  -311853  -323272  -322848  -320863  -315979  -310678  -313543 
 -325289  -329915  -322169  -322141  -331695  -332520  -327033  -327300 
 -335401  -350770  -364493  -361146  -352265  -359674  -344510  -261093 
 -169268  -136330  -118234   -76947   -45515   -29289    -8899     5081 
    7397    16293    31357    31161    17997     8436    -9212   -48460 
  -88006  -110218  -124827  -136256  -142472  -144137  -132230  -105267 
  -83556   -81925   -85227   -71320   -48416   -33240   -18534     4455 
   29194    51684    77242   100534   108035   109528   124175   147573 
  164375   174573   195293   231642   269496   306409   343191   369851 
  389912   401390   380102   325216   262573   221116   228164   265006 
  273324   241021   200021   165474   136187   104391    66884    46871 
   50972    46114    25398    10504     9273    25094    39157    25042 
   13832    37249    61511    67013    75399    88342   102420   114198 
  106393    96041   111956   137303   146276   146506   155188   157031 
  131296   100921    92185    90650    76139    53203    30899    11802 
    1319    -8305   -30321   -44701   -33052   -20227   -19907   -12940 
    2526     9922     2313   -10377    -8978     1721    -3562   -17362 
  -13380    -3840   -11556   -24523   -32962   -50049   -72241   -83642 
  -92054  -109406  -128082  -142655  -156149  -172439  -198951  -230971 
 -252823  -267510  -284520  -290717  -282627  -286815  -307193  -321781 
 -328453  -328331  -313191  -294461  -296292  -320465  -340072  -329491 
 -292316  -254751  -230825  -205927  -171063  -146098  -140165  -131705 
 -114351  -103891  -100056   -98605  -106600  -120658  -130419  -134778 
 -132694  -123528  -113846  -100267   -76192   -52256   -34055   -13354 
    6267    14735    19155    32225    50553    65530    72890    67972 
   60037    65873    80107    88664    93264   100360   110333   124794 
  144755   163114   173272   179953   193941   214642   229706   235195 
  235588   234023   231596   218909   185172   141448   109040    88499 
   62018    29656    12717    15776    19067     9949    10456    43808 
   76030    75054    85509   138794   185573   194335   200241   224721 
  243831   236053   210660   193676   193604   195742   188572   179447 
  183423   191788   190188   198228   225496   240581   232633   229173 
  230607   206848   160651   122318   101183    86941    75246    70964 
   71367    65612    53638    43242    34532    23384    11671     2151 
   -7590   -19504   -34506   -48452   -52367   -54441   -71067   -90763 
  -94985   -96341  -111519  -133821  -149632  -151332  -150529  -165493 
 -182642  -183866  -180446  -181287  -186362  -202245  -224416  -239542 
 -250051  -263056  -278190  -299203  -321659  -332931  -334032  -324748 
 -302507  -275947  -249454  -227476  -216890  -213325  -214844  -220859 
 -224570  -230517  -237644  -227801  -203959  -183773  -166217  -146164 
 -125675  -105429   -84338   -58850   -30569   -10363     -944     6582 
   18171    32771    43661    47254    51566    63207    76814    85402 
   90430    96633   106215   121078   138668   152748   163252   173760 
  186638   202292   215734   219505   209955   190293   170736   158573 
  149332   138979   134845   142996   157568   170639   185595   209180 
