Origin Time       2016/04/16 01:25:00
Lat.              32.753
Long.             130.762
Depth. (km)       12
Mag.              7.3
Station Code      KMM012
Station Lat.      32.5078
Station Long.     130.6024
Station Height(m) 3
Record Time       2016/04/16 01:25:11
Sampling Freq(Hz) 100Hz
Duration Time(s)  255
Dir.              E-W
Scale Factor      3920(gal)/6182761
Max. Acc. (gal)   164.959
Last Correction   2016/04/16 01:25:11
Memo.             
[...]
   -3974    -3958    -4015    -4013    -3956    -3973    -4024    -3989 
   -3952    -4004    -4027    -3972    -3964    -4009    -3994    -3959 
   -3993    -4016    -3975    -3968    -4013    -4009    -3970    -3984 
   -4015    -3988    -3961    -3994    -4012    -3979    -3976    -4008 
   -3992    -3958    -3979    -4003    -3977    -3971    -4006    -4006 
   -3981    -3999    -4017    -3984    -3968    -3994    -3991    -3969 
   -3986    -4004    -3985    -3977    -3990    -3990    -3979    -3984 
   -3999    -3992    -3978    -3990    -3994    -3971    -3971    -3989 
   -3982    -3977    -3999    -4004    -3989    -4002    -4013    -3981 
   -3959    -3975    -3983    -3974    -3988    -4007    -3994    -3983 
   -4003    -4005    -3978    -3982    -4005    -3988    -3967    -3989 
   -4000    -3972    -3972    -4001    -3989    -3968    -3995    -4010 
   -3981    -3979    -4013    -4009    -3976    -3988    -4009    -3967 
   -3941    -3985    -3997    -3965    -3989    -4026    -3993    -3961 
   -3992    -4003    -3966    -3973    -4017    -4000    -3961    -3992 
   -4018    -3974    -3957    -4004    -4006    -3969    -3991    -4024 
   -3982    -3953    -4002    -4018    -3966    -3967    -4019    -3993 
   -3943    -3988    -4024    -3975    -3972    -4032    -4016    -3958 
   -3977    -4007    -3965    -3949    -4005    -4013    -3964    -3973 
   -4012    -3986    -3953    -3993    -4022    -3980    -3978    -4027 
   -4006    -3951    -3972    -4004    -3969    -3953    -4004    -4012 
   -3965    -3982    -4029    -3998    -3965    -4006    -4018    -3965 
   -3960    -4008    -3992    -3958    -3998    -4020    -3970    -3962 
   -4009    -4006    -3968    -3987    -4018    -3986    -3965    -4000 
   -4008    -3969    -3973    -4010    -3991    -3959    -3995    -4018 
   -3973    -3966    -4007    -3989    -3952    -3988    -4022    -3987 
   -3977    -4013    -3997    -3958    -3983    -4011    -3984    -3975 
   -4012    -4012    -3977    -3980    -4002    -3981    -3960    -3990 
   -4006    -3972    -3976    -4010    -3987    -3960    -3995    -4014 
   -3984    -3981    -4006    -3988    -3960    -3987    -4011    -3982 
   -3972    -4006    -4003    -3969    -3983    -4011    -3985    -3971 
   -4002    -3999    -3966    -3978    -4005    -3985    -3967    -3998 
   -4009    -3978    -3979    -4004    -3985    -3963    -3994    -4012 
   -3983    -3983    -4011    -3991    -3964    -3985    -4001    -3981 
   -3983    -4008    -3997    -3968    -3983    -4004    -3983    -3971 
   -3997    -4003    -3980    -3984    -4003    -3985    -3969    -3992 
   -4001    -3978    -3985    -4010    -3990    -3962    -3986    -4003 
   -3972    -3971    -4003    -3990    -3963    -3990    -4010    -3979 
   -3972    -4006    -4003    -3969    -3981    -4007    -3980    -3968 
   -4006    -4007    -3968    -3985    -4020    -3991    -3968    -4003 
   -4006    -3960    -3976    -4022    -3991    -3952    -3989    -4008 
   -3970    -3973    -4011    -3994    -3961    -3992    -4021    -3980 
   -3956    -3999    -4008    -3962    -3977    -4025    -3991    -3957 
   -4003    -4015    -3961    -3966    -4016    -3995    -3958    -4000 
   -4028    -3979    -3967    -4015    -4002    -3946    -3976    -4024 
   -3979    -3951    -4009    -4018    -3961    -3975    -4031    -4000 
   -3952    -3993    -4019    -3962    -3957    -4024    -4010    -3952 
   -3989    -4029    -3971    -3948    -4009    -4016    -3965    -3983 
   -4025    -3982    -3938    -3982    -4012    -3966    -3961    -4016 
   -4003    -3951    -3988    -4037    -3996    -3970    -4017    -4012 
   -3952    -3967    -4017    -3987    -3955    -4001    -4019    -3966 
   -3967    -4016    -4003    -3965    -3991    -4013    -3980    -3971 
   -4006    -4005    -3972    -3983    -4009    -3986    -3963    -3993 
   -4009    -3980    -3975    -3996    -3987    -3972    -3995    -4010 
   -3987    -3980    -3997    -3993    -3979    -3992    -4003    -3989 
   -3981    -3995    -3996    -3981    -3984    -3994    -3984    -3975 
   -3985    -3990    -3985    -3985    -3989    -3989    -3991    -3996 
   -3996    -3993    -3992    -3988    -3979    -3980    -3993    -3993 
   -3983    -3990    -3990    -3971    -3975    -3997    -3989    -3979 
   -4000    -4002    -3975    -3975    -3996    -3994    -3984    -4002 
   -4008    -3976    -3968    -4001    -3999    -3970    -3984    -4008 
   -3979    -3962    -3995    -4004    -3970    -3977    -4015    -3995 
   -3956    -3990    -4021    -3975    -3958    -4008    -4005    -3959 
   -3983    -4021    -3980    -3952    -4003    -4016    -3963    -3972 
   -4031    -4000    -3948    -3994    -4024    -3966    -3964    -4028 
   -4011    -3946    -3977    -4028    -3978    -3942    -4008    -4027 
   -3962    -3975    -4038    -3993    -3932    -3990    -4030    -3966 
   -3962    -4035    -4016    -3945    -3975    -4023    -3973    -3947 
   -4018    -4028    -3951    -3958    -4029    -4002    -3950    -4003 
   -4036    -3967    -3951    -4018    -4009    -3946    -3982    -4036 
   -3985    -3946    -4004    -4018    -3957    -3968    -4025    -3997 
   -3954    -3996    -4023    -3976    -3968    -4016    -4005    -3957 
   -3984    -4025    -3984    -3950    -3994    -4007    -3962    -3975 
   -4027    -4004    -3960    -3986    -4005    -3967    -3963    -4010 
   -4012    -3977    -3988    -4011    -3986    -3966    -3994    -4002 
   -3976    -3984    -4006    -3988    -3969    -3984    -3989    -3973 
   -3982    -4003    -3998    -3984    -3992    -3997    -3986    -3984 
   -3990    -3982    -3977    -3983    -3982    -3971    -3963    -3950 
   -3934    -3925    -3913    -3891    -3896    -3968    -4048    -4018 
   -3878    -3716    -3582    -3587    -3792    -3939    -3880    -3784 
   -3731    -3838    -4133    -4177    -3685    -2992    -2708    -3133 
   -3871    -4474    -4818    -4638    -4061    -3736    -3754    -3810 
   -3764    -3372    -3027    -3698    -4832    -5250    -5465    -5691 
   -4624    -2617    -1875    -2853    -4387    -5484    -5275    -4265 
   -3573    -3383    -4082    -4197    -2221    -1405    -2489    -2155 
   -2549    -5328    -5563    -2648    -1235    -1797    -2554    -3319 
   -3721    -3391    -2513    -2178    -3793    -6199    -7868    -9814 
  -11312    -9704    -6416    -5195    -5589    -5095    -4905    -5883 
   -4571    -1848    -3048    -5207    -3156    -1399    -2689    -3374 
   -4906    -8928    -9914    -5144     1309     5702     5909     1818 
   -3223    -8158   -13501   -15072   -10807    -5587    -2443     -614 
    -363     -219     1172      210    -3184    -4019    -4070    -7615 
  -10688    -9240    -7288    -9292   -12435   -10419    -3104     2625 
    3624     3308      758    -5545    -7307    -3363    -3252    -3388 
    1061     -112    -6861    -8151    -7713   -11512   -11759    -6083 
   -2312        1     4156     4242    -1622    -6720    -8525    -7834 
   -3673     2365     6165     4347    -4615   -14615   -16202   -11763 
   -7466      713    11427    12584     6527     3512    -4648   -19580 
  -22878   -15751   -13597    -8080     7149    10838    -1216    -8394 
  -10280   -12788    -7977      157     3527     8660    14207     9453 
    1739      803    -4962   -17138   -18500   -13961   -18765   -22021 
  -14500    -9340    -4714    16358    38199    33393    14303      416 
  -14990   -32449   -36124   -24151   -10097     3806    18523    20454 
    7173    -4491    -9572   -11966    -5628     9331    19330    14996 
    1816    -3752    -2301    -8433    -9560     1079    -3439   -19477 
  -15688    -3469    -7176    -5831    12364    19900    14349     9497 
   -2388   -22085   -40346   -47412   -34099   -11553     5579    17571 
   21641    12416    -4988   -16195   -18712   -19441   -12848    -1764 
    3637     6421     7360     3332    -2485     -676     7256     7466 
    6802    15080    14210    -6478   -26370   -26368   -16097   -10248 
   -4939      794    -2018   -10574   -12370    -3699     7984    22086 
   38034    41171    31551    15818   -12085   -41614   -60188   -70627 
  -64116   -35532    -4082    16655    32201    43892    40865    22260 
    2982   -10279   -17870   -18976   -21831   -27274   -19297     1609 
   14557    15463    11571     4756     5416    10545     4062      439 
   11338    10200   -10883   -25932   -30299   -33213   -27108   -15169 
   -8780     -430     8447     5593      225    -2645   -15507   -37301 
  -56974   -61836   -45593   -23691    -3722    20941    38889    41218 
   35894    26479    19315    17726    15080    11642     -237   -20613 
  -17828    -3170   -23860   -51531   -44916   -33514   -31940   -20725 
   -4890     -292     -575     6591     6404     -618    14723    25034 
   -4270   -25787   -14689   -17938   -35001   -15106    26382    38631 
   33386    27869     1556   -19832     4659    36996    30759    13180 
   21926    37129    34230    23015     6079   -14741   -28492   -33188 
  -34419   -40658   -37262   -14208    -1962     3083    35380    64132 
   42243     -802   -18065   -25382   -47798   -54601   -30362   -24848 
  -45316   -39659   -20661   -33440   -48539   -20500    23592    37096 
   27418    15840     4120    -4143   -11984   -24801   -27200    -5850 
   17063    19983    16913    13703       15   -17088   -24958   -24351 
  -26907   -34949   -32347    -6318    29859    40264    17564    -7484 
  -28716   -50276   -52915   -41106   -36276   -36727   -42102   -50062 
  -43091   -17067    19651    53306    65468    45058     3434   -17572 
  -10777    -7866     9702    49667    60977    32812      659   -11157 
   -6177    -2959    -2285    -2938   -17868   -37131   -35874   -25556 
  -26164   -28909   -34583   -45961   -44989   -25223     1549    16479 
    9022    -8839   -12962     7193    28010    33490    35146    29142 
   12043    -4915   -17926   -26434   -32369   -33954   -32272   -39000 
  -37984    -5898    32832    52976    62040    59991    43474    20386 
   -1905   -17272   -28093   -34764   -24354     3789    34224    52552 
   48346    22825    -8703   -34128   -50330   -57132   -61487   -68402 
  -71250   -58253   -28349      912    26286    49075    43093    14140 
   -2873   -18523   -35698   -22718     6404    20086    27668    38974 
   42772    35169    24143     4586   -33910   -72462   -89223   -92550 
  -77116   -34098     2370    12983    10245    -2397   -16358   -22087 
  -15396     1437    14850    26531    36126    33834    26612    15538 
    -383   -13221   -23173   -29901   -36824   -46682   -45685   -29230 
  -12549    -3654     6884    23928    33325    33209    42748    51989 
   39520    25702    23287    16456    18868    46014    68791    70691 
   78752    94001    86976    70673    72262    78667    74338    74433 
   96076   120444   125937   129348   140927   149025   155589   163576 
  163415   154012   145668   134833   106520    60826     4710   -52754 
  -96731  -126588  -144759  -148884  -148823  -145736  -132051  -121488 
 -131402  -158198  -183472  -191485  -192770  -199928  -190858  -159547 
 -133492  -117452  -109193  -112747  -117170  -127815  -149241  -158286 
 -152006  -138827  -112912   -80437   -52733   -35996   -37709   -57450 
  -85482  -108471  -117938  -118262  -111876   -92211   -64826   -39750 
  -15490     3198     9628     6944     1773     8229    32715    64474 
   92700   107927   109856   108280   110434   120060   132243   147933 
  171767   188630   193257   196866   192794   173923   146896   117936 
  101454   103200   108853   118995   136703   149051   158487   173180 
  186011   196788   209354   221613   236174   238727   200018   114662 
    9069   -68465  -106720  -140337  -161408  -156056  -142723  -108504 
  -52648    -4143    34366    59487    56890    29229    -5808   -32506 
  -56269   -83244  -106103  -132791  -169936  -203474  -226872  -240437 
 -240285  -231007  -219857  -200269  -169740  -138414  -105355   -61924 
   -2670    60091    93931    93385    78028    52271    13692   -31595 
  -66043   -72900   -53611   -17344    25929    61998    85412    98164 
   94400    70722    33296   -12257   -54718   -80015   -91273   -96763 
  -94377   -87893   -81490   -71763   -65399   -58937   -37931   -23070 
  -39623   -75722  -108566  -119271  -110878  -100855   -81804   -50911 
  -30404   -29268   -38181   -47144   -44426   -23282     6731    33263 
   51055    59945    63668    61192    51811    41178    28530     6316 
  -21383   -39710   -49953   -62810   -74792   -89581  -114087  -134793 
 -144694  -138929  -105060   -58577   -15741    27661    57629    67476 
   73229    76077    79861    95264   113920   129549   145306   154922 
  141475    89537    15718   -33690   -45497   -50674   -55667   -44198 
  -33664   -37830   -39366   -33257   -18884     4735    24005    38023 
   50314    56340    61056    55796    25100   -17388   -54579   -87133 
 -117083  -138258  -141885  -134716  -132439  -132857  -126054  -116132 
 -110350  -105443   -87927   -43003    18813    65793    88160    91410 
   73704    47438    30852    18453    -3692   -37324   -77965  -119537 
 -152473  -173710  -186588  -187051  -169523  -127312   -53981    31257 
   99653   149427   173826   144167    77726    33869    21637    12064 
    5407    11945    24496    32860    34593    31223    23523    15596 
    7177    -2586        0    27645    75969   118262   136680   149928 
  162171   157256   145131   144334   158808   183331   209711   232624 
  249571   256213   243411   201379   127698    46206    -7339   -38454 
  -68874   -86475   -82211   -75925   -83730   -94443   -91132   -78768 
  -66404   -54401   -38318   -14894     3076     7320     5566    -1055 
  -14498   -33626   -60868   -95499  -129035  -153421  -162898  -152015 
 -121848   -76458   -20917    29529    65776    89298    90397    69199 
   41078     3985   -42767   -85455  -117398  -132585  -124120   -96110 
  -64915   -44838   -31338   -20572   -21892   -34609   -45060   -45278 
  -40859   -36863   -29619   -21925   -18362   -18308   -26039   -36676 
  -34665   -24855   -20853    -8638    24965    61076    85496   104997 
  122518   132812   135595   140579   149390   151851   149318   148870 
  147687   140982   129707   115346    93743    66301    39765    13013 
  -14203   -35924   -47321   -51247   -54011   -51594   -41301   -36264 
  -45592   -55179   -51163   -47124   -48910   -36176   -14018    -7198 
  -11099   -16816   -30671   -46709   -56321   -59698   -53920   -39190 
  -21392    -8137    -3569    -2037     -855    -3825    -8065    -5610 
    2983     2158   -15604   -35728   -53208   -73352   -87407   -89749 
  -83889   -72188   -57384   -39659   -30335   -41451   -58470   -71187 
  -84503   -93868   -96451   -92755   -81631   -66820   -48946   -29421 
  -15857   -11056   -10256   -10775   -16007   -23088   -27445   -32835 
  -32944   -19583    -1655    18972    48388    77768    98867   114831 
  124973   123962   113481   104463   102069    96229    76571    48179 
   21247   -12554   -62538  -110734  -138766  -150863  -158091  -162884 
 -160885  -150322  -129336   -97437   -60041   -19873    23155    60880 
   82902    94495   106856   120607   130746   128694   108158    74988 
   43770    26570    20463    19981    34409    63017    87097    99216 
  101165    91963    76804    66318    67580    77646    82826    72622 
   45863     4677   -40213   -75327   -98130  -109543  -110304  -102089 
  -85531   -68813   -62779   -66446   -75656   -92632  -112981  -125558 
 -127842  -121481  -108911   -95589   -86448   -86629   -93437   -99901 
 -106531  -111057  -109572  -101172   -80655   -49521   -14324    20663 
   39498    36351    26079    12756      551     -573     6656    16881 
   25592    31369    38764    44522    44360    45724    51912    56694 
   61667    70253    78071    82235    82319    81122    79136    67423 
   41882     7060   -30084   -57431   -64350   -51090   -23766    12420 
   47523    68426    74666    72809    60309    37575    13986    -7050 
  -24530   -35372   -44010   -54945   -60539   -54666   -43828   -29090 
   -5162    16852    25985    35130    50406    54775    43826    31530 
   21074     9480     4066    10260    20484    23374    17013     3451 
  -19943   -43435   -50044   -41966   -28477   -13374     1977    21537 
   42089    54503    59580    57145    41729    12532   -26323   -61872 
  -83987   -98673  -103576   -91233   -70833   -40895     5249    48020 
   65921    55307    24843    -6558   -23600   -27332   -25587   -19764 
   -9751     1417    12698    23685    30012    28227    22429    16405 
    9907     5525     6071    14566    31802    49533    59022    54218 
   30411    -6582   -42342   -65946   -71567   -52047    -7402    43007 
   80085   102927   115216   116996   109204    92586    71168    58600 
   58121    51598    33693    15255    -4287   -26949   -46874   -55387 
  -45043   -24941    -6981    14630    40554    60254    71866    72699 
   55396    27049    -2039   -32100   -59780   -79637   -90256   -88527 
  -73398   -46289    -9660    27040    52461    59287    45380    18285 
  -15568   -55263   -89187  -108761  -120820  -125724  -126399  -133464 
 -142363  -150557  -162641  -171597  -175068  -174167  -160218  -129462 
  -85985   -38089     3603    35531    56433    60957    50159    36416 
   23877     4032   -18048   -32819   -44915   -52483   -47620   -30977 
   -7483    16403    39621    63201    81102    86931    79898    67757 
   56859    44705    34794    29894    19519      618   -15770   -26100 
  -34579   -37510   -30576   -17557       87    25264    56384    86584 
  108270   115551   109390   101832   103441   108476   103985    82681 
   42015   -11733   -61130   -93623  -110683  -115712  -112682  -109535 
 -105854   -97031   -80363   -49968    -9864    25591    50671    69058 
   82383    88009    84462    72927    56294    36082    11588   -14909 
  -40595   -63945   -79776   -85248   -81546   -67254   -44997   -19568 
    8806    35760    54739    62394    54641    30803     -245   -24309 
  -34834   -39052   -48174   -64160   -78843   -88496   -97090  -103597 
 -104028   -97072   -83086   -63878   -38051   -10390     4389     2903 
   -7554   -19635   -23804   -18882   -11887    -5293      201     7194 
   20436    35248    45787    53635    57955    51437    28863      459 
  -16906   -23931   -26866   -18491     3886    29844    50935    64620 
   72823    76570    71887    61651    50641    33169    10572    -5131 
  -12407   -16347   -15757    -7883     7238    23581    33731    38211 
   34838    18781    -2814   -19937   -28731   -30261   -29078   -22649 
   -4918    19630    38580    42013    31687    18721    10031     2892 
   -7690   -20151   -29393   -34382   -39079   -46664   -53009   -52444 
  -46154   -36037   -22003   -10439    -5323     1128    12740    25738 
   38771    49886    54261    50157    39479    20826    -8261   -41794 
  -69538   -87800   -95587   -87208   -60407   -22302    16028    43027 
   53284    49020    36267    27201    26767    28538    32018    37251 
   41501    43725    41744    38737    35603    27316    15032     3203 
    -565     8216    20540    30421    39287    42507    36704    26633 
   18380    14447    13652    15325    19096    22773    24609    24025 
   21342    16712    10070     2008    -6731   -13525   -15561   -12990 
