Origin Time       2016/04/16 01:25:00
Lat.              32.753
Long.             130.762
Depth. (km)       12
Mag.              7.3
Station Code      KMM018
Station Lat.      32.3942
Station Long.     130.3885
Station Height(m) 2
Record Time       2016/04/16 01:25:14
Sampling Freq(Hz) 100Hz
Duration Time(s)  258
Dir.              N-S
Scale Factor      3920(gal)/6182761
Max. Acc. (gal)   142.788
Last Correction   2016/04/16 01:25:14
Memo.             
[...]
   -5600    -5649    -5674    -5618    -5641    -5669    -5626    -5636 
   -5659    -5626    -5635    -5653    -5633    -5647    -5651    -5621 
   -5647    -5660    -5615    -5643    -5673    -5612    -5627    -5686 
   -5636    -5616    -5662    -5640    -5626    -5654    -5639    -5634 
   -5660    -5634    -5618    -5666    -5654    -5611    -5651    -5658 
   -5623    -5650    -5645    -5627    -5666    -5651    -5613    -5650 
   -5665    -5623    -5627    -5658    -5642    -5637    -5646    -5633 
   -5650    -5649    -5617    -5653    -5659    -5608    -5648    -5677 
   -5614    -5627    -5671    -5628    -5630    -5667    -5626    -5626 
   -5670    -5639    -5622    -5654    -5640    -5635    -5664    -5632 
   -5623    -5676    -5637    -5606    -5675    -5657    -5604    -5660 
   -5659    -5603    -5658    -5674    -5601    -5638    -5681    -5625 
   -5623    -5658    -5642    -5639    -5649    -5627    -5641    -5660 
   -5626    -5642    -5661    -5624    -5639    -5665    -5628    -5630 
   -5665    -5633    -5623    -5664    -5646    -5627    -5651    -5642 
   -5641    -5653    -5627    -5639    -5664    -5617    -5627    -5687 
   -5633    -5602    -5677    -5661    -5602    -5643    -5665    -5631 
   -5641    -5651    -5638    -5653    -5643    -5627    -5660    -5646 
   -5612    -5650    -5656    -5616    -5654    -5674    -5615    -5637 
   -5680    -5622    -5619    -5665    -5629    -5631    -5667    -5630 
   -5640    -5668    -5619    -5632    -5672    -5622    -5616    -5669 
   -5648    -5618    -5664    -5665    -5615    -5638    -5654    -5625 
   -5649    -5641    -5623    -5669    -5648    -5620    -5658    -5638 
   -5628    -5666    -5637    -5623    -5671    -5644    -5609    -5665 
   -5666    -5601    -5644    -5682    -5614    -5636    -5678    -5617 
   -5632    -5675    -5628    -5629    -5664    -5632    -5635    -5662 
   -5631    -5635    -5661    -5630    -5634    -5666    -5631    -5627 
   -5672    -5638    -5615    -5659    -5639    -5622    -5665    -5642 
   -5623    -5670    -5648    -5615    -5655    -5646    -5620    -5659 
   -5650    -5620    -5666    -5658    -5610    -5651    -5662    -5613 
   -5643    -5663    -5617    -5644    -5676    -5625    -5627    -5662 
   -5633    -5638    -5655    -5621    -5645    -5668    -5611    -5639 
   -5693    -5619    -5605    -5676    -5642    -5611    -5661    -5651 
   -5626    -5645    -5641    -5644    -5662    -5629    -5624    -5671 
   -5642    -5619    -5672    -5638    -5602    -5681    -5667    -5590 
   -5641    -5681    -5630    -5634    -5652    -5630    -5649    -5655 
   -5624    -5646    -5654    -5621    -5648    -5667    -5619    -5631 
   -5662    -5628    -5640    -5670    -5625    -5626    -5666    -5629 
   -5624    -5661    -5635    -5640    -5676    -5639    -5614    -5657 
   -5648    -5618    -5652    -5647    -5626    -5661    -5648    -5622 
   -5658    -5649    -5617    -5648    -5648    -5624    -5662    -5654 
   -5606    -5657    -5673    -5606    -5633    -5667    -5627    -5646 
   -5661    -5616    -5648    -5671    -5611    -5629    -5673    -5634 
   -5626    -5658    -5644    -5640    -5651    -5620    -5636    -5671 
   -5623    -5623    -5673    -5633    -5625    -5674    -5634    -5616 
   -5665    -5651    -5623    -5646    -5644    -5639    -5665    -5633 
   -5610    -5669    -5656    -5610    -5654    -5653    -5615    -5654 
   -5662    -5627    -5648    -5649    -5623    -5656    -5653    -5613 
   -5652    -5669    -5614    -5629    -5672    -5631    -5627    -5668 
   -5636    -5635    -5655    -5611    -5639    -5686    -5623    -5616 
   -5672    -5650    -5637    -5643    -5622    -5648    -5668    -5623 
   -5617    -5671    -5649    -5607    -5658    -5660    -5615    -5652 
   -5652    -5612    -5651    -5658    -5624    -5657    -5656    -5619 
   -5644    -5647    -5621    -5651    -5660    -5623    -5648    -5671 
   -5621    -5627    -5661    -5632    -5631    -5657    -5637    -5635 
   -5654    -5632    -5646    -5666    -5617    -5631    -5677    -5625 
   -5614    -5675    -5644    -5616    -5669    -5650    -5617    -5657 
   -5648    -5619    -5657    -5653    -5619    -5655    -5653    -5615 
   -5655    -5651    -5613    -5663    -5660    -5609    -5652    -5658 
   -5613    -5656    -5664    -5609    -5645    -5674    -5623    -5641 
   -5668    -5618    -5632    -5668    -5629    -5631    -5653    -5628 
   -5645    -5665    -5632    -5632    -5655    -5641    -5645    -5652 
   -5612    -5629    -5671    -5610    -5579    -5613    -5558    -5478 
   -5433    -5310    -5164    -5066    -4934    -4811    -4737    -4624 
   -4572    -4758    -5064    -5335    -5568    -5616    -5240    -4391 
   -3508    -3437    -4230    -4876    -5290    -6682    -9037   -10110 
   -8163    -4929    -3907    -5963    -8876   -11026   -12757   -13513 
  -11286    -6349    -2147    -1333    -3158    -4963    -4914    -3831 
   -3124    -1964      -31     1406     1150    -2601    -8725   -12103 
  -10843    -7971    -7090    -8843    -9367    -5358    -1173    -4223 
  -11465   -12972    -9464    -7770    -7490    -5265     -905     1966 
     693    -2231    -4637    -6396    -5754    -1666     -203    -6174 
  -11001   -10072   -10180   -11776   -10399    -3929     2332     -812 
   -7805    -8343    -4811    -2635    -3260    -4321    -3449    -3307 
   -5431    -6673    -6049    -5545    -5277    -5025    -4148    -3842 
   -8357   -11847    -8222    -4838    -4286    -4653    -5349    -4051 
   -4670    -5773    -2331    -1503    -4289    -4199    -2986    -3046 
   -5618    -9953    -9864    -5284    -2576    -4793   -10052   -10788 
   -5663    -4387    -7395    -6528    -2173      134      810     4286 
    6631     2689     -507      286    -3031   -12324   -18542   -15804 
  -12288   -15873   -18903   -16264   -15565   -16319    -8446     5095 
   10655     5979     3335     7419     4089   -10645   -20455   -18741 
  -10862     -293     8629    10168     2404    -6999   -10246   -13405 
  -21200   -24197   -15192     1609    13646    10209     -828    -5343 
   -1767     1170    -5590   -12019    -6715    -5076   -18631   -31761 
  -23712      536    11716     4146     2606     9716     7784    -3233 
  -17678   -31960   -38546   -35954   -20418     2311     8078     1003 
    8444    25572    26569     6446   -14267   -15225    -7564   -12209 
  -16533    -6279     4073     1719    -7844    -6922     7956    10688 
  -12272   -35168   -36203   -27338   -17515    -2215    12712    22325 
   28416    28510    17390    -3785   -27079   -43232   -42601   -28853 
   -9825    17392    39554    39199    25393    11382    -3021   -19840 
  -30952   -36086   -43312   -37921   -16838     1590    13473     9197 
      55    14240    18535    -7734   -13472    10324    22839    10369 
  -12087   -12864     5617     7423    -6403   -22889   -30407   -18289 
  -16243   -29394   -28548   -18900      320    20344     8500    -8565 
    2165    16406    11571   -12785   -34226   -19257    12069     4716 
  -29671   -39143   -16950    10051     8564   -13774   -15555    -3883 
     322    -4633   -20932   -23110    -1846    12507    11368     4155 
    2397    13564    16196    -3304   -16125    -4892     7672     7565 
     992   -10088   -14470    -6007    -7188   -21076   -29102   -31165 
  -24895    -6924     9020    13158    14063    22513    28181    16822 
    -985    -4202     5232     1924   -15840   -22609   -17831   -15218 
   -9364     3010     6281    -3570    -1961    11208     6417    -8922 
  -13778   -13281   -10485   -11737   -17445    -8333     3110    -3312 
  -13390   -19028   -12979     1924    -1738   -19568   -28114   -21993 
  -11835   -11637     1836    32020    26420    -5486   -17277   -13866 
    5531    26834     9736   -24627   -42781   -51192   -48317   -42591 
  -35265     1626    45588    47455    12514   -11151    -4403   -10784 
  -34270   -32325   -14115    -1173     9343     9762   -13723   -38251 
  -24924     5283     3647   -23183   -29861    -9001     6885     8775 
   11146    19610    20097     5790     5774    21744    14073   -11783 
  -17888   -10538   -15493   -26514   -35190   -33684   -14446    -5512 
  -10267     7171    35147    26494   -19954   -48320   -18790    29536 
   28720    -3214    -2336    20530    23673    -3212   -35836   -32364 
   -2058     6123   -13455   -21412   -13972   -12169    -7721   -15880 
  -34393   -17710     7205     2819     2648    13380    20804    33920 
   20460   -31808   -42299     9463    28932   -16041   -46993   -26321 
   -6553   -15459   -24504   -12079    16425    27380     1566   -27175 
  -37405   -41561   -26644    12925    39402    33911    20436    24790 
   34458    17974   -18893   -39297   -32890   -31701   -43189   -40213 
  -19763     6665    22331    15324     8667    20264    26254     8963 
  -10337   -19263   -21292   -10403      496     -667      294     -904 
  -13243   -17403   -15127   -22933   -26583   -19129    -8641     2857 
    8968     8578    12021    27162    32297     6575   -12629     2697 
   17207     1945   -28890   -47320   -43481   -41249   -58944   -59982 
  -25596    -4533   -10030    -9732     5842    25482    26350    13776 
   15873    27264    26684     3161   -25141   -25027    -9144   -14199 
  -31278   -29205   -20992   -25356   -24089   -13479    -5830    -2292 
    1632    14796    22509     7195    -2937     7407    11631     -870 
  -15227   -17802    -7543     9360    14064    -1067    -8814    -5533 
  -14594   -26190   -13848     9739     8884    -9605   -17718   -17055 
  -11512     1146     5506     -668     2420     8615     7339     4575 
  -10385   -27302   -23859   -20869   -26904   -23227   -11258    -2617 
     919    11113    28630    26827      445   -19854   -25169   -32583 
  -34676   -10515    22752    29796    19951    21032    19005    -1462 
  -27072   -50899   -55423   -29891    -7789    -3252    -7397   -22656 
  -21454     9583    25675    13543     6915    16584    20177    -5724 
  -40935   -49335   -36414   -14970     8869    20109    18472     3848 
  -20874   -25864   -11332    -9109   -19819   -23013    -4353    18965 
   19730     9272     1088     8016    37122    35940   -15421   -47700 
  -32438   -14920   -23283   -39300   -34589   -15217    -1850     9569 
   11964    -3110    -9550     -788     2094    -6779   -19464   -18890 
   -2886     4895      487    -5010   -17944   -29662   -17002     7458 
   10752    -6088   -12068    -1979      411    -9448   -17944   -18519 
  -15731   -13928   -10580    -6950    -3524     -310     4957    18708 
   24878     6487   -20188   -29029   -12697      486   -14541   -29972 
  -23958   -12102     5039    17992     8155     2709     4385   -13873 
  -22667   -19875   -39852   -49088   -27866    -6089    15968    29339 
   19622    13704    14083     4684     1988     3780    -8203   -21081 
  -20068   -12267    -5874    -2557    -1001    -2803   -18550   -34554 
  -22013     1446     4549    -2569     6383    34657    51311    31073 
    2421      -74     8988    -5432   -51103   -73344   -38723    -9256 
  -14030    -9800    10269    22057    24429    14570   -13546   -39775 
  -46613   -27552     2074     -323   -19604   -16895   -13588   -12866 
   -4793   -15349   -30355   -27409   -22779   -18557   -26240   -42452 
  -28681    -4041    -1732    -7582   -11093     1208    23122    20985 
    4796    -2693    -3505      291     -672   -15673   -32638   -25650 
     667     6164    -1591    15496    36821    42150    45508    37803 
   13534   -13158   -24669    -5777    24970    34772    21231    13512 
   34485    62539    58487    21649    -6864    -8537   -13116   -38191 
  -61704   -63078   -52144   -38554   -15825     8272    15987     6855 
   -2419   -11696   -32643   -42205   -26662   -18877   -32215   -41766 
  -31802   -13561     -610     3460     1701     5449     9268     6329 
    9691    15260    23875    33060     6956   -32666   -32787   -26228 
  -51776   -75930   -78622   -74280   -45375    13968    52664    47602 
   31324    32725    47371    32256   -40886  -112063   -95118   -23708 
    -662   -10978    16801    60275    75926    53706      601   -32785 
  -26983   -31513   -55818   -55693   -23864    -1044     5197    19243 
   24480     5211   -32431   -93765  -139596  -120391   -69445   -37869 
  -24460    -4854    39978    96039   118558    94221    63498    62876 
   59247     1419   -70382   -92364   -79922   -57447   -16000    30499 
   46542    34453    22401     6569   -22696   -61638  -105043  -120399 
  -81153    -8605    44809    34540    -1859    17163    73502    78616 
    9884   -68258   -71079     7421    65883    29274   -41024   -52709 
  -20276    -9281   -40901   -81835   -75900   -20046    38229    62136 
   37118    12710    44304    71286    29758   -38336   -77661   -65761 
  -14734    30051    52642    67316    71563    52620    -5820  -100847 
 -175439  -175256  -120268   -59266    -8079    35196    79970   125917 
  134150    75761    -6322   -25847    26229    45274   -12882   -51615 
  -10654    41606    34001   -14923   -46390   -50096   -67944   -97642 
  -85132   -44338   -38499   -46927   -14721    40043    79831    85306 
   57218    36855    32663    15723   -13937   -44218   -26529    52927 
   70600   -12236   -41367    17175    15386   -77797  -152491  -129703 
  -18533    61432    35144    16007    74578   117597    81295    -4535 
  -45139    31117   107790    43253   -51619   -18314    57833    16244 
 -125690  -230855  -225893  -156326  -104794   -81613   -13394   119157 
  211220   183228    79404    -9937   -38386   -52314  -106874  -145823 
  -96321    17914   113478   135232   123315   119765    97711    57578 
   22684   -13409   -63319  -116694  -135785  -113412   -82513   -53660 
  -18343    10243     7195   -25245   -51421   -43426   -31019   -46532 
  -38609    23430    65427    52945    40623    35285     5534   -13377 
   -3617   -24161   -74151   -82216   -30313    37362    59792    18603 
   -1723    63526   119006    80813    16848   -22692   -57073   -57290 
  -22163   -32712   -73798   -65349   -40754   -27468     4176    21517 
   10549     8720    24478    49749    39046   -40404  -101658   -73653 
  -27753   -24735   -24031    10492    65203   107257   107716    62451 
  -12169   -78854   -96126   -72845   -48866   -38118   -28354     6290 
   68684   120678   119169    43097   -60132   -97982   -59841   -28014 
  -46031   -56148      673    88310   111832    36374   -57718   -98077 
  -84049   -35675   -22246   -69212   -80460   -31727     6848    35752 
   63859    57261    40245    36111     4637   -28987    -5438    13716 
  -29392   -53396   -10731    32647    40821    21877   -11554   -25688 
  -15830    -3121     5559    -3530   -23733   -20917    -2401   -19956 
  -75159   -92429   -50540   -24167   -32709    -6659    58368    76627 
   31496    -7769   -14514    -6395     8767    27081    41114    33818 
   -6286   -42954   -24866    16893     9845   -30439   -44338   -27633 
  -11504   -22533   -47022   -32744    23752    61648    52687    26755 
    9545   -11722   -55832   -90389   -70006   -25912   -23494   -47575 
  -20945    45437    51237    -4290   -24359    18228    63421    49938 
    1417   -13600   -14886   -41981   -55442   -35329    -6299    20923 
   28996    19341    13458   -10884   -52555   -63129   -44748   -25205 
   -3248    18490    28960    34773    43914    46692    37419    17683 
  -11496   -39544   -57466   -58391   -31787     4802     6751   -33741 
  -67093   -53807    -9330    17205     4469    -3934    15163    29189 
   28403    15903   -16638   -49809   -46654    -6698    30309    40378 
   42962    64520    78655    32416   -45425   -76776   -59500   -43925 
  -39403   -21243     6536    21951    33298    45897    39555    22530 
   14432     7505     4531    -2915   -25210   -25352   -20848   -48834 
  -49066   -19686   -19326    -5527    38207    66698    95171    97006 
   33796   -10411    -3273   -13991   -57729  -110563  -127971   -79901 
  -23876   -14181   -29742   -17042    41260    84062    62424     1721 
  -50330   -44873     2499     1335   -49052   -57046    -2251    74350 
  120977    84298     9683   -13204   -10464   -28869   -49062   -74527 
 -104903  -108175   -83144   -37915    14362    42902    52964    75379 
  108504   117308    74389    -7438   -87891  -130049  -118734   -82332 
  -59500   -35789     6488    50707    84608    73203     4693   -45621 
  -33286    -1308     -411   -19518    11114    82854   112818    98813 
   65093    22676    12738    -1575   -77266  -134573  -114591   -76554 
  -54352   -49038   -58338   -40165    15854    41915    13558     5374 
   40379    60084    47768    11319   -25232   -25395   -29285   -60567 
  -61669   -33093    -7196    25537    36571     7669     1441    28889 
   26018   -16917   -65464   -81670   -47111   -18961   -37092   -50472 
  -19929    27896    36456    -2457   -30690   -25081    -8095     4703 
     911    -2505    19759    49751    69883    72119    34933   -21534 
  -38911   -18733   -13821   -21922    -3126    30077    35312    10084 
   -7083      683    -2899   -39354   -72637   -63448   -18143     6990 
  -18378   -35604   -12325     4688     -704   -21473   -48200   -31240 
   23662    47243    43036    49106    46734     7997   -40153   -31511 
   23824    21883   -45449   -60851     3844    45694     6404   -56974 
  -65185   -10989    37288    26358   -10848   -21781   -11102     -875 
   10898    25583    30862    24955    18420    11616      387   -20705 
  -52227   -57738   -12359    36023    40341    15350     1941    16668 
   18400   -21993   -45880   -19488    -6192   -36107   -62870   -50656 
  -16772   -24541   -72236   -55102    30787    60576     7589   -37458 
  -26732     2272    -3252   -41959   -56542   -17185    26052    22688 
  -11241   -37914   -49658   -57546   -53802   -22686    23607    47072 
   36225    28367    32995    22280     -391   -21587   -33710   -20816 
    6645    17169     7263     7939    35777    58779    40665    -6839 
  -40495   -41420   -29098   -18289    -3762    18559    46620    63266 
   34163   -36512   -78371   -56875   -37342   -62052   -76705   -43179 
    5908    32191    20740   -10419   -19548    -5367   -10753   -48425 
  -71998   -31784    38834    51559     4100   -20617     6905    27501 
   -7154   -50773   -37764     8760    34386    29215     4730   -21101 
  -24781    -2206    19243    13443    -8340   -16662    -3674     5672 
   -7403   -26071   -34848   -27545    -5620     4418      168     9457 
   27837    40779    52878    48820    19984     1583     1706   -11736 
  -31310   -22372    12652    36936    24904    -7990   -36896   -60823 
  -75220   -68051   -47107   -25658     2657    49289    88803    77594 
   36398    29168    54291    49531    -4081   -51154   -42325    -8439 
  -11731   -42448   -41825    -3547    27280    17690   -15219   -20438 
    2586     8880     3205     8974    10046     2864     1006    -4163 
   -7335     -700   -11483   -33040   -34248   -30864   -34187   -37006 
  -41740   -29659     6892    37203    44763    40722    43402    55028 
   46389     3123   -44690   -70470   -75552   -65014   -43337   -19163 
    1754    11470    15823    31003    28223   -17069   -57604   -52946 
  -16404    17737    21358     7066      955    -6776   -27921   -44313 
