Origin Time       2016/04/16 01:25:00
Lat.              32.753
Long.             130.762
Depth. (km)       12
Mag.              7.3
Station Code      KMM016
Station Lat.      32.1966
Station Long.     130.7757
Station Height(m) 149
Record Time       2016/04/16 01:25:17
Sampling Freq(Hz) 100Hz
Duration Time(s)  300
Dir.              E-W
Scale Factor      3920(gal)/6182761
Max. Acc. (gal)   69.189
Last Correction   2016/04/16 01:25:17
Memo.             
[...]
    1061     1042     1055     1060     1047     1069     1092     1056 
    1031     1060     1073     1067     1074     1063     1043     1052 
    1075     1072     1051     1055     1063     1052     1056     1065 
    1056     1057     1065     1067     1061     1049     1062     1079 
    1054     1043     1066     1058     1048     1073     1072     1045 
    1048     1068     1065     1056     1060     1055     1050     1067 
    1072     1062     1065     1075     1079     1062     1038     1058 
    1083     1067     1059     1054     1032     1038     1063     1064 
    1052     1056     1067     1058     1050     1065     1065     1062 
    1077     1073     1058     1065     1071     1065     1061     1066 
    1072     1060     1055     1057     1046     1043     1057     1067 
    1060     1048     1056     1059     1050     1066     1086     1066 
    1053     1063     1061     1056     1069     1079     1068     1058 
    1064     1064     1054     1051     1060     1065     1056     1052 
    1059     1047     1046     1080     1080     1048     1061     1076 
    1047     1046     1070     1070     1070     1070     1054     1044 
    1052     1069     1070     1056     1060     1068     1054     1052 
    1065     1056     1048     1062     1067     1057     1059     1065 
    1054     1051     1072     1078     1062     1054     1057     1059 
    1052     1053     1067     1064     1059     1060     1043     1044 
    1077     1085     1071     1059     1049     1046     1049     1068 
    1087     1074     1061     1066     1053     1040     1057     1072 
    1068     1058     1046     1043     1051     1059     1064     1061 
    1054     1059     1062     1055     1066     1078     1067     1062 
    1060     1051     1059     1075     1067     1042     1041     1069 
    1078     1055     1041     1054     1070     1070     1058     1041 
    1037     1067     1094     1069     1041     1054     1068     1065 
    1066     1062     1062     1073     1071     1048     1027     1043 
    1081     1083     1055     1057     1071     1059     1043     1030 
    1026     1061     1106     1113     1079     1037     1024     1031 
    1044     1061     1068     1066     1068     1069     1063     1060 
    1075     1093     1075     1049     1046     1038     1043     1077 
    1090     1075     1063     1049     1030     1026     1054     1080 
    1065     1061     1084     1059     1030     1051     1070     1067 
    1074     1079     1054     1041     1079     1096     1055     1044 
    1065     1054     1051     1066     1059     1050     1059     1070 
    1070     1062     1070     1072     1040     1036     1062     1055 
    1052     1070     1068     1065     1088     1099     1055     1007 
    1021     1052     1067     1094     1096     1046     1025     1057 
    1077     1064     1052     1067     1079     1063     1067     1070 
    1041     1044     1076     1075     1068     1067     1047     1031 
    1036     1052     1072     1082     1080     1064     1035     1038 
    1072     1077     1068     1069     1055     1054     1078     1079 
    1056     1042     1046     1063     1073     1069     1072     1066 
    1039     1044     1069     1051     1043     1079     1071     1031 
    1044     1070     1070     1073     1080     1070     1049     1048 
    1065     1063     1051     1058     1065     1061     1061     1062 
    1051     1047     1073     1084     1061     1053     1056     1055 
    1077     1105     1093     1056     1036     1043     1054     1068 
    1088     1086     1058     1037     1027     1030     1054     1085 
    1093     1109     1192     1276     1244     1154     1093     1042 
    1016     1047     1094     1129     1146     1095      948      798 
     747      773      827      883      857      663      320       18 
     -45       25       13       16      327     1099     2146     2959 
    3164     2961     2565     1684      376     -466     -285      433 
    1014     1459     2248     3597     5061     5625     4404     1810 
    -586    -1904    -2668    -3356    -3566    -2718     -648     2083 
    4252     4894     4084     2756     1633      343    -1524    -3149 
   -3529    -2655    -1068      956     3530     6480     8887     9502 
    7663     4326     1168    -1592    -4210    -5361    -3883     -988 
    1082     1721     2246     3372     4141     3680     2114      166 
   -1506    -3075    -5071    -7089    -7189    -3728     1360     4363 
    4829     4619     4516     4952     6092     6215     3727     -225 
   -3535    -5358    -5518    -3515      656     5398     8716     9760 
    8633     5893     1875    -2801    -6222    -7479    -7550    -6223 
   -3110       93     2980     6969    10701    11004     7851     4050 
    1549        6    -2004    -4446    -4922    -1653     3679     7656 
    9135     9780    10483     9762     6074      332    -4508    -7008 
   -8363    -9031    -8166    -5896    -2859      479     3395     5324 
    6026     5414     2672    -3416   -10595   -13837   -12293    -9601 
   -7260    -3428     2465     8290    12177    13181    10438     6080 
    4620     5620     4340      727     -764     1127     3663     5080 
    6271     7967     8978     7912     5005     1473    -2595    -7726 
  -12352   -14415   -14060   -11351    -6102     -397     4356     8635 
   10936     9549     5515      636    -2396    -1050     2987     6478 
    8803     9567     8269     6909     7591     9584    10843     9347 
    3835    -3421    -7183    -6524    -6964   -10530   -12170    -9722 
   -6894    -5998    -5486    -3971    -2354     -340     3234     4800 
     537    -5529    -6834    -2712     3338     9651    16205    20745 
   21379    19400    15351     8887     2235    -2150    -4801    -8496 
  -14810   -20169   -19646   -13912    -6139     2356     9349    11081 
    6220    -1230    -5123    -3598     1574     8585    14709    17302 
   15003     6285    -6712   -15695   -14142    -3311    10230    16446 
    6720   -12457   -20915   -11065     2831     6517      479    -4415 
    1102    13259    20754    19956    15969    14696    17265    17480 
    7279   -11881   -26668   -27322   -20618   -16054   -10627    -1208 
    5083     3025    -4160   -12024   -16778   -13719    -2459     9841 
   16575    18532    19758    23031    26494    23135    11906     1598 
   -3526    -8796   -16308   -18123    -6940    12628    28217    28609 
    9885   -18171   -38760   -42502   -29545    -8446     8755    19487 
   25068    19640     4621    -7143    -9227    -2200    10336    16897 
   10552     1072    -1292     -453    -2501    -4820    -4731    -4739 
   -5194    -4748    -6127    -9002    -7079    -1296      846      503 
    2085     -160   -10049   -16667    -9268     8880    27435    37529 
   35739    27017    17845     5472   -17272   -43533   -50066   -25380 
   11285    33453    35757    26081     7910   -13743   -27318   -28521 
  -23286   -15672    -5219     7015    16679    20586    18681    12313 
    7097    10724    20706    23735    12256    -4863   -13276   -11258 
   -7912    -8616   -13091   -17427   -12252     4024    12488    -1987 
  -22651   -25245   -15465   -11999   -13791   -11658    -3967    12656 
   34991    45489    39021    27000    10986    -9326   -22396   -24397 
  -20425   -10769      563     6681     7548     4519      123    -1584 
   -2210    -3989    -5408    -6672    -6696     -776    10350    17471 
   13678     3373    -6299   -18573   -36428   -45016   -28250     5638 
   36180    51712    47372    24949    -3301   -26947   -43100   -42694 
  -17311    17369    38494    46098    47237    38420    18782    -5735 
  -27189   -35885   -26375    -5083     9343     7547     6543    15671 
   19735    19711    27462    27737     6479   -21615   -43169   -55110 
  -48499   -24350    -4926    -2657     -840    15784    33738    32835 
   15895     2969     7020    19670    22590    10258    -6925   -13665 
   -1658    17775    25053    20837    19116    21535    21390    15296 
    1480   -16392   -28039   -32259   -39988   -54195   -62644   -52306 
  -24391     4069    18378    22832    29437    38164    40938    37295 
   34264    36971    43535    44204    33047    19104    12590    12814 
   15611    14596     2950   -15628   -32941   -48755   -62758   -66997 
  -54979   -29001     1633    25575    34362    25622     3989   -20850 
  -37387   -37862   -24188    -4661    13163    22903    21243    14019 
   13163    22908    32680    29135    13403     -198    -1312     7733 
   18344    23943    22768    13902    -3573   -21616   -28122   -24269 
  -20247   -18448   -13186    -2956     5336     6568     2904    -2157 
   -3638     3304    12518    14193    13104    18664    24486    20913 
   14437    10597     1124   -14291   -26251   -35968   -46649   -50079 
  -40281   -23466    -8304     1622     4606     -648   -10826   -16999 
  -12434    -1777     6366    12574    18151    17596    10821     4862 
    3454     5724     8507     6497    -5735   -25785   -38865   -33161 
  -13307     9195    23452    21071     7258     -883     3263     6675 
   -1462   -10861    -7124     7369    22582    33854    39035    36521 
   27331    12146    -8549   -29107   -41995   -45737   -44325   -39762 
  -26902    -2173    24892    40111    38489    26129    14758    11081 
   11803     9383     1429    -3000     4646    16480    19294    12506 
    3620    -4769   -12125   -12254    -4459     1165      886    -1707 
   -8229   -18382   -25311   -26390   -23889   -19836   -15533    -9335 
   -1141     3094     2222     2115     2785     2863     8081    19265 
   28972    33369    32885    27276    18205    12421    17843    33516 
   46678    45980    33513    18002     2665   -12721   -25190   -32194 
  -33358   -25649    -8845     6881    10941     3535    -8075   -16007 
  -15601    -7269     5473    17708    25345    27327    25473    23160 
   20905    14824     2953    -8948   -13096   -12288   -16152   -26706 
  -36957   -36006   -18988     2348    11740     6789    -3262    -7004 
     708    12797    20323    24538    27151    21222     3102   -18134 
  -28764   -22546    -3272    21268    41163    47555    43659    37992 
   27517     9631    -3978    -5135    -1468    -4407   -18216   -35824 
  -42943   -35262   -25534   -25289   -29415   -25898   -13568    -3376 
   -2210    -3783     1542    17665    41357    61438    65023    49611 
   26952    11616     6692     7431    11639    16633    17738    13017 
   -1147   -27273   -51728   -55497   -41743   -30165   -30701   -36699 
  -37137   -29802   -21933   -19933   -20763   -15342    -3123     6001 
    8307    11463    22561    39504    53506    56397    44961    24123 
    6308     -759    -3443   -11343   -21984   -26872   -25821   -22435 
  -15061    -4449      730    -4506   -13807   -17068    -9984      638 
    3667      734     3235    12254    19363    22575    26494    31770 
   36129    38036    32177    16600     2423     -205     3419     1669 
   -9609   -25257   -34821   -30401   -16502    -3825     6984    20215 
   31443    35098    33671    31109    27463    21836    16183    14486 
   17507    21382    22618    20648    16314    11246     4763    -6077 
  -16851   -17369    -6671     5680    11005     9630     6703      467 
  -12388   -25775   -33456   -34192   -25090    -8660     1432    -3717 
  -17458   -28864   -31536   -22709    -8320      411     3263     7436 
   12242    12873     8701     2656     1538    10881    22382    18508 
   -2769   -22615   -28183   -25905   -23848   -21381   -15274    -3615 
    9901    14114     2831   -13373   -18575   -12851   -11705   -23394 
  -37651   -43156   -42163   -39874   -38214   -39855   -40565   -29982 
   -8776    10544    18696    17702    17743    25027    34995    41856 
   45550    47662    49596    50216    44214    31972    23916    25687 
   29116    25609    16593     5605    -6844   -19914   -30510   -32074 
  -20196     -133    20466    39351    52805    53703    40975    21907 
    6897     4350    14475    29061    38399    35748    22019     7601 
    1532     2675     5387     5504      972    -4286    -2111     6999 
   13125    12896    13736    21206    31340    36486    33569    25122 
   15407     6010    -4610   -15315   -19914   -13055     5539    31540 
   56373    70376    68350    50999    25506     4888    -1654     1763 
    4083     1891    -1396    -7357   -18306   -29000   -36238   -43945 
  -54692   -67111   -78309   -83279   -74312   -48154   -15100    10912 
   27918    39618    45865    48279    52809    61328    68535    71563 
   73270    69781    50410    16795   -16376   -39921   -51876   -50579 
  -41203   -35166   -33299   -23780    -4054     9298     3716   -11924 
  -26647   -41647   -55461   -62545   -65421   -65926   -58009   -40050 
  -18889    -1442     8199     6329    -9437   -33050   -47934   -39649 
   -9348    27216    52111    57645    50425    45369    48363    44096 
   14814   -31938   -68730   -76513   -58992   -37528   -33745   -47809 
  -61541   -63601   -58150   -56202   -64386   -75176   -73163   -53076 
  -24528     -981    10912    12981    11677    14983    29158    52139 
   71657    78892    78163    71485    52394    24359     -792   -20181 
  -35556   -45553   -52252   -61507   -72586   -76488   -68278   -54973 
  -45405   -38464   -29157   -17712    -7008     -750    -1132     -371 
   14064    40514    62098    68194    66691    72438    90211   108549 
  110199    91045    62736    41589    39820    52134    56979    45191 
   28581    17303    10204     5334     4865     8748    13518    15754 
    7737   -17218   -47223   -59089   -46859   -27404   -17142   -14822 
  -11891    -9839   -14682   -21214   -17909    -5842       16    -8532 
  -21283   -22346    -7035    16536    37088    48426    51901    52585 
   54833    60968    67211    64499    50875    35435    24711    16667 
   12468    18270    30774    36437    28308    13792     1957   -10667 
  -30709   -51622   -62186   -60232   -47929   -28470   -12637   -13870 
  -31857   -51996   -61323   -53613   -26534    11655    42748    56654 
   60583    64073    63066    50575    33386    22262    17311    11224 
   -1815   -18760   -26885   -14064    16993    46258    56482    48599 
   28869    -1308   -37982   -71225   -89470   -88285   -75435   -61548 
  -50936   -44018   -41610   -43557   -46922   -50780   -56946   -60651 
  -51038   -23822    15438    57007    90630   108671   110062   102846 
   97294    93737    86321    73253    53159    27236     6270    -2037 
    -869     3933     7031     5233    -3285   -18619   -34041   -44350 
  -52170   -57746   -59330   -59800   -58878   -50562   -34250   -14949 
    7062    30532    42267    31834     8948    -9683   -18679   -18941 
   -7574    16724    45492    65725    70079    59731    42303    27785 
   22831    24710    19431    -3140   -32755   -51371   -52406   -40634 
  -26266   -17882   -16477   -19106   -24828   -34699   -46922   -54885 
  -53058   -40912   -20899     2177    21666    30276    22310     1957 
  -13973   -11219     7046    25308    30650    20471     2284   -11521 
  -14833   -13662   -17320   -28580   -44128   -59421   -71363   -78272 
  -78339   -70822   -58870   -45101   -28526   -11497    -1591    -3749 
  -14960   -24747   -22840   -11551    -3473    -3772    -6020    -4903 
   -1385     1562     2697     3941     6638    12531    28832    57156 
   83213    90470    74328    42306    11023    -3963    -1402     8438 
   16117    18378    16929    12869     3780   -10485   -25440   -38243 
  -49034   -55542   -54710   -48029   -38432   -27279   -16546    -7349 
    1319     9112    14491    18330    22832    27493    30654    33863 
   38233    40760    39743    37637    37129    37143    31430    13730 
  -12505   -35407   -49111   -57897   -65599   -71989   -77568   -84422 
  -92185   -95471   -88533   -70936   -47053   -22275      417    17885 
   23750    18525    14499    19578    32337    53195    78380    94279 
   93953    84139    73842    68188    68236    69167    63626    50904 
   38873    33855    32470    29355    25341    19635     7651    -7749 
  -17891   -20803   -21208   -22798   -24252   -19406    -5121    13440 
   29751    42424    53636    61924    59043    41810    21106     8639 
    4003     1091    -4296   -14810   -29703   -43007   -48206   -43398 
  -29982    -9947    10427    19688    12591    -1211    -6080     2864 
   16233    23469    21971    12399    -4273   -20962   -27517   -24417 
  -20461   -18753   -18908   -24024   -34111   -41583   -40500   -34192 
  -29357   -26903   -22278   -13042      203    19371    44517    66971 
   77539    76403    69950    63336    57361    50263    42849    38271 
   35355    29703    19618     5562   -10693   -25079   -33027   -33780 
  -31734   -30615   -30676   -32081   -33145   -28528   -15172     4496 
   25799    44766    60199    72652    79916    78040    68524    59509 
   56975    60056    66584    74079    76276    67710    47879    20544 
   -6198   -25689   -37281   -41074   -37924   -33930   -34934   -39532 
  -43214   -46862   -55202   -68048   -82249   -95405   -98902   -82765 
  -49906   -13422    16679    37627    48308    48848    42261    30334 
   14819     -519   -13273   -23173   -30784   -35410   -36032   -35715 
  -38156   -42654   -47842   -53692   -57733   -56626   -53052   -52763 
  -55250   -55232   -50759   -44681   -38551   -30623   -21258   -13022 
   -5277     4639    14678    19333    20340    26213    37791    47015 
   49501    47613    44322    39359    31715    24094    20753    21289 
   21866    20886    15813     1811   -18262   -33417   -38458   -38712 
  -38653   -34554   -22152    -6176     1645    -4987   -19585   -29683 
  -28106   -19115   -13764   -17603   -25514   -28189   -21194    -8165 
    3080     7350     6088     3582     1477      484     1788     3710 
    2143    -4870   -14575   -22262   -24998   -20927   -10839     -304 
    7774    15692    22838    27981    32686    33977    28758    22630 
   21431    23121    22319    16861     9448     3867     2289     4737 
    7505     6400     1098    -6495   -13229   -15652   -14312   -13088 
  -13761   -14670   -13195    -8024      112    10112    21028    29906 
   32709    27757    17951     9969     7716     8673     9571    11131 
   16272    25998    37865    46945    48069    42204    37877    39609 
   41283    34898    19136      191   -11822   -11988    -6506    -4965 
  -10016   -16388   -16657    -9010      -86     1797    -3696    -9198 
  -10082    -7752    -5651    -8548   -18434   -29747   -34654   -32067 
  -28082   -27330   -28223   -29120   -32396   -37762   -40229   -38464 
  -36039   -34293   -31788   -28493   -24246   -16229    -3466    10641 
   23121    32044    33746    27592    20124    17390    16789    12893 
    5404    -3204    -8335    -3671    10138    24571    32655    32542 
   25954    16118     4460    -8213   -16984   -15067    -1016    18753 
   34255    40270    39941    39046    41222    46970    49649    38666 
   13140   -15187   -33475   -38445   -36226   -32481   -27227   -18643 
   -6996     5053    14826    19965    18257    10115    -2105   -15233 
  -22494   -17307    -2135    14765    29023    39896    46078    46559 
   42807    37810    33071    28168    23435    20063    17940    17010 
