Origin Time       2016/04/16 01:25:00
Lat.              32.753
Long.             130.762
Depth. (km)       12
Mag.              7.3
Station Code      KMM002
Station Lat.      33.0185
Station Long.     130.6846
Station Height(m) 30
Record Time       2016/04/16 01:25:11
Sampling Freq(Hz) 100Hz
Duration Time(s)  300
Dir.              N-S
Scale Factor      3920(gal)/6182761
Max. Acc. (gal)   171.386
Last Correction   2016/04/16 01:25:11
Memo.             
[...]
     566      598      630      587      574      612      590      572 
     607      587      559      610      611      565      598      616 
     579      587      606      593      579      582      592      580 
     583      618      606      590      615      596      563      587 
     606      587      586      610      598      577      597      587 
     552      586      632      609      602      633      606      558 
     575      588      571      599      612      574      578      591 
     566      577      615      626      626      622      603      579 
     570      582      581      566      585      608      596      596 
     604      593      590      586      583      601      614      614 
     606      586      583      584      570      574      587      594 
     606      616      619      609      589      569      560      584 
     616      611      602      604      576      556      582      600 
     603      625      620      574      573      604      595      592 
     609      598      588      586      573      579      600      597 
     585      596      592      575      598      607      587      609 
     614      584      598      605      574      574      588      582 
     587      601      606      607      601      584      574      591 
     620      622      598      595      597      567      550      578 
     597      589      600      614      608      613      613      588 
     578      583      573      576      598      598      599      611 
     597      588      598      586      576      590      594      601 
     600      582      588      591      571      585      612      607 
     607      612      590      580      590      588      592      597 
     584      579      583      576      592      605      592      598 
     603      587      587      597      607      609      599      591 
     576      571      595      585      568      612      621      585 
     609      616      576      590      605      575      581      601 
     582      572      585      592      601      615      608      590 
     587      584      583      597      614      621      596      569 
     591      594      560      589      620      587      596      617 
     576      570      596      587      580      602      615      597 
     592      603      577      566      599      599      585      605 
     612      594      583      584      586      583      587      593 
     599      610      608      586      582      594      591      587 
     590      601      601      585      590      596      579      587 
     609      594      580      604      607      578      583      596 
     587      600      610      583      584      611      587      565 
     602      598      570      606      611      573      590      607 
     583      581      614      613      576      593      606      559 
     579      633      593      559      610      607      554      586 
     613      574      592      631      588      566      612      600 
     554      587      616      589      591      605      593      590 
     598      595      582      586      606      594      583      612 
     613      578      584      602      571      572      612      590 
     574      612      597      570      596      598      580      593 
     598      591      596      597      592      592      590      586 
     590      593      589      598      599      587      585      589 
     592      604      606      587      594      611      583      580 
     603      583      587      606      590      594      599      582 
     593      601      590      595      601      600      593      571 
     576      604      596      591      607      594      583      603 
     598      570      587      610      580      573      618      608 
     575      610      608      557      589      619      577      580 
     607      591      592      599      583      594      600      590 
     590      583      588      604      593      592      608      596 
     589      598      585      576      588      601      600      585 
     590      610      595      576      591      593      581      596 
     605      589      589      594      583      583      594      595 
     597      601      600      591      580      586      594      592 
     602      604      582      580      595      587      589      609 
     595      582      599      596      582      592      602      596 
     592      591      587      602      602      578      590      599 
     577      597      610      588      599      602      585      591 
     592      594      602      592      589      588      584      596 
     591      584      601      600      585      586      585      590 
     607      599      588      599      597      598      599      572 
     587      612      583      578      599      593      590      601 
     591      581      612      621      585      588      604      583 
     583      593      576      585      611      600      586      589 
     594      598      590      588      604      601      587      592 
     587      575      588      598      586      593      608      591 
     589      606      588      581      604      598      595      609 
     597      591      599      587      577      585      588      593 
     599      598      600      600      593      586      583      588 
     593      595      600      593      592      601      593      592 
     597      589      582      583      591      593      594      605 
     597      592      600      592      605      625      620      642 
     687      730      796      843      824      755      688      739 
     963     1184     1144      809      487      541      912     1141 
     978      732      838     1347     1931     2066     1581     1091 
    1115     1222      740     -296    -1065     -798      272     1393 
    2240     2734     2977     3315     3651     3489     2813     1827 
     414     -960    -1374    -1158    -1167    -1087     -623      -89 
    1501     5107     7848     6249     3111     3763     6989     7351 
    3850     -268    -3285    -5665    -7483    -8511    -8607    -6607 
   -2269     1519     2265     1002      391      828     -703    -4694 
   -6382    -4263    -3213    -5216    -6137    -4145    -3060    -5088 
   -6808    -4185     2111     7212     7763     5837     4546     3613 
    3044     4822     8005     8481     4602    -1223    -6048    -8627 
   -8193    -3906     1991     4577     3393     2932     5002     7197 
    7588     6906     6822     7540     7443     4895      177    -4604 
   -7169    -7226    -6827    -6584    -3719     2835     7787     5236 
   -1105    -1214     7399    17497    22026    20239    15158     8485 
     337    -8500   -16203   -20333   -19923   -16756   -12940    -8018 
     370    10389    14738    11327     7579     8655    10842    10083 
    6347     -436    -8657   -14398   -15948   -13893   -10723    -8622 
   -5067     2243     8691     9010     7856    13385    20452    17147 
    6392     1150     1994    -1811   -10146   -10975    -3823     -781 
   -3112     -822     6481     8891     4763     2654     6351    12242 
   16178    14688     7413    -1429   -10163   -21305   -31389   -29997 
  -13878     7602    24551    34805    37155    29879    16856     2123 
  -13534   -23863   -20569    -9294    -5447   -10506   -11187    -4224 
   -1248    -4904     -654    16318    30093    32566    32408    31898 
   24628    10425    -7354   -28240   -46610   -51025   -40826   -29574 
  -23144   -11546     7627    22499    30523    40649    52589    56143 
   47123    31440    16930     8187     4557    -1702   -17169   -35258 
  -44074   -42862   -36237   -22605    -1679    20077    35570    40800 
   37917    33004    26725    12829   -10825   -31603   -35250   -26428 
  -17049   -11561   -13150   -17183   -10295     4165    10799    12093 
   17411    21588    19003    15623    18110    22301    19127    10648 
    6143     4929      -63    -7664   -10981    -9821    -8865    -6056 
    3531    16427    24966    25700    20810    14766     6213    -7677 
  -17449   -12766    -3391    -4265    -6488     6288    21885    18666 
    3380    -5802   -10502   -18206   -21289   -14372    -6375    -1366 
    5711    16325    27125    31850    24443     8169    -6616   -15776 
  -18481    -7508    15615    28178    16488      450    -1875    -3256 
  -11490    -8951     7820    15435     3759   -11359   -16545   -15009 
  -13020    -9406    -4153    -3030    -6044    -1694    15658    28234 
   20158     6337     2705      485    -6082    -7493    -3446    -5335 
  -10119    -2843    10308    13698    20155    43806    65186    72801 
   82860    86746    55332     1550   -35699   -50379   -55990   -47842 
  -23246    -7993   -19161   -29980   -16750     2811    15748    34938 
   57369    62837    49964    31854    10592   -16999   -45768   -73115 
 -102141  -117695   -90747   -28267    24302    48015    60559    63191 
   47245    30505    30143    36486    37728    36126    33212    18608 
  -11964   -34736   -28169   -20149   -50601  -101224  -118900   -83708 
  -17243    50494   100905   124508   115653    80065    39930     9942 
  -22059   -58306   -70679   -57269   -54245   -65128   -51320    -5089 
   33460    43465    46635    57130    57144    29857      544    12245 
   44217    34836    -5535   -24864   -25411   -29398   -31244   -14532 
   14738    21383     3887      478    19496    47266    70657    73519 
   59644    35161    -8134   -54182   -73533   -67296   -53223   -38763 
  -24920   -13001     -646    14674    20209    -1095   -36840   -51849 
  -26121    29184    82591   106773    94829    55919     6259   -32470 
  -42093   -27244    -7330     4897     8514    18111    38828    47567 
   30658     3081   -11977    -8599    -2988     2260    19837    31539 
    9108   -26596   -39974   -34918   -24465    -5361    28637    64923 
   63173    19499   -16481   -27903   -33120   -40818   -48076   -33550 
     -55    15086    14409    20948    27818    25621    12295     -286 
    2462    -7193   -44673   -58884   -23457    20722    48057    72685 
   89895    60163   -12358   -57033   -56694   -52707   -40885    -8359 
   33176    70840    78817    58904    32234    -3860   -26155   -15114 
   -2441     8345    41160    75143    86198    90334    93878    79531 
   41723    -9190   -44835   -44527   -39804   -51318   -43967   -26118 
  -40914   -53265   -19933    18622    29640    40742    55673    33061 
  -30357   -86442  -109313  -117032  -123234  -114067   -85610   -52182 
  -18107    10281    26197    43145    70715    96387    99997    67169 
    2834   -61700   -91286   -85807   -66632   -28236    30902    88348 
  143747   176260   142942    71866    21345     4704     7277    11757 
   15109    18103     5058   -29851   -62085   -82720  -110725  -131827 
 -112950   -64140   -17835    13695    34733    45030    43252    36260 
   20303    -7535   -17792    12074    52026    67264    66365    62734 
   51605    36966    25264     7217   -23542   -45761   -31014     6982 
   27093    29891    47647    63229    21070   -68116  -125725  -124458 
 -108376  -108351  -120055  -124317  -120654  -137377  -160841  -151562 
 -128740  -107980   -56822    15907    58725    59838    44705    23053 
  -12662   -53577   -82784   -90240   -65160   -22721     1008     -334 
  -11082   -27998   -54469   -72169   -54985   -14198    30457    87188 
  137777   132533    74507    21635    -2428   -29361   -74194  -104807 
  -93160   -52082   -16212     1346    17933    31402    18336     -163 
   15595    42349    33314     5653     7310    22547     7556   -13360 
  -10343    -9386    -7999    21269    52226    39020   -22551   -86764 
 -104055   -84236   -56429   -10353    52383    95517   105243    96301 
   72843    29553   -20097   -54044   -78127  -103982  -104675   -53647 
   15057    44207    34684    23915     4182   -38497   -48979    11420 
   75053    75176    52480    65364    93105    92687    72513    69246 
   87103    89348    52419     5154   -20561   -43523   -73069   -74703 
  -51010   -39218   -25886    20068    71437    86023    69873    43868 
    5790   -32513   -35133    -7858     5342      521     1429    -1943 
  -27536   -52046   -48236   -36356   -39515   -35923    -5525    31508 
   45046    35865    35509    53622    55713    21152   -19475   -40523 
  -67535  -115221  -145714  -140827  -134452  -148756  -162018  -137022 
  -66617    15237    84357   144087   192459   218056   213507   186450 
  151242   104722    42461   -14325   -46938   -69443  -100638  -124868 
  -90697    13361    89176    67772    30452    38930    47430    34051 
   25179    41526    74631    90709    94416   113283   122367    94822 
   53715    18232   -15932   -47606   -72636   -89625   -94501   -88107 
  -77036   -65303   -52621   -37129   -25281   -18903     6132    53620 
   80455    74183    80846   122422   164687   184984   204832   237179 
  252621   223478   165359   105530    47226   -17342   -83036  -127454 
 -137450  -122243   -97092   -85765  -109105  -148797  -165476  -150998 
 -130587  -119451   -99992   -54024     4444    48039    65971    61795 
   38015      984   -31786   -51366   -61700   -60246   -44589   -21581 
   -6892   -18093   -40229   -43909   -37591   -35669   -34190   -33698 
  -31061   -20486    -1035    20989    30270    26143    17761    -1499 
  -41841  -101690  -172886  -237596  -269731  -260010  -219147  -162445 
 -109369   -69306   -31046    16819    68718   107037   125584   134070 
  133321   120128   109799   117546   135843   154373   168929   165770 
  136217    93613    58695    42617    39517    35635    33729    52936 
   87920    99632    82688    79176    90901    73418    19980   -36063 
  -75353   -99215  -109643  -107314   -98882   -91249   -85026   -83408 
  -97485  -133923  -175222  -194530  -197829  -204238  -208327  -200420 
 -172801  -121687   -67373   -22731    23293    65228    90603   112980 
  149316   190748   208560   189669   151351   106702    57209    14083 
  -20571   -63027  -106881  -124585  -117906  -105004   -78174   -27502 
   25965    60175    79708    83230    59977    34487    37706    53708 
   63825    78130    88372    62639    -1025   -61718   -95494  -122384 
 -147605  -139582   -86900   -23582    21513    61975   115001   165344 
  192301   194105   170955   111890    17662   -76908  -136719  -171297 
 -210613  -254083  -268701  -229637  -155797   -97877   -76280   -56945 
  -13670    48121   125018   195054   212689   162040    66943   -37090 
 -121627  -177651  -205533  -203709  -173093  -108660   -27406    10439 
  -11493   -25255    15491    70304    91617    90827    87748    82373 
   74972    57445    23081   -25396   -80746  -123415  -138673  -125088 
  -92239   -63820   -46128   -17215    33156    84754   106358    88377 
   58305    41759    26502     3727    -6144     1519    10036    16248 
   24891    26218     8532    -8825     6125    47907    81546    92283 
  101143   115617   110510    88546    80535    89879    90493    49490 
  -27947   -84651   -96071  -102057  -122064  -122398   -80157   -14107 
   45317    74235    64730    26387   -24152   -65847   -93622  -112963 
 -106777   -64985   -22540   -21681   -53152   -78373   -96663  -125951 
 -150804  -152288  -140415  -120089   -85417   -53023   -39617   -30768 
   -6665    30619    65665    93277   122473   156430   183468   193107 
  193225   194260   184373   151962   112193    82975    63187    50037 
   50476    61039    64090    58895    66826    93346   113390   112017 
  100993    80907    46984    16395    -4974   -32576   -62202   -69648 
  -50848   -31258   -22837    -9124    18117    57643   106119   144587 
  161098   168079   177575   183836   176327   155243   126755    96345 
   62798    19693   -29924   -79441  -125294  -158730  -172980  -166601 
 -135377   -77552    -4661    61010   107678   145793   176691   173440 
  129962    80521    38875   -15810   -87925  -151651  -180329  -177211 
 -166693  -157402  -147457  -140238  -128469   -98620   -53559   -19806 
  -21453   -37118   -32245   -22890   -37659   -56507   -47014   -19911 
   -3117     3770    11266     7860   -16328   -36075   -25833    -2972 
    2858   -10378   -20694   -11249      174   -10360   -25882   -21448 
   -4570    14361    34169    47972    61131    80548    87352    67906 
   36720     8520   -22428   -60651   -86046   -83671   -67082   -46258 
  -16251    23197    62308    84723    88884    93556    94289    59844 
   -9050   -70192   -99660  -121811  -156874  -179693  -171886  -150080 
 -122632   -86315   -38078    29913   107199   169551   209515   224771 
  212500   181404   139892    92269    40379   -15926   -64623   -92168 
 -109049  -136121  -165081  -166022  -139675  -112947   -87204   -41046 
   24198    80160   108007   111011    97408    65870    15538   -31816 
  -53703   -59645   -59063   -32601    15867    33829     5939   -18109 
  -23813   -37791   -41528    -3621    52990    91940   116888   146623 
  169388   167214   157752   155504   140592   103441    66618    50876 
   48645    39972    27583    33421    55103    59731    38124    16803 
    3901   -10241   -14854    -3656     -257   -23968   -62432   -92362 
 -110856  -131112  -153799  -168083  -168153  -145860  -102543   -63385 
  -39551   -14708    17727    48945    69933    76625    82045    98140 
  106810    91335    63928    35998     6994   -17674   -36342   -57653 
  -79903   -87579   -71975   -45632   -22133     8172    48060    69610 
   62159    55883    69335    87309    91336    78499    62066    51814 
   43605    37514    38422    46007    54317    55080    46058    28131 
    4338   -10807    -5488     9697    18479    21996    27020    31918 
   33957    30818    23296    19872    22768    24328    22479    22783 
   28206    37673    49884    57539    49853    29535     6387   -21021 
  -53258   -74326   -70132   -51105   -40111   -41139   -38028   -31444 
  -37416   -46644   -44302   -38691   -28825    -4568    16631     8104 
  -23520   -50162   -63904   -77114   -91199   -89602   -61009   -18169 
   22381    65761   110606   134498   135237   130127   124187   120532 
  122382   120843   108817    80391    25882   -39114   -81151  -103910 
 -136836  -176435  -192762  -168954  -116672   -68595   -41110   -23423 
  -11846   -13421   -23316   -26190   -21998   -32091   -61620   -89966 
 -109884  -135545  -169112  -188778  -181509  -161689  -142583  -117905 
  -75318   -18042    29645    55288    74707    94990   102219    96351 
   96396   105154    99329    60993      288   -56242   -87006   -85145 
  -55918   -10744    37686    83877   121637   131403   107659    75733 
   53440    33324    12945     2678     6155    21385    45631    71538 
   91314    98398    91292    79800    75175    76770    76427    74637 
   78109    83456    83400    75811    59286    37630    20214    10376 
    3501    -2565    -4606     -108    13968    33599    38815    21975 
    4276    -1104    -2612    -3901    -5336   -11546   -17162   -14791 
  -10664   -11037   -10891    -4060     6915    12731     8362    -1358 
  -14936   -40724   -72902   -85761   -73717   -58210   -45463   -25520 
   -2565     7414    -4021   -23180   -30016   -31625   -40401   -41146 
