Origin Time       2016/04/16 01:25:00
Lat.              32.753
Long.             130.762
Depth. (km)       12
Mag.              7.3
Station Code      KMM001
Station Lat.      33.1208
Station Long.     131.0687
Station Height(m) 432
Record Time       2016/04/16 01:25:14
Sampling Freq(Hz) 100Hz
Duration Time(s)  300
Dir.              E-W
Scale Factor      3920(gal)/6182761
Max. Acc. (gal)   219.729
Last Correction   2016/04/16 01:25:15
Memo.             
[...]
    5230     5227     5223     5238     5241     5223     5223     5228 
    5223     5230     5235     5229     5225     5221     5230     5237 
    5226     5227     5233     5230     5229     5226     5225     5228 
    5226     5233     5238     5229     5230     5231     5224     5228 
    5230     5231     5234     5226     5223     5226     5227     5234 
    5234     5226     5228     5230     5232     5233     5227     5231 
    5231     5217     5221     5225     5218     5226     5231     5236 
    5243     5238     5236     5227     5213     5223     5231     5223 
    5232     5238     5229     5233     5234     5222     5215     5223 
    5236     5232     5223     5233     5235     5224     5229     5238 
    5232     5222     5220     5229     5232     5227     5230     5233 
    5224     5220     5229     5236     5229     5223     5236     5237 
    5223     5226     5229     5224     5229     5233     5231     5229 
    5225     5230     5230     5223     5227     5228     5227     5233 
    5231     5232     5236     5235     5231     5219     5216     5229 
    5228     5228     5237     5229     5224     5231     5231     5233 
    5228     5224     5236     5232     5224     5230     5226     5221 
    5229     5234     5233     5222     5218     5229     5232     5233 
    5242     5236     5223     5219     5219     5230     5239     5233 
    5228     5228     5228     5230     5226     5225     5232     5236 
    5232     5227     5226     5224     5220     5230     5237     5227 
    5228     5235     5231     5231     5228     5222     5227     5221 
    5220     5240     5238     5227     5234     5232     5223     5226 
    5230     5233     5228     5228     5237     5232     5227     5228 
    5222     5226     5234     5232     5232     5229     5230     5237 
    5228     5220     5230     5232     5230     5230     5232     5234 
    5224     5225     5234     5223     5224     5238     5233     5232 
    5231     5223     5230     5230     5221     5233     5238     5228 
    5228     5228     5228     5233     5231     5231     5234     5228 
    5223     5224     5230     5233     5230     5233     5233     5225 
    5228     5231     5229     5231     5226     5226     5234     5226 
    5224     5233     5230     5227     5231     5232     5231     5227 
    5228     5235     5226     5221     5237     5241     5227     5221 
    5229     5234     5223     5222     5232     5228     5232     5240 
    5230     5224     5231     5231     5229     5231     5233     5228 
    5221     5232     5233     5221     5230     5234     5225     5229 
    5231     5232     5234     5223     5226     5234     5224     5227 
    5237     5228     5224     5231     5236     5230     5220     5228 
    5233     5224     5226     5235     5236     5230     5223     5227 
    5228     5223     5232     5237     5224     5225     5232     5228 
    5228     5228     5233     5236     5229     5231     5229     5219 
    5229     5233     5229     5236     5234     5227     5227     5221 
    5226     5238     5229     5226     5230     5229     5234     5232 
    5224     5226     5228     5233     5231     5226     5234     5235 
    5227     5231     5232     5223     5224     5230     5234     5232 
    5225     5231     5229     5218     5229     5234     5227     5231 
    5234     5232     5228     5223     5231     5230     5219     5229 
    5236     5229     5226     5226     5232     5234     5224     5226 
    5226     5223     5234     5237     5231     5229     5224     5221 
    5225     5232     5236     5228     5225     5233     5229     5228 
    5235     5230     5230     5229     5224     5232     5230     5222 
    5232     5227     5220     5236     5235     5222     5229     5233 
    5231     5230     5230     5232     5227     5225     5232     5230 
    5229     5228     5225     5235     5230     5221     5233     5232 
    5223     5233     5231     5225     5228     5224     5229     5232 
    5228     5230     5225     5227     5238     5227     5224     5235 
    5228     5224     5231     5230     5231     5226     5223     5234 
    5231     5225     5232     5233     5227     5225     5232     5235 
    5224     5226     5235     5225     5221     5231     5233     5229 
    5226     5234     5240     5223     5219     5232     5225     5224 
    5237     5232     5229     5233     5225     5222     5226     5228 
    5232     5229     5229     5236     5227     5222     5233     5232 
    5226     5227     5231     5233     5229     5228     5229     5225 
    5227     5233     5230     5228     5227     5231     5235     5227 
    5225     5232     5226     5226     5232     5232     5229     5224 
    5230     5238     5226     5224     5233     5230     5226     5229 
    5230     5234     5227     5221     5230     5229     5228     5233 
    5226     5224     5231     5230     5230     5230     5228     5227 
    5225     5230     5233     5228     5232     5232     5225     5229 
    5230     5230     5232     5226     5230     5237     5226     5226 
    5234     5228     5223     5228     5236     5235     5226     5230 
    5234     5223     5226     5232     5221     5229     5244     5233 
    5221     5224     5230     5228     5224     5226     5222     5211 
    5208     5194     5164     5144     5135     5116     5083     5055 
    5033     5003     4969     4951     4941     4956     5015     5104 
    5210     5295     5316     5298     5251     5169     5100     5061 
    5040     5044     5051     5063     5111     5224     5424     5658 
    5815     5786     5527     5200     5053     5172     5513     5919 
    6091     5805     5159     4568     4443     4794     5351     5866 
    6046     5744     5270     5004     5040     5359     5783     5906 
    5502     4759     4065     3710     3759     4230     5028     5702 
    5978     6081     6169     6216     6213     6126     5994     5726 
    5170     4492     3757     3121     3520     5267     6800     6616 
    5336     4793     5471     5881     5304     4976     5447     5846 
    5705     5419     5500     5597     4993     3974     3158     3002 
    3969     5625     6810     6921     6591     6587     6288     5506 
    5501     6094     5874     5085     4873     5007     4214     2947 
    3178     4450     5072     5628     6585     6618     5143     3627 
    3669     4476     4623     4556     4907     5403     5793     6162 
    6097     4925     4261     5793     7116     5716     2931     1521 
    2573     4280     5031     5865     6692     5720     3760     3268 
    4563     6004     6378     6339     6482     5240     2914     3122 
    5547     6246     5485     5561     5822     5197     4544     5052 
    5651     5030     4872     5886     6573     7158     7776     7409 
    6424     5257     3563     2370     3551     6615     8975     9324 
    7710     4909     3200     3977     5577     5563     4374     4345 
    5448     6276     6200     5058     4157     3746     2585     2552 
    4583     5164     3568     3488     5975     7729     7318     7355 
    8237     6875     2904     -225      344     4128     7738     7978 
    4671      238    -1958      418     5987    10732    13097    14235 
   13459     9029     2807    -1240    -2405    -1745     1717     7652 
   12597    13856    11846     9137     6723     4029     2717     4053 
    6335     7646     6725     3497    -1086    -5634    -6895    -3033 
    3370     8979    11691    11575    10597     9318     8048     7387 
    6277     4110     1201    -1109     -651      925     1253     2708 
    6023     7969     7050     3660      246      994     6003    11699 
   15279    14892    11421     7109     1916    -2421    -2963     -264 
    5566    13369    17029    14592    10478     5591    -1175    -5955 
   -4019     4057    12256    14652    13333    12987    10495     4113 
      43      523     1987     2573     3101     6337    11717    13364 
    8577      699    -3312     1763    10336    12544     8051     2923 
     944     1482     2904     6882    11714     9854     2017    -3233 
   -3375      536     7760    13347    13584    11786    10968     8429 
    1314    -6556    -6531     4534    18484    24994    22340    14324 
    4604    -2664    -3270     3545    11261    11689     6722     3175 
    1165    -1573    -3696    -2252     4361    13144    18542    18186 
   14020    12221    15855    16555     7908    -2260    -4201     1826 
    8958    13673    18113    21428    19113    11509     4761     3073 
    2814      718      914     4046     6869    10958    14467    12724 
    7848     4383     7199    15489    19482    18233    16316     9315 
   -1176    -5436    -1710     3736     1687    -7054    -8379     1056 
   14042    29355    41814    43729    36262    22440     9861     8252 
   14011    19848    24212    24838    20321     8050   -13378   -34143 
  -42611   -33064    -2958    36669    63209    66803    57341    46258 
   33932    19085     5321    -4178    -5057     1925     4047    -4947 
  -17258   -24486   -18372       89    11481    12309    22763    39382 
   39380    22146     8627    19633    49545    68575    57193    16469 
  -28272   -46881   -43407   -31101   -12010     4921    17333    15034 
  -21624   -62177   -54393     2374    68726   105511   106017    82510 
   26422   -47517   -79417   -46026    19903    74530    76529    25319 
  -27493   -53259   -57226   -36236    -1425    21966    25108    14370 
    4295     4308    23278    56302    56972    13572   -13797    -2467 
   17493    42417    66601    55470    12044   -22170   -36111   -51579 
  -71008   -66255   -26960    14619    22343    -1315   -19460    -8500 
   14851    28415    38145    52783    49497     9866   -32377   -36559 
   -5037    41753    69770    39398   -31854   -82691   -81157   -38382 
    7096    27935    35866    38681    21251   -11806   -33158   -29819 
   -3664    41821    90232   110523    85482    38893     4127   -17278 
  -21855     2928    32494    38054    26219     1992   -37111   -71794 
  -72293   -36036     6592    32134    40465    38064    38366    49435 
   62043    71057    64017    20707   -29535   -38624   -21060   -11515 
   -6876    -1600    -9038   -30575   -40436   -18444    17146    31562 
   21830    18457    30751    34281    20294     3482    -8411   -13217 
   -4152    16770    32965    28246     4388   -19819   -36416   -49710 
  -52999   -42263   -27809   -16467    -4351    16606    44015    62149 
   61171    42301    14039    -9447   -15847     3375    32589    34432 
   12012    -1984    -9500   -18660   -21428   -28937   -47433   -54174 
  -37254    -7277    23392    47954    62635    65352    64440    62924 
   43866     9170    -8560     2224    14240     5529   -18526   -43080 
  -55568   -53614   -38112    -2846    45606    81235    83896    58304 
   28931    19125    30591    43787    42385    20691   -14887   -36049 
  -27599    -8063    13455    34863    31164    -6241   -47595   -60422 
  -32728    10687    28579    11270   -24707   -50461   -39538    -2664 
   32809    51346    38498      935   -27797   -34785   -27134      659 
   38317    50411    29574     1510   -20648   -40258   -45247   -18828 
   27039    67480    80643    52710     3655   -32568   -44587   -32090 
    5339    58019   100704   107302    73606    20004   -25824   -48344 
  -51585   -45071   -28289    -1594    21136    24605     7185   -21739 
  -48460   -54361   -28126    22214    75746   100351    78336    41091 
   26150    29383    32776    29507    24246    17196    -6215   -31233 
  -27948   -16018   -15448    -9415     -125     5869    23262    45184 
   50886    38618    22757    22901    34129    32801    20941    13709 
    6497   -10330   -24765   -13857    19042    42303    38046    19102 
   -1280   -23737   -40244   -34482    -6128    32357    68198    86844 
   80010    52082    13370   -21252   -43919   -61656   -66683   -33292 
   33075    91126   107088    74974    23491   -10269   -23364   -20461 
     434    17411    12936    -3657   -21443   -31682   -30946   -22029 
   -5070    13206    26226    38420    45468    29255   -12531   -50586 
  -57160   -39244   -17016     4137    23233    32700    31205    30926 
   37827    40347    35216    32501    26360     8309    -5823     -265 
   13508     9090   -14844   -23896    -4650    17328    31060    39617 
   28964    -6127   -41838   -49015   -19258    25531    55728    64031 
   60038    51644    36447    12275   -12504   -28374   -19191    18750 
   48112    46630    35962    25091     3032   -26177   -41730   -33650 
  -18671    -7536    13328    38423    33839    -4771   -41025   -50348 
  -40776   -31809   -29222   -24262   -18128   -20293   -28569   -38332 
  -54130   -78106   -99154   -99728   -83045   -69416   -51828   -23046 
  -20016   -62690  -117343  -151564  -167556  -185940  -214148  -239105 
 -251927  -260041  -273145  -284708  -282097  -269642  -254303  -230181 
 -195632  -157324  -118538   -79339   -42979   -20060   -15952   -22245 
  -40993   -79427  -117577  -132627  -124989   -99578   -62989   -30601 
  -24126   -57324  -106806  -134683  -137607  -121932   -82125   -32921 
   -3124    -3388   -16087   -14483    -6780   -24143   -60097   -79782 
  -72493   -48466   -13931    25235    59860    81872    90250    92747 
   97255   109444   127212   138921   138345   125349    98283    56892 
    8659   -29531   -44818   -40987   -24992     8012    58913   113261 
  156906   189364   224463   272892   323870   351799   332132   255421 
  132904    -2904   -95790  -103312   -48437    18523    80231   127429 
  149118   159422   172163   182699   193908   210047   213143   194518 
  167226   123005    52816   -18394   -65764   -83477   -76404   -51585 
   -3898    71813   153799   206673   221034   212556   189402   149332 
   93566    35936     3927    12754    53296   105152   148724   190374 
  246322   292778   293368   255714   211368   166461   107529    32596 
  -53943  -142785  -205357  -228982  -243734  -269376  -294137  -316040 
 -332358  -322755  -290831  -260771  -236770  -220857  -221270  -230209 
 -234832  -223885  -190045  -138677   -76143   -11017    38413    60047 
   60744    54472    45985    35388    30104    39756    55195    58041 
   54282    57284    64133    71524    80713    92362   100243    94591 
   77635    56132    32534    13521    10327    23771    36012    32689 
   19874     8544     4945     6448      345   -20453   -54947   -96999 
 -134462  -156684  -156345  -130509   -83269   -34287   -16616   -38978 
  -74066   -98543  -117955  -147517  -180005  -193112  -182056  -158436 
 -132359  -106325   -77683   -46751   -14996    15508    38493    53991 
   62460    55987    40716    32786    26456     3452   -39245   -90667 
 -134704  -151550  -134191  -101534   -68982   -32440     3585    26792 
   35123    34245    27624     9764   -19030   -47925   -68408   -71597 
  -50021   -10819    25413    41357    33613    12715    -3470    -1169 
   26011    71765   118087   156931   186641   195454   182145   167753 
  159501   137731   102602    77538    67274    72855   102360   147825 
  194343   228972   243147   237344   211480   178839   163925   159565 
  152363   159294   175294   168825   137724    98790    60308    28820 
   13352    16142    24132    22133     3738   -33718   -81153  -116901 
 -123333   -98507   -56083   -15177     8479    12338     6997     1489 
   -9758   -39882   -76036   -90172   -77390   -45202    -5479    28134 
   49010    50704    35710    17596     4820     2551    14090    27998 
   27445     9050   -21423   -52206   -69516   -70372   -59465   -41891 
  -26990   -26820   -43317   -62315   -69637   -60394   -31749     5789 
   29571    30320    10138   -23731   -50827   -52242   -32931    -8356 
   16619    30737    19536      549     1132    20128    43595    62835 
   69929    59129    33002    -4598   -51151   -93971  -113751  -100617 
  -62130   -16581    20681    38839    31010     4492   -26979   -60842 
  -92091  -107047   -99074   -70584   -30409    10679    37693    37521 
   19675     -284   -20440   -36269   -41814   -44263   -46766   -35394 
   -8084    15567    30762    51777    76885    89200    92396   111876 
  148813   166257   135963    71126     5179   -44854   -77495   -87309 
  -75055   -48742   -12511    23491    50323    64879    59672    36690 
   10856    -3406     3612    36206    91151   148240   176429   163633 
  127955    91075    57806    33543    31595    53904    83208    95798 
   90156    91762   111844   126025   107354    64946    31596    20413 
   29030    59631   100377   127303   130243   117225    99040    72021 
   34820     7772     2958     7440     8019     2052    -9180   -24475 
  -43018   -61123   -68897   -59656   -41107   -20866    -5150    -8048 
  -22127   -21277    -7585       44     3223     7695     3403   -12939 
  -27025   -28040   -14401    10575    35374    51656    60920    61174 
   48580    29101    10139    -8404   -19898   -10804    12670    32787 
   47273    57169    61117    65288    72149    79490    83973    81571 
   81287    89944    92007    72981    39762     9925    -3516     1498 
   16345    35190    55794    58719    30298    -8835   -39142   -57131 
  -55653   -33990    -3831    20232    24553     7993   -17165   -42214 
  -64288   -82638   -99363  -107968   -90582   -38092    33045    89173 
  112801   114026   100296    69758    35490    18098    16153    13888 
   13416    25528    34252    13261   -27056   -55229   -63990   -60336 
  -42011    -9937    25111    55508    75187    78247    63840    35394 
    6392    -7655     -721    25868    58545    80988    89955    84558 
   59424    18442   -21174   -41557   -37152   -19218    -3174     8312 
   19215    26058    25686    27546    39825    53513    61176    71696 
   85745    88431    74509    53486    35918    22591     9026      -84 
   -3206    -8981   -12951    -5275    10236    26600    32999    17949 
   -9778   -33037   -48595   -57967   -61510   -63473   -61689   -46737 
  -20501     2878     9744    -6512   -38032   -65559   -75357   -67520 
  -51619   -36279   -21231    -4916     5601     4214    -7828   -26820 
  -43800   -54092   -62759   -67091   -59678   -42821   -25774   -18090 
  -25278   -46667   -73099   -90425   -89653   -68066   -32456    -3323 
    4941    -4338   -23377   -40581   -46471   -47918   -49497   -44008 
  -34646   -28150   -19178    -7967    -5031   -11851   -16572    -7909 
   13959    42518    70378    86828    84064    67288    48677    33493 
   23625    24858    38927    60163    81588    95080    91058    69985 
   46326    30822    23163    23724    34827    53005    67357    63980 
   39313     8233   -13609   -26859   -34320   -31119   -21711   -17934 
  -19567   -20373   -19892   -18457   -13846    -6131    -1278    -3784 
   -9392   -13354   -16726   -21220   -25634   -28746   -33117   -41033 
  -50902   -61596   -70964   -73242   -66292   -53552   -39951   -33061 
  -37482   -47847   -58889   -67988   -66004   -49763   -32277   -26057 
  -32743   -47223   -61019   -68596   -71766   -72326   -65637   -47250 
  -20123     7677    27209    32550    24861     7720   -17157   -42329 
  -54573   -48614   -30811    -8939    11383    25132    31663    31678 
   21313     4069    -3296     4526    14003    17613    17246    10817 
