Origin Time       2016/04/16 01:25:00
Lat.              32.753
Long.             130.762
Depth. (km)       12
Mag.              7.3
Station Code      KMM011
Station Lat.      32.6167
Station Long.     130.8652
Station Height(m) 142
Record Time       2016/04/16 01:25:09
Sampling Freq(Hz) 100Hz
Duration Time(s)  300
Dir.              E-W
Scale Factor      3920(gal)/6182761
Max. Acc. (gal)   602.407
Last Correction   2016/04/16 01:25:09
Memo.             
[...]
    6879     6878     6877     6877     6881     6889     6881     6862 
    6844     6830     6837     6874     6912     6923     6902     6870 
    6854     6855     6864     6872     6868     6853     6835     6834 
    6854     6869     6858     6847     6859     6882     6887     6868 
    6862     6866     6845     6826     6847     6881     6897     6904 
    6910     6888     6836     6814     6834     6852     6861     6869 
    6878     6896     6915     6895     6847     6834     6853     6851 
    6849     6866     6856     6839     6880     6920     6886     6849 
    6856     6849     6836     6860     6879     6860     6859     6883 
    6880     6864     6854     6834     6831     6846     6841     6851 
    6902     6928     6906     6885     6865     6839     6846     6875 
    6886     6885     6882     6868     6849     6828     6818     6832 
    6840     6845     6874     6908     6904     6866     6849     6875 
    6887     6866     6853     6848     6849     6866     6873     6870 
    6862     6849     6853     6874     6882     6885     6878     6864 
    6872     6882     6872     6875     6890     6872     6843     6843 
    6846     6832     6830     6844     6854     6867     6878     6861 
    6852     6878     6890     6872     6868     6886     6890     6873 
    6862     6860     6856     6863     6878     6879     6872     6863 
    6840     6841     6882     6893     6855     6847     6872     6868 
    6849     6860     6871     6858     6852     6850     6842     6862 
    6896     6884     6853     6859     6874     6866     6859     6864 
    6871     6876     6880     6881     6878     6876     6860     6836 
    6848     6886     6887     6861     6850     6851     6853     6862 
    6866     6858     6858     6858     6845     6852     6883     6885 
    6869     6879     6886     6864     6858     6877     6880     6865 
    6859     6865     6872     6879     6879     6870     6863     6848 
    6835     6850     6859     6847     6857     6878     6862     6838 
    6849     6873     6875     6862     6865     6881     6886     6877 
    6876     6887     6886     6866     6859     6868     6864     6864 
    6874     6866     6854     6850     6846     6854     6866     6864 
    6856     6859     6871     6874     6862     6861     6869     6860 
    6860     6872     6865     6852     6854     6861     6867     6881 
    6882     6859     6858     6881     6871     6843     6851     6878 
    6890     6883     6865     6859     6874     6872     6846     6839 
    6855     6864     6872     6880     6869     6853     6856     6861 
    6860     6867     6874     6872     6869     6870     6861     6851 
    6859     6871     6873     6867     6856     6851     6862     6873 
    6879     6878     6860     6849     6861     6868     6877     6893 
    6879     6850     6846     6851     6851     6860     6875     6878 
    6870     6860     6856     6859     6862     6865     6869     6862 
    6850     6855     6872     6877     6872     6870     6872     6868 
    6849     6841     6870     6892     6883     6873     6872     6868 
    6869     6863     6851     6859     6875     6862     6846     6861 
    6869     6851     6848     6866     6869     6865     6867     6858 
    6850     6869     6876     6858     6859     6874     6876     6875 
    6873     6864     6866     6876     6875     6870     6867     6859 
    6856     6860     6866     6874     6869     6856     6857     6869 
    6870     6856     6849     6859     6868     6863     6857     6868 
    6881     6871     6858     6861     6859     6857     6868     6874 
    6873     6879     6874     6859     6859     6870     6872     6872 
    6868     6854     6848     6861     6873     6867     6860     6867 
    6874     6873     6864     6854     6856     6864     6867     6863 
    6859     6871     6883     6870     6858     6859     6863     6874 
    6876     6864     6862     6869     6859     6856     6876     6876 
    6850     6850     6869     6868     6862     6872     6874     6862 
    6860     6866     6869     6865     6861     6861     6861     6862 
    6865     6862     6854     6858     6875     6875     6863     6869 
    6878     6867     6861     6866     6867     6869     6874     6868 
    6865     6878     6873     6847     6848     6870     6873     6866 
    6859     6856     6862     6863     6855     6860     6870     6860 
    6846     6858     6877     6870     6862     6872     6874     6862 
    6864     6877     6875     6871     6878     6874     6856     6853 
    6867     6868     6858     6861     6875     6879     6863     6850 
    6856     6867     6861     6852     6860     6870     6862     6853 
    6862     6866     6865     6871     6869     6861     6863     6868 
    6869     6870     6872     6877     6876     6865     6862     6868 
    6863     6853     6859     6863     6859     6864     6869     6864 
    6862     6864     6856     6851     6858     6860     6864     6875 
    6874     6865     6867     6869     6863     6859     6858     6866 
    6880     6878     6862     6858     6870     6872     6864     6857 
    6858     6866     6867     6862     6866     6868     6863     6863 
    6860     6856     6862     6869     6863     6858     6863     6867 
    6869     6876     6872     6855     6849     6860     6873     6876 
    6868     6863     6872     6872     6859     6861     6873     6869 
    6860     6865     6867     6860     6857     6860     6864     6871 
    6875     6863     6851     6853     6859     6867     6873     6868 
    6866     6873     6873     6863     6858     6866     6875     6869 
    6857     6863     6878     6877     6867     6866     6868     6864 
    6855     6851     6861     6872     6863     6849     6854     6863 
    6863     6863     6869     6873     6870     6865     6865     6864 
    6865     6872     6877     6871     6862     6863     6875     6877 
    6866     6863     6870     6867     6858     6857     6866     6872 
    6867     6861     6867     6864     6851     6854     6860     6851 
    6856     6871     6863     6859     6874     6878     6872     6874 
    6868     6857     6861     6872     6876     6873     6868     6867 
    6870     6867     6858     6861     6864     6855     6861     6878 
    6869     6853     6858     6865     6863     6864     6863     6864 
    6871     6869     6862     6861     6861     6864     6871     6866 
    6859     6868     6875     6863     6861     6871     6865     6856 
    6869     6877     6866     6861     6870     6869     6859     6861 
    6869     6861     6850     6861     6878     6869     6859     6865 
    6866     6864     6867     6865     6866     6875     6873     6860 
    6862     6871     6868     6864     6866     6865     6863     6865 
    6863     6860     6863     6862     6857     6866     6870     6865 
    6872     6878     6868     6860     6862     6865     6864     6862 
    6863     6866     6870     6869     6864     6863     6864     6865 
    6864     6862     6867     6871     6865     6864     6870     6869 
    6867     6864     6855     6857     6870     6871     6866     6865 
    6861     6860     6866     6864     6852     6853     6869     6873 
    6867     6867     6868     6868     6869     6870     6873     6869 
    6859     6858     6864     6862     6857     6867     6877     6862 
    6851     6859     6863     6866     6877     6874     6863     6860 
    6860     6864     6870     6865     6860     6863     6861     6859 
    6869     6875     6867     6865     6864     6855     6861     6878 
    6875     6865     6869     6868     6858     6858     6867     6868 
    6863     6862     6861     6864     6871     6867     6859     6860 
    6866     6863     6860     6865     6871     6869     6868     6864 
    6854     6855     6862     6863     6864     6868     6866     6861 
    6862     6870     6869     6865     6873     6873     6865     6869 
    6870     6857     6856     6868     6872     6873     6868     6858 
    6858     6863     6867     6864     6858     6872     6878     6857 
    6850     6865     6865     6855     6863     6867     6860     6863 
    6872     6881     6898     6910     6897     6885     6909     6944 
    6965     7015     7052     6956     6837     7075     7776     8406 
    8360     7751     7229     7162     7685     9166    11237    12109 
   10496     7865     6863     7424     7730     7869     8652     9167 
    7619     4920     5069     6756     5325     5815    11375    12256 
    6737     5236    10165    12685     6537    -2841    -5937    -3021 
   -1880      263     5650     1366    -8583    -7681     2208    13829 
   21185    21163    11930    -8249   -16753     1627    14075     7328 
   11205    21987    14049    -7012   -15829     5720    30228    17225 
   -6285     3403    28836    34228    20654    10651     9297     6107 
    3828    13401    32475    37989    11151   -18186   -17284   -11128 
  -14859    -1124    26783    23454   -20330   -45170   -21214     6977 
   26102    51582    51847    18884    -6742   -19131   -27475   -17092 
    9745    29338    31780    27237    22603    15336    10941    11233 
    6645    -4558    -7961     7845    20333    12483     8587    15772 
   14275     6781     7389     6206    -3708    -2356     9073    11881 
   10899     6373      435     9012    15653     8481     7202     1618 
  -13258    -6635    17971    29931    23526    19152    27923    21086 
   -5156    -9971    -1037     2352    15142    16218   -10084   -22462 
    1976    23983     6659   -18106   -12453     4590     6506   -10644 
  -20323     7498    35974    29278    24179    33011    31809    26038 
   17796     3999   -11046   -32055   -31115    15373    52853    33030 
  -15966   -33779     5241    41196    22260     3405    25663    46049 
   38060    14748    -8865   -11441    10447    19485    -5001   -30525 
  -26230    -1628    12284     -718   -23727   -36061   -30373   -12164 
   -6366    -5687    21087    38007    15194    -4837   -19108   -39491 
  -25262    19302    43055    31669    17472    48048    93383    74580 
   35604    53107    73654    54634    30150    20418    36030    47890 
   22276     2946     7078     -458   -16442   -26296   -28786   -31390 
  -46557   -55571   -51320   -66675   -85211   -64766   -30747    -9227 
   11879    11695   -28099   -54725   -18951    40307    57842    35142 
   28695    68200   113119   120640   107631    99671    88384    60649 
   30392    29778    59895    74789    41558   -15721   -38122    -7023 
    8643   -33966   -74474   -71381   -55924   -61337   -79933   -72025 
  -36316   -13471    -5494   -10639   -44393   -63920   -36378    10124 
   67612   105998    76692    32758    43899    71057    58636    33672 
   52381    93296    87351    48968    32451    30132    24877    20624 
   16630    17734    17444    -7174   -46040   -57514   -28245    -5745 
  -33204   -68644   -60234   -36151   -45533   -71827   -51876    12689 
   58965    80369   107790   146415   172662   126764    18088   -37163 
   -4413    44347    57935    23953   -17298   -42241   -75263   -61147 
    4605    -7322   -81378   -92939   -72909   -99970  -138876  -126567 
  -67653   -35195   -49314    -1053   120494   147538    60332    39692 
  116217   133318    67561    47483    96443   124715    89219    37556 
   27910    48950    68669    61373     7092   -49961   -76735   -87805 
  -64173   -23194   -26169   -42232     1542    64619    65775    25364 
  -21013   -73968  -104573   -87955   -34693    -7545   -52399   -79662 
  -19339    46394    49074    24821    19440    32520    42732    28661 
    -646     4082    60883   114085    87277    -1372   -30345    33521 
   97257   108786    82107    52505    60715    82860    55200    -1112 
  -36428   -65197   -78991   -70497   -90326  -117587   -69636    41462 
  113880    82361   -11007   -84540  -103448   -70921   -22732     -280 
   -1288   -19968   -35831    -3339    41355    32093   -21255   -57120 
  -13397    44719    17997   -10443    30755    78929   103115    90684 
   49195    47496    90906   118564   103119    45402   -18524   -28248 
    6718     1566   -58782   -71991   -11369    10907   -47980  -123162 
 -176878  -204953  -218023  -233847  -230664  -191864  -145890   -93449 
  -13301    68410   108942    76035   -36235  -126131   -70896    71849 
  163421   195859   220257   237766   248592   263663   268501   239191 
  187585   149394   149090   187868   202837   154007   106989   108576 
  152866   179929    94205   -55446  -144888  -173272  -175184  -161299 
 -185372  -266791  -335067  -354060  -353874  -321997  -255185  -203507 
 -139544   -41290    18058    31698    58136   123225   219341   303139 
  330160   289676   208173   161591   256161   446111   426204   132045 
  -17102    33503  -111129  -343413  -396476  -434718  -459174  -340726 
 -233952  -199102  -154678  -119586   -59118    88594   262905   344987 
  283103   159332    26619  -159816  -286350  -111308   231801   211507 
 -112669   -82588   125103   -34521  -189457   -71470   -31701   -68927 
  -46443   -99108  -171075  -140736   -99999   -26503   151483   331985 
  445206   498156   434345   178894   -68581   104555   517032   450582 
   38025    -3484    85023   -66529  -117410  -171736  -468350  -670542 
 -651162  -586560  -553485  -526944  -461353  -402307  -365674  -320188 
 -261282  -157169   -37500    44218    94233   101392    61888    43953 
  158389   385895   471123   205035   -92186   255378   957351   871286 
  315598   371371   553929   367717   236812   127274    12771   118624 
  268358   278098   250386   272223   265323   175544    21889  -175989 
 -288312  -214010   -79725   -78376  -214765  -295039  -255781  -281418 
 -420992  -486220  -372524  -163788   -42198   -78694   -74460    61924 
  145044   186134   303066   377672   363469   321293   203148    81053 
  157698   367114   360705    93253   -46647   -27215  -163437  -303053 
 -256310  -232511  -220768  -127057   -66959   -16966    45559    11489 
  -85628  -147764  -209119  -305043  -388206  -454942  -505107  -479496 
 -390900  -330919  -339599  -367125  -355577  -294972  -192221   -71678 
   34765   122574   213918   335703   457150   509366   502849   538628 
  703320   918273   944297   707801   447719   374177   426606   451597 
  405768   349176   312603   228970    92965   -23944  -131771  -236299 
 -342329  -468992  -510501  -460210  -467021  -476902  -385218  -286696 
 -232821  -212821  -250662  -258653  -154309   -42306   -27350   -72451 
 -128622  -199539  -263550  -257501  -147715     7887    83602    31515 
   -2940   125476   330047   471641   547377   580699   555873   483617 
  401043   301484   183819   121246   149378   197112   196398   129727 
   -6417  -130466  -123773   -56828   -83542  -156615  -163462  -148215 
 -165893  -193250  -232243  -280002  -324338  -393655  -475582  -499517 
 -437390  -343922  -289129  -264473  -231695  -219900  -251067  -290445 
 -302857  -261924  -184887  -109757   -32811    29958    64457   121506 
  228120   354125   456121   460611   363810   332956   412275   380657 
  252330   285023   368741   314026   271838   263788   194092   123071 
   31464   -77213   -96338   -63696   -66879   -97919  -112581   -79220 
  -23315     2198     1522    11589    15971   -56719  -231080  -385203 
 -354953  -216323  -217828  -321221  -278374  -167461  -198352  -235499 
 -102896    88235   200284   263084   323620   333320   281396   231927 
  212230   226773   257514   279676   304826   322391   307331   243553 
  112015   -26233   -45602    26311     4082  -134742  -228028  -262645 
 -318714  -345874  -338393  -358869  -354254  -260613  -112088    17621 
  109102   202012   264210   242007   201385   201869   182247   105120 
   51381    93952   175056   189553   149275   100001    -6770  -144159 
 -212724  -235373  -248066  -242169  -251208  -265787  -230374  -146046 
  -51092    22012    58886    77910   100832   134337   180267   220545 
  231512   186273    58236  -117031  -253800  -233765   -20438    87366 
 -137235  -330117  -247632  -159597  -145863  -116509  -101318   -51400 
   58245   165262   239609   259192   243602   239567   245375   259744 
  305190   338963   234112   -51079  -238811   -12439   227966   -61008 
 -326450  -139771  -171554  -453471  -485018  -448245  -339700   -77092 
   23412    59233   215495   331776   404349   464635   469846   492348 
  527927   522148   500693   385311    -2621  -538004  -537672   229679 
  575783   -81514  -438919  -127408  -106640  -332005  -433416  -531258 
 -586786  -478125  -267765  -153524   -87252    85797   219934   266997 
  356145   465104   527846   498722   364745   192364   -86191  -578631 
 -828577  -170360   690457   444195  -247533  -300686  -207645  -177780 
 -106531  -175022  -109291    34851    48053    94645   168153   254722 
  348641   340134   200267    -6517  -188647  -315767  -308306   -59626 
  222342   154258  -214146  -370709  -149093   -23851  -173623  -257730 
 -234627  -215498  -138810   -67949   -56364   -30750    22129    83724 
  127832    97943    -9232  -129055  -212535  -209973   -54480   190089 
  328210   268828   132567   115490   224138   248493   146639   107312 
  139235   108193    47567    32566    38679    44346    32098   -48585 
 -204747  -358417  -412883  -348614  -241538  -175351  -152845  -121827 
  -78456   -41137     8458    65508   130888   215647   255717   225110 
  197223   185329   164745   187475   278496   345929   292995   155561 
   59743    40856    28801     2552    -5926     9001    36698    50125 
   11936   -78345  -172960  -211616  -179394  -117208   -59504    -5720 
   29546    17349   -26256   -76990  -138360  -204634  -265054  -294068 
 -249222  -134725   -14502    58040    92104   118156   155144   213650 
  271872   317368   365496   402560   408569   376542   304672   222433 
  153846    85839    13477   -46892   -85843  -114741  -158567  -225466 
 -293614  -342896  -367702  -362216  -333963  -294867  -230042  -135997 
  -55074   -18643    -5259    18971    64758   115554   140348   138162 
  139949   143131   116096    68686    20693   -19935    22333   180057 
  261340   103614   -95325  -107280   -44693   -30666     4754    67711 
  105789   135254   133034    71574    51598   114098   149952   132566 
  105412    58806    18329     6957   -31208  -112548  -193383  -253064 
 -269959  -221109  -152482  -138072  -167670  -182778  -179991  -167427 
 -118351   -39702    32462    93690   155554   217673   259833   256052 
  218709   196200   213848   242441   242632   222814   197576   123582 
  -27568  -152431   -91389   109578   170235     6724  -113067   -83570 
  -67577   -77432   -51002   -22304    -2330     3758    -1250    17077 
   43954    33555   -20325   -89838  -149941  -180476  -163878  -118784 
  -93008   -93692   -85523   -69894   -70657   -63620   -22512    30231 
   71539    95938    99812    96756   104307   122140   146736   175364 
  200588   202127   155945    87950    63263    99664   160412   195952 
  160704    83215    65973   112903   124747    85583    36673   -18399 
  -63963   -87166  -105799  -121645  -120807   -94256   -58807   -61490 
 -105896  -137033  -136806  -129249  -118339   -95758   -52361     5588 
   40093    30843    -3331   -34023   -18237    54761    77777   -20359 
