Origin Time       2016/04/16 01:25:00
Lat.              32.753
Long.             130.762
Depth. (km)       12
Mag.              7.3
Station Code      KMM010
Station Lat.      32.6136
Station Long.     130.4874
Station Height(m) 2
Record Time       2016/04/16 01:25:11
Sampling Freq(Hz) 100Hz
Duration Time(s)  235
Dir.              N-S
Scale Factor      3920(gal)/6182761
Max. Acc. (gal)   101.469
Last Correction   2016/04/16 01:25:11
Memo.             
[...]
   10152    10142    10151    10161    10150    10144    10144    10142 
   10149    10153    10144    10148    10157    10147    10140    10150 
   10149    10143    10147    10154    10151    10141    10148    10162 
   10151    10143    10147    10146    10153    10158    10147    10149 
   10151    10145    10148    10148    10144    10150    10152    10145 
   10146    10152    10150    10149    10154    10151    10143    10145 
   10157    10154    10145    10153    10159    10147    10138    10154 
   10162    10137    10134    10160    10159    10140    10141    10154 
   10156    10143    10139    10156    10164    10145    10134    10148 
   10159    10146    10137    10151    10154    10138    10141    10159 
   10150    10134    10150    10164    10146    10128    10146    10164 
   10149    10142    10158    10160    10143    10137    10152    10157 
   10143    10138    10152    10156    10142    10147    10162    10151 
   10136    10141    10157    10157    10142    10145    10155    10149 
   10144    10147    10150    10143    10139    10152    10159    10143 
   10140    10155    10155    10143    10139    10154    10156    10137 
   10148    10167    10145    10134    10161    10161    10137    10138 
   10154    10152    10136    10141    10156    10150    10138    10148 
   10156    10150    10145    10148    10151    10150    10146    10149 
   10155    10150    10143    10149    10154    10149    10143    10147 
   10155    10154    10147    10150    10156    10149    10141    10153 
   10161    10145    10136    10154    10161    10138    10137    10164 
   10158    10131    10139    10160    10154    10141    10146    10155 
   10148    10145    10153    10154    10147    10149    10151    10143 
   10144    10152    10149    10145    10147    10150    10147    10144 
   10152    10152    10144    10148    10152    10143    10143    10157 
   10159    10147    10145    10149    10150    10148    10145    10152 
   10157    10151    10147    10148    10157    10150    10136    10153 
   10161    10134    10136    10166    10158    10138    10145    10150 
   10148    10152    10150    10147    10147    10148    10150    10146 
   10148    10157    10148    10141    10147    10144    10141    10154 
   10159    10141    10134    10157    10163    10140    10138    10154 
   10151    10134    10141    10161    10153    10137    10151    10162 
   10138    10133    10162    10158    10136    10145    10154    10145 
   10148    10163    10152    10135    10147    10157    10142    10140 
   10157    10158    10145    10140    10147    10158    10156    10149 
   10149    10143    10141    10156    10161    10146    10143    10160 
   10159    10141    10156    10183    10174    10174    10206    10234 
   10277    10338    10393    10465    10558    10650    10733    10795 
   10861    10926    10977    11067    11165    11212    11278    11402 
   11540    11655    11755    11848    11878    11884    11918    11788 
   11338    10736    10204     9706     9015     8156     7489     7074 
    6542     6046     6179     6581     6519     6314     6521     7024 
    7326     7269     7536     8254     8368     7994     8511     9724 
   10770    11971    13009    13539    14590    15749    15232    13875 
   13478    13006    11624    10260     9299     9280     9488     8449 
    8321    10574    12149    12058    13102    14985    14592    12907 
   12139    10928     9520     9368     8818     7166     5852     5240 
    5680     7802    10114    11473    13273    14511    13212    12078 
   12667    11994     9988     9432     9151     7295     6695     8523 
    9033     7087     5566     5756     6235     5827     5523     5997 
    6230     7339    10181    11375    10231    10719    12649    12239 
   10888    11426    11113     9645    11331    14054    13598    12860 
   13292    13117    13939    15442    15169    14499    14696    13396 
    9723     7115     7282     8130     8613     9392    11315    13776 
   14583    14149    15384    17746    17604    14946    12448    10314 
    7741     5014     3110     2226     1245      682     2438     6222 
    9358    10695    12506    15773    17660    17166    16526    15827 
   14504    13372    12475    12804    14483    15548    16141    16492 
   15794    15055    13872    11498     9647     7689     5969     6360 
    5674     3716     4811     6958     6044     4769     7034    10029 
   10764    10953    10777    10055     8622     4710     1679     2947 
    4510     4262     5781    10300    13702    12943    12381    15762 
   18700    18628    18248    17929    17075    18476    23447    26467 
   23906    21198    21442    20970    19985    19003    13755     7117 
    3908      394    -1808      -69     -938    -1392     3752     5448 
    4601    11040    17141    15652    14316    15112    13920    11853 
   10417     9287     9206     8627     5940     5430     6474     5431 
    5770     5750     3088     6607    17665    22046    16532    15172 
   18680    16661    11610     8623     7450     7629     5472      933 
    -104     3174     5970     4296     1677     6386    16190    20928 
   18272    12874     8676     6059     4034     3777     6472    11093 
   13457    12677    15488    22448    28074    32467    36329    40091 
   41234    35728    29604    24044    14015     4681    -1665    -7074 
   -7788    -5520    -7489   -11775   -11802    -8437    -6254    -3796 
    3411    11629    15080    16620    18067    16738    16150    19701 
   20102    13793     9238     8284     4618      622      254     -667 
   -1916     3515    13965    18866    18938    27958    45400    53932 
   50559    46806    43126    34202    24183    17723    12332     4027 
   -7655   -14710   -11236    -6205    -3109     2940     6109     5730 
    8685     9923     6441     5723    11265    19926    24274    20621 
   17519    22293    27316    23651    17648    18898    23343    20729 
   12433     8877     7451        0    -4711      327     3607    -2878 
   -9497    -3591    10017    16238    17522    23914    28547    23834 
   12940     -633    -9180    -7048    -5004    -8209    -3488     4523 
   -3543   -15090   -10781    -1999     4008    10828    10984     5032 
    3662     8664    17014    22274    19801    15635    11448     4039 
   -2813    -8071   -11162    -4395     7809     6811    -3260      -14 
    9976    11432    13519    20531    25597    25006    19013    20859 
   36504    42402    27890    16536    15042     8421       27    -6357 
  -14956   -13126    -3222    -1422     7723    24275    22573    17023 
   23347    23464    15867    10712     6847     5730     8970    12564 
   12910     7644    -3061    -5882     8589    19437    13392     8891 
   13253    16362    16620    15055    10079     8584    16964    22668 
   17165    18984    28596    24218    18381    21874    14657     1490 
   -1792    -4829   -12335   -13015    -6346    -2225    -1755    -5706 
  -10736      398    19173    24901    34350    50210    46311    36629 
   42345    42712    32506    31838    36566    36146    34132    28886 
   21204    20808    27784    35435    40342    38325    31769    22990 
    3058   -19111   -25087   -25972   -30297   -23971    -6168    10938 
   19161    19410    20932    21792    17649    21206    34849    38623 
   26702    14228     6522      168    -7123   -19467   -28752   -24582 
  -12659     5310    30291    49114    53923    54661    61730    71145 
   69084    54224    42862    41002    37811    28500    26091    38851 
   47767    46646    48724    48582    45652    42365    28876    10603 
   -3613   -18243   -37141   -56555   -74899   -94690  -105369  -101974 
  -99108   -94663   -78848   -61670   -49553   -41412   -39797   -40659 
  -36578   -30434   -28513   -24872   -16982    -8055    10159    34254 
   50564    59905    67867    75575    79166    79295    80633    79424 
   74461    71004    71885    75493    77355    74605    65819    56542 
   53572    45194    20559    -1866    -5453    -2640    -1771    -1574 
   -2338     6079    12291    -2253   -16488   -24067   -40601   -55229 
  -59755   -58395   -49114   -32582   -18383   -17813   -21100   -17223 
  -26420   -52438   -64734   -59188   -54230   -47310   -30731    -3560 
   34912    72277    88943    83193    71676    61081    37667    -4669 
  -45564   -61761   -61571   -67484   -76484   -77985   -77605   -75504 
  -62841   -48533   -46308   -42376   -26878   -12568     3503    19947 
   19555    16517    25862    37366    53496    69725    76957    87419 
   97368    97467    96583    97436    97841    95444    86566    71420 
   55442    49235    55609    66005    74441    79345    82520    89801 
   96822    94829    91784    93133    85328    62547    36430    15849 
   -6598   -45401   -87971  -105708  -104991  -108593  -115450  -109631 
  -84247   -55842   -40181   -30263   -21874   -19065   -17574   -14250 
   -5887     9879    17262    12910    10477     4102    -6202   -20673 
  -48890   -63937   -50920   -31135    -7031     7743    -4306   -17959 
  -17708   -16992   -18262   -18370   -17264   -11599    -7088    -8441 
    1944    24722    30473    25895    42542    65171    63548    47965 
   40090    44950    58772    71506    77062    83202    97290   111709 
  116539   117417   121792   125332   128072   132355   130481   120016 
  101360    73370    47182    24365    -3882   -27086   -40063   -53888 
  -68184   -81653   -93899   -93151   -86242   -92892  -104357  -107379 
 -111333  -122930  -133200  -131230  -112145   -80757   -68940   -96821 
 -116432  -100365   -95564  -113945  -119609  -106622   -91428   -75186 
  -50429   -24857    -4416    10877     7542    -7267    -5635    10007 
   14949     5221     2917    20077    42807    59566    70527    77736 
   91936   115441   129504   129129   126025   122873   116616   109512 
  104946    99115    98529   114014   127947   126183   122243   120146 
  112657   104952   102832   100618    98695   102833   105631    99270 
   87631    74119    55495    30775     5863   -17381   -38513   -55605 
  -78078  -106928  -125441  -131115  -133049  -133946  -132599  -127408 
 -122540  -118101  -108115   -96354   -81934   -61377   -45154   -34801 
  -29648   -32772   -27530   -14963   -17214   -22066   -11928    -2567 
   -3025      787    14374    30298    40577    43338    47557    56916 
   66509    78294    96852   119577   132696   128883   125065   132860 
  137730   124793   102761    91629    93871    97265    92383    80561 
   76119    77357    57237    12897   -26612   -46186   -54382   -67869 
  -90843  -104702  -103526  -101157   -94889   -79014   -62772   -50756 
  -44341   -42406   -38835   -40769   -57323   -73274   -70199   -60101 
  -57212   -54865   -55569   -64393   -79141   -95513  -102416  -107848 
 -118458  -116687  -105840   -95615   -80679   -68438   -55571   -29776 
  -10506    -8997     -742    16818    21639    25162    48908    76171 
   87336    92999   109384   130340   136922   127413   109284    83437 
   60279    48990    41143    36128    39697    47475    62067    82168 
   94603   101614   111693   122225   127392   124398   115598   106233 
  102080    96060    76531    57882    50683    42393    35335    39210 
   46727    45988    38439    37713    47883    59815    63034    56505 
   55208    62195    61895    53459    44280    35692    28132    16903 
   -2033   -25260   -43473   -52946   -62640   -71972   -72339   -68764 
  -67332   -66386   -68557   -78312   -88118   -88870   -87155   -87117 
  -84760   -84074   -89633   -96596   -88314   -61474   -40700   -32559 
  -28344   -31786   -35822   -31254   -18399    -4788    -4890    -9121 
   -3781      676     5381    20477    43337    66203    84102   102640 
  122755   136455   144267   144665   136777   130982   130696   129772 
  126539   123280   121046   121005   118624   103998    82146    65925 
   52696    40282    35211    32568    26041    22140    24799    27838 
   24432    14294    -1583   -19000   -23871   -12908    -4070   -16242 
  -44593   -57365   -46571   -42630   -55669   -72643   -89072  -101081 
 -103244  -100998  -104340  -112142  -117771  -117288  -113315  -114743 
 -114954  -106997  -104568  -104225   -91017   -74857   -68363   -71658 
  -78807   -76913   -58080   -28573    -2616    16433    37927    61896 
   82395    97866   107779   110473   102398    90966    85423    78513 
   68355    62834    67914    85856   102427   108423   117864   134214 
  141390   132539   119671   111541   107759   111892   119805   120866 
  117391   116683   114849   103940    87873    73405    58675    42442 
   28003    16704     2392   -14150   -19332   -13978   -10819   -15870 
  -30264   -43267   -44779   -44444   -51729   -64912   -82762  -100322 
 -105122   -96381   -89796   -87775   -80701   -76273   -77887   -72424 
  -65215   -63231   -56195   -52633   -59935   -59928   -54487   -55450 
  -51397   -42267   -40787   -41896   -33425   -14140    -1726    -4804 
   -5507    -4201    -6490      354     8839    10123    12344    16405 
   27045    46463    61060    66925    69787    69588    68531    70738 
   78003    88873   100225   112220   120552   124105   127996   127036 
  122099   116379    94713    58856    31904    19698    17918    23717 
   29403    33581    40134    44050    40770    30258    13445     3584 
   10330    14526    -3204   -25748   -32003   -33908   -44567   -58121 
  -68684   -75678   -82976   -97727  -119533  -135424  -140479  -146689 
 -149903  -132358  -103759   -81653   -65965   -58995   -57725   -55432 
  -55263   -48433   -28420   -10838    -2954     1703     5267    11896 
   20858    18687     7844     3740     6371     9166     9845    11837 
   17623    20631    22028    30923    44472    55336    64886    77390 
   92840   106438   115704   122523   125441   123517   118729   112320 
  107342    99701    83566    67923    55987    43097    36531    38398 
   45187    57639    70397    79038    81530    77433    70823    57909 
   37597    19929     5694    -9849   -21184   -18920    -9495   -15006 
  -33126   -42618   -49341   -62017   -71775   -80694   -88188   -80287 
  -63970   -55726   -46084   -29986   -21828   -17984    -7682     3294 
   10626    16752    21186    22024    20817    21221    21780    18871 
   15113     9756    -1903   -12358   -12396   -11609   -22727   -29232 
   -8418    19943    27327    27059    40490    59355    67081    61011 
   44569    22184     4484     -287     5215    17724    38313    64005 
   86263    99250   107080   115715   119913   113635    98690    74068 
   43042    21204    12611     5535     1456     8413    19987    29249 
   33740    34329    41493    50343    41822    24439    17418    16448 
   12720     9711     9326     4178    -9643   -30215   -55748   -81253 
 -100048  -108655  -108308   -99464   -80009   -56245   -43328   -46294 
  -50788   -49609   -53655   -60644   -61477   -64235   -71972   -73753 
  -65403   -52650   -42040   -33605   -22344    -9553     -627     3637 
    6448    11764    19467    31933    50109    59705    55241    51752 
   54879    56597    56000    56298    55322    54458    55782    59091 
   65372    67535    64661    66928    72079    73818    70202    61358 
   55950    52120    39182    23343    13917    12153    12969     7611 
    4324    12639    21792    23828    17366     4456    -3214    -1535 
    6303    19528    28901    28261    27690    31537    32151    28343 
   27000    31459    34289    27600    14489     1410    -7248   -15394 
  -28253   -35953   -36831   -42751   -50553   -53584   -54576   -53463 
  -46254   -31120   -16897   -11470    -4580     5807     8303    10015 
   17657    21541    19142    11019      480    -5175   -12226   -20908 
  -16593     1816    22734    33596    32561    36275    46115    44179 
   35255    31751    27200    24442    29846    23163    -3445   -22013 
  -22095   -19420   -17218   -12586    -7596      316     8418     7828 
    2896      -82    -4935    -5471     4000     9433     4975     2886 
    9221    20352    31312    37875    40869    43238    41329    35355 
   34452    34727    26050    17913    19576    21718    17580     9127 
   -1628   -12385   -23872   -35022   -39198   -34940   -22318    -2910 
   11722    19512    26972    25663    12295     -919   -11608   -24266 
  -36629   -41346   -32674   -17622    -5733     5474    20830    37392 
   45465    43442    36689    26164    20054    22423    25505    30062 
   37697    46621    58253    67731    69358    66155    59502    44019 
   21737     3686    -7025   -12147   -11024    -6500     -407     4863 
    6813    11323    18474    22307    24365    25729    28112    34439 
   41516    48229    55793    64048    72364    74447    68244    60520 
   53130    43963    31802    21217    19931    21619    18689    17738 
   24549    41262    60134    61860    50805    48149    50489    43338 
   26480    10584      195   -11036   -18631   -20163   -28461   -41693 
  -51547   -58761   -62029   -63180   -65001   -65857   -62873   -54408 
  -44108   -34122   -23457   -10636     4752    12774     9314     6606 
    7651    10202    19317    30096    38207    50958    64911    72457 
   76559    75989    65198    47472    32755    26633    20610     6342 
    -970    11951    27881    29233    21479    15061    10659     4452 
   -4650   -14561   -18288   -10855    -1820     -651    -1702    -4980 
  -17457   -31717   -38814   -43030   -50705   -57694   -56380   -51650 
  -50158   -48601   -44388   -38501   -31070   -24670   -24475   -28699 
  -30175   -27088   -21110   -15012   -12636   -11346    -5814      462 
    3814     7838    11247     7917     -652    -6311    -3203     4896 
    6013    -1488    -2437    10281    23605    26747    26742    32885 
   42389    49569    55486    64569    76894    87835    95717   103245 
  111847   116900   115209   111774   105875    94707    87168    85253 
   79293    69164    60525    52653    44424    35728    25083    13721 
    6481     5883     5094     -893    -8279   -18933   -30703   -35417 
  -41112   -51820   -58345   -64044   -72410   -77505   -80942   -87852 
  -95116   -97984   -99937  -101511   -96225   -86369   -75134   -59692 
  -45248   -34222   -19833    -5805     2685     8686    10598    11182 
   15250    19802    26992    37334    46935    55615    59244    57979 
   58258    59351    58093    57467    63787    74284    80306    82961 
   85848    89325    93551    94234    90234    87556    86830    81498 
   71136    64034    63390    63979    59725    50637    43403    37124 
   26734    18361    14044     5931    -5487   -14246   -19427   -24304 
  -28824   -25609   -15941   -12685   -18857   -26155   -30509   -35495 
  -43526   -51607   -56613   -58709   -59312   -58421   -57451   -58073 
  -56467   -51460   -47854   -44424   -35779   -23365   -12952    -6936 
   -3513      -85     4187     8277    12282    18788    25616    28660 
   32718    40058    44935    45253    43141    43801    47720    49255 
   51973    59219    64437    67091    70674    72257    69306    61436 
   47133    29715    18675    16253    11918     2452     -848     4437 
    8025     6963     6506     5874     -369   -11281   -21982   -29127 
  -31826   -33855   -36115   -31354   -17946    -5678     -587      586 
    -961    -7358   -15284   -19816   -22276   -23471   -19816   -12263 
