Origin Time       2016/04/16 01:25:00
Lat.              32.753
Long.             130.762
Depth. (km)       12
Mag.              7.3
Station Code      KNG206
Station Lat.      35.0966
Station Long.     139.3778
Station Height(m) -1130
Record Time       2016/04/16 01:29:41
Sampling Freq(Hz) 100Hz
Duration Time(s)  64
Dir.              N-S
Scale Factor      2000(gal)/6182761
Max. Acc. (gal)   1.985
Last Correction   2016/04/16 01:29:42
Memo.             
[...]
   -2590    -2599    -2614    -2628    -2635    -2643    -2645    -2643 
   -2650    -2659    -2658    -2652    -2649    -2641    -2623    -2611 
   -2598    -2573    -2547    -2518    -2485    -2446    -2398    -2348 
   -2302    -2255    -2193    -2129    -2072    -1997    -1919    -1851 
   -1760    -1653    -1562    -1476    -1384    -1280    -1167    -1060 
    -952     -834     -721     -612     -498     -378     -243      -85 
      97      275      397      486      617      763      878      995 
    1123     1248     1363     1475     1594     1701     1799     1911 
    2020     2116     2219     2318     2402     2494     2592     2674 
    2753     2847     2933     2997     3056     3119     3185     3254 
    3313     3368     3422     3472     3530     3575     3604     3647 
    3690     3722     3755     3776     3790     3816     3835     3846 
    3856     3862     3871     3877     3874     3867     3863     3865 
    3861     3842     3830     3820     3793     3772     3760     3735 
    3703     3680     3656     3623     3590     3556     3515     3476 
    3442     3401     3359     3318     3275     3232     3183     3135 
    3096     3055     3014     2974     2928     2871     2809     2754 
    2702     2640     2572     2508     2449     2383     2311     2244 
    2172     2084     1995     1916     1843     1760     1663     1570 
    1475     1371     1267     1160     1046      929      814      701 
     584      461      340      216       66     -118     -321     -476 
    -566     -687     -841     -960    -1091    -1239    -1353    -1470 
   -1612    -1750    -1874    -1993    -2118    -2242    -2360    -2478 
   -2590    -2692    -2797    -2907    -3005    -3102    -3208    -3297 
   -3376    -3467    -3552    -3627    -3697    -3758    -3818    -3882 
   -3939    -3987    -4038    -4084    -4115    -4156    -4198    -4221 
   -4244    -4263    -4278    -4303    -4317    -4320    -4324    -4331 
   -4331    -4320    -4315    -4308    -4288    -4272    -4255    -4229 
   -4209    -4190    -4154    -4111    -4073    -4035    -3995    -3954 
   -3899    -3841    -3793    -3737    -3674    -3616    -3555    -3485 
   -3419    -3346    -3259    -3180    -3107    -3029    -2948    -2868 
   -2789    -2705    -2610    -2519    -2437    -2347    -2251    -2161 
   -2064    -1965    -1880    -1792    -1693    -1599    -1509    -1416 
   -1325    -1239    -1149    -1054     -958     -868     -784     -703 
    -618     -535     -460     -378     -286     -200      -94       44 
     174      249      292      371      459      519      599      680 
     738      803      871      941     1009     1067     1130     1195 
    1249     1305     1370     1427     1481     1539     1586     1627 
    1677     1720     1750     1793     1842     1869     1888     1916 
    1944     1968     1980     1983     1995     2010     2021     2028 
    2025     2015     2001     1988     1975     1960     1948     1931 
    1906     1885     1858     1824     1802     1775     1732     1694 
    1659     1627     1600     1561     1517     1481     1439     1395 
    1355     1313     1268     1230     1198     1158     1110     1074 
    1043      998      955      928      895      854      822      788 
     758      737      701      671      659      630      598      584 
     563      536      520      501      482      472      460      446 
     435      418      411      419      415      403      401      407 
     415      424      431      446      468      477      483      506 
     540      570      592      615      648      683      717      745 
     768      803      850      883      911      948      985     1017 
    1051     1095     1137     1162     1192     1236     1278     1313 
    1351     1387     1425     1469     1507     1537     1573     1614 
    1651     1687     1723     1757     1796     1839     1866     1886 
    1925     1968     2002     2034     2058     2087     2128     2162 
    2183     2203     2238     2272     2291     2323     2358     2377 
    2401     2434     2462     2491     2522     2542     2562     2594 
    2625     2645     2668     2696     2713     2732     2761     2787 
    2805     2820     2836     2851     2863     2880     2895     2899 
    2905     2913     2914     2917     2923     2921     2918     2915 
    2910     2906     2899     2893     2884     2871     2863     2855 
    2840     2826     2821     2812     2790     2770     2762     2754 
    2738     2721     2709     2698     2687     2675     2664     2655 
    2640     2624     2613     2604     2599     2598     2591     2576 
    2568     2563     2552     2542     2534     2519     2508     2501 
    2487     2469     2453     2434     2410     2393     2382     2361 
    2337     2308     2276     2257     2235     2199     2165     2129 
    2089     2048     2010     1978     1938     1888     1843     1798 
    1743     1687     1628     1565     1507     1449     1377     1301 
    1238     1175     1097     1021      948      871      801      729 
     651      570      485      403      327      253      163       64 
     -47     -202     -337     -393     -462     -575     -649     -711 
    -807     -896     -977    -1068    -1157    -1240    -1327    -1419 
   -1501    -1581    -1673    -1761    -1838    -1918    -2002    -2083 
   -2160    -2231    -2300    -2379    -2455    -2517    -2584    -2651 
   -2711    -2773    -2825    -2877    -2938    -2989    -3038    -3100 
   -3146    -3183    -3233    -3280    -3315    -3349    -3384    -3414 
   -3445    -3481    -3511    -3528    -3540    -3558    -3586    -3608 
   -3615    -3616    -3615    -3616    -3619    -3619    -3616    -3616 
   -3603    -3580    -3569    -3558    -3536    -3514    -3493    -3472 
   -3450    -3425    -3393    -3358    -3331    -3298    -3258    -3229 
   -3196    -3151    -3108    -3065    -3018    -2968    -2917    -2870 
   -2824    -2779    -2727    -2662    -2599    -2544    -2486    -2423 
   -2356    -2293    -2235    -2163    -2085    -2024    -1957    -1870 
   -1792    -1726    -1645    -1562    -1494    -1417    -1334    -1267 
   -1190    -1103    -1033     -954     -869     -803     -736     -667 
    -609     -547     -479     -417     -357     -301     -242     -174 
    -101       -3      109      165      181      236      302      325 
     353      402      436      471      516      548      569      597 
     630      657      682      703      717      732      751      764 
     774      782      781      777      785      787      771      760 
     758      749      732      715      708      688      655      635 
     615      589      575      554      525      511      494      463 
     445      436      419      401      395      384      363      351 
     346      343      342      335      330      330      325      323 
     335      342      343      346      350      361      375      383 
     393      404      412      422      441      461      473      487 
     504      519      533      551      572      584      595      610 
     627      646      660      671      681      689      708      725 
     726      731      742      747      755      758      757      765 
     775      777      773      765      763      764      769      764 
     751      751      751      735      724      720      712      704 
     691      679      672      660      643      622      604      592 
     574      557      540      517      496      479      459      436 
     412      394      371      339      319      303      275      244 
     211      182      163      140      107       70       17      -66 
    -157     -198     -211     -258     -306     -328     -368     -413 
    -446     -489     -529     -558     -595     -640     -674     -701 
    -739     -781     -824     -866     -904     -951     -992    -1014 
   -1046    -1090    -1127    -1157    -1187    -1221    -1251    -1280 
   -1309    -1329    -1355    -1390    -1413    -1434    -1459    -1481 
   -1502    -1519    -1539    -1561    -1578    -1594    -1613    -1633 
   -1646    -1655    -1683    -1697    -1691    -1706    -1728    -1740 
   -1751    -1755    -1753    -1762    -1778    -1785    -1789    -1795 
   -1790    -1788    -1804    -1806    -1796    -1805    -1819    -1815 
   -1810    -1812    -1814    -1813    -1807    -1803    -1802    -1798 
   -1789    -1779    -1776    -1776    -1767    -1754    -1748    -1737 
   -1720    -1707    -1697    -1683    -1668    -1657    -1641    -1622 
   -1611    -1600    -1583    -1561    -1539    -1527    -1509    -1483 
   -1461    -1441    -1425    -1412    -1395    -1380    -1359    -1334 
   -1317    -1295    -1267    -1242    -1221    -1204    -1186    -1165 
   -1140    -1117    -1101    -1086    -1068    -1050    -1037    -1026 
   -1007     -989     -972     -955     -953     -948     -933     -930 
    -921     -900     -889     -882     -874     -864     -847     -838 
    -836     -821     -797     -777     -762     -749     -734     -719 
    -698     -677     -664     -647     -621     -600     -588     -578 
    -559     -533     -510     -488     -465     -449     -436     -421 
    -393     -372     -369     -352     -327     -324     -315     -292 
    -278     -269     -260     -244     -221     -210     -203     -195 
    -191     -179     -167     -164     -156     -144     -140     -139 
    -143     -145     -140     -139     -139     -140     -148     -159 
    -163     -162     -175     -193     -204     -219     -239     -257 
    -272     -290     -313     -335     -360     -391     -424     -455 
    -484     -514     -544     -585     -626     -649     -676     -712 
    -750     -798     -841     -878     -927     -970    -1009    -1065 
   -1112    -1147    -1194    -1242    -1284    -1337    -1388    -1426 
   -1469    -1516    -1563    -1617    -1666    -1709    -1757    -1806 
   -1854    -1901    -1945    -1992    -2037    -2075    -2122    -2174 
   -2215    -2251    -2291    -2326    -2355    -2388    -2429    -2466 
   -2490    -2510    -2528    -2544    -2562    -2577    -2580    -2577 
   -2581    -2590    -2585    -2560    -2543    -2541    -2526    -2499 
   -2476    -2449    -2413    -2379    -2356    -2327    -2273    -2224 
   -2192    -2148    -2099    -2056    -2000    -1943    -1900    -1848 
   -1780    -1721    -1669    -1604    -1542    -1485    -1419    -1365 
   -1314    -1248    -1188    -1135    -1073    -1013     -956     -901 
    -840     -775     -725     -671     -612     -560     -500     -443 
    -397     -338     -269     -210     -149      -49       85      173 
     207      261      327      374      431      494      555      625 
     688      746      806      863      922      981     1033     1085 
    1139     1193     1248     1297     1342     1391     1435     1475 
    1520     1552     1568     1593     1629     1664     1689     1700 
    1722     1757     1773     1786     1808     1824     1838     1854 
    1869     1879     1885     1896     1906     1912     1923     1934 
    1935     1930     1925     1926     1928     1920     1913     1908 
    1885     1867     1864     1849     1826     1807     1780     1750 
    1730     1709     1686     1652     1607     1581     1551     1506 
    1474     1434     1380     1337     1292     1246     1202     1153 
    1107     1056     1004      958      908      857      807      754 
     703      643      586      540      480      425      379      312 
     241      182      118       34      -89     -211     -278     -326 
    -404     -486     -540     -604     -686     -749     -818     -908 
    -982    -1051    -1137    -1214    -1283    -1369    -1453    -1521 
   -1596    -1687    -1768    -1836    -1915    -2000    -2071    -2138 
   -2211    -2282    -2349    -2427    -2504    -2562    -2620    -2690 
   -2759    -2819    -2869    -2923    -2984    -3042    -3103    -3168 
   -3226    -3282    -3335    -3381    -3436    -3492    -3533    -3580 
   -3628    -3670    -3717    -3763    -3803    -3842    -3877    -3911 
   -3945    -3977    -4006    -4022    -4035    -4063    -4089    -4097 
   -4107    -4116    -4119    -4124    -4124    -4111    -4106    -4102 
   -4083    -4064    -4046    -4024    -4004    -3976    -3942    -3913 
   -3883    -3849    -3816    -3781    -3739    -3692    -3657    -3626 
   -3586    -3545    -3498    -3454    -3412    -3357    -3305    -3259 
   -3206    -3156    -3105    -3045    -2985    -2927    -2873    -2817 
   -2757    -2697    -2623    -2549    -2489    -2421    -2347    -2273 
   -2197    -2129    -2058    -1969    -1893    -1833    -1753    -1663 
   -1582    -1501    -1424    -1348    -1270    -1190    -1100    -1013 
    -931     -840     -746     -663     -580     -488     -385     -280 
    -170      -24      155      294      376      480      610      708 
     814      946     1063     1174     1288     1411     1540     1649 
    1751     1865     1979     2099     2211     2306     2410     2528 
    2639     2733     2832     2945     3046     3137     3232     3325 
    3415     3506     3608     3707     3785     3869     3965     4057 
    4148     4232     4308     4393     4481     4554     4619     4689 
    4767     4840     4905     4970     5037     5105     5167     5224 
    5280     5324     5370     5427     5473     5521     5573     5611 
    5648     5683     5710     5742     5770     5789     5802     5817 
    5840     5846     5844     5852     5847     5831     5810     5784 
    5765     5734     5691     5662     5623     5568     5519     5465 
    5403     5336     5260     5188     5110     5018     4925     4834 
    4741     4643     4540     4433     4311     4181     4065     3951 
    3829     3697     3568     3441     3304     3165     3028     2888 
    2745     2591     2440     2303     2152     1991     1836     1681 
    1533     1381     1212     1048      900      747      586      429 
     276      109      -98     -328     -500     -609     -754     -925 
   -1063    -1205    -1359    -1493    -1630    -1777    -1919    -2051 
   -2170    -2294    -2426    -2554    -2671    -2776    -2879    -2987 
   -3093    -3191    -3285    -3386    -3482    -3566    -3641    -3712 
   -3786    -3854    -3917    -3988    -4042    -4076    -4127    -4183 
   -4219    -4251    -4282    -4305    -4325    -4337    -4343    -4354 
   -4358    -4355    -4349    -4334    -4315    -4298    -4277    -4249 
   -4215    -4173    -4128    -4077    -4022    -3971    -3917    -3851 
   -3772    -3694    -3623    -3545    -3463    -3383    -3293    -3192 
   -3097    -3008    -2914    -2820    -2736    -2635    -2524    -2430 
   -2331    -2217    -2116    -2021    -1912    -1797    -1684    -1578 
   -1477    -1374    -1269    -1163    -1062     -963     -855     -748 
    -651     -555     -458     -362     -258     -137        2      161 
     280      328      408      524      591      659      758      830 
     892      965     1044     1116     1175     1242     1315     1377 
    1442     1504     1557     1612     1660     1706     1759     1809 
    1855     1892     1922     1970     2018     2049     2086     2121 
    2144     2173     2210     2236     2256     2287     2322     2344 
    2364     2393     2422     2444     2462     2494     2528     2548 
    2569     2596     2624     2651     2677     2709     2742     2763 
    2785     2817     2848     2873     2902     2931     2954     2981 
    3005     3022     3044     3061     3069     3084     3106     3119 
    3128     3142     3151     3156     3165     3168     3167     3169 
    3171     3168     3158     3151     3150     3138     3124     3123 
    3115     3095     3080     3064     3049     3038     3021     3003 
    2987     2968     2944     2921     2893     2852     2820     2796 
    2756     2714     2688     2657     2620     2586     2547     2501 
    2453     2411     2374     2330     2281     2234     2187     2138 
    2091     2043     1989     1937     1885     1835     1782     1726 
    1674     1620     1558     1504     1452     1385     1312     1251 
    1191     1127     1062     1000      941      880      818      755 
     690      632      572      509      457      404      345      292 
     239      183      127       64      -18     -130     -233     -276 
    -299     -360     -419     -461     -521     -576     -613     -660 
    -708     -751     -809     -862     -900     -958    -1019    -1056 
   -1101    -1155    -1197    -1240    -1284    -1324    -1362    -1406 
   -1447    -1476    -1508    -1551    -1592    -1630    -1667    -1704 
   -1743    -1780    -1824    -1865    -1897    -1938    -1979    -2015 
   -2057    -2098    -2135    -2173    -2215    -2255    -2287    -2324 
   -2369    -2400    -2426    -2463    -2497    -2534    -2572    -2599 
   -2618    -2647    -2681    -2707    -2725    -2740    -2754    -2777 
   -2807    -2820    -2831    -2858    -2881    -2886    -2893    -2913 
   -2930    -2933    -2943    -2956    -2957    -2960    -2973    -2981 
   -2981    -2979    -2973    -2969    -2970    -2966    -2955    -2946 
   -2940    -2934    -2929    -2916    -2897    -2891    -2887    -2873 
   -2857    -2844    -2836    -2829    -2820    -2810    -2797    -2787 
   -2785    -2779    -2766    -2755    -2751    -2748    -2740    -2728 
   -2714    -2705    -2698    -2683    -2666    -2660    -2649    -2622 
   -2605    -2596    -2567    -2543    -2531    -2509    -2482    -2458 
   -2435    -2411    -2381    -2348    -2314    -2291    -2266    -2225 
   -2194    -2172    -2138    -2106    -2077    -2040    -2005    -1974 
   -1944    -1914    -1880    -1842    -1805    -1773    -1740    -1707 
   -1672    -1632    -1596    -1572    -1542    -1494    -1454    -1437 
   -1415    -1382    -1361    -1334    -1298    -1274    -1246    -1208 
   -1181    -1156    -1124    -1094    -1068    -1045    -1019     -986 
    -949     -912     -881     -860     -840     -803     -754     -717 
    -692     -675     -658     -628     -591     -559     -531     -506 
    -476     -436     -408     -393     -367     -327     -299     -287 
    -265     -230     -201     -179     -158     -137      -98      -27 
      45       79       80       89      121      138      142      154 
     172      189      199      209      219      227      240      251 
     260      268      272      281      289      289      294      298 
     287      285      287      281      278      277      274      269 
     255      248      249      236      221      208      195      190 
     179      155      139      134      125      113      104       85 
      62       49       24      -40     -104     -127     -134     -164 
    -188     -199     -222     -237     -247     -271     -289     -304 
    -325     -343     -359     -378     -402     -420     -432     -453 
    -476     -488     -507     -528     -540     -571     -603     -612 
    -625     -647     -668     -692     -708     -727     -755     -784 
    -816     -842     -857     -881     -914     -938     -955     -975 
   -1001    -1030    -1049    -1059    -1078    -1101    -1111    -1122 
   -1145    -1156    -1159    -1182    -1205    -1204    -1204    -1220 
   -1238    -1247    -1247    -1251    -1266    -1276    -1276    -1280 
