Origin Time       2016/04/16 01:25:00
Lat.              32.753
Long.             130.762
Depth. (km)       12
Mag.              7.3
Station Code      KNG206
Station Lat.      35.0966
Station Long.     139.3778
Station Height(m) -1130
Record Time       2016/04/16 01:29:41
Sampling Freq(Hz) 100Hz
Duration Time(s)  64
Dir.              E-W
Scale Factor      2000(gal)/6182761
Max. Acc. (gal)   1.733
Last Correction   2016/04/16 01:29:42
Memo.             
[...]
    -319     -319     -326     -323     -319     -318     -313     -302 
    -298     -298     -291     -293     -297     -289     -291     -291 
    -281     -284     -285     -279     -280     -282     -272     -263 
    -269     -270     -263     -260     -249     -237     -227     -209 
    -195     -183     -162     -144     -118      -72      -11       66 
     128      143      156      198      231      254      288      324 
     357      392      428      459      492      527      558      589 
     618      645      676      712      745      769      799      833 
     853      875      905      932      961      985     1007     1036 
    1058     1077     1106     1129     1149     1175     1200     1227 
    1247     1266     1293     1322     1347     1365     1389     1412 
    1422     1445     1477     1489     1497     1512     1525     1541 
    1556     1568     1575     1575     1580     1588     1594     1600 
    1600     1604     1611     1598     1590     1596     1587     1580 
    1576     1561     1554     1540     1511     1493     1473     1441 
    1409     1373     1332     1297     1262     1209     1155     1109 
    1056     1000      939      870      807      747      675      599 
     536      476      403      320      238      154       55      -78 
    -239     -351     -402     -493     -614     -693     -783     -892 
    -982    -1074    -1168    -1262    -1359    -1445    -1533    -1632 
   -1728    -1808    -1889    -1981    -2066    -2142    -2220    -2296 
   -2371    -2438    -2501    -2566    -2621    -2669    -2725    -2778 
   -2827    -2877    -2916    -2948    -2989    -3035    -3068    -3087 
   -3114    -3147    -3171    -3196    -3214    -3219    -3232    -3250 
   -3255    -3253    -3257    -3262    -3263    -3260    -3255    -3254 
   -3247    -3232    -3225    -3222    -3204    -3186    -3171    -3152 
   -3133    -3112    -3090    -3069    -3045    -3014    -2983    -2959 
   -2930    -2899    -2872    -2836    -2796    -2759    -2722    -2687 
   -2643    -2594    -2564    -2530    -2482    -2441    -2395    -2340 
   -2286    -2226    -2174    -2129    -2070    -2009    -1964    -1918 
   -1855    -1798    -1747    -1681    -1618    -1564    -1506    -1443 
   -1387    -1338    -1283    -1224    -1166    -1109    -1063    -1014 
    -958     -916     -873     -817     -774     -737     -691     -656 
    -630     -583     -543     -524     -491     -453     -432     -404 
    -373     -345     -315     -302     -293     -260     -234     -222 
    -200     -168     -140     -109      -41       66      120       96 
     112      175      185      186      226      246      261      288 
     299      310      334      349      361      379      401      418 
     432      448      464      482      504      519      529      551 
     576      590      603      621      635      656      692      723 
     748      768      789      819      846      867      893      918 
     933      954      983     1007     1027     1045     1062     1082 
    1100     1112     1122     1128     1137     1147     1147     1152 
    1166     1165     1158     1167     1175     1172     1169     1164 
    1160     1156     1152     1155     1151     1148     1157     1156 
    1147     1143     1135     1129     1125     1110     1098     1093 
    1081     1065     1048     1025     1003      987      962      932 
     909      885      849      816      788      746      703      671 
     636      598      563      524      482      438      394      355 
     315      272      236      200      155      105       43      -47 
    -150     -207     -208     -242     -298     -320     -362     -406 
    -415     -456     -509     -526     -550     -587     -616     -639 
    -671     -712     -738     -757     -787     -818     -853     -886 
    -911     -942     -978    -1011    -1037    -1063    -1089    -1115 
   -1147    -1177    -1207    -1242    -1269    -1292    -1324    -1353 
   -1377    -1406    -1433    -1456    -1482    -1513    -1548    -1574 
   -1595    -1626    -1653    -1682    -1714    -1736    -1761    -1792 
   -1817    -1846    -1876    -1903    -1937    -1968    -1989    -2016 
   -2048    -2076    -2102    -2127    -2142    -2156    -2182    -2206 
   -2221    -2241    -2259    -2274    -2293    -2304    -2308    -2318 
   -2327    -2330    -2337    -2339    -2334    -2339    -2351    -2350 
   -2345    -2348    -2349    -2346    -2342    -2340    -2342    -2339 
   -2336    -2335    -2330    -2326    -2327    -2326    -2321    -2312 
   -2304    -2302    -2292    -2274    -2264    -2260    -2248    -2234 
   -2219    -2202    -2183    -2165    -2151    -2135    -2116    -2098 
   -2077    -2055    -2041    -2019    -1993    -1975    -1953    -1928 
   -1904    -1878    -1855    -1831    -1805    -1783    -1752    -1717 
   -1688    -1658    -1622    -1576    -1531    -1494    -1445    -1387 
   -1342    -1298    -1238    -1173    -1114    -1057     -991     -922 
    -849     -763     -682     -613     -539     -460     -373     -278 
    -179      -59       88      232      317      382      490      590 
     664      762      857      940     1040     1141     1236     1331 
    1423     1521     1622     1715     1800     1884     1970     2061 
    2156     2248     2336     2419     2501     2594     2685     2765 
    2845     2924     3007     3090     3155     3218     3294     3367 
    3426     3479     3538     3592     3639     3696     3748     3782 
    3818     3855     3890     3919     3945     3978     4002     4015 
    4036     4049     4049     4053     4061     4065     4065     4062 
    4058     4048     4033     4016     3999     3979     3952     3916 
    3884     3856     3821     3780     3738     3699     3653     3600 
    3556     3510     3448     3383     3325     3267     3202     3131 
    3068     3009     2942     2871     2805     2734     2658     2594 
    2539     2470     2400     2345     2286     2215     2153     2102 
    2047     1995     1943     1888     1849     1812     1760     1718 
    1685     1644     1605     1568     1533     1501     1462     1428 
    1397     1361     1332     1310     1280     1248     1220     1190 
    1160     1134     1111     1083     1057     1029      994      962 
     935      900      861      835      809      771      738      702 
     651      611      586      549      499      455      414      371 
     328      282      237      194      149       94       12     -108 
    -218     -256     -271     -340     -404     -431     -485     -537 
    -566     -613     -665     -700     -737     -785     -830     -870 
    -909     -941     -972     -998    -1019    -1048    -1077    -1097 
   -1119    -1139    -1150    -1165    -1188    -1200    -1203    -1216 
   -1230    -1235    -1241    -1249    -1256    -1260    -1260    -1263 
   -1266    -1263    -1267    -1272    -1268    -1266    -1268    -1266 
   -1259    -1255    -1256    -1250    -1244    -1243    -1238    -1229 
   -1228    -1222    -1207    -1202    -1200    -1191    -1185    -1180 
   -1176    -1170    -1155    -1147    -1144    -1134    -1129    -1128 
   -1116    -1109    -1110    -1105    -1098    -1090    -1083    -1075 
   -1067    -1060    -1051    -1036    -1022    -1011    -1000     -989 
    -976     -962     -942     -916     -899     -891     -871     -845 
    -827     -810     -789     -769     -751     -729     -711     -695 
    -673     -651     -632     -610     -590     -573     -552     -531 
    -513     -497     -476     -439     -408     -395     -369     -336 
    -316     -296     -268     -241     -212     -181     -155     -123 
     -75       -9       82      142      131      136      184      204 
     213      241      264      287      310      329      352      368 
     383      406      423      437      464      483      490      506 
     526      538      549      564      579      592      606      620 
     632      639      648      654      653      665      681      681 
     685      698      700      703      708      697      691      697 
     692      680      676      665      648      638      627      612 
     592      571      552      528      500      477      454      418 
     386      363      326      283      249      213      170      124 
      79       14     -100     -218     -258     -273     -346     -411 
    -446     -511     -579     -628     -686     -756     -825     -885 
    -951    -1023    -1090    -1154    -1219    -1292    -1364    -1431 
   -1503    -1585    -1667    -1740    -1808    -1887    -1965    -2036 
   -2116    -2191    -2258    -2336    -2417    -2488    -2552    -2612 
   -2674    -2738    -2804    -2864    -2920    -2975    -3028    -3082 
   -3140    -3195    -3240    -3281    -3319    -3351    -3386    -3420 
   -3447    -3477    -3504    -3523    -3543    -3559    -3574    -3588 
   -3593    -3606    -3621    -3619    -3617    -3618    -3614    -3617 
   -3616    -3599    -3584    -3567    -3545    -3534    -3522    -3501 
   -3477    -3451    -3424    -3395    -3363    -3326    -3292    -3270 
   -3236    -3190    -3166    -3139    -3091    -3060    -3036    -2999 
   -2967    -2940    -2909    -2880    -2855    -2834    -2814    -2791 
   -2768    -2749    -2728    -2701    -2683    -2668    -2643    -2623 
   -2611    -2599    -2588    -2575    -2564    -2553    -2538    -2522 
   -2503    -2496    -2495    -2484    -2470    -2457    -2449    -2451 
   -2447    -2441    -2440    -2436    -2431    -2432    -2444    -2451 
   -2452    -2459    -2466    -2478    -2495    -2499    -2502    -2514 
   -2525    -2537    -2541    -2545    -2558    -2565    -2570    -2583 
   -2590    -2593    -2606    -2620    -2627    -2639    -2654    -2666 
   -2677    -2684    -2688    -2694    -2712    -2728    -2728    -2736 
   -2753    -2760    -2769    -2784    -2795    -2806    -2819    -2829 
   -2833    -2843    -2866    -2875    -2871    -2880    -2888    -2892 
   -2908    -2911    -2903    -2907    -2913    -2911    -2907    -2903 
   -2897    -2893    -2893    -2887    -2870    -2850    -2838    -2833 
   -2820    -2799    -2782    -2775    -2762    -2733    -2710    -2699 
   -2679    -2655    -2641    -2621    -2599    -2589    -2572    -2551 
   -2543    -2522    -2493    -2484    -2476    -2457    -2441    -2428 
   -2417    -2409    -2399    -2386    -2377    -2379    -2376    -2369 
   -2373    -2373    -2375    -2389    -2397    -2396    -2411    -2437 
   -2445    -2444    -2470    -2501    -2513    -2528    -2552    -2574 
   -2590    -2608    -2631    -2656    -2681    -2709    -2742    -2778 
   -2812    -2839    -2870    -2906    -2933    -2964    -3010    -3055 
   -3093    -3136    -3181    -3222    -3260    -3301    -3339    -3376 
   -3413    -3450    -3489    -3524    -3556    -3593    -3624    -3646 
   -3676    -3705    -3723    -3745    -3772    -3792    -3803    -3817 
   -3836    -3841    -3842    -3851    -3853    -3851    -3855    -3858 
   -3850    -3845    -3849    -3842    -3828    -3824    -3819    -3808 
   -3792    -3782    -3780    -3763    -3739    -3724    -3707    -3689 
   -3672    -3649    -3625    -3604    -3583    -3554    -3527    -3507 
   -3473    -3437    -3418    -3385    -3339    -3306    -3278    -3241 
   -3201    -3171    -3144    -3102    -3055    -3021    -2993    -2957 
   -2912    -2870    -2840    -2811    -2780    -2750    -2715    -2677 
   -2647    -2626    -2600    -2568    -2542    -2521    -2491    -2457 
   -2431    -2407    -2375    -2347    -2319    -2285    -2257    -2236 
   -2215    -2184    -2158    -2149    -2124    -2087    -2064    -2045 
   -2027    -2005    -1975    -1950    -1924    -1888    -1858    -1833 
   -1800    -1770    -1736    -1698    -1669    -1629    -1579    -1544 
   -1506    -1463    -1426    -1381    -1337    -1299    -1254    -1204 
   -1152    -1100    -1057    -1016     -957     -898     -852     -794 
    -734     -687     -640     -590     -534     -475     -421     -369 
    -312     -257     -196     -117      -25       95      212      249 
     270      354      419      452      519      577      621      683 
     740      795      855      913      972     1022     1075     1141 
    1197     1246     1313     1376     1425     1483     1547     1597 
    1643     1702     1758     1803     1852     1900     1941     1982 
    2029     2083     2123     2158     2202     2236     2268     2305 
    2332     2355     2381     2404     2425     2449     2472     2488 
    2501     2518     2534     2547     2558     2564     2569     2579 
    2585     2586     2602     2617     2610     2602     2606     2607 
    2610     2612     2605     2604     2609     2606     2601     2592 
    2580     2582     2586     2574     2561     2558     2557     2550 
    2543     2538     2533     2524     2516     2511     2511     2508 
    2502     2499     2501     2500     2499     2508     2516     2516 
    2521     2528     2537     2554     2573     2593     2613     2625 
    2642     2669     2692     2725     2762     2789     2825     2874 
    2914     2948     2990     3033     3079     3133     3178     3220 
    3274     3333     3387     3437     3490     3545     3603     3669 
    3725     3775     3838     3898     3954     4016     4075     4126 
    4176     4229     4284     4341     4397     4444     4480     4513 
    4554     4596     4628     4662     4701     4725     4743     4769 
    4795     4810     4824     4833     4838     4844     4842     4834 
    4831     4822     4812     4807     4793     4766     4742     4717 
    4690     4659     4625     4598     4561     4511     4474     4441 
    4395     4340     4283     4225     4172     4119     4063     4007 
    3945     3876     3812     3749     3683     3617     3542     3474 
    3413     3334     3254     3189     3115     3034     2961     2881 
    2790     2703     2627     2545     2456     2376     2295     2208 
    2133     2054     1963     1883     1807     1714     1627     1560 
    1487     1407     1331     1251     1173     1103     1035      977 
     914      838      778      728      673      620      569      526 
     479      428      391      362      323      283      245      214 
     191      161      132      111       93       71       37       -9 
     -54      -99     -114      -88      -78      -81      -36       42 
      88       87       98      135      156      187      226      257 
     302      345      381      432      490      545      590      632 
     695      757      807      866      928      985     1049     1111 
    1167     1231     1294     1352     1415     1480     1539     1595 
    1644     1687     1736     1791     1840     1888     1935     1977 
    2016     2058     2106     2149     2183     2221     2254     2274 
    2297     2329     2357     2372     2389     2411     2415     2418 
    2435     2442     2436     2438     2440     2432     2422     2417 
    2403     2379     2363     2351     2329     2299     2264     2234 
    2206     2170     2134     2088     2040     2005     1957     1894 
    1847     1795     1728     1671     1611     1543     1475     1399 
    1316     1231     1147     1071      989      901      810      715 
     620      528      441      344      232      126       -7     -190 
    -351     -445     -532     -656     -766     -868     -995    -1102 
   -1201    -1326    -1439    -1547    -1672    -1783    -1888    -2010 
   -2127    -2228    -2333    -2451    -2559    -2654    -2757    -2860 
   -2953    -3058    -3166    -3260    -3358    -3459    -3547    -3631 
   -3715    -3796    -3885    -3970    -4040    -4113    -4190    -4248 
   -4297    -4369    -4433    -4470    -4525    -4586    -4625    -4671 
   -4720    -4752    -4777    -4795    -4815    -4837    -4852    -4862 
   -4863    -4864    -4872    -4866    -4856    -4851    -4833    -4805 
   -4777    -4749    -4716    -4682    -4645    -4598    -4548    -4503 
   -4455    -4398    -4334    -4276    -4222    -4165    -4105    -4039 
   -3966    -3904    -3844    -3768    -3689    -3621    -3548    -3471 
   -3392    -3306    -3238    -3175    -3088    -3001    -2922    -2845 
   -2777    -2705    -2618    -2544    -2482    -2410    -2330    -2253 
   -2178    -2103    -2036    -1970    -1894    -1819    -1756    -1699 
   -1632    -1564    -1508    -1448    -1391    -1347    -1298    -1245 
   -1197    -1161    -1124    -1076    -1033     -999     -961     -922 
    -886     -848     -814     -781     -742     -711     -688     -648 
    -611     -598     -571     -533     -509     -487     -460     -435 
    -410     -387     -364     -344     -332     -311     -286     -273 
    -258     -236     -222     -209     -192     -184     -172     -148 
    -130     -119      -99      -68      -13       38       60       94 
     121      110      126      147      136      152      171      170 
     181      190      198      206      201      199      200      202 
     208      206      198      189      181      176      162      141 
     125      113       98       73       27      -50     -138     -175 
    -179     -213     -249     -270     -308     -337     -361     -395 
    -424     -459     -500     -540     -575     -605     -642     -675 
    -700     -736     -767     -799     -839     -867     -902     -948 
    -975    -1000    -1034    -1058    -1074    -1094    -1118    -1143 
   -1172    -1194    -1207    -1220    -1237    -1257    -1275    -1287 
   -1301    -1317    -1331    -1339    -1336    -1341    -1358    -1368 
   -1365    -1361    -1374    -1392    -1393    -1390    -1397    -1407 
   -1421    -1437    -1441    -1442    -1453    -1473    -1491    -1505 
   -1516    -1530    -1553    -1576    -1591    -1610    -1637    -1658 
   -1676    -1697    -1715    -1739    -1777    -1801    -1812    -1841 
   -1876    -1896    -1920    -1955    -1989    -2019    -2050    -2081 
   -2112    -2142    -2173    -2212    -2249    -2272    -2298    -2336 
   -2374    -2408    -2437    -2471    -2506    -2531    -2555    -2585 
   -2609    -2631    -2661    -2685    -2706    -2734    -2752    -2768 
   -2797    -2822    -2838    -2861    -2886    -2906    -2923    -2949 
   -2977    -3000    -3027    -3052    -3071    -3096    -3118    -3140 
   -3172    -3198    -3212    -3230    -3251    -3273    -3287    -3291 
   -3308    -3335    -3347    -3353    -3365    -3374    -3383    -3393 
   -3393    -3388    -3400    -3411    -3406    -3409    -3415    -3413 
   -3414    -3417    -3415    -3410    -3411    -3408    -3400    -3404 
   -3404    -3394    -3392    -3389    -3383    -3381    -3378    -3373 
   -3369    -3371    -3369    -3359    -3357    -3364    -3359    -3352 
   -3349    -3342    -3335    -3335    -3339    -3336    -3322    -3313 
   -3306    -3291    -3280    -3268    -3244    -3223    -3209    -3187 
   -3158    -3133    -3111    -3081    -3044    -3007    -2971    -2940 
   -2909    -2870    -2840    -2814    -2769    -2723    -2680    -2632 
   -2589    -2553    -2513    -2465    -2413    -2357    -2308    -2265 
   -2212    -2147    -2088    -2036    -1978    -1915    -1856    -1793 
   -1733    -1679    -1617    -1562    -1514    -1461    -1411    -1366 
   -1320    -1273    -1223    -1181    -1144    -1099    -1057    -1024 
