Origin Time       2016/04/16 01:25:00
Lat.              32.753
Long.             130.762
Depth. (km)       12
Mag.              7.3
Station Code      KNG205
Station Lat.      34.9413
Station Long.     139.4213
Station Height(m) -1486
Record Time       2016/04/16 01:29:34
Sampling Freq(Hz) 100Hz
Duration Time(s)  64
Dir.              E-W
Scale Factor      2000(gal)/6182761
Max. Acc. (gal)   1.691
Last Correction   2016/04/16 01:29:36
Memo.             
[...]
     988     1014     1027     1025     1034     1049     1059     1078 
    1096     1106     1113     1114     1123     1136     1145     1162 
    1177     1185     1198     1213     1225     1240     1259     1270 
    1278     1289     1306     1332     1360     1383     1396     1404 
    1418     1434     1459     1489     1505     1513     1526     1549 
    1572     1591     1608     1623     1634     1646     1654     1676 
    1711     1726     1731     1749     1754     1756     1774     1792 
    1806     1815     1815     1818     1822     1827     1839     1844 
    1832     1830     1834     1823     1819     1827     1821     1807 
    1795     1772     1749     1739     1735     1730     1713     1682 
    1654     1637     1614     1585     1564     1531     1493     1474 
    1449     1420     1398     1360     1322     1298     1256     1221 
    1204     1177     1152     1125     1086     1056     1027      991 
     967      940      901      869      834      794      777      762 
     728      697      661      622      602      586      572      552 
     519      496      474      445      436      431      405      380 
     363      353      348      349      341      313      294      284 
     272      266      261      255      241      220      209      204 
     195      182      165      152      148      134      116      110 
     103       88       72       52       34       15       -7      -22 
     -30      -58     -108     -138     -152     -177     -183     -178 
    -204     -229     -235     -247     -263     -272     -276     -290 
    -325     -345     -351     -364     -364     -373     -403     -421 
    -441     -465     -470     -477     -504     -527     -539     -553 
    -577     -599     -616     -635     -658     -683     -697     -705 
    -725     -737     -755     -804     -843     -867     -895     -912 
    -927     -956     -980    -1004    -1037    -1068    -1097    -1126 
   -1153    -1189    -1233    -1272    -1296    -1314    -1338    -1370 
   -1406    -1448    -1482    -1511    -1543    -1576    -1611    -1653 
   -1701    -1731    -1742    -1769    -1802    -1831    -1874    -1910 
   -1927    -1947    -1965    -1991    -2027    -2047    -2069    -2094 
   -2097    -2100    -2124    -2147    -2159    -2178    -2202    -2213 
   -2210    -2217    -2238    -2251    -2256    -2265    -2266    -2268 
   -2285    -2290    -2294    -2316    -2329    -2319    -2314    -2320 
   -2323    -2333    -2350    -2346    -2331    -2326    -2330    -2340 
   -2344    -2330    -2322    -2321    -2304    -2295    -2305    -2306 
   -2294    -2275    -2259    -2251    -2246    -2236    -2230    -2219 
   -2200    -2189    -2173    -2154    -2140    -2123    -2106    -2083 
   -2056    -2034    -2011    -1990    -1972    -1948    -1912    -1872 
   -1831    -1791    -1768    -1747    -1706    -1668    -1627    -1565 
   -1519    -1501    -1473    -1423    -1377    -1334    -1276    -1237 
   -1221    -1177    -1119    -1074    -1022     -968     -921     -881 
    -842     -794     -738     -686     -645     -606     -557     -516 
    -474     -414     -359     -315     -269     -228     -190     -133 
     -46       55      126      149      180      239      284      331 
     392      438      475      521      579      635      687      751 
     806      835      872      932      993     1056     1118     1165 
    1198     1231     1282     1348     1409     1472     1533     1577 
    1621     1676     1736     1802     1859     1905     1947     1989 
    2042     2104     2162     2217     2272     2315     2348     2399 
    2459     2505     2557     2607     2630     2664     2715     2761 
    2806     2851     2896     2934     2955     2979     3017     3052 
    3081     3109     3124     3137     3162     3192     3224     3248 
    3250     3242     3243     3253     3265     3269     3271     3268 
    3259     3256     3249     3239     3236     3215     3179     3145 
    3118     3100     3072     3038     3010     2965     2913     2870 
    2822     2772     2719     2666     2617     2552     2481     2432 
    2372     2297     2247     2188     2088     2017     1972     1895 
    1821     1765     1681     1584     1509     1446     1373     1298 
    1229     1152     1073     1004      933      870      806      728 
     654      584      515      455      397      344      286      216 
     149       97       37      -47     -140     -219     -264     -309 
    -375     -412     -442     -501     -547     -583     -623     -664 
    -694     -712     -746     -786     -822     -853     -871     -898 
    -915     -923     -959     -989    -1002    -1028    -1043    -1042 
   -1049    -1071    -1097    -1108    -1108    -1110    -1114    -1120 
   -1133    -1155    -1168    -1169    -1168    -1163    -1166    -1178 
   -1175    -1174    -1183    -1179    -1172    -1177    -1179    -1177 
   -1173    -1168    -1169    -1164    -1155    -1159    -1173    -1168 
   -1149    -1154    -1157    -1135    -1135    -1163    -1172    -1158 
   -1149    -1145    -1145    -1154    -1169    -1177    -1177    -1170 
   -1166    -1174    -1189    -1195    -1190    -1192    -1194    -1180 
   -1191    -1227    -1233    -1232    -1244    -1237    -1235    -1253 
   -1263    -1262    -1259    -1263    -1269    -1265    -1263    -1266 
   -1267    -1265    -1253    -1234    -1224    -1221    -1216    -1208 
   -1204    -1192    -1169    -1155    -1141    -1121    -1113    -1105 
   -1085    -1056    -1027    -1019    -1012     -984     -960     -936 
    -898     -867     -855     -840     -811     -775     -750     -725 
    -695     -689     -673     -632     -616     -598     -555     -533 
    -518     -487     -464     -438     -397     -379     -380     -366 
    -352     -349     -334     -317     -303     -284     -276     -274 
    -271     -275     -270     -262     -268     -276     -278     -284 
    -296     -292     -278     -292     -315     -322     -328     -338 
    -348     -356     -366     -394     -426     -434     -436     -454 
    -472     -485     -507     -542     -573     -588     -600     -627 
    -654     -668     -693     -719     -725     -734     -749     -769 
    -804     -831     -852     -883     -888     -881     -901     -921 
    -939     -954     -956     -974     -989     -986     -999    -1026 
   -1032    -1017    -1004    -1006    -1011    -1010    -1012    -1009 
    -989     -968     -952     -943     -942     -931     -909     -873 
    -833     -813     -794     -765     -738     -714     -681     -638 
    -603     -569     -538     -502     -445     -391     -353     -312 
    -258     -208     -172     -110      -12       80      133      156 
     205      276      325      378      436      473      524      586 
     622      672      747      804      856      908      945      993 
    1056     1104     1151     1207     1246     1278     1321     1373 
    1439     1491     1518     1551     1591     1621     1660     1712 
    1746     1766     1795     1830     1856     1877     1909     1941 
    1963     1990     2007     2016     2035     2052     2069     2091 
    2103     2109     2126     2146     2156     2166     2175     2172 
    2171     2176     2177     2178     2185     2193     2193     2195 
    2205     2213     2204     2204     2209     2187     2171     2178 
    2176     2176     2180     2176     2169     2159     2152     2152 
    2147     2135     2125     2113     2106     2104     2096     2090 
    2093     2089     2071     2044     2039     2047     2035     2026 
    2028     2010     1989     1984     1988     1986     1968     1949 
    1938     1930     1912     1890     1886     1880     1862     1854 
    1846     1830     1816     1794     1773     1758     1741     1717 
    1686     1669     1660     1633     1613     1600     1569     1540 
    1518     1492     1467     1434     1400     1375     1335     1286 
    1259     1230     1183     1149     1117     1066     1026      993 
     940      892      848      792      747      704      644      595 
     553      502      445      385      333      287      230      172 
     116       59       -9     -104     -203     -260     -292     -352 
    -417     -469     -523     -573     -626     -681     -718     -755 
    -805     -849     -890     -933     -977    -1022    -1062    -1093 
   -1124    -1164    -1199    -1231    -1267    -1297    -1321    -1342 
   -1370    -1396    -1407    -1426    -1452    -1472    -1499    -1514 
   -1518    -1537    -1552    -1560    -1583    -1600    -1603    -1617 
   -1626    -1629    -1646    -1655    -1653    -1666    -1677    -1667 
   -1670    -1683    -1687    -1697    -1705    -1707    -1707    -1704 
   -1707    -1707    -1702    -1705    -1711    -1713    -1709    -1709 
   -1711    -1707    -1696    -1682    -1669    -1654    -1641    -1630 
   -1614    -1595    -1568    -1548    -1542    -1524    -1487    -1450 
   -1421    -1401    -1381    -1352    -1322    -1292    -1257    -1221 
   -1187    -1149    -1114    -1085    -1055    -1018     -973     -935 
    -908     -877     -836     -798     -761     -718     -675     -627 
    -582     -549     -497     -438     -397     -345     -295     -265 
    -221     -164      -99        1       96      134      169      237 
     277      298      352      407      440      482      535      588 
     642      692      742      793      840      877      914      961 
    1002     1035     1083     1136     1169     1200     1244     1282 
    1313     1348     1376     1402     1434     1465     1495     1514 
    1529     1553     1563     1569     1587     1591     1594     1609 
    1614     1613     1612     1598     1589     1588     1573     1553 
    1533     1503     1477     1460     1437     1405     1359     1315 
    1275     1229     1183     1140     1088     1026      964      907 
     856      802      741      680      605      513      437      370 
     291      217      149       65      -56     -200     -298     -355 
    -437     -533     -615     -703     -785     -859     -942    -1009 
   -1066    -1143    -1225    -1309    -1390    -1448    -1507    -1583 
   -1648    -1713    -1777    -1815    -1855    -1912    -1958    -2012 
   -2077    -2125    -2176    -2227    -2262    -2291    -2323    -2357 
   -2389    -2417    -2443    -2464    -2485    -2505    -2520    -2536 
   -2550    -2555    -2553    -2555    -2567    -2573    -2572    -2567 
   -2551    -2531    -2524    -2523    -2511    -2487    -2466    -2444 
   -2414    -2386    -2361    -2330    -2295    -2259    -2220    -2173 
   -2129    -2090    -2048    -2014    -1968    -1905    -1850    -1795 
   -1739    -1687    -1627    -1562    -1494    -1424    -1362    -1296 
   -1232    -1173    -1098    -1027     -962     -889     -828     -772 
    -695     -614     -534     -453     -373     -293     -230     -163 
     -53       70      159      225      293      371      458      539 
     616      689      759      822      885      958     1028     1099 
    1174     1236     1301     1367     1422     1493     1565     1621 
    1678     1733     1785     1838     1890     1943     1990     2027 
    2065     2110     2158     2200     2235     2269     2291     2298 
    2315     2342     2357     2378     2405     2410     2416     2421 
    2405     2402     2411     2394     2371     2351     2321     2301 
    2283     2245     2219     2202     2163     2120     2081     2035 
    1990     1941     1885     1822     1759     1695     1630     1577 
    1524     1460     1388     1299     1227     1181     1114     1031 
     963      896      826      758      685      611      538      461 
     382      301      229      160       74      -19     -126     -244 
    -319     -367     -440     -509     -567     -644     -719     -779 
    -836     -906     -970    -1020    -1087    -1153    -1202    -1266 
   -1323    -1369    -1436    -1493    -1534    -1595    -1646    -1680 
   -1726    -1766    -1807    -1858    -1904    -1949    -1992    -2030 
   -2076    -2120    -2154    -2201    -2254    -2285    -2314    -2350 
   -2377    -2419    -2471    -2503    -2524    -2555    -2594    -2626 
   -2656    -2682    -2689    -2695    -2708    -2711    -2714    -2740 
   -2761    -2760    -2773    -2795    -2792    -2773    -2757    -2752 
   -2751    -2736    -2719    -2707    -2689    -2676    -2659    -2626 
   -2590    -2550    -2504    -2476    -2460    -2417    -2361    -2320 
   -2268    -2211    -2173    -2126    -2066    -2006    -1937    -1871 
   -1808    -1741    -1681    -1605    -1516    -1444    -1371    -1290 
   -1229    -1170    -1099    -1031     -960     -872     -790     -713 
    -620     -533     -458     -368     -271     -175      -53       70 
     155      226      311      408      504      587      671      769 
     866      955     1050     1148     1236     1314     1404     1511 
    1603     1683     1775     1861     1949     2051     2151     2254 
    2359     2450     2528     2608     2690     2779     2878     2970 
    3054     3141     3237     3332     3423     3512     3594     3677 
    3751     3815     3899     3986     4064     4157     4234     4282 
    4356     4440     4494     4554     4633     4689     4721     4766 
    4814     4850     4901     4963     5005     5036     5074     5111 
    5142     5157     5164     5174     5180     5188     5201     5209 
    5219     5240     5252     5235     5212     5206     5191     5159 
    5127     5080     5032     5005     4978     4943     4902     4846 
    4788     4735     4679     4617     4558     4503     4440     4371 
    4310     4247     4178     4118     4049     3972     3899     3815 
    3732     3655     3559     3466     3388     3306     3217     3122 
    3043     2980     2906     2820     2721     2607     2508     2422 
    2321     2210     2101     1999     1898     1797     1707     1611 
    1508     1422     1316     1175     1065      984      877      766 
     672      560      448      359      262      158       62      -69 
    -235     -372     -473     -579     -693     -788     -884     -994 
   -1081    -1155    -1238    -1312    -1388    -1484    -1582    -1667 
   -1753    -1839    -1912    -1984    -2052    -2102    -2162    -2228 
   -2272    -2314    -2366    -2414    -2465    -2514    -2554    -2589 
   -2619    -2650    -2683    -2702    -2717    -2738    -2744    -2740 
   -2748    -2755    -2760    -2767    -2761    -2750    -2734    -2713 
   -2694    -2672    -2652    -2628    -2591    -2566    -2549    -2514 
   -2482    -2457    -2413    -2370    -2337    -2295    -2253    -2224 
   -2192    -2147    -2099    -2056    -2006    -1952    -1895    -1849 
   -1816    -1754    -1673    -1607    -1544    -1488    -1441    -1392 
   -1348    -1298    -1243    -1190    -1132    -1071    -1003     -923 
    -845     -768     -695     -638     -587     -529     -472     -416 
    -357     -300     -242     -167      -70       37      124      175 
     209      264      330      380      430      491      532      557 
     593      635      675      724      773      809      844      882 
     915      948      979     1008     1044     1075     1095     1122 
    1146     1157     1172     1187     1193     1202     1212     1228 
    1245     1255     1273     1288     1301     1325     1338     1348 
    1366     1383     1406     1427     1434     1451     1468     1473 
    1487     1492     1478     1471     1479     1494     1510     1518 
    1526     1537     1538     1548     1570     1579     1584     1601 
    1611     1613     1627     1635     1646     1667     1674     1685 
    1707     1723     1751     1783     1799     1806     1812     1823 
    1836     1848     1870     1891     1899     1908     1927     1947 
    1960     1974     1989     1998     2009     2029     2051     2070 
    2088     2110     2125     2128     2133     2143     2152     2161 
    2162     2156     2154     2154     2155     2159     2157     2150 
    2133     2120     2122     2117     2106     2101     2084     2059 
    2033     2008     2000     1986     1944     1909     1877     1827 
    1790     1760     1715     1675     1630     1578     1546     1511 
    1458     1413     1367     1305     1240     1172     1098     1029 
     957      888      818      739      672      615      545      473 
     405      332      261      190      113       19      -97     -213 
    -306     -378     -451     -532     -599     -650     -720     -799 
    -866     -934    -1002    -1066    -1135    -1201    -1269    -1342 
   -1395    -1439    -1493    -1547    -1610    -1676    -1723    -1770 
   -1828    -1866    -1889    -1928    -1964    -1996    -2045    -2082 
   -2101    -2135    -2171    -2191    -2213    -2240    -2257    -2269 
   -2279    -2291    -2303    -2311    -2314    -2313    -2321    -2334 
   -2340    -2355    -2380    -2385    -2370    -2364    -2355    -2340 
   -2338    -2336    -2326    -2307    -2280    -2271    -2271    -2256 
   -2253    -2239    -2200    -2178    -2167    -2144    -2121    -2094 
   -2070    -2052    -2033    -2014    -2008    -2012    -2001    -1974 
   -1963    -1962    -1940    -1918    -1908    -1879    -1855    -1845 
   -1818    -1805    -1814    -1815    -1815    -1817    -1813    -1803 
   -1795    -1800    -1806    -1805    -1809    -1812    -1808    -1816 
   -1839    -1861    -1880    -1899    -1907    -1912    -1928    -1964 
   -2010    -2042    -2069    -2103    -2132    -2166    -2206    -2242 
   -2282    -2318    -2353    -2400    -2441    -2479    -2520    -2556 
   -2602    -2650    -2692    -2747    -2797    -2832    -2885    -2936 
   -2959    -3009    -3082    -3129    -3180    -3239    -3285    -3336 
   -3388    -3430    -3487    -3550    -3596    -3626    -3658    -3709 
   -3773    -3833    -3890    -3941    -3975    -4007    -4051    -4097 
   -4136    -4172    -4202    -4228    -4261    -4300    -4339    -4372 
   -4402    -4441    -4478    -4505    -4533    -4565    -4598    -4618 
   -4625    -4644    -4660    -4655    -4668    -4690    -4692    -4693 
   -4691    -4687    -4690    -4692    -4693    -4688    -4679    -4672 
   -4655    -4640    -4631    -4603    -4569    -4541    -4500    -4463 
   -4439    -4412    -4380    -4342    -4297    -4265    -4234    -4191 
   -4149    -4101    -4032    -3962    -3900    -3836    -3776    -3713 
   -3646    -3600    -3547    -3463    -3385    -3317    -3237    -3154 
   -3063    -2972    -2892    -2813    -2742    -2667    -2578    -2494 
   -2400    -2293    -2198    -2108    -2014    -1911    -1798    -1692 
   -1592    -1486    -1390    -1307    -1212    -1098     -982     -868 
    -753     -650     -556     -454     -342     -224      -90       64 
     197      277      365      494      616      723      827      923 
    1026     1127     1214     1312     1415     1502     1580     1668 
    1778     1881     1967     2067     2166     2242     2314     2390 
    2476     2567     2635     2709     2790     2847     2915     2991 
    3045     3098     3157     3210     3260     3312     3357     3405 
    3460     3492     3515     3550     3588     3634     3673     3692 
    3711     3725     3742     3768     3778     3783     3787     3778 
