Origin Time       2016/04/16 01:25:00
Lat.              32.753
Long.             130.762
Depth. (km)       12
Mag.              7.3
Station Code      KNG205
Station Lat.      34.9413
Station Long.     139.4213
Station Height(m) -1486
Record Time       2016/04/16 01:29:34
Sampling Freq(Hz) 100Hz
Duration Time(s)  64
Dir.              N-S
Scale Factor      2000(gal)/6182761
Max. Acc. (gal)   2.002
Last Correction   2016/04/16 01:29:36
Memo.             
[...]
    1454     1482     1504     1531     1569     1606     1633     1658 
    1684     1700     1713     1742     1769     1788     1813     1823 
    1827     1852     1871     1884     1913     1930     1928     1938 
    1959     1972     1981     1994     2007     2018     2024     2028 
    2039     2044     2053     2071     2078     2085     2098     2112 
    2129     2140     2145     2153     2160     2169     2182     2194 
    2208     2218     2225     2230     2232     2252     2275     2277 
    2285     2300     2305     2312     2324     2340     2356     2365 
    2377     2393     2410     2427     2442     2461     2470     2473 
    2486     2498     2506     2516     2527     2548     2558     2543 
    2538     2547     2550     2551     2550     2536     2518     2507 
    2498     2484     2461     2437     2413     2381     2352     2331 
    2299     2255     2211     2163     2111     2062     2012     1969 
    1922     1858     1798     1735     1660     1595     1536     1471 
    1397     1310     1229     1159     1094     1035      966      888 
     811      735      665      599      530      472      412      335 
     275      233      178      123       66      -33     -162     -251 
    -271     -291     -345     -394     -436     -478     -514     -546 
    -571     -599     -634     -663     -697     -728     -747     -776 
    -799     -806     -829     -872     -897     -903     -912     -926 
    -947     -961     -975    -1007    -1028    -1033    -1040    -1046 
   -1068    -1103    -1120    -1119    -1118    -1129    -1148    -1168 
   -1188    -1197    -1197    -1194    -1196    -1208    -1220    -1228 
   -1241    -1245    -1234    -1225    -1226    -1233    -1237    -1243 
   -1245    -1229    -1222    -1226    -1223    -1231    -1245    -1237 
   -1221    -1219    -1218    -1217    -1230    -1244    -1240    -1230 
   -1222    -1223    -1239    -1257    -1260    -1248    -1246    -1251 
   -1250    -1257    -1268    -1261    -1259    -1263    -1251    -1246 
   -1253    -1252    -1256    -1250    -1224    -1212    -1209    -1204 
   -1209    -1208    -1193    -1170    -1143    -1133    -1133    -1125 
   -1103    -1068    -1040    -1025    -1010    -1002     -997     -981 
    -950     -918     -901     -891     -877     -854     -829     -806 
    -768     -741     -742     -734     -717     -705     -674     -638 
    -626     -616     -605     -599     -578     -561     -554     -530 
    -517     -525     -516     -498     -483     -465     -456     -451 
    -441     -437     -428     -404     -389     -387     -382     -373 
    -367     -355     -342     -331     -316     -315     -317     -298 
    -278     -263     -247     -223     -201     -200     -184     -141 
    -102      -48       32       84       80       84      139      177 
     193      223      240      256      303      347      375      409 
     445      464      483      523      568      602      642      683 
     702      720      762      800      829      870      904      917 
     935      971     1005     1023     1056     1092     1102     1108 
    1122     1144     1175     1196     1207     1216     1218     1223 
    1242     1257     1262     1257     1243     1237     1243     1242 
    1235     1222     1203     1184     1161     1141     1127     1110 
    1081     1043      998      958      927      896      855      802 
     748      695      642      595      545      481      412      345 
     274      203      139       76       -7     -133     -279     -364 
    -396     -464     -543     -590     -671     -770     -841     -911 
    -971    -1011    -1068    -1155    -1237    -1310    -1386    -1433 
   -1470    -1537    -1608    -1674    -1742    -1793    -1826    -1859 
   -1910    -1965    -2010    -2057    -2107    -2136    -2154    -2182 
   -2213    -2248    -2286    -2305    -2310    -2314    -2324    -2344 
   -2364    -2374    -2374    -2363    -2357    -2353    -2340    -2330 
   -2326    -2312    -2276    -2243    -2224    -2203    -2182    -2161 
   -2121    -2076    -2036    -1996    -1964    -1932    -1886    -1832 
   -1783    -1734    -1683    -1640    -1593    -1529    -1470    -1416 
   -1345    -1283    -1246    -1200    -1134    -1067    -1001     -935 
    -879     -830     -772     -704     -633     -562     -493     -424 
    -371     -317     -244     -168      -56       95      195      221 
     265      346      407      472      555      614      665      729 
     792      849      911      979     1030     1083     1152     1209 
    1271     1347     1408     1459     1507     1557     1607     1660 
    1720     1771     1815     1856     1895     1938     1989     2043 
    2087     2114     2141     2179     2213     2248     2292     2326 
    2338     2353     2385     2419     2446     2471     2492     2504 
    2509     2512     2525     2559     2585     2589     2592     2589 
    2583     2598     2613     2614     2619     2617     2605     2606 
    2616     2631     2646     2640     2624     2611     2593     2585 
    2595     2603     2589     2559     2537     2529     2519     2510 
    2499     2476     2446     2418     2385     2357     2352     2344 
    2312     2271     2227     2182     2151     2130     2093     2043 
    1993     1938     1879     1838     1815     1772     1711     1654 
    1581     1516     1480     1430     1358     1286     1216     1149 
    1086     1028      975      916      847      775      705      641 
     582      519      454      393      322      260      213      157 
      96        6     -129     -237     -281     -327     -391     -428 
    -468     -534     -591     -642     -689     -728     -772     -819 
    -867     -921     -979    -1026    -1058    -1094    -1144    -1200 
   -1254    -1299    -1340    -1373    -1401    -1442    -1499    -1552 
   -1597    -1637    -1668    -1696    -1731    -1777    -1825    -1859 
   -1878    -1899    -1933    -1962    -1985    -2016    -2043    -2053 
   -2054    -2056    -2067    -2087    -2100    -2109    -2110    -2094 
   -2087    -2093    -2086    -2085    -2087    -2065    -2039    -2015 
   -1989    -1971    -1955    -1937    -1908    -1856    -1809    -1777 
   -1749    -1720    -1681    -1631    -1578    -1520    -1472    -1443 
   -1413    -1362    -1300    -1239    -1188    -1150    -1106    -1059 
   -1001     -937     -886     -840     -800     -771     -726     -667 
    -609     -552     -499     -458     -429     -396     -350     -298 
    -247     -212     -183     -139      -69       32      132      171 
     175      218      256      256      283      338      378      407 
     437      460      478      522      581      622      649      676 
     702      726      761      816      860      886      915      949 
     984     1026     1079     1134     1173     1199     1232     1278 
    1330     1380     1432     1485     1522     1551     1600     1662 
    1718     1766     1812     1857     1898     1944     2010     2080 
    2125     2162     2210     2255     2293     2348     2410     2452 
    2485     2534     2573     2599     2649     2716     2761     2783 
    2802     2830     2864     2908     2954     2982     2992     3007 
    3032     3049     3064     3086     3106     3116     3110     3102 
    3113     3128     3133     3136     3125     3110     3109     3112 
    3115     3103     3081     3063     3045     3023     2997     2980 
    2979     2962     2923     2885     2852     2822     2796     2774 
    2737     2686     2643     2603     2558     2520     2490     2452 
    2399     2338     2278     2231     2195     2141     2070     2005 
    1937     1873     1822     1767     1701     1628     1551     1477 
    1401     1318     1236     1160     1080      995      906      813 
     731      662      579      476      372      278      187       89 
     -29     -177     -315     -395     -467     -578     -670     -734 
    -816     -901     -984    -1077    -1165    -1238    -1299    -1369 
   -1453    -1529    -1611    -1697    -1753    -1803    -1871    -1947 
   -2028    -2094    -2136    -2186    -2230    -2264    -2332    -2401 
   -2445    -2488    -2521    -2555    -2601    -2632    -2661    -2700 
   -2725    -2739    -2763    -2789    -2806    -2826    -2852    -2862 
   -2856    -2861    -2876    -2875    -2874    -2880    -2868    -2845 
   -2828    -2808    -2795    -2794    -2779    -2743    -2708    -2674 
   -2638    -2617    -2596    -2554    -2507    -2447    -2390    -2355 
   -2315    -2259    -2197    -2136    -2078    -2013    -1948    -1889 
   -1825    -1760    -1686    -1598    -1517    -1455    -1392    -1321 
   -1247    -1165    -1078     -993     -921     -860     -793     -710 
    -621     -533     -446     -361     -283     -200      -93       53 
     202      281      326      420      509      569      663      756 
     810      864      937     1008     1079     1158     1231     1285 
    1333     1385     1438     1495     1558     1611     1646     1677 
    1713     1753     1801     1846     1868     1878     1901     1922 
    1936     1961     1987     2004     2013     2007     1992     1992 
    2008     2008     1987     1975     1969     1951     1928     1915 
    1904     1886     1866     1838     1798     1763     1748     1727 
    1686     1643     1600     1560     1526     1493     1456     1405 
    1339     1282     1231     1172     1119     1078     1025      960 
     898      837      782      742      690      612      538      473 
     410      358      298      225      159       94        1     -141 
    -258     -283     -316     -403     -462     -517     -585     -621 
    -666     -725     -771     -831     -895     -943     -978    -1010 
   -1051    -1097    -1152    -1215    -1260    -1283    -1305    -1336 
   -1378    -1427    -1469    -1497    -1521    -1541    -1564    -1608 
   -1646    -1656    -1676    -1699    -1702    -1714    -1742    -1764 
   -1783    -1799    -1804    -1805    -1807    -1814    -1827    -1833 
   -1834    -1834    -1825    -1819    -1824    -1830    -1834    -1824 
   -1796    -1778    -1767    -1750    -1749    -1744    -1713    -1682 
   -1650    -1621    -1609    -1589    -1565    -1532    -1480    -1443 
   -1421    -1393    -1366    -1334    -1285    -1235    -1187    -1146 
   -1120    -1084    -1025     -969     -921     -863     -804     -751 
    -697     -648     -590     -521     -458     -398     -343     -296 
    -233     -143      -27      112      205      223      264      353 
     420      486      564      620      669      725      787      859 
     926      985     1043     1098     1146     1201     1274     1347 
    1403     1457     1512     1549     1589     1653     1714     1770 
    1815     1841     1878     1932     1980     2028     2064     2090 
    2135     2180     2210     2255     2296     2316     2341     2371 
    2401     2433     2464     2503     2536     2547     2568     2603 
    2628     2651     2675     2691     2702     2709     2721     2750 
    2781     2798     2808     2815     2816     2816     2831     2854 
    2870     2872     2866     2855     2850     2860     2878     2882 
    2867     2843     2823     2819     2820     2817     2806     2771 
    2736     2721     2705     2688     2661     2612     2566     2527 
    2478     2431     2397     2357     2305     2243     2178     2123 
    2063     2000     1948     1876     1785     1704     1624     1553 
    1487     1404     1312     1216     1114     1014      916      828 
     746      640      522      415      314      217      115      -18 
    -192     -361     -464     -551     -672     -776     -872     -991 
   -1093    -1198    -1328    -1438    -1533    -1639    -1754    -1874 
   -1990    -2094    -2193    -2287    -2387    -2502    -2619    -2724 
   -2823    -2916    -2994    -3080    -3189    -3300    -3404    -3504 
   -3583    -3650    -3733    -3829    -3923    -4018    -4102    -4174 
   -4249    -4326    -4398    -4478    -4566    -4634    -4688    -4750 
   -4814    -4876    -4947    -5023    -5082    -5119    -5165    -5221 
   -5273    -5332    -5382    -5417    -5452    -5476    -5497    -5536 
   -5570    -5596    -5626    -5640    -5636    -5635    -5648    -5663 
   -5659    -5648    -5631    -5605    -5583    -5565    -5544    -5524 
   -5503    -5457    -5396    -5356    -5319    -5266    -5224    -5175 
   -5093    -5020    -4970    -4910    -4835    -4756    -4674    -4591 
   -4495    -4391    -4307    -4229    -4134    -4025    -3915    -3807 
   -3699    -3596    -3493    -3367    -3232    -3103    -2971    -2848 
   -2741    -2617    -2474    -2334    -2186    -2038    -1908    -1775 
   -1639    -1499    -1341    -1181    -1028     -873     -736     -599 
    -439     -272      -87      140      346      471      586      758 
     924     1065     1218     1367     1510     1646     1777     1930 
    2085     2217     2344     2479     2617     2759     2896     3022 
    3135     3247     3370     3495     3622     3747     3858     3969 
    4077     4172     4279     4391     4486     4584     4683     4766 
    4849     4936     5021     5114     5206     5279     5346     5417 
    5487     5555     5631     5703     5758     5810     5860     5910 
    5962     6017     6063     6093     6119     6141     6166     6206 
    6237     6252     6261     6263     6271     6285     6287     6283 
    6283     6269     6243     6221     6195     6172     6158     6135 
    6101     6061     6008     5955     5913     5861     5792     5728 
    5664     5590     5513     5440     5372     5292     5199     5118 
    5029     4918     4829     4754     4662     4566     4462     4349 
    4232     4116     4019     3918     3787     3658     3543     3413 
    3286     3181     3060     2917     2779     2647     2517     2391 
    2260     2116     1972     1832     1688     1548     1413     1274 
    1130      985      838      685      534      396      264      112 
     -81     -309     -506     -627     -735     -882    -1021    -1151 
   -1303    -1449    -1579    -1706    -1838    -1978    -2114    -2246 
   -2378    -2503    -2617    -2736    -2859    -2970    -3086    -3209 
   -3318    -3421    -3530    -3627    -3725    -3838    -3936    -4017 
   -4101    -4187    -4275    -4361    -4431    -4499    -4576    -4644 
   -4709    -4775    -4832    -4890    -4953    -4996    -5026    -5073 
   -5121    -5156    -5193    -5226    -5244    -5261    -5289    -5321 
   -5344    -5355    -5366    -5379    -5386    -5379    -5380    -5398 
   -5393    -5366    -5349    -5329    -5308    -5300    -5276    -5245 
   -5219    -5174    -5134    -5115    -5083    -5036    -4989    -4940 
   -4889    -4834    -4782    -4725    -4668    -4620    -4560    -4488 
   -4419    -4353    -4292    -4232    -4166    -4101    -4025    -3941 
   -3868    -3802    -3733    -3662    -3592    -3516    -3438    -3359 
   -3284    -3217    -3150    -3070    -2987    -2906    -2838    -2783 
   -2725    -2657    -2579    -2505    -2438    -2369    -2306    -2250 
   -2186    -2117    -2058    -2002    -1939    -1882    -1829    -1774 
   -1723    -1664    -1590    -1531    -1494    -1449    -1392    -1344 
   -1293    -1228    -1178    -1142    -1094    -1043     -990     -928 
    -877     -842     -798     -745     -699     -650     -591     -537 
    -491     -440     -393     -349     -289     -221     -158      -87 
       2      108      183      219      283      354      383      423 
     486      535      593      661      709      747      797      841 
     882      942      999     1045     1094     1131     1167     1225 
    1280     1322     1371     1412     1442     1482     1525     1558 
    1595     1630     1653     1677     1703     1723     1747     1772 
    1794     1800     1800     1812     1822     1820     1826     1829 
    1814     1801     1797     1791     1781     1768     1752     1734 
    1707     1680     1670     1656     1619     1590     1570     1528 
    1486     1462     1428     1379     1335     1301     1262     1215 
    1174     1138     1101     1060     1025      987      931      887 
     861      826      789      744      694      658      620      574 
     539      505      459      420      387      351      319      286 
     247      211      180      152      128      104       68       19 
     -34     -100     -172     -199     -191     -219     -251     -245 
    -262     -290     -291     -297     -309     -315     -317     -316 
    -319     -326     -321     -311     -316     -314     -293     -282 
    -275     -259     -243     -231     -219     -196     -166     -139 
    -105      -62        7       89      112      110      154      195 
     210      242      276      312      353      383      418      463 
     506      551      592      630      678      730      779      831 
     879      925      970     1022     1080     1143     1205     1255 
    1306     1376     1451     1511     1568     1630     1697     1767 
    1829     1898     1973     2039     2112     2190     2256     2321 
    2395     2469     2539     2609     2678     2748     2830     2910 
    2978     3043     3107     3176     3250     3325     3393     3453 
    3525     3606     3674     3744     3816     3877     3941     4011 
    4080     4144     4201     4261     4321     4389     4459     4508 
    4558     4622     4675     4720     4772     4813     4847     4896 
    4940     4968     5005     5048     5085     5119     5152     5179 
    5201     5220     5246     5269     5278     5290     5308     5313 
    5313     5320     5327     5331     5330     5318     5307     5302 
    5289     5271     5258     5240     5218     5202     5178     5133 
    5101     5083     5047     5003     4958     4907     4864     4826 
    4784     4736     4677     4609     4548     4492     4435     4373 
    4299     4224     4156     4079     3995     3922     3849     3771 
    3686     3595     3509     3428     3352     3271     3179     3091 
    3008     2920     2830     2736     2650     2578     2496     2393 
    2297     2213     2127     2044     1967     1882     1790     1699 
    1613     1541     1470     1382     1296     1221     1146     1069 
    1002      939      867      792      727      664      601      538 
     482      427      369      317      270      216      174      136 
      69      -21     -121     -204     -236     -247     -279     -315 
    -341     -365     -400     -437     -454     -467     -493     -521 
    -545     -559     -576     -595     -600     -600     -606     -621 
    -642     -653     -648     -644     -650     -659     -663     -661 
    -666     -674     -665     -659     -670     -673     -674     -683 
    -681     -676     -683     -691     -700     -707     -704     -695 
    -694     -705     -714     -718     -726     -737     -747     -754 
    -763     -776     -787     -798     -803     -804     -826     -853 
    -860     -875     -904     -924     -942     -964     -976     -987 
   -1006    -1029    -1053    -1067    -1084    -1118    -1147    -1173 
   -1215    -1251    -1265    -1278    -1307    -1335    -1354    -1376 
   -1400    -1415    -1435    -1471    -1502    -1531    -1567    -1578 
