Origin Time       2016/04/16 01:25:00
Lat.              32.753
Long.             130.762
Depth. (km)       12
Mag.              7.3
Station Code      KOC001
Station Lat.      33.5275
Station Long.     134.2814
Station Height(m) 6
Record Time       2016/04/16 01:26:46
Sampling Freq(Hz) 100Hz
Duration Time(s)  74
Dir.              E-W
Scale Factor      7845(gal)/8223790
Max. Acc. (gal)   2.907
Last Correction   2016/04/16 01:26:46
Memo.             
[...]
  -11145   -11209   -11303   -11422   -11546   -11668   -11780   -11875 
  -11952   -12002   -12012   -11978   -11909   -11811   -11686   -11554 
  -11430   -11330   -11267   -11240   -11242   -11276   -11338   -11412 
  -11488   -11561   -11623   -11665   -11696   -11720   -11727   -11728 
  -11722   -11708   -11705   -11719   -11745   -11784   -11838   -11902 
  -11969   -12029   -12070   -12093   -12102   -12096   -12077   -12060 
  -12052   -12054   -12067   -12094   -12132   -12174   -12217   -12253 
  -12266   -12233   -12155   -12039   -11886   -11716   -11543   -11379 
  -11253   -11171   -11119   -11105   -11137   -11187   -11246   -11319 
  -11383   -11431   -11462   -11472   -11460   -11433   -11398   -11361 
  -11331   -11317   -11313   -11325   -11364   -11419   -11481   -11543 
  -11591   -11618   -11620   -11593   -11541   -11454   -11348   -11242 
  -11148   -11079   -11045   -11038   -11052   -11083   -11122   -11167 
  -11221   -11276   -11325   -11364   -11394   -11406   -11404   -11392 
  -11367   -11335   -11303   -11268   -11242   -11230   -11219   -11217 
  -11218   -11210   -11183   -11132   -11059   -10976   -10886   -10786 
  -10685   -10590   -10511   -10457   -10438   -10450   -10489   -10559 
  -10654   -10762   -10878   -10993   -11101   -11198   -11283   -11354 
  -11415   -11464   -11496   -11521   -11539   -11541   -11516   -11464 
  -11391   -11303   -11210   -11129   -11062   -11010   -10980   -10970 
  -10968   -10976   -10993   -11006   -11016   -11026   -11041   -11062 
  -11102   -11163   -11230   -11296   -11356   -11402   -11441   -11475 
  -11491   -11487   -11465   -11430   -11387   -11334   -11271   -11196 
  -11124   -11049   -10980   -10926   -10887   -10864   -10858   -10868 
  -10885   -10899   -10913   -10918   -10908   -10886   -10856   -10814 
  -10770   -10727   -10693   -10675   -10671   -10681   -10702   -10735 
  -10777   -10825   -10874   -10929   -10991   -11055   -11119   -11179 
  -11229   -11279   -11340   -11422   -11526   -11643   -11774   -11917 
  -12048   -12158   -12239   -12271   -12254   -12194   -12098   -11992 
  -11886   -11785   -11708   -11662   -11646   -11655   -11686   -11732 
  -11790   -11853   -11911   -11958   -11988   -11996   -11975   -11924 
  -11847   -11753   -11645   -11537   -11438   -11349   -11280   -11241 
  -11233   -11252   -11302   -11375   -11464   -11566   -11670   -11759 
  -11832   -11886   -11919   -11929   -11914   -11875   -11812   -11736 
  -11661   -11595   -11543   -11514   -11492   -11472   -11457   -11446 
  -11429   -11404   -11372   -11329   -11283   -11233   -11183   -11145 
  -11119   -11109   -11113   -11132   -11160   -11190   -11214   -11237 
  -11254   -11256   -11245   -11229   -11200   -11160   -11113   -11062 
  -11010   -10962   -10922   -10891   -10862   -10844   -10848   -10872 
  -10912   -10960   -11009   -11048   -11072   -11079   -11061   -11025 
  -10978   -10924   -10871   -10835   -10824   -10843   -10893   -10970 
  -11051   -11125   -11194   -11250   -11283   -11288   -11268   -11222 
  -11157   -11075   -10986   -10891   -10782   -10670   -10563   -10465 
  -10399   -10368   -10370   -10417   -10504   -10611   -10732   -10859 
  -10980   -11087   -11171   -11225   -11240   -11222   -11178   -11115 
  -11047   -10989   -10949   -10940   -10963   -11013   -11083   -11160 
  -11232   -11284   -11304   -11277   -11191   -11048   -10867   -10670 
  -10470   -10296   -10174   -10118   -10134   -10218   -10354   -10519 
  -10692   -10848   -10967   -11038   -11051   -11003   -10918   -10810 
  -10692   -10571   -10463   -10374   -10305   -10262   -10245   -10245 
  -10260   -10277   -10288   -10299   -10296   -10272   -10234   -10187 
  -10138   -10100   -10088   -10119   -10203   -10345   -10540   -10777 
  -11022   -11250   -11443   -11584   -11670   -11706   -11704   -11681 
  -11665   -11665   -11689   -11747   -11836   -11944   -12054   -12155 
  -12247   -12320   -12379   -12433   -12478   -12507   -12540   -12568 
  -12573   -12565   -12541   -12488   -12422   -12366   -12328   -12322 
  -12359   -12442   -12563   -12704   -12852   -12984   -13085   -13150 
  -13171   -13146   -13093   -13015   -12907   -12793   -12685   -12579 
  -12476   -12375   -12271   -12166   -12056   -11947   -11842   -11750 
  -11674   -11612   -11578   -11587   -11630   -11704   -11812   -11939 
  -12066   -12187   -12293   -12367   -12399   -12390   -12337   -12237 
  -12102   -11947   -11788   -11639   -11516   -11430   -11388   -11395 
  -11442   -11527   -11635   -11749   -11851   -11927   -11970   -11973 
  -11934   -11858   -11749   -11612   -11465   -11325   -11204   -11119 
  -11075   -11068   -11102   -11171   -11254   -11335   -11403   -11445 
  -11458   -11442   -11391   -11308   -11207   -11102   -11020   -10983 
  -11002   -11080   -11218   -11407   -11622   -11842   -12039   -12182 
  -12252   -12245   -12163   -12012   -11817   -11608   -11418   -11277 
  -11206   -11213   -11294   -11433   -11600   -11772   -11923   -12035 
  -12089   -12079   -12005   -11878   -11715   -11541   -11384   -11263 
  -11191   -11181   -11227   -11327   -11472   -11641   -11809   -11962 
  -12071   -12122   -12112   -12037   -11901   -11719   -11515   -11308 
  -11119   -10975   -10883   -10833   -10820   -10837   -10866   -10897 
  -10926   -10941   -10945   -10933   -10897   -10844   -10777   -10693 
  -10596   -10486   -10376   -10274   -10197   -10157   -10168   -10242 
  -10362   -10507   -10670   -10829   -10959   -11056   -11113   -11115 
  -11074   -11009   -10926   -10836   -10754   -10698   -10667   -10655 
  -10665   -10694   -10728   -10771   -10824   -10879   -10936   -10998 
  -11059   -11111   -11151   -11165   -11144   -11092   -11028   -10947 
  -10868   -10806   -10755   -10720   -10705   -10704   -10708   -10714 
  -10727   -10747   -10779   -10828   -10893   -10971   -11067   -11168 
  -11264   -11348   -11408   -11439   -11441   -11411   -11358   -11290 
  -11218   -11157   -11101   -11044   -10987   -10918   -10848   -10787 
  -10724   -10654   -10586   -10519   -10454   -10403   -10358   -10305 
  -10258   -10228   -10210   -10220   -10272   -10351   -10458   -10600 
  -10762   -10921   -11056   -11144   -11167   -11141   -11080   -10993 
  -10899   -10818   -10759   -10740   -10763   -10817   -10897   -10989 
  -11074   -11146   -11188   -11195   -11176   -11145   -11119   -11118 
  -11153   -11237   -11373   -11549   -11750   -11974   -12209   -12441 
  -12658   -12847   -12997   -13106   -13170   -13186   -13161   -13100 
  -13005   -12892   -12768   -12636   -12496   -12360   -12228   -12102 
  -11993   -11896   -11815   -11766   -11759   -11794   -11875   -11998 
  -12151   -12322   -12496   -12649   -12771   -12861   -12918   -12942 
  -12946   -12945   -12931   -12911   -12893   -12870   -12839   -12814 
  -12792   -12781   -12784   -12798   -12818   -12841   -12862   -12874 
  -12865   -12825   -12742   -12623   -12490   -12357   -12237   -12141 
  -12070   -12017   -11980   -11961   -11943   -11919   -11889   -11857 
  -11831   -11826   -11848   -11896   -11961   -12044   -12132   -12201 
  -12243   -12249   -12204   -12106   -11974   -11816   -11646   -11476 
  -11304   -11141   -10994   -10854   -10722   -10617   -10536   -10477 
  -10450   -10446   -10453   -10467   -10480   -10478   -10459   -10411 
  -10334   -10239   -10139   -10052    -9988    -9961    -9973   -10018 
  -10087   -10164   -10235   -10282   -10301   -10285   -10238   -10164 
  -10071    -9975    -9886    -9798    -9720    -9659    -9610    -9578 
   -9560    -9545    -9530    -9521    -9513    -9497    -9467    -9416 
   -9343    -9255    -9163    -9078    -9013    -8997    -9046    -9163 
   -9355    -9612    -9910   -10230   -10551   -10837   -11067   -11230 
  -11313   -11329   -11295   -11229   -11148   -11075   -11033   -11033 
  -11083   -11178   -11303   -11449   -11605   -11758   -11897   -12008 
  -12078   -12106   -12091   -12033   -11943   -11838   -11727   -11626 
  -11551   -11511   -11499   -11518   -11568   -11646   -11751   -11869 
  -11971   -12051   -12100   -12109   -12075   -12010   -11934   -11863 
  -11812   -11793   -11803   -11836   -11893   -11959   -12016   -12059 
  -12082   -12081   -12066   -12046   -12040   -12060   -12114   -12209 
  -12340   -12496   -12671   -12855   -13043   -13220   -13379   -13509 
  -13603   -13653   -13663   -13641   -13593   -13516   -13413   -13286 
  -13147   -13014   -12885   -12762   -12661   -12580   -12505   -12429 
  -12355   -12272   -12181   -12085   -11996   -11913   -11842   -11785 
  -11739   -11706   -11691   -11686   -11685   -11688   -11681   -11654 
  -11608   -11545   -11464   -11373   -11286   -11210   -11146   -11103 
  -11098   -11114   -11138   -11171   -11196   -11194   -11171   -11125 
  -11056   -10975   -10897   -10840   -10818   -10845   -10920   -11034 
  -11184   -11358   -11542   -11722   -11886   -12023   -12122   -12191 
  -12235   -12260   -12274   -12287   -12310   -12348   -12401   -12461 
  -12521   -12581   -12634   -12675   -12708   -12729   -12722   -12690 
  -12638   -12560   -12453   -12320   -12162   -11980   -11772   -11539 
  -11300   -11068   -10849   -10655   -10488   -10353   -10253   -10183 
  -10134   -10102   -10080   -10055   -10018    -9956    -9860    -9732 
   -9580    -9417    -9255    -9115    -9009    -8943    -8922    -8939 
   -8989    -9057    -9123    -9167    -9184    -9167    -9115    -9035 
   -8947    -8866    -8808    -8789    -8814    -8884    -9007    -9173 
   -9360    -9555    -9755    -9950   -10142   -10324   -10486   -10624 
  -10737   -10831   -10903   -10953   -10987   -11010   -11029   -11060 
  -11115   -11198   -11310   -11449   -11601   -11762   -11927   -12060 
  -12147   -12185   -12175   -12137   -12094   -12059   -12039   -12050 
  -12102   -12186   -12291   -12406   -12518   -12614   -12690   -12737 
  -12746   -12721   -12672   -12617   -12560   -12515   -12490   -12479 
  -12484   -12494   -12494   -12486   -12457   -12401   -12326   -12236 
  -12120   -11982   -11832   -11677   -11524   -11379   -11247   -11124 
  -11013   -10908   -10790   -10673   -10566   -10461   -10355   -10261 
  -10176   -10095   -10030    -9987    -9967    -9975   -10012   -10072 
  -10150   -10249   -10354   -10463   -10579   -10689   -10778   -10854 
  -10914   -10955   -10983   -11011   -11043   -11079   -11129   -11198 
  -11290   -11403   -11527   -11647   -11761   -11862   -11939   -11989 
  -12008   -11994   -11955   -11893   -11817   -11723   -11608   -11493 
  -11396   -11315   -11259   -11230   -11223   -11236   -11260   -11284 
  -11307   -11325   -11341   -11365   -11408   -11468   -11539   -11626 
  -11723   -11828   -11940   -12046   -12137   -12212   -12267   -12305 
  -12336   -12356   -12363   -12363   -12366   -12368   -12378   -12395 
  -12424   -12469   -12528   -12592   -12658   -12725   -12788   -12849 
  -12900   -12937   -12954   -12954   -12937   -12906   -12862   -12815 
  -12760   -12700   -12645   -12596   -12548   -12495   -12441   -12388 
  -12344   -12313   -12299   -12301   -12320   -12349   -12383   -12418 
  -12445   -12455   -12447   -12415   -12357   -12267   -12150   -12019 
  -11881   -11745   -11623   -11523   -11449   -11398   -11362   -11340 
  -11323   -11302   -11276   -11250   -11237   -11236   -11245   -11272 
  -11310   -11348   -11377   -11392   -11394   -11387   -11376   -11358 
  -11335   -11315   -11295   -11276   -11257   -11232   -11195   -11137 
  -11053   -10947   -10821   -10689   -10563   -10457   -10377   -10334 
  -10327   -10353   -10408   -10485   -10574   -10665   -10751   -10831 
  -10910   -10993   -11075   -11160   -11252   -11353   -11460   -11566 
  -11663   -11743   -11799   -11832   -11848   -11844   -11827   -11813 
  -11803   -11797   -11805   -11819   -11828   -11838   -11846   -11843 
  -11834   -11824   -11816   -11808   -11805   -11809   -11823   -11844 
  -11870   -11889   -11902   -11914   -11921   -11925   -11929   -11939 
  -11950   -11956   -11947   -11911   -11836   -11723   -11578   -11415 
  -11236   -11056   -10897   -10775   -10701   -10681   -10708   -10767 
  -10839   -10908   -10967   -11009   -11029   -11036   -11034   -11032 
  -11037   -11051   -11070   -11094   -11115   -11118   -11109   -11088 
  -11045   -10984   -10918   -10848   -10779   -10714   -10656   -10605 
  -10559   -10530   -10520   -10527   -10551   -10586   -10624   -10663 
  -10697   -10710   -10705   -10675   -10613   -10528   -10436   -10343 
  -10253   -10184   -10142   -10123   -10131   -10161   -10201   -10247 
  -10281   -10288   -10266   -10218   -10143   -10052    -9958    -9868 
   -9769    -9676    -9595    -9522    -9466    -9429    -9410    -9414 
   -9436    -9472    -9526    -9595    -9670    -9748    -9832    -9913 
   -9984   -10055   -10126   -10197   -10278   -10378   -10489   -10615 
  -10751   -10885   -11007   -11117   -11196   -11242   -11264   -11259 
  -11226   -11180   -11129   -11071   -11010   -10953   -10909   -10887 
  -10886   -10909   -10962   -11033   -11117   -11192   -11257   -11317 
  -11360   -11399   -11450   -11515   -11603   -11722   -11865   -12033 
  -12214   -12401   -12583   -12749   -12885   -12980   -13035   -13063 
  -13062   -13036   -13005   -12976   -12945   -12923   -12918   -12931 
  -12972   -13046   -13154   -13294   -13452   -13610   -13759   -13890 
  -13984   -14027   -14031   -14011   -13975   -13938   -13923   -13922 
  -13940   -13995   -14079   -14166   -14250   -14324   -14380   -14407 
  -14412   -14395   -14358   -14307   -14246   -14183   -14112   -14031 
  -13932   -13815   -13678   -13517   -13347   -13172   -12989   -12807 
  -12625   -12442   -12256   -12064   -11870   -11677   -11491   -11310 
  -11133   -10975   -10841   -10728   -10639   -10573   -10523   -10489 
  -10463   -10435   -10403   -10372   -10336   -10296   -10261   -10226 
  -10196   -10174   -10157   -10142   -10127   -10114   -10098   -10075 
  -10048   -10017    -9979    -9940    -9895    -9850    -9813    -9786 
   -9768    -9767    -9780    -9804    -9837    -9880    -9925    -9967 
  -10011   -10055   -10100   -10152   -10203   -10255   -10314   -10378 
  -10450   -10520   -10579   -10620   -10633   -10613   -10566   -10501 
  -10420   -10334   -10258   -10199   -10160   -10152   -10173   -10214 
  -10261   -10309   -10346   -10369   -10382   -10381   -10366   -10345 
  -10315   -10280   -10246   -10211   -10162   -10103   -10039    -9968 
   -9891    -9826    -9778    -9761    -9784    -9837    -9913   -10004 
  -10096   -10180   -10245   -10285   -10301   -10291   -10262   -10230 
  -10197   -10166   -10146   -10138   -10141   -10153   -10169   -10176 
  -10176   -10174   -10162   -10139   -10118   -10096   -10072   -10050 
  -10029   -10003    -9964    -9915    -9864    -9825    -9819    -9844 
   -9898    -9996   -10130   -10272   -10415   -10546   -10644   -10702 
  -10719   -10700   -10651   -10580   -10504   -10443   -10408   -10399 
  -10419   -10465   -10531   -10619   -10716   -10818   -10926   -11039 
  -11161   -11300   -11464   -11647   -11846   -12052   -12256   -12436 
  -12588   -12715   -12818   -12892   -12946   -12980   -12995   -13004 
  -13005   -12984   -12945   -12885   -12808   -12718   -12619   -12526 
  -12441   -12366   -12317   -12294   -12291   -12306   -12333   -12360 
  -12383   -12401   -12418   -12439   -12469   -12509   -12560   -12621 
  -12685   -12758   -12830   -12891   -12945   -12987   -13005   -13012 
  -13024   -13030   -13035   -13053   -13078   -13108   -13143   -13180 
  -13205   -13221   -13227   -13212   -13177   -13127   -13063   -12988 
  -12918   -12868   -12831   -12806   -12796   -12788   -12776   -12765 
  -12750   -12726   -12700   -12669   -12633   -12604   -12587   -12571 
  -12559   -12550   -12544   -12536   -12522   -12502   -12469   -12429 
  -12382   -12324   -12260   -12193   -12117   -12035   -11950   -11862 
  -11777   -11708   -11665   -11645   -11647   -11669   -11699   -11727 
  -11745   -11746   -11723   -11669   -11591   -11499   -11398   -11295 
  -11198   -11107   -11029   -10959   -10894   -10833   -10770   -10698 
  -10623   -10542   -10446   -10335   -10224   -10123   -10018    -9917 
   -9826    -9742    -9667    -9603    -9549    -9512    -9489    -9487 
   -9512    -9555    -9613    -9674    -9718    -9744    -9744    -9705 
   -9626    -9521    -9386    -9235    -9088    -8958    -8857    -8793 
   -8768    -8777    -8811    -8860    -8916    -8974    -9030    -9077 
   -9116    -9154    -9197    -9246    -9301    -9367    -9436    -9510 
   -9596    -9698    -9809    -9917   -10022   -10123   -10214   -10288 
  -10345   -10385   -10404   -10400   -10374   -10336   -10287   -10222 
  -10164   -10121   -10102   -10111   -10157   -10243   -10362   -10507 
  -10671   -10841   -11001   -11148   -11271   -11364   -11431   -11473 
  -11488   -11488   -11480   -11461   -11439   -11421   -11406   -11403 
  -11408   -11416   -11425   -11439   -11460   -11488   -11527   -11570 
  -11618   -11674   -11738   -11807   -11881   -11962   -12046   -12133 
  -12218   -12290   -12349   -12396   -12421   -12422   -12403   -12363 
  -12316   -12263   -12202   -12133   -12062   -11989   -11923   -11873 
  -11832   -11792   -11754   -11722   -11693   -11677   -11669   -11669 
  -11676   -11686   -11701   -11712   -11708   -11691   -11669   -11649 
  -11634   -11630   -11638   -11663   -11712   -11777   -11855   -11932 
  -12002   -12069   -12125   -12164   -12194   -12220   -12248   -12285 
  -12334   -12403   -12495   -12604   -12729   -12864   -12989   -13093 
  -13180   -13236   -13254   -13238   -13197   -13126   -13038   -12951 
  -12870   -12803   -12756   -12741   -12756   -12798   -12860   -12931 
  -12991   -13027   -13038   -13014   -12957   -12883   -12802   -12721 
  -12657   -12621   -12606   -12614   -12642   -12679   -12713   -12735 
  -12731   -12687   -12607   -12496   -12355   -12194   -12032   -11881 
  -11751   -11650   -11585   -11550   -11545   -11564   -11591   -11611 
  -11616   -11601   -11558   -11480   -11376   -11254   -11121   -10984 
  -10864   -10767   -10698   -10666   -10670   -10706   -10762   -10831 
  -10902   -10952   -10975   -10979   -10957   -10905   -10833   -10754 
  -10677   -10612   -10558   -10514   -10486   -10467   -10454   -10442 
  -10428   -10415   -10401   -10397   -10412   -10436   -10469   -10513 
  -10566   -10623   -10683   -10746   -10812   -10889   -10971   -11065 
  -11171   -11279   -11381   -11477   -11562   -11623   -11657   -11666 
  -11655   -11627   -11585   -11537   -11488   -11442   -11398   -11356 
  -11323   -11292   -11267   -11249   -11249   -11265   -11295   -11330 
  -11368   -11395   -11408   -11410   -11402   -11383   -11356   -11333 
  -11315   -11306   -11306   -11317   -11330   -11341   -11338   -11317 
  -11277   -11222   -11153   -11076   -11003   -10935   -10875   -10829 
  -10793   -10758   -10724   -10694   -10670   -10652   -10635   -10619 
  -10602   -10579   -10546   -10501   -10446   -10381   -10308   -10238 
  -10181   -10143   -10126   -10126   -10147   -10187   -10241   -10296 
  -10351   -10393   -10422   -10443   -10451   -10443   -10434   -10434 
  -10438   -10443   -10449   -10447   -10436   -10420   -10395   -10365 
  -10338   -10314   -10296   -10289   -10289   -10295   -10307   -10324 
  -10342   -10354   -10361   -10357   -10346   -10323   -10285   -10241 
