Origin Time       2016/04/16 01:25:00
Lat.              32.753
Long.             130.762
Depth. (km)       12
Mag.              7.3
Station Code      KOC006
Station Lat.      33.4945
Station Long.     133.4165
Station Height(m) 8
Record Time       2016/04/16 01:25:59
Sampling Freq(Hz) 100Hz
Duration Time(s)  100
Dir.              E-W
Scale Factor      7845(gal)/8223790
Max. Acc. (gal)   8.341
Last Correction   2016/04/16 01:25:59
Memo.             
[...]
    -831    -1011    -1175    -1291    -1377    -1451    -1499    -1512 
   -1491    -1425    -1312    -1143     -908     -618     -313      -32 
     187      342      442      492      511      533      595      710 
     851      978     1078     1135     1139     1120     1100     1071 
    1047     1046     1069     1097     1094     1035      912      738 
     535      334      147      -14     -139     -225     -289     -318 
    -292     -209      -94        5       54       63       68       98 
     144      174      163      126       97       98      118      117 
      86       51       14       -9        1       41       83       99 
      79       20      -98     -292     -530     -769    -1008    -1220 
   -1350    -1386    -1328    -1169     -926     -641     -348      -59 
     217      471      689      870     1013     1117     1167     1147 
    1047      876      670      479      326      203       78      -62 
    -193     -282     -328     -353     -373     -398     -453     -560 
    -702     -847     -957     -985     -929     -804     -612     -368 
    -108      128      313      438      515      573      654      808 
    1053     1320     1517     1611     1606     1495     1282      986 
     646      318       65      -75     -118     -122     -141     -174 
    -187     -174     -149     -108      -40       52      153      237 
     291      334      403      535      722      945     1200     1444 
    1597     1591     1425     1163      882      619      382      155 
     -91     -394     -760    -1132    -1444    -1671    -1811    -1891 
   -1930    -1937    -1903    -1811    -1682    -1584    -1540    -1506 
   -1439    -1308    -1111     -884     -672     -481     -313     -160 
      -8      178      399      619      812      954     1036     1101 
    1175     1235     1233     1144      987      791      550      261 
     -60     -388     -702    -1000    -1260    -1439    -1503    -1467 
   -1360    -1223    -1097    -1008     -953     -926     -923     -934 
    -958    -1005    -1075    -1155    -1237    -1302    -1332    -1324 
   -1273    -1181    -1055     -889     -689     -491     -344     -272 
    -249     -248     -259     -275     -303     -378     -500     -631 
    -720     -745     -714     -626     -476     -280      -60      151 
     311      391      411      421      437      438      421      394 
     351      295      241      211      232      295      398      548 
     727      899     1034     1111     1132     1143     1200     1313 
    1453     1599     1726     1798     1788     1691     1537     1370 
    1224     1112     1032      984      978     1034     1123     1188 
    1178     1073      884      658      438      246       94       -5 
     -54      -54       -1       86      176      238      259      241 
     210      171      103        9      -94     -202     -306     -383 
    -433     -454     -460     -472     -502     -545     -594     -630 
    -638     -623     -585     -522     -451     -395     -364     -375 
    -399     -380     -309     -207     -106      -45      -44      -82 
    -137     -190     -229     -270     -311     -329     -303     -234 
    -129      -10       82      129      143      120       62      -39 
    -193     -375     -535     -638     -665     -583     -407     -193 
      25      225      383      499      594      689      785      873 
     942      986     1004      992      942      880      855      877 
     936     1031     1170     1340     1501     1593     1580     1470 
    1313     1171     1081     1047     1046     1065     1081     1067 
    1020      953      877      797      708      616      537      469 
     396      315      216       74     -117     -325     -502     -625 
    -691     -712     -714     -715     -727     -751     -778     -792 
    -769     -692     -576     -437     -279     -116       37      175 
     287      375      437      464      460      451      468      522 
     604      676      720      760      793      803      761      652 
     498      353      259      225      245      291      321      313 
     263      194      144      136      148      141       86      -29 
    -180     -324     -446     -553     -643     -718     -769     -778 
    -710     -553     -351     -144       17      122      180      203 
     207      217      251      295      333      364      390      402 
     387      338      265      182      112       95      129      194 
     259      295      306      301      288      298      336      379 
     391      356      271      160       70       41       72      129 
     193      244      263      243      172       56      -63     -166 
    -245     -303     -360     -415     -449     -472     -500     -529 
    -540     -517     -429     -268      -63      152      349      479 
     506      421      241        4     -252     -488     -683     -810 
    -862     -857     -827     -795     -765     -715     -621     -480 
    -319     -156      -20       56       78       55        8      -29 
     -40      -21       29      102      178      237      259      248 
     225      217      233      284      370      464      553      648 
     753      842      896      908      884      827      739      614 
     454      255       -4     -311     -642     -973    -1286    -1570 
   -1822    -2031    -2193    -2300    -2336    -2312    -2235    -2092 
   -1880    -1597    -1242     -847     -468     -136      144      383 
     596      791      974     1147     1300     1416     1479     1479 
    1408     1282     1140     1004      886      778      670      537 
     344       98     -183     -467     -718     -907     -994     -970 
    -888     -792     -681     -560     -446     -332     -183       -1 
     207      440      677      895     1060     1133     1098      980 
     827      715      714      819      990     1185     1345     1420 
    1402     1305     1166     1039      939      855      795      753 
     715      660      550      383      194       32      -71     -128 
    -153     -174     -198     -232     -280     -325     -329     -315 
    -307     -286     -248     -201     -137      -85      -76     -106 
    -162     -224     -288     -363     -471     -642     -870    -1124 
   -1355    -1534    -1655    -1719    -1741    -1741    -1745    -1784 
   -1854    -1942    -2060    -2165    -2192    -2134    -1998    -1798 
   -1590    -1428    -1314    -1224    -1143    -1070     -992     -888 
    -741     -557     -342     -114      117      361      629      909 
    1188     1451     1684     1878     2026     2124     2200     2272 
    2319     2301     2208     2038     1787     1467     1104      720 
     332      -49     -417     -762    -1080    -1360    -1606    -1833 
   -2041    -2188    -2230    -2161    -2003    -1795    -1588    -1401 
   -1248    -1163    -1174    -1248    -1331    -1412    -1497    -1541 
   -1505    -1372    -1142     -843     -526     -228       32      257 
     457      645      835     1039     1259     1487     1694     1846 
    1929     1921     1799     1580     1331     1097      892      718 
     573      441      321      209       94      -39     -221     -464 
    -734    -1005    -1258    -1459    -1590    -1657    -1674    -1644 
   -1564    -1436    -1270    -1048     -739     -344      103      591 
    1098     1590     2023     2378     2641     2811     2918     2999 
    3059     3095     3117     3107     3051     2924     2705     2434 
    2168     1907     1641     1379     1113      822      488      117 
    -263     -630     -953    -1197    -1367    -1482    -1556    -1603 
   -1628    -1614    -1540    -1410    -1264    -1131    -1024     -954 
    -916     -908     -928     -961     -981     -963     -892     -766 
    -612     -459     -328     -238     -184     -144     -105      -51 
      41      199      387      540      623      630      579      496 
     411      357      365      453      610      805     1026     1278 
    1561     1871     2177     2427     2586     2644     2596     2452 
    2247     2001     1714     1398     1093      828      622      480 
     383      297      194       49     -148     -369     -583     -780 
    -954    -1112    -1267    -1383    -1409    -1327    -1136     -854 
    -531     -210       81      313      471      553      535      405 
     183      -90     -383     -649     -845     -957     -987     -978 
    -962     -931     -886     -851     -837     -849     -888     -947 
   -1028    -1150    -1336    -1567    -1773    -1923    -2049    -2144 
   -2166    -2144    -2100    -1999    -1845    -1642    -1387    -1101 
    -778     -438     -105      217      496      714      895     1058 
    1233     1472     1790     2126     2423     2635     2743     2782 
    2814     2867     2945     3053     3180     3315     3402     3379 
    3218     2896     2424     1863     1294      796      419      187 
     110      176      346      571      791      963     1065     1085 
    1038      947      818      639      396       79     -309     -728 
   -1135    -1490    -1729    -1800    -1699    -1462    -1140     -797 
    -492     -284     -210     -251     -346     -464     -591     -726 
    -861     -963    -1019    -1036    -1026    -1020    -1074    -1212 
   -1405    -1622    -1826    -1982    -2058    -2052    -1961    -1765 
   -1441    -1015     -542      -63      414      881     1318     1711 
    2042     2284     2452     2577     2656     2677     2640     2544 
    2373     2153     1962     1806     1624     1401     1136      810 
     450      122     -149     -338     -403     -336     -137      172 
     564     1038     1526     1934     2193     2215     1987     1557 
     978      346     -224     -684    -1028    -1250    -1362    -1393 
   -1333    -1169     -934     -677     -413     -129      182      584 
    1102     1637     2116     2554     2901     3078     3094     3032 
    2959     2884     2729     2405     1937     1402      816      191 
    -422     -996    -1513    -1937    -2231    -2409    -2540    -2673 
   -2778    -2909    -3169    -3480    -3727    -3977    -4170    -4166 
   -4002    -3676    -3167    -2560    -1846     -982        9     1069 
    2119     3092     3927     4573     5050     5362     5456     5335 
    5046     4639     4192     3759     3322     2843     2319     1764 
    1107      289     -656    -1651    -2577    -3379    -4074    -4648 
   -5042    -5336    -5769    -6409    -6974    -7284    -7435    -7442 
   -7268    -6959    -6523    -5979    -5412    -4922    -4521    -4122 
   -3678    -3232    -2816    -2400    -1998    -1664    -1413    -1210 
   -1007     -781     -530     -229      124      513      942     1405 
    1896     2389     2806     3088     3229     3211     3040     2716 
    2223     1580      822      -18     -859    -1632    -2272    -2687 
   -2818    -2608    -2046    -1213     -211      888     2004     3018 
    3915     4698     5305     5734     5980     6046     5983     5760 
    5363     4903     4455     4050     3759     3655     3747     3978 
    4248     4476     4618     4618     4455     4155     3744     3256 
    2708     2104     1451      749       37     -599    -1109    -1501 
   -1798    -1980    -1999    -1841    -1548    -1189     -810     -471 
    -203       28      240      422      581      733      869      985 
    1070     1086     1039      974      874      745      622      511 
     399      265       79     -193     -588    -1101    -1665    -2215 
   -2708    -3099    -3368    -3568    -3724    -3790    -3748    -3582 
   -3235    -2728    -2096    -1343     -521      294     1034     1638 
    2053     2276     2347     2300     2139     1869     1479      996 
     475      -43     -544     -977    -1258    -1352    -1296    -1139 
    -936     -730     -550     -418     -334     -302     -326     -383 
    -445     -498     -511     -438     -245       72      526     1093 
    1696     2273     2778     3168     3403     3466     3377     3190 
    2947     2674     2392     2098     1795     1495     1198      877 
     519      135     -214     -488     -696     -831     -888     -897 
    -897     -912     -957    -1060    -1263    -1549    -1857    -2115 
   -2270    -2282    -2151    -1930    -1667    -1356     -994     -623 
    -314     -110      -44     -136     -359     -681    -1088    -1547 
   -2014    -2452    -2863    -3240    -3522    -3724    -3880    -3939 
   -3858    -3645    -3275    -2743    -2106    -1444     -808     -182 
     432     1004     1534     2007     2405     2712     2909     2998 
    2974     2855     2697     2546     2457     2489     2594     2678 
    2690     2600     2397     2130     1864     1601     1310      994 
     662      322       18     -203     -357     -468     -526     -552 
    -602     -702     -835     -974    -1077    -1133    -1148    -1102 
    -986     -784     -475      -82      330      702      994     1212 
    1374     1517     1671     1825     1956     2047     2072     2010 
    1876     1683     1428     1131      830      557      341      207 
     162      195      295      457      675      959     1305     1684 
    2098     2531     2905     3175     3366     3484     3464     3296 
    3028     2641     2124     1520      877      201     -533    -1332 
   -2189    -3109    -4071    -4976    -5715    -6386    -7141    -7827 
   -8276    -8567    -8716    -8723    -8665    -8532    -8307    -7944 
   -7389    -6733    -6006    -5171    -4243    -3256    -2309    -1513 
    -877     -410     -144      -52      -64     -170     -352     -540 
    -697     -814     -850     -799     -673     -506     -346     -220 
    -136      -94      -68      -29       20       47       36      -14 
    -105     -246     -441     -660     -889    -1109    -1274    -1356 
   -1362    -1345    -1350    -1386    -1483    -1618    -1744    -1846 
   -1904    -1891    -1783    -1548    -1170     -679     -129      449 
    1035     1602     2133     2604     3001     3331     3627     3912 
    4170     4386     4568     4716     4783     4722     4544     4320 
    4098     3913     3802     3769     3778     3755     3640     3440 
    3161     2789     2328     1841     1404     1038      734      469 
     217       -9     -203     -379     -546     -700     -827     -916 
    -961     -985    -1021    -1073    -1139    -1230    -1354    -1493 
   -1648    -1837    -2074    -2359    -2669    -2974    -3240    -3435 
   -3554    -3627    -3669    -3681    -3705    -3738    -3682    -3565 
   -3646    -3897    -3967    -3932    -3950    -3827    -3609    -3410 
   -3134    -2808    -2440    -1992    -1497     -982     -441      112 
     668     1200     1657     1992     2191     2273     2289     2272 
    2251     2247     2263     2286     2304     2315     2293     2208 
    2058     1872     1686     1513     1352     1235     1179     1167 
    1194     1291     1455     1637     1817     1982     2102     2153 
    2141     2104     2065     2050     2098     2228     2411     2604 
    2772     2922     3076     3241     3393     3524     3632     3709 
    3754     3771     3719     3572     3353     3068     2727     2338 
    1903     1447      973      444     -155     -820    -1540    -2267 
   -2957    -3577    -4079    -4440    -4654    -4719    -4665    -4509 
   -4247    -3919    -3562    -3200    -2867    -2571    -2319    -2118 
   -1926    -1719    -1499    -1287    -1112    -1005     -985    -1053 
   -1200    -1391    -1582    -1723    -1792    -1813    -1818    -1837 
   -1912    -2057    -2236    -2415    -2565    -2674    -2744    -2799 
   -2863    -2933    -3017    -3100    -3154    -3161    -3105    -2960 
   -2731    -2424    -2069    -1722    -1426    -1192    -1012     -892 
    -826     -765     -700     -670     -684     -711     -724     -710 
    -675     -614     -513     -364     -202      -86      -39      -31 
     -67     -180     -356     -566     -796    -1003    -1169    -1291 
   -1347    -1340    -1320    -1290    -1250    -1225    -1205    -1151 
   -1057     -926     -753     -526     -252       62      398      714 
     996     1242     1444     1605     1702     1707     1642     1543 
    1422     1296     1194     1146     1166     1266     1437     1651 
    1871     2069     2211     2265     2223     2091     1898     1672 
    1417     1142      842      498      109     -313     -733    -1120 
   -1453    -1713    -1880    -1960    -1975    -1929    -1833    -1744 
   -1675    -1606    -1543    -1462    -1331    -1154     -954     -756 
    -575     -423     -305     -214     -141      -75        1      118 
     301      531      793     1084     1394     1703     1992     2232 
    2388     2450     2420     2300     2114     1908     1710     1535 
    1410     1351     1364     1433     1520     1599     1672     1728 
    1745     1717     1645     1522     1362     1178      963      741 
     540      359      197       56      -47      -90      -75      -20 
      58      129      163      144       79      -25     -156     -280 
    -390     -519     -695     -916    -1173    -1418    -1599    -1682 
   -1641    -1483    -1233     -913     -553     -201      105      344 
     502      575      591      576      526      464      417      394 
     394      391      359      309      259      224      198      178 
     170      171      191      230      274      321      369      425 
     519      668      868     1115     1398     1688     1954     2165 
    2307     2397     2442     2448     2416     2332     2178     1968 
    1713     1418     1124      873      708      665      745      926 
    1171     1429     1645     1784     1844     1833     1775     1709 
    1649     1576     1483     1375     1263     1147     1011      868 
     734      602      473      367      291      237      222      286 
     444      687     1000     1350     1686     1956     2130     2207 
    2176     2041     1842     1648     1498     1375     1260     1140 
     985      789      564      303       27     -225     -434     -572 
    -610     -560     -422     -207       58      344      619      850 
    1017     1107     1125     1081      984      838      654      442 
     198      -82     -372     -627     -818     -940     -997    -1000 
    -953     -851     -714     -568     -440     -368     -402     -553 
    -784    -1065    -1366    -1641    -1883    -2088    -2223    -2267 
   -2232    -2130    -1988    -1833    -1682    -1559    -1489    -1476 
   -1509    -1571    -1674    -1826    -2012    -2185    -2309    -2354 
   -2305    -2166    -1964    -1729    -1485    -1243    -1005     -766 
    -537     -319      -94      129      336      535      745      945 
    1131     1323     1522     1725     1911     2058     2169     2255 
    2319     2392     2496     2624     2771     2928     3056     3125 
    3099     2970     2751     2458     2110     1736     1367     1023 
     697      378       60     -251     -564     -882    -1190    -1457 
   -1665    -1779    -1763    -1624    -1390    -1081     -730     -370 
      -5      359      715     1084     1472     1859     2214     2504 
    2716     2824     2809     2694     2529     2355     2203     2098 
