Origin Time       2016/04/16 01:25:00
Lat.              32.753
Long.             130.762
Depth. (km)       12
Mag.              7.3
Station Code      KOC017
Station Lat.      33.7691
Station Long.     133.6565
Station Height(m) 300
Record Time       2016/04/16 01:26:31
Sampling Freq(Hz) 100Hz
Duration Time(s)  75
Dir.              N-S
Scale Factor      7845(gal)/8223790
Max. Acc. (gal)   6.503
Last Correction   2016/04/16 01:26:31
Memo.             
[...]
   -6949    -6987    -7025    -7045    -7038    -7025    -7011    -6994 
   -6979    -6978    -6984    -6988    -6994    -7007    -7015    -6998 
   -6955    -6909    -6875    -6851    -6820    -6789    -6771    -6771 
   -6782    -6804    -6814    -6806    -6787    -6777    -6777    -6774 
   -6763    -6735    -6698    -6666    -6632    -6596    -6574    -6569 
   -6581    -6613    -6669    -6729    -6782    -6817    -6837    -6858 
   -6878    -6883    -6870    -6851    -6820    -6775    -6724    -6678 
   -6650    -6637    -6635    -6643    -6658    -6658    -6633    -6602 
   -6579    -6569    -6563    -6554    -6556    -6574    -6615    -6681 
   -6760    -6836    -6901    -6957    -7015    -7079    -7144    -7213 
   -7284    -7339    -7354    -7331    -7294    -7245    -7196    -7165 
   -7164    -7188    -7233    -7283    -7315    -7323    -7323    -7335 
   -7357    -7375    -7380    -7369    -7342    -7302    -7248    -7186 
   -7132    -7105    -7110    -7138    -7175    -7203    -7215    -7210 
   -7188    -7167    -7164    -7184    -7230    -7302    -7388    -7464 
   -7512    -7528    -7520    -7504    -7489    -7489    -7501    -7515 
   -7527    -7541    -7553    -7566    -7580    -7577    -7550    -7499 
   -7441    -7395    -7361    -7322    -7260    -7180    -7102    -7028 
   -6952    -6885    -6828    -6782    -6744    -6714    -6690    -6659 
   -6613    -6559    -6512    -6475    -6431    -6376    -6328    -6288 
   -6249    -6208    -6165    -6130    -6122    -6150    -6204    -6269 
   -6330    -6373    -6397    -6416    -6438    -6474    -6525    -6582 
   -6635    -6679    -6704    -6709    -6693    -6655    -6597    -6521 
   -6438    -6358    -6285    -6224    -6180    -6147    -6104    -6038 
   -5962    -5891    -5830    -5783    -5748    -5726    -5721    -5733 
   -5752    -5767    -5780    -5800    -5826    -5863    -5915    -5988 
   -6079    -6172    -6243    -6285    -6312    -6342    -6385    -6434 
   -6478    -6516    -6552    -6585    -6606    -6623    -6637    -6655 
   -6677    -6700    -6716    -6721    -6732    -6756    -6786    -6805 
   -6808    -6802    -6795    -6786    -6781    -6781    -6786    -6789 
   -6779    -6770    -6766    -6759    -6739    -6714    -6686    -6651 
   -6615    -6592    -6585    -6581    -6583    -6612    -6671    -6743 
   -6804    -6848    -6867    -6841    -6777    -6698    -6631    -6589 
   -6564    -6550    -6542    -6538    -6536    -6531    -6524    -6505 
   -6470    -6417    -6353    -6288    -6238    -6200    -6178    -6173 
   -6174    -6181    -6184    -6181    -6184    -6207    -6249    -6299 
   -6346    -6377    -6396    -6412    -6426    -6438    -6454    -6477 
   -6516    -6589    -6686    -6790    -6889    -6974    -7040    -7082 
   -7099    -7092    -7064    -7009    -6932    -6858    -6810    -6787 
   -6781    -6782    -6791    -6799    -6798    -6785    -6755    -6709 
   -6658    -6615    -6579    -6550    -6520    -6494    -6484    -6494 
   -6521    -6552    -6575    -6593    -6605    -6612    -6616    -6623 
   -6635    -6655    -6664    -6659    -6643    -6627    -6621    -6620 
   -6617    -6605    -6569    -6513    -6448    -6377    -6308    -6250 
   -6211    -6197    -6211    -6242    -6303    -6392    -6498    -6605 
   -6698    -6771    -6828    -6872    -6901    -6912    -6907    -6906 
   -6918    -6941    -6968    -6995    -7014    -7028    -7038    -7040 
   -7022    -6990    -6944    -6881    -6822    -6772    -6733    -6706 
   -6696    -6697    -6704    -6717    -6750    -6799    -6855    -6895 
   -6906    -6895    -6879    -6870    -6872    -6883    -6891    -6899 
   -6912    -6937    -6972    -7011    -7048    -7071    -7068    -7047 
   -7025    -7015    -7010    -7007    -7005    -7014    -7037    -7059 
   -7060    -7044    -7029    -7017    -7013    -7023    -7056    -7119 
   -7203    -7272    -7322    -7362    -7385    -7371    -7325    -7280 
   -7257    -7254    -7264    -7283    -7299    -7292    -7246    -7157 
   -7038    -6902    -6760    -6631    -6525    -6443    -6385    -6359 
   -6356    -6363    -6377    -6389    -6403    -6416    -6421    -6411 
   -6389    -6369    -6349    -6330    -6320    -6323    -6331    -6332 
   -6335    -6350    -6386    -6454    -6531    -6596    -6652    -6710 
   -6762    -6802    -6829    -6843    -6845    -6848    -6863    -6891 
   -6937    -7001    -7067    -7132    -7202    -7271    -7323    -7357 
   -7380    -7406    -7434    -7470    -7512    -7553    -7570    -7557 
   -7530    -7500    -7469    -7435    -7396    -7350    -7291    -7222 
   -7150    -7074    -6995    -6929    -6885    -6863    -6848    -6837 
   -6826    -6818    -6814    -6821    -6833    -6840    -6839    -6822 
   -6806    -6797    -6786    -6767    -6744    -6717    -6685    -6662 
   -6660    -6678    -6696    -6702    -6697    -6683    -6658    -6623 
   -6588    -6554    -6524    -6511    -6508    -6509    -6517    -6535 
   -6555    -6564    -6562    -6551    -6540    -6535    -6531    -6519 
   -6494    -6467    -6454    -6457    -6470    -6493    -6520    -6543 
   -6552    -6551    -6546    -6542    -6551    -6575    -6619    -6683 
   -6764    -6852    -6940    -7014    -7079    -7142    -7198    -7253 
   -7307    -7357    -7399    -7439    -7485    -7530    -7564    -7577 
   -7568    -7542    -7506    -7458    -7411    -7371    -7335    -7307 
   -7279    -7252    -7236    -7229    -7226    -7222    -7217    -7210 
   -7191    -7157    -7119    -7089    -7068    -7037    -6990    -6943 
   -6912    -6905    -6910    -6912    -6907    -6901    -6883    -6848 
   -6801    -6751    -6711    -6689    -6679    -6686    -6702    -6717 
   -6725    -6724    -6718    -6714    -6704    -6685    -6667    -6655 
   -6658    -6681    -6728    -6794    -6860    -6924    -6979    -7007 
   -7009    -6995    -6976    -6955    -6926    -6895    -6864    -6833 
   -6802    -6777    -6764    -6758    -6747    -6732    -6717    -6706 
   -6701    -6697    -6693    -6691    -6690    -6685    -6683    -6693 
   -6720    -6751    -6772    -6782    -6793    -6798    -6789    -6760 
   -6710    -6647    -6592    -6554    -6540    -6547    -6562    -6575 
   -6585    -6589    -6577    -6543    -6486    -6413    -6338    -6272 
   -6216    -6170    -6135    -6115    -6112    -6124    -6143    -6174 
   -6214    -6252    -6284    -6312    -6343    -6378    -6413    -6453 
   -6496    -6542    -6590    -6639    -6681    -6718    -6759    -6794 
   -6820    -6839    -6848    -6845    -6826    -6789    -6739    -6689 
   -6639    -6596    -6571    -6567    -6578    -6598    -6627    -6654 
   -6667    -6666    -6659    -6642    -6617    -6586    -6554    -6525 
   -6502    -6486    -6474    -6467    -6470    -6480    -6477    -6457 
   -6432    -6412    -6389    -6365    -6338    -6312    -6296    -6292 
   -6303    -6326    -6354    -6389    -6431    -6471    -6513    -6555 
   -6588    -6613    -6621    -6604    -6585    -6583    -6600    -6628 
   -6663    -6697    -6713    -6711    -6704    -6694    -6687    -6700 
   -6741    -6802    -6864    -6921    -6979    -7044    -7113    -7182 
   -7252    -7318    -7375    -7426    -7466    -7495    -7510    -7507 
   -7484    -7453    -7429    -7414    -7395    -7361    -7321    -7287 
   -7269    -7263    -7257    -7246    -7231    -7218    -7209    -7202 
   -7198    -7198    -7200    -7203    -7206    -7200    -7183    -7150 
   -7103    -7047    -6990    -6943    -6906    -6881    -6868    -6863 
   -6862    -6868    -6875    -6870    -6853    -6828    -6801    -6779 
   -6758    -6744    -6747    -6759    -6774    -6793    -6813    -6829 
   -6832    -6825    -6815    -6810    -6802    -6795    -6793    -6801 
   -6812    -6822    -6837    -6859    -6889    -6921    -6957    -7006 
   -7065    -7137    -7215    -7287    -7345    -7381    -7393    -7391 
   -7383    -7371    -7350    -7321    -7280    -7230    -7179    -7126 
   -7074    -7025    -6979    -6934    -6890    -6847    -6812    -6787 
   -6772    -6770    -6775    -6789    -6815    -6851    -6895    -6939 
   -6974    -7002    -7017    -7010    -6982    -6934    -6885    -6835 
   -6782    -6728    -6675    -6629    -6597    -6577    -6563    -6554 
   -6552    -6556    -6567    -6588    -6615    -6648    -6682    -6716 
   -6752    -6789    -6821    -6851    -6876    -6897    -6919    -6952 
   -6985    -7003    -7001    -6975    -6921    -6839    -6739    -6635 
   -6543    -6467    -6411    -6373    -6351    -6339    -6339    -6354 
   -6378    -6409    -6454    -6517    -6585    -6648    -6701    -6741 
   -6775    -6805    -6845    -6899    -6961    -7029    -7099    -7172 
   -7250    -7339    -7434    -7520    -7592    -7632    -7636    -7614 
   -7580    -7538    -7492    -7444    -7400    -7354    -7300    -7238 
   -7164    -7075    -6972    -6858    -6727    -6581    -6435    -6305 
   -6195    -6097    -6010    -5934    -5871    -5818    -5784    -5773 
   -5786    -5805    -5813    -5813    -5811    -5798    -5775    -5745 
   -5722    -5710    -5706    -5711    -5719    -5719    -5701    -5661 
   -5623    -5593    -5559    -5518    -5481    -5455    -5440    -5436 
   -5433    -5420    -5394    -5364    -5343    -5339    -5350    -5358 
   -5362    -5371    -5394    -5428    -5467    -5516    -5564    -5606 
   -5652    -5705    -5760    -5827    -5899    -5961    -6008    -6035 
   -6039    -6018    -5983    -5953    -5931    -5918    -5914    -5926 
   -5956    -5996    -6035    -6062    -6080    -6100    -6133    -6185 
   -6261    -6356    -6467    -6585    -6705    -6832    -6970    -7110 
   -7260    -7415    -7572    -7736    -7908    -8073    -8222    -8352 
   -8457    -8538    -8604    -8661    -8716    -8783    -8856    -8934 
   -9015    -9089    -9150    -9197    -9231    -9254    -9262    -9256 
   -9244    -9220    -9180    -9137    -9090    -9035    -8968    -8900 
   -8842    -8803    -8785    -8787    -8800    -8806    -8796    -8772 
   -8739    -8700    -8658    -8603    -8530    -8441    -8352    -8256 
   -8154    -8048    -7944    -7842    -7738    -7631    -7520    -7411 
   -7312    -7226    -7157    -7106    -7072    -7053    -7038    -7017 
   -6988    -6944    -6889    -6821    -6743    -6655    -6573    -6498 
   -6421    -6331    -6227    -6114    -5988    -5859    -5740    -5645 
   -5579    -5533    -5505    -5502    -5516    -5536    -5563    -5599 
   -5647    -5711    -5792    -5881    -5971    -6054    -6130    -6199 
   -6268    -6347    -6439    -6542    -6640    -6729    -6821    -6925 
   -7040    -7157    -7267    -7360    -7429    -7473    -7497    -7507 
   -7501    -7492    -7481    -7466    -7450    -7434    -7420    -7408 
   -7396    -7372    -7319    -7240    -7132    -6995    -6851    -6717 
   -6605    -6511    -6423    -6347    -6290    -6255    -6243    -6247 
   -6262    -6285    -6305    -6313    -6305    -6284    -6258    -6239 
   -6228    -6222    -6219    -6224    -6243    -6282    -6345    -6431 
   -6538    -6654    -6777    -6910    -7047    -7177    -7296    -7404 
   -7507    -7597    -7669    -7717    -7736    -7726    -7689    -7626 
   -7541    -7447    -7349    -7236    -7115    -6997    -6876    -6762 
   -6660    -6575    -6516    -6485    -6484    -6507    -6548    -6608 
   -6670    -6729    -6790    -6852    -6914    -6975    -7026    -7056 
   -7069    -7064    -7042    -7021    -7010    -7017    -7044    -7092 
   -7159    -7238    -7327    -7429    -7539    -7657    -7771    -7881 
   -7989    -8089    -8175    -8245    -8291    -8318    -8336    -8345 
   -8340    -8321    -8291    -8244    -8189    -8139    -8104    -8078 
   -8060    -8040    -8013    -7964    -7900    -7827    -7746    -7662 
   -7580    -7496    -7415    -7344    -7279    -7223    -7186    -7168 
   -7183    -7234    -7306    -7380    -7452    -7514    -7569    -7626 
   -7695    -7773    -7857    -7944    -8037    -8127    -8208    -8283 
   -8351    -8398    -8414    -8390    -8317    -8206    -8068    -7909 
   -7739    -7565    -7395    -7233    -7076    -6919    -6768    -6625 
   -6488    -6359    -6249    -6156    -6079    -6022    -5991    -5987 
   -6016    -6075    -6146    -6226    -6311    -6389    -6462    -6529 
   -6592    -6648    -6696    -6727    -6737    -6727    -6683    -6600 
   -6471    -6312    -6134    -5954    -5795    -5655    -5537    -5455 
   -5406    -5386    -5391    -5427    -5481    -5549    -5625    -5709 
   -5798    -5894    -5984    -6073    -6176    -6292    -6431    -6593 
   -6781    -6985    -7196    -7400    -7578    -7722    -7825    -7884 
   -7906    -7908    -7894    -7871    -7846    -7821    -7811    -7827 
   -7865    -7906    -7939    -7950    -7928    -7890    -7854    -7830 
   -7827    -7847    -7889    -7964    -8071    -8212    -8391    -8611 
   -8851    -9108    -9379    -9643    -9883   -10093   -10262   -10396 
  -10509   -10604   -10671   -10732   -10788   -10839   -10891   -10941 
  -10974   -10998   -11005   -10980   -10937   -10879   -10795   -10682 
  -10537   -10370   -10184    -9981    -9771    -9555    -9336    -9127 
   -8937    -8773    -8633    -8502    -8380    -8270    -8166    -8077 
   -8000    -7925    -7854    -7781    -7705    -7641    -7585    -7541 
   -7504    -7466    -7415    -7345    -7242    -7099    -6919    -6702 
   -6448    -6162    -5848    -5517    -5179    -4841    -4511    -4199 
   -3902    -3615    -3334    -3060    -2794    -2542    -2303    -2079 
   -1872    -1677    -1497    -1324    -1144     -958     -773     -596 
    -432     -283     -159      -68      -11       11        8      -23 
     -90     -193     -329     -502     -720     -977    -1260    -1559 
   -1857    -2141    -2405    -2652    -2879    -3092    -3299    -3508 
   -3717    -3931    -4144    -4356    -4571    -4796    -5039    -5298 
   -5566    -5838    -6112    -6388    -6666    -6943    -7211    -7470 
   -7716    -7940    -8141    -8319    -8471    -8596    -8702    -8795 
   -8884    -8974    -9067    -9165    -9258    -9346    -9436    -9536 
   -9647    -9767    -9894   -10034   -10176   -10308   -10438   -10565 
  -10654   -10704   -10728   -10725   -10705   -10689   -10689   -10709 
  -10746   -10793   -10839   -10879   -10909   -10926   -10932   -10925 
  -10902   -10870   -10843   -10821   -10809   -10810   -10821   -10836 
  -10845   -10844   -10825   -10775   -10697   -10596   -10478   -10353 
  -10226   -10100    -9977    -9859    -9747    -9628    -9487    -9343 
   -9196    -9042    -8895    -8757    -8622    -8500    -8387    -8271 
   -8163    -8060    -7969    -7898    -7851    -7820    -7797    -7765 
   -7716    -7647    -7564    -7469    -7376    -7292    -7225    -7160 
   -7092    -7018    -6929    -6832    -6736    -6644    -6556    -6469 
   -6373    -6276    -6186    -6115    -6076    -6064    -6066    -6068 
   -6054    -6015    -5952    -5867    -5771    -5676    -5601    -5557 
   -5548    -5571    -5614    -5668    -5732    -5791    -5845    -5894 
   -5937    -5971    -5999    -6022    -6042    -6076    -6119    -6168 
   -6228    -6307    -6401    -6509    -6615    -6700    -6760    -6801 
   -6831    -6855    -6872    -6879    -6871    -6845    -6808    -6770 
   -6743    -6728    -6720    -6716    -6708    -6687    -6660    -6627 
   -6585    -6531    -6470    -6403    -6346    -6309    -6304    -6340 
   -6426    -6551    -6702    -6856    -6990    -7094    -7167    -7207 
   -7225    -7227    -7226    -7236    -7260    -7291    -7329    -7371 
   -7415    -7457    -7479    -7474    -7449    -7402    -7337    -7268 
   -7200    -7132    -7075    -7038    -7025    -7032    -7056    -7088 
   -7111    -7126    -7138    -7165    -7222    -7298    -7383    -7474 
   -7560    -7626    -7670    -7685    -7674    -7636    -7584    -7523 
   -7454    -7371    -7284    -7203    -7137    -7088    -7056    -7032 
   -7006    -6980    -6952    -6921    -6894    -6870    -6837    -6797 
   -6750    -6690    -6615    -6517    -6397    -6258    -6114    -5977 
   -5860    -5765    -5683    -5610    -5557    -5525    -5506    -5501 
   -5502    -5503    -5503    -5510    -5525    -5541    -5552    -5557 
   -5555    -5547    -5525    -5485    -5429    -5359    -5277    -5198 
   -5128    -5065    -5019    -5001    -5015    -5062    -5139    -5235 
   -5343    -5454    -5559    -5664    -5772    -5883    -5992    -6099 
   -6192    -6269    -6320    -6335    -6312    -6264    -6199    -6126 
   -6057    -6000    -5950    -5895    -5827    -5752    -5668    -5576 
   -5479    -5379    -5278    -5178    -5071    -4954    -4833    -4703 
   -4563    -4414    -4260    -4107    -3955    -3809    -3682    -3588 
   -3530    -3511    -3528    -3572    -3628    -3693    -3762    -3838 
   -3915    -3987    -4058    -4131    -4212    -4306    -4410    -4518 
   -4621    -4712    -4793    -4869    -4945    -5013    -5080    -5152 
   -5231    -5324    -5435    -5557    -5689    -5834    -5991    -6158 
   -6330    -6504    -6683    -6864    -7051    -7244    -7442    -7643 
   -7852    -8073    -8301    -8536    -8761    -8970    -9159    -9324 
   -9459    -9563    -9639    -9686    -9701    -9691    -9655    -9593 
   -9509    -9404    -9294    -9184    -9070    -8965    -8861    -8750 
   -8631    -8509    -8390    -8274    -8166    -8068    -7979    -7896 
   -7812    -7720    -7614    -7484    -7323    -7153    -6990    -6840 
   -6714    -6606    -6502    -6407    -6319    -6239    -6172    -6114 
   -6069    -6039    -6019    -6008    -6012    -6030    -6053    -6085 
   -6124    -6165    -6196    -6216    -6223    -6219    -6214    -6212 
   -6219    -6243    -6276    -6312    -6351    -6384    -6404    -6411 
   -6401    -6381    -6354    -6318    -6274    -6214    -6146    -6070 
   -5983    -5881    -5765    -5634    -5502    -5374    -5247    -5131 
   -5036    -4972    -4945    -4958    -5000    -5053    -5101    -5136 
   -5148    -5131    -5085    -5003    -4882    -4734    -4581    -4431 
   -4287    -4159    -4050    -3940    -3835    -3730    -3615    -3491 
   -3345    -3176    -2983    -2775    -2573    -2385    -2223    -2089 
   -1987    -1912    -1868    -1852    -1858    -1883    -1919    -1966 
   -2014    -2062    -2116    -2177    -2246    -2332    -2434    -2538 
   -2636    -2735    -2822    -2903    -2982    -3044    -3087    -3121 
   -3149    -3183    -3230    -3283    -3336    -3396    -3454    -3510 
   -3576    -3653    -3735    -3832    -3948    -4079    -4228    -4401 
   -4602    -4816    -5036    -5250    -5440    -5598    -5727    -5825 
   -5884    -5913    -5923    -5922    -5918    -5918    -5922    -5934 
   -5956    -5984    -6008    -6031    -6058    -6092    -6143    -6222 
   -6328    -6462    -6617    -6777    -6928    -7068    -7200    -7326 
   -7454    -7603    -7773    -7958    -8151    -8340    -8513    -8665 
   -8787    -8877    -8945    -8993    -9027    -9050    -9073    -9100 
   -9128    -9155    -9182    -9209    -9225    -9225    -9212    -9193 
   -9163    -9120    -9069    -9005    -8931    -8847    -8758    -8662 
   -8560    -8451    -8336    -8214    -8077    -7929    -7773    -7607 
   -7433    -7256    -7080    -6906    -6736    -6574    -6412    -6252 
   -6092    -5919    -5726    -5519    -5316    -5123    -4947    -4788 
   -4644    -4509    -4375    -4248    -4140    -4055    -4000    -3986 
   -4010    -4066    -4145    -4230    -4307    -4369    -4410    -4438 
