Origin Time       2016/04/16 01:25:00
Lat.              32.753
Long.             130.762
Depth. (km)       12
Mag.              7.3
Station Code      KOC005
Station Lat.      33.5934
Station Long.     133.6921
Station Height(m) 26
Record Time       2016/04/16 01:26:00
Sampling Freq(Hz) 100Hz
Duration Time(s)  113
Dir.              N-S
Scale Factor      7845(gal)/8223790
Max. Acc. (gal)   4.582
Last Correction   2016/04/16 01:26:01
Memo.             
[...]
  -13262   -13176   -13082   -12997   -12927   -12870   -12822   -12779 
  -12752   -12745   -12754   -12798   -12881   -12996   -13144   -13304 
  -13432   -13516   -13555   -13564   -13555   -13533   -13514   -13504 
  -13485   -13446   -13379   -13279   -13171   -13066   -12964   -12901 
  -12901   -12945   -13003   -13049   -13076   -13090   -13096   -13109 
  -13151   -13220   -13314   -13408   -13466   -13487   -13479   -13436 
  -13362   -13262   -13150   -13042   -12953   -12881   -12820   -12765 
  -12706   -12649   -12623   -12660   -12764   -12918   -13080   -13201 
  -13261   -13265   -13242   -13203   -13161   -13134   -13129   -13143 
  -13162   -13172   -13163   -13135   -13116   -13127   -13167   -13228 
  -13281   -13292   -13234   -13119   -12977   -12845   -12753   -12727 
  -12766   -12841   -12926   -13005   -13078   -13163   -13269   -13378 
  -13462   -13498   -13483   -13441   -13393   -13340   -13273   -13194 
  -13112   -13042   -12995   -12982   -13018   -13068   -13096   -13096 
  -13081   -13073   -13105   -13176   -13263   -13347   -13408   -13437 
  -13448   -13439   -13408   -13365   -13304   -13224   -13135   -13059 
  -13032   -13061   -13105   -13146   -13180   -13203   -13230   -13261 
  -13292   -13332   -13380   -13437   -13504   -13540   -13525   -13477 
  -13405   -13311   -13211   -13109   -13011   -12914   -12814   -12730 
  -12683   -12668   -12671   -12672   -12669   -12680   -12711   -12754 
  -12799   -12822   -12820   -12785   -12722   -12667   -12647   -12669 
  -12733   -12808   -12870   -12904   -12898   -12862   -12802   -12722 
  -12641   -12569   -12514   -12490   -12484   -12482   -12486   -12498 
  -12523   -12595   -12707   -12830   -12962   -13104   -13251   -13390 
  -13500   -13570   -13591   -13549   -13454   -13336   -13223   -13132 
  -13077   -13057   -13062   -13085   -13106   -13126   -13134   -13120 
  -13096   -13069   -13043   -13026   -12992   -12921   -12818   -12707 
  -12626   -12577   -12555   -12561   -12596   -12636   -12671   -12704 
  -12722   -12722   -12703   -12663   -12626   -12623   -12652   -12694 
  -12729   -12762   -12807   -12845   -12854   -12827   -12771   -12702 
  -12629   -12568   -12553   -12579   -12621   -12671   -12719   -12777 
  -12861   -12947   -13034   -13144   -13259   -13371   -13493   -13605 
  -13705   -13787   -13806   -13757   -13662   -13531   -13406   -13324 
  -13275   -13247   -13211   -13147   -13055   -12947   -12876   -12881 
  -12960   -13082   -13220   -13335   -13413   -13444   -13431   -13412 
  -13400   -13385   -13367   -13336   -13293   -13250   -13186   -13128 
  -13104   -13106   -13139   -13207   -13289   -13375   -13441   -13459 
  -13436   -13396   -13358   -13346   -13360   -13398   -13444   -13460 
  -13427   -13340   -13215   -13078   -12954   -12858   -12806   -12811 
  -12864   -12933   -12993   -13024   -13023   -13004   -12993   -13009 
  -13053   -13112   -13176   -13228   -13265   -13294   -13317   -13329 
  -13343   -13350   -13350   -13358   -13382   -13429   -13495   -13558 
  -13597   -13597   -13537   -13421   -13279   -13129   -13000   -12916 
  -12880   -12888   -12926   -12968   -13003   -13019   -13019   -13032 
  -13051   -13046   -13015   -12946   -12850   -12750   -12645   -12565 
  -12540   -12575   -12672   -12798   -12910   -12999   -13054   -13076 
  -13096   -13116   -13136   -13158   -13165   -13143   -13101   -13039 
  -12978   -12935   -12915   -12930   -12964   -12995   -13019   -13045 
  -13088   -13174   -13293   -13423   -13544   -13631   -13671   -13662 
  -13602   -13514   -13423   -13339   -13271   -13203   -13120   -13039 
  -12962   -12888   -12838   -12812   -12807   -12830   -12857   -12869 
  -12869   -12853   -12831   -12822   -12820   -12846   -12907   -12966 
  -13011   -13028   -13008   -12976   -12937   -12912   -12921   -12957 
  -13020   -13109   -13198   -13275   -13320   -13313   -13267   -13196 
  -13103   -13000   -12912   -12847   -12808   -12793   -12784   -12776 
  -12779   -12793   -12822   -12881   -12945   -12997   -13036   -13059 
  -13077   -13101   -13149   -13220   -13290   -13340   -13360   -13365 
  -13373   -13385   -13404   -13436   -13479   -13537   -13603   -13652 
  -13670   -13654   -13603   -13539   -13478   -13416   -13359   -13320 
  -13297   -13304   -13332   -13354   -13369   -13374   -13362   -13342 
  -13319   -13308   -13323   -13346   -13365   -13378   -13380   -13380 
  -13383   -13389   -13409   -13451   -13497   -13535   -13568   -13603 
  -13652   -13710   -13734   -13707   -13637   -13525   -13389   -13243 
  -13112   -13030   -12996   -13000   -13036   -13078   -13111   -13117 
  -13084   -13026   -12957   -12895   -12861   -12853   -12869   -12903 
  -12928   -12935   -12927   -12910   -12888   -12850   -12779   -12702 
  -12636   -12587   -12571   -12591   -12627   -12663   -12684   -12698 
  -12712   -12733   -12773   -12830   -12892   -12966   -13041   -13101 
  -13157   -13200   -13219   -13220   -13203   -13159   -13104   -13053 
  -13022   -13020   -13039   -13062   -13069   -13049   -13014   -12995 
  -13001   -13035   -13092   -13155   -13217   -13270   -13294   -13292 
  -13273   -13248   -13232   -13213   -13193   -13181   -13174   -13178 
  -13184   -13171   -13144   -13090   -13018   -12951   -12901   -12869 
  -12861   -12857   -12846   -12826   -12789   -12748   -12703   -12653 
  -12613   -12584   -12568   -12564   -12575   -12606   -12656   -12713 
  -12772   -12827   -12884   -12943   -13008   -13078   -13139   -13189 
  -13212   -13205   -13182   -13143   -13092   -13042   -13014   -13023 
  -13061   -13101   -13128   -13134   -13112   -13070   -13012   -12949 
  -12900   -12876   -12864   -12858   -12843   -12804   -12748   -12690 
  -12642   -12609   -12595   -12617   -12661   -12727   -12808   -12884 
  -12946   -12996   -13027   -13046   -13049   -13028   -12987   -12915 
  -12839   -12807   -12830   -12906   -13014   -13109   -13159   -13159 
  -13127   -13093   -13082   -13108   -13149   -13182   -13207   -13205 
  -13170   -13112   -13047   -12989   -12954   -12938   -12934   -12930 
  -12921   -12903   -12872   -12841   -12819   -12798   -12775   -12737 
  -12677   -12622   -12595   -12609   -12679   -12804   -12966   -13142 
  -13289   -13374   -13380   -13321   -13227   -13139   -13104   -13142 
  -13224   -13316   -13378   -13383   -13332   -13240   -13131   -13054 
  -13034   -13069   -13139   -13211   -13259   -13284   -13281   -13275 
  -13273   -13277   -13306   -13347   -13373   -13379   -13363   -13323 
  -13277   -13230   -13172   -13112   -13042   -12964   -12884   -12814 
  -12772   -12766   -12776   -12799   -12854   -12950   -13088   -13247 
  -13392   -13500   -13576   -13626   -13654   -13651   -13609   -13544 
  -13466   -13387   -13336   -13306   -13288   -13279   -13265   -13243 
  -13240   -13266   -13325   -13413   -13495   -13551   -13574   -13552 
  -13487   -13382   -13250   -13112   -12981   -12887   -12838   -12825 
  -12845   -12877   -12887   -12868   -12830   -12781   -12746   -12737 
  -12749   -12802   -12891   -12993   -13092   -13157   -13165   -13128 
  -13069   -13019   -13015   -13062   -13151   -13263   -13373   -13458 
  -13508   -13516   -13489   -13451   -13412   -13389   -13379   -13370 
  -13355   -13329   -13286   -13235   -13182   -13120   -13047   -12964 
  -12872   -12796   -12742   -12707   -12690   -12679   -12680   -12711 
  -12765   -12835   -12919   -12995   -13059   -13116   -13169   -13228 
  -13284   -13313   -13308   -13263   -13194   -13129   -13084   -13080 
  -13132   -13228   -13354   -13493   -13624   -13749   -13861   -13948 
  -14019   -14058   -14067   -14057   -14025   -13976   -13923   -13852 
  -13773   -13706   -13625   -13539   -13463   -13383   -13304   -13240 
  -13167   -13108   -13073   -13057   -13059   -13069   -13076   -13088 
  -13093   -13089   -13088   -13076   -13063   -13076   -13101   -13131 
  -13167   -13197   -13232   -13273   -13294   -13296   -13265   -13186 
  -13104   -13032   -12972   -12934   -12904   -12880   -12864   -12838 
  -12815   -12800   -12796   -12830   -12908   -13016   -13146   -13263 
  -13358   -13423   -13446   -13435   -13409   -13363   -13317   -13296 
  -13292   -13294   -13285   -13247   -13186   -13104   -13001   -12900 
  -12811   -12750   -12739   -12762   -12799   -12849   -12893   -12920 
  -12934   -12921   -12900   -12888   -12880   -12877   -12887   -12893 
  -12891   -12887   -12891   -12908   -12921   -12923   -12928   -12935 
  -12953   -12987   -13015   -13020   -12999   -12943   -12858   -12758 
  -12660   -12579   -12529   -12510   -12522   -12548   -12590   -12647 
  -12699   -12738   -12771   -12789   -12803   -12831   -12874   -12941 
  -13042   -13161   -13271   -13366   -13427   -13444   -13440   -13423 
  -13406   -13398   -13413   -13463   -13529   -13576   -13594   -13579 
  -13547   -13521   -13517   -13541   -13585   -13626   -13643   -13617 
  -13551   -13460   -13352   -13243   -13169   -13126   -13108   -13129 
  -13184   -13257   -13346   -13427   -13498   -13554   -13575   -13571 
  -13555   -13532   -13537   -13583   -13640   -13711   -13780   -13824 
  -13863   -13909   -13971   -14077   -14203   -14319   -14422   -14493 
  -14509   -14473   -14380   -14249   -14116   -14010   -13948   -13937 
  -13963   -14010   -14054   -14084   -14104   -14103   -14069   -14014 
  -13942   -13869   -13809   -13751   -13694   -13633   -13551   -13454 
  -13340   -13193   -13020   -12845   -12692   -12583   -12514   -12479 
  -12491   -12526   -12569   -12631   -12703   -12776   -12843   -12885 
  -12901   -12900   -12876   -12837   -12792   -12746   -12698   -12634 
  -12557   -12483   -12406   -12326   -12254   -12187   -12133   -12124 
  -12177   -12287   -12444   -12611   -12765   -12898   -12995   -13046 
  -13063   -13059   -13049   -13041   -13042   -13049   -13045   -13015 
  -12964   -12906   -12834   -12762   -12699   -12665   -12688   -12753 
  -12849   -12964   -13073   -13162   -13219   -13228   -13194   -13142 
  -13084   -13035   -12997   -12968   -12947   -12920   -12881   -12857 
  -12873   -12954   -13113   -13335   -13581   -13810   -13973   -14049 
  -14049   -14000   -13944   -13903   -13867   -13829   -13783   -13709 
  -13624   -13547   -13495   -13485   -13509   -13551   -13598   -13631 
  -13644   -13643   -13613   -13568   -13514   -13437   -13354   -13266 
  -13151   -13007   -12841   -12658   -12490   -12359   -12270   -12233 
  -12247   -12289   -12339   -12368   -12360   -12321   -12258   -12193 
  -12143   -12100   -12066   -12031   -11982   -11937   -11904   -11896 
  -11913   -11936   -11962   -11978   -11946   -11862   -11724   -11550 
  -11411   -11344   -11342   -11434   -11604   -11820   -12069   -12310 
  -12509   -12672   -12811   -12928   -13045   -13157   -13258   -13346 
  -13400   -13408   -13393   -13370   -13342   -13312   -13278   -13258 
  -13261   -13286   -13340   -13420   -13524   -13649   -13788   -13941 
  -14108   -14285   -14457   -14623   -14790   -14970   -15163   -15371 
  -15576   -15757   -15876   -15913   -15863   -15731   -15543   -15330 
  -15115   -14928   -14767   -14619   -14484   -14357   -14237   -14135 
  -14058   -14014   -14014   -14052   -14106   -14164   -14183   -14131 
  -14003   -13792   -13525   -13236   -12947   -12692   -12499   -12367 
  -12305   -12320   -12398   -12532   -12699   -12874   -13050   -13196 
  -13300   -13387   -13470   -13563   -13682   -13811   -13945   -14077 
  -14187   -14276   -14343   -14380   -14385   -14354   -14284   -14185 
  -14056   -13888   -13697   -13487   -13278   -13095   -12954   -12881 
  -12879   -12927   -13026   -13149   -13274   -13421   -13591   -13775 
  -13967   -14125   -14212   -14215   -14096   -13876   -13593   -13270 
  -12960   -12687   -12442   -12231   -12046   -11873   -11724   -11614 
  -11546   -11537   -11608   -11770   -12013   -12301   -12610   -12908 
  -13162   -13378   -13574   -13732   -13852   -13933   -13959   -13937 
  -13879   -13794   -13697   -13598   -13500   -13396   -13270   -13115 
  -12923   -12695   -12445   -12191   -11959   -11777   -11665   -11642 
  -11709   -11847   -12017   -12181   -12325   -12452   -12567   -12680 
  -12795   -12900   -12981   -13018   -13005   -12954   -12879   -12822 
  -12816   -12873   -12981   -13108   -13216   -13278   -13277   -13230 
  -13170   -13123   -13105   -13142   -13231   -13369   -13545   -13743 
  -13953   -14183   -14426   -14694   -14990   -15296   -15596   -15871 
  -16097   -16266   -16384   -16474   -16546   -16606   -16686   -16803 
  -16943   -17103   -17259   -17389   -17481   -17517   -17493   -17431 
  -17346   -17239   -17109   -16946   -16746   -16518   -16260   -15989 
  -15731   -15502   -15305   -15144   -15005   -14889   -14786   -14696 
  -14638   -14601   -14557   -14493   -14391   -14260   -14127   -14008 
  -13926   -13872   -13819   -13763   -13687   -13581   -13455   -13321 
  -13203   -13138   -13149   -13240   -13402   -13601   -13805   -13977 
  -14073   -14064   -13927   -13680   -13378   -13070   -12799   -12592 
  -12449   -12344   -12235   -12081   -11873   -11624   -11354   -11114 
  -10951   -10894   -10945   -11067   -11230   -11406   -11546   -11639 
  -11692   -11709   -11703   -11665   -11585   -11464   -11300   -11103 
  -10901   -10704   -10525   -10392   -10308   -10268   -10282   -10335 
  -10399   -10462   -10504   -10513   -10490   -10442   -10372   -10287 
  -10177   -10038    -9856    -9622    -9355    -9085    -8830    -8602 
   -8424    -8321    -8313    -8413    -8625    -8929    -9306    -9720 
  -10133   -10536   -10921   -11287   -11642   -11992   -12336   -12668 
  -12962   -13201   -13369   -13439   -13431   -13373   -13286   -13215 
  -13177   -13165   -13186   -13240   -13313   -13405   -13516   -13652 
  -13821   -14006   -14199   -14399   -14615   -14858   -15121   -15396 
  -15677   -15939   -16167   -16360   -16513   -16634   -16731   -16808 
  -16883   -16965   -17038   -17090   -17089   -17010   -16840   -16587 
  -16270   -15925   -15587   -15284   -15039   -14862   -14755   -14710 
  -14725   -14798   -14928   -15115   -15342   -15574   -15770   -15906 
  -15971   -15959   -15878   -15749   -15588   -15422   -15264   -15124 
  -15014   -14937   -14887   -14851   -14800   -14725   -14621   -14473 
  -14296   -14099   -13884   -13674   -13478   -13304   -13165   -13063 
  -12996   -12954   -12919   -12873   -12798   -12684   -12545   -12414 
  -12318   -12266   -12253   -12274   -12309   -12337   -12359   -12368 
  -12372   -12396   -12447   -12505   -12560   -12592   -12581   -12525 
  -12413   -12236   -11992   -11677   -11317   -10941   -10582   -10277 
  -10046    -9887    -9809    -9807    -9845    -9895    -9937    -9950 
   -9940    -9918    -9890    -9863    -9850    -9873    -9929    -9999 
  -10071   -10115   -10116   -10093   -10071   -10077   -10164   -10343 
  -10606   -10948   -11337   -11757   -12178   -12576   -12964   -13329 
  -13659   -13971   -14264   -14512   -14725   -14905   -15060   -15211 
  -15358   -15500   -15637   -15754   -15851   -15924   -15971   -16011 
  -16048   -16087   -16150   -16239   -16347   -16471   -16579   -16639 
  -16656   -16622   -16532   -16397   -16225   -16047   -15888   -15757 
  -15664   -15592   -15537   -15498   -15475   -15485   -15537   -15612 
  -15712   -15815   -15896   -15954   -15966   -15927   -15853   -15743 
  -15591   -15414   -15214   -14986   -14746   -14500   -14264   -14054 
  -13868   -13701   -13547   -13392   -13250   -13144   -13069   -13035 
  -13051   -13117   -13238   -13409   -13610   -13819   -14019   -14179 
  -14285   -14350   -14382   -14400   -14418   -14430   -14442   -14440 
  -14415   -14359   -14264   -14125   -13953   -13745   -13508   -13251 
  -12981   -12715   -12472   -12264   -12109   -12006   -11939   -11881 
  -11827   -11778   -11743   -11732   -11758   -11828   -11936   -12066 
  -12202   -12337   -12457   -12545   -12575   -12544   -12459   -12326 
  -12182   -12055   -11958   -11923   -11969   -12083   -12240   -12395 
  -12514   -12580   -12579   -12523   -12444   -12359   -12293   -12263 
  -12249   -12236   -12201   -12122   -12006   -11855   -11670   -11488 
  -11337   -11234   -11207   -11233   -11292   -11391   -11487   -11560 
  -11614   -11630   -11622   -11596   -11534   -11469   -11421   -11375 
  -11358   -11389   -11476   -11622   -11796   -11983   -12187   -12376 
  -12532   -12654   -12731   -12779   -12810   -12814   -12818   -12822 
  -12812   -12802   -12771   -12707   -12636   -12555   -12478   -12442 
  -12434   -12445   -12475   -12479   -12461   -12434   -12388   -12349 
  -12329   -12320   -12330   -12351   -12376   -12422   -12478   -12564 
  -12704   -12888   -13116   -13393   -13697   -14018   -14331   -14590 
  -14789   -14921   -14990   -15024   -15043   -15053   -15067   -15057 
  -15003   -14889   -14714   -14496   -14257   -14007   -13771   -13555 
  -13365   -13203   -13062   -12938   -12835   -12738   -12637   -12518 
  -12363   -12177   -11963   -11722   -11469   -11229   -11003   -10790 
  -10590   -10381   -10170    -9971    -9774    -9593    -9440    -9312 
   -9224    -9169    -9130    -9104    -9088    -9069    -9059    -9066 
   -9092    -9144    -9220    -9315    -9421    -9536    -9644    -9742 
   -9840    -9934   -10031   -10129   -10212   -10270   -10304   -10324 
  -10336   -10361   -10416   -10494   -10575   -10646   -10687   -10681 
  -10636   -10557   -10449   -10343   -10260   -10199   -10179   -10189 
  -10218   -10251   -10278   -10296   -10316   -10338   -10358   -10372 
  -10384   -10419   -10473   -10537   -10617   -10704   -10793   -10899 
  -11013   -11130   -11252   -11356   -11449   -11531   -11597   -11674 
  -11766   -11859   -11955   -12039   -12104   -12160   -12204   -12263 
  -12361   -12486   -12658   -12872   -13076   -13251   -13386   -13473 
  -13518   -13525   -13497   -13448   -13373   -13267   -13135   -12964 
  -12754   -12521   -12282   -12074   -11929   -11862   -11884   -11979 
  -12121   -12301   -12502   -12700   -12907   -13124   -13335   -13532 
  -13706   -13846   -13953   -14021   -14049   -14029   -13945   -13806 
  -13624   -13405   -13182   -12984   -12826   -12718   -12641   -12573 
  -12505   -12415   -12310   -12220   -12150   -12118   -12140   -12206 
  -12306   -12409   -12476   -12501   -12479   -12425   -12379   -12366 
  -12394   -12467   -12571   -12688   -12803   -12897   -12964   -13001 
  -13005   -12984   -12945   -12896   -12852   -12819   -12798   -12784 
  -12776   -12756   -12717   -12650   -12565   -12483   -12413   -12361 
  -12337   -12328   -12309   -12274   -12214   -12122   -12008   -11897 
  -11811   -11761   -11745   -11759   -11797   -11827   -11813   -11750 
  -11635   -11475   -11283   -11074   -10852   -10650   -10473   -10319 
  -10223   -10215   -10291   -10442   -10650   -10879   -11090   -11250 
  -11350   -11402   -11431   -11487   -11592   -11735   -11898   -12071 
  -12236   -12368   -12468   -12555   -12627   -12695   -12779   -12874 
  -12985   -13104   -13205   -13277   -13319   -13324   -13304   -13279 
  -13259   -13257   -13273   -13321   -13397   -13479   -13559   -13636 
  -13703   -13770   -13837   -13903   -13969   -14033   -14067   -14061 
  -14010   -13905   -13770   -13628   -13504   -13419   -13362   -13312 
  -13267   -13221   -13159   -13077   -12966   -12843   -12725   -12622 
