Origin Time       2016/04/16 01:25:00
Lat.              32.753
Long.             130.762
Depth. (km)       12
Mag.              7.3
Station Code      KOC007
Station Lat.      33.5611
Station Long.     133.5271
Station Height(m) 2
Record Time       2016/04/16 01:25:58
Sampling Freq(Hz) 100Hz
Duration Time(s)  128
Dir.              E-W
Scale Factor      7845(gal)/8223790
Max. Acc. (gal)   9.990
Last Correction   2016/04/16 01:25:59
Memo.             
[...]
    -180     -274     -338     -353     -306     -197      -35      156 
     340      490      603      668      658      562      388      155 
     -95     -325     -517     -681     -823     -940    -1044    -1138 
   -1213    -1273    -1310    -1332    -1364    -1416    -1467    -1506 
   -1528    -1533    -1522    -1518    -1525    -1530    -1521    -1482 
   -1413    -1327    -1235    -1136    -1016     -849     -608     -295 
      58      430      812     1179     1513     1807     2047     2228 
    2373     2486     2551     2577     2574     2535     2479     2435 
    2401     2377     2350     2300     2218     2111     1985     1836 
    1661     1467     1271     1080      869      642      427      230 
      58      -89     -240     -396     -540     -665     -766     -846 
    -918     -987    -1065    -1156    -1254    -1360    -1486    -1611 
   -1719    -1833    -1968    -2111    -2236    -2307    -2301    -2204 
   -2030    -1803    -1549    -1293    -1044     -787     -510     -211 
     105      414      692      929     1136     1320     1486     1644 
    1791     1918     2029     2137     2245     2366     2517     2685 
    2839     2943     2974     2934     2826     2651     2428     2170 
    1875     1533     1129      679      218     -248     -724    -1169 
   -1544    -1838    -2062    -2228    -2346    -2440    -2509    -2515 
   -2482    -2440    -2389    -2357    -2353    -2359    -2376    -2384 
   -2349    -2258    -2114    -1926    -1692    -1412    -1086     -711 
    -303      103      503      905     1296     1649     1953     2214 
    2434     2604     2725     2806     2860     2903     2938     2963 
    2975     2982     3018     3088     3180     3271     3295     3244 
    3127     2943     2705     2425     2096     1711     1298      872 
     418      -67     -576    -1098    -1597    -2022    -2361    -2624 
   -2826    -2978    -3079    -3123    -3111    -3055    -2959    -2839 
   -2721    -2602    -2455    -2282    -2092    -1888    -1668    -1435 
   -1182     -903     -606     -301       13      346      683      997 
    1291     1571     1833     2056     2220     2323     2385     2417 
    2428     2405     2319     2163     1949     1710     1468     1242 
    1026      824      638      483      382      333      319      342 
     369      372      351      292      211      128       37      -60 
    -178     -326     -484     -660     -864    -1104    -1383    -1679 
   -1968    -2234    -2461    -2658    -2825    -2945    -3003    -3001 
   -2938    -2832    -2698    -2528    -2330    -2130    -1912    -1655 
   -1362    -1035     -661     -246      194      666     1165     1680 
    2196     2687     3138     3528     3836     4077     4274     4429 
    4537     4571     4514     4379     4167     3874     3508     3069 
    2578     2058     1516      953      369     -245     -889    -1540 
   -2169    -2751    -3292    -3812    -4320    -4810    -5268    -5680 
   -6038    -6336    -6562    -6694    -6737    -6683    -6525    -6273 
   -5922    -5485    -5003    -4498    -3984    -3469    -2934    -2390 
   -1850    -1314     -785     -246      306      876     1462     2042 
    2594     3109     3578     3998     4368     4677     4927     5112 
    5220     5247     5209     5131     5001     4808     4577     4315 
    4024     3708     3369     3019     2658     2290     1908     1503 
    1098      702      311      -71     -456     -853    -1254    -1647 
   -2012    -2346    -2666    -2964    -3227    -3468    -3697    -3898 
   -4045    -4132    -4135    -4020    -3802    -3515    -3171    -2778 
   -2338    -1875    -1399     -927     -472      -36      382      764 
    1088     1344     1544     1695     1822     1949     2072     2182 
    2286     2401     2538     2671     2786     2882     2945     2956 
    2914     2841     2744     2617     2475     2332     2195     2052 
    1887     1696     1483     1254     1017      787      564      360 
     178        1     -184     -382     -603     -851    -1150    -1528 
   -1964    -2427    -2894    -3327    -3688    -3956    -4147    -4286 
   -4384    -4422    -4378    -4238    -4010    -3716    -3361    -2947 
   -2493    -2008    -1486     -953     -444       32      481      919 
    1362     1791     2196     2584     2959     3329     3704     4091 
    4510     4926     5282     5574     5805     5953     6008     5946 
    5756     5468     5092     4622     4067     3400     2613     1746 
     838      -62     -924    -1742    -2500    -3159    -3697    -4136 
   -4494    -4780    -5000    -5146    -5223    -5247    -5240    -5208 
   -5151    -5081    -5003    -4918    -4826    -4739    -4664    -4563 
   -4395    -4149    -3815    -3383    -2848    -2219    -1522     -803 
    -105      525     1074     1528     1868     2098     2219     2239 
    2169     2019     1830     1642     1474     1333     1240     1227 
    1271     1348     1494     1703     1956     2250     2546     2806 
    3029     3180     3225     3163     3021     2803     2490     2115 
    1702     1260      814      368      -36     -391     -720    -1024 
   -1328    -1641    -1946    -2245    -2523    -2772    -2998    -3208 
   -3430    -3680    -3950    -4220    -4463    -4664    -4812    -4882 
   -4835    -4662    -4392    -4017    -3542    -3010    -2447    -1848 
   -1220     -592        5      568     1104     1606     2053     2454 
    2836     3188     3484     3711     3889     4055     4220     4371 
    4511     4619     4664     4637     4534     4374     4170     3897 
    3544     3127     2693     2265     1836     1431     1053      692 
     346       -5     -346     -643     -927    -1215    -1507    -1809 
   -2111    -2408    -2704    -3001    -3281    -3546    -3789    -4002 
   -4185    -4320    -4396    -4422    -4405    -4349    -4248    -4113 
   -3967    -3796    -3568    -3292    -3013    -2745    -2463    -2142 
   -1769    -1363     -939     -488      -11      456      924     1418 
    1949     2509     3038     3497     3890     4210     4445     4598 
    4684     4707     4664     4550     4386     4197     3997     3807 
    3640     3495     3376     3254     3105     2947     2749     2497 
    2215     1884     1518     1171      838      510      197     -112 
    -425     -722    -1004    -1279    -1543    -1794    -2030    -2245 
   -2439    -2613    -2762    -2875    -2944    -2975    -2975    -2941 
   -2887    -2798    -2656    -2470    -2239    -1962    -1657    -1310 
    -920     -529     -156      209      577      927     1230     1498 
    1760     2010     2243     2481     2729     2991     3238     3447 
    3630     3770     3850     3885     3871     3813     3715     3561 
    3348     3096     2816     2501     2165     1831     1533     1291 
    1097      926      761      600      457      332      225      153 
     103       63       32        8      -28      -90     -155     -187 
    -184     -155     -114      -86      -63      -39      -32      -60 
    -128     -207     -276     -338     -402     -467     -531     -588 
    -648     -714     -780     -862     -954    -1026    -1070    -1074 
   -1032     -954     -842     -681     -464     -207      117      522 
     970     1429     1871     2269     2627     2917     3126     3261 
    3304     3267     3177     3030     2848     2646     2415     2161 
    1883     1578     1252      893      498       78     -365     -827 
   -1287    -1729    -2142    -2532    -2884    -3180    -3412    -3566 
   -3623    -3593    -3485    -3294    -3022    -2675    -2266    -1815 
   -1360     -949     -596     -310      -97       47      140      205 
     271      353      456      572      683      785      870      924 
     945      929      886      830      758      669      553      425 
     301      183       71      -40     -166     -313     -486     -687 
    -913    -1159    -1417    -1690    -1973    -2250    -2486    -2656 
   -2751    -2767    -2721    -2636    -2519    -2370    -2196    -2010 
   -1831    -1671    -1522    -1385    -1267    -1205    -1242    -1389 
   -1629    -1937    -2273    -2597    -2880    -3090    -3207    -3238 
   -3177    -3034    -2826    -2560    -2274    -1995    -1722    -1479 
   -1281    -1127    -1034     -993     -985    -1007    -1046    -1094 
   -1147    -1192    -1201    -1161    -1080     -959     -773     -511 
    -195      159      549      965     1395     1821     2209     2554 
    2848     3086     3264     3372     3420     3430     3410     3377 
    3352     3331     3316     3310     3303     3288     3258     3202 
    3107     2979     2841     2697     2565     2461     2369     2274 
    2149     1966     1717     1387      996      575      139     -284 
    -680    -1036    -1331    -1552    -1707    -1804    -1864    -1917 
   -1971    -2010    -2006    -1935    -1786    -1566    -1294     -977 
    -615     -238      129      493      861     1229     1598     1972 
    2327     2629     2882     3094     3271     3429     3569     3689 
    3769     3811     3824     3789     3730     3677     3632     3613 
    3627     3653     3674     3690     3703     3689     3624     3508 
    3352     3148     2894     2593     2262     1907     1521     1084 
     579       28     -558    -1175    -1800    -2409    -2979    -3497 
   -3959    -4353    -4652    -4842    -4931    -4931    -4847    -4685 
   -4448    -4140    -3800    -3454    -3145    -2928    -2790    -2701 
   -2651    -2600    -2531    -2442    -2319    -2155    -1922    -1605 
   -1248     -864     -469     -102      253      602      916     1188 
    1363     1397     1289     1051      720      340      -74     -491 
    -880    -1242    -1574    -1830    -1991    -2070    -2058    -1942 
   -1736    -1456    -1128     -780     -425     -102      137      276 
     307      234       71     -171     -464     -788    -1113    -1387 
   -1586    -1714    -1760    -1713    -1564    -1314     -969     -533 
     -41      464      953     1375     1688     1885     1995     1982 
    1814     1561     1271      927      575      279       58      -87 
    -182     -225     -199     -128      -22      122      299      492 
     658      754      758      660      450      140     -229     -602 
    -965    -1317    -1644    -1941    -2195    -2398    -2556    -2650 
   -2675    -2639    -2544    -2380    -2149    -1892    -1614    -1267 
    -864     -437        5      459      916     1386     1865     2340 
    2811     3268     3711     4140     4531     4870     5148     5336 
    5437     5455     5381     5217     4968     4642     4263     3856 
    3447     3038     2647     2276     1929     1621     1337     1053 
     780      514      259       14     -240     -523     -827    -1151 
   -1498    -1848    -2149    -2369    -2501    -2548    -2508    -2386 
   -2189    -1922    -1586    -1204     -815     -454     -135      136 
     344      492      589      612      569      490      383      265 
     168      109       85      112      186      280      391      526 
     699      886     1073     1266     1433     1557     1636     1647 
    1582     1440     1229      978      688      379       93     -164 
    -370     -496     -546     -537     -481     -411     -329     -217 
     -79       89      302      546      810     1081     1358     1614 
    1826     1999     2119     2172     2162     2091     1965     1807 
    1640     1489     1379     1314     1301     1340     1428     1564 
    1719     1863     1984     2050     2033     1933     1755     1514 
    1219      862      453        5     -479     -973    -1449    -1887 
   -2262    -2593    -2907    -3213    -3524    -3886    -4334    -4849 
   -5398    -5938    -6419    -6822    -7138    -7357    -7485    -7527 
   -7492    -7391    -7207    -6929    -6581    -6170    -5710    -5239 
   -4765    -4313    -3927    -3624    -3429    -3349    -3345    -3397 
   -3489    -3573    -3634    -3651    -3588    -3481    -3334    -3125 
   -2891    -2643    -2380    -2128    -1911    -1733    -1594    -1497 
   -1456    -1468    -1513    -1575    -1664    -1760    -1823    -1842 
   -1804    -1688    -1497    -1225     -858     -406      118      720 
    1382     2084     2835     3623     4402     5128     5765     6289 
    6696     6988     7169     7246     7238     7163     7029     6874 
    6727     6581     6451     6361     6303     6269     6235     6168 
    6038     5838     5564     5209     4769     4243     3653     3026 
    2380     1723     1069      405     -280     -974    -1680    -2411 
   -3127    -3792    -4390    -4896    -5289    -5575    -5760    -5844 
   -5831    -5711    -5495    -5212    -4869    -4473    -4040    -3581 
   -3113    -2627    -2118    -1574     -986     -372      286      978 
    1668     2373     3069     3716     4324     4866     5329     5725 
    6029     6261     6397     6323     6053     5692     5244     4664 
    3986     3292     2620     1922     1188      490     -167     -819 
   -1451    -2053    -2668    -3288    -3879    -4468    -5062    -5667 
   -6313    -6963    -7543    -8047    -8494    -8881    -9163    -9346 
   -9460    -9491    -9408    -9224    -9012    -8776    -8441    -8044 
   -7665    -7288    -6862    -6431    -6042    -5611    -5098    -4577 
   -4041    -3420    -2736    -2014    -1255     -434      490     1507 
    2571     3645     4703     5772     6820     7763     8584     9255 
    9757    10131    10372    10459    10393    10172     9823     9383 
    8846     8215     7514     6763     5979     5139     4263     3397 
    2523     1632      754     -147    -1107    -2092    -3079    -4054 
   -4996    -5923    -6812    -7584    -8248    -8826    -9244    -9474 
   -9539    -9425    -9137    -8711    -8164    -7515    -6767    -5942 
   -5119    -4351    -3651    -3037    -2523    -2119    -1815    -1568 
   -1351    -1166     -978     -737     -463     -184      147      550 
     993     1464     1972     2485     2932     3273     3541     3750 
    3874     3921     3929     3880     3743     3535     3326     3156 
    2999     2884     2828     2789     2789     2830     2863     2893 
    2914     2879     2797     2697     2554     2326     1982     1509 
     915      214     -558    -1393    -2281    -3180    -4071    -4896 
   -5547    -6084    -6556    -6814    -6880    -6837    -6619    -6259 
   -5787    -5179    -4529    -3897    -3258    -2589    -1887    -1165 
    -433      291     1015     1750     2485     3225     3997     4797 
    5622     6444     7218     7947     8619     9174     9602     9911 
   10076    10088     9944     9609     9109     8510     7862     7184 
    6515     5881     5252     4626     4016     3396     2786     2208 
    1648     1097      553       -5     -577    -1154    -1725    -2293 
   -2855    -3388    -3902    -4399    -4865    -5320    -5746    -6097 
   -6365    -6529    -6544    -6419    -6192    -5871    -5464    -5005 
   -4499    -3943    -3381    -2844    -2319    -1783    -1262     -793 
    -349       97      523      926     1327     1742     2157     2528 
    2860     3175     3443     3674     3866     3996     4044     3982 
    3824     3578     3246     2882     2498     2061     1606     1151 
     664      168     -305     -743    -1129    -1497    -1869    -2205 
   -2498    -2792    -3090    -3339    -3549    -3773    -3977    -4143 
   -4297    -4446    -4577    -4681    -4785    -4893    -4985    -5069 
   -5151    -5182    -5177    -5201    -5198    -5109    -5015    -4939 
   -4830    -4710    -4602    -4461    -4268    -4072    -3892    -3665 
   -3399    -3142    -2860    -2521    -2120    -1640    -1084     -491 
     117      741     1343     1911     2448     2918     3329     3693 
    3981     4199     4367     4480     4548     4577     4585     4580 
    4545     4500     4460     4387     4252     4055     3796     3453 
    3048     2583     2037     1447      831      131     -643    -1418 
   -2187    -2971    -3661    -4207    -4702    -5124    -5412    -5584 
   -5633    -5579    -5470    -5309    -5112    -4899    -4689    -4502 
   -4322    -4135    -3927    -3663    -3317    -2891    -2417    -1894 
   -1286     -616       90      858     1696     2569     3447     4289 
    5042     5705     6276     6706     6994     7175     7253     7217 
    7068     6847     6581     6285     5984     5698     5441     5220 
    5031     4857     4687     4519     4340     4129     3874     3555 
    3159     2677     2111     1480      819      139     -544    -1189 
   -1794    -2344    -2835    -3271    -3613    -3844    -3965    -3969 
   -3856    -3640    -3350    -3019    -2640    -2218    -1777    -1324 
    -880     -460      -52      326      656      950     1240     1522 
    1764     1975     2192     2400     2601     2798     2982     3149 
    3295     3407     3466     3443     3342     3176     2929     2610 
    2253     1872     1471     1057      657      287      -71     -419 
    -777    -1151    -1493    -1788    -2060    -2303    -2512    -2678 
   -2799    -2896    -2964    -3003    -3038    -3064    -3087    -3130 
   -3153    -3114    -3042    -2951    -2836    -2681    -2474    -2251 
   -2007    -1691    -1316     -912     -463       16      473      889 
    1270     1621     1958     2278     2578     2870     3163     3454 
    3726     3974     4207     4437     4662     4869     5062     5246 
    5412     5579     5740     5894     6048     6178     6273     6313 
    6268     6139     5921     5585     5169     4703     4153     3551 
    2940     2293     1632      997      373     -228     -795    -1324 
   -1803    -2272    -2737    -3153    -3528    -3866    -4126    -4334 
   -4527    -4695    -4827    -4911    -4950    -4962    -4935    -4866 
   -4750    -4557    -4310    -4025    -3676    -3272    -2836    -2358 
   -1850    -1352     -862     -367      105      540      958     1345 
    1684     1995     2274     2516     2701     2829     2926     2976 
    2961     2920     2886     2841     2778     2728     2678     2608 
    2529     2434     2292     2089     1806     1431      970      425 
    -156     -757    -1366    -1934    -2439    -2878    -3226    -3473 
   -3632    -3709    -3713    -3661    -3573    -3464    -3336    -3210 
   -3087    -2983    -2918    -2876    -2832    -2776    -2705    -2602 
   -2455    -2284    -2095    -1869    -1611    -1333    -1024     -673 
    -294      102      523      963     1394     1796     2160     2475 
    2748     2974     3138     3231     3269     3279     3273     3268 
    3275     3294     3316     3352     3415     3496     3577     3649 
    3676     3638     3544     3385     3164     2884     2544     2158 
    1741     1294      838      396      -40     -476     -905    -1305 
   -1657    -1964    -2239    -2489    -2716    -2936    -3159    -3366 
   -3561    -3746    -3897    -3981    -3984    -3919    -3778    -3555 
   -3276    -2955    -2584    -2180    -1749    -1278     -774     -251 
     309      893     1474     2041     2590     3090     3534     3950 
    4345     4730     5120     5505     5875     6232     6569     6864 
    7098     7271     7392     7453     7450     7395     7285     7114 
    6879     6574     6212     5810     5366     4885     4383     3875 
