Origin Time       2016/04/16 01:25:00
Lat.              32.753
Long.             130.762
Depth. (km)       12
Mag.              7.3
Station Code      KOC013
Station Lat.      33.0797
Station Long.     133.1015
Station Height(m) 3
Record Time       2016/04/16 01:25:45
Sampling Freq(Hz) 100Hz
Duration Time(s)  136
Dir.              E-W
Scale Factor      7845(gal)/8223790
Max. Acc. (gal)   45.712
Last Correction   2016/04/16 01:25:45
Memo.             
[...]
  -14235   -13925   -13564   -13085   -12447   -11772   -11236   -10912 
  -10712   -10459   -10088    -9695    -9355    -9076    -8857    -8761 
   -8793    -8808    -8679    -8433    -8124    -7780    -7491    -7375 
   -7468    -7726    -8077    -8480    -8959    -9593   -10427   -11356 
  -12198   -12862   -13327   -13610   -13749   -13737   -13551   -13225 
  -12827   -12380   -11874   -11286   -10687   -10212    -9887    -9628 
   -9355    -9038    -8727    -8510    -8471    -8630    -8943    -9369 
   -9833   -10206   -10326   -10081    -9505    -8839    -8411    -8417 
   -8843    -9572   -10431   -11179   -11600   -11703   -11674   -11622 
  -11545   -11435   -11300   -11175   -11070   -10932   -10806   -10871 
  -11181   -11597   -11965   -12213   -12343   -12406   -12453   -12451 
  -12210   -11560   -10616    -9680    -9023    -8750    -8734    -8775 
   -8733    -8457    -7916    -7329    -6990    -7049    -7458    -8001 
   -8464    -8776    -8970    -9119    -9354    -9786   -10355   -10843 
  -11088   -11132   -11114   -11097   -10999   -10754   -10384    -9949 
   -9532    -9236    -9193    -9501   -10125   -10875   -11479   -11766 
  -11805   -11708   -11481   -11161   -10854   -10646   -10497   -10309 
  -10084    -9898    -9749    -9585    -9382    -9165    -8949    -8703 
   -8440    -8248    -8203    -8313    -8542    -8830    -9159    -9602 
  -10219   -10920   -11537   -11935   -12114   -12253   -12482   -12739 
  -12947   -13057   -12984   -12737   -12406   -12100   -11886   -11692 
  -11383   -10972   -10597   -10372   -10285   -10247   -10234   -10247 
  -10227   -10103    -9837    -9497    -9269    -9256    -9388    -9506 
   -9472    -9275    -8988    -8664    -8404    -8397    -8702    -9186 
   -9707   -10233   -10752   -11198   -11511   -11757   -12029   -12328 
  -12595   -12799   -12934   -13036   -13117   -13170   -13314   -13639 
  -14060   -14467   -14743   -14747   -14389   -13711   -12947   -12347 
  -11963   -11699   -11416   -11009   -10419    -9590    -8525    -7415 
   -6552    -6087    -6004    -6232    -6655    -7107    -7454    -7673 
   -7827    -8013    -8324    -8738    -9120    -9388    -9509    -9470 
   -9358    -9310    -9414    -9725   -10309   -11202   -12322   -13468 
  -14401   -14995   -15300   -15468   -15676   -16031   -16514   -17003 
  -17274   -17098   -16420   -15367   -14148   -12978   -12031   -11406 
  -11061   -10794   -10436    -9977    -9513    -9103    -8738    -8457 
   -8318    -8286    -8299    -8305    -8278    -8233    -8097    -7792 
   -7442    -7261    -7339    -7655    -8128    -8680    -9269    -9782 
  -10080   -10226   -10438   -10871   -11495   -12114   -12555   -12776 
  -12769   -12536   -12097   -11511   -10914   -10469   -10235   -10180 
  -10241   -10430   -10755   -11137   -11531   -11966   -12490   -13100 
  -13612   -13761   -13489   -12924   -12280   -11826   -11757   -12079 
  -12679   -13314   -13648   -13477   -12872   -12118   -11524   -11265 
  -11352   -11647   -11889   -11827   -11379   -10650    -9888    -9366 
   -9180    -9225    -9344    -9440    -9514    -9609    -9728    -9806 
   -9771    -9620    -9333    -8856    -8299    -7900    -7744    -7807 
   -8062    -8464    -8916    -9281    -9454    -9517    -9629    -9792 
   -9981   -10255   -10613   -10949   -11130   -11122   -11074   -11136 
  -11338   -11691   -12185   -12764   -13398   -14014   -14488   -14756 
  -14882   -14983   -15113   -15264   -15515   -15936   -16409   -16695 
  -16609   -16132   -15412   -14607   -13782   -13004   -12359   -11853 
  -11379   -10839   -10226    -9585    -8965    -8390    -7842    -7290 
   -6711    -6066    -5319    -4494    -3694    -3086    -2816    -2936 
   -3341    -3861    -4388    -4892    -5395    -5958    -6659    -7481 
   -8299    -9030    -9730   -10542   -11558   -12729   -13956   -15187 
  -16312   -17178   -17778   -18272   -18835   -19499   -20100   -20470 
  -20588   -20460   -20056   -19390   -18524   -17579   -16688   -15894 
  -15136   -14331   -13421   -12382   -11241   -10119    -9198    -8592 
   -8305    -8243    -8212    -8044    -7709    -7225    -6637    -5988 
   -5310    -4708    -4289    -4093    -4118    -4360    -4835    -5529 
   -6320    -7026    -7569    -8047    -8622    -9352   -10183   -11071 
  -11983   -12842   -13595   -14305   -15051   -15777   -16355   -16703 
  -16845   -16891   -16969   -17128   -17309   -17417   -17404   -17275 
  -17101   -16886   -16549   -16102   -15618   -15049   -14278   -13302 
  -12282   -11461   -10968   -10750   -10697   -10674   -10516   -10087 
   -9331    -8371    -7458    -6744    -6224    -5867    -5649    -5601 
   -5760    -6077    -6427    -6737    -6948    -7014    -7044    -7254 
   -7742    -8463    -9269   -10004   -10624   -11157   -11608   -12013 
  -12456   -12947   -13379   -13576   -13423   -12969   -12393   -11834 
  -11360   -11022   -10875   -10883   -10913   -10867   -10774   -10694 
  -10681   -10824   -11142   -11564   -12005   -12334   -12469   -12465 
  -12413   -12399   -12492   -12661   -12850   -12988   -12938   -12657 
  -12347   -12224   -12325   -12599   -12931   -13178   -13266   -13172 
  -12947   -12702   -12530   -12503   -12614   -12735   -12668   -12241 
  -11384   -10195    -8924    -7859    -7155    -6790    -6654    -6612 
   -6538    -6340    -6008    -5665    -5467    -5481    -5773    -6407 
   -7279    -8151    -8758    -8966    -8918    -8947    -9340   -10200 
  -11421   -12658   -13536   -13890   -13786   -13435   -13147   -13150 
  -13448   -13888   -14268   -14401   -14229   -13841   -13369   -12904 
  -12556   -12406   -12383   -12295   -12008   -11535   -10986   -10458 
   -9963    -9456    -8935    -8437    -8032    -7804    -7735    -7680 
   -7495    -7148    -6759    -6579    -6808    -7468    -8384    -9265 
   -9896   -10292   -10628   -11059   -11573   -12043   -12367   -12515 
  -12510   -12396   -12271   -12243   -12276   -12236   -12094   -11961 
  -11974   -12158   -12396   -12613   -12804   -12907   -12854   -12676 
  -12451   -12231   -12019   -11766   -11449   -11125   -10895   -10800 
  -10801   -10836   -10882   -10970   -11028   -10863   -10438    -9964 
   -9614    -9381    -9219    -9104    -9051    -9049    -9024    -8949 
   -8885    -8819    -8669    -8487    -8440    -8631    -9009    -9379 
   -9593    -9634    -9578    -9602    -9922   -10616   -11530   -12337 
  -12739   -12669   -12275   -11790   -11450   -11408   -11650   -11993 
  -12221   -12254   -12171   -12074   -12046   -12148   -12405   -12783 
  -13188   -13485   -13594   -13572   -13514   -13437   -13288   -13012 
  -12633   -12279   -12056   -11939   -11811   -11570   -11203   -10791 
  -10436   -10176   -10011    -9891    -9714    -9373    -8808    -8141 
   -7655    -7565    -7857    -8283    -8573    -8644    -8608    -8614 
   -8649    -8629    -8668    -9020    -9742   -10620   -11394   -11904 
  -12033   -11736   -11153   -10528   -10021    -9675    -9497    -9525 
   -9779   -10123   -10304   -10249   -10118   -10055   -10062   -10185 
  -10552   -11179   -11901   -12491   -12838   -13027   -13198   -13401 
  -13602   -13756   -13768   -13520   -13049   -12537   -12082   -11673 
  -11302   -10999   -10816   -10670   -10346    -9749    -8993    -8272 
   -7761    -7570    -7743    -8163    -8568    -8784    -8768    -8509 
   -8068    -7614    -7365    -7419    -7646    -7878    -8131    -8552 
   -9219    -9948   -10470   -10752   -10940   -11115   -11298   -11531 
  -11920   -12588   -13522   -14561   -15542   -16383   -17018   -17331 
  -17189   -16572   -15643   -14620   -13676   -12969   -12592   -12518 
  -12613   -12654   -12448   -11911   -11070   -10065    -9140    -8490 
   -8101    -7803    -7430    -6925    -6282    -5601    -5071    -4811 
   -4765    -4773    -4746    -4795    -5050    -5513    -6162    -7051 
   -8203    -9502   -10696   -11624   -12442   -13354   -14226   -14794 
  -15014   -15026   -14937   -14759   -14562   -14531   -14782   -15256 
  -15790   -16240   -16559   -16758   -16791   -16590   -16189   -15645 
  -15018   -14418   -13887   -13300   -12476   -11415   -10335    -9443 
   -8807    -8414    -8198    -8024    -7655    -6959    -6131    -5506 
   -5292    -5522    -6114    -6975    -7994    -8972    -9724   -10137 
  -10116    -9632    -8870    -8209    -7924    -8012    -8380    -9053 
  -10033   -11199   -12343   -13265   -13884   -14280   -14642   -15044 
  -15353   -15414   -15213   -14862   -14523   -14261   -14018   -13776 
  -13626   -13628   -13736   -13864   -13950   -13905   -13624   -13085 
  -12328   -11455   -10679   -10189   -10064   -10314   -10851   -11425 
  -11757   -11770   -11566   -11268   -10951   -10671   -10492   -10342 
  -10085    -9740    -9431    -9229    -9130    -9070    -9030    -9051 
   -9154    -9317    -9533    -9817   -10158   -10507   -10831   -11173 
  -11595   -12125   -12708   -13172   -13355   -13174   -12649   -11916 
  -11171   -10547   -10084    -9765    -9510    -9265    -9047    -8861 
   -8741    -8768    -8896    -8965    -8904    -8878    -9186    -9965 
  -11044   -12133   -12954   -13278   -13047   -12375   -11419   -10395 
   -9510    -8845    -8395    -8125    -8001    -8037    -8224    -8546 
   -9108   -10077   -11535   -13328   -15057   -16297   -16806   -16592 
  -15919   -15184   -14754   -14862   -15499   -16364   -17047   -17292 
  -17058   -16453   -15688   -15009   -14584   -14500   -14713   -14998 
  -15070   -14793   -14179   -13294   -12297   -11356   -10537    -9768 
   -8905    -7747    -6142    -4175    -2123     -244     1296     2347 
    2758     2461     1603      579     -135     -245      209      873 
    1242      881     -421    -2559    -5185    -7909   -10382   -12382 
  -13905   -15199   -16563   -18127   -19855   -21674   -23518   -25328 
  -26954   -28183   -28883   -29013   -28575   -27581   -26180   -24753 
  -23699   -23148   -22995   -22989   -22824   -22342   -21501   -20316 
  -18877   -17288   -15588   -13637   -11217    -8319    -5221    -2288 
     184     2031     3184     3692     3805     3910     4241     4764 
    5313     5694     5675     5049     3798     2130      340    -1239 
   -2370    -2992    -3177    -3149    -3179    -3449    -4124    -5265 
   -6701    -8128    -9246    -9931   -10319   -10679   -11313   -12393 
  -13768   -15078   -15924   -16128   -15948   -15892   -16258   -17030 
  -17992   -18794   -19147   -18995   -18540   -18138   -18148   -18743 
  -19878   -21350   -22887   -24182   -24881   -24848   -24233   -23237 
  -22104   -21131   -20498   -20210   -20071   -19735   -18932   -17563 
  -15698   -13588   -11604   -10046    -8916    -7889    -6644    -5097 
   -3336    -1525      151     1521     2452     2965     3335     3865 
    4608     5394     5958     6077     5584     4390     2669      814 
    -889    -2390    -3855    -5578    -7786   -10484   -13355   -15832 
  -17470   -18227   -18407   -18420   -18628   -19282   -20414   -21729 
  -22746   -23094   -22744   -22023   -21351   -21050   -21343   -22293 
  -23625   -24821   -25429   -25191   -24012   -21964   -19298   -16448 
  -13865   -11762   -10091    -8622    -7072    -5293    -3369    -1630 
    -484     -131     -499    -1366    -2290    -2714    -2350    -1320 
       4     1202     2050     2608     3056     3557     4199     4923 
    5501     5564     4819     3272     1208     -986    -2970    -4634 
   -6115    -7638    -9375   -11356   -13455   -15507   -17412   -19109 
  -20439   -21154   -21114   -20380   -19206   -18044   -17431   -17744 
  -19074   -21165   -23507   -25671   -27463   -28883   -30072   -30971 
  -31301   -30935   -29974   -28595   -26893   -24844   -22511   -20034 
  -17479   -14928   -12528   -10438    -8862    -7897    -7387    -7056 
   -6694    -6180    -5422    -4243    -2470     -124     2539     5107 
    7160     8480     9139     9425     9698    10260    11306    12785 
   14265    15109    14775    13012    10007     6328     2727     -175 
   -2272    -4027    -6079    -8863   -12515   -16765   -20898   -24139 
  -26064   -26453   -25396   -23803   -22661   -21886   -21165   -20790 
  -20690   -20453   -20308   -20607   -21405   -22720   -24278   -25620 
  -26530   -26925   -26797   -26199   -25209   -23930   -22356   -20460 
  -18345   -16129   -13878   -11589    -9185    -6604    -3967    -1566 
     294     1444     1867     1656     1050      352     -237     -769 
   -1540    -2693    -4091    -5594    -6966    -7912    -8370    -8540 
   -8758    -9279   -10164   -11294   -12372   -13085   -13247   -12804 
  -11890   -10827    -9976    -9683   -10206   -11433   -12891   -14054 
  -14511   -14049   -12855   -11654   -11406   -12816   -16020   -20433 
  -24888   -28179   -29619   -29145   -27220   -24694   -22442   -20985 
  -20371   -20232   -20111   -19695   -18832   -17633   -16424   -15570 
  -15276   -15450   -15909   -16430   -16656   -16249   -15066   -13296 
  -11442    -9865    -8576    -7420    -6114    -4288    -1698     1732 
    5867    10261    14156    16700    17343    16127    13467    10021 
    6694     4233     2898     2442     2074      773    -1969    -5877 
  -10358   -14816   -18547   -21130   -22750   -23708   -24192   -24640 
  -25677   -27645   -30461   -33698   -36871   -39783   -42336   -44240 
  -45308   -45650   -45562   -45366   -45054   -44280   -42840   -40811 
  -38410   -35884   -33273   -30314   -26711   -22331   -17147   -11311 
   -5270      409     5298     9240    12460    15419    18441    21627 
   24965    28247    31232    33841    35887    36967    36826    35560 
   33439    30659    27414    23959    20335    16488    12634     9165 
    6463     4756     3861     3144     1734    -1035    -5381   -11152 
  -17848   -24614   -30599   -35226   -38329   -40177   -41391   -42738 
  -44726   -47304   -49963   -52064   -53106   -52846   -51341   -48876 
  -45914   -43112   -40925   -39221   -37508   -35098   -31164   -25371 
  -18337   -11024    -4099     1744     5894     8520    10245    11391 
   12272    13563    15988    19782    24120    27415    29004    29536 
   29365    28528    27429    25972    23841    21556    19579    17608 
   15516    13379    10774     7089     2168    -3412    -8749   -13265 
  -16926   -20239   -23573   -26804   -29897   -32850   -35471   -37624 
  -39295   -40763   -42493   -44464   -46272   -47537   -47636   -45955 
  -42584   -38159   -33627   -29991   -27564   -25704   -23348   -19742 
  -14914    -9346    -3605     1296     4375     5468     4747     2555 
    -103    -2223    -3416    -3623    -3137    -2624    -2567    -2990 
   -3731    -4577    -5231    -5420    -5007    -4008    -2659    -1487 
    -996    -1286    -2319    -4031    -6081    -8025    -9440   -10030 
   -9869    -9329    -8877    -8931    -9678   -11018   -12650   -14261 
  -15687   -16833   -17616   -18071   -18393   -18825   -19611   -20798 
  -22150   -23440   -24548   -25404   -26075   -26748   -27423   -27942 
  -28262   -28350   -28098   -27398   -26098   -24159   -21766   -19256 
  -17046   -15422   -14450   -13991   -13672   -13046   -11819    -9944 
   -7669    -5537    -4078    -3472    -3446    -3403    -2809    -1455 
     589     2925     4842     5689     5320     4132     2737     1719 
    1567     2369     3655     4835     5567     5651     5012     3820 
    2396     1055      -79    -1120    -2205    -3464    -5004    -6828 
   -8888   -11102   -13289   -15201   -16602   -17396   -17645   -17479 
  -17066   -16627   -16289   -16040   -15830   -15570   -15215   -14793 
  -14361   -14080   -14084   -14272   -14480   -14658   -14787   -14797 
  -14662   -14399   -14014   -13559   -13035   -12357   -11434   -10196 
   -8552    -6594    -4691    -3194    -2327    -2204    -2740    -3726 
   -4947    -6210    -7288    -8031    -8437    -8513    -8251    -7727 
   -6987    -5981    -4710    -3350    -2200    -1528    -1537    -2239 
   -3372    -4654    -5988    -7380    -8870   -10486   -12236   -14141 
  -16120   -17952   -19379   -20247   -20615   -20642   -20483   -20417 
  -20756   -21481   -22320   -23085   -23707   -24302   -25089   -25986 
  -26659   -26865   -26450   -25357   -23696   -21701   -19647   -17775 
  -16281   -15241   -14503   -13833   -13059   -12074   -10872    -9543 
   -8210    -7049    -6197    -5629    -5233    -4909    -4598    -4293 
   -3981    -3634    -3294    -3061    -2978    -2967    -2932    -2852 
   -2783    -2801    -2972    -3303    -3770    -4482    -5647    -7384 
   -9639   -12059   -14103   -15434   -15958   -15736   -15033   -14211 
  -13618   -13443   -13605   -13867   -14010   -13832   -13203   -12262 
  -11389   -10901   -10889   -11249   -11696   -11826   -11345   -10234 
   -8738    -7302    -6412    -6424    -7442    -9232   -11373   -13471 
  -15190   -16275   -16694   -16598   -16132   -15476   -14931   -14713 
  -14780   -15007   -15223   -15198   -14864   -14440   -14255   -14520 
  -15202   -16063   -16783   -17090   -16840   -16017   -14732   -13215 
  -11718   -10457    -9613    -9162    -8865    -8540    -8027    -7126 
   -5945    -4961    -4716    -5539    -7376    -9737   -11916   -13397 
  -14098   -14274   -14334   -14638   -15350   -16382   -17439   -18219 
  -18681   -19080   -19737   -20871   -22549   -24590   -26616   -28327 
  -29590   -30329   -30524   -30261   -29658   -28782   -27656   -26277 
  -24609   -22600   -20245   -17621   -14889   -12251    -9906    -8017 
   -6527    -5171    -3715    -2047     -186     1723     3473     4868 
    5803     6305     6444     6345     6230     6259     6399     6575 
    6733     6764     6511     5827     4669     3065     1080    -1151 
   -3442    -5594    -7442    -8954   -10251   -11445   -12591   -13763 
  -14953   -16123   -17327   -18542   -19651   -20668   -21683   -22740 
  -23820   -24853   -25697   -26121   -25871   -24831   -23094   -20934 
  -18765   -16914   -15423   -14149   -12908   -11529    -9961    -8248 
   -6477    -4826    -3492    -2555    -1949    -1556    -1281    -1017 
    -715     -483     -414     -530     -907    -1625    -2636    -3792 
   -4892    -5809    -6608    -7434    -8421    -9666   -11163   -12842 
  -14578   -16136   -17308   -18100   -18690   -19236   -19815   -20471 
  -21254   -22091   -22817   -23303   -23467   -23292   -22875   -22300 
  -21637   -20980   -20371   -19778   -19057   -18017   -16595   -14846 
  -12804   -10567    -8309    -6066    -3839    -1779      -89     1047 
    1509     1370      864      266     -206     -445     -411     -140 
     212      490      625      630      540      317     -172     -982 
   -2070    -3354    -4760    -6297    -7939    -9543   -11013   -12280 
  -13294   -14138   -14974   -15957   -17227   -18802   -20576   -22378 
  -23909   -24876   -25181   -24852   -24065   -23124   -22206   -21330 
  -20406   -19313   -18073   -16837   -15688   -14690   -13942   -13439 
  -13016   -12457   -11635   -10575    -9355    -8098    -7067    -6494 
   -6431    -6764    -7275    -7696    -7774    -7423    -6820    -6232 
   -5857    -5796    -6048    -6516    -7063    -7537    -7843    -8002 
   -8110    -8334    -8814    -9563   -10521   -11562   -12456   -12984 
  -13095   -12876   -12495   -12233   -12411   -13178   -14422   -15840 
  -17057   -17783   -17950   -17644   -17116   -16735   -16711   -17031 
  -17509   -17806   -17668   -17026   -15901   -14465   -13009   -11805 
