Origin Time       2016/04/16 01:25:00
Lat.              32.753
Long.             130.762
Depth. (km)       12
Mag.              7.3
Station Code      KOC015
Station Lat.      32.9370
Station Long.     132.7252
Station Height(m) 2
Record Time       2016/04/16 01:25:38
Sampling Freq(Hz) 100Hz
Duration Time(s)  120
Dir.              E-W
Scale Factor      7845(gal)/8223790
Max. Acc. (gal)   38.904
Last Correction   2016/04/16 01:25:38
Memo.             
[...]
   22341    21570    20206    18229    15840    13609    12125    11511 
   11352    11087    10389     9327     8360     7711     7331     7479 
    8352     9931    12093    14345    16268    17925    19438    20862 
   22279    23518    24150    24054    23544    22837    21979    20965 
   19695    18081    16128    14222    13267    13716    14878    15869 
   16506    17041    17660    18335    18978    19568    20150    20730 
   21234    21784    22524    23026    22966    22828    23031    23284 
   23172    22639    21880    21015    20031    19070    18303    17485 
   16100    14121    12451    12114    13007    14139    14881    15118 
   14929    14678    14958    16113    17633    18462    18631    19255 
   20655    22057    22535    21670    19993    18404    17377    17070 
   17192    17209    17186    17281    17286    17268    17325    17350 
   17409    17394    17200    17097    17084    16942    16730    16555 
   16506    16702    17004    17074    16899    16965    17544    18374 
   19080    19318    18894    18092    17390    16966    16799    16888 
   17186    17485    17394    16929    16556    16268    15807    15457 
   15674    16471    17427    17991    17986    17882    18212    18824 
   19238    19219    18846    18598    19006    20183    21872    23537 
   24521    24420    23325    21676    19912    18279    16839    15700 
   14952    14303    13405    12391    11589    11155    11006    11117 
   11630    12330    12810    13259    14199    15731    17454    18785 
   19607    20340    21223    22086    22763    23253    23479    23247 
   22762    22464    22239    21698    20702    19434    18297    17352 
   16302    15232    14423    13886    13565    13452    13512    13796 
   14295    14909    15884    17651    20151    22723    24549    25309 
   25370    25224    25077    24889    24529    24038    23599    23129 
   22293    20910    19040    16895    14735    12704    10924     9543 
    8594     8005     7742     7875     8579     9830    11307    12954 
   14960    17126    19156    21114    23024    24563    25238    25077 
   24840    25068    25497    25493    24914    24075    22914    21358 
   19789    18300    16800    15441    14241    13286    12910    13216 
   13994    14958    15789    16243    16474    16906    17771    19079 
   20605    21833    22353    22069    21220    20356    19746    19257 
   18809    18153    17124    16194    15796    15800    15792    15468 
   15072    15106    15716    16657    17493    18054    18492    18809 
   18975    19091    19136    19067    18812    18192    17382    16903 
   17077    17901    19089    20111    20536    20344    19728    18993 
   18648    18909    19476    19878    19674    18867    18088    17826 
   17953    18061    17950    17836    17826    17590    17077    16623 
   16318    15959    15438    15078    15424    16544    18056    19749 
   21574    23333    24575    25049    25216    25578    25797    25215 
   23808    22079    20235    18200    16353    15061    14026    12849 
   11676    10995    10978    11358    11889    12341    12569    12847 
   13512    14559    15978    17826    19907    21957    23880    25582 
   27020    28118    28638    28441    27572    26210    24622    22815 
   20694    18577    16773    15128    13588    12553    12178    12081 
   12085    12444    13292    14369    15317    16239    17490    19045 
   20837    22929    25115    27055    28409    28876    28451    27306 
   25770    24443    23610    22747    21209    19014    16563    14212 
   12475    11758    11762    11765    11488    11404    11993    13096 
   14249    15287    16437    17687    18706    19584    20591    21577 
   22330    22763    22717    22092    21033    19855    18924    18438 
   18075    17296    16123    15053    14359    13926    13635    13512 
   13373    13022    12853    13477    14889    16413    17502    18360 
   19377    20548    21741    22712    23062    22842    22495    22149 
   21543    20379    18624    16726    15376    14922    15064    15213 
   15070    14539    13621    12661    12055    12009    12645    13768 
   14928    15919    16862    17952    19211    20375    21227    22079 
   23334    24667    25462    25502    24859    23763    22400    20795 
   19215    18075    17420    17041    16826    16675    16519    16398 
   16305    16121    15823    15595    15763    16464    17268    17541 
   17189    16695    16592    17131    18156    19165    19859    20332 
   20684    21024    21404    21581    21352    20768    20108    19687 
   19340    18740    18015    17348    16668    16065    15807    15989 
   16470    16935    17212    17529    17833    17631    16926    16309 
   16308    16978    17763    18106    18091    18176    18619    19325 
   20001    20352    20421    20555    20799    20796    20232    19259 
   18420    17945    17581    17093    16551    16193    16086    16079 
   16124    16387    16934    17405    17435    17165    16903    16808 
   17050    17793    18979    20132    20794    21103    21334    21308 
   20902    20433    20102    19707    19102    18441    17878    17409 
   17021    16889    17173    17667    17979    17998    17949    18064 
   18364    18715    19008    19253    19458    19560    19593    19782 
   20113    20146    19654    18810    17820    16909    16106    15149 
   13909    12511    11435    11342    12310    13825    15516    17207 
   18611    19545    20070    20320    20406    20476    20744    21159 
   21239    20683    19764    18928    18446    18328    18418    18658 
   18837    18412    17199    15807    14908    14436    14106    14065 
   14430    14877    15040    14959    15183    16204    17767    19257 
   20375    21072    21463    21697    21546    20763    19607    18415 
   17379    16710    16286    15820    15317    14833    14516    14586 
   14743    14430    13676    13015    12835    13204    14219    15758 
   17240    18184    18364    17852    17284    17377    18315    19764 
   21054    21458    20790    19584    18642    18269    18030    17694 
   17631    18096    18966    19820    20318    20596    20892    21163 
   21257    21197    20957    20160    18746    17268    16062    15014 
   13994    12992    12220    12029    12525    13609    14972    15896 
   16114    16325    17140    18474    19840    20767    21311    21799 
   22284    22816    23568    24526    25332    25427    24587    23149 
   21581    19997    18258    16534    15044    13595    12029    10489 
    9321     8743     8463     8341     8841    10169    11920    13668 
   15256    16768    18415    20235    22009    23534    24753    25697 
   26451    26993    27118    26677    25731    24489    23032    21219 
   19076    16992    15456    14696    14445    14342    14436    14904 
   15593    16173    16538    16783    17010    17425    18188    19364 
   20922    22326    22954    22896    22584    22226    21813    21199 
   20326    19305    18231    17097    15773    14090    12023    10006 
    8822     8839     9817    11237    12444    13193    13909    15091 
   17066    19796    22586    24683    26034    27043    28044    29011 
   29492    29165    28177    26640    24603    22358    20217    18392 
   16872    15291    13433    11519     9828     8497     7446     6516 
    5773     5389     5533     6561     8676    11473    14370    17268 
   20322    23396    26126    28260    29759    30565    30356    28783 
   26025    22929    20281    18120    16276    14716    13055    10897 
    8513     6531     5331     4831     4766     4931     5324     6061 
    7114     8650    10874    13508    16410    19656    23052    26623 
   30325    33517    35773    37119    37509    36819    34927    32248 
   29902    28285    26515    23812    20128    15878    11851     8545 
    6014     4398     3622     3364     3568     4194     4981     5760 
    6597     7703     9315    11530    14346    17749    21514    25211 
   28506    31247    33342    34657    35109    34781    33705    31833 
   29423    27066    24945    22561    19400    15642    12285    10242 
    9435     9337     9919    11214    12683    13759    14463    15121 
   16067    17551    19457    21509    23711    25797    26989    26932 
   25886    24364    23183    22859    23156    23400    22778    21138 
   19380    18453    18468    18706    18374    17421    16187    14952 
   14096    13905    14334    15172    16147    17038    17741    18281 
   18900    19877    21288    23017    24468    24653    23333    21201 
   18937    17027    15807    15280    15128    14798    14233    14095 
   14759    15962    17239    18069    18188    17902    17647    17383 
   16748    15620    14164    12644    11623    11696    13046    15568 
   18738    21232    21822    20810    19670    19483    20494    22495 
   24790    26393    27005    27094    26784    25722    23889    21559 
   19170    17397    16212    14750    12614     9963     6822     3468 
     568    -1408    -2223    -1495     1123     5856    12563    19904 
   26053    30233    32026    31135    28802    26896    25699    24426 
   22940    21620    20646    20125    19722    18652    16551    13532 
   10332     8004     6698     6099     6137     6519     6594     5871 
    4756     4325     5289     7896    12322    18370    25070    31078 
   35256    36976    36402    34106    30642    26761    22828    18409 
   13637     9860     8440     9454    11469    13099    14572    16478 
   18590    21231    25007    28803    30944    31549    31710    31456 
   29890    27062    24412    22898    22431    22589    22999    23982 
   25335    25209    22528    18030    13020     8985     6916     6872 
    8441    10683    12725    14566    16131    17356    19230    22447 
   26335    29704    31799    32969    33893    34389    34163    32876 
   29390    23427    16606    10692     6523     4159     3159     3423 
    5198     8078    10771    11892    11425    11153    12306    14264 
   16452    19047    22171    25758    29230    31522    32193    31889 
   31482    31333    31040    29822    27426    23897    19118    13541 
    8546     5525     4733     5339     6431     7811     9606    11564 
   13744    16413    19101    21278    22632    23217    24163    26107 
   28086    29013    28620    27322    25941    25234    25578    26550 
   26901    25367    21744    16978    12179     8118     5005     2315 
    -302    -2563    -4228    -5047    -4491    -2150     1884     6848 
   11834    16310    19862    22495    24991    27706    29524    28972 
   25863    21577    18254    16966    16895    17153    17670    18112 
   17956    17320    16932    17648    19827    22698    24861    25427 
   24075    20934    16704    12221     8171     5054     3379     3879 
    6547     9965    12560    13944    14836    15846    16341    15223 
   12707    10239     9070     9713    12078    15263    17678    18330 
   17872    17959    19417    21489    23496    25914    28830    31469 
   33540    35244    36587    37358    37010    34896    31047    26258 
   21342    16969    13822    11889    10320     8197     4909      842 
   -2609    -4486    -4988    -4852    -4268    -2376     1817     8398 
   16244    23715    29970    34666    37331    38612    39977    42053 
   44955    48027    49374    47923    44278    39168    32977    25825 
   17840    10224     4278      162    -2065    -3231    -5462    -8986 
  -11824   -12734   -11487    -7635     -788     8766    19948    31077 
   40684    47501    50457    50637    50469    50310    49067    46728 
   43830    40347    36532    32246    26362    18954    11198     3917 
   -1324    -2828    -1290      711     1289     -106    -3438    -8147 
  -13261   -17259   -18418   -16438   -12271    -6926    -1105     5283 
   12541    20444    28368    34582    37366    37713    38169    39937 
   42564    44793    44984    40873    31340    19419     9826     4440 
    2435     1821      792     -575     -912      896     5281    11252 
   16615    19761    20494    19633    18200    16447    14529    13817 
   15018    16974    19275    22611    26966    31777    36186    38977 
   39391    37920    35904    34194    32368    29469    25409    21157 
   17442    14330    12015    10813    10930    12788    16254    20093 
   23080    24478    24339    23899    24186    25280    26963    28651 
   29744    30109    29592    28061    25602    22312    18447    14338 
   10114     6049     2573     -149    -2064    -2967    -2679    -1355 
     403     1899     3014     4507     7434    12163    18231    24410 
   28854    30726    31077    31338    32053    33052    34063    34904 
   35182    34480    32991    31058    28105    23194    16275     8451 
    1468    -3639    -7183    -9771   -11863   -14021   -16252   -17733 
  -17652   -15441   -10840    -4521     2166     8280    13948    20120 
   27488    35270    41338    44500    45787    46653    47380    47659 
   47174    45620    43108    39803    35380    29995    24518    19692 
   15566    11082     5246    -1378    -7607   -12762   -16348   -18052 
  -18149   -16911   -14056    -9508    -3457     4118    12552    20607 
   27865    34804    41675    47659    51958    54777    55926    54322 
   49860    43966    37944    32386    27168    21438    14800     7306 
    -943    -8536   -13590   -16159   -17660   -18550   -17678   -13923 
   -7788     -793     6212    13621    21560    28802    34460    39226 
   44554    50982    56472    58841    58733    57287    55186    53277 
   51003    47495    42859    37143    30638    23816    16835     9988 
    3622    -2057    -6901   -10817   -13493   -14482   -13790   -11916 
   -9108    -5055      266     6257    12525    19030    25317    30532 
   34138    35949    35837    34311    32540    31297    30657    30244 
   29527    28227    26259    23626    20501    17169    13780    10355 
    7215     4673     2451      411    -1233    -2350    -2369     -711 
    2452     6739    11785    17540    24209    30774    35074    35918 
   34013    31004    28196    26279    25501    25218    24135    21510 
   17587    13223     9250     6133     4332     4129     5005     5853 
    5686     4410     3141     3420     5899    10137    15454    21127 
   26617    31922    36613    39888    41871    43155    43475    41891 
   38194    33430    28748    24368    19836    14698     9096     3433 
   -2227    -7276   -10493   -11584   -11375   -10959   -11010   -11350 
  -11458   -10698    -8263    -4074     1298     7581    14756    22669 
   30609    37597    43301    47892    51389    53659    54682    54407 
   52620    49302    44899    40352    36138    31234    24818    17842 
   11789     7631     5324     3608     1352    -1571    -4544    -6563 
   -6945    -5601    -2949      283     3534     6444     9123    12166 
   15630    18897    21573    23863    26215    28533    30267    31078 
   30997    30159    28494    26176    23851    21732    19576    17531 
   15972    15064    14731    14731    14729    14389    13659    12966 
   12915    13740    15250    17090    18863    20507    22145    23639 
   25073    26712    28184    28752    28193    26940    25502    24024 
   22518    21128    19998    19008    17857    16351    14331    11939 
    9774     8028     6192     4050     2151      907       62     -432 
     -79     1420     3820     6520     9256    12297    15577    18562 
   20652    21416    21088    20227    19075    18080    17799    18107 
   18435    18300    17527    16345    15233    14617    14400    14126 
   13828    13817    14073    14409    14506    14092    13373    12622 
   11828    11168    11048    11797    13448    15498    17180    18002 
   17965    17424    16622    15731    15122    14990    15101    15121 
   14998    15013    15566    16875    18748    20844    23206    26130 
   29431    32224    33766    34118    33466    31644    28853    25820 
   22928    20045    17190    14465    11794     9325     7393     5946 
    4414     2193     -525    -2747    -3801    -3542    -1781     1223 
    4754     8603    12981    17999    23515    28954    33345    36117 
   37664    38572    39055    39333    39343    38491    36424    33492 
   30159    26667    23329    20364    17703    15163    12602    10224 
    8657     8437     9541    11341    13034    14419    16070    18608 
   21917    25080    27274    28409    28908    29330    29832    30102 
   29913    29343    28528    27256    25158    22327    19298    16656 
   14597    12798    11105     9792     8892     8243     7985     8345 
    9541    11580    13976    16515    19330    22044    24054    25062 
   25178    24949    24753    24698    24943    25151    24552    22954 
   20810    18624    16803    15720    15394    15268    14613    13016 
   10547     7794     5425     3774     2991     2872     2843     2623 
    2457     2982     4777     7420     9711    11084    12046    13131 
   14262    15464    17024    18792    20368    21703    22997    24518 
   26464    28868    31482    33465    33864    32624    30572    28401 
   26154    23681    21068    18571    16436    14719    13467    13014 
   13536    14602    15651    16513    17104    17332    17230    16899 
   16686    17076    18084    19352    20672    22010    23477    25265 
   27125    28221    27796    25764    22735    19672    17216    15264 
   13271    10937     8675     7092     6247     6039     6579     7789 
    9485    11676    14364    17352    20291    22684    24163    24889 
   25470    26472    28121    30451    33266    35941    37740    38407 
   38198    37408    36117    34484    32807    31260    29905    28511 
   26458    23433    19861    16486    14025    12937    12978    13405 
   13609    13220    12231    11183    10685    10920    11605    12361 
   13129    14047    15056    15855    16013    15188    13586    11759 
    9952     8352     7510     7819     9034    10474    11655    12665 
   13834    15277    16857    18522    20367    22260    23915    25223 
   26152    26882    27648    28215    28143    27305    26014    24952 
   24597    24721    24682    23936    22275    19870    17297    15167 
   13694    12897    12729    12964    13475    14382    15885    17998 
   20314    22330    23852    24915    25683    26400    27148    27691 
   27706    27083    25901    24416    23020    22011    21463    21109 
   20657    20160    19533    18486    17084    15660    14557    14054 
   14138    14554    15095    15724    16494    17315    17929    18183 
   18158    18192    18571    19020    19056    18654    18065    17447 
   16885    16421    16011    15691    15622    15777    15925    15862 
   15593    15376    15531    16249    17382    18470    19157    19429 
   19498    19615    19897    20349    20849    21168    21258    21285 
   21384    21624    21860    21843    21636    21413    21250    21465 
   22404    23770    24741    24833    24325    23832    23638    23692 
   24009    24617    25340    26034    26657    27000    26821    26289 
   25777    25417    25070    24480    23537    22538    21876    21563 
   21284    20888    20583    20440    20274    20070    19855    19487 
   18839    17845    16654    15685    15217    15334    16104    17379 
   18852    20259    21404    22242    22856    23261    23525    23828 
