Origin Time       2016/04/16 01:25:00
Lat.              32.753
Long.             130.762
Depth. (km)       12
Mag.              7.3
Station Code      KOC012
Station Lat.      33.1967
Station Long.     132.9758
Station Height(m) 150
Record Time       2016/04/16 01:25:45
Sampling Freq(Hz) 100Hz
Duration Time(s)  103
Dir.              N-S
Scale Factor      7845(gal)/8223790
Max. Acc. (gal)   9.329
Last Correction   2016/04/16 01:25:46
Memo.             
[...]
   20067    20202    20383    20568    20736    20884    20958    20856 
   20541    20109    19691    19371    19221    19315    19650    20128 
   20617    20996    21204    21249    21132    20883    20603    20387 
   20268    20267    20387    20567    20682    20609    20348    20001 
   19684    19483    19421    19473    19614    19777    19886    19909 
   19820    19634    19429    19256    19156    19234    19522    19916 
   20290    20530    20561    20433    20248    20063    19954    19996 
   20177    20426    20669    20830    20846    20702    20421    20062 
   19732    19498    19390    19434    19606    19870    20225    20578 
   20811    20884    20753    20455    20124    19791    19434    19157 
   19059    19182    19546    20048    20463    20650    20646    20494 
   20164    19697    19232    18879    18738    18889    19314    19921 
   20559    21014    21151    20969    20534    19959    19407    19018 
   18856    18921    19180    19580    20048    20510    20869    21061 
   21123    21135    21099    20962    20721    20420    20154    19978 
   19867    19784    19707    19629    19584    19600    19631    19627 
   19562    19448    19325    19248    19288    19504    19872    20281 
   20576    20659    20570    20403    20213    20039    19896    19815 
   19822    19876    19917    19926    19908    19888    19882    19885 
   19888    19905    19955    20008    20042    20119    20229    20243 
   20077    19737    19236    18645    18096    17732    17714    18126 
   18862    19726    20556    21224    21641    21768    21610    21250 
   20841    20494    20255    20154    20228    20468    20771    20961 
   20953    20781    20494    20089    19612    19199    18941    18860 
   19008    19408    19990    20619    21146    21474    21620    21628 
   21456    21052    20503    19979    19580    19327    19251    19340 
   19535    19784    20039    20227    20262    20092    19734    19307 
   19009    18948    19060    19267    19569    19942    20301    20595 
   20806    20896    20845    20696    20506    20275    20029    19854 
   19805    19897    20142    20466    20740    20906    20957    20925 
   20879    20817    20692    20569    20574    20727    20931    21039 
   20947    20656    20268    19893    19581    19372    19310    19413 
   19639    19943    20317    20761    21208    21570    21821    21930 
   21853    21620    21274    20846    20402    20000    19672    19471 
   19423    19487    19597    19718    19873    20039    20124    20106 
   20019    19872    19724    19649    19638    19669    19761    19913 
   20116    20378    20672    20907    21006    20912    20619    20231 
   19911    19723    19658    19727    19953    20329    20772    21103 
   21134    20788    20143    19423    18864    18570    18551    18789 
   19242    19834    20399    20768    20892    20804    20572    20326 
   20182    20174    20286    20452    20586    20626    20545    20359 
   20127    19932    19889    20056    20363    20682    20908    21031 
   21107    21111    20931    20593    20243    19951    19712    19514 
   19315    19070    18789    18524    18338    18311    18466    18729 
   19009    19263    19456    19604    19734    19780    19757    19842 
   20092    20387    20613    20677    20538    20274    19990    19699 
   19422    19273    19321    19570    19981    20406    20683    20737 
   20569    20237    19877    19618    19484    19421    19368    19341 
   19371    19448    19565    19746    19957    20164    20363    20470 
   20374    20071    19657    19279    19072    19099    19334    19673 
   19951    20042    19927    19645    19307    19101    19163    19489 
   19979    20514    20961    21201    21249    21188    21066    20930 
   20815    20706    20587    20455    20316    20223    20205    20232 
   20304    20434    20610    20790    20875    20764    20452    20034 
   19657    19426    19350    19431    19665    19982    20281    20491 
   20583    20542    20345    20008    19615    19292    19125    19110 
   19197    19349    19520    19697    19904    20077    20129    20088 
   20019    19946    19850    19731    19614    19530    19506    19588 
   19774    20024    20336    20656    20884    20996    20989    20865 
   20671    20407    20055    19673    19345    19121    19043    19149 
   19413    19754    20125    20494    20784    20935    20930    20742 
   20433    20193    20119    20163    20304    20509    20676    20700 
   20504    20074    19514    18991    18645    18592    18883    19434 
   20013    20389    20460    20260    19917    19575    19327    19269 
   19488    19890    20248    20453    20541    20538    20444    20271 
   20038    19782    19556    19380    19261    19236    19361    19631 
   20001    20409    20753    20898    20779    20457    20074    19753 
   19591    19645    19919    20328    20687    20817    20667    20304 
   19835    19388    19075    18964    19099    19461    19947    20449 
   20891    21169    21250    21199    21052    20799    20476    20190 
   19996    19909    19959    20151    20447    20804    21136    21319 
   21343    21296    21176    20947    20692    20494    20341    20231 
   20169    20129    20113    20117    20063    19913    19724    19539 
   19368    19300    19390    19556    19726    19893    20029    20070 
   20002    19854    19687    19542    19406    19276    19205    19238 
   19406    19703    20047    20359    20661    20950    21088    20979 
   20657    20214    19759    19413    19205    19103    19086    19129 
   19197    19306    19511    19823    20163    20405    20503    20515 
   20524    20532    20461    20279    20116    20105    20214    20304 
   20286    20191    20106    20071    19982    19726    19423    19318 
   19468    19781    20131    20359    20378    20227    20017    19909 
   19988    20190    20405    20525    20472    20283    20045    19818 
   19680    19718    19946    20321    20760    21138    21313    21203 
   20879    20503    20171    19923    19786    19728    19664    19535 
   19360    19193    19102    19107    19170    19271    19408    19556 
   19687    19818    19989    20217    20437    20540    20470    20232 
   19911    19691    19697    19892    20144    20309    20341    20320 
   20329    20395    20504    20610    20682    20731    20761    20736 
   20633    20437    20105    19658    19271    19084    19061    19118 
   19259    19446    19615    19758    19820    19726    19581    19514 
   19480    19477    19618    19899    20190    20395    20467    20394 
   20235    20066    19904    19720    19511    19309    19138    19067 
   19170    19456    19882    20394    20899    21280    21406    21177 
   20614    19915    19344    19041    18975    19041    19150    19307 
   19561    19889    20170    20298    20266    20166    20082    19992 
   19857    19723    19652    19689    19801    19873    19830    19691 
   19539    19552    19827    20254    20691    21061    21239    21118 
   20753    20299    19845    19411    19070    18943    19095    19452 
   19905    20375    20771    21020    21097    20972    20725    20464 
   20148    19753    19438    19429    19850    20586    21298    21747 
   21926    21875    21635    21320    21015    20717    20414    20169 
   20077    20154    20329    20510    20541    20344    20017    19589 
   19049    18589    18405    18531    18945    19618    20439    21259 
   21955    22405    22524    22361    22092    21816    21527    21227 
   20918    20621    20429    20359    20347    20362    20428    20584 
   20846    21139    21315    21276    21085    20902    20831    20873 
   20968    21057    21095    21043    20834    20429    19882    19275 
   18715    18365    18350    18679    19269    19979    20673    21200 
   21405    21269    20848    20231    19645    19327    19321    19560 
   19913    20147    20189    20170    20146    20077    20016    20071 
   20298    20648    21037    21390    21658    21820    21859    21764 
   21586    21419    21328    21290    21276    21355    21602    21993 
   22455    22840    22971    22793    22331    21643    20872    20148 
   19538    19138    19074    19417    20154    21124    22052    22743 
   23143    23172    22751    21952    20960    19992    19307    19047 
   19174    19665    20436    21259    22007    22634    22994    23002 
   22732    22262    21649    21026    20493    20042    19673    19431 
   19236    18967    18674    18509    18554    18802    19156    19512 
   19934    20495    21058    21408    21482    21331    21039    20718 
   20479    20382    20439    20656    21007    21413    21865    22370 
   22793    22974    22890    22609    22216    21759    21231    20656 
   20119    19718    19494    19356    19160    18820    18391    18023 
   17853    17876    18056    18441    19009    19592    19979    20009 
   19642    18974    18152    17374    16806    16443    16241    16222 
   16365    16611    16946    17385    17899    18463    19079    19624 
   19900    19855    19543    19001    18335    17714    17197    16750 
   16438    16402    16702    17305    18085    18773    19161    19302 
   19291    19137    18905    18658    18415    18223    18079    17884 
   17558    17165    16903    16872    17027    17321    17674    17982 
   18179    18220    18084    17771    17301    16808    16492    16433 
   16639    17101    17671    18149    18422    18415    18125    17633 
   17030    16378    15731    15229    15094    15404    16102    17115 
   18274    19327    20098    20580    20903    21146    21232    21066 
   20641    19998    19213    18427    17836    17618    17896    18681 
   19778    20885    21760    22269    22401    22335    22323    22491 
   22858    23379    23927    24358    24565    24528    24348    24127 
   23911    23739    23588    23359    22977    22429    21774    21181 
   20853    20881    21199    21701    22295    22828    23168    23263 
   23070    22646    22142    21693    21415    21394    21675    22204 
   22790    23294    23689    23889    23826    23557    23160    22701 
   22312    22098    22018    21960    21848    21648    21305    20796 
   20198    19607    19107    18813    18800    19055    19539    20152 
   20714    21107    21309    21301    21114    20869    20664    20613 
   20919    21635    22593    23531    24150    24206    23650    22569 
   21026    19117    17146    15487    14374    13851    13778    13971 
   14389    15029    15776    16552    17365    18227    19198    20279 
   21292    21948    21979    21304    20031    18341    16514    14889 
   13729    13302    13803    15095    16866    18863    20790    22385 
   23595    24416    24819    24894    24761    24453    23963    23318 
   22566    21837    21288    20958    20798    20758    20825    20984 
   21227    21534    21786    21797    21465    20845    20102    19375 
   18632    17787    16868    15970    15163    14581    14401    14713 
   15479    16627    18037    19477    20698    21544    21978    21984 
   21589    20908    20100    19402    19127    19402    20090    21038 
   22172    23444    24727    25828    26593    26979    26998    26671 
   26046    25155    23938    22307    20297    18126    16168    14856 
   14459    14929    16021    17462    18985    20341    21385    22096 
   22420    22249    21636    20758    19795    18945    18339    18049 
   18180    18787    19812    21114    22504    23811    24910    25747 
   26308    26505    26229    25516    24557    23596    22860    22505 
   22547    22819    23028    22948    22486    21590    20328    19033 
   18149    17956    18482    19454    20393    20958    21077    20800 
   20256    19643    19161    18958    19126    19661    20344    20839 
   20918    20526    19809    19026    18381    17990    17909    18095 
   18473    18982    19591    20289    21061    21927    22863    23677 
   24182    24324    24007    23120    21725    20032    18387    17209 
   16769    17130    18152    19475    20630    21253    21270    20891 
   20293    19607    19056    18843    19051    19614    20229    20474 
   20117    19224    18023    16800    15816    15257    15225    15723 
   16625    17687    18650    19373    19876    20189    20278    20162 
   19935    19673    19472    19526    20059    21174    22781    24659 
   26526    28092    29118    29436    28987    27828    26117    24084 
   22002    20129    18654    17656    17199    17301    17844    18623 
   19399    19867    19789    19132    17991    16513    14856    13277 
   12124    11653    11983    13123    14872    16794    18339    19124 
   19111    18484    17498    16447    15550    14932    14594    14430 
   14354    14328    14320    14364    14592    15160    16190    17663 
   19364    21035    22459    23491    24058    24245    24302    24426 
   24645    24891    25020    24915    24583    24084    23449    22720 
   22042    21624    21598    21990    22769    23801    24768    25266 
   25042    24081    22554    20765    19053    17694    16888    16722 
   17011    17406    17635    17535    17061    16417    15935    15839 
   16132    16648    17134    17410    17460    17348    17149    16995 
   17111    17652    18567    19647    20661    21452    21990    22308 
   22360    22059    21428    20513    19359    18143    17093    16263 
   15498    14629    13670    12726    11871    11167    10638    10304 
   10278    10631    11241    11908    12434    12684    12739    12833 
   13128    13716    14677    15962    17277    18199    18431    17968 
   17010    15819    14675    13865    13603    13995    15033    16503 
   18013    19217    19944    20177    20070    19962    20266    21226 
   22761    24513    26023    26936    27036    26241    24684    22705 
   20700    18991    17779    17140    16995    17159    17462    17832 
   18289    18881    19549    20067    20169    19715    18751    17440 
   16023    14817    14142    14184    14993    16410    17998    19264 
   19957    20061    19712    19118    18484    18003    17923    18408 
   19263    20036    20387    20233    19691    18958    18225    17647 
   17406    17755    18796    20248    21643    22689    23315    23527 
   23329    22682    21672    20625    19892    19607    19685    19981 
   20299    20412    20297    20109    19885    19630    19460    19437 
   19543    19770    20035    20200    20196    20066    19859    19592 
   19345    19257    19427    19961    20899    22069    23109    23680 
   23670    23222    22547    21880    21460    21398    21645    22081 
   22509    22724    22646    22233    21393    20167    18800    17621 
   16845    16503    16575    17098    18046    19228    20352    21127 
   21377    21128    20475    19498    18285    16955    15688    14728 
   14335    14620    15424    16495    17676    18832    19751    20108 
   19588    18230    16507    14976    13957    13606    13999    15066 
   16614    18337    19765    20511    20541    20088    19519    19176 
   19229    19738    20772    22312    24156    25918    27197    27751 
   27446    26318    24657    22847    21249    20193    19889    20356 
   21411    22646    23504    23533    22661    21231    19791    18793 
   18397    18517    19049    19974    21234    22627    23878    24746 
   25176    25301    25213    24881    24347    23792    23446    23514 
   24047    24906    25851    26674    27228    27446    27341    26902 
   26165    25238    24194    23105    22087    21161    20243    19299 
   18409    17713    17348    17437    17928    18569    19159    19669 
   20177    20694    21173    21667    22239    22854    23456    23993 
   24443    24818    25084    25224    25350    25566    25866    26180 
   26451    26646    26713    26546    26032    25099    23778    22268 
   20845    19784    19284    19396    20038    20993    21964    22681 
   22937    22619    21830    20896    20171    19869    20066    20737 
   21694    22613    23263    23615    23669    23425    22956    22339 
   21671    21120    20815    20758    20858    21007    21141    21216 
   21170    20929    20445    19739    18932    18227    17797    17676 
   17778    17965    18168    18465    18970    19649    20316    20806 
   21068    21135    21074    20895    20518    19969    19433    19124 
   19159    19549    20160    20707    20916    20691    20092    19269 
   18355    17433    16563    15805    15215    14848    14750    14920 
   15286    15774    16360    17012    17594    17914    17882    17567 
   17176    16951    17021    17423    18153    19141    20208    21116 
   21670    21803    21600    21244    20923    20745    20737    20876 
   21132    21554    22187    22882    23398    23611    23533    23251 
   22891    22504    22057    21559    21141    20952    21011    21269 
   21685    22179    22680    23180    23579    23695    23456    22923 
   22214    21455    20767    20256    19927    19695    19511    19383 
   19367    19471    19596    19649    19647    19683    19846    20164 
   20579    21037    21408    21475    21173    20615    19963    19406 
   19032    18781    18555    18316    18103    17940    17787    17635 
   17575    17733    18185    18882    19643    20325    20876    21212 
   21262    21052    20679    20251    19892    19665    19494    19317 
   19144    18881    18405    17771    17159    16777    16729    16952 
   17308    17644    17855    17888    17761    17544    17342    17257 
   17374    17684    18050    18357    18554    18593    18532    18527 
   18647    18874    19182    19465    19564    19427    19134    18786 
   18484    18292    18225    18277    18466    18769    19057    19193 
   19159    18994    18728    18384    17963    17525    17257    17284 
   17574    18010    18438    18692    18661    18334    17795    17213 
   16803    16729    17007    17555    18268    19032    19675    20048 
   20166    20170    20194    20380    20795    21344    21872    22264 
   22438    22341    21942    21282    20529    19880    19442    19263 
   19327    19537    19773    19934    19877    19554    19095    18709 
   18558    18706    19099    19641    20213    20636    20757    20575 
   20164    19623    19118    18802    18723    18841    19030    19148 
   19148    19001    18671    18230    17836    17667    17855    18377 
   19078    19784    20332    20583    20509    20160    19584    18895 
   18300    17934    17774    17737    17767    17813    17887    18038 
   18237    18438    18643    18850    19061    19273    19431    19465 
   19381    19273    19218    19150    18921    18443    17787    17100 
   16480    16017    15807    15859    16123    16580    17162    17717 
   18138    18393    18463    18351    18131    17925    17807    17807 
   17953    18191    18396    18508    18535    18497    18443    18409 
   18377    18338    18320    18350    18454    18648    18960    19413 
   19969    20504    20887    21039    20945    20648    20272    19984 
   19881    19977    20227    20518    20742    20876    20970    21101 
   21288    21496    21699    21876    22022    22183    22391    22609 
   22798    22936    23012    23010    22887    22608    22211    21733 
   21169    20530    19893    19357    19036    18995    19182    19483 
