Origin Time       2016/04/16 01:25:00
Lat.              32.753
Long.             130.762
Depth. (km)       12
Mag.              7.3
Station Code      KOC010
Station Lat.      33.3925
Station Long.     133.2896
Station Height(m) 4
Record Time       2016/04/16 01:25:53
Sampling Freq(Hz) 100Hz
Duration Time(s)  108
Dir.              N-S
Scale Factor      7845(gal)/8223790
Max. Acc. (gal)   6.406
Last Correction   2016/04/16 01:25:54
Memo.             
[...]
   -5998    -6004    -6123    -6299    -6460    -6617    -6790    -6928 
   -6983    -7001    -7021    -6990    -6874    -6759    -6711    -6701 
   -6679    -6648    -6642    -6659    -6671    -6670    -6663    -6651 
   -6643    -6648    -6681    -6782    -6970    -7163    -7285    -7318 
   -7272    -7138    -6906    -6621    -6377    -6214    -6114    -6066 
   -6095    -6211    -6392    -6589    -6771    -6944    -7099    -7198 
   -7246    -7311    -7393    -7427    -7392    -7304    -7176    -7049 
   -6961    -6914    -6939    -7084    -7310    -7507    -7638    -7719 
   -7713    -7574    -7357    -7160    -7042    -7002    -7028    -7113 
   -7233    -7339    -7430    -7508    -7523    -7457    -7366    -7268 
   -7142    -7014    -6937    -6883    -6818    -6779    -6770    -6756 
   -6785    -6871    -6947    -6968    -6944    -6895    -6860    -6886 
   -6944    -6948    -6916    -6893    -6848    -6754    -6632    -6488 
   -6320    -6178    -6119    -6145    -6197    -6247    -6313    -6384 
   -6453    -6551    -6666    -6755    -6826    -6871    -6844    -6755 
   -6673    -6613    -6550    -6493    -6493    -6577    -6685    -6725 
   -6706    -6697    -6694    -6685    -6713    -6795    -6899    -7006 
   -7080    -7087    -7051    -6999    -6898    -6775    -6760    -6893 
   -7064    -7184    -7241    -7242    -7214    -7206    -7234    -7258 
   -7249    -7236    -7225    -7203    -7182    -7159    -7087    -6985 
   -6933    -6932    -6929    -6929    -6932    -6894    -6843    -6837 
   -6851    -6847    -6871    -6955    -7022    -7011    -6959    -6890 
   -6820    -6801    -6862    -6961    -7053    -7137    -7227    -7306 
   -7331    -7281    -7164    -7052    -7032    -7083    -7137    -7192 
   -7256    -7268    -7169    -6976    -6758    -6593    -6496    -6454 
   -6502    -6673    -6921    -7155    -7280    -7241    -7065    -6828 
   -6586    -6397    -6301    -6285    -6288    -6290    -6320    -6396 
   -6484    -6546    -6564    -6559    -6561    -6573    -6573    -6556 
   -6556    -6589    -6617    -6617    -6612    -6602    -6574    -6543 
   -6516    -6473    -6443    -6498    -6639    -6808    -6982    -7132 
   -7200    -7196    -7187    -7136    -6980    -6767    -6578    -6438 
   -6399    -6520    -6743    -6922    -7014    -7083    -7160    -7203 
   -7171    -7053    -6895    -6768    -6727    -6770    -6871    -7009 
   -7160    -7258    -7258    -7211    -7165    -7106    -7021    -6925 
   -6843    -6805    -6864    -7032    -7223    -7353    -7426    -7487 
   -7538    -7547    -7488    -7362    -7207    -7065    -6998    -7034 
   -7160    -7330    -7456    -7477    -7420    -7340    -7223    -7038 
   -6818    -6609    -6403    -6207    -6099    -6099    -6156    -6274 
   -6488    -6736    -6928    -7041    -7076    -7042    -6975    -6929 
   -6910    -6872    -6831    -6833    -6864    -6894    -6894    -6820 
   -6679    -6525    -6363    -6203    -6095    -6052    -6030    -6019 
   -6053    -6133    -6241    -6351    -6423    -6459    -6525    -6643 
   -6756    -6851    -6957    -7049    -7082    -7080    -7102    -7122 
   -7059    -6881    -6647    -6431    -6290    -6235    -6269    -6389 
   -6538    -6620    -6628    -6629    -6643    -6627    -6567    -6525 
   -6546    -6619    -6735    -6855    -6957    -7071    -7167    -7160 
   -7064    -6949    -6828    -6694    -6590    -6542    -6502    -6455 
   -6435    -6460    -6539    -6659    -6754    -6781    -6763    -6731 
   -6725    -6787    -6881    -6961    -7042    -7114    -7101    -6972 
   -6789    -6575    -6320    -6066    -5884    -5818    -5888    -6068 
   -6277    -6457    -6582    -6663    -6733    -6829    -6971    -7144 
   -7298    -7356    -7284    -7119    -6906    -6663    -6432    -6292 
   -6257    -6292    -6393    -6552    -6700    -6806    -6875    -6902 
   -6893    -6883    -6871    -6832    -6775    -6729    -6698    -6696 
   -6763    -6902    -7034    -7113    -7159    -7169    -7126    -7030 
   -6885    -6702    -6515    -6342    -6212    -6160    -6180    -6258 
   -6372    -6473    -6536    -6581    -6633    -6687    -6718    -6717 
   -6693    -6666    -6669    -6689    -6673    -6616    -6552    -6485 
   -6416    -6392    -6427    -6462    -6448    -6415    -6397    -6376 
   -6347    -6351    -6386    -6432    -6475    -6513    -6556    -6625 
   -6704    -6774    -6874    -7013    -7123    -7145    -7103    -7060 
   -7030    -6993    -6909    -6785    -6682    -6643    -6635    -6623 
   -6606    -6582    -6547    -6534    -6558    -6619    -6723    -6848 
   -6943    -6975    -6957    -6852    -6631    -6361    -6135    -5983 
   -5918    -5960    -6081    -6252    -6436    -6566    -6619    -6628 
   -6601    -6515    -6365    -6158    -5908    -5668    -5508    -5436 
   -5452    -5579    -5764    -5913    -6023    -6138    -6223    -6250 
   -6252    -6274    -6320    -6394    -6507    -6615    -6696    -6760 
   -6777    -6708    -6606    -6550    -6559    -6667    -6867    -7086 
   -7260    -7375    -7396    -7294    -7119    -6960    -6826    -6696 
   -6619    -6635    -6706    -6806    -6936    -7071    -7198    -7325 
   -7411    -7454    -7495    -7553    -7614    -7668    -7696    -7673 
   -7593    -7466    -7298    -7136    -7017    -6912    -6804    -6767 
   -6851    -7001    -7140    -7229    -7271    -7299    -7388    -7548 
   -7685    -7753    -7777    -7744    -7630    -7476    -7321    -7188 
   -7121    -7110    -7113    -7125    -7146    -7160    -7203    -7353 
   -7614    -7902    -8135    -8289    -8329    -8255    -8121    -7950 
   -7734    -7524    -7358    -7225    -7138    -7099    -7052    -6971 
   -6880    -6808    -6744    -6675    -6609    -6581    -6623    -6736 
   -6874    -6971    -6961    -6821    -6619    -6463    -6369    -6285 
   -6218    -6216    -6288    -6416    -6598    -6793    -6929    -6994 
   -7014    -6994    -6933    -6818    -6613    -6332    -6044    -5809 
   -5645    -5549    -5539    -5638    -5815    -6006    -6174    -6303 
   -6415    -6546    -6700    -6852    -6966    -7011    -6983    -6893 
   -6747    -6562    -6369    -6204    -6097    -6077    -6137    -6234 
   -6316    -6334    -6301    -6277    -6300    -6349    -6401    -6453 
   -6467    -6399    -6262    -6083    -5887    -5772    -5786    -5869 
   -6010    -6243    -6531    -6777    -6913    -6898    -6718    -6434 
   -6180    -6050    -6042    -6130    -6266    -6400    -6535    -6714 
   -6902    -7023    -7040    -6936    -6735    -6517    -6366    -6315 
   -6367    -6520    -6736    -6967    -7173    -7338    -7452    -7514 
   -7526    -7474    -7361    -7192    -6964    -6694    -6430    -6218 
   -6083    -6041    -6092    -6231    -6457    -6755    -7042    -7230 
   -7312    -7311    -7223    -7107    -7005    -6881    -6755    -6687 
   -6658    -6648    -6733    -6957    -7221    -7431    -7611    -7740 
   -7754    -7682    -7581    -7422    -7248    -7169    -7184    -7250 
   -7393    -7612    -7842    -8055    -8260    -8421    -8506    -8520 
   -8456    -8306    -8118    -7940    -7792    -7717    -7728    -7761 
   -7765    -7765    -7759    -7696    -7572    -7435    -7327    -7304 
   -7406    -7599    -7823    -8086    -8368    -8588    -8718    -8797 
   -8829    -8777    -8667    -8542    -8460    -8490    -8652    -8895 
   -9162    -9406    -9568    -9614    -9521    -9236    -8762    -8221 
   -7723    -7306    -7047    -7038    -7254    -7597    -8005    -8384 
   -8619    -8685    -8577    -8255    -7756    -7242    -6812    -6454 
   -6203    -6141    -6249    -6459    -6728    -6976    -7134    -7218 
   -7267    -7307    -7380    -7504    -7647    -7771    -7878    -7956 
   -7950    -7831    -7614    -7306    -6929    -6534    -6166    -5910 
   -5821    -5877    -6042    -6290    -6578    -6831    -6968    -6939 
   -6727    -6326    -5798    -5251    -4803    -4576    -4612    -4873 
   -5313    -5854    -6361    -6766    -7064    -7231    -7258    -7217 
   -7160    -7063    -6926    -6831    -6789    -6736    -6673    -6662 
   -6704    -6777    -6880    -7007    -7129    -7206    -7218    -7164 
   -7049    -6914    -6786    -6656    -6508    -6342    -6161    -5958 
   -5744    -5545    -5400    -5337    -5386    -5564    -5869    -6268 
   -6685    -7036    -7254    -7323    -7254    -7040    -6702    -6343 
   -6056    -5860    -5749    -5698    -5645    -5562    -5472    -5379 
   -5263    -5121    -4931    -4641    -4251    -3852    -3544    -3345 
   -3241    -3254    -3414    -3677    -3960    -4159    -4205    -4095 
   -3836    -3458    -3032    -2659    -2431    -2409    -2620    -3021 
   -3542    -4118    -4661    -5027    -5097    -4855    -4378    -3784 
   -3200    -2763    -2601    -2779    -3237    -3804    -4314    -4664 
   -4801    -4741    -4567    -4353    -4152    -4029    -4036    -4167 
   -4422    -4814    -5317    -5853    -6339    -6727    -6983    -7091 
   -7071    -6964    -6804    -6629    -6482    -6413    -6493    -6759 
   -7177    -7674    -8164    -8546    -8729    -8702    -8486    -8056 
   -7411    -6643    -5880    -5217    -4743    -4531    -4594    -4887 
   -5341    -5856    -6328    -6717    -7010    -7192    -7280    -7321 
   -7353    -7411    -7508    -7634    -7796    -8000    -8220    -8418 
   -8583    -8726    -8873    -9042    -9178    -9209    -9154    -9082 
   -9005    -8939    -8943    -9023    -9142    -9289    -9441    -9562 
   -9644    -9690    -9691    -9664    -9682    -9787    -9941   -10092 
  -10206   -10234   -10139    -9949    -9722    -9475    -9194    -8911 
   -8704    -8622    -8683    -8874    -9119    -9312    -9423    -9472 
   -9479    -9436    -9332    -9159    -8943    -8746    -8614    -8543 
   -8525    -8545    -8572    -8571    -8550    -8517    -8411    -8182 
   -7862    -7510    -7191    -6948    -6791    -6706    -6709    -6844 
   -7099    -7435    -7821    -8212    -8553    -8833    -9059    -9229 
   -9315    -9339    -9364    -9404    -9409    -9308    -9046    -8626 
   -8116    -7624    -7218    -6903    -6696    -6647    -6777    -7036 
   -7329    -7543    -7611    -7538    -7389    -7257    -7198    -7219 
   -7331    -7538    -7804    -8078    -8319    -8496    -8592    -8608 
   -8543    -8401    -8212    -8007    -7803    -7589    -7383    -7187 
   -6940    -6594    -6192    -5780    -5346    -4896    -4446    -3986 
   -3566    -3267    -3073    -2983    -3075    -3361    -3742    -4159 
   -4627    -5104    -5502    -5809    -6052    -6266    -6517    -6852 
   -7241    -7624    -7942    -8132    -8160    -8066    -7909    -7685 
   -7380    -7032    -6711    -6465    -6309    -6242    -6261    -6355 
   -6512    -6718    -6930    -7044    -7002    -6872    -6723    -6547 
   -6376    -6315    -6426    -6689    -7074    -7541    -8032    -8552 
   -9112    -9666   -10168   -10628   -11036   -11317   -11443   -11462 
  -11394   -11268   -11134   -10990   -10781   -10466   -10029    -9472 
   -8873    -8359    -8020    -7908    -8087    -8560    -9201    -9837 
  -10270   -10329    -9996    -9386    -8596    -7732    -6960    -6376 
   -5968    -5756    -5791    -6072    -6573    -7229    -7909    -8487 
   -8903    -9119    -9132    -8996    -8780    -8557    -8447    -8586 
   -9012    -9644   -10324   -10887   -11261   -11499   -11681   -11803 
  -11842   -11799   -11658   -11368   -10886   -10179    -9215    -8040 
   -6822    -5726    -4866    -4352    -4214    -4391    -4838    -5503 
   -6257    -6937    -7411    -7593    -7443    -7006    -6411    -5807 
   -5319    -5008    -4885    -4955    -5243    -5691    -6168    -6547 
   -6787    -6939    -7061    -7198    -7388    -7599    -7747    -7801 
   -7744    -7541    -7160    -6586    -5849    -5058    -4325    -3730 
   -3312    -3083    -3057    -3245    -3643    -4263    -5081    -5991 
   -6801    -7323    -7480    -7296    -6814    -6102    -5243    -4314 
   -3422    -2709    -2265    -2037    -1849    -1582    -1263     -965 
    -773     -816    -1152    -1715    -2411    -3148    -3839    -4442 
   -4943    -5296    -5435    -5400    -5312    -5268    -5324    -5501 
   -5734    -5944    -6108    -6227    -6304    -6393    -6547    -6735 
   -6910    -7096    -7280    -7334    -7163    -6771    -6226    -5652 
   -5169    -4823    -4653    -4704    -4974    -5402    -5922    -6550 
   -7334    -8179    -8905    -9404    -9622    -9535    -9108    -8352 
   -7444    -6650    -6112    -5811    -5680    -5694    -5869    -6158 
   -6413    -6501    -6338    -5876    -5147    -4271    -3431    -2828 
   -2582    -2732    -3264    -4085    -4976    -5711    -6181    -6382 
   -6342    -6145    -5958    -5946    -6231    -6876    -7751    -8621 
   -9359    -9895   -10160   -10169    -9994    -9707    -9397    -9153 
   -9028    -9032    -9128    -9227    -9231    -9088    -8789    -8341 
   -7807    -7294    -6863    -6520    -6259    -6092    -6006    -5957 
   -5908    -5829    -5638    -5346    -5076    -4912    -4877    -4988 
   -5248    -5621    -6057    -6542    -7049    -7557    -8070    -8556 
   -8939    -9205    -9375    -9487    -9591    -9710    -9861   -10096 
  -10447   -10890   -11358   -11772   -12073   -12212   -12137   -11820 
  -11311   -10733   -10234    -9875    -9622    -9452    -9366    -9355 
   -9402    -9475    -9567    -9717    -9923   -10111   -10210   -10207 
  -10134   -10018    -9890    -9815    -9857   -10038   -10331   -10646 
  -10845   -10858   -10712   -10500   -10323   -10308   -10543   -11002 
  -11574   -12150   -12661   -13084   -13406   -13574   -13498   -13143 
  -12567   -11861   -11107   -10403    -9842    -9474    -9289    -9255 
   -9360    -9559    -9738    -9787    -9626    -9224    -8642    -8001 
   -7392    -6893    -6585    -6489    -6592    -6868    -7222    -7539 
   -7746    -7803    -7747    -7652    -7539    -7377    -7129    -6777 
   -6330    -5817    -5293    -4818    -4437    -4156    -3951    -3782 
   -3595    -3358    -3094    -2855    -2678    -2577    -2551    -2565 
   -2543    -2424    -2205    -1938    -1718    -1609    -1582    -1574 
   -1590    -1705    -1926    -2191    -2457    -2764    -3177    -3709 
   -4287    -4797    -5138    -5258    -5205    -5077    -4970    -4951 
   -5016    -5109    -5189    -5273    -5439    -5699    -5971    -6185 
   -6318    -6370    -6389    -6417    -6400    -6280    -6099    -5931 
   -5782    -5656    -5594    -5610    -5709    -5902    -6199    -6571 
   -6974    -7376    -7750    -8106    -8499    -8927    -9342    -9691 
   -9922   -10034   -10085   -10107   -10088   -10029    -9971    -9991 
  -10146   -10409   -10692   -10939   -11184   -11470   -11754   -11943 
  -11963   -11767   -11360   -10783   -10103    -9414    -8793    -8248 
   -7793    -7479    -7307    -7192    -7017    -6735    -6366    -5929 
   -5436    -4923    -4436    -4031    -3778    -3681    -3673    -3721 
   -3811    -3889    -3931    -3993    -4172    -4513    -4961    -5425 
   -5846    -6226    -6579    -6874    -7075    -7171    -7115    -6903 
   -6662    -6505    -6447    -6465    -6555    -6686    -6806    -6886 
   -6895    -6790    -6585    -6361    -6154    -5965    -5844    -5830 
   -5876    -5867    -5724    -5440    -5026    -4510    -3960    -3461 
   -3098    -2937    -3013    -3316    -3761    -4195    -4515    -4658 
   -4596    -4388    -4120    -3827    -3530    -3272    -3106    -3056 
   -3122    -3268    -3404    -3457    -3484    -3591    -3762    -3923 
   -4031    -4081    -4120    -4209    -4338    -4461    -4568    -4676 
   -4796    -4943    -5119    -5255    -5305    -5327    -5406    -5557 
   -5725    -5813    -5752    -5567    -5355    -5190    -5112    -5143 
   -5273    -5445    -5606    -5744    -5872    -6023    -6231    -6513 
   -6856    -7215    -7523    -7727    -7796    -7717    -7543    -7365 
   -7241    -7187    -7236    -7398    -7628    -7855    -8046    -8210 
   -8345    -8410    -8401    -8322    -8189    -8044    -7898    -7708 
   -7480    -7304    -7264    -7402    -7685    -8013    -8290    -8499 
   -8653    -8725    -8662    -8460    -8144    -7747    -7317    -6910 
   -6531    -6139    -5722    -5314    -4969    -4695    -4471    -4275 
   -4114    -4013    -4031    -4220    -4530    -4850    -5104    -5300 
   -5508    -5767    -6027    -6219    -6327    -6385    -6424    -6447 
   -6426    -6305    -6095    -5883    -5768    -5793    -5981    -6349 
   -6867    -7470    -8082    -8587    -8870    -8903    -8715    -8359 
   -7939    -7585    -7360    -7249    -7223    -7283    -7434    -7665 
   -7924    -8125    -8186    -8090    -7890    -7643    -7376    -7103 
   -6826    -6566    -6359    -6205    -6088    -6000    -5917    -5811 
   -5701    -5611    -5563    -5564    -5609    -5675    -5726    -5726 
   -5671    -5579    -5487    -5398    -5251    -4988    -4594    -4078 
   -3504    -2983    -2586    -2334    -2249    -2376    -2674    -3019 
   -3306    -3491    -3557    -3514    -3391    -3192    -2938    -2710 
   -2556    -2442    -2359    -2371    -2521    -2763    -3022    -3240 
   -3355    -3360    -3302    -3230    -3169    -3126    -3125    -3207 
   -3384    -3620    -3898    -4205    -4476    -4654    -4769    -4888 
   -5032    -5163    -5251    -5290    -5281    -5254    -5252    -5282 
   -5310    -5290    -5201    -5055    -4864    -4658    -4491    -4391 
   -4364    -4419    -4568    -4810    -5101    -5427    -5805    -6237 
   -6673    -7082    -7433    -7692    -7860    -7987    -8083    -8131 
   -8151    -8181    -8217    -8268    -8361    -8456    -8494    -8456 
   -8359    -8240    -8135    -8035    -7944    -7857    -7780    -7742 
   -7739    -7730    -7713    -7723    -7761    -7809    -7836    -7840 
   -7855    -7929    -8109    -8391    -8746    -9127    -9479    -9751 
   -9946   -10115   -10255   -10326   -10319   -10277   -10239   -10226 
  -10242   -10274   -10299   -10315   -10316   -10219    -9968    -9593 
   -9104    -8510    -7890    -7372    -7029    -6863    -6839    -6921 
   -7064    -7203    -7275    -7230    -7071    -6858    -6660    -6507 
   -6374    -6242    -6135    -6075    -6022    -5956    -5886    -5809 
   -5707    -5583    -5467    -5409    -5455    -5611    -5837    -6112 
   -6465    -6866    -7186    -7342    -7330    -7165    -6876    -6516 
   -6146    -5837    -5684    -5751    -6008    -6394    -6872    -7381 
   -7832    -8182    -8428    -8538    -8525    -8472    -8440    -8421 
   -8418    -8428    -8397    -8290    -8139    -8000    -7905    -7888 
   -7942    -7997    -8027    -8047    -8047    -8040    -8087    -8217 
   -8411    -8635    -8824    -8915    -8903    -8804    -8635    -8441 
   -8283    -8189    -8175    -8289    -8537    -8853    -9147    -9355 
   -9429    -9350    -9124    -8785    -8431    -8213    -8210    -8361 
   -8594    -8891    -9212    -9475    -9648    -9705    -9610    -9404 
   -9174    -8950    -8737    -8553    -8378    -8191    -8040    -7962 
   -7931    -7916    -7931    -7989    -8083    -8252    -8502    -8750 
   -8962    -9169    -9342    -9432    -9452    -9398    -9228    -8965 
   -8669    -8387    -8151    -7996    -7948    -8014    -8197    -8483 
   -8795    -9055    -9252    -9375    -9377    -9234    -8962    -8629 
   -8336    -8155    -8087    -8102    -8163    -8230    -8307    -8418 
   -8537    -8619    -8669    -8721    -8772    -8803    -8811    -8787 
