Origin Time       2016/04/16 01:25:00
Lat.              32.753
Long.             130.762
Depth. (km)       12
Mag.              7.3
Station Code      KOC003
Station Lat.      33.5014
Station Long.     133.9068
Station Height(m) 5
Record Time       2016/04/16 01:26:02
Sampling Freq(Hz) 100Hz
Duration Time(s)  165
Dir.              E-W
Scale Factor      7845(gal)/8223790
Max. Acc. (gal)   9.674
Last Correction   2016/04/16 01:26:03
Memo.             
[...]
   -2196    -1842    -1494    -1165     -868     -616     -410     -255 
    -163     -131     -166     -263     -413     -616     -877    -1189 
   -1540    -1921    -2292    -2613    -2863    -3048    -3180    -3284 
   -3376    -3451    -3496    -3503    -3468    -3365    -3194    -2967 
   -2694    -2380    -2019    -1605    -1143     -623      -44      581 
    1242     1914     2577     3225     3850     4434     4968     5443 
    5860     6219     6523     6790     7033     7249     7442     7616 
    7769     7903     8044     8205     8391     8590     8784     8972 
    9157     9340     9526     9732     9961    10207    10461    10717 
   10960    11165    11329    11461    11573    11670    11765    11874 
   12002    12148    12295    12429    12530    12594    12629    12644 
   12642    12621    12576    12507    12410    12272    12089    11861 
   11587    11277    10939    10585    10230     9880     9540     9223 
    8908     8577     8222     7850     7487     7157     6876     6662 
    6494     6336     6174     6010     5850     5703     5572     5454 
    5335     5201     5039     4850     4654     4475     4321     4199 
    4097     3993     3875     3751     3622     3497     3384     3275 
    3149     2991     2790     2548     2278     1989     1686     1394 
    1152      972      864      845      919     1063     1258     1464 
    1634     1738     1772     1753     1709     1671     1658     1680 
    1723     1761     1755     1688     1567     1402     1200      958 
     685      386       64     -263     -579     -864    -1104    -1301 
   -1462    -1584    -1672    -1733    -1760    -1745    -1677    -1557 
   -1405    -1254    -1123    -1024     -949     -866     -760     -641 
    -532     -461     -440     -467     -517     -549     -530     -446 
    -313     -155        9      163      303      432      558      702 
     877     1085     1321     1580     1852     2124     2384     2628 
    2875     3140     3433     3757     4099     4446     4783     5109 
    5429     5733     6008     6255     6477     6681     6874     7063 
    7244     7392     7503     7581     7626     7638     7624     7573 
    7484     7373     7254     7153     7088     7051     7029     7013 
    6983     6928     6848     6771     6708     6664     6647     6651 
    6677     6728     6806     6910     7038     7177     7291     7346 
    7329     7236     7084     6913     6755     6631     6548     6489 
    6411     6280     6079     5813     5499     5163     4828     4514 
    4215     3927     3643     3376     3144     2953     2802     2687 
    2600     2532     2501     2525     2617     2779     3010     3302 
    3613     3905     4162     4363     4482     4507     4441     4310 
    4129     3897     3613     3281     2902     2478     2029     1591 
    1194      859      608      464      460      599      866     1243 
    1709     2243     2844     3507     4205     4922     5625     6282 
    6871     7400     7893     8352     8781     9180     9525     9799 
    9987    10080    10073     9977     9806     9566     9263     8903 
    8483     8013     7520     7020     6516     6034     5595     5197 
    4826     4477     4139     3797     3461     3134     2817     2520 
    2250     1999     1749     1485     1194      866      498      105 
    -294     -681    -1048    -1391    -1709    -1996    -2250    -2486 
   -2720    -2945    -3168    -3383    -3566    -3703    -3778    -3776 
   -3700    -3550    -3334    -3067    -2764    -2431    -2077    -1701 
   -1305     -899     -493     -101      265      598      886     1120 
    1304     1447     1560     1667     1783     1904     2022     2126 
    2215     2301     2386     2475     2574     2683     2789     2893 
    3006     3129     3267     3415     3565     3708     3844     3979 
    4113     4236     4336     4401     4422     4402     4349     4288 
    4263     4298     4407     4585     4812     5066     5333     5613 
    5906     6214     6538     6880     7241     7619     8013     8411 
    8807     9189     9532     9806     9988    10068    10048     9941 
    9759     9517     9238     8924     8584     8215     7816     7380 
    6914     6438     5967     5522     5130     4799     4540     4347 
    4205     4105     4031     3982     3965     3991     4064     4186 
    4347     4525     4695     4831     4908     4912     4852     4750 
    4625     4491     4365     4256     4158     4069     3991     3913 
    3824     3724     3619     3516     3437     3399     3419     3518 
    3711     3979     4314     4715     5162     5620     6075     6521 
    6957     7381     7797     8210     8619     9015     9394     9749 
   10072    10354    10585    10752    10844    10844    10754    10580 
   10329    10018     9671     9309     8928     8522     8090     7639 
    7179     6711     6242     5787     5374     5015     4707     4446 
    4233     4063     3935     3865     3847     3877     3959     4082 
    4218     4351     4459     4533     4573     4577     4534     4446 
    4315     4148     3946     3711     3456     3179     2870     2529 
    2155     1750     1314      858      400      -36     -442     -804 
   -1109    -1354    -1533    -1653    -1732    -1787    -1841    -1915 
   -2037    -2219    -2454    -2720    -3006    -3296    -3580    -3855 
   -4129    -4407    -4681    -4938    -5163    -5354    -5503    -5613 
   -5688    -5730    -5730    -5684    -5583    -5421    -5194    -4899 
   -4526    -4087    -3599    -3065    -2513    -1958    -1404     -862 
    -340      178      707     1251     1810     2380     2947     3511 
    4072     4633     5182     5718     6241     6741     7219     7682 
    8131     8553     8947     9306     9636     9941    10233    10524 
   10818    11110    11389    11647    11869    12052    12213    12368 
   12533    12703    12872    13035    13194    13335    13440    13498 
   13494    13423    13292    13109    12885    12629    12336    11992 
   11595    11157    10692    10224     9787     9401     9073     8793 
    8533     8267     7973     7643     7275     6864     6430     5996 
    5578     5179     4795     4430     4083     3747     3424     3127 
    2859     2614     2389     2176     1965     1744     1487     1181 
     827      433       20     -387     -784    -1163    -1530    -1896 
   -2257    -2619    -2983    -3348    -3704    -4043    -4360    -4646 
   -4877    -5049    -5166    -5235    -5278    -5316    -5363    -5418 
   -5460    -5471    -5441    -5377    -5275    -5140    -4986    -4826 
   -4646    -4426    -4158    -3823    -3410    -2925    -2384    -1798 
   -1189     -569       67      719     1391     2089     2813     3543 
    4251     4920     5535     6079     6547     6939     7268     7562 
    7844     8128     8411     8687     8954     9204     9428     9636 
    9834    10031    10243    10476    10724    10989    11264    11541 
   11803    12036    12244    12428    12586    12719    12841    12953 
   13050    13122    13147    13100    12970    12756    12464    12112 
   11708    11249    10746    10196     9593     8928     8210     7465 
    6733     6034     5377     4779     4243     3776     3388     3071 
    2820     2639     2536     2511     2565     2709     2940     3241 
    3591     3964     4338     4691     5005     5273     5478     5607 
    5656     5621     5489     5262     4942     4530     4048     3514 
    2936     2326     1695     1047      386     -271     -918    -1551 
   -2155    -2717    -3230    -3688    -4087    -4423    -4687    -4868 
   -4963    -4969    -4893    -4746    -4525    -4228    -3863    -3431 
   -2947    -2434    -1906    -1374     -843     -309      234      777 
    1301     1795     2245     2644     2986     3273     3515     3716 
    3880     4020     4139     4240     4326     4396     4450     4487 
    4494     4475     4425     4351     4266     4174     4082     4005 
    3951     3910     3855     3780     3677     3537     3360     3168 
    2984     2808     2648     2529     2471     2486     2586     2766 
    3007     3299     3623     3960     4295     4626     4953     5281 
    5609     5954     6327     6721     7123     7524     7915     8286 
    8640     8980     9304     9602     9875    10114    10307    10444 
   10534    10585    10615    10639    10674    10725    10787    10847 
   10893    10921    10930    10917    10878    10808    10704    10577 
   10434    10282    10127     9973     9822     9676     9526     9362 
    9175     8958     8685     8341     7936     7477     6974     6442 
    5887     5316     4735     4152     3570     2992     2423     1873 
    1355      870      409      -28     -434     -810    -1163    -1489 
   -1773    -2006    -2178    -2304    -2396    -2465    -2513    -2550 
   -2584    -2623    -2659    -2698    -2735    -2754    -2763    -2772 
   -2787    -2795    -2790    -2766    -2718    -2641    -2540    -2416 
   -2263    -2077    -1857    -1606    -1323     -996     -629     -230 
     176      581      980     1362     1722     2062     2374     2652 
    2910     3149     3387     3639     3910     4202     4514     4843 
    5186     5540     5906     6282     6662     7032     7378     7689 
    7967     8224     8471     8707     8931     9140     9325     9475 
    9590     9672     9718     9722     9684     9602     9472     9300 
    9093     8872     8654     8451     8267     8110     7979     7862 
    7751     7650     7555     7464     7375     7275     7157     7022 
    6866     6691     6521     6369     6238     6141     6084     6050 
    6021     5980     5911     5803     5660     5494     5313     5131 
    4950     4768     4594     4438     4314     4222     4158     4113 
    4082     4059     4031     3984     3920     3844     3767     3699 
    3645     3596     3541     3477     3407     3339     3281     3227 
    3180     3154     3145     3141     3132     3109     3056     2953 
    2799     2608     2384     2146     1911     1684     1460     1235 
    1007      773      537      314      112      -59     -187     -261 
    -292     -294     -276     -251     -225     -191     -155     -125 
     -93      -41       29      122      240      383      542      712 
     881     1042     1197     1352     1520     1707     1917     2139 
    2354     2554     2733     2882     3006     3107     3187     3246 
    3287     3304     3298     3272     3235     3194     3154     3130 
    3142     3194     3279     3388     3511     3640     3775     3916 
    4066     4223     4396     4596     4833     5093     5371     5656 
    5946     6228     6497     6750     6988     7206     7389     7531 
    7626     7669     7668     7628     7560     7464     7339     7195 
    7045     6902     6785     6690     6612     6555     6520     6502 
    6501     6511     6520     6527     6523     6496     6443     6363 
    6269     6178     6106     6049     6011     5991     5973     5948 
    5918     5879     5834     5807     5806     5838     5913     6015 
    6122     6223     6300     6336     6332     6300     6249     6186 
    6124     6064     6008     5961     5922     5888     5868     5846 
    5815     5783     5745     5706     5680     5665     5652     5643 
    5634     5629     5625     5622     5623     5629     5632     5628 
    5621     5621     5636     5663     5705     5763     5834     5921 
    6022     6123     6208     6270     6308     6312     6281     6214 
    6126     6043     5988     5962     5964     5987     6011     6023 
    6010     5962     5883     5776     5651     5514     5379     5259 
    5154     5059     4976     4904     4839     4774     4710     4657 
    4618     4596     4595     4610     4633     4657     4679     4687 
    4681     4660     4619     4564     4507     4448     4386     4317 
    4248     4183     4114     4036     3956     3867     3773     3682 
    3592     3496     3400     3299     3188     3061     2909     2725 
    2520     2293     2053     1819     1602     1405     1232     1089 
     981      915      899      940     1043     1201     1404     1645 
    1918     2205     2498     2791     3067     3323     3561     3767 
    3939     4074     4167     4213     4217     4183     4109     3993 
    3832     3624     3369     3069     2735     2376     2004     1636 
    1290      970      679      423      205       21     -128     -241 
    -317     -364     -383     -376     -351     -314     -259     -194 
    -103       22      189      396      634      876     1119     1366 
    1597     1813     2011     2188     2354     2523     2708     2928 
    3186     3481     3813     4170     4545     4927     5305     5668 
    6019     6361     6701     7044     7391     7742     8097     8437 
    8758     9063     9339     9583     9802     9999    10177    10345 
   10498    10633    10750    10844    10920    10979    11021    11044 
   11048    11028    10978    10901    10794    10659    10494    10295 
   10054     9771     9448     9099     8731     8356     7993     7650 
    7337     7060     6822     6624     6454     6297     6141     5971 
    5773     5545     5271     4955     4612     4247     3867     3481 
    3090     2697     2300     1891     1466     1020      558       97 
    -361     -810    -1230    -1637    -2034    -2420    -2798    -3167 
   -3526    -3875    -4205    -4510    -4783    -5027    -5248    -5445 
   -5626    -5787    -5929    -6046    -6129    -6162    -6142    -6070 
   -5948    -5772    -5547    -5282    -4984    -4645    -4271    -3877 
   -3456    -3002    -2516    -1998    -1462     -918     -365      186 
     726     1250     1750     2227     2688     3138     3577     4002 
    4411     4806     5179     5529     5854     6146     6401     6627 
    6825     6995     7148     7295     7431     7561     7693     7827 
    7964     8128     8319     8529     8752     8982     9207     9410 
    9572     9678     9728     9722     9664     9563     9433     9288 
    9142     8997     8843     8685     8517     8329     8114     7871 
    7599     7300     6988     6667     6338     6010     5688     5371 
    5050     4725     4390     4041     3690     3349     3017     2700 
    2397     2106     1826     1551     1273      996      720      444 
     164     -121     -415     -714    -1015    -1313    -1603    -1875 
   -2126    -2358    -2573    -2767    -2943    -3105    -3250    -3379 
   -3487    -3577    -3653    -3711    -3747    -3767    -3771    -3757 
   -3723    -3672    -3604    -3524    -3437    -3349    -3262    -3188 
   -3132    -3086    -3049    -3026    -3006    -2976    -2926    -2843 
   -2727    -2581    -2407    -2199    -1956    -1680    -1371    -1023 
    -633     -224      190      606     1016     1424     1829     2228 
    2627     3017     3393     3762     4126     4477     4808     5120 
    5410     5674     5913     6134     6342     6540     6729     6906 
    7068     7214     7342     7449     7539     7619     7695     7780 
    7879     7977     8068     8164     8267     8363     8444     8517 
    8581     8630     8664     8688     8707     8712     8702     8673 
    8626     8565     8494     8411     8313     8212     8110     8006 
    7892     7761     7618     7462     7294     7113     6914     6704 
    6488     6259     6018     5771     5499     5197     4865     4502 
    4113     3705     3269     2814     2353     1878     1395      915 
     448        0     -425     -815    -1162    -1463    -1726    -1961 
   -2173    -2369    -2544    -2697    -2820    -2907    -2955    -2965 
   -2944    -2894    -2825    -2747    -2663    -2574    -2484    -2386 
   -2281    -2172    -2058    -1938    -1817    -1692    -1566    -1431 
   -1282    -1116     -912     -675     -406      -93      270      662 
    1077     1503     1927     2340     2739     3115     3474     3821 
    4163     4509     4854     5196     5529     5846     6139     6400 
    6629     6832     7013     7182     7331     7460     7565     7650 
    7715     7759     7789     7817     7843     7865     7889     7908 
    7920     7931     7946     7962     7985     8014     8040     8060 
    8073     8062     8025     7967     7885     7780     7661     7526 
    7383     7240     7094     6949     6805     6658     6504     6343 
    6186     6038     5902     5787     5686     5595     5519     5451 
    5386     5329     5279     5233     5182     5127     5062     4981 
    4885     4772     4644     4507     4367     4223     4085     3954 
    3831     3719     3613     3501     3379     3249     3113     2979 
    2856     2744     2646     2554     2465     2386     2323     2269 
    2231     2218     2226     2250     2290     2336     2389     2450 
    2519     2605     2716     2859     3033     3238     3480     3753 
    4050     4360     4676     4986     5282     5562     5821     6064 
    6304     6536     6755     6960     7145     7307     7454     7581 
    7693     7793     7881     7960     8027     8075     8102     8100 
    8062     7994     7900     7784     7659     7543     7446     7366 
    7296     7221     7132     7018     6870     6697     6502     6300 
    6103     5911     5729     5557     5390     5215     5026     4823 
    4615     4411     4225     4064     3924     3804     3699     3599 
    3495     3385     3275     3172     3078     2983     2890     2808 
    2737     2674     2621     2583     2556     2543     2551     2579 
    2629     2694     2770     2852     2932     3010     3090     3164 
    3237     3310     3384     3456     3526     3597     3669     3735 
    3794     3852     3912     3973     4047     4137     4243     4369 
    4518     4680     4855     5047     5240     5431     5618     5800 
    5981     6169     6361     6566     6786     7017     7258     7504 
    7753     7996     8228     8441     8642     8822     8982     9124 
    9244     9350     9433     9485     9509     9505     9468     9406 
    9319     9200     9051     8870     8653     8391     8093     7758 
    7389     6997     6590     6173     5753     5336     4926     4525 
    4135     3754     3385     3037     2709     2404     2126     1883 
    1668     1475     1305     1156     1028      916      818      735 
     672      630      618      635      683      764      874     1005 
    1154     1313     1480     1663     1859     2073     2299     2542 
    2798     3057     3321     3582     3839     4082     4310     4523 
    4720     4904     5065     5198     5304     5383     5433     5459 
    5464     5448     5413     5351     5256     5131     4988     4824 
    4650     4468     4286     4105     3932     3775     3628     3495 
    3376     3280     3206     3157     3140     3154     3194     3262 
    3357     3476     3612     3766     3935     4117     4311     4507 
    4699     4891     5082     5267     5439     5593     5724     5829 
    5900     5934     5935     5910     5854     5778     5691     5599 
    5499     5386     5263     5127     4976     4814     4648     4475 
    4301     4133     3977     3834     3709     3601     3503     3412 
    3338     3295     3288     3312     3373     3462     3577     3709 
    3847     3987     4128     4263     4395     4519     4630     4734 
