Origin Time       2016/04/16 01:25:00
Lat.              32.753
Long.             130.762
Depth. (km)       12
Mag.              7.3
Station Code      KOC011
Station Lat.      33.3982
Station Long.     132.8962
Station Height(m) 500
Record Time       2016/04/16 01:25:44
Sampling Freq(Hz) 100Hz
Duration Time(s)  113
Dir.              N-S
Scale Factor      7845(gal)/8223790
Max. Acc. (gal)   8.949
Last Correction   2016/04/16 01:25:44
Memo.             
[...]
    2042     2033     1975     1891     1810     1750     1713     1680 
    1610     1491     1354     1219     1084      963      877      815 
     749      685      626      566      518      506      533      560 
     561      562      607      714      884     1119     1395     1651 
    1845     1981     2064     2073     2025     1952     1865     1755 
    1602     1410     1196      974      760      579      453      359 
     261      137       -8     -167     -303     -356     -289     -116 
     118      340      521      696      903     1147     1417     1706 
    1989     2230     2392     2465     2469     2438     2412     2424 
    2463     2492     2482     2432     2351     2241     2089     1896 
    1684     1464     1209      908      581      268       27      -91 
     -94      -35       44      135      230      332      440      540 
     635      743      876     1009     1133     1250     1362     1466 
    1563     1672     1800     1934     2072     2219     2338     2390 
    2373     2304     2200     2076     1949     1842     1763     1688 
    1570     1383     1155      927      735      604      531      490 
     440      364      286      236      210      197      217      287 
     400      530      658      777      892     1003     1124     1278 
    1466     1657     1819     1930     1972     1935     1833     1696 
    1574     1480     1397     1304     1223     1169     1120     1044 
     957      888      853      838      826      819      823      820 
     785      711      614      511      414      338      297      294 
     326      372      417      473      561      695      885     1111 
    1336     1570     1842     2124     2354     2481     2475     2344 
    2146     1956     1825     1741     1660     1545     1395     1230 
    1073      947      862      807      751      684      612      540 
     457      370      311      283      295      365      492      658 
     831      973     1057     1096     1115     1128     1152     1219 
    1332     1466     1564     1601     1588     1554     1516     1462 
    1383     1310     1289     1312     1358     1426     1512     1568 
    1559     1487     1364     1196      990      777      602      523 
     573      714      869      984     1053     1129     1251     1420 
    1620     1841     2064     2266     2452     2636     2809     2940 
    3015     3011     2907     2701     2411     2066     1705     1355 
    1050      803      596      407      220       18     -189     -383 
    -545     -668     -738     -737     -676     -588     -483     -346 
    -178       25      282      579      892     1192     1443     1625 
    1750     1841     1915     1961     1926     1769     1506     1182 
     864      607      410      225       27     -172     -314     -341 
    -228       16      344      672      945     1150     1297     1413 
    1539     1688     1838     1954     2027     2047     2003     1899 
    1763     1645     1594     1599     1615     1610     1580     1539 
    1498     1471     1482     1544     1637     1726     1790     1802 
    1755     1679     1628     1644     1709     1759     1732     1591 
    1355     1081      838      672      587      571      606      691 
     827      981     1102     1185     1250     1305     1382     1487 
    1588     1653     1664     1617     1547     1509     1539     1618 
    1692     1701     1601     1405     1193     1038      962      949 
     958      972      999     1030     1046     1048     1050     1051 
    1042     1019      963      866      765      708      707      734 
     750      747      758      816      949     1155     1410     1698 
    2019     2328     2556     2694     2797     2906     3018     3106 
    3149     3150     3115     3037     2909     2744     2574     2401 
    2191     1910     1575     1229      897      598      351      164 
      18     -110     -214     -272     -303     -329     -326     -268 
    -172      -76        5       89      159      206      230      236 
     224      201      191      209      249      313      392      490 
     622      800     1026     1294     1578     1819     1972     2020 
    1996     1956     1935     1939     1945     1911     1829     1707 
    1552     1383     1213     1034      858      720      638      625 
     704      884     1109     1328     1535     1721     1856     1944 
    2016     2106     2215     2340     2471     2581     2610     2531 
    2382     2235     2107     1972     1831     1722     1669     1630 
    1541     1395     1233     1089      981      924      896      859 
     801      745      720      724      741      766      831      929 
    1012     1030      976      886      816      787      766      727 
     654      545      436      341      225       89       -1      -13 
      23       85      151      212      287      387      503      592 
     618      602      595      627      693      788      897      993 
    1020      927      730      495      287      144       93      118 
     178      252      326      373      378      369      383      427 
     506      599      665      692      685      662      664      726 
     873     1104     1350     1513     1560     1526     1478     1460 
    1470     1480     1483     1457     1374     1240     1090      953 
     877      912     1011     1080     1107     1159     1279     1440 
    1602     1737     1818     1815     1721     1547     1324     1096 
     931      872      861      807      704      619      592      599 
     599      562      513      526      645      814      958     1071 
    1210     1393     1548     1615     1618     1606     1584     1543 
    1502     1503     1561     1653     1755     1856     1933     1985 
    2046     2128     2214     2290     2373     2444     2458     2392 
    2257     2070     1831     1525     1142      714      283     -103 
    -383     -526     -545     -477     -368     -259     -126       64 
     297      544      801     1026     1150     1144     1046      951 
     954     1090     1327     1580     1772     1875     1918     1925 
    1898     1826     1702     1574     1540     1651     1850     2050 
    2189     2238     2185     2061     1949     1900     1861     1750 
    1557     1336     1151     1030      932      812      687      604 
     553      495      433      419      518      739     1008     1247 
    1490     1819     2218     2555     2733     2758     2698     2617 
    2498     2299     2058     1841     1652     1486     1352     1205 
    1000      788      602      383      137      -41      -70       75 
     352      657      938     1188     1368     1456     1489     1495 
    1479     1452     1386     1250     1070      884      688      473 
     225      -27     -211     -294     -351     -437     -500     -487 
    -373     -147      147      425      652      830      986     1125 
    1230     1329     1439     1509     1537     1590     1687     1772 
    1784     1698     1535     1356     1216     1123     1055     1016 
    1046     1150     1271     1347     1377     1387     1374     1325 
    1243     1140     1042      953      866      783      704      661 
     664      688      712      706      627      495      378      319 
     318      340      376      445      548      654      738      805 
     870      934      982      997      978      947      938      962 
     982      969      945      922      886      843      789      719 
     675      718      866     1085     1310     1530     1779     2060 
    2334     2543     2651     2686     2705     2721     2733     2727 
    2690     2662     2666     2666     2659     2636     2529     2319 
    2088     1903     1765     1657     1582     1528     1447     1274 
    1026      777      577      437      372      411      549      738 
     950     1173     1368     1491     1522     1502     1526     1648 
    1857     2102     2334     2575     2849     3083     3240     3379 
    3518     3619     3662     3628     3503     3338     3235     3229 
    3272     3314     3315     3280     3254     3232     3165     3053 
    2938     2837     2748     2674     2619     2609     2652     2698 
    2713     2688     2614     2498     2384     2278     2154     1985 
    1784     1598     1439     1278     1121     1004      927      897 
     947     1084     1267     1467     1679     1906     2144     2401 
    2675     2929     3107     3206     3264     3277     3223     3109 
    2960     2792     2590     2362     2138     1926     1726     1567 
    1479     1453     1436     1393     1329     1260     1189     1125 
    1092     1086     1071     1000      850      638      407      157 
    -124     -405     -607     -649     -510     -276      -70       47 
      82       87      120      172      195      191      182      121 
     -43     -289     -571     -851    -1093    -1263    -1352    -1360 
   -1310    -1258    -1260    -1320    -1375    -1354    -1258    -1152 
   -1090    -1067    -1088    -1167    -1301    -1437    -1533    -1591 
   -1644    -1707    -1767    -1802    -1817    -1826    -1830    -1775 
   -1595    -1289     -916     -540     -195      105      378      623 
     830      982     1015      866      565      228      -25     -149 
    -162      -82       40      144      224      297      359      425 
     531      675      814      905      929      915      903      912 
     954     1039     1177     1355     1548     1750     1956     2130 
    2227     2219     2091     1875     1636     1399     1156      907 
     666      467      342      321      376      451      540      649 
     783      928     1058     1152     1229     1325     1475     1687 
    1952     2226     2444     2565     2582     2494     2336     2168 
    2015     1876     1729     1549     1332     1123      932      747 
     607      566      645      873     1275     1829     2478     3164 
    3861     4603     5394     6178     6879     7441     7842     8106 
    8290     8404     8414     8337     8243     8164     8075     7920 
    7685     7399     7049     6578     5954     5174     4238     3215 
    2223     1310      461     -298     -943    -1501    -2010    -2474 
   -2870    -3171    -3379    -3507    -3569    -3550    -3431    -3273 
   -3179    -3207    -3330    -3488    -3642    -3809    -4016    -4232 
   -4395    -4467    -4425    -4258    -3967    -3570    -3113    -2623 
   -2107    -1572    -1021     -490      -47      278      511      672 
     772      854      940     1035     1150     1310     1526     1811 
    2168     2573     3002     3431     3852     4293     4733     5090 
    5316     5398     5333     5123     4761     4291     3792     3310 
    2866     2508     2267     2130     2070     2066     2077     2077 
    2089     2185     2434     2860     3424     4044     4633     5123 
    5467     5644     5645     5513     5350     5233     5163     5107 
    5047     4978     4900     4792     4615     4380     4133     3870 
    3526     3048     2461     1842     1256      745      317      -31 
    -314     -544     -734     -903    -1057    -1165    -1192    -1121 
    -963     -766     -577     -394     -175      102      450      861 
    1287     1705     2155     2709     3391     4155     4911     5572 
    6053     6277     6214     5894     5391     4819     4253     3684 
    3073     2428     1769     1146      616      237       37      -16 
     -36     -118     -263     -382     -370     -207       64      383 
     712     1043     1363     1625     1807     1925     2027     2165 
    2342     2532     2712     2856     2945     2965     2902     2754 
    2543     2328     2173     2049     1865     1579     1175      621 
     -78     -859    -1656    -2408    -3056    -3534    -3797    -3866 
   -3798    -3624    -3358    -3061    -2830    -2737    -2811    -3045 
   -3393    -3773    -4041    -4097    -3937    -3618    -3176    -2627 
   -2012    -1393     -818     -342        0      220      330      359 
     348      356      406      456      469      471      493      544 
     625      741      869      973     1038     1080     1105     1112 
    1105     1080      999      838      618      390      178      -44 
    -311     -627     -957    -1244    -1420    -1414    -1156     -646 
      20      718     1332     1760     1975     2041     2052     2066 
    2097     2119     2107     2081     2073     2092     2144     2269 
    2520     2922     3412     3904     4348     4696     4918     5036 
    5090     5084     4997     4823     4567     4237     3873     3507 
    3113     2643     2072     1363      506     -427    -1339    -2161 
   -2872    -3458    -3902    -4189    -4344    -4482    -4738    -5140 
   -5606    -6042    -6380    -6566    -6613    -6606    -6592    -6550 
   -6447    -6230    -5827    -5235    -4527    -3842    -3302    -2957 
   -2766    -2636    -2521    -2436    -2401    -2435    -2555    -2781 
   -3130    -3563    -3991    -4347    -4576    -4622    -4460    -4105 
   -3558    -2814    -1926    -1007     -129      733     1606     2434 
    3149     3735     4210     4600     4881     4993     4887     4533 
    3936     3168     2362     1640     1055      592      182     -256 
    -749    -1287    -1840    -2362    -2830    -3229    -3555    -3835 
   -4074    -4271    -4494    -4847    -5368    -6002    -6662    -7279 
   -7789    -8133    -8274    -8202    -7958    -7634    -7307    -6952 
   -6489    -5852    -5008    -3935    -2627    -1135      414     1849 
    3042     3950     4580     4976     5217     5363     5395     5278 
    5027     4675     4258     3805     3339     2894     2488     2124 
    1784     1416      999      545       78     -348     -639     -751 
    -757     -776     -853     -957    -1008     -915     -669     -321 
     103      568      974     1229     1285     1125      814      483 
     286      340      687     1259     1903     2465     2871     3115 
    3213     3252     3341     3534     3828     4214     4634     4996 
    5205     5211     5042     4796     4629     4658     4880     5144 
    5266     5150     4792     4261     3689     3203     2843     2560 
    2273     1915     1447      805      -44    -1016    -1942    -2698 
   -3241    -3580    -3748    -3811    -3847    -3917    -4010    -4090 
   -4148    -4202    -4278    -4382    -4484    -4549    -4584    -4653 
   -4818    -5089    -5414    -5717    -5933    -6053    -6119    -6174 
   -6247    -6347    -6493    -6687    -6868    -6947    -6858    -6574 
   -6108    -5522    -4926    -4429    -4078    -3854    -3701    -3576 
   -3481    -3438    -3429    -3426    -3407    -3350    -3234    -3040 
   -2729    -2301    -1823    -1404    -1127     -969     -843     -702 
    -529     -317      -82      139      342      526      668      728 
     699      614      532      500      537      661      916     1313 
    1811     2355     2918     3518     4167     4864     5605     6377 
    7149     7898     8606     9213     9661     9948    10116    10184 
   10152    10054     9926     9765     9545     9236     8823     8332 
    7781     7172     6515     5842     5179     4502     3776     2983 
    2124     1232      363     -415    -1048    -1514    -1826    -1989 
   -2016    -1956    -1863    -1729    -1518    -1232     -899     -545 
    -180      214      662     1178     1772     2442     3164     3906 
    4644     5335     5957     6494     6939     7281     7512     7614 
    7564     7340     6959     6480     5952     5391     4787     4159 
    3566     3029     2562     2211     1992     1861     1763     1632 
    1394     1013      556      147     -124     -282     -434     -680 
   -1012    -1321    -1486    -1462    -1270     -950     -526        8 
     643     1282     1803     2158     2409     2646     2901     3188 
    3554     4017     4549     5098     5590     5940     6106     6110 
    5989     5734     5328     4810     4251     3731     3284     2886 
    2497     2130     1800     1502     1244     1055      976     1050 
    1247     1452     1591     1660     1684     1729     1890     2222 
    2704     3232     3697     4060     4348     4581     4752     4819 
    4750     4514     4120     3665     3254     2940     2754     2666 
    2579     2438     2278     2180     2208     2403     2732     3145 
    3645     4225     4841     5424     5918     6266     6424     6381 
    6205     6046     6042     6200     6399     6534     6575     6528 
    6438     6363     6318     6273     6188     6014     5771     5544 
    5397     5331     5309     5260     5112     4864     4558     4237 
    3956     3770     3713     3789     3977     4228     4464     4585 
    4519     4286     3979     3699     3497     3349     3171     2918 
    2605     2286     2029     1841     1677     1494     1273     1015 
     761      558      422      338      272      160      -28     -253 
    -425     -461     -318      -21      342      664      873      978 
    1013      973      818      556      232     -114     -487     -926 
   -1471    -2107    -2772    -3388    -3859    -4106    -4098    -3869 
   -3499    -3065    -2612    -2151    -1677    -1151     -540      137 
     796     1325     1625     1641     1397      967      461      -20 
    -436     -795    -1096    -1325    -1478    -1578    -1672    -1802 
   -1979    -2192    -2409    -2571    -2586    -2378    -1952    -1401 
    -862     -429      -95      176      417      638      868     1138 
    1455     1814     2199     2587     2976     3399     3901     4492 
    5163     5915     6744     7608     8440     9165     9701     9981 
   10002     9821     9530     9223     8942     8687     8464     8303 
    8195     8128     8082     8056     8071     8122     8162     8125 
    7960     7636     7165     6585     5956     5343     4747     4149 
    3532     2852     2084     1260      430     -348    -1043    -1677 
   -2301    -2918    -3492    -3974    -4326    -4540    -4644    -4680 
   -4664    -4575    -4369    -4020    -3534    -2955    -2330    -1698 
   -1105     -579     -112      305      676     1030     1374     1711 
    2060     2403     2688     2876     2932     2862     2714     2529 
    2335     2162     2047     2010     1991     1930     1813     1632 
    1425     1274     1217     1220     1252     1316     1420     1580 
    1792     2016     2193     2292     2308     2242     2102     1900 
    1632     1289      907      565      317      163       86       63 
      79      120      170      240      364      544      738      886 
     929      873      770      677      634      656      714      756 
     749      681      549      368      184       62       68      238 
     506      766      961     1042      987      831      631      441 
     307      237      197      101     -143     -557    -1059    -1548 
   -1939    -2163    -2189    -2030    -1738    -1393    -1043     -702 
    -378      -86      151      298      325      268      224      251 
     317      333      220      -40     -390     -723     -940     -997 
    -892     -650     -337      -37      191      346      451      529 
     592      665      758      861      957     1046     1161     1306 
