Origin Time       2016/04/16 01:25:00
Lat.              32.753
Long.             130.762
Depth. (km)       12
Mag.              7.3
Station Code      KOC008
Station Lat.      33.7758
Station Long.     133.3465
Station Height(m) 560
Record Time       2016/04/16 01:26:00
Sampling Freq(Hz) 100Hz
Duration Time(s)  103
Dir.              N-S
Scale Factor      7845(gal)/8223790
Max. Acc. (gal)   4.630
Last Correction   2016/04/16 01:26:01
Memo.             
[...]
    4293     4445     4606     4689     4695     4648     4577     4526 
    4491     4433     4375     4376     4464     4599     4680     4617 
    4417     4205     4121     4180     4256     4251     4202     4215 
    4322     4467     4590     4645     4638     4665     4799     4955 
    4969     4808     4630     4592     4710     4878     4984     5007 
    5003     4997     4984     4970     4972     4980     4976     4946 
    4881     4814     4789     4788     4777     4745     4699     4645 
    4568     4421     4237     4126     4137     4241     4398     4540 
    4606     4592     4541     4530     4606     4738     4865     4954 
    4989     4962     4885     4793     4727     4718     4733     4720 
    4692     4673     4656     4665     4746     4866     4927     4881 
    4776     4702     4714     4785     4826     4774     4654     4540 
    4495     4531     4580     4568     4518     4513     4573     4626 
    4573     4413     4253     4210     4309     4483     4645     4716 
    4669     4561     4506     4572     4710     4796     4754     4615 
    4513     4565     4725     4837     4811     4680     4556     4537 
    4631     4741     4734     4571     4356     4256     4351     4538 
    4645     4591     4448     4333     4321     4395     4460     4423 
    4293     4151     4083     4093     4117     4121     4163     4321 
    4560     4756     4841     4824     4737     4662     4677     4727 
    4691     4558     4419     4372     4430     4507     4507     4446 
    4414     4444     4488     4502     4491     4490     4529     4580 
    4614     4638     4668     4715     4764     4761     4692     4626 
    4629     4684     4737     4741     4708     4681     4684     4699 
    4696     4662     4623     4614     4611     4546     4417     4263 
    4095     3936     3851     3842     3852     3870     3936     4054 
    4167     4220     4247     4344     4544     4762     4923     5013 
    5042     5019     4985     4980     4982     4953     4877     4768 
    4648     4548     4521     4585     4671     4688     4650     4622 
    4618     4606     4592     4635     4770     4947     5080     5144 
    5186     5201     5135     4962     4712     4446     4253     4207 
    4309     4467     4530     4421     4245     4192     4325     4517 
    4568     4453     4321     4283     4355     4525     4684     4692 
    4561     4442     4450     4594     4772     4861     4826     4720 
    4641     4653     4715     4738     4693     4646     4664     4725 
    4719     4576     4388     4317     4402     4525     4517     4342 
    4178     4205     4413     4662     4833     4873     4819     4766 
    4776     4804     4738     4568     4418     4357     4356     4380 
    4401     4383     4317     4207     4098     4054     4087     4159 
    4233     4282     4305     4338     4436     4614     4826     4962 
    4970     4908     4857     4852     4877     4841     4692     4509 
    4390     4365     4425     4541     4649     4692     4658     4590 
    4567     4637     4769     4858     4835     4731     4604     4477 
    4365     4289     4295     4386     4438     4305     4041     3865 
    3886     4052     4261     4434     4553     4642     4722     4762 
    4707     4580     4517     4568     4657     4700     4658     4560 
    4491     4475     4461     4473     4548     4598     4540     4399 
    4203     4010     3967     4129     4378     4594     4745     4808 
    4774     4693     4611     4518     4396     4307     4341     4453 
    4519     4519     4529     4583     4641     4650     4615     4614 
    4685     4756     4764     4731     4679     4615     4598     4653 
    4688     4606     4422     4243     4192     4256     4286     4236 
    4213     4252     4291     4298     4306     4352     4467     4657 
    4838     4887     4820     4799     4918     5074     5085     4887 
    4634     4552     4641     4689     4556     4324     4128     4051 
    4117     4233     4225     4081     3975     4024     4178     4320 
    4338     4263     4266     4448     4753     5070     5251     5205 
    5026     4857     4753     4727     4757     4773     4710     4594 
    4521     4554     4625     4612     4491     4324     4199     4205 
    4349     4468     4414     4228     4074     4079     4274     4552 
    4710     4668     4568     4579     4673     4768     4841     4882 
    4887     4865     4820     4753     4664     4568     4517     4525 
    4511     4455     4423     4433     4445     4448     4467     4530 
    4580     4561     4564     4684     4864     4959     4870     4653 
    4517     4588     4789     4969     5031     4942     4748     4561 
    4450     4421     4417     4384     4360     4422     4533     4576 
    4507     4395     4348     4371     4345     4220     4110     4113 
    4159     4178     4212     4256     4205     4062     3975     4047 
    4212     4284     4137     3929     3936     4147     4336     4382 
    4337     4330     4419     4533     4568     4446     4223     4101 
    4214     4486     4687     4629     4349     4105     4083     4205 
    4282     4209     4040     3956     4088     4341     4475     4367 
    4152     4137     4494     5020     5289     5120     4792     4688 
    4828     4938     4864     4725     4672     4719     4739     4580 
    4256     3996     3958     4068     4180     4207     4113     4012 
    4087     4288     4376     4252     4041     3909     3956     4156 
    4326     4299     4121     4003     4113     4345     4396     4182 
    3925     3879     4099     4428     4617     4549     4291     4033 
    4000     4220     4425     4401     4307     4426     4745     4982 
    4973     4826     4685     4587     4522     4488     4491     4521 
    4583     4688     4738     4614     4441     4429     4549     4676 
    4752     4710     4568     4472     4472     4518     4584     4602 
    4463     4243     4189     4390     4691     4850     4726     4430 
    4253     4307     4401     4371     4288     4233     4186     4155 
    4185     4266     4371     4442     4448     4446     4482     4483 
    4409     4360     4415     4484     4480     4440     4425     4444 
    4504     4665     4899     5000     4845     4600     4498     4600 
    4803     4920     4851     4710     4662     4712     4791     4835 
    4788     4679     4606     4556     4464     4369     4336     4402 
    4561     4662     4549     4307     4185     4223     4291     4360 
    4405     4359     4325     4399     4456     4418     4374     4396 
    4537     4791     4989     4951     4710     4464     4360     4380 
    4391     4330     4241     4170     4114     4052     4006     4010 
    4047     4106     4164     4137     4032     4014     4175     4388 
    4472     4341     4112     4071     4347     4704     4880     4818 
    4604     4434     4483     4680     4824     4801     4644     4561 
    4723     4949     4977     4876     4837     4857     4816     4673 
    4514     4446     4487     4568     4625     4641     4623     4518 
    4271     4032     4064     4333     4521     4495     4430     4475 
    4599     4706     4733     4687     4610     4518     4486     4614 
    4814     4892     4828     4742     4707     4693     4661     4637 
    4619     4531     4342     4156     4124     4252     4386     4411 
    4360     4329     4341     4355     4349     4341     4376     4496 
    4633     4679     4638     4563     4529     4630     4849     5009 
    4938     4652     4364     4263     4338     4442     4477     4487 
    4525     4561     4563     4510     4386     4253     4245     4375 
    4507     4548     4527     4513     4525     4552     4563     4541 
    4544     4625     4769     4950     5089     5093     5001     4953 
    4997     5059     5054     4970     4870     4816     4779     4695 
    4558     4425     4375     4438     4533     4579     4598     4676 
    4812     4888     4796     4603     4494     4550     4703     4804 
    4768     4644     4533     4487     4523     4637     4791     4887 
    4826     4646     4496     4502     4669     4865     4950     4918 
    4862     4884     5027     5235     5402     5431     5324     5229 
    5251     5290     5273     5243     5154     4932     4719     4679 
    4730     4733     4683     4614     4534     4445     4348     4276 
    4302     4452     4604     4603     4486     4428     4563     4826 
    4953     4835     4684     4677     4768     4838     4830     4770 
    4723     4729     4753     4726     4630     4537     4533     4672 
    4880     4961     4857     4692     4563     4486     4494     4641 
    4922     5174     5229     5166     5202     5370     5525     5575 
    5540     5451     5358     5321     5328     5310     5273     5262 
    5262     5240     5223     5227     5242     5259     5247     5182 
    5076     4943     4811     4738     4743     4765     4715     4568 
    4384     4260     4261     4392     4610     4784     4757     4549 
    4360     4342     4431     4459     4409     4437     4603     4783 
    4861     4835     4787     4806     4866     4887     4896     4947 
    5007     5069     5115     5044     4837     4683     4710     4779 
    4734     4657     4681     4748     4722     4575     4417     4351 
    4407     4554     4714     4837     4912     4892     4779     4684 
    4693     4752     4779     4762     4693     4568     4455     4401 
    4337     4203     4078     4068     4178     4321     4402     4436 
    4541     4706     4797     4816     4843     4896     4986     5104 
    5157     5116     5077     5088     5113     5096     4943     4669 
    4445     4371     4353     4280     4144     4017     3939     3902 
    3920     4005     4135     4245     4294     4307     4294     4217 
    4121     4110     4205     4288     4232     4012     3762     3700 
    3893     4152     4279     4283     4256     4282     4360     4398 
    4372     4391     4544     4797     5031     5111     5001     4827 
    4727     4712     4730     4745     4710     4631     4565     4523 
    4484     4453     4418     4344     4245     4203     4248     4313 
    4317     4256     4233     4318     4398     4348     4195     4047 
    4014     4113     4210     4215     4197     4230     4325     4473 
    4576     4542     4459     4428     4419     4399     4384     4387 
    4428     4499     4527     4531     4596     4664     4626     4513 
    4414     4378     4405     4464     4515     4552     4565     4568 
    4630     4758     4843     4849     4819     4761     4696     4656 
    4595     4467     4347     4341     4425     4479     4449     4380 
    4360     4453     4603     4733     4814     4835     4846     4943 
    5104     5194     5111     4901     4756     4800     4931     4965 
    4837     4623     4463     4472     4619     4745     4772     4760 
    4784     4874     4949     4897     4777     4720     4758     4872 
    5036     5169     5208     5166     5109     5104     5171     5240 
    5229     5138     4986     4824     4706     4658     4645     4577 
    4433     4283     4207     4252     4384     4483     4464     4355 
    4233     4163     4151     4137     4091     4064     4082     4074 
    4000     3897     3823     3836     4001     4247     4403     4413 
    4341     4268     4252     4333     4531     4811     5040     5125 
    5096     5031     4970     4870     4658     4398     4241     4223 
    4255     4299     4367     4383     4286     4183     4197     4289 
    4383     4498     4627     4737     4819     4862     4847     4797 
    4769     4803     4880     4950     4965     4881     4719     4598 
    4588     4625     4615     4530     4379     4197     4067     4040 
    4098     4197     4298     4399     4518     4604     4623     4645 
    4731     4810     4791     4677     4510     4327     4192     4178 
    4261     4322     4280     4153     4029     3994     4058     4151 
    4191     4158     4112     4109     4155     4243     4348     4392 
    4367     4374     4534     4858     5181     5309     5216     5023 
    4838     4723     4700     4726     4693     4552     4357     4178 
    4028     3951     3977     4029     4031     4027     4098     4214 
    4258     4230     4247     4369     4541     4657     4656     4583 
    4510     4468     4461     4468     4421     4305     4174     4036 
    3877     3744     3653     3566     3504     3484     3495     3544 
    3627     3704     3769     3825     3852     3873     3959     4110 
    4218     4197     4107     4101     4214     4341     4383     4318 
    4163     3981     3838     3724     3568     3322     3029     2751 
    2519     2404     2458     2608     2725     2735     2659     2614 
    2705     2899     3060     3090     2991     2835     2702     2629 
    2604     2597     2587     2610     2721     2910     3087     3173 
    3176     3165     3192     3248     3295     3342     3423     3484 
    3458     3403     3415     3501     3619     3663     3578     3478 
    3508     3674     3879     4033     4121     4203     4349     4558 
    4758     4926     5108     5312     5489     5629     5753     5864 
    5968     6102     6272     6427     6534     6683     6984     7408 
    7811     8027     8055     8081     8239     8486     8721     8863 
    8887     8874     8966     9158     9283     9250     9173     9177 
    9242     9312     9359     9322     9196     9055     8928     8787 
    8602     8364     8148     8043     8023     8000     7946     7898 
    7889     7931     8052     8236     8407     8505     8507     8397 
    8187     7948     7727     7493     7203     6855     6463     6042 
    5640     5313     5031     4752     4504     4322     4212     4144 
    4041     3848     3619     3447     3366     3331     3244     3075 
    2891     2759     2663     2519     2324     2157     1987     1729 
    1383     1000      664      490      484      487      344      105 
     -44        5      245      568      843     1004     1088     1170 
    1301     1466     1629     1811     2019     2189     2266     2204 
    1980     1715     1603     1698     1914     2158     2358     2451 
    2442     2408     2390     2359     2259     2085     1921     1846 
    1869     1969     2128     2305     2473     2681     3028     3554 
    4166     4723     5179     5530     5775     5940     6107     6320 
    6555     6763     6919     7053     7188     7307     7414     7545 
    7674     7709     7562     7263     6955     6750     6659     6644 
    6662     6721     6871     7067     7206     7275     7329     7426 
    7578     7704     7696     7551     7361     7225     7179     7113 
    6848     6385     5902     5541     5281     5043     4796     4521 
    4200     3819     3368     2913     2565     2363     2249     2097 
    1868     1698     1746     1956     2160     2305     2463     2701 
    3036     3387     3634     3793     3959     4144     4261     4233 
    4071     3889     3827     3905     4012     4039     3978     3874 
    3796     3774     3726     3563     3319     3078     2895     2782 
    2683     2542     2363     2180     2027     1934     1857     1773 
    1753     1856     2043     2236     2371     2451     2517     2554 
    2508     2389     2258     2138     2039     2004     2034     2065 
    2034     1975     1972     2155     2577     3121     3613     4014 
    4396     4791     5111     5268     5290     5267     5302     5458 
    5713     6000     6235     6370     6401     6307     6068     5726 
    5327     4869     4376     3908     3462     3011     2601     2350 
    2358     2587     2837     2953     2982     3053     3244     3532 
    3817     3951     3842     3499     3014     2538     2220     2068 
    1965     1902     1930     1989     2029     2135     2370     2686 
    2999     3241     3396     3485     3501     3454     3403     3399 
    3468     3620     3861     4172     4499     4787     5027     5278 
    5620     6046     6427     6639     6656     6539     6392     6226 
    5934     5490     4993     4531     4129     3751     3348     2934 
    2608     2420     2276     2030     1688     1401     1304     1416 
    1665     1972     2280     2577     2921     3317     3662     3901 
    4094     4280     4500     4788     5055     5182     5189     5174 
    5164     5088     4830     4386     3906     3470     3010     2539 
    2142     1838     1614     1513     1579     1749     1880     1902 
    1872     1865     1880     1876     1868     1946     2178     2523 
    2915     3317     3628     3792     3913     4099     4341     4603 
    4807     4845     4698     4419     4035     3613     3334     3298 
    3424     3596     3747     3823     3801     3748     3763     3899 
    4126     4365     4523     4550     4469     4367     4372     4531 
    4725     4823     4814     4739     4630     4548     4523     4523 
    4490     4392     4282     4223     4217     4253     4342     4431 
    4482     4552     4733     5050     5409     5617     5583     5394 
    5197     5108     5151     5244     5267     5205     5157     5211 
    5371     5583     5753     5783     5623     5335     5051     4831 
    4646     4479     4307     4078     3774     3456     3215     3126 
    3218     3450     3704     3865     3908     3861     3776     3759 
    3927     4286     4725     5107     5358     5491     5579     5640 
    5623     5491     5252     4958     4695     4502     4382     4380 
    4504     4625     4653     4658     4725     4874     5073     5251 
    5385     5517     5671     5782     5746     5510     5120     4710 
    4434     4327     4310     4288     4256     4294     4502     4865 
    5279     5694     6141     6642     7121     7431     7524     7506 
    7507     7589     7701     7695     7488     7180     6941     6840 
    6821     6768     6583     6249     5854     5587     5599     5848 
    6166     6467     6754     6979     7009     6808     6516     6246 
    5968     5656     5350     5081     4855     4656     4483     4390 
    4419     4557     4746     4881     4834     4588     4294     4121 
    4083     4058     3935     3732     3511     3260     2947     2636 
    2431     2394     2558     2874     3144     3227     3169     3064 
    3021     3146     3410     3642     3688     3496     3141     2772 
    2490     2301     2177     2058     1878     1669     1537     1507 
    1541     1587     1579     1528     1580     1865     2376     2934 
    3280     3362     3407     3530     3582     3442     3079     2519 
    1922     1476     1215     1039      855      645      502      499 
     577      684      885     1178     1439     1645     1904     2281 
    2724     3126     3435     3662     3790     3785     3696     3651 
    3703     3778     3809     3831     3909     4043     4213     4434 
    4696     4974     5252     5525     5809     6060     6205     6295 
    6421     6625     6906     7180     7322     7296     7109     6786 
    6419     6114     5894     5684     5431     5152     4903     4715 
    4602     4587     4696     4901     5111     5232     5224     5163 
    5131     5096     5016     4932     4881     4842     4814     4850 
