Origin Time       2016/04/16 01:25:00
Lat.              32.753
Long.             130.762
Depth. (km)       12
Mag.              7.3
Station Code      KOC003
Station Lat.      33.5014
Station Long.     133.9068
Station Height(m) 5
Record Time       2016/04/16 01:26:02
Sampling Freq(Hz) 100Hz
Duration Time(s)  165
Dir.              N-S
Scale Factor      7845(gal)/8223790
Max. Acc. (gal)   15.764
Last Correction   2016/04/16 01:26:03
Memo.             
[...]
    4315     4291     4291     4313     4345     4376     4403     4426 
    4457     4510     4584     4669     4761     4849     4918     4961 
    4977     4965     4945     4935     4938     4949     4959     4959 
    4958     4970     4992     5011     5024     5030     5030     5035 
    5042     5034     5001     4935     4828     4695     4552     4414 
    4298     4210     4143     4079     4016     3954     3901     3852 
    3798     3742     3697     3677     3690     3719     3742     3750 
    3732     3686     3628     3580     3553     3551     3576     3620 
    3667     3709     3742     3761     3781     3820     3880     3951 
    4027     4097     4158     4195     4192     4143     4066     3982 
    3905     3842     3793     3771     3780     3800     3815     3820 
    3812     3790     3763     3748     3763     3824     3929     4051 
    4163     4248     4301     4314     4298     4251     4176     4082 
    3970     3842     3705     3566     3437     3322     3231     3168 
    3123     3092     3063     3028     2991     2953     2907     2860 
    2822     2792     2763     2729     2694     2654     2608     2565 
    2528     2497     2484     2501     2558     2651     2772     2920 
    3075     3221     3345     3440     3511     3582     3677     3808 
    3971     4159     4356     4548     4725     4888     5042     5194 
    5344     5472     5560     5594     5580     5539     5478     5394 
    5275     5104     4876     4617     4360     4129     3932     3765 
    3615     3478     3352     3241     3150     3079     3025     2997 
    3011     3069     3163     3283     3416     3550     3666     3769 
    3856     3925     3970     3996     4014     4039     4074     4129 
    4195     4258     4310     4357     4403     4442     4475     4495 
    4502     4496     4482     4455     4419     4380     4327     4266 
    4205     4155     4118     4095     4088     4097     4114     4139 
    4162     4178     4187     4185     4171     4166     4178     4200 
    4205     4178     4120     4051     3983     3931     3902     3890 
    3883     3885     3904     3932     3971     4031     4105     4183 
    4258     4326     4369     4382     4363     4324     4266     4189 
    4109     4039     3979     3936     3899     3840     3747     3626 
    3468     3284     3087     2880     2685     2512     2349     2191 
    2033     1871     1710     1554     1421     1332     1285     1279 
    1312     1356     1405     1467     1543     1642     1767     1908 
    2064     2235     2425     2627     2813     2967     3088     3173 
    3240     3312     3396     3478     3542     3577     3577     3537 
    3458     3361     3276     3237     3258     3343     3476     3620 
    3746     3844     3902     3915     3896     3878     3880     3921 
    4009     4131     4258     4383     4499     4611     4725     4841 
    4951     5049     5130     5189     5224     5235     5239     5246 
    5252     5252     5221     5151     5055     4939     4810     4689 
    4585     4496     4419     4356     4311     4291     4297     4342 
    4426     4530     4641     4741     4812     4851     4873     4891 
    4908     4920     4912     4877     4806     4680     4498     4282 
    4062     3861     3692     3562     3470     3412     3379     3350 
    3314     3273     3237     3222     3231     3252     3279     3321 
    3385     3468     3555     3632     3684     3711     3727     3736 
    3738     3731     3724     3728     3753     3801     3850     3865 
    3831     3753     3647     3541     3453     3396     3384     3412 
    3457     3496     3511     3488     3427     3348     3264     3203 
    3184     3207     3262     3335     3415     3503     3607     3740 
    3899     4074     4243     4406     4552     4676     4779     4855 
    4901     4926     4935     4936     4928     4908     4868     4801 
    4718     4631     4545     4464     4401     4348     4311     4294 
    4291     4305     4334     4386     4455     4540     4641     4756 
    4878     5008     5140     5282     5443     5616     5783     5933 
    6056     6154     6228     6295     6377     6481     6593     6686 
    6731     6716     6639     6504     6340     6174     6014     5860 
    5698     5514     5300     5053     4781     4495     4199     3909 
    3649     3424     3226     3056     2907     2783     2690     2628 
    2587     2560     2525     2470     2398     2316     2239     2185 
    2160     2146     2123     2076     2004     1921     1837     1755 
    1677     1606     1554     1534     1557     1620     1699     1776 
    1850     1933     2027     2126     2236     2344     2446     2539 
    2616     2667     2690     2698     2716     2759     2835     2947 
    3082     3207     3299     3338     3326     3281     3218     3146 
    3075     3009     2940     2863     2779     2687     2584     2471 
    2355     2238     2126     2034     1975     1956     1981     2050 
    2157     2301     2479     2686     2909     3142     3391     3659 
    3946     4243     4530     4788     5004     5181     5321     5435 
    5536     5634     5729     5825     5921     5996     6033     6019 
    5962     5877     5773     5659     5541     5409     5248     5067 
    4876     4684     4511     4368     4248     4158     4072     3978 
    3875     3761     3631     3499     3379     3292     3260     3292 
    3369     3470     3570     3655     3723     3769     3785     3770 
    3738     3705     3680     3666     3670     3700     3757     3842 
    3940     4041     4132     4203     4255     4287     4311     4337 
    4356     4353     4317     4241     4131     3993     3854     3731 
    3634     3570     3520     3449     3342     3199     3040     2889 
    2771     2698     2668     2673     2694     2720     2755     2805 
    2866     2936     3010     3073     3129     3188     3252     3327 
    3414     3492     3574     3663     3759     3861     3970     4078 
    4180     4287     4409     4546     4696     4857     5023     5189 
    5359     5533     5703     5857     5975     6053     6104     6130 
    6137     6142     6156     6184     6218     6251     6280     6292 
    6273     6214     6114     5973     5805     5621     5436     5250 
    5067     4889     4719     4557     4398     4245     4104     3970 
    3839     3715     3605     3523     3485     3489     3523     3580 
    3657     3747     3831     3893     3935     3955     3975     4028 
    4125     4255     4396     4526     4618     4657     4645     4598 
    4538     4498     4500     4546     4610     4661     4664     4603 
    4486     4326     4144     3959     3790     3649     3530     3420 
    3299     3160     3006     2844     2687     2540     2412     2311 
    2238     2188     2143     2098     2039     1956     1861     1768 
    1674     1582     1497     1417     1336     1258     1197     1167 
    1175     1208     1232     1224     1174     1089     1004      963 
     990     1092     1266     1493     1746     2006     2255     2492 
    2718     2944     3180     3431     3689     3940     4159     4345 
    4499     4622     4720     4807     4870     4915     4950     4973 
    4984     4994     5008     5009     4984     4931     4857     4770 
    4688     4612     4541     4473     4413     4356     4306     4261 
    4220     4183     4167     4189     4253     4365     4531     4743 
    4984     5227     5443     5606     5706     5746     5752     5746 
    5746     5753     5764     5760     5736     5683     5603     5506 
    5408     5314     5251     5229     5239     5255     5254     5211 
    5117     4989     4843     4688     4545     4425     4338     4302 
    4313     4353     4398     4411     4374     4284     4159     4017 
    3869     3713     3557     3402     3253     3113     2978     2844 
    2710     2577     2446     2334     2257     2222     2223     2251 
    2293     2350     2432     2543     2674     2811     2921     2978 
    2976     2914     2806     2666     2516     2373     2235     2111 
    2011     1923     1864     1858     1883     1929     1995     2039 
    2050     2023     1945     1849     1775     1741     1764     1836 
    1930     2016     2079     2130     2195     2284     2421     2619 
    2863     3130     3395     3645     3856     4013     4121     4178 
    4178     4125     4027     3885     3716     3537     3369     3235 
    3146     3113     3145     3232     3354     3492     3638     3770 
    3882     3979     4062     4128     4178     4205     4215     4210 
    4195     4178     4162     4144     4122     4106     4106     4131 
    4180     4251     4311     4341     4322     4248     4122     3964 
    3782     3582     3377     3180     2997     2818     2640     2461 
    2280     2107     1975     1908     1918     1998     2124     2269 
    2409     2528     2614     2674     2728     2799     2911     3073 
    3279     3505     3711     3846     3893     3863     3773     3661 
    3573     3530     3537     3582     3651     3744     3861     4014 
    4210     4437     4671     4878     5013     5050     4978     4807 
    4564     4280     3977     3678     3387     3098     2802     2488 
    2153     1815     1505     1262     1142     1173     1358     1677 
    2093     2558     3013     3419     3769     4069     4347     4631 
    4934     5250     5568     5875     6142     6340     6458     6490 
    6443     6345     6232     6130     6043     5972     5906     5844 
    5800     5795     5842     5942     6084     6243     6394     6517 
    6594     6609     6564     6478     6392     6347     6361     6427 
    6515     6579     6609     6601     6558     6504     6475     6500 
    6579     6701     6828     6934     7013     7069     7126     7202 
    7295     7408     7550     7713     7886     8073     8268     8460 
    8635     8784     8893     8953     8955     8892     8773     8622 
    8469     8332     8221     8136     8077     8029     7974     7902 
    7820     7723     7614     7506     7404     7306     7203     7091 
    6945     6759     6536     6292     6052     5846     5697     5603 
    5556     5535     5517     5493     5458     5416     5377     5356 
    5355     5375     5401     5422     5436     5433     5402     5336 
    5221     5036     4776     4445     4069     3693     3355     3071 
    2836     2632     2436     2218     1965     1667     1327      959 
     588      246      -43     -279     -469     -630     -804    -1028 
   -1298    -1586    -1867    -2121    -2351    -2581    -2847    -3160 
   -3515    -3894    -4275    -4634    -4963    -5271    -5566    -5840 
   -6084    -6285    -6434    -6523    -6552    -6531    -6477    -6407 
   -6338    -6285    -6250    -6223    -6186    -6122    -6012    -5852 
   -5655    -5437    -5201    -4949    -4693    -4422    -4128    -3813 
   -3487    -3157    -2851    -2578    -2338    -2119    -1911    -1695 
   -1453    -1178     -873     -556     -236       76      380      688 
    1019     1371     1755     2189     2687     3276     3971     4766 
    5647     6585     7545     8479     9339    10100    10764    11360 
   11927    12490    13057    13628    14188    14702    15148    15507 
   15769    15942    16044    16087    16066    15969    15782    15489 
   15087    14585    13990    13302    12542    11722    10847     9937 
    9020     8117     7250     6440     5692     4993     4332     3696 
    3088     2504     1944     1418      945      535      187     -120 
    -417     -731    -1081    -1459    -1852    -2277    -2724    -3176 
   -3630    -4077    -4502    -4908    -5301    -5682    -6039    -6349 
   -6589    -6741    -6781    -6691    -6480    -6158    -5741    -5235 
   -4657    -4009    -3295    -2535    -1733     -900      -68      733 
    1486     2153     2714     3183     3558     3848     4078     4287 
    4502     4727     4963     5213     5448     5645     5819     5984 
    6162     6380     6663     7025     7450     7906     8385     8881 
    9375     9865    10361    10854    11344    11812    12244    12641 
   13012    13356    13694    14049    14428    14820    15205    15539 
   15792    15966    16074    16119    16114    16075    15997    15870 
   15697    15472    15178    14810    14389    13938    13468    12989 
   12502    11986    11425    10813    10169     9533     8943     8424 
    7996     7659     7388     7144     6891     6612     6278     5894 
    5474     5004     4483     3935     3375     2817     2278     1759 
    1246      726      183     -400    -1021    -1657    -2296    -2918 
   -3501    -4045    -4552    -5031    -5491    -5927    -6336    -6718 
   -7063    -7368    -7639    -7886    -8113    -8317    -8490    -8637 
   -8748    -8810    -8822    -8785    -8708    -8604    -8490    -8374 
   -8248    -8110    -7950    -7766    -7564    -7358    -7171    -7005 
   -6839    -6654    -6453    -6239    -6027    -5831    -5665    -5529 
   -5402    -5255    -5090    -4908    -4708    -4502    -4302    -4112 
   -3939    -3785    -3645    -3501    -3325    -3088    -2789    -2416 
   -1961    -1420     -796     -101      652     1431     2209     2980 
    3738     4477     5209     5949     6704     7480     8270     9051 
    9815    10561    11286    11990    12677    13359    14038    14720 
   15406    16087    16750    17393    18003    18580    19110    19569 
   19936    20200    20362    20430    20418    20347    20250    20146 
   20036    19908    19753    19552    19300    19014    18708    18399 
   18114    17868    17670    17523    17402    17280    17123    16908 
   16627    16286    15896    15479    15041    14592    14137    13664 
   13162    12636    12091    11530    10957    10385     9826     9296 
    8796     8341     7947     7622     7371     7194     7084     7032 
    7018     7014     6997     6959     6902     6824     6732     6633 
    6531     6436     6336     6219     6073     5883     5643     5354 
    5024     4676     4336     4021     3735     3476     3234     3003 
    2785     2581     2393     2219     2060     1912     1773     1658 
    1572     1514     1489     1486     1497     1518     1544     1570 
    1593     1611     1621     1610     1576     1530     1485     1443 
    1398     1334     1229     1092      931      765      608      449 
     275       94      -87     -276     -473     -688     -936    -1230 
   -1574    -1952    -2355    -2759    -3145    -3504    -3840    -4149 
   -4438    -4706    -4943    -5148    -5316    -5445    -5535    -5578 
   -5574    -5539    -5491    -5451    -5429    -5441    -5494    -5582 
   -5687    -5802    -5902    -5967    -5991    -5975    -5919    -5826 
   -5686    -5483    -5212    -4865    -4429    -3896    -3267    -2548 
   -1755     -882       56     1035     2034     3033     4024     5000 
    5952     6871     7776     8671     9545    10392    11199    11947 
   12633    13251    13798    14272    14666    14982    15210    15337 
   15380    15360    15282    15149    14968    14747    14482    14168 
   13802    13386    12930    12425    11862    11256    10639    10034 
    9458     8915     8391     7871     7339     6793     6234     5663 
    5093     4548     4029     3547     3123     2763     2455     2182 
    1919     1647     1367     1084      787      477      164     -144 
    -450     -750    -1026    -1269    -1476    -1655    -1798    -1903 
   -1980    -2023    -2023    -1975    -1863    -1665    -1399    -1077 
    -704     -282      176      657     1170     1694     2204     2695 
    3160     3603     4021     4393     4720     5008     5239     5410 
    5526     5590     5621     5651     5705     5807     5961     6158 
    6389     6651     6933     7236     7562     7911     8274     8646 
    9019     9386     9753    10131    10543    11006    11526    12085 
   12669    13257    13821    14343    14832    15299    15739    16143 
   16499    16786    16992    17118    17159    17124    17018    16857 
   16644    16367    16019    15596    15099    14547    13960    13354 
   12748    12147    11538    10918    10278     9612     8924     8239 
    7577     6957     6382     5856     5371     4918     4488     4072 
    3670     3283     2915     2584     2307     2083     1896     1734 
    1578     1410     1221     1015      793      558      325      102 
    -110     -307     -492     -672     -853    -1043    -1247    -1457 
   -1669    -1877    -2069    -2262    -2475    -2718    -3002    -3353 
   -3781    -4263    -4800    -5393    -6000    -6604    -7203    -7770 
   -8298    -8804    -9298    -9788   -10274   -10727   -11117   -11431 
  -11661   -11804   -11861   -11838   -11734   -11546   -11298   -10995 
  -10646   -10276    -9895    -9509    -9121    -8730    -8324    -7901 
   -7442    -6936    -6377    -5760    -5089    -4369    -3622    -2872 
   -2141    -1433     -758     -110      508     1086     1630     2153 
    2646     3103     3524     3905     4241     4531     4793     5036 
    5258     5456     5633     5800     5961     6119     6284     6471 
    6682     6913     7165     7438     7738     8066     8401     8743 
    9101     9462     9829    10204    10575    10944    11307    11665 
   12021    12367    12692    12993    13261    13478    13651    13787 
   13900    14007    14121    14235    14326    14378    14374    14292 
   14143    13957    13752    13547    13344    13139    12919    12664 
   12353    11986    11572    11128    10683    10265     9876     9514 
    9188     8883     8581     8267     7923     7548     7164     6782 
    6420     6077     5760     5478     5233     5016     4818     4621 
    4409     4186     3971     3765     3562     3369     3188     3022 
    2860     2681     2485     2280     2069     1861     1645     1420 
    1204      996      804      642      506      395      309      249 
     225      238      272      311      332      310      224       65 
    -141     -373     -604     -824    -1035    -1230    -1412    -1582 
   -1737    -1859    -1938    -1975    -1964    -1902    -1796    -1655 
   -1494    -1329    -1161     -990     -824     -657     -493     -337 
    -187      -32      129      303      488      697      922     1138 
    1336     1502     1625     1715     1790     1858     1919     1965 
    1984     1968     1925     1852     1759     1653     1543     1431 
    1341     1277     1237     1227     1247     1300     1382     1493 
    1642     1838     2079     2355     2647     2940     3229     3527 
    3858     4237     4669     5154     5676     6207     6727     7219 
    7676     8102     8513     8918     9316     9705    10071    10388 
   10628    10779    10843    10820    10712    10540    10327    10076 
    9799     9505     9184     8838     8484     8129     7778     7437 
    7106     6775     6444     6110     5767     5418     5076     4742 
    4428     4120     3801     3462     3099     2712     2319     1942 
    1605     1327     1107      932      789      669      571      487 
     422      383      379      417      498      615      754      903 
    1043     1152     1225     1269     1294     1323     1358     1398 
    1447     1493     1524     1530     1520     1506     1507     1545 
