Origin Time       2016/04/16 01:25:00
Lat.              32.753
Long.             130.762
Depth. (km)       12
Mag.              7.3
Station Code      KOC006
Station Lat.      33.4945
Station Long.     133.4165
Station Height(m) 8
Record Time       2016/04/16 01:25:59
Sampling Freq(Hz) 100Hz
Duration Time(s)  100
Dir.              N-S
Scale Factor      7845(gal)/8223790
Max. Acc. (gal)   10.795
Last Correction   2016/04/16 01:25:59
Memo.             
[...]
    5637     5705     5699     5620     5526     5466     5433     5427 
    5435     5433     5410     5374     5314     5242     5181     5148 
    5157     5208     5278     5352     5429     5495     5549     5599 
    5637     5676     5724     5763     5793     5837     5891     5957 
    6038     6119     6168     6168     6119     6008     5831     5609 
    5360     5128     4961     4854     4779     4723     4685     4661 
    4646     4633     4618     4621     4658     4733     4862     5050 
    5254     5443     5618     5776     5927     6079     6222     6350 
    6442     6454     6384     6262     6100     5910     5725     5563 
    5420     5297     5179     5042     4914     4845     4839     4896 
    4984     5058     5127     5211     5298     5387     5467     5497 
    5475     5420     5343     5262     5192     5112     5007     4861 
    4658     4438     4256     4136     4083     4098     4159     4256 
    4406     4618     4865     5140     5443     5755     6072     6408 
    6744     7068     7376     7636     7811     7877     7832     7690 
    7489     7246     6957     6637     6297     5946     5611     5314 
    5058     4839     4656     4499     4355     4217     4098     4024 
    3998     4010     4059     4143     4260     4414     4596     4787 
    4969     5152     5336     5513     5689     5836     5906     5906 
    5841     5710     5535     5348     5188     5086     5032     4989 
    4966     4969     4989     5039     5142     5271     5409     5578 
    5779     5984     6162     6254     6223     6114     5977     5845 
    5760     5746     5773     5810     5814     5737     5575     5362 
    5127     4912     4761     4685     4693     4787     4918     5024 
    5081     5104     5131     5188     5252     5304     5364     5455 
    5549     5634     5698     5726     5737     5738     5702     5623 
    5510     5375     5247     5152     5086     5054     5092     5184 
    5265     5300     5301     5319     5408     5566     5760     5984 
    6218     6439     6635     6775     6835     6815     6737     6615 
    6465     6347     6281     6238     6174     6049     5854     5616 
    5336     5034     4766     4572     4459     4414     4407     4440 
    4534     4700     4922     5175     5418     5629     5811     5956 
    6048     6096     6127     6164     6224     6305     6372     6386 
    6318     6145     5894     5617     5331     5050     4822     4658 
    4548     4492     4483     4523     4648     4850     5071     5283 
    5478     5623     5734     5864     6022     6181     6305     6356 
    6351     6346     6345     6334     6285     6133     5864     5555 
    5290     5101     4972     4860     4750     4696     4731     4827 
    4954     5070     5127     5127     5111     5112     5181     5359 
    5626     5926     6204     6412     6529     6547     6442     6239 
    6025     5859     5760     5732     5742     5746     5729     5683 
    5587     5452     5320     5221     5169     5161     5182     5243 
    5351     5490     5640     5778     5868     5896     5879     5833 
    5779     5741     5733     5752     5805     5877     5902     5837 
    5694     5495     5271     5055     4851     4679     4584     4583 
    4664     4807     4961     5069     5115     5120     5120     5152 
    5220     5292     5383     5517     5652     5748     5798     5815 
    5826     5886     6003     6169     6349     6458     6430     6289 
    6089     5891     5738     5621     5521     5433     5327     5177 
    5013     4857     4702     4557     4419     4275     4137     4024 
    3950     3969     4118     4365     4669     4989     5260     5445 
    5556     5616     5656     5692     5705     5687     5687     5765 
    5933     6146     6355     6515     6596     6581     6465     6285 
    6099     5937     5841     5827     5860     5900     5935     5926 
    5859     5775     5701     5620     5532     5445     5393     5428 
    5548     5694     5815     5890     5899     5857     5798     5733 
    5670     5625     5617     5670     5775     5861     5864     5783 
    5652     5503     5347     5155     4923     4715     4596     4610 
    4761     5001     5259     5463     5548     5497     5368     5244 
    5197     5278     5497     5798     6104     6363     6528     6579 
    6544     6432     6259     6070     5887     5744     5684     5697 
    5736     5782     5809     5776     5664     5466     5190     4892 
    4623     4395     4220     4125     4113     4171     4282     4399 
    4495     4592     4710     4861     5051     5254     5448     5653 
    5861     6048     6207     6322     6388     6430     6454     6465 
    6473     6473     6450     6394     6305     6180     6015     5821 
    5622     5459     5356     5317     5320     5343     5362     5377 
    5389     5364     5277     5139     5019     4965     4984     5049 
    5125     5233     5393     5570     5732     5868     5979     6062 
    6106     6089     6021     5922     5815     5741     5746     5834 
    5973     6129     6242     6285     6272     6204     6077     5906 
    5703     5495     5333     5255     5246     5267     5298     5339 
    5398     5456     5471     5433     5390     5389     5443     5530 
    5628     5742     5877     5973     5987     5933     5831     5703 
    5575     5440     5296     5192     5144     5108     5063     5035 
    5040     5113     5273     5481     5691     5873     6006     6087 
    6133     6166     6188     6189     6157     6073     5952     5852 
    5827     5869     5911     5927     5950     5995     6035     6046 
    6010     5911     5768     5589     5377     5185     5067     5034 
    5065     5143     5240     5332     5424     5498     5536     5570 
    5622     5707     5830     5940     5977     5944     5854     5713 
    5556     5416     5305     5266     5321     5432     5552     5645 
    5703     5756     5837     5910     5915     5845     5710     5526 
    5336     5163     5022     4945     4936     4963     5008     5050 
    5051     5017     4988     4961     4947     4959     4965     4936 
    4888     4833     4761     4695     4666     4679     4715     4735 
    4704     4638     4568     4499     4450     4445     4484     4568 
    4702     4877     5086     5302     5490     5630     5725     5769 
    5767     5742     5701     5633     5544     5443     5354     5301 
    5273     5244     5224     5209     5178     5139     5134     5155 
    5164     5164     5163     5182     5258     5356     5421     5456 
    5483     5525     5606     5711     5821     5944     6076     6189 
    6282     6353     6384     6361     6268     6091     5884     5714 
    5609     5574     5605     5668     5734     5788     5814     5817 
    5821     5819     5809     5803     5806     5807     5809     5796 
    5765     5722     5665     5575     5460     5355     5266     5198 
    5162     5154     5184     5279     5432     5589     5707     5764 
    5759     5721     5692     5724     5836     5999     6177     6347 
    6467     6531     6569     6593     6602     6621     6650     6659 
    6654     6642     6617     6589     6556     6478     6334     6135 
    5896     5640     5402     5204     5055     4958     4901     4868 
    4854     4850     4845     4839     4841     4850     4887     4947 
    4994     5009     5003     4994     5009     5060     5127     5179 
    5220     5235     5213     5184     5179     5224     5352     5559 
    5793     6035     6259     6427     6538     6597     6600     6566 
    6504     6385     6204     5989     5778     5610     5491     5381 
    5243     5084     4943     4877     4901     4989     5115     5252 
    5370     5451     5514     5567     5597     5616     5656     5721 
    5815     5935     6057     6160     6230     6226     6115     5914 
    5665     5417     5228     5117     5063     5039     5027     5027 
    5039     5038     5008     4954     4860     4719     4563     4413 
    4295     4241     4247     4287     4365     4482     4635     4850 
    5123     5393     5621     5796     5900     5937     5937     5899 
    5834     5765     5680     5582     5521     5536     5603     5682 
    5734     5736     5703     5678     5674     5691     5732     5768 
    5788     5800     5790     5760     5722     5653     5540     5387 
    5190     4965     4769     4645     4590     4602     4673     4800 
    4982     5181     5320     5371     5347     5267     5175     5121 
    5104     5121     5181     5256     5333     5406     5443     5443 
    5464     5528     5633     5796     5999     6188     6340     6442 
    6475     6450     6365     6210     5995     5768     5576     5454 
    5410     5413     5432     5452     5431     5328     5171     4984 
    4779     4591     4446     4345     4313     4368     4507     4714 
    4934     5108     5233     5347     5454     5552     5638     5694 
    5746     5826     5935     6066     6219     6376     6523     6659 
    6785     6893     6985     7060     7105     7111     7067     6947 
    6760     6546     6334     6153     5999     5850     5672     5435 
    5128     4774     4399     4010     3636     3330     3115     2992 
    2957     2982     3041     3140     3279     3447     3636     3827 
    4012     4207     4425     4649     4882     5117     5336     5545 
    5751     5933     6088     6224     6322     6367     6365     6301 
    6180     6041     5913     5795     5707     5659     5648     5683 
    5771     5895     6038     6181     6290     6353     6386     6431 
    6539     6744     7026     7333     7618     7832     7948     7951 
    7835     7623     7403     7252     7217     7307     7474     7638 
    7756     7796     7736     7597     7410     7198     6980     6766 
    6569     6417     6342     6334     6372     6427     6465     6465 
    6412     6277     6092     5934     5818     5741     5694     5644 
    5580     5539     5517     5498     5468     5413     5343     5287 
    5258     5235     5209     5188     5155     5109     5059     4993 
    4896     4774     4630     4460     4287     4128     3987     3888 
    3820     3736     3618     3495     3418     3424     3519     3662 
    3836     4036     4255     4487     4756     5039     5304     5532 
    5694     5772     5773     5732     5687     5667     5647     5602 
    5548     5497     5436     5360     5260     5147     5059     4999 
    4959     4978     5066     5171     5242     5248     5167     4994 
    4774     4538     4294     4064     3859     3692     3597     3580 
    3607     3659     3730     3823     3962     4149     4374     4638 
    4934     5224     5491     5717     5868     5965     6070     6207 
    6376     6562     6704     6766     6781     6782     6775     6718 
    6559     6316     6064     5845     5686     5626     5680     5829 
    6048     6276     6424     6450     6358     6173     5942     5725 
    5555     5479     5536     5692     5887     6060     6161     6153 
    6039     5846     5598     5321     5051     4812     4617     4463 
    4333     4214     4114     4027     3948     3893     3840     3759 
    3636     3470     3264     3037     2813     2625     2515     2488 
    2519     2575     2620     2627     2619     2616     2617     2616 
    2609     2582     2524     2442     2319     2147     1972     1836 
    1768     1792     1917     2139     2452     2832     3229     3609 
    3962     4288     4611     4943     5262     5528     5711     5792 
    5776     5694     5597     5529     5528     5589     5689     5807 
    5911     5999     6084     6168     6252     6342     6413     6448 
    6450     6421     6378     6355     6361     6374     6394     6438 
    6497     6562     6619     6644     6651     6682     6741     6829 
    6961     7138     7360     7636     7947     8251     8526     8729 
    8816     8804     8734     8640     8572     8573     8645     8781 
    8966     9147     9289     9379     9391     9293     9061     8683 
    8176     7592     6982     6373     5798     5302     4923     4666 
    4534     4534     4617     4695     4715     4638     4448     4178 
    3888     3638     3468     3391     3396     3437     3483     3550 
    3653     3776     3885     3913     3827     3645     3411     3168 
    2951     2783     2716     2806     3090     3573     4237     5016 
    5814     6548     7173     7650     7963     8132     8186     8156 
    8101     8071     8087     8148     8221     8252     8191     8005 
    7697     7322     6947     6627     6397     6243     6124     6018 
    5918     5809     5684     5580     5548     5644     5879     6185 
    6465     6640     6685     6605     6427     6204     5994     5853 
    5806     5850     5991     6219     6509     6841     7192     7514 
    7781     7983     8091     8094     8025     7911     7771     7646 
    7569     7553     7591     7630     7611     7481     7196     6720 
    6075     5319     4490     3640     2843     2133     1521     1062 
     808      741      834     1102     1522     1988     2423     2797 
    3098     3369     3697     4106     4602     5169     5803     6473 
    7102     7619     7969     8120     8060     7788     7337     6763 
    6093     5335     4499     3609     2697     1804      947      136 
    -604    -1260    -1869    -2497    -3140    -3742    -4314    -4872 
   -5336    -5661    -5837    -5833    -5653    -5278    -4699    -3974 
   -3122    -2130    -1036       86     1138     2050     2801     3350 
    3662     3784     3774     3651     3469     3306     3188     3126 
    3163     3325     3544     3707     3786     3801     3753     3711 
    3757     3870     4028     4243     4511     4834     5177     5462 
    5648     5740     5756     5738     5694     5616     5525     5459 
    5458     5560     5755     6021     6378     6808     7229     7611 
    7946     8235     8542     8896     9258     9618     9968    10263 
   10477    10631    10800    11037    11287    11521    11803    12087 
   12329    12569    12766    12826    12738    12567    12363    12122 
   11848    11560    11261    11003    10835    10736    10659    10573 
   10470    10362    10266    10162    10014     9787     9486     9153 
    8791     8352     7838     7296     6764     6281     5861     5486 
    5184     4988     4915     4954     5042     5136     5224     5286 
    5321     5320     5275     5227     5201     5197     5211     5219 
    5219     5262     5382     5544     5734     6019     6451     6987 
    7547     8044     8398     8557     8479     8164     7688     7149 
    6582     5958     5270     4522     3730     2938     2180     1451 
     757      103     -472     -900    -1144    -1221    -1158     -929 
    -513       35      623     1178     1658     2058     2394     2690 
    2956     3186     3391     3582     3770     3965     4197     4483 
    4807     5124     5382     5528     5535     5391     5097     4650 
    4067     3439     2857     2342     1872     1448     1060      668 
     259     -103     -334     -390     -259       52      483      963 
    1444     1895     2317     2721     3087     3383     3601     3771 
    3931     4088     4245     4401     4537     4641     4707     4735 
    4730     4668     4499     4192     3785     3343     2929     2577 
    2289     2053     1896     1857     1926     2100     2353     2648 
    3013     3485     4072     4774     5564     6366     7119     7788 
    8344     8756     8986     9022     8868     8549     8083     7520 
    6917     6309     5727     5198     4733     4347     4043     3823 
    3673     3538     3372     3169     2956     2782     2685     2669 
    2729     2863     3088     3429     3902     4534     5341     6295 
    7322     8344     9263     9995    10512    10806    10903    10860 
   10698    10434    10143     9909     9752     9688     9722     9788 
    9804     9726     9545     9285     8970     8622     8274     7950 
    7652     7389     7148     6894     6616     6318     5958     5481 
    4895     4238     3530     2814     2185     1702     1389     1242 
    1243     1378     1598     1811     1969     2107     2262     2461 
    2727     3013     3275     3518     3740     3925     4074     4200 
    4336     4523     4764     5019     5246     5414     5529     5609 
    5674     5738     5811     5904     6018     6120     6189     6211 
    6162     6066     5964     5875     5814     5771     5733     5683 
    5590     5432     5221     4988     4760     4541     4332     4112 
    3838     3514     3177     2871     2636     2489     2420     2417 
    2482     2614     2806     3037     3291     3584     3931     4320 
    4769     5308     5913     6540     7175     7789     8322     8727 
    8985     9059     8959     8739     8441     8078     7646     7184 
    6747     6358     6039     5767     5467     5185     5073     5085 
    5054     5031     5086     5158     5233     5343     5530     5809 
    6107     6407     6714     6985     7184     7291     7290     7182 
    6997     6781     6534     6246     5948     5653     5373     5109 
    4833     4515     4167     3797     3403     2991     2589     2239 
    2000     1892     1900     2018     2246     2546     2871     3192 
    3484     3715     3908     4090     4288     4519     4746     4928 
    5036     5036     4923     4727     4495     4251     4023     3851 
    3751     3689     3626     3544     3459     3400     3384     3395 
    3446     3551     3700     3917     4194     4492     4818     5174 
    5575     6049     6579     7126     7642     8106     8529     8892 
    9204     9464     9649     9776     9844     9837     9768     9606 
    9355     9085     8845     8691     8679     8850     9189     9643 
   10139    10601    10994    11325    11587    11772    11888    11967 
   12067    12231    12442    12664    12896    13127    13300    13366 
   13292    13095    12855    12621    12390    12182    11992    11803 
   11615    11434    11242    11034    10858    10751    10644    10503 
   10478    10593    10631    10613    10644    10617    10534    10484 
   10428    10334    10200    10003     9724     9346     8873     8328 
    7713     7074     6489     5991     5582     5250     4942     4660 
    4440     4301     4251     4307     4476     4730     5011     5232 
    5339     5333     5224     5043     4864     4722     4618     4548 
    4504     4463     4411     4338     4213     4025     3808     3578 
    3329     3064     2805     2552     2311     2120     2010     1988 
    2083     2284     2531     2759     2934     3059     3149     3211 
    3262     3307     3354     3454     3604     3770     3932     4085 
    4232     4374     4487     4571     4635     4681     4696     4656 
    4561     4460     4414     4494     4753     5181     5722     6292 
    6791     7195     7515     7749     7919     8054     8174     8307 
    8486     8718     9018     9358     9670     9921    10110    10197 
   10160    10037     9869     9657     9393     9073     8688     8253 
    7798     7318     6820     6332     5884     5517     5262     5120 
    5065     5049     5047     5062     5088     5127     5184     5232 
