Origin Time       2016/04/16 01:25:00
Lat.              32.753
Long.             130.762
Depth. (km)       12
Mag.              7.3
Station Code      KOC014
Station Lat.      32.9895
Station Long.     132.9377
Station Height(m) 4
Record Time       2016/04/16 01:25:42
Sampling Freq(Hz) 100Hz
Duration Time(s)  184
Dir.              N-S
Scale Factor      7845(gal)/8223790
Max. Acc. (gal)   21.772
Last Correction   2016/04/16 01:25:43
Memo.             
[...]
   -8856    -8920    -8868    -8785    -8706    -8652    -8654    -8692 
   -8716    -8762    -8918    -9161    -9414    -9661    -9861    -9923 
   -9810    -9567    -9315    -9135    -8982    -8797    -8571    -8245 
   -7778    -7221    -6633    -6084    -5659    -5382    -5196    -4994 
   -4750    -4554    -4453    -4409    -4369    -4256    -4025    -3716 
   -3355    -2936    -2432    -1764     -922      -54      654     1111 
    1379     1601     1792     1858     1729     1397      905      342 
    -214     -693    -1053    -1328    -1552    -1725    -1849    -1964 
   -2119    -2353    -2706    -3180    -3692    -4192    -4716    -5247 
   -5689    -5991    -6161    -6247    -6309    -6376    -6434    -6501 
   -6615    -6754    -6829    -6786    -6673    -6594    -6625    -6782 
   -6998    -7226    -7519    -7871    -8229    -8577    -8881    -9117 
   -9297    -9412    -9414    -9273    -9009    -8640    -8170    -7631 
   -7036    -6394    -5796    -5337    -5035    -4851    -4716    -4554 
   -4348    -4149    -3967    -3789    -3661    -3592    -3559    -3592 
   -3711    -3928    -4255    -4650    -5047    -5356    -5497    -5476 
   -5374    -5285    -5297    -5433    -5645    -5805    -5810    -5648 
   -5312    -4814    -4205    -3458    -2569    -1698    -1004     -526 
    -263     -135      -72     -129     -375     -788    -1285    -1746 
   -2092    -2336    -2560    -2876    -3339    -3924    -4568    -5202 
   -5757    -6210    -6517    -6664    -6681    -6594    -6444    -6251 
   -6027    -5813    -5645    -5549    -5541    -5559    -5486    -5285 
   -5027    -4830    -4723    -4671    -4653    -4698    -4833    -5053 
   -5327    -5647    -5994    -6313    -6564    -6760    -6967    -7242 
   -7588    -7925    -8141    -8162    -7989    -7688    -7302    -6852 
   -6300    -5623    -4911    -4276    -3730    -3218    -2698    -2191 
   -1776    -1486    -1300    -1182    -1094    -1057    -1117    -1333 
   -1696    -2093    -2478    -2886    -3283    -3608    -3848    -4025 
   -4183    -4305    -4340    -4327    -4314    -4301    -4284    -4240 
   -4148    -4009    -3873    -3847    -3939    -4014    -3981    -3832 
   -3619    -3407    -3252    -3202    -3275    -3462    -3723    -3994 
   -4238    -4495    -4801    -5128    -5402    -5594    -5729    -5844 
   -5931    -5946    -5841    -5622    -5355    -5113    -4932    -4772 
   -4606    -4464    -4368    -4332    -4372    -4467    -4563    -4634 
   -4706    -4812    -4949    -5120    -5339    -5571    -5760    -5846 
   -5807    -5671    -5478    -5297    -5212    -5232    -5302    -5370 
   -5408    -5424    -5431    -5390    -5254    -5008    -4680    -4309 
   -3956    -3696    -3539    -3451    -3407    -3395    -3407    -3485 
   -3647    -3848    -4043    -4232    -4407    -4588    -4833    -5144 
   -5481    -5776    -5934    -5918    -5764    -5526    -5279    -5117 
   -5053    -5007    -4918    -4768    -4567    -4378    -4238    -4125 
   -3977    -3761    -3542    -3403    -3338    -3292    -3202    -3033 
   -2808    -2560    -2315    -2151    -2163    -2343    -2633    -2999 
   -3348    -3580    -3693    -3723    -3697    -3651    -3607    -3569 
   -3553    -3615    -3788    -3993    -4162    -4274    -4349    -4441 
   -4591    -4820    -5108    -5386    -5609    -5784    -5957    -6131 
   -6262    -6370    -6512    -6713    -6940    -7117    -7218    -7264 
   -7254    -7198    -7089    -6957    -6874    -6859    -6918    -7042 
   -7207    -7385    -7503    -7522    -7452    -7277    -7034    -6801 
   -6606    -6450    -6293    -6114    -5896    -5633    -5362    -5097 
   -4837    -4610    -4409    -4205    -3998    -3782    -3573    -3397 
   -3311    -3391    -3649    -4005    -4309    -4440    -4405    -4266 
   -4045    -3790    -3561    -3396    -3329    -3342    -3380    -3391 
   -3366    -3343    -3341    -3341    -3314    -3213    -3064    -2948 
   -2921    -3001    -3175    -3369    -3522    -3591    -3599    -3599 
   -3591    -3523    -3322    -3005    -2697    -2494    -2425    -2447 
   -2492    -2570    -2740    -3017    -3335    -3631    -3910    -4192 
   -4472    -4725    -4932    -5143    -5397    -5674    -5942    -6151 
   -6285    -6381    -6431    -6417    -6343    -6239    -6174    -6189 
   -6268    -6340    -6334    -6237    -6060    -5819    -5593    -5463 
   -5471    -5599    -5813    -6103    -6465    -6868    -7236    -7469 
   -7541    -7491    -7371    -7227    -7103    -7037    -7048    -7105 
   -7164    -7191    -7155    -7056    -6912    -6739    -6577    -6455 
   -6370    -6266    -6093    -5852    -5529    -5119    -4650    -4139 
   -3603    -3067    -2565    -2158    -1831    -1539    -1255     -955 
    -654     -368      -89      124      225      255      263      297 
     367      450      531      622      706      743      746      731 
     625      351     -103     -680    -1264    -1790    -2258    -2674 
   -3056    -3396    -3704    -4041    -4417    -4779    -5058    -5228 
   -5352    -5487    -5660    -5911    -6218    -6573    -6997    -7461 
   -7912    -8275    -8502    -8635    -8712    -8752    -8784    -8822 
   -8880    -8914    -8865    -8772    -8687    -8650    -8696    -8787 
   -8876    -8914    -8860    -8766    -8687    -8595    -8486    -8360 
   -8208    -8054    -7940    -7846    -7722    -7561    -7368    -7171 
   -6998    -6820    -6597    -6308    -5921    -5425    -4854    -4261 
   -3694    -3187    -2755    -2374    -2019    -1707    -1444    -1201 
    -981     -785     -630     -545     -517     -495     -472     -480 
    -542     -637     -702     -699     -630     -532     -464     -464 
    -553     -762    -1088    -1456    -1813    -2118    -2299    -2323 
   -2246    -2149    -2076    -2064    -2147    -2305    -2509    -2737 
   -2961    -3184    -3392    -3537    -3636    -3775    -3991    -4247 
   -4463    -4588    -4641    -4666    -4706    -4785    -4930    -5162 
   -5509    -5971    -6489    -6990    -7458    -7890    -8263    -8568 
   -8783    -8907    -9032    -9251    -9562    -9899   -10185   -10396 
  -10527   -10550   -10415   -10080    -9583    -9047    -8587    -8233 
   -7973    -7842    -7852    -7943    -8050    -8121    -8104    -7996 
   -7789    -7461    -7017    -6473    -5880    -5313    -4799    -4329 
   -3906    -3572    -3354    -3256    -3271    -3327    -3314    -3186 
   -2928    -2525    -2020    -1506    -1060     -734     -530     -417 
    -368     -403     -535     -733     -957    -1163    -1306    -1408 
   -1516    -1644    -1825    -2095    -2415    -2743    -3067    -3353 
   -3593    -3807    -4003    -4190    -4327    -4371    -4342    -4293 
   -4245    -4217    -4205    -4210    -4284    -4487    -4797    -5138 
   -5440    -5691    -5900    -6093    -6297    -6504    -6686    -6820 
   -6902    -6993    -7127    -7275    -7457    -7700    -7952    -8156 
   -8286    -8336    -8295    -8154    -7893    -7530    -7114    -6713 
   -6381    -6166    -6103    -6176    -6342    -6561    -6763    -6881 
   -6910    -6867    -6754    -6574    -6323    -6006    -5691    -5460 
   -5355    -5350    -5397    -5448    -5463    -5433    -5364    -5256 
   -5130    -5001    -4828    -4579    -4283    -4017    -3912    -4036 
   -4324    -4665    -5000    -5268    -5406    -5373    -5169    -4833 
   -4437    -4043    -3651    -3223    -2752    -2258    -1760    -1282 
    -832     -425     -129       22      101      144      147       87 
     -89     -410     -831    -1289    -1737    -2146    -2515    -2875 
   -3250    -3634    -4016    -4415    -4870    -5382    -5918    -6439 
   -6921    -7354    -7705    -7915    -7973    -7954    -7936    -7950 
   -7983    -8017    -8033    -8037    -8051    -8093    -8171    -8271 
   -8336    -8324    -8228    -8024    -7744    -7496    -7323    -7192 
   -7076    -6952    -6814    -6737    -6787    -6909    -7006    -7052 
   -7091    -7153    -7211    -7198    -7049    -6785    -6497    -6201 
   -5872    -5514    -5143    -4799    -4487    -4158    -3792    -3418 
   -3044    -2683    -2373    -2147    -2003    -1877    -1752    -1642 
   -1539    -1428    -1341    -1308    -1324    -1358    -1378    -1356 
   -1324    -1347    -1441    -1611    -1900    -2331    -2882    -3483 
   -4043    -4522    -4916    -5219    -5447    -5683    -5981    -6285 
   -6485    -6563    -6602    -6642    -6650    -6592    -6484    -6416 
   -6470    -6643    -6875    -7080    -7165    -7088    -6859    -6488 
   -5984    -5416    -4868    -4367    -3946    -3712    -3734    -3962 
   -4306    -4680    -4986    -5159    -5150    -4951    -4648    -4352 
   -4097    -3879    -3705    -3537    -3334    -3121    -2934    -2801 
   -2710    -2632    -2565    -2571    -2671    -2803    -2895    -2933 
   -2928    -2929    -3055    -3407    -3959    -4606    -5268    -5880 
   -6370    -6702    -6928    -7140    -7384    -7627    -7773    -7782 
   -7722    -7668    -7651    -7662    -7646    -7523    -7233    -6739 
   -6043    -5238    -4434    -3655    -2879    -2165    -1587    -1143 
    -785     -463     -187      -70     -182     -459     -784    -1081 
   -1278    -1323    -1190     -855     -332      265      789     1155 
    1316     1305     1254     1216     1133      981      777      521 
     174     -306     -946    -1703    -2488    -3234    -3905    -4499 
   -5051    -5590    -6123    -6650    -7207    -7884    -8671    -9468 
  -10201   -10755   -11025   -11072   -11039   -10925   -10648   -10260 
   -9877    -9497    -9057    -8553    -7974    -7335    -6660    -5931 
   -5223    -4689    -4380    -4225    -4159    -4183    -4320    -4577 
   -4955    -5422    -5910    -6346    -6686    -6901    -6963    -6874 
   -6711    -6624    -6744    -7106    -7618    -8151    -8598    -8923 
   -9144    -9251    -9174    -8830    -8185    -7314    -6389    -5568 
   -4901    -4341    -3835    -3380    -2937    -2444    -1953    -1601 
   -1521    -1823    -2508    -3472    -4577    -5676    -6605    -7218 
   -7435    -7261    -6802    -6265    -5791    -5427    -5188    -5032 
   -4857    -4548    -4072    -3483    -2816    -2121    -1479     -908 
    -411       10      375      656      762      623      232     -325 
    -896    -1351    -1658    -1878    -2102    -2354    -2586    -2817 
   -3083    -3339    -3499    -3526    -3504    -3566    -3750    -4063 
   -4507    -5022    -5552    -6022    -6323    -6478    -6617    -6841 
   -7203    -7712    -8321    -8935    -9463    -9856   -10119   -10341 
  -10660   -11107   -11551   -11877   -12035   -12015   -11840   -11514 
  -11024   -10399    -9702    -8995    -8355    -7827    -7365    -6851 
   -6173    -5266    -4105    -2774    -1501     -504      141      486 
     648      774      969     1262     1614     2010     2489     3071 
    3694     4263     4639     4665     4260     3426     2239      838 
    -695    -2304    -3875    -5271    -6350    -7018    -7302    -7271 
   -7013    -6675    -6386    -6183    -5957    -5518    -4779    -3800 
   -2740    -1752     -851       -5      785     1549     2335     3156 
    3987     4776     5413     5773     5790     5463     4887     4210 
    3508     2801     2142     1559     1009      406     -313    -1159 
   -2074    -2951    -3662    -4116    -4307    -4355    -4395    -4431 
   -4359    -4135    -3781    -3336    -2882    -2523    -2340    -2371 
   -2542    -2721    -2882    -3142    -3681    -4545    -5617    -6789 
   -8032    -9394   -10944   -12587   -14021   -14979   -15398   -15336 
  -14904   -14219   -13405   -12602   -11923   -11384   -10975   -10729 
  -10617   -10513   -10299    -9884    -9219    -8359    -7458    -6646 
   -5989    -5506    -5198    -4959    -4585    -4003    -3348    -2803 
   -2473    -2309    -2209    -2101    -1890    -1498     -972     -425 
      -2      160       56     -197     -471     -653     -719     -675 
    -457     -117      193      395      427      263      -41     -411 
    -734     -920    -1038    -1263    -1764    -2610    -3707    -4882 
   -5981    -6913    -7726    -8519    -9317   -10100   -10775   -11190 
  -11209   -10804   -10153    -9570    -9371    -9756   -10673   -11888 
  -13203   -14490   -15692   -16776   -17705   -18505   -19238   -19899 
  -20393   -20584   -20401   -19912   -19255   -18558   -17907   -17334 
  -16833   -16341   -15785   -15111   -14349   -13549   -12660   -11562 
  -10201    -8622    -6880    -5032    -3154    -1300      530     2313 
    3947     5335     6470     7342     7925     8293     8526     8594 
    8383     7803     6941     6048     5387     5139     5339     5954 
    6912     8077     9308    10469    11412    12075    12465    12603 
   12509    12112    11291    10112     8830     7726     6952     6345 
    5617     4604     3161     1317     -662    -2528    -4135    -5487 
   -6751    -8082    -9505   -10972   -12509   -14142   -15847   -17533 
  -18978   -20007   -20595   -20767   -20559   -19967   -18956   -17496 
  -15669   -13744   -11961   -10426    -9140    -8016    -7036    -6259 
   -5694    -5323    -5150    -5243    -5702    -6598    -7935    -9590 
  -11308   -12798   -13839   -14415   -14694   -14948   -15442   -16255 
  -17204   -18091   -18841   -19480   -20111   -20808   -21590   -22445 
  -23251   -23845   -24009   -23483   -22061   -19657   -16403   -12690 
   -8904    -5211    -1615     1845     5046     7819    10075    11838 
   13169    14150    14833    15206    15371    15565    15932    16440 
   17018    17563    17940    18111    18130    18038    17887    17780 
   17757    17659    17274    16453    15169    13591    11962    10436 
    9062     7799     6604     5436     4282     3231     2362     1593 
     754     -301    -1648    -3238    -4895    -6424    -7715    -8745 
   -9555   -10185   -10643   -10947   -11097   -11097   -11045   -11033 
  -11044   -10998   -10840   -10629   -10530   -10682   -11087   -11637 
  -12231   -12884   -13691   -14725   -15932   -17111   -18056   -18623 
  -18728   -18361   -17520   -16185   -14376   -12181    -9923    -7993 
   -6484    -5304    -4305    -3316    -2282    -1178       35     1260 
    2313     3105     3688     4195     4703     5152     5414     5371 
    4950     4152     3063     1849      751      -40     -538     -943 
   -1507    -2394    -3593    -4993    -6457    -7788    -8865    -9687 
  -10326   -10899   -11430   -11793   -11826   -11407   -10528    -9321 
   -7989    -6739    -5786    -5313    -5375    -5834    -6446    -6959 
   -7349    -7801    -8471    -9437   -10696   -12197   -13919   -15778 
  -17631   -19408   -21064   -22484   -23476   -23795   -23303   -22084 
  -20393   -18536   -16744   -15125   -13730   -12515   -11365   -10179 
   -8876    -7433    -5873    -4213    -2531     -989      225      978 
    1306     1298     1000      417     -487    -1601    -2720    -3763 
   -4796    -5911    -7091    -8213    -9169    -9911   -10432   -10708 
  -10682   -10296    -9522    -8479    -7433    -6632    -6120    -5772 
   -5489    -5204    -4788    -4124    -3206    -2116     -934      251 
    1304     2068     2432     2371     1858      816     -706    -2377 
   -3815    -4936    -5925    -6955    -8020    -8916    -9479    -9769 
   -9926   -10019   -10054    -9960    -9661    -9142    -8388    -7403 
   -6265    -5012    -3592    -2029     -473      870     1813     2290 
    2380     2236     2062     1977     1975     1975     1809     1344 
     599     -425    -1703    -3073    -4282    -5119    -5562    -5811 
   -6108    -6564    -7156    -7763    -8235    -8502    -8595    -8540 
   -8257    -7564    -6349    -4672    -2673     -545     1517     3399 
    5036     6351     7261     7704     7709     7465     7155     6810 
    6400     5902     5319     4660     3929     3160     2442     1859 
    1394      889      149     -913    -2261    -3781    -5310    -6675 
   -7735    -8380    -8591    -8430    -7992    -7429    -6903    -6517 
   -6300    -6238    -6370    -6795    -7547    -8503    -9388    -9957 
  -10161   -10114    -9975    -9876    -9891   -10062   -10400   -10836 
  -11203   -11319   -11132   -10719   -10169    -9533    -8834    -8106 
   -7393    -6717    -6076    -5443    -4768    -4006    -3150    -2224 
   -1347     -668     -164      380     1200     2389     3866     5440 
    6948     8239     9147     9607     9742     9795     9926    10102 
   10239    10345    10462    10563    10514    10176     9499     8557 
    7499     6393     5235     4068     2882     1624      261    -1291 
   -3099    -5131    -7340    -9670   -11989   -14100   -15854   -17271 
  -18391   -19126   -19392   -19236   -18848   -18455   -18142   -17813 
  -17400   -16949   -16499   -16008   -15361   -14440   -13223   -11769 
  -10156    -8444    -6711    -5088    -3754    -2872    -2520    -2641 
   -3133    -3873    -4687    -5448    -6097    -6613    -7036    -7449 
   -7913    -8368    -8648    -8637    -8368    -7950    -7484    -7006 
   -6475    -5806    -4954    -3950    -2852    -1776     -882     -283 
       5       31     -131     -399     -653     -767     -693     -495 
    -288     -207     -360     -772    -1435    -2366    -3527    -4787 
   -5972    -6993    -7943    -9007   -10262   -11665   -13120   -14496 
  -15608   -16282   -16433   -16119   -15549   -14995   -14624   -14443 
  -14378   -14357   -14335   -14265   -14100   -13895   -13776   -13814 
  -13927   -13903   -13559   -12872   -11940   -10963   -10108    -9369 
   -8703    -8158    -7755    -7431    -7084    -6623    -6014    -5270 
   -4383    -3317    -2072     -658      835     2180     3217     3974 
    4531     4996     5481     6087     6895     7888     8916     9813 
   10463    10785    10702    10227     9505     8702     7927     7273 
    6755     6269     5719     5074     4368     3694     3109     2644 
    2322     2116     1965     1800     1509     1005      319     -441 
   -1183    -1871    -2528    -3192    -3923    -4783    -5767    -6802 
   -7801    -8676    -9383    -9967   -10521   -11119   -11766   -12437 
  -13109   -13721   -14185   -14470   -14569   -14526   -14438   -14316 
  -14103   -13780   -13369   -12928   -12568   -12334   -12208   -12148 
  -12128   -12155   -12244   -12366   -12451   -12393   -12150   -11792 
  -11410   -11083   -10858   -10689   -10461   -10093    -9618    -9127 
   -8707    -8388    -8125    -7892    -7692    -7507    -7327    -7148 
   -6971    -6825    -6735    -6735    -6880    -7198    -7641    -8094 
   -8426    -8549    -8459    -8226    -7952    -7731    -7627    -7650 
   -7788    -7981    -8116    -8111    -7959    -7676    -7307    -6885 
   -6366    -5697    -4854    -3821    -2655    -1489     -391      641 
    1583     2463     3352     4232     5067     5805     6361     6739 
    6975     7071     7038     6868     6516     5958     5224     4417 
    3634     2909     2211     1476      693     -124    -1031    -2074 
   -3273    -4637    -6095    -7566    -9031   -10451   -11759   -12931 
  -13990   -14960   -15970   -17159   -18443   -19654   -20707   -21558 
  -22214   -22711   -23025   -23129   -22998   -22642   -22173   -21668 
  -21123   -20557   -19969   -19292   -18515   -17643   -16688   -15759 
  -15017   -14529   -14224   -13990   -13786   -13572   -13273   -12870 
  -12375   -11747   -11025   -10327    -9707    -9184    -8766    -8385 
