Origin Time       2016/04/16 01:25:00
Lat.              32.753
Long.             130.762
Depth. (km)       12
Mag.              7.3
Station Code      KOC009
Station Lat.      33.5742
Station Long.     133.1718
Station Height(m) 105
Record Time       2016/04/16 01:25:52
Sampling Freq(Hz) 100Hz
Duration Time(s)  106
Dir.              N-S
Scale Factor      7845(gal)/8223790
Max. Acc. (gal)   5.218
Last Correction   2016/04/16 01:25:53
Memo.             
[...]
    2848     2679     2582     2555     2560     2560     2536     2488 
    2444     2415     2380     2353     2384     2500     2663     2818 
    2918     2929     2835     2685     2554     2474     2435     2419 
    2442     2519     2616     2686     2713     2716     2706     2659 
    2548     2423     2362     2408     2546     2736     2915     3040 
    3098     3106     3103     3137     3219     3281     3267     3218 
    3200     3206     3213     3230     3267     3316     3341     3284 
    3146     2980     2837     2724     2636     2577     2542     2512 
    2496     2532     2631     2768     2899     2976     2986     2960 
    2933     2925     2936     2955     2963     2940     2880     2790 
    2701     2650     2647     2673     2714     2764     2828     2903 
    2947     2918     2810     2659     2544     2505     2535     2609 
    2700     2786     2844     2863     2860     2837     2794     2755 
    2752     2813     2925     3036     3100     3100     3046     2972 
    2899     2835     2795     2794     2824     2867     2913     2967 
    3041     3133     3221     3256     3229     3163     3080     2994 
    2901     2813     2768     2776     2797     2789     2752     2718 
    2709     2721     2756     2797     2835     2862     2878     2906 
    2986     3107     3200     3219     3190     3137     3060     2965 
    2901     2909     2982     3079     3160     3206     3219     3184 
    3069     2899     2752     2681     2694     2763     2841     2901 
    2937     2952     2955     2948     2898     2792     2675     2583 
    2529     2521     2558     2617     2668     2704     2736     2776 
    2830     2925     3063     3198     3283     3304     3280     3248 
    3245     3284     3379     3524     3673     3740     3670     3477 
    3257     3126     3119     3192     3279     3325     3308     3246 
    3180     3136     3121     3127     3133     3118     3086     3052 
    3026     3001     2979     2974     2970     2945     2903     2857 
    2817     2785     2751     2702     2648     2610     2598     2594 
    2609     2658     2710     2735     2740     2747     2776     2849 
    2947     3034     3088     3086     3030     2961     2914     2905 
    2940     2994     3025     3029     3033     3049     3061     3064 
    3060     3052     3040     3018     2976     2928     2907     2918 
    2941     2956     2953     2934     2894     2836     2775     2701 
    2589     2467     2405     2428     2504     2594     2677     2729 
    2743     2717     2641     2505     2334     2184     2118     2158 
    2273     2415     2560     2687     2770     2783     2728     2625 
    2500     2353     2212     2142     2187     2331     2521     2721 
    2929     3107     3194     3157     2997     2739     2446     2211 
    2107     2157     2338     2574     2763     2857     2855     2790 
    2702     2621     2586     2616     2687     2772     2868     2967 
    3028     3010     2910     2767     2633     2542     2497     2481 
    2447     2397     2363     2357     2389     2475     2573     2640 
    2686     2709     2690     2635     2589     2600     2664     2759 
    2860     2956     3051     3156     3253     3291     3241     3125 
    2988     2871     2790     2759     2781     2820     2822     2782 
    2729     2706     2733     2779     2805     2816     2813     2789 
    2755     2704     2633     2571     2539     2521     2501     2494 
    2548     2698     2920     3118     3177     3084     2929     2797 
    2752     2830     2971     3055     3011     2863     2668     2501 
    2425     2451     2539     2675     2874     3080     3206     3219 
    3152     3051     2938     2808     2694     2687     2832     3046 
    3191     3196     3084     2932     2820     2768     2759     2781 
    2832     2925     3034     3106     3109     3025     2875     2713 
    2597     2583     2705     2930     3180     3377     3483     3501 
    3461     3376     3250     3083     2882     2682     2552     2554 
    2677     2835     2944     2976     2940     2848     2693     2492 
    2343     2343     2494     2716     2894     2953     2926     2879 
    2843     2822     2817     2825     2841     2871     2913     2944 
    2938     2898     2849     2832     2863     2945     3038     3090 
    3099     3098     3111     3150     3213     3261     3245     3150 
    3001     2843     2732     2677     2616     2520     2440     2425 
    2461     2525     2619     2731     2825     2856     2813     2740 
    2718     2790     2930     3075     3171     3188     3123     2994 
    2809     2570     2327     2169     2151     2241     2331     2381 
    2447     2562     2668     2718     2714     2669     2623     2623 
    2666     2694     2679     2636     2593     2565     2584     2641 
    2686     2701     2745     2844     2945     3006     3052     3100 
    3113     3061     2955     2811     2687     2674     2785     2932 
    3036     3071     3019     2895     2766     2698     2736     2866 
    3003     3057     2984     2830     2688     2606     2533     2420 
    2276     2162     2126     2172     2285     2457     2646     2785 
    2820     2749     2627     2498     2384     2301     2327     2511 
    2736     2825     2744     2593     2475     2413     2359     2281 
    2193     2163     2241     2371     2481     2540     2562     2590 
    2646     2678     2660     2632     2631     2636     2600     2533 
    2493     2501     2558     2687     2867     2997     2988     2866 
    2774     2820     2937     3009     3021     2991     2917     2841 
    2820     2876     2994     3084     3060     2943     2837     2826 
    2889     2938     2915     2794     2610     2465     2405     2401 
    2423     2424     2380     2343     2346     2319     2231     2170 
    2193     2257     2304     2307     2288     2342     2533     2798 
    3006     3082     3011     2825     2621     2516     2542     2668 
    2863     3051     3121     3051     2921     2786     2681     2655 
    2705     2759     2791     2802     2785     2754     2739     2732 
    2718     2727     2806     2964     3134     3232     3208     3053 
    2805     2546     2369     2338     2450     2614     2754     2868 
    2995     3142     3250     3226     3036     2755     2515     2421 
    2477     2582     2641     2633     2620     2647     2702     2759 
    2776     2718     2608     2500     2407     2326     2289     2338 
    2490     2718     2949     3136     3261     3303     3246     3121 
    3009     2980     2986     2947     2905     2920     2975     3028 
    3068     3115     3167     3186     3157     3118     3105     3105 
    3094     3088     3113     3153     3171     3138     3073     3019 
    3021     3096     3223     3341     3388     3345     3241     3164 
    3180     3279     3393     3484     3555     3600     3584     3515 
    3450     3415     3399     3383     3342     3283     3245     3273 
    3377     3528     3657     3709     3699     3674     3640     3566 
    3462     3414     3496     3703     3937     4083     4110     4066 
    3964     3794     3599     3464     3411     3395     3388     3410 
    3451     3487     3488     3438     3381     3379     3403     3414 
    3449     3511     3511     3412     3284     3210     3202     3210 
    3173     3090     3009     2961     2980     3067     3180     3275 
    3322     3325     3316     3343     3407     3472     3485     3422 
    3303     3192     3133     3095     3063     3064     3087     3079 
    3056     3076     3153     3232     3272     3279     3289     3314 
    3334     3325     3288     3265     3287     3333     3384     3435 
    3480     3526     3573     3607     3626     3650     3676     3666 
    3580     3412     3241     3154     3175     3273     3403     3473 
    3416     3257     3080     2938     2853     2856     2965     3180 
    3445     3642     3689     3615     3515     3476     3534     3640 
    3663     3523     3284     3051     2889     2863     2991     3164 
    3226     3118     2918     2781     2775     2829     2841     2781 
    2647     2463     2305     2250     2297     2407     2521     2594 
    2616     2589     2508     2384     2251     2170     2180     2255 
    2347     2435     2520     2602     2677     2693     2593     2436 
    2338     2355     2457     2584     2695     2799     2914     3026 
    3088     3042     2891     2729     2629     2570     2497     2415 
    2359     2332     2311     2277     2231     2222     2274     2330 
    2328     2276     2189     2098     2062     2126     2270     2415 
    2504     2525     2488     2423     2376     2370     2419     2509 
    2592     2624     2625     2633     2623     2556     2482     2461 
    2493     2531     2550     2554     2562     2563     2508     2384 
    2253     2176     2169     2245     2423     2674     2907     3026 
    3009     2894     2716     2508     2346     2313     2417     2567 
    2656     2648     2582     2508     2451     2450     2533     2647 
    2693     2639     2548     2524     2573     2620     2633     2633 
    2648     2683     2710     2740     2809     2906     3002     3092 
    3171     3208     3207     3213     3234     3231     3175     3067 
    2945     2876     2899     2983     3059     3098     3103     3057 
    2921     2718     2550     2494     2579     2770     2983     3150 
    3227     3173     2986     2754     2575     2471     2427     2455 
    2540     2617     2648     2647     2628     2589     2516     2436 
    2411     2477     2606     2733     2806     2828     2820     2803 
    2794     2791     2790     2803     2856     2953     3079     3191 
    3260     3275     3211     3060     2853     2658     2543     2535 
    2574     2594     2581     2546     2496     2438     2396     2434 
    2570     2702     2718     2619     2478     2359     2297     2309 
    2384     2481     2551     2558     2500     2419     2359     2330 
    2303     2257     2189     2119     2098     2187     2354     2494 
    2539     2489     2389     2276     2138     1958     1760     1591 
    1474     1393     1350     1328     1298     1254     1236     1306 
    1486     1732     2001     2266     2471     2582     2579     2442 
    2215     1995     1841     1795     1900     2137     2409     2613 
    2697     2662     2555     2428     2316     2249     2276     2413 
    2609     2809     2992     3125     3149     3046     2863     2700 
    2648     2735     2911     3126     3349     3569     3757     3873 
    3892     3835     3757     3699     3661     3647     3669     3724 
    3798     3869     3902     3886     3850     3824     3815     3828 
    3851     3846     3785     3677     3538     3385     3235     3111 
    3028     2974     2909     2805     2666     2528     2434     2384 
    2338     2285     2226     2151     2053     1941     1813     1675 
    1567     1513     1514     1583     1721     1876     1987     2030 
    2041     2066     2121     2181     2223     2270     2342     2421 
    2533     2720     2986     3284     3534     3692     3784     3865 
    3951     4024     4072     4136     4251     4403     4541     4631 
    4689     4747     4827     4927     5035     5173     5336     5472 
    5549     5552     5472     5350     5251     5212     5231     5292 
    5377     5487     5623     5780     5923     5996     5968     5879 
    5780     5714     5721     5810     5926     6008     6062     6089 
    6049     5911     5715     5535     5406     5296     5146     4954 
    4766     4606     4444     4266     4093     3931     3776     3647 
    3584     3624     3724     3796     3788     3709     3591     3459 
    3334     3222     3119     3006     2863     2690     2516     2382 
    2292     2205     2093     1971     1873     1833     1865     1941 
    1999     2019     2020     1995     1934     1848     1749     1684 
    1696     1763     1852     1973     2134     2305     2450     2524 
    2500     2376     2195     2000     1826     1702     1625     1574 
    1556     1614     1764     1966     2170     2355     2516     2636 
    2720     2821     2975     3152     3319     3508     3751     4039 
    4322     4550     4712     4828     4907     4939     4926     4866 
    4757     4612     4473     4374     4291     4186     4029     3817 
    3585     3376     3183     2947     2636     2281     1949     1723 
    1637     1622     1617     1624     1644     1676     1723     1781 
    1833     1833     1763     1649     1524     1447     1503     1715 
    2046     2448     2867     3229     3462     3537     3459     3267 
    3038     2853     2743     2695     2673     2619     2515     2367 
    2200     2046     1948     1937     2018     2185     2415     2655 
    2851     2967     2986     2920     2817     2747     2763     2889 
    3099     3333     3542     3719     3854     3916     3913     3901 
    3935     4029     4162     4274     4313     4274     4163     3960 
    3645     3226     2727     2160     1556      994      552      291 
     217      263      338      394      378      236      -43     -405 
    -769    -1116    -1431    -1661    -1802    -1888    -1939    -1992 
   -2053    -2084    -2058    -1960    -1790    -1572    -1336    -1135 
   -1035    -1067    -1229    -1487    -1796    -2116    -2403    -2601 
   -2666    -2608    -2498    -2377    -2257    -2172    -2128    -2126 
   -2176    -2280    -2415    -2533    -2583    -2523    -2342    -2060 
   -1713    -1340     -980     -635     -286       62      392      680 
     886     1017     1131     1250     1372     1493     1602     1686 
    1734     1734     1696     1611     1462     1259     1035      823 
     672      594      560      550      552      544      514      446 
     348      263      224      255      372      552      762      989 
    1247     1574     1975     2423     2902     3388     3835     4178 
    4360     4380     4251     4001     3701     3420     3194     3065 
    3067     3169     3316     3433     3440     3308     3026     2605 
    2077     1507      973      537      255      163      253      492 
     831     1223     1606     1911     2085     2135     2138     2199 
    2378     2685     3067     3440     3766     4048     4276     4450 
    4595     4712     4770     4766     4729     4669     4600     4525 
    4421     4286     4137     3978     3784     3549     3306     3084 
    2903     2783     2739     2755     2791     2803     2754     2621 
    2423     2196     1948     1664     1397     1210     1113     1096 
    1152     1277     1457     1667     1863     2037     2185     2295 
    2362     2392     2407     2465     2596     2764     2894     2910 
    2785     2569     2330     2120     1973     1908     1949     2124 
    2403     2691     2907     2999     2933     2716     2394     2019 
    1660     1394     1246     1159     1069      955      837      727 
     660      666      766      962     1233     1541     1854     2155 
    2417     2623     2772     2870     2921     2955     3038     3232 
    3547     3920     4268     4540     4707     4760     4699     4550 
    4384     4284     4303     4433     4617     4801     4965     5112 
    5215     5209     5060     4792     4459     4126     3855     3678 
    3558     3427     3277     3129     3005     2938     2967     3095 
    3284     3489     3634     3643     3511     3303     3092     2943 
    2884     2882     2848     2709     2470     2177     1881     1603 
    1348     1119      893      672      499      429      498      669 
     838      912      845      646      378      160      137      372 
     807     1298     1690     1888     1899     1768     1526     1217 
     903      641      479      450      577      850     1227     1651 
    2038     2327     2496     2542     2492     2403     2331     2324 
    2419     2608     2847     3084     3258     3302     3207     3059 
    2960     2979     3148     3445     3801     4145     4437     4672 
    4872     5050     5182     5239     5221     5164     5124     5146 
    5256     5448     5694     5960     6205     6380     6443     6403 
    6277     6087     5854     5606     5371     5175     5050     5023 
    5101     5263     5462     5636     5721     5684     5529     5279 
    4966     4606     4245     3948     3763     3707     3757     3882 
    4068     4307     4548     4745     4870     4912     4877     4788 
    4685     4612     4599     4654     4784     4968     5131     5204 
    5171     5030     4765     4401     4005     3655     3419     3325 
    3358     3462     3578     3678     3740     3704     3507     3180 
    2836     2565     2416     2377     2384     2340     2193     1945 
    1634     1350     1188     1177     1262     1374     1447     1414 
    1246      963      641      326       27     -253     -503     -683 
    -749     -688     -526     -326     -152      -32       32       65 
      87      117      175      299      469      615      702      767 
     869     1050     1320     1645     1958     2203     2350     2367 
    2226     1941     1534     1034      500       13     -367     -610 
    -724     -739     -710     -710     -795     -987    -1274    -1597 
   -1904    -2160    -2328    -2374    -2285    -2057    -1719    -1329 
    -953     -652     -442     -257      -17      287      612      920 
    1193     1413     1587     1755     1960     2218     2532     2876 
    3179     3395     3528     3573     3526     3446     3412     3464 
    3562     3627     3582     3395     3086     2704     2295     1903 
    1594     1431     1437     1582     1767     1894     1904     1798 
    1622     1464     1381     1397     1518     1729     1993     2251 
    2461     2639     2818     2997     3126     3179     3172     3129 
    3087     3090     3163     3304     3495     3694     3867     3974 
    3993     3948     3880     3838     3873     3997     4171     4357 
    4535     4708     4857     4927     4855     4608     4230     3838 
    3547     3414     3434     3568     3761     3965     4171     4378 
    4577     4758     4927     5065     5139     5128     5034     4892 
    4741     4588     4438     4309     4233     4238     4330     4471 
    4591     4645     4645     4622     4611     4652     4747     4884 
    5031     5134     5150     5085     4978     4874     4830     4887 
    5054     5310     5607     5886     6108     6251     6328     6384 
    6424     6420     6374     6289     6168     6031     5890     5746 
    5625     5548     5524     5533     5559     5585     5597     5571 
    5516     5439     5339     5242     5181     5174     5258     5462 
    5755     6033     6212     6285     6285     6219     6108     5958 
    5767     5532     5282     5060     4901     4808     4750     4685 
    4572     4391     4163     3928     3723     3584     3527     3555 
    3657     3776     3840     3823     3757     3684     3588     3439 
    3246     3069     2983     3018     3145     3302     3430     3481 
    3434     3333     3256     3246     3308     3420     3527     3599 
    3657     3731     3824     3932     4021     4032     3937     3767 
