Origin Time       2016/04/16 01:25:00
Lat.              32.753
Long.             130.762
Depth. (km)       12
Mag.              7.3
Station Code      KOC011
Station Lat.      33.3982
Station Long.     132.8962
Station Height(m) 500
Record Time       2016/04/16 01:25:44
Sampling Freq(Hz) 100Hz
Duration Time(s)  113
Dir.              E-W
Scale Factor      7845(gal)/8223790
Max. Acc. (gal)   8.489
Last Correction   2016/04/16 01:25:44
Memo.             
[...]
       4      -70     -167     -270     -375     -496     -653     -843 
   -1039    -1213    -1383    -1574    -1794    -2029    -2234    -2369 
   -2442    -2469    -2452    -2392    -2270    -2114    -1992    -1949 
   -1972    -2046    -2153    -2239    -2251    -2192    -2085    -1925 
   -1688    -1374    -1009     -648     -311      -14      206      328 
     382      430      504      581      619      607      553      457 
     322      172       44      -62     -148     -228     -344     -510 
    -693     -868    -1016    -1136    -1240    -1314    -1331    -1287 
   -1213    -1142    -1094    -1081    -1093    -1111    -1146    -1196 
   -1227    -1216    -1194    -1188    -1182    -1132    -1021     -874 
    -712     -573     -496     -461     -427     -378     -305     -217 
    -136      -78      -62      -75      -94     -129     -199     -295 
    -432     -622     -847    -1069    -1264    -1451    -1660    -1891 
   -2100    -2241    -2288    -2254    -2209    -2214    -2255    -2282 
   -2277    -2258    -2234    -2205    -2163    -2102    -2012    -1881 
   -1699    -1456    -1171     -897     -692     -592     -598     -670 
    -766     -857     -934    -1009    -1109    -1233    -1370    -1517 
   -1664    -1780    -1849    -1880    -1861    -1759    -1539    -1224 
    -884     -577     -333     -148       -8       87      112       39 
    -117     -315     -506     -673     -799     -893     -986    -1096 
   -1227    -1372    -1517    -1649    -1786    -1934    -2083    -2203 
   -2270    -2295    -2307    -2315    -2276    -2160    -1987    -1807 
   -1668    -1582    -1537    -1524    -1539    -1580    -1651    -1746 
   -1850    -1935    -1981    -2010    -2049    -2079    -2057    -1962 
   -1804    -1632    -1491    -1390    -1331    -1333    -1379    -1431 
   -1474    -1494    -1495    -1489    -1474    -1462    -1493    -1615 
   -1833    -2081    -2296    -2457    -2581    -2677    -2739    -2756 
   -2724    -2629    -2486    -2354    -2293    -2296    -2316    -2305 
   -2224    -2056    -1814    -1539    -1274    -1053     -903     -831 
    -800     -750     -661     -583     -565     -618     -710     -800 
    -880     -992    -1163    -1381    -1622    -1899    -2220    -2579 
   -2951    -3288    -3530    -3651    -3651    -3558    -3414    -3260 
   -3133    -3051    -3010    -3005    -3034    -3071    -3068    -3001 
   -2855    -2631    -2338    -1995    -1621    -1266     -999     -855 
    -823     -861     -938    -1042    -1155    -1240    -1254    -1189 
   -1071     -924     -799     -738     -730     -739     -738     -710 
    -676     -679     -727     -801     -872     -926     -982    -1058 
   -1142    -1230    -1347    -1507    -1707    -1933    -2170    -2386 
   -2539    -2624    -2668    -2697    -2706    -2675    -2592    -2466 
   -2309    -2135    -1954    -1738    -1476    -1201     -949     -737 
    -577     -463     -387     -342     -314     -303     -334     -406 
    -480     -533     -592     -664     -751     -868    -1013    -1183 
   -1381    -1582    -1755    -1878    -1930    -1895    -1796    -1669 
   -1518    -1363    -1232    -1123    -1020     -922     -849     -823 
    -837     -838     -815     -785     -772     -788     -820     -843 
    -872     -912     -938     -924     -870     -792     -704     -625 
    -579     -584     -614     -629     -596     -484     -288      -58 
     140      274      338      341      274      155       28      -60 
     -99     -103      -97      -98      -99      -72       -8       60 
      95       63      -55     -252     -499     -756     -974    -1132 
   -1225    -1266    -1286    -1313    -1339    -1344    -1328    -1302 
   -1275    -1230    -1165    -1092    -1039    -1034    -1065    -1089 
   -1062     -987     -909     -861     -853     -895     -974    -1048 
   -1104    -1151    -1185    -1197    -1194    -1205    -1266    -1367 
   -1441    -1435    -1354    -1248    -1156    -1115    -1143    -1232 
   -1343    -1436    -1517    -1611    -1715    -1787    -1784    -1705 
   -1570    -1386    -1174     -967     -816     -739     -696     -618 
    -469     -270      -54      149      313      413      425      342 
     198       45      -91     -217     -341     -464     -573     -657 
    -731     -793     -818     -787     -718     -656     -621     -596 
    -560     -522     -502     -491     -463     -402     -318     -243 
    -197     -168     -126      -47       63      182      276      310 
     272      197      128       83       56       27      -45     -182 
    -363     -557     -754     -962    -1177    -1379    -1554    -1701 
   -1819    -1933    -2057    -2185    -2290    -2343    -2347    -2330 
   -2297    -2243    -2178    -2130    -2115    -2114    -2092    -2037 
   -1984    -1980    -2026    -2083    -2111    -2098    -2060    -2034 
   -2030    -2016    -1969    -1888    -1788    -1691    -1599    -1505 
   -1394    -1271    -1142    -1009     -897     -816     -750     -687 
    -654     -680     -766     -886     -999    -1089    -1166    -1230 
   -1297    -1393    -1530    -1701    -1868    -1961    -1923    -1772 
   -1564    -1337    -1098     -851     -626     -459     -348     -251 
    -118       62      257      386      378      225      -31     -348 
    -687    -1038    -1391    -1710    -1991    -2267    -2529    -2717 
   -2795    -2776    -2688    -2584    -2519    -2497    -2498    -2502 
   -2500    -2471    -2384    -2227    -2023    -1802    -1598    -1441 
   -1328    -1225    -1120    -1031     -977     -972    -1032    -1132 
   -1177    -1098     -924     -743     -622     -566     -569     -635 
    -756     -890     -993    -1048    -1080    -1131    -1228    -1341 
   -1421    -1453    -1462    -1452    -1431    -1402    -1352    -1286 
   -1230    -1206    -1194    -1146    -1034     -897     -799     -753 
    -711     -648     -594     -591     -634     -689     -750     -830 
    -924    -1013    -1102    -1220    -1386    -1613    -1885    -2160 
   -2407    -2628    -2818    -2940    -2953    -2875    -2778    -2701 
   -2619    -2497    -2342    -2188    -2042    -1890    -1728    -1559 
   -1386    -1206    -1000     -773     -594     -510     -504     -565 
    -668     -758     -805     -823     -845     -903    -1020    -1185 
   -1374    -1554    -1705    -1826    -1927    -2006    -2084    -2180 
   -2269    -2328    -2363    -2403    -2442    -2471    -2473    -2417 
   -2295    -2154    -2045    -1927    -1728    -1463    -1223    -1060 
    -970     -950    -1024    -1183    -1359    -1474    -1482    -1386 
   -1223    -1039     -869     -699     -533     -388     -272     -199 
    -153      -95       -5       56       11     -156     -379     -594 
    -800    -1008    -1233    -1533    -1912    -2280    -2570    -2808 
   -3019    -3183    -3264    -3245    -3173    -3156    -3223    -3319 
   -3377    -3357    -3246    -3079    -2922    -2820    -2779    -2758 
   -2704    -2651    -2675    -2739    -2755    -2690    -2558    -2412 
   -2301    -2200    -2061    -1896    -1733    -1603    -1540    -1494 
   -1386    -1210    -1008     -823     -715     -715     -824    -1005 
   -1212    -1404    -1570    -1725    -1903    -2115    -2332    -2531 
   -2697    -2818    -2876    -2849    -2744    -2609    -2516    -2500 
   -2539    -2632    -2797    -2967    -3030    -2965    -2833    -2675 
   -2493    -2284    -2114    -2097    -2288    -2597    -2851    -2951 
   -2924    -2818    -2651    -2438    -2208    -2003    -1842    -1742 
   -1733    -1792    -1858    -1899    -1935    -2022    -2162    -2289 
   -2363    -2400    -2407    -2363    -2274    -2173    -2070    -1944 
   -1791    -1653    -1576    -1559    -1533    -1418    -1213     -990 
    -807     -650     -467     -252      -74       13        5      -63 
    -126     -160     -207     -307     -454     -592     -677     -731 
    -757     -737     -707     -719     -788     -888     -978    -1059 
   -1151    -1271    -1453    -1699    -1939    -2115    -2215    -2286 
   -2365    -2455    -2558    -2671    -2763    -2779    -2691    -2517 
   -2326    -2212    -2212    -2276    -2317    -2290    -2188    -1984 
   -1686    -1398    -1229    -1167    -1148    -1146    -1140    -1117 
   -1115    -1154    -1178    -1128    -1030     -957     -943     -963 
    -999    -1043    -1089    -1167    -1323    -1503    -1634    -1707 
   -1732    -1676    -1543    -1398    -1298    -1242    -1197    -1127 
   -1026     -927     -849     -777     -691     -599     -557     -588 
    -661     -762     -922    -1120    -1289    -1422    -1586    -1806 
   -2053    -2270    -2428    -2556    -2736    -3018    -3346    -3588 
   -3685    -3676    -3595    -3431    -3171    -2840    -2497    -2155 
   -1806    -1457    -1109     -749     -399      -90      190      461 
     724      957     1112     1179     1202     1235     1304     1383 
    1402     1304     1124      947      823      772      797      874 
     977     1070     1125     1151     1163     1171     1198     1235 
    1217     1100      862      522      149     -199     -526     -830 
   -1086    -1282    -1457    -1672    -1929    -2188    -2412    -2563 
   -2584    -2457    -2239    -2019    -1813    -1598    -1355    -1043 
    -665     -289        4      174      211      122      -83     -376 
    -687     -936    -1096    -1185    -1256    -1339    -1440    -1539 
   -1602    -1615    -1576    -1485    -1358    -1237    -1140    -1020 
    -820     -552     -252       29      207      210       37     -257 
    -588     -895    -1188    -1470    -1728    -1995    -2328    -2720 
   -3100    -3416    -3669    -3898    -4133    -4363    -4534    -4606 
   -4588    -4490    -4307    -4055    -3782    -3539    -3322    -3065 
   -2714    -2247    -1695    -1115     -522       78      649     1133 
    1476     1651     1672     1551     1306      996      680      394 
     147      -86     -338     -642    -1028    -1501    -2025    -2548 
   -3033    -3456    -3789    -3973    -3970    -3809    -3559    -3307 
   -3087    -2856    -2571    -2209    -1768    -1305     -854     -383 
     109      571      935     1173     1289     1317     1300     1243 
    1120      923      687      457      241        5     -263     -552 
    -828    -1077    -1296    -1476    -1603    -1671    -1703    -1746 
   -1819    -1883    -1846    -1632    -1236     -726     -186      325 
     785     1151     1358     1395     1305     1135      922      689 
     472      288      109     -121     -449     -874    -1336    -1784 
   -2207    -2579    -2895    -3167    -3381    -3515    -3561    -3532 
   -3437    -3264    -3022    -2729    -2381    -1962    -1460     -903 
    -399      -60       52      -29     -203     -378     -533     -707 
    -919    -1185    -1524    -1904    -2250    -2504    -2659    -2752 
   -2832    -2913    -2971    -2970    -2889    -2731    -2494    -2153 
   -1671    -1042     -307      422     1026     1486     1852     2165 
    2439     2700     2941     3154     3368     3599     3839     4028 
    4072     3925     3578     3017     2257     1386      503     -330 
   -1065    -1658    -2128    -2533    -2934    -3376    -3854    -4340 
   -4793    -5175    -5445    -5582    -5571    -5413    -5128    -4722 
   -4218    -3681    -3150    -2594    -1975    -1300     -635      -70 
     370      699      931     1050     1000      761      392       -2 
    -346     -602     -764     -862     -961    -1078    -1185    -1229 
   -1185    -1077     -999    -1026    -1156    -1321    -1490    -1651 
   -1783    -1881    -2011    -2239    -2573    -2965    -3330    -3569 
   -3666    -3692    -3730    -3842    -4069    -4414    -4834    -5266 
   -5625    -5818    -5780    -5501    -5013    -4411    -3798    -3252 
   -2835    -2574    -2400    -2215    -1962    -1606    -1148     -606 
      22      714     1374     1904     2292     2601     2909     3230 
    3497     3597     3431     3032     2601     2367     2377     2465 
    2439     2234     1921     1621     1452     1467     1610     1721 
    1660     1420     1081      756      556      522      549      473 
     214     -229     -831    -1545    -2288    -2947    -3469    -3925 
   -4436    -5069    -5793    -6502    -7089    -7495    -7727    -7859 
   -7969    -8086    -8212    -8329    -8382    -8286    -8020    -7628 
   -7188    -6739    -6307    -5921    -5593    -5263    -4845    -4298 
   -3650    -2940    -2215    -1537     -932     -403       37      394 
     693      961     1197     1354     1333     1039      433     -395 
   -1244    -1903    -2267    -2369    -2331    -2285    -2280    -2277 
   -2232    -2126    -1933    -1613    -1132     -453      429     1440 
    2447     3311     3917     4225     4256     4043     3662     3196 
    2695     2176     1664     1220      892      669      504      378 
     294      234      162       81       27       32      106      243 
     437      691      987     1282     1509     1599     1514     1286 
     950      484     -124     -828    -1517    -2029    -2236    -2126 
   -1821    -1514    -1374    -1435    -1603    -1761    -1833    -1807 
   -1734    -1665    -1636    -1675    -1822    -2130    -2620    -3238 
   -3890    -4519    -5093    -5552    -5798    -5732    -5285    -4513 
   -3592    -2678    -1807     -965     -186      449      873     1055 
    1015      739      162     -741    -1903    -3204    -4506    -5703 
   -6764    -7711    -8569    -9321    -9904   -10223   -10176    -9733 
   -8939    -7865    -6590    -5232    -3931    -2774    -1755     -823 
      43      847     1599     2277     2837     3241     3478     3576 
    3572     3473     3272     2995     2704     2485     2388     2369 
    2313     2158     1923     1645     1351     1096      938      895 
     940     1016     1080     1155     1356     1788     2446     3204 
    3855     4189     4083     3555     2786     2031     1466     1086 
     741      275     -328     -949    -1460    -1833    -2142    -2471 
   -2816    -3084    -3175    -3051    -2743    -2336    -1925    -1566 
   -1287    -1096     -939     -723     -406      -47      225      348 
     363      356      351      291      102     -256     -753    -1304 
   -1841    -2353    -2849    -3334    -3834    -4396    -5008    -5587 
   -6042    -6330    -6463    -6485    -6416    -6282    -6120    -5944 
   -5760    -5585    -5390    -5125    -4747    -4220    -3549    -2770 
   -1933    -1101     -378      183      623     1016     1408     1802 
    2149     2335     2289     2056     1748     1489     1381     1470 
    1701     1948     2098     2104     1966     1721     1424     1150 
     989     1011     1204     1485     1734     1849     1784     1580 
    1340     1182     1183     1302     1367     1233      877      370 
    -166     -615     -924    -1111    -1212    -1274    -1362    -1539 
   -1792    -2007    -2061    -1942    -1752    -1606    -1570    -1617 
   -1665    -1624    -1436    -1098     -625      -54      560     1204 
    1927     2786     3755     4710     5463     5859     5873     5582 
    5049     4325     3477     2555     1597      643     -279    -1159 
   -1984    -2762    -3492    -4178    -4796    -5286    -5599    -5697 
   -5543    -5123    -4452    -3576    -2573    -1533     -530      417 
    1354     2266     3041     3591     3920     4083     4120     4040 
    3867     3612     3230     2681     2003     1274      566      -47 
    -518     -847    -1109    -1426    -1876    -2415    -2918    -3288 
   -3510    -3640    -3757    -3920    -4171    -4491    -4799    -4989 
   -4993    -4797    -4446    -4027    -3624    -3279    -2983    -2721 
   -2481    -2267    -2101    -2010    -2007    -2104    -2304    -2567 
   -2839    -3111    -3412    -3728    -3982    -4068    -3920    -3558 
   -3100    -2677    -2363    -2155    -1975    -1725    -1339     -796 
    -129      566     1221     1821     2366     2847     3267     3605 
    3782     3693     3284     2574     1621      529     -581    -1634 
   -2575    -3391    -4104    -4715    -5194    -5567    -5933    -6363 
   -6845    -7285    -7588    -7720    -7700    -7543    -7264    -6903 
   -6531    -6188    -5875    -5587    -5327    -5113    -4959    -4831 
   -4684    -4521    -4371    -4263    -4243    -4318    -4463    -4658 
   -4915    -5209    -5439    -5481    -5317    -5062    -4878    -4881 
   -5078    -5393    -5745    -6077    -6323    -6477    -6579    -6621 
   -6538    -6295    -5900    -5406    -4889    -4352    -3761    -3133 
   -2524    -1995    -1598    -1328    -1112     -884     -611     -329 
    -139     -129     -302     -606    -1008    -1483    -2008    -2567 
   -3129    -3642    -4032    -4225    -4182    -3927    -3577    -3275 
   -3094    -3026    -3018    -3006    -2929    -2720    -2326    -1783 
   -1224     -801     -595     -606     -769     -973    -1120    -1185 
   -1233    -1328    -1498    -1779    -2187    -2643    -3056    -3419 
   -3763    -4051    -4217    -4260    -4253    -4251    -4268    -4315 
   -4407    -4542    -4708    -4866    -4938    -4893    -4801    -4738 
   -4702    -4645    -4531    -4367    -4185    -4016    -3882    -3770 
   -3634    -3454    -3254    -3059    -2879    -2721    -2587    -2467 
   -2371    -2319    -2324    -2371    -2427    -2450    -2425    -2346 
   -2203    -2010    -1777    -1499    -1185     -868     -556     -189 
     319      997     1775     2517     3073     3368     3451     3424 
    3327     3121     2745     2177     1462      673     -125     -916 
   -1705    -2489    -3250    -3954    -4568    -5084    -5472    -5707 
   -5779    -5703    -5503    -5229    -4950    -4691    -4406    -4032 
   -3557    -3007    -2413    -1792    -1135     -425      284      881 
    1323     1663     1980     2317     2683     3049     3338     3469 
    3430     3257     2945     2479     1896     1264      652      103 
    -382     -843    -1329    -1869    -2428    -2899    -3210    -3384 
   -3478    -3570    -3731    -3956    -4139    -4156    -3967    -3613 
   -3163    -2663    -2149    -1629    -1101     -569      -68      351 
     646      792      783      639      410      126     -195     -531 
    -864    -1197    -1539    -1880    -2200    -2479    -2731    -2988 
   -3284    -3639    -4051    -4484    -4878    -5192    -5416    -5552 
   -5595    -5547    -5436    -5297    -5124    -4887    -4568    -4168 
   -3696    -3208    -2783    -2466    -2234    -2046    -1900    -1790 
   -1642    -1402    -1117     -888     -757     -680     -598     -486 
    -368     -288     -240     -147       60      380      726      993 
    1148     1243     1327     1377     1331     1165      903      604 
     298       -4     -305     -645    -1038    -1412    -1702    -1915 
   -2058    -2111    -2081    -2020    -1965    -1885    -1711    -1413 
   -1026     -614     -217      131      388      511      513      432 
     301      171       85       49       59       94      144      207 
     294      399      506      584      625      646      656      646 
     627      623      657      735      826      872      850      780 
     669      515      301       16     -310     -649     -987    -1324 
   -1624    -1846    -1988    -2079    -2162    -2280    -2444    -2643 
