Origin Time       2016/04/16 01:25:00
Lat.              32.753
Long.             130.762
Depth. (km)       12
Mag.              7.3
Station Code      KOC017
Station Lat.      33.7691
Station Long.     133.6565
Station Height(m) 300
Record Time       2016/04/16 01:26:31
Sampling Freq(Hz) 100Hz
Duration Time(s)  75
Dir.              E-W
Scale Factor      7845(gal)/8223790
Max. Acc. (gal)   3.126
Last Correction   2016/04/16 01:26:31
Memo.             
[...]
   -5602    -5632    -5672    -5705    -5717    -5715    -5698    -5653 
   -5590    -5536    -5499    -5474    -5452    -5437    -5443    -5471 
   -5510    -5539    -5552    -5556    -5559    -5564    -5578    -5602 
   -5626    -5653    -5694    -5745    -5779    -5790    -5798    -5817 
   -5842    -5869    -5884    -5888    -5892    -5888    -5877    -5864 
   -5833    -5769    -5686    -5603    -5532    -5470    -5418    -5391 
   -5386    -5377    -5343    -5301    -5271    -5256    -5250    -5252 
   -5262    -5278    -5298    -5317    -5336    -5355    -5371    -5394 
   -5428    -5468    -5510    -5544    -5562    -5556    -5526    -5493 
   -5470    -5463    -5467    -5478    -5501    -5530    -5562    -5597 
   -5641    -5694    -5752    -5803    -5845    -5869    -5879    -5883 
   -5886    -5881    -5863    -5831    -5788    -5737    -5675    -5603 
   -5533    -5474    -5437    -5425    -5432    -5451    -5481    -5517 
   -5545    -5562    -5570    -5572    -5567    -5560    -5555    -5562 
   -5583    -5611    -5648    -5694    -5740    -5772    -5796    -5814 
   -5825    -5834    -5836    -5811    -5764    -5705    -5636    -5568 
   -5522    -5503    -5497    -5486    -5467    -5451    -5437    -5424 
   -5405    -5371    -5324    -5273    -5243    -5244    -5258    -5268 
   -5287    -5319    -5348    -5370    -5400    -5448    -5509    -5557 
   -5590    -5617    -5643    -5661    -5664    -5660    -5668    -5692 
   -5726    -5756    -5786    -5819    -5849    -5864    -5869    -5860 
   -5850    -5846    -5845    -5840    -5834    -5822    -5800    -5772 
   -5751    -5733    -5707    -5672    -5638    -5603    -5557    -5501 
   -5428    -5341    -5258    -5192    -5152    -5150    -5167    -5188 
   -5200    -5196    -5181    -5166    -5162    -5159    -5152    -5146 
   -5139    -5128    -5112    -5093    -5085    -5097    -5130    -5173 
   -5213    -5250    -5275    -5283    -5277    -5266    -5259    -5263 
   -5271    -5268    -5254    -5235    -5217    -5198    -5189    -5202 
   -5243    -5298    -5341    -5359    -5359    -5347    -5329    -5317 
   -5314    -5320    -5329    -5339    -5347    -5351    -5348    -5343 
   -5350    -5373    -5404    -5432    -5448    -5448    -5429    -5401 
   -5368    -5341    -5331    -5339    -5350    -5348    -5333    -5309 
   -5286    -5277    -5271    -5273    -5292    -5320    -5346    -5362 
   -5368    -5373    -5385    -5401    -5405    -5397    -5386    -5374 
   -5358    -5336    -5308    -5278    -5242    -5201    -5169    -5148 
   -5134    -5112    -5071    -5015    -4961    -4928    -4899    -4868 
   -4838    -4808    -4779    -4754    -4742    -4750    -4776    -4801 
   -4814    -4816    -4822    -4841    -4872    -4914    -4968    -5038 
   -5128    -5228    -5320    -5395    -5463    -5522    -5562    -5579 
   -5575    -5552    -5525    -5509    -5513    -5532    -5549    -5559 
   -5559    -5543    -5519    -5506    -5506    -5518    -5540    -5563 
   -5585    -5606    -5626    -5630    -5611    -5570    -5508    -5431 
   -5352    -5285    -5233    -5206    -5197    -5201    -5216    -5239 
   -5271    -5306    -5332    -5344    -5341    -5327    -5310    -5293 
   -5275    -5252    -5227    -5206    -5202    -5213    -5235    -5268 
   -5308    -5350    -5387    -5413    -5427    -5432    -5429    -5418 
   -5406    -5402    -5417    -5447    -5481    -5518    -5557    -5590 
   -5611    -5630    -5640    -5636    -5630    -5622    -5603    -5580 
   -5568    -5576    -5603    -5626    -5628    -5611    -5598    -5594 
   -5598    -5609    -5629    -5644    -5648    -5632    -5585    -5522 
   -5468    -5437    -5427    -5439    -5471    -5516    -5568    -5617 
   -5641    -5644    -5640    -5643    -5645    -5640    -5636    -5643 
   -5652    -5660    -5670    -5688    -5714    -5733    -5738    -5722 
   -5687    -5649    -5620    -5609    -5620    -5637    -5652    -5672 
   -5697    -5721    -5752    -5795    -5842    -5887    -5926    -5964 
   -6002    -6046    -6092    -6122    -6135    -6135    -6129    -6124 
   -6134    -6151    -6156    -6141    -6112    -6083    -6061    -6043 
   -6023    -6008    -6003    -6006    -6016    -6038    -6080    -6143 
   -6207    -6249    -6261    -6252    -6235    -6219    -6205    -6184 
   -6145    -6096    -6050    -6008    -5964    -5915    -5860    -5810 
   -5776    -5759    -5746    -5734    -5725    -5718    -5698    -5651 
   -5583    -5513    -5448    -5398    -5355    -5310    -5273    -5248 
   -5243    -5258    -5286    -5313    -5339    -5367    -5398    -5432 
   -5466    -5510    -5562    -5606    -5644    -5668    -5676    -5679 
   -5687    -5694    -5698    -5694    -5683    -5661    -5634    -5614 
   -5605    -5602    -5602    -5606    -5606    -5597    -5580    -5564 
   -5552    -5552    -5559    -5568    -5574    -5567    -5543    -5508 
   -5470    -5433    -5395    -5359    -5332    -5312    -5293    -5273 
   -5250    -5217    -5185    -5159    -5139    -5124    -5124    -5136 
   -5146    -5152    -5166    -5189    -5216    -5242    -5251    -5233 
   -5196    -5143    -5090    -5051    -5027    -5019    -5023    -5035 
   -5044    -5046    -5050    -5058    -5059    -5055    -5050    -5043 
   -5047    -5058    -5076    -5104    -5146    -5197    -5250    -5293 
   -5327    -5351    -5379    -5413    -5454    -5497    -5547    -5605 
   -5670    -5726    -5755    -5759    -5753    -5737    -5698    -5636 
   -5566    -5501    -5441    -5385    -5323    -5259    -5201    -5155 
   -5121    -5104    -5108    -5124    -5150    -5184    -5221    -5262 
   -5301    -5347    -5401    -5463    -5522    -5575    -5621    -5672 
   -5727    -5792    -5856    -5910    -5949    -5972    -5992    -6011 
   -6031    -6060    -6093    -6122    -6137    -6134    -6120    -6108 
   -6099    -6088    -6070    -6049    -6022    -5985    -5945    -5907 
   -5873    -5841    -5807    -5775    -5755    -5738    -5729    -5733 
   -5742    -5757    -5783    -5813    -5836    -5850    -5853    -5841 
   -5827    -5818    -5805    -5780    -5744    -5702    -5664    -5626 
   -5599    -5590    -5590    -5606    -5640    -5684    -5730    -5773 
   -5815    -5860    -5902    -5945    -5973    -5983    -5975    -5954 
   -5929    -5907    -5891    -5884    -5880    -5868    -5852    -5834 
   -5813    -5792    -5776    -5760    -5746    -5742    -5756    -5787 
   -5831    -5881    -5929    -5967    -5981    -5968    -5940    -5915 
   -5895    -5883    -5881    -5881    -5873    -5860    -5846    -5834 
   -5818    -5798    -5780    -5756    -5721    -5671    -5605    -5540 
   -5489    -5448    -5424    -5409    -5393    -5375    -5366    -5360 
   -5355    -5354    -5350    -5343    -5346    -5355    -5370    -5387 
   -5386    -5360    -5319    -5271    -5227    -5184    -5140    -5096 
   -5046    -4986    -4934    -4901    -4889    -4887    -4885    -4887 
   -4892    -4900    -4918    -4945    -4978    -5023    -5080    -5144 
   -5215    -5282    -5335    -5373    -5393    -5402    -5404    -5400 
   -5394    -5393    -5393    -5385    -5366    -5339    -5321    -5319 
   -5324    -5324    -5320    -5316    -5310    -5301    -5300    -5310 
   -5325    -5341    -5356    -5368    -5377    -5386    -5390    -5387 
   -5379    -5371    -5375    -5386    -5395    -5401    -5405    -5412 
   -5418    -5421    -5414    -5391    -5352    -5308    -5271    -5238 
   -5211    -5194    -5184    -5186    -5202    -5221    -5233    -5231 
   -5211    -5182    -5150    -5121    -5109    -5105    -5103    -5104 
   -5115    -5135    -5162    -5194    -5235    -5286    -5333    -5370 
   -5398    -5420    -5436    -5452    -5463    -5467    -5472    -5475 
   -5476    -5481    -5494    -5508    -5517    -5533    -5559    -5598 
   -5643    -5682    -5711    -5726    -5729    -5725    -5715    -5702 
   -5691    -5682    -5676    -5672    -5653    -5613    -5560    -5509 
   -5462    -5421    -5389    -5363    -5341    -5324    -5304    -5277 
   -5260    -5262    -5282    -5321    -5360    -5393    -5424    -5448 
   -5463    -5478    -5494    -5518    -5552    -5590    -5629    -5656 
   -5674    -5679    -5680    -5670    -5636    -5584    -5530    -5478 
   -5431    -5390    -5355    -5320    -5282    -5235    -5173    -5103 
   -5038    -4986    -4950    -4923    -4900    -4878    -4854    -4823 
   -4787    -4745    -4702    -4657    -4612    -4577    -4558    -4550 
   -4548    -4544    -4530    -4511    -4490    -4468    -4445    -4428 
   -4417    -4405    -4395    -4384    -4364    -4340    -4310    -4280 
   -4263    -4270    -4295    -4338    -4399    -4477    -4577    -4689 
   -4808    -4932    -5047    -5144    -5224    -5292    -5352    -5409 
   -5458    -5495    -5521    -5549    -5575    -5582    -5572    -5551 
   -5528    -5513    -5499    -5481    -5464    -5443    -5412    -5377 
   -5346    -5316    -5289    -5271    -5260    -5251    -5248    -5263 
   -5294    -5331    -5363    -5394    -5420    -5432    -5432    -5425 
   -5413    -5398    -5383    -5370    -5360    -5350    -5333    -5329 
   -5343    -5367    -5394    -5416    -5429    -5443    -5468    -5505 
   -5563    -5644    -5738    -5834    -5923    -6000    -6057    -6096 
   -6120    -6134    -6146    -6157    -6161    -6164    -6170    -6183 
   -6193    -6195    -6184    -6161    -6134    -6112    -6099    -6091 
   -6089    -6093    -6104    -6114    -6119    -6115    -6096    -6064 
   -6034    -6014    -5999    -5985    -5975    -5964    -5953    -5937 
   -5910    -5872    -5833    -5802    -5780    -5760    -5746    -5749 
   -5764    -5790    -5822    -5850    -5871    -5883    -5884    -5883 
   -5887    -5892    -5900    -5910    -5915    -5921    -5931    -5948 
   -5971    -5998    -6029    -6054    -6069    -6079    -6088    -6093 
   -6089    -6072    -6038    -5995    -5962    -5944    -5931    -5918 
   -5899    -5879    -5857    -5827    -5782    -5715    -5640    -5566 
   -5489    -5413    -5350    -5312    -5294    -5287    -5282    -5273 
   -5266    -5268    -5285    -5310    -5337    -5367    -5400    -5432 
   -5458    -5481    -5498    -5516    -5539    -5571    -5609    -5656 
   -5713    -5763    -5810    -5854    -5890    -5907    -5911    -5910 
   -5902    -5887    -5868    -5850    -5837    -5821    -5798    -5772 
   -5736    -5686    -5634    -5589    -5555    -5540    -5549    -5576 
   -5609    -5643    -5671    -5692    -5701    -5697    -5684    -5671 
   -5659    -5660    -5678    -5717    -5772    -5840    -5914    -5989 
   -6062    -6137    -6214    -6288    -6349    -6396    -6427    -6448 
   -6455    -6451    -6431    -6400    -6366    -6318    -6246    -6150 
   -6037    -5906    -5760    -5602    -5451    -5320    -5216    -5139 
   -5074    -5019    -4974    -4936    -4903    -4882    -4874    -4870 
   -4858    -4837    -4810    -4777    -4739    -4706    -4679    -4645 
   -4612    -4587    -4568    -4560    -4568    -4594    -4623    -4662 
   -4712    -4772    -4823    -4858    -4878    -4891    -4899    -4896 
   -4881    -4855    -4818    -4772    -4727    -4685    -4648    -4611 
   -4577    -4545    -4504    -4459    -4411    -4363    -4318    -4280 
   -4243    -4197    -4136    -4047    -3935    -3815    -3700    -3599 
   -3520    -3468    -3454    -3477    -3526    -3588    -3659    -3742 
   -3827    -3901    -3964    -4024    -4074    -4118    -4159    -4199 
   -4252    -4337    -4460    -4611    -4777    -4953    -5139    -5332 
   -5525    -5710    -5880    -6033    -6170    -6293    -6408    -6523 
   -6631    -6736    -6836    -6932    -7028    -7123    -7218    -7302 
   -7372    -7430    -7479    -7520    -7560    -7588    -7592    -7568 
   -7518    -7446    -7365    -7285    -7213    -7152    -7106    -7061 
   -7001    -6921    -6832    -6735    -6629    -6525    -6427    -6336 
   -6259    -6208    -6180    -6166    -6166    -6178    -6192    -6214 
   -6243    -6268    -6289    -6315    -6336    -6359    -6392    -6438 
   -6493    -6556    -6620    -6675    -6717    -6737    -6741    -6731 
   -6708    -6673    -6625    -6574    -6515    -6440    -6353    -6262 
   -6185    -6123    -6073    -6033    -5996    -5964    -5940    -5915 
   -5883    -5842    -5800    -5752    -5697    -5634    -5566    -5499 
   -5437    -5386    -5348    -5316    -5277    -5225    -5151    -5059 
   -4962    -4866    -4780    -4702    -4627    -4554    -4472    -4367 
   -4251    -4132    -4020    -3925    -3850    -3794    -3754    -3719 
   -3688    -3670    -3676    -3709    -3767    -3852    -3954    -4058 
   -4162    -4260    -4345    -4415    -4464    -4490    -4496    -4484 
   -4445    -4379    -4299    -4218    -4140    -4072    -4014    -3965 
   -3923    -3882    -3838    -3796    -3766    -3747    -3738    -3740 
   -3750    -3765    -3789    -3813    -3827    -3824    -3812    -3793 
   -3771    -3757    -3757    -3781    -3835    -3910    -4001    -4105 
   -4213    -4310    -4392    -4463    -4519    -4558    -4584    -4606 
   -4630    -4654    -4683    -4707    -4719    -4714    -4691    -4652 
   -4595    -4523    -4441    -4351    -4256    -4158    -4066    -3993 
   -3944    -3923    -3921    -3936    -3969    -4016    -4082    -4175 
   -4293    -4423    -4573    -4742    -4916    -5086    -5250    -5406 
   -5562    -5710    -5850    -5991    -6129    -6266    -6403    -6540 
   -6683    -6836    -7003    -7187    -7368    -7541    -7707    -7863 
   -8005    -8127    -8228    -8321    -8414    -8510    -8598    -8676 
   -8738    -8776    -8780    -8748    -8677    -8575    -8464    -8352 
   -8243    -8141    -8047    -7952    -7865    -7789    -7732    -7695 
   -7680    -7685    -7695    -7697    -7703    -7712    -7726    -7747 
   -7774    -7796    -7804    -7788    -7740    -7669    -7581    -7491 
   -7408    -7333    -7269    -7210    -7141    -7060    -6968    -6859 
   -6727    -6571    -6389    -6185    -5977    -5767    -5548    -5335 
   -5131    -4926    -4716    -4514    -4317    -4113    -3908    -3705 
   -3501    -3310    -3154    -3044    -2986    -2983    -3024    -3103 
   -3206    -3314    -3419    -3511    -3599    -3677    -3746    -3807 
   -3861    -3910    -3947    -3970    -3971    -3951    -3906    -3838 
   -3753    -3661    -3572    -3497    -3447    -3424    -3438    -3487 
   -3569    -3678    -3797    -3917    -4036    -4144    -4241    -4345 
   -4457    -4568    -4681    -4788    -4885    -4970    -5043    -5105 
   -5158    -5204    -5239    -5266    -5292    -5313    -5327    -5328 
   -5314    -5281    -5225    -5131    -5004    -4864    -4723    -4595 
   -4491    -4411    -4356    -4318    -4280    -4233    -4178    -4116 
   -4055    -4000    -3951    -3925    -3925    -3951    -3998    -4063 
   -4129    -4195    -4260    -4314    -4363    -4411    -4452    -4486 
   -4514    -4525    -4521    -4513    -4506    -4504    -4517    -4531 
   -4545    -4563    -4580    -4602    -4633    -4679    -4735    -4792 
   -4841    -4885    -4935    -4999    -5082    -5179    -5283    -5397 
   -5518    -5641    -5763    -5884    -6021    -6165    -6309    -6447 
   -6566    -6666    -6758    -6843    -6924    -7002    -7082    -7157 
   -7221    -7258    -7268    -7253    -7219    -7180    -7148    -7132 
   -7137    -7157    -7194    -7252    -7321    -7399    -7489    -7581 
   -7662    -7720    -7753    -7761    -7744    -7709    -7659    -7596 
   -7527    -7464    -7415    -7376    -7348    -7333    -7335    -7356 
   -7398    -7462    -7547    -7649    -7755    -7844    -7911    -7959 
   -7983    -7979    -7952    -7901    -7827    -7735    -7627    -7506 
   -7384    -7275    -7177    -7096    -7033    -6975    -6921    -6870 
   -6815    -6762    -6714    -6669    -6621    -6579    -6542    -6509 
   -6490    -6489    -6501    -6525    -6558    -6600    -6646    -6690 
   -6736    -6795    -6879    -6982    -7098    -7221    -7333    -7426 
   -7497    -7545    -7577    -7609    -7642    -7681    -7728    -7776 
   -7816    -7838    -7834    -7807    -7761    -7704    -7627    -7528 
   -7414    -7283    -7145    -7003    -6859    -6718    -6582    -6440 
   -6285    -6110    -5919    -5719    -5522    -5339    -5175    -5040 
   -4939    -4861    -4793    -4738    -4689    -4642    -4588    -4530 
   -4467    -4402    -4347    -4299    -4260    -4228    -4209    -4195 
   -4178    -4147    -4095    -4027    -3954    -3892    -3846    -3813 
   -3790    -3769    -3744    -3716    -3678    -3636    -3597    -3573 
   -3568    -3574    -3584    -3586    -3574    -3544    -3499    -3449 
   -3400    -3358    -3325    -3300    -3284    -3273    -3260    -3252 
   -3245    -3238    -3232    -3232    -3230    -3227    -3234    -3258 
   -3299    -3353    -3420    -3501    -3588    -3680    -3770    -3859 
   -3946    -4039    -4143    -4252    -4357    -4453    -4537    -4611 
   -4687    -4772    -4861    -4947    -5023    -5078    -5108    -5115 
   -5101    -5077    -5044    -5001    -4947    -4897    -4862    -4835 
   -4818    -4814    -4818    -4823    -4824    -4812    -4779    -4725 
   -4660    -4595    -4535    -4487    -4459    -4452    -4461    -4484 
   -4515    -4550    -4594    -4652    -4726    -4822    -4941    -5085 
   -5244    -5409    -5571    -5718    -5856    -5987    -6099    -6188 
   -6255    -6313    -6372    -6436    -6516    -6609    -6705    -6798 
   -6883    -6951    -7003    -7042    -7061    -7067    -7060    -7052 
   -7047    -7041    -7030    -7009    -6971    -6917    -6845    -6760 
   -6677    -6602    -6546    -6504    -6471    -6455    -6459    -6474 
   -6498    -6528    -6556    -6574    -6574    -6561    -6543    -6531 
   -6531    -6540    -6551    -6555    -6548    -6531    -6502    -6462 
   -6416    -6365    -6318    -6281    -6254    -6235    -6218    -6195 
   -6169    -6147    -6130    -6118    -6108    -6107    -6115    -6130 
   -6154    -6191    -6226    -6254    -6269    -6269    -6259    -6251 
   -6254    -6272    -6307    -6359    -6424    -6486    -6534    -6563 
   -6563    -6525    -6457    -6367    -6258    -6131    -5985    -5825 
   -5660    -5495    -5332    -5178    -5036    -4909    -4792    -4684 
   -4577    -4464    -4351    -4243    -4149    -4083    -4047    -4033 
   -4040    -4063    -4095    -4133    -4178    -4225    -4280    -4341 
   -4409    -4482    -4568    -4680    -4818    -4978    -5159    -5358 
   -5568    -5780    -5989    -6199    -6403    -6601    -6794    -6975 
   -7136    -7277    -7399    -7497    -7576    -7634    -7665    -7662 
   -7634    -7586    -7523    -7454    -7384    -7307    -7233    -7160 
   -7091    -7026    -6975    -6933    -6895    -6859    -6835    -6812 
   -6789    -6764    -6735    -6704    -6678    -6659    -6652    -6652 
   -6655    -6663    -6671    -6675    -6678    -6687    -6706    -6739 
   -6787    -6847    -6912    -6972    -7025    -7072    -7110    -7138 
   -7165    -7190    -7207    -7221    -7230    -7236    -7238    -7225 
   -7198    -7163    -7117    -7060    -6999    -6940    -6883    -6829 
   -6777    -6723    -6658    -6582    -6493    -6385    -6258    -6114 
   -5953    -5779    -5598    -5420    -5250    -5097    -4958    -4835 
   -4731    -4641    -4561    -4484    -4415    -4357    -4309    -4263 
   -4225    -4185    -4140    -4091    -4045    -4014    -4001    -3998 
   -4002    -4021    -4050    -4081    -4113    -4140    -4163    -4175 
