Origin Time       2016/04/16 01:25:00
Lat.              32.753
Long.             130.762
Depth. (km)       12
Mag.              7.3
Station Code      KOC012
Station Lat.      33.1967
Station Long.     132.9758
Station Height(m) 150
Record Time       2016/04/16 01:25:45
Sampling Freq(Hz) 100Hz
Duration Time(s)  103
Dir.              E-W
Scale Factor      7845(gal)/8223790
Max. Acc. (gal)   11.937
Last Correction   2016/04/16 01:25:46
Memo.             
[...]
     598      622      607      549      513      596      730      830 
     973     1167     1331     1478     1594     1618     1647     1771 
    1904     1975     1969     1859     1721     1628     1570     1593 
    1703     1796     1887     1992     1992     1846     1605     1267 
     859      471      174       -9     -124     -203     -230     -225 
    -244     -325     -464     -611     -706     -702     -566     -311 
      32      456      903     1289     1525     1554     1389     1138 
     949      913     1080     1453     1912     2293     2571     2740 
    2710     2527     2326     2062     1669     1282     1000      787 
     715      880     1151     1404     1656     1884     2015     2018 
    1878     1644     1422     1282     1242     1273     1328     1401 
    1494     1559     1552     1453     1266     1034      791      584 
     506      591      822     1215     1718     2193     2513     2621 
    2550     2338     2010     1676     1478     1422     1455     1548 
    1606     1553     1468     1451     1518     1649     1771     1871 
    1981     2007     1899     1760     1543     1196      908      788 
     787      938     1194     1394     1506     1537     1408     1101 
     737      464      333      265      238      328      508      684 
     808      846      799      777      890     1132     1447     1761 
    2030     2282     2512     2628     2631     2598     2550     2519 
    2551     2581     2502     2296     2001     1661     1329     1080 
     984     1100     1409     1772     2052     2199     2182     1966 
    1629     1316     1086      963      996     1166     1341     1416 
    1401     1324     1215     1094      912      653      400      184 
      82      214      532      973     1518     1966     2177     2219 
    2121     1954     1852     1826     1845     1925     2030     2098 
    2107     2042     1898     1676     1405     1151      946      796 
     751      877     1155     1462     1668     1726     1628     1439 
    1278     1179     1125     1174     1367     1645     1890     1981 
    1878     1567     1062      488      -32     -460     -692     -633 
    -325      131      654     1053     1142      923      471     -171 
    -810    -1169    -1173     -903     -390      326     1102     1804 
    2305     2484     2412     2267     2111     1969     1935     2052 
    2259     2461     2597     2648     2621     2565     2543     2515 
    2457     2452     2517     2523     2407     2214     1919     1478 
     951      467      159      116      279      518      773     1036 
    1233     1250     1053      731      440      311      340      411 
     456      529      722      965     1060      993      920      907 
     947     1094     1347     1606     1841     2014     2001     1790 
    1495     1148      793      581      577      741     1050     1422 
    1721     1917     2008     1949     1745     1429     1023      633 
     390      299      318      425      631      938     1250     1417 
    1449     1416     1294     1132     1013      884      715      535 
     360      310      445      603      702      788      862      981 
    1190     1366     1421     1410     1345     1181      945      733 
     616      583      660      905     1235     1552     1878     2123 
    2126     1938     1691     1431     1223     1102     1035     1026 
    1067     1081     1044      963      814      638      498      440 
     557      877     1281     1606     1717     1629     1522     1451 
    1259      874      387      -49     -251     -162       79      338 
     564      715      816      893      940      977      997      962 
     916      922      982     1101     1266     1455     1648     1788 
    1837     1802     1715     1610     1480     1278     1013      778 
     658      615      568      526      518      544      661      874 
    1121     1429     1814     2158     2384     2538     2612     2519 
    2278     1975     1626     1267      987      831      819     1000 
    1379     1863     2257     2411     2330     2057     1684     1394 
    1240     1158     1196     1363     1566     1795     2004     2014 
    1823     1584     1279      911      688      662      685      773 
    1021     1371     1696     1892     1846     1521     1053      629 
     363      286      357      532      789     1028     1146     1179 
    1202     1190     1107      974      815      650      540      553 
     685      900     1197     1524     1777     1910     1925     1850 
    1740     1618     1513     1459     1444     1440     1426     1370 
    1282     1244     1323     1460     1518     1453     1308     1132 
     987      873      753      658      591      510      454      469 
     583      819     1116     1347     1449     1431     1320     1158 
     997      900      931     1129     1483     1852     2052     2050 
    1914     1630     1213      758      318      -45     -195      -76 
     197      492      737      864      845      689      391       17 
    -238     -259      -75      278      722     1140     1517     1780 
    1794     1630     1453     1305     1246     1305     1348     1308 
    1293     1350     1378     1340     1282     1182     1028      915 
     882      903      957      981      934      824      683      579 
     553      562      589      684      815      899      963     1075 
    1210     1348     1495     1576     1521     1316      931      407 
     -64     -342     -410     -294      -68      190      480      741 
     846      764      530      174     -207     -557     -903    -1221 
   -1443    -1516    -1401    -1170     -951     -735     -468     -199 
      49      338      668      981     1254     1486     1671     1790 
    1881     1985     2095     2226     2394     2567     2767     2970 
    3029     2924     2729     2405     1972     1582     1254      947 
     754      714      723      702      608      425      233      144 
     152      217      388      700     1069     1329     1351     1156 
     892      623      338      102        0       -5       74      298 
     575      780      974     1189     1282     1219     1150     1167 
    1221     1291     1331     1246     1055      918      922     1031 
    1212     1433     1632     1791     1946     2070     2061     1856 
    1524     1216     1067     1113     1285     1444     1483     1426 
    1390     1397     1313     1071      776      561      492      513 
     504      448      388      348      415      649      897     1055 
    1188     1256     1217     1219     1362     1513     1537     1479 
    1360     1107      781      569      515      565      689      789 
     765      672      611      654      780      832      795      797 
     789      626      340       83       17      275      814     1410 
    1899     2292     2619     2811     2820     2669     2470     2293 
    2102     1852     1559     1316     1260     1408     1660     1918 
    2049     2001     1884     1772     1647     1568     1621     1734 
    1803     1842     1887     1880     1725     1408     1048      747 
     522      415      421      514      861     1489     2042     2295 
    2359     2231     1848     1425     1146      926      756      784 
     923      824      469      245      263      297      353      518 
     610      619      788     1074     1256     1368     1474     1549 
    1691     1898     1946     1817     1711     1732     1850     2015 
    2098     2023     1946     2019     2150     2223     2163     1881 
    1413      916      490      234      232      425      761     1201 
    1540     1587     1354      903      383       78      125      456 
    1004     1707     2376     2783     2789     2342     1534      587 
    -283     -929    -1290    -1337    -1013     -391      243      702 
     955     1021      977      812      425      -49     -263      -47 
     476     1148     1819     2288     2552     2785     2902     2725 
    2362     1926     1368      855      658      676      695      747 
     822      795      750      911     1246     1547     1744     1784 
    1580     1323     1148      884      492      112     -198     -276 
      51      666     1327     1891     2238     2285     2155     2004 
    1783     1422     1096      981     1063     1254     1431     1506 
    1506     1485     1509     1622     1749     1871     1977     1902 
    1584     1193      822      562      618      912     1183     1408 
    1579     1625     1617     1525     1205      796      519      400 
     454      728     1146     1567     1938     2261     2454     2432 
    2223     1877     1424      951      652      643      814     1105 
    1590     2120     2482     2691     2748     2598     2303     1903 
    1452     1124     1026     1154     1440     1705     1865     1987 
    2045     1971     1771     1414      830      140     -364     -654 
    -886     -990     -874     -677     -518     -471     -611     -866 
   -1127    -1332    -1391    -1293    -1073     -630       65      791 
    1386     1887     2249     2362     2254     2023     1690     1266 
     866      638      538      471      514      758     1219     1911 
    2718     3331     3539     3433     3191     2872     2552     2299 
    2085     1939     1880     1829     1748     1658     1478     1147 
     846      791      947     1190     1466     1744     1981     2118 
    2062     1682      899     -141    -1171    -2016    -2601    -2895 
   -2948    -2841    -2593    -2223    -1826    -1456    -1117     -918 
    -890     -911     -889     -800     -614     -306      128      654 
    1230     1841     2392     2814     3242     3697     4003     4243 
    4584     4845     4878     4799     4664     4488     4375     4406 
    4514     4580     4579     4477     4268     4114     4081     4027 
    3940     3866     3626     3140     2606     2091     1443      743 
     244      -36     -211     -288     -286     -303     -333     -230 
     -67     -133     -409     -641     -830    -1053    -1275    -1478 
   -1624    -1679    -1722    -1792    -1875    -2006    -2121    -2096 
   -2061    -2106    -1972    -1611    -1366    -1271    -1059     -774 
    -616     -477     -203       76      228      294      344      383 
     421      487      584      653      665      754     1020     1385 
    1750     2064     2277     2415     2521     2525     2338     2034 
    1750     1603     1707     2052     2412     2571     2515     2322 
    2119     2079     2281     2704     3232     3696     3978     3916 
    3345     2338     1094     -222    -1476    -2544    -3312    -3715 
   -3734    -3379    -2772    -2034    -1228     -612     -444     -676 
   -1230    -2034    -2716    -2956    -2835    -2396    -1530     -392 
     693     1640     2470     3102     3496     3766     3993     4195 
    4391     4565     4654     4580     4288     3800     3194     2532 
    1852     1244      845      723      909     1431     2172     2887 
    3495     4027     4423     4664     4868     5060     5108     4930 
    4588     4113     3457     2647     1767      872       49     -637 
   -1198    -1576    -1690    -1606    -1452    -1232     -932     -669 
    -526     -425     -414     -668    -1133    -1665    -2303    -2980 
   -3481    -3750    -3797    -3503    -2825    -1919     -908      157 
    1131     1929     2678     3388     3856     4082     4207     4151 
    3834     3352     2745     2053     1435     1051     1035     1327 
    1684     2031     2374     2579     2589     2496     2326     2004 
    1502      846       76     -738    -1470    -1929    -1966    -1539 
    -715      292     1250     2027     2550     2783     2810     2678 
    2278     1567      789      216     -105     -137      148      612 
    1142     1748     2448     3299     4260     5134     5765     6107 
    6114     5814     5374     4891     4306     3620     2956     2362 
    1841     1431     1093      691       74     -832    -1956    -3137 
   -4209    -4988    -5344    -5178    -4364    -2964    -1350       43 
     929     1158      738     -110    -1104    -2046    -2717    -2847 
   -2308    -1167      398     2057     3429     4341     4783     4741 
    4330     3825     3442     3303     3566     4293     5297     6313 
    7136     7592     7657     7488     7179     6673     5967     5146 
    4311     3611     3176     3017     3064     3140     3028     2681 
    2130     1363      396     -722    -1846    -2772    -3429    -3798 
   -3861    -3792    -3790    -3797    -3746    -3715    -3585    -3154 
   -2435    -1468     -315      791     1679     2281     2434     2029 
    1139     -128    -1557    -2748    -3396    -3449    -2955    -1998 
    -769      553     1910     3186     4266     5217     6064     6650 
    6917     6836     6326     5418     4294     3283     2666     2313 
    1875     1219      444     -372    -1229    -2060    -2705    -3049 
   -2999    -2532    -1865    -1371    -1290    -1652    -2354    -3190 
   -3859    -4043    -3642    -2880    -1984    -1046     -171      607 
    1394     2226     2967     3484     3785     3959     4059     4140 
    4324     4806     5703     6959     8403     9804    10939    11654 
   11812    11304    10079     8235     6161     4225     2524     1097 
      39     -675    -1216    -1691    -2107    -2577    -3308    -4393 
   -5767    -7279    -8752   -10022   -10949   -11437   -11431   -10845 
   -9674    -8090    -6347    -4688    -3368    -2598    -2403    -2659 
   -3217    -3744    -3828    -3426    -2790    -2126    -1620    -1367 
   -1237    -1053     -712     -217      348      936     1447     1698 
    1649     1408     1132     1154     1836     3188     4870     6521 
    7954     9086     9778     9867     9385     8515     7339     5852 
    4209     2674     1417      553      168      201      486      916 
    1358     1587     1532     1301      959      553      151     -272 
    -692     -955     -977     -737     -205      615     1615     2612 
    3562     4550     5541     6399     7002     7295     7291     6948 
    6266     5402     4453     3484     2704     2266     2120     2153 
    2255     2317     2254     2039     1750     1506     1255      861 
     378      -60     -405     -606     -657     -642     -670     -893 
   -1428    -2144    -2735    -2957    -2763    -2149    -1109      184 
    1462     2542     3268     3489     3208     2613     2014     1640 
    1549     1750     2297     3192     4306     5414     6247     6555 
    6299     5711     5081     4599     4422     4533     4658     4548 
    4104     3354     2604     2231     2281     2659     3388     4295 
    4980     5297     5306     4986     4434     3916     3504     3100 
    2785     2717     2828     2947     3065     3232     3400     3558 
    3708     3717     3511     3171     2704     2093     1379      484 
    -639    -1791    -2782    -3566    -4079    -4248    -4091    -3607 
   -2808    -1934    -1402    -1441    -2018    -3018    -4199    -5270 
   -6065    -6508    -6604    -6430    -6023    -5462    -4812    -3962 
   -2820    -1554     -425      353      604      322     -190     -598 
    -753     -517      229     1429     2944     4565     5979     6926 
    7276     7018     6323     5425     4540     3919     3658     3673 
    3913     4302     4650     4806     4625     4003     3071     2107 
    1229      425     -221     -666     -946    -1065    -1105    -1210 
   -1452    -1806    -2146    -2415    -2651    -2814    -2789    -2428 
   -1532      -90     1533     2905     3859     4379     4410     3944 
    3176     2427     1958     1896     2222     2768     3377     3965 
    4360     4360     3893     3045     2016     1026      220     -363 
    -778    -1159    -1521    -1763    -1885    -1969    -2083    -2274 
   -2562    -2899    -3144    -3114    -2762    -2130    -1250     -199 
     843     1749     2442     2792     2713     2330     1949     1810 
    1949     2313     2848     3454     4041     4563     4977     5252 
    5397     5432     5416     5391     5278     5050     4846     4722 
    4606     4515     4411     4083     3492     2774     2027     1398 
     955      635      360      -27     -643    -1462    -2435    -3446 
   -4286    -4839    -5074    -4985    -4652    -4195    -3697    -3203 
   -2789    -2562    -2573    -2751    -2988    -3229    -3453    -3605 
   -3626    -3528    -3333    -3045    -2728    -2424    -2093    -1755 
   -1512    -1355    -1200    -1063     -981     -911     -801     -556 
     -95      506     1146     1752     2181     2363     2392     2350 
    2301     2288     2243     2123     1987     1859     1786     1921 
    2388     3142     4048     4965     5727     6170     6232     5931 
    5277     4360     3372     2533     2022     1865     1984     2273 
    2567     2690     2473     1804      801     -303    -1359    -2231 
   -2828    -3148    -3171    -2841    -2184    -1382     -750     -557 
    -811    -1287    -1772    -2184    -2386    -2189    -1587     -693 
     353     1320     2001     2400     2632     2735     2625     2251 
    1665      962      229     -498    -1161    -1614    -1737    -1537 
   -1150     -770     -515     -395     -402     -610    -1053    -1579 
   -1961    -2092    -2050    -1927    -1594     -897       55     1077 
    2010     2635     2771     2431     1761      955      211     -305 
    -522     -457     -116      533     1354     2065     2551     2790 
    2729     2404     1878     1189      506       60     -109     -143 
    -163     -244     -432     -724    -1070    -1389    -1587    -1580 
   -1340     -920     -438       36      544     1086     1579     1942 
    2119     2070     1881     1725     1669     1668     1668     1656 
    1551     1235      720      122     -495    -1116    -1680    -2100 
   -2312    -2269    -1949    -1455    -1021     -812     -772     -776 
    -778     -738     -572     -201      427     1230     1942     2293 
    2189     1701      973      197     -472    -1005    -1394    -1561 
   -1476    -1240     -970     -687     -395      -89      280      623 
     778      824      923     1081     1263     1431     1571     1741 
    2022     2370     2609     2613     2398     2030     1545      999 
     430     -126     -656    -1156    -1599    -1910    -2041    -1987 
   -1771    -1524    -1391    -1351    -1336    -1362    -1457    -1606 
   -1736    -1757    -1661    -1404     -895     -171      621     1356 
    1910     2201     2270     2207     2114     2096     2203     2405 
    2612     2704     2616     2365     2034     1768     1717     1944 
    2421     3092     3846     4449     4688     4521     3960     3075 
    2121     1345      778      422      313      340      370      403 
     398      355      440      753     1236     1794     2305     2664 
    2795     2662     2370     2084     1878     1842     2045     2405 
    2792     3196     3624     4005     4232     4260     4139     3909 
    3568     3172     2844     2659     2646     2813     3096     3353 
    3520     3623     3613     3449     3194     2924     2697     2586 
    2575     2540     2428     2295     2191     2133     2187     2386 
