Origin Time       2016/04/16 01:25:00
Lat.              32.753
Long.             130.762
Depth. (km)       12
Mag.              7.3
Station Code      KOC014
Station Lat.      32.9895
Station Long.     132.9377
Station Height(m) 4
Record Time       2016/04/16 01:25:42
Sampling Freq(Hz) 100Hz
Duration Time(s)  184
Dir.              E-W
Scale Factor      7845(gal)/8223790
Max. Acc. (gal)   30.565
Last Correction   2016/04/16 01:25:43
Memo.             
[...]
    9089     9882    10638    11249    11655    11889    12024    12144 
   12286    12395    12465    12555    12730    13065    13594    14255 
   14986    15762    16544    17284    17882    18193    18188    17964 
   17632    17262    16889    16503    16117    15789    15553    15423 
   15387    15375    15345    15298    15201    15026    14801    14539 
   14210    13770    13232    12640    12005    11331    10648     9987 
    9346     8739     8209     7785     7462     7186     6901     6600 
    6278     5967     5722     5560     5443     5320     5171     5042 
    4934     4807     4661     4492     4256     3917     3492     3034 
    2623     2317     2158     2169     2330     2602     2978     3461 
    4051     4752     5557     6416     7250     8019     8714     9362 
   10025    10739    11507    12356    13320    14370    15453    16528 
   17521    18291    18731    18852    18728    18445    18111    17807 
   17539    17298    17100    16938    16848    16899    17107    17427 
   17775    18094    18368    18593    18736    18756    18663    18490 
   18226    17847    17388    16903    16414    15894    15282    14543 
   13710    12842    11980    11171    10449     9782     9124     8476 
    7882     7393     7023     6706     6342     5900     5462     5158 
    5082     5219     5471     5752     5988     6170     6397     6772 
    7252     7672     7927     8062     8163     8240     8222     8044 
    7738     7416     7138     6894     6685     6536     6473     6528 
    6732     7074     7503     7983     8517     9074     9575     9946 
   10162    10253    10314    10438    10636    10871    11160    11587 
   12188    12880    13559    14206    14871    15565    16174    16537 
   16611    16499    16302    16011    15581    15020    14364    13684 
   13058    12507    12032    11635    11337    11167    11101    11044 
   10914    10704    10474    10329    10320    10405    10547    10744 
   10940    11029    10930    10648    10243     9784     9351     9023 
    8830     8772     8814     8870     8888     8880     8869     8847 
    8802     8727     8637     8540     8441     8357     8267     8136 
    7979     7827     7739     7821     8181     8834     9698    10644 
   11585    12459    13162    13614    13819    13818    13605    13132 
   12396    11521    10689    10012     9537     9236     9067     9057 
    9224     9479     9691     9846    10025    10258    10465    10537 
   10486    10419    10463    10732    11288    12104    13068    14060 
   15026    15961    16802    17416    17691    17637    17350    16908 
   16349    15780    15403    15367    15607    15885    16005    15944 
   15768    15506    15149    14674    14045    13270    12471    11812 
   11399    11240    11276    11414    11556    11676    11827    12035 
   12249    12393    12429    12393    12305    12144    11848    11416 
   10936    10524    10246    10060     9855     9568     9223     8845 
    8408     7929     7481     7106     6806     6597     6492     6485 
    6546     6571     6409     6026     5616     5440     5579     5949 
    6493     7196     8000     8830     9645    10384    10971    11326 
   11392    11167    10724    10187     9622     9038     8463     8016 
    7835     7967     8343     8880     9528    10204    10856    11553 
   12384    13290    14008    14298    14179    13855    13506    13158 
   12719    12116    11403    10785    10438    10336    10347    10382 
   10420    10442    10428    10377    10284    10156    10021     9894 
    9771     9691     9711     9811     9913    10015    10199    10500 
   10835    11087    11211    11288    11453    11736    12078    12422 
   12713    12884    12931    12961    13073    13213    13223    13008 
   12542    11863    11124    10513    10107     9830     9634     9595 
    9771    10118    10550    10956    11234    11284    11013    10435 
    9679     8888     8151     7480     6864     6363     6076     6021 
    6091     6131     6139     6249     6508     6812     7041     7164 
    7236     7350     7569     7908     8301     8650     8903     9038 
    9096     9178     9363     9702    10230    10982    11970    13092 
   14195    15219    16159    17004    17725    18258    18642    18990 
   19367    19727    19942    19915    19689    19379    19060    18760 
   18455    18081    17586    16969    16271    15493    14647    13799 
   13023    12336    11757    11307    10933    10534    10048     9493 
    8919     8376     7860     7291     6585     5765     4939     4197 
    3542     2882     2155     1436      830      373       -8     -438 
    -939    -1344    -1399     -972     -191      627     1196     1410 
    1412     1429     1563     1838     2296     2921     3650     4431 
    5243     6110     7026     7908     8676     9309     9873    10469 
   11129    11897    12842    13921    14921    15651    16128    16526 
   16989    17536    18080    18482    18640    18589    18466    18401 
   18443    18570    18756    18991    19276    19630    20050    20504 
   20943    21286    21447    21370    21020    20401    19583    18670 
   17753    16883    16108    15490    15052    14731    14413    14023 
   13581    13104    12501    11658    10597     9393     8082     6659 
    5135     3585     2169     1039      199     -430     -884    -1127 
   -1128     -955     -796     -785     -872     -980    -1179    -1572 
   -2170    -2949    -3825    -4658    -5366    -5860    -5967    -5574 
   -4691    -3280    -1308     1179     4052     6984     9576    11573 
   12907    13687    14096    14251    14265    14265    14327    14515 
   14939    15680    16711    17965    19350    20733    22059    23352 
   24499    25309    25637    25412    24719    23770    22735    21694 
   20625    19467    18304    17356    16791    16705    17163    18152 
   19570    21250    22972    24567    25899    26815    27252    27292 
   27082    26755    26319    25616    24524    23120    21610    20198 
   18971    17859    16764    15654    14517    13332    12082    10704 
    9143     7499     5895     4342     2809     1237     -453    -2234 
   -3954    -5459    -6635    -7462    -7963    -8118    -7916    -7422 
   -6727    -5946    -5167    -4388    -3559    -2646    -1680     -795 
    -144      212      351      417      532      738     1086     1641 
    2405     3410     4668     6104     7662     9294    10933    12521 
   13995    15292    16407    17428    18519    19782    21120    22315 
   23283    24016    24486    24750    24868    24836    24738    24606 
   24449    24337    24229    24073    23855    23488    22982    22493 
   22106    21810    21487    20968    20125    18906    17471    16104 
   14945    13952    12974    11858    10530     9016     7458     6019 
    4766     3726     2920     2312     1863     1579     1520     1714 
    2093     2465     2651     2675     2690     2802     3125     3669 
    4279     4770     4965     4845     4579     4280     4036     3958 
    4099     4558     5427     6685     8182     9656    10863    11670 
   11993    11770    11036    10068     9289     8912     8800     8680 
    8385     7912     7302     6605     5867     5169     4679     4580 
    4908     5541     6343     7285     8371     9598    10921    12128 
   13028    13631    14013    14270    14516    14821    15225    15635 
   15850    15649    14905    13687    12205    10681     9312     8136 
    6982     5711     4333     2876     1398       55     -980    -1614 
   -1775    -1379     -433      868     2191     3218     3781     3880 
    3597     3063     2454     1930     1610     1609     2070     3092 
    4648     6539     8441    10110    11399    12239    12758    13188 
   13648    14189    14686    14920    14770    14156    13172    12164 
   11416    11010    10912    11060    11371    11796    12451    13441 
   14673    16008    17437    18987    20630    22330    24093    25929 
   27765    29478    30909    31930    32536    32794    32733    32328 
   31588    30611    29478    28197    26809    25417    24129    23026 
   22129    21381    20688    19930    19024    18044    17158    16509 
   16137    15997    15967    15896    15688    15304    14769    14187 
   13637    13150    12727    12240    11480    10282     8621     6682 
    4741     2972     1449      189     -797    -1502    -1965    -2246 
   -2350    -2261    -2003    -1679    -1421    -1233     -978     -526 
     160     1032     1946     2768     3473     4045     4455     4757 
    5107     5647     6405     7283     8194     9090     9903    10571 
   10986    11029    10806    10624    10709    11060    11546    12118 
   12876    13903    15122    16291    17147    17601    17821    18079 
   18565    19305    20194    21114    21957    22648    23166    23473 
   23533    23379    23005    22327    21250    19816    18295    16954 
   15773    14582    13339    12128    10995     9936     8932     7938 
    6891     5760     4530     3262     2079     1059      184     -575 
   -1232    -1761    -2158    -2554    -3084    -3717    -4336    -4814 
   -5073    -5154    -5119    -4935    -4526    -3863    -2974    -1938 
    -895       10      723     1341     2076     3115     4499     6104 
    7771     9362    10697    11642    12235    12680    13171    13790 
   14577    15499    16464    17447    18445    19390    20167    20679 
   20862    20676    20102    19090    17585    15639    13425    11175 
    9071     7172     5455     3906     2583     1587     1016      929 
    1308     2037     2936     3848     4716     5571     6454     7375 
    8318     9224    10068    10895    11718    12478    13080    13398 
   13316    12819    12044    11236    10559    10017     9595     9375 
    9414     9656     9989    10355    10748    11190    11703    12286 
   12918    13621    14466    15503    16745    18169    19695    21163 
   22385    23240    23749    24030    24197    24347    24511    24651 
   24757    24911    25142    25328    25371    25318    25173    24775 
   23935    22531    20493    17825    14702    11504     8633     6250 
    4321     2776     1509      395     -602    -1433    -2066    -2497 
   -2817    -3226    -3835    -4545    -5184    -5595    -5717    -5574 
   -5252    -4869    -4434    -3886    -3225    -2454    -1615     -897 
    -519     -579     -990    -1517    -1949    -2191    -2239    -2163 
   -1991    -1644    -1034     -139     1019     2381     3852     5379 
    6960     8621    10393    12260    14125    15906    17606    19229 
   20736    22076    23170    23936    24428    24759    24981    25087 
   25053    24902    24704    24483    24223    23928    23666    23537 
   23561    23680    23805    23812    23674    23491    23287    23059 
   22840    22688    22708    22997    23537    24198    24869    25500 
   26001    26272    26329    26245    26040    25658    25039    24193 
   23194    22133    21080    20101    19261    18562    17896    17130 
   16187    15063    13805    12461    11001     9336     7399     5186 
    2782      301    -2134    -4378    -6320    -7959    -9420   -10890 
  -12384   -13763   -14979   -16036   -16879   -17486   -17841   -17921 
  -17770   -17424   -16954   -16454   -15942   -15444   -15006   -14638 
  -14361   -14168   -13980   -13734   -13435   -13123   -12855   -12680 
  -12596   -12498   -12209   -11624   -10764    -9675    -8407    -6998 
   -5417    -3653    -1779      114     1972     3824     5763     7844 
   10060    12382    14755    17107    19398    21574    23581    25390 
   27004    28486    29890    31202    32408    33520    34597    35679 
   36697    37547    38223    38772    39163    39310    39136    38628 
   37860    36976    36101    35302    34570    33844    33142    32574 
   32186    31977    31950    32024    32070    31986    31716    31241 
   30508    29457    28062    26291    24144    21682    18981    16135 
   13285    10577     8114     5938     4013     2281      689     -851 
   -2389    -3892    -5346    -6717    -7963    -9103   -10146   -11092 
  -11940   -12637   -13161   -13513   -13676   -13680   -13585   -13413 
  -13135   -12680   -12019   -11204   -10335    -9520    -8862    -8426 
   -8187    -8067    -7977    -7844    -7643    -7395    -7101    -6732 
   -6293    -5792    -5224    -4549    -3707    -2660    -1413      -11 
    1448     2922     4406     5875     7331     8826    10342    11796 
   13135    14401    15674    16935    18095    19174    20259    21374 
   22499    23600    24651    25654    26638    27607    28524    29373 
   30164    30902    31594    32228    32783    33227    33566    33882 
   34209    34504    34755    35001    35247    35472    35667    35770 
   35695    35457    35117    34585    33716    32525    31118    29579 
   27977    26329    24597    22808    21024    19286    17645    16108 
   14612    13124    11643    10174     8726     7233     5605     3828 
    1926      -82    -2162    -4248    -6276    -8237   -10120   -11828 
  -13274   -14427   -15252   -15739   -16000   -16218   -16488   -16802 
  -17139   -17459   -17709   -17874   -17967   -17975   -17859   -17587 
  -17118   -16403   -15412   -14149   -12669   -10994    -9099    -6970 
   -4571    -1865     1051     4036     7006     9909    12698    15345 
   17859    20277    22619    24835    26859    28717    30491    32215 
   33870    35455    36983    38435    39779    40945    41835    42412 
   42722    42770    42510    41909    41006    39885    38649    37351 
   35988    34566    33142    31776    30512    29336    28206    27111 
   26023    24887    23661    22318    20833    19218    17516    15782 
   14060    12325    10552     8743     6878     4926     2933     1015 
    -711    -2188    -3388    -4318    -5027    -5626    -6199    -6764 
   -7300    -7788    -8247    -8715    -9204    -9695   -10158   -10542 
  -10802   -10910   -10810   -10451    -9834    -9000    -7986    -6763 
   -5270    -3524    -1610      383     2365     4280     6120     7862 
    9471    10963    12376    13714    14955    16062    17027    17879 
   18650    19359    20021    20679    21385    22118    22862    23661 
   24494    25240    25814    26202    26385    26339    26048    25551 
   24942    24304    23699    23168    22713    22326    22018    21786 
   21617    21493    21365    21166    20839    20374    19784    19106 
   18395    17667    16926    16204    15533    14945    14473    14087 
   13748    13468    13230    12992    12758    12537    12321    12132 
   11975    11820    11607    11273    10782    10153     9432     8631 
    7761     6880     6069     5400     4908     4573     4387     4372 
    4499     4675     4810     4855     4826     4762     4702     4684 
    4735     4842     4992     5182     5377     5568     5780     6027 
    6293     6528     6701     6864     7115     7522     8110     8830 
    9589    10350    11129    11908    12634    13261    13770    14200 
   14623    15087    15622    16245    16945    17699    18463    19193 
   19885    20548    21207    21872    22524    23120    23618    24025 
   24399    24749    25023    25193    25247    25197    25085    24896 
   24588    24156    23592    22870    21979    20933    19777    18590 
   17410    16232    15091    14065    13174    12363    11542    10638 
    9644     8617     7609     6642     5718     4850     4054     3366 
    2822     2419     2121     1922     1830     1806     1776     1717 
    1645     1582     1554     1579     1657     1776     1880     1919 
    1896     1861     1883     2027     2319     2740     3242     3774 
    4330     4930     5551     6133     6644     7094     7522     7948 
    8364     8776     9204     9625    10027    10438    10899    11421 
   11993    12594    13186    13740    14272    14790    15290    15777 
   16251    16686    17061    17348    17529    17639    17727    17818 
   17915    18036    18198    18364    18497    18578    18576    18484 
   18338    18191    18072    17945    17763    17490    17131    16730 
   16325    15904    15456    14990    14526    14083    13660    13236 
   12781    12283    11778    11279    10767    10208     9570     8895 
    8286     7832     7553     7372     7169     6870     6493     6118 
    5760     5398     5032     4700     4471     4357     4274     4159 
    4024     3921     3912     3996     4126     4297     4513     4784 
    5123     5497     5848     6153     6409     6628     6844     7089 
    7368     7657     7923     8129     8251     8291     8272     8260 
    8309     8384     8417     8391     8368     8434     8631     8931 
    9292     9672    10041    10369    10646    10875    11029    11078 
   11043    10967    10854    10710    10537    10334    10139    10007 
    9940     9940    10019    10184    10442    10777    11126    11422 
   11641    11788    11875    11889    11826    11728    11624    11514 
   11418    11373    11367    11371    11384    11398    11384    11313 
   11164    10960    10764    10635    10573    10513    10396    10215 
    9983     9698     9359     8989     8631     8294     7966     7661 
    7389     7155     6945     6763     6602     6443     6280     6110 
    5921     5722     5566     5474     5443     5464     5509     5530 
    5493     5377     5200     5009     4854     4746     4668     4599 
    4518     4415     4274     4069     3797     3499     3234     3034 
    2902     2852     2914     3118     3465     3906     4376     4827 
    5239     5605     5907     6110     6192     6147     6006     5837 
    5682     5512     5304     5108     5007     5077     5375     5887 
    6528     7213     7882     8517     9151     9782    10400    11043 
   11729    12434    13144    13841    14516    15213    15967    16773 
   17595    18366    19012    19494    19778    19846    19726    19458 
   19053    18532    17953    17374    16843    16395    16025    15696 
   15376    15033    14644    14193    13668    13073    12439    11807 
   11223    10721    10293     9888     9447     8955     8437     7896 
    7300     6616     5829     4954     4050     3177     2411     1831 
    1476     1325     1331     1455     1676     1938     2143     2235 
    2241     2222     2223     2251     2299     2367     2494     2737 
    3137     3682     4349     5123     5996     6955     7985     9070 
   10147    11130    11936    12541    12973    13257    13409    13440 
   13382    13304    13266    13259    13192    12969    12595    12141 
   11738    11531    11615    12004    12663    13504    14403    15263 
   16031    16672    17128    17355    17410    17410    17433    17494 
   17605    17798    18088    18441    18800    19094    19291    19427 
   19534    19586    19525    19298    18918    18480    18044    17601 
   17116    16614    16173    15827    15519    15179    14785    14339 
   13878    13440    13065    12784    12595    12436    12264    12082 
   11871    11581    11204    10782    10343     9872     9354     8816 
    8286     7771     7302     6930     6696     6609     6647     6797 
    7056     7385     7685     7850     7832     7649     7352     7025 
    6755     6593     6582     6786     7230     7890     8684     9483 
   10176    10681    10960    11048    11044    11060    11151    11304 
