Origin Time       2016/04/16 01:25:00
Lat.              32.753
Long.             130.762
Depth. (km)       12
Mag.              7.3
Station Code      KOC004
Station Lat.      33.6975
Station Long.     133.8771
Station Height(m) 237
Record Time       2016/04/16 01:26:03
Sampling Freq(Hz) 100Hz
Duration Time(s)  118
Dir.              N-S
Scale Factor      7845(gal)/8223790
Max. Acc. (gal)   10.393
Last Correction   2016/04/16 01:26:03
Memo.             
[...]
   -1138    -1225    -1341    -1476    -1567    -1587    -1552    -1483 
   -1422    -1378    -1343    -1337    -1366    -1393    -1412    -1413 
   -1371    -1314    -1327    -1440    -1634    -1873    -2118    -2330 
   -2516    -2682    -2817    -2930    -2999    -2961    -2820    -2632 
   -2463    -2365    -2335    -2344    -2359    -2359    -2351    -2346 
   -2334    -2311    -2299    -2313    -2354    -2393    -2416    -2423 
   -2420    -2401    -2350    -2254    -2124    -1991    -1872    -1792 
   -1769    -1794    -1829    -1846    -1852    -1846    -1819    -1799 
   -1804    -1825    -1857    -1881    -1883    -1900    -1969    -2046 
   -2093    -2116    -2087    -1977    -1842    -1733    -1651    -1610 
   -1625    -1680    -1752    -1821    -1869    -1896    -1910    -1934 
   -1975    -2007    -2039    -2083    -2089    -2058    -2026    -1995 
   -1971    -1979    -2037    -2150    -2296    -2438    -2565    -2663 
   -2700    -2681    -2610    -2494    -2384    -2328    -2307    -2280 
   -2242    -2185    -2110    -2053    -2026    -2008    -1992    -1962 
   -1896    -1781    -1637    -1520    -1452    -1436    -1478    -1548 
   -1598    -1622    -1634    -1655    -1680    -1686    -1668    -1644 
   -1626    -1613    -1584    -1545    -1525    -1535    -1575    -1647 
   -1733    -1807    -1872    -1934    -1975    -1999    -2052    -2142 
   -2239    -2336    -2448    -2558    -2636    -2659    -2623    -2546 
   -2444    -2338    -2251    -2201    -2181    -2169    -2126    -2064 
   -2018    -1972    -1939    -1979    -2060    -2134    -2226    -2328 
   -2411    -2461    -2452    -2403    -2350    -2280    -2209    -2168 
   -2137    -2111    -2100    -2062    -1995    -1927    -1871    -1863 
   -1930    -2038    -2154    -2282    -2393    -2466    -2519    -2571 
   -2624    -2654    -2632    -2569    -2478    -2369    -2278    -2207 
   -2137    -2106    -2110    -2079    -1996    -1869    -1705    -1553 
   -1482    -1495    -1574    -1684    -1806    -1935    -2050    -2144 
   -2242    -2328    -2409    -2511    -2612    -2700    -2785    -2855 
   -2891    -2887    -2848    -2797    -2729    -2658    -2635    -2641 
   -2623    -2592    -2558    -2520    -2494    -2455    -2378    -2289 
   -2219    -2166    -2126    -2126    -2185    -2284    -2390    -2471 
   -2502    -2475    -2397    -2292    -2207    -2138    -2061    -1977 
   -1887    -1807    -1748    -1686    -1632    -1624    -1660    -1734 
   -1849    -1969    -2047    -2081    -2068    -1996    -1864    -1664 
   -1440    -1274    -1198    -1220    -1337    -1528    -1800    -2147 
   -2512    -2835    -3094    -3254    -3295    -3260    -3179    -3024 
   -2799    -2556    -2327    -2118    -1930    -1767    -1632    -1544 
   -1528    -1561    -1599    -1632    -1652    -1640    -1588    -1518 
   -1440    -1332    -1193    -1043     -892     -776     -738     -764 
    -845     -992    -1183    -1379    -1557    -1710    -1826    -1892 
   -1933    -1991    -2053    -2102    -2195    -2322    -2424    -2519 
   -2624    -2695    -2725    -2704    -2601    -2427    -2207    -1966 
   -1738    -1549    -1418    -1347    -1310    -1290    -1282    -1270 
   -1262    -1291    -1351    -1404    -1435    -1439    -1414    -1393 
   -1409    -1440    -1478    -1574    -1707    -1826    -1942    -2064 
   -2154    -2196    -2215    -2211    -2161    -2100    -2070    -2068 
   -2095    -2162    -2222    -2251    -2296    -2349    -2376    -2407 
   -2439    -2446    -2434    -2408    -2366    -2311    -2235    -2144 
   -2062    -1984    -1912    -1881    -1907    -1988    -2121    -2288 
   -2452    -2590    -2702    -2787    -2837    -2852    -2828    -2756 
   -2640    -2481    -2278    -2068    -1911    -1817    -1741    -1657 
   -1553    -1421    -1290    -1216    -1198    -1190    -1166    -1133 
   -1107    -1107    -1140    -1194    -1278    -1405    -1547    -1644 
   -1663    -1621    -1552    -1472    -1417    -1410    -1462    -1584 
   -1761    -1960    -2151    -2304    -2415    -2500    -2554    -2573 
   -2559    -2532    -2508    -2482    -2438    -2374    -2296    -2196 
   -2079    -1966    -1852    -1737    -1657    -1617    -1625    -1692 
   -1776    -1842    -1881    -1871    -1831    -1800    -1790    -1821 
   -1919    -2047    -2154    -2236    -2274    -2246    -2180    -2107 
   -2043    -2003    -1993    -1995    -1995    -1985    -1958    -1935 
   -1944    -1984    -2053    -2165    -2319    -2470    -2589    -2662 
   -2664    -2589    -2451    -2278    -2107    -1945    -1786    -1674 
   -1614    -1587    -1622    -1729    -1881    -2065    -2243    -2367 
   -2434    -2452    -2436    -2401    -2378    -2386    -2420    -2467 
   -2502    -2478    -2377    -2219    -2047    -1892    -1779    -1740 
   -1759    -1799    -1852    -1899    -1911    -1912    -1921    -1942 
   -1973    -1988    -1985    -1972    -1927    -1837    -1726    -1595 
   -1417    -1239    -1105    -1000     -942     -929     -929     -982 
   -1102    -1251    -1436    -1663    -1881    -2091    -2299    -2470 
   -2594    -2668    -2674    -2641    -2565    -2442    -2338    -2243 
   -2121    -2039    -2011    -1993    -2010    -2060    -2089    -2091 
   -2081    -2076    -2073    -2045    -2010    -1988    -1964    -1946 
   -1938    -1908    -1842    -1736    -1621    -1540    -1487    -1462 
   -1464    -1476    -1501    -1524    -1495    -1439    -1393    -1348 
   -1317    -1316    -1312    -1296    -1308    -1364    -1448    -1579 
   -1767    -1952    -2089    -2188    -2249    -2274    -2293    -2290 
   -2251    -2212    -2178    -2151    -2154    -2189    -2263    -2366 
   -2458    -2531    -2606    -2669    -2721    -2787    -2835    -2835 
   -2806    -2745    -2633    -2489    -2351    -2239    -2158    -2107 
   -2084    -2070    -2053    -2027    -1981    -1907    -1804    -1674 
   -1521    -1390    -1308    -1237    -1162    -1105    -1080    -1047 
   -1000     -972     -977    -1005    -1080    -1204    -1344    -1494 
   -1647    -1765    -1825    -1842    -1841    -1830    -1838    -1907 
   -2030    -2174    -2324    -2436    -2473    -2444    -2365    -2243 
   -2111    -2004    -1918    -1846    -1840    -1902    -1985    -2092 
   -2235    -2384    -2517    -2632    -2712    -2749    -2740    -2681 
   -2594    -2500    -2400    -2311    -2246    -2209    -2203    -2218 
   -2258    -2332    -2440    -2573    -2716    -2848    -2929    -2914 
   -2806    -2644    -2459    -2280    -2130    -2015    -1938    -1894 
   -1875    -1890    -1925    -1979    -2088    -2226    -2366    -2550 
   -2755    -2947    -3164    -3376    -3532    -3651    -3693    -3638 
   -3551    -3431    -3230    -2986    -2716    -2419    -2153    -1948 
   -1799    -1719    -1696    -1746    -1883    -2038    -2178    -2323 
   -2428    -2471    -2477    -2428    -2328    -2203    -2072    -1958 
   -1881    -1865    -1899    -1960    -2039    -2114    -2155    -2162 
   -2139    -2098    -2065    -2069    -2128    -2205    -2242    -2226 
   -2144    -1996    -1844    -1749    -1732    -1790    -1881    -1949 
   -1993    -2023    -2033    -2043    -2064    -2114    -2223    -2336 
   -2411    -2500    -2609    -2694    -2772    -2839    -2867    -2880 
   -2874    -2810    -2716    -2610    -2488    -2381    -2312    -2255 
   -2207    -2172    -2135    -2079    -1991    -1869    -1750    -1637 
   -1507    -1405    -1363    -1350    -1374    -1428    -1471    -1493 
   -1513    -1537    -1561    -1588    -1642    -1738    -1864    -2010 
   -2157    -2259    -2305    -2335    -2362    -2392    -2454    -2533 
   -2590    -2623    -2619    -2559    -2467    -2401    -2384    -2397 
   -2458    -2571    -2691    -2808    -2944    -3090    -3213    -3289 
   -3283    -3180    -3002    -2774    -2521    -2263    -2014    -1787 
   -1599    -1456    -1341    -1242    -1178    -1189    -1258    -1356 
   -1489    -1638    -1768    -1854    -1876    -1830    -1728    -1583 
   -1447    -1363    -1321    -1318    -1366    -1418    -1439    -1448 
   -1451    -1428    -1398    -1398    -1433    -1507    -1629    -1764 
   -1876    -1979    -2081    -2177    -2274    -2386    -2513    -2625 
   -2706    -2756    -2758    -2720    -2675    -2616    -2562    -2542 
   -2519    -2475    -2444    -2423    -2404    -2376    -2312    -2215 
   -2074    -1878    -1661    -1453    -1274    -1128    -1019     -959 
    -950     -974    -1017    -1031     -970     -843     -657     -456 
    -319     -263     -265     -332     -451     -591     -743     -903 
   -1050    -1194    -1331    -1447    -1549    -1601    -1606    -1598 
   -1560    -1512    -1493    -1474    -1447    -1431    -1431    -1452 
   -1512    -1586    -1657    -1737    -1809    -1841    -1838    -1802 
   -1722    -1603    -1472    -1360    -1281    -1235    -1230    -1282 
   -1372    -1463    -1528    -1547    -1490    -1360    -1188     -996 
    -815     -688     -629     -621     -666     -761     -882    -1050 
   -1277    -1528    -1771    -2007    -2214    -2338    -2370    -2330 
   -2246    -2160    -2096    -2064    -2079    -2147    -2241    -2355 
   -2509    -2694    -2903    -3133    -3364    -3584    -3762    -3861 
   -3882    -3846    -3773    -3686    -3601    -3528    -3477    -3454 
   -3462    -3507    -3569    -3636    -3694    -3705    -3663    -3585 
   -3464    -3321    -3191    -3090    -3040    -3048    -3079    -3109 
   -3129    -3118    -3109    -3107    -3107    -3127    -3179    -3258 
   -3360    -3442    -3476    -3477    -3457    -3419    -3391    -3393 
   -3407    -3431    -3470    -3508    -3534    -3528    -3469    -3348 
   -3172    -2972    -2779    -2604    -2463    -2376    -2343    -2361 
   -2427    -2511    -2578    -2612    -2613    -2598    -2565    -2492 
   -2374    -2209    -2012    -1804    -1571    -1312    -1055     -811 
    -571     -333     -122       62      234      375      477      560 
     610      619      616      623      662      743      838      927 
     980      967      903      819      720      607      483      330 
     157       -5     -176     -357     -511     -635     -750     -843 
    -915     -990    -1078    -1173    -1281    -1431    -1637    -1899 
   -2209    -2542    -2874    -3198    -3499    -3751    -3936    -4048 
   -4078    -4027    -3912    -3738    -3530    -3321    -3142    -3021 
   -2945    -2909    -2910    -2899    -2844    -2754    -2619    -2432 
   -2208    -1961    -1715    -1506    -1348    -1250    -1204    -1190 
   -1206    -1254    -1327    -1455    -1632    -1809    -1988    -2196 
   -2400    -2582    -2767    -2956    -3165    -3404    -3638    -3861 
   -4086    -4279    -4441    -4592    -4720    -4831    -4934    -5009 
   -5067    -5104    -5081    -4992    -4852    -4669    -4437    -4176 
   -3942    -3754    -3626    -3566    -3561    -3592    -3649    -3705 
   -3735    -3727    -3670    -3568    -3447    -3333    -3219    -3118 
   -3040    -2972    -2920    -2909    -2956    -3041    -3123    -3194 
   -3268    -3329    -3380    -3410    -3392    -3331    -3227    -3061 
   -2847    -2612    -2374    -2185    -2062    -1969    -1917    -1895 
   -1825    -1682    -1478    -1213     -943     -741     -637     -639 
    -741     -903    -1101    -1308    -1482    -1605    -1692    -1750 
   -1763    -1732    -1679    -1614    -1553    -1506    -1487    -1526 
   -1620    -1749    -1912    -2091    -2258    -2405    -2504    -2525 
   -2500    -2461    -2400    -2328    -2276    -2245    -2184    -2074 
   -1956    -1830    -1688    -1557    -1456    -1358    -1274    -1225 
   -1170    -1093    -1039    -1000     -953     -899     -778     -560 
    -272       65      415      715      911      969      924      819 
     661      502      383      286      199      128       49      -51 
    -155     -249     -309     -310     -257     -180     -103      -51 
     -52     -133     -310     -576     -889    -1228    -1574    -1890 
   -2189    -2517    -2867    -3234    -3640    -4048    -4422    -4754 
   -4999    -5135    -5194    -5175    -5084    -4959    -4824    -4689 
   -4568    -4477    -4440    -4471    -4546    -4645    -4758    -4870 
   -4977    -5077    -5158    -5182    -5124    -4980    -4741    -4415 
   -4025    -3573    -3069    -2548    -2022    -1505    -1042     -642 
    -295      -10      225      460      706      972     1240     1439 
    1522     1476     1281      946      529       82     -364     -788 
   -1194    -1630    -2116    -2633    -3187    -3755    -4284    -4731 
   -5059    -5265    -5373    -5393    -5359    -5313    -5270    -5246 
   -5267    -5332    -5448    -5601    -5751    -5899    -6054    -6150 
   -6151    -6083    -5935    -5729    -5512    -5316    -5155    -5036 
   -4961    -4928    -4941    -5001    -5104    -5219    -5336    -5462 
   -5578    -5655    -5665    -5611    -5508    -5379    -5242    -5093 
   -4958    -4866    -4818    -4799    -4800    -4793    -4753    -4681 
   -4579    -4455    -4311    -4133    -3935    -3742    -3557    -3410 
   -3304    -3222    -3180    -3175    -3171    -3169    -3146    -3071 
   -2955    -2795    -2586    -2336    -2050    -1745    -1437    -1136 
    -855     -615     -437     -313     -246     -248     -291     -361 
    -454     -540     -591     -619     -621     -579     -521     -476 
    -459     -454     -464     -492     -495     -440     -319     -114 
     187      572     1042     1610     2286     3076     3954     4864 
    5765     6606     7330     7920     8359     8641     8800     8863 
    8833     8746     8652     8560     8472     8397     8313     8209 
    8081     7898     7645     7317     6899     6394     5826     5206 
    4557     3888     3192     2517     1898     1308      757      266 
    -175     -561     -869    -1097    -1258    -1375    -1487    -1628 
   -1809    -2031    -2292    -2575    -2835    -3030    -3136    -3109 
   -2979    -2794    -2573    -2358    -2220    -2163    -2181    -2289 
   -2479    -2721    -3025    -3407    -3866    -4367    -4869    -5332 
   -5715    -5994    -6183    -6313    -6394    -6435    -6451    -6458 
   -6488    -6598    -6837    -7198    -7663    -8202    -8719    -9150 
   -9458    -9563    -9467    -9254    -8989    -8700    -8436    -8233 
   -8095    -8029    -8024    -8047    -8101    -8185    -8244    -8286 
   -8338    -8341    -8281    -8190    -8054    -7908    -7807    -7708 
   -7601    -7535    -7497    -7461    -7458    -7477    -7480    -7462 
   -7414    -7302    -7119    -6872    -6569    -6242    -5927    -5663 
   -5471    -5337    -5243    -5182    -5136    -5076    -4973    -4820 
   -4622    -4367    -4044    -3651    -3223    -2801    -2374    -1939 
   -1534    -1174     -855     -622     -511     -511     -603     -769 
    -953    -1078    -1120    -1074     -943     -765     -579     -419 
    -317     -303     -379     -546     -819    -1182    -1617    -2104 
   -2605    -3071    -3465    -3771    -4027    -4256    -4469    -4688 
   -4908    -5108    -5289    -5448    -5551    -5568    -5508    -5377 
   -5185    -4930    -4606    -4237    -3866    -3539    -3264    -3021 
   -2805    -2587    -2338    -2085    -1858    -1652    -1478    -1343 
   -1225    -1112     -978     -801     -606     -410     -211      -23 
     133      259      346      407      453      504      608      811 
    1113     1514     2008     2563     3140     3707     4220     4648 
    4985     5229     5367     5393     5336     5238     5130     5049 
    5013     5039     5128     5240     5339     5420     5466     5433 
    5296     5047     4672     4151     3488     2716     1877     1050 
     287     -423    -1063    -1588    -2038    -2470    -2882    -3284 
   -3700    -4117    -4533    -4949    -5375    -5807    -6188    -6475 
   -6673    -6760    -6727    -6627    -6486    -6300    -6119    -5971 
   -5853    -5779    -5734    -5698    -5672    -5641    -5594    -5545 
   -5489    -5425    -5363    -5286    -5186    -5071    -4949    -4839 
   -4756    -4681    -4615    -4545    -4440    -4280    -4079    -3865 
   -3646    -3429    -3222    -3022    -2817    -2597    -2343    -2057 
   -1781    -1539    -1348    -1244    -1221    -1244    -1286    -1321 
   -1340    -1344    -1344    -1383    -1498    -1688    -1941    -2258 
   -2601    -2915    -3202    -3466    -3686    -3865    -4010    -4093 
   -4097    -4032    -3896    -3676    -3373    -2983    -2540    -2115 
   -1752    -1467    -1273    -1163    -1127    -1121    -1081     -969 
    -785     -533     -214      129      454      757     1004     1175 
    1289     1329     1313     1305     1332     1394     1482     1588 
    1715     1823     1858     1819     1719     1586     1447     1306 
    1174     1028      845      622      361       82     -176     -406 
    -608     -785     -953    -1116    -1236    -1306    -1348    -1354 
   -1332    -1318    -1310    -1274    -1219    -1161    -1074     -939 
    -791     -634     -469     -315     -182      -89      -49      -43 
     -86     -206     -392     -635     -895    -1142    -1397    -1645 
   -1888    -2165    -2439    -2695    -2984    -3280    -3549    -3785 
   -3967    -4098    -4191    -4230    -4228    -4203    -4136    -4013 
   -3842    -3622    -3352    -3051    -2755    -2481    -2253    -2100 
   -2011    -1968    -1956    -1945    -1939    -1941    -1923    -1890 
   -1830    -1703    -1513    -1262     -919     -519     -125      265 
     603      815      932      966      905      795      662      511 
     346      153      -85     -353     -629     -907    -1194    -1475 
   -1752    -2033    -2276    -2466    -2610    -2671    -2620    -2475 
   -2272    -2025    -1734    -1412    -1089     -791     -522     -282 
     -70      106      249      357      427      480      514      529 
     557      602      658      745      855      980     1107     1216 
    1297     1334     1328     1298     1236     1125      974      788 
     572      369      210      101       36        5        5       21 
      11      -47     -164     -353     -615     -928    -1275    -1632 
   -1987    -2331    -2632    -2867    -3025    -3095    -3083    -2974 
   -2748    -2444    -2089    -1680    -1258     -857     -479     -156 
      67      207      287      297      251      182       91      -11 
    -129     -272     -418     -556     -706     -868    -1039    -1213 
   -1404    -1629    -1884    -2146    -2408    -2658    -2852    -2960 
   -2963    -2849    -2646    -2367    -2041    -1713    -1398    -1105 
    -835     -553     -268        2      256      454      573      634 
     618      506      341      156      -32     -253     -514     -776 
   -1046    -1331    -1598    -1880    -2220    -2596    -2988    -3416 
   -3859    -4256    -4560    -4768    -4881    -4896    -4827    -4718 
   -4619    -4519    -4415    -4357    -4303    -4209    -4109    -3956 
   -3717    -3462    -3192    -2887    -2582    -2261    -1912    -1559 
   -1189     -800     -410      -35      276      502      646      691 
     627      495      302       63     -170     -382     -576     -719 
    -774     -747     -641     -457     -237      -39       99      159 
     137       52      -70     -216     -390     -587     -781     -957 
   -1123    -1277    -1405    -1507    -1586    -1626    -1630    -1622 
