Origin Time       2016/04/16 01:25:00
Lat.              32.753
Long.             130.762
Depth. (km)       12
Mag.              7.3
Station Code      KOC002
Station Lat.      33.2903
Station Long.     134.1681
Station Height(m) 17
Record Time       2016/04/16 01:26:07
Sampling Freq(Hz) 100Hz
Duration Time(s)  119
Dir.              N-S
Scale Factor      7845(gal)/8223790
Max. Acc. (gal)   5.967
Last Correction   2016/04/16 01:26:07
Memo.             
[...]
   39673    39700    39711    39712    39715    39722    39727    39722 
   39683    39607    39494    39333    39137    38917    38680    38454 
   38269    38129    38021    37935    37879    37870    37891    37941 
   38026    38125    38223    38335    38475    38653    38877    39136 
   39421    39718    40005    40269    40487    40657    40791    40892 
   40950    40961    40925    40846    40716    40535    40331    40112 
   39866    39604    39341    39073    38807    38561    38341    38148 
   37999    37891    37813    37770    37763    37785    37832    37905 
   38010    38142    38278    38407    38533    38653    38753    38835 
   38902    38955    38993    39017    39029    39024    38998    38955 
   38909    38853    38790    38753    38751    38774    38835    38915 
   38981    39041    39116    39170    39193    39199    39179    39132 
   39071    39001    38916    38808    38691    38580    38485    38422 
   38407    38442    38508    38587    38664    38735    38793    38844 
   38897    38944    38981    39021    39052    39058    39044    39015 
   38966    38900    38832    38777    38740    38723    38727    38747 
   38777    38813    38846    38869    38913    38978    39041    39083 
   39110    39113    39083    39029    38963    38894    38828    38753 
   38674    38619    38592    38588    38618    38697    38811    38925 
   39047    39175    39299    39433    39582    39726    39849    39958 
   40053    40112    40134    40143    40144    40117    40069    40015 
   39931    39807    39654    39480    39307    39135    38950    38773 
   38622    38487    38377    38304    38260    38232    38219    38205 
   38190    38180    38168    38160    38178    38227    38299    38403 
   38541    38677    38815    38973    39133    39302    39495    39699 
   39896    40082    40244    40365    40447    40482    40456    40374 
   40246    40082    39892    39681    39464    39253    39067    38927 
   38830    38753    38688    38630    38565    38489    38404    38304 
   38207    38123    38044    37972    37940    37951    38009    38123 
   38300    38526    38796    39089    39376    39638    39856    40012 
   40099    40120    40097    40036    39941    39826    39707    39587 
   39479    39388    39305    39224    39139    39039    38928    38808 
   38673    38537    38410    38304    38226    38179    38167    38205 
   38294    38414    38558    38743    38946    39136    39307    39448 
   39557    39652    39715    39744    39749    39722    39650    39546 
   39426    39290    39129    38959    38794    38632    38472    38325 
   38200    38097    38007    37944    37924    37944    37991    38079 
   38218    38383    38549    38722    38897    39051    39175    39293 
   39395    39474    39548    39630    39701    39764    39829    39873 
   39885    39876    39839    39766    39653    39498    39303    39078 
   38832    38584    38353    38152    38002    37917    37901    37948 
   38045    38168    38292    38408    38515    38608    38696    38773 
   38834    38885    38939    39001    39081    39175    39268    39361 
   39468    39577    39683    39792    39893    39968    40024    40065 
   40069    40027    39947    39846    39721    39583    39457    39328 
   39190    39069    38958    38846    38757    38680    38603    38541 
   38502    38485    38487    38504    38543    38601    38673    38763 
   38867    38986    39125    39267    39397    39495    39553    39576 
   39567    39530    39468    39384    39285    39172    39051    38915 
   38766    38623    38499    38387    38295    38227    38179    38151 
   38149    38169    38223    38318    38446    38604    38786    38993 
   39214    39414    39576    39699    39773    39795    39771    39712 
   39632    39557    39502    39474    39472    39472    39464    39444 
   39386    39295    39193    39062    38902    38758    38634    38518 
   38426    38356    38292    38242    38214    38222    38268    38329 
   38402    38484    38557    38623    38691    38766    38835    38888 
   38927    38959    38974    38969    38944    38898    38827    38724 
   38597    38470    38349    38232    38152    38122    38144    38211 
   38323    38483    38678    38885    39102    39325    39533    39710 
   39849    39947    40003    40015    40005    39989    39966    39939 
   39904    39854    39791    39718    39627    39514    39371    39216 
   39067    38921    38792    38711    38670    38669    38724    38836 
   38977    39124    39286    39457    39613    39738    39846    39927 
   39962    39961    39919    39825    39704    39586    39456    39302 
   39132    38963    38792    38615    38448    38299    38183    38097 
   38037    38016    38029    38080    38175    38299    38453    38624 
   38790    38947    39089    39217    39340    39452    39549    39630 
   39704    39768    39810    39834    39852    39876    39889    39877 
   39846    39785    39683    39546    39390    39212    39016    38803 
   38587    38400    38250    38140    38083    38079    38099    38137 
   38217    38333    38476    38661    38881    39109    39334    39545 
   39707    39796    39831    39834    39804    39757    39707    39649 
   39599    39563    39519    39474    39437    39401    39340    39247 
   39140    39019    38863    38701    38557    38439    38361    38314 
   38300    38338    38416    38516    38646    38800    38952    39085 
   39193    39271    39313    39324    39317    39305    39282    39252 
   39224    39181    39120    39064    39013    38959    38927    38915 
   38897    38869    38834    38789    38731    38662    38599    38537 
   38464    38387    38317    38248    38184    38148    38145    38157 
   38173    38209    38265    38333    38412    38508    38622    38747 
   38869    38978    39083    39164    39217    39271    39322    39356 
   39386    39402    39383    39345    39293    39221    39145    39071 
   38985    38884    38767    38639    38510    38384    38271    38191 
   38142    38115    38134    38206    38306    38430    38587    38763 
   38934    39090    39233    39357    39464    39556    39613    39618 
   39583    39502    39366    39212    39058    38894    38735    38592 
   38469    38364    38277    38206    38159    38145    38144    38144 
   38151    38169    38194    38222    38278    38385    38518    38672 
   38846    39008    39139    39245    39318    39375    39436    39474 
   39474    39457    39414    39328    39239    39154    39050    38936 
   38823    38707    38577    38431    38275    38123    37976    37831 
   37702    37600    37520    37474    37486    37546    37646    37794 
   37980    38176    38384    38592    38781    38958    39124    39267 
   39384    39482    39545    39576    39588    39595    39599    39607 
   39621    39613    39575    39513    39414    39287    39136    38963 
   38781    38611    38456    38325    38242    38211    38223    38277 
   38371    38491    38626    38757    38865    38965    39062    39147 
   39233    39320    39391    39449    39486    39500    39494    39465 
   39434    39405    39374    39343    39317    39278    39204    39106 
   38990    38846    38695    38545    38384    38226    38086    37972 
   37899    37875    37894    37951    38040    38140    38254    38383 
   38507    38618    38714    38789    38846    38905    38969    39033 
   39105    39189    39282    39378    39480    39598    39710    39819 
   39933    40027    40091    40127    40123    40086    40026    39950 
   39877    39810    39745    39688    39640    39584    39519    39451 
   39364    39260    39154    39048    38947    38862    38789    38716 
   38645    38572    38507    38469    38460    38487    38564    38680 
   38823    38992    39171    39343    39484    39594    39668    39696 
   39671    39607    39526    39433    39340    39263    39206    39164 
   39139    39125    39118    39125    39147    39178    39218    39263 
   39303    39340    39363    39370    39372    39364    39340    39307 
   39266    39221    39190    39173    39175    39214    39275    39334 
   39395    39447    39480    39494    39488    39483    39484    39476 
   39460    39449    39452    39472    39502    39557    39658    39783 
   39914    40054    40185    40277    40309    40290    40239    40149 
   40009    39847    39688    39537    39405    39295    39219    39175 
   39150    39137    39150    39172    39187    39186    39166    39114 
   39032    38931    38823    38720    38631    38562    38514    38485 
   38476    38475    38480    38491    38508    38533    38560    38596 
   38643    38691    38730    38755    38785    38813    38831    38846 
   38853    38853    38851    38844    38826    38794    38763    38732 
   38703    38689    38695    38714    38755    38805    38857    38902 
   38928    38942    38959    38974    38996    39051    39120    39189 
   39276    39376    39475    39584    39707    39818    39903    39968 
   40012    40016    39981    39903    39772    39599    39378    39101 
   38812    38538    38281    38060    37902    37810    37760    37754 
   37794    37859    37943    38053    38172    38299    38442    38581 
   38701    38805    38890    38961    39036    39132    39252    39393 
   39550    39711    39850    39954    40015    40023    39973    39880 
   39760    39623    39476    39317    39140    38947    38728    38489 
   38248    38026    37836    37667    37527    37420    37337    37274 
   37246    37261    37307    37392    37530    37698    37889    38094 
   38299    38500    38700    38896    39071    39231    39387    39533 
   39664    39787    39893    39973    40030    40058    40046    39992 
   39899    39756    39555    39307    39019    38688    38327    37962 
   37605    37281    37029    36857    36756    36722    36741    36799 
   36898    37031    37192    37368    37544    37721    37905    38090 
   38277    38473    38668    38853    39024    39195    39367    39522 
   39671    39815    39931    40019    40081    40099    40069    39987 
   39862    39715    39542    39348    39150    38940    38716    38492 
   38268    38055    37879    37758    37683    37658    37698    37809 
   37972    38172    38396    38637    38886    39131    39370    39615 
   39861    40096    40317    40516    40672    40782    40821    40765 
   40625    40409    40116    39779    39433    39082    38736    38425 
   38155    37939    37795    37709    37682    37735    37836    37962 
   38119    38284    38427    38534    38595    38616    38610    38588 
   38577    38603    38661    38749    38878    39016    39129    39232 
   39305    39317    39282    39204    39067    38909    38757    38597 
   38448    38334    38259    38241    38287    38394    38568    38780 
   39004    39239    39463    39634    39753    39835    39865    39849 
   39835    39823    39798    39784    39796    39825    39860    39901 
   39949    40008    40073    40143    40219    40289    40343    40383 
   40401    40400    40389    40358    40297    40232    40176    40114 
   40066    40038    40003    39968    39949    39930    39899    39858 
   39818    39791    39780    39777    39812    39900    40000    40107 
   40242    40381    40517    40656    40774    40875    40963    41030 
   41096    41164    41203    41231    41246    41202    41125    41046 
   40934    40784    40614    40400    40131    39812    39436    38988 
   38493    37975    37434    36915    36466    36086    35779    35552 
   35407    35344    35346    35407    35536    35730    35970    36223 
   36491    36778    37057    37322    37578    37822    38057    38287 
   38518    38753    38983    39198    39391    39540    39631    39668 
   39625    39487    39280    39021    38711    38369    38020    37658 
   37288    36919    36548    36193    35877    35602    35383    35247 
   35209    35291    35498    35814    36212    36668    37149    37619 
   38057    38456    38805    39083    39286    39434    39525    39542 
   39492    39380    39237    39093    38970    38913    38932    38996 
   39091    39209    39314    39398    39455    39471    39451    39410 
   39364    39320    39290    39297    39348    39436    39563    39718 
   39877    40030    40153    40232    40278    40282    40239    40154 
   40026    39873    39714    39556    39414    39290    39189    39123 
   39085    39058    39046    39035    39008    38973    38948    38936 
   38936    38961    39015    39096    39201    39341    39506    39671 
   39834    40005    40173    40332    40486    40614    40714    40802 
   40857    40860    40844    40810    40738    40652    40576    40493 
   40385    40255    40097    39899    39664    39390    39091    38790 
   38491    38198    37913    37613    37297    36987    36702    36443 
   36217    36035    35904    35808    35743    35729    35769    35850 
   35946    36061    36190    36317    36441    36564    36684    36809 
   36945    37084    37214    37337    37434    37467    37432    37330 
   37164    36950    36705    36440    36158    35878    35633    35413 
   35224    35091    35010    34981    35016    35116    35289    35553 
   35914    36377    36931    37551    38194    38823    39432    39997 
   40493    40918    41289    41592    41823    41998    42137    42260 
   42400    42568    42763    42984    43208    43411    43599    43768 
   43899    43993    44059    44100    44124    44145    44174    44235 
   44339    44483    44667    44859    45034    45176    45249    45241 
   45162    44999    44736    44385    43956    43478    42967    42437 
   41901    41392    40929    40513    40158    39870    39636    39453 
   39320    39214    39143    39116    39114    39127    39156    39186 
   39199    39189    39141    39073    39012    38973    38955    38959 
   38982    39001    38998    38978    38944    38892    38828    38745 
   38639    38539    38433    38308    38180    38048    37910    37760 
   37593    37416    37230    37031    36830    36613    36377    36142 
   35904    35656    35407    35167    34967    34820    34724    34723 
   34840    35048    35343    35730    36173    36630    37072    37449 
   37752    38001    38183    38308    38407    38460    38452    38402 
   38330    38232    38103    37968    37847    37729    37617    37532 
   37474    37446    37465    37528    37629    37767    37930    38106 
   38299    38504    38705    38908    39114    39298    39434    39519 
   39569    39599    39636    39708    39818    39946    40081    40212 
   40324    40396    40410    40393    40355    40304    40250    40193 
   40154    40142    40146    40181    40263    40369    40478    40602 
   40744    40887    41034    41197    41381    41578    41782    41980 
   42157    42317    42464    42576    42627    42610    42516    42321 
   41995    41550    41006    40381    39711    39043    38402    37810 
   37278    36805    36398    36077    35837    35669    35586    35596 
   35688    35854    36097    36404    36738    37085    37432    37759 
   38047    38295    38495    38612    38645    38591    38425    38152 
   37798    37385    36953    36526    36126    35784    35519    35329 
   35222    35212    35290    35455    35715    36069    36517    37049 
   37652    38313    39006    39699    40370    40995    41532    41960 
   42260    42411    42409    42271    41999    41615    41145    40602 
   40007    39394    38781    38186    37628    37118    36647    36223 
   35850    35540    35289    35093    34967    34931    34978    35113 
   35359    35712    36139    36618    37143    37683    38209    38716 
   39191    39609    39955    40244    40501    40724    40902    41037 
   41134    41181    41170    41103    40984    40814    40590    40316 
   40012    39698    39398    39148    38952    38811    38739    38735 
   38789    38893    39031    39189    39347    39472    39552    39573 
   39521    39397    39201    38934    38632    38341    38064    37812 
   37597    37423    37282    37176    37104    37060    37025    36994 
   36967    36936    36907    36913    36960    37056    37222    37465 
   37773    38136    38538    38955    39371    39764    40101    40367 
   40563    40680    40724    40702    40632    40525    40381    40217 
   40059    39914    39781    39668    39553    39417    39274    39132 
   38985    38857    38767    38722    38734    38823    38996    39249 
   39576    39955    40365    40774    41156    41490    41752    41937 
   42053    42102    42103    42066    41996    41898    41774    41636 
   41482    41311    41123    40894    40610    40278    39896    39474 
   39020    38553    38086    37646    37260    36937    36693    36536 
   36470    36489    36562    36671    36815    36985    37168    37362 
   37565    37755    37928    38098    38253    38392    38516    38616 
   38673    38676    38635    38556    38437    38307    38184    38071 
   37980    37914    37862    37837    37851    37885    37939    38016 
   38088    38146    38194    38225    38238    38240    38232    38229 
   38229    38241    38280    38344    38425    38507    38558    38566 
   38527    38439    38319    38199    38106    38052    38047    38082 
   38157    38271    38395    38518    38639    38740    38816    38877 
   38901    38871    38792    38662    38481    38278    38072    37855 
   37643    37465    37326    37231    37184    37188    37249    37342 
   37446    37570    37705    37840    37984    38133    38283    38442 
   38600    38759    38927    39096    39264    39437    39606    39748 
   39841    39873    39842    39746    39591    39388    39150    38893 
   38642    38422    38241    38117    38068    38088    38160    38291 
   38476    38685    38913    39148    39376    39604    39827    40043 
   40257    40459    40653    40860    41084    41319    41588    41878 
   42160    42423    42658    42853    43004    43106    43160    43170 
   43131    43038    42900    42739    42562    42364    42155    41937 
   41693    41409    41083    40716    40316    39899    39472    39064 
   38709    38414    38176    37990    37864    37816    37837    37922 
   38084    38307    38547    38786    39012    39204    39363    39505 
   39630    39741    39853    39965    40062    40157    40242    40297 
   40320    40297    40205    40042    39807    39506    39166    38823 
   38519    38273    38094    37993    37970    38011    38102    38217 
   38345    38484    38607    38708    38800    38875    38938    39013 
   39098    39210    39374    39579    39826    40119    40433    40763 
   41114    41453    41755    42019    42237    42394    42484    42512 
   42500    42458    42384    42273    42126    41945    41727    41477 
   41219    40969    40726    40510    40331    40186    40074    40001 
   39970    39981    40030    40108    40213    40342    40464    40566 
   40653    40718    40757    40780    40787    40784    40784    40783 
   40775    40778    40787    40791    40795    40801    40790    40763 
   40722    40639    40500    40319    40097    39842    39560    39264 
   38971    38689    38434    38203    37975    37752    37547    37336 
   37104    36859    36599    36340    36101    35878    35687    35550 
   35478    35476    35550    35692    35907    36193    36540    36923 
