Origin Time       2016/04/16 01:25:00
Lat.              32.753
Long.             130.762
Depth. (km)       12
Mag.              7.3
Station Code      KOC001
Station Lat.      33.5275
Station Long.     134.2814
Station Height(m) 6
Record Time       2016/04/16 01:26:46
Sampling Freq(Hz) 100Hz
Duration Time(s)  74
Dir.              N-S
Scale Factor      7845(gal)/8223790
Max. Acc. (gal)   3.339
Last Correction   2016/04/16 01:26:46
Memo.             
[...]
   -1788    -1846    -1887    -1911    -1908    -1887    -1850    -1799 
   -1746    -1711    -1692    -1680    -1674    -1680    -1705    -1746 
   -1807    -1890    -1981    -2065    -2138    -2191    -2214    -2211 
   -2192    -2157    -2111    -2061    -2001    -1949    -1915    -1902 
   -1910    -1942    -1989    -2034    -2072    -2104    -2120    -2111 
   -2083    -2030    -1960    -1876    -1790    -1709    -1634    -1575 
   -1545    -1543    -1566    -1610    -1664    -1726    -1783    -1819 
   -1850    -1877    -1894    -1919    -1958    -1998    -2041    -2089 
   -2130    -2173    -2215    -2238    -2238    -2214    -2162    -2100 
   -2031    -1965    -1917    -1895    -1911    -1964    -2034    -2119 
   -2188    -2224    -2231    -2199    -2137    -2058    -1971    -1883 
   -1802    -1732    -1690    -1691    -1725    -1779    -1845    -1910 
   -1962    -2000    -2011    -1989    -1938    -1867    -1792    -1732 
   -1702    -1709    -1755    -1837    -1934    -2031    -2114    -2173 
   -2212    -2231    -2231    -2207    -2166    -2124    -2089    -2073 
   -2087    -2123    -2173    -2238    -2316    -2394    -2452    -2477 
   -2459    -2397    -2301    -2191    -2076    -1980    -1912    -1876 
   -1875    -1902    -1934    -1975    -2026    -2065    -2096    -2123 
   -2133    -2119    -2095    -2062    -2025    -1991    -1960    -1926 
   -1892    -1859    -1830    -1811    -1809    -1809    -1818    -1837 
   -1858    -1881    -1906    -1925    -1934    -1941    -1939    -1930 
   -1929    -1927    -1935    -1968    -2025    -2100    -2192    -2292 
   -2397    -2497    -2578    -2633    -2660    -2646    -2592    -2505 
   -2390    -2255    -2128    -2020    -1944    -1904    -1900    -1922 
   -1960    -2008    -2058    -2107    -2158    -2196    -2220    -2223 
   -2189    -2124    -2050    -1972    -1900    -1850    -1818    -1813 
   -1840    -1890    -1953    -2018    -2068    -2100    -2121    -2126 
   -2110    -2076    -2025    -1966    -1914    -1876    -1865    -1883 
   -1930    -2001    -2084    -2163    -2226    -2258    -2266    -2250 
   -2212    -2166    -2124    -2100    -2096    -2107    -2130    -2160 
   -2189    -2222    -2254    -2289    -2319    -2330    -2316    -2281 
   -2218    -2135    -2047    -1958    -1883    -1829    -1794    -1790 
   -1821    -1875    -1956    -2064    -2170    -2266    -2362    -2446 
   -2511    -2562    -2587    -2579    -2550    -2505    -2455    -2404 
   -2347    -2293    -2251    -2215    -2193    -2191    -2200    -2224 
   -2259    -2299    -2336    -2366    -2378    -2378    -2355    -2304 
   -2239    -2163    -2077    -1992    -1921    -1875    -1854    -1861 
   -1903    -1975    -2068    -2161    -2247    -2326    -2380    -2408 
   -2427    -2428    -2415    -2405    -2396    -2388    -2393    -2409 
   -2428    -2451    -2469    -2467    -2447    -2398    -2311    -2196 
   -2076    -1958    -1867    -1809    -1779    -1788    -1825    -1876 
   -1941    -2007    -2057    -2088    -2104    -2111    -2110    -2098 
   -2081    -2061    -2034    -2007    -1977    -1946    -1911    -1867 
   -1811    -1750    -1679    -1609    -1543    -1476    -1420    -1367 
   -1321    -1300    -1302    -1323    -1364    -1420    -1475    -1528 
   -1578    -1615    -1647    -1682    -1722    -1772    -1836    -1902 
   -1972    -2043    -2104    -2155    -2193    -2215    -2238    -2250 
   -2246    -2234    -2212    -2178    -2139    -2102    -2077    -2057 
   -2045    -2045    -2052    -2064    -2077    -2089    -2110    -2134 
   -2157    -2177    -2184    -2170    -2141    -2101    -2064    -2031 
   -2007    -1987    -1968    -1948    -1923    -1896    -1864    -1829 
   -1802    -1790    -1790    -1807    -1841    -1887    -1935    -1985 
   -2037    -2077    -2110    -2124    -2111    -2084    -2046    -1995 
   -1948    -1912    -1887    -1877    -1884    -1896    -1906    -1915 
   -1925    -1941    -1964    -1988    -2007    -2016    -2007    -1985 
   -1962    -1937    -1919    -1925    -1946    -1975    -2008    -2034 
   -2050    -2046    -2019    -1975    -1923    -1861    -1798    -1729 
   -1656    -1590    -1545    -1525    -1524    -1534    -1560    -1591 
   -1624    -1655    -1684    -1711    -1737    -1757    -1776    -1796 
   -1806    -1804    -1803    -1799    -1787    -1779    -1768    -1748 
   -1719    -1676    -1617    -1556    -1491    -1429    -1390    -1378 
   -1375    -1387    -1412    -1440    -1467    -1502    -1539    -1566 
   -1587    -1603    -1609    -1606    -1598    -1583    -1567    -1557 
   -1557    -1574    -1615    -1674    -1741    -1813    -1875    -1919 
   -1941    -1934    -1904    -1861    -1810    -1757    -1713    -1682 
   -1668    -1669    -1687    -1715    -1750    -1791    -1829    -1861 
   -1892    -1912    -1919    -1922    -1922    -1918    -1915    -1917 
   -1921    -1934    -1962    -1992    -2020    -2060    -2092    -2107 
   -2120    -2114    -2089    -2065    -2030    -1981    -1949    -1933 
   -1925    -1944    -1985    -2031    -2088    -2150    -2203    -2250 
   -2282    -2290    -2276    -2235    -2180    -2119    -2053    -1988 
   -1937    -1906    -1899    -1925    -1984    -2053    -2133    -2226 
   -2304    -2367    -2420    -2446    -2455    -2455    -2431    -2398 
   -2365    -2316    -2272    -2241    -2209    -2188    -2176    -2166 
   -2166    -2178    -2193    -2214    -2242    -2270    -2297    -2324 
   -2336    -2331    -2313    -2276    -2218    -2150    -2066    -1981 
   -1904    -1836    -1790    -1775    -1781    -1809    -1850    -1895 
   -1945    -2004    -2058    -2098    -2124    -2130    -2116    -2101 
   -2089    -2079    -2085    -2107    -2147    -2207    -2274    -2335 
   -2390    -2431    -2459    -2485    -2502    -2505    -2502    -2490 
   -2465    -2430    -2392    -2353    -2313    -2280    -2254    -2224 
   -2185    -2144    -2100    -2064    -2046    -2039    -2047    -2073 
   -2100    -2126    -2162    -2196    -2222    -2235    -2230    -2207 
   -2169    -2119    -2062    -2007    -1960    -1915    -1884    -1873 
   -1876    -1890    -1912    -1946    -1991    -2038    -2076    -2106 
   -2126    -2146    -2170    -2205    -2246    -2289    -2336    -2384 
   -2423    -2450    -2457    -2442    -2408    -2353    -2281    -2196 
   -2106    -2020    -1945    -1885    -1856    -1856    -1875    -1908 
   -1949    -1979    -1998    -2000    -1985    -1961    -1934    -1903 
   -1875    -1850    -1837    -1837    -1846    -1858    -1871    -1883 
   -1885    -1878    -1867    -1844    -1804    -1764    -1726    -1691 
   -1664    -1645    -1640    -1647    -1672    -1714    -1761    -1809 
   -1848    -1876    -1896    -1902    -1887    -1865    -1836    -1806 
   -1792    -1794    -1803    -1837    -1885    -1934    -1988    -2046 
   -2088    -2111    -2114    -2084    -2025    -1945    -1846    -1742 
   -1652    -1578    -1528    -1514    -1530    -1575    -1644    -1719 
   -1790    -1842    -1869    -1865    -1833    -1780    -1711    -1632 
   -1561    -1505    -1462    -1437    -1440    -1460    -1497    -1545 
   -1588    -1629    -1667    -1690    -1696    -1696    -1688    -1683 
   -1694    -1728    -1777    -1838    -1902    -1958    -1999    -2026 
   -2041    -2052    -2057    -2062    -2072    -2081    -2091    -2107 
   -2128    -2151    -2181    -2212    -2239    -2269    -2295    -2316 
   -2338    -2357    -2370    -2388    -2408    -2430    -2455    -2484 
   -2512    -2539    -2565    -2584    -2598    -2600    -2587    -2565 
   -2535    -2501    -2461    -2417    -2365    -2303    -2235    -2166 
   -2101    -2043    -1988    -1939    -1898    -1863    -1831    -1794 
   -1752    -1715    -1687    -1675    -1686    -1707    -1738    -1768 
   -1786    -1788    -1772    -1734    -1690    -1634    -1571    -1512 
   -1462    -1422    -1405    -1425    -1472    -1540    -1629    -1723 
   -1817    -1906    -1982    -2039    -2083    -2116    -2147    -2182 
   -2222    -2262    -2315    -2376    -2434    -2484    -2524    -2554 
   -2574    -2583    -2587    -2586    -2584    -2584    -2589    -2597 
   -2604    -2606    -2597    -2574    -2543    -2498    -2442    -2371 
   -2292    -2208    -2126    -2046    -1968    -1895    -1833    -1787 
   -1750    -1729    -1732    -1753    -1787    -1822    -1857    -1896 
   -1930    -1945    -1944    -1925    -1878    -1815    -1742    -1658 
   -1578    -1506    -1439    -1385    -1354    -1344    -1356    -1397 
   -1452    -1513    -1583    -1649    -1694    -1725    -1738    -1726 
   -1695    -1653    -1609    -1563    -1522    -1497    -1485    -1487 
   -1507    -1547    -1605    -1676    -1752    -1822    -1880    -1927 
   -1969    -2010    -2050    -2091    -2134    -2181    -2235    -2304 
   -2381    -2454    -2525    -2587    -2620    -2625    -2606    -2555 
   -2478    -2388    -2289    -2195    -2111    -2046    -2016    -2025 
   -2073    -2157    -2261    -2370    -2475    -2563    -2620    -2640 
   -2620    -2555    -2458    -2342    -2218    -2087    -1969    -1883 
   -1833    -1833    -1877    -1960    -2070    -2196    -2313    -2411 
   -2470    -2479    -2450    -2389    -2297    -2189    -2088    -2008 
   -1968    -1987    -2069    -2201    -2373    -2575    -2775    -2949 
   -3084    -3159    -3159    -3096    -2974    -2799    -2602    -2408 
   -2234    -2102    -2027    -2011    -2052    -2138    -2255    -2392 
   -2521    -2624    -2700    -2744    -2759    -2752    -2737    -2728 
   -2727    -2747    -2806    -2898    -3017    -3161    -3323    -3485 
   -3639    -3776    -3889    -3967    -4009    -4027    -4023    -3997 
   -3964    -3921    -3867    -3808    -3742    -3672    -3592    -3505 
   -3419    -3329    -3242    -3172    -3115    -3078    -3060    -3055 
   -3059    -3063    -3055    -3022    -2960    -2875    -2768    -2650 
   -2529    -2409    -2305    -2232    -2188    -2172    -2182    -2212 
   -2247    -2281    -2297    -2282    -2238    -2157    -2042    -1900 
   -1742    -1572    -1418    -1285    -1171    -1100    -1069    -1067 
   -1102    -1162    -1221    -1271    -1296    -1282    -1236    -1154 
   -1036     -895     -731     -562     -410     -282     -189     -137 
    -121     -135     -168     -207     -252     -287     -303     -291 
    -238     -141      -11      144      306      453      581      680 
     745      780      776      741      684      621      576      562 
     577      626      707      800      900      999     1073     1109 
    1117     1092     1032      961      868      749      621      480 
     332      205       94        0      -62     -102     -129     -139 
    -131     -125     -125     -141     -180     -245     -336     -445 
    -571     -706     -843     -976    -1111    -1246    -1374    -1494 
   -1605    -1705    -1802    -1892    -1971    -2047    -2135    -2230 
   -2322    -2413    -2497    -2569    -2639    -2708    -2766    -2822 
   -2882    -2921    -2938    -2941    -2920    -2879    -2832    -2782 
   -2731    -2687    -2654    -2631    -2628    -2644    -2686    -2768 
   -2880    -3001    -3118    -3219    -3296    -3343    -3357    -3342 
   -3303    -3242    -3175    -3117    -3064    -3034    -3051    -3106 
   -3202    -3341    -3504    -3686    -3871    -4036    -4174    -4270 
   -4324    -4340    -4318    -4266    -4192    -4110    -4032    -3977 
   -3951    -3954    -3987    -4050    -4126    -4205    -4286    -4359 
   -4419    -4473    -4530    -4587    -4648    -4714    -4780    -4845 
   -4900    -4935    -4953    -4945    -4901    -4828    -4726    -4602 
   -4484    -4372    -4260    -4164    -4082    -4012    -3969    -3944 
   -3923    -3898    -3859    -3794    -3697    -3559    -3384    -3175 
   -2929    -2655    -2369    -2087    -1825    -1601    -1422    -1291 
   -1210    -1156    -1113    -1075    -1030     -969     -895     -793 
    -673     -545     -402     -251     -106       29      144      222 
     268      287      289      292      294      299      318      353 
     409      490      583      683      773      827      843      815 
     728      592      415      207       -4     -205     -392     -552 
    -673     -767     -832     -870     -901     -932     -957     -985 
   -1026    -1078    -1147    -1242    -1359    -1505    -1680    -1877 
   -2102    -2350    -2600    -2839    -3057    -3249    -3403    -3519 
   -3588    -3613    -3611    -3589    -3568    -3562    -3582    -3638 
   -3719    -3815    -3919    -4006    -4067    -4097    -4074    -4005 
   -3890    -3734    -3549    -3355    -3175    -3021    -2913    -2855 
   -2844    -2890    -2972    -3065    -3168    -3271    -3352    -3415 
   -3462    -3483    -3483    -3473    -3462    -3459    -3468    -3495 
   -3549    -3612    -3674    -3728    -3767    -3792    -3800    -3792 
   -3776    -3750    -3719    -3694    -3684    -3699    -3743    -3805 
   -3886    -3982    -4077    -4158    -4225    -4275    -4291    -4271 
   -4217    -4133    -4032    -3932    -3855    -3805    -3784    -3790 
   -3823    -3865    -3908    -3946    -3963    -3951    -3906    -3819 
   -3697    -3550    -3395    -3242    -3115    -3030    -2976    -2952 
   -2961    -2984    -3013    -3049    -3071    -3071    -3048    -2976 
   -2862    -2710    -2517    -2292    -2052    -1806    -1563    -1324 
   -1092     -862     -626     -392     -168       43      230      392 
     537      666      795      913     1017     1107     1178     1237 
    1294     1345     1395     1447     1486     1509     1513     1494 
    1467     1443     1418     1401     1394     1394     1395     1390 
    1370     1331     1269     1181     1063      911      734      532 
     309       78     -144     -359     -546     -702     -820     -892 
    -926     -936     -931     -926     -936     -963    -1011    -1081 
   -1158    -1243    -1333    -1412    -1464    -1490    -1485    -1451 
   -1409    -1377    -1362    -1377    -1439    -1545    -1692    -1869 
   -2061    -2251    -2428    -2575    -2690    -2779    -2841    -2879 
   -2896    -2896    -2887    -2874    -2851    -2826    -2802    -2768 
   -2729    -2679    -2613    -2533    -2442    -2331    -2208    -2073 
   -1939    -1826    -1736    -1674    -1645    -1647    -1677    -1734 
   -1815    -1911    -2019    -2137    -2251    -2357    -2450    -2523 
   -2577    -2619    -2646    -2666    -2691    -2717    -2737    -2754 
   -2763    -2759    -2744    -2721    -2693    -2667    -2644    -2623 
   -2619    -2633    -2658    -2700    -2759    -2828    -2910    -3005 
   -3099    -3194    -3283    -3365    -3450    -3534    -3609    -3680 
   -3740    -3786    -3824    -3851    -3859    -3852    -3838    -3813 
   -3778    -3751    -3736    -3731    -3742    -3757    -3766    -3773 
   -3770    -3746    -3709    -3669    -3627    -3589    -3559    -3537 
   -3514    -3485    -3450    -3410    -3360    -3298    -3215    -3109 
   -2986    -2840    -2675    -2500    -2324    -2155    -1992    -1842 
   -1707    -1586    -1482    -1391    -1312    -1247    -1188    -1132 
   -1084    -1026     -954     -873     -783     -681     -566     -446 
    -332     -225     -135      -65      -18       16       37       44 
      47       58       67       78       87       89       86       74 
      44       -1      -58     -133     -225     -322     -411     -487 
    -540     -566     -562     -532     -493     -454     -419     -403 
    -414     -445     -506     -585     -679     -780     -876     -950 
    -989     -986     -954     -895     -815     -737     -670     -619 
    -589     -579     -579     -591     -607     -618     -629     -638 
    -645     -656     -672     -687     -704     -726     -739     -741 
    -727     -685     -616     -526     -422     -309     -197      -97 
     -21       27       39       11      -39     -108     -197     -292 
    -383     -464     -537     -600     -662     -728     -803     -889 
    -980    -1070    -1161    -1244    -1321    -1390    -1447    -1493 
   -1530    -1561    -1578    -1590    -1610    -1649    -1706    -1790 
   -1903    -2033    -2166    -2304    -2436    -2562    -2686    -2802 
   -2910    -3015    -3109    -3190    -3265    -3333    -3392    -3449 
   -3505    -3577    -3669    -3769    -3871    -3977    -4077    -4163 
   -4241    -4307    -4357    -4391    -4407    -4410    -4405    -4391 
   -4376    -4360    -4344    -4320    -4279    -4220    -4145    -4043 
   -3920    -3789    -3647    -3503    -3364    -3238    -3136    -3055 
   -2995    -2951    -2915    -2894    -2876    -2849    -2822    -2801 
   -2770    -2728    -2679    -2612    -2527    -2436    -2343    -2251 
   -2172    -2101    -2042    -2006    -1985    -1975    -1981    -2000 
   -2025    -2047    -2062    -2066    -2056    -2025    -1973    -1899 
   -1807    -1694    -1561    -1422    -1278    -1140    -1024     -938 
    -881     -851     -843     -845     -843     -828     -788     -727 
    -649     -553     -453     -356     -270     -203     -159     -137 
    -131     -137     -147     -156     -160     -152     -135     -105 
     -62      -21        8       32       47       39       16      -17 
     -65     -125     -182     -241     -302     -357     -410     -468 
    -508     -529     -537     -522     -484     -440     -386     -324 
    -261     -203     -147      -91      -39        2       40       82 
     139      210      291      373      450      514      557      576 
     571      540      488      414      322      222      122       21 
     -70     -141     -198     -232     -233     -216     -180     -137 
     -91      -45       -1       29       47       47       32       -1 
     -55     -120     -195     -274     -344     -407     -464     -513 
    -548     -577     -610     -642     -677     -730     -793     -864 
    -954    -1060    -1179    -1305    -1429    -1543    -1647    -1737 
   -1810    -1876    -1937    -1996    -2060    -2119    -2174    -2227 
   -2270    -2308    -2343    -2370    -2392    -2408    -2416    -2421 
   -2424    -2430    -2442    -2461    -2493    -2542    -2604    -2677 
   -2758    -2839    -2911    -2971    -3018    -3051    -3073    -3087 
   -3078    -3057    -3038    -3022    -3015    -3021    -3036    -3063 
   -3100    -3138    -3168    -3187    -3194    -3190    -3169    -3137 
   -3092    -3040    -2986    -2925    -2855    -2778    -2691    -2605 
   -2527    -2458    -2407    -2378    -2373    -2393    -2435    -2489 
   -2554    -2625    -2697    -2766    -2822    -2862    -2882    -2875 
   -2843    -2798    -2737    -2667    -2601    -2536    -2474    -2417 
   -2365    -2322    -2284    -2254    -2234    -2215    -2201    -2187 
   -2174    -2173    -2180    -2195    -2224    -2263    -2311    -2373 
   -2440    -2512    -2586    -2654    -2705    -2745    -2772    -2783 
   -2786    -2790    -2789    -2776    -2766    -2748    -2717    -2679 
   -2624    -2548    -2459    -2359    -2253    -2147    -2041    -1942 
   -1852    -1768    -1694    -1632    -1583    -1547    -1532    -1532 
   -1535    -1551    -1579    -1605    -1626    -1651    -1669    -1675 
   -1672    -1665    -1653    -1642    -1644    -1656    -1669    -1691 
   -1715    -1734    -1750    -1757    -1744    -1719    -1686    -1644 
   -1605    -1575    -1556    -1554    -1574    -1602    -1636    -1672 
