Origin Time       2016/04/16 01:25:00
Lat.              32.753
Long.             130.762
Depth. (km)       12
Mag.              7.3
Station Code      KOC013
Station Lat.      33.0797
Station Long.     133.1015
Station Height(m) 3
Record Time       2016/04/16 01:25:45
Sampling Freq(Hz) 100Hz
Duration Time(s)  136
Dir.              N-S
Scale Factor      7845(gal)/8223790
Max. Acc. (gal)   28.878
Last Correction   2016/04/16 01:25:45
Memo.             
[...]
   -5331    -5128    -5077    -5004    -4882    -4833    -4963    -5201 
   -5368    -5425    -5448    -5432    -5348    -5304    -5417    -5622 
   -5764    -5795    -5805    -5914    -6134    -6376    -6637    -6970 
   -7337    -7723    -8210    -8847    -9589   -10329   -10970   -11495 
  -11928   -12231   -12380   -12452   -12495   -12488   -12426   -12314 
  -12166   -11998   -11828   -11695   -11641   -11607   -11416   -10974 
  -10365    -9683    -8947    -8248    -7711    -7314    -6941    -6528 
   -6037    -5422    -4753    -4209    -3861    -3618    -3360    -3068 
   -2844    -2772    -2778    -2756    -2727    -2763    -2903    -3175 
   -3593    -4164    -4885    -5705    -6564    -7395    -8055    -8461 
   -8696    -8846    -8978    -9228    -9690   -10358   -11183   -12066 
  -12910   -13695   -14411   -14994   -15373   -15508   -15407   -15144 
  -14783   -14281   -13547   -12591   -11535   -10488    -9463    -8464 
   -7586    -6903    -6386    -5995    -5755    -5653    -5563    -5418 
   -5292    -5216    -5188    -5332    -5767    -6305    -6571    -6427 
   -6127    -5953    -5875    -5694    -5390    -5098    -4931    -4928 
   -5017    -5076    -5060    -5019    -5039    -5193    -5528    -6110 
   -6970    -8009    -9035    -9873   -10413   -10648   -10697   -10741 
  -10901   -11124   -11294   -11408   -11487   -11453   -11229   -10837 
  -10362    -9923    -9657    -9621    -9720    -9841    -9985   -10215 
  -10476   -10632   -10621   -10473   -10224    -9861    -9351    -8719 
   -7996    -7173    -6296    -5471    -4773    -4222    -3861    -3732 
   -3785    -3901    -4003    -4074    -4136    -4203    -4295    -4487 
   -4882    -5493    -6230    -6998    -7715    -8267    -8556    -8596 
   -8494    -8395    -8410    -8525    -8649    -8807    -9116    -9616 
  -10216   -10793   -11207   -11323   -11164   -10979   -10984   -11113 
  -11178   -11153   -11110   -11016   -10837   -10638   -10462   -10287 
  -10088    -9904    -9763    -9578    -9242    -8815    -8434    -8052 
   -7539    -6886    -6183    -5514    -4969    -4642    -4545    -4526 
   -4406    -4199    -4064    -4025    -3990    -4017    -4284    -4810 
   -5448    -6097    -6750    -7403    -7987    -8391    -8606    -8715 
   -8776    -8841    -8947    -9049    -9104    -9153    -9239    -9414 
   -9749   -10211   -10636   -10875   -10881   -10696   -10372    -9942 
   -9495    -9158    -8943    -8773    -8608    -8431    -8212    -7955 
   -7705    -7441    -7117    -6858    -6848    -7080    -7398    -7688 
   -7892    -7994    -8017    -8035    -8172    -8482    -8838    -9099 
   -9244    -9286    -9220    -9109    -9036    -8995    -8934    -8802 
   -8527    -8089    -7595    -7252    -7206    -7393    -7622    -7777 
   -7840    -7755    -7470    -7089    -6793    -6598    -6381    -6126 
   -5965    -5945    -5977    -6049    -6247    -6563    -6871    -7132 
   -7391    -7600    -7743    -8000    -8532    -9267   -10010   -10613 
  -11002   -11105   -10879   -10465   -10065    -9753    -9532    -9435 
   -9487    -9655    -9821    -9877    -9778    -9502    -9078    -8579 
   -8083    -7676    -7385    -7172    -6987    -6798    -6538    -6134 
   -5617    -5111    -4703    -4401    -4214    -4168    -4256    -4483 
   -4873    -5435    -6192    -7160    -8232    -9217   -10050   -10755 
  -11323   -11745   -12050   -12218   -12221   -12108   -11923   -11699 
  -11477   -11313   -11237   -11169   -10968   -10579   -10085    -9560 
   -8986    -8367    -7740    -7109    -6459    -5823    -5231    -4710 
   -4340    -4197    -4268    -4538    -5019    -5630    -6189    -6563 
   -6768    -6916    -7109    -7395    -7742    -8102    -8471    -8806 
   -8996    -9004    -8962    -9022    -9150    -9200    -9155    -9146 
   -9227    -9355    -9530    -9814   -10183   -10466   -10508   -10329 
  -10031    -9678    -9396    -9270    -9161    -8891    -8500    -8170 
   -7952    -7765    -7576    -7402    -7198    -6933    -6673    -6531 
   -6485    -6412    -6254    -6010    -5665    -5277    -4978    -4878 
   -4972    -5204    -5541    -5894    -6122    -6180    -6138    -6096 
   -6118    -6228    -6481    -6940    -7553    -8175    -8700    -9100 
   -9431    -9790   -10187   -10573   -10906   -11186   -11460   -11859 
  -12460   -13146   -13687   -13965   -13995   -13767   -13263   -12545 
  -11711   -10782    -9764    -8754    -7869    -7107    -6370    -5656 
   -5085    -4680    -4320    -3956    -3670    -3462    -3265    -3122 
   -3129    -3248    -3376    -3516    -3774    -4174    -4568    -4843 
   -5089    -5452    -5934    -6446    -6966    -7526    -8100    -8603 
   -9020    -9421    -9830   -10242   -10712   -11221   -11626   -11871 
  -12083   -12351   -12595   -12683   -12636   -12561   -12457   -12282 
  -12085   -11890   -11634   -11265   -10812   -10322    -9803    -9274 
   -8795    -8428    -8225    -8162    -8133    -8081    -8058    -8085 
   -8028    -7754    -7277    -6759    -6361    -6093    -5844    -5564 
   -5298    -5065    -4783    -4357    -3821    -3333    -3025    -2915 
   -3030    -3466    -4225    -5166    -6133    -6988    -7639    -8135 
   -8622    -9127    -9526    -9726    -9764    -9705    -9532    -9235 
   -8938    -8800    -8868    -9111    -9524   -10077   -10670   -11214 
  -11691   -12098   -12444   -12698   -12829   -12873   -12916   -12992 
  -13015   -12872   -12529   -11974   -11169   -10130    -8950    -7735 
   -6590    -5660    -5040    -4681    -4482    -4434    -4579    -4831 
   -5009    -5024    -4927    -4780    -4560    -4176    -3605    -2924 
   -2239    -1658    -1262    -1077    -1101    -1343    -1826    -2533 
   -3395    -4367    -5443    -6578    -7688    -8754    -9883   -11151 
  -12445   -13594   -14521   -15202   -15579   -15642   -15500   -15284 
  -15064   -14843   -14575   -14206   -13710   -13081   -12368   -11689 
  -11122   -10665   -10299    -9958    -9553    -9088    -8610    -8097 
   -7508    -6835    -6114    -5416    -4727    -4012    -3375    -2937 
   -2648    -2417    -2266    -2254    -2359    -2546    -2844    -3275 
   -3762    -4237    -4733    -5305    -5953    -6639    -7348    -8051 
   -8673    -9136    -9423    -9594    -9764   -10034   -10397   -10737 
  -10962   -11140   -11395   -11712   -11962   -12066   -12019   -11805 
  -11457   -11088   -10837   -10739   -10682   -10537   -10255    -9756 
   -8958    -7997    -7149    -6546    -6177    -6075    -6261    -6606 
   -6910    -7099    -7183    -7121    -6901    -6678    -6647    -6781 
   -6902    -6998    -7132    -7210    -7114    -6921    -6802    -6843 
   -7032    -7375    -7865    -8401    -8889    -9304    -9629    -9849 
   -9971   -10018   -10004    -9909    -9745    -9617    -9599    -9616 
   -9517    -9234    -8815    -8367    -7940    -7507    -7064    -6694 
   -6508    -6575    -6925    -7480    -7998    -8186    -7936    -7385 
   -6782    -6328    -6085    -6026    -6112    -6323    -6629    -6972 
   -7276    -7473    -7572    -7642    -7723    -7830    -8046    -8480 
   -9107    -9747   -10263   -10670   -10967   -11082   -11041   -10999 
  -11074   -11246   -11422   -11460   -11237   -10787   -10315    -9946 
   -9640    -9391    -9263    -9182    -8946    -8569    -8316    -8279 
   -8262    -8111    -7827    -7400    -6826    -6224    -5715    -5298 
   -4934    -4672    -4571    -4581    -4641    -4797    -5082    -5413 
   -5682    -5854    -5954    -6021    -6138    -6376    -6736    -7207 
   -7715    -8127    -8406    -8635    -8916    -9317    -9832   -10374 
  -10867   -11257   -11572   -11997   -12630   -13274   -13705   -13919 
  -13967   -13819   -13541   -13343   -13300   -13238   -12993   -12564 
  -12037   -11399   -10536    -9413    -8182    -7048    -6133    -5485 
   -5069    -4780    -4534    -4317    -4118    -3906    -3624    -3287 
   -3044    -2992    -3064    -3153    -3257    -3443    -3742    -4058 
   -4248    -4359    -4564    -4926    -5404    -6006    -6731    -7514 
   -8321    -9115    -9749   -10126   -10359   -10627   -11048   -11668 
  -12353   -12892   -13219   -13379   -13397   -13266   -13001   -12695 
  -12445   -12243   -12009   -11727   -11465   -11291   -11230   -11247 
  -11209   -10952   -10440    -9765    -9008    -8182    -7334    -6569 
   -5954    -5435    -4927    -4433    -3964    -3439    -2903    -2612 
   -2687    -2948    -3194    -3412    -3655    -3882    -4014    -4149 
   -4440    -4854    -5308    -5753    -6104    -6349    -6656    -7159 
   -7803    -8482    -9180    -9953   -10791   -11529   -12000   -12241 
  -12429   -12669   -12919   -13088   -13177   -13262   -13379   -13420 
  -13263   -12953   -12580   -12151   -11716   -11477   -11562   -11804 
  -11911   -11755   -11354   -10697    -9794    -8818    -7935    -7134 
   -6394    -5787    -5317    -4938    -4653    -4500    -4433    -4322 
   -4109    -3825    -3505    -3180    -2903    -2745    -2863    -3439 
   -4419    -5514    -6509    -7408    -8251    -8988    -9566   -10003 
  -10334   -10580   -10786   -11039   -11473   -12152   -12988   -13790 
  -14386   -14679   -14631   -14296   -13784   -13135   -12312   -11337 
  -10353    -9456    -8626    -7875    -7323    -6937    -6450    -5755 
   -5089    -4658    -4326    -3867    -3329    -2921    -2693    -2579 
   -2613    -2826    -3132    -3492    -4036    -4872    -5907    -6906 
   -7643    -8039    -8187    -8295    -8509    -8869    -9401   -10146 
  -11156   -12366   -13452   -14029   -14021   -13736   -13444   -13062 
  -12402   -11507   -10575    -9760    -9171    -8896    -8915    -9088 
   -9246    -9266    -9080    -8675    -8118    -7468    -6718    -5846 
   -4852    -3771    -2704    -1809    -1209     -896     -788     -897 
   -1287    -1868    -2412    -2802    -3094    -3392    -3807    -4403 
   -5182    -6129    -7206    -8306    -9312   -10147   -10762   -11163 
  -11441   -11718   -12097   -12591   -13065   -13396   -13605   -13720 
  -13693   -13508   -13153   -12548   -11638   -10531    -9466    -8653 
   -8160    -7954    -7969    -8100    -8239    -8364    -8454    -8387 
   -8007    -7310    -6378    -5223    -3861    -2442    -1129       51 
    1161     2161     2914     3327     3412     3163     2497     1405 
      79    -1225    -2381    -3366    -4261    -5277    -6574    -8054 
   -9416   -10393   -10843   -10717   -10114    -9308    -8625    -8235 
   -8100    -8177    -8525    -9201   -10201   -11483   -12978   -14513 
  -15758   -16454   -16587   -16246   -15579   -14764   -13922   -13088 
  -12267   -11462   -10669    -9863    -9062    -8310    -7654    -7127 
   -6731    -6469    -6394    -6504    -6643    -6669    -6640    -6741 
   -7041    -7454    -7865    -8197    -8408    -8483    -8464    -8496 
   -8696    -9023    -9390    -9798   -10249   -10710   -11247   -11923 
  -12552   -12891   -12923   -12727   -12334   -11819   -11322   -11026 
  -11052   -11298   -11512   -11543   -11299   -10651    -9640    -8502 
   -7389    -6311    -5283    -4349    -3510    -2660    -1644     -438 
     830     2031     3079     3913     4449     4608     4353     3651 
    2577     1289     -148    -1687    -3172    -4488    -5638    -6667 
   -7689    -8851   -10176   -11654   -13265   -14925   -16698   -18675 
  -20686   -22439   -23751   -24555   -24879   -24891   -24825   -24833 
  -24840   -24605   -23957   -22850   -21196   -18983   -16460   -13952 
  -11600    -9400    -7306    -5259    -3237    -1267      684     2671 
    4612     6378     7878     8991     9622     9810     9667     9312 
    8834     8248     7591     6968     6380     5709     4860     3771 
    2397      696    -1354    -3670    -6018    -8132    -9847   -11126 
  -12082   -12895   -13689   -14488   -15206   -15749   -16146   -16499 
  -16835   -17139   -17413   -17678   -17888   -17895   -17589   -17047 
  -16398   -15780   -15422   -15489   -15906   -16471   -17012   -17356 
  -17209   -16291   -14625   -12518   -10285    -8085    -5991    -4156 
   -2725    -1740    -1146     -823     -692     -737     -842     -903 
    -912     -783     -386      251      986     1657     2133     2332 
    2246     1948     1599     1372     1278     1039      214    -1497 
   -4043    -7064   -10088   -12756   -14885   -16401   -17348   -17842 
  -17973   -17814   -17394   -16615   -15452   -14172   -13123   -12474 
  -12289   -12603   -13319   -14156   -14859   -15346   -15668   -15890 
  -16102   -16401   -16822   -17274   -17590   -17597   -17165   -16225 
  -14757   -12854   -10737    -8719    -7076    -5860    -4954    -4322 
   -3919    -3504    -2859    -1930     -757      537     1760     2824 
    3888     5177     6675     8235     9757    11065    11929    12233 
   11885    10821     9146     7136     5004     2633     -184    -3316 
   -6382    -9069   -11180   -12691   -13748   -14516   -15097   -15560 
  -15961   -16297   -16468   -16403   -16180   -16000   -16056   -16433 
  -17081   -17875   -18617   -19106   -19137   -18597   -17610   -16513 
  -15630   -15171   -15287   -15979   -16945   -17668   -17705   -16779 
  -14798   -11916    -8571    -5404    -2933    -1424     -990    -1622 
   -3153    -5259    -7476    -9332   -10582   -11213   -11168   -10446 
   -9201    -7414    -5148    -2829     -766      797     1553     1691 
    1773     2097     2787     4002     5675     7385     8644     9121 
    8650     7244     5039     2166    -1243    -5040    -9055   -12972 
  -16567   -19878   -22844   -25235   -26932   -27976   -28597   -29100 
  -29698   -30654   -32179   -34155   -36186   -37771   -38419   -37864 
  -36049   -33038   -29131   -24802   -20575   -16811   -13671   -11252 
   -9535    -8303    -7210    -5884    -4099    -1878      540     2920 
    5108     6976     8355     9084     9139     8748     8332     8267 
    8712     9675    11014    12461    13794    14800    15147    14570 
   13046    10689     7581     3761     -592    -5080    -9115   -12121 
  -13925   -14747   -14910   -14746   -14554   -14470   -14615   -15211 
  -16395   -18072   -19993   -21874   -23449   -24521   -24922   -24544 
  -23538   -22378   -21614   -21568   -22083   -22531   -22145   -20428 
  -17369   -13225    -8324    -3105     1981     6564    10289    12883 
   14285    14539    13625    11655     8992     6014     3087      445 
   -1979    -4280    -6397    -8182    -9548   -10660   -11793   -12950 
  -13967   -14866   -15745   -16538   -17202   -17768   -18123   -18129 
  -17855   -17432   -16920   -16409   -16065   -16021   -16272   -16676 
  -17050   -17232   -16964   -16005   -14330   -11954    -8911    -5481 
   -2079     1090     3901     5983     7041     7144     6475     5235 
    3723     2286     1266      864      978     1306     1498     1247 
     442     -767    -2119    -3422    -4537    -5292    -5571    -5443 
   -5051    -4460    -3781    -3192    -2749    -2475    -2586    -3316 
   -4595    -6183    -8014   -10042   -11920   -13354   -14346   -14886 
  -15041   -15187   -15650   -16537   -17829   -19265   -20358   -20613 
  -19715   -17798   -15284   -12386    -9329    -6839    -5440    -4792 
   -4502    -4834    -5913    -6906    -7126    -7013    -6875    -6435 
   -5907    -5379    -4382    -2976    -1451      160     1393     1620 
     572    -1707    -4935    -8776   -12737   -16225   -19080   -21370 
  -22975   -23943   -24721   -25628   -26612   -27684   -28884   -29880 
  -30117   -29263   -27286   -24190   -20027   -15133   -10026    -5173 
    -893     2636     5421     7574     9135    10088    10482    10314 
    9450     7812     5644     3350     1151     -818    -2326    -3331 
   -4091    -4862    -5813    -6983    -8203    -9292   -10239   -11149 
  -12128   -13227   -14517   -15997   -17477   -18852   -20154   -21354 
  -22512   -23724   -24864   -25805   -26581   -27136   -27261   -26838 
  -26011   -25029   -24012   -22966   -21867   -20741   -19603   -18449 
  -17325   -16154   -14673   -12718   -10328    -7649    -4922    -2425 
    -341     1266     2381     3118     3823     4792     6033     7418 
    8754     9776    10334    10395     9900     8811     7223     5317 
    3300     1466       45     -903    -1412    -1620    -1772    -2138 
   -2940    -4364    -6497    -9238   -12352   -15531   -18427   -20862 
  -22862   -24462   -25681   -26617   -27306   -27615   -27379   -26477 
  -24910   -22790   -20212   -17301   -14436   -12054   -10296    -8959 
   -7586    -5755    -3345     -515     2465     5275     7569     9159 
   10157    10833    11488    12394    13602    14925    16106    16892 
   17112    16799    16129    15294    14453    13672    12891    11956 
   10725     9140     7198     4852     2043    -1197    -4698    -8198 
  -11502   -14536   -17220   -19452   -21301   -22931   -24467   -26050 
  -27760   -29513   -31185   -32583   -33565   -34157   -34412   -34419 
  -34325   -34094   -33575   -32645   -31207   -29263   -27010   -24746 
  -22644   -20729   -18931   -17004   -14759   -12247    -9518    -6571 
   -3473     -243     3179     6713    10115    13188    15750    17597 
   18688    19153    19133    18701    17851    16553    14785    12486 
    9670     6517     3198     -230    -3680    -6993    -9967   -12341 
  -13946   -14839   -15368   -15919   -16642   -17624   -18850   -20055 
  -20980   -21529   -21806   -22125   -22688   -23469   -24399   -25318 
  -25969   -26142   -25737   -24736   -23168   -21114   -18686   -16011 
  -13317   -10866    -8787    -7078    -5727    -4779    -4178    -3805 
   -3576    -3393    -3163    -2792    -2247    -1630    -1071     -561 
     -18      603     1389     2389     3581     4939     6323     7485 
    8337     9004     9590    10157    10793    11537    12287    12804 
   12852    12317    11247     9756     7903     5732     3288      561 
   -2439    -5610    -8891   -12260   -15638   -18862   -21706   -23931 
  -25380   -25952   -25671   -24800   -23642   -22408   -21347   -20688 
  -20436   -20391   -20340   -20105   -19572   -18750   -17753   -16737 
  -15782   -14804   -13614   -12109   -10381    -8635    -7032    -5638 
   -4517    -3673    -2984    -2311    -1606     -895     -237      261 
     526      514      171     -477    -1317    -2234    -3150    -4012 
   -4852    -5809    -6967    -8229    -9406   -10374   -11060   -11403 
  -11377   -11028   -10477    -9836    -9190    -8660    -8334    -8199 
   -8201    -8306    -8479    -8702    -9022    -9495   -10174   -11125 
  -12387   -13961   -15784   -17753   -19778   -21722   -23421   -24730 
  -25456   -25474   -24770   -23406   -21632   -19832   -18214   -16744 
  -15381   -14179   -13159   -12247   -11365   -10508    -9720    -9011 
   -8303    -7464    -6413    -5113    -3562    -1854     -110     1590 
    3109     4263     4955     5227     5158     4872     4565     4342 
    4156     3936     3623     3172     2556     1755      868       70 
    -566    -1123    -1713    -2423    -3277    -4205    -5090    -5823 
   -6365    -6779    -7153    -7553    -8059    -8727    -9440   -10014 
  -10368   -10520   -10552   -10596   -10760   -11060   -11372   -11564 
  -11630   -11662   -11778   -12043   -12502   -13220   -14090   -14764 
  -14964   -14635   -13857   -12829   -11742   -10677    -9695    -8884 
   -8289    -7921    -7740    -7634    -7523    -7433    -7362    -7287 
   -7256    -7315    -7373    -7290    -7001    -6469    -5641    -4568 
