Origin Time       2016/04/16 01:25:00
Lat.              32.753
Long.             130.762
Depth. (km)       12
Mag.              7.3
Station Code      KOC016
Station Lat.      32.7359
Station Long.     132.9754
Station Height(m) 125
Record Time       2016/04/16 01:25:42
Sampling Freq(Hz) 100Hz
Duration Time(s)  106
Dir.              E-W
Scale Factor      7845(gal)/8223790
Max. Acc. (gal)   6.756
Last Correction   2016/04/16 01:25:42
Memo.             
[...]
   -4027    -4222    -4426    -4314    -3936    -3499    -3206    -3253 
   -3542    -3815    -3955    -3899    -3574    -3148    -3007    -3254 
   -3643    -3998    -4167    -4031    -3738    -3418    -3106    -2963 
   -2980    -3060    -3244    -3480    -3663    -3735    -3588    -3283 
   -3048    -2978    -3056    -3203    -3348    -3530    -3665    -3620 
   -3464    -3322    -3315    -3431    -3458    -3326    -3188    -3109 
   -3106    -3296    -3667    -3921    -3816    -3426    -3009    -2829 
   -3029    -3487    -3836    -3877    -3840    -3998    -4263    -4391 
   -4248    -3859    -3470    -3327    -3456    -3778    -4052    -3977 
   -3662    -3369    -3141    -2994    -2980    -3211    -3646    -3832 
   -3535    -3092    -2789    -2683    -2862    -3314    -3885    -4298 
   -4417    -4396    -4341    -4314    -4444    -4572    -4456    -4182 
   -3910    -3665    -3464    -3354    -3360    -3465    -3639    -3774 
   -3778    -3762    -3807    -3744    -3427    -3041    -2940    -3127 
   -3333    -3489    -3634    -3701    -3700    -3701    -3712    -3715 
   -3626    -3336    -2891    -2554    -2551    -2768    -2975    -3099 
   -3164    -3272    -3369    -3303    -3204    -3160    -3051    -2998 
   -3159    -3453    -3825    -4148    -4178    -3924    -3578    -3252 
   -3009    -2872    -2894    -3211    -3694    -3963    -3923    -3761 
   -3700    -3878    -4121    -4148    -3967    -3742    -3638    -3744 
   -3886    -3842    -3697    -3673    -3798    -3919    -3960    -3861 
   -3511    -3096    -2951    -3026    -3121    -3232    -3358    -3456 
   -3572    -3650    -3569    -3440    -3415    -3429    -3485    -3603 
   -3588    -3412    -3349    -3547    -3869    -4055    -4047    -3893 
   -3527    -3067    -2870    -3001    -3219    -3334    -3264    -3025 
   -2785    -2762    -2907    -3002    -3146    -3447    -3632    -3630 
   -3694    -3815    -3812    -3744    -3723    -3685    -3608    -3581 
   -3597    -3597    -3599    -3688    -3854    -3867    -3611    -3272 
   -3015    -2835    -2682    -2658    -2959    -3481    -3854    -3947 
   -3909    -3820    -3680    -3613    -3701    -3789    -3775    -3717 
   -3628    -3496    -3354    -3210    -3006    -2783    -2701    -2771 
   -2848    -2835    -2697    -2527    -2455    -2501    -2613    -2732 
   -2872    -3064    -3194    -3231    -3262    -3132    -2787    -2556 
   -2613    -2852    -3167    -3346    -3277    -3169    -3117    -3029 
   -2986    -3067    -3180    -3287    -3418    -3530    -3553    -3510 
   -3487    -3472    -3372    -3140    -2867    -2787    -2913    -3042 
   -3273    -3696    -3978    -3965    -3738    -3265    -2821    -2697 
   -2666    -2584    -2586    -2598    -2562    -2604    -2745    -2914 
   -2967    -2759    -2336    -2001    -2043    -2335    -2569    -2747 
   -2813    -2619    -2431    -2435    -2408    -2328    -2295    -2281 
   -2397    -2647    -2868    -3064    -3132    -2874    -2488    -2276 
   -2172    -2042    -1938    -1877    -1804    -1757    -1796    -1907 
   -2061    -2184    -2215    -2285    -2508    -2735    -2714    -2374 
   -1954    -1831    -2170    -2776    -3264    -3416    -3291    -3009 
   -2748    -2701    -2857    -3073    -3204    -3152    -3038    -3099 
   -3354    -3584    -3551    -3306    -3060    -2803    -2482    -2246 
   -2157    -2104    -2034    -2016    -2200    -2581    -2855    -2860 
   -2687    -2374    -2098    -2077    -2184    -2370    -2727    -3034 
   -3121    -3044    -2771    -2438    -2280    -2204    -2143    -2170 
   -2209    -2297    -2478    -2616    -2740    -2870    -2863    -2825 
   -2837    -2770    -2644    -2542    -2474    -2474    -2415    -2242 
   -2184    -2234    -2192    -2160    -2215    -2313    -2517    -2725 
   -2828    -2978    -3132    -3180    -3275    -3387    -3407    -3477 
   -3643    -3751    -3696    -3412    -3017    -2803    -2802    -2826 
   -2872    -2899    -2783    -2694    -2803    -2940    -2965    -2886 
   -2663    -2392    -2286    -2382    -2548    -2698    -2790    -2832 
   -2929    -3157    -3377    -3391    -3207    -2980    -2830    -2813 
   -2889    -2965    -2971    -2871    -2712    -2586    -2535    -2577 
   -2702    -2835    -2948    -3086    -3199    -3219    -3175    -3071 
   -2932    -2868    -2887    -2911    -2948    -3018    -3141    -3241 
   -3177    -3075    -3103    -3150    -3156    -3179    -3173    -3144 
   -3094    -2970    -2811    -2691    -2682    -2863    -3133    -3311 
   -3346    -3292    -3219    -3167    -3075    -2911    -2787    -2808 
   -3005    -3369    -3686    -3682    -3379    -2965    -2616    -2424 
   -2281    -2066    -1888    -1846    -1892    -1989    -2139    -2285 
   -2362    -2377    -2346    -2295    -2312    -2427    -2604    -2878 
   -3163    -3291    -3338    -3372    -3336    -3329    -3364    -3341 
   -3322    -3327    -3281    -3303    -3485    -3682    -3776    -3736 
   -3504    -3177    -2959    -2926    -3011    -3096    -3191    -3369 
   -3609    -3840    -3959    -3924    -3811    -3636    -3433    -3379 
   -3511    -3634    -3639    -3612    -3586    -3530    -3591    -3836 
   -4020    -3935    -3591    -3171    -2970    -3090    -3349    -3588 
   -3742    -3761    -3634    -3453    -3383    -3437    -3434    -3335 
   -3249    -3225    -3294    -3469    -3663    -3832    -4002    -4187 
   -4303    -4225    -4050    -4003    -4021    -3932    -3804    -3689 
   -3577    -3468    -3273    -3026    -2878    -2790    -2702    -2687 
   -2782    -2957    -3113    -3167    -3161    -3127    -3106    -3137 
   -3088    -2930    -2876    -2936    -2915    -2841    -2830    -2820 
   -2745    -2644    -2473    -2203    -1984    -1975    -2182    -2523 
   -2863    -3057    -3029    -2836    -2597    -2459    -2570    -2924 
   -3327    -3650    -3842    -3763    -3469    -3333    -3544    -3917 
   -4222    -4364    -4315    -4099    -3877    -3805    -3867    -3940 
   -3878    -3669    -3472    -3304    -3092    -2896    -2758    -2690 
   -2764    -2918    -3022    -3022    -2926    -2856    -2889    -2924 
   -2937    -2982    -3002    -2907    -2710    -2544    -2565    -2830 
   -3245    -3628    -3835    -3808    -3658    -3573    -3615    -3784 
   -4016    -4158    -4178    -4122    -4003    -3975    -4088    -4077 
   -3861    -3704    -3740    -3904    -4109    -4266    -4289    -4159 
   -4001    -4025    -4189    -4225    -4113    -4020    -3906    -3742 
   -3667    -3666    -3631    -3565    -3433    -3246    -3141    -3125 
   -3152    -3256    -3329    -3264    -3234    -3379    -3528    -3591 
   -3653    -3662    -3516    -3295    -3122    -3078    -3146    -3160 
   -3036    -2929    -2910    -2934    -3055    -3244    -3372    -3361 
   -3184    -2930    -2743    -2685    -2830    -3105    -3260    -3246 
   -3121    -2893    -2694    -2662    -2747    -2890    -3069    -3176 
   -3144    -3046    -2967    -2893    -2762    -2629    -2650    -2837 
   -3019    -3083    -3059    -3028    -3026    -3048    -3096    -3198 
   -3296    -3238    -3045    -2929    -2957    -3021    -3060    -3069 
   -3092    -3198    -3360    -3489    -3520    -3368    -3060    -2828 
   -2794    -2835    -2921    -3099    -3232    -3230    -3177    -3113 
   -2953    -2659    -2344    -2192    -2208    -2226    -2174    -2137 
   -2146    -2165    -2160    -2121    -2098    -2091    -2052    -2006 
   -1993    -2045    -2141    -2115    -1894    -1694    -1726    -1929 
   -2150    -2338    -2517    -2717    -2926    -3107    -3240    -3275 
   -3218    -3252    -3451    -3665    -3832    -3963    -3977    -3897 
   -3861    -3866    -3792    -3599    -3396    -3276    -3173    -3040 
   -2952    -2937    -2887    -2709    -2471    -2340    -2335    -2344 
   -2343    -2412    -2533    -2565    -2444    -2267    -2223    -2444 
   -2863    -3234    -3361    -3260    -3068    -2867    -2714    -2674 
   -2739    -2871    -3041    -3175    -3230    -3213    -3121    -2988 
   -2901    -2947    -3114    -3217    -3144    -2982    -2806    -2763 
   -2967    -3203    -3284    -3268    -3163    -3045    -3022    -3037 
   -3134    -3349    -3492    -3520    -3559    -3541    -3357    -3177 
   -3198    -3372    -3559    -3670    -3694    -3655    -3515    -3308 
   -3177    -3107    -3025    -3018    -3137    -3256    -3232    -3071 
   -2863    -2681    -2555    -2490    -2454    -2419    -2323    -2124 
   -1987    -2061    -2239    -2376    -2405    -2293    -2169    -2235 
   -2474    -2688    -2752    -2728    -2700    -2644    -2627    -2754 
   -2918    -3029    -3161    -3342    -3484    -3544    -3532    -3440 
   -3304    -3231    -3264    -3362    -3503    -3577    -3440    -3218 
   -3144    -3198    -3272    -3338    -3310    -3126    -2872    -2628 
   -2382    -2126    -1880    -1705    -1679    -1791    -1960    -2158 
   -2401    -2639    -2762    -2693    -2385    -1845    -1281    -1012 
   -1154    -1548    -1949    -2169    -2214    -2241    -2295    -2326 
   -2347    -2400    -2478    -2535    -2539    -2494    -2363    -2106 
   -1883    -1921    -2180    -2489    -2759    -2874    -2721    -2367 
   -1996    -1792    -1865    -2126    -2371    -2574    -2870    -3256 
   -3577    -3719    -3682    -3566    -3488    -3558    -3873    -4289 
   -4452    -4233    -3867    -3596    -3555    -3747    -3969    -4041 
   -3991    -3940    -3955    -4045    -4164    -4228    -4268    -4382 
   -4509    -4585    -4675    -4668    -4430    -4110    -3875    -3726 
   -3661    -3541    -3159    -2681    -2461    -2567    -2859    -3118 
   -3121    -2926    -2799    -2867    -3175    -3618    -3883    -3842 
   -3542    -3048    -2555    -2176    -1842    -1679    -1819    -2126 
   -2439    -2683    -2826    -2906    -2922    -2887    -2822    -2681 
   -2511    -2393    -2296    -2276    -2324    -2199    -1902    -1738 
   -1876    -2276    -2747    -3048    -3165    -3221    -3230    -3184 
   -3140    -3180    -3310    -3437    -3514    -3491    -3369    -3345 
   -3551    -3916    -4363    -4756    -4922    -4969    -5054    -5150 
   -5281    -5312    -4992    -4542    -4338    -4266    -4135    -3969 
   -3747    -3501    -3336    -3184    -2986    -2782    -2532    -2301 
   -2284    -2390    -2382    -2286    -2199    -2144    -2170    -2200 
   -2200    -2315    -2556    -2835    -3042    -3010    -2802    -2677 
   -2724    -2875    -2956    -2852    -2751    -2871    -3145    -3364 
   -3366    -3167    -3022    -3163    -3511    -3896    -4261    -4575 
   -4855    -5124    -5336    -5454    -5397    -5139    -4819    -4514 
   -4199    -3904    -3653    -3476    -3468    -3612    -3694    -3591 
   -3388    -3159    -2947    -2801    -2555    -2034    -1445    -1089 
   -1055    -1297    -1636    -1992    -2450    -2874    -2995    -2785 
   -2412    -2157    -2224    -2421    -2492    -2523    -2636    -2803 
   -3092    -3510    -3759    -3724    -3638    -3588    -3497    -3362 
   -3146    -2976    -3165    -3680    -4126    -4236    -4078    -3905 
   -3846    -3877    -3904    -3769    -3404    -3042    -3017    -3353 
   -3757    -4003    -4104    -4186    -4372    -4652    -4959    -5270 
   -5549    -5815    -6041    -6053    -5863    -5714    -5713    -5853 
   -6058    -6058    -5725    -5270    -4949    -4989    -5414    -5734 
   -5478    -4733    -3802    -2920    -2257    -1960    -2141    -2691 
   -3352    -3950    -4283    -4230    -3982    -3738    -3708    -4164 
   -4884    -5348    -5489    -5456    -5329    -5301    -5398    -5383 
   -5228    -5078    -4949    -4774    -4584    -4440    -4128    -3426 
   -2628    -2043    -1568    -1210    -1048     -957     -888     -843 
    -706     -451     -218     -117     -144     -189     -120      -56 
    -216     -556    -1000    -1621    -2347    -2959    -3294    -3410 
   -3569    -4017    -4866    -5902    -6664    -7038    -7194    -7051 
   -6516    -5784    -5093    -4519    -3989    -3427    -2922    -2583 
   -2363    -2137    -1887    -1721    -1686    -1763    -1979    -2177 
   -2085    -1649     -931     -122      463      712      612      210 
    -129     -183     -212     -383     -434     -261      -29      321 
     864     1324     1513     1435     1070      546       36     -480 
    -896    -1030    -1104    -1489    -2147    -2870    -3615    -4218 
   -4437    -4482    -4741    -5130    -5317    -5227    -4928    -4472 
   -4001    -3685    -3511    -3357    -3152    -2932    -2852    -3019 
   -3322    -3504    -3443    -3277    -3154    -3040    -2887    -2779 
   -2860    -3122    -3369    -3474    -3414    -3164    -2724    -2230 
   -1930    -2012    -2392    -2792    -3040    -3125    -3200    -3534 
   -4128    -4649    -4911    -5005    -4989    -4918    -5054    -5563 
   -6203    -6702    -7105    -7469    -7746    -7892    -7789    -7342 
   -6559    -5448    -4337    -3742    -3642    -3762    -4107    -4457 
   -4415    -3954    -3188    -2176    -1048       16      831     1273 
    1340     1075      610      157     -241     -666    -1127    -1702 
   -2502    -3492    -4625    -5827    -6921    -7736    -8133    -8127 
   -7996    -7915    -7770    -7460    -7074    -6790    -6716    -6878 
   -7194    -7434    -7482    -7492    -7555    -7553    -7469    -7325 
   -7094    -6848    -6604    -6234    -5818    -5564    -5439    -5246 
   -4828    -4086    -3036    -1818     -712      -89      -41     -291 
    -449     -220      337      851     1139     1336     1611     2042 
    2647     3317     3798     3958     3924     3800     3581     3227 
    2659     1953     1399     1142     1086     1119     1182     1324 
    1543     1669     1548     1133      545      -32     -585    -1039 
   -1163    -1043    -1019    -1197    -1528    -2014    -2590    -3194 
   -3809    -4283    -4525    -4675    -4801    -4927    -5215    -5659 
   -6068    -6465    -6863    -6960    -6648    -6234    -5958    -5818 
   -5763    -5645    -5179    -4306    -3223    -2133    -1170     -407 
     112      367      380      203     -184     -738    -1115     -984 
    -446      230      931     1464     1543     1086      222     -864 
   -2022    -3130    -3886    -3919    -3238    -2119     -838      195 
     576      211     -704    -1838    -2698    -2832    -2278    -1541 
    -974     -618     -391      -58      549     1259     1833     2091 
    1890     1306      556     -199     -796    -1170    -1356    -1354 
   -1285    -1352    -1692    -2485    -3828    -5536    -7180    -8220 
   -8348    -7789    -6980    -6250    -5911    -6075    -6484    -6914 
   -7317    -7614    -7751    -7734    -7589    -7446    -7375    -7260 
   -7055    -6815    -6538    -6254    -5983    -5560    -4943    -4390 
   -4158    -4248    -4421    -4382    -3964    -3219    -2442    -1852 
   -1424    -1135    -1078    -1290    -1657    -1872    -1688    -1161 
    -429      370      958     1115      972      720      427      152 
    -101     -406     -815    -1282    -1606    -1613    -1405    -1229 
   -1316    -1811    -2589    -3377    -3993    -4305    -4238    -3861 
   -3325    -2789    -2394    -2212    -2182    -2162    -2126    -2124 
   -2193    -2436    -2856    -3267    -3584    -3815    -3858    -3709 
   -3541    -3497    -3678    -4166    -4912    -5729    -6477    -7048 
   -7261    -7067    -6617    -6043    -5487    -5164    -5135    -5232 
   -5314    -5314    -5144    -4824    -4515    -4278    -4120    -4164 
   -4519    -5197    -6075    -6864    -7410    -7789    -8017    -8078 
   -8068    -8020    -7900    -7704    -7422    -7149    -7105    -7322 
   -7611    -7846    -8014    -8158    -8289    -8306    -8149    -7940 
   -7639    -7051    -6278    -5528    -4872    -4541    -4603    -4661 
   -4488    -4106    -3470    -2740    -2188    -1898    -1938    -2332 
   -2896    -3461    -3951    -4255    -4307    -4136    -3816    -3522 
   -3400    -3501    -3786    -4024    -4117    -4282    -4546    -4641 
   -4456    -4036    -3397    -2668    -2123    -1912    -1965    -2126 
   -2243    -2235    -2250    -2438    -2695    -2849    -2785    -2516 
   -2273    -2178    -2042    -1677    -1124     -553     -102      207 
     341      178     -249     -641     -837     -985    -1255    -1726 
   -2371    -3092    -3776    -4332    -4748    -5043    -5163    -5147 
   -5130    -5202    -5366    -5454    -5327    -5088    -4847    -4604 
   -4423    -4448    -4747    -5151    -5333    -5112    -4500    -3632 
   -2701    -1854    -1213     -861     -770     -814     -877     -920 
    -940    -1009    -1151    -1252    -1290    -1471    -1859    -2166 
   -2126    -1838    -1505    -1167     -892     -826     -959    -1209 
   -1606    -2133    -2597    -2840    -2852    -2718    -2628    -2732 
   -2928    -3071    -3156    -3061    -2677    -2232    -1922    -1687 
   -1460    -1139     -697     -284       22      187      182      170 
     299      564      908     1225     1414     1502     1548     1572 
    1593     1554     1390     1162      974      853      799      741 
     531       47     -699    -1603    -2509    -3153    -3256    -2915 
   -2583    -2559    -2937    -3673    -4486    -5078    -5385    -5512 
   -5629    -5786    -5877    -5840    -5668    -5346    -4876    -4260 
   -3543    -2906    -2520    -2408    -2467    -2556    -2544    -2409 
   -2257    -2146    -2019    -1844    -1579    -1162     -714     -427 
    -382     -614    -1026    -1387    -1648    -1960    -2404    -2983 
   -3638    -4167    -4449    -4580    -4669    -4789    -4958    -5007 
   -4731    -4094    -3240    -2473    -2098    -2161    -2461    -2762 
   -2947    -3044    -3123    -3230    -3379    -3496    -3420    -3140 
   -2907    -2895    -3030    -3267    -3593    -3850    -3893    -3792 
   -3689    -3627    -3588    -3543    -3469    -3350    -3188    -3087 
   -3187    -3358    -3395    -3321    -3206    -3068    -2943    -2905 
   -3115    -3588    -4055    -4371    -4571    -4662    -4757    -4968 
   -5232    -5501    -5726    -5840    -5864    -5833    -5833    -6107 
   -6690    -7295    -7705    -7950    -8117    -8185    -8040    -7688 
   -7314    -7078    -6998    -7074    -7318    -7599    -7672    -7404 
   -6860    -6189    -5575    -5188    -5146    -5451    -5868    -6068 
   -6010    -5849    -5629    -5379    -5131    -4806    -4419    -4153 
   -4117    -4263    -4480    -4604    -4611    -4642    -4747    -4903 
   -5109    -5278    -5301    -5242    -5224    -5310    -5470    -5570 
   -5514    -5374    -5304    -5331    -5373    -5382    -5290    -5078 
   -4884    -4795    -4760    -4808    -4958    -5109    -5232    -5290 
   -5211    -5034    -4795    -4522    -4342    -4299    -4318    -4356 
   -4409    -4534    -4748    -4938    -5027    -5015    -4935    -4897 
   -5026    -5352    -5805    -6219    -6493    -6567    -6446    -6301 
   -6257    -6266    -6288    -6290    -6219    -6068    -5867    -5601 
   -5243    -4876    -4558    -4199    -3767    -3355    -3052    -2955 
   -3073    -3249    -3358    -3418    -3500    -3615    -3650    -3505 
   -3196    -2809    -2493    -2384    -2484    -2721    -3001    -3156 
   -3095    -2903    -2647    -2327    -2025    -1796    -1680    -1733 
   -1877    -2008    -2085    -2069    -2020    -2034    -2068    -2056 
   -1969    -1802    -1686    -1699    -1763    -1919    -2274    -2748 
