Origin Time       2016/04/16 01:25:00
Lat.              32.753
Long.             130.762
Depth. (km)       12
Mag.              7.3
Station Code      KOC007
Station Lat.      33.5611
Station Long.     133.5271
Station Height(m) 2
Record Time       2016/04/16 01:25:58
Sampling Freq(Hz) 100Hz
Duration Time(s)  128
Dir.              N-S
Scale Factor      7845(gal)/8223790
Max. Acc. (gal)   15.398
Last Correction   2016/04/16 01:25:59
Memo.             
[...]
    9502     9285     9077     8880     8694     8517     8340     8177 
    8056     7992     7994     8046     8121     8220     8322     8398 
    8449     8477     8484     8503     8553     8610     8642     8635 
    8575     8453     8279     8078     7884     7700     7528     7360 
    7184     7011     6858     6743     6683     6673     6698     6762 
    6863     7002     7187     7422     7700     8019     8370     8737 
    9104     9472     9832    10166    10469    10744    10999    11225 
   11402    11521    11589    11615    11596    11533    11429    11288 
   11133    10987    10854    10724    10585    10419    10220     9981 
    9698     9378     9031     8664     8283     7885     7481     7086 
    6709     6373     6087     5848     5667     5571     5570     5656 
    5800     5977     6170     6365     6543     6702     6839     6956 
    7069     7184     7300     7429     7569     7723     7896     8081 
    8279     8505     8754     9020     9297     9562     9802    10011 
   10170    10276    10336    10359    10349    10315    10272    10215 
   10157    10125    10096    10050    10000     9938     9852     9760 
    9667     9556     9429     9277     9082     8862     8631     8375 
    8097     7811     7527     7267     7032     6808     6596     6393 
    6184     5983     5807     5638     5456     5273     5108     4970 
    4874     4824     4830     4895     4997     5123     5282     5471 
    5698     5985     6334     6718     7118     7526     7935     8345 
    8758     9171     9579     9983    10369    10727    11057    11340 
   11580    11790    11956    12070    12135    12151    12131    12075 
   11985    11862    11726    11597    11461    11277    11047    10785 
   10493    10185     9894     9636     9400     9184     9008     8880 
    8781     8681     8573     8437     8259     8073     7906     7742 
    7588     7443     7285     7121     6970     6832     6697     6566 
    6442     6327     6226     6142     6076     6034     6029     6052 
    6087     6150     6258     6399     6555     6735     6924     7109 
    7307     7538     7789     8073     8376     8671     8955     9248 
    9533     9806    10075    10323    10547    10758    10921    11013 
   11045    11022    10953    10841    10682    10508    10331    10142 
    9957     9780     9595     9410     9221     9023     8819     8617 
    8424     8239     8051     7870     7697     7519     7345     7190 
    7056     6951     6883     6845     6828     6826     6851     6913 
    7015     7159     7338     7547     7788     8031     8236     8391 
    8507     8588     8637     8665     8681     8696     8719     8750 
    8804     8881     8976     9104     9263     9417     9567     9699 
    9798     9883     9953     9984     9961     9890     9792     9674 
    9528     9375     9227     9063     8893     8748     8629     8542 
    8472     8397     8307     8198     8058     7892     7708     7506 
    7299     7099     6914     6737     6558     6380     6222     6081 
    5958     5871     5821     5822     5890     6015     6195     6415 
    6652     6899     7140     7353     7547     7732     7915     8106 
    8291     8456     8614     8757     8884     9022     9171     9328 
    9517     9736     9965    10210    10455    10685    10891    11065 
   11209    11315    11375    11419    11465    11484    11460    11399 
   11307    11190    11059    10920    10758    10558    10332    10093 
    9836     9556     9250     8907     8542     8186     7835     7479 
    7126     6770     6389     6006     5634     5281     4970     4715 
    4511     4365     4279     4256     4302     4407     4557     4754 
    4994     5265     5549     5845     6145     6448     6774     7115 
    7468     7844     8239     8640     9051     9456     9833    10180 
   10504    10810    11083    11321    11516    11650    11739    11796 
   11807    11785    11734    11639    11506    11331    11117    10868 
   10582    10266     9949     9634     9328     9054     8820     8621 
    8451     8301     8162     8033     7916     7781     7614     7429 
    7238     7051     6890     6766     6675     6623     6609     6624 
    6675     6771     6886     6997     7106     7221     7334     7466 
    7626     7797     7973     8131     8268     8403     8533     8664 
    8822     9001     9192     9402     9647     9899    10138    10381 
   10635    10883    11125    11361    11562    11693    11746    11709 
   11570    11344    11047    10692    10311     9933     9552     9192 
    8881     8604     8356     8141     7920     7673     7427     7175 
    6905     6635     6378     6126     5883     5649     5432     5221 
    5004     4806     4642     4498     4403     4378     4392     4456 
    4583     4747     4958     5250     5616     6049     6535     7047 
    7580     8109     8602     9076     9522     9926    10307    10655 
   10951    11210    11421    11587    11761    11934    12102    12283 
   12434    12553    12654    12700    12680    12621    12511    12371 
   12225    12067    11880    11674    11457    11207    10944    10689 
   10405    10087     9759     9408     9051     8748     8482     8224 
    7981     7742     7488     7218     6941     6677     6427     6189 
    5989     5844     5738     5668     5638     5633     5638     5667 
    5707     5741     5782     5836     5888     5973     6096     6207 
    6290     6366     6431     6478     6531     6588     6615     6642 
    6679     6705     6748     6831     6933     7063     7236     7431 
    7627     7836     8063     8299     8576     8885     9175     9497 
    9849    10141    10405    10674    10906    11105    11277    11410 
   11510    11581    11589    11530    11422    11242    11002    10735 
   10424    10064     9683     9297     8912     8545     8194     7847 
    7514     7192     6856     6515     6195     5887     5579     5294 
    5053     4858     4716     4633     4610     4633     4669     4727 
    4831     4976     5175     5458     5819     6230     6660     7102 
    7541     7963     8368     8758     9127     9459     9747     9994 
   10183    10284    10326    10311    10223    10147    10076     9948 
    9819     9682     9477     9258     9054     8820     8561     8314 
    8066     7812     7574     7340     7136     7002     6932     6917 
    6975     7091     7245     7446     7688     7933     8162     8365 
    8532     8683     8834     8984     9130     9251     9340     9409 
    9477     9556     9675     9852    10066    10305    10561    10820 
   11067    11299    11506    11661    11753    11786    11767    11693 
   11576    11437    11294    11153    11032    10928    10806    10687 
   10596    10471    10319    10185    10003     9768     9543     9289 
    8995     8703     8388     8039     7690     7335     6966     6625 
    6319     6035     5803     5625     5474     5364     5297     5232 
    5152     5062     4950     4823     4695     4546     4371     4202 
    4055     3943     3896     3912     3979     4118     4329     4577 
    4860     5169     5485     5811     6153     6490     6821     7132 
    7406     7642     7846     8039     8230     8434     8665     8899 
    9147     9437     9748    10079    10427    10752    11032    11268 
   11460    11611    11727    11807    11855    11881    11865    11797 
   11688    11534    11346    11138    10926    10731    10542    10355 
   10183    10027     9894     9786     9701     9625     9553     9471 
    9351     9197     9032     8860     8683     8509     8322     8136 
    7962     7778     7586     7395     7169     6919     6667     6399 
    6130     5884     5637     5386     5146     4920     4742     4626 
    4575     4598     4673     4791     4959     5155     5379     5653 
    5953     6259     6600     6984     7420     7925     8492     9104 
    9756    10436    11117    11774    12391    12938    13405    13810 
   14142    14376    14523    14596    14584    14508    14400    14260 
   14115    13983    13836    13668    13489    13301    13108    12915 
   12735    12580    12436    12301    12172    12015    11801    11530 
   11173    10719    10185     9595     8965     8316     7672     7059 
    6485     5954     5466     4996     4541     4106     3677     3260 
    2874     2517     2195     1917     1671     1471     1350     1312 
    1371     1520     1736     2019     2363     2739     3127     3519 
    3908     4309     4727     5150     5570     5994     6413     6837 
    7288     7766     8270     8800     9355     9927    10504    11071 
   11600    12060    12444    12749    12973    13119    13201    13220 
   13170    13045    12837    12546    12171    11731    11256    10781 
   10336     9938     9586     9293     9051     8830     8633     8451 
    8255     8033     7765     7437     7084     6718     6338     5989 
    5703     5487     5366     5337     5395     5537     5765     6097 
    6523     7018     7581     8179     8775     9355     9896    10354 
   10716    10974    11138    11242    11294    11307    11298    11264 
   11204    11129    11026    10891    10733    10552    10341    10106 
    9849     9551     9209     8833     8403     7916     7387     6828 
    6249     5648     5027     4410     3809     3229     2693     2196 
    1721     1287      899      525      163     -183     -526     -861 
   -1188    -1506    -1795    -2029    -2196    -2297    -2327    -2262 
   -2076    -1768    -1347     -807     -168      530     1274     2056 
    2849     3632     4392     5111     5791     6446     7055     7619 
    8163     8684     9200     9740    10293    10836    11358    11844 
   12294    12715    13126    13521    13880    14210    14523    14804 
   15063    15318    15530    15681    15807    15901    15931    15928 
   15903    15834    15724    15564    15338    15052    14723    14349 
   13927    13458    12943    12383    11778    11130    10458     9760 
    9028     8263     7474     6683     5910     5169     4495     3932 
    3511     3241     3100     3075     3144     3294     3528     3858 
    4268     4762     5362     6054     6794     7557     8332     9108 
    9876    10655    11441    12208    12957    13691    14403    15094 
   15758    16383    16946    17435    17844    18175    18424    18578 
   18615    18535    18338    17994    17501    16880    16147    15326 
   14454    13558    12640    11708    10790     9895     9018     8160 
    7318     6485     5656     4816     3932     3024     2100     1128 
     128     -838    -1776    -2675    -3508    -4245    -4816    -5198 
   -5454    -5590    -5607    -5522    -5309    -4959    -4526    -4016 
   -3379    -2586    -1680     -749      166     1060     1914     2721 
    3500     4240     4980     5769     6579     7385     8195     8991 
    9753    10489    11157    11716    12159    12455    12588    12576 
   12433    12167    11769    11263    10701    10098     9479     8878 
    8297     7750     7257     6786     6304     5811     5305     4776 
    4233     3713     3210     2724     2295     1954     1726     1632 
    1680     1885     2253     2768     3427     4210     5092     6068 
    7122     8224     9344    10457    11553    12609    13572    14423 
   15157    15762    16259    16681    17041    17355    17644    17901 
   18125    18347    18590    18820    19025    19233    19395    19472 
   19508    19477    19327    19093    18802    18450    18058    17659 
   17267    16891    16517    16136    15734    15280    14775    14222 
   13595    12918    12209    11429    10566     9629     8622     7573 
    6517     5487     4502     3566     2704     1918     1197      552 
      -5     -440     -704     -796     -714     -449      -47      449 
    1031     1680     2371     3082     3793     4490     5171     5853 
    6552     7279     8032     8806     9594    10381    11142    11886 
   12606    13269    13863    14362    14729    14953    15021    14913 
   14640    14245    13784    13308    12819    12326    11857    11388 
   10886    10336     9722     9035     8270     7418     6478     5455 
    4355     3192     1988      767     -448    -1636    -2755    -3753 
   -4588    -5265    -5796    -6180    -6404    -6498    -6500    -6405 
   -6214    -5942    -5590    -5171    -4700    -4175    -3586    -2937 
   -2246    -1521     -745      103     1032     2027     3078     4156 
    5256     6417     7628     8835    10031    11206    12328    13396 
   14389    15282    16065    16725    17286    17766    18138    18419 
   18632    18755    18785    18734    18594    18368    18063    17674 
   17228    16738    16175    15569    14951    14303    13636    12969 
   12302    11651    11045    10497    10022     9634     9348     9158 
    9042     8995     8999     9030     9089     9139     9157     9161 
    9132     9058     8981     8919     8877     8901     9004     9186 
    9486     9892    10382    10959    11599    12253    12888    13467 
   13965    14391    14755    15068    15330    15561    15795    16008 
   16190    16364    16517    16649    16791    16938    17092    17262 
   17416    17512    17537    17471    17281    16957    16505    15903 
   15152    14295    13351    12332    11253    10108     8880     7581 
    6223     4824     3430     2072      765     -467    -1625    -2702 
   -3674    -4548    -5316    -5944    -6448    -6844    -7111    -7321 
   -7542    -7700    -7696    -7580    -7447    -7207    -6767    -6211 
   -5505    -4603    -3686    -2745    -1587     -297      967     2250 
    3526     4708     5875     7040     8105     9142    10227    11284 
   12349    13470    14535    15530    16569    17624    18621    19599 
   20515    21284    21918    22423    22777    22986    23043    22964 
   22825    22648    22391    22010    21505    20970    20416    19700 
   18813    17853    16825    15698    14527    13366    12191    10975 
    9756     8545     7337     6203     5139     4079     3067     2139 
    1258      460     -218     -835    -1385    -1803    -2130    -2386 
   -2515    -2532    -2512    -2455    -2323    -2135    -1914    -1648 
   -1362    -1069     -672     -109      537     1216     1988     2835 
    3684     4553     5433     6247     7037     7896     8769     9572 
   10336    11044    11612    12069    12441    12685    12841    12969 
   13050    13112    13185    13223    13235    13285    13359    13420 
   13446    13406    13298    13163    12985    12679    12201    11604 
   10940    10253     9601     8978     8380     7846     7350     6893 
    6546     6285     6053     5864     5740     5636     5548     5514 
    5505     5517     5589     5726     5926     6174     6482     6878 
    7307     7746     8199     8635     9093     9610    10142    10706 
   11308    11896    12501    13105    13629    14121    14628    15124 
   15632    16073    16324    16499    16718    16895    16968    16977 
   16961    16926    16857    16756    16690    16694    16756    16860 
   16972    17044    17077    17080    17054    16974    16843    16671 
   16438    16173    15903    15631    15388    15155    14910    14694 
   14488    14255    14014    13760    13464    13119    12737    12325 
   11880    11416    10983    10566    10146     9786     9530     9347 
    9246     9235     9262     9304     9382     9479     9568     9680 
    9836    10002    10166    10335    10492    10643    10854    11141 
   11426    11691    12005    12347    12641    12911    13171    13396 
   13601    13809    14019    14226    14418    14592    14763    14905 
   15001    15070    15088    15030    14936    14823    14631    14364 
   14087    13744    13278    12739    12155    11529    10899    10258 
    9543     8791     8035     7221     6367     5532     4688     3838 
    3037     2313     1657     1098      652      288        5     -183 
    -289     -334     -313     -220      -67      147      436      778 
    1178     1653     2162     2702     3316     3967     4630     5359 
    6156     7011     7889     8673     9364    10079    10816    11445 
   11934    12363    12707    12896    12960    12892    12679    12406 
   12101    11691    11196    10678    10108     9509     8947     8380 
    7747     7068     6339     5552     4760     3975     3194     2457 
    1798     1206      650      144     -263     -575     -799     -895 
    -854     -704     -453      -97      363      909     1505     2165 
    2906     3688     4495     5343     6201     7067     7956     8868 
    9738    10507    11247    11993    12646    13224    13788    14343 
   14887    15381    15786    16110    16340    16451    16452    16368 
   16189    15925    15591    15176    14731    14305    13884    13467 
   13105    12815    12550    12306    12112    11925    11704    11480 
   11242    10957    10640    10314     9957     9567     9163     8734 
    8263     7774     7285     6791     6307     5854     5425     5017 
    4661     4329     3983     3662     3373     3084     2821     2597 
    2390     2205     2056     1956     1934     1981     2091     2269 
    2515     2816     3169     3586     4090     4652     5225     5823 
    6447     7029     7546     8019     8449     8834     9171     9467 
    9733     9948    10108    10237    10324    10381    10450    10530 
   10600    10663    10735    10787    10783    10744    10681    10550 
   10338    10075     9748     9319     8814     8251     7607     6916 
    6208     5489     4795     4116     3466     2901     2401     1960 
    1599     1304     1075      907      772      672      589      522 
     472      418      351      288      240      244      353      517 
     680      929     1269     1609     1992     2420     2789     3122 
    3519     3921     4248     4534     4828     5134     5441     5757 
    6085     6442     6837     7234     7639     8056     8437     8775 
    9109     9433     9711     9964    10211    10417    10578    10697 
   10755    10760    10720    10623    10512    10411    10277    10108 
    9938     9801     9694     9586     9489     9413     9329     9259 
    9208     9112     8984     8837     8602     8330     8082     7792 
    7474     7182     6885     6621     6426     6250     6138     6107 
    6080     6077     6176     6339     6536     6786     7060     7322 
    7577     7821     8040     8263     8494     8708     8905     9104 
    9282     9435     9566     9657     9729     9784     9819     9855 
    9892     9917     9917     9886     9822     9736     9624     9470 
    9274     9061     8815     8506     8144     7756     7339     6913 
    6486     6056     5645     5251     4855     4479     4122     3757 
    3404     3102     2822     2552     2343     2199     2098     2087 
    2170     2327     2570     2898     3289     3765     4330     4947 
    5603     6273     6912     7530     8143     8725     9271     9795 
   10296    10783    11237    11665    12096    12522    12928    13342 
   13737    14075    14378    14642    14831    14945    14991    14953 
   14823    14608    14327    13994    13582    13101    12579    12008 
   11392    10777    10189     9644     9158     8721     8309     7908 
    7492     7055     6608     6154     5698     5260     4874     4556 
