Origin Time       2016/04/16 01:25:00
Lat.              32.753
Long.             130.762
Depth. (km)       12
Mag.              7.3
Station Code      KOC010
Station Lat.      33.3925
Station Long.     133.2896
Station Height(m) 4
Record Time       2016/04/16 01:25:53
Sampling Freq(Hz) 100Hz
Duration Time(s)  108
Dir.              E-W
Scale Factor      7845(gal)/8223790
Max. Acc. (gal)   5.097
Last Correction   2016/04/16 01:25:54
Memo.             
[...]
    6440     6480     6504     6550     6644     6711     6716     6731 
    6790     6844     6870     6859     6791     6694     6606     6498 
    6334     6139     5979     5906     5972     6184     6458     6733 
    7022     7306     7553     7759     7898     7913     7805     7619 
    7388     7129     6870     6627     6415     6296     6320     6457 
    6664     6929     7175     7340     7460     7542     7520     7391 
    7221     7020     6806     6640     6508     6376     6307     6349 
    6444     6548     6673     6806     6929     7074     7214     7264 
    7209     7089     6918     6710     6535     6421     6338     6297 
    6327     6376     6389     6388     6403     6431     6484     6555 
    6606     6627     6631     6632     6663     6737     6806     6825 
    6809     6779     6731     6658     6579     6525     6498     6488 
    6475     6443     6408     6419     6474     6558     6683     6799 
    6831     6812     6801     6787     6762     6732     6667     6561 
    6482     6493     6567     6670     6804     6959     7123     7300 
    7435     7477     7439     7369     7304     7285     7314     7339 
    7307     7211     7091     6987     6906     6821     6709     6597 
    6563     6660     6867     7132     7387     7561     7624     7607 
    7546     7431     7292     7221     7226     7264     7348     7461 
    7531     7542     7548     7555     7528     7491     7477     7476 
    7479     7484     7472     7447     7452     7484     7518     7586 
    7711     7835     7931     8020     8066     8000     7840     7657 
    7473     7295     7149     7056     7041     7123     7268     7369 
    7380     7352     7335     7350     7398     7444     7462     7480 
    7515     7530     7530     7547     7578     7616     7688     7773 
    7831     7867     7870     7789     7661     7564     7477     7342 
    7223     7184     7192     7244     7384     7553     7654     7696 
    7709     7665     7581     7503     7364     7125     6889     6741 
    6664     6679     6831     7069     7333     7607     7858     8048 
    8151     8122     7925     7597     7260     7010     6897     6941 
    7082     7215     7325     7438     7545     7654     7796     7931 
    8029     8117     8164     8083     7892     7662     7414     7169 
    6974     6839     6756     6744     6791     6870     7011     7226 
    7415     7519     7597     7678     7726     7765     7805     7751 
    7560     7306     7045     6821     6721     6759     6847     6952 
    7103     7258     7346     7373     7377     7357     7333     7330 
    7327     7329     7354     7357     7299     7223     7183     7182 
    7238     7375     7535     7646     7703     7726     7705     7657 
    7577     7392     7110     6866     6736     6652     6548     6446 
    6370     6343     6411     6604     6878     7096     7155     7075 
    6939     6809     6724     6697     6704     6704     6689     6706 
    6777     6853     6910     6966     7020     7088     7168     7194 
    7126     7003     6876     6775     6717     6687     6662     6635 
    6610     6579     6547     6484     6350     6148     5950     5860 
    5925     6084     6297     6578     6885     7137     7315     7400 
    7334     7134     6889     6633     6370     6168     6115     6219 
    6446     6750     7078     7357     7547     7646     7642     7518 
    7296     7055     6905     6899     6975     7021     6979     6867 
    6767     6751     6824     6928     7011     7071     7126     7180 
    7210     7182     7099     7022     7018     7082     7146     7206 
    7294     7391     7437     7378     7192     6941     6737     6609 
    6534     6527     6581     6662     6774     6897     6952     6930 
    6893     6814     6652     6494     6444     6482     6596     6836 
    7142     7346     7381     7310     7156     6903     6628     6455 
    6454     6628     6909     7183     7415     7604     7680     7601 
    7423     7177     6864     6546     6316     6212     6211     6305 
    6431     6484     6460     6438     6421     6382     6382     6512 
    6795     7175     7555     7834     7940     7862     7619     7264 
    6852     6431     6076     5890     5906     6083     6353     6592 
    6647     6527     6354     6211     6183     6367     6733     7136 
    7501     7842     8095     8182     8141     8025     7821     7573 
    7366     7217     7115     7098     7171     7296     7430     7526 
    7515     7366     7125     6863     6640     6509     6485     6561 
    6741     7022     7312     7501     7576     7565     7454     7258 
    7060     6875     6667     6500     6427     6416     6465     6589 
    6747     6895     7021     7119     7195     7234     7222     7164 
    7084     7029     7005     6990     6998     7001     6924     6775 
    6637     6561     6519     6446     6303     6127     5996     5945 
    5944     5948     5937     5914     5906     5945     6062     6261 
    6500     6711     6835     6859     6820     6764     6739     6770 
    6815     6818     6758     6673     6631     6673     6791     6924 
    6984     6939     6809     6650     6544     6534     6569     6585 
    6600     6651     6731     6835     6955     7033     7041     7029 
    7028     7001     6926     6871     6881     6960     7092     7226 
    7273     7217     7145     7155     7254     7402     7539     7611 
    7581     7474     7331     7169     7002     6856     6723     6615 
    6589     6660     6777     6905     7061     7253     7465     7647 
    7740     7734     7649     7492     7294     7117     6979     6852 
    6736     6633     6531     6458     6431     6417     6396     6401 
    6484     6631     6789     6918     6975     6939     6879     6872 
    6934     7074     7277     7477     7636     7823     8055     8237 
    8297     8240     8064     7784     7479     7192     6914     6702 
    6620     6631     6679     6758     6843     6905     6990     7129 
    7254     7346     7450     7547     7624     7732     7857     7931 
    7973     8029     8073     8093     8108     8095     8051     8014 
    7952     7808     7624     7469     7319     7163     7072     7076 
    7109     7156     7258     7399     7512     7566     7526     7364 
    7142     6967     6870     6883     7048     7326     7657     8016 
    8310     8433     8424     8352     8175     7915     7690     7528 
    7366     7215     7118     7017     6878     6764     6711     6724 
    6835     7011     7202     7406     7586     7654     7626     7578 
    7526     7474     7496     7578     7612     7569     7479     7304 
    7061     6852     6729     6698     6781     6971     7184     7352 
    7462     7512     7489     7410     7296     7144     6966     6836 
    6820     6898     7023     7149     7221     7246     7298     7400 
    7501     7542     7508     7449     7411     7395     7331     7171 
    6947     6739     6594     6531     6520     6528     6552     6590 
    6613     6616     6628     6664     6735     6867     7030     7160 
    7253     7329     7392     7464     7560     7631     7616     7510 
    7331     7084     6795     6516     6272     6077     5980     6015 
    6133     6264     6389     6492     6520     6475     6384     6259 
    6170     6188     6266     6292     6228     6106     5962     5852 
    5831     5892     5975     6058     6126     6119     6037     5960 
    5931     5938     6004     6168     6397     6628     6828     6983 
    7115     7264     7404     7469     7450     7406     7372     7345 
    7346     7337     7254     7118     6995     6910     6870     6893 
    6948     6984     7001     7011     6982     6883     6748     6635 
    6593     6667     6853     7083     7290     7449     7560     7630 
    7678     7692     7646     7546     7396     7196     6990     6801 
    6613     6478     6451     6485     6534     6667     6909     7164 
    7369     7534     7596     7507     7346     7209     7103     7029 
    6979     6901     6793     6744     6810     6952     7145     7389 
    7632     7827     7955     7951     7778     7504     7215     6945 
    6751     6696     6763     6916     7169     7482     7727     7832 
    7805     7670     7479     7302     7159     7055     7025     7056 
    7103     7169     7264     7323     7307     7261     7188     7065 
    6952     6924     6936     6949     6993     7051     7086     7130 
    7202     7258     7284     7269     7180     7049     6979     6994 
    7026     7053     7069     7032     6974     7011     7155     7300 
    7419     7527     7578     7561     7520     7466     7396     7348 
    7346     7385     7460     7573     7723     7898     8073     8209 
    8274     8251     8155     8037     7950     7890     7823     7756 
    7747     7813     7962     8213     8492     8638     8595     8421 
    8167     7865     7599     7395     7209     7036     6921     6876 
    6891     6947     7010     7053     7056     6988     6848     6687 
    6516     6334     6201     6196     6309     6465     6625     6760 
    6837     6868     6880     6835     6675     6427     6185     6037 
    6018     6115     6282     6470     6658     6810     6895     6944 
    6997     7003     6914     6782     6689     6664     6717     6829 
    6948     7045     7140     7246     7354     7460     7551     7603 
    7604     7605     7684     7840     7981     8025     7974     7879 
    7807     7830     7954     8108     8214     8245     8229     8209 
    8181     8120     8040     7956     7859     7750     7655     7580 
    7510     7435     7360     7284     7195     7101     6999     6891 
    6789     6706     6650     6635     6662     6716     6797     6919 
    7074     7236     7411     7589     7695     7708     7685     7654 
    7584     7465     7310     7144     7009     6889     6704     6438 
    6153     5888     5679     5584     5610     5713     5879     6124 
    6392     6578     6670     6677     6569     6372     6138     5900 
    5676     5472     5282     5117     5027     5039     5093     5158 
    5268     5432     5633     5895     6205     6471     6647     6762 
    6815     6810     6825     6921     7086     7283     7472     7630 
    7789     8016     8281     8548     8822     9046     9119     9032 
    8816     8487     8137     7898     7820     7871     8044     8319 
    8606     8823     8929     8876     8646     8316     7981     7689 
    7462     7312     7264     7311     7389     7402     7271     6976 
    6542     6015     5535     5277     5277     5454     5729     6011 
    6197     6304     6403     6435     6319     6115     5884     5617 
    5390     5327     5439     5701     6118     6596     6975     7182 
    7234     7148     6925     6623     6282     5910     5571     5350 
    5229     5190     5292     5555     5930     6351     6737     7041 
    7294     7510     7652     7712     7711     7627     7454     7271 
    7190     7256     7457     7735     8012     8240     8406     8480 
    8460     8436     8476     8560     8644     8692     8635     8401 
    7978     7438     6856     6309     5890     5651     5579     5621 
    5664     5603     5472     5405     5491     5734     6091     6463 
    6723     6810     6747     6569     6339     6133     6003     5968 
    6087     6385     6804     7269     7739     8128     8352     8424 
    8398     8303     8175     8050     7940     7882     7924     8066 
    8243     8401     8538     8680     8877     9144     9396     9517 
    9478     9312     9046     8685     8275     7875     7510     7221 
    7056     7015     7060     7156     7246     7311     7403     7566 
    7789     8019     8182     8213     8100     7879     7576     7194 
    6754     6288     5856     5537     5350     5225     5100     4938 
    4714     4430     4168     3993     3883     3866     4027     4363 
    4799     5300     5818     6254     6555     6743     6813     6764 
    6724     6815     7007     7214     7349     7315     7105     6839 
    6617     6462     6389     6409     6463     6552     6741     7005 
    7221     7302     7225     6993     6690     6431     6250     6146 
    6164     6323     6597     6980     7444     7881     8220     8460 
    8594     8633     8614     8526     8340     8077     7780     7492 
    7294     7268     7418     7652     7888     8086     8186     8144 
    7974     7689     7280     6806     6350     5960     5713     5709 
    5940     6331     6824     7323     7716     8007     8240     8368 
    8349     8253     8170     8151     8236     8428     8633     8749 
    8762     8714     8640     8576     8529     8500     8533     8626 
    8725     8824     8932     8965     8850     8588     8209     7771 
    7361     7045     6844     6739     6708     6727     6754     6777 
    6810     6870     6976     7160     7408     7673     7924     8163 
    8414     8680     8922     9080     9121     9042     8858     8619 
    8388     8176     7966     7770     7630     7577     7657     7909 
    8286     8707     9120     9499     9822    10075    10219    10169 
    9907     9575     9333     9219     9186     9163     9078     8958 
    8891     8896     8895     8802     8576     8220     7751     7221 
    6696     6181     5634     5057     4515     4093     3848     3789 
    3855     3960     4064     4166     4248     4261     4122     3761 
    3208     2617     2130     1826     1729     1887     2328     3029 
    3942     4988     6031     6939     7657     8167     8426     8440 
    8257     7946     7616     7375     7264     7310     7522     7855 
    8252     8675     9109     9529     9891    10130    10169    10004 
    9759     9575     9526     9621     9794     9941    10008    10017 
    9995     9949     9894     9855     9847     9852     9791     9578 
    9192     8673     8075     7452     6897     6513     6345     6393 
    6639     6970     7230     7323     7163     6673     5896     4974 
    4055     3295     2872     2852     3164     3719     4378     4968 
    5416     5757     6034     6293     6600     6983     7392     7784 
    8171     8577     8978     9325     9571     9634     9445     9004 
    8395     7803     7384     7111     6899     6768     6751     6813 
    6856     6739     6353     5721     4981     4274     3711     3357 
    3200     3215     3430     3805     4192     4437     4471     4322 
    4133     4107     4324     4665     5044     5479     5958     6420 
    6851     7248     7530     7595     7410     7042     6629     6295 
    6081     5975     5965     6027     6087     6093     6006     5749 
    5317     4865     4595     4627     4993     5628     6365     7030 
    7576     8029     8410     8754     9082     9328     9431     9396 
    9220     8895     8464     7963     7389     6805     6326     6012 
    5850     5825     5925     6126     6353     6515     6588     6633 
    6681     6654     6482     6138     5614     4985     4390     3962 
    3804     3951     4379     4993     5661     6313     6939     7519 
    8025     8391     8513     8355     8024     7692     7435     7257 
    7210     7337     7614     8075     8765     9606    10459    11196 
   11654    11718    11429    10864    10064     9111     8164     7321 
    6589     5996     5582     5408     5611     6261     7226     8291 
    9288    10076    10573    10774    10671    10274     9699     9121 
    8694     8459     8322     8175     8009     7901     7919     8004 
    8025     7906     7642     7304     7030     6901     6886     6919 
    6943     6894     6714     6365     5842     5225     4658     4237 
    3971     3836     3800     3805     3807     3807     3815     3790 
    3682     3470     3169     2841     2573     2400     2319     2347 
    2488     2700     2963     3336     3879     4538     5217     5864 
    6424     6829     7078     7190     7159     7026     6891     6829 
    6874     7033     7295     7651     8127     8735     9416    10095 
   10724    11222    11530    11686    11732    11642    11418    11144 
   10909    10785    10786    10835    10828    10750    10640    10536 
   10451    10339    10077     9614     9055     8548     8155     7886 
    7734     7652     7611     7612     7622     7539     7311     6939 
    6443     5925     5544     5385     5448     5732     6188     6721 
    7230     7605     7750     7665     7485     7366     7388     7557 
    7804     8017     8177     8329     8456     8519     8537     8533 
    8506     8480     8473     8431     8281     8020     7685     7322 
    7001     6760     6543     6320     6148     6029     5908     5765 
    5545     5220     4889     4654     4572     4730     5136     5620 
    5962     6073     6002     5836     5645     5493     5366     5173 
    4868     4475     4048     3684     3469     3451     3630     3932 
    4233     4440     4565     4679     4818     5011     5256     5516 
    5790     6107     6427     6673     6817     6862     6764     6529 
    6278     6104     6019     6046     6166     6289     6388     6513 
    6670     6804     6895     6964     7030     7103     7183     7268 
    7364     7485     7614     7703     7756     7812     7848     7816 
    7708     7581     7515     7524     7560     7570     7539     7474 
    7406     7342     7244     7079     6890     6789     6860     7079 
    7346     7560     7645     7612     7531     7429     7264     7002 
    6666     6323     6021     5765     5570     5422     5302     5239 
    5273     5374     5439     5389     5221     5022     4938     5065 
    5355     5691     5980     6160     6191     6066     5829     5572 
    5425     5462     5675     6044     6567     7186     7788     8259 
    8503     8464     8221     7928     7707     7622     7720     8000 
    8401     8847     9262     9571     9738     9798     9774     9651 
    9459     9240     9024     8869     8814     8823     8816     8725 
    8500     8182     7928     7812     7761     7705     7619     7522 
    7484     7557     7695     7808     7881     7936     7973     8002 
    8054     8095     8087     8055     8007     7913     7780     7647 
    7520     7378     7245     7140     7033     6913     6795     6673 
    6554     6470     6420     6370     6292     6146     5922     5656 
    5387     5124     4864     4610     4363     4122     3912     3746 
    3628     3597     3681     3834     3987     4143     4324     4499 
    4611     4592     4382     4016     3639     3358     3198     3161 
    3238     3361     3503     3721     4033     4403     4797     5167 
    5468     5727     6000     6270     6507     6717     6905     7052 
    7150     7215     7242     7244     7248     7236     7176     7106 
    7088     7115     7145     7202     7311     7426     7477     7442 
    7321     7169     7088     7096     7123     7144     7184     7275 
    7420     7581     7704     7769     7799     7831     7893     8019 
    8190     8343     8433     8476     8487     8505     8545     8564 
    8517     8428     8372     8434     8660     9024     9450     9842 
   10152    10362    10466    10444    10299    10029     9695     9418 
    9266     9197     9144     9078     8978     8841     8718     8654 
