Origin Time       2016/04/16 01:25:00
Lat.              32.753
Long.             130.762
Depth. (km)       12
Mag.              7.3
Station Code      KOC009
Station Lat.      33.5742
Station Long.     133.1718
Station Height(m) 105
Record Time       2016/04/16 01:25:52
Sampling Freq(Hz) 100Hz
Duration Time(s)  106
Dir.              E-W
Scale Factor      7845(gal)/8223790
Max. Acc. (gal)   3.846
Last Correction   2016/04/16 01:25:53
Memo.             
[...]
    6974     7036     7119     7222     7307     7334     7257     7068 
    6841     6660     6556     6493     6436     6412     6446     6535 
    6650     6729     6744     6736     6731     6732     6747     6777 
    6813     6809     6702     6504     6293     6153     6130     6203 
    6312     6421     6539     6656     6714     6664     6502     6258 
    6010     5837     5746     5753     5880     6100     6353     6569 
    6678     6671     6609     6521     6389     6237     6135     6138 
    6265     6438     6505     6426     6290     6186     6124     6079 
    6027     6014     6123     6359     6597     6691     6616     6488 
    6442     6507     6627     6724     6770     6802     6844     6860 
    6805     6667     6486     6312     6131     5925     5718     5566 
    5540     5656     5821     5931     5954     5896     5786     5645 
    5491     5341     5238     5238     5343     5489     5621     5744 
    5890     6029     6044     5877     5625     5439     5420     5579 
    5838     6089     6265     6403     6571     6739     6839     6875 
    6885     6870     6810     6704     6616     6610     6700     6847 
    7010     7141     7171     7038     6791     6558     6409     6342 
    6299     6210     6068     5958     5977     6115     6258     6342 
    6419     6538     6608     6484     6138     5732     5474     5439 
    5543     5665     5756     5841     5965     6103     6176     6172 
    6174     6273     6444     6558     6505     6312     6104     5938 
    5803     5759     5879     6127     6399     6548     6448     6127 
    5775     5601     5684     5940     6207     6404     6563     6678 
    6659     6450     6104     5773     5603     5644     5826     5976 
    5987     5938     5923     5913     5864     5792     5757     5834 
    6008     6141     6102     5937     5787     5709     5703     5768 
    5890     6089     6369     6632     6775     6777     6690     6569 
    6455     6370     6301     6239     6218     6259     6358     6498 
    6643     6750     6793     6756     6648     6490     6293     6099 
    5975     5937     5984     6096     6234     6365     6442     6413 
    6296     6204     6247     6426     6652     6824     6860     6786 
    6706     6683     6685     6625     6478     6299     6151     6060 
    6014     5989     5962     5925     5917     5980     6085     6184 
    6257     6285     6269     6232     6207     6216     6254     6247 
    6139     5994     5930     5994     6103     6178     6212     6195 
    6135     6091     6080     6087     6130     6218     6309     6351 
    6303     6147     5940     5780     5736     5793     5910     6034 
    6124     6162     6137     6070     6035     6092     6250     6485 
    6727     6917     7040     7103     7123     7087     7020     6998 
    7042     7114     7177     7206     7182     7102     6961     6799 
    6669     6554     6413     6262     6170     6212     6423     6781 
    7171     7443     7551     7528     7392     7173     6937     6748 
    6662     6702     6843     6979     7023     7017     7033     7071 
    7098     7111     7129     7202     7346     7510     7603     7557 
    7369     7110     6874     6710     6627     6629     6731     6889 
    7029     7109     7101     7006     6876     6771     6721     6758 
    6875     7014     7130     7198     7198     7157     7115     7048 
    6934     6814     6739     6737     6791     6837     6853     6843 
    6767     6613     6442     6322     6285     6326     6416     6517 
    6583     6606     6613     6608     6582     6546     6525     6558 
    6647     6754     6860     6982     7094     7177     7244     7321 
    7398     7427     7366     7230     7092     7023     7023     7052 
    7036     6902     6700     6551     6507     6544     6609     6656 
    6675     6651     6562     6417     6281     6246     6361     6598 
    6875     7086     7130     7002     6786     6581     6465     6511 
    6709     6937     7038     6951     6717     6469     6370     6454 
    6586     6656     6648     6596     6569     6594     6627     6646 
    6670     6716     6754     6701     6523     6300     6138     6089 
    6158     6261     6285     6193     6029     5872     5768     5721 
    5763     5923     6150     6338     6408     6349     6223     6129 
    6127     6189     6262     6327     6393     6485     6601     6656 
    6610     6547     6548     6592     6589     6500     6381     6331 
    6427     6628     6831     7010     7215     7442     7624     7677 
    7548     7300     7082     6990     6999     7038     7079     7109 
    7096     7011     6875     6724     6592     6519     6496     6475 
    6448     6434     6426     6421     6421     6408     6385     6381 
    6389     6394     6397     6427     6513     6652     6787     6859 
    6867     6835     6763     6652     6531     6467     6509     6639 
    6781     6886     6926     6875     6754     6627     6571     6629 
    6804     7042     7246     7322     7261     7130     7005     6925 
    6906     6967     7126     7366     7596     7704     7642     7480 
    7306     7121     6894     6673     6562     6606     6728     6804 
    6777     6658     6493     6332     6193     6072     5994     6034 
    6211     6415     6508     6439     6284     6156     6112     6134 
    6196     6315     6515     6766     6966     7014     6914     6750 
    6605     6519     6484     6490     6562     6716     6910     7045 
    7048     6925     6727     6492     6255     6068     5977     5987 
    6068     6211     6374     6470     6467     6427     6411     6436 
    6489     6556     6612     6617     6551     6427     6295     6192 
    6131     6134     6219     6382     6589     6785     6913     6939 
    6881     6798     6714     6628     6554     6516     6539     6633 
    6741     6755     6640     6447     6243     6072     5945     5879 
    5930     6126     6385     6585     6652     6594     6489     6393 
    6319     6281     6296     6380     6536     6723     6867     6928 
    6898     6815     6731     6651     6575     6524     6512     6544 
    6631     6767     6914     7044     7144     7188     7156     7087 
    7044     7048     7094     7165     7217     7236     7240     7223 
    7177     7129     7094     7061     7015     6932     6794     6619 
    6436     6293     6201     6151     6148     6196     6262     6296 
    6234     6079     5921     5810     5725     5661     5643     5692 
    5796     5891     5907     5838     5727     5641     5598     5580 
    5599     5678     5795     5910     5979     6002     6023     6093 
    6211     6312     6342     6290     6200     6118     6083     6106 
    6185     6319     6478     6589     6596     6490     6296     6065 
    5868     5745     5702     5738     5849     6010     6200     6382 
    6527     6632     6702     6739     6770     6831     6929     7053 
    7173     7264     7337     7391     7402     7338     7179     6970 
    6797     6705     6709     6794     6913     7048     7187     7280 
    7307     7276     7190     7064     6939     6858     6832     6845 
    6872     6898     6930     6987     7032     7026     6955     6809 
    6629     6504     6486     6593     6798     7047     7271     7392 
    7348     7169     6970     6848     6829     6862     6912     6959 
    6978     6966     6948     6945     6974     7052     7157     7223 
    7206     7125     7030     6948     6875     6812     6752     6682 
    6601     6535     6474     6401     6327     6276     6265     6295 
    6334     6351     6322     6242     6143     6065     6048     6093 
    6172     6266     6356     6407     6376     6264     6138     6099 
    6156     6245     6301     6274     6142     5952     5805     5790 
    5938     6204     6484     6683     6762     6716     6571     6393 
    6284     6327     6511     6747     6933     7022     7052     7096 
    7177     7248     7257     7227     7222     7260     7312     7350 
    7369     7389     7430     7480     7512     7527     7534     7530 
    7482     7352     7127     6858     6606     6404     6270     6255 
    6376     6586     6804     6948     6990     6955     6893     6868 
    6886     6901     6871     6828     6853     6995     7223     7480 
    7693     7774     7655     7333     6835     6234     5661     5256 
    5090     5150     5336     5518     5590     5522     5354     5147 
    5003     5004     5164     5445     5753     5976     6066     6052 
    5995     5967     6011     6126     6272     6399     6474     6474 
    6396     6270     6168     6134     6131     6070     5887     5616 
    5375     5273     5313     5443     5585     5655     5617     5513 
    5391     5275     5198     5198     5287     5436     5590     5705 
    5760     5775     5779     5778     5787     5846     5958     6093 
    6252     6439     6631     6805     6922     6947     6894     6822 
    6772     6731     6651     6490     6257     6012     5833     5748 
    5772     5908     6126     6382     6629     6831     6999     7183 
    7393     7609     7774     7797     7623     7307     6949     6654 
    6496     6498     6667     6998     7419     7824     8113     8235 
    8217     8139     8044     7936     7799     7604     7322     6976 
    6628     6338     6183     6230     6462     6808     7184     7497 
    7713     7831     7846     7792     7720     7642     7576     7545 
    7522     7482     7454     7456     7468     7495     7543     7595 
    7614     7589     7533     7497     7501     7515     7510     7472 
    7381     7260     7153     7103     7142     7277     7480     7696 
    7843     7825     7591     7146     6554     5906     5339     4965 
    4824     4869     4988     5057     5016     4900     4781     4726 
    4808     5065     5481     5979     6431     6744     6921     6990 
    6976     6914     6836     6768     6708     6648     6609     6615 
    6677     6821     7063     7385     7719     7967     8077     8037 
    7847     7541     7213     6987     6940     7038     7188     7299 
    7280     7078     6724     6284     5845     5517     5377     5436 
    5663     5994     6361     6714     7034     7298     7464     7535 
    7547     7518     7473     7441     7422     7411     7411     7377 
    7264     7061     6789     6502     6288     6205     6249     6346 
    6420     6426     6345     6208     6073     5984     5954     5973 
    6025     6099     6165     6158     6058     5902     5751     5644 
    5621     5705     5895     6197     6585     7002     7377     7652 
    7807     7844     7820     7827     7950     8190     8477     8679 
    8637     8298     7792     7353     7165     7311     7755     8364 
    8978     9474     9747     9738     9499     9161     8854     8623 
    8424     8225     8066     7974     7924     7839     7654     7404 
    7209     7149     7231     7422     7661     7865     7962     7900 
    7636     7206     6747     6407     6249     6243     6297     6330 
    6315     6250     6100     5829     5472     5138     4920     4852 
    4881     4908     4893     4864     4858     4893     4997     5228 
    5647     6245     6910     7470     7788     7827     7652     7389 
    7163     7053     7060     7117     7156     7125     6997     6810 
    6644     6531     6454     6384     6280     6133     6000     5957 
    6070     6388     6852     7306     7578     7543     7184     6620 
    6057     5663     5501     5541     5711     5902     6037     6079 
    6025     5904     5776     5705     5740     5875     6070     6284 
    6489     6651     6723     6670     6502     6276     6092     6029 
    6050     6066     6014     5867     5643     5386     5155     4976 
    4841     4743     4699     4739     4939     5341     5925     6629 
    7366     8025     8506     8760     8806     8730     8657     8679 
    8808     8993     9135     9146     9004     8761     8484     8230 
    8017     7815     7586     7296     6921     6500     6118     5857 
    5759     5807     5919     6012     6048     6015     5915     5764 
    5603     5459     5339     5265     5273     5387     5589     5830 
    6070     6292     6477     6600     6663     6732     6851     7005 
    7122     7106     6906     6550     6106     5659     5275     4985 
    4799     4733     4795     4958     5177     5402     5590     5713 
    5779     5784     5725     5653     5623     5637     5668     5649 
    5524     5293     4994     4673     4380     4171     4122     4268 
    4568     4927     5235     5448     5610     5773     5944     6084 
    6145     6131     6108     6122     6184     6293     6465     6729 
    7071     7437     7777     8060     8260     8345     8272     8019 
    7604     7094     6579     6135     5819     5684     5725     5872 
    6016     6073     6023     5899     5753     5618     5518     5481 
    5501     5524     5513     5452     5367     5325     5370     5475 
    5607     5749     5898     6052     6224     6419     6632     6844 
    7013     7082     7029     6886     6727     6652     6733     6944 
    7187     7340     7318     7102     6772     6475     6343     6436 
    6739     7159     7553     7811     7896     7843     7727     7643 
    7661     7767     7890     7989     8060     8131     8210     8267 
    8262     8208     8177     8247     8467     8858     9383     9937 
   10376    10579    10525    10293    10025     9859     9868    10015 
   10222    10401    10482    10438    10280    10060     9841     9655 
    9497     9336     9147     8929     8683     8397     8035     7584 
    7074     6562     6110     5784     5618     5607     5726     5913 
    6075     6139     6110     6031     5934     5811     5634     5401 
    5177     5040     5004     5009     5003     4974     4942     4918 
    4899     4860     4787     4712     4677     4679     4685     4664 
    4618     4567     4504     4401     4217     3931     3561     3183 
    2917     2866     3046     3420     3910     4383     4745     4978 
    5109     5189     5259     5308     5320     5294     5212     5073 
    4923     4828     4834     4909     5001     5065     5077     5066 
    5088     5159     5290     5489     5748     6050     6340     6527 
    6539     6396     6181     5976     5822     5730     5694     5702 
    5746     5814     5853     5825     5722     5574     5440     5387 
    5456     5661     5946     6208     6378     6412     6282     6018 
    5680     5324     4980     4671     4426     4261     4190     4238 
    4406     4650     4900     5073     5124     5053     4893     4739 
    4715     4899     5258     5675     6018     6199     6189     6022 
    5767     5501     5279     5146     5111     5131     5146     5136 
    5113     5101     5103     5098     5088     5070     5036     4988 
    4956     4997     5136     5355     5614     5881     6150     6419 
    6658     6809     6820     6709     6551     6426     6389     6463 
    6619     6845     7144     7469     7750     7929     8002     8010 
    7963     7839     7665     7518     7443     7433     7425     7352 
    7182     6943     6702     6520     6415     6380     6426     6542 
    6640     6604     6380     6025     5661     5400     5285     5293 
    5374     5471     5537     5548     5499     5408     5328     5313 
    5350     5379     5360     5310     5266     5238     5215     5171 
    5073     4918     4770     4691     4692     4745     4800     4806 
    4722     4563     4353     4128     3943     3861     3913     4087 
    4330     4571     4758     4872     4908     4876     4807     4753 
    4779     4918     5164     5460     5733     5911     5972     5937 
    5867     5837     5900     6073     6322     6581     6764     6812 
    6744     6637     6542     6475     6430     6385     6339     6307 
    6312     6370     6465     6582     6711     6832     6928     6984 
    6984     6928     6831     6720     6616     6520     6439     6392 
    6389     6423     6470     6477     6420     6323     6216     6114 
    6037     6011     6025     6043     6042     5999     5910     5806 
    5737     5733     5773     5818     5853     5881     5892     5871 
    5822     5756     5663     5541     5402     5267     5173     5148 
    5201     5300     5401     5468     5476     5410     5296     5181 
    5093     5047     5038     5042     5027     4996     4969     4973 
    5003     5030     5044     5058     5073     5090     5120     5150 
    5161     5167     5209     5294     5391     5494     5617     5760 
    5935     6156     6397     6633     6879     7160     7468     7769 
    8032     8224     8322     8336     8316     8330     8398     8487 
    8550     8564     8538     8477     8383     8271     8164     8051 
    7916     7766     7591     7377     7163     6999     6903     6866 
    6860     6878     6929     6984     6980     6868     6650     6381 
    6147     6000     5925     5880     5850     5849     5886     5968 
    6079     6181     6254     6304     6338     6350     6361     6417 
    6564     6810     7107     7360     7492     7493     7410     7325 
    7312     7393     7551     7759     7969     8131     8220     8253 
    8243     8179     8070     7927     7776     7650     7576     7558 
    7568     7541     7418     7183     6885     6609     6450     6458 
    6625     6883     7115     7203     7107     6868     6585     6369 
    6292     6358     6516     6690     6809     6825     6739     6600 
    6485     6469     6582     6808     7105     7408     7654     7805 
    7848     7776     7584     7318     7056     6881     6862     6984 
    7177     7371     7523     7623     7670     7668     7622     7573 
    7580     7693     7929     8241     8532     8714     8756     8665 
    8473     8239     8048     7973     8025     8172     8370     8560 
    8679     8702     8673     8672     8783     9050     9435     9833 
   10133    10239    10133     9876     9556     9238     8964     8757 
    8627     8559     8509     8424     8259     7994     7685     7422 
    7252     7188     7234     7365     7534     7699     7798     7767 
    7599     7348     7113     6985     7003     7129     7296     7419 
    7422     7277     6990     6613     6219     5875     5606     5424 
    5321     5283     5273     5251     5216     5213     5305     5514 
    5803     6112     6385     6551     6569     6462     6288     6103 
    5961     5911     5960     6080     6237     6405     6564     6682 
    6733     6739     6754     6818     6934     7063     7180     7290 
    7393     7481     7553     7627     7707     7781     7823     7797 
    7690     7543     7422     7354     7323     7295     7244     7171 
    7092     7014     6936     6866     6839     6889     7007     7160 
    7302     7408     7491     7561     7614     7657     7701     7744 
    7761     7723     7604     7433     7269     7155     7087     7060 
    7078     7155     7300     7495     7695     7865     8021     8176 
    8330     8487     8626     8734     8810     8841     8811     8715 
    8575     8446     8352     8276     8205     8136     8081     8073 
    8144     8291     8487     8677     8815     8850     8772     8631 
