Origin Time       2016/04/16 01:25:00
Lat.              32.753
Long.             130.762
Depth. (km)       12
Mag.              7.3
Station Code      KOC002
Station Lat.      33.2903
Station Long.     134.1681
Station Height(m) 17
Record Time       2016/04/16 01:26:07
Sampling Freq(Hz) 100Hz
Duration Time(s)  119
Dir.              E-W
Scale Factor      7845(gal)/8223790
Max. Acc. (gal)   6.248
Last Correction   2016/04/16 01:26:07
Memo.             
[...]
   22911    22762    22623    22488    22335    22181    22029    21855 
   21676    21523    21393    21284    21201    21159    21155    21182 
   21261    21389    21550    21751    21995    22258    22538    22833 
   23129    23398    23603    23743    23820    23820    23755    23642 
   23488    23304    23098    22885    22692    22524    22380    22270 
   22203    22165    22167    22200    22249    22304    22363    22403 
   22408    22391    22351    22289    22221    22160    22106    22064 
   22046    22052    22068    22090    22122    22165    22216    22280 
   22350    22411    22447    22457    22462    22461    22449    22450 
   22470    22491    22522    22588    22662    22732    22806    22866 
   22890    22887    22864    22804    22696    22558    22395    22210 
   22030    21865    21724    21636    21612    21654    21755    21903 
   22092    22300    22501    22693    22881    23047    23174    23255 
   23299    23307    23276    23220    23143    23028    22877    22712 
   22535    22357    22191    22049    21926    21820    21744    21699 
   21681    21701    21760    21861    22007    22177    22363    22550 
   22713    22850    22954    23028    23095    23160    23215    23274 
   23333    23390    23454    23517    23548    23529    23463    23365 
   23224    23033    22817    22584    22333    22095    21890    21709 
   21570    21483    21436    21419    21439    21470    21505    21550 
   21590    21627    21683    21747    21810    21907    22038    22184 
   22341    22513    22686    22836    22962    23076    23166    23213 
   23226    23203    23143    23058    22959    22864    22777    22697 
   22638    22593    22565    22574    22604    22644    22709    22779 
   22852    22937    23031    23128    23234    23350    23458    23539 
   23600    23629    23607    23537    23436    23307    23152    22982 
   22804    22621    22428    22221    22007    21801    21606    21428 
   21286    21203    21178    21213    21323    21497    21712    21959 
   22226    22488    22750    23013    23248    23449    23634    23791 
   23901    23966    23997    23997    23954    23858    23720    23556 
   23353    23118    22867    22600    22335    22100    21906    21762 
   21681    21656    21674    21732    21837    21986    22158    22346 
   22524    22663    22767    22842    22881    22911    22951    22994 
   23059    23149    23247    23349    23450    23527    23568    23579 
   23558    23518    23444    23341    23238    23129    23005    22875 
   22746    22612    22468    22324    22208    22114    22014    21914 
   21828    21757    21699    21652    21637    21676    21756    21864 
   22003    22162    22324    22501    22688    22877    23062    23228 
   23355    23446    23506    23523    23485    23399    23279    23126 
   22939    22735    22540    22357    22179    22003    21840    21706 
   21602    21521    21473    21466    21496    21550    21625    21725 
   21830    21924    22010    22087    22149    22199    22245    22287 
   22306    22302    22293    22279    22264    22279    22315    22363 
   22437    22509    22561    22594    22597    22574    22538    22482 
   22403    22304    22194    22064    21924    21793    21671    21562 
   21481    21436    21420    21428    21463    21523    21598    21679 
   21752    21806    21836    21840    21833    21832    21830    21851 
   21913    22006    22135    22300    22473    22659    22854    23035 
   23202    23352    23465    23541    23564    23525    23448    23337 
   23180    22985    22777    22567    22357    22153    21970    21806 
   21659    21532    21412    21307    21239    21192    21161    21166 
   21192    21223    21290    21398    21525    21674    21852    22036 
   22206    22373    22543    22708    22870    23043    23220    23384 
   23538    23679    23786    23862    23912    23928    23916    23892 
   23843    23776    23708    23623    23518    23417    23306    23175 
   23039    22888    22717    22534    22342    22148    21961    21784 
   21628    21504    21405    21338    21316    21350    21428    21544 
   21703    21897    22091    22277    22462    22636    22800    22962 
   23116    23261    23388    23488    23575    23656    23723    23772 
   23809    23828    23807    23761    23700    23615    23519    23427 
   23318    23188    23048    22882    22684    22472    22254    22052 
   21886    21768    21699    21691    21747    21853    21998    22167 
   22343    22530    22725    22911    23086    23251    23383    23496 
   23595    23647    23658    23646    23595    23495    23356    23198 
   23036    22874    22728    22603    22486    22365    22237    22102 
   21955    21801    21655    21510    21370    21249    21161    21115 
   21123    21186    21300    21454    21637    21837    22040    22229 
   22401    22558    22702    22833    22939    23029    23114    23180 
   23233    23283    23323    23357    23391    23413    23421    23407 
   23356    23255    23095    22887    22650    22389    22115    21868 
   21654    21479    21365    21303    21296    21351    21456    21594 
   21747    21899    22052    22195    22333    22469    22600    22736 
   22886    23025    23145    23252    23334    23396    23446    23477 
   23485    23475    23442    23377    23282    23170    23047    22905 
   22735    22561    22397    22231    22075    21952    21845    21752 
   21695    21668    21667    21693    21748    21828    21927    22053 
   22194    22333    22474    22621    22758    22871    22970    23037 
   23062    23076    23086    23072    23067    23070    23056    23041 
   23032    22997    22934    22859    22767    22642    22489    22341 
   22192    22022    21855    21709    21574    21460    21389    21342 
   21321    21354    21429    21511    21600    21694    21767    21797 
   21799    21784    21745    21701    21686    21701    21739    21821 
   21942    22088    22260    22439    22604    22748    22863    22939 
   22968    22945    22879    22792    22675    22543    22418    22296 
   22181    22086    21996    21918    21857    21807    21779    21774 
   21772    21772    21784    21807    21838    21875    21930    22007 
   22088    22180    22285    22380    22477    22580    22644    22670 
   22693    22698    22684    22665    22627    22573    22511    22431 
   22329    22221    22102    21969    21844    21745    21679    21648 
   21660    21706    21780    21891    22036    22200    22380    22559 
   22738    22909    23060    23211    23357    23469    23562    23642 
   23684    23688    23672    23638    23580    23491    23369    23213 
   23016    22808    22607    22389    22185    22036    21921    21822 
   21770    21745    21718    21694    21685    21676    21666    21682 
   21728    21789    21871    21979    22102    22250    22409    22559 
   22707    22856    23005    23149    23276    23373    23431    23452 
   23449    23431    23403    23370    23332    23278    23209    23143 
   23086    23016    22943    22888    22837    22786    22747    22721 
   22702    22685    22659    22626    22589    22555    22520    22493 
   22485    22478    22465    22468    22481    22474    22450    22424 
   22395    22360    22324    22296    22268    22243    22241    22253 
   22283    22356    22465    22597    22754    22924    23094    23272 
   23442    23587    23707    23797    23857    23900    23942    23989 
   24025    24048    24069    24073    24039    23967    23861    23714 
   23523    23296    23047    22763    22451    22127    21789    21440 
   21127    20858    20641    20501    20445    20470    20572    20742 
   20966    21243    21568    21929    22315    22721    23120    23487 
   23818    24097    24304    24424    24460    24432    24344    24204 
   24020    23808    23583    23359    23147    22933    22711    22495 
   22276    22042    21817    21612    21424    21274    21184    21128 
   21105    21131    21197    21307    21490    21749    22069    22455 
   22883    23321    23758    24154    24470    24706    24852    24900 
   24875    24779    24602    24367    24092    23774    23426    23070 
   22719    22384    22075    21813    21610    21448    21323    21250 
   21226    21222    21255    21316    21381    21460    21550    21635 
   21720    21806    21887    21964    22041    22121    22211    22304 
   22397    22492    22584    22670    22748    22806    22840    22851 
   22833    22779    22698    22594    22459    22320    22188    22040 
   21878    21721    21554    21361    21173    21009    20862    20745 
   20682    20671    20717    20827    20983    21161    21365    21574 
   21774    21984    22210    22428    22636    22823    22989    23143 
   23279    23409    23537    23642    23731    23807    23836    23827 
   23786    23684    23522    23314    23043    22723    22363    21959 
   21525    21104    20711    20343    20027    19776    19560    19388 
   19269    19187    19137    19126    19163    19268    19445    19687 
   19997    20375    20806    21274    21780    22306    22820    23329 
   23816    24252    24628    24937    25169    25332    25431    25462 
   25436    25355    25213    25014    24757    24447    24078    23657 
   23195    22707    22211    21737    21311    20958    20695    20525 
   20461    20499    20625    20839    21122    21454    21833    22256 
   22708    23183    23673    24165    24632    25064    25439    25728 
   25918    26013    26013    25940    25820    25663    25490    25321 
   25166    25023    24911    24834    24792    24795    24836    24906 
   24992    25080    25139    25145    25095    25008    24894    24767 
   24636    24509    24405    24331    24281    24250    24227    24208 
   24182    24138    24069    23980    23852    23685    23490    23263 
   23002    22715    22401    22059    21695    21331    20989    20671 
   20370    20088    19834    19615    19438    19321    19276    19310 
   19418    19604    19876    20227    20636    21099    21590    22095 
   22611    23103    23544    23932    24254    24499    24683    24792 
   24822    24790    24699    24544    24333    24082    23807    23511 
   23198    22866    22534    22207    21853    21470    21082    20683 
   20268    19865    19484    19120    18777    18462    18173    17915 
   17722    17613    17594    17698    17944    18337    18882    19575 
   20371    21231    22131    23032    23900    24725    25483    26154 
   26721    27168    27488    27675    27714    27600    27336    26940 
   26443    25857    25196    24479    23723    22939    22140    21359 
   20626    19946    19349    18864    18486    18238    18145    18202 
   18408    18771    19271    19857    20488    21145    21789    22388 
   22959    23479    23918    24283    24563    24732    24799    24784 
   24692    24532    24325    24098    23872    23661    23475    23311 
   23175    23063    22971    22885    22781    22667    22555    22423 
   22280    22149    22006    21851    21701    21563    21465    21421 
   21420    21463    21556    21667    21775    21894    22036    22214 
   22437    22719    23048    23413    23815    24210    24541    24796 
   24966    25014    24933    24742    24463    24125    23747    23353 
   22950    22549    22168    21820    21520    21289    21131    21024 
   20965    20958    20977    21006    21058    21142    21224    21288 
   21352    21408    21425    21419    21413    21411    21393    21373 
   21381    21423    21500    21625    21794    21993    22229    22478 
   22720    22950    23139    23284    23396    23448    23448    23427 
   23376    23310    23244    23161    23066    22956    22819    22648 
   22442    22187    21898    21595    21300    21034    20821    20679 
   20629    20667    20810    21072    21415    21807    22238    22666 
   23075    23464    23792    24034    24190    24241    24185    24058 
   23885    23687    23498    23334    23199    23093    22990    22881 
   22761    22624    22475    22320    22173    22034    21872    21667 
   21404    21049    20602    20082    19511    18924    18361    17856 
   17450    17166    17018    17035    17207    17494    17874    18311 
   18774    19232    19675    20115    20552    20984    21409    21829 
   22234    22617    22977    23313    23599    23829    24001    24092 
   24093    24027    23895    23688    23426    23147    22871    22604 
   22345    22099    21874    21670    21498    21359    21258    21211 
   21212    21255    21344    21467    21594    21712    21811    21865 
   21872    21849    21795    21721    21654    21594    21554    21554 
   21587    21668    21816    22014    22257    22555    22897    23282 
   23704    24139    24568    24966    25297    25551    25718    25767 
   25691    25501    25189    24767    24258    23680    23055    22422 
   21814    21244    20740    20329    20031    19853    19795    19855 
   20032    20313    20692    21154    21682    22268    22900    23545 
   24201    24879    25552    26180    26761    27279    27692    27999 
   28204    28301    28293    28192    27990    27688    27284    26773 
   26169    25482    24719    23903    23063    22230    21425    20659 
   19930    19257    18667    18168    17788    17558    17485    17574 
   17820    18207    18734    19398    20175    21050    22000    22991 
   23986    24956    25871    26709    27441    28050    28529    28856 
   29027    29068    28973    28745    28416    28015    27544    27010 
   26449    25868    25258    24636    24030    23440    22868    22350 
   21913    21570    21335    21208    21177    21236    21373    21552 
   21749    21940    22104    22234    22319    22335    22280    22157 
   21963    21701    21381    21039    20713    20416    20166    19978 
   19853    19782    19782    19847    19962    20124    20336    20572 
   20804    21033    21255    21440    21579    21685    21762    21809 
   21843    21867    21876    21894    21940    22002    22081    22198 
   22339    22482    22619    22752    22866    22939    22998    23056 
   23118    23207    23329    23456    23591    23735    23861    23954 
   24025    24059    24032    23958    23846    23691    23498    23292 
   23085    22862    22624    22381    22125    21863    21614    21393 
   21208    21065    20964    20900    20872    20877    20918    20992 
   21103    21261    21474    21743    22073    22462    22894    23367 
   23858    24318    24737    25120    25435    25671    25847    25944 
   25947    25857    25675    25401    25034    24598    24101    23544 
   22958    22386    21840    21336    20900    20521    20193    19919 
   19680    19489    19365    19295    19295    19387    19562    19822 
   20163    20557    20979    21429    21890    22329    22748    23136 
   23461    23715    23889    23980    23997    23946    23816    23614 
   23355    23053    22744    22450    22194    22009    21884    21794 
   21732    21682    21620    21540    21448    21365    21292    21219 
   21153    21097    21026    20933    20827    20696    20550    20416 
   20301    20210    20158    20140    20150    20191    20270    20378 
   20520    20687    20868    21064    21261    21450    21643    21848 
   22064    22287    22503    22711    22913    23094    23265    23446 
   23631    23811    23997    24194    24397    24591    24767    24914 
   25034    25134    25208    25252    25272    25267    25238    25191 
   25134    25061    24972    24875    24759    24618    24466    24286 
   24058    23785    23473    23124    22748    22362    21984    21624 
   21286    21001    20771    20576    20429    20335    20270    20241 
   20267    20322    20398    20515    20671    20839    21033    21261 
   21516    21795    22079    22350    22615    22864    23071    23228 
   23342    23417    23433    23386    23295    23171    23013    22848 
   22689    22536    22388    22252    22129    22014    21899    21789 
   21681    21582    21516    21489    21497    21552    21649    21767 
   21918    22106    22303    22509    22744    22994    23264    23572 
   23909    24255    24615    24976    25303    25581    25816    25986 
   26060    26032    25895    25647    25301    24868    24351    23769 
   23139    22481    21814    21153    20530    19966    19446    18975 
   18573    18238    17968    17770    17653    17606    17612    17672 
   17779    17914    18083    18280    18507    18786    19118    19488 
   19907    20375    20872    21393    21938    22465    22958    23433 
   23874    24254    24564    24813    24999    25112    25157    25131 
   25039    24894    24702    24459    24185    23884    23542    23166 
   22763    22330    21874    21412    20953    20518    20137    19813 
   19550    19357    19230    19161    19141    19157    19221    19344 
   19514    19742    20038    20378    20745    21143    21564    21987 
   22407    22832    23271    23726    24196    24661    25115    25551 
   25944    26272    26543    26743    26831    26819    26720    26514 
   26204    25813    25347    24823    24266    23696    23140    22617 
   22137    21729    21419    21189    21038    20969    20964    21020 
   21135    21286    21471    21674    21883    22106    22337    22565 
   22789    23017    23244    23454    23652    23847    24023    24159 
   24268    24356    24403    24409    24381    24311    24197    24047 
   23882    23715    23552    23409    23283    23172    23094    23048 
   23037    23082    23179    23315    23483    23670    23862    24058 
   24254    24428    24571    24695    24798    24854    24858    24825 
   24747    24618    24445    24244    24015    23747    23449    23128 
   22788    22442    22102    21780    21498    21259    21058    20906 
   20806    20756    20758    20808    20904    21034    21184    21374 
   21600    21849    22133    22454    22782    23105    23429    23735 
   24004    24251    24480    24661    24792    24887    24933    24939 
   24934    24916    24900    24898    24902    24926    24962    24992 
   25007    24999    24964    24892    24776    24629    24456    24248 
   24008    23742    23456    23155    22839    22509    22175    21843 
   21517    21197    20873    20549    20228    19907    19579    19255 
   18966    18728    18551    18462    18472    18588    18814    19130 
   19525    19992    20507    21039    21562    22059    22515    22909 
   23228    23479    23650    23735    23746    23693    23588    23450 
   23287    23107    22927    22751    22580    22409    22233    22041 
   21837    21628    21406    21178    20966    20777    20630    20553 
   20544    20602    20725    20908    21138    21396    21666    21942 
   22198    22411    22582    22705    22771    22790    22774    22723 
   22642    22546    22446    22324    22179    22027    21870    21701 
   21540    21389    21235    21068    20899    20742    20605    20513 
   20482    20498    20559    20679    20857    21082    21357    21670 
   21998    22330    22661    22967    23240    23484    23692    23852 
   23977    24070    24124    24123    24073    23971    23804    23584 
   23336    23052    22738    22420    22095    21756    21425    21109 
   20796    20502    20236    19996    19800    19665    19589    19570 
