Origin Time       2016/04/16 01:25:00
Lat.              32.753
Long.             130.762
Depth. (km)       12
Mag.              7.3
Station Code      KOC015
Station Lat.      32.9370
Station Long.     132.7252
Station Height(m) 2
Record Time       2016/04/16 01:25:38
Sampling Freq(Hz) 100Hz
Duration Time(s)  120
Dir.              N-S
Scale Factor      7845(gal)/8223790
Max. Acc. (gal)   45.585
Last Correction   2016/04/16 01:25:38
Memo.             
[...]
  -10991   -11695   -12002   -11812   -11600   -11792   -12124   -12151 
  -11878   -11398   -10606    -9662    -8916    -8510    -8321    -8054 
   -7674    -7518    -7581    -7581    -7674    -8156    -8770    -9120 
   -9367    -9730   -10007   -10064   -10039    -9975    -9722    -9454 
   -9859   -11102   -12305   -12895   -13066   -12815   -12109   -11280 
  -10573   -10211   -10278   -10247    -9815    -9373    -8928    -8252 
   -7736    -7551    -7298    -6845    -6141    -5148    -4342    -4078 
   -4280    -4911    -5848    -6862    -7808    -8683    -9609   -10547 
  -11354   -12055   -12810   -13844   -14918   -15350   -14916   -13787 
  -12316   -11252   -10902   -10782   -10608   -10517   -10436   -10049 
   -9217    -8110    -6930    -5937    -5606    -6112    -6735    -6673 
   -6245    -6246    -6713    -7206    -7545    -7892    -8532    -9463 
  -10332   -10795   -10712   -10396   -10532   -11200   -11526   -10989 
  -10161    -9703    -9715   -10050   -10384   -10404   -10243   -10152 
   -9984    -9491    -8777    -8212    -7931    -7699    -7399    -7290 
   -7541    -8035    -8660    -9286    -9684    -9853   -10120   -10571 
  -10759   -10478   -10176   -10076    -9860    -9491    -9435    -9796 
   -9931    -9574    -9339    -9337    -9001    -8553    -8655    -8991 
   -8891    -8391    -7765    -7315    -7622    -8652    -9591   -10111 
  -10486   -10773   -10963   -11207   -11457   -11477   -11167   -10592 
   -9938    -9533    -9497    -9472    -9143    -8606    -7985    -7353 
   -6727    -5942    -5074    -4631    -4820    -5328    -6160    -7646 
   -9548   -11407   -13275   -15203   -16966   -18357   -18883   -18139 
  -16672   -15340   -14183   -12796   -11168    -9661    -8334    -6980 
   -5880    -5271    -4733    -4237    -4243    -4606    -4907    -5044 
   -4893    -4467    -4124    -4214    -4939    -6316    -8016    -9537 
  -10620   -11531   -12814   -14331   -15203   -15111   -14589   -13975 
  -13262   -12472   -11481   -10115    -8576    -7372    -6909    -7186 
   -7812    -8390    -8830    -9279    -9930   -10706   -11155   -11078 
  -10681   -10099    -9499    -9012    -8557    -8310    -8444    -8754 
   -9139    -9379    -8945    -8028    -7304    -6652    -5783    -5289 
   -5524    -5856    -5977    -6239    -6581    -6790    -7257    -8233 
   -9301   -10199   -11037   -11668   -12036   -12596   -13435   -14098 
  -14489   -14714   -14581   -13950   -13061   -12240   -11564   -10968 
  -10370    -9555    -8374    -7078    -6126    -5830    -6411    -7947 
   -9968   -11645   -12433   -12287   -11418   -10091    -8735    -7744 
   -7029    -6489    -6407    -6754    -6952    -6677    -6232    -5926 
   -5629    -5421    -5625    -5864    -5563    -5228    -5713    -6640 
   -6886    -6219    -5637    -6157    -7707    -9603   -11468   -13036 
  -14121   -14921   -15437   -15408   -15159   -15225   -15384   -14868 
  -13501   -11952   -10721    -9869    -9674   -10129   -10482   -10273 
   -9717    -8870    -7726    -6739    -6219    -5965    -6075    -6925 
   -8290    -9545   -10496   -11286   -11973   -12396   -12252   -11415 
  -10104    -8627    -7203    -5926    -4968    -4679    -5081    -5730 
   -6427    -7304    -8276    -9140    -9904   -10590   -11126   -11468 
  -11526   -11221   -10662    -9981    -9124    -8046    -6988    -6273 
   -5989    -5971    -6124    -6711    -7878    -9185   -10103   -10478 
  -10404   -10129    -9975    -9972    -9859    -9709   -10002   -10681 
  -10963   -10478    -9640    -8830    -8256    -8062    -7944    -7492 
   -6899    -6502    -6091    -5567    -5358    -5551    -5860    -6308 
   -7045    -8073    -9251   -10422   -11673   -13004   -14065   -14854 
  -15657   -16318   -16695   -16949   -16761   -15670   -14087   -12602 
  -11097    -9373    -7670    -6246    -5047    -4025    -3449    -3435 
   -3599    -3551    -3246    -2926    -3090    -4124    -5831    -7651 
   -9076    -9853   -10191   -10417   -10563   -10755   -11286   -12051 
  -12667   -12960   -12879   -12395   -11746   -11221   -10588    -9390 
   -7871    -6713    -6108    -5938    -6200    -6739    -7477    -8680 
  -10179   -11137   -11261   -11288   -11728   -12275   -12692   -12896 
  -12599   -11830   -10943   -10143    -9679    -9688    -9810    -9711 
   -9400    -8781    -7874    -7067    -6573    -6457    -6960    -8033 
   -9216   -10197   -10868   -11122   -10932   -10514   -10251   -10385 
  -10883   -11585   -12285   -12768   -12912   -12571   -11669   -10532 
   -9593    -8872    -8293    -8091    -8408    -8899    -9261    -9572 
   -9806    -9929   -10077   -10006    -9472    -9000    -9024    -9108 
   -8676    -7666    -6392    -5437    -5290    -5807    -6601    -7476 
   -8144    -8330    -8197    -8181    -8459    -8841    -9030    -8869 
   -8550    -8540    -9034    -9688   -10096   -10161   -10006   -10046 
  -10779   -12145   -13636   -14779   -15173   -14572   -13103   -11254 
   -9472    -7817    -6420    -5788    -6062    -6548    -6658    -6670 
   -6906    -7076    -7075    -7497    -8735   -10369   -11826   -12855 
  -13317   -13225   -12838   -12155   -11028    -9953    -9463    -9259 
   -9099    -9331    -9771    -9626    -8837    -7908    -6979    -6181 
   -5783    -5701    -5729    -5962    -6683    -7858    -8962    -9751 
  -10616   -11784   -13050   -14268   -15276   -15662   -15101   -13674 
  -11742    -9641    -7527    -5555    -4180    -3794    -4059    -4311 
   -4494    -4932    -5479    -5698    -5682    -5826    -6162    -6660 
   -7496    -8496    -9193    -9562    -9998   -10768   -11892   -13208 
  -14380   -15133   -15479   -15545   -15437   -15215   -14706   -13555 
  -11754    -9804    -8168    -6968    -6072    -5239    -4502    -4121 
   -4102    -4360    -5044    -6126    -7198    -8075    -8907    -9652 
  -10215   -10814   -11592   -12193   -12291   -12221   -12451   -12820 
  -12910   -12586   -11885   -10890    -9787    -8874    -8371    -8102 
   -7838    -7712    -7809    -8067    -8538    -8928    -8715    -8100 
   -7690    -7510    -7267    -6971    -6775    -6924    -7759    -9202 
  -10566   -11180   -10937   -10276    -9876   -10052   -10450   -10751 
  -11171   -11848   -12453   -12621   -12197   -11242   -10133    -9347 
   -9023    -8881    -8540    -7955    -7299    -6543    -5698    -5120 
   -4993    -5116    -5414    -5929    -6546    -7214    -7950    -8595 
   -9034    -9439   -10083   -10948   -11546   -11400   -10747   -10345 
  -10585   -11192   -11584   -11261   -10314    -9549    -9539    -9961 
  -10296   -10361   -10093    -9509    -8841    -8444    -8406    -8487 
   -8607    -8773    -8789    -8646    -8738    -9223    -9768    -9979 
   -9732    -9337    -9161    -9009    -8617    -8248    -8263    -8770 
   -9580   -10199   -10440   -10640   -10806   -10585   -10044    -9448 
   -8812    -8257    -8116    -8451    -8984    -9535   -10141   -10662 
  -10793   -10555   -10281   -10201   -10449   -11082   -11921   -12675 
  -13219   -13527   -13544   -13250   -12708   -11974   -10999    -9857 
   -8887    -8306    -8081    -8198    -8553    -8766    -8560    -8078 
   -7670    -7548    -7670    -7824    -7903    -8028    -8357    -8986 
   -9941   -10914   -11389   -11294   -10984   -10658   -10390   -10253 
  -10007    -9436    -8766    -8187    -7537    -6948    -6890    -7240 
   -7411    -7361    -7515    -7993    -8446    -8525    -8220    -7728 
   -7091    -6409    -6072    -6242    -6744    -7609    -8931   -10459 
  -11920   -13228   -14142   -14359   -13990   -13382   -12581   -11439 
  -10019    -8633    -7684    -7250    -6979    -6717    -6655    -6770 
   -6886    -7155    -7747    -8337    -8623    -8900    -9402    -9822 
   -9853    -9450    -8696    -7859    -7183    -6804    -6998    -7794 
   -8683    -9166    -9111    -8734    -8587    -9073   -10108   -11603 
  -13427   -15010   -16028   -16733   -17275   -17525   -17081   -15538 
  -13188   -10845    -8870    -7053    -5466    -4522    -4306    -4688 
   -5435    -5944    -5888    -5638    -5617    -6016    -6871    -7765 
   -8124    -7865    -7302    -6859    -6903    -7593    -8822   -10335 
  -11939   -13456   -14449   -14624   -14382   -14127   -13585   -12563 
  -11358   -10018    -8599    -7786    -7978    -8646    -9240    -9786 
  -10453   -11095   -11362   -11122   -10609   -10030    -9464    -9144 
   -9221    -9522    -9946   -10459   -10704   -10334    -9517    -8526 
   -7437    -6561    -6193    -6031    -5788    -5782    -6290    -7140 
   -8131    -9336   -10890   -12749   -14652   -16000   -16140   -15176 
  -13713   -12117   -10750    -9906    -9229    -8203    -6886    -5771 
   -5327    -5598    -6191    -6848    -7527    -8144    -8823    -9737 
  -10825   -12054   -13375   -14501   -15145   -15234   -15007   -14983 
  -15581   -16767   -17957   -18509   -18353   -17659   -16328   -14359 
  -11950    -9128    -6037    -3107     -679     1020     1755     1525 
     645     -637    -2282    -4245    -6327    -8232    -9771   -10990 
  -12079   -13146   -14129   -14952   -15568   -16040   -16591   -17149 
  -17305   -16949   -16320   -15661   -15094   -14504   -13716   -12596 
  -10921    -8775    -6727    -5092    -3825    -3013    -2679    -2593 
   -2681    -3159    -4168    -5694    -7611    -9508   -10976   -12087 
  -13014   -13517   -13487   -13435   -13825   -14520   -15213   -15782 
  -16193   -16410   -16352   -15764   -14327   -12024    -9161    -6008 
   -2798      211     2840     4907     6252     6860     6627     5320 
    2963       65    -2705    -5152    -7410    -9285   -10550   -11484 
  -12525   -13794   -15311   -17193   -19390   -21466   -22839   -23267 
  -22891   -21852   -20240   -17998   -14813   -10767    -6322    -1644 
    2811     6158     8148     8922     8421     6675     3688     -255 
   -3997    -6548    -8105    -9139    -9644    -9590    -9192    -8847 
   -9126   -10430   -12602   -15201   -17890   -20110   -21155   -20902 
  -19795   -18142   -15877   -13008    -9861    -6859    -4258    -1817 
     777     2953     3846     3472     2212       62    -2866    -5904 
   -8421   -10253   -11388   -11954   -12429   -13039   -13464   -13588 
  -13666   -13932   -14517   -15271   -15672   -15167   -13684   -11699 
   -9644    -7685    -5849    -3778     -994     2235     5003     6601 
    6604     4857     1930    -1302    -4359    -6916    -8868   -10514 
  -12043   -13281   -14006   -14197   -14156   -14193   -14224   -14104 
  -14080   -14501   -15296   -15959   -15981   -15292   -14331   -13555 
  -13047   -12637   -12244   -11844   -11242   -10339    -9342    -8313 
   -7055    -5601    -4276    -3345    -3022    -3577    -4904    -6516 
   -8186   -10041   -12309   -15103   -18108   -20821   -23028   -24609 
  -25332   -25165   -24283   -22635   -19893   -16000   -11564    -7366 
   -3761    -1351    -1188    -3244    -6234    -9051   -10860   -10779 
   -9001    -6835    -4945    -3330    -2501    -2744    -3562    -4982 
   -7553   -11044   -14889   -19005   -23197   -26913   -29654   -30913 
  -30318   -28227   -25685   -23539   -21999   -21112   -20479   -19005 
  -16532   -13252    -8560    -3690     -885      -21     -259    -1439 
   -3137    -5097    -7071    -8307    -8479    -7730    -5921    -3180 
    -583      772      926      575      199       78      425     1480 
    3310     5540     7551     8497     7281     3424    -2255    -8712 
  -15583   -22117   -26608   -28328   -28672   -29003   -28906   -27673 
  -25654   -23533   -21346   -18507   -15094   -12087    -9286    -5472 
    -735     4139     8436    10980    11715    12141    13146    14173 
   14331    13493    12091    10164     7272     3106    -2016    -7052 
  -11171   -14843   -19388   -25118   -30897   -36200   -41499   -46269 
  -49068   -49555   -48277   -44717   -37979   -28863   -18932    -9153 
    -714     5188     8156     8301     6393     3774     1509      -82 
   -1588    -3792    -6523    -9092   -11377   -13763   -16325   -18303 
  -18601   -16619   -12150    -5221     3273    11441    17670    21757 
   23980    24223    22831    20418    16840    12028     6947     2658 
    -838    -4472    -8490   -11750   -13722   -15121   -16407   -17879 
  -19514   -20511   -20406   -19626   -18713   -17683   -16633   -16305 
  -16776   -17064   -16349   -14298   -10984    -6621    -1466     3546 
    7515    10790    13964    16286    16405    14143    10511     6646 
    3352      882     -946    -2235    -3232    -4301    -5074    -4816 
   -3423    -1368      629     1672      913    -2052    -7248   -14627 
  -23581   -32424   -38951   -41602   -40328   -36287   -30636   -23882 
  -16246    -8230     -596     5880    10770    14146    16005    16275 
   15163    12316     6959     -263    -7096   -11425   -12625   -11647 
   -9620    -6656    -2929      425     2138     1476    -1644    -6540 
  -11909   -16398   -19418   -21520   -23685   -26256   -28861   -31282 
  -33546   -35199   -35564   -34474   -31911   -27650   -22084   -16318 
  -11368    -8056    -6577    -6412    -7163    -8257    -8866    -8487 
   -6970    -4702    -2331     -194     1144      838    -1154    -3986 
   -6990   -10058   -12773   -14361   -14914   -15097   -15318   -16077 
  -17325   -18249   -18900   -19831   -20368   -19475   -17169   -13855 
   -9655    -4935     -122     4800     9567    13559    16629    18786 
   20012    20592    20756    20317    18310    13494     5773    -4000 
  -15014   -26156   -35792   -42525   -45879   -46967   -47888   -49337 
  -50591   -51952   -54114   -56290   -57145   -55750   -51182   -43051 
  -32047   -19672    -7813     2267    10471    16889    21145    23080 
   23264    22468    21539    21166    20514    17945    13242     6355 
   -3499   -15087   -25659   -33963   -39627   -42138   -41559   -38264 
  -32636   -25519   -18445   -12962    -8907    -4922    -1042     1722 
    3168     3310     1158    -3955   -10492   -16515   -21259   -23788 
  -23731   -22208   -19727   -16015   -11473    -6617    -2335      314 
    1876     3199     3956     4252     4881     6119     7831     9795 
   11488    12226    11499     9344     6844     5228     4564     4625 
    5339     6186     6872     7410     7318     6110     3596     -128 
   -4093    -7203    -9655   -12306   -15292   -18038   -20029   -21508 
  -23257   -25481   -27808   -30006   -31580   -31567   -29393   -25185 
  -19488   -13423    -8248    -4303    -1121     1514     3280     3690 
    2826     1452      342      117      903     1775     1849     1586 
    1863     2779     4036     5267     5518     3550    -1015    -7318 
  -13976   -19893   -24651   -28355   -31018   -32643   -33345   -32617 
  -29781   -25056   -19084   -12563    -6600    -2079     1144     3469 
    4808     5062     4230     2191    -1089    -5304    -9817   -13729 
  -16060   -16733   -16840   -16899   -16260   -14692   -12779   -11163 
  -10220   -10081   -10971   -13143   -16355   -19809   -22234   -22396 
  -20020   -15751   -10659    -5919    -2227      379     2139     3447 
    4448     4533     3136      643    -2351    -6110   -10860   -15630 
  -19656   -23542   -27619   -31095   -33143   -33091   -30430   -25728 
  -20372   -15157   -10096    -5235     -923     2396     4469     5081 
    4028     2123      823      351     -263    -1574    -3310    -4753 
   -4591    -1815     2388     5364     5447     2577    -2471    -8520 
  -14038   -17855   -20158   -21775   -22821   -23170   -23446   -24159 
  -24718   -24297   -22738   -20416   -18027   -15943   -13787   -11350 
   -8918    -6451    -3984    -2466    -2825    -5047    -8860   -13898 
  -19082   -23020   -24931   -25095   -24420   -23533   -22653   -21940 
  -21447   -20644   -18840   -16563   -14701   -12931   -10554    -7195 
   -2744     2205     6574     9613    11344    12367    13186    13938 
   14544    14871    14685    13466    10714     6538     1632    -3169 
   -7294   -10535   -13065   -15587   -19099   -23801   -28729   -32744 
  -35201   -36166   -36278   -35932   -34982   -33119   -30095   -25747 
  -20241   -14636   -10351    -7713    -5757    -3269      289     4540 
    8769    12492    15522    17940    19615    19967    18832    16814 
   14345    11237     7337     2862    -2076    -7244   -11718   -14763 
  -16926   -19468   -23090   -27434   -31272   -33345   -33338   -31526 
  -27838   -22181   -15180    -8109    -2214     2000     4708     6192 
    6936     7361     7103     5827     4220     3028     2056      664 
   -1522    -4518    -8097   -11607   -14272   -16066   -17523   -19061 
  -20931   -23141   -25338   -26686   -26204   -23680   -19846   -15982 
  -13225   -11703   -11087   -11534   -12550   -12819   -12376   -12536 
  -14058   -16598   -18890   -20113   -20825   -21401   -21544   -21662 
  -22308   -22870   -22438   -20969   -19052   -17305   -15992   -14987 
  -14110   -13413   -13304   -13981   -14790   -14939   -14357   -13389 
  -12195   -10912    -9787    -8464    -6010    -2357     1462     4467 
    6089     6156     5085     3566     2066      741     -238     -816 
   -1390    -2139    -2704    -2768    -2114     -880       -4     -529 
   -2605    -5468    -8058    -9458    -9352    -8441    -7632    -7084 
   -6681    -6289    -5509    -4194    -2594     -749     1235     2593 
    2725     2123     1582     1329     1293     1097       17    -2278 
   -5317    -8206   -10208   -10882   -10011    -7832    -4999    -2207 
    -120      950     1316     1282      758     -346    -2001    -3971 
   -5860    -7276    -7738    -7030    -5463    -3462    -1609     -614 
    -889    -2490    -5085    -7784    -9736   -11232   -13328   -16371 
  -19862   -23058   -25219   -26150   -26361   -26347   -25883   -24409 
  -21983   -19036   -15903   -13131   -11186   -10025    -9528    -9742 
  -10620   -12073   -14234   -17035   -19735   -21668   -22858   -23299 
  -22650   -21151   -19616   -18246   -16681   -15087   -14003   -13524 
  -13463   -14038   -15546   -17491   -19047   -19926   -19996   -19136 
  -17675   -16024   -14397   -13055   -12249   -12309   -13578   -15647 
  -17509   -18854   -19911   -20629   -21014   -20976   -20166   -18650 
  -16791   -14885   -13115   -11446    -9741    -7681    -5147    -2778 
   -1279     -780    -1379    -3254    -6002    -8954   -11785   -14250 
  -16114   -17462   -18450   -19043   -19422   -20045   -20872   -21371 
  -21359   -20957   -20108   -18817   -17238   -15388   -13246   -10758 
   -7778    -4186     -199     3314     5572     6675     6787     5679 
    3341       64    -3712    -7433   -10580   -12680   -13659   -14130 
  -14690   -15396   -16071   -16530   -16572   -15985   -14544   -12380 
  -10085    -7963    -5769    -3399    -1107      743     1764     1605 
     274    -1764    -4106    -6678    -9229   -11381   -13154   -14855 
  -16752   -18966   -21297   -23178   -24112   -23971   -22736   -20633 
  -18316   -16223   -14338   -12580   -10876    -9194    -7593    -6157 
   -5131    -4896    -5622    -6947    -8259    -9215    -9567    -9062 
   -7951    -6858    -6150    -5861    -5838    -5703    -5123    -4240 
   -3530    -3369    -3889    -4876    -5919    -6782    -7551    -8179 
   -8166    -7430    -6791    -6883    -7487    -8135    -8583    -8872 
   -9459   -10864   -12869   -14723   -16031   -16649   -16374   -15487 
  -14725   -14318   -13969   -13517   -12811   -11592    -9882    -7936 
