Origin Time       2016/04/16 01:25:00
Lat.              32.753
Long.             130.762
Depth. (km)       12
Mag.              7.3
Station Code      KOC005
Station Lat.      33.5934
Station Long.     133.6921
Station Height(m) 26
Record Time       2016/04/16 01:26:00
Sampling Freq(Hz) 100Hz
Duration Time(s)  113
Dir.              E-W
Scale Factor      7845(gal)/8223790
Max. Acc. (gal)   3.941
Last Correction   2016/04/16 01:26:01
Memo.             
[...]
     295       99      -91     -265     -406     -525     -625     -699 
    -745     -745     -692     -596     -459     -297     -135       31 
     210      409      631      873     1117     1348     1551     1709 
    1810     1852     1857     1854     1857     1858     1848     1817 
    1753     1641     1487     1317     1147     1011      931      909 
     929      963      986      989      974      954      940      939 
     963     1030     1133     1259     1382     1474     1524     1534 
    1521     1503     1493     1495     1509     1522     1528     1517 
    1476     1410     1339     1271     1209     1144     1063      953 
     805      627      432      225       27     -155     -315     -449 
    -564     -660     -741     -810     -846     -838     -788     -702 
    -602     -506     -441     -405     -375     -344     -321     -311 
    -326     -383     -492     -642     -815     -990    -1159    -1313 
   -1448    -1578    -1717    -1864    -2016    -2162    -2282    -2361 
   -2396    -2377    -2305    -2192    -2037    -1854    -1671    -1505 
   -1364    -1247    -1138    -1019     -873     -708     -546     -407 
    -328     -328     -410     -576     -808    -1077    -1368    -1657 
   -1919    -2144    -2334    -2498    -2636    -2758    -2876    -2999 
   -3121    -3226    -3284    -3284    -3234    -3161    -3111    -3114 
   -3171    -3269    -3373    -3440    -3438    -3352    -3184    -2975 
   -2759    -2570    -2434    -2351    -2307    -2281    -2253    -2226 
   -2199    -2160    -2104    -2022    -1907    -1765    -1598    -1401 
   -1185     -962     -741     -532     -351     -207      -98      -25 
      11       35       59       89      124      168      233      325 
     450      615      818     1046     1282     1516     1725     1892 
    2025     2128     2214     2299     2390     2484     2550     2565 
    2539     2478     2404     2351     2338     2370     2432     2506 
    2586     2667     2740     2799     2836     2848     2829     2771 
    2677     2558     2421     2288     2170     2053     1927     1791 
    1636     1455     1264     1074      892      728      577      436 
     284      114      -70     -259     -430     -553     -631     -661 
    -668     -700     -787     -935    -1128    -1339    -1541    -1709 
   -1826    -1904    -1949    -1980    -2012    -2056    -2104    -2133 
   -2126    -2083    -2001    -1892    -1772    -1663    -1572    -1512 
   -1487    -1497    -1528    -1564    -1582    -1579    -1575    -1582 
   -1595    -1594    -1560    -1501    -1420    -1321    -1217    -1102 
    -965     -784     -545     -243      102      464      807     1100 
    1329     1503     1640     1759     1872     1973     2052     2085 
    2061     1980     1850     1690     1520     1377     1286     1259 
    1293     1362     1431     1474     1478     1460     1437     1443 
    1505     1603     1702     1763     1745     1634     1436     1175 
     895      635      422      261      143       41      -64     -194 
    -342     -491     -627     -739     -832     -918     -996    -1058 
   -1100    -1116    -1100    -1057    -1000     -961     -950     -961 
    -980     -972     -907     -784     -622     -454     -325     -253 
    -249     -306     -386     -449     -473     -453     -403     -338 
    -272     -220     -167      -99      -21       78      193      295 
     370      405      388      338      265      193      149      143 
     157      176      172      143      102       59       31       35 
      71      133      211      299      394      495      602      727 
     868     1004     1112     1159     1128     1030      873      697 
     538      398      279      170       41     -118     -313     -526 
    -733     -915    -1062    -1161    -1227    -1262    -1267    -1260 
   -1235    -1185    -1120    -1026     -912     -783     -638     -481 
    -317     -143       25      174      278      307      257      143 
      -5     -167     -311     -409     -450     -453     -433     -405 
    -399     -438     -500     -571     -641     -692     -715     -726 
    -738     -774     -838     -928    -1039    -1162    -1269    -1350 
   -1399    -1416    -1408    -1387    -1372    -1375    -1387    -1409 
   -1435    -1440    -1420    -1379    -1317    -1242    -1146    -1024 
    -884     -735     -589     -451     -325     -209     -106      -31 
      -5      -47     -160     -336     -549     -769     -967    -1123 
   -1209    -1227    -1204    -1148    -1063     -961     -838     -696 
    -533     -349     -152       29      183      299      373      396 
     368      301      193       32     -178     -442     -746    -1073 
   -1399    -1692    -1937    -2134    -2286    -2407    -2512    -2597 
   -2651    -2660    -2604    -2485    -2312    -2097    -1868    -1649 
   -1456    -1287    -1135    -1000     -896     -835     -823     -859 
    -934    -1032    -1129    -1188    -1197    -1171    -1133    -1105 
   -1092    -1090    -1094    -1093    -1075    -1035     -963     -873 
    -765     -646     -521     -379     -221      -49      147      355 
     565      781      989     1156     1262     1293     1256     1175 
    1073      976      908      868      847      849      862      864 
     862      864      877      916      966     1003     1024     1028 
    1023     1023     1044     1088     1150     1217     1281     1321 
    1339     1351     1378     1428     1506     1599     1669     1692 
    1658     1584     1493     1417     1387     1405     1459     1541 
    1637     1734     1814     1857     1861     1829     1767     1683 
    1595     1530     1501     1509     1559     1634     1711     1779 
    1830     1864     1890     1923     1969     2033     2106     2172 
    2222     2238     2203     2120     2015     1907     1822     1783 
    1794     1845     1912     1965     1980     1954     1891     1809 
    1729     1668     1621     1579     1534     1483     1422     1351 
    1277     1200     1129     1084     1063     1065     1090     1127 
    1161     1173     1150     1089      987      858      720      587 
     471      386      336      319      328      333      301      228 
     114      -51     -257     -479     -702     -912    -1109    -1291 
   -1462    -1614    -1740    -1833    -1888    -1896    -1865    -1796 
   -1696    -1583    -1456    -1328    -1223    -1144    -1093    -1081 
   -1101    -1142    -1188    -1224    -1243    -1246    -1242    -1235 
   -1228    -1223    -1225    -1239    -1264    -1306    -1363    -1424 
   -1494    -1578    -1691    -1842    -2025    -2230    -2450    -2655 
   -2829    -2960    -3028    -3038    -2995    -2911    -2824    -2744 
   -2678    -2633    -2610    -2593    -2567    -2519    -2448    -2358 
   -2253    -2139    -2031    -1939    -1849    -1741    -1606    -1449 
   -1266    -1065     -874     -712     -585     -490     -407     -344 
    -301     -274     -263     -259     -249     -238     -212     -163 
     -94       -9       82      168      241      292      324      334 
     332      333      337      330      310      275      224      172 
     139      137      191      309      479      695      924     1139 
    1318     1452     1543     1593     1599     1574     1528     1468 
    1402     1348     1327     1348     1405     1475     1535     1579 
    1609     1622     1599     1540     1459     1371     1287     1230 
    1213     1235     1289     1363     1441     1502     1522     1497 
    1429     1332     1232     1133     1031      916      767      573 
     344       97     -148     -369     -553     -675     -727     -737 
    -719     -708     -731     -783     -853     -945    -1036    -1104 
   -1142    -1155    -1146    -1113    -1057     -976     -870     -745 
    -607     -480     -380     -315     -280     -271     -280     -306 
    -342     -380     -421     -473     -532     -588     -627     -631 
    -572     -432     -212       58      342      608      814      932 
     965      923      850      792      761      757      760      739 
     688      607      513      433      386      387      450      560 
     684      800      882      918      912      882      857      858 
     890      939      984      997      962      870      731      571 
     415      286      199      143       99       63       25        0 
      -4       16       64      121      174      233      295      361 
     442      518      579      622      639      635      625      612 
     595      576      553      540      523      496      454      391 
     317      252      205      194      240      340      490      681 
     895     1111     1310     1468     1574     1625     1618     1564 
    1470     1358     1260     1192     1155     1158     1178     1189 
    1185     1163     1127     1097     1081     1080     1092     1097 
    1073     1009      903      769      607      433      283      180 
     137      163      248      378      521      643      723      743 
     704      619      499      353      193       32     -122     -261 
    -365     -419     -421     -367     -272     -147        4      163 
     318      456      573      661      715      749      770      800 
     851      922     1007     1094     1167     1223     1263     1291 
    1308     1305     1287     1251     1185     1081      938      772 
     604      456      344      268      225      198      164      110 
      29      -82     -212     -352     -495     -627     -741     -847 
    -957    -1073    -1192    -1290    -1358    -1382    -1348    -1260 
   -1128     -957     -761     -552     -336     -114      114      348 
     579      804     1011     1181     1314     1410     1474     1525 
    1551     1544     1518     1475     1405     1306     1182     1047 
     913      787      679      595      523      448      356      251 
     141       31      -68     -136     -172     -180     -166     -152 
    -149     -163     -199     -245     -307     -387     -468     -553 
    -642     -723     -814     -929    -1078    -1259    -1451    -1634 
   -1802    -1927    -1998    -2023    -2022    -2025    -2053    -2120 
   -2222    -2330    -2411    -2442    -2415    -2324    -2185    -2015 
   -1833    -1649    -1475    -1314    -1162    -1015     -868     -722 
    -560     -383     -202      -22      144      282      395      480 
     546      610      673      756      858      955     1051     1128 
    1163     1163     1132     1071     1009      961      947      978 
    1042     1129     1233     1318     1364     1371     1339     1287 
    1246     1223     1223     1233     1240     1242     1230     1202 
    1166     1131     1112     1120     1150     1201     1277     1360 
    1447     1537     1620     1687     1733     1753     1755     1738 
    1703     1667     1625     1572     1521     1470     1422     1395 
    1386     1409     1464     1537     1637     1760     1885     2008 
    2126     2232     2308     2346     2355     2336     2303     2270 
    2253     2251     2270     2305     2353     2409     2470     2540 
    2625     2709     2776     2817     2811     2754     2656     2539 
    2423     2335     2281     2250     2231     2208     2173     2121 
    2045     1946     1822     1667     1489     1293     1073      838 
     614      410      237      106       21      -28      -51      -62 
     -71      -89     -128     -178     -238     -303     -355     -395 
    -438     -490     -553     -631     -711     -773     -797     -778 
    -715     -622     -522     -432     -365     -340     -352     -386 
    -434     -488     -529     -565     -607     -662     -741     -838 
    -939    -1030    -1092    -1111    -1094    -1053     -999     -949 
    -920     -918     -928     -943     -954     -954     -940     -919 
    -893     -862     -824     -772     -699     -611     -518     -418 
    -322     -237     -167     -112      -71      -51      -47      -58 
     -85     -114     -133     -131      -99      -37       43      140 
     234      311      367      395      405      407      409      425 
     459      499      550      623      719      826      938     1053 
    1171     1290     1401     1498     1579     1628     1648     1649 
    1632     1610     1590     1557     1517     1464     1391     1302 
    1193     1073      957      851      754      664      571      477 
     390      322      289      283      294      319      353      387 
     407      413      409      392      378      376      391      421 
     449      457      429      361      268      163       59      -23 
     -87     -131     -170     -217     -292     -396     -525     -669 
    -811     -934    -1038    -1121    -1196    -1264    -1325    -1378 
   -1420    -1436    -1425    -1391    -1337    -1277    -1225    -1182 
   -1148    -1135    -1139    -1146    -1155    -1165    -1171    -1179 
   -1194    -1220    -1251    -1282    -1306    -1325    -1347    -1385 
   -1444    -1526    -1618    -1710    -1787    -1837    -1861    -1861 
   -1840    -1809    -1772    -1726    -1676    -1634    -1611    -1611 
   -1634    -1683    -1744    -1811    -1881    -1939    -1991    -2042 
   -2106    -2193    -2308    -2448    -2601    -2739    -2860    -2964 
   -3044    -3109    -3184    -3277    -3395    -3527    -3650    -3751 
   -3827    -3871    -3898    -3928    -3970    -4028    -4086    -4126 
   -4136    -4110    -4050    -3971    -3886    -3798    -3708    -3612 
   -3504    -3381    -3253    -3133    -3033    -2953    -2894    -2847 
   -2802    -2759    -2720    -2697    -2697    -2713    -2748    -2806 
   -2872    -2945    -3018    -3075    -3103    -3094    -3053    -2992 
   -2918    -2844    -2774    -2695    -2616    -2532    -2438    -2334 
   -2231    -2142    -2076    -2042    -2050    -2096    -2163    -2250 
   -2344    -2430    -2505    -2563    -2605    -2639    -2668    -2702 
   -2743    -2779    -2810    -2829    -2836    -2840    -2837    -2833 
   -2822    -2805    -2779    -2739    -2688    -2633    -2567    -2494 
   -2419    -2351    -2305    -2288    -2297    -2326    -2363    -2405 
   -2431    -2442    -2438    -2415    -2381    -2347    -2309    -2270 
   -2241    -2222    -2214    -2211    -2214    -2223    -2232    -2245 
   -2263    -2290    -2326    -2367    -2409    -2440    -2461    -2467 
   -2450    -2421    -2389    -2349    -2311    -2270    -2230    -2196 
   -2165    -2130    -2096    -2068    -2045    -2020    -1996    -1973 
   -1942    -1899    -1852    -1794    -1719    -1637    -1554    -1483 
   -1425    -1378    -1348    -1329    -1308    -1289    -1262    -1229 
   -1204    -1177    -1143    -1107    -1065    -1009     -942     -869 
    -788     -707     -629     -549     -477     -421     -373     -326 
    -283     -241     -205     -176     -160     -152     -153     -164 
    -168     -167     -168     -153     -122      -85      -32       28 
      98      180      268      355      433      503      565      615 
     653      689      723      756      780      793      810      838 
     882      949     1036     1138     1239     1333     1420     1498 
    1571     1645     1726     1810     1884     1935     1954     1938 
    1903     1854     1809     1776     1759     1760     1772     1783 
    1791     1788     1773     1753     1736     1713     1695     1690 
    1688     1688     1686     1674     1644     1597     1539     1467 
    1393     1328     1271     1224     1188     1150     1116     1090 
    1065     1042     1031     1030     1038     1057     1086     1120 
    1159     1200     1237     1273     1305     1328     1345     1356 
    1347     1316     1264     1197     1124     1059     1016      997 
     996     1000      999      992      982      980      990     1026 
    1100     1206     1340     1482     1615     1734     1838     1923 
    2001     2087     2188     2307     2440     2578     2712     2822 
    2898     2947     2970     2984     2999     3017     3044     3075 
    3100     3117     3122     3122     3121     3114     3106     3102 
    3099     3092     3083     3071     3064     3057     3048     3038 
    3025     3005     2984     2970     2963     2974     2998     3029 
    3064     3096     3119     3130     3127     3117     3099     3071 
    3037     2992     2933     2853     2754     2636     2504     2355 
    2205     2062     1941     1857     1807     1786     1788     1796 
    1795     1790     1779     1761     1755     1767     1792     1833 
    1878     1927     1972     2010     2046     2081     2111     2144 
    2176     2203     2230     2251     2270     2290     2307     2315 
    2312     2296     2273     2249     2228     2223     2231     2250 
    2276     2295     2297     2278     2243     2200     2158     2126 
    2115     2133     2173     2230     2292     2346     2380     2397 
    2389     2367     2349     2330     2313     2304     2289     2263 
    2218     2151     2076     1998     1925     1868     1833     1817 
    1826     1856     1891     1921     1945     1961     1973     1987 
    2015     2060     2115     2178     2245     2305     2351     2377 
    2389     2389     2378     2363     2349     2336     2331     2319 
    2299     2265     2215     2147     2068     1977     1881     1791 
    1699     1603     1507     1399     1278     1156     1036      916 
     796      676      560      449      344      249      176      125 
      89       56       22      -18      -68     -125     -189     -252 
    -313     -375     -434     -496     -560     -618     -669     -706 
    -728     -746     -756     -760     -773     -801     -846     -908 
    -987    -1073    -1156    -1235    -1310    -1382    -1445    -1503 
   -1564    -1622    -1669    -1711    -1753    -1799    -1848    -1888 
   -1918    -1930    -1908    -1861    -1800    -1736    -1677    -1629 
   -1595    -1571    -1539    -1497    -1445    -1386    -1327    -1279 
   -1246    -1227    -1224    -1228    -1230    -1237    -1242    -1243 
   -1248    -1254    -1259    -1267    -1275    -1293    -1323    -1359 
   -1401    -1453    -1513    -1576    -1640    -1701    -1755    -1792 
   -1817    -1833    -1838    -1829    -1811    -1783    -1742    -1698 
   -1655    -1628    -1609    -1595    -1587    -1574    -1553    -1533 
   -1507    -1482    -1463    -1457    -1467    -1486    -1499    -1506 
   -1503    -1494    -1476    -1468    -1482    -1517    -1567    -1630 
   -1699    -1769    -1833    -1887    -1930    -1969    -2010    -2049 
   -2079    -2104    -2114    -2111    -2107    -2097    -2091    -2096 
   -2110    -2134    -2162    -2191    -2219    -2239    -2253    -2272 
   -2293    -2311    -2324    -2331    -2328    -2312    -2286    -2257 
   -2231    -2215    -2207    -2214    -2228    -2239    -2238    -2218 
   -2184    -2146    -2097    -2039    -1982    -1921    -1854    -1791 
   -1725    -1656    -1586    -1518    -1460    -1412    -1377    -1359 
   -1348    -1332    -1308    -1274    -1220    -1155    -1086    -1021 
    -973     -938     -909     -886     -866     -838     -807     -769 
    -724     -677     -635     -594     -552     -513     -481     -461 
    -449     -442     -440     -433     -418     -398     -373     -346 
