Origin Time       2016/04/16 01:25:00
Lat.              32.753
Long.             130.762
Depth. (km)       12
Mag.              7.3
Station Code      KOC004
Station Lat.      33.6975
Station Long.     133.8771
Station Height(m) 237
Record Time       2016/04/16 01:26:03
Sampling Freq(Hz) 100Hz
Duration Time(s)  118
Dir.              E-W
Scale Factor      7845(gal)/8223790
Max. Acc. (gal)   4.528
Last Correction   2016/04/16 01:26:03
Memo.             
[...]
   18096    17945    17817    17733    17698    17687    17684    17690 
   17698    17697    17694    17703    17716    17741    17778    17798 
   17824    17876    17938    18022    18131    18212    18239    18237 
   18218    18180    18115    18034    17950    17852    17725    17579 
   17446    17359    17317    17311    17373    17531    17760    18014 
   18272    18503    18654    18728    18746    18706    18627    18547 
   18490    18445    18395    18350    18306    18231    18099    17906 
   17664    17421    17236    17130    17100    17174    17352    17579 
   17795    17941    17984    17945    17867    17782    17713    17697 
   17753    17857    17977    18076    18102    18053    17953    17814 
   17676    17574    17520    17536    17626    17775    17936    18076 
   18185    18249    18247    18199    18131    18052    17956    17872 
   17842    17844    17836    17836    17878    17961    18061    18161 
   18273    18395    18497    18566    18609    18615    18550    18426 
   18264    18058    17840    17653    17520    17483    17527    17564 
   17598    17652    17679    17664    17668    17725    17811    17902 
   17988    18038    18015    17918    17780    17624    17489    17396 
   17327    17288    17293    17325    17338    17297    17235    17159 
   17061    16969    16908    16880    16899    16969    17081    17220 
   17370    17490    17559    17581    17559    17490    17385    17308 
   17320    17385    17478    17601    17709    17771    17761    17698 
   17628    17572    17539    17532    17535    17550    17568    17566 
   17575    17633    17702    17739    17766    17793    17793    17768 
   17763    17780    17809    17859    17921    17963    17990    18026 
   18073    18145    18235    18301    18346    18401    18473    18567 
   18693    18812    18895    18955    18974    18944    18897    18851 
   18817    18816    18825    18819    18790    18739    18663    18571 
   18485    18412    18366    18380    18430    18470    18507    18561 
   18598    18607    18590    18532    18441    18334    18204    18065 
   17942    17836    17759    17732    17760    17840    17942    18034 
   18104    18130    18096    18031    17964    17910    17892    17906 
   17921    17932    17945    17941    17928    17919    17905    17890 
   17887    17913    17976    18075    18193    18315    18416    18485 
   18519    18507    18445    18353    18239    18092    17925    17782 
   17691    17656    17682    17788    17945    18130    18360    18607 
   18814    18954    19016    18975    18827    18630    18441    18266 
   18131    18045    17986    17953    17952    17971    18000    18037 
   18065    18069    18060    18069    18079    18063    18053    18052 
   18037    18009    17975    17957    17948    17929    17887    17817 
   17745    17691    17661    17663    17697    17759    17849    17950 
   18046    18133    18207    18283    18350    18372    18365    18343 
   18295    18241    18215    18202    18166    18117    18076    18027 
   17938    17852    17809    17757    17706    17716    17760    17783 
   17799    17813    17782    17714    17651    17589    17536    17516 
   17509    17504    17508    17528    17563    17605    17649    17707 
   17757    17776    17779    17764    17718    17676    17644    17583 
   17520    17498    17514    17547    17589    17639    17680    17702 
   17713    17718    17752    17838    17959    18107    18257    18373 
   18443    18466    18462    18454    18445    18443    18441    18403 
   18358    18326    18275    18233    18231    18254    18287    18327 
   18360    18393    18431    18465    18496    18492    18411    18274 
   18108    17914    17750    17663    17631    17664    17788    17977 
   18186    18400    18600    18781    18933    19036    19084    19101 
   19084    19016    18909    18797    18693    18600    18512    18435 
   18384    18346    18311    18269    18204    18104    17986    17864 
   17730    17598    17520    17516    17568    17674    17836    18015 
   18153    18235    18239    18130    17925    17697    17496    17347 
   17257    17224    17254    17355    17493    17605    17683    17760 
   17828    17859    17869    17887    17918    17953    18013    18090 
   18134    18154    18169    18141    18050    17929    17784    17620 
   17475    17398    17374    17396    17474    17602    17764    17925 
   18063    18158    18200    18185    18126    18048    17968    17902 
   17868    17859    17879    17933    18011    18096    18161    18202 
   18227    18238    18266    18312    18343    18368    18397    18415 
   18395    18318    18196    18079    18004    17964    17945    17988 
   18081    18181    18285    18374    18389    18338    18247    18129 
   18007    17905    17847    17842    17868    17911    17945    17936 
   17899    17856    17802    17757    17720    17699    17695    17687 
   17714    17776    17825    17864    17880    17868    17859    17884 
   17937    17999    18064    18119    18137    18126    18114    18102 
   18094    18115    18171    18241    18310    18372    18403    18409 
   18423    18453    18495    18551    18625    18711    18797    18882 
   18952    18979    18936    18833    18674    18466    18265    18120 
   18045    18052    18129    18256    18395    18507    18573    18604 
   18624    18657    18694    18736    18805    18901    18987    19059 
   19136    19209    19264    19307    19322    19307    19291    19283 
   19282    19286    19273    19226    19122    18941    18702    18442 
   18192    17968    17772    17609    17509    17479    17491    17537 
   17618    17687    17702    17664    17590    17486    17351    17216 
   17126    17077    17077    17128    17211    17307    17402    17474 
   17501    17491    17456    17389    17308    17254    17213    17158 
   17112    17081    17047    17003    16949    16872    16748    16580 
   16374    16121    15835    15539    15282    15110    15016    14971 
   14971    15020    15114    15226    15345    15480    15608    15700 
   15747    15742    15672    15554    15430    15344    15305    15330 
   15430    15585    15768    15985    16246    16525    16794    17050 
   17281    17467    17605    17691    17729    17729    17703    17649 
   17582    17532    17532    17593    17698    17840    18021    18235 
   18470    18704    18901    19044    19117    19099    19008    18886 
   18759    18624    18492    18377    18262    18114    17955    17824 
   17718    17635    17597    17614    17672    17771    17895    18029 
   18152    18231    18272    18288    18293    18287    18252    18208 
   18172    18108    17995    17861    17744    17668    17659    17716 
   17834    18003    18199    18395    18557    18661    18713    18715 
   18682    18648    18604    18520    18418    18343    18318    18346 
   18436    18569    18728    18918    19111    19269    19395    19481 
   19519    19519    19480    19408    19340    19292    19280    19307 
   19342    19359    19363    19345    19294    19232    19149    19044 
   18947    18882    18867    18909    19005    19147    19329    19542 
   19764    19973    20160    20308    20390    20397    20328    20173 
   19939    19657    19354    19049    18771    18527    18303    18092 
   17895    17707    17545    17416    17311    17225    17159    17128 
   17158    17223    17298    17392    17485    17556    17606    17645 
   17695    17764    17871    18027    18207    18381    18536    18631 
   18640    18577    18453    18314    18239    18216    18203    18227 
   18287    18330    18346    18360    18376    18397    18422    18473 
   18561    18634    18673    18696    18698    18681    18659    18623 
   18582    18546    18511    18474    18427    18361    18269    18133 
   17968    17766    17516    17240    16952    16654    16374    16136 
   15954    15835    15793    15830    15913    16021    16133    16243 
   16343    16421    16478    16507    16511    16515    16552    16639 
   16780    16989    17293    17658    18036    18415    18755    19010 
   19191    19318    19392    19421    19431    19448    19452    19425 
   19377    19269    19066    18789    18449    18054    17655    17302 
   17012    16794    16641    16537    16472    16456    16474    16495 
   16509    16529    16552    16568    16595    16645    16702    16765 
   16848    16943    17038    17120    17169    17172    17126    17070 
   17037    17027    17069    17145    17204    17234    17224    17154 
   17043    16938    16869    16833    16835    16906    17014    17136 
   17270    17374    17425    17431    17389    17324    17296    17350 
   17493    17714    17994    18299    18570    18781    18964    19133 
   19273    19417    19586    19764    19946    20132    20289    20383 
   20426    20426    20359    20216    20029    19796    19535    19296 
   19075    18868    18693    18535    18368    18179    17975    17771 
   17528    17234    16926    16609    16275    15963    15688    15475 
   15363    15364    15464    15665    15952    16259    16532    16748 
   16892    16968    16983    16998    17070    17166    17281    17448 
   17626    17779    17957    18171    18399    18668    19003    19380 
   19738    20042    20306    20494    20560    20544    20482    20378 
   20268    20194    20160    20147    20150    20156    20133    20070 
   19996    19932    19893    19893    19940    20021    20124    20240 
   20337    20364    20305    20173    19973    19751    19577    19449 
   19364    19372    19469    19606    19784    20008    20256    20507 
   20773    21047    21288    21475    21600    21658    21662    21620 
   21525    21384    21217    21039    20862    20682    20486    20279 
   20079    19897    19730    19566    19398    19213    19009    18773 
   18481    18139    17775    17424    17107    16816    16579    16440 
   16384    16387    16451    16544    16623    16684    16715    16695 
   16637    16559    16452    16335    16213    16073    15927    15781 
   15607    15424    15265    15134    15031    14979    14968    14979 
   15020    15107    15229    15363    15499    15637    15749    15834 
   15888    15870    15793    15665    15447    15175    14902    14629 
   14382    14195    14045    13922    13821    13737    13695    13716 
   13819    14038    14391    14875    15462    16097    16725    17284 
   17730    18068    18316    18504    18670    18828    18966    19086 
   19199    19299    19394    19481    19537    19568    19588    19589 
   19585    19609    19673    19777    19915    20058    20152    20143 
   20024    19812    19514    19188    18898    18667    18547    18536 
   18563    18588    18604    18573    18450    18260    18052    17844 
   17667    17554    17520    17574    17701    17869    18052    18203 
   18281    18291    18252    18181    18088    18004    17945    17918 
   17933    17977    18026    18079    18133    18160    18165    18146 
   18071    17932    17740    17502    17243    17015    16865    16791 
   16789    16856    16949    17027    17066    17073    17067    17046 
   17037    17076    17143    17228    17347    17483    17612    17716 
   17778    17798    17797    17778    17750    17725    17698    17658 
   17602    17536    17464    17400    17374    17431    17566    17775 
   18057    18353    18609    18814    18964    19063    19124    19163 
   19192    19207    19206    19202    19180    19118    19018    18870 
   18654    18391    18100    17784    17486    17273    17131    17027 
   16951    16915    16902    16880    16862    16869    16869    16842 
   16788    16681    16540    16411    16325    16298    16310    16336 
   16374    16410    16436    16452    16459    16480    16538    16610 
   16699    16825    16957    17073    17193    17321    17429    17514 
   17624    17780    17968    18195    18465    18727    18941    19118 
   19251    19310    19310    19296    19298    19327    19388    19479 
   19572    19622    19618    19565    19440    19256    19040    18786 
   18507    18238    17979    17721    17467    17215    16938    16627 
   16287    15896    15473    15103    14823    14628    14555    14624 
   14782    15009    15315    15665    16013    16344    16660    16942 
   17178    17355    17451    17470    17474    17514    17593    17726 
   17930    18176    18450    18731    18983    19203    19395    19549 
   19665    19731    19768    19774    19723    19649    19603    19583 
   19607    19674    19769    19890    19993    20035    20015    19928 
   19770    19591    19440    19348    19332    19396    19531    19707 
   19905    20133    20387    20669    20984    21311    21640    21950 
   22181    22275    22225    22059    21787    21435    21054    20679 
   20335    20047    19804    19584    19414    19291    19186    19113 
   19078    19044    18972    18860    18728    18577    18388    18168 
   17930    17686    17450    17219    16995    16788    16600    16431 
   16268    16141    16085    16074    16104    16193    16289    16357 
   16411    16448    16448    16416    16380    16352    16329    16345 
   16414    16514    16633    16767    16902    17024    17136    17257 
   17390    17528    17652    17747    17779    17695    17486    17176 
   16791    16363    15900    15414    14965    14570    14206    13888 
   13647    13486    13397    13387    13439    13487    13508    13498 
   13437    13350    13275    13230    13220    13261    13346    13436 
   13513    13601    13690    13757    13846    13968    14079    14184 
   14305    14420    14521    14623    14744    14908    15113    15365 
   15658    15938    16186    16413    16598    16740    16865    16998 
   17173    17408    17706    18054    18414    18754    19072    19345 
   19557    19737    19884    19997    20098    20205    20331    20486 
   20663    20860    21060    21227    21369    21468    21514    21560 
   21613    21658    21762    21933    22081    22208    22363    22503 
   22589    22658    22693    22639    22522    22403    22266    22125 
   22038    22002    21988    21983    21944    21859    21737    21570 
   21367    21158    20961    20795    20671    20580    20536    20550 
   20584    20617    20645    20606    20471    20275    20021    19700 
   19345    18991    18640    18295    17986    17727    17497    17275 
   17084    16903    16722    16555    16387    16237    16133    16046 
   15963    15884    15778    15655    15510    15337    15156    14971 
   14775    14592    14440    14328    14276    14301    14391    14535 
   14720    14936    15180    15446    15724    16000    16256    16499 
   16722    16902    17072    17255    17421    17598    17813    18017 
   18185    18342    18488    18597    18655    18679    18666    18593 
   18481    18376    18283    18195    18117    18057    18019    17977 
   17913    17817    17718    17660    17648    17702    17857    18100 
   18408    18736    19051    19349    19581    19730    19836    19901 
   19923    19921    19890    19804    19687    19572    19456    19317 
   19168    19028    18873    18693    18505    18287    18031    17799 
   17586    17317    17041    16889    16788    16632    16548    16565 
   16557    16590    16733    16879    17012    17190    17356    17443 
   17482    17496    17459    17393    17334    17298    17296    17334 
   17410    17516    17649    17795    17930    18049    18150    18234 
   18272    18256    18206    18120    17995    17856    17695    17497 
   17280    17049    16812    16587    16394    16271    16217    16202 
   16208    16213    16197    16168    16124    16073    16038    16040 
   16079    16151    16252    16386    16533    16665    16767    16833 
   16895    16969    17044    17162    17347    17566    17811    18060 
   18262    18411    18503    18534    18532    18519    18512    18547 
   18639    18769    18909    19044    19148    19199    19221    19249 
   19288    19340    19406    19485    19575    19646    19701    19753 
   19797    19850    19936    20055    20182    20312    20414    20445 
   20410    20290    20056    19746    19403    19057    18736    18447 
   18208    18042    17930    17853    17788    17683    17528    17347 
   17126    16860    16603    16391    16240    16178    16205    16285 
   16407    16568    16721    16875    17067    17254    17424    17632 
   17917    18256    18640    19072    19522    19974    20425    20799 
   21047    21188    21203    21073    20850    20578    20281    19978 
   19674    19377    19105    18833    18558    18306    18088    17906 
   17764    17641    17521    17431    17367    17300    17224    17118 
   16951    16761    16594    16453    16336    16270    16286    16386 
   16534    16708    16892    17037    17127    17176    17178    17140 
   17101    17096    17139    17240    17408    17631    17882    18142 
   18401    18634    18817    18921    18932    18870    18743    18550 
   18308    18042    17771    17514    17305    17163    17072    17003 
   16958    16964    16980    16968    16957    16964    16978    17008 
   17053    17119    17211    17311    17420    17506    17541    17509 
   17365    17113    16803    16456    16123    15869    15719    15665 
   15676    15723    15795    15869    15943    16029    16120    16210 
   16299    16382    16451    16495    16540    16615    16713    16822 
   16946    17067    17173    17270    17348    17392    17400    17373 
   17307    17221    17150    17087    17061    17107    17200    17305 
   17429    17554    17664    17760    17834    17880    17902    17930 
   17983    18037    18092    18164    18223    18250    18233    18153 
   18030    17886    17747    17640    17566    17529    17518    17516 
   17545    17631    17753    17907    18095    18292    18481    18640 
   18759    18843    18879    18862    18804    18708    18592    18476 
   18358    18249    18145    18029    17901    17759    17626    17524 
   17452    17432    17481    17559    17631    17707    17778    17807 
   17791    17755    17718    17694    17697    17724    17770    17830 
   17896    17961    18031    18099    18149    18172    18162    18118 
   18064    18021    18000    18034    18149    18345    18605    18908 
   19224    19522    19759    19908    19979    19978    19903    19801 
   19718    19638    19570    19546    19564    19611    19705    19850 
   20008    20150    20274    20382    20461    20497    20486    20433 
   20329    20173    19979    19765    19548    19377    19294    19295 
   19354    19445    19510    19508    19453    19344    19170    18968 
   18762    18542    18328    18142    17959    17768    17585    17405 
   17234    17096    17021    17007    17027    17069    17124    17163 
   17176    17177    17176    17162    17153    17169    17177    17167 
   17172    17184    17207    17271    17369    17483    17617    17750 
   17868    17948    17986    18006    18009    17986    17971    17977 
   17992    18017    18046    18065    18103    18183    18289    18432 
   18611    18812    19017    19213    19399    19531    19585    19591 
   19548    19441    19299    19163    19041    18936    18856    18802 
   18747    18670    18590    18522    18450    18388    18330    18258 
