Origin Time       2016/04/16 01:25:00
Lat.              32.753
Long.             130.762
Depth. (km)       12
Mag.              7.3
Station Code      KOC016
Station Lat.      32.7359
Station Long.     132.9754
Station Height(m) 125
Record Time       2016/04/16 01:25:42
Sampling Freq(Hz) 100Hz
Duration Time(s)  106
Dir.              N-S
Scale Factor      7845(gal)/8223790
Max. Acc. (gal)   8.611
Last Correction   2016/04/16 01:25:42
Memo.             
[...]
    5120     5478     5628     5501     5268     5240     5417     5547 
    5526     5377     5104     4649     4033     3562     3501     3708 
    3942     4170     4368     4398     4230     3967     3699     3580 
    3773     4102     4243     4158     3889     3570     3639     4199 
    4675     4665     4413     4159     3893     3812     4027     4197 
    4172     4163     4140     3897     3582     3551     3773     3970 
    4112     4260     4357     4286     3973     3554     3362     3491 
    3593     3528     3627     3897     3965     3854     3861     3987 
    4006     3905     3812     3694     3609     3738     3991     4140 
    4104     3927     3776     3780     3960     4174     4195     4094 
    3963     3707     3453     3415     3577     3851     4149     4334 
    4297     3973     3423     3006     3051     3456     3969     4406 
    4584     4430     4091     3863     3951     4309     4671     4765 
    4541     4167     3871     3842     4044     4214     4320     4496 
    4561     4371     4199     4203     4266     4344     4363     4280 
    4263     4425     4573     4554     4484     4374     4125     3960 
    4172     4645     5100     5321     5131     4646     4156     3747 
    3604     3865     4163     4228     4163     3983     3757     3728 
    3955     4282     4460     4295     3910     3631     3600     3681 
    3747     3759     3640     3393     3218     3276     3500     3708 
    3780     3686     3430     3100     2925     3084     3511     3874 
    3834     3416     2974     2817     2999     3331     3690     4155 
    4610     4726     4455     4079     3932     4175     4626     5000 
    5208     5265     5123     4787     4490     4483     4700     4899 
    4954     4869     4769     4764     4734     4552     4289     3970 
    3688     3757     4156     4542     4765     4695     4247     3667 
    3242     3114     3303     3599     3767     3736     3489     3219 
    3180     3284     3366     3499     3694     3817     3778     3609 
    3465     3430     3511     3728     3959     4044     4060     4128 
    4205     4278     4378     4368     4175     3939     3730     3605 
    3627     3719     3825     3889     3828     3678     3554     3522 
    3601     3762     3879     3893     3874     3801     3669     3651 
    3732     3735     3746     3883     4060     4159     4104     3925 
    3770     3708     3665     3634     3723     3886     3984     4001 
    3990     4023     4099     4107     4010     3932     4059     4440 
    4884     5077     4842     4313     3835     3696     3825     3919 
    3917     3997     4143     4209     4182     4120     4055     4055 
    4135     4218     4271     4306     4349     4368     4243     4023 
    3877     3812     3875     4189     4522     4591     4510     4422 
    4286     4153     4190     4393     4567     4568     4390     4091 
    3811     3623     3600     3847     4248     4476     4386     4158 
    3924     3643     3402     3362     3495     3674     3831     3987 
    4171     4287     4241     4081     3931     3861     3834     3811 
    3861     4010     4199     4418     4646     4780     4702     4413 
    4203     4333     4676     4962     4959     4627     4240     4014 
    3977     4167     4472     4556     4247     3738     3342     3191 
    3265     3518     3778     3844     3769     3732     3757     3763 
    3712     3608     3563     3700     3975     4233     4359     4347 
    4263     4166     4048     3820     3566     3485     3454     3314 
    3244     3365     3530     3604     3639     3711     3716     3516 
    3183     2910     2859     3056     3336     3574     3776     3874 
    3828     3816     3948     4098     4172     4240     4309     4295 
    4248     4345     4626     4909     5054     5100     5097     5049 
    4956     4833     4743     4676     4464     4132     3920     3892 
    3866     3757     3678     3630     3546     3526     3620     3767 
    3943     4052     3982     3824     3726     3623     3456     3364 
    3399     3412     3341     3284     3264     3130     2879     2733 
    2803     3055     3478     4000     4421     4572     4378     3906 
    3433     3288     3670     4464     5239     5606     5539     5242 
    4887     4560     4437     4687     5131     5381     5290     5034 
    4789     4637     4669     4907     5081     4912     4494     4095 
    3909     3943     4013     3964     3801     3604     3461     3450 
    3596     3809     3951     4025     4098     4168     4243     4286 
    4213     4041     3861     3717     3645     3750     4006     4183 
    4200     4153     4044     3909     3879     3937     3997     4058 
    4039     3828     3574     3524     3731     4059     4324     4482 
    4595     4618     4529     4479     4515     4568     4707     4901 
    4909     4729     4554     4437     4413     4500     4531     4430 
    4351     4380     4492     4644     4662     4413     4067     3874 
    3827     3871     4024     4153     4014     3542     2965     2685 
    2879     3300     3611     3672     3470     3090     2709     2573 
    2828     3341     3827     4021     3797     3380     3114     3113 
    3334     3639     3816     3782     3636     3522     3487     3542 
    3782     4233     4650     4760     4608     4382     4162     4047 
    4148     4393     4531     4433     4258     4203     4279     4375 
    4411     4414     4387     4299     4247     4315     4409     4372 
    4176     3978     3956     4120     4309     4423     4488     4476 
    4407     4372     4271     4000     3723     3611     3650     3762 
    3888     4017     4050     3823     3402     3055     2953     3022 
    3140     3257     3369     3473     3461     3287     3084     3011 
    3134     3395     3672     3898     4079     4178     4118     3996 
    3942     3875     3682     3397     3137     3022     3113     3388 
    3717     3888     3890     3909     3979     4062     4225     4463 
    4669     4807     4914     4992     5019     5063     5164     5243 
    5252     5201     5143     5171     5273     5302     5155     4911 
    4706     4540     4401     4383     4486     4545     4402     4023 
    3553     3223     3098     3133     3321     3558     3645     3439 
    2937     2350     2083     2358     2957     3518     3854     3932 
    3796     3516     3294     3327     3495     3586     3693     3880 
    4024     4077     3978     3705     3515     3630     3947     4233 
    4247     3825     3171     2751     2808     3180     3565     3753 
    3747     3672     3591     3561     3615     3676     3689     3707 
    3732     3744     3738     3669     3507     3335     3275     3372 
    3577     3765     3817     3747     3680     3639     3504     3299 
    3180     3121     2972     2832     2896     3102     3319     3561 
    3774     3846     3759     3585     3520     3732     4001     3991 
    3754     3538     3402     3362     3535     3867     4083     4032 
    3788     3456     3217     3256     3466     3682     3932     4125 
    4074     3929     3879     3844     3763     3721     3716     3666 
    3535     3349     3213     3242     3388     3445     3245     2830 
    2401     2158     2189     2420     2677     2852     2936     2941 
    2906     2786     2497     2199     2181     2485     2937     3387 
    3689     3704     3435     3100     2972     3154     3530     3959 
    4305     4375     4152     3861     3672     3627     3717     3870 
    3962     3965     3983     4043     4060     3960     3805     3776 
    3937     4166     4306     4247     4060     3935     3905     3946 
    4098     4337     4538     4622     4553     4266     3828     3477 
    3338     3375     3572     3870     4041     3948     3704     3487 
    3501     3821     4197     4374     4336     4143     3901     3863 
    4109     4401     4542     4417     3927     3299     2863     2640 
    2533     2482     2407     2288     2151     1996     1826     1696 
    1757     2081     2448     2662     2697     2465     1982     1543 
    1381     1447     1495     1441     1476     1628     1732     1822 
    2022     2319     2644     2922     3160     3483     3870     4095 
    4055     3832     3519     3245     3213     3577     4243     4900 
    5175     4826     4091     3578     3615     4052     4549     4793 
    4689     4376     3986     3650     3530     3609     3708     3744 
    3792     3942     4202     4500     4746     4860     4758     4464 
    4191     4171     4413     4703     4819     4703     4507     4449 
    4526     4619     4743     4903     5050     5158     5233     5298 
    5228     4923     4542     4210     3973     3861     3796     3807 
    3910     3898     3721     3511     3333     3231     3260     3414 
    3595     3738     3967     4355     4799     5085     5069     4907 
    4893     5169     5505     5545     5352     5242     5364     5679 
    6016     6259     6408     6450     6288     5873     5485     5487 
    5819     6199     6376     6102     5494     5054     5013     5192 
    5294     5113     4725     4379     4215     4243     4365     4426 
    4334     4058     3713     3572     3728     3958     4114     4263 
    4303     4014     3555     3346     3620     4341     5139     5526 
    5481     5406     5582     6008     6555     7098     7477     7622 
    7730     7940     8020     7761     7348     7014     6797     6683 
    6608     6475     6376     6470     6748     6926     6658     5944 
    5084     4287     3757     3672     3905     4195     4405     4383 
    4172     4153     4456     4864     5219     5292     4876     4228 
    3858     4023     4596     5225     5589     5454     4864     4228 
    3924     4062     4526     4787     4317     3317     2238     1101 
      67     -457     -540     -535     -583     -702     -828     -909 
   -1020    -1104     -959     -566     -167      112      561     1382 
    2335     3140     3631     3701     3491     3268     3231     3515 
    4012     4402     4487     4291     3965     3828     4121     4561 
    4650     4306     3688     3017     2666     2859     3373     3811 
    3951     3740     3304     3129     3608     4535     5422     6018 
    6309     6319     6134     6072     6435     7002     7298     7249 
    7110     7051     7059     7052     7017     6855     6442     6015 
    5837     5922     6312     6777     6835     6261     5127     3839 
    3040     2959     3284     3612     3707     3508     3152     3038 
    3393     3948     4423     4715     4608     4120     3728     3699 
    3809     3852     3701     3215     2565     2101     1900     1894 
    2111     2512     2894     3148     3333     3537     3901     4484 
    5108     5705     6407     7187     7923     8565     9008     9124 
    8914     8537     8175     7898     7799     7912     8006     7804 
    7267     6650     6340     6525     6990     7234     6941     6214 
    5263     4164     3149     2581     2497     2660     2809     2721 
    2490     2340     2263     2181     2151     2332     2709     2994 
    3048     3017     3010     3042     3115     3215     3326     3410 
    3515     3832     4334     4684     4758     4599     4178     3697 
    3454     3523     3847     4258     4483     4315     3794     3186 
    2718     2342     1933     1572     1408     1462     1564     1408 
     873      189     -380     -733     -849     -708     -228      646 
    1638     2317     2546     2424     2057     1668     1622     2061 
    2772     3550     4286     4739     4730     4367     3873     3346 
    2813     2447     2413     2525     2481     2182     1741     1351 
    1133     1092     1188     1291     1143      546     -340    -1115 
   -1422    -1177     -702     -352     -129      -36     -172     -417 
    -506     -379     -198     -141     -282     -600     -996    -1387 
   -1755    -2097    -2513    -3125    -3828    -4315    -4364    -4055 
   -3604    -3055    -2438    -1885    -1397     -886     -437      -36 
     535     1291     1989     2520     2918     3225     3522     3847 
    4238     4834     5672     6569     7272     7611     7609     7503 
    7476     7493     7481     7438     7288     6895     6349     5915 
    5656     5551     5742     6257     6841     7258     7493     7550 
    7318     6832     6323     5946     5661     5360     4970     4449 
    3894     3582     3634     3746     3492     2747     1694      697 
     101      -60       64      429     1065     1935     2855     3523 
    3731     3542     3257     3200     3584     4518     5796     6880 
    7408     7414     7165     6943     6787     6656     6637     6711 
    6706     6531     6231     5962     5883     5999     6261     6621 
    7006     7400     7789     8095     8255     8286     8344     8611 
    9077     9594    10173    10859    11356    11354    10951    10539 
   10536    11115    11942    12455    12479    12239    11908    11576 
   11340    11194    11051    10922    10940    11179    11581    12001 
   12194    12017    11604    11225    11105    11306    11620    11700 
   11245    10243     9032     8035     7537     7578     7889     8190 
    8336     8121     7437     6435     5343     4355     3643     3345 
    3491     3899     4287     4563     4876     5285     5730     6290 
    7037     7901     8835     9821    10709    11403    12017    12598 
   12958    13030    12954    12826    12748    12787    12869    12928 
   12864    12413    11491    10308     9082     7974     7180     6822 
    6781     6824     6851     6791     6519     6064     5589     5246 
    5192     5481     5933     6284     6323     5977     5360     4685 
    4170     4016     4393     5286     6378     7260     7604     7360 
    6841     6412     6264     6436     6718     6794     6702     6782 
    7140     7504     7589     7299     6728     6077     5540     5242 
    5142     4963     4459     3646     2729     1965     1451     1154 
    1109     1220     1189      940      548      -17     -552     -681 
    -356      257     1057     1830     2230     2166     1891     1749 
    2037     2791     3780     4729     5483     6030     6378     6511 
    6482     6378     6243     6106     5875     5367     4554     3673 
    2951     2435     2119     1949     1809     1595     1194      552 
    -171     -728    -1035    -1142    -1062     -822     -448       35 
     496      943     1582     2430     3295     4031     4530     4748 
    4758     4561     4168     3788     3558     3353     3032     2609 
    2182     1821     1568     1478     1513     1679     1984     2126 
    1822     1217      689      545      741     1039     1372     1736 
    2107     2434     2584     2584     2598     2727     3048     3570 
    4079     4321     4295     4185     4129     4263     4658     5151 
    5499     5575     5410     5282     5429     5609     5464     5150 
    5076     5320     5653     5960     6153     6016     5491     4783 
    4171     3861     3890     4132     4380     4464     4248     3630 
    2740     1852     1146      818      977     1385     1723     1856 
    1759     1497     1146      843      796     1004     1304     1584 
    1701     1580     1391     1351     1480     1624     1645     1551 
    1452     1401     1314     1163     1032     1005     1086     1152 
    1028      677      276       47       86      464     1239     2155 
    2836     3165     3232     3213     3279     3511     3931     4431 
    4850     5053     4915     4484     4072     3939     4094     4469 
    4946     5314     5391     5131     4638     4086     3584     3223 
    3071     3096     3210     3246     3087     2849     2721     2825 
    3179     3607     3905     3997     3886     3688     3640     3913 
    4409     4818     4977     5000     5024     5057     5119     5277 
    5528     5821     6065     6081     5699     4926     3987     3199 
    2767     2690     2783     2848     2776     2644     2671     2920 
    3222     3516     3759     3789     3632     3530     3585     3674 
    3685     3642     3572     3500     3480     3511     3553     3511 
    3306     3025     2745     2424     2126     1935     1815     1676 
    1386      903      461      310      498      889     1237     1404 
    1389     1178      818      433      162      128      349      695 
     982     1102     1055      893      728      715      886     1105 
    1198     1104      896      654      372      110       44      261 
     656     1003     1065      750      141     -544    -1017    -1124 
    -967     -747     -619     -702     -935    -1107    -1150    -1113 
   -1000     -822     -684     -622     -575     -468     -225       56 
     175      129       47       21      162      495      920     1350 
    1679     1760     1595     1417     1395     1478     1613     1787 
    1884     1850     1768     1649     1551     1609     1867     2309 
    2863     3291     3472     3550     3657     3753     3782     3802 
    3873     3932     4002     4218     4592     5008     5336     5491 
    5505     5386     5125     4819     4611     4633     4874     5143 
    5262     5134     4789     4468     4391     4560     4827     5051 
    5213     5336     5448     5633     5867     6033     6088     6070 
    6066     6115     6192     6270     6327     6401     6594     6871 
    7091     7227     7411     7699     7947     8031     7890     7577 
    7366     7406     7576     7742     7785     7599     7182     6678 
    6328     6231     6296     6405     6446     6349     6083     5676 
    5290     5058     4912     4769     4588     4295     3882     3473 
    3206     3142     3238     3300     3134     2756     2284     1794 
    1417     1271     1274     1345     1553     1868     2157     2367 
    2463     2425     2285     2062     1775     1498     1348     1374 
    1547     1780     1956     1979     1799     1526     1341     1308 
    1408     1547     1586     1533     1431     1267     1088      926 
     799      751      764      726      557      349      263      365 
     665     1074     1431     1664     1775     1802     1898     2230 
    2729     3172     3476     3678     3747     3657     3481     3365 
    3464     3778     4167     4498     4675     4606     4307     3951 
    3712     3589     3514     3406     3225     3049     2972     2979 
    2997     2918     2673     2347     2069     1841     1624     1364 
    1016      702      565      500      292      -62     -434     -812 
   -1185    -1433    -1559    -1649    -1655    -1574    -1456    -1310 
   -1228    -1233    -1205    -1183    -1264    -1301    -1154     -959 
    -870     -849     -858     -900     -850     -621     -318      -71 
      74       87       32       78      274      515      758      985 
    1138     1200     1185     1178     1298     1539     1809     2016 
    2068     1933     1692     1512     1525     1729     2023     2305 
    2504     2597     2629     2660     2694     2701     2629     2465 
    2282     2151     2100     2143     2176     2034     1772     1574 
    1518     1609     1780     1922     1985     1956     1902     1949 
    2162     2506     2863     3048     3024     2926     2884     2982 
