Origin Time       2016/04/16 01:25:00
Lat.              32.753
Long.             130.762
Depth. (km)       12
Mag.              7.3
Station Code      KOC008
Station Lat.      33.7758
Station Long.     133.3465
Station Height(m) 560
Record Time       2016/04/16 01:26:00
Sampling Freq(Hz) 100Hz
Duration Time(s)  103
Dir.              E-W
Scale Factor      7845(gal)/8223790
Max. Acc. (gal)   2.821
Last Correction   2016/04/16 01:26:01
Memo.             
[...]
   -1058    -1437    -1549    -1321    -1019     -943    -1158    -1485 
   -1663    -1528    -1166     -845     -750     -845     -953     -923 
    -772     -661     -735     -928    -1031     -965     -835     -762 
    -789     -869     -938     -997    -1067    -1111    -1084     -990 
    -864     -726     -607     -526     -472     -437     -457     -568 
    -735     -864     -845     -680     -517     -523     -683     -804 
    -784     -704     -664     -630     -557     -513     -576     -712 
    -827     -838     -793     -850    -1011    -1139    -1171    -1100 
    -994    -1026    -1167    -1209    -1120    -1050    -1075    -1129 
   -1107     -969     -785     -711     -800     -911     -932     -934 
    -994    -1111    -1209    -1181     -958     -633     -411     -409 
    -583     -811     -923     -834     -696     -688     -811     -984 
   -1074     -936     -643     -436     -422     -576     -831    -1036 
   -1074    -1008     -973    -1016    -1096    -1131    -1059     -901 
    -765     -738     -796     -877     -936     -901     -801     -749 
    -746     -738     -706     -616     -513     -538     -728     -961 
   -1116    -1133    -1008     -849     -776     -805     -873     -893 
    -843     -769     -720     -724     -793     -907    -1036    -1125 
   -1094     -931     -764     -726     -785     -880    -1015    -1135 
   -1174    -1190    -1273    -1414    -1543    -1595    -1563    -1507 
   -1535    -1671    -1764    -1694    -1512    -1350    -1301    -1336 
   -1290    -1081     -854     -785     -859     -929     -900     -788 
    -687     -662     -679     -672     -633     -588     -566     -552 
    -515     -517     -648     -823     -869     -769     -675     -727 
    -919    -1067    -1038     -927     -924    -1009     -985     -761 
    -486     -361     -457     -676     -807     -745     -627     -612 
    -684     -754     -747     -642     -533     -525     -587     -646 
    -673     -672     -669     -696     -728     -765     -864    -1020 
   -1116    -1100    -1048    -1009     -963     -924     -946    -1059 
   -1262    -1468    -1501    -1308    -1062     -969    -1048    -1167 
   -1190    -1089     -907     -730     -664     -692     -673     -556 
    -418     -344     -363     -403     -361     -234     -129     -156 
    -299     -403     -321     -112      -20     -186     -483     -648 
    -526     -241      -90     -218     -480     -633     -576     -402 
    -253     -214     -270     -338     -405     -502     -608     -687 
    -728     -727     -722     -741     -751     -778     -868     -950 
    -929     -846     -796     -785     -769     -758     -747     -692 
    -616     -581     -594     -652     -735     -783     -789     -811 
    -820     -776     -741     -762     -789     -770     -677     -491 
    -270     -128     -108     -148     -187     -202     -198     -201 
    -278     -425     -544     -549     -487     -463     -540     -653 
    -676     -573     -421     -313     -338     -514     -681     -664 
    -498     -353     -369     -540     -720     -800     -797     -804 
    -874     -943     -924     -828     -728     -689     -696     -693 
    -673     -648     -612     -610     -685     -792     -841     -812 
    -738     -653     -589     -546     -463     -329     -220     -194 
    -259     -337     -337     -275     -206     -148     -126     -162 
    -249     -375     -500     -550     -498     -410     -411     -569 
    -785     -885     -843     -760     -702     -757     -987    -1266 
   -1385    -1312    -1155    -1039    -1044    -1147    -1251    -1277 
   -1192    -1035     -908     -877     -897     -882     -818     -762 
    -778     -841     -868     -822     -762     -783     -896    -1053 
   -1200    -1255    -1206    -1138    -1128    -1179    -1246    -1235 
   -1112     -954     -868     -885     -978    -1050    -1011     -897 
    -807     -776     -767     -718     -623     -530     -495     -565 
    -711     -842     -923     -982    -1034    -1093    -1170    -1232 
   -1269    -1305    -1367    -1464    -1561    -1554    -1404    -1229 
   -1159    -1179    -1233    -1256    -1193    -1136    -1229    -1395 
   -1475    -1436    -1333    -1267    -1310    -1398    -1402    -1296 
   -1169    -1156    -1258    -1368    -1412    -1341    -1204    -1161 
   -1223    -1237    -1135     -973     -861     -880     -947     -920 
    -816     -772     -842     -954     -976     -870     -787     -828 
    -882     -858     -805     -777     -834     -972    -1039     -934 
    -737     -587     -600     -807    -1053    -1136    -1058     -961 
    -919     -938     -980     -999    -1013    -1090    -1208    -1279 
   -1282    -1244    -1170    -1084    -1036     -997     -918     -831 
    -807     -886    -1024    -1096    -1044     -958     -918     -934 
    -961     -936     -849     -743     -668     -630     -592     -499 
    -355     -246     -238     -317     -448     -591     -661     -652 
    -656     -702     -754     -810     -845     -773     -572     -302 
     -70      -17     -217     -540     -749     -720     -545     -457 
    -598     -855    -1036    -1065     -989     -884     -838     -868 
    -915     -951     -976     -978     -962     -974    -1057    -1196 
   -1325    -1399    -1408    -1374    -1347    -1328    -1266    -1190 
   -1198    -1273    -1328    -1344    -1334    -1321    -1324    -1314 
   -1255    -1158    -1067    -1058    -1140    -1182    -1097     -957 
    -892     -955    -1085    -1154    -1088     -978     -980    -1058 
   -1081    -1026     -957     -943    -1032    -1146    -1188    -1197 
   -1236    -1291    -1320    -1317    -1344    -1455    -1632    -1802 
   -1859    -1768    -1610    -1518    -1580    -1740    -1821    -1713 
   -1499    -1370    -1422    -1580    -1679    -1629    -1494    -1417 
   -1470    -1602    -1717    -1772    -1830    -1949    -2069    -2076 
   -1949    -1799    -1777    -1900    -2043    -2101    -2058    -1952 
   -1854    -1826    -1865    -1937    -1995    -1998    -1944    -1849 
   -1738    -1661    -1642    -1656    -1664    -1649    -1632    -1632 
   -1618    -1564    -1470    -1316    -1132    -1000     -969    -1028 
   -1107    -1085     -949     -818     -767     -773     -787     -781 
    -772     -789     -801     -734     -607     -550     -621     -720 
    -722     -607     -484     -457     -545     -683     -773     -772 
    -718     -666     -625     -589     -595     -642     -681     -689 
    -675     -645     -625     -656     -724     -791     -827     -843 
    -861     -888     -939    -1003    -1048    -1093    -1161    -1206 
   -1185    -1131    -1077    -1039    -1043    -1073    -1121    -1215 
   -1332    -1408    -1410    -1348    -1259    -1212    -1248    -1314 
   -1298    -1194    -1127    -1169    -1264    -1348    -1351    -1217 
   -1020     -903     -918    -1017    -1107    -1081     -945     -766 
    -591     -446     -359     -325     -353     -440     -506     -495 
    -442     -423     -480     -591     -670     -652     -576     -545 
    -626     -801     -954     -957     -807     -619     -487     -437 
    -492     -635     -780     -816     -660     -346     -105     -105 
    -234     -295     -232     -112      -56     -133     -275     -382 
    -463     -575     -722     -801     -683     -400     -193     -271 
    -635    -1039    -1142     -866     -540     -535     -864    -1254 
   -1460    -1433    -1321    -1308    -1368    -1334    -1190    -1030 
    -913     -881     -922     -972    -1048    -1205    -1381    -1494 
   -1584    -1723    -1902    -2047    -2088    -2008    -1903    -1884 
   -1948    -1975    -1865    -1609    -1302    -1070     -939     -830 
    -693     -550     -418     -265      -58      176      336      370 
     351      383      517      693      820      892      976     1096 
    1198     1220     1155     1046      931      832      760      691 
     604      500      390      280      174      101      131      270 
     410      444      373      297      324      480      708      919 
    1058     1129     1183     1267     1362     1399     1334     1182 
    1019      923      855      712      437       65     -275     -442 
    -414     -297     -203     -178     -191     -178     -112      -41 
     -20      -37      -54      -47      -32      -76     -201     -336 
    -403     -368     -282     -261     -346     -448     -468     -419 
    -419     -571     -814     -973     -953     -864     -916    -1185 
   -1557    -1871    -2061    -2170    -2234    -2251    -2215    -2120 
   -2022    -1988    -1977    -1891    -1728    -1587    -1528    -1520 
   -1483    -1333    -1074     -858     -781     -788     -850     -974 
   -1084    -1124    -1109    -1015     -814     -562     -348     -234 
    -236     -280     -263     -174      -93      -55       -5      102 
     230      322      383      448      535      646      723      697 
     579      436      297      156       -5     -245     -581     -905 
   -1094    -1162    -1185    -1224    -1316    -1425    -1441    -1312 
   -1117     -974     -934     -950     -901     -718     -496     -360 
    -314     -271     -140       95      372      592      715      754 
     677      479      252       95       11      -36     -122     -291 
    -491     -649     -767     -896    -1046    -1182    -1273    -1329 
   -1344    -1255    -1031     -733     -464     -351     -419     -522 
    -487     -338     -229     -245     -351     -449     -461     -373 
    -259     -237     -344     -523     -702     -843     -905     -872 
    -726     -477     -237     -155     -292     -572     -815     -877 
    -773     -669     -680     -746     -772     -785     -872    -1039 
   -1219    -1297    -1178     -935     -793     -885    -1140    -1405 
   -1584    -1665    -1665    -1610    -1534    -1490    -1541    -1684 
   -1814    -1868    -1887    -1902    -1881    -1763    -1514    -1228 
   -1035     -943     -916    -1026    -1313    -1648    -1880    -1941 
   -1833    -1640    -1480    -1420    -1431    -1503    -1614    -1664 
   -1582    -1393    -1127     -842     -645     -569     -560     -575 
    -553     -449     -353     -332     -307     -222     -120      -43 
     -11      -47     -126     -194     -205     -144      -49       31 
      63       37      -35     -157     -328     -533     -776    -1050 
   -1296    -1452    -1502    -1455    -1379    -1389    -1494    -1593 
   -1611    -1553    -1467    -1431    -1495    -1606    -1661    -1599 
   -1468    -1377    -1401    -1535    -1672    -1680    -1547    -1374 
   -1278    -1294    -1390    -1506    -1566    -1547    -1478    -1394 
   -1367    -1448    -1584    -1684    -1695    -1611    -1483    -1401 
   -1431    -1584    -1798    -1966    -2041    -2023    -1941    -1895 
   -1982    -2160    -2270    -2165    -1795    -1287     -908     -827 
    -942    -1017     -922     -704     -557     -641     -896    -1105 
   -1133    -1013     -880     -834     -866     -913     -955    -1007 
   -1089    -1205    -1287    -1274    -1152     -962     -774     -618 
    -481     -383     -330     -294     -241     -141        5      131 
     170      101      -32     -141     -152     -101      -56      -56 
    -118     -225     -313     -325     -249     -109       47      163 
     209      222      263      342      380      302      143        5 
     -32       23       90       37     -159     -378     -486     -481 
    -454     -504     -629     -712     -661     -549     -552     -718 
    -886     -920     -870     -837     -835     -824     -723     -488 
    -220      -68      -87     -217     -376     -503     -592     -677 
    -769     -812     -723     -514     -318     -249     -326     -487 
    -614     -626     -558     -500     -475     -406     -246      -83 
     -54     -205     -415     -553     -631     -706     -805     -908 
    -913     -800     -691     -660     -658     -653     -684     -819 
   -1044    -1229    -1264    -1213    -1259    -1476    -1740    -1880 
   -1850    -1729    -1657    -1688    -1702    -1598    -1467    -1460 
   -1586    -1709    -1669    -1460    -1275    -1296    -1512    -1749 
   -1829    -1714    -1509    -1363    -1333    -1371    -1390    -1375 
   -1367    -1404    -1453    -1443    -1339    -1197    -1142    -1250 
   -1466    -1669    -1769    -1746    -1653    -1597    -1686    -1908 
   -2134    -2274    -2319    -2266    -2121    -1912    -1668    -1445 
   -1282    -1140     -976     -785     -579     -413     -334     -302 
    -278     -278     -322     -410     -496     -486     -348     -191 
    -135     -193     -279     -261     -129      -29      -83     -251 
    -370     -355     -259     -189     -160     -116      -32      -17 
    -186     -498     -765     -789     -526     -151       68       28 
    -152     -257     -172       17      114       20     -110      -21 
     338      760      962      831      540      386      486      702 
     789      604      241      -47     -105       -2       44     -116 
    -413     -669     -807     -838     -815     -796     -795     -804 
    -845     -922    -1000    -1019     -958     -890     -928    -1096 
   -1328    -1545    -1669    -1669    -1634    -1686    -1814    -1910 
   -1923    -1917    -1972    -2107    -2274    -2419    -2516    -2554 
   -2554    -2575    -2673    -2868    -3123    -3364    -3557    -3696 
   -3790    -3842    -3844    -3785    -3697    -3634    -3618    -3623 
   -3576    -3414    -3169    -2940    -2795    -2733    -2671    -2533 
   -2350    -2222    -2196    -2174    -2019    -1759    -1539    -1457 
   -1463    -1460    -1441    -1409    -1340    -1204     -976     -715 
    -573     -622     -795     -962    -1004     -940     -909     -955 
   -1021    -1058    -1013     -869     -720     -697     -838    -1055 
   -1192    -1179    -1084    -1044    -1142    -1316    -1463    -1561 
   -1649    -1738    -1822    -1902    -1956    -1977    -1988    -1973 
   -1952    -1979    -2030    -2049    -2042    -2000    -1892    -1772 
   -1755    -1898    -2155    -2442    -2668    -2745    -2714    -2683 
   -2646    -2620    -2698    -2797    -2763    -2610    -2430    -2308 
   -2328    -2438    -2461    -2350    -2196    -2096    -2130    -2299 
   -2481    -2601    -2673    -2690    -2617    -2458    -2284    -2146 
   -2041    -1944    -1804    -1617    -1462    -1393    -1397    -1437 
   -1453    -1398    -1252    -1034     -872     -899    -1060    -1212 
   -1247    -1142    -1007    -1012    -1148    -1236    -1120     -805 
    -475     -310     -346     -521     -710     -778     -737     -693 
    -646     -526     -363     -259     -314     -535     -788     -943 
    -996     -994    -1039    -1202    -1421    -1642    -1823    -1859 
   -1772    -1723    -1767    -1872    -2019    -2101    -2057    -1964 
   -1849    -1717    -1624    -1599    -1632    -1674    -1668    -1620 
   -1540    -1443    -1381    -1378    -1420    -1467    -1475    -1440 
   -1393    -1350    -1313    -1310    -1366    -1483    -1641    -1763 
   -1795    -1777    -1777    -1819    -1895    -1982    -2037    -2012 
   -1910    -1775    -1656    -1580    -1561    -1557    -1490    -1381 
   -1323    -1323    -1320    -1227    -1024     -831     -750     -754 
    -762     -699     -529     -360     -365     -544     -741     -841 
    -795     -706     -730     -838     -924     -999    -1116    -1301 
   -1530    -1671    -1653    -1578    -1540    -1556    -1588    -1551 
   -1433    -1310    -1221    -1171    -1166    -1175    -1202    -1262 
   -1310    -1340    -1431    -1582    -1733    -1844    -1807    -1618 
   -1490    -1554    -1738    -1891    -1857    -1587    -1267    -1113 
   -1121    -1188    -1210    -1092     -922     -886     -986    -1063 
   -1015     -862     -712     -650     -646     -666     -719     -766 
    -784     -765     -728     -766     -884     -982    -1048    -1080 
   -1059    -1086    -1260    -1489    -1632    -1664    -1587    -1455 
   -1379    -1327    -1190    -1007     -908     -945    -1038    -1081 
   -1017     -838     -606     -380     -180       -9       90      141 
     266      491      688      758      695      579      560      680 
     808      850      801      645      456      383      448      545 
     598      514      270      -17     -205     -222      -99       36 
      90       67       32       47       99      109       41      -55 
    -129     -182     -230     -263     -268     -263     -275     -330 
    -433     -535     -600     -600     -535     -473     -503     -672 
    -918    -1081    -1112    -1104    -1101    -1050     -963     -920 
    -922     -949    -1005    -1062    -1119    -1239    -1424    -1570 
   -1598    -1476    -1215     -954     -850     -889     -926     -849 
    -699     -604     -634     -724     -726     -571     -344     -143 
     -16      -20     -155     -348     -515     -553     -383      -71 
     202      297      189      -32     -195     -163       62      326 
     433      326       87     -151     -270     -252     -178     -133 
    -156     -233     -325     -403     -480     -521     -444     -212 
     105      330      261      -71     -351     -318      -14      383 
     706      796      603      265       36       90      373      630 
     669      562      480      491      596      730      796      780 
     760      807      935     1080     1150     1152     1178     1243 
    1260     1152      936      731      619      557      441      225 
       1     -108     -109     -105     -148     -241     -369     -496 
    -629     -814    -1039    -1225    -1340    -1377    -1341    -1264 
   -1212    -1274    -1494    -1829    -2174    -2373    -2340    -2187 
   -2089    -2161    -2380    -2571    -2583    -2459    -2323    -2227 
   -2124    -1935    -1671    -1431    -1300    -1290    -1351    -1417 
   -1455    -1456    -1408    -1316    -1204    -1104    -1065    -1109 
   -1152    -1088     -913     -727     -627     -630     -681     -733 
    -801     -913    -1003     -967     -853     -801     -850     -915 
    -919     -853     -747     -643     -576     -583     -652     -688 
    -611     -453     -315     -268     -313     -417     -515     -566 
    -622     -727     -838     -859     -743     -540     -330     -178 
    -108      -64       29      170      279      298      233      141 
      86       86      124      151      112       -1     -116     -120 
      13      194      305      313      274      261      292      346 
     418      518      625      672      602      436      255      121 
      71      120      230      349      421      421      380      368 
     438      560      621      548      376      230      199      253 
     294      265      225      272      399      496      511      472 
     421      398      419      456      491      506      463      373 
     337      388      442      440      418      457      603      783 
     858      778      623      506      504      614      734      761 
     708      642      584      579      662      767      781      656 
     444      275      197      108      -71     -271     -344     -238 
     -91      -79     -241     -454     -552     -529     -518     -583 
