Origin Time       2016/04/16 01:25:00
Lat.              32.753
Long.             130.762
Depth. (km)       12
Mag.              7.3
Station Code      KYT011
Station Lat.      35.0170
Station Long.     135.5638
Station Height(m) 101
Record Time       2016/04/16 01:27:34
Sampling Freq(Hz) 100Hz
Duration Time(s)  90
Dir.              E-W
Scale Factor      7845(gal)/8223790
Max. Acc. (gal)   1.816
Last Correction   2016/04/16 01:27:34
Memo.             
[...]
    9094     9080     9062     9057     9051     9034     9018     9008 
    8997     8980     8961     8951     8939     8918     8896     8880 
    8863     8843     8822     8797     8773     8749     8729     8710 
    8688     8672     8657     8637     8623     8614     8598     8584 
    8579     8576     8565     8553     8546     8542     8538     8529 
    8519     8519     8519     8513     8505     8499     8496     8492 
    8482     8471     8459     8446     8441     8433     8418     8407 
    8395     8385     8378     8368     8357     8349     8344     8337 
    8326     8319     8318     8318     8321     8318     8311     8316 
    8324     8326     8324     8324     8334     8338     8336     8337 
    8344     8351     8356     8357     8363     8370     8378     8390 
    8407     8424     8441     8469     8507     8537     8567     8604 
    8641     8679     8718     8758     8802     8842     8881     8922 
    8957     8988     9019     9045     9065     9088     9108     9124 
    9142     9163     9185     9200     9217     9238     9258     9275 
    9286     9297     9319     9342     9354     9354     9360     9374 
    9379     9377     9373     9364     9363     9358     9344     9342 
    9342     9327     9312     9312     9312     9298     9278     9269 
    9265     9250     9228     9208     9193     9178     9155     9134 
    9113     9094     9076     9050     9030     9020     9004     8978 
    8955     8945     8931     8901     8870     8850     8824     8789 
    8753     8721     8688     8654     8623     8595     8567     8537 
    8509     8487     8464     8441     8417     8394     8379     8374 
    8363     8345     8336     8334     8330     8322     8321     8329 
    8328     8318     8318     8324     8329     8333     8337     8347 
    8360     8375     8387     8403     8428     8453     8467     8484 
    8510     8540     8564     8581     8607     8634     8655     8676 
    8695     8710     8723     8734     8737     8739     8746     8753 
    8758     8761     8764     8766     8769     8770     8777     8787 
    8791     8787     8792     8802     8807     8807     8806     8807 
    8808     8808     8810     8808     8803     8796     8787     8783 
    8777     8764     8748     8737     8729     8716     8696     8677 
    8669     8664     8649     8634     8629     8623     8612     8603 
    8598     8587     8573     8563     8545     8523     8507     8490 
    8471     8454     8446     8436     8421     8413     8407     8404 
    8410     8421     8431     8444     8464     8479     8497     8532 
    8571     8604     8637     8668     8707     8752     8789     8820 
    8853     8885     8918     8949     8976     8999     9020     9045 
    9067     9089     9113     9131     9143     9159     9173     9188 
    9202     9211     9216     9223     9229     9231     9234     9239 
    9240     9240     9246     9250     9240     9236     9239     9235 
    9221     9212     9208     9194     9180     9171     9157     9139 
    9126     9107     9082     9061     9043     9026     9007     8989 
    8977     8965     8954     8949     8946     8943     8939     8932 
    8926     8920     8920     8919     8915     8903     8885     8872 
    8858     8839     8822     8804     8784     8765     8745     8723 
    8702     8679     8661     8644     8619     8600     8587     8569 
    8549     8530     8515     8497     8476     8459     8444     8428 
    8417     8401     8387     8376     8371     8365     8356     8348 
    8344     8341     8341     8341     8343     8347     8352     8359 
    8364     8371     8376     8384     8395     8407     8414     8418 
    8433     8454     8473     8487     8505     8526     8548     8564 
    8577     8596     8618     8631     8642     8654     8664     8672 
    8683     8688     8694     8700     8711     8725     8735     8749 
    8769     8784     8793     8810     8830     8853     8862     8870 
    8889     8908     8916     8922     8931     8941     8946     8949 
    8945     8931     8920     8914     8899     8878     8856     8830 
    8810     8787     8764     8739     8711     8688     8673     8645 
    8617     8603     8592     8576     8553     8542     8543     8540 
    8525     8513     8506     8499     8492     8484     8479     8477 
    8483     8484     8482     8490     8509     8526     8543     8561 
    8579     8595     8614     8638     8653     8664     8679     8695 
    8704     8707     8710     8710     8703     8698     8694     8688 
    8685     8676     8668     8672     8676     8679     8688     8699 
    8714     8737     8762     8785     8812     8842     8872     8905 
    8942     8981     9015     9049     9086     9115     9132     9155 
    9185     9207     9219     9228     9229     9229     9232     9232 
    9227     9221     9216     9215     9209     9198     9188     9175 
    9163     9147     9136     9126     9109     9088     9067     9047 
    9026     9003     8978     8959     8945     8926     8904     8883 
    8865     8843     8824     8812     8795     8776     8764     8757 
    8749     8742     8734     8725     8719     8719     8712     8704 
    8704     8706     8699     8687     8673     8662     8657     8653 
    8642     8635     8633     8622     8606     8602     8604     8591 
    8575     8573     8572     8564     8553     8546     8540     8533 
    8522     8513     8510     8507     8499     8487     8487     8486 
    8480     8482     8487     8494     8496     8490     8490     8503 
    8513     8505     8492     8496     8503     8496     8479     8467 
    8460     8446     8428     8414     8406     8394     8382     8372 
    8371     8372     8372     8372     8376     8391     8413     8428 
    8441     8467     8496     8526     8557     8587     8622     8657 
    8688     8727     8765     8804     8846     8888     8931     8976 
    9024     9080     9127     9166     9209     9250     9290     9332 
    9369     9398     9427     9454     9478     9489     9497     9506 
    9509     9506     9497     9491     9481     9458     9440     9425 
    9408     9391     9375     9352     9329     9308     9283     9256 
    9231     9211     9180     9143     9112     9078     9034     8993 
    8954     8907     8857     8811     8765     8719     8676     8635 
    8594     8560     8532     8505     8476     8440     8410     8394 
    8372     8349     8329     8305     8280     8260     8240     8220 
    8198     8177     8164     8149     8131     8114     8104     8100 
    8094     8087     8081     8081     8090     8098     8104     8106 
    8113     8127     8144     8162     8175     8187     8209     8240 
    8272     8307     8336     8363     8406     8451     8484     8517 
    8567     8615     8652     8696     8745     8780     8812     8843 
    8869     8904     8937     8947     8958     8980     9000     9004 
    8999     9001     8999     8985     8982     8976     8955     8941 
    8928     8910     8889     8865     8843     8833     8827     8815 
    8799     8785     8775     8766     8768     8773     8775     8772 
    8769     8776     8787     8784     8781     8789     8796     8791 
    8770     8761     8775     8765     8729     8703     8692     8665 
    8618     8583     8567     8537     8496     8469     8449     8428 
    8414     8398     8382     8379     8390     8398     8397     8398 
    8413     8428     8441     8444     8456     8487     8510     8517 
    8540     8572     8587     8604     8641     8671     8687     8708 
    8737     8764     8797     8822     8826     8838     8865     8881 
    8883     8889     8899     8900     8908     8916     8910     8908 
    8914     8908     8903     8903     8903     8901     8903     8903 
    8892     8878     8874     8878     8880     8866     8838     8820 
    8824     8819     8792     8769     8753     8716     8673     8648 
    8623     8587     8538     8487     8456     8426     8375     8322 
    8289     8259     8224     8182     8149     8131     8104     8068 
    8040     8020     8005     7985     7974     7981     7973     7947 
    7935     7950     7978     7989     7978     7974     8002     8050 
    8086     8106     8132     8166     8210     8263     8311     8361 
    8414     8457     8494     8549     8615     8661     8694     8734 
    8772     8807     8851     8889     8915     8954     8991     9016 
    9047     9078     9104     9134     9147     9153     9161     9163 
    9155     9142     9128     9115     9093     9071     9050     9015 
    8976     8953     8929     8891     8843     8804     8773     8741 
    8700     8668     8640     8604     8573     8557     8545     8527 
    8494     8463     8444     8426     8404     8378     8344     8318 
    8298     8270     8257     8264     8253     8230     8225     8236 
    8255     8270     8283     8309     8338     8363     8387     8410 
    8449     8502     8538     8565     8621     8679     8704     8730 
    8783     8838     8881     8911     8939     8977     9015     9043 
    9062     9082     9119     9142     9137     9147     9167     9178 
    9189     9198     9211     9235     9254     9259     9269     9294 
    9331     9355     9369     9378     9385     9402     9428     9436 
    9431     9423     9410     9398     9390     9369     9337     9312 
    9283     9242     9198     9154     9117     9090     9053     9001 
    8941     8872     8829     8814     8777     8710     8644     8592 
    8557     8530     8490     8437     8391     8356     8321     8283 
    8257     8235     8199     8148     8104     8086     8087     8063 
    8010     7974     7974     7973     7952     7935     7920     7913 
    7929     7943     7939     7931     7943     7983     8014     8016 
    8027     8058     8078     8087     8111     8151     8181     8197 
    8214     8241     8275     8302     8334     8391     8434     8453 
    8486     8520     8559     8625     8683     8695     8704     8766 
    8839     8869     8895     8954     9019     9063     9096     9139 
    9211     9275     9306     9331     9371     9431     9485     9510 
    9529     9553     9595     9656     9687     9684     9710     9756 
    9768     9764     9786     9818     9829     9837     9837     9803 
    9778     9788     9765     9694     9641     9620     9574     9487 
    9397     9317     9239     9161     9061     8932     8818     8745 
    8664     8533     8401     8318     8245     8156     8073     7987 
    7911     7871     7821     7747     7703     7684     7657     7631 
    7614     7601     7586     7580     7595     7619     7632     7631 
    7627     7638     7669     7696     7705     7708     7727     7753 
    7770     7786     7809     7827     7851     7898     7942     7950 
    7969     8029     8086     8111     8128     8160     8203     8256 
    8303     8329     8344     8383     8436     8474     8510     8557 
    8588     8611     8660     8729     8765     8789     8846     8903 
    8927     8957     9000     9027     9047     9078     9100     9097 
    9097     9104     9092     9058     9034     9023     8984     8911 
    8860     8833     8779     8696     8617     8556     8510     8444 
    8352     8274     8225     8177     8113     8040     7981     7931 
    7889     7850     7817     7785     7740     7704     7697     7697 
    7685     7668     7657     7666     7682     7676     7673     7700 
    7731     7740     7727     7723     7761     7804     7813     7801 
    7798     7824     7875     7903     7888     7896     7954     7992 
    8016     8078     8125     8125     8182     8303     8352     8359 
    8463     8599     8627     8650     8773     8873     8910     9008 
    9119     9131     9166     9288     9362     9377     9444     9529 
    9541     9525     9580     9664     9661     9640     9679     9675 
    9624     9666     9720     9652     9590     9620     9634     9583 
    9532     9517     9497     9452     9421     9398     9342     9283 
    9278     9265     9175     9117     9143     9101     9003     8991 
    8986     8928     8912     8916     8872     8822     8816     8846 
    8837     8787     8803     8834     8795     8791     8865     8891 
    8878     8889     8905     8939     8993     9024     9034     9045 
    9065     9104     9139     9147     9158     9178     9186     9190 
    9207     9219     9207     9193     9193     9189     9175     9158 
    9135     9109     9078     9043     9020     9004     8955     8893 
    8869     8862     8823     8770     8738     8708     8660     8599 
    8556     8525     8459     8378     8336     8276     8176     8113 
    8066     7964     7865     7819     7751     7638     7558     7515 
    7453     7362     7283     7229     7167     7098     7098     7117 
    7032     6929     6960     7021     6997     6967     6982     7006 
    7041     7084     7122     7149     7172     7226     7312     7371 
    7403     7460     7533     7603     7689     7776     7827     7878 
    7973     8073     8144     8212     8302     8380     8441     8520 
    8610     8692     8776     8860     8947     9035     9116     9196 
    9281     9360     9435     9513     9599     9683     9760     9846 
    9927     9981    10030    10116    10230    10304    10311    10323 
   10392    10480    10534    10544    10540    10551    10580    10617 
   10632    10608    10569    10555    10561    10543    10501    10463 
   10420    10366    10323    10296    10254    10172    10080    10012 
    9949     9869     9798     9726     9617     9497     9406     9321 
    9213     9109     9019     8910     8775     8650     8559     8471 
    8349     8220     8120     8027     7915     7812     7736     7655 
    7543     7444     7396     7348     7264     7190     7160     7132 
    7084     7055     7063     7065     7045     7025     7037     7080 
    7127     7157     7172     7198     7254     7326     7389     7442 
    7484     7537     7623     7713     7773     7823     7901     7996 
    8075     8148     8220     8290     8375     8464     8536     8618 
    8710     8775     8823     8900     9008     9090     9123     9167 
    9255     9331     9367     9402     9458     9508     9528     9556 
    9605     9624     9617     9634     9670     9662     9628     9634 
    9668     9659     9616     9595     9590     9563     9536     9530 
    9513     9452     9404     9404     9388     9332     9274     9236 
    9194     9136     9090     9051     8996     8935     8884     8847 
    8815     8776     8742     8716     8688     8658     8650     8658 
    8669     8673     8660     8642     8654     8688     8700     8684 
    8679     8692     8694     8677     8679     8703     8706     8671 
    8657     8700     8750     8742     8699     8711     8781     8824 
    8816     8823     8870     8908     8919     8942     8985     9023 
    9053     9073     9077     9071     9099     9171     9216     9180 
    9144     9186     9256     9279     9274     9277     9282     9297 
    9324     9337     9339     9347     9358     9344     9320     9337 
    9359     9312     9244     9244     9263     9204     9101     9062 
    9074     9024     8915     8843     8826     8797     8730     8657 
    8606     8568     8538     8509     8471     8428     8391     8390 
    8411     8397     8351     8344     8382     8414     8424     8433 
    8454     8484     8517     8556     8596     8626     8645     8684 
    8735     8753     8768     8822     8888     8907     8891     8918 
    8988     9027     9020     9015     9047     9103     9113     9085 
    9096     9151     9175     9147     9123     9136     9173     9194 
    9169     9121     9127     9175     9190     9161     9150     9161 
    9157     9177     9223     9213     9163     9177     9248     9256 
    9193     9193     9281     9308     9227     9185     9243     9274 
    9234     9220     9251     9242     9189     9202     9265     9242 
    9165     9175     9243     9234     9137     9094     9154     9189 
    9123     9042     9027     9046     9036     9001     8978     8959 
    8931     8922     8928     8924     8910     8896     8883     8881 
    8895     8903     8908     8922     8918     8907     8941     9000 
    9027     9035     9069     9113     9140     9178     9240     9285 
    9321     9366     9391     9418     9475     9512     9521     9563 
    9613     9609     9612     9668     9711     9710     9709     9711 
    9714     9741     9767     9742     9698     9686     9702     9703 
    9667     9607     9560     9567     9575     9490     9382     9385 
    9418     9352     9246     9217     9217     9169     9101     9040 
    8996     8972     8939     8881     8820     8764     8703     8655 
    8645     8622     8522     8437     8457     8459     8365     8302 
    8322     8302     8215     8172     8186     8181     8137     8090 
    8060     8058     8055     8017     7985     7990     7962     7892 
    7879     7916     7889     7830     7843     7870     7823     7774 
    7811     7877     7896     7881     7878     7900     7950     8021 
    8071     8082     8117     8213     8294     8317     8364     8477 
    8576     8621     8679     8772     8858     8943     9038     9103 
    9142     9211     9316     9405     9466     9514     9553     9601 
    9675     9734     9755     9795     9872     9913     9907     9925 
    9969    10003    10031    10052    10037    10010    10025    10062 
   10054    10008     9989     9998     9977     9931     9923     9925 
    9876     9823     9811     9810     9804     9776     9720     9670 
    9670     9699     9679     9603     9562     9574     9576     9524 
    9475     9471     9454     9406     9383     9391     9374     9321 
    9290     9320     9350     9308     9243     9250     9296     9290 
    9242     9234     9265     9258     9188     9144     9178     9194 
    9139     9063     9020     9024     9016     8950     8872     8818 
    8776     8733     8677     8603     8533     8486     8428     8352 
    8290     8251     8201     8121     8055     8025     7989     7925 
    7874     7859     7840     7798     7754     7719     7703     7699 
    7690     7680     7662     7634     7626     7642     7662     7670 
    7652     7632     7657     7700     7695     7668     7668     7682 
    7693     7704     7701     7685     7684     7707     7731     7736 
    7730     7732     7751     7784     7816     7827     7830     7850 
    7889     7925     7963     8009     8047     8077     8131     8202 
    8245     8276     8322     8382     8449     8513     8572     8637 
    8714     8799     8858     8896     8965     9073     9169     9223 
    9270     9363     9467     9516     9551     9632     9720     9769 
    9802     9837     9879     9923     9971    10011    10015     9996 
   10004    10046    10068    10042    10007    10010    10026     9999 
    9949     9936     9933     9910     9876     9819     9771     9778 
    9796     9755     9656     9578     9563     9563     9525     9452 
    9385     9348     9300     9213     9142     9101     9059     8992 
    8896     8789     8700     8652     8627     8557     8421     8301 
