Origin Time       2016/04/16 01:25:00
Lat.              32.753
Long.             130.762
Depth. (km)       12
Mag.              7.3
Station Code      KYT006
Station Lat.      35.2759
Station Long.     135.1827
Station Height(m) 72
Record Time       2016/04/16 01:27:37
Sampling Freq(Hz) 100Hz
Duration Time(s)  60
Dir.              E-W
Scale Factor      7845(gal)/8223790
Max. Acc. (gal)   1.180
Last Correction   2016/04/16 01:27:38
Memo.             
[...]
   -3902    -3917    -3919    -3921    -3943    -3963    -3983    -4014 
   -4036    -4052    -4066    -4081    -4094    -4106    -4113    -4105 
   -4083    -4063    -4040    -4014    -3990    -3951    -3901    -3861 
   -3827    -3790    -3759    -3728    -3693    -3661    -3642    -3634 
   -3631    -3636    -3642    -3645    -3655    -3680    -3709    -3744 
   -3780    -3811    -3835    -3861    -3892    -3920    -3940    -3956 
   -3967    -3974    -3977    -3965    -3947    -3935    -3916    -3880 
   -3847    -3825    -3793    -3757    -3736    -3719    -3697    -3686 
   -3681    -3674    -3674    -3690    -3709    -3721    -3728    -3740 
   -3757    -3784    -3805    -3820    -3840    -3861    -3869    -3883 
   -3920    -3948    -3960    -3977    -4000    -4014    -4031    -4058 
   -4081    -4088    -4095    -4106    -4125    -4145    -4153    -4158 
   -4180    -4192    -4182    -4190    -4214    -4220    -4213    -4213 
   -4212    -4205    -4197    -4195    -4194    -4182    -4159    -4144 
   -4144    -4140    -4122    -4114    -4120    -4110    -4098    -4104 
   -4110    -4106    -4109    -4121    -4140    -4156    -4168    -4180 
   -4200    -4215    -4228    -4251    -4266    -4278    -4295    -4320 
   -4334    -4337    -4342    -4360    -4371    -4365    -4360    -4356 
   -4349    -4342    -4327    -4295    -4266    -4251    -4228    -4192 
   -4155    -4125    -4102    -4083    -4060    -4028    -4008    -4005 
   -3998    -3986    -3983    -3991    -4006    -4025    -4044    -4066 
   -4095    -4133    -4178    -4222    -4268    -4317    -4367    -4418 
   -4469    -4509    -4540    -4573    -4606    -4627    -4635    -4642 
   -4646    -4649    -4641    -4618    -4602    -4594    -4571    -4541 
   -4523    -4506    -4477    -4457    -4444    -4422    -4402    -4392 
   -4382    -4374    -4369    -4360    -4351    -4351    -4348    -4337 
   -4324    -4307    -4286    -4260    -4230    -4197    -4159    -4121 
   -4087    -4044    -4000    -3971    -3951    -3924    -3893    -3878 
   -3877    -3874    -3873    -3879    -3888    -3896    -3906    -3921 
   -3946    -3964    -3977    -4001    -4027    -4029    -4033    -4059 
   -4071    -4060    -4051    -4047    -4039    -4021    -3998    -3974 
   -3951    -3932    -3904    -3873    -3847    -3828    -3808    -3785 
   -3763    -3748    -3743    -3736    -3724    -3717    -3716    -3715 
   -3721    -3734    -3736    -3736    -3751    -3771    -3785    -3798 
   -3815    -3825    -3840    -3858    -3869    -3874    -3885    -3886 
   -3875    -3879    -3890    -3880    -3867    -3861    -3850    -3838 
   -3836    -3832    -3825    -3827    -3825    -3824    -3840    -3859 
   -3873    -3893    -3924    -3959    -3997    -4035    -4071    -4102 
   -4137    -4170    -4189    -4212    -4237    -4245    -4243    -4252 
   -4253    -4238    -4225    -4212    -4183    -4151    -4121    -4082 
   -4036    -4000    -3964    -3916    -3869    -3828    -3784    -3746 
   -3716    -3685    -3661    -3647    -3636    -3639    -3661    -3682 
   -3704    -3740    -3790    -3842    -3906    -3984    -4058    -4129 
   -4209    -4287    -4355    -4423    -4487    -4533    -4573    -4614 
   -4635    -4644    -4648    -4644    -4621    -4587    -4553    -4517 
   -4473    -4426    -4375    -4322    -4274    -4228    -4185    -4148 
   -4122    -4101    -4081    -4060    -4045    -4045    -4058    -4074 
   -4085    -4093    -4106    -4122    -4139    -4152    -4162    -4168 
   -4185    -4197    -4195    -4192    -4197    -4202    -4212    -4230 
   -4248    -4271    -4293    -4310    -4330    -4363    -4407    -4448 
   -4483    -4519    -4556    -4588    -4622    -4650    -4668    -4685 
   -4700    -4707    -4708    -4703    -4689    -4676    -4661    -4646 
   -4627    -4606    -4592    -4580    -4568    -4554    -4545    -4544 
   -4545    -4541    -4541    -4550    -4557    -4556    -4565    -4579 
   -4581    -4583    -4592    -4602    -4606    -4606    -4598    -4590 
   -4587    -4581    -4568    -4560    -4554    -4542    -4522    -4502 
   -4482    -4467    -4459    -4437    -4405    -4387    -4380    -4368 
   -4353    -4342    -4325    -4305    -4297    -4297    -4295    -4293 
   -4293    -4288    -4284    -4282    -4283    -4291    -4291    -4280 
   -4275    -4280    -4283    -4278    -4279    -4278    -4266    -4266 
   -4270    -4263    -4256    -4261    -4263    -4256    -4258    -4270 
   -4270    -4263    -4263    -4271    -4282    -4295    -4298    -4298 
   -4309    -4322    -4337    -4356    -4372    -4382    -4396    -4415 
   -4434    -4455    -4464    -4475    -4488    -4498    -4502    -4504 
   -4509    -4515    -4506    -4487    -4480    -4475    -4452    -4433 
   -4415    -4383    -4351    -4325    -4294    -4263    -4232    -4190 
   -4145    -4109    -4074    -4029    -3987    -3955    -3919    -3877 
   -3847    -3821    -3793    -3769    -3738    -3707    -3692    -3678 
   -3657    -3645    -3636    -3626    -3618    -3615    -3609    -3599 
   -3591    -3589    -3581    -3573    -3572    -3559    -3539    -3534 
   -3528    -3516    -3511    -3510    -3497    -3495    -3504    -3511 
   -3524    -3542    -3561    -3585    -3618    -3653    -3685    -3716 
   -3755    -3794    -3831    -3873    -3909    -3931    -3955    -3983 
   -4002    -4020    -4040    -4051    -4048    -4041    -4040    -4036 
   -4029    -4020    -4002    -3987    -3982    -3974    -3964    -3967 
   -3973    -3979    -3997    -4017    -4041    -4074    -4110    -4140 
   -4178    -4228    -4271    -4306    -4351    -4402    -4440    -4471 
   -4511    -4546    -4568    -4592    -4617    -4631    -4637    -4639 
   -4635    -4635    -4634    -4623    -4615    -4608    -4594    -4580 
   -4576    -4568    -4548    -4535    -4526    -4504    -4484    -4476 
   -4457    -4430    -4411    -4393    -4367    -4338    -4314    -4286 
   -4263    -4240    -4210    -4186    -4167    -4145    -4128    -4120 
   -4113    -4106    -4106    -4114    -4128    -4148    -4175    -4203 
   -4238    -4287    -4327    -4365    -4423    -4484    -4531    -4579 
   -4633    -4685    -4735    -4780    -4819    -4854    -4888    -4912 
   -4926    -4938    -4949    -4950    -4943    -4932    -4914    -4891 
   -4874    -4849    -4814    -4784    -4750    -4715    -4688    -4662 
   -4635    -4615    -4604    -4595    -4584    -4585    -4599    -4606 
   -4619    -4641    -4656    -4677    -4707    -4726    -4743    -4768 
   -4785    -4803    -4818    -4827    -4833    -4830    -4824    -4814 
   -4800    -4787    -4766    -4738    -4714    -4689    -4654    -4623 
   -4594    -4554    -4517    -4490    -4457    -4421    -4392    -4368 
   -4337    -4307    -4289    -4268    -4241    -4222    -4203    -4180 
   -4159    -4140    -4118    -4098    -4079    -4060    -4036    -4009 
   -3986    -3960    -3928    -3896    -3867    -3836    -3797    -3759 
   -3726    -3693    -3658    -3623    -3589    -3563    -3537    -3505 
   -3485    -3465    -3442    -3429    -3419    -3407    -3407    -3415 
   -3424    -3437    -3454    -3472    -3489    -3511    -3532    -3553 
   -3576    -3599    -3613    -3628    -3646    -3657    -3663    -3670 
   -3672    -3667    -3669    -3666    -3653    -3646    -3638    -3620 
   -3600    -3585    -3561    -3528    -3505    -3484    -3451    -3422 
   -3399    -3368    -3341    -3323    -3302    -3277    -3261    -3245 
   -3229    -3223    -3222    -3217    -3217    -3222    -3223    -3227 
   -3237    -3248    -3256    -3268    -3275    -3279    -3288    -3296 
   -3300    -3304    -3310    -3317    -3330    -3336    -3345    -3362 
   -3385    -3406    -3423    -3449    -3481    -3507    -3530    -3559 
   -3588    -3615    -3643    -3670    -3692    -3719    -3748    -3767 
   -3784    -3805    -3813    -3813    -3817    -3817    -3809    -3800 
   -3785    -3762    -3740    -3715    -3685    -3653    -3626    -3592 
   -3553    -3520    -3496    -3465    -3434    -3414    -3395    -3379 
   -3372    -3368    -3365    -3375    -3385    -3392    -3407    -3433 
   -3449    -3466    -3491    -3514    -3528    -3546    -3565    -3577 
   -3588    -3599    -3603    -3605    -3611    -3607    -3597    -3592 
   -3584    -3566    -3550    -3537    -3520    -3504    -3487    -3465 
   -3451    -3442    -3429    -3412    -3403    -3395    -3383    -3377 
   -3375    -3365    -3357    -3355    -3350    -3346    -3348    -3345 
   -3341    -3345    -3349    -3349    -3350    -3354    -3355    -3358 
   -3364    -3366    -3364    -3364    -3372    -3376    -3379    -3383 
   -3387    -3392    -3400    -3403    -3399    -3402    -3406    -3397 
   -3388    -3384    -3373    -3358    -3346    -3333    -3319    -3307 
   -3291    -3272    -3260    -3249    -3231    -3215    -3208    -3202 
   -3191    -3186    -3188    -3192    -3199    -3213    -3232    -3254 
   -3280    -3310    -3334    -3362    -3396    -3420    -3442    -3465 
   -3480    -3489    -3501    -3504    -3500    -3500    -3492    -3476 
   -3465    -3457    -3442    -3427    -3418    -3407    -3399    -3403 
   -3412    -3415    -3433    -3468    -3496    -3526    -3569    -3612 
   -3653    -3704    -3751    -3792    -3842    -3883    -3910    -3942 
   -3973    -3986    -3998    -4010    -4006    -3990    -3982    -3970 
   -3943    -3912    -3886    -3854    -3819    -3788    -3751    -3712 
   -3681    -3649    -3612    -3582    -3555    -3523    -3499    -3481 
   -3458    -3439    -3431    -3427    -3419    -3415    -3416    -3415 
   -3420    -3427    -3424    -3430    -3447    -3453    -3454    -3468 
   -3473    -3476    -3484    -3487    -3483    -3478    -3472    -3456 
   -3438    -3419    -3395    -3364    -3336    -3306    -3269    -3237 
   -3207    -3171    -3138    -3114    -3088    -3067    -3053    -3040 
   -3026    -3024    -3025    -3021    -3024    -3033    -3037    -3045 
   -3059    -3063    -3064    -3075    -3082    -3079    -3083    -3090 
   -3088    -3083    -3083    -3079    -3076    -3079    -3076    -3068 
   -3073    -3083    -3084    -3090    -3107    -3121    -3125    -3141 
   -3165    -3177    -3191    -3213    -3229    -3244    -3262    -3281 
   -3298    -3315    -3331    -3345    -3355    -3369    -3381    -3385 
   -3393    -3404    -3411    -3416    -3423    -3427    -3437    -3447 
   -3451    -3453    -3462    -3474    -3480    -3485    -3491    -3492 
   -3499    -3507    -3511    -3514    -3516    -3519    -3523    -3528 
   -3530    -3534    -3539    -3546    -3549    -3557    -3569    -3573 
   -3580    -3596    -3611    -3618    -3634    -3662    -3678    -3694 
   -3719    -3743    -3766    -3796    -3817    -3834    -3859    -3880 
   -3886    -3892    -3902    -3901    -3892    -3886    -3870    -3844 
   -3827    -3805    -3770    -3738    -3708    -3670    -3634    -3604 
   -3568    -3530    -3507    -3483    -3447    -3429    -3420    -3402 
   -3393    -3402    -3402    -3407    -3431    -3457    -3477    -3507 
   -3538    -3568    -3600    -3638    -3672    -3703    -3738    -3771 
   -3794    -3823    -3855    -3873    -3888    -3909    -3921    -3928 
   -3932    -3931    -3932    -3932    -3923    -3915    -3910    -3901 
   -3890    -3880    -3869    -3856    -3847    -3838    -3825    -3809 
   -3800    -3793    -3781    -3776    -3780    -3780    -3788    -3801 
   -3812    -3825    -3848    -3873    -3893    -3919    -3946    -3967 
   -3993    -4024    -4050    -4069    -4097    -4121    -4140    -4162 
   -4183    -4202    -4225    -4255    -4276    -4297    -4325    -4349 
   -4371    -4401    -4430    -4457    -4486    -4517    -4544    -4563 
   -4587    -4606    -4618    -4637    -4652    -4653    -4656    -4656 
   -4642    -4629    -4618    -4599    -4575    -4550    -4523    -4490 
   -4455    -4423    -4390    -4355    -4322    -4291    -4256    -4225 
   -4203    -4175    -4149    -4131    -4113    -4101    -4095    -4087 
   -4083    -4087    -4090    -4098    -4116    -4137    -4158    -4182 
   -4207    -4233    -4263    -4299    -4332    -4363    -4396    -4429 
   -4457    -4486    -4513    -4538    -4556    -4572    -4584    -4588 
   -4587    -4585    -4575    -4558    -4542    -4517    -4484    -4457 
   -4422    -4379    -4342    -4305    -4260    -4215    -4175    -4136 
   -4097    -4062    -4029    -3997    -3969    -3942    -3913    -3892 
   -3880    -3869    -3851    -3840    -3838    -3838    -3840    -3842 
   -3850    -3866    -3885    -3902    -3923    -3951    -3977    -3998 
   -4032    -4060    -4078    -4104    -4132    -4145    -4163    -4186 
   -4195    -4210    -4233    -4243    -4247    -4268    -4280    -4282 
   -4297    -4313    -4314    -4322    -4334    -4337    -4338    -4348 
   -4357    -4363    -4369    -4380    -4390    -4393    -4405    -4418 
   -4425    -4430    -4438    -4446    -4453    -4457    -4455    -4452 
   -4452    -4445    -4440    -4444    -4440    -4422    -4411    -4403 
   -4390    -4379    -4369    -4356    -4345    -4342    -4337    -4332 
   -4334    -4338    -4342    -4349    -4359    -4368    -4383    -4399 
   -4410    -4425    -4446    -4459    -4468    -4488    -4509    -4522 
   -4533    -4546    -4553    -4557    -4564    -4568    -4568    -4571 
   -4572    -4568    -4572    -4576    -4571    -4573    -4587    -4591 
   -4598    -4615    -4627    -4635    -4658    -4684    -4706    -4731 
   -4764    -4791    -4819    -4858    -4899    -4927    -4958    -5001 
   -5040    -5074    -5108    -5136    -5162    -5184    -5198    -5211 
   -5221    -5225    -5223    -5213    -5204    -5190    -5171    -5159 
   -5140    -5113    -5092    -5070    -5044    -5020    -4996    -4970 
   -4950    -4932    -4911    -4888    -4872    -4862    -4847    -4828 
   -4818    -4808    -4793    -4780    -4766    -4750    -4738    -4719 
   -4695    -4681    -4665    -4637    -4621    -4610    -4590    -4571 
   -4556    -4540    -4527    -4518    -4507    -4495    -4486    -4480 
   -4469    -4459    -4460    -4461    -4452    -4456    -4464    -4467 
   -4469    -4479    -4483    -4494    -4510    -4521    -4530    -4546 
   -4567    -4583    -4603    -4630    -4654    -4673    -4700    -4727 
   -4750    -4774    -4796    -4814    -4837    -4860    -4872    -4882 
   -4901    -4912    -4916    -4923    -4935    -4939    -4941    -4943 
   -4936    -4931    -4931    -4918    -4901    -4891    -4876    -4858 
   -4841    -4820    -4804    -4791    -4769    -4747    -4735    -4726 
   -4704    -4680    -4673    -4665    -4642    -4623    -4615    -4602 
   -4585    -4573    -4560    -4545    -4534    -4519    -4502    -4486 
   -4472    -4456    -4440    -4433    -4423    -4407    -4398    -4390 
   -4380    -4383    -4382    -4371    -4369    -4376    -4379    -4382 
   -4387    -4391    -4396    -4402    -4403    -4402    -4403    -4401 
   -4393    -4391    -4392    -4384    -4378    -4382    -4379    -4368 
   -4369    -4374    -4371    -4368    -4368    -4367    -4363    -4363 
   -4360    -4357    -4356    -4356    -4351    -4345    -4337    -4326 
   -4315    -4302    -4284    -4268    -4252    -4228    -4202    -4176 
   -4148    -4116    -4086    -4055    -4023    -3989    -3959    -3927 
   -3892    -3866    -3842    -3812    -3793    -3776    -3754    -3740 
   -3738    -3728    -3719    -3724    -3734    -3742    -3754    -3775 
   -3794    -3813    -3842    -3866    -3889    -3917    -3942    -3962 
   -3982    -4000    -4014    -4028    -4040    -4048    -4048    -4048 
   -4050    -4043    -4029    -4020    -4003    -3979    -3959    -3943 
   -3919    -3892    -3869    -3847    -3825    -3805    -3785    -3763 
   -3746    -3732    -3713    -3704    -3703    -3694    -3690    -3700 
   -3704    -3707    -3726    -3742    -3747    -3763    -3785    -3793 
   -3800    -3817    -3828    -3831    -3838    -3846    -3847    -3852 
   -3855    -3848    -3850    -3856    -3848    -3840    -3839    -3828 
   -3819    -3813    -3798    -3786    -3780    -3763    -3746    -3738 
   -3727    -3708    -3694    -3684    -3669    -3655    -3646    -3636 
   -3626    -3620    -3615    -3607    -3605    -3611    -3609    -3605 
   -3608    -3605    -3607    -3611    -3605    -3599    -3601    -3600 
   -3588    -3580    -3577    -3566    -3550    -3539    -3530    -3514 
   -3500    -3487    -3466    -3450    -3439    -3422    -3403    -3396 
   -3385    -3368    -3358    -3358    -3353    -3349    -3354    -3360 
   -3364    -3373    -3387    -3400    -3419    -3442    -3454    -3472 
   -3496    -3511    -3523    -3543    -3554    -3563    -3578    -3585 
   -3584    -3582    -3582    -3578    -3565    -3551    -3539    -3520 
   -3505    -3489    -3462    -3442    -3427    -3402    -3375    -3354 
   -3333    -3310    -3289    -3275    -3258    -3244    -3234    -3229 
   -3219    -3213    -3207    -3200    -3196    -3194    -3190    -3192 
   -3194    -3196    -3208    -3213    -3210    -3223    -3241    -3245 
   -3248    -3261    -3273    -3281    -3284    -3292    -3304    -3314 
   -3321    -3331    -3341    -3355    -3369    -3379    -3392    -3407 
   -3418    -3430    -3449    -3462    -3473    -3488    -3504    -3519 
   -3537    -3553    -3568    -3585    -3604    -3615    -3627    -3647 
   -3662    -3667    -3677    -3689    -3693    -3696    -3701    -3701 
   -3696    -3694    -3699    -3697    -3692    -3694    -3697    -3694 
   -3700    -3705    -3707    -3713    -3723    -3731    -3744    -3755 
   -3763    -3784    -3807    -3817    -3831    -3858    -3879    -3892 
   -3910    -3932    -3947    -3960    -3974    -3984    -3993    -4000 
   -4003    -4005    -4012    -4010    -3998    -3996    -4001    -3989 
   -3973    -3964    -3950    -3932    -3923    -3902    -3877    -3866 
   -3848    -3816    -3798    -3785    -3757    -3734    -3719    -3701 
   -3678    -3658    -3638    -3615    -3600    -3584    -3557    -3535 
   -3522    -3503    -3480    -3464    -3447    -3430    -3419    -3407 
   -3385    -3375    -3375    -3365    -3353    -3358    -3361    -3353 
   -3353    -3358    -3361    -3373    -3384    -3388    -3400    -3418 
   -3429    -3438    -3461    -3483    -3495    -3511    -3535    -3550 
   -3563    -3582    -3596    -3604    -3615    -3626    -3632    -3640 
   -3649    -3647    -3647    -3650    -3651    -3649    -3651    -3650 
   -3649    -3651    -3649    -3642    -3643    -3643    -3636    -3634 
   -3638    -3634    -3632    -3634    -3638    -3639    -3643    -3651 
   -3658    -3663    -3672    -3677    -3685    -3696    -3704    -3715 
   -3726    -3736    -3746    -3757    -3767    -3775    -3785    -3797 
   -3807    -3811    -3820    -3825    -3824    -3828    -3838    -3836 
   -3832    -3839    -3844    -3842    -3846    -3847    -3851    -3854 
   -3851    -3852    -3856    -3858    -3858    -3861    -3867    -3866 
   -3863    -3865    -3869    -3867    -3866    -3866    -3863    -3861 
   -3863    -3865    -3861    -3861    -3865    -3865    -3863    -3869 
   -3875    -3877    -3879    -3883    -3892    -3904    -3909    -3910 
   -3920    -3928    -3931    -3936    -3946    -3954    -3959    -3970 
   -3986    -3991    -3994    -4009    -4017    -4017    -4031    -4047 
   -4051    -4058    -4074    -4087    -4097    -4106    -4118    -4132 
   -4144    -4156    -4168    -4183    -4197    -4205    -4222    -4238 
   -4240    -4245    -4263    -4271    -4275    -4287    -4294    -4291 
