Origin Time       2016/04/16 01:25:00
Lat.              32.753
Long.             130.762
Depth. (km)       12
Mag.              7.3
Station Code      KYT011
Station Lat.      35.0170
Station Long.     135.5638
Station Height(m) 101
Record Time       2016/04/16 01:27:34
Sampling Freq(Hz) 100Hz
Duration Time(s)  90
Dir.              N-S
Scale Factor      7845(gal)/8223790
Max. Acc. (gal)   2.319
Last Correction   2016/04/16 01:27:34
Memo.             
[...]
    3963     3974     3974     3971     3989     4009     4008     4014 
    4044     4055     4033     4029     4062     4081     4060     4041 
    4054     4064     4047     4024     4017     4014     3998     3977 
    3955     3932     3912     3888     3859     3832     3804     3774 
    3743     3715     3697     3670     3634     3611     3596     3577 
    3547     3526     3519     3501     3476     3462     3451     3433 
    3406     3388     3379     3358     3339     3327     3312     3303 
    3300     3292     3283     3275     3269     3262     3258     3264 
    3269     3264     3258     3265     3275     3275     3267     3268 
    3273     3268     3262     3265     3265     3262     3262     3261 
    3257     3258     3264     3262     3264     3279     3296     3304 
    3316     3341     3369     3384     3392     3415     3445     3469 
    3492     3516     3538     3559     3580     3597     3615     3639 
    3658     3667     3681     3704     3723     3736     3750     3770 
    3788     3797     3809     3831     3844     3850     3863     3885 
    3893     3893     3909     3931     3932     3932     3943     3954 
    3959     3967     3975     3975     3981     4000     4010     4014 
    4031     4055     4069     4077     4095     4120     4126     4125 
    4133     4147     4151     4147     4149     4159     4158     4145 
    4139     4133     4128     4120     4105     4090     4079     4064 
    4043     4021     4013     3998     3969     3946     3932     3913 
    3885     3861     3847     3828     3798     3770     3746     3721 
    3697     3674     3653     3632     3605     3584     3566     3551 
    3538     3523     3505     3497     3499     3500     3491     3480 
    3485     3495     3492     3487     3492     3500     3496     3497 
    3507     3511     3514     3523     3530     3537     3541     3543 
    3542     3543     3551     3558     3550     3547     3558     3562 
    3559     3565     3573     3573     3572     3584     3599     3600 
    3600     3609     3619     3618     3615     3618     3622     3622 
    3622     3618     3612     3619     3628     3630     3632     3643 
    3650     3653     3667     3686     3694     3694     3700     3715 
    3732     3736     3738     3754     3773     3776     3780     3793 
    3805     3804     3801     3808     3812     3809     3802     3790 
    3780     3776     3767     3746     3728     3719     3700     3669 
    3651     3642     3623     3593     3568     3554     3538     3511 
    3492     3478     3458     3437     3419     3402     3384     3365 
    3341     3315     3299     3284     3254     3219     3199     3187 
    3169     3150     3146     3149     3138     3127     3138     3149 
    3148     3148     3161     3180     3190     3198     3210     3223 
    3246     3265     3271     3283     3307     3327     3336     3349 
    3375     3397     3402     3404     3426     3450     3457     3459 
    3478     3492     3492     3492     3492     3496     3503     3499 
    3491     3496     3507     3511     3508     3508     3524     3538 
    3542     3550     3573     3592     3595     3604     3634     3657 
    3665     3680     3704     3717     3719     3727     3738     3742 
    3743     3742     3732     3728     3730     3717     3699     3689 
    3684     3669     3650     3645     3643     3624     3605     3599 
    3593     3585     3572     3557     3541     3526     3516     3497 
    3477     3468     3453     3433     3416     3407     3402     3388 
    3372     3366     3366     3361     3355     3358     3365     3361 
    3355     3364     3372     3372     3369     3372     3373     3372 
    3373     3380     3383     3385     3393     3396     3399     3412 
    3430     3434     3435     3450     3468     3476     3489     3510 
    3524     3534     3541     3554     3568     3573     3581     3591 
    3589     3588     3592     3596     3595     3599     3605     3601 
    3604     3618     3623     3620     3628     3642     3650     3653 
    3667     3680     3682     3693     3717     3734     3743     3759 
    3782     3801     3813     3828     3847     3861     3877     3892 
    3899     3908     3917     3924     3931     3936     3946     3951 
    3947     3940     3939     3937     3929     3916     3910     3905 
    3889     3877     3871     3861     3851     3846     3840     3831 
    3825     3823     3813     3804     3804     3801     3792     3782 
    3775     3771     3762     3747     3740     3732     3719     3717 
    3716     3701     3686     3686     3688     3677     3670     3674 
    3672     3669     3673     3678     3678     3677     3681     3680 
    3667     3667     3677     3670     3653     3653     3659     3650 
    3640     3649     3651     3640     3634     3639     3638     3628 
    3619     3613     3600     3584     3569     3553     3538     3519 
    3496     3477     3459     3447     3439     3420     3400     3393 
    3387     3372     3358     3358     3358     3345     3338     3345 
    3343     3338     3335     3341     3350     3360     3372     3380 
    3388     3407     3430     3438     3451     3484     3510     3519 
    3535     3569     3596     3608     3623     3645     3659     3674 
    3690     3703     3711     3727     3754     3769     3775     3793 
    3815     3828     3847     3867     3880     3886     3897     3917 
    3924     3925     3935     3943     3937     3928     3931     3940 
    3932     3919     3916     3917     3910     3901     3896     3890 
    3879     3873     3863     3844     3828     3819     3796     3763 
    3735     3719     3699     3667     3642     3611     3565     3535 
    3516     3483     3438     3402     3376     3345     3304     3273 
    3250     3219     3190     3165     3144     3122     3102     3084 
    3063     3042     3038     3037     3019     2999     2995     2995 
    2986     2979     2983     2982     2974     2980     2999     3007 
    3010     3028     3052     3068     3094     3127     3160     3199 
    3242     3280     3319     3365     3424     3474     3510     3557 
    3615     3667     3712     3763     3817     3863     3902     3956 
    4017     4066     4107     4153     4197     4243     4287     4332 
    4365     4395     4434     4467     4484     4506     4531     4552 
    4568     4590     4606     4619     4626     4633     4639     4645 
    4649     4648     4641     4626     4618     4615     4595     4571 
    4550     4521     4483     4449     4418     4371     4313     4268 
    4225     4164     4101     4050     3996     3928     3865     3819 
    3766     3707     3659     3607     3547     3500     3459     3415 
    3373     3335     3298     3252     3208     3179     3148     3111 
    3087     3067     3042     3015     2997     2988     2979     2959 
    2947     2945     2937     2920     2903     2898     2894     2887 
    2875     2863     2862     2862     2853     2840     2832     2829 
    2822     2814     2813     2814     2811     2813     2821     2835 
    2848     2866     2898     2930     2959     2995     3042     3092 
    3148     3207     3271     3336     3411     3487     3555     3622 
    3699     3774     3832     3885     3954     4024     4072     4110 
    4159     4213     4255     4288     4320     4355     4391     4426 
    4450     4473     4509     4544     4561     4580     4610     4634 
    4649     4665     4685     4692     4684     4689     4704     4702 
    4684     4672     4664     4648     4622     4596     4568     4531 
    4490     4444     4401     4360     4318     4263     4200     4152 
    4116     4063     3993     3932     3883     3835     3776     3713 
    3651     3585     3518     3456     3388     3319     3258     3203 
    3145     3082     3021     2975     2928     2878     2832     2791 
    2759     2731     2695     2656     2625     2608     2589     2563 
    2552     2555     2551     2543     2551     2575     2594     2604 
    2624     2655     2683     2708     2733     2755     2772     2801 
    2833     2855     2872     2895     2915     2928     2940     2970 
    3002     3017     3032     3057     3071     3083     3099     3114 
    3126     3140     3153     3167     3173     3177     3191     3206 
    3215     3215     3222     3241     3257     3268     3277     3284 
    3302     3326     3339     3341     3350     3372     3385     3388 
    3403     3415     3407     3419     3442     3445     3447     3468 
    3484     3488     3505     3542     3568     3586     3622     3655 
    3685     3727     3778     3825     3861     3898     3955     3997 
    4014     4063     4136     4175     4190     4232     4287     4320 
    4344     4380     4410     4437     4473     4496     4513     4537 
    4558     4576     4598     4617     4627     4637     4650     4662 
    4683     4696     4691     4689     4700     4702     4692     4680 
    4672     4661     4634     4595     4553     4518     4488     4449 
    4392     4333     4288     4248     4192     4144     4106     4059 
    4006     3965     3935     3896     3855     3828     3813     3789 
    3763     3748     3740     3728     3709     3700     3712     3726 
    3716     3700     3711     3744     3757     3740     3740     3771 
    3798     3792     3769     3773     3801     3812     3798     3793 
    3807     3821     3820     3813     3816     3838     3866     3869 
    3855     3865     3892     3910     3921     3931     3943     3959 
    3979     3991     3991     3998     4024     4050     4058     4048 
    4060     4093     4102     4090     4093     4106     4117     4124 
    4133     4144     4159     4183     4192     4191     4217     4258 
    4275     4280     4298     4317     4332     4349     4365     4376 
    4388     4405     4418     4428     4433     4438     4453     4469 
    4471     4464     4476     4492     4486     4469     4469     4475 
    4464     4446     4417     4387     4372     4349     4301     4248 
    4213     4170     4097     4028     3983     3927     3852     3781 
    3707     3627     3554     3481     3410     3349     3292     3222 
    3150     3099     3060     3022     2979     2941     2918     2896 
    2866     2852     2860     2867     2860     2862     2882     2899 
    2915     2947     2976     2998     3024     3045     3061     3088 
    3118     3137     3145     3161     3194     3227     3246     3257 
    3288     3336     3372     3399     3439     3489     3532     3573 
    3623     3676     3730     3789     3825     3844     3905     3989 
    4023     4031     4072     4131     4176     4205     4228     4261 
    4317     4369     4387     4391     4436     4500     4533     4538 
    4561     4606     4638     4656     4681     4699     4693     4685 
    4681     4683     4681     4661     4625     4594     4568     4527 
    4463     4399     4357     4314     4241     4143     4063     4010 
    3946     3861     3771     3693     3638     3576     3478     3388 
    3355     3339     3264     3149     3088     3086     3071     3014 
    2945     2914     2907     2893     2871     2849     2826     2820 
    2828     2830     2840     2876     2901     2884     2905     3001 
    3061     3037     3052     3165     3249     3225     3225     3341 
    3451     3462     3454     3507     3600     3677     3711     3713 
    3744     3834     3904     3899     3905     3981     4060     4064 
    4032     4050     4124     4192     4205     4174     4175     4245 
    4311     4320     4309     4324     4367     4403     4405     4383 
    4387     4431     4438     4365     4311     4342     4365     4310 
    4217     4153     4133     4118     4063     3958     3859     3825 
    3794     3694     3588     3530     3478     3407     3330     3248 
    3169     3123     3096     3025     2932     2893     2878     2824 
    2771     2758     2743     2708     2687     2673     2662     2690 
    2721     2708     2688     2714     2754     2770     2783     2817 
    2848     2867     2895     2928     2961     3010     3071     3113 
    3125     3156     3231     3306     3353     3391     3419     3465 
    3549     3618     3631     3640     3703     3782     3823     3842 
    3877     3923     3960     3990     4024     4058     4097     4147 
    4162     4158     4200     4266     4295     4305     4329     4363 
    4392     4419     4438     4448     4475     4515     4529     4518 
    4517     4533     4553     4549     4510     4477     4476     4480 
    4438     4355     4297     4288     4266     4195     4118     4063 
    4017     3977     3937     3880     3812     3773     3762     3746 
    3726     3712     3709     3708     3701     3707     3730     3762 
    3797     3824     3842     3844     3858     3919     3975     3983 
    3996     4035     4074     4105     4125     4143     4166     4190 
    4217     4252     4266     4245     4256     4321     4351     4330 
    4334     4371     4398     4399     4402     4433     4464     4486 
    4502     4522     4546     4579     4615     4652     4687     4729 
    4772     4799     4827     4899     4981     5024     5044     5070 
    5116     5185     5251     5290     5313     5341     5391     5443 
    5474     5503     5557     5623     5680     5707     5717     5753 
    5834     5908     5925     5929     5981     6023     6014     6044 
    6096     6079     6065     6083     6050     6011     6018     6019 
    5977     5896     5856     5849     5780     5699     5663     5590 
    5487     5409     5329     5228     5120     5009     4895     4773 
    4652     4513     4360     4240     4120     3951     3782     3666 
    3558     3407     3241     3121     3022     2899     2775     2674 
    2587     2500     2405     2332     2289     2250     2195     2104 
    2031     2045     2057     1995     1935     1912     1869     1823 
    1842     1887     1841     1742     1729     1771     1772     1781 
    1806     1772     1733     1791     1863     1838     1826     1927 
    2014     1984     1981     2097     2168     2185     2342     2488 
    2419     2416     2682     2902     2875     2840     2992     3217 
    3353     3426     3511     3588     3688     3880     4055     4101 
    4143     4266     4382     4468     4580     4685     4725     4750 
    4846     4946     4972     4997     5078     5125     5120     5148 
    5209     5225     5215     5239     5270     5273     5277     5298 
    5314     5305     5302     5323     5339     5346     5347     5325 
    5296     5296     5316     5321     5310     5304     5271     5205 
    5194     5255     5255     5163     5109     5138     5143     5084 
    5038     5020     4966     4892     4860     4839     4772     4693 
    4639     4557     4468     4444     4429     4329     4205     4159 
    4151     4091     4021     3982     3919     3836     3811     3817 
    3780     3708     3665     3650     3624     3604     3608     3600 
    3562     3539     3554     3574     3569     3555     3555     3549 
    3543     3562     3584     3566     3534     3538     3551     3524 
    3477     3457     3472     3456     3372     3298     3280     3276 
    3249     3179     3076     3010     3007     3002     2941     2859 
    2795     2751     2748     2772     2721     2621     2605     2668 
    2681     2628     2627     2693     2724     2698     2706     2791 
    2891     2911     2884     2938     3071     3152     3153     3179 
    3284     3381     3400     3422     3507     3585     3619     3657 
    3708     3731     3763     3851     3916     3875     3838     3913 
    4023     4025     3956     3960     4031     4045     4021     4035 
    4051     4017     3998     4039     4062     4017     3979     3975 
    3954     3931     3944     3932     3847     3782     3794     3781 
    3678     3569     3539     3547     3487     3348     3240     3225 
    3241     3186     3040     2920     2911     2940     2890     2759 
    2658     2636     2632     2606     2554     2474     2404     2382 
    2394     2396     2357     2296     2259     2263     2263     2222 
    2184     2201     2231     2215     2178     2172     2207     2262 
    2305     2297     2246     2250     2365     2466     2427     2338 
    2378     2516     2562     2508     2498     2565     2609     2610 
    2624     2655     2678     2706     2724     2710     2724     2813 
    2887     2848     2787     2852     2970     2979     2932     2964 
    3052     3079     3037     3033     3100     3171     3196     3179 
    3169     3213     3275     3307     3308     3292     3308     3375 
    3430     3422     3392     3415     3481     3508     3492     3495 
    3526     3543     3535     3542     3572     3582     3578     3585 
    3588     3576     3559     3573     3608     3600     3547     3511 
    3526     3559     3539     3465     3426     3442     3442     3387 
    3326     3307     3303     3249     3168     3130     3119     3073 
    2986     2886     2825     2806     2754     2647     2569     2542 
    2469     2365     2350     2369     2289     2196     2214     2234 
    2178     2165     2226     2232     2185     2201     2285     2338 
    2340     2369     2461     2535     2551     2598     2724     2825 
    2844     2890     3010     3119     3156     3184     3283     3395 
    3435     3450     3507     3591     3650     3680     3719     3763 
    3790     3820     3870     3913     3936     3946     3951     3965 
    3997     4021     4032     4035     4031     4024     4032     4058 
    4059     4025     4002     4000     3983     3946     3917     3917 
    3910     3870     3813     3775     3770     3757     3701     3658 
    3645     3593     3511     3466     3442     3388     3312     3241 
    3172     3115     3056     2983     2914     2839     2764     2724 
    2677     2600     2529     2490     2463     2400     2308     2276 
    2286     2245     2158     2106     2101     2089     2039     1999 
    1991     1973     1948     1945     1945     1919     1899     1912 
    1938     1949     1935     1918     1952     2012     2030     2023 
    2052     2104     2134     2144     2188     2257     2292     2290 
    2307     2374     2448     2457     2439     2484     2559     2592 
    2601     2635     2674     2700     2759     2851     2882     2836 
    2839     2976     3129     3134     3044     3038     3164     3306 
    3339     3261     3207     3284     3407     3406     3314     3289 
    3345     3364     3322     3284     3277     3272     3245     3204 
    3173     3156     3137     3092     3044     3029     3033     3019 
    2988     2964     2947     2947     2978     3003     2965     2918 
    2956     3041     3083     3063     3026     3037     3121     3231 
    3264     3191     3157     3268     3403     3426     3391     3400 
    3443     3485     3550     3613     3609     3562     3565     3640 
    3716     3738     3704     3639     3615     3703     3813     3793 
    3659     3591     3657     3731     3703     3626     3595     3601 
    3572     3501     3473     3518     3534     3440     3316     3302 
    3381     3412     3350     3267     3229     3249     3284     3300 
