Origin Time       2016/04/16 01:25:00
Lat.              32.753
Long.             130.762
Depth. (km)       12
Mag.              7.3
Station Code      KYT002
Station Lat.      35.6037
Station Long.     134.8941
Station Height(m) 3
Record Time       2016/04/16 01:27:28
Sampling Freq(Hz) 100Hz
Duration Time(s)  68
Dir.              N-S
Scale Factor      7845(gal)/8223790
Max. Acc. (gal)   2.703
Last Correction   2016/04/16 01:27:29
Memo.             
[...]
    1173     1161     1144     1135     1128     1119     1102     1084 
    1065     1048     1039     1028     1008      985      967      954 
     940      923      903      892      886      886      881      873 
     874      885      899      912      922      932      949      963 
     976      986      993     1004     1024     1047     1062     1063 
    1073     1093     1109     1120     1123     1129     1142     1151 
    1165     1170     1163     1166     1174     1183     1193     1196 
    1197     1204     1223     1248     1260     1263     1275     1287 
    1301     1312     1308     1298     1282     1262     1246     1223 
    1192     1170     1150     1129     1107     1081     1065     1057 
    1046     1039     1035     1034     1034     1035     1043     1050 
    1051     1059     1069     1084     1104     1119     1143     1179 
    1215     1254     1289     1321     1367     1416     1463     1514 
    1560     1603     1647     1687     1721     1749     1777     1814 
    1850     1876     1887     1898     1917     1942     1960     1960 
    1952     1946     1937     1918     1899     1873     1846     1821 
    1791     1752     1699     1651     1611     1570     1524     1479 
    1433     1395     1375     1356     1329     1304     1286     1279 
    1278     1273     1264     1259     1263     1273     1281     1289 
    1297     1312     1327     1332     1347     1364     1379     1394 
    1410     1418     1421     1425     1437     1447     1445     1445 
    1447     1439     1426     1422     1426     1426     1420     1409 
    1398     1387     1379     1374     1368     1367     1370     1371 
    1370     1362     1360     1366     1367     1372     1386     1391 
    1398     1412     1420     1428     1431     1435     1452     1475 
    1490     1493     1491     1498     1502     1493     1485     1476 
    1475     1480     1470     1451     1444     1436     1429     1428 
    1429     1426     1421     1420     1421     1417     1413     1409 
    1412     1420     1417     1405     1404     1404     1405     1405 
    1395     1383     1375     1360     1340     1314     1289     1269 
    1247     1228     1205     1175     1148     1129     1117     1107 
    1090     1078     1081     1086     1089     1094     1101     1116 
    1139     1165     1192     1216     1244     1275     1308     1344 
    1371     1401     1437     1464     1485     1509     1530     1553 
    1578     1597     1610     1625     1636     1644     1655     1660 
    1656     1653     1656     1653     1648     1641     1621     1605 
    1595     1580     1567     1554     1537     1522     1509     1497 
    1480     1457     1431     1408     1386     1367     1344     1312 
    1277     1237     1190     1151     1129     1115     1098     1071 
    1038     1015     1015     1019     1000      970      947      939 
     943      954      962      970      978      989     1009     1047 
    1104     1148     1171     1213     1266     1279     1290     1354 
    1410     1431     1471     1506     1513     1533     1564     1590 
    1610     1597     1580     1588     1586     1580     1599     1610 
    1598     1588     1583     1578     1567     1559     1574     1582 
    1557     1557     1583     1575     1570     1597     1613     1605 
    1599     1617     1636     1629     1628     1642     1636     1606 
    1594     1572     1533     1518     1509     1471     1424     1370 
    1313     1275     1247     1230     1224     1209     1179     1150 
    1146     1152     1169     1213     1247     1266     1321     1382 
    1421     1482     1567     1641     1705     1777     1875     1962 
    2023     2074     2115     2153     2200     2228     2238     2231 
    2211     2189     2135     2062     2000     1933     1857     1769 
    1675     1594     1509     1405     1302     1228     1169     1085 
    1003      953      905      862      827      803      807      828 
     851      859      880      946     1016     1071     1138     1216 
    1308     1405     1490     1552     1620     1705     1761     1803 
    1844     1864     1871     1877     1878     1867     1840     1804 
    1745     1690     1644     1570     1482     1395     1312     1230 
    1140     1067     1011      957      918      861      800      781 
     777      769      766      777      804      824      835      857 
     897      935      967     1017     1059     1089     1128     1146 
    1170     1206     1220     1229     1223     1198     1188     1178 
    1150     1093     1051     1039     1009      959      919      897 
     854      797      767      739      728      738      715      696 
     697      692      707      747      785      815      842      866 
     903      969     1024     1067     1139     1198     1205     1197 
    1230     1293     1314     1301     1286     1264     1259     1233 
    1177     1143     1104     1051      996      942      900      854 
     807      749      681      648      615      572      550      535 
     515      491      493      517      523      545      577      612 
     675      735      805      889      953     1017     1089     1166 
    1254     1327     1391     1457     1520     1587     1644     1683 
    1729     1779     1811     1825     1838     1850     1846     1838 
    1826     1806     1776     1746     1719     1692     1649     1593 
    1566     1580     1572     1499     1405     1375     1416     1433 
    1374     1304     1296     1341     1367     1355     1323     1313 
    1402     1485     1471     1468     1491     1528     1642     1759 
    1781     1798     1887     1998     2081     2126     2149     2205 
    2313     2427     2463     2432     2458     2535     2578     2565 
    2508     2504     2554     2497     2371     2301     2231     2133 
    2045     1939     1783     1641     1570     1494     1374     1252 
    1132     1011      907      830      767      704      672      645 
     585      532      503      517      575      591      579      629 
     704      770      831      885      980     1097     1190     1279 
    1358     1431     1534     1641     1744     1841     1898     1946 
    2016     2102     2199     2261     2288     2340     2388     2412 
    2455     2496     2519     2528     2540     2582     2619     2639 
    2659     2647     2654     2693     2710     2744     2783     2795 
    2820     2826     2837     2886     2909     2905     2902     2857 
    2802     2797     2806     2792     2749     2681     2594     2511 
    2461     2415     2328     2231     2147     2064     1958     1826 
    1702     1615     1502     1340     1240     1228     1185     1050 
     935      926      903      845      815      783      818      908 
     907      870      872      893      976     1073     1121     1185 
    1291     1367     1364     1337     1398     1516     1549     1571 
    1663     1680     1580     1490     1485     1533     1485     1317 
    1209     1206     1181     1077      918      757      654      604 
     557      444      291      209      164       63      -27      -35 
     -36      -83     -131     -126      -91      -82      -95      -79 
     -22       52      125      183      218      249      279      322 
     383      434      487      573      638      654      661      670 
     681      710      761      810      820      819      841      884 
     927      924      882      897      969     1008     1013     1013 
    1015     1036     1081     1123     1135     1140     1158     1179 
    1192     1182     1197     1233     1229     1209     1198     1167 
    1112     1053     1030     1042     1008      928      872      843 
     816      780      734      711      712      708      702      706 
     718      741      787      841      889      939      994     1063 
    1148     1250     1351     1437     1528     1622     1676     1723 
    1819     1927     2004     2064     2138     2212     2246     2241 
    2253     2281     2281     2270     2270     2251     2209     2157 
    2083     1984     1891     1823     1761     1676     1586     1499 
    1386     1260     1165     1094     1024      947      857      751 
     676      642      602      532      477      457      446      405 
     342      322      365      413      417      399      407      464 
     532      561      587      652      710      735      774      842 
     916      972      997     1000     1016     1059     1115     1155 
    1174     1183     1196     1225     1254     1274     1310     1344 
    1374     1431     1467     1453     1486     1575     1634     1676 
    1746     1817     1878     1949     2019     2089     2158     2227 
    2299     2371     2425     2455     2492     2527     2535     2533 
    2532     2506     2467     2419     2347     2286     2224     2123 
    2015     1911     1800     1706     1611     1493     1363     1242 
    1142     1051      965      890      820      747      679      635 
     623      633      643      649      648      656      708      789 
     870      945     1007     1067     1147     1240     1323     1394 
    1462     1514     1564     1632     1692     1714     1715     1729 
    1760     1779     1755     1702     1679     1695     1718     1702 
    1636     1568     1535     1516     1494     1486     1480     1464 
    1452     1444     1429     1425     1444     1479     1516     1551 
    1603     1664     1702     1728     1776     1852     1929     1996 
    2058     2119     2181     2235     2272     2301     2342     2384 
    2411     2421     2423     2421     2421     2411     2378     2331 
    2292     2254     2196     2110     2015     1939     1877     1807 
    1721     1629     1530     1420     1327     1269     1223     1171 
    1127     1097     1075     1053     1048     1077     1123     1166 
    1220     1298     1381     1453     1539     1641     1741     1845 
    1960     2065     2154     2235     2312     2388     2452     2497 
    2525     2538     2521     2482     2430     2365     2288     2196 
    2104     2001     1880     1742     1593     1445     1308     1178 
    1062      942      816      699      591      491      406      348 
     307      279      272      268      263      279      322      378 
     436      495      560      634      708      788      870      954 
    1053     1165     1270     1363     1441     1505     1574     1653 
    1734     1806     1861     1902     1930     1958     1992     2022 
    2033     2042     2062     2076     2065     2043     2031     2027 
    2019     2010     1996     1977     1966     1975     1991     2003 
    2019     2056     2118     2180     2227     2290     2376     2467 
    2556     2641     2728     2816     2899     2974     3049     3129 
    3207     3279     3348     3411     3464     3510     3551     3581 
    3596     3608     3619     3618     3600     3569     3530     3497 
    3469     3433     3381     3319     3258     3200     3142     3099 
    3076     3053     3015     2971     2934     2911     2901     2901 
    2906     2906     2910     2921     2924     2907     2887     2886 
    2893     2879     2853     2839     2833     2821     2786     2737 
    2688     2646     2606     2558     2505     2461     2413     2361 
    2309     2255     2205     2161     2114     2062     2014     1973 
    1949     1927     1900     1877     1852     1818     1779     1742 
    1718     1696     1669     1636     1595     1556     1517     1468 
    1414     1351     1287     1229     1174     1120     1063     1004 
     943      877      804      738      692      660      626      589 
     553      533      525      532      552      569      592      621 
     652      696      746      804      877      951     1019     1080 
    1142     1208     1266     1312     1355     1390     1410     1418 
    1405     1381     1356     1318     1271     1216     1155     1101 
    1044      990      943      889      831      783      751      731 
     714      700      699      711      741      784      831      885 
     946     1012     1085     1156     1216     1282     1362     1429 
    1471     1503     1528     1551     1572     1590     1579     1540 
    1501     1474     1431     1366     1286     1202     1117     1035 
     942      847      767      688      606      526      449      386 
     341      314      307      311      321      348      396      472 
     571      676      788      926     1074     1228     1387     1541 
    1701     1856     1998     2138     2272     2392     2493     2575 
    2641     2681     2690     2694     2690     2647     2570     2479 
    2378     2262     2118     1954     1783     1593     1402     1213 
    1017      815      612      429      268      116      -27     -144 
    -233     -298     -342     -360     -355     -325     -263     -178 
     -83       21      140      278      434      592      743      901 
    1062     1220     1368     1506     1632     1737     1826     1906 
    1962     1996     2011     2010     2004     1982     1935     1878 
    1814     1750     1696     1634     1570     1517     1474     1448 
    1436     1431     1443     1482     1543     1614     1701     1800 
    1919     2057     2200     2344     2489     2647     2816     2975 
    3137     3294     3435     3577     3730     3861     3963     4060 
    4140     4194     4240     4268     4263     4233     4195     4135 
    4044     3943     3820     3685     3553     3404     3240     3071 
    2902     2740     2578     2420     2280     2142     2015     1918 
    1836     1761     1703     1665     1658     1674     1699     1749 
    1814     1894     2006     2121     2239     2380     2525     2668 
    2821     2967     3103     3238     3376     3504     3622     3728 
    3815     3883     3947     4010     4051     4069     4081     4085 
    4072     4040     3996     3944     3888     3823     3750     3680 
    3603     3518     3433     3346     3264     3179     3088     3006 
    2930     2857     2776     2685     2604     2529     2450     2371 
    2295     2215     2133     2046     1952     1848     1742     1642 
    1541     1436     1327     1200     1074      955      827      700 
     584      469      352      233      129       39      -49     -121 
    -184     -236     -265     -303     -342     -351     -353     -356 
    -344     -337     -330     -298     -268     -240     -191     -156 
    -126      -83      -47        1       44       65      103      149 
     198      255      297      342      392      444      522      594 
     649      720      800      890      987     1080     1165     1254 
    1360     1466     1561     1664     1761     1852     1938     2020 
    2110     2209     2289     2347     2411     2474     2546     2623 
    2660     2685     2733     2772     2790     2795     2786     2790 
    2798     2783     2762     2740     2709     2666     2613     2565 
    2527     2477     2416     2362     2317     2276     2223     2158 
    2101     2057     2007     1946     1899     1871     1836     1794 
    1765     1753     1748     1738     1710     1684     1677     1679 
    1677     1675     1665     1647     1622     1595     1556     1518 
    1482     1437     1397     1358     1300     1229     1156     1081 
    1013      950      889      827      764      712      681      666 
     657      652      642      635      643      669      700      745 
     808      873      945     1032     1120     1198     1256     1304 
    1360     1426     1485     1518     1528     1528     1516     1491 
    1453     1397     1327     1255     1179     1094      996      877 
     751      629      518      418      311      199      106       32 
     -23      -65      -76      -65      -47      -14       23       71 
     144      246      373      513      652      792      938     1088 
    1248     1412     1566     1715     1856     1988     2111     2212 
    2289     2350     2413     2475     2513     2520     2496     2455 
    2415     2366     2296     2205     2104     1995     1878     1764 
    1647     1528     1416     1308     1212     1133     1084     1057 
    1047     1047     1057     1081     1128     1210     1314     1416 
    1525     1656     1809     1971     2123     2265     2401     2539 
    2681     2814     2924     3013     3090     3153     3213     3256 
    3271     3261     3227     3176     3114     3030     2925     2794 
    2655     2512     2354     2180     1999     1817     1638     1467 
    1302     1140      981      838      715      608      517      444 
     383      336      307      303      319      344      373      403 
     444      500      557      619      688      751      805      851 
     897      927      929      916      884      845      797      724 
     626      515      398      274      148       11     -129     -271 
    -409     -529     -635     -738     -831     -912     -974    -1017 
   -1046    -1067    -1067    -1043    -1012     -967     -900     -826 
    -749     -666     -569     -464     -356     -243     -131      -22 
      83      172      241      291      334      372      399      418 
     418      390      341      288      234      176      129       79 
      20      -44     -129     -233     -330     -411     -479     -526 
    -561     -591     -622     -668     -714     -738     -738     -718 
    -691     -660     -622     -581     -546     -514     -473     -414 
    -333     -241     -153      -71        2       71      126      170 
     210      245      283      322      349      368      383      395 
     406      414      418      414      400      370      334      288 
     236      180      121       60        5      -36      -67      -98 
    -122     -133     -136     -129     -110      -83      -47        1 
      59      122      191      268      348      433      521      614 
     712      805      888      958     1026     1088     1144     1192 
    1221     1237     1240     1233     1219     1189     1143     1089 
    1026      949      870      787      700      619      535      444 
     348      249      159       76       -8      -94     -180     -257 
    -330     -403     -471     -526     -583     -633     -676     -722 
    -762     -796     -827     -849     -868     -890     -913     -932 
    -946     -954     -967     -986    -1005    -1019    -1030    -1042 
   -1053    -1062    -1078    -1092    -1098    -1101    -1097    -1090 
   -1081    -1059    -1039    -1023     -994     -967     -938     -890 
    -843     -792     -733     -672     -616     -562     -502     -422 
    -340     -263     -191     -131      -78      -13       51      114 
     170      211      252      292      330      368      400      436 
     477      525      575      625      676      737      804      869 
     932     1003     1080     1158     1237     1317     1395     1471 
    1549     1625     1691     1755     1819     1883     1944     1995 
    2037     2066     2088     2102     2111     2114     2104     2085 
    2060     2023     1973     1911     1844     1779     1715     1645 
    1571     1494     1416     1339     1263     1200     1147     1094 
