Origin Time       2016/04/16 01:25:00
Lat.              32.753
Long.             130.762
Depth. (km)       12
Mag.              7.3
Station Code      KYT001
Station Lat.      35.7406
Station Long.     135.1022
Station Height(m) 11
Record Time       2016/04/16 01:27:34
Sampling Freq(Hz) 100Hz
Duration Time(s)  74
Dir.              E-W
Scale Factor      7845(gal)/8223790
Max. Acc. (gal)   2.384
Last Correction   2016/04/16 01:27:36
Memo.             
[...]
   -1090    -1101    -1109    -1116    -1123    -1131    -1139    -1146 
   -1154    -1161    -1166    -1174    -1181    -1183    -1188    -1194 
   -1198    -1196    -1196    -1198    -1194    -1190    -1189    -1188 
   -1182    -1174    -1165    -1158    -1155    -1148    -1138    -1129 
   -1121    -1115    -1112    -1104    -1094    -1086    -1081    -1078 
   -1074    -1067    -1065    -1060    -1053    -1048    -1043    -1036 
   -1031    -1026    -1016    -1007     -999     -992     -984     -974 
    -963     -949     -935     -924     -915     -903     -888     -873 
    -861     -850     -834     -816     -804     -791     -774     -761 
    -747     -735     -720     -702     -688     -677     -662     -643 
    -627     -616     -602     -587     -571     -553     -540     -525 
    -506     -491     -480     -468     -453     -441     -427     -410 
    -395     -386     -376     -365     -355     -344     -336     -328 
    -322     -321     -319     -314     -311     -310     -311     -315 
    -317     -324     -334     -338     -346     -363     -375     -390 
    -409     -427     -448     -471     -493     -519     -542     -571 
    -604     -634     -665     -697     -728     -760     -791     -823 
    -857     -895     -928     -955     -984    -1019    -1051    -1080 
   -1105    -1129    -1156    -1183    -1208    -1230    -1252    -1274 
   -1290    -1308    -1325    -1343    -1359    -1374    -1386    -1394 
   -1402    -1412    -1420    -1428    -1433    -1436    -1440    -1447 
   -1451    -1449    -1448    -1451    -1453    -1452    -1449    -1451 
   -1451    -1448    -1445    -1445    -1443    -1437    -1433    -1429 
   -1424    -1416    -1408    -1401    -1397    -1393    -1383    -1371 
   -1362    -1358    -1354    -1341    -1327    -1316    -1306    -1293 
   -1281    -1271    -1258    -1243    -1228    -1215    -1201    -1185 
   -1166    -1150    -1139    -1124    -1105    -1090    -1077    -1060 
   -1046    -1032    -1023    -1011    -1000     -987     -974     -965 
    -955     -946     -940     -932     -922     -912     -903     -899 
    -893     -885     -874     -864     -854     -846     -835     -823 
    -811     -797     -785     -774     -762     -749     -739     -728 
    -715     -710     -704     -689     -679     -673     -668     -664 
    -660     -656     -656     -654     -653     -656     -658     -661 
    -666     -670     -676     -685     -693     -702     -714     -723 
    -735     -749     -762     -776     -792     -810     -828     -847 
    -864     -877     -896     -919     -938     -955     -972     -990 
   -1011    -1028    -1048    -1069    -1081    -1096    -1112    -1125 
   -1139    -1155    -1167    -1171    -1178    -1188    -1197    -1204 
   -1208    -1209    -1212    -1216    -1219    -1221    -1220    -1215 
   -1213    -1216    -1216    -1212    -1206    -1204    -1204    -1202 
   -1197    -1192    -1189    -1188    -1183    -1177    -1173    -1170 
   -1165    -1159    -1155    -1146    -1136    -1129    -1125    -1117 
   -1101    -1086    -1075    -1063    -1051    -1036    -1017    -1000 
    -982     -962     -943     -924     -903     -880     -853     -832 
    -811     -785     -758     -730     -707     -683     -654     -627 
    -604     -579     -556     -530     -506     -486     -464     -445 
    -425     -411     -400     -386     -372     -363     -352     -344 
    -338     -328     -321     -322     -318     -309     -305     -305 
    -301     -292     -287     -286     -284     -279     -272     -266 
    -263     -259     -253     -246     -238     -232     -228     -222 
    -214     -206     -202     -198     -194     -190     -187     -183 
    -184     -191     -191     -195     -206     -216     -225     -241 
    -257     -276     -294     -318     -344     -363     -383     -418 
    -449     -479     -510     -540     -572     -607     -646     -680 
    -712     -746     -780     -816     -853     -884     -913     -945 
    -974    -1004    -1030    -1055    -1078    -1096    -1116    -1139 
   -1156    -1173    -1192    -1209    -1225    -1242    -1254    -1267 
   -1285    -1304    -1316    -1328    -1344    -1362    -1375    -1389 
   -1405    -1420    -1429    -1441    -1456    -1468    -1480    -1495 
   -1512    -1522    -1533    -1548    -1563    -1572    -1583    -1598 
   -1614    -1625    -1634    -1644    -1651    -1661    -1672    -1679 
   -1686    -1690    -1690    -1691    -1692    -1694    -1695    -1695 
   -1691    -1686    -1684    -1682    -1675    -1672    -1669    -1660 
   -1651    -1648    -1642    -1636    -1628    -1615    -1602    -1593 
   -1584    -1574    -1556    -1539    -1524    -1507    -1493    -1476 
   -1456    -1436    -1414    -1391    -1372    -1352    -1325    -1298 
   -1273    -1250    -1229    -1206    -1178    -1154    -1132    -1112 
   -1092    -1074    -1057    -1038    -1020    -1005     -994     -984 
    -970     -958     -953     -950     -942     -934     -935     -940 
    -939     -939     -942     -945     -950     -958     -963     -970 
    -977     -984     -986     -993    -1007    -1016    -1016    -1017 
   -1023    -1031    -1034    -1035    -1036    -1036    -1035    -1034 
   -1032    -1028    -1020    -1013    -1007     -997     -985     -973 
    -961     -945     -928     -911     -890     -873     -857     -835 
    -812     -791     -767     -745     -724     -704     -688     -670 
    -652     -635     -622     -610     -595     -583     -576     -573 
    -566     -561     -558     -553     -557     -562     -561     -557 
    -560     -568     -568     -564     -569     -571     -565     -564 
    -560     -550     -542     -533     -525     -511     -492     -471 
    -453     -434     -410     -386     -359     -324     -295     -271 
    -241     -206     -171     -140     -110      -81      -52      -21 
       5       29       51       71       90      109      121      126 
     131      137      139      136      126      114      103       87 
      65       40        9      -23      -59      -94     -135     -180 
    -230     -279     -328     -380     -434     -490     -548     -606 
    -664     -723     -781     -834     -890     -947     -996    -1047 
   -1097    -1143    -1185    -1230    -1271    -1310    -1345    -1379 
   -1409    -1437    -1467    -1494    -1517    -1539    -1557    -1576 
   -1597    -1613    -1625    -1640    -1657    -1674    -1687    -1702 
   -1717    -1733    -1749    -1765    -1781    -1802    -1821    -1837 
   -1852    -1875    -1895    -1910    -1925    -1941    -1956    -1971 
   -1981    -1992    -2006    -2015    -2020    -2023    -2026    -2029 
   -2030    -2029    -2025    -2019    -2010    -1999    -1989    -1979 
   -1964    -1949    -1933    -1914    -1892    -1872    -1854    -1833 
   -1807    -1787    -1764    -1741    -1721    -1701    -1679    -1655 
   -1628    -1605    -1584    -1557    -1528    -1503    -1478    -1451 
   -1424    -1397    -1367    -1337    -1306    -1275    -1248    -1221 
   -1190    -1156    -1124    -1097    -1067    -1035    -1005     -977 
    -946     -918     -889     -861     -838     -814     -784     -756 
    -733     -711     -688     -666     -648     -631     -615     -595 
    -579     -572     -561     -550     -544     -540     -537     -535 
    -537     -540     -546     -558     -575     -592     -611     -631 
    -658     -691     -724     -758     -799     -841     -884     -931 
    -980    -1030    -1084    -1140    -1198    -1256    -1316    -1378 
   -1440    -1501    -1564    -1628    -1688    -1749    -1810    -1871 
   -1930    -1988    -2042    -2095    -2150    -2201    -2249    -2292 
   -2332    -2376    -2413    -2439    -2469    -2498    -2517    -2535 
   -2550    -2559    -2565    -2565    -2560    -2552    -2542    -2527 
   -2508    -2486    -2459    -2424    -2386    -2349    -2304    -2253 
   -2203    -2149    -2088    -2026    -1961    -1894    -1825    -1755 
   -1680    -1603    -1528    -1456    -1379    -1302    -1228    -1155 
   -1081    -1016     -950     -884     -824     -766     -708     -656 
    -608     -566     -526     -488     -454     -425     -399     -379 
    -364     -348     -336     -329     -326     -329     -332     -337 
    -346     -361     -378     -392     -411     -436     -454     -476 
    -504     -531     -557     -583     -606     -633     -657     -676 
    -697     -720     -741     -758     -770     -785     -801     -815 
    -823     -828     -837     -842     -843     -842     -842     -841 
    -837     -831     -827     -822     -818     -811     -803     -800 
    -796     -789     -784     -781     -783     -781     -777     -777 
    -783     -788     -792     -799     -807     -814     -820     -831 
    -842     -854     -864     -877     -890     -907     -923     -934 
    -943     -958     -973     -985    -1000    -1008    -1015    -1024 
   -1036    -1044    -1050    -1055    -1058    -1059    -1062    -1065 
   -1070    -1071    -1073    -1073    -1074    -1078    -1080    -1084 
   -1090    -1090    -1092    -1097    -1101    -1111    -1120    -1123 
   -1131    -1142    -1147    -1158    -1173    -1181    -1185    -1194 
   -1208    -1219    -1227    -1236    -1248    -1258    -1267    -1282 
   -1297    -1306    -1318    -1328    -1336    -1348    -1362    -1374 
   -1386    -1397    -1408    -1417    -1431    -1445    -1457    -1471 
   -1486    -1501    -1516    -1532    -1548    -1567    -1588    -1611 
   -1634    -1658    -1687    -1717    -1745    -1773    -1809    -1844 
   -1875    -1906    -1941    -1972    -2003    -2039    -2072    -2102 
   -2133    -2161    -2184    -2209    -2235    -2254    -2266    -2278 
   -2290    -2297    -2299    -2296    -2289    -2284    -2276    -2262 
   -2243    -2223    -2200    -2177    -2153    -2119    -2087    -2058 
   -2020    -1982    -1949    -1912    -1871    -1833    -1800    -1760 
   -1719    -1684    -1653    -1618    -1583    -1551    -1522    -1494 
   -1464    -1439    -1417    -1397    -1379    -1360    -1344    -1332 
   -1321    -1312    -1306    -1301    -1293    -1286    -1282    -1277 
   -1274    -1271    -1264    -1256    -1251    -1247    -1237    -1225 
   -1216    -1200    -1181    -1167    -1152    -1132    -1109    -1084 
   -1057    -1032    -1005     -976     -945     -912     -880     -849 
    -815     -778     -746     -712     -676     -641     -610     -579 
    -548     -515     -486     -459     -427     -398     -376     -352 
    -324     -299     -278     -256     -236     -211     -189     -170 
    -149     -124     -103      -86      -67      -47      -23       -2 
      14       35       58       74       89      109      128      141 
     155      170      180      193      203      209      214      222 
     225      221      220      220      214      205      195      186 
     171      153      135      112       87       56       21      -13 
     -49      -93     -147     -202     -255     -311     -373     -437 
    -504     -577     -646     -715     -795     -873     -947    -1023 
   -1101    -1174    -1243    -1318    -1394    -1459    -1524    -1591 
   -1652    -1707    -1764    -1819    -1867    -1915    -1962    -2001 
   -2039    -2077    -2111    -2146    -2173    -2195    -2218    -2243 
   -2265    -2282    -2299    -2313    -2324    -2338    -2351    -2362 
   -2367    -2366    -2365    -2369    -2369    -2365    -2359    -2351 
   -2340    -2331    -2319    -2305    -2290    -2273    -2258    -2239 
   -2215    -2193    -2174    -2154    -2128    -2102    -2077    -2052 
   -2025    -1996    -1969    -1945    -1917    -1885    -1861    -1838 
   -1809    -1784    -1760    -1734    -1714    -1695    -1671    -1651 
   -1634    -1615    -1601    -1587    -1571    -1556    -1543    -1528 
   -1517    -1505    -1487    -1472    -1459    -1443    -1424    -1405 
   -1385    -1364    -1341    -1316    -1287    -1256    -1225    -1192 
   -1154    -1112    -1069    -1026     -981     -931     -877     -824 
    -769     -712     -653     -592     -532     -469     -405     -344 
    -284     -222     -160     -102      -44       13       68      121 
     170      217      261      303      344      379      411      444 
     472      496      521      540      553      562      571      579 
     584      585      584      579      572      564      550      533 
     522      506      484      464      448      423      398      372 
     344      317      288      259      228      195      157      124 
      93       58       18      -18      -55      -94     -131     -171 
    -212     -252     -289     -328     -365     -403     -441     -476 
    -510     -542     -573     -604     -633     -656     -681     -702 
    -719     -735     -753     -764     -769     -778     -788     -791 
    -788     -785     -783     -777     -769     -762     -754     -741 
    -724     -712     -702     -689     -672     -657     -643     -629 
    -612     -596     -579     -562     -546     -530     -517     -503 
    -483     -467     -454     -434     -410     -390     -369     -344 
    -322     -297     -265     -233     -203     -170     -129      -90 
     -47       -2       40       87      136      189      240      288 
     341      398      454      510      565      623      679      734 
     792      850      903      954     1009     1060     1104     1151 
    1200     1243     1285     1324     1358     1391     1422     1447 
    1472     1497     1514     1528     1540     1549     1553     1551 
    1551     1549     1540     1528     1518     1501     1483     1466 
    1441     1414     1390     1366     1333     1300     1271     1237 
    1198     1161     1125     1090     1048     1003      955      912 
     869      822      773      722      669      619      568      514 
     460      406      348      292      238      183      126       72 
      16      -44     -103     -155     -206     -266     -325     -379 
    -434     -488     -542     -600     -653     -702     -753     -804 
    -851     -897     -946     -994    -1034    -1069    -1107    -1143 
   -1175    -1205    -1233    -1255    -1277    -1301    -1318    -1332 
   -1347    -1359    -1366    -1372    -1375    -1378    -1378    -1375 
   -1370    -1360    -1351    -1339    -1325    -1305    -1281    -1259 
   -1235    -1205    -1178    -1148    -1112    -1074    -1034     -993 
    -951     -907     -862     -815     -764     -711     -665     -614 
    -556     -499     -448     -394     -337     -280     -224     -166 
    -110      -55        0       52      102      153      203      251 
     299      344      383      422      463      500      535      564 
     589      612      635      660      677      688      697      707 
     714      718      719      715      710      702      695      684 
     672      656      637      619      598      572      549      526 
     499      469      437      407      378      342      310      276 
     240      205      172      137      106       78       44       10 
     -18      -47      -81     -112     -143     -171     -203     -233 
    -263     -297     -326     -360     -392     -422     -456     -488 
    -515     -545     -577     -608     -637     -666     -696     -724 
    -751     -781     -811     -835     -864     -897     -928     -959 
    -992    -1026    -1059    -1092    -1125    -1162    -1200    -1233 
   -1267    -1304    -1340    -1375    -1410    -1443    -1472    -1503 
   -1534    -1559    -1583    -1610    -1632    -1653    -1671    -1686 
   -1695    -1702    -1707    -1709    -1703    -1694    -1684    -1668 
   -1645    -1621    -1594    -1564    -1528    -1483    -1436    -1395 
   -1352    -1301    -1244    -1189    -1132    -1077    -1023     -963 
    -901     -842     -784     -730     -676     -619     -565     -517 
    -469     -423     -379     -340     -303     -271     -244     -221 
    -198     -178     -171     -168     -162     -159     -167     -174 
    -183     -201     -224     -244     -268     -298     -333     -369 
    -406     -442     -486     -532     -579     -630     -680     -731 
    -785     -841     -893     -953    -1013    -1070    -1129    -1188 
   -1242    -1298    -1356    -1412    -1466    -1516    -1564    -1617 
   -1665    -1709    -1750    -1794    -1831    -1869    -1906    -1937 
   -1966    -1998    -2026    -2047    -2065    -2083    -2098    -2111 
   -2120    -2124    -2128    -2126    -2120    -2111    -2104    -2091 
   -2073    -2057    -2034    -2007    -1981    -1956    -1925    -1890 
   -1852    -1813    -1775    -1736    -1694    -1649    -1603    -1561 
   -1518    -1476    -1433    -1390    -1350    -1310    -1270    -1232 
   -1198    -1171    -1144    -1115    -1090    -1075    -1060    -1047 
   -1039    -1032    -1030    -1034    -1046    -1055    -1062    -1078 
   -1098    -1119    -1144    -1173    -1198    -1228    -1263    -1301 
   -1340    -1377    -1416    -1457    -1501    -1543    -1584    -1629 
   -1669    -1710    -1753    -1795    -1833    -1875    -1911    -1945 
   -1982    -2019    -2050    -2077    -2104    -2133    -2157    -2181 
   -2203    -2220    -2235    -2251    -2262    -2272    -2282    -2289 
   -2289    -2292    -2295    -2293    -2288    -2284    -2277    -2272 
   -2266    -2259    -2251    -2242    -2231    -2222    -2214    -2203 
   -2193    -2184    -2170    -2158    -2149    -2143    -2133    -2120 
   -2111    -2107    -2100    -2097    -2093    -2087    -2083    -2083 
   -2079    -2079    -2079    -2079    -2083    -2087    -2083    -2083 
   -2091    -2095    -2096    -2102    -2111    -2115    -2121    -2128 
   -2134    -2139    -2143    -2150    -2158    -2165    -2170    -2173 
   -2178    -2187    -2193    -2196    -2204    -2211    -2215    -2223 
   -2232    -2239    -2246    -2254    -2258    -2265    -2272    -2274 
   -2273    -2276    -2280    -2276    -2269    -2266    -2261    -2253 
   -2241    -2223    -2205    -2191    -2169    -2143    -2119    -2096 
   -2066    -2033    -1999    -1968    -1937    -1899    -1857    -1821 
   -1783    -1741    -1699    -1660    -1621    -1579    -1535    -1497 
   -1457    -1418    -1378    -1339    -1302    -1267    -1233    -1198 
   -1166    -1138    -1111    -1085    -1065    -1042    -1021    -1008 
    -992     -978     -970     -963     -954     -953     -953     -949 
    -953     -963     -970     -978     -989    -1000    -1013    -1031 
   -1048    -1067    -1090    -1117    -1143    -1169    -1197    -1228 
   -1262    -1291    -1323    -1358    -1393    -1429    -1467    -1505 
   -1548    -1588    -1624    -1661    -1703    -1741    -1781    -1821 
   -1857    -1892    -1927    -1962    -1998    -2034    -2066    -2096 
   -2126    -2157    -2182    -2208    -2235    -2257    -2274    -2292 
   -2308    -2324    -2340    -2350    -2355    -2361    -2365    -2367 
   -2370    -2370    -2366    -2361    -2355    -2344    -2332    -2324 
   -2313    -2296    -2280    -2265    -2243    -2222    -2201    -2184 
   -2161    -2134    -2107    -2084    -2060    -2034    -2010    -1985 
   -1958    -1930    -1907    -1885    -1865    -1844    -1818    -1788 
   -1768    -1752    -1732    -1709    -1687    -1665    -1644    -1626 
   -1610    -1588    -1566    -1547    -1530    -1514    -1495    -1474 
