Origin Time       2016/04/16 01:25:00
Lat.              32.753
Long.             130.762
Depth. (km)       12
Mag.              7.3
Station Code      KYT004
Station Lat.      35.5354
Station Long.     135.1960
Station Height(m) 20
Record Time       2016/04/16 01:27:32
Sampling Freq(Hz) 100Hz
Duration Time(s)  73
Dir.              N-S
Scale Factor      7845(gal)/8223790
Max. Acc. (gal)   2.597
Last Correction   2016/04/16 01:27:34
Memo.             
[...]
   -7809    -7821    -7834    -7847    -7863    -7877    -7889    -7903 
   -7921    -7938    -7952    -7973    -7990    -8001    -8016    -8029 
   -8039    -8047    -8058    -8064    -8071    -8078    -8087    -8094 
   -8104    -8111    -8121    -8132    -8143    -8151    -8156    -8162 
   -8163    -8162    -8159    -8155    -8144    -8131    -8118    -8105 
   -8087    -8070    -8056    -8043    -8033    -8029    -8025    -8023 
   -8023    -8024    -8023    -8017    -8013    -8009    -8002    -7996 
   -7990    -7982    -7974    -7964    -7958    -7955    -7951    -7944 
   -7940    -7940    -7942    -7947    -7955    -7969    -7983    -7994 
   -8006    -8023    -8037    -8054    -8073    -8091    -8111    -8133 
   -8149    -8166    -8186    -8202    -8212    -8225    -8239    -8247 
   -8257    -8272    -8283    -8294    -8306    -8318    -8329    -8343 
   -8352    -8359    -8365    -8372    -8374    -8371    -8368    -8367 
   -8359    -8348    -8338    -8324    -8303    -8284    -8267    -8245 
   -8224    -8201    -8181    -8160    -8141    -8124    -8110    -8098 
   -8086    -8077    -8071    -8067    -8063    -8060    -8058    -8052 
   -8048    -8043    -8035    -8025    -8012    -8001    -7990    -7974 
   -7964    -7960    -7954    -7954    -7958    -7959    -7959    -7963 
   -7969    -7978    -7985    -7992    -7994    -7996    -8001    -8002 
   -8001    -8002    -8004    -8004    -8006    -8007    -8004    -7997 
   -7996    -7993    -7982    -7973    -7967    -7955    -7942    -7935 
   -7927    -7920    -7919    -7920    -7925    -7935    -7946    -7956 
   -7967    -7982    -8000    -8013    -8031    -8051    -8067    -8086 
   -8109    -8129    -8149    -8170    -8189    -8210    -8230    -8247 
   -8259    -8268    -8276    -8281    -8283    -8283    -8284    -8283 
   -8280    -8275    -8267    -8260    -8255    -8245    -8229    -8218 
   -8210    -8201    -8191    -8185    -8177    -8167    -8159    -8152 
   -8141    -8133    -8125    -8114    -8105    -8098    -8094    -8089 
   -8086    -8087    -8090    -8091    -8091    -8097    -8100    -8101 
   -8104    -8106    -8108    -8113    -8117    -8120    -8122    -8124 
   -8127    -8128    -8127    -8128    -8131    -8129    -8127    -8127 
   -8128    -8131    -8133    -8135    -8137    -8144    -8152    -8160 
   -8170    -8182    -8198    -8215    -8232    -8252    -8274    -8295 
   -8321    -8348    -8378    -8408    -8440    -8472    -8503    -8533 
   -8567    -8600    -8633    -8667    -8698    -8730    -8761    -8793 
   -8823    -8851    -8878    -8908    -8935    -8962    -8988    -9008 
   -9023    -9034    -9040    -9043    -9042    -9036    -9023    -9001 
   -8980    -8954    -8923    -8891    -8860    -8823    -8787    -8753 
   -8710    -8661    -8615    -8571    -8520    -8471    -8426    -8372 
   -8313    -8256    -8197    -8132    -8073    -8014    -7954    -7896 
   -7842    -7788    -7731    -7680    -7638    -7596    -7558    -7530 
   -7507    -7489    -7481    -7477    -7477    -7488    -7506    -7523 
   -7547    -7578    -7609    -7639    -7673    -7708    -7739    -7771 
   -7804    -7834    -7860    -7890    -7920    -7948    -7977    -8007 
   -8043    -8081    -8121    -8164    -8208    -8252    -8302    -8349 
   -8398    -8451    -8497    -8545    -8595    -8642    -8681    -8719 
   -8752    -8776    -8799    -8818    -8827    -8833    -8835    -8829 
   -8814    -8797    -8777    -8752    -8721    -8691    -8652    -8604 
   -8560    -8513    -8459    -8404    -8352    -8290    -8226    -8167 
   -8102    -8033    -7964    -7893    -7825    -7763    -7700    -7643 
   -7591    -7545    -7506    -7469    -7439    -7416    -7396    -7384 
   -7383    -7385    -7391    -7406    -7430    -7458    -7495    -7535 
   -7581    -7630    -7682    -7735    -7792    -7854    -7919    -7983 
   -8051    -8120    -8189    -8255    -8324    -8395    -8464    -8533 
   -8602    -8664    -8725    -8780    -8827    -8870    -8904    -8928 
   -8942    -8946    -8939    -8926    -8904    -8880    -8850    -8811 
   -8768    -8725    -8677    -8625    -8567    -8509    -8444    -8375 
   -8310    -8236    -8160    -8093    -8024    -7954    -7888    -7820 
   -7751    -7685    -7624    -7561    -7499    -7442    -7391    -7344 
   -7302    -7268    -7236    -7209    -7191    -7179    -7172    -7171 
   -7179    -7192    -7206    -7226    -7253    -7280    -7312    -7346 
   -7380    -7418    -7457    -7492    -7528    -7566    -7607    -7645 
   -7684    -7727    -7769    -7813    -7859    -7902    -7947    -7996 
   -8040    -8086    -8132    -8179    -8224    -8268    -8313    -8356 
   -8395    -8431    -8464    -8490    -8513    -8533    -8543    -8542 
   -8540    -8527    -8506    -8479    -8449    -8408    -8364    -8318 
   -8268    -8212    -8154    -8095    -8033    -7971    -7911    -7844 
   -7776    -7713    -7647    -7577    -7514    -7454    -7392    -7330 
   -7279    -7231    -7184    -7146    -7111    -7076    -7051    -7033 
   -7021    -7015    -7017    -7022    -7033    -7056    -7084    -7111 
   -7141    -7182    -7225    -7272    -7329    -7384    -7435    -7496 
   -7562    -7624    -7684    -7749    -7813    -7878    -7946    -8013 
   -8077    -8141    -8208    -8271    -8332    -8390    -8441    -8486 
   -8525    -8557    -8579    -8595    -8603    -8603    -8598    -8586 
   -8564    -8533    -8500    -8469    -8431    -8387    -8340    -8291 
   -8241    -8195    -8149    -8104    -8060    -8020    -7982    -7946 
   -7913    -7882    -7855    -7831    -7808    -7789    -7776    -7761 
   -7751    -7742    -7732    -7727    -7723    -7722    -7726    -7734 
   -7744    -7761    -7780    -7803    -7831    -7865    -7901    -7944 
   -7993    -8044    -8097    -8154    -8214    -8274    -8334    -8397 
   -8454    -8509    -8563    -8611    -8654    -8695    -8730    -8758 
   -8779    -8795    -8803    -8803    -8803    -8800    -8787    -8773 
   -8757    -8738    -8712    -8685    -8657    -8627    -8594    -8560 
   -8520    -8476    -8428    -8379    -8324    -8264    -8203    -8139 
   -8073    -8010    -7948    -7885    -7824    -7767    -7715    -7669 
   -7627    -7589    -7558    -7538    -7526    -7520    -7526    -7539 
   -7558    -7589    -7630    -7676    -7731    -7796    -7863    -7933 
   -8007    -8085    -8158    -8229    -8301    -8368    -8431    -8490 
   -8549    -8602    -8650    -8702    -8750    -8793    -8838    -8885 
   -8928    -8970    -9012    -9053    -9093    -9130    -9162    -9194 
   -9227    -9254    -9273    -9289    -9301    -9306    -9308    -9302 
   -9289    -9273    -9254    -9229    -9197    -9166    -9134    -9092 
   -9050    -9011    -8968    -8922    -8877    -8830    -8785    -8738 
   -8691    -8642    -8594    -8546    -8497    -8449    -8401    -8352 
   -8309    -8266    -8229    -8199    -8168    -8143    -8122    -8109 
   -8101    -8094    -8094    -8097    -8102    -8113    -8125    -8144 
   -8170    -8197    -8229    -8271    -8316    -8357    -8403    -8454 
   -8509    -8564    -8622    -8677    -8733    -8787    -8841    -8889 
   -8937    -8982    -9023    -9058    -9090    -9121    -9143    -9153 
   -9157    -9155    -9142    -9119    -9089    -9047    -9000    -8949 
   -8889    -8823    -8758    -8691    -8619    -8545    -8464    -8379 
   -8290    -8193    -8089    -7981    -7871    -7759    -7643    -7531 
   -7420    -7311    -7203    -7099    -7002    -6902    -6804    -6716 
   -6632    -6552    -6481    -6416    -6354    -6300    -6257    -6219 
   -6192    -6176    -6169    -6176    -6197    -6226    -6266    -6327 
   -6396    -6463    -6538    -6623    -6711    -6804    -6903    -7005 
   -7103    -7209    -7319    -7427    -7534    -7643    -7755    -7862 
   -7967    -8078    -8187    -8286    -8383    -8474    -8561    -8644 
   -8721    -8789    -8851    -8911    -8964    -9007    -9046    -9074 
   -9094    -9112    -9121    -9116    -9100    -9073    -9035    -8982 
   -8919    -8843    -8756    -8657    -8557    -8453    -8347    -8243 
   -8139    -8035    -7940    -7850    -7761    -7677    -7593    -7508 
   -7427    -7349    -7267    -7188    -7122    -7063    -7009    -6960 
   -6918    -6878    -6839    -6805    -6781    -6759    -6744    -6744 
   -6747    -6756    -6774    -6794    -6815    -6848    -6894    -6944 
   -7002    -7069    -7141    -7215    -7295    -7373    -7450    -7524 
   -7595    -7661    -7720    -7776    -7825    -7873    -7917    -7963 
   -8006    -8047    -8090    -8132    -8172    -8215    -8256    -8295 
   -8336    -8375    -8413    -8451    -8494    -8533    -8563    -8590 
   -8615    -8629    -8627    -8618    -8598    -8565    -8525    -8474 
   -8414    -8348    -8272    -8191    -8106    -8019    -7927    -7831 
   -7738    -7647    -7555    -7464    -7377    -7291    -7207    -7127 
   -7047    -6970    -6897    -6825    -6756    -6691    -6635    -6585 
   -6538    -6498    -6473    -6454    -6442    -6444    -6458    -6477 
   -6511    -6552    -6600    -6659    -6729    -6806    -6891    -6985 
   -7086    -7191    -7302    -7418    -7534    -7649    -7765    -7882 
   -7996    -8104    -8213    -8321    -8424    -8527    -8627    -8723 
   -8812    -8900    -8985    -9065    -9136    -9204    -9262    -9315 
   -9358    -9394    -9423    -9443    -9454    -9458    -9454    -9444 
   -9428    -9410    -9385    -9352    -9320    -9282    -9238    -9196 
   -9153    -9101    -9045    -8986    -8926    -8854    -8776    -8695 
   -8604    -8507    -8408    -8305    -8194    -8083    -7969    -7848 
   -7730    -7614    -7499    -7385    -7279    -7173    -7074    -6985 
   -6901    -6818    -6743    -6670    -6598    -6529    -6465    -6409 
   -6355    -6309    -6274    -6246    -6219    -6205    -6199    -6193 
   -6197    -6214    -6232    -6259    -6296    -6338    -6388    -6444 
   -6508    -6581    -6659    -6744    -6839    -6937    -7041    -7145 
   -7248    -7353    -7460    -7569    -7684    -7804    -7925    -8050 
   -8176    -8301    -8424    -8542    -8660    -8769    -8874    -8978 
   -9076    -9167    -9255    -9333    -9396    -9448    -9497    -9537 
   -9567    -9587    -9599    -9598    -9589    -9572    -9544    -9512 
   -9475    -9428    -9377    -9322    -9259    -9186    -9109    -9027 
   -8939    -8847    -8757    -8667    -8572    -8484    -8398    -8305 
   -8213    -8127    -8035    -7940    -7852    -7766    -7674    -7585 
   -7506    -7426    -7350    -7285    -7223    -7163    -7110    -7063 
   -7014    -6968    -6926    -6881    -6837    -6797    -6756    -6720 
   -6685    -6654    -6621    -6588    -6562    -6543    -6527    -6519 
   -6521    -6531    -6550    -6578    -6617    -6662    -6711    -6770 
   -6833    -6905    -6985    -7069    -7160    -7264    -7369    -7477 
   -7592    -7708    -7821    -7940    -8062    -8177    -8293    -8411 
   -8523    -8630    -8738    -8841    -8938    -9031    -9121    -9207 
   -9281    -9348    -9408    -9454    -9486    -9506    -9510    -9494 
   -9466    -9424    -9366    -9298    -9224    -9143    -9058    -8965 
   -8866    -8761    -8650    -8542    -8431    -8316    -8202    -8091 
   -7977    -7862    -7753    -7643    -7534    -7433    -7344    -7264 
   -7192    -7126    -7065    -7017    -6971    -6929    -6898    -6874 
   -6851    -6836    -6831    -6831    -6839    -6856    -6886    -6924 
   -6968    -7026    -7094    -7165    -7250    -7344    -7438    -7537 
   -7646    -7758    -7867    -7979    -8089    -8193    -8295    -8401 
   -8499    -8592    -8684    -8769    -8843    -8915    -8985    -9042 
   -9090    -9135    -9167    -9186    -9202    -9208    -9196    -9177 
   -9147    -9104    -9054    -8993    -8922    -8841    -8752    -8653 
   -8545    -8428    -8306    -8179    -8040    -7905    -7770    -7628 
   -7491    -7354    -7218    -7088    -6966    -6848    -6741    -6640 
   -6547    -6462    -6384    -6315    -6251    -6196    -6156    -6127 
   -6108    -6106    -6119    -6145    -6184    -6239    -6311    -6389 
   -6482    -6586    -6691    -6801    -6917    -7036    -7159    -7283 
   -7406    -7530    -7654    -7782    -7906    -8023    -8132    -8233 
   -8322    -8406    -8486    -8559    -8629    -8696    -8760    -8820 
   -8878    -8931    -8976    -9019    -9061    -9096    -9120    -9140 
   -9153    -9157    -9155    -9146    -9128    -9103    -9071    -9036 
   -8995    -8946    -8896    -8843    -8784    -8721    -8658    -8596 
   -8533    -8472    -8406    -8340    -8275    -8208    -8139    -8070 
   -7998    -7931    -7874    -7815    -7758    -7712    -7673    -7634 
   -7603    -7576    -7550    -7530    -7515    -7500    -7488    -7481 
   -7477    -7472    -7468    -7465    -7456    -7439    -7420    -7398 
   -7366    -7330    -7284    -7230    -7177    -7121    -7063    -7007 
   -6952    -6897    -6837    -6779    -6724    -6667    -6610    -6559 
   -6511    -6460    -6412    -6366    -6326    -6285    -6251    -6224 
   -6200    -6183    -6177    -6181    -6195    -6226    -6269    -6323 
   -6393    -6473    -6556    -6647    -6747    -6853    -6961    -7075 
   -7191    -7302    -7414    -7523    -7623    -7715    -7799    -7874 
   -7933    -7978    -8004    -8013    -8006    -7985    -7950    -7901 
   -7842    -7771    -7690    -7607    -7515    -7419    -7322    -7222 
   -7119    -7013    -6905    -6797    -6686    -6571    -6455    -6339 
   -6226    -6114    -6003    -5896    -5796    -5702    -5617    -5545 
   -5485    -5433    -5394    -5367    -5352    -5348    -5356    -5374 
   -5400    -5437    -5483    -5540    -5609    -5688    -5776    -5872 
   -5976    -6085    -6196    -6307    -6420    -6535    -6646    -6752 
   -6864    -6976    -7088    -7203    -7318    -7431    -7545    -7657 
   -7770    -7885    -8001    -8109    -8210    -8309    -8401    -8482 
   -8552    -8612    -8664    -8703    -8733    -8757    -8770    -8776 
   -8776    -8766    -8746    -8725    -8700    -8669    -8633    -8599 
   -8565    -8533    -8502    -8467    -8431    -8403    -8376    -8351 
   -8333    -8328    -8324    -8324    -8330    -8336    -8340    -8352 
   -8368    -8383    -8401    -8421    -8441    -8460    -8483    -8513 
   -8542    -8579    -8621    -8664    -8710    -8754    -8796    -8838 
   -8877    -8911    -8935    -8947    -8955    -8957    -8947    -8927 
   -8900    -8865    -8829    -8789    -8742    -8688    -8635    -8577 
   -8509    -8440    -8371    -8294    -8217    -8144    -8068    -7994 
   -7925    -7865    -7811    -7761    -7722    -7682    -7645    -7619 
   -7601    -7588    -7584    -7585    -7593    -7608    -7631    -7661 
   -7701    -7755    -7817    -7882    -7959    -8040    -8125    -8212 
   -8297    -8382    -8467    -8556    -8640    -8721    -8800    -8880 
   -8958    -9036    -9117    -9192    -9267    -9343    -9410    -9471 
   -9535    -9591    -9640    -9684    -9726    -9760    -9783    -9802 
   -9815    -9821    -9822    -9817    -9803    -9788    -9769    -9745 
   -9720    -9691    -9656    -9616    -9578    -9535    -9486    -9437 
   -9394    -9354    -9312    -9279    -9252    -9228    -9208    -9194 
   -9180    -9169    -9162    -9153    -9139    -9123    -9104    -9084 
   -9055    -9026    -9001    -8976    -8947    -8923    -8899    -8873 
   -8854    -8833    -8808    -8789    -8772    -8753    -8737    -8721 
   -8706    -8692    -8679    -8667    -8657    -8644    -8627    -8614 
   -8598    -8577    -8553    -8527    -8496    -8461    -8424    -8384 
   -8340    -8293    -8245    -8197    -8148    -8101    -8059    -8023 
   -7987    -7959    -7935    -7915    -7893    -7875    -7865    -7852 
   -7840    -7838    -7839    -7840    -7848    -7860    -7875    -7894 
   -7921    -7955    -7993    -8033    -8081    -8139    -8208    -8281 
   -8360    -8444    -8536    -8631    -8727    -8830    -8937    -9040 
   -9143    -9246    -9347    -9440    -9530    -9613    -9680    -9740 
   -9795    -9836    -9865    -9886    -9892    -9891    -9882    -9857 
   -9825    -9784    -9734    -9678    -9614    -9547    -9474    -9394 
   -9309    -9220    -9126    -9027    -8929    -8830    -8727    -8630 
   -8540    -8451    -8368    -8290    -8220    -8159    -8104    -8055 
   -8019    -7990    -7971    -7966    -7973    -7993    -8028    -8075 
   -8136    -8209    -8290    -8382    -8479    -8579    -8687    -8796 
   -8907    -9019    -9128    -9234    -9337    -9432    -9524    -9616 
   -9701    -9783    -9861    -9936   -10006   -10079   -10143   -10201 
  -10255   -10309   -10357   -10399   -10434   -10461   -10481   -10490 
  -10485   -10473   -10454   -10423   -10381   -10332   -10278   -10215 
  -10145   -10069    -9988    -9896    -9796    -9694    -9582    -9460 
   -9344    -9227    -9104    -8989    -8881    -8769    -8661    -8564 
   -8476    -8395    -8324    -8260    -8212    -8175    -8144    -8121 
   -8114    -8125    -8148    -8179    -8221    -8278    -8345    -8421 
   -8510    -8612    -8721    -8837    -8954    -9076    -9198    -9320 
   -9441    -9563    -9683    -9796    -9900    -9999   -10096   -10181 
  -10254   -10323   -10382   -10430   -10471   -10504   -10523   -10534 
  -10535   -10524   -10504   -10478   -10436   -10382   -10319   -10247 
  -10168   -10084   -10003    -9913    -9819    -9728    -9629    -9530 
   -9436    -9347    -9259    -9174    -9090    -9011    -8934    -8858 
   -8787    -8719    -8658    -8612    -8575    -8546    -8533    -8525 
   -8519    -8525    -8540    -8556    -8579    -8612    -8644    -8675 
   -8712    -8752    -8792    -8837    -8885    -8935    -8989    -9045 
   -9100    -9154    -9212    -9274    -9333    -9387    -9437    -9482 
   -9520    -9553    -9580    -9599    -9617    -9626    -9626    -9622 
   -9609    -9586    -9558    -9528    -9490    -9439    -9379    -9317 
   -9244    -9159    -9070    -8977    -8877    -8770    -8658    -8542 
   -8431    -8322    -8213    -8108    -8009    -7915    -7821    -7731 
   -7646    -7568    -7495    -7433    -7377    -7329    -7292    -7268 
   -7249    -7236    -7229    -7225    -7231    -7242    -7250    -7263 
   -7280    -7296    -7318    -7339    -7361    -7389    -7416    -7443 
   -7477    -7510    -7542    -7581    -7619    -7655    -7693    -7731 
   -7765    -7801    -7835    -7863    -7889    -7916    -7940    -7959 
   -7977    -7993    -8005    -8016    -8025    -8028    -8028    -8027 
   -8020    -8009    -7996    -7977    -7954    -7931    -7916    -7897 
   -7877    -7859    -7839    -7815    -7789    -7766    -7739    -7708 
   -7677    -7646    -7608    -7572    -7539    -7501    -7464    -7433 
   -7402    -7371    -7348    -7330    -7315    -7306    -7307    -7312 
   -7315    -7323    -7342    -7358    -7378    -7408    -7438    -7468 
   -7507    -7550    -7596    -7646    -7697    -7754    -7815    -7875 
   -7935    -7992    -8048    -8105    -8158    -8205    -8252    -8295 
   -8333    -8368    -8398    -8424    -8444    -8461    -8471    -8472 
   -8469    -8459    -8444    -8428    -8401    -8372    -8338    -8298 
   -8256    -8213    -8167    -8121    -8073    -8027    -7981    -7935 
   -7888    -7843    -7799    -7756    -7712    -7668    -7627    -7589 
   -7546    -7508    -7477    -7446    -7416    -7391    -7365    -7340 
   -7317    -7296    -7281    -7269    -7254    -7240    -7226    -7213 
