Origin Time       2016/04/16 01:25:00
Lat.              32.753
Long.             130.762
Depth. (km)       12
Mag.              7.3
Station Code      KYT001
Station Lat.      35.7406
Station Long.     135.1022
Station Height(m) 11
Record Time       2016/04/16 01:27:34
Sampling Freq(Hz) 100Hz
Duration Time(s)  74
Dir.              N-S
Scale Factor      7845(gal)/8223790
Max. Acc. (gal)   2.130
Last Correction   2016/04/16 01:27:36
Memo.             
[...]
    -367     -321     -272     -225     -180     -135      -83      -32 
      16       60      109      159      207      259      313      357 
     400      448      496      546      594      633      675      719 
     762      803      843      882      920      954      987     1024 
    1059     1092     1119     1146     1175     1204     1228     1251 
    1274     1300     1320     1336     1352     1370     1386     1397 
    1408     1420     1426     1429     1435     1440     1441     1436 
    1431     1428     1424     1416     1405     1394     1383     1371 
    1356     1341     1331     1320     1304     1285     1270     1258 
    1240     1219     1194     1175     1159     1138     1111     1089 
    1069     1042     1015      993      972      945      915      888 
     869      845      815      788      767      749      731      712 
     695      680      665      650      645      638      629      619 
     614      614      614      611      612      619      627      631 
     631      635      650      668      676      685      700      715 
     733      753      773      793      816      838      868      901 
     931      955      985     1021     1059     1092     1123     1158 
    1190     1225     1260     1293     1325     1356     1383     1416 
    1451     1479     1502     1525     1549     1574     1594     1609 
    1622     1640     1655     1665     1674     1679     1683     1687 
    1690     1692     1691     1687     1680     1674     1669     1664 
    1653     1644     1632     1621     1610     1597     1580     1564 
    1547     1522     1502     1482     1453     1420     1390     1359 
    1321     1281     1243     1202     1161     1115     1067     1021 
     976      926      874      826      780      730      676      625 
     576      522      471      425      376      321      272      225 
     178      129       87       45        1      -37      -72     -109 
    -141     -164     -184     -205     -222     -236     -241     -245 
    -248     -240     -225     -217     -209     -190     -163     -139 
    -118      -95      -65      -29        1       29       62       94 
     124      152      183      214      240      259      284      309 
     329      344      361      378      387      399      410      419 
     430      440      442      448      456      464      464      464 
     473      484      486      487      493      503      510      513 
     517      526      535      535      535      542      548      548 
     548      552      556      553      553      558      562      564 
     564      562      564      566      569      575      579      588 
     594      599      608      623      637      643      656      675 
     692      707      730      754      780      808      834      861 
     895      928      959      994     1034     1071     1105     1138 
    1171     1208     1242     1267     1293     1321     1340     1351 
    1364     1382     1395     1397     1394     1397     1393     1378 
    1363     1350     1333     1310     1285     1258     1229     1197 
    1161     1123     1089     1053     1003      955      916      873 
     826      778      724      673      622      565      510      454 
     400      342      278      218      163      105       41      -16 
     -71     -129     -191     -251     -303     -357     -414     -468 
    -517     -566     -616     -664     -712     -756     -792     -834 
    -877     -915     -951     -989    -1023    -1057    -1086    -1116 
   -1148    -1179    -1206    -1235    -1260    -1285    -1308    -1331 
   -1355    -1378    -1394    -1404    -1417    -1437    -1451    -1455 
   -1463    -1475    -1479    -1479    -1482    -1486    -1489    -1485 
   -1476    -1472    -1472    -1467    -1455    -1447    -1443    -1431 
   -1416    -1401    -1387    -1372    -1351    -1327    -1304    -1281 
   -1248    -1216    -1185    -1147    -1107    -1065    -1024     -982 
    -940     -893     -842     -795     -747     -695     -639     -588 
    -535     -480     -423     -368     -314     -259     -201     -147 
     -95      -40       16       70      125      176      229      284 
     340      394      450      510      565      619      681      743 
     804      864      929      993     1060     1129     1196     1262 
    1333     1402     1466     1528     1597     1663     1723     1784 
    1848     1902     1949     2008     2064     2107     2153     2196 
    2236     2276     2313     2346     2373     2400     2423     2440 
    2455     2470     2484     2494     2498     2502     2505     2501 
    2496     2489     2478     2466     2454     2440     2421     2403 
    2386     2366     2338     2312     2289     2261     2230     2204 
    2181     2151     2111     2079     2053     2026     1989     1953 
    1921     1892     1856     1817     1783     1752     1715     1679 
    1648     1620     1583     1541     1506     1472     1439     1402 
    1359     1321     1291     1255     1213     1177     1143     1105 
    1065     1030      997      963      923      888      859      828 
     795      762      734      706      677      646      618      592 
     571      548      518      495      479      460      433      410 
     394      380      364      346      332      318      306      295 
     289      284      276      271      268      268      270      266 
     272      282      287      291      299      313      328      338 
     352      375      394      410      430      456      486      513 
     532      558      589      619      643      669      700      730 
     754      777      801      827      847      861      874      888 
     899      903      908      913      916      912      905      903 
     901      890      877      866      859      849      834      819 
     808      797      781      764      751      741      724      706 
     693      683      669      653      637      626      616      599 
     583      577      572      557      545      538      531      523 
     514      506      508      510      500      493      498      503 
     506      510      517      526      540      553      566      587 
     610      629      650      680      710      737      765      800 
     838      873      909      951      990     1028     1067     1107 
    1147     1190     1228     1262     1298     1336     1372     1404 
    1435     1467     1499     1524     1547     1572     1597     1617 
    1634     1648     1665     1680     1690     1699     1709     1714 
    1718     1721     1726     1732     1733     1729     1728     1728 
    1723     1715     1706     1699     1694     1682     1668     1657 
    1647     1632     1615     1605     1594     1580     1566     1551 
    1539     1526     1509     1498     1489     1476     1463     1449 
    1439     1431     1420     1405     1399     1395     1387     1377 
    1370     1368     1362     1348     1340     1339     1331     1317 
    1306     1300     1291     1278     1260     1243     1228     1212 
    1192     1167     1147     1127     1098     1070     1047     1021 
     993      963      931      903      872      838      807      777 
     745      711      679      649      622      589      553      530 
     506      475      445      419      396      373      348      321 
     299      280      259      237      216      197      178      156 
     139      126      109       91       78       64       54       40 
      22       11        1      -10      -22      -32      -40      -49 
     -62      -71      -82      -91      -99     -112     -121     -129 
    -144     -159     -167     -175     -189     -206     -221     -230 
    -244     -261     -276     -288     -301     -314     -328     -338 
    -349     -360     -373     -383     -386     -388     -399     -405 
    -405     -403     -403     -403     -402     -396     -392     -388 
    -383     -378     -368     -360     -353     -344     -333     -321 
    -313     -302     -286     -275     -266     -251     -232     -222 
    -214     -201     -190     -182     -171     -164     -157     -148 
    -143     -144     -147     -144     -149     -157     -170     -175 
    -182     -198     -214     -225     -237     -253     -271     -286 
    -298     -313     -330     -344     -360     -370     -383     -398 
    -410     -421     -433     -448     -463     -468     -476     -492 
    -503     -508     -517     -526     -535     -545     -553     -560 
    -566     -573     -579     -584     -594     -603     -604     -607 
    -615     -616     -616     -618     -621     -623     -622     -616 
    -615     -614     -608     -599     -592     -591     -587     -576 
    -562     -557     -553     -542     -530     -522     -519     -506 
    -490     -476     -464     -454     -441     -429     -421     -409 
    -394     -382     -370     -360     -349     -337     -326     -318 
    -310     -302     -294     -288     -287     -282     -272     -270 
    -272     -275     -275     -279     -286     -291     -295     -299 
    -307     -315     -322     -332     -342     -355     -364     -372 
    -382     -395     -405     -417     -430     -441     -450     -463 
    -476     -490     -506     -526     -540     -561     -589     -614 
    -635     -665     -700     -734     -765     -799     -838     -886 
    -929     -970    -1016    -1063    -1107    -1152    -1201    -1248 
   -1290    -1331    -1371    -1414    -1453    -1486    -1520    -1554 
   -1584    -1611    -1636    -1658    -1679    -1694    -1711    -1734 
   -1750    -1757    -1767    -1779    -1787    -1791    -1796    -1802 
   -1809    -1813    -1809    -1804    -1811    -1815    -1810    -1810 
   -1809    -1800    -1799    -1802    -1794    -1791    -1791    -1788 
   -1781    -1781    -1784    -1784    -1776    -1772    -1772    -1769 
   -1765    -1761    -1757    -1750    -1742    -1734    -1723    -1714 
   -1707    -1696    -1680    -1664    -1649    -1634    -1617    -1599 
   -1582    -1563    -1545    -1526    -1506    -1490    -1472    -1453 
   -1440    -1426    -1412    -1399    -1394    -1389    -1379    -1372 
   -1370    -1375    -1382    -1382    -1387    -1401    -1416    -1426 
   -1436    -1452    -1476    -1497    -1518    -1544    -1568    -1591 
   -1614    -1637    -1665    -1695    -1717    -1733    -1757    -1784 
   -1804    -1817    -1837    -1857    -1868    -1877    -1887    -1894 
   -1898    -1898    -1895    -1892    -1884    -1871    -1856    -1841 
   -1826    -1807    -1779    -1750    -1723    -1692    -1656    -1620 
   -1579    -1535    -1491    -1445    -1401    -1350    -1291    -1236 
   -1182    -1125    -1065    -1000     -936     -874     -811     -741 
    -675     -610     -546     -480     -410     -341     -278     -211 
    -141      -75      -10       55      122      186      248      307 
     365      425      484      535      587      637      683      726 
     767      808      849      886      916      945      972      996 
    1016     1035     1050     1060     1073     1085     1093     1097 
    1096     1090     1088     1088     1078     1065     1053     1042 
    1024     1005      986      967      945      919      890      864 
     838      808      772      737      708      675      637      600 
     569      532      493      457      422      388      351      310 
     275      245      209      172      140      108       76       45 
      16      -13      -43      -75     -102     -125     -149     -172 
    -194     -218     -236     -246     -261     -272     -278     -282 
    -286     -288     -288     -283     -278     -268     -255     -243 
    -229     -217     -202     -180     -157     -140     -122      -99 
     -71      -45      -28       -4       25       49       71       95 
     125      153      175      195      221      249      272      288 
     309      333      353      369      386      402      417      429 
     440      454      464      471      477      488      496      499 
     502      504      508      513      506      503      503      503 
     498      493      490      484      479      472      464      460 
     453      444      433      423      418      410      396      383 
     372      357      341      330      315      299      283      261 
     245      234      218      198      184      171      160      149 
     139      131      128      120      116      118      124      128 
     129      139      153      168      182      197      222      248 
     263      287      321      352      379      410      441      472 
     506      538      571      603      634      662      693      723 
     753      776      800      832      858      877      900      919 
     936      955      972      986     1000     1009     1013     1020 
    1030     1034     1036     1036     1032     1032     1030     1024 
    1024     1024     1017     1013     1011     1011     1012     1009 
    1004     1007     1013     1017     1020     1023     1031     1039 
    1048     1058     1073     1089     1101     1116     1138     1162 
    1185     1208     1233     1266     1300     1332     1370     1410 
    1449     1487     1532     1579     1628     1675     1719     1768 
    1822     1873     1922     1969     2019     2069     2115     2160 
    2205     2250     2289     2323     2359     2398     2431     2452 
    2477     2500     2517     2532     2543     2548     2555     2552 
    2546     2546     2542     2528     2508     2486     2467     2447 
    2416     2382     2351     2322     2285     2245     2204     2165 
    2123     2079     2034     1996     1952     1903     1858     1818 
    1780     1737     1692     1656     1622     1587     1554     1525 
    1495     1470     1441     1416     1398     1382     1362     1343 
    1327     1313     1304     1287     1273     1263     1255     1246 
    1239     1236     1233     1227     1225     1229     1239     1243 
    1246     1259     1278     1290     1305     1327     1352     1377 
    1402     1428     1456     1491     1526     1556     1593     1632 
    1669     1703     1738     1781     1825     1863     1900     1945 
    1985     2020     2057     2097     2138     2176     2208     2241 
    2278     2313     2338     2363     2388     2412     2434     2448 
    2463     2482     2493     2500     2508     2509     2513     2520 
    2519     2516     2516     2513     2509     2504     2500     2497 
    2490     2481     2477     2477     2467     2454     2448     2446 
    2436     2424     2419     2413     2404     2393     2385     2380 
    2371     2361     2354     2349     2338     2330     2319     2313 
    2307     2300     2289     2277     2270     2262     2251     2242 
    2235     2222     2208     2200     2192     2182     2169     2157 
    2147     2137     2121     2111     2100     2084     2070     2056 
    2039     2023     2007     1989     1969     1948     1929     1907 
    1878     1852     1826     1804     1773     1740     1715     1687 
    1648     1606     1574     1543     1503     1457     1417     1382 
    1340     1290     1239     1197     1155     1104     1053     1005 
     958      907      855      805      758      706      652      600 
     553      506      457      409      365      321      268      222 
     187      148      105       63       22      -11      -41      -76 
    -112     -143     -172     -202     -228     -252     -274     -294 
    -315     -334     -344     -360     -375     -383     -387     -387 
    -388     -388     -387     -386     -378     -367     -356     -340 
    -325     -314     -298     -275     -253     -232     -207     -183 
    -156     -129     -103      -79      -54      -25        2       29 
      60       90      114      139      170      202      225      248 
     275      301      324      344      370      399      421      436 
     454      477      499      514      526      544      562      579 
     588      596      607      615      621      629      637      643 
     643      642      645      649      649      645      641      639 
     638      631      623      616      611      599      588      577 
     565      550      535      519      503      486      467      444 
     423      406      383      357      336      315      291      265 
     243      220      198      172      144      122      105       83 
      58       32       17       -1      -27      -45      -58      -76 
     -97     -109     -120     -133     -149     -163     -171     -175 
    -183     -194     -202     -209     -216     -220     -222     -222 
    -225     -234     -237     -233     -229     -229     -230     -229 
    -225     -221     -221     -218     -210     -209     -214     -214 
    -209     -211     -218     -224     -225     -228     -234     -245 
    -253     -259     -271     -287     -301     -311     -324     -340 
    -361     -380     -396     -418     -444     -467     -488     -513 
    -540     -566     -589     -612     -638     -666     -689     -708 
    -733     -762     -783     -797     -816     -837     -855     -869 
    -881     -893     -903     -909     -915     -922     -926     -922 
    -918     -918     -912     -903     -892     -877     -868     -855 
    -835     -816     -799     -780     -758     -731     -707     -689 
    -669     -642     -616     -592     -571     -546     -522     -500 
    -477     -451     -425     -407     -390     -367     -344     -325 
    -306     -288     -263     -238     -218     -201     -182     -157 
    -133     -117     -101      -75      -54      -40      -21        0 
      17       31       47       62       75       90       99      109 
     120      129      135      136      144      151      148      141 
     141      140      129      116      106       94       76       56 
      36       11      -13      -43      -78     -110     -143     -183 
    -229     -270     -310     -355     -402     -449     -496     -544 
    -594     -643     -692     -741     -789     -838     -885     -929 
    -976    -1020    -1063    -1100    -1139    -1179    -1215    -1247 
   -1279    -1310    -1337    -1359    -1381    -1405    -1428    -1443 
   -1453    -1464    -1480    -1495    -1498    -1501    -1509    -1517 
   -1517    -1516    -1521    -1522    -1517    -1513    -1514    -1512 
   -1507    -1505    -1498    -1494    -1495    -1490    -1480    -1472 
   -1468    -1460    -1451    -1443    -1439    -1431    -1421    -1413 
   -1410    -1404    -1393    -1386    -1382    -1377    -1370    -1364 
   -1358    -1348    -1344    -1343    -1340    -1337    -1334    -1328 
   -1324    -1324    -1325    -1321    -1313    -1308    -1305    -1300 
   -1290    -1279    -1273    -1266    -1251    -1235    -1223    -1208 
   -1188    -1163    -1140    -1119    -1092    -1059    -1026     -996 
    -959     -916     -874     -838     -801     -754     -702     -657 
    -614     -565     -515     -469     -423     -370     -319     -272 
    -225     -176     -124      -76      -32        9       58      106 
     149      190      230      271      311      344      376      415 
     456      483      506      537      566      591      614      637 
