Origin Time       2016/04/16 01:25:00
Lat.              32.753
Long.             130.762
Depth. (km)       12
Mag.              7.3
Station Code      KYT006
Station Lat.      35.2759
Station Long.     135.1827
Station Height(m) 72
Record Time       2016/04/16 01:27:37
Sampling Freq(Hz) 100Hz
Duration Time(s)  60
Dir.              N-S
Scale Factor      7845(gal)/8223790
Max. Acc. (gal)   1.634
Last Correction   2016/04/16 01:27:38
Memo.             
[...]
    4251     4291     4330     4353     4379     4409     4428     4448 
    4469     4471     4460     4452     4436     4414     4405     4384 
    4336     4294     4266     4233     4203     4176     4140     4099 
    4066     4048     4035     4016     4001     3986     3978     3987 
    3989     3981     3996     4010     4013     4036     4069     4085 
    4101     4125     4151     4174     4200     4225     4240     4252 
    4280     4311     4344     4369     4379     4395     4436     4467 
    4490     4525     4550     4565     4585     4611     4635     4657 
    4673     4685     4693     4703     4718     4737     4748     4754 
    4754     4752     4757     4761     4748     4737     4726     4706 
    4687     4679     4668     4650     4635     4619     4606     4608 
    4612     4610     4602     4598     4608     4619     4618     4618 
    4622     4629     4630     4621     4625     4627     4610     4598 
    4600     4598     4585     4572     4561     4557     4545     4530 
    4521     4509     4494     4475     4467     4482     4475     4441 
    4436     4441     4434     4442     4450     4446     4450     4459 
    4464     4473     4483     4490     4495     4502     4522     4538 
    4531     4534     4552     4557     4568     4587     4584     4584 
    4598     4603     4599     4598     4592     4584     4580     4571 
    4549     4533     4515     4487     4463     4441     4403     4365 
    4340     4313     4278     4247     4220     4197     4176     4155 
    4131     4107     4088     4068     4051     4036     4020     4006 
    4000     3990     3974     3963     3967     3963     3951     3954 
    3956     3959     3967     3967     3962     3975     3991     4002 
    4024     4048     4068     4095     4133     4171     4199     4233 
    4280     4313     4349     4406     4452     4482     4518     4548 
    4573     4608     4629     4635     4653     4661     4656     4656 
    4653     4634     4610     4594     4585     4560     4525     4510 
    4492     4472     4467     4453     4437     4445     4448     4440 
    4445     4459     4469     4479     4487     4496     4496     4496 
    4507     4510     4510     4513     4500     4495     4509     4507 
    4502     4515     4514     4507     4523     4534     4538     4550 
    4563     4579     4595     4599     4606     4621     4635     4652 
    4653     4654     4665     4657     4646     4656     4652     4638 
    4627     4608     4591     4577     4563     4550     4533     4514 
    4496     4472     4456     4445     4419     4401     4401     4391 
    4379     4380     4375     4365     4365     4364     4363     4374 
    4379     4375     4376     4391     4399     4390     4383     4393 
    4403     4403     4403     4399     4392     4382     4365     4363 
    4367     4356     4341     4338     4336     4326     4313     4301 
    4294     4289     4283     4276     4263     4245     4222     4203 
    4199     4202     4186     4171     4178     4178     4170     4175 
    4186     4195     4209     4217     4223     4240     4256     4258 
    4255     4271     4298     4309     4313     4324     4324     4322 
    4337     4340     4341     4356     4356     4356     4375     4388 
    4395     4409     4425     4441     4457     4484     4519     4541 
    4557     4583     4604     4629     4656     4673     4692     4718 
    4730     4737     4757     4779     4787     4792     4801     4814 
    4819     4820     4822     4823     4824     4822     4819     4837 
    4857     4860     4864     4878     4882     4892     4923     4945 
    4955     4976     4993     5003     5022     5036     5042     5053 
    5071     5085     5092     5108     5119     5117     5125     5138 
    5143     5158     5171     5173     5182     5202     5209     5209 
    5220     5235     5240     5242     5242     5232     5217     5202 
    5184     5159     5135     5103     5059     5020     4982     4938 
    4897     4864     4822     4774     4731     4693     4665     4638 
    4606     4577     4554     4535     4517     4502     4506     4509 
    4498     4502     4518     4522     4535     4556     4573     4596 
    4621     4641     4665     4695     4719     4733     4745     4762 
    4770     4770     4772     4766     4748     4737     4718     4684 
    4657     4630     4584     4540     4502     4449     4391     4349 
    4303     4247     4200     4166     4122     4079     4052     4027 
    3994     3977     3967     3948     3937     3936     3931     3928 
    3937     3947     3960     3983     4002     4017     4047     4081 
    4109     4136     4167     4197     4225     4256     4291     4315 
    4345     4383     4410     4433     4464     4487     4509     4531 
    4552     4565     4579     4596     4606     4612     4625     4634 
    4639     4654     4662     4669     4681     4691     4696     4710 
    4718     4716     4727     4742     4737     4727     4731     4731 
    4718     4708     4702     4684     4665     4652     4629     4606 
    4596     4575     4537     4511     4496     4469     4444     4430 
    4411     4390     4376     4359     4342     4334     4326     4311 
    4302     4301     4294     4280     4284     4294     4284     4280 
    4288     4287     4288     4297     4298     4306     4324     4329 
    4326     4336     4353     4367     4378     4387     4392     4405 
    4428     4442     4450     4464     4473     4477     4492     4509 
    4519     4533     4544     4554     4576     4599     4615     4638 
    4676     4714     4747     4797     4858     4905     4954     5022 
    5092     5157     5224     5292     5355     5424     5490     5549 
    5611     5665     5703     5745     5788     5817     5834     5850 
    5854     5848     5841     5829     5798     5759     5727     5691 
    5643     5595     5551     5501     5452     5413     5363     5313 
    5275     5235     5193     5163     5136     5108     5088     5067 
    5046     5035     5026     5017     5015     5015     5017     5016 
    5024     5042     5047     5057     5076     5082     5092     5113 
    5119     5119     5134     5135     5123     5113     5104     5088 
    5066     5044     5023     4989     4962     4938     4900     4870 
    4845     4807     4776     4754     4727     4704     4680     4656 
    4638     4621     4606     4592     4576     4565     4554     4540 
    4537     4535     4523     4518     4519     4513     4507     4504 
    4495     4486     4483     4472     4455     4436     4413     4387 
    4355     4322     4288     4241     4192     4143     4083     4025 
    3969     3897     3834     3775     3707     3642     3585     3526 
    3472     3429     3387     3352     3331     3316     3300     3292 
    3299     3306     3310     3319     3336     3353     3368     3383 
    3397     3412     3424     3429     3439     3446     3442     3443 
    3446     3442     3434     3426     3420     3411     3391     3383 
    3375     3355     3348     3341     3316     3307     3304     3288 
    3283     3277     3257     3250     3249     3235     3223     3213 
    3206     3194     3180     3180     3179     3167     3168     3176 
    3175     3188     3206     3218     3242     3277     3303     3333 
    3375     3418     3459     3501     3546     3589     3627     3666 
    3693     3713     3738     3751     3750     3753     3755     3743 
    3730     3721     3705     3688     3669     3650     3634     3620 
    3607     3595     3585     3582     3578     3572     3581     3595 
    3596     3605     3627     3645     3667     3690     3708     3738 
    3767     3788     3813     3842     3863     3882     3905     3924 
    3937     3951     3969     3981     3987     3998     4005     4002 
    4003     4002     3997     3996     3991     3982     3974     3965 
    3955     3946     3932     3920     3905     3893     3880     3858 
    3835     3821     3800     3773     3757     3738     3707     3689 
    3676     3655     3640     3626     3608     3600     3592     3584 
    3582     3585     3586     3584     3589     3603     3607     3605 
    3619     3627     3626     3636     3642     3632     3634     3639 
    3626     3618     3618     3605     3588     3581     3578     3565 
    3547     3542     3537     3524     3518     3510     3501     3500 
    3495     3484     3483     3485     3477     3468     3462     3459 
    3454     3450     3439     3430     3424     3416     3399     3392 
    3395     3388     3380     3383     3388     3392     3403     3412 
    3416     3426     3437     3445     3454     3464     3472     3476 
    3480     3485     3483     3483     3487     3478     3462     3458 
    3446     3422     3406     3388     3362     3336     3311     3284 
    3257     3226     3194     3167     3136     3099     3065     3041 
    3009     2965     2937     2918     2882     2855     2844     2825 
    2805     2801     2802     2803     2814     2828     2844     2868 
    2895     2926     2964     3001     3029     3053     3090     3126 
    3138     3153     3179     3187     3186     3196     3192     3168 
    3153     3138     3106     3075     3053     3021     2984     2952 
    2920     2891     2868     2849     2833     2824     2824     2825 
    2836     2862     2882     2898     2936     2978     3009     3052 
    3095     3129     3172     3218     3252     3284     3327     3365 
    3392     3419     3451     3473     3488     3514     3528     3534 
    3549     3553     3549     3555     3558     3549     3542     3538 
    3526     3511     3497     3481     3462     3445     3429     3410 
    3391     3380     3360     3345     3348     3339     3325     3335 
    3342     3336     3350     3366     3368     3381     3400     3411 
    3420     3433     3447     3459     3469     3484     3497     3504 
    3522     3538     3547     3572     3592     3608     3640     3667 
    3690     3727     3762     3794     3831     3867     3904     3932 
    3964     4006     4036     4058     4086     4109     4120     4135 
    4148     4158     4168     4166     4159     4167     4163     4151 
    4149     4152     4148     4143     4143     4145     4145     4149 
    4153     4148     4151     4159     4149     4147     4159     4153 
    4140     4145     4140     4125     4121     4113     4098     4088 
    4081     4068     4058     4054     4050     4036     4032     4036 
    4027     4020     4029     4027     4021     4032     4040     4043 
    4047     4050     4051     4052     4055     4055     4045     4041 
    4041     4024     4016     4017     3997     3981     3981     3969 
    3956     3958     3958     3951     3954     3962     3964     3965 
    3977     3989     3998     4013     4031     4044     4062     4082 
    4097     4113     4140     4159     4176     4199     4220     4243 
    4266     4288     4311     4341     4360     4374     4396     4421 
    4433     4446     4463     4472     4471     4473     4479     4475 
    4473     4473     4459     4446     4444     4434     4421     4413 
    4406     4395     4386     4384     4383     4382     4390     4399 
    4406     4419     4436     4448     4469     4498     4517     4541 
    4573     4594     4618     4656     4681     4702     4731     4756 
    4780     4806     4826     4849     4873     4893     4916     4931 
    4950     4974     4989     5008     5036     5047     5053     5074 
    5088     5086     5090     5090     5080     5067     5057     5040 
    5024     5005     4981     4955     4930     4904     4876     4849 
    4824     4796     4764     4737     4703     4671     4645     4615 
    4583     4558     4534     4507     4486     4463     4445     4434 
    4421     4411     4405     4401     4409     4413     4415     4436 
    4446     4453     4482     4502     4517     4540     4556     4571 
    4594     4606     4621     4637     4649     4658     4664     4672 
    4681     4677     4680     4689     4677     4665     4665     4653 
    4637     4625     4606     4590     4579     4568     4556     4548 
    4542     4533     4521     4518     4522     4515     4511     4511 
    4502     4502     4507     4502     4500     4507     4506     4511 
    4530     4541     4553     4575     4596     4617     4645     4679 
    4710     4742     4785     4827     4852     4889     4935     4959 
    4984     5016     5034     5047     5065     5071     5074     5073 
    5063     5062     5055     5043     5038     5027     5020     5016 
    5000     4997     5007     4997     4993     5009     5013     5016 
    5030     5040     5053     5071     5085     5101     5123     5142 
    5151     5161     5179     5190     5190     5197     5204     5200 
    5198     5198     5185     5177     5175     5159     5140     5130 
    5117     5100     5082     5071     5062     5046     5034     5020 
    5009     5009     4999     4982     4985     4986     4978     4985 
    4989     4985     4994     5012     5019     5034     5059     5080 
    5100     5128     5158     5182     5209     5244     5275     5301 
    5337     5366     5377     5406     5441     5456     5471     5494 
    5510     5525     5543     5557     5574     5598     5618     5633 
    5656     5683     5703     5724     5749     5772     5793     5823 
    5849     5867     5890     5913     5922     5940     5961     5962 
    5960     5967     5971     5961     5949     5942     5935     5921 
    5910     5900     5883     5871     5863     5842     5831     5829 
    5813     5803     5805     5798     5798     5798     5787     5780 
    5780     5775     5760     5749     5740     5725     5702     5686 
    5664     5630     5602     5572     5532     5501     5468     5421 
    5385     5360     5321     5279     5252     5231     5202     5174 
    5155     5140     5128     5127     5123     5113     5121     5131 
    5125     5131     5150     5150     5151     5161     5167     5169 
    5166     5162     5169     5167     5157     5151     5148     5147 
    5139     5124     5121     5120     5100     5085     5077     5054 
    5034     5020     4988     4962     4942     4908     4877     4850 
    4814     4783     4748     4714     4680     4641     4610     4583 
    4550     4529     4509     4479     4464     4455     4433     4428 
    4426     4415     4411     4411     4410     4414     4414     4413 
    4414     4413     4414     4410     4406     4407     4393     4374 
    4372     4356     4321     4301     4278     4241     4214     4185 
    4147     4117     4088     4062     4036     4009     3991     3975 
    3948     3942     3939     3925     3925     3928     3920     3928 
    3939     3942     3951     3967     3977     3990     4003     4016 
    4028     4041     4055     4067     4079     4093     4101     4109 
    4121     4125     4129     4140     4143     4140     4149     4147 
    4133     4128     4125     4117     4106     4095     4085     4068 
    4055     4047     4027     4013     4009     3984     3962     3960 
    3940     3912     3902     3886     3861     3844     3827     3807 
    3789     3769     3750     3731     3715     3701     3684     3666 
    3653     3634     3615     3607     3588     3563     3557     3541 
    3511     3495     3483     3456     3431     3414     3393     3366 
    3343     3326     3299     3277     3269     3249     3234     3235 
    3230     3226     3237     3246     3253     3271     3291     3311 
    3330     3354     3381     3404     3431     3458     3477     3500 
    3530     3546     3561     3585     3599     3612     3634     3643 
    3649     3666     3672     3667     3678     3680     3669     3666 
    3659     3642     3626     3613     3589     3558     3534     3514 
    3484     3453     3430     3404     3377     3357     3336     3317 
    3308     3299     3288     3292     3302     3302     3310     3329 
    3341     3353     3376     3396     3407     3434     3459     3466 
    3481     3511     3527     3538     3558     3576     3591     3604 
    3615     3627     3650     3667     3666     3669     3689     3703 
    3696     3696     3705     3703     3699     3700     3690     3677 
    3674     3666     3651     3650     3642     3618     3609     3609 
    3591     3576     3570     3559     3542     3532     3523     3505 
    3492     3483     3466     3449     3438     3429     3415     3407 
    3395     3379     3376     3375     3365     3364     3369     3369 
    3369     3380     3391     3392     3399     3416     3419     3420 
    3431     3433     3435     3445     3440     3440     3450     3446 
    3440     3450     3449     3443     3451     3464     3470     3478 
    3489     3507     3519     3532     3558     3578     3596     3624 
    3645     3662     3689     3709     3719     3738     3757     3767 
    3778     3788     3792     3796     3801     3804     3802     3801 
    3802     3798     3797     3800     3793     3788     3793     3789 
    3785     3796     3798     3793     3797     3805     3816     3823 
    3828     3842     3851     3861     3874     3875     3889     3915 
    3920     3925     3955     3965     3974     4000     4012     4020 
    4044     4060     4068     4082     4097     4109     4113     4124 
    4137     4139     4143     4148     4140     4135     4135     4122 
    4107     4106     4097     4071     4055     4044     4027     4010 
    3996     3978     3964     3951     3932     3915     3908     3901 
    3886     3878     3877     3865     3858     3859     3855     3855 
    3861     3858     3859     3867     3866     3861     3866     3875 
    3880     3871     3871     3880     3875     3874     3885     3882 
    3878     3883     3879     3880     3890     3888     3883     3890 
    3894     3896     3901     3904     3906     3912     3921     3932 
    3936     3947     3963     3970     3984     4002     4008     4021 
    4040     4050     4059     4074     4090     4098     4106     4120 
    4128     4131     4136     4140     4140     4145     4144     4137 
    4143     4144     4135     4136     4136     4129     4135     4139 
    4131     4133     4147     4145     4140     4144     4151     4149 
    4147     4155     4159     4151     4151     4159     4155     4151 
    4153     4147     4144     4147     4140     4140     4148     4147 
    4145     4158     4168     4174     4189     4209     4218     4228 
    4251     4271     4287     4307     4329     4344     4368     4393 
    4407     4425     4452     4475     4491     4511     4537     4556 
    4573     4596     4618     4638     4661     4683     4699     4726 
    4753     4765     4787     4814     4824     4838     4860     4872 
    4880     4892     4896     4899     4907     4905     4900     4897 
    4897     4895     4884     4876     4880     4878     4868     4868 
    4870     4869     4870     4868     4872     4888     4891     4891 
    4904     4911     4911     4916     4920     4918     4916     4911 
    4903     4891     4881     4872     4850     4834     4824     4808 
    4795     4783     4764     4753     4745     4727     4715     4708 
    4703     4691     4677     4673     4669     4660     4654     4650 
