Origin Time       2016/04/16 01:25:00
Lat.              32.753
Long.             130.762
Depth. (km)       12
Mag.              7.3
Station Code      KYT002
Station Lat.      35.6037
Station Long.     134.8941
Station Height(m) 3
Record Time       2016/04/16 01:27:28
Sampling Freq(Hz) 100Hz
Duration Time(s)  68
Dir.              E-W
Scale Factor      7845(gal)/8223790
Max. Acc. (gal)   2.242
Last Correction   2016/04/16 01:27:29
Memo.             
[...]
    1112     1063     1015      973      936      895      855      826 
     799      781      769      757      758      769      783      800 
     828      864      903      949     1000     1050     1098     1151 
    1201     1255     1312     1362     1405     1453     1494     1522 
    1545     1563     1570     1568     1564     1553     1530     1503 
    1472     1439     1402     1359     1316     1271     1228     1189 
    1152     1116     1085     1058     1036     1024     1017     1008 
    1011     1031     1053     1075     1115     1156     1200     1259 
    1318     1370     1428     1490     1549     1605     1655     1698 
    1733     1763     1788     1800     1806     1814     1809     1792 
    1772     1744     1711     1674     1628     1586     1544     1498 
    1452     1402     1352     1308     1269     1232     1201     1173 
    1148     1129     1113     1101     1100     1105     1107     1113 
    1125     1143     1165     1193     1221     1244     1271     1297 
    1318     1334     1351     1370     1383     1390     1398     1401 
    1397     1401     1397     1382     1372     1368     1362     1354 
    1340     1331     1323     1308     1294     1271     1252     1242 
    1229     1215     1202     1192     1185     1185     1185     1183 
    1190     1198     1205     1210     1206     1205     1206     1204 
    1205     1205     1210     1217     1212     1208     1208     1213 
    1225     1236     1242     1243     1240     1237     1233     1230 
    1227     1217     1208     1196     1181     1166     1150     1143 
    1129     1112     1107     1104     1098     1090     1081     1081 
    1077     1074     1075     1073     1073     1060     1048     1043 
    1028     1020     1009      993      980      967      957      943 
     926      918      907      892      877      869      864      858 
     855      851      845      843      849      850      855      866 
     884      903      924      955      987     1019     1051     1080 
    1112     1146     1175     1210     1237     1264     1293     1316 
    1343     1367     1385     1405     1426     1449     1463     1470 
    1486     1497     1498     1501     1503     1506     1502     1495 
    1493     1482     1467     1453     1436     1412     1383     1360 
    1337     1308     1279     1250     1216     1178     1142     1111 
    1077     1042     1015      987      961      932      916      909 
     900      892      890      901      920      934      953      976 
    1003     1038     1073     1116     1162     1204     1254     1308 
    1363     1418     1471     1522     1582     1637     1686     1732 
    1763     1790     1817     1833     1841     1842     1833     1821 
    1806     1781     1752     1723     1691     1655     1618     1576 
    1532     1485     1435     1379     1318     1258     1194     1133 
    1073     1011      953      900      853      814      776      743 
     719      699      688      685      692      704      719      738 
     765      800      841      873      905      947      986     1024 
    1065     1101     1142     1194     1240     1279     1321     1362 
    1401     1441     1478     1502     1517     1528     1530     1525 
    1516     1498     1474     1448     1416     1378     1339     1300 
    1260     1225     1189     1148     1111     1074     1039     1011 
     987      962      940      924      912      901      900      905 
     915      934      961      984     1008     1039     1081     1124 
    1169     1204     1236     1273     1308     1340     1368     1393 
    1416     1439     1456     1471     1479     1489     1506     1522 
    1532     1535     1540     1549     1556     1557     1563     1567 
    1567     1571     1578     1580     1579     1575     1576     1580 
    1586     1586     1588     1598     1605     1605     1610     1613 
    1610     1610     1609     1599     1579     1552     1528     1506 
    1482     1448     1410     1382     1356     1324     1294     1274 
    1247     1220     1201     1189     1179     1169     1159     1151 
    1144     1144     1140     1144     1159     1174     1190     1210 
    1242     1282     1325     1370     1417     1455     1502     1566 
    1614     1648     1684     1722     1761     1792     1804     1811 
    1817     1819     1818     1813     1802     1784     1767     1745 
    1718     1699     1674     1634     1601     1574     1539     1501 
    1466     1426     1394     1367     1336     1306     1282     1264 
    1251     1236     1225     1223     1225     1229     1233     1235 
    1237     1248     1264     1275     1281     1293     1308     1324 
    1341     1355     1364     1381     1397     1410     1422     1435 
    1445     1459     1472     1485     1501     1512     1516     1522 
    1528     1528     1524     1514     1506     1494     1482     1464 
    1433     1404     1381     1356     1323     1282     1248     1220 
    1185     1154     1128     1094     1055     1024     1000      978 
     962      950      942      935      929      926      923      929 
     943      961      973      987     1011     1031     1044     1062 
    1085     1107     1128     1151     1174     1192     1201     1204 
    1208     1213     1217     1219     1210     1202     1206     1206 
    1198     1197     1202     1208     1215     1225     1242     1255 
    1266     1286     1302     1317     1344     1374     1402     1425 
    1448     1478     1506     1530     1554     1566     1564     1566 
    1567     1566     1557     1533     1505     1466     1422     1386 
    1348     1308     1270     1227     1190     1159     1131     1115 
    1104     1092     1089     1094     1107     1129     1158     1197 
    1232     1273     1332     1394     1460     1532     1598     1667 
    1740     1804     1859     1917     1969     2007     2041     2076 
    2102     2123     2137     2133     2124     2119     2106     2079 
    2052     2015     1975     1935     1890     1848     1806     1761 
    1718     1672     1630     1591     1553     1521     1489     1452 
    1416     1379     1344     1312     1279     1243     1213     1190 
    1173     1159     1143     1132     1125     1113     1104     1105 
    1107     1096     1084     1085     1094     1096     1084     1065 
    1047     1031     1028     1026     1005      992      987      966 
     942      938      940      927      903      899      897      889 
     880      855      832      831      837      838      838      826 
     811      800      783      772      780      780      772      772 
     772      765      758      767      795      812      815      822 
     826      820      834      854      851      861      885      882 
     866      861      858      862      861      847      838      822 
     800      799      799      785      776      781      791      789 
     795      816      832      830      834      859      896      931 
     972      996     1003     1021     1047     1067     1081     1085 
    1086     1090     1088     1086     1088     1075     1053     1038 
    1031     1034     1034     1015      993      993     1000      993 
     982      986      993      999     1003     1004     1012     1023 
    1021     1015     1020     1039     1065     1097     1117     1123 
    1140     1165     1179     1212     1256     1279     1287     1314 
    1350     1370     1394     1431     1471     1512     1551     1583 
    1611     1648     1692     1721     1749     1787     1802     1821 
    1852     1868     1878     1891     1888     1881     1896     1910 
    1890     1871     1852     1823     1819     1810     1780     1750 
    1715     1677     1647     1632     1618     1584     1556     1544 
    1526     1502     1480     1466     1453     1444     1440     1421 
    1405     1405     1390     1371     1362     1348     1332     1314 
    1285     1230     1189     1165     1135     1100     1039      982 
     958      936      919      905      896      882      823      830 
     923      936      920      977     1032     1081     1147     1202 
    1285     1404     1487     1534     1603     1717     1838     1906 
    1949     2025     2089     2139     2191     2245     2295     2277 
    2227     2245     2273     2231     2166     2100     2027     1973 
    1912     1815     1726     1664     1586     1493     1405     1334 
    1279     1235     1205     1178     1150     1148     1154     1167 
    1212     1254     1294     1348     1424     1520     1603     1680 
    1761     1845     1937     2008     2069     2137     2196     2247 
    2261     2258     2269     2257     2238     2228     2195     2142 
    2087     2034     1991     1941     1869     1791     1719     1648 
    1586     1532     1459     1383     1333     1293     1250     1209 
    1179     1161     1140     1135     1144     1147     1171     1209 
    1225     1237     1264     1301     1350     1426     1490     1470 
    1456     1544     1609     1590     1618     1672     1675     1675 
    1688     1701     1696     1661     1652     1672     1652     1599 
    1606     1636     1564     1447     1399     1405     1389     1341 
    1287     1193     1098     1070     1011      911      847      776 
     711      653      540      457      413      317      249      217 
     139       71       51       31      -10      -58      -59      -23 
     -21      -20       20       63      122      193      255      352 
     446      522      650      776      855      957     1085     1205 
    1313     1413     1514     1610     1688     1750     1799     1852 
    1900     1927     1933     1918     1900     1887     1850     1787 
    1722     1660     1599     1518     1425     1356     1287     1205 
    1151     1109     1065     1021      982      966      958      942 
     942      945      950      973      984      993     1012     1004 
    1004     1042     1074     1104     1147     1177     1178     1161 
    1179     1224     1235     1228     1208     1189     1212     1215 
    1174     1152     1143     1107     1081     1112     1156     1154 
    1124     1098     1090     1115     1132     1111     1121     1165 
    1146     1077     1030     1012      999      962      905      850 
     801      769      720      639      575      488      378      352 
     373      344      252      135       62       55       72       91 
      81       52       55       95      144      199      275      369 
     472      575      669      776      897     1020     1171     1313 
    1393     1471     1575     1655     1722     1780     1810     1829 
    1844     1871     1900     1890     1846     1806     1759     1722 
    1702     1644     1576     1539     1487     1426     1379     1316 
    1254     1208     1169     1151     1133     1090     1063     1065 
    1078     1092     1097     1101     1127     1178     1237     1290 
    1329     1378     1452     1528     1599     1682     1764     1845 
    1926     2004     2095     2193     2281     2366     2455     2539 
    2617     2690     2771     2874     2965     3009     3038     3087 
    3130     3156     3168     3152     3117     3071     3018     2947 
    2862     2772     2681     2579     2463     2338     2207     2070 
    1944     1841     1738     1615     1501     1404     1316     1239 
    1165     1092     1050     1036     1030     1026     1030     1039 
    1069     1101     1123     1152     1212     1277     1328     1364 
    1382     1402     1440     1466     1468     1480     1486     1452 
    1412     1389     1360     1316     1270     1225     1163     1081 
    1007      950      907      872      827      767      712      670 
     630      595      583      581      568      548      535      545 
     571      583      573      569      571      568      579      591 
     583      572      550      514      491      473      440      410 
     390      356      311      271      237      210      197      202 
     205      195      189      207      249      297      340      406 
     495      568      622      669      733      823      903      970 
    1050     1131     1197     1247     1306     1371     1405     1439 
    1491     1513     1509     1518     1509     1495     1483     1453 
    1417     1393     1368     1337     1294     1252     1215     1171 
    1133     1111     1092     1071     1039     1007      981      958 
     947      954      957      953      943      936      963     1011 
    1057     1109     1167     1228     1305     1391     1494     1605 
    1701     1787     1894     2023     2146     2246     2340     2431 
    2513     2597     2677     2737     2786     2836     2898     2948 
    2960     2929     2867     2824     2830     2820     2747     2651 
    2546     2425     2316     2222     2118     2003     1894     1792 
    1690     1571     1453     1368     1314     1282     1259     1232 
    1205     1196     1185     1175     1208     1259     1300     1351 
    1405     1453     1528     1617     1690     1763     1845     1914 
    1984     2066     2126     2161     2196     2226     2245     2273 
    2297     2281     2224     2154     2089     2031     1966     1891 
    1798     1674     1526     1382     1246     1104      961      808 
     634      456      283      106      -55     -195     -337     -486 
    -619     -735     -831     -912     -989    -1059    -1097    -1093 
   -1071    -1048    -1024     -989     -931     -854     -764     -653 
    -537     -434     -338     -234     -129      -28       90      211 
     324      430      538      634      719      808      890      959 
    1030     1096     1146     1182     1213     1237     1256     1266 
    1264     1255     1243     1232     1206     1166     1127     1088 
    1048     1015      982      943      884      818      758      710 
     677      653      614      565      529      499      468      437 
     418      425      456      491      519      545      579      638 
     712      787      866      963     1074     1188     1300     1409 
    1525     1655     1791     1922     2050     2184     2319     2450 
    2571     2683     2789     2879     2949     3013     3065     3095 
    3109     3109     3086     3046     2995     2920     2826     2729 
    2620     2502     2388     2270     2137     1996     1861     1733 
    1609     1483     1352     1219     1089      969      864      772 
     683      594      511      430      352      286      229      190 
     174      164      157      147      129      133      163      197 
     228      265      329      406      472      538      603      656 
     712      781      859      928      980     1020     1047     1071 
    1085     1075     1053     1024      976      913      843      760 
     668      576      475      359      228       95      -29     -149 
    -255     -352     -449     -553     -648     -719     -788     -854 
    -896     -923     -940     -931     -885     -818     -747     -673 
    -585     -463     -294     -101       95      282      456      625 
     801     1003     1215     1413     1594     1759     1902     2012 
    2111     2223     2338     2435     2497     2528     2539     2532 
    2524     2529     2529     2509     2475     2413     2331     2265 
    2204     2130     2039     1942     1849     1752     1653     1566 
    1468     1352     1236     1135     1046      957      858      764 
     681      602      538      508      488      468      460      457 
     451      468      511      579      668      753      811      862 
     940     1039     1144     1250     1348     1437     1526     1611 
    1679     1734     1773     1786     1784     1769     1736     1686 
    1615     1532     1444     1337     1223     1109      978      849 
     733      612      496      383      278      195      135       75 
      21      -13      -31      -39      -39      -18       22       72 
     140      211      289      379      453      522      602      672 
     731      808      886      936      962      993     1028     1048 
    1065     1092     1107     1116     1123     1125     1132     1133 
    1146     1188     1228     1266     1302     1332     1368     1409 
    1455     1514     1579     1644     1702     1757     1814     1865 
    1907     1956     2004     2033     2058     2083     2102     2111 
    2104     2095     2089     2064     2026     1988     1942     1887 
    1831     1776     1714     1647     1575     1495     1414     1340 
    1266     1189     1113     1034      958      895      828      761 
     696      634      583      526      460      418      391      344 
     310      291      256      243      243      225      222      234 
     228      224      240      245      237      244      257      253 
     257      266      253      246      248      229      210      193 
     157      122       83       36      -11      -63     -112     -167 
    -232     -291     -351     -415     -475     -535     -594     -639 
    -688     -728     -753     -781     -808     -822     -831     -831 
    -820     -805     -788     -764     -734     -704     -668     -623 
    -579     -533     -480     -430     -383     -328     -268     -214 
    -156      -95      -39       13       68      133      203      263 
     315      379      448      510      573      641      707      777 
     847      922     1005     1088     1166     1242     1325     1420 
    1512     1605     1707     1809     1911     2012     2114     2223 
    2324     2420     2525     2632     2733     2822     2902     2986 
    3064     3129     3187     3226     3241     3249     3262     3260 
    3223     3173     3111     3038     2974     2891     2779     2671 
    2567     2451     2331     2201     2068     1942     1817     1680 
    1547     1420     1294     1174     1058      940      830      720 
     634      561      477      407      340      276      246      203 
     144      110       78       56       47       23        2      -16 
     -25      -16      -11       -5        0        2       32       63 
      74      102      152      190      212      232      259      310 
     349      356      373      418      467      493      506      540 
     588      633      656      668      700      738      749      750 
     754      761      777      780      776      796      831      855 
     874      897      945     1009     1057     1104     1182     1277 
    1371     1457     1554     1682     1811     1919     2018     2123 
    2230     2323     2408     2493     2565     2628     2679     2713 
    2740     2756     2754     2747     2737     2718     2687     2648 
    2598     2535     2463     2392     2335     2288     2214     2130 
    2079     2047     2010     1971     1939     1926     1923     1912 
    1907     1911     1906     1890     1875     1875     1888     1884 
    1842     1794     1765     1745     1711     1658     1594     1541 
    1487     1413     1332     1255     1171     1078      989      909 
     842      776      702      616      538      473      415      353 
     298      268      256      234      212      207      214      225 
