Origin Time       2016/04/16 01:25:00
Lat.              32.753
Long.             130.762
Depth. (km)       12
Mag.              7.3
Station Code      KYT004
Station Lat.      35.5354
Station Long.     135.1960
Station Height(m) 20
Record Time       2016/04/16 01:27:32
Sampling Freq(Hz) 100Hz
Duration Time(s)  73
Dir.              E-W
Scale Factor      7845(gal)/8223790
Max. Acc. (gal)   1.893
Last Correction   2016/04/16 01:27:34
Memo.             
[...]
   -7134    -7144    -7156    -7167    -7175    -7187    -7195    -7203 
   -7215    -7225    -7236    -7252    -7269    -7288    -7310    -7329 
   -7346    -7366    -7384    -7403    -7429    -7454    -7480    -7508 
   -7539    -7570    -7597    -7623    -7647    -7669    -7685    -7701 
   -7713    -7722    -7727    -7731    -7727    -7717    -7708    -7695 
   -7673    -7651    -7628    -7604    -7581    -7561    -7538    -7515 
   -7499    -7480    -7461    -7442    -7425    -7406    -7392    -7381 
   -7371    -7360    -7353    -7345    -7334    -7325    -7315    -7304 
   -7291    -7276    -7263    -7253    -7248    -7242    -7236    -7236 
   -7238    -7244    -7250    -7261    -7273    -7285    -7298    -7307 
   -7319    -7334    -7346    -7354    -7364    -7375    -7384    -7392 
   -7399    -7408    -7416    -7423    -7426    -7426    -7429    -7431 
   -7429    -7431    -7439    -7442    -7442    -7446    -7449    -7456 
   -7470    -7482    -7493    -7508    -7522    -7538    -7555    -7574 
   -7592    -7607    -7618    -7626    -7630    -7632    -7628    -7619 
   -7609    -7601    -7589    -7576    -7564    -7548    -7533    -7520 
   -7506    -7491    -7477    -7462    -7446    -7429    -7406    -7383 
   -7362    -7334    -7300    -7273    -7245    -7211    -7180    -7153 
   -7119    -7084    -7056    -7032    -7011    -6990    -6972    -6959 
   -6945    -6930    -6921    -6912    -6901    -6895    -6895    -6894 
   -6895    -6898    -6907    -6914    -6919    -6926    -6929    -6932 
   -6939    -6944    -6951    -6964    -6978    -6994    -7014    -7036 
   -7056    -7083    -7110    -7137    -7164    -7192    -7217    -7240 
   -7261    -7279    -7292    -7302    -7314    -7323    -7333    -7344 
   -7350    -7357    -7364    -7371    -7380    -7387    -7391    -7398 
   -7406    -7410    -7415    -7422    -7425    -7425    -7426    -7429 
   -7427    -7420    -7418    -7416    -7411    -7406    -7399    -7393 
   -7392    -7388    -7388    -7389    -7389    -7389    -7387    -7383 
   -7376    -7371    -7362    -7350    -7338    -7327    -7314    -7302 
   -7292    -7277    -7264    -7249    -7231    -7218    -7206    -7191 
   -7179    -7168    -7159    -7150    -7145    -7142    -7138    -7137 
   -7141    -7146    -7155    -7163    -7175    -7187    -7202    -7213 
   -7225    -7238    -7253    -7272    -7292    -7314    -7337    -7360 
   -7378    -7398    -7418    -7439    -7456    -7472    -7488    -7503 
   -7512    -7522    -7533    -7542    -7550    -7557    -7562    -7565 
   -7565    -7562    -7555    -7546    -7534    -7519    -7503    -7484 
   -7462    -7443    -7423    -7400    -7381    -7364    -7342    -7325 
   -7311    -7300    -7292    -7284    -7279    -7281    -7288    -7296 
   -7307    -7321    -7333    -7346    -7362    -7380    -7395    -7410 
   -7426    -7435    -7442    -7446    -7444    -7439    -7431    -7419 
   -7402    -7383    -7360    -7334    -7306    -7275    -7244    -7214 
   -7184    -7152    -7122    -7094    -7060    -7025    -6993    -6957 
   -6921    -6891    -6864    -6840    -6821    -6805    -6791    -6786 
   -6782    -6786    -6791    -6795    -6808    -6826    -6848    -6872 
   -6901    -6939    -6979    -7021    -7067    -7113    -7163    -7217 
   -7269    -7319    -7372    -7423    -7474    -7520    -7562    -7601 
   -7632    -7657    -7676    -7684    -7684    -7680    -7668    -7647 
   -7623    -7593    -7557    -7515    -7472    -7429    -7387    -7342 
   -7294    -7246    -7202    -7159    -7121    -7084    -7051    -7020 
   -6990    -6968    -6949    -6932    -6917    -6906    -6895    -6886 
   -6886    -6894    -6903    -6917    -6936    -6959    -6990    -7025 
   -7064    -7107    -7156    -7213    -7272    -7330    -7389    -7443 
   -7496    -7547    -7591    -7628    -7665    -7696    -7722    -7743 
   -7763    -7778    -7789    -7797    -7798    -7796    -7786    -7771 
   -7751    -7730    -7703    -7669    -7635    -7603    -7569    -7533 
   -7495    -7453    -7414    -7373    -7335    -7302    -7267    -7229 
   -7194    -7163    -7132    -7101    -7072    -7041    -7009    -6980 
   -6955    -6929    -6909    -6895    -6883    -6875    -6872    -6874 
   -6879    -6886    -6897    -6910    -6925    -6941    -6959    -6975 
   -6995    -7023    -7052    -7082    -7114    -7144    -7169    -7196 
   -7221    -7244    -7267    -7287    -7304    -7322    -7339    -7354 
   -7365    -7380    -7393    -7402    -7411    -7419    -7425    -7429 
   -7433    -7437    -7434    -7431    -7429    -7416    -7402    -7383 
   -7358    -7329    -7300    -7275    -7248    -7221    -7198    -7176 
   -7155    -7138    -7126    -7114    -7103    -7098    -7094    -7096 
   -7098    -7101    -7105    -7109    -7121    -7132    -7142    -7159 
   -7173    -7186    -7198    -7210    -7217    -7221    -7223    -7223 
   -7223    -7226    -7233    -7238    -7245    -7257    -7271    -7287 
   -7306    -7321    -7337    -7354    -7369    -7376    -7380    -7381 
   -7378    -7371    -7361    -7356    -7349    -7339    -7334    -7329 
   -7323    -7317    -7307    -7304    -7298    -7287    -7280    -7276 
   -7272    -7272    -7277    -7283    -7292    -7307    -7326    -7346 
   -7372    -7402    -7429    -7457    -7488    -7514    -7537    -7558 
   -7580    -7596    -7607    -7614    -7618    -7623    -7628    -7631 
   -7631    -7631    -7631    -7630    -7626    -7619    -7611    -7600 
   -7588    -7577    -7566    -7553    -7546    -7539    -7533    -7527 
   -7520    -7510    -7501    -7493    -7481    -7469    -7457    -7444 
   -7433    -7419    -7404    -7392    -7381    -7369    -7361    -7360 
   -7358    -7365    -7376    -7385    -7402    -7422    -7438    -7461 
   -7487    -7506    -7523    -7539    -7551    -7560    -7564    -7565 
   -7564    -7561    -7557    -7550    -7542    -7531    -7515    -7497 
   -7480    -7461    -7441    -7420    -7402    -7384    -7366    -7349 
   -7333    -7317    -7306    -7296    -7285    -7273    -7260    -7248 
   -7233    -7219    -7206    -7192    -7179    -7164    -7145    -7130 
   -7119    -7105    -7094    -7094    -7098    -7105    -7119    -7136 
   -7150    -7172    -7202    -7230    -7257    -7288    -7317    -7342 
   -7369    -7396    -7420    -7442    -7464    -7480    -7496    -7512 
   -7522    -7527    -7531    -7533    -7527    -7518    -7504    -7487 
   -7468    -7446    -7422    -7400    -7377    -7352    -7330    -7307 
   -7287    -7267    -7245    -7222    -7198    -7182    -7164    -7148 
   -7136    -7130    -7127    -7129    -7132    -7146    -7164    -7182 
   -7200    -7221    -7245    -7271    -7295    -7317    -7338    -7361 
   -7380    -7402    -7427    -7454    -7487    -7522    -7557    -7595 
   -7632    -7666    -7701    -7735    -7766    -7796    -7823    -7846 
   -7865    -7879    -7889    -7896    -7897    -7893    -7889    -7875 
   -7850    -7824    -7793    -7744    -7692    -7634    -7568    -7493 
   -7415    -7334    -7252    -7163    -7074    -6988    -6903    -6815 
   -6729    -6642    -6554    -6469    -6389    -6311    -6232    -6158 
   -6088    -6023    -5964    -5913    -5869    -5833    -5805    -5790 
   -5783    -5786    -5802    -5826    -5859    -5906    -5964    -6030 
   -6103    -6185    -6278    -6374    -6475    -6582    -6696    -6812 
   -6930    -7049    -7163    -7275    -7385    -7488    -7584    -7676 
   -7759    -7832    -7900    -7959    -8007    -8051    -8086    -8113 
   -8131    -8143    -8144    -8139    -8128    -8108    -8077    -8040 
   -7994    -7943    -7888    -7827    -7761    -7695    -7624    -7553 
   -7487    -7416    -7346    -7279    -7210    -7136    -7065    -6999 
   -6932    -6866    -6809    -6758    -6711    -6677    -6648    -6629 
   -6623    -6623    -6631    -6646    -6664    -6689    -6721    -6758 
   -6799    -6845    -6894    -6948    -7005    -7064    -7126    -7187 
   -7250    -7312    -7372    -7429    -7488    -7545    -7599    -7649 
   -7690    -7730    -7766    -7796    -7819    -7838    -7851    -7862 
   -7865    -7862    -7855    -7843    -7827    -7809    -7782    -7755 
   -7727    -7697    -7666    -7635    -7603    -7570    -7542    -7519 
   -7503    -7489    -7479    -7474    -7477    -7482    -7495    -7518 
   -7539    -7562    -7592    -7626    -7657    -7692    -7728    -7767 
   -7808    -7847    -7889    -7931    -7973    -8009    -8044    -8075 
   -8100    -8117    -8133    -8144    -8151    -8148    -8143    -8135 
   -8124    -8110    -8093    -8073    -8048    -8017    -7986    -7956 
   -7919    -7877    -7836    -7788    -7735    -7685    -7638    -7589 
   -7545    -7504    -7462    -7426    -7395    -7364    -7337    -7314 
   -7295    -7277    -7261    -7248    -7236    -7226    -7225    -7227 
   -7233    -7246    -7264    -7284    -7311    -7340    -7372    -7406 
   -7443    -7479    -7510    -7539    -7565    -7585    -7600    -7614 
   -7619    -7619    -7612    -7599    -7581    -7557    -7527    -7491 
   -7447    -7399    -7345    -7285    -7219    -7152    -7083    -7011 
   -6940    -6874    -6808    -6739    -6681    -6629    -6581    -6536 
   -6504    -6477    -6457    -6446    -6444    -6450    -6463    -6486 
   -6517    -6555    -6600    -6654    -6716    -6782    -6852    -6929 
   -7014    -7106    -7200    -7300    -7408    -7515    -7623    -7732 
   -7835    -7931    -8024    -8113    -8193    -8266    -8336    -8395 
   -8446    -8487    -8517    -8536    -8540    -8536    -8523    -8494 
   -8454    -8413    -8361    -8301    -8235    -8162    -8078    -7993 
   -7905    -7813    -7719    -7623    -7523    -7422    -7322    -7225 
   -7129    -7036    -6951    -6871    -6793    -6725    -6666    -6609 
   -6559    -6520    -6493    -6475    -6467    -6470    -6485    -6511 
   -6544    -6588    -6642    -6705    -6777    -6856    -6937    -7021 
   -7111    -7207    -7306    -7406    -7507    -7604    -7699    -7789 
   -7873    -7942    -7998    -8044    -8075    -8090    -8091    -8085 
   -8067    -8037    -7998    -7951    -7897    -7838    -7774    -7704 
   -7630    -7553    -7473    -7391    -7306    -7222    -7141    -7061 
   -6983    -6910    -6848    -6789    -6733    -6683    -6640    -6602 
   -6569    -6544    -6529    -6527    -6531    -6548    -6579    -6624 
   -6681    -6754    -6841    -6939    -7047    -7163    -7285    -7415 
   -7543    -7666    -7789    -7911    -8027    -8133    -8235    -8329 
   -8414    -8486    -8549    -8603    -8642    -8671    -8687    -8692 
   -8683    -8658    -8618    -8567    -8506    -8436    -8355    -8272 
   -8189    -8101    -8016    -7931    -7847    -7769    -7693    -7619 
   -7551    -7488    -7422    -7354    -7294    -7238    -7179    -7121 
   -7068    -7017    -6966    -6918    -6872    -6831    -6790    -6754 
   -6721    -6694    -6673    -6656    -6648    -6651    -6660    -6673 
   -6698    -6732    -6774    -6824    -6883    -6943    -7006    -7075 
   -7144    -7211    -7276    -7338    -7399    -7454    -7503    -7543 
   -7577    -7607    -7630    -7647    -7662    -7677    -7685    -7695 
   -7703    -7711    -7715    -7717    -7722    -7723    -7726    -7727 
   -7726    -7727    -7734    -7735    -7739    -7747    -7753    -7758 
   -7761    -7763    -7765    -7765    -7761    -7759    -7753    -7740 
   -7731    -7722    -7708    -7696    -7685    -7677    -7674    -7677 
   -7684    -7703    -7732    -7766    -7809    -7865    -7921    -7977 
   -8035    -8098    -8155    -8208    -8262    -8313    -8363    -8408 
   -8454    -8497    -8536    -8571    -8600    -8625    -8648    -8662 
   -8668    -8672    -8669    -8660    -8649    -8633    -8610    -8581 
   -8553    -8525    -8494    -8463    -8426    -8380    -8330    -8276 
   -8210    -8139    -8063    -7979    -7888    -7793    -7697    -7601 
   -7501    -7398    -7298    -7198    -7102    -7009    -6918    -6833 
   -6756    -6689    -6627    -6574    -6529    -6490    -6460    -6440 
   -6423    -6413    -6411    -6417    -6431    -6451    -6475    -6507 
   -6544    -6586    -6631    -6682    -6736    -6787    -6841    -6897 
   -6956    -7021    -7088    -7163    -7245    -7333    -7425    -7519 
   -7612    -7703    -7792    -7879    -7966    -8047    -8122    -8190 
   -8252    -8314    -8370    -8418    -8461    -8494    -8517    -8536 
   -8546    -8545    -8538    -8530    -8513    -8490    -8461    -8424 
   -8380    -8329    -8274    -8218    -8159    -8098    -8040    -7979 
   -7919    -7857    -7789    -7719    -7647    -7573    -7497    -7419 
   -7339    -7261    -7182    -7101    -7023    -6952    -6881    -6812 
   -6750    -6696    -6643    -6594    -6551    -6515    -6485    -6462 
   -6444    -6439    -6444    -6457    -6474    -6501    -6535    -6573 
   -6613    -6656    -6704    -6756    -6813    -6874    -6937    -7002 
   -7065    -7130    -7196    -7257    -7321    -7384    -7442    -7496 
   -7551    -7604    -7649    -7692    -7735    -7770    -7799    -7824 
   -7844    -7858    -7869    -7873    -7869    -7859    -7843    -7815 
   -7776    -7726    -7663    -7597    -7524    -7438    -7350    -7263 
   -7172    -7082    -6998    -6916    -6839    -6772    -6713    -6666 
   -6628    -6602    -6589    -6590    -6604    -6627    -6663    -6714 
   -6777    -6851    -6933    -7025    -7126    -7233    -7344    -7461 
   -7578    -7699    -7824    -7951    -8078    -8209    -8341    -8469 
   -8595    -8718    -8830    -8937    -9035    -9121    -9190    -9246 
   -9286    -9310    -9322    -9320    -9300    -9265    -9221    -9167 
   -9101    -9022    -8934    -8839    -8734    -8621    -8503    -8385 
   -8268    -8148    -8028    -7916    -7809    -7708    -7614    -7519 
   -7429    -7346    -7275    -7210    -7152    -7099    -7055    -7017 
   -6982    -6944    -6910    -6885    -6864    -6848    -6839    -6837 
   -6844    -6860    -6886    -6922    -6970    -7028    -7094    -7175 
   -7258    -7348    -7444    -7546    -7646    -7751    -7860    -7969 
   -8078    -8186    -8290    -8391    -8486    -8569    -8649    -8723 
   -8784    -8837    -8883    -8912    -8935    -8953    -8951    -8937 
   -8922    -8899    -8866    -8834    -8799    -8757    -8711    -8658 
   -8602    -8540    -8474    -8401    -8326    -8248    -8164    -8078 
   -7992    -7903    -7823    -7746    -7670    -7603    -7542    -7485 
   -7443    -7411    -7391    -7387    -7393    -7406    -7430    -7464 
   -7503    -7550    -7604    -7663    -7727    -7793    -7858    -7921 
   -7986    -8050    -8108    -8160    -8209    -8257    -8305    -8345 
   -8379    -8410    -8434    -8446    -8454    -8453    -8436    -8408 
   -8374    -8330    -8281    -8220    -8148    -8073    -7993    -7902 
   -7808    -7704    -7591    -7473    -7352    -7230    -7107    -6987 
   -6872    -6763    -6659    -6564    -6475    -6389    -6312    -6243 
   -6178    -6118    -6066    -6022    -5984    -5953    -5926    -5906 
   -5892    -5883    -5877    -5875    -5875    -5877    -5883    -5888 
   -5900    -5917    -5935    -5961    -5989    -6018    -6049    -6080 
   -6118    -6160    -6203    -6257    -6318    -6382    -6458    -6538 
   -6620    -6706    -6794    -6883    -6972    -7056    -7140    -7218 
   -7292    -7365    -7430    -7491    -7547    -7596    -7636    -7673 
   -7697    -7715    -7730    -7736    -7736    -7735    -7727    -7722 
   -7719    -7713    -7707    -7700    -7685    -7666    -7642    -7609 
   -7572    -7530    -7485    -7430    -7365    -7299    -7227    -7149 
   -7064    -6978    -6895    -6810    -6727    -6647    -6573    -6501 
   -6432    -6372    -6316    -6265    -6222    -6186    -6154    -6129 
   -6112    -6103    -6099    -6106    -6115    -6131    -6150    -6169 
   -6197    -6234    -6272    -6313    -6361    -6409    -6460    -6515 
   -6573    -6633    -6700    -6766    -6835    -6906    -6978    -7048 
   -7117    -7184    -7249    -7306    -7358    -7406    -7449    -7485 
   -7514    -7533    -7541    -7542    -7534    -7514    -7492    -7462 
   -7423    -7380    -7327    -7264    -7200    -7132    -7056    -6979 
   -6903    -6825    -6744    -6664    -6586    -6508    -6427    -6355 
   -6289    -6219    -6157    -6102    -6048    -5995    -5946    -5898 
   -5853    -5813    -5773    -5737    -5703    -5676    -5655    -5641 
   -5634    -5638    -5653    -5682    -5718    -5764    -5817    -5876 
   -5940    -6006    -6072    -6139    -6208    -6276    -6342    -6412 
   -6482    -6548    -6616    -6685    -6747    -6805    -6860    -6906 
   -6947    -6985    -7021    -7049    -7076    -7101    -7119    -7132 
   -7144    -7152    -7157    -7160    -7163    -7163    -7160    -7153 
   -7145    -7137    -7115    -7088    -7059    -7020    -6974    -6922 
   -6866    -6806    -6737    -6667    -6605    -6547    -6486    -6430 
   -6378    -6328    -6284    -6247    -6216    -6189    -6166    -6151 
   -6145    -6143    -6150    -6165    -6184    -6203    -6226    -6251 
   -6276    -6300    -6323    -6349    -6377    -6409    -6438    -6465 
   -6498    -6538    -6577    -6617    -6663    -6713    -6762    -6810 
   -6862    -6912    -6955    -6995    -7033    -7074    -7113    -7141 
   -7159    -7173    -7182    -7179    -7168    -7150    -7125    -7094 
   -7061    -7021    -6972    -6921    -6867    -6809    -6751    -6696 
   -6643    -6594    -6548    -6511    -6477    -6446    -6416    -6388 
   -6358    -6335    -6319    -6299    -6280    -6264    -6251    -6242 
   -6234    -6228    -6224    -6223    -6219    -6222    -6222    -6219 
   -6226    -6232    -6237    -6246    -6259    -6278    -6305    -6336 
   -6369    -6404    -6439    -6473    -6504    -6535    -6566    -6593 
   -6613    -6632    -6648    -6659    -6663    -6662    -6652    -6642 
   -6628    -6612    -6590    -6567    -6543    -6517    -6489    -6460 
   -6436    -6409    -6380    -6356    -6336    -6311    -6292    -6274 
   -6255    -6237    -6218    -6195    -6168    -6135    -6097    -6061 
   -6022    -5980    -5942    -5914    -5886    -5861    -5848    -5840 
   -5836    -5837    -5846    -5863    -5883    -5906    -5938    -5975 
   -6018    -6066    -6115    -6172    -6237    -6307    -6378    -6448 
   -6519    -6589    -6662    -6737    -6812    -6881    -6949    -7018 
   -7083    -7149    -7222    -7292    -7360    -7429    -7496    -7560 
   -7619    -7676    -7728    -7778    -7824    -7863    -7897    -7920 
   -7938    -7944    -7940    -7928    -7908    -7878    -7840    -7792 
   -7739    -7684    -7624    -7560    -7496    -7429    -7354    -7283 
   -7214    -7145    -7076    -7010    -6949    -6897    -6851    -6814 
   -6782    -6755    -6732    -6710    -6694    -6683    -6673    -6666 
   -6658    -6655    -6656    -6660    -6670    -6689    -6714    -6743 
   -6777    -6821    -6870    -6922    -6982    -7041    -7106    -7173 
   -7238    -7307    -7381    -7453    -7519    -7584    -7643    -7696 
   -7743    -7782    -7813    -7838    -7859    -7867    -7865    -7862 
   -7851    -7834    -7812    -7786    -7756    -7726    -7695    -7659 
   -7624    -7586    -7550    -7508    -7466    -7426    -7380    -7333 
   -7287    -7240    -7192    -7145    -7094    -7049    -7003    -6955 
   -6910    -6867    -6821    -6781    -6743    -6706    -6673    -6642 
   -6612    -6589    -6569    -6558    -6555    -6562    -6575    -6594 
