Origin Time       2016/04/16 01:25:00
Lat.              32.753
Long.             130.762
Depth. (km)       12
Mag.              7.3
Station Code      MIE001
Station Lat.      35.1718
Station Long.     136.4943
Station Height(m) 128
Record Time       2016/04/16 01:27:58
Sampling Freq(Hz) 100Hz
Duration Time(s)  80
Dir.              E-W
Scale Factor      7845(gal)/8223790
Max. Acc. (gal)   1.520
Last Correction   2016/04/16 01:28:00
Memo.             
[...]
   -6169    -6154    -6145    -6145    -6151    -6151    -6145    -6143 
   -6145    -6141    -6137    -6138    -6135    -6138    -6150    -6157 
   -6153    -6156    -6166    -6166    -6157    -6151    -6147    -6145 
   -6148    -6153    -6147    -6138    -6131    -6122    -6103    -6084 
   -6070    -6058    -6052    -6053    -6042    -6023    -6015    -6006 
   -5996    -5981    -5968    -5965    -5973    -5981    -5991    -6000 
   -6012    -6023    -6022    -6012    -6010    -6015    -6034    -6058 
   -6073    -6084    -6097    -6107    -6108    -6104    -6097    -6102 
   -6115    -6123    -6135    -6151    -6158    -6166    -6176    -6170 
   -6158    -6146    -6139    -6143    -6154    -6166    -6181    -6191 
   -6192    -6184    -6176    -6172    -6178    -6193    -6203    -6218 
   -6239    -6257    -6273    -6282    -6276    -6272    -6277    -6281 
   -6285    -6300    -6323    -6350    -6363    -6369    -6365    -6350 
   -6340    -6342    -6343    -6353    -6374    -6388    -6396    -6401 
   -6392    -6374    -6363    -6361    -6363    -6365    -6370    -6386 
   -6400    -6401    -6397    -6396    -6399    -6407    -6409    -6405 
   -6409    -6424    -6443    -6458    -6463    -6462    -6460    -6454 
   -6447    -6444    -6442    -6447    -6458    -6458    -6447    -6439 
   -6424    -6399    -6377    -6361    -6351    -6340    -6334    -6323 
   -6299    -6268    -6246    -6231    -6210    -6185    -6165    -6145 
   -6129    -6120    -6100    -6084    -6083    -6076    -6061    -6042 
   -6027    -6026    -6030    -6035    -6033    -6022    -6012    -6002 
   -5985    -5968    -5961    -5962    -5961    -5960    -5953    -5938 
   -5923    -5913    -5900    -5888    -5890    -5896    -5900    -5908 
   -5914    -5913    -5911    -5918    -5926    -5922    -5914    -5923 
   -5948    -5968    -5977    -5987    -5998    -6004    -6006    -6010 
   -6012    -6022    -6038    -6057    -6072    -6085    -6103    -6115 
   -6123    -6120    -6108    -6103    -6107    -6114    -6130    -6150 
   -6162    -6165    -6161    -6150    -6134    -6122    -6123    -6134 
   -6141    -6148    -6162    -6173    -6181    -6177    -6169    -6161 
   -6161    -6174    -6180    -6180    -6193    -6207    -6214    -6208 
   -6197    -6193    -6185    -6177    -6176    -6170    -6173    -6184 
   -6180    -6169    -6164    -6147    -6120    -6104    -6089    -6072 
   -6064    -6064    -6064    -6052    -6027    -6003    -5981    -5967 
   -5962    -5954    -5944    -5948    -5957    -5960    -5954    -5949 
   -5942    -5935    -5925    -5911    -5904    -5915    -5933    -5938 
   -5935    -5933    -5921    -5904    -5898    -5892    -5891    -5902 
   -5922    -5934    -5933    -5919    -5904    -5898    -5895    -5895 
   -5902    -5915    -5929    -5938    -5942    -5942    -5942    -5949 
   -5958    -5958    -5958    -5973    -6002    -6030    -6046    -6050 
   -6054    -6058    -6061    -6060    -6068    -6091    -6115    -6127 
   -6133    -6141    -6141    -6139    -6143    -6145    -6145    -6145 
   -6156    -6176    -6193    -6199    -6204    -6207    -6205    -6210 
   -6210    -6216    -6238    -6257    -6268    -6278    -6285    -6292 
   -6295    -6289    -6278    -6280    -6300    -6322    -6331    -6334 
   -6336    -6340    -6339    -6335    -6331    -6328    -6332    -6336 
   -6334    -6336    -6345    -6349    -6347    -6339    -6326    -6312 
   -6303    -6303    -6312    -6319    -6330    -6346    -6355    -6354 
   -6347    -6338    -6332    -6338    -6345    -6351    -6365    -6376 
   -6384    -6385    -6370    -6354    -6345    -6336    -6336    -6338 
   -6335    -6339    -6343    -6331    -6312    -6301    -6292    -6284 
   -6282    -6278    -6269    -6262    -6268    -6270    -6262    -6249 
   -6231    -6212    -6203    -6197    -6191    -6186    -6195    -6196 
   -6188    -6180    -6168    -6157    -6153    -6146    -6143    -6151 
   -6162    -6168    -6166    -6157    -6154    -6157    -6157    -6160 
   -6164    -6170    -6189    -6214    -6227    -6235    -6242    -6245 
   -6247    -6257    -6265    -6272    -6281    -6289    -6299    -6305 
   -6297    -6288    -6285    -6284    -6281    -6282    -6295    -6304 
   -6300    -6295    -6290    -6285    -6284    -6281    -6270    -6268 
   -6280    -6292    -6295    -6290    -6284    -6274    -6269    -6266 
   -6265    -6265    -6269    -6273    -6269    -6261    -6258    -6246 
   -6223    -6211    -6203    -6191    -6186    -6185    -6177    -6169 
   -6158    -6145    -6127    -6107    -6087    -6065    -6049    -6054 
   -6057    -6043    -6031    -6018    -5991    -5962    -5946    -5933 
   -5923    -5926    -5934    -5938    -5935    -5935    -5937    -5930 
   -5922    -5919    -5919    -5931    -5956    -5976    -5983    -6000 
   -6022    -6026    -6018    -6025    -6038    -6044    -6056    -6083 
   -6100    -6108    -6130    -6141    -6135    -6133    -6134    -6142 
   -6161    -6183    -6193    -6205    -6232    -6251    -6252    -6257 
   -6265    -6268    -6277    -6299    -6323    -6347    -6372    -6392 
   -6396    -6388    -6389    -6397    -6407    -6424    -6454    -6474 
   -6480    -6486    -6493    -6493    -6501    -6512    -6515    -6513 
   -6511    -6511    -6517    -6524    -6523    -6509    -6493    -6481 
   -6474    -6465    -6453    -6446    -6439    -6427    -6415    -6397 
   -6377    -6359    -6346    -6330    -6312    -6304    -6299    -6288 
   -6276    -6257    -6228    -6200    -6177    -6165    -6153    -6137 
   -6124    -6114    -6099    -6081    -6053    -6019    -5991    -5976 
   -5956    -5933    -5929    -5930    -5919    -5902    -5888    -5872 
   -5853    -5844    -5840    -5831    -5831    -5838    -5840    -5834 
   -5825    -5814    -5800    -5792    -5791    -5792    -5798    -5819 
   -5838    -5844    -5845    -5846    -5842    -5845    -5853    -5860 
   -5876    -5910    -5944    -5967    -5988    -6006    -6016    -6026 
   -6039    -6056    -6077    -6110    -6148    -6173    -6189    -6207 
   -6223    -6234    -6247    -6266    -6284    -6293    -6308    -6334 
   -6358    -6373    -6385    -6399    -6407    -6411    -6423    -6439 
   -6458    -6481    -6496    -6505    -6520    -6527    -6520    -6515 
   -6504    -6497    -6509    -6531    -6546    -6554    -6551    -6543 
   -6531    -6508    -6489    -6484    -6475    -6470    -6467    -6462 
   -6453    -6440    -6423    -6403    -6388    -6376    -6359    -6350 
   -6354    -6353    -6339    -6328    -6315    -6288    -6264    -6252 
   -6246    -6241    -6238    -6226    -6208    -6193    -6176    -6154 
   -6134    -6110    -6091    -6079    -6065    -6058    -6054    -6048 
   -6038    -6022    -5998    -5980    -5977    -5976    -5968    -5967 
   -5968    -5968    -5965    -5956    -5946    -5940    -5930    -5934 
   -5942    -5946    -5956    -5960    -5961    -5965    -5962    -5950 
   -5948    -5950    -5952    -5957    -5972    -5996    -6021    -6031 
   -6035    -6030    -6019    -6021    -6034    -6050    -6068    -6089 
   -6107    -6110    -6106    -6110    -6118    -6127    -6141    -6154 
   -6168    -6185    -6207    -6227    -6239    -6246    -6242    -6239 
   -6245    -6255    -6265    -6284    -6309    -6326    -6334    -6339 
   -6335    -6336    -6343    -6350    -6356    -6370    -6393    -6413 
   -6421    -6427    -6427    -6426    -6423    -6420    -6417    -6427 
   -6446    -6462    -6467    -6467    -6467    -6465    -6459    -6453 
   -6457    -6470    -6489    -6507    -6525    -6538    -6542    -6548 
   -6554    -6559    -6571    -6581    -6596    -6624    -6647    -6656 
   -6667    -6681    -6698    -6714    -6724    -6735    -6760    -6789 
   -6810    -6832    -6848    -6862    -6872    -6883    -6885    -6886 
   -6905    -6928    -6943    -6957    -6966    -6970    -6975    -6976 
   -6964    -6949    -6947    -6949    -6947    -6944    -6932    -6914 
   -6899    -6881    -6855    -6815    -6790    -6777    -6755    -6729 
   -6701    -6667    -6637    -6609    -6573    -6534    -6497    -6465 
   -6432    -6399    -6372    -6351    -6330    -6303    -6268    -6222 
   -6178    -6153    -6137    -6126    -6114    -6093    -6062    -6033 
   -6004    -5971    -5945    -5934    -5923    -5908    -5896    -5884 
   -5876    -5872    -5864    -5845    -5821    -5803    -5796    -5798 
   -5802    -5802    -5810    -5811    -5791    -5765    -5748    -5732 
   -5724    -5719    -5719    -5722    -5724    -5725    -5721    -5698 
   -5674    -5660    -5645    -5636    -5630    -5623    -5621    -5620 
   -5610    -5597    -5585    -5574    -5563    -5563    -5566    -5568 
   -5579    -5593    -5607    -5610    -5605    -5611    -5621    -5623 
   -5634    -5645    -5656    -5684    -5706    -5711    -5719    -5726 
   -5726    -5730    -5736    -5744    -5760    -5779    -5795    -5802 
   -5798    -5795    -5796    -5800    -5805    -5809    -5815    -5826 
   -5838    -5845    -5849    -5850    -5846    -5844    -5837    -5829 
   -5833    -5849    -5860    -5860    -5857    -5860    -5864    -5868 
   -5868    -5871    -5880    -5891    -5902    -5910    -5914    -5922 
   -5925    -5922    -5923    -5922    -5929    -5948    -5965    -5975 
   -5983    -5987    -5994    -6012    -6030    -6039    -6050    -6070 
   -6099    -6122    -6145    -6172    -6189    -6204    -6214    -6218 
   -6227    -6254    -6289    -6315    -6334    -6355    -6373    -6389 
   -6401    -6412    -6430    -6458    -6485    -6515    -6548    -6577 
   -6596    -6609    -6617    -6623    -6629    -6650    -6683    -6711 
   -6732    -6748    -6766    -6782    -6790    -6782    -6785    -6799 
   -6817    -6837    -6852    -6863    -6876    -6889    -6880    -6863 
   -6852    -6852    -6860    -6864    -6864    -6864    -6863    -6860 
   -6852    -6829    -6808    -6795    -6782    -6775    -6770    -6767 
   -6768    -6768    -6760    -6737    -6709    -6685    -6669    -6652 
   -6632    -6615    -6600    -6589    -6575    -6546    -6511    -6480 
   -6450    -6421    -6392    -6365    -6346    -6339    -6332    -6308 
   -6276    -6250    -6234    -6222    -6208    -6200    -6201    -6200 
   -6196    -6189    -6181    -6176    -6173    -6161    -6148    -6148 
   -6151    -6156    -6169    -6176    -6172    -6168    -6168    -6173 
   -6174    -6176    -6188    -6199    -6212    -6234    -6247    -6251 
   -6262    -6273    -6274    -6282    -6304    -6330    -6350    -6361 
   -6374    -6385    -6396    -6405    -6415    -6423    -6432    -6453 
   -6484    -6498    -6501    -6511    -6513    -6511    -6515    -6515 
   -6512    -6517    -6524    -6519    -6511    -6504    -6492    -6474 
   -6458    -6439    -6416    -6408    -6419    -6419    -6399    -6378 
   -6361    -6334    -6304    -6281    -6255    -6239    -6242    -6243 
   -6231    -6219    -6212    -6201    -6180    -6158    -6143    -6134 
   -6137    -6137    -6126    -6115    -6103    -6077    -6053    -6033 
   -6008    -5984    -5968    -5954    -5938    -5922    -5902    -5888 
   -5876    -5850    -5815    -5791    -5782    -5783    -5782    -5778 
   -5783    -5787    -5776    -5760    -5752    -5748    -5757    -5771 
   -5783    -5802    -5826    -5848    -5868    -5880    -5888    -5902 
   -5917    -5942    -5968    -5989    -6019    -6058    -6084    -6100 
   -6112    -6115    -6123    -6135    -6145    -6164    -6189    -6212 
   -6239    -6257    -6252    -6255    -6269    -6278    -6289    -6311 
   -6342    -6367    -6385    -6394    -6393    -6384    -6378    -6382 
   -6384    -6389    -6404    -6411    -6409    -6408    -6397    -6382 
   -6378    -6378    -6372    -6363    -6361    -6366    -6367    -6369 
   -6366    -6358    -6350    -6347    -6338    -6328    -6330    -6343 
   -6361    -6370    -6366    -6365    -6370    -6376    -6376    -6377 
   -6382    -6396    -6415    -6427    -6435    -6440    -6440    -6440 
   -6448    -6457    -6462    -6475    -6492    -6500    -6500    -6500 
   -6501    -6502    -6501    -6500    -6496    -6488    -6493    -6508 
   -6508    -6500    -6494    -6481    -6465    -6454    -6442    -6435 
   -6442    -6442    -6430    -6416    -6403    -6386    -6365    -6339 
   -6322    -6312    -6308    -6308    -6300    -6282    -6270    -6252 
   -6219    -6186    -6165    -6145    -6129    -6119    -6107    -6083 
   -6058    -6037    -6006    -5965    -5925    -5894    -5868    -5853 
   -5845    -5822    -5790    -5772    -5746    -5710    -5683    -5661 
   -5637    -5617    -5597    -5582    -5579    -5570    -5556    -5539 
   -5506    -5475    -5458    -5451    -5448    -5443    -5437    -5435 
   -5428    -5409    -5387    -5371    -5362    -5360    -5358    -5355 
   -5359    -5362    -5358    -5354    -5339    -5321    -5316    -5323 
   -5328    -5336    -5347    -5360    -5374    -5379    -5381    -5381 
   -5389    -5405    -5420    -5433    -5458    -5483    -5502    -5517 
   -5533    -5548    -5566    -5599    -5637    -5665    -5692    -5719 
   -5748    -5779    -5809    -5838    -5867    -5888    -5917    -5949 
   -5983    -6027    -6069    -6096    -6119    -6146    -6174    -6210 
   -6252    -6293    -6327    -6361    -6409    -6455    -6496    -6531 
   -6567    -6601    -6637    -6678    -6723    -6772    -6828    -6881 
   -6930    -6976    -7017    -7052    -7088    -7126    -7171    -7223 
   -7276    -7326    -7368    -7399    -7433    -7469    -7499    -7523 
   -7550    -7580    -7619    -7665    -7695    -7711    -7727    -7742 
   -7751    -7750    -7746    -7750    -7756    -7767    -7778    -7773 
   -7756    -7743    -7720    -7689    -7668    -7651    -7634    -7616 
   -7593    -7574    -7560    -7534    -7500    -7461    -7418    -7381 
   -7354    -7337    -7322    -7304    -7281    -7248    -7215    -7180 
   -7138    -7113    -7094    -7079    -7068    -7049    -7025    -7006 
   -6984    -6959    -6929    -6901    -6886    -6885    -6880    -6874 
   -6868    -6855    -6836    -6817    -6797    -6781    -6770    -6758 
   -6748    -6739    -6733    -6724    -6709    -6690    -6671    -6647 
   -6619    -6602    -6593    -6575    -6559    -6544    -6527    -6508 
   -6481    -6450    -6420    -6389    -6369    -6350    -6322    -6296 
   -6274    -6245    -6207    -6169    -6135    -6107    -6077    -6044 
   -6008    -5979    -5945    -5906    -5871    -5831    -5788    -5745 
   -5705    -5668    -5636    -5607    -5584    -5555    -5516    -5478 
   -5439    -5405    -5393    -5386    -5364    -5339    -5327    -5313 
   -5296    -5277    -5260    -5243    -5227    -5221    -5221    -5225 
   -5227    -5231    -5228    -5215    -5204    -5204    -5202    -5201 
   -5198    -5204    -5213    -5220    -5224    -5225    -5223    -5217 
   -5212    -5206    -5206    -5212    -5221    -5238    -5256    -5260 
   -5250    -5246    -5250    -5258    -5268    -5281    -5298    -5321 
   -5347    -5370    -5386    -5401    -5414    -5422    -5428    -5440 
   -5464    -5495    -5522    -5540    -5555    -5566    -5574    -5580 
   -5579    -5578    -5590    -5603    -5614    -5629    -5643    -5643 
   -5637    -5634    -5628    -5625    -5623    -5628    -5636    -5644 
   -5651    -5653    -5653    -5652    -5644    -5629    -5623    -5634 
   -5652    -5660    -5664    -5671    -5672    -5672    -5674    -5671 
   -5672    -5678    -5678    -5679    -5687    -5691    -5701    -5718 
   -5724    -5719    -5715    -5711    -5721    -5740    -5760    -5783 
   -5803    -5815    -5825    -5831    -5848    -5877    -5911    -5949 
   -5981    -6006    -6039    -6077    -6107    -6135    -6173    -6216 
   -6257    -6296    -6331    -6363    -6403    -6438    -6462    -6490 
   -6519    -6539    -6563    -6594    -6628    -6659    -6690    -6718 
   -6728    -6732    -6741    -6751    -6768    -6797    -6822    -6837 
   -6848    -6860    -6866    -6866    -6864    -6859    -6860    -6870 
   -6875    -6876    -6876    -6876    -6870    -6844    -6813    -6795 
   -6777    -6762    -6755    -6743    -6725    -6706    -6682    -6662 
   -6644    -6621    -6601    -6577    -6552    -6542    -6539    -6536 
   -6536    -6527    -6504    -6478    -6463    -6457    -6450    -6439 
   -6431    -6432    -6435    -6432    -6421    -6408    -6396    -6392 
   -6389    -6382    -6378    -6380    -6380    -6381    -6386    -6384 
   -6377    -6369    -6359    -6356    -6359    -6361    -6367    -6374 
   -6376    -6372    -6365    -6358    -6347    -6335    -6331    -6336 
   -6335    -6331    -6323    -6307    -6293    -6285    -6273    -6250 
   -6226    -6207    -6197    -6185    -6170    -6151    -6124    -6087 
   -6048    -6008    -5975    -5949    -5926    -5902    -5871    -5830 
   -5790    -5752    -5710    -5663    -5622    -5590    -5563    -5541 
   -5519    -5487    -5451    -5414    -5382    -5351    -5320    -5298 
   -5286    -5278    -5267    -5250    -5224    -5200    -5181    -5158 
   -5136    -5127    -5130    -5136    -5131    -5115    -5104    -5093 
   -5078    -5062    -5050    -5046    -5050    -5053    -5051    -5047 
   -5042    -5034    -5023    -5004    -4986    -4976    -4969    -4973 
   -4982    -4989    -4985    -4977    -4976    -4963    -4942    -4941 
   -4946    -4945    -4950    -4959    -4958    -4956    -4959    -4953 
   -4932    -4918    -4918    -4916    -4914    -4911    -4905    -4905 
   -4907    -4900    -4885    -4872    -4864    -4861    -4860    -4864 
   -4876    -4885    -4896    -4911    -4908    -4899    -4899    -4903 
   -4916    -4941    -4963    -4984    -5012    -5040    -5058    -5071 
   -5093    -5125    -5151    -5174    -5205    -5243    -5287    -5339 
   -5383    -5416    -5447    -5481    -5521    -5559    -5601    -5651 
   -5702    -5751    -5800    -5850    -5892    -5930    -5972    -6015 
   -6058    -6106    -6161    -6219    -6272    -6318    -6355    -6392 
   -6436    -6481    -6520    -6556    -6602    -6654    -6687    -6713 
   -6741    -6770    -6794    -6818    -6837    -6858    -6883    -6910 
   -6928    -6940    -6955    -6970    -6983    -6998    -7010    -7020 
   -7034    -7051    -7059    -7067    -7080    -7089    -7096    -7102 
   -7105    -7110    -7127    -7145    -7152    -7153    -7152    -7149 
   -7150    -7150    -7146    -7150    -7163    -7173    -7172    -7163 
   -7149    -7140    -7136    -7126    -7110    -7092    -7083    -7075 
   -7060    -7044    -7033    -7011    -6987    -6964    -6930    -6906 
   -6893    -6880    -6864    -6847    -6825    -6802    -6777    -6747 
   -6716    -6687    -6666    -6652    -6643    -6627    -6601    -6573 
   -6544    -6516    -6484    -6447    -6419    -6400    -6382    -6363 
   -6345    -6316    -6288    -6265    -6230    -6191    -6165    -6145 
   -6120    -6103    -6089    -6073    -6053    -6027    -5996    -5961 
   -5925    -5899    -5875    -5852    -5837    -5823    -5809    -5790 
   -5760    -5726    -5691    -5663    -5645    -5632    -5616    -5601 
   -5594    -5583    -5560    -5536    -5516    -5498    -5489    -5476 
   -5466    -5460    -5463    -5468    -5460    -5441    -5429    -5428 
   -5428    -5425    -5425    -5432    -5448    -5462    -5468    -5475 
   -5483    -5493    -5506    -5525    -5541    -5555    -5578    -5602 
   -5622    -5641    -5659    -5675    -5697    -5718    -5736    -5753 
   -5780    -5806    -5822    -5830    -5840    -5853    -5867    -5873 
