Origin Time       2016/04/16 01:25:00
Lat.              32.753
Long.             130.762
Depth. (km)       12
Mag.              7.3
Station Code      MIE004
Station Lat.      34.8569
Station Long.     136.4493
Station Height(m) 79
Record Time       2016/04/16 01:27:58
Sampling Freq(Hz) 100Hz
Duration Time(s)  63
Dir.              N-S
Scale Factor      7845(gal)/8223790
Max. Acc. (gal)   2.615
Last Correction   2016/04/16 01:27:59
Memo.             
[...]
   -1457    -1445    -1431    -1417    -1405    -1394    -1372    -1347 
   -1324    -1300    -1273    -1246    -1219    -1196    -1188    -1185 
   -1181    -1178    -1173    -1174    -1188    -1204    -1215    -1221 
   -1227    -1236    -1247    -1256    -1263    -1271    -1282    -1287 
   -1286    -1287    -1290    -1290    -1287    -1291    -1298    -1297 
   -1298    -1306    -1317    -1336    -1363    -1393    -1421    -1451 
   -1482    -1512    -1535    -1552    -1560    -1564    -1568    -1566 
   -1564    -1568    -1574    -1574    -1572    -1574    -1582    -1587 
   -1586    -1583    -1582    -1576    -1571    -1567    -1559    -1548 
   -1540    -1533    -1530    -1528    -1520    -1506    -1493    -1472 
   -1451    -1431    -1412    -1390    -1370    -1347    -1332    -1329 
   -1324    -1310    -1291    -1270    -1254    -1242    -1230    -1217 
   -1202    -1190    -1178    -1166    -1156    -1148    -1133    -1119 
   -1112    -1104    -1092    -1077    -1060    -1044    -1026    -1015 
   -1005     -996     -987     -982     -974     -974     -973     -966 
    -963     -963     -955     -954     -958     -955     -955     -959 
    -958     -955     -959     -972     -984     -992     -999    -1008 
   -1023    -1039    -1053    -1062    -1069    -1077    -1086    -1094 
   -1107    -1125    -1136    -1144    -1156    -1161    -1161    -1163 
   -1166    -1169    -1175    -1178    -1174    -1170    -1170    -1169 
   -1167    -1163    -1155    -1148    -1140    -1131    -1116    -1093 
   -1070    -1051    -1036    -1026    -1013    -1000     -990     -984 
    -978     -977     -977     -969     -957     -954     -955     -954 
    -961     -976     -984     -986     -992     -999    -1007    -1013 
   -1017    -1026    -1035    -1036    -1038    -1034    -1026    -1024 
   -1024    -1026    -1034    -1047    -1062    -1085    -1107    -1121 
   -1135    -1148    -1161    -1173    -1179    -1183    -1190    -1200 
   -1204    -1210    -1228    -1240    -1250    -1266    -1282    -1301 
   -1318    -1327    -1329    -1339    -1354    -1367    -1382    -1394 
   -1402    -1412    -1422    -1431    -1440    -1447    -1444    -1441 
   -1445    -1448    -1443    -1431    -1418    -1404    -1386    -1374 
   -1366    -1358    -1354    -1355    -1362    -1368    -1371    -1366 
   -1366    -1374    -1381    -1390    -1398    -1397    -1394    -1397 
   -1405    -1413    -1420    -1425    -1431    -1445    -1464    -1480 
   -1486    -1491    -1494    -1494    -1501    -1509    -1514    -1526 
   -1537    -1541    -1552    -1567    -1578    -1590    -1603    -1610 
   -1617    -1624    -1634    -1649    -1663    -1677    -1688    -1692 
   -1695    -1699    -1705    -1711    -1721    -1729    -1736    -1742 
   -1746    -1745    -1738    -1734    -1726    -1710    -1694    -1683 
   -1672    -1664    -1658    -1656    -1647    -1629    -1611    -1595 
   -1582    -1571    -1560    -1547    -1533    -1521    -1509    -1495 
   -1474    -1451    -1431    -1412    -1394    -1377    -1359    -1343 
   -1332    -1327    -1323    -1320    -1313    -1304    -1296    -1286 
   -1278    -1277    -1274    -1266    -1255    -1248    -1242    -1235 
   -1228    -1221    -1215    -1215    -1220    -1227    -1229    -1230 
   -1237    -1244    -1248    -1250    -1254    -1256    -1259    -1264 
   -1271    -1275    -1281    -1282    -1289    -1294    -1297    -1302 
   -1308    -1308    -1308    -1312    -1320    -1332    -1345    -1360 
   -1375    -1389    -1401    -1410    -1416    -1418    -1416    -1414 
   -1414    -1417    -1420    -1421    -1421    -1417    -1408    -1399 
   -1390    -1372    -1352    -1340    -1325    -1301    -1277    -1252 
   -1225    -1204    -1188    -1171    -1158    -1143    -1123    -1111 
   -1100    -1089    -1080    -1073    -1071    -1073    -1073    -1073 
   -1077    -1085    -1094    -1104    -1113    -1123    -1129    -1128 
   -1124    -1127    -1140    -1147    -1151    -1159    -1162    -1159 
   -1158    -1158    -1162    -1169    -1175    -1181    -1185    -1189 
   -1192    -1201    -1208    -1210    -1216    -1225    -1233    -1235 
   -1229    -1227    -1221    -1209    -1197    -1189    -1185    -1182 
   -1177    -1166    -1159    -1155    -1146    -1135    -1125    -1116 
   -1105    -1094    -1088    -1088    -1088    -1078    -1065    -1055 
   -1039    -1021    -1005     -984     -961     -936     -905     -877 
    -866     -864     -868     -872     -874     -877     -882     -892 
    -897     -901     -907     -913     -926     -942     -959     -982 
   -1007    -1032    -1070    -1113    -1158    -1201    -1244    -1279 
   -1308    -1345    -1382    -1414    -1440    -1457    -1470    -1485 
   -1498    -1512    -1524    -1533    -1533    -1528    -1525    -1520 
   -1509    -1502    -1494    -1482    -1474    -1471    -1466    -1460 
   -1462    -1466    -1467    -1467    -1464    -1462    -1463    -1463 
   -1460    -1460    -1462    -1456    -1453    -1447    -1433    -1414 
   -1394    -1378    -1363    -1345    -1332    -1323    -1312    -1298 
   -1287    -1291    -1290    -1277    -1263    -1250    -1232    -1212 
   -1188    -1159    -1132    -1112    -1093    -1077    -1062    -1047 
   -1031    -1012     -986     -958     -935     -919     -907     -893 
    -877     -861     -850     -843     -838     -838     -838     -837 
    -837     -835     -831     -824     -819     -819     -819     -818 
    -816     -815     -812     -811     -814     -823     -834     -837 
    -838     -841     -845     -853     -862     -869     -872     -880 
    -889     -896     -901     -907     -913     -918     -918     -913 
    -912     -915     -918     -916     -909     -909     -915     -916 
    -909     -903     -905     -908     -908     -909     -911     -911 
    -908     -903     -890     -882     -877     -872     -859     -851 
    -846     -838     -831     -826     -815     -799     -781     -766 
    -753     -739     -731     -727     -724     -720     -715     -718 
    -720     -727     -738     -754     -770     -783     -791     -803 
    -815     -823     -832     -842     -851     -858     -859     -864 
    -882     -903     -923     -947     -967     -980     -987    -1000 
   -1019    -1035    -1044    -1055    -1065    -1060    -1055    -1057 
   -1053    -1050    -1053    -1053    -1051    -1050    -1043    -1038 
   -1038    -1036    -1036    -1043    -1053    -1063    -1070    -1080 
   -1090    -1104    -1119    -1136    -1165    -1198    -1232    -1271 
   -1308    -1340    -1370    -1399    -1425    -1452    -1478    -1497 
   -1513    -1530    -1549    -1571    -1598    -1621    -1644    -1669 
   -1705    -1746    -1781    -1813    -1848    -1884    -1921    -1949 
   -1979    -2018    -2057    -2084    -2110    -2141    -2170    -2200 
   -2231    -2257    -2273    -2285    -2296    -2304    -2305    -2304 
   -2300    -2292    -2278    -2257    -2235    -2212    -2185    -2163 
   -2139    -2107    -2069    -2033    -1998    -1968    -1939    -1910 
   -1875    -1833    -1795    -1757    -1717    -1679    -1645    -1606 
   -1563    -1518    -1476    -1441    -1413    -1381    -1345    -1310 
   -1278    -1251    -1225    -1197    -1169    -1142    -1113    -1080 
   -1032     -984     -940     -896     -849     -807     -769     -734 
    -702     -670     -638     -606     -579     -562     -538     -510 
    -480     -451     -427     -409     -382     -353     -337     -322 
    -302     -288     -283     -278     -279     -283     -289     -298 
    -298     -289     -289     -294     -292     -295     -306     -322 
    -333     -341     -349     -359     -370     -387     -402     -415 
    -425     -437     -454     -475     -495     -517     -540     -565 
    -594     -626     -662     -699     -735     -774     -815     -853 
    -892     -939     -987    -1034    -1078    -1127    -1177    -1228 
   -1278    -1328    -1377    -1425    -1474    -1522    -1567    -1609 
   -1652    -1692    -1729    -1773    -1817    -1857    -1894    -1927 
   -1958    -1988    -2014    -2033    -2049    -2060    -2061    -2056 
   -2052    -2045    -2033    -2018    -2008    -2003    -1996    -1993 
   -1991    -1981    -1969    -1958    -1945    -1933    -1925    -1917 
   -1903    -1885    -1869    -1852    -1833    -1818    -1804    -1790 
   -1771    -1748    -1721    -1696    -1675    -1652    -1628    -1606 
   -1582    -1554    -1533    -1520    -1512    -1505    -1493    -1478 
   -1460    -1444    -1426    -1404    -1381    -1359    -1334    -1313 
   -1296    -1274    -1254    -1235    -1219    -1212    -1204    -1196 
   -1196    -1198    -1202    -1206    -1216    -1227    -1235    -1246 
   -1263    -1278    -1294    -1312    -1331    -1356    -1385    -1414 
   -1445    -1476    -1509    -1547    -1582    -1617    -1648    -1675 
   -1703    -1728    -1753    -1781    -1803    -1821    -1836    -1852 
   -1869    -1885    -1903    -1919    -1930    -1939    -1953    -1964 
   -1969    -1971    -1965    -1956    -1938    -1914    -1895    -1883 
   -1872    -1858    -1841    -1821    -1802    -1791    -1784    -1769 
   -1753    -1740    -1721    -1699    -1682    -1665    -1648    -1632 
   -1614    -1593    -1574    -1560    -1545    -1526    -1507    -1487 
   -1468    -1455    -1444    -1428    -1417    -1409    -1399    -1394 
   -1395    -1398    -1401    -1409    -1422    -1440    -1451    -1457 
   -1466    -1482    -1499    -1516    -1540    -1564    -1583    -1603 
   -1632    -1667    -1705    -1745    -1775    -1791    -1806    -1825 
   -1842    -1858    -1873    -1884    -1894    -1907    -1919    -1926 
   -1937    -1948    -1949    -1949    -1953    -1952    -1945    -1939 
   -1938    -1935    -1927    -1915    -1910    -1904    -1891    -1876 
   -1859    -1836    -1807    -1783    -1763    -1744    -1723    -1703 
   -1683    -1661    -1641    -1626    -1617    -1606    -1599    -1591 
   -1580    -1570    -1566    -1561    -1557    -1551    -1544    -1539 
   -1535    -1537    -1537    -1535    -1535    -1532    -1530    -1534 
   -1537    -1537    -1539    -1539    -1539    -1540    -1539    -1544 
   -1557    -1570    -1576    -1588    -1603    -1624    -1642    -1658 
   -1675    -1692    -1714    -1736    -1755    -1776    -1799    -1819 
   -1838    -1857    -1881    -1911    -1944    -1977    -2012    -2042 
   -2068    -2096    -2124    -2149    -2172    -2196    -2218    -2234 
   -2249    -2261    -2277    -2295    -2311    -2324    -2335    -2344 
   -2346    -2344    -2342    -2338    -2338    -2347    -2358    -2365 
   -2367    -2365    -2362    -2363    -2362    -2362    -2365    -2362 
   -2355    -2350    -2344    -2328    -2313    -2308    -2305    -2303 
   -2303    -2300    -2297    -2288    -2272    -2255    -2247    -2236 
   -2220    -2214    -2214    -2207    -2201    -2199    -2188    -2180 
   -2170    -2157    -2143    -2130    -2115    -2097    -2081    -2060 
   -2034    -2004    -1972    -1945    -1925    -1902    -1876    -1848 
   -1818    -1784    -1750    -1722    -1705    -1688    -1668    -1649 
   -1636    -1628    -1622    -1618    -1620    -1620    -1613    -1610 
   -1614    -1611    -1606    -1609    -1605    -1599    -1603    -1606 
   -1609    -1609    -1602    -1595    -1603    -1617    -1625    -1630 
   -1628    -1621    -1614    -1613    -1610    -1605    -1595    -1586 
   -1571    -1551    -1528    -1506    -1486    -1463    -1433    -1405 
   -1377    -1344    -1318    -1297    -1270    -1240    -1210    -1183 
   -1161    -1139    -1116    -1093    -1075    -1057    -1039    -1026 
   -1017    -1015    -1012    -1011    -1015    -1019    -1023    -1032 
   -1039    -1043    -1043    -1039    -1031    -1023    -1021    -1026 
   -1030    -1036    -1043    -1053    -1069    -1086    -1109    -1133 
   -1156    -1182    -1205    -1227    -1254    -1277    -1293    -1312 
   -1329    -1343    -1359    -1378    -1391    -1398    -1402    -1408 
   -1413    -1417    -1422    -1431    -1436    -1436    -1441    -1449 
   -1459    -1480    -1509    -1535    -1568    -1606    -1647    -1691 
   -1744    -1792    -1840    -1892    -1949    -2010    -2072    -2135 
   -2196    -2265    -2336    -2407    -2470    -2528    -2587    -2648 
   -2709    -2771    -2835    -2899    -2965    -3029    -3084    -3137 
   -3186    -3229    -3275    -3323    -3369    -3418    -3468    -3511 
   -3553    -3591    -3628    -3665    -3700    -3730    -3755    -3776 
   -3790    -3797    -3797    -3793    -3796    -3797    -3788    -3771 
   -3757    -3743    -3734    -3728    -3726    -3717    -3704    -3682 
   -3658    -3631    -3603    -3578    -3558    -3539    -3516    -3488 
   -3454    -3418    -3385    -3360    -3335    -3306    -3272    -3229 
   -3177    -3123    -3071    -3024    -2975    -2925    -2872    -2821 
   -2764    -2698    -2624    -2550    -2477    -2407    -2350    -2297 
   -2224    -2138    -2058    -1979    -1895    -1819    -1744    -1669 
   -1598    -1525    -1443    -1348    -1252    -1161    -1074     -990 
    -903     -815     -728     -638     -544     -450     -361     -279 
    -203     -129      -58       16      101      183      259      336 
     405      464      526      589      649      712      772      827 
     874      912      947      981     1016     1058     1100     1139 
    1173     1202     1228     1244     1262     1286     1308     1320 
    1333     1343     1345     1352     1359     1366     1368     1368 
    1371     1377     1379     1378     1368     1354     1339     1321 
    1304     1279     1247     1210     1169     1127     1078     1019 
     961      907      849      783      712      643      575      503 
     430      353      270      191      117       40      -39     -117 
    -199     -279     -356     -429     -493     -549     -611     -676 
    -735     -799     -862     -913     -965    -1026    -1084    -1140 
   -1204    -1274    -1347    -1421    -1494    -1570    -1647    -1715 
   -1783    -1856    -1934    -2014    -2084    -2146    -2207    -2269 
   -2331    -2394    -2459    -2521    -2577    -2625    -2669    -2717 
   -2764    -2810    -2853    -2890    -2920    -2941    -2963    -2986 
   -3013    -3045    -3073    -3090    -3096    -3098    -3096    -3099 
   -3103    -3109    -3117    -3121    -3123    -3129    -3127    -3119 
   -3111    -3109    -3109    -3115    -3122    -3121    -3111    -3098 
   -3079    -3057    -3030    -2998    -2967    -2938    -2905    -2863 
   -2820    -2775    -2732    -2688    -2640    -2590    -2539    -2485 
   -2434    -2384    -2330    -2272    -2209    -2141    -2076    -2012 
   -1953    -1899    -1846    -1794    -1742    -1691    -1637    -1586 
   -1539    -1499    -1471    -1444    -1417    -1395    -1378    -1364 
   -1359    -1356    -1345    -1336    -1328    -1318    -1308    -1296 
   -1281    -1269    -1260    -1251    -1240    -1228    -1216    -1206 
   -1200    -1193    -1190    -1190    -1185    -1175    -1162    -1148 
   -1135    -1121    -1105    -1089    -1071    -1057    -1047    -1039 
   -1026    -1011    -1000     -996     -993     -985     -973     -958 
    -946     -939     -928     -915     -901     -884     -866     -851 
    -834     -815     -804     -793     -780     -767     -761     -754 
    -747     -741     -733     -730     -737     -745     -749     -750 
    -756     -760     -764     -770     -777     -783     -787     -788 
    -788     -784     -773     -765     -760     -747     -731     -714 
    -691     -660     -631     -610     -583     -550     -517     -480 
    -440     -396     -356     -313     -263     -209     -155     -105 
     -58      -10       36       83      129      176      225      272 
     311      348      386      419      453      492      525      549 
     569      587      600      606      608      612      616      616 
     615      610      598      587      579      571      556      538 
     519      503      484      460      432      399      363      326 
     292      257      222      187      152      118       82       40 
       1      -40      -90     -140     -189     -243     -291     -337 
    -386     -434     -484     -540     -603     -662     -715     -765 
    -808     -857     -911     -962    -1011    -1063    -1113    -1159 
   -1204    -1248    -1290    -1332    -1368    -1412    -1459    -1505 
   -1553    -1606    -1652    -1696    -1748    -1796    -1842    -1894 
   -1941    -1980    -2016    -2047    -2074    -2098    -2119    -2135 
   -2149    -2165    -2184    -2199    -2208    -2204    -2196    -2189 
   -2184    -2180    -2181    -2188    -2196    -2201    -2196    -2192 
   -2191    -2195    -2200    -2201    -2195    -2191    -2188    -2182 
   -2178    -2176    -2168    -2160    -2155    -2153    -2150    -2138 
   -2120    -2102    -2084    -2062    -2043    -2027    -2016    -2008 
   -1998    -1971    -1938    -1918    -1898    -1872    -1848    -1821 
   -1791    -1760    -1722    -1679    -1638    -1601    -1563    -1526 
   -1487    -1443    -1397    -1347    -1302    -1263    -1221    -1183 
   -1147    -1101    -1050     -999     -946     -903     -864     -827 
    -796     -762     -720     -681     -642     -607     -584     -562 
    -535     -508     -476     -440     -411     -395     -380     -363 
    -341     -321     -298     -271     -248     -225     -210     -194 
    -176     -157     -131     -103      -78      -54      -32      -22 
      -9       16       43       72      108      143      170      195 
     225      259      299      337      369      405      438      464 
     488      514      542      572      604      630      646      662 
     677      687      696      710      731      750      758      764 
     766      762      758      753      743      731      712      692 
     673      645      614      585      558      538      518      490 
     460      425      394      364      336      301      263      229 
     195      156      117       78       37       -1      -36      -76 
    -124     -171     -218     -271     -319     -368     -415     -467 
    -523     -581     -642     -704     -769     -838     -905     -967 
   -1032    -1094    -1156    -1221    -1290    -1363    -1429    -1487 
   -1547    -1605    -1669    -1737    -1798    -1858    -1918    -1973 
   -2030    -2088    -2137    -2181    -2231    -2285    -2335    -2386 
   -2436    -2489    -2540    -2583    -2628    -2675    -2721    -2762 
   -2798    -2832    -2863    -2894    -2921    -2941    -2961    -2980 
   -2994    -3006    -3010    -3007    -3006    -3007    -3009    -3003 
   -2992    -2979    -2965    -2947    -2920    -2893    -2867    -2847 
   -2822    -2790    -2755    -2721    -2682    -2643    -2606    -2573 
   -2536    -2494    -2450    -2409    -2369    -2326    -2284    -2245 
   -2201    -2161    -2126    -2087    -2049    -2016    -1981    -1945 
   -1915    -1883    -1846    -1818    -1794    -1764    -1729    -1701 
   -1668    -1636    -1606    -1574    -1537    -1502    -1471    -1445 
   -1420    -1391    -1362    -1329    -1301    -1278    -1256    -1232 
   -1204    -1170    -1133    -1102    -1075    -1048    -1021     -989 
    -958     -932     -905     -873     -838     -803     -769     -735 
    -702     -666     -631     -594     -557     -521     -472     -425 
