Origin Time       2016/04/16 01:25:00
Lat.              32.753
Long.             130.762
Depth. (km)       12
Mag.              7.3
Station Code      MIE005
Station Lat.      34.7677
Station Long.     136.1151
Station Height(m) 134
Record Time       2016/04/16 01:27:50
Sampling Freq(Hz) 100Hz
Duration Time(s)  60
Dir.              E-W
Scale Factor      7845(gal)/8223790
Max. Acc. (gal)   1.195
Last Correction   2016/04/16 01:27:51
Memo.             
[...]
    3480     3458     3445     3439     3430     3418     3407     3388 
    3369     3354     3336     3323     3317     3310     3300     3294 
    3284     3280     3281     3283     3283     3281     3273     3264 
    3254     3237     3213     3192     3176     3165     3152     3134 
    3118     3103     3090     3080     3075     3071     3065     3055 
    3042     3033     3019     2998     2975     2960     2945     2926 
    2903     2879     2856     2837     2822     2805     2789     2779 
    2766     2756     2751     2743     2739     2740     2745     2751 
    2755     2758     2763     2774     2783     2789     2797     2809 
    2822     2832     2841     2851     2863     2878     2891     2906 
    2922     2938     2955     2970     2983     2999     3017     3030 
    3046     3064     3079     3092     3105     3117     3127     3132 
    3132     3132     3136     3142     3149     3152     3150     3157 
    3169     3179     3186     3194     3200     3206     3207     3204 
    3206     3210     3213     3215     3221     3227     3238     3248 
    3256     3265     3271     3275     3281     3287     3288     3287 
    3284     3287     3291     3295     3299     3298     3294     3289 
    3281     3271     3258     3244     3222     3202     3184     3165 
    3144     3121     3092     3060     3026     2998     2970     2937 
    2901     2871     2847     2824     2802     2782     2763     2747 
    2739     2740     2744     2751     2756     2759     2771     2785 
    2799     2820     2843     2863     2887     2914     2940     2963 
    2986     3014     3044     3073     3096     3113     3134     3154 
    3167     3177     3187     3194     3210     3226     3237     3246 
    3258     3269     3283     3298     3311     3322     3334     3342 
    3350     3358     3369     3376     3376     3372     3368     3361 
    3354     3345     3325     3295     3267     3238     3203     3167 
    3130     3090     3049     3006     2963     2918     2875     2833 
    2790     2749     2712     2673     2635     2600     2571     2548 
    2533     2525     2520     2523     2538     2560     2586     2617 
    2650     2686     2729     2776     2825     2875     2928     2980 
    3030     3076     3119     3160     3194     3229     3258     3284 
    3315     3346     3369     3392     3418     3437     3454     3478 
    3499     3516     3534     3541     3542     3549     3561     3573 
    3586     3599     3615     3636     3651     3667     3690     3711 
    3728     3754     3774     3785     3790     3793     3794     3792 
    3785     3771     3753     3730     3708     3690     3669     3642 
    3613     3582     3553     3528     3503     3474     3453     3435 
    3419     3407     3399     3396     3395     3391     3383     3380 
    3379     3372     3362     3357     3357     3360     3364     3369 
    3376     3379     3380     3381     3383     3383     3383     3380 
    3372     3362     3352     3341     3331     3322     3310     3295 
    3277     3256     3238     3219     3194     3175     3157     3140 
    3118     3096     3076     3053     3030     3010     2990     2972 
    2953     2932     2915     2905     2894     2887     2882     2874 
    2866     2862     2856     2853     2853     2859     2860     2853 
    2849     2848     2843     2840     2840     2839     2840     2839 
    2833     2833     2837     2841     2848     2852     2852     2853 
    2851     2847     2844     2844     2849     2856     2855     2856 
    2866     2867     2866     2870     2868     2866     2868     2871 
    2871     2871     2868     2862     2863     2870     2874     2879 
    2893     2905     2920     2940     2960     2979     3001     3025 
    3048     3075     3109     3145     3180     3219     3261     3300 
    3342     3383     3420     3462     3505     3543     3582     3628 
    3670     3712     3757     3800     3842     3885     3924     3951 
    3978     4002     4020     4036     4052     4067     4081     4091 
    4098     4102     4106     4107     4101     4090     4078     4060 
    4040     4017     3994     3970     3946     3915     3880     3840 
    3798     3761     3726     3689     3651     3613     3580     3547 
    3511     3473     3437     3399     3364     3330     3292     3254 
    3215     3176     3137     3099     3063     3026     2991     2956 
    2922     2890     2867     2844     2818     2802     2794     2785 
    2782     2782     2778     2778     2783     2789     2792     2799 
    2808     2820     2837     2853     2867     2884     2905     2924 
    2941     2955     2971     2992     3015     3033     3046     3064 
    3086     3106     3122     3140     3154     3171     3188     3208 
    3226     3242     3260     3283     3308     3323     3341     3362 
    3380     3396     3414     3424     3433     3439     3442     3449 
    3457     3464     3468     3472     3477     3488     3500     3508 
    3522     3539     3553     3565     3577     3582     3589     3603 
    3618     3631     3643     3655     3669     3686     3703     3717 
    3738     3761     3776     3788     3797     3802     3812     3827 
    3842     3856     3869     3878     3888     3897     3905     3913 
    3925     3943     3959     3971     3983     3998     4012     4028 
    4047     4069     4086     4094     4099     4105     4109     4113 
    4117     4118     4113     4104     4097     4090     4085     4083 
    4077     4066     4060     4051     4040     4035     4028     4017 
    4008     3996     3984     3978     3969     3960     3948     3932 
    3916     3901     3875     3846     3815     3781     3750     3728 
    3699     3663     3634     3597     3561     3532     3497     3458 
    3423     3380     3334     3291     3246     3202     3157     3109 
    3063     3017     2972     2926     2876     2829     2786     2747 
    2706     2669     2636     2606     2575     2552     2540     2529 
    2516     2506     2501     2500     2498     2500     2508     2516 
    2523     2528     2542     2558     2574     2594     2620     2646 
    2673     2700     2727     2755     2786     2820     2852     2882 
    2917     2948     2978     3006     3029     3048     3071     3096 
    3113     3125     3132     3133     3140     3148     3154     3161 
    3165     3169     3175     3179     3180     3187     3191     3191 
    3191     3194     3196     3196     3202     3207     3207     3211 
    3217     3215     3218     3221     3221     3227     3240     3248 
    3262     3280     3291     3308     3339     3368     3393     3422 
    3451     3477     3503     3530     3561     3589     3611     3632 
    3655     3678     3696     3708     3717     3724     3727     3726 
    3717     3707     3694     3681     3666     3646     3620     3599 
    3581     3561     3543     3528     3508     3489     3476     3457 
    3439     3429     3419     3411     3404     3403     3407     3412 
    3422     3435     3449     3459     3466     3469     3473     3470 
    3464     3457     3446     3430     3416     3402     3377     3350 
    3319     3287     3257     3225     3190     3159     3130     3095 
    3053     3017     2980     2945     2917     2889     2856     2820 
    2781     2744     2709     2675     2648     2623     2598     2575 
    2554     2536     2529     2525     2523     2524     2524     2527 
    2538     2551     2565     2584     2606     2629     2660     2694 
    2729     2764     2799     2841     2890     2938     2988     3041 
    3088     3136     3180     3231     3287     3338     3385     3435 
    3478     3511     3550     3589     3620     3646     3667     3689 
    3707     3719     3732     3748     3761     3769     3778     3786 
    3793     3808     3820     3819     3815     3808     3793     3778 
    3769     3755     3738     3719     3694     3662     3630     3597 
    3568     3538     3507     3473     3439     3400     3364     3335 
    3310     3280     3256     3238     3213     3190     3175     3163 
    3152     3141     3130     3122     3118     3118     3122     3127 
    3137     3148     3157     3165     3176     3190     3203     3217 
    3230     3249     3269     3283     3287     3289     3292     3292 
    3296     3298     3294     3284     3268     3244     3217     3194 
    3176     3154     3130     3106     3082     3059     3037     3013 
    2994     2979     2960     2941     2921     2898     2882     2872 
    2867     2863     2862     2863     2870     2874     2875     2875 
    2880     2893     2902     2907     2913     2918     2926     2936 
    2944     2951     2959     2965     2967     2963     2963     2960 
    2953     2951     2953     2949     2944     2944     2947     2945 
    2943     2943     2938     2930     2921     2910     2899     2893 
    2884     2870     2851     2832     2813     2795     2776     2758 
    2740     2721     2702     2682     2668     2660     2650     2640 
    2636     2633     2632     2641     2652     2663     2679     2697 
    2717     2740     2762     2781     2802     2822     2844     2866 
    2886     2913     2938     2957     2976     2994     3006     3021 
    3040     3053     3067     3083     3092     3105     3127     3149 
    3167     3187     3206     3227     3249     3265     3283     3300 
    3317     3339     3368     3396     3419     3438     3458     3478 
    3495     3505     3515     3522     3526     3522     3514     3508 
    3503     3492     3483     3472     3456     3439     3424     3404 
    3383     3364     3346     3326     3310     3292     3267     3245 
    3232     3215     3202     3194     3183     3169     3157     3141 
    3123     3111     3105     3099     3096     3096     3096     3102 
    3109     3109     3109     3114     3122     3130     3138     3152 
    3168     3187     3203     3218     3235     3252     3269     3288 
    3308     3330     3350     3365     3369     3375     3381     3388 
    3391     3397     3407     3415     3426     3433     3426     3420 
    3419     3407     3395     3387     3379     3366     3353     3334 
    3314     3295     3276     3254     3235     3222     3208     3186 
    3161     3138     3114     3094     3076     3051     3026     3010 
    2991     2975     2964     2956     2957     2963     2964     2967 
    2972     2979     2997     3019     3038     3061     3088     3113 
    3136     3157     3180     3202     3218     3231     3244     3252 
    3258     3258     3254     3254     3254     3248     3242     3232 
    3213     3199     3186     3161     3136     3115     3090     3059 
    3028     2998     2970     2943     2911     2875     2836     2797 
    2767     2736     2698     2662     2627     2596     2567     2538 
    2508     2482     2458     2436     2415     2394     2378     2359 
    2338     2323     2308     2293     2276     2261     2249     2235 
    2226     2222     2215     2208     2208     2208     2209     2215 
    2219     2226     2236     2249     2262     2278     2293     2305 
    2319     2344     2371     2394     2420     2442     2463     2489 
    2516     2539     2565     2597     2627     2647     2667     2693 
    2720     2748     2778     2805     2828     2849     2870     2889 
    2911     2937     2961     2983     3005     3025     3044     3064 
    3087     3109     3133     3160     3183     3200     3225     3250 
    3269     3288     3310     3329     3352     3376     3396     3411 
    3424     3437     3449     3459     3469     3477     3478     3480 
    3481     3477     3474     3473     3464     3451     3439     3426 
    3414     3402     3384     3369     3357     3346     3331     3312 
    3292     3271     3252     3240     3227     3210     3194     3179 
    3165     3152     3144     3138     3129     3118     3117     3117 
    3109     3103     3095     3087     3086     3087     3090     3090 
    3087     3087     3092     3095     3095     3099     3105     3106 
    3109     3119     3133     3144     3149     3152     3152     3154 
    3156     3154     3159     3164     3161     3157     3154     3152 
    3145     3133     3122     3115     3103     3090     3082     3068 
    3049     3033     3019     3007     2995     2986     2980     2979 
    2975     2967     2967     2967     2971     2979     2984     2992 
    3003     3017     3026     3032     3040     3049     3055     3065 
    3086     3103     3121     3140     3153     3165     3183     3203 
    3219     3240     3258     3275     3291     3310     3326     3339 
    3355     3373     3392     3414     3434     3454     3470     3480 
    3492     3514     3537     3558     3577     3593     3612     3628 
    3646     3663     3681     3697     3716     3735     3753     3766 
    3781     3801     3821     3839     3856     3875     3894     3916 
    3935     3951     3975     3998     4014     4027     4036     4050 
    4062     4069     4074     4081     4083     4083     4083     4074 
    4055     4035     4013     3987     3964     3942     3908     3873 
    3838     3792     3742     3694     3647     3595     3538     3480 
    3418     3352     3284     3213     3133     3056     2980     2899 
    2817     2740     2667     2598     2535     2471     2408     2340 
    2278     2224     2176     2130     2096     2066     2038     2011 
    1982     1964     1960     1956     1949     1952     1954     1961 
    1975     1988     2001     2022     2049     2076     2110     2151 
    2193     2235     2282     2331     2381     2430     2479     2531 
    2583     2639     2700     2758     2810     2863     2918     2971 
    3022     3076     3130     3184     3241     3295     3346     3399 
    3453     3501     3547     3593     3639     3684     3726     3766 
    3805     3838     3865     3889     3909     3932     3956     3975 
    3991     4008     4017     4023     4028     4029     4027     4021 
    4010     3997     3984     3973     3956     3935     3912     3882 
    3846     3811     3780     3746     3711     3678     3647     3608 
    3566     3530     3492     3454     3418     3381     3348     3317 
    3294     3262     3227     3198     3169     3141     3119     3100 
    3084     3071     3071     3075     3078     3080     3083     3087 
    3096     3113     3132     3156     3180     3199     3223     3252 
    3279     3302     3326     3352     3377     3400     3422     3443 
    3462     3483     3500     3511     3524     3534     3542     3547 
    3546     3547     3549     3544     3532     3515     3495     3476 
    3456     3429     3397     3362     3333     3306     3276     3242 
    3207     3173     3140     3099     3057     3024     2995     2964 
    2934     2907     2879     2855     2836     2821     2808     2795 
    2783     2771     2764     2759     2763     2771     2781     2792 
    2802     2814     2833     2857     2882     2906     2930     2952 
    2980     3010     3033     3056     3083     3111     3141     3173 
    3202     3225     3252     3272     3283     3296     3312     3329 
    3342     3354     3362     3365     3365     3369     3372     3372 
    3369     3364     3354     3343     3338     3333     3322     3310 
    3296     3284     3277     3275     3268     3260     3254     3253 
    3248     3237     3226     3215     3208     3208     3213     3215 
    3219     3223     3230     3238     3246     3253     3260     3271 
    3279     3284     3295     3302     3311     3322     3333     3345 
    3353     3362     3373     3380     3384     3391     3396     3399 
    3400     3400     3403     3403     3403     3406     3404     3402 
    3404     3400     3387     3372     3360     3346     3330     3312 
    3295     3276     3252     3229     3207     3188     3171     3150 
    3132     3118     3105     3088     3073     3056     3037     3022 
    3015     3011     3007     3002     2997     2992     2995     3001 
    3003     3007     3009     3009     3017     3030     3044     3055 
    3064     3075     3087     3102     3118     3133     3148     3161 
    3173     3184     3202     3217     3226     3238     3254     3265 
    3273     3280     3281     3283     3283     3281     3277     3272 
    3267     3258     3244     3226     3208     3196     3186     3172 
    3152     3129     3107     3086     3065     3049     3030     3009 
    2992     2976     2959     2945     2934     2922     2918     2914 
    2906     2899     2898     2895     2899     2907     2915     2924 
    2934     2945     2964     2984     3001     3017     3034     3051 
    3067     3083     3096     3109     3126     3138     3149     3161 
    3173     3183     3186     3190     3198     3203     3210     3215 
    3213     3210     3210     3208     3208     3213     3221     3229 
    3238     3250     3261     3273     3289     3312     3336     3361 
    3388     3419     3447     3483     3519     3557     3596     3631 
    3663     3699     3732     3762     3790     3817     3839     3859 
    3878     3899     3920     3932     3940     3944     3940     3932 
    3923     3906     3889     3871     3852     3832     3807     3781 
    3759     3735     3711     3690     3667     3643     3623     3603 
    3580     3557     3541     3528     3516     3505     3497     3489 
    3480     3474     3469     3468     3472     3473     3474     3474 
    3469     3464     3470     3476     3468     3466     3473     3472 
    3469     3473     3470     3465     3458     3446     3435     3434 
    3430     3419     3407     3400     3387     3372     3364     3354 
    3342     3335     3329     3314     3295     3281     3273     3264 
    3248     3231     3218     3203     3190     3175     3154     3130 
    3107     3082     3056     3032     3014     2995     2978     2961 
    2947     2929     2913     2901     2890     2876     2863     2853 
    2847     2843     2837     2836     2837     2836     2840     2848 
    2851     2852     2856     2859     2863     2863     2859     2860 
    2866     2871     2876     2879     2880     2880     2878     2872 
    2866     2860     2857     2852     2851     2849     2843     2837 
    2835     2826     2822     2829     2833     2830     2826     2822 
    2824     2825     2822     2818     2813     2808     2806     2805 
    2802     2801     2797     2790     2787     2783     2778     2776 
    2781     2783     2786     2789     2794     2799     2801     2806 
    2818     2832     2844     2856     2863     2872     2880     2893 
    2907     2928     2947     2963     2979     2998     3017     3038 
    3065     3094     3115     3138     3163     3184     3208     3237 
    3262     3287     3312     3335     3357     3377     3400     3423 
    3443     3466     3481     3488     3497     3508     3514     3520 
    3526     3526     3524     3519     3508     3496     3481     3466 
    3450     3429     3404     3379     3349     3321     3294     3264 
    3231     3199     3165     3126     3088     3053     3017     2983 
    2948     2914     2882     2853     2825     2795     2770     2749 
    2728     2706     2688     2673     2660     2652     2646     2646 
