Origin Time       2016/04/16 01:25:00
Lat.              32.753
Long.             130.762
Depth. (km)       12
Mag.              7.3
Station Code      MIE018
Station Lat.      34.8702
Station Long.     136.4546
Station Height(m) 183
Record Time       2016/04/16 01:28:04
Sampling Freq(Hz) 100Hz
Duration Time(s)  87
Dir.              E-W
Scale Factor      7845(gal)/8223790
Max. Acc. (gal)   1.734
Last Correction   2016/04/16 01:28:06
Memo.             
[...]
    2293     2300     2299     2308     2319     2312     2307     2312 
    2319     2316     2307     2300     2292     2280     2278     2285 
    2278     2261     2254     2251     2243     2238     2236     2231 
    2219     2207     2199     2196     2196     2199     2200     2209 
    2220     2222     2232     2251     2261     2272     2286     2292 
    2295     2311     2328     2331     2334     2349     2361     2365 
    2371     2378     2378     2382     2390     2394     2405     2421 
    2428     2428     2427     2427     2432     2435     2434     2435 
    2436     2435     2435     2432     2434     2440     2442     2439 
    2442     2442     2442     2451     2455     2450     2447     2440 
    2425     2412     2404     2397     2386     2367     2346     2330 
    2316     2303     2285     2263     2245     2223     2192     2165 
    2150     2128     2098     2074     2053     2034     2011     1996 
    1985     1965     1945     1935     1929     1923     1923     1917 
    1908     1904     1908     1918     1927     1935     1946     1961 
    1979     1996     2015     2034     2057     2077     2096     2115 
    2133     2149     2163     2178     2196     2212     2224     2236 
    2251     2265     2277     2288     2304     2326     2349     2365 
    2380     2400     2419     2432     2458     2484     2498     2516 
    2540     2555     2560     2569     2581     2596     2612     2629 
    2644     2650     2654     2668     2691     2713     2731     2740 
    2748     2758     2772     2787     2792     2797     2805     2813 
    2820     2824     2825     2828     2829     2826     2826     2822 
    2810     2802     2798     2792     2782     2766     2749     2733 
    2712     2690     2669     2650     2627     2606     2592     2573 
    2546     2520     2502     2486     2477     2469     2452     2439 
    2435     2420     2403     2392     2377     2366     2362     2358 
    2346     2326     2307     2295     2280     2261     2250     2241 
    2222     2199     2176     2154     2137     2118     2098     2079 
    2057     2033     2014     1992     1968     1948     1933     1917 
    1907     1904     1892     1867     1848     1842     1844     1844 
    1846     1852     1854     1858     1871     1876     1869     1864 
    1869     1880     1894     1904     1912     1917     1921     1935 
    1953     1953     1952     1960     1966     1977     1998     2011 
    2012     2014     2023     2037     2053     2070     2089     2110 
    2123     2135     2154     2180     2201     2208     2209     2215 
    2227     2239     2254     2263     2267     2276     2281     2286 
    2299     2304     2309     2323     2330     2331     2338     2343 
    2343     2353     2361     2361     2370     2382     2384     2384 
    2384     2384     2392     2397     2398     2404     2407     2405 
    2409     2417     2416     2412     2404     2389     2378     2380 
    2385     2378     2365     2357     2344     2331     2326     2317 
    2304     2296     2290     2280     2270     2262     2246     2228 
    2220     2215     2211     2207     2207     2207     2200     2185 
    2177     2178     2178     2172     2165     2157     2154     2158 
    2155     2144     2130     2120     2110     2104     2107     2106 
    2096     2092     2091     2085     2077     2064     2045     2043 
    2060     2070     2070     2058     2041     2033     2039     2043 
    2037     2034     2033     2029     2033     2043     2042     2031 
    2033     2045     2052     2052     2050     2047     2049     2057 
    2062     2065     2066     2068     2077     2085     2079     2074 
    2079     2081     2083     2079     2070     2064     2061     2064 
    2065     2053     2047     2052     2050     2043     2042     2042 
    2045     2052     2053     2056     2060     2061     2062     2072 
    2081     2085     2085     2084     2084     2085     2085     2083 
    2076     2070     2066     2062     2056     2052     2053     2052 
    2049     2045     2038     2034     2034     2034     2031     2026 
    2020     2019     2018     2011     2011     2011     2010     2016 
    2026     2033     2037     2042     2056     2073     2083     2095 
    2115     2134     2150     2169     2187     2196     2203     2219 
    2241     2255     2272     2290     2309     2331     2354     2370 
    2384     2405     2431     2459     2492     2517     2527     2538 
    2559     2586     2609     2623     2636     2656     2678     2690 
    2698     2708     2721     2733     2743     2749     2749     2748 
    2752     2759     2756     2748     2744     2737     2727     2721 
    2713     2698     2682     2671     2660     2647     2627     2612 
    2602     2586     2565     2542     2517     2498     2493     2484 
    2463     2447     2436     2424     2413     2405     2400     2385 
    2362     2346     2335     2322     2305     2285     2262     2239 
    2212     2184     2161     2139     2116     2095     2064     2030 
    2004     1984     1958     1934     1915     1890     1856     1831 
    1817     1798     1776     1760     1750     1736     1719     1707 
    1701     1696     1692     1687     1686     1692     1698     1703 
    1713     1728     1738     1749     1767     1792     1813     1819 
    1830     1845     1856     1875     1896     1910     1919     1933 
    1949     1965     1977     1982     1993     2011     2030     2049 
    2072     2092     2111     2133     2151     2168     2185     2211 
    2241     2257     2269     2288     2305     2324     2347     2369 
    2381     2393     2419     2448     2466     2479     2492     2501 
    2512     2527     2546     2560     2567     2577     2586     2586 
    2589     2602     2614     2625     2636     2644     2647     2654 
    2663     2675     2687     2694     2695     2702     2708     2704 
    2700     2704     2710     2712     2706     2704     2700     2693 
    2690     2688     2679     2668     2656     2640     2625     2609 
    2586     2562     2538     2509     2474     2440     2415     2385 
    2346     2307     2272     2241     2208     2180     2151     2128 
    2106     2079     2058     2043     2031     2022     2011     1999 
    1989     1984     1981     1981     1991     2006     2011     2012 
    2020     2033     2049     2072     2092     2111     2130     2144 
    2161     2180     2199     2222     2245     2261     2278     2295 
    2312     2334     2354     2371     2386     2397     2419     2444 
    2466     2492     2517     2532     2546     2569     2587     2608 
    2628     2646     2662     2682     2695     2710     2724     2728 
    2732     2754     2772     2776     2781     2783     2782     2783 
    2782     2776     2763     2743     2724     2713     2700     2678 
    2654     2635     2614     2589     2563     2536     2504     2471 
    2448     2427     2398     2370     2338     2303     2265     2231 
    2201     2168     2134     2107     2077     2037     2001     1972 
    1946     1919     1890     1859     1831     1806     1786     1767 
    1741     1717     1701     1683     1663     1648     1641     1632 
    1624     1614     1606     1601     1598     1601     1601     1602 
    1606     1613     1621     1629     1640     1655     1671     1695 
    1725     1748     1765     1792     1830     1868     1903     1941 
    1971     1995     2025     2058     2091     2119     2144     2174 
    2205     2236     2266     2293     2317     2346     2376     2397 
    2411     2425     2446     2467     2486     2493     2493     2504 
    2519     2529     2538     2542     2550     2560     2567     2567 
    2563     2559     2559     2556     2554     2555     2546     2529 
    2524     2520     2504     2486     2469     2448     2425     2400 
    2370     2334     2297     2270     2235     2188     2144     2106 
    2060     2014     1969     1918     1871     1833     1799     1763 
    1722     1680     1649     1626     1606     1584     1549     1509 
    1480     1471     1462     1445     1428     1409     1394     1382 
    1372     1364     1356     1348     1341     1334     1327     1317 
    1312     1310     1308     1304     1304     1308     1318     1333 
    1341     1344     1355     1375     1402     1428     1443     1459 
    1487     1520     1551     1582     1617     1652     1684     1726 
    1773     1809     1841     1890     1941     1984     2025     2065 
    2107     2157     2211     2253     2289     2328     2369     2408 
    2447     2485     2523     2560     2600     2636     2666     2695 
    2725     2758     2797     2837     2871     2898     2925     2953 
    2988     3025     3055     3087     3126     3161     3194     3229 
    3256     3284     3321     3353     3379     3395     3406     3419 
    3437     3451     3464     3473     3474     3477     3485     3481 
    3465     3459     3461     3451     3439     3433     3415     3388 
    3369     3353     3327     3300     3276     3250     3230     3206 
    3172     3141     3109     3073     3041     3011     2972     2925 
    2886     2848     2808     2767     2725     2679     2636     2597 
    2551     2502     2452     2409     2367     2319     2263     2218 
    2173     2123     2070     2023     1979     1930     1881     1836 
    1786     1737     1706     1674     1638     1611     1582     1547 
    1521     1512     1501     1478     1463     1459     1457     1459 
    1467     1475     1483     1499     1518     1535     1556     1576 
    1594     1613     1641     1676     1707     1729     1750     1776 
    1806     1833     1854     1877     1902     1921     1933     1949 
    1969     1984     2001     2016     2022     2029     2043     2060 
    2072     2079     2085     2092     2095     2097     2104     2114 
    2115     2111     2119     2124     2126     2130     2135     2134 
    2130     2126     2126     2126     2126     2126     2111     2095 
    2093     2091     2084     2079     2066     2049     2034     2025 
    2019     2020     2012     2003     2001     1998     1989     1987 
    1982     1975     1975     1973     1966     1964     1960     1956 
    1961     1961     1954     1953     1948     1944     1945     1942 
    1933     1933     1935     1930     1925     1921     1914     1903 
    1894     1890     1883     1871     1867     1864     1850     1833 
    1825     1815     1804     1796     1786     1769     1755     1750 
    1745     1733     1721     1713     1706     1702     1705     1711 
    1713     1709     1713     1728     1737     1741     1745     1752 
    1759     1760     1757     1755     1750     1744     1744     1742 
    1734     1728     1725     1719     1713     1703     1698     1690 
    1680     1676     1680     1684     1691     1699     1705     1709 
    1719     1732     1741     1753     1769     1784     1792     1802 
    1817     1837     1854     1873     1899     1921     1934     1949 
    1966     1981     2004     2031     2053     2072     2084     2093 
    2118     2147     2169     2185     2200     2218     2243     2267 
    2292     2319     2340     2362     2397     2431     2458     2484 
    2512     2539     2575     2614     2646     2675     2706     2743 
    2782     2816     2844     2875     2913     2945     2975     3003 
    3029     3060     3092     3117     3140     3163     3180     3202 
    3227     3250     3264     3273     3292     3307     3310     3312 
    3314     3303     3294     3287     3271     3246     3221     3191 
    3159     3122     3088     3060     3025     2980     2936     2893 
    2844     2802     2767     2729     2691     2652     2612     2569 
    2528     2494     2461     2427     2392     2357     2319     2288 
    2262     2243     2226     2207     2184     2161     2150     2138 
    2116     2106     2111     2111     2110     2106     2098     2095 
    2096     2102     2111     2121     2126     2126     2120     2123 
    2135     2143     2146     2146     2139     2138     2142     2149 
    2160     2170     2181     2188     2193     2201     2218     2241 
    2266     2295     2315     2334     2361     2386     2409     2440 
    2469     2493     2519     2544     2571     2600     2621     2639 
    2659     2682     2700     2716     2731     2735     2736     2749 
    2762     2768     2776     2785     2783     2779     2782     2789 
    2795     2798     2795     2792     2798     2802     2801     2805 
    2808     2808     2810     2809     2802     2798     2794     2786 
    2771     2759     2751     2736     2716     2693     2669     2651 
    2632     2606     2581     2563     2544     2525     2512     2492 
    2470     2463     2461     2451     2442     2444     2447     2452 
    2459     2469     2482     2500     2520     2542     2559     2575 
    2600     2627     2651     2682     2713     2736     2758     2782 
    2809     2837     2862     2887     2915     2938     2961     2992 
    3017     3037     3067     3092     3111     3138     3169     3196 
    3231     3260     3284     3319     3354     3391     3433     3469 
    3504     3543     3572     3603     3643     3677     3707     3738 
    3765     3792     3820     3842     3866     3886     3908     3935 
    3955     3969     3984     3998     4014     4032     4048     4059 
    4069     4074     4074     4079     4085     4083     4083     4083 
    4072     4063     4055     4045     4039     4027     4005     3989 
    3978     3959     3939     3916     3889     3867     3847     3824 
    3800     3771     3738     3707     3682     3658     3628     3593 
    3550     3511     3480     3439     3399     3364     3323     3276 
    3231     3188     3141     3092     3044     2986     2932     2884 
    2836     2785     2729     2678     2629     2578     2531     2486 
    2439     2392     2353     2313     2272     2230     2189     2149 
    2107     2070     2037     2001     1964     1930     1894     1850 
    1807     1769     1732     1699     1665     1622     1567     1518 
    1482     1452     1421     1385     1343     1298     1252     1208 
    1173     1144     1116     1084     1047     1012      981      954 
     934      919      909      903      892      880      876      882 
     889      899      918      935      943      951      961      972 
     984     1000     1019     1031     1032     1032     1038     1043 
    1048     1059     1071     1073     1067     1057     1047     1050 
    1065     1077     1077     1065     1057     1057     1057     1060 
    1073     1085     1085     1088     1094     1094     1098     1107 
    1115     1121     1133     1142     1143     1140     1139     1144 
    1156     1170     1181     1185     1188     1192     1202     1224 
    1244     1256     1273     1294     1310     1331     1363     1391 
    1416     1445     1475     1501     1528     1570     1609     1640 
    1674     1714     1753     1796     1844     1892     1933     1975 
    2022     2072     2121     2176     2236     2293     2343     2393 
    2447     2504     2565     2633     2700     2751     2797     2844 
    2895     2952     3007     3051     3088     3134     3184     3225 
    3252     3280     3311     3342     3369     3396     3422     3438 
    3440     3446     3459     3472     3478     3476     3477     3478 
    3470     3464     3462     3458     3454     3450     3434     3414 
    3407     3407     3396     3381     3369     3352     3327     3311 
    3300     3281     3257     3235     3211     3177     3149     3125 
    3095     3067     3037     3001     2957     2915     2879     2848 
    2820     2782     2740     2702     2663     2627     2598     2573 
    2543     2519     2496     2466     2435     2412     2397     2388 
    2377     2363     2351     2342     2338     2334     2330     2331 
    2334     2336     2335     2338     2347     2357     2363     2371 
    2380     2384     2385     2389     2393     2393     2397     2407 
    2404     2390     2386     2394     2398     2394     2397     2398 
    2392     2392     2394     2390     2385     2384     2384     2384 
    2376     2363     2362     2363     2353     2343     2343     2334 
    2313     2297     2284     2263     2234     2212     2199     2172 
    2141     2116     2092     2066     2043     2022     1995     1972 
    1954     1938     1922     1903     1884     1868     1852     1842 
    1831     1819     1810     1802     1791     1784     1783     1775 
    1765     1765     1765     1755     1744     1741     1738     1736 
    1725     1711     1709     1707     1699     1696     1690     1672 
    1658     1651     1647     1642     1632     1622     1617     1611 
    1609     1606     1602     1598     1595     1597     1601     1598 
    1594     1602     1609     1611     1618     1625     1629     1637 
    1642     1647     1651     1655     1660     1667     1669     1671 
    1674     1675     1671     1671     1672     1667     1663     1664 
    1657     1640     1624     1613     1606     1603     1595     1588 
    1580     1571     1564     1560     1554     1551     1548     1547 
    1549     1548     1539     1532     1526     1522     1518     1509 
    1505     1501     1494     1487     1478     1462     1444     1436 
    1431     1424     1408     1390     1370     1347     1332     1327 
    1313     1293     1273     1248     1223     1202     1185     1170 
    1156     1142     1127     1111     1098     1092     1081     1080 
    1085     1086     1085     1094     1100     1105     1124     1136 
    1142     1156     1175     1189     1205     1228     1250     1269 
    1289     1314     1340     1363     1393     1431     1464     1497 
    1539     1584     1620     1657     1701     1737     1776     1825 
    1867     1904     1953     2000     2041     2079     2119     2162 
    2205     2247     2290     2331     2369     2403     2440     2479 
    2513     2540     2571     2605     2635     2660     2682     2702 
    2721     2739     2752     2767     2779     2792     2801     2801 
    2809     2822     2829     2833     2840     2844     2849     2859 
    2868     2875     2882     2893     2905     2920     2938     2955 
    2970     2990     3007     3018     3032     3048     3069     3090 
    3102     3114     3129     3140     3154     3168     3172     3179 
    3188     3190     3184     3179     3171     3164     3157     3144 
    3126     3107     3086     3063     3038     3018     3001     2974 
    2943     2917     2884     2848     2822     2798     2763     2731 
    2702     2666     2624     2587     2560     2529     2493     2461 
    2432     2400     2366     2335     2309     2286     2266     2253 
    2234     2214     2199     2185     2165     2151     2150     2150 
    2141     2130     2126     2123     2120     2120     2120     2124 
    2124     2126     2135     2138     2134     2137     2143     2151 
    2161     2163     2163     2168     2170     2173     2174     2177 
    2184     2184     2177     2177     2177     2173     2173     2176 
    2173     2173     2173     2169     2176     2184     2182     2185 
