Origin Time       2016/04/16 01:25:00
Lat.              32.753
Long.             130.762
Depth. (km)       12
Mag.              7.3
Station Code      MIE003
Station Lat.      34.9704
Station Long.     136.6357
Station Height(m) 2
Record Time       2016/04/16 01:28:04
Sampling Freq(Hz) 100Hz
Duration Time(s)  161
Dir.              N-S
Scale Factor      7845(gal)/8223790
Max. Acc. (gal)   3.907
Last Correction   2016/04/16 01:28:05
Memo.             
[...]
     662      693      715      743      788      826      849      886 
     922      912      897      916      922      912      931      947 
     959     1004     1042     1043     1035     1021     1000      985 
     962      929      924      940      953      982     1009      993 
     961      922      870      837      815      800      811      820 
     822      837      835      814      792      749      688      656 
     634      611      616      639      652      662      661      634 
     600      564      523      506      502      493      480      476 
     493      502      483      459      429      388      363      357 
     342      329      338      349      352      355      340      305 
     274      251      222      182      149      129      112      106 
     103       87       68       44      -20      -98     -136     -162 
    -209     -234     -246     -276     -289     -295     -341     -405 
    -454     -525     -600     -648     -702     -762     -776     -769 
    -791     -834     -896     -978    -1050    -1119    -1200    -1254 
   -1289    -1331    -1359    -1387    -1433    -1476    -1528    -1606 
   -1691    -1764    -1826    -1884    -1921    -1956    -2001    -2029 
   -2058    -2114    -2182    -2269    -2355    -2419    -2473    -2523 
   -2567    -2610    -2641    -2668    -2710    -2767    -2826    -2889 
   -2963    -3041    -3109    -3168    -3217    -3244    -3258    -3284 
   -3327    -3380    -3445    -3514    -3582    -3642    -3688    -3727 
   -3762    -3789    -3804    -3807    -3816    -3861    -3919    -3979 
   -4041    -4074    -4095    -4116    -4117    -4106    -4102    -4102 
   -4110    -4136    -4178    -4220    -4243    -4243    -4237    -4237 
   -4232    -4203    -4176    -4159    -4155    -4162    -4168    -4185 
   -4202    -4199    -4178    -4149    -4102    -4058    -4035    -4008 
   -3973    -3964    -3977    -3970    -3951    -3950    -3932    -3892 
   -3863    -3823    -3755    -3709    -3692    -3674    -3676    -3678 
   -3643    -3619    -3613    -3566    -3501    -3457    -3397    -3334 
   -3304    -3284    -3260    -3250    -3248    -3210    -3156    -3105 
   -3026    -2943    -2882    -2830    -2782    -2759    -2754    -2732 
   -2683    -2620    -2554    -2477    -2407    -2343    -2261    -2199 
   -2173    -2141    -2104    -2084    -2037    -1956    -1888    -1819 
   -1733    -1652    -1590    -1539    -1507    -1491    -1456    -1408 
   -1379    -1359    -1320    -1267    -1208    -1147    -1102    -1077 
   -1058    -1047    -1058    -1063    -1050    -1043    -1031     -997 
    -967     -946     -916     -903     -918     -936     -955     -986 
   -1012    -1023    -1028    -1020     -993     -965     -963     -984 
   -1012    -1047    -1080    -1104    -1139    -1166    -1155    -1133 
   -1125    -1124    -1144    -1189    -1233    -1294    -1367    -1408 
   -1431    -1447    -1435    -1413    -1404    -1405    -1426    -1480 
   -1549    -1603    -1644    -1674    -1677    -1679    -1699    -1709 
   -1721    -1755    -1777    -1795    -1842    -1896    -1930    -1958 
   -1979    -1987    -1995    -2003    -2000    -2008    -2037    -2062 
   -2081    -2107    -2139    -2162    -2188    -2214    -2223    -2223 
   -2226    -2231    -2245    -2277    -2312    -2343    -2382    -2419 
   -2427    -2411    -2397    -2378    -2354    -2358    -2381    -2403 
   -2440    -2486    -2502    -2500    -2496    -2470    -2425    -2382 
   -2346    -2326    -2340    -2376    -2397    -2403    -2394    -2353 
   -2293    -2247    -2191    -2123    -2096    -2093    -2070    -2053 
   -2053    -2033    -2010    -1979    -1906    -1822    -1775    -1736 
   -1690    -1674    -1671    -1651    -1624    -1586    -1532    -1475 
   -1437    -1402    -1351    -1316    -1290    -1251    -1233    -1242 
   -1239    -1227    -1213    -1193    -1159    -1115    -1063    -1026 
   -1019    -1026    -1026    -1015    -1016    -1032    -1057    -1063 
   -1034    -1005     -992     -969     -950     -955     -977    -1016 
   -1057    -1080    -1084    -1065    -1030     -990     -969     -969 
    -993    -1030    -1063    -1088    -1107    -1109    -1092    -1065 
   -1019     -965     -928     -903     -900     -934     -969     -974 
    -955     -919     -872     -822     -769     -719     -677     -654 
    -657     -669     -658     -630     -612     -587     -540     -490 
    -438     -387     -353     -326     -303     -298     -294     -270 
    -241     -220     -189     -157     -140     -117      -87      -72 
     -75      -82      -98     -114     -112     -122     -140     -121 
     -90      -79      -65      -71     -122     -178     -207     -234 
    -263     -272     -286     -306     -299     -294     -332     -368 
    -400     -471     -544     -579     -616     -643     -627     -616 
    -634     -646     -676     -746     -826     -897     -945     -962 
    -978    -1004    -1021    -1030    -1046    -1074    -1112    -1163 
   -1228    -1289    -1334    -1371    -1393    -1390    -1386    -1391 
   -1404    -1439    -1497    -1541    -1571    -1599    -1621    -1628 
   -1628    -1628    -1634    -1648    -1658    -1665    -1683    -1717 
   -1760    -1795    -1810    -1817    -1826    -1830    -1823    -1814 
   -1806    -1814    -1849    -1891    -1925    -1953    -1973    -1984 
   -1992    -1985    -1966    -1960    -1949    -1946    -1965    -1996 
   -2052    -2104    -2119    -2118    -2107    -2079    -2058    -2033 
   -2008    -2010    -2033    -2062    -2081    -2088    -2079    -2050 
   -2008    -1968    -1921    -1880    -1852    -1831    -1831    -1837 
   -1825    -1803    -1769    -1714    -1651    -1595    -1543    -1494 
   -1457    -1428    -1410    -1395    -1360    -1323    -1281    -1225 
   -1170    -1112    -1051    -1007     -974     -946     -927     -913 
    -890     -857     -820     -783     -738     -696     -658     -616 
    -592     -584     -572     -560     -556     -552     -529     -492 
    -471     -449     -405     -368     -360     -370     -398     -413 
    -406     -400     -392     -380     -369     -351     -332     -324 
    -324     -348     -382     -399     -421     -442     -425     -395 
    -373     -344     -334     -353     -365     -376     -406     -423 
    -430     -440     -425     -405     -403     -383     -351     -344 
    -368     -405     -433     -445     -456     -461     -440     -419 
    -421     -409     -380     -386     -421     -445     -472     -500 
    -508     -522     -535     -518     -504     -515     -514     -515 
    -549     -589     -627     -666     -685     -684     -692     -707 
    -707     -711     -722     -730     -767     -834     -874     -893 
    -912     -918     -915     -908     -892     -881     -882     -901 
    -938     -965     -980     -992     -986     -954     -926     -909 
    -893     -884     -873     -855     -854     -872     -881     -870 
    -853     -826     -776     -728     -702     -675     -652     -661 
    -679     -665     -646     -641     -630     -625     -618     -581 
    -544     -531     -519     -510     -544     -587     -604     -621 
    -626     -610     -616     -633     -622     -622     -661     -708 
    -753     -801     -838     -877     -926     -959     -962     -954 
    -951     -981    -1055    -1140    -1206    -1271    -1331    -1371 
   -1408    -1435    -1459    -1506    -1549    -1567    -1610    -1696 
   -1773    -1826    -1864    -1880    -1891    -1919    -1942    -1949 
   -1969    -2001    -2034    -2079    -2115    -2124    -2135    -2154 
   -2160    -2155    -2149    -2137    -2138    -2147    -2147    -2139 
   -2135    -2141    -2146    -2134    -2111    -2079    -2041    -2015 
   -1993    -1964    -1948    -1958    -1968    -1944    -1902    -1869 
   -1833    -1799    -1760    -1701    -1642    -1606    -1582    -1568 
   -1563    -1528    -1483    -1451    -1393    -1301    -1233    -1194 
   -1167    -1150    -1127    -1100    -1071    -1039     -999     -942 
    -876     -814     -756     -715     -699     -685     -676     -680 
    -662     -615     -564     -522     -484     -451     -430     -406 
    -390     -400     -407     -392     -376     -367     -367     -378 
    -375     -363     -365     -383     -411     -449     -488     -533 
    -572     -591     -616     -666     -712     -743     -784     -826 
    -864     -931    -1013    -1073    -1136    -1213    -1275    -1337 
   -1410    -1466    -1514    -1593    -1694    -1796    -1898    -1982 
   -2061    -2143    -2209    -2258    -2308    -2366    -2425    -2482 
   -2574    -2694    -2790    -2866    -2937    -2986    -3014    -3045 
   -3088    -3132    -3186    -3268    -3355    -3431    -3496    -3534 
   -3558    -3588    -3618    -3639    -3659    -3682    -3712    -3755 
   -3794    -3831    -3875    -3905    -3905    -3890    -3889    -3908 
   -3921    -3931    -3951    -3973    -3997    -4012    -4005    -3994 
   -3997    -4008    -4023    -4039    -4044    -4028    -4013    -4023 
   -4051    -4081    -4098    -4102    -4099    -4099    -4102    -4088 
   -4067    -4071    -4095    -4105    -4114    -4139    -4144    -4133 
   -4136    -4133    -4106    -4082    -4064    -4036    -4025    -4051 
   -4071    -4079    -4082    -4048    -3997    -3969    -3940    -3906 
   -3882    -3859    -3840    -3835    -3828    -3800    -3757    -3711 
   -3659    -3613    -3565    -3519    -3483    -3447    -3420    -3414 
   -3400    -3353    -3307    -3267    -3206    -3145    -3100    -3048 
   -3006    -2994    -2967    -2924    -2886    -2836    -2762    -2704 
   -2651    -2589    -2542    -2502    -2454    -2420    -2398    -2359 
   -2305    -2266    -2223    -2163    -2115    -2084    -2030    -1946 
   -1875    -1830    -1788    -1745    -1701    -1648    -1610    -1572 
   -1502    -1425    -1358    -1286    -1225    -1174    -1117    -1080 
   -1063    -1026     -967     -913     -862     -805     -741     -673 
    -618     -592     -579     -564     -526     -467     -410     -360 
    -319     -292     -249     -202     -183     -180     -183     -183 
    -175     -151     -116      -91      -75      -49      -36      -40 
     -37      -51      -71      -63      -54      -47      -31      -25 
     -40      -63      -89     -101     -106     -125     -152     -175 
    -182     -187     -203     -221     -237     -244     -237     -244 
    -272     -305     -333     -348     -361     -386     -410     -427 
    -433     -427     -432     -448     -459     -461     -468     -491 
    -514     -510     -493     -490     -486     -476     -464     -449 
    -451     -481     -503     -498     -491     -487     -472     -449 
    -425     -399     -369     -344     -340     -359     -376     -380 
    -364     -330     -297     -276     -266     -259     -253     -259 
    -263     -246     -229     -211     -191     -170     -156     -159 
    -151     -118     -103     -110     -118     -141     -153     -136 
    -117     -101      -89      -85      -81      -65      -51      -43 
     -32      -23      -21      -16        5       36       59       86 
     112      122      129      143      140      125      135      171 
     201      221      248      278      311      340      346      351 
     357      360      379      411      425      438      469      491 
     508      526      526      530      540      538      542      568 
     600      627      637      626      630      646      652      641 
     616      602      608      610      614      638      658      665 
     664      639      608      602      600      592      592      588 
     572      568      568      557      553      548      515      480 
     464      441      425      436      437      429      418      406 
     417      432      418      392      365      349      356      360 
     359      363      357      353      353      348      334      319 
     306      305      314      321      322      324      332      329 
     313      307      301      286      284      275      255      253 
     259      261      261      246      225      212      195      184 
     171      149      136      128      103       65       41       32 
      22        1      -36      -76     -102     -131     -166     -184 
    -206     -228     -244     -275     -318     -349     -375     -418 
    -459     -488     -546     -591     -592     -610     -650     -685 
    -727     -767     -815     -885     -945     -969     -987    -1026 
   -1067    -1105    -1155    -1209    -1252    -1298    -1355    -1408 
   -1451    -1489    -1541    -1591    -1634    -1696    -1757    -1802 
   -1864    -1945    -2006    -2043    -2089    -2141    -2177    -2215 
   -2270    -2328    -2388    -2448    -2501    -2554    -2616    -2673 
   -2718    -2768    -2832    -2890    -2926    -2967    -3022    -3068 
   -3118    -3175    -3219    -3271    -3333    -3369    -3404    -3478 
   -3539    -3569    -3611    -3655    -3700    -3754    -3816    -3877 
   -3921    -3951    -3989    -4027    -4060    -4098    -4139    -4182 
   -4233    -4301    -4355    -4393    -4433    -4464    -4500    -4541 
   -4568    -4590    -4629    -4675    -4715    -4766    -4814    -4830 
   -4849    -4884    -4905    -4930    -4970    -5017    -5062    -5096 
   -5120    -5140    -5163    -5192    -5204    -5209    -5248    -5294 
   -5306    -5320    -5339    -5341    -5355    -5385    -5391    -5385 
   -5401    -5417    -5427    -5460    -5481    -5472    -5487    -5493 
   -5459    -5451    -5456    -5435    -5427    -5445    -5443    -5437 
   -5451    -5432    -5377    -5354    -5355    -5348    -5346    -5336 
   -5308    -5294    -5293    -5271    -5243    -5209    -5166    -5136 
   -5121    -5100    -5063    -5031    -5008    -4980    -4939    -4889 
   -4846    -4820    -4804    -4787    -4753    -4703    -4658    -4611 
   -4549    -4487    -4442    -4407    -4367    -4324    -4279    -4233 
   -4197    -4153    -4085    -4012    -3951    -3905    -3880    -3858 
   -3812    -3750    -3688    -3626    -3558    -3474    -3391    -3339 
   -3314    -3279    -3227    -3168    -3099    -3030    -2970    -2893 
   -2816    -2772    -2729    -2658    -2596    -2535    -2457    -2397 
   -2336    -2246    -2168    -2101    -2016    -1946    -1891    -1817 
   -1742    -1665    -1570    -1471    -1375    -1286    -1209    -1140 
   -1069     -992     -905     -819     -739     -652     -556     -464 
    -375     -288     -217     -151      -76        5       98      199 
     295      369      440      511      575      642      723      785 
     846      942     1031     1081     1128     1174     1206     1259 
    1329     1389     1455     1518     1554     1584     1628     1663 
    1680     1709     1755     1791     1826     1868     1898     1934 
    1979     2000     1993     1985     1996     2015     2046     2092 
    2120     2130     2151     2165     2162     2169     2180     2173 
    2168     2180     2189     2191     2195     2196     2199     2200 
    2188     2166     2142     2130     2130     2133     2124     2102 
    2066     2037     2015     1988     1969     1958     1938     1911 
    1884     1850     1814     1784     1759     1729     1694     1665 
    1632     1586     1540     1505     1471     1433     1393     1364 
    1340     1301     1275     1269     1239     1189     1158     1128 
    1081     1048     1034     1011      996      992      974      959 
     950      920      885      855      826      811      815      822 
     816      808      796      778      761      751      734      714 
     715      727      730      735      724      702      696      684 
     646      627      637      642      635      622      600      575 
     557      540      522      496      463      434      407      373 
     353      334      301      266      218      153      109       91 
      64       20      -32     -101     -157     -198     -256     -311 
    -344     -387     -445     -506     -576     -637     -691     -749 
    -797     -847     -918     -989    -1036    -1071    -1113    -1173 
   -1248    -1312    -1359    -1422    -1480    -1509    -1545    -1603 
   -1651    -1696    -1753    -1788    -1829    -1903    -1956    -1975 
   -2006    -2030    -2052    -2098    -2138    -2155    -2191    -2243 
   -2286    -2319    -2350    -2371    -2393    -2412    -2423    -2435 
   -2457    -2492    -2532    -2565    -2598    -2628    -2646    -2652 
   -2655    -2654    -2660    -2686    -2706    -2708    -2710    -2717 
   -2731    -2759    -2776    -2771    -2756    -2745    -2740    -2740 
   -2737    -2736    -2745    -2756    -2756    -2745    -2729    -2710 
   -2697    -2678    -2658    -2639    -2613    -2602    -2614    -2610 
   -2592    -2577    -2546    -2493    -2446    -2420    -2415    -2415 
   -2404    -2366    -2338    -2338    -2319    -2276    -2249    -2220 
   -2166    -2120    -2088    -2057    -2042    -2042    -2038    -2025 
   -1999    -1960    -1921    -1895    -1875    -1861    -1848    -1810 
   -1769    -1761    -1752    -1742    -1760    -1761    -1726    -1694 
   -1658    -1624    -1624    -1641    -1638    -1638    -1656    -1664 
   -1661    -1668    -1656    -1632    -1641    -1647    -1621    -1626 
   -1657    -1684    -1728    -1775    -1809    -1833    -1830    -1809 
   -1804    -1823    -1850    -1888    -1930    -1973    -2015    -2050 
   -2079    -2101    -2120    -2130    -2146    -2185    -2222    -2241 
   -2274    -2327    -2385    -2439    -2470    -2482    -2489    -2501 
   -2532    -2581    -2627    -2664    -2701    -2721    -2739    -2782 
   -2824    -2836    -2839    -2847    -2860    -2893    -2922    -2932 
   -2957    -2999    -3026    -3046    -3057    -3040    -3026    -3036 
   -3044    -3052    -3065    -3071    -3100    -3146    -3168    -3179 
   -3179    -3149    -3117    -3082    -3045    -3045    -3065    -3079 
   -3100    -3126    -3145    -3153    -3125    -3071    -3034    -3018 
   -3014    -3014    -3014    -3013    -3005    -3009    -3022    -3014 
   -2984    -2943    -2894    -2857    -2841    -2844    -2844    -2843 
   -2855    -2855    -2817    -2764    -2725    -2700    -2685    -2677 
   -2664    -2633    -2608    -2597    -2584    -2569    -2543    -2496 
   -2439    -2390    -2346    -2304    -2280    -2272    -2267    -2251 
   -2226    -2203    -2178    -2146    -2111    -2079    -2050    -2020 
   -1979    -1944    -1933    -1926    -1929    -1949    -1949    -1919 
   -1877    -1826    -1798    -1802    -1796    -1783    -1792    -1811 
   -1837    -1856    -1837    -1813    -1811    -1788    -1753    -1744 
   -1757    -1795    -1850    -1885    -1894    -1885    -1869    -1842 
   -1818    -1818    -1833    -1861    -1907    -1942    -1965    -2003 
   -2046    -2061    -2034    -1993    -1965    -1971    -2006    -2033 
   -2049    -2093    -2141    -2153    -2147    -2137    -2126    -2139 
   -2151    -2155    -2180    -2209    -2220    -2232    -2257    -2285 
   -2301    -2303    -2299    -2280    -2259    -2266    -2284    -2285 
   -2277    -2266    -2270    -2299    -2334    -2346    -2313    -2267 
   -2241    -2219    -2209    -2226    -2236    -2238    -2253    -2258 
   -2234    -2188    -2138    -2083    -2022    -1975    -1935    -1912 
