Origin Time       2016/04/16 01:25:00
Lat.              32.753
Long.             130.762
Depth. (km)       12
Mag.              7.3
Station Code      MIE018
Station Lat.      34.8702
Station Long.     136.4546
Station Height(m) 183
Record Time       2016/04/16 01:28:04
Sampling Freq(Hz) 100Hz
Duration Time(s)  87
Dir.              N-S
Scale Factor      7845(gal)/8223790
Max. Acc. (gal)   2.118
Last Correction   2016/04/16 01:28:06
Memo.             
[...]
   -2281    -2288    -2295    -2305    -2313    -2322    -2335    -2344 
   -2350    -2357    -2361    -2359    -2361    -2359    -2354    -2353 
   -2355    -2351    -2344    -2342    -2332    -2316    -2308    -2300 
   -2292    -2292    -2295    -2293    -2284    -2278    -2284    -2290 
   -2300    -2312    -2319    -2328    -2350    -2381    -2411    -2436 
   -2461    -2492    -2521    -2552    -2592    -2625    -2652    -2687 
   -2721    -2755    -2790    -2830    -2863    -2894    -2930    -2970 
   -2998    -3026    -3059    -3088    -3115    -3145    -3176    -3206 
   -3232    -3257    -3281    -3304    -3323    -3348    -3376    -3397 
   -3415    -3431    -3445    -3465    -3489    -3511    -3527    -3539 
   -3554    -3574    -3591    -3608    -3631    -3653    -3669    -3690 
   -3711    -3731    -3751    -3769    -3790    -3808    -3817    -3834 
   -3855    -3870    -3879    -3883    -3886    -3894    -3902    -3906 
   -3908    -3906    -3905    -3912    -3920    -3924    -3923    -3925 
   -3932    -3943    -3959    -3970    -3971    -3978    -3991    -3997 
   -3998    -4000    -4005    -4012    -4013    -4009    -4006    -4005 
   -4002    -4002    -3996    -3986    -3979    -3970    -3959    -3951 
   -3942    -3929    -3916    -3906    -3897    -3882    -3859    -3836 
   -3819    -3808    -3792    -3775    -3763    -3743    -3719    -3701 
   -3688    -3678    -3670    -3659    -3646    -3636    -3627    -3622 
   -3620    -3623    -3624    -3623    -3619    -3612    -3608    -3608 
   -3611    -3612    -3611    -3607    -3608    -3613    -3619    -3622 
   -3626    -3634    -3647    -3657    -3659    -3661    -3658    -3653 
   -3655    -3659    -3657    -3649    -3636    -3627    -3613    -3593 
   -3577    -3566    -3554    -3537    -3511    -3481    -3456    -3435 
   -3422    -3410    -3393    -3383    -3375    -3353    -3333    -3326 
   -3322    -3321    -3326    -3329    -3323    -3316    -3310    -3307 
   -3310    -3308    -3311    -3319    -3315    -3306    -3300    -3292 
   -3288    -3292    -3295    -3289    -3280    -3272    -3269    -3271 
   -3275    -3280    -3277    -3271    -3267    -3264    -3253    -3244 
   -3244    -3245    -3240    -3225    -3206    -3186    -3165    -3150 
   -3136    -3118    -3098    -3071    -3040    -3019    -3002    -2976 
   -2956    -2940    -2914    -2893    -2884    -2875    -2863    -2851 
   -2837    -2828    -2829    -2832    -2832    -2832    -2836    -2844 
   -2863    -2886    -2906    -2925    -2944    -2964    -2990    -3022 
   -3055    -3086    -3121    -3150    -3172    -3196    -3226    -3256 
   -3284    -3310    -3321    -3331    -3350    -3375    -3396    -3415 
   -3434    -3451    -3473    -3503    -3524    -3541    -3566    -3600 
   -3634    -3673    -3704    -3734    -3769    -3807    -3844    -3890 
   -3937    -3981    -4024    -4069    -4109    -4147    -4186    -4228 
   -4274    -4320    -4359    -4395    -4431    -4467    -4502    -4534 
   -4561    -4596    -4631    -4656    -4673    -4689    -4702    -4716 
   -4734    -4745    -4746    -4745    -4743    -4739    -4731    -4720 
   -4712    -4704    -4683    -4656    -4633    -4606    -4585    -4567 
   -4535    -4496    -4459    -4421    -4388    -4365    -4336    -4307 
   -4282    -4255    -4232    -4209    -4183    -4163    -4148    -4135 
   -4122    -4107    -4090    -4081    -4077    -4074    -4077    -4074 
   -4063    -4054    -4047    -4041    -4039    -4035    -4031    -4023 
   -4017    -4016    -4008    -3987    -3979    -3979    -3970    -3955 
   -3947    -3937    -3924    -3910    -3893    -3877    -3869    -3851 
   -3823    -3801    -3786    -3771    -3754    -3734    -3711    -3686 
   -3661    -3638    -3619    -3604    -3586    -3565    -3543    -3528 
   -3516    -3497    -3480    -3464    -3447    -3427    -3407    -3395 
   -3379    -3357    -3330    -3302    -3280    -3267    -3246    -3221 
   -3198    -3180    -3160    -3133    -3106    -3083    -3064    -3040 
   -3015    -2997    -2980    -2961    -2947    -2930    -2913    -2903 
   -2899    -2901    -2903    -2911    -2918    -2920    -2924    -2936 
   -2951    -2972    -3001    -3021    -3032    -3044    -3059    -3073 
   -3095    -3123    -3148    -3163    -3172    -3179    -3187    -3198 
   -3213    -3237    -3261    -3271    -3268    -3267    -3273    -3287 
   -3299    -3307    -3312    -3314    -3307    -3299    -3292    -3288 
   -3292    -3298    -3289    -3277    -3268    -3254    -3245    -3248 
   -3254    -3260    -3257    -3248    -3240    -3234    -3235    -3245 
   -3258    -3277    -3292    -3292    -3292    -3300    -3319    -3353 
   -3387    -3407    -3424    -3442    -3450    -3461    -3487    -3524 
   -3559    -3588    -3611    -3632    -3653    -3682    -3716    -3757 
   -3800    -3839    -3877    -3915    -3946    -3977    -4017    -4063 
   -4112    -4155    -4187    -4220    -4248    -4275    -4307    -4338 
   -4360    -4383    -4401    -4411    -4426    -4437    -4441    -4450 
   -4457    -4457    -4463    -4472    -4479    -4482    -4482    -4486 
   -4490    -4491    -4495    -4502    -4504    -4502    -4499    -4491 
   -4486    -4486    -4494    -4495    -4482    -4461    -4445    -4431 
   -4415    -4406    -4401    -4386    -4364    -4341    -4314    -4286 
   -4263    -4237    -4202    -4176    -4149    -4113    -4072    -4036 
   -4005    -3970    -3927    -3882    -3840    -3802    -3769    -3736 
   -3699    -3662    -3631    -3603    -3573    -3543    -3516    -3489 
   -3461    -3431    -3402    -3375    -3342    -3308    -3277    -3248 
   -3213    -3173    -3136    -3094    -3051    -3009    -2971    -2940 
   -2906    -2867    -2832    -2795    -2762    -2736    -2708    -2677 
   -2654    -2633    -2612    -2597    -2575    -2550    -2535    -2524 
   -2509    -2502    -2493    -2478    -2470    -2465    -2452    -2442 
   -2436    -2435    -2431    -2421    -2413    -2413    -2417    -2416 
   -2408    -2400    -2397    -2394    -2390    -2386    -2377    -2367 
   -2354    -2334    -2317    -2303    -2284    -2263    -2242    -2218 
   -2193    -2172    -2150    -2124    -2100    -2077    -2056    -2034 
   -2014    -1993    -1975    -1960    -1948    -1938    -1922    -1910 
   -1908    -1906    -1902    -1907    -1907    -1911    -1923    -1927 
   -1937    -1953    -1960    -1966    -1987    -2001    -2012    -2034 
   -2057    -2076    -2098    -2123    -2144    -2165    -2185    -2209 
   -2235    -2263    -2285    -2300    -2322    -2346    -2367    -2386 
   -2412    -2446    -2479    -2511    -2546    -2583    -2625    -2674 
   -2718    -2764    -2820    -2875    -2934    -2992    -3048    -3111 
   -3177    -3240    -3306    -3372    -3434    -3504    -3572    -3626 
   -3681    -3740    -3790    -3839    -3896    -3946    -3979    -4009 
   -4036    -4058    -4081    -4105    -4118    -4117    -4118    -4124 
   -4122    -4112    -4101    -4098    -4094    -4083    -4067    -4051 
   -4036    -4025    -4017    -4012    -4003    -3998    -3996    -3990 
   -3983    -3977    -3963    -3951    -3951    -3951    -3940    -3931 
   -3924    -3910    -3894    -3880    -3866    -3848    -3831    -3812 
   -3793    -3775    -3755    -3731    -3705    -3682    -3661    -3639 
   -3620    -3599    -3565    -3527    -3497    -3470    -3445    -3423 
   -3396    -3361    -3329    -3303    -3277    -3254    -3235    -3213 
   -3188    -3167    -3150    -3123    -3096    -3078    -3065    -3057 
   -3049    -3030    -3007    -2986    -2965    -2952    -2952    -2941 
   -2930    -2928    -2917    -2901    -2889    -2882    -2882    -2874 
   -2866    -2863    -2853    -2843    -2835    -2825    -2820    -2813 
   -2801    -2785    -2768    -2759    -2748    -2733    -2714    -2702 
   -2690    -2673    -2654    -2644    -2625    -2597    -2579    -2571 
   -2554    -2531    -2511    -2494    -2474    -2450    -2432    -2416 
   -2398    -2389    -2385    -2376    -2362    -2359    -2359    -2361 
   -2374    -2389    -2401    -2417    -2438    -2459    -2481    -2504 
   -2525    -2555    -2592    -2619    -2644    -2673    -2700    -2727 
   -2754    -2776    -2795    -2809    -2822    -2840    -2851    -2853 
   -2852    -2849    -2844    -2840    -2830    -2818    -2805    -2797 
   -2786    -2770    -2749    -2729    -2710    -2691    -2673    -2656 
   -2639    -2619    -2597    -2581    -2563    -2542    -2523    -2504 
   -2482    -2469    -2461    -2442    -2427    -2420    -2407    -2393 
   -2385    -2374    -2363    -2358    -2353    -2338    -2326    -2311 
   -2299    -2289    -2280    -2267    -2257    -2249    -2241    -2228 
   -2214    -2205    -2196    -2189    -2187    -2185    -2185    -2192 
   -2195    -2189    -2192    -2205    -2215    -2223    -2242    -2259 
   -2274    -2288    -2304    -2319    -2338    -2362    -2389    -2415 
   -2438    -2461    -2484    -2505    -2531    -2560    -2589    -2617 
   -2647    -2669    -2681    -2700    -2727    -2749    -2768    -2789 
   -2805    -2821    -2836    -2841    -2841    -2849    -2862    -2870 
   -2882    -2893    -2895    -2898    -2905    -2910    -2924    -2943 
   -2952    -2955    -2964    -2979    -2997    -3011    -3030    -3053 
   -3069    -3084    -3102    -3119    -3137    -3156    -3171    -3192 
   -3217    -3232    -3253    -3275    -3287    -3298    -3315    -3329 
   -3345    -3364    -3379    -3388    -3396    -3399    -3404    -3407 
   -3415    -3424    -3429    -3423    -3414    -3407    -3406    -3406 
   -3407    -3407    -3402    -3383    -3360    -3341    -3331    -3331 
   -3334    -3321    -3295    -3268    -3246    -3231    -3229    -3229 
   -3213    -3187    -3164    -3149    -3138    -3132    -3121    -3107 
   -3088    -3067    -3052    -3042    -3026    -3006    -2986    -2963 
   -2937    -2918    -2905    -2887    -2863    -2839    -2816    -2792 
   -2771    -2747    -2721    -2702    -2679    -2652    -2627    -2601 
   -2574    -2550    -2523    -2498    -2477    -2458    -2440    -2423 
   -2408    -2396    -2377    -2354    -2334    -2316    -2304    -2295 
   -2280    -2261    -2239    -2214    -2187    -2162    -2144    -2126 
   -2101    -2079    -2049    -2010    -1977    -1956    -1934    -1908 
   -1877    -1842    -1803    -1764    -1732    -1701    -1668    -1640 
   -1602    -1567    -1548    -1528    -1499    -1472    -1449    -1425 
   -1412    -1402    -1387    -1378    -1374    -1367    -1363    -1366 
   -1368    -1372    -1377    -1387    -1408    -1424    -1437    -1453 
   -1471    -1490    -1513    -1539    -1570    -1605    -1632    -1660 
   -1690    -1718    -1752    -1788    -1822    -1852    -1885    -1918 
   -1953    -1993    -2025    -2053    -2087    -2120    -2157    -2193 
   -2223    -2254    -2292    -2324    -2354    -2385    -2416    -2452 
   -2492    -2521    -2550    -2579    -2605    -2636    -2673    -2708 
   -2745    -2786    -2825    -2866    -2905    -2938    -2979    -3029 
   -3086    -3145    -3196    -3242    -3289    -3335    -3385    -3443 
   -3503    -3555    -3607    -3661    -3708    -3757    -3811    -3866 
   -3913    -3954    -4001    -4045    -4086    -4131    -4172    -4209 
   -4245    -4282    -4317    -4351    -4382    -4403    -4429    -4459 
   -4482    -4507    -4531    -4542    -4553    -4573    -4590    -4599 
   -4606    -4612    -4621    -4627    -4634    -4641    -4642    -4642 
   -4638    -4633    -4631    -4631    -4627    -4622    -4617    -4606 
   -4599    -4587    -4568    -4557    -4548    -4534    -4523    -4509 
   -4487    -4467    -4446    -4423    -4399    -4375    -4349    -4324 
   -4297    -4268    -4237    -4200    -4164    -4131    -4094    -4060 
   -4029    -3993    -3954    -3921    -3885    -3846    -3809    -3773 
   -3738    -3703    -3658    -3615    -3582    -3547    -3511    -3481 
   -3445    -3407    -3377    -3339    -3306    -3281    -3254    -3227 
   -3206    -3179    -3148    -3121    -3102    -3082    -3061    -3042 
   -3025    -3005    -2984    -2972    -2951    -2924    -2910    -2893 
   -2871    -2856    -2837    -2810    -2783    -2756    -2735    -2714 
   -2687    -2660    -2636    -2605    -2574    -2548    -2520    -2494 
   -2474    -2451    -2424    -2393    -2366    -2350    -2336    -2316 
   -2303    -2293    -2276    -2261    -2253    -2243    -2238    -2231 
   -2228    -2227    -2227    -2231    -2231    -2230    -2234    -2239 
   -2245    -2251    -2261    -2272    -2285    -2301    -2315    -2327 
   -2342    -2357    -2376    -2398    -2419    -2436    -2461    -2484 
   -2504    -2532    -2562    -2582    -2602    -2628    -2652    -2675 
   -2705    -2737    -2756    -2775    -2803    -2824    -2836    -2857 
   -2882    -2903    -2925    -2945    -2971    -2994    -3013    -3038 
   -3061    -3083    -3109    -3130    -3149    -3176    -3202    -3223 
   -3242    -3257    -3275    -3298    -3322    -3349    -3373    -3396 
   -3422    -3447    -3473    -3503    -3537    -3570    -3601    -3632 
   -3666    -3705    -3747    -3792    -3835    -3875    -3916    -3955 
   -4000    -4048    -4098    -4151    -4199    -4238    -4278    -4324 
   -4374    -4421    -4461    -4498    -4537    -4579    -4615    -4648 
   -4680    -4710    -4742    -4773    -4804    -4833    -4861    -4885 
   -4909    -4939    -4970    -4996    -5024    -5050    -5074    -5103 
   -5130    -5154    -5179    -5206    -5233    -5258    -5281    -5301 
   -5317    -5333    -5348    -5364    -5381    -5395    -5404    -5410 
   -5416    -5417    -5418    -5420    -5418    -5413    -5400    -5385 
   -5374    -5362    -5339    -5312    -5282    -5250    -5216    -5181 
   -5140    -5098    -5057    -5013    -4973    -4930    -4880    -4837 
   -4793    -4742    -4698    -4656    -4603    -4553    -4515    -4475 
   -4428    -4380    -4330    -4286    -4243    -4197    -4155    -4110 
   -4067    -4025    -3981    -3936    -3892    -3842    -3796    -3757 
   -3719    -3677    -3638    -3596    -3551    -3514    -3477    -3438 
   -3403    -3372    -3339    -3311    -3281    -3249    -3223    -3207 
   -3192    -3175    -3156    -3138    -3127    -3121    -3121    -3122 
   -3121    -3119    -3122    -3122    -3127    -3142    -3153    -3167 
   -3188    -3199    -3207    -3229    -3246    -3258    -3281    -3302 
   -3308    -3317    -3342    -3361    -3372    -3387    -3402    -3410 
   -3418    -3429    -3437    -3445    -3456    -3465    -3468    -3465 
   -3465    -3469    -3476    -3478    -3480    -3484    -3485    -3487 
   -3489    -3488    -3488    -3491    -3491    -3491    -3485    -3481 
   -3487    -3487    -3478    -3473    -3470    -3465    -3464    -3462 
   -3461    -3459    -3457    -3453    -3450    -3445    -3445    -3454 
   -3464    -3464    -3461    -3466    -3474    -3484    -3492    -3497 
   -3503    -3511    -3524    -3532    -3537    -3541    -3546    -3541 
   -3535    -3538    -3535    -3526    -3518    -3514    -3511    -3505 
   -3489    -3470    -3461    -3457    -3451    -3446    -3439    -3427 
   -3415    -3406    -3396    -3388    -3381    -3369    -3360    -3343 
   -3322    -3303    -3295    -3284    -3267    -3244    -3219    -3192 
   -3168    -3152    -3136    -3111    -3082    -3055    -3034    -3015 
   -2998    -2982    -2961    -2937    -2920    -2906    -2891    -2880 
   -2872    -2863    -2848    -2835    -2832    -2835    -2835    -2844 
   -2847    -2837    -2839    -2849    -2856    -2870    -2882    -2889 
   -2903    -2920    -2926    -2937    -2959    -2978    -2992    -3009 
   -3030    -3051    -3068    -3088    -3113    -3137    -3163    -3190 
   -3208    -3227    -3253    -3284    -3316    -3342    -3362    -3381 
   -3402    -3424    -3449    -3473    -3500    -3524    -3542    -3558 
   -3574    -3595    -3619    -3640    -3655    -3673    -3697    -3712 
   -3731    -3761    -3781    -3794    -3811    -3824    -3838    -3855 
   -3873    -3888    -3904    -3919    -3931    -3942    -3951    -3958 
   -3962    -3965    -3970    -3974    -3979    -3982    -3982    -3979 
   -3971    -3964    -3960    -3958    -3954    -3943    -3929    -3912 
   -3893    -3879    -3865    -3848    -3839    -3825    -3798    -3771 
   -3751    -3730    -3708    -3686    -3665    -3645    -3618    -3588 
   -3561    -3532    -3500    -3473    -3446    -3420    -3400    -3377 
   -3346    -3315    -3283    -3252    -3223    -3192    -3164    -3141 
   -3118    -3092    -3059    -3024    -2988    -2951    -2920    -2901 
   -2876    -2847    -2818    -2787    -2758    -2735    -2710    -2690 
   -2675    -2652    -2631    -2617    -2597    -2577    -2563    -2554 
   -2540    -2527    -2512    -2502    -2500    -2497    -2484    -2467 
   -2450    -2432    -2425    -2428    -2425    -2415    -2409    -2407 
   -2400    -2400    -2404    -2401    -2400    -2404    -2409    -2423 
   -2434    -2442    -2452    -2459    -2461    -2467    -2475    -2484 
   -2500    -2512    -2515    -2517    -2523    -2528    -2532    -2536 
   -2539    -2546    -2554    -2556    -2562    -2563    -2560    -2565 
   -2574    -2581    -2584    -2589    -2590    -2587    -2590    -2594 
   -2601    -2616    -2628    -2632    -2633    -2636    -2641    -2648 
   -2662    -2675    -2679    -2682    -2686    -2693    -2706    -2724 
   -2733    -2735    -2732    -2733    -2739    -2744    -2745    -2745 
   -2740    -2731    -2721    -2712    -2701    -2691    -2681    -2666 
   -2648    -2625    -2608    -2598    -2586    -2570    -2558    -2542 
   -2521    -2508    -2498    -2482    -2466    -2452    -2439    -2427 
   -2415    -2400    -2382    -2371    -2367    -2367    -2363    -2358 
   -2357    -2353    -2349    -2353    -2359    -2366    -2378    -2393 
   -2411    -2427    -2440    -2458    -2477    -2493    -2516    -2544 
   -2569    -2592    -2616    -2646    -2674    -2694    -2714    -2740 
   -2771    -2797    -2818    -2837    -2862    -2889    -2910    -2932 
   -2955    -2975    -2995    -3017    -3033    -3044    -3059    -3079 
   -3090    -3099    -3115    -3125    -3130    -3136    -3138    -3140 
   -3146    -3148    -3146    -3148    -3149    -3145    -3141    -3137 
   -3133    -3127    -3118    -3111    -3107    -3099    -3090    -3086 
   -3082    -3078    -3080    -3078    -3075    -3078    -3075    -3069 
   -3071    -3068    -3063    -3060    -3059    -3057    -3059    -3061 
   -3060    -3052    -3042    -3040    -3044    -3051    -3057    -3061 
   -3061    -3060    -3061    -3067    -3071    -3073    -3076    -3083 
   -3090    -3096    -3106    -3111    -3114    -3126    -3137    -3144 
   -3159    -3173    -3180    -3190    -3204    -3217    -3226    -3235 
   -3246    -3257    -3262    -3273    -3295    -3311    -3315    -3326 
   -3342    -3355    -3369    -3380    -3387    -3396    -3407    -3414 
   -3429    -3440    -3446    -3450    -3447    -3439    -3442    -3447 
   -3440    -3434    -3433    -3426    -3415    -3406    -3388    -3366 
   -3354    -3352    -3345    -3329    -3310    -3291    -3273    -3268 
   -3271    -3268    -3254    -3240    -3232    -3231    -3230    -3235 
   -3244    -3244    -3245    -3248    -3252    -3262    -3280    -3287 
   -3284    -3294    -3304    -3314    -3326    -3334    -3336    -3336 
   -3341    -3350    -3358    -3361    -3361    -3364    -3364    -3364 
   -3372    -3379    -3379    -3379    -3380    -3376    -3380    -3388 
