Origin Time       2016/04/16 01:25:00
Lat.              32.753
Long.             130.762
Depth. (km)       12
Mag.              7.3
Station Code      MIE004
Station Lat.      34.8569
Station Long.     136.4493
Station Height(m) 79
Record Time       2016/04/16 01:27:58
Sampling Freq(Hz) 100Hz
Duration Time(s)  63
Dir.              E-W
Scale Factor      7845(gal)/8223790
Max. Acc. (gal)   1.945
Last Correction   2016/04/16 01:27:59
Memo.             
[...]
    3640     3634     3630     3618     3600     3585     3568     3551 
    3538     3527     3518     3510     3496     3484     3474     3466 
    3465     3464     3459     3457     3450     3443     3439     3434 
    3435     3435     3423     3415     3407     3395     3387     3380 
    3365     3353     3350     3348     3348     3355     3366     3372 
    3381     3391     3402     3416     3430     3439     3458     3487 
    3511     3542     3578     3605     3630     3661     3690     3712 
    3734     3753     3763     3771     3781     3782     3776     3769 
    3761     3757     3762     3766     3775     3789     3794     3797 
    3809     3828     3844     3854     3863     3866     3867     3870 
    3874     3882     3892     3894     3896     3894     3889     3882 
    3875     3865     3855     3842     3824     3804     3784     3765 
    3754     3753     3754     3748     3740     3742     3746     3744 
    3751     3761     3761     3757     3748     3738     3732     3728 
    3726     3723     3719     3715     3703     3685     3669     3649 
    3628     3613     3597     3585     3572     3554     3543     3532 
    3522     3518     3514     3510     3510     3514     3520     3530 
    3541     3544     3546     3549     3553     3553     3547     3551 
    3555     3551     3547     3543     3534     3524     3516     3503 
    3489     3477     3469     3458     3445     3433     3422     3415 
    3416     3416     3416     3415     3415     3422     3429     3431 
    3435     3445     3456     3468     3481     3491     3503     3516 
    3532     3551     3574     3595     3608     3619     3636     3662 
    3688     3712     3736     3757     3780     3804     3827     3847 
    3867     3883     3897     3912     3928     3943     3954     3960 
    3969     3975     3982     3982     3979     3981     3982     3982 
    3981     3973     3958     3950     3942     3929     3916     3905 
    3892     3879     3870     3861     3854     3847     3835     3820 
    3805     3789     3771     3750     3728     3708     3688     3667 
    3650     3638     3630     3624     3615     3605     3597     3591 
    3581     3570     3559     3549     3538     3524     3511     3504 
    3501     3499     3503     3504     3499     3497     3501     3492 
    3484     3485     3485     3487     3491     3489     3489     3497 
    3508     3522     3530     3530     3530     3534     3532     3528 
    3527     3524     3523     3522     3524     3532     3538     3535 
    3537     3549     3562     3574     3595     3619     3638     3663 
    3690     3715     3744     3776     3805     3832     3861     3888 
    3913     3944     3983     4021     4052     4085     4122     4162 
    4195     4228     4256     4283     4307     4329     4349     4367 
    4376     4383     4390     4399     4405     4406     4405     4398 
    4384     4371     4363     4351     4327     4303     4288     4266 
    4233     4205     4182     4151     4117     4091     4063     4029 
    3997     3965     3937     3909     3877     3850     3834     3813 
    3789     3767     3740     3711     3686     3669     3649     3619 
    3589     3561     3530     3507     3484     3457     3430     3402 
    3373     3353     3333     3310     3287     3261     3235     3210 
    3184     3164     3152     3144     3140     3137     3130     3123 
    3126     3137     3150     3163     3173     3180     3188     3199 
    3217     3234     3253     3272     3288     3306     3326     3341 
    3354     3375     3391     3400     3414     3427     3439     3459 
    3477     3484     3495     3518     3541     3566     3601     3631 
    3657     3684     3712     3742     3773     3802     3835     3863 
    3880     3894     3904     3909     3915     3921     3932     3939 
    3935     3931     3924     3910     3897     3886     3867     3842 
    3811     3780     3750     3716     3681     3653     3627     3595 
    3562     3530     3492     3454     3418     3383     3346     3314 
    3281     3249     3223     3194     3160     3133     3115     3090 
    3064     3041     3018     2992     2964     2934     2903     2867 
    2836     2816     2797     2771     2747     2728     2702     2671 
    2654     2640     2610     2581     2556     2533     2512     2493 
    2477     2459     2442     2442     2439     2427     2423     2427 
    2428     2431     2442     2455     2471     2490     2519     2556 
    2598     2639     2679     2727     2785     2840     2887     2933 
    2980     3028     3088     3160     3227     3284     3339     3396 
    3462     3535     3604     3663     3723     3788     3844     3901 
    3965     4028     4077     4126     4174     4203     4230     4270 
    4306     4338     4371     4396     4419     4445     4471     4500 
    4533     4561     4588     4621     4648     4669     4691     4712 
    4735     4764     4789     4814     4835     4849     4864     4888 
    4920     4945     4963     4976     4980     4988     4999     5001 
    5000     4996     4981     4963     4954     4947     4935     4923 
    4914     4893     4870     4851     4833     4816     4801     4777 
    4743     4707     4673     4634     4592     4556     4518     4477 
    4442     4402     4353     4306     4266     4222     4174     4128 
    4079     4032     3993     3950     3905     3867     3828     3792 
    3765     3734     3693     3658     3630     3613     3607     3595 
    3572     3544     3511     3491     3491     3489     3483     3473 
    3457     3437     3422     3416     3414     3407     3400     3395 
    3380     3368     3361     3352     3341     3330     3317     3306 
    3284     3257     3238     3223     3206     3192     3180     3176 
    3172     3163     3149     3138     3130     3126     3127     3127 
    3115     3095     3079     3065     3055     3044     3028     3015 
    3009     3003     3003     3009     3018     3025     3029     3033 
    3045     3068     3090     3109     3125     3144     3165     3183 
    3196     3219     3245     3276     3304     3317     3326     3336 
    3345     3349     3349     3346     3349     3353     3349     3341 
    3336     3336     3336     3342     3350     3358     3368     3376 
    3383     3388     3397     3400     3397     3396     3396     3392 
    3385     3379     3369     3364     3357     3343     3331     3327 
    3322     3314     3307     3299     3295     3291     3281     3269 
    3262     3257     3248     3238     3234     3230     3221     3208 
    3191     3171     3159     3146     3125     3105     3087     3063 
    3040     3014     2986     2965     2951     2932     2913     2896 
    2884     2876     2868     2862     2863     2870     2867     2860 
    2857     2863     2867     2866     2857     2849     2844     2836 
    2829     2828     2825     2820     2814     2808     2810     2821 
    2829     2840     2852     2862     2882     2907     2932     2959 
    2990     3022     3053     3083     3119     3161     3200     3234 
    3267     3302     3343     3385     3418     3446     3474     3503 
    3528     3553     3574     3593     3615     3645     3680     3712 
    3746     3780     3813     3850     3889     3927     3969     4001 
    4025     4054     4083     4109     4136     4162     4185     4213 
    4243     4266     4298     4330     4360     4392     4422     4441 
    4459     4473     4487     4499     4509     4513     4510     4502 
    4490     4480     4469     4459     4444     4426     4409     4384 
    4359     4332     4307     4289     4275     4252     4228     4205 
    4183     4167     4156     4147     4132     4120     4121     4121 
    4112     4102     4086     4066     4050     4031     4009     3993 
    3974     3950     3920     3882     3850     3821     3789     3757 
    3731     3709     3682     3653     3628     3604     3582     3569 
    3561     3550     3539     3528     3522     3519     3520     3520 
    3528     3550     3570     3582     3593     3601     3612     3634 
    3662     3692     3719     3744     3770     3800     3824     3846 
    3878     3912     3940     3967     3991     4006     4021     4036 
    4058     4081     4106     4128     4145     4153     4158     4167 
    4185     4199     4212     4225     4241     4260     4280     4299 
    4314     4329     4345     4363     4383     4406     4418     4426 
    4446     4473     4496     4519     4537     4553     4571     4583 
    4588     4584     4568     4554     4542     4529     4506     4482 
    4457     4436     4417     4399     4380     4359     4336     4313 
    4284     4256     4230     4200     4164     4129     4094     4058 
    4028     4003     3971     3943     3923     3904     3886     3863 
    3834     3812     3796     3776     3757     3743     3727     3716 
    3712     3717     3731     3743     3751     3757     3765     3778 
    3792     3807     3825     3838     3846     3859     3874     3882 
    3890     3905     3920     3928     3932     3943     3955     3969 
    3984     4008     4035     4055     4077     4106     4140     4176 
    4214     4252     4294     4336     4371     4401     4436     4471 
    4499     4527     4560     4591     4621     4639     4652     4666 
    4677     4684     4700     4718     4720     4718     4720     4725 
    4718     4712     4718     4725     4730     4737     4738     4739 
    4741     4742     4743     4743     4739     4737     4735     4733 
    4734     4741     4741     4733     4727     4725     4722     4719 
    4722     4729     4731     4727     4718     4710     4708     4716 
    4729     4745     4761     4774     4791     4807     4822     4838 
    4854     4872     4892     4908     4916     4931     4949     4961 
    4970     4977     4974     4970     4969     4962     4946     4934 
    4922     4897     4876     4861     4835     4806     4777     4747 
    4715     4679     4634     4587     4541     4498     4455     4411 
    4365     4311     4252     4194     4144     4093     4032     3967 
    3905     3846     3792     3735     3678     3622     3559     3500 
    3449     3395     3346     3298     3238     3177     3125     3069 
    3011     2955     2891     2829     2772     2718     2669     2624 
    2578     2539     2504     2469     2436     2412     2388     2361 
    2342     2331     2319     2311     2307     2301     2300     2303 
    2308     2319     2326     2331     2344     2363     2377     2386 
    2392     2393     2397     2408     2415     2411     2408     2405 
    2398     2389     2382     2370     2355     2344     2335     2327 
    2326     2328     2324     2317     2319     2327     2332     2340 
    2355     2367     2376     2389     2407     2420     2435     2459 
    2482     2501     2524     2546     2570     2597     2632     2671 
    2713     2754     2792     2830     2870     2911     2947     2983 
    3030     3083     3127     3172     3218     3265     3322     3381 
    3437     3492     3541     3578     3623     3676     3727     3776 
    3820     3852     3882     3916     3947     3982     4025     4059 
    4086     4114     4135     4156     4192     4228     4255     4287 
    4320     4355     4393     4425     4448     4479     4513     4542 
    4568     4594     4615     4630     4638     4646     4650     4650 
    4645     4642     4642     4638     4622     4608     4595     4576 
    4560     4550     4537     4518     4502     4490     4473     4453 
    4440     4430     4419     4405     4391     4375     4359     4345 
    4329     4311     4295     4283     4274     4260     4245     4228 
    4210     4190     4166     4131     4095     4063     4025     3993 
    3964     3928     3885     3847     3812     3780     3753     3723 
    3689     3662     3647     3632     3613     3589     3565     3546 
    3526     3504     3487     3468     3443     3427     3422     3419 
    3410     3396     3392     3399     3403     3407     3415     3422 
    3437     3458     3468     3472     3488     3507     3520     3541 
    3558     3570     3588     3609     3634     3663     3694     3719 
    3748     3775     3807     3842     3874     3902     3937     3971 
    3997     4021     4055     4093     4131     4168     4200     4233 
    4263     4287     4317     4353     4383     4410     4436     4455 
    4467     4480     4487     4491     4502     4514     4519     4529 
    4537     4537     4535     4537     4535     4531     4526     4519 
    4504     4491     4480     4460     4441     4422     4395     4365 
    4338     4305     4263     4222     4178     4129     4077     4028 
    3978     3928     3875     3817     3754     3694     3639     3582 
    3528     3478     3427     3379     3327     3279     3240     3202 
    3164     3119     3068     3022     2984     2945     2905     2871 
    2839     2798     2754     2706     2662     2624     2589     2550 
    2508     2471     2432     2398     2365     2324     2282     2247 
    2211     2182     2161     2134     2102     2072     2039     2010 
    1988     1965     1942     1923     1904     1880     1858     1844 
    1830     1817     1802     1786     1768     1755     1748     1741 
    1733     1728     1722     1714     1705     1696     1690     1683 
    1682     1677     1671     1663     1656     1649     1647     1640 
    1636     1641     1642     1634     1632     1636     1634     1637 
    1645     1649     1658     1668     1679     1695     1713     1737 
    1769     1803     1838     1880     1927     1979     2033     2091 
    2150     2205     2259     2317     2386     2459     2531     2597 
    2663     2735     2806     2876     2951     3034     3118     3198 
    3280     3362     3442     3520     3592     3659     3727     3796 
    3866     3932     3997     4063     4128     4185     4243     4306 
    4369     4436     4507     4576     4641     4702     4761     4824 
    4892     4956     5011     5057     5101     5142     5179     5217 
    5256     5296     5333     5366     5400     5429     5454     5481 
    5509     5521     5524     5539     5552     5559     5563     5567 
    5563     5556     5549     5545     5543     5535     5516     5501 
    5490     5472     5448     5417     5381     5341     5298     5252 
    5204     5150     5090     5027     4966     4908     4846     4780 
    4712     4639     4567     4502     4436     4365     4298     4228 
    4159     4095     4040     3984     3921     3858     3798     3743 
    3692     3638     3584     3538     3497     3456     3414     3372 
    3329     3292     3262     3226     3190     3154     3114     3080 
    3059     3036     3010     2986     2970     2955     2948     2947 
    2947     2945     2945     2952     2961     2963     2970     2986 
    2999     3013     3038     3056     3068     3090     3118     3142 
    3167     3192     3221     3250     3277     3295     3315     3345 
    3373     3397     3423     3454     3489     3522     3551     3585 
    3622     3658     3692     3719     3746     3774     3800     3819 
    3842     3866     3882     3896     3909     3929     3955     3977 
    3997     4021     4041     4058     4077     4090     4104     4121 
    4129     4128     4133     4137     4135     4136     4131     4112 
    4097     4086     4071     4052     4031     4013     3997     3974 
    3944     3913     3883     3854     3832     3816     3793     3759 
    3723     3685     3653     3631     3608     3577     3551     3520 
    3484     3456     3430     3407     3392     3377     3357     3327 
    3303     3281     3256     3234     3222     3210     3200     3187 
    3169     3154     3142     3136     3136     3136     3138     3136 
    3125     3119     3121     3119     3122     3136     3150     3164 
    3175     3179     3180     3192     3208     3230     3252     3268 
    3279     3283     3291     3303     3316     3327     3339     3353 
    3364     3376     3384     3381     3384     3395     3403     3407 
    3418     3426     3424     3423     3427     3430     3434     3439 
    3440     3445     3451     3454     3453     3446     3437     3429 
    3422     3414     3403     3391     3377     3362     3345     3327 
    3317     3315     3306     3292     3281     3272     3269     3272 
    3269     3265     3262     3264     3262     3257     3254     3249 
    3241     3237     3230     3221     3211     3202     3194     3187 
    3177     3169     3159     3140     3115     3090     3065     3045 
    3026     3001     2978     2963     2943     2922     2903     2882 
    2863     2844     2828     2816     2806     2802     2802     2805 
    2816     2824     2830     2844     2862     2882     2907     2932 
    2953     2986     3021     3053     3090     3133     3169     3203 
    3240     3272     3299     3335     3380     3415     3440     3466 
    3495     3526     3558     3584     3607     3634     3653     3667 
    3686     3705     3719     3731     3744     3759     3771     3784 
    3801     3816     3828     3842     3852     3863     3875     3885 
    3888     3893     3902     3910     3921     3932     3950     3967 
    3981     4000     4021     4036     4055     4074     4086     4095 
    4109     4121     4133     4156     4174     4178     4183     4187 
    4185     4186     4194     4200     4202     4197     4182     4170 
    4162     4152     4145     4135     4114     4091     4074     4059 
    4040     4017     3994     3962     3929     3904     3874     3838 
    3801     3767     3732     3699     3672     3642     3601     3566 
    3535     3501     3474     3454     3429     3403     3383     3361 
    3339     3323     3308     3296     3288     3283     3279     3277 
    3272     3267     3265     3267     3275     3284     3291     3296 
    3306     3316     3326     3336     3348     3360     3381     3407 
    3431     3454     3477     3497     3520     3542     3565     3595 
    3623     3653     3684     3715     3743     3769     3800     3834 
    3861     3893     3932     3962     3984     4010     4036     4064 
    4091     4114     4140     4170     4200     4225     4243     4255 
    4268     4287     4303     4318     4340     4356     4363     4372 
    4378     4380     4391     4407     4419     4429     4437     4444 
    4453     4468     4480     4487     4496     4504     4509     4518 
    4527     4537     4553     4572     4583     4600     4622     4635 
    4646     4661     4675     4689     4704     4714     4726     4738 
    4746     4760     4772     4787     4806     4820     4833     4847 
    4862     4874     4885     4892     4900     4908     4911     4908 
    4904     4904     4900     4892     4881     4868     4850     4835 
    4827     4818     4803     4783     4761     4741     4722     4703 
    4681     4661     4635     4602     4568     4538     4494     4442 
    4398     4352     4302     4255     4203     4144     4086     4033 
    3979     3924     3867     3813     3761     3707     3650     3592 
    3535     3481     3423     3369     3323     3276     3227     3177 
    3133     3092     3051     3011     2976     2936     2899     2867 
