Origin Time       2016/04/16 01:25:00
Lat.              32.753
Long.             130.762
Depth. (km)       12
Mag.              7.3
Station Code      MIE005
Station Lat.      34.7677
Station Long.     136.1151
Station Height(m) 134
Record Time       2016/04/16 01:27:50
Sampling Freq(Hz) 100Hz
Duration Time(s)  60
Dir.              N-S
Scale Factor      7845(gal)/8223790
Max. Acc. (gal)   1.430
Last Correction   2016/04/16 01:27:51
Memo.             
[...]
   -2130    -2146    -2163    -2182    -2200    -2209    -2219    -2234 
   -2246    -2250    -2247    -2245    -2243    -2238    -2224    -2207 
   -2193    -2187    -2181    -2172    -2169    -2172    -2170    -2170 
   -2173    -2172    -2174    -2178    -2178    -2182    -2189    -2195 
   -2200    -2205    -2203    -2201    -2201    -2196    -2193    -2192 
   -2182    -2169    -2165    -2160    -2151    -2138    -2126    -2118 
   -2107    -2095    -2076    -2062    -2057    -2050    -2041    -2034 
   -2033    -2034    -2037    -2034    -2037    -2045    -2050    -2056 
   -2061    -2068    -2077    -2085    -2092    -2101    -2116    -2126 
   -2130    -2137    -2143    -2153    -2168    -2181    -2195    -2214 
   -2235    -2251    -2269    -2293    -2315    -2332    -2344    -2355 
   -2366    -2373    -2381    -2389    -2394    -2407    -2420    -2425 
   -2424    -2424    -2424    -2421    -2411    -2396    -2386    -2381 
   -2381    -2384    -2386    -2386    -2380    -2376    -2374    -2367 
   -2357    -2346    -2335    -2322    -2301    -2282    -2266    -2254 
   -2243    -2236    -2231    -2228    -2223    -2220    -2218    -2215 
   -2215    -2218    -2222    -2227    -2227    -2226    -2227    -2228 
   -2223    -2215    -2214    -2214    -2212    -2211    -2208    -2203 
   -2200    -2204    -2207    -2208    -2214    -2219    -2224    -2234 
   -2239    -2243    -2246    -2246    -2246    -2246    -2251    -2261 
   -2267    -2274    -2280    -2284    -2286    -2288    -2292    -2304 
   -2316    -2324    -2334    -2344    -2351    -2361    -2373    -2386 
   -2405    -2419    -2424    -2436    -2450    -2461    -2465    -2461 
   -2461    -2467    -2471    -2471    -2471    -2473    -2473    -2469 
   -2458    -2442    -2430    -2412    -2392    -2369    -2347    -2326 
   -2303    -2273    -2243    -2218    -2191    -2166    -2147    -2126 
   -2100    -2072    -2046    -2025    -2000    -1979    -1968    -1958 
   -1949    -1944    -1934    -1923    -1925    -1930    -1930    -1929 
   -1930    -1933    -1933    -1937    -1946    -1953    -1958    -1971 
   -1982    -1995    -2011    -2026    -2039    -2053    -2070    -2085 
   -2100    -2116    -2130    -2138    -2153    -2176    -2196    -2211 
   -2220    -2224    -2230    -2243    -2263    -2277    -2289    -2304 
   -2313    -2317    -2324    -2332    -2338    -2343    -2351    -2355 
   -2354    -2351    -2343    -2331    -2313    -2295    -2276    -2257 
   -2238    -2222    -2211    -2203    -2193    -2184    -2185    -2196 
   -2200    -2201    -2211    -2219    -2226    -2235    -2241    -2245 
   -2255    -2269    -2282    -2293    -2297    -2303    -2311    -2319 
   -2319    -2319    -2323    -2331    -2338    -2344    -2349    -2355 
   -2363    -2366    -2365    -2363    -2363    -2358    -2349    -2340 
   -2328    -2311    -2299    -2286    -2265    -2243    -2224    -2205 
   -2196    -2191    -2184    -2181    -2180    -2177    -2182    -2189 
   -2192    -2199    -2209    -2218    -2222    -2220    -2226    -2234 
   -2236    -2241    -2246    -2249    -2255    -2255    -2246    -2241 
   -2242    -2242    -2234    -2231    -2234    -2224    -2209    -2196 
   -2180    -2157    -2126    -2091    -2053    -2012    -1972    -1934 
   -1896    -1856    -1815    -1777    -1742    -1714    -1691    -1667 
   -1644    -1625    -1606    -1591    -1576    -1563    -1551    -1544 
   -1537    -1535    -1539    -1541    -1543    -1541    -1539    -1540 
   -1543    -1551    -1563    -1571    -1580    -1598    -1617    -1636 
   -1655    -1671    -1687    -1707    -1722    -1733    -1744    -1755 
   -1767    -1773    -1784    -1800    -1818    -1830    -1840    -1846 
   -1849    -1856    -1857    -1857    -1864    -1868    -1863    -1858 
   -1856    -1852    -1845    -1833    -1819    -1804    -1794    -1779 
   -1761    -1746    -1734    -1718    -1703    -1696    -1696    -1702 
   -1709    -1718    -1732    -1748    -1772    -1795    -1815    -1833 
   -1861    -1898    -1933    -1966    -2010    -2052    -2087    -2123 
   -2166    -2209    -2251    -2295    -2336    -2378    -2423    -2463 
   -2500    -2540    -2582    -2623    -2662    -2698    -2737    -2776 
   -2810    -2839    -2868    -2898    -2921    -2940    -2956    -2972 
   -2984    -2995    -3006    -3014    -3022    -3033    -3040    -3046 
   -3056    -3060    -3056    -3046    -3036    -3019    -2999    -2978 
   -2949    -2915    -2880    -2848    -2813    -2775    -2739    -2700 
   -2660    -2624    -2584    -2543    -2501    -2461    -2423    -2388 
   -2353    -2311    -2266    -2224    -2182    -2133    -2079    -2027 
   -1975    -1925    -1869    -1809    -1749    -1695    -1642    -1593 
   -1545    -1499    -1453    -1410    -1367    -1328    -1297    -1270 
   -1240    -1210    -1192    -1175    -1161    -1154    -1150    -1147 
   -1154    -1162    -1170    -1192    -1216    -1239    -1270    -1310 
   -1352    -1397    -1441    -1491    -1548    -1610    -1667    -1721 
   -1773    -1825    -1875    -1915    -1949    -1989    -2034    -2076 
   -2107    -2135    -2163    -2192    -2219    -2242    -2261    -2274 
   -2285    -2289    -2295    -2301    -2307    -2311    -2313    -2315 
   -2315    -2316    -2317    -2312    -2303    -2289    -2273    -2255 
   -2234    -2205    -2178    -2150    -2116    -2087    -2061    -2033 
   -2004    -1975    -1946    -1917    -1883    -1850    -1821    -1786 
   -1755    -1726    -1696    -1671    -1648    -1625    -1603    -1580 
   -1557    -1537    -1517    -1506    -1505    -1503    -1506    -1516 
   -1528    -1545    -1563    -1575    -1584    -1595    -1606    -1620 
   -1624    -1626    -1632    -1645    -1660    -1676    -1699    -1733 
   -1771    -1806    -1844    -1892    -1945    -1995    -2046    -2098 
   -2157    -2219    -2281    -2340    -2397    -2459    -2515    -2559 
   -2605    -2656    -2701    -2740    -2776    -2806    -2832    -2860 
   -2891    -2915    -2941    -2965    -2983    -2997    -3010    -3015 
   -3007    -2992    -2972    -2949    -2917    -2878    -2836    -2794 
   -2749    -2709    -2664    -2617    -2573    -2523    -2467    -2419 
   -2367    -2317    -2276    -2228    -2173    -2120    -2079    -2041 
   -1999    -1958    -1921    -1880    -1844    -1810    -1773    -1734 
   -1701    -1675    -1649    -1622    -1603    -1588    -1571    -1552 
   -1535    -1521    -1509    -1506    -1499    -1490    -1479    -1464 
   -1453    -1451    -1445    -1440    -1441    -1447    -1451    -1452 
   -1455    -1463    -1475    -1487    -1498    -1507    -1513    -1521 
   -1532    -1537    -1541    -1549    -1564    -1575    -1576    -1579 
   -1587    -1601    -1615    -1628    -1644    -1663    -1683    -1706 
   -1733    -1765    -1800    -1837    -1881    -1926    -1968    -2012 
   -2052    -2087    -2124    -2157    -2182    -2208    -2238    -2267 
   -2290    -2304    -2322    -2340    -2357    -2373    -2388    -2398 
   -2408    -2413    -2417    -2423    -2431    -2439    -2444    -2451 
   -2461    -2469    -2471    -2474    -2470    -2463    -2461    -2458 
   -2452    -2444    -2439    -2431    -2421    -2415    -2415    -2416 
   -2415    -2409    -2404    -2401    -2397    -2393    -2389    -2382 
   -2377    -2370    -2365    -2362    -2357    -2353    -2359    -2365 
   -2374    -2393    -2404    -2405    -2409    -2420    -2431    -2442 
   -2454    -2470    -2488    -2505    -2519    -2527    -2533    -2546 
   -2565    -2582    -2594    -2609    -2625    -2639    -2655    -2674 
   -2702    -2732    -2758    -2781    -2805    -2826    -2849    -2870 
   -2887    -2910    -2930    -2947    -2963    -2978    -2995    -3009 
   -3013    -3010    -3010    -3003    -2984    -2960    -2934    -2914 
   -2890    -2860    -2828    -2791    -2748    -2702    -2655    -2609 
   -2559    -2504    -2447    -2389    -2328    -2263    -2195    -2120 
   -2046    -1981    -1922    -1857    -1795    -1733    -1665    -1599 
   -1537    -1482    -1431    -1382    -1333    -1287    -1244    -1202 
   -1166    -1133    -1104    -1075    -1047    -1023    -1004     -990 
    -984     -980     -981     -986     -994    -1013    -1039    -1074 
   -1111    -1148    -1192    -1235    -1282    -1334    -1386    -1440 
   -1498    -1557    -1617    -1675    -1734    -1792    -1848    -1902 
   -1952    -1995    -2038    -2081    -2121    -2162    -2205    -2245 
   -2277    -2308    -2340    -2371    -2400    -2428    -2451    -2466 
   -2481    -2492    -2494    -2500    -2508    -2506    -2497    -2484 
   -2474    -2457    -2430    -2398    -2361    -2313    -2263    -2204 
   -2130    -2056    -1980    -1898    -1813    -1729    -1648    -1570 
   -1493    -1418    -1351    -1287    -1228    -1169    -1111    -1065 
   -1026     -986     -953     -926     -903     -890     -884     -876 
    -869     -869     -873     -877     -882     -890     -903     -919 
    -940     -967     -994    -1026    -1059    -1092    -1124    -1152 
   -1175    -1198    -1223    -1243    -1264    -1290    -1314    -1337 
   -1359    -1378    -1397    -1421    -1448    -1471    -1486    -1501 
   -1512    -1517    -1524    -1524    -1525    -1532    -1540    -1545 
   -1551    -1553    -1560    -1570    -1580    -1593    -1605    -1618 
   -1629    -1641    -1661    -1680    -1691    -1706    -1729    -1749 
   -1764    -1780    -1803    -1823    -1838    -1849    -1861    -1869 
   -1873    -1877    -1883    -1884    -1884    -1883    -1880    -1868 
   -1852    -1838    -1829    -1810    -1783    -1757    -1736    -1714 
   -1692    -1668    -1649    -1640    -1630    -1617    -1603    -1597 
   -1597    -1597    -1594    -1597    -1602    -1614    -1636    -1660 
   -1680    -1707    -1742    -1775    -1804    -1836    -1869    -1908 
   -1949    -1991    -2031    -2072    -2114    -2155    -2201    -2249 
   -2293    -2343    -2398    -2451    -2498    -2550    -2606    -2662 
   -2713    -2766    -2817    -2875    -2933    -2982    -3024    -3064 
   -3098    -3133    -3164    -3180    -3194    -3207    -3210    -3206 
   -3196    -3177    -3157    -3137    -3113    -3079    -3037    -2998 
   -2956    -2909    -2863    -2813    -2756    -2706    -2658    -2604 
   -2554    -2509    -2467    -2430    -2393    -2353    -2316    -2281 
   -2253    -2227    -2199    -2169    -2138    -2104    -2074    -2047 
   -2020    -1993    -1968    -1945    -1921    -1898    -1873    -1849 
   -1829    -1809    -1788    -1769    -1749    -1728    -1710    -1695 
   -1682    -1663    -1641    -1628    -1611    -1595    -1587    -1578 
   -1564    -1561    -1559    -1551    -1547    -1548    -1553    -1563 
   -1574    -1582    -1584    -1588    -1602    -1614    -1615    -1615 
   -1625    -1640    -1658    -1675    -1694    -1715    -1742    -1780 
   -1818    -1845    -1872    -1904    -1938    -1973    -2004    -2030 
   -2064    -2097    -2121    -2142    -2163    -2191    -2212    -2223 
   -2230    -2235    -2238    -2239    -2235    -2224    -2215    -2209 
   -2203    -2188    -2176    -2163    -2147    -2138    -2133    -2120 
   -2107    -2096    -2089    -2087    -2084    -2081    -2083    -2091 
   -2100    -2111    -2128    -2151    -2174    -2199    -2230    -2261 
   -2292    -2323    -2357    -2396    -2436    -2477    -2517    -2558 
   -2594    -2624    -2655    -2693    -2731    -2762    -2792    -2830 
   -2867    -2902    -2936    -2971    -3006    -3041    -3080    -3121 
   -3156    -3186    -3207    -3223    -3237    -3246    -3253    -3254 
   -3254    -3252    -3241    -3222    -3207    -3194    -3177    -3159 
   -3134    -3109    -3094    -3082    -3069    -3059    -3052    -3049 
   -3049    -3045    -3037    -3030    -3026    -3022    -3013    -2999 
   -2986    -2972    -2961    -2952    -2936    -2920    -2906    -2890 
   -2871    -2847    -2822    -2803    -2781    -2749    -2713    -2669 
   -2627    -2583    -2539    -2494    -2448    -2401    -2355    -2315 
   -2277    -2242    -2207    -2177    -2154    -2135    -2119    -2111 
   -2115    -2126    -2139    -2160    -2191    -2222    -2247    -2272 
   -2300    -2332    -2361    -2380    -2400    -2421    -2438    -2446 
   -2451    -2455    -2455    -2451    -2446    -2440    -2435    -2425 
   -2408    -2382    -2355    -2330    -2305    -2280    -2255    -2230 
   -2195    -2160    -2130    -2100    -2065    -2030    -1993    -1958 
   -1930    -1902    -1871    -1842    -1823    -1807    -1787    -1767 
   -1753    -1748    -1742    -1733    -1722    -1717    -1717    -1711 
   -1701    -1695    -1701    -1710    -1717    -1722    -1723    -1722 
   -1725    -1729    -1737    -1742    -1752    -1767    -1788    -1811 
   -1837    -1865    -1899    -1942    -1982    -2025    -2070    -2115 
   -2158    -2201    -2243    -2284    -2327    -2370    -2411    -2448 
   -2488    -2527    -2559    -2590    -2621    -2646    -2673    -2701 
   -2727    -2747    -2764    -2786    -2810    -2832    -2855    -2876 
   -2891    -2902    -2910    -2917    -2925    -2936    -2944    -2941 
   -2938    -2943    -2947    -2945    -2943    -2944    -2951    -2953 
   -2949    -2944    -2944    -2948    -2948    -2941    -2936    -2932 
   -2929    -2933    -2941    -2947    -2948    -2953    -2960    -2970 
   -2986    -3011    -3034    -3053    -3071    -3090    -3109    -3133 
   -3163    -3191    -3219    -3250    -3279    -3303    -3331    -3362 
   -3391    -3423    -3462    -3497    -3524    -3555    -3585    -3612 
   -3632    -3645    -3653    -3662    -3667    -3667    -3658    -3647 
   -3640    -3630    -3608    -3581    -3559    -3539    -3518    -3492 
   -3462    -3433    -3404    -3369    -3335    -3299    -3267    -3234 
   -3192    -3152    -3119    -3086    -3046    -3007    -2971    -2938 
   -2906    -2863    -2820    -2783    -2748    -2708    -2668    -2632 
   -2598    -2565    -2532    -2501    -2473    -2444    -2419    -2397 
   -2371    -2342    -2319    -2300    -2276    -2251    -2236    -2224 
   -2208    -2193    -2184    -2176    -2165    -2151    -2141    -2138 
   -2139    -2138    -2134    -2135    -2139    -2142    -2146    -2154 
   -2169    -2184    -2189    -2191    -2195    -2207    -2220    -2232 
   -2239    -2242    -2253    -2265    -2267    -2270    -2277    -2281 
   -2278    -2274    -2272    -2266    -2261    -2257    -2250    -2241 
   -2235    -2231    -2231    -2232    -2235    -2241    -2246    -2251 
   -2253    -2255    -2257    -2257    -2258    -2263    -2267    -2267 
   -2272    -2276    -2273    -2272    -2276    -2278    -2278    -2276 
   -2269    -2259    -2249    -2241    -2231    -2215    -2199    -2185 
   -2174    -2158    -2139    -2124    -2106    -2085    -2064    -2052 
   -2039    -2022    -2008    -2004    -2001    -1999    -2001    -2007 
   -2018    -2034    -2056    -2077    -2098    -2124    -2158    -2195 
   -2230    -2269    -2311    -2349    -2382    -2417    -2457    -2498 
   -2542    -2582    -2620    -2658    -2697    -2731    -2759    -2787 
   -2814    -2847    -2879    -2907    -2933    -2961    -2991    -3019 
   -3037    -3048    -3061    -3073    -3082    -3088    -3090    -3092 
   -3094    -3094    -3090    -3087    -3087    -3086    -3080    -3076 
   -3069    -3057    -3045    -3034    -3022    -3007    -2992    -2978 
   -2961    -2944    -2930    -2920    -2906    -2896    -2884    -2863 
   -2841    -2825    -2816    -2810    -2798    -2783    -2770    -2752 
   -2735    -2718    -2693    -2666    -2643    -2613    -2583    -2554 
   -2520    -2484    -2442    -2404    -2373    -2338    -2299    -2258 
   -2222    -2184    -2139    -2095    -2053    -2014    -1979    -1941 
   -1903    -1872    -1845    -1817    -1784    -1750    -1722    -1699 
   -1677    -1658    -1638    -1614    -1590    -1571    -1559    -1552 
   -1547    -1541    -1540    -1541    -1545    -1549    -1551    -1554 
   -1566    -1578    -1587    -1601    -1622    -1649    -1679    -1709 
   -1740    -1777    -1825    -1872    -1917    -1961    -2012    -2066 
   -2119    -2172    -2227    -2284    -2340    -2404    -2466    -2527 
   -2589    -2648    -2700    -2756    -2813    -2859    -2899    -2943 
   -2983    -3021    -3060    -3090    -3115    -3138    -3154    -3165 
   -3171    -3173    -3171    -3157    -3138    -3117    -3087    -3052 
   -3022    -2986    -2947    -2907    -2863    -2816    -2766    -2713 
   -2660    -2608    -2550    -2494    -2436    -2378    -2319    -2257 
   -2193    -2133    -2070    -2008    -1944    -1873    -1804    -1744 
   -1690    -1634    -1579    -1528    -1489    -1452    -1414    -1382 
   -1360    -1345    -1343    -1337    -1325    -1323    -1336    -1354 
   -1370    -1391    -1422    -1460    -1498    -1540    -1582    -1624 
   -1671    -1718    -1760    -1802    -1848    -1891    -1927    -1969 
   -2014    -2053    -2092    -2121    -2150    -2185    -2215    -2238 
   -2257    -2276    -2295    -2303    -2307    -2317    -2328    -2332 
   -2331    -2326    -2319    -2309    -2295    -2276    -2257    -2238 
   -2215    -2192    -2165    -2139    -2110    -2077    -2047    -2022 
   -2000    -1980    -1953    -1921    -1899    -1883    -1863    -1840 
   -1818    -1795    -1776    -1761    -1749    -1741    -1736    -1728 
   -1718    -1714    -1710    -1707    -1709    -1710    -1707    -1702 
   -1702    -1710    -1726    -1734    -1737    -1744    -1755    -1763 
   -1773    -1787    -1792    -1804    -1821    -1823    -1822    -1831 
   -1849    -1868    -1880    -1883    -1884    -1891    -1898    -1894 
   -1885    -1880    -1875    -1864    -1852    -1846    -1838    -1829 
   -1825    -1819    -1813    -1811    -1809    -1798    -1787    -1787 
   -1786    -1780    -1780    -1786    -1796    -1815    -1836    -1857 
   -1878    -1900    -1923    -1944    -1961    -1982    -2006    -2027 
   -2045    -2065    -2089    -2111    -2130    -2151    -2170    -2191 
   -2211    -2227    -2236    -2246    -2257    -2258    -2254    -2251 
   -2247    -2243    -2246    -2243    -2230    -2214    -2199    -2189 
   -2172    -2142    -2114    -2089    -2066    -2038    -2008    -1982 
   -1956    -1925    -1896    -1865    -1833    -1807    -1779    -1741 
   -1699    -1661    -1625    -1586    -1549    -1520    -1498    -1478 
   -1448    -1416    -1394    -1381    -1366    -1347    -1327    -1312 
   -1304    -1297    -1294    -1294    -1291    -1291    -1290    -1287 
   -1296    -1308    -1317    -1320    -1331    -1350    -1370    -1383 
   -1397    -1416    -1441    -1474    -1505    -1528    -1554    -1584 
   -1606    -1624    -1645    -1660    -1665    -1669    -1674    -1671 
   -1661    -1656    -1648    -1632    -1610    -1587    -1553    -1507 
   -1463    -1428    -1389    -1336    -1287    -1247    -1205    -1170 
   -1131    -1085    -1044    -1011     -980     -947     -919     -895 
    -873     -854     -838     -831     -830     -834     -838     -850 
    -868     -888     -911     -935     -958     -982    -1011    -1039 
   -1069    -1098    -1133    -1167    -1197    -1230    -1262    -1286 
   -1312    -1334    -1352    -1367    -1385    -1401    -1410    -1420 
   -1435    -1449    -1467    -1486    -1498    -1507    -1522    -1540 
   -1552    -1564    -1579    -1591    -1599    -1610    -1618    -1621 
   -1625    -1636    -1649    -1656    -1657    -1658    -1656    -1652 
