Origin Time       2016/04/16 01:25:00
Lat.              32.753
Long.             130.762
Depth. (km)       12
Mag.              7.3
Station Code      MIE001
Station Lat.      35.1718
Station Long.     136.4943
Station Height(m) 128
Record Time       2016/04/16 01:27:58
Sampling Freq(Hz) 100Hz
Duration Time(s)  80
Dir.              N-S
Scale Factor      7845(gal)/8223790
Max. Acc. (gal)   2.056
Last Correction   2016/04/16 01:28:00
Memo.             
[...]
   -9304    -9292    -9279    -9267    -9255    -9234    -9202    -9173 
   -9147    -9127    -9121    -9127    -9127    -9119    -9111    -9097 
   -9080    -9065    -9059    -9065    -9076    -9093    -9117    -9140 
   -9161    -9184    -9204    -9223    -9248    -9283    -9320    -9369 
   -9425    -9478    -9525    -9574    -9622    -9667    -9713    -9765 
   -9822    -9880    -9944   -10011   -10072   -10126   -10183   -10224 
  -10258   -10307   -10358   -10405   -10457   -10513   -10566   -10609 
  -10651   -10686   -10712   -10740   -10771   -10804   -10837   -10870 
  -10901   -10925   -10939   -10948   -10951   -10945   -10948   -10955 
  -10963   -10974   -10983   -10980   -10974   -10963   -10955   -10943 
  -10925   -10918   -10921   -10913   -10903   -10897   -10889   -10872 
  -10854   -10836   -10817   -10794   -10773   -10758   -10743   -10733 
  -10728   -10719   -10706   -10696   -10675   -10651   -10638   -10629 
  -10624   -10623   -10617   -10606   -10594   -10580   -10567   -10554 
  -10547   -10550   -10552   -10561   -10570   -10577   -10577   -10573 
  -10569   -10567   -10565   -10563   -10565   -10565   -10573   -10585 
  -10588   -10588   -10592   -10585   -10575   -10577   -10582   -10588 
  -10600   -10620   -10632   -10633   -10638   -10644   -10646   -10652 
  -10665   -10678   -10692   -10706   -10714   -10722   -10737   -10746 
  -10747   -10750   -10755   -10762   -10770   -10787   -10795   -10797 
  -10794   -10782   -10771   -10763   -10751   -10735   -10725   -10722 
  -10714   -10698   -10678   -10656   -10629   -10592   -10555   -10530 
  -10508   -10488   -10473   -10454   -10423   -10389   -10361   -10335 
  -10305   -10276   -10247   -10223   -10199   -10180   -10161   -10137 
  -10111   -10088   -10062   -10041   -10025   -10004    -9984    -9969 
   -9954    -9936    -9913    -9895    -9879    -9860    -9837    -9819 
   -9811    -9807    -9811    -9814    -9801    -9778    -9756    -9737 
   -9726    -9725    -9728    -9732    -9736    -9733    -9729    -9722 
   -9715    -9711    -9709    -9707    -9707    -9710    -9718    -9730 
   -9740    -9741    -9733    -9726    -9726    -9726    -9729    -9738 
   -9757    -9780    -9801    -9815    -9818    -9815    -9818    -9823 
   -9833    -9860    -9892    -9917    -9937    -9949    -9949    -9950 
   -9956    -9960    -9964    -9972    -9977    -9972    -9965    -9972 
   -9979    -9971    -9963    -9954    -9933    -9913    -9907    -9904 
   -9904    -9907    -9904    -9888    -9869    -9857    -9847    -9833 
   -9830    -9840    -9846    -9853    -9859    -9860    -9860    -9861 
   -9861    -9859    -9864    -9876    -9892    -9917    -9941    -9957 
   -9976    -9994   -10007   -10021   -10035   -10053   -10073   -10096 
  -10123   -10152   -10172   -10187   -10204   -10211   -10220   -10241 
  -10265   -10288   -10308   -10323   -10338   -10349   -10351   -10350 
  -10353   -10357   -10361   -10370   -10370   -10365   -10362   -10357 
  -10339   -10322   -10301   -10277   -10257   -10241   -10228   -10216 
  -10203   -10185   -10156   -10123   -10095   -10066   -10038   -10019 
  -10006    -9988    -9968    -9950    -9926    -9896    -9865    -9832 
   -9799    -9774    -9756    -9740    -9720    -9697    -9670    -9636 
   -9607    -9583    -9556    -9537    -9521    -9504    -9489    -9472 
   -9452    -9425    -9398    -9373    -9343    -9316    -9304    -9292 
   -9275    -9258    -9235    -9200    -9171    -9150    -9121    -9103 
   -9097    -9084    -9065    -9055    -9051    -9040    -9022    -9004 
   -8991    -8970    -8954    -8951    -8961    -8970    -8982    -8992 
   -8982    -8970    -8966    -8965    -8968    -8981    -9001    -9016 
   -9026    -9038    -9049    -9051    -9054    -9061    -9065    -9073 
   -9089    -9109    -9127    -9143    -9158    -9165    -9173    -9182 
   -9189    -9196    -9201    -9216    -9239    -9262    -9281    -9297 
   -9304    -9304    -9306    -9306    -9315    -9339    -9364    -9382 
   -9398    -9412    -9417    -9424    -9440    -9456    -9472    -9490 
   -9509    -9533    -9558    -9580    -9602    -9617    -9621    -9628 
   -9637    -9651    -9675    -9701    -9714    -9718    -9718    -9718 
   -9721    -9730    -9737    -9737    -9737    -9738    -9738    -9740 
   -9747    -9749    -9738    -9718    -9699    -9686    -9676    -9675 
   -9675    -9664    -9648    -9634    -9609    -9582    -9567    -9555 
   -9536    -9522    -9517    -9508    -9497    -9486    -9467    -9440 
   -9417    -9396    -9374    -9359    -9350    -9332    -9306    -9281 
   -9254    -9225    -9194    -9167    -9144    -9117    -9089    -9066 
   -9047    -9027    -9007    -8977    -8937    -8903    -8881    -8862 
   -8847    -8841    -8830    -8815    -8799    -8775    -8746    -8727 
   -8714    -8706    -8707    -8711    -8716    -8725    -8729    -8733 
   -8731    -8726    -8723    -8730    -8746    -8772    -8802    -8823 
   -8846    -8869    -8887    -8903    -8923    -8943    -8968    -8999 
   -9038    -9081    -9120    -9155    -9185    -9208    -9232    -9254 
   -9283    -9328    -9377    -9424    -9462    -9493    -9522    -9547 
   -9568    -9591    -9617    -9652    -9691    -9726    -9757    -9788 
   -9814    -9832    -9847    -9867    -9888    -9910    -9930    -9957 
   -9985   -10007   -10025   -10039   -10045   -10052   -10061   -10061 
  -10054   -10061   -10076   -10079   -10077   -10081   -10076   -10053 
  -10031   -10017   -10002    -9992    -9988    -9977    -9956    -9934 
   -9911    -9877    -9850    -9828    -9792    -9760    -9738    -9718 
   -9699    -9682    -9655    -9620    -9582    -9549    -9524    -9505 
   -9489    -9474    -9452    -9427    -9409    -9397    -9383    -9369 
   -9352    -9335    -9317    -9306    -9309    -9312    -9315    -9310 
   -9301    -9285    -9274    -9270    -9270    -9277    -9288    -9288 
   -9278    -9266    -9254    -9244    -9234    -9225    -9221    -9216 
   -9213    -9216    -9217    -9215    -9208    -9196    -9173    -9150 
   -9140    -9142    -9146    -9150    -9147    -9134    -9112    -9094 
   -9074    -9055    -9045    -9028    -9008    -8995    -8988    -8972 
   -8951    -8928    -8896    -8860    -8827    -8802    -8783    -8765 
   -8741    -8707    -8672    -8644    -8610    -8569    -8540    -8513 
   -8484    -8457    -8434    -8417    -8398    -8379    -8352    -8322 
   -8293    -8274    -8268    -8268    -8272    -8279    -8274    -8262 
   -8251    -8244    -8239    -8233    -8236    -8243    -8253    -8272 
   -8294    -8311    -8326    -8340    -8349    -8352    -8361    -8383 
   -8411    -8441    -8476    -8507    -8525    -8545    -8568    -8586 
   -8608    -8631    -8649    -8676    -8708    -8738    -8762    -8785 
   -8808    -8826    -8838    -8860    -8884    -8908    -8937    -8968 
   -8991    -9008    -9030    -9045    -9055    -9073    -9094    -9112 
   -9130    -9153    -9175    -9189    -9193    -9200    -9204    -9207 
   -9217    -9227    -9225    -9229    -9240    -9240    -9234    -9224 
   -9208    -9193    -9185    -9175    -9169    -9163    -9147    -9132 
   -9120    -9103    -9078    -9055    -9027    -8999    -8981    -8969 
   -8962    -8953    -8937    -8912    -8887    -8869    -8857    -8847 
   -8846    -8846    -8843    -8846    -8849    -8845    -8846    -8847 
   -8839    -8837    -8847    -8869    -8895    -8919    -8937    -8950 
   -8962    -8977    -8992    -9011    -9031    -9053    -9081    -9109 
   -9140    -9175    -9201    -9225    -9246    -9261    -9281    -9315 
   -9350    -9382    -9413    -9443    -9470    -9494    -9514    -9533 
   -9544    -9556    -9587    -9614    -9633    -9656    -9672    -9682 
   -9694    -9701    -9698    -9695    -9695    -9694    -9693    -9699 
   -9710    -9710    -9702    -9694    -9679    -9655    -9643    -9641 
   -9636    -9629    -9626    -9614    -9595    -9578    -9559    -9536 
   -9517    -9509    -9504    -9497    -9491    -9482    -9474    -9463 
   -9448    -9431    -9423    -9427    -9431    -9429    -9433    -9448 
   -9462    -9464    -9462    -9463    -9462    -9458    -9466    -9487 
   -9508    -9528    -9548    -9562    -9571    -9578    -9586    -9598 
   -9616    -9639    -9661    -9686    -9715    -9738    -9756    -9771 
   -9787    -9806    -9832    -9865    -9899    -9931    -9968   -10000 
  -10026   -10054   -10085   -10120   -10154   -10192   -10230   -10277 
  -10332   -10372   -10400   -10431   -10459   -10488   -10523   -10563 
  -10611   -10651   -10685   -10721   -10754   -10775   -10794   -10816 
  -10835   -10851   -10870   -10897   -10924   -10948   -10975   -10990 
  -10990   -10994   -10998   -10998   -11003   -11016   -11025   -11034 
  -11039   -11039   -11034   -11022   -11014   -11006   -10996   -10994 
  -10999   -10998   -10994   -10995   -10994   -10984   -10970   -10956 
  -10945   -10947   -10959   -10975   -10990   -11003   -11011   -11010 
  -11007   -11013   -11022   -11029   -11044   -11061   -11071   -11083 
  -11105   -11122   -11132   -11133   -11122   -11113   -11126   -11149 
  -11171   -11198   -11214   -11214   -11214   -11214   -11214   -11221 
  -11234   -11247   -11256   -11264   -11276   -11283   -11280   -11279 
  -11275   -11259   -11244   -11242   -11237   -11226   -11209   -11188 
  -11168   -11138   -11107   -11074   -11038   -11009   -10978   -10939 
  -10895   -10854   -10812   -10758   -10700   -10638   -10575   -10519 
  -10465   -10413   -10362   -10308   -10253   -10184   -10104   -10033 
   -9964    -9896    -9834    -9776    -9718    -9656    -9591    -9526 
   -9456    -9378    -9305    -9240    -9173    -9108    -9055    -9003 
   -8945    -8893    -8839    -8775    -8712    -8660    -8611    -8568 
   -8530    -8492    -8457    -8421    -8379    -8332    -8291    -8260 
   -8235    -8217    -8208    -8193    -8182    -8177    -8172    -8159 
   -8149    -8147    -8144    -8143    -8154    -8175    -8202    -8228 
   -8255    -8279    -8295    -8313    -8336    -8360    -8385    -8421 
   -8469    -8517    -8559    -8595    -8630    -8662    -8698    -8730 
   -8760    -8804    -8860    -8912    -8958    -8999    -9034    -9069 
   -9101    -9130    -9166    -9215    -9271    -9327    -9375    -9416 
   -9452    -9486    -9520    -9558    -9596    -9629    -9671    -9728 
   -9775    -9815    -9856    -9886    -9907    -9933    -9957    -9984 
  -10026   -10073   -10108   -10134   -10154   -10170   -10192   -10210 
  -10223   -10246   -10269   -10289   -10311   -10327   -10343   -10369 
  -10384   -10380   -10378   -10384   -10396   -10416   -10438   -10457 
  -10469   -10476   -10476   -10474   -10482   -10494   -10504   -10513 
  -10524   -10534   -10535   -10540   -10552   -10554   -10546   -10537 
  -10527   -10523   -10527   -10531   -10530   -10524   -10520   -10516 
  -10501   -10488   -10481   -10482   -10488   -10488   -10490   -10494 
  -10492   -10488   -10480   -10465   -10457   -10459   -10462   -10465 
  -10474   -10482   -10481   -10484   -10488   -10480   -10473   -10480 
  -10484   -10484   -10489   -10498   -10508   -10520   -10523   -10512 
  -10507   -10513   -10514   -10519   -10530   -10537   -10543   -10550 
  -10547   -10540   -10536   -10539   -10547   -10558   -10575   -10597 
  -10624   -10646   -10658   -10660   -10665   -10671   -10682   -10705 
  -10729   -10744   -10774   -10809   -10832   -10854   -10872   -10879 
  -10894   -10917   -10943   -10971   -11009   -11047   -11071   -11087 
  -11105   -11122   -11138   -11160   -11181   -11198   -11219   -11241 
  -11252   -11260   -11268   -11273   -11277   -11275   -11267   -11264 
  -11269   -11279   -11284   -11286   -11280   -11269   -11253   -11234 
  -11218   -11206   -11199   -11199   -11203   -11195   -11181   -11171 
  -11157   -11132   -11117   -11111   -11098   -11086   -11079   -11064 
  -11048   -11041   -11033   -11013   -10993   -10974   -10956   -10941 
  -10929   -10921   -10910   -10895   -10874   -10847   -10818   -10798 
  -10786   -10774   -10758   -10741   -10725   -10712   -10702   -10683 
  -10656   -10632   -10615   -10604   -10600   -10594   -10584   -10569 
  -10557   -10542   -10517   -10498   -10492   -10489   -10484   -10477 
  -10471   -10463   -10457   -10447   -10424   -10403   -10392   -10385 
  -10378   -10372   -10368   -10362   -10347   -10326   -10304   -10281 
  -10258   -10245   -10238   -10224   -10207   -10197   -10185   -10164 
  -10143   -10120   -10093   -10075   -10062   -10048   -10033   -10021 
  -10006    -9983    -9956    -9925    -9890    -9864    -9846    -9825 
   -9806    -9796    -9784    -9765    -9742    -9713    -9680    -9651 
   -9629    -9609    -9590    -9578    -9571    -9556    -9528    -9493 
   -9456    -9423    -9394    -9375    -9366    -9358    -9347    -9332 
   -9308    -9278    -9246    -9221    -9201    -9180    -9161    -9146 
   -9135    -9126    -9111    -9089    -9066    -9040    -9016    -8993 
   -8976    -8962    -8954    -8945    -8932    -8918    -8900    -8881 
   -8865    -8839    -8819    -8807    -8792    -8787    -8792    -8785 
   -8769    -8752    -8733    -8710    -8684    -8667    -8657    -8646 
   -8633    -8617    -8595    -8572    -8548    -8513    -8480    -8454 
   -8441    -8424    -8401    -8375    -8343    -8306    -8271    -8230 
   -8187    -8156    -8129    -8101    -8073    -8046    -8019    -7983 
   -7944    -7906    -7870    -7836    -7808    -7785    -7761    -7742 
   -7726    -7704    -7681    -7659    -7634    -7605    -7586    -7581 
   -7588    -7591    -7588    -7586    -7581    -7578    -7580    -7586 
   -7599    -7627    -7657    -7676    -7699    -7732    -7761    -7789 
   -7820    -7852    -7888    -7933    -7982    -8023    -8071    -8127 
   -8175    -8212    -8251    -8294    -8337    -8390    -8447    -8500 
   -8553    -8610    -8665    -8715    -8758    -8802    -8850    -8896 
   -8953    -9013    -9066    -9119    -9178    -9227    -9265    -9304 
   -9342    -9381    -9429    -9477    -9518    -9560    -9602    -9639 
   -9670    -9699    -9733    -9759    -9780    -9804    -9836    -9865 
   -9895    -9921    -9938    -9948    -9958    -9965    -9972    -9992 
  -10012   -10022   -10038   -10054   -10062   -10064   -10064   -10068 
  -10072   -10073   -10079   -10088   -10103   -10116   -10119   -10114 
  -10111   -10115   -10120   -10126   -10133   -10139   -10153   -10166 
  -10174   -10185   -10195   -10200   -10206   -10208   -10216   -10235 
  -10258   -10278   -10296   -10309   -10314   -10319   -10334   -10349 
  -10362   -10381   -10401   -10417   -10427   -10440   -10457   -10463 
  -10469   -10477   -10473   -10469   -10486   -10511   -10521   -10521 
  -10520   -10521   -10519   -10517   -10523   -10524   -10527   -10542 
  -10551   -10557   -10565   -10566   -10559   -10552   -10539   -10524 
  -10520   -10525   -10530   -10531   -10528   -10516   -10496   -10480 
  -10466   -10450   -10436   -10426   -10411   -10395   -10377   -10361 
  -10341   -10307   -10272   -10241   -10211   -10187   -10164   -10143 
  -10118   -10088   -10055   -10014    -9964    -9919    -9883    -9846 
   -9814    -9784    -9749    -9715    -9680    -9637    -9587    -9537 
   -9493    -9454    -9421    -9393    -9363    -9331    -9302    -9274 
   -9238    -9201    -9173    -9147    -9128    -9116    -9104    -9089 
   -9080    -9067    -9049    -9028    -9018    -9012    -9001    -8992 
   -8989    -8988    -8988    -8991    -8991    -8986    -8982    -8984 
   -8985    -8989    -9001    -9019    -9035    -9054    -9065    -9065 
   -9067    -9078    -9082    -9085    -9099    -9117    -9136    -9158 
   -9171    -9171    -9167    -9167    -9167    -9169    -9175    -9185 
   -9200    -9213    -9209    -9194    -9185    -9178    -9167    -9157 
   -9147    -9142    -9135    -9124    -9108    -9092    -9080    -9063 
   -9046    -9031    -9018    -9004    -8997    -8997    -8991    -8976 
   -8964    -8947    -8927    -8912    -8901    -8896    -8900    -8905 
   -8905    -8900    -8892    -8885    -8881    -8881    -8885    -8895 
   -8912    -8935    -8949    -8951    -8959    -8974    -8980    -8981 
   -8989    -9001    -9020    -9050    -9081    -9101    -9115    -9128 
   -9134    -9135    -9146    -9165    -9184    -9208    -9236    -9256 
   -9275    -9298    -9315    -9322    -9329    -9342    -9363    -9390 
   -9418    -9445    -9458    -9466    -9477    -9477    -9474    -9486 
   -9504    -9517    -9529    -9541    -9553    -9571    -9587    -9589 
   -9576    -9571    -9575    -9580    -9586    -9595    -9603    -9614 
   -9624    -9626    -9625    -9622    -9621    -9625    -9629    -9639 
   -9653    -9666    -9680    -9694    -9691    -9683    -9687    -9697 
   -9705    -9717    -9733    -9755    -9765    -9769    -9771    -9769 
   -9774    -9784    -9792    -9801    -9814    -9833    -9849    -9856 
   -9859    -9863    -9863    -9868    -9879    -9888    -9895    -9900 
   -9910    -9923    -9934    -9938    -9940    -9941    -9942    -9941 
   -9946    -9965    -9981    -9988    -9991    -9979    -9964    -9963 
   -9967    -9964    -9958    -9961    -9969    -9963    -9946    -9938 
   -9933    -9925    -9911    -9896    -9887    -9884    -9884    -9880 
   -9868    -9855    -9844    -9830    -9813    -9801    -9794    -9790 
   -9790    -9792    -9791    -9783    -9771    -9760    -9749    -9740 
   -9732    -9729    -9734    -9747    -9757    -9756    -9756    -9759 
   -9761    -9765    -9771    -9784    -9799    -9817    -9841    -9857 
   -9868    -9886    -9900    -9903    -9910    -9931    -9957    -9991 
  -10029   -10060   -10084   -10108   -10133   -10156   -10177   -10206 
  -10241   -10277   -10324   -10374   -10412   -10450   -10490   -10519 
  -10543   -10574   -10612   -10660   -10709   -10752   -10795   -10839 
  -10876   -10912   -10943   -10976   -11024   -11071   -11111   -11156 
  -11200   -11237   -11268   -11294   -11313   -11338   -11371   -11400 
  -11429   -11455   -11484   -11510   -11529   -11542   -11556   -11562 
  -11562   -11569   -11580   -11587   -11592   -11597   -11597   -11587 
  -11572   -11558   -11539   -11523   -11514   -11496   -11480   -11470 
  -11455   -11430   -11395   -11358   -11329   -11302   -11272   -11242 
  -11219   -11204   -11181   -11148   -11110   -11071   -11037   -11005 
  -10974   -10941   -10908   -10882   -10863   -10835   -10800   -10766 
  -10728   -10692   -10660   -10631   -10606   -10589   -10565   -10534 
  -10493   -10447   -10411   -10374   -10336   -10303   -10270   -10239 
  -10215   -10191   -10153   -10115   -10079   -10035    -9994    -9956 
   -9922    -9895    -9868    -9837    -9806    -9768    -9728    -9688 
   -9647    -9606    -9570    -9543    -9517    -9490    -9459    -9416 
   -9367    -9329    -9300    -9263    -9234    -9215    -9201    -9188 
   -9169    -9143    -9109    -9078    -9053    -9022    -8993    -8984 
   -8977    -8965    -8951    -8939    -8918    -8891    -8870    -8846 
   -8819    -8803    -8800    -8796    -8789    -8785    -8773    -8754 
   -8737    -8721    -8704    -8700    -8700    -8696    -8692    -8688 
   -8680    -8669    -8658    -8648    -8634    -8629    -8631    -8633 
   -8634    -8642    -8649    -8646    -8633    -8621    -8610    -8602 
   -8603    -8611    -8617    -8622    -8630    -8633    -8626    -8618 
   -8614    -8607    -8599    -8599    -8606    -8614    -8622    -8629 
