Origin Time       2016/04/16 01:25:00
Lat.              32.753
Long.             130.762
Depth. (km)       12
Mag.              7.3
Station Code      MIE003
Station Lat.      34.9704
Station Long.     136.6357
Station Height(m) 2
Record Time       2016/04/16 01:28:04
Sampling Freq(Hz) 100Hz
Duration Time(s)  161
Dir.              E-W
Scale Factor      7845(gal)/8223790
Max. Acc. (gal)   3.405
Last Correction   2016/04/16 01:28:05
Memo.             
[...]
     364      353      315      261      178      102       81       79 
      47        4      -22      -27      -14      -13      -52     -108 
    -137     -157     -199     -252     -287     -286     -228     -151 
    -112     -102      -95     -110     -128     -133     -139     -117 
     -60       -8       36       79      120      182      251      275 
     261      243      232      243      280      344      425      502 
     531      490      429      398      383      388      414      417 
     407      437      491      540      572      571      562      576 
     594      591      592      622      669      734      803      831 
     822      823      824      796      788      837      881      892 
     899      903      909      940      972      959      908      874 
     869      838      815      835      864      915      999     1046 
    1032      999      965      943      950      969      969      989 
    1051     1112     1154     1185     1196     1200     1188     1139 
    1084     1062     1085     1135     1183     1219     1269     1318 
    1316     1275     1237     1212     1200     1200     1185     1169 
    1192     1244     1304     1320     1270     1212     1170     1138 
    1132     1139     1151     1170     1188     1185     1150     1107 
    1086     1067     1020      959      919      893      858      830 
     835      849      855      841      753      642      584      544 
     510      492      457      421      407      405      405      387 
     346      289      212      151      124      109      116      144 
     151      137      120       85       37      -13      -67      -93 
     -99     -112     -112     -112     -112      -76      -40      -44 
     -81     -135     -172     -174     -148     -109      -47       49 
     141      187      202      187      164      171      182      175 
     199      246      294      378      475      553      622      646 
     604      558      544      568      629      702      774      853 
     922      973     1008     1028     1063     1115     1139     1136 
    1148     1193     1277     1375     1431     1435     1426     1428 
    1436     1456     1476     1495     1516     1525     1514     1525 
    1563     1578     1568     1559     1506     1420     1354     1308 
    1287     1300     1316     1317     1289     1228     1169     1117 
    1075     1038      974      896      845      837      870      918 
     920      877      831      778      687      576      506      499 
     519      544      549      511      471      453      414      349 
     294      234      174      139      121      116      137      178 
     197      144       51      -29      -82      -97      -79      -64 
     -44       -2       40       67       67       41       13      -16 
     -59     -118     -163     -159     -129     -110      -91      -55 
     -35      -60     -121     -203     -286     -340     -360     -364 
    -373     -368     -330     -282     -255     -279     -344     -399 
    -438     -480     -488     -469     -450     -423     -395     -387 
    -405     -430     -441     -448     -463     -467     -446     -403 
    -337     -284     -256     -230     -203     -178     -186     -228 
    -244     -212     -176     -136      -72       -8       47       90 
      95       58       14        1       14       44       87      125 
     162      224      289      318      315      303      279      249 
     225      229      274      344      409      442      468      495 
     490      468      453      429      407      413      438      488 
     549      594      641      689      683      621      579      581 
     604      630      657      700      765      838      892      900 
     881      868      842      805      803      834      877      954 
    1048     1117     1154     1169     1146     1107     1093     1074 
    1063     1113     1167     1185     1216     1255     1263     1258 
    1236     1174     1102     1067     1043     1011      989      972 
     954      931      897      835      738      656      599      544 
     517      506      475      456      457      433      400      383 
     326      228      170      157      156      186      246      289 
     334      391      398      349      307      279      259      271 
     302      342      417      517      603      666      719      741 
     702      653      642      643      696      797      873      939 
    1011     1039     1036     1026     1000      976      973      973 
     959      940      947      992     1031     1030      986      889 
     774      699      654      612      589      575      549      518 
     472      409      356      305      216       97       -4      -68 
    -105     -112     -106     -112     -135     -174     -255     -387 
    -521     -599     -634     -672     -704     -727     -749     -753 
    -756     -799     -862     -920     -986    -1042    -1059    -1069 
   -1073    -1039     -992     -954     -929     -946     -984    -1017 
   -1060    -1081    -1047     -980     -909     -843     -793     -756 
    -733     -719     -715     -750     -774     -737     -666     -579 
    -479     -383     -294     -194     -112      -72      -58      -39 
      -5       51      121      190      282      422      577      704 
     800      849      866      886      903      920      978     1070 
    1174     1281     1370     1447     1526     1579     1594     1603 
    1622     1647     1686     1738     1788     1844     1923     2014 
    2062     2041     1987     1934     1908     1925     1956     1981 
    2010     2050     2079     2066     2015     1941     1850     1771 
    1705     1642     1617     1630     1642     1640     1618     1557 
    1470     1377     1273     1173     1101     1074     1059     1030 
     999      973      946      918      864      774      683      606 
     564      569      576      556      540      550      558      544 
     504      457      418      394      380      344      313      333 
     382      417      434      425      383      319      252      191 
     160      182      232      282      333      390      425      423 
     391      332      276      266      280      310      361      403 
     459      560      638      629      584      553      535      533 
     548      557      589      657      715      761      796      801 
     792      791      781      772      792      828      866      918 
     977     1024     1055     1063     1046     1021     1024     1067 
    1129     1189     1246     1297     1347     1399     1431     1443 
    1445     1431     1431     1464     1489     1514     1579     1665 
    1737     1794     1823     1815     1796     1779     1755     1746 
    1755     1773     1804     1859     1919     1956     1980     1954 
    1861     1781     1753     1737     1738     1767     1802     1842 
    1877     1878     1852     1811     1760     1703     1676     1699 
    1729     1746     1792     1842     1852     1859     1852     1783 
    1705     1665     1638     1638     1684     1732     1755     1775 
    1787     1755     1686     1617     1564     1537     1528     1505 
    1462     1440     1452     1467     1478     1485     1452     1371 
    1278     1188     1121     1111     1111     1078     1060     1063 
    1030      981      947      886      795      714      652      611 
     587      540      481      463      457      383      245      114 
      14      -54      -99     -143     -183     -216     -249     -295 
    -367     -459     -553     -654     -756     -822     -845     -849 
    -835     -816     -801     -788     -804     -861     -928     -992 
   -1046    -1053    -1028    -1017    -1004     -962     -909     -853 
    -816     -820     -850     -888     -907     -895     -868     -837 
    -773     -679     -598     -544     -526     -552     -572     -553 
    -519     -483     -437     -382     -319     -253     -190     -136 
     -94      -78      -82      -85      -79      -43       41      140 
     218      286      342      403      453      453      436      451 
     491      542      596      642      706      804      911      978 
     986      963      940      938      965     1013     1065     1116 
    1185     1251     1285     1300     1314     1327     1331     1328 
    1324     1332     1371     1429     1468     1493     1509     1509 
    1480     1424     1362     1337     1355     1385     1399     1398 
    1402     1420     1424     1391     1331     1255     1182     1139 
    1121     1111     1123     1165     1205     1220     1197     1143 
    1090     1028      951      903      889      892      913      935 
     926      929      963      963      928      874      795      746 
     770      804      820      861      919      973     1009      996 
     946      926      963     1005     1009     1030     1102     1182 
    1251     1306     1320     1331     1366     1371     1368     1410 
    1482     1557     1629     1692     1745     1790     1819     1813 
    1791     1799     1821     1852     1908     1952     1975     2034 
    2119     2189     2214     2189     2153     2134     2135     2163 
    2207     2259     2327     2393     2428     2444     2459     2467 
    2475     2481     2482     2498     2527     2552     2590     2650 
    2708     2740     2735     2688     2633     2602     2601     2625 
    2663     2694     2710     2718     2712     2678     2621     2543 
    2459     2386     2328     2281     2249     2241     2241     2220 
    2177     2106     1989     1852     1726     1620     1539     1478 
    1413     1336     1271     1206     1129     1053      958      815 
     675      553      433      336      261      186      129       76 
     -10     -128     -245     -341     -434     -546     -652     -739 
    -818     -876     -924     -981    -1046    -1136    -1256    -1389 
   -1509    -1580    -1597    -1614    -1638    -1660    -1691    -1725 
   -1752    -1796    -1864    -1926    -1961    -1972    -1961    -1929 
   -1865    -1780    -1703    -1656    -1651    -1657    -1647    -1642 
   -1629    -1583    -1522    -1447    -1351    -1260    -1202    -1161 
   -1112    -1074    -1058    -1036    -1000     -951     -889     -816 
    -741     -670     -607     -548     -519     -529     -531     -506 
    -464     -407     -355     -315     -253     -171     -109      -71 
     -52      -47      -52      -70      -83      -64      -14       47 
     128      187      201      207      206      180      151      135 
     133      135      156      197      236      294      360      387 
     383      365      326      284      279      301      329      364 
     427      508      560      565      546      525      530      569 
     615      658      723      799      862      907      931      958 
    1000     1035     1055     1075     1121     1196     1282     1367 
    1435     1501     1559     1583     1598     1606     1594     1624 
    1721     1817     1884     1949     2010     2053     2084     2087 
    2066     2034     2018     2012     1980     1962     2022     2088 
    2079     2031     1996     1966     1930     1880     1796     1721 
    1695     1684     1668     1669     1691     1705     1669     1588 
    1501     1408     1316     1266     1243     1213     1193     1179 
    1156     1119     1051      962      888      807      722      691 
     695      670      631      631      643      602      530      459 
     386      346      344      344      363      387      379      346 
     317      315      342      353      321      271      259      289 
     315      322      344      390      414      395      346      288 
     257      274      288      274      249      234      229      218 
     199      170      129       81       18      -51      -81      -85 
    -109     -131     -156     -203     -248     -291     -361     -450 
    -525     -579     -645     -702     -728     -747     -762     -769 
    -808     -901    -1024    -1144    -1252    -1341    -1397    -1420 
   -1439    -1467    -1512    -1579    -1637    -1674    -1752    -1864 
   -1949    -2023    -2093    -2142    -2187    -2224    -2226    -2222 
   -2269    -2366    -2466    -2543    -2605    -2639    -2647    -2658 
   -2679    -2700    -2724    -2759    -2791    -2832    -2882    -2909 
   -2930    -2983    -3011    -2992    -2972    -2961    -2952    -2943 
   -2924    -2909    -2926    -2959    -2957    -2920    -2882    -2844 
   -2781    -2695    -2614    -2538    -2481    -2442    -2398    -2343 
   -2278    -2196    -2111    -2031    -1941    -1821    -1690    -1587 
   -1493    -1394    -1317    -1250    -1169    -1071     -957     -822 
    -695     -587     -464     -346     -272     -209     -133      -43 
      85      218      319      415      518      638      773      877 
     955     1026     1074     1120     1189     1275     1371     1478 
    1602     1722     1814     1883     1933     1975     2011     2053 
    2123     2201     2274     2354     2442     2546     2639     2697 
    2749     2828     2907     2955     2984     3009     3034     3098 
    3208     3330     3430     3477     3481     3488     3511     3558 
    3626     3682     3721     3766     3815     3865     3917     3950 
    3948     3932     3928     3948     3989     4017     4031     4044 
    4058     4067     4074     4064     4032     3998     3964     3923 
    3890     3866     3828     3809     3809     3796     3774     3735 
    3650     3557     3476     3399     3342     3303     3261     3217 
    3159     3100     3057     2990     2872     2751     2673     2627 
    2575     2488     2376     2273     2207     2182     2151     2046 
    1884     1732     1606     1509     1451     1412     1355     1282 
    1204     1104     1000      908      799      676      579      499 
     415      352      305      259      222      194      144       54 
     -63     -167     -244     -302     -348     -391     -432     -453 
    -461     -491     -546     -615     -689     -750     -812     -873 
    -901     -901     -896     -895     -908     -918     -922     -946 
    -987    -1026    -1051    -1062    -1053    -1030    -1008    -1000 
    -992     -985     -993    -1000    -1005    -1008     -980     -940 
    -913     -881     -835     -778     -715     -679     -672     -677 
    -656     -602     -549     -500     -448     -400     -348     -292 
    -248     -209     -171     -151     -151     -149     -136     -125 
    -105      -58      -18      -18      -29      -18      -25      -75 
    -120     -144     -175     -198     -212     -249     -276     -271 
    -291     -352     -419     -496     -566     -596     -612     -643 
    -666     -676     -697     -745     -800     -854     -899     -929 
    -957     -996    -1043    -1069    -1053    -1026    -1015     -999 
    -976     -961     -961     -985    -1000     -978     -939     -897 
    -855     -818     -765     -684     -594     -529     -493     -463 
    -418     -378     -342     -288     -206     -102        2       78 
     125      167      211      263      310      349      410      486 
     552      610      670      739      788      800      807      827 
     862      920      994     1067     1128     1183     1230     1251 
    1266     1282     1293     1317     1366     1409     1435     1466 
    1509     1552     1598     1637     1645     1641     1649     1652 
    1653     1682     1710     1719     1742     1771     1773     1781 
    1807     1807     1794     1790     1780     1763     1746     1742 
    1755     1775     1788     1781     1752     1721     1696     1661 
    1638     1640     1638     1630     1630     1626     1613     1593 
    1556     1499     1429     1370     1329     1302     1285     1271 
    1251     1217     1162     1089     1005      908      822      760 
     689      608      537      473      429      386      314      233 
     133       40      -29     -122     -209     -249     -309     -388 
    -446     -513     -594     -658     -720     -793     -853     -901 
    -949     -987    -1034    -1100    -1167    -1209    -1239    -1297 
   -1364    -1420    -1462    -1479    -1498    -1534    -1552    -1543 
   -1528    -1533    -1559    -1575    -1588    -1610    -1622    -1636 
   -1653    -1636    -1601    -1566    -1520    -1489    -1475    -1464 
   -1471    -1497    -1509    -1494    -1457    -1413    -1368    -1323 
   -1278    -1233    -1197    -1185    -1196    -1178    -1128    -1094 
   -1073    -1034     -986     -919     -845     -807     -799     -795 
    -783     -743     -689     -646     -592     -533     -498     -464 
    -422     -376     -315     -255     -212     -174     -121      -55 
      31      121      205      289      378      475      565      630 
     699      784      869      965     1059     1133     1224     1358 
    1497     1601     1684     1775     1854     1918     1998     2087 
    2174     2281     2392     2471     2546     2629     2694     2749 
    2810     2855     2893     2953     3024     3082     3134     3191 
    3232     3261     3276     3269     3260     3275     3314     3348 
    3364     3376     3388     3395     3388     3354     3303     3265 
    3237     3213     3204     3196     3180     3188     3213     3198 
    3144     3114     3082     3028     2997     2975     2940     2918 
    2903     2863     2821     2816     2825     2805     2783     2754 
    2688     2647     2627     2578     2535     2521     2513     2505 
    2493     2450     2385     2340     2316     2284     2241     2193 
    2142     2101     2072     2033     1980     1930     1877     1802 
    1715     1641     1586     1548     1509     1467     1421     1359 
    1282     1189     1081      984      907      849      799      728 
     642      575      523      475      421      338      243      155 
      79       17      -32      -71      -99     -129     -162     -201 
    -270     -332     -368     -409     -433     -430     -445     -467 
    -480     -503     -531     -550     -562     -576     -594     -589 
    -568     -553     -546     -538     -518     -476     -427     -403 
    -394     -383     -367     -351     -346     -322     -255     -197 
    -156     -103      -47        5       44       51       58       85 
     102      120      156      184      203      246      310      359 
     383      387      378      383      403      407      414      446 
     472      479      481      480      483      502      513      506 
     508      532      565      576      579      594      611      635 
     654      652      653      654      668      711      746      761 
     803      846      845      824      814      799      803      830 
     824      795      808      855      890      912      913      905 
     903      885      841      827      854      884      903      924 
     936      943      963      982      984      980      990     1012 
    1021     1011     1015     1065     1131     1170     1173     1150 
    1131     1135     1158     1181     1192     1202     1232     1264 
    1279     1282     1273     1252     1239     1227     1190     1155 
