Origin Time       2016/04/16 01:25:00
Lat.              32.753
Long.             130.762
Depth. (km)       12
Mag.              7.3
Station Code      MYZ001
Station Lat.      32.7050
Station Long.     131.3089
Station Height(m) 370
Record Time       2016/04/16 01:25:14
Sampling Freq(Hz) 100Hz
Duration Time(s)  300
Dir.              E-W
Scale Factor      7845(gal)/8223790
Max. Acc. (gal)   186.972
Last Correction   2016/04/16 01:25:14
Memo.             
[...]
   12453    12452    12448    12449    12453    12455    12449    12449 
   12453    12452    12449    12449    12451    12453    12456    12455 
   12451    12449    12453    12452    12448    12452    12456    12453 
   12451    12453    12455    12452    12451    12455    12456    12452 
   12449    12451    12451    12451    12452    12452    12452    12456 
   12455    12452    12452    12453    12451    12447    12449    12455 
   12456    12453    12452    12451    12452    12455    12453    12449 
   12452    12453    12452    12449    12449    12452    12452    12453 
   12451    12451    12455    12453    12451    12452    12455    12452 
   12451    12452    12452    12452    12453    12453    12452    12452 
   12452    12452    12453    12456    12453    12448    12449    12453 
   12453    12452    12452    12452    12452    12451    12449    12448 
   12451    12453    12453    12455    12456    12452    12453    12455 
   12452    12449    12451    12451    12452    12453    12453    12456 
   12459    12459    12463    12464    12465    12472    12482    12490 
   12494    12499    12507    12515    12525    12536    12553    12571 
   12587    12614    12649    12679    12699    12700    12675    12641 
   12626    12642    12647    12602    12534    12523    12604    12717 
   12731    12622    12521    12533    12592    12577    12456    12260 
   12101    12154    12409    12544    12401    12320    12499    12513 
   12122    11735    11592    11693    12102    12406    12206    12029 
   12175    11961    11250    10952    11476    12181    12596    13004 
   13398    13063    11796    10640    10701    11591    12236    12789 
   13892    14773    14088    12414    12117    13705    14486    13154 
   11830    11207     9927     9055    10215    12713    15408    16565 
   15627    15214    15520    14451    13419    13325    12291    10345 
    8348     7657    10817    15564    17073    16889    17720    17014 
   13942    11462     9720     7269     5676     6381     8509    11886 
   15651    16760    14508    11232     9452     9801     9906     9873 
   11894    12556    10411    11006    13937    14161    13572    13776 
   12290    11578    13660    15284    16780    18412    15642    10343 
    9047    10635    11607    11865    11781    13217    15512    16011 
   16975    17452    13124     8492     8395     9388     9428     9917 
   11426    14786    18384    17950    13905    11020    10678    10588 
    9828     8849     8520    10015    11912    12183    12129    12995 
   13788    13261    10987     8352     7356     8986    12594    14030 
   11766    11415    13888    14531    14449    15272    15160    14231 
   12213     9829    11026    13770    13188    12668    14566    14835 
   13420    12168    10712    11011    12418    11002     9057    10250 
   11558    10453     9898    10277     8726     7933     9190     8185 
    7369    10517    13124    13950    15632    15408    13398    13697 
   14052    13207    13933    13792    11229     8418     5653     6365 
   12117    15665    14505    13518    12717    10312    10296    14752 
   17945    16926    14615    11068     7981     9720    13116    14418 
   15093    13227     9151     9030    12121    13950    15542    17147 
   17501    18615    20574    19592    16020    13648    11034     6686 
    5686     7920     6639     4877     8332     9736     6805    12722 
   28109    33868    24274    15264    12972     8232     2513     2412 
    3180     4783    12534    17849    11514     2926     4371     9586 
    8977     9212    12294    11222    10224    10520     7258     7340 
   14229    18640    15813    10200     7668     7977     6988     7815 
   15588    23575    22578    16848    13909    12914    12658    12306 
    9814     8912    13751    22053    27877    25374    16416    10092 
   10211    11549     8397     4785    10060    19452    16972     4143 
    -884     4014     5873     4162     6118    10921    14945    16443 
   13621     7909     8006    17648    23178    16444    11576    17271 
   21554    14307     4384     4200     8953    12647    17377    14238 
    1723      178    11931    16672    13802    15664    15383     7682 
    4545     6050     5324    12031    26836    30267    21161    16900 
   14976     5077    -1953     1803     7425    12420    15979    12163 
    6980    12033    24513    27962    15218     2338     2236     3258 
   -2600     -886    11144    14112     6945     7468    12779     7164 
   -2458    -1658     6016    16177    28282    32617    21481     4687 
   -2004    -3650    -7927     3161    27386    31202    16416     9837 
   11951    13147    14821    22763    33628    33994    22386    11554 
    7919     8787    12100    10939      -40    -4862     5493    14544 
   15830    16776    19548    21589    20282    18462    17887    15059 
   11469    11342    14175    14295    10514    11059    10876     -621 
   -8482     -900    11021    24070    34334    23178    -2205    -9459 
   -1009    -4441   -11445    -2849     2844    -6944   -11880    -5302 
    -660     3018    13907    26904    34874    35075    30924    29542 
   25714    17686    13174     7963     1603     3042     9667    12488 
    8650     6323    11682    15079    15331    23776    36537    39066 
   27822    17782    17907    11735    -3740   -13963   -25370   -35272 
  -22404     1868    10806     9367    20214    40995    45561    36505 
   35935    32031    16275    13890    21940    11857    -4139    -2899 
     923    -1497     5590    21871    29810    22882    15199    20657 
   25392    14135     3402     1638    -8012   -19764   -14246      777 
    7179    -1355   -15475   -13768     9154    34279    47482    50188 
   43205    22392     -783    -4348     2396    -2528    -8262    -8013 
  -13601    -9670    12202    20424     9938    11048    23363    27768 
   33332    42583    31260     9732     5343     1216    -4395    18242 
   49696    51547    32398    15873     3426   -11888   -18734   -12401 
  -12839   -14041    -2673     4492    11835    29478    37737    36830 
   36795    23882     3901      473     2650    -8954   -14904     -677 
    7369      105     4533    21528    32960    47413    58035    41355 
   23868    29681    28945    13177     3277     1324     5344     7231 
   -2992    -6482    11279    30500    34801    30825    23141    11011 
    5124     5888      622     1657    12532     5363   -12887   -14489 
      11    28040    54056    49428    27376    21111    27243    20919 
    1433   -12700   -17459   -15684    -7626     1934     8764    11449 
   21709    45700    53099    36936    36720    44374    25851     5539 
     338       32    14615    21436    -3407   -19155   -11758   -10933 
   -6358    16704    34942    38400    43848    43094    18223     2894 
   14883    11337    -3051     2635     4403    -2791     -621     2600 
    9413    23337    33076    40194    39752    19067    -3697    -9529 
  -15614   -16633    10996    32468    21610    12008     6030    -9842 
   -9269     9718    18963    20846    31420    38842    26649    15531 
   26734    39771    35977    22441     5481    -3298     5363     6929 
  -11007   -14154     8487    28331    36946    40817    34942    21128 
   13343    10856    -2617   -20214   -23677   -17725    -4716    10328 
    6030    -4658    10675    34690    39691    42125    46049    32688 
   13795     4855     5857    13429    15680    18301    30122    37296 
   31438     8969   -21146   -30188    -9312    30730    64224    56725 
   34722    41531    31518   -14697   -22925     3079     3555     8753 
   30634    15169   -19299   -22569   -10064      689    19782    40306 
   51827    61726    58260    25369    -1676     -184      585      657 
    9367    -1953   -30063   -38430   -26859   -18374   -14139     5530 
   35321    44720    40428    46133    51339    45316    34099    21844 
   20387    30195    25621    10615     9941     6431   -11983   -18621 
  -11747   -13537   -12561    14466    38889    19105   -18666   -28682 
  -21500   -21709   -14341    10478    23170    15992     9508     2758 
    5409    31070    49185    40880    26414    12472    -3659   -10700 
   -4405     2990     5900    19857    52710    78846    79114    65915 
   47688    30608    31650    42593    39772    36937    51020    50818 
   19572    -9771   -18597   -17018   -17845   -24599   -23449   -11389 
   -3984    -6856   -16677   -20466    -9828    -7858   -21697   -20958 
   -6327     -518     9471    25554    18631     4523    22756    50781 
   47031    31085    37407    53046    59235    51935    24120    -1944 
   -6837   -19693   -41300   -37694   -17377    -2636      708    -4353 
    5055    24528    26184    24741    30231    26812    27630    35124 
   27450    18496    25506    31153    27452    25857    24849    17732 
   15272    17740    10327     6326    16298    20911    20745    26037 
   30357    30202    21550     7588    -1350   -11743   -29049   -40190 
  -33423    -9283    23519    39607    23224     4529    -4079   -26226 
  -40254   -25350   -12108    -3084    13795    21573    24601    36803 
   46435    47733    45489    38475    33084    34605    28158    12145 
   10374    23938    27669    18449    14651    10659    -4889   -12471 
   -1722    14553    28505    32077    24069    16955     8494   -12966 
  -29872   -20520    -2470    10324    30426    46786    41824    34414 
   32998    18886     8669    22403    22850     1051    -6092   -13281 
  -32637   -27359     -186    21979    41850    59976    70586    68372 
   41628     2489   -17253   -19633   -26325   -29944   -18301    -6701 
  -13716   -27788   -17162    18570    40323    34317    38959    63198 
   50839      -23   -26327   -31475   -40423   -28638      237    22150 
   46130    80455   109093   112819   102334    97109    84302    61403 
   46908    30327     2043   -17976   -23180   -28206   -38942   -45511 
  -38662   -19164     5050    15632    10091    11516    11426   -12684 
  -34674   -39506   -55304   -74266   -68056   -47348   -21863    19467 
   68655    89113    66680    50463    66965    64373    36313    33205 
   40679    34951    34341    30487    21655    26958    33997    31216 
   25714    25743    37793    46089    37296    30588    25898    -5485 
  -51370   -76450   -89634  -100360   -85104   -45698    -3798    35256 
   67143    83945    74110    42364    20707    12424     -496    -7665 
  -11641   -25564   -25744    -4872    13221    27745    42302    57316 
   83641   113888   132258   131337   114332    98416    74649    31622 
      27   -12862   -25173   -21910      634    12122      842   -18874 
  -33951   -43498   -55852   -70837   -83284  -102361  -118336   -95666 
  -43973   -12021    -6608     3256    17288     8305    -4537    16540 
   42342    49576    81634   128040   128115   102903    90066    67443 
   40409    31928    27896    25338    26561    24497    32211    50191 
   61669    63992    55174    42153    36289    26715    12857     6065 
   -5424   -24996   -40186   -59899   -91627  -116833  -123849  -123885 
 -115812   -79284   -20966    35145    88573   126721   116307    72910 
   53875    65477    57507    24038    15541    37544    54594    71243 
   96323   108321   100453    81546    64875    54317    35270     8587 
  -22354   -58356   -81652   -92184  -108761  -127754  -135783  -128588 
 -110363   -95623   -90771   -81967   -63228   -47788   -32030     7414 
   69421   124309   133902    84489    34885    42838    62252    51390 
   60409    89499    86594    82040    96329    95980    81001    48926 
    9771   -13360   -45843   -90478  -104997   -73049   -22408     -619 
  -18870   -42101   -51761   -63594   -76944   -64829   -38367   -37095 
  -40756   -11389    26767    50616    79251   107044    91501    33821 
  -12345   -30296   -54711   -91277   -99339   -81167   -72288   -52166 
  -17383     5148    54313   131124   147113    95662    73186    96286 
   78921    10481   -29808   -22181   -14519   -24779   -19178    16937 
   49033    68097    97957   118091    90775    37918     3618   -19419 
  -51283   -69603   -63833   -53272   -34599   -13591   -18746   -37806 
  -37142   -15573    24314    99227   179815   194394   155641   138196 
  142384   123593    88962    65275    39598    13018     7456     6169 
    7493    18501     7639   -16920   -14871    17199    54090    66077 
   54915    39309    17637     -359    -1483    -2057    -9736   -19666 
  -32994   -40983   -47772   -65681   -88182  -115325  -145284  -160998 
 -158182  -140382  -105494   -62430   -41031   -54760   -67132   -51626 
  -31633   -13923    21201    62514    78003    61639    49454    77638 
  123788   146697   159930   179200   170345   132433   106012    87993 
   66433    52942    37991    17474     8477     9173    12710    22391 
   27973    19230    13386    20367    18415     7935    16433    33960 
   28435    -7523   -68269  -124603  -143218  -154020  -181126  -174148 
 -117321   -56471    -4210    48712    93580   120914   124904   105055 
   76603    72295    94952    82644    20659   -19278   -25143   -27612 
  -11990    16991    44112    70816    82972    79456    73750    74160 
   76701    66856    50206    33696     7171   -22297   -39255   -49928 
  -63796   -78829   -93001   -99455   -89274   -73731   -73990   -90680 
 -100579   -80825   -37150    -2434      776   -14607   -28790   -44288 
  -55258   -43758   -21024     -440    23981    45108    56309    57449 
   39804    18054    30376    83640   143985   185890   208473   199058 
  147325    86069    48451    22041   -16576   -53924   -65535   -68164 
  -80430   -87160   -86544   -99665  -124695  -138647  -147162  -161489 
 -162972  -143831  -105248   -54246   -25378   -22277    -5923    28439 
   51690    50863    35337    25635    35891    62262    86296    95995 
  109965   135976   145412   138919   142821   142175   119506    98910 
   90976    70530    23471   -27464   -52828   -59919   -75745   -92852 
  -83523   -56683   -29408     8881    45418    46036    20772    10654 
   11176   -12253   -40389   -43401   -43113   -51921   -50485   -21570 
   39950   111527   159553   174298   166072   151904   126727    83787 
   64114    76002    81376    87298    92647    82570    74286    59833 
   40131    35943    26990     5643    -8500   -18157   -35164   -67027 
 -109671  -137663  -137550  -129652  -135509  -148798  -143689  -102003 
  -32715    26404    39330    17725     3235    12460    26581    11399 
  -29018   -35877     9391    59116    92353   121900   136545   122998 
   99399    82660    68173    55178    50581    53715    64147    83980 
  103783   107265    91397    70710    51983    25748    -1869   -20163 
  -41332   -63067   -67370   -59940   -48749   -34238   -33070   -50876 
  -54464   -23539     8863    17397    22300    31118    27544    19533 
   20443    18395     7021    -2415    -1196    16966    51089    79789 
   91270   103774   122323   129525   126870   124845   113996    86776 
   55830    36907    32202    27814    15786     7981     4192   -11927 
  -33500   -37728   -25307   -20707   -33967   -44425   -39610   -35684 
  -42888   -46230   -26718     9709    34630    39028    41234    47009 
   51405    53936    43814    26114    29662    53117    76671    99813 
  117301   119311   112182   103813    91234    68953    42830    22848 
    9563     2338     -114      676     6115     7865    -2774   -17018 
  -25600   -32516   -35473   -25014    -9791      696    15079    30917 
   34965    26170     6542   -23649   -55015   -69527   -63309   -52705 
  -36509    -5433    24270    52220    83820    87841    66206    59012 
   67362    76426    81351    74761    62122    50653    36379    20991 
    9061     3970     8467    13081    10262     9003    12667    15599 
   20322    29157    37860    38126    22339     5312     3279    -3547 
  -21975   -21597    -4852    -1208     -619    19662    46778    59325 
   59337    54043    41777    31951    40459    56744    61904    62384 
   61873    52897    42510    32479    17867     8799     6968     4271 
    5741    12530    13452     2982   -14887   -32829   -43703   -43399 
  -34361   -23595   -14195     1694    31179    57781    64698    67778 
   79743    83486    73014    64821    52988    22675    -3271   -10673 
  -20607   -28733   -19586    -7110      832     9568    19188    34380 
   51945    50660    27449     9655     8739     6812      900     3524 
    8110     9275    20841    42770    58293    60018    49210    31577 
   13594    -3761   -13608    -8143     3842    14806    29408    42018 
   38696    20029      280    -9811   -12259   -11950   -10546   -11735 
  -11287    -3240      596    -6147   -10574    -7358    -2424      889 
    2408     2446     1707     3925    10129    15417    19006    19045 
   10183     2076     8201    16476    10836     6285    14018    13544 
    2376      677     5401     4498     1194     3711     9236     1583 
  -21563   -44308   -59340   -68384   -72380   -65308   -38334    -3335 
   18002    27070    33789    31394    15445     1213    -2141    -4523 
   -9659    -9005      747    10073     8939     4329     6166     7474 
    2392    -2243    -5354   -11781   -17015   -15734   -15213   -23391 
  -31591   -26688   -15148    -9443    -3847     4725     2766    -7555 
   -9653    -7418    -8197    -1881    10570    15939    16205    19175 
   21459    17749    11373     6367    -1147   -11570   -20607   -32148 
  -43960   -43298   -33893   -29870   -32594   -35128   -31093   -22167 
  -14354    -3898    11018    21778    26801    28020    19788     4664 
   -2671     1073     3258     1544     5223    12037    18856    29041 
   33153    22415     6604    -2776    -4378    -5954   -15153   -24718 
  -23304   -12231     3203    14270    10273     -693    -5529    -8978 
  -11732    -7618    -8135   -20216   -26015   -18597   -10400    -4806 
    3275    14617    22142    20908    20866    28138    31525    25654 
   17122     8929     2569     1665     5919     7045    -4630   -21566 
  -27547   -25263   -24973   -23148   -13398     1669    17026    29072 
   35116    36150    31479    18731     5260     -760    -3163    -2764 
    8063    26117    39829    46618    46430    35577    21511    19172 
   25924    29551    31202    33527    30713    21172     7858    -6276 
  -16886   -23101   -26165   -25361   -21026   -12885     -189    13756 
   25015    32886    35391    32143    28637    27954    31689    40223 
   47989    54074    59292    56741    44923    31887    22977    17023 
   12054     9171     7712     6029     9753    21770    30415    27679 
   23396    23041    15835    -1278   -17362   -26001   -25655   -15129 
    -248    12694    27772    46741    58941    58185    51840    48662 
   51381    56733    58541    55227    50660    45864    39175    32549 
   27210    21637    17393    16857    16371     8075    -6494   -14809 
  -14029   -12537    -9545      831    13360    21749    29563    38296 
   42874    41391    38762    41238    44537    39637    33434    34983 
   36868    36490    41639    47937    45130    35518    24722    12312 
   -1962   -15944   -24861   -23851   -14600    -2098     9693    16619 
   18426    18073    14358     8604     9755    17381    20648    19213 
   21509    30090    38449    40716    42581    47979    51189    51446 
