Origin Time       2016/04/16 01:25:00
Lat.              32.753
Long.             130.762
Depth. (km)       12
Mag.              7.3
Station Code      MYZ008
Station Lat.      32.1060
Station Long.     131.3928
Station Height(m) 65
Record Time       2016/04/16 01:25:22
Sampling Freq(Hz) 100Hz
Duration Time(s)  300
Dir.              E-W
Scale Factor      7845(gal)/8223790
Max. Acc. (gal)   160.819
Last Correction   2016/04/16 01:25:22
Memo.             
[...]
     830     1644     1888     1674     1424     2007     2945     2681 
    1825     2896     5656     6119     2691     -421      430     3667 
    5813     4992     2201     -880    -4260    -6606    -5598    -1534 
    3919     8671    10426     8117     2374    -3080    -4174    -1679 
    1109     2085      739    -1431    -2550    -1781      561     2957 
    4270     4392     3501     2015      246    -1571    -3142    -4482 
   -5424    -4365     -268     4195     6299     6377     5216     3967 
    2974      895    -1012     -846      -97      171      329     -602 
   -2527    -2060     3071     9904    12935     9572     2813    -2243 
   -4013    -3207     -305     3319     5613     4865     1744     -669 
   -1075     -199     1328     2624     3954     6423     8133     5987 
     236    -6087    -8730    -5768    -1270      564     1416     3501 
    4549     2215    -1483    -2466      598     5268     8650     8914 
    4824    -2721    -9633   -10654    -4029     5057     9402     7492 
    2569    -1660    -3014    -1513     2457     7011     8186     6066 
    3213    -1100    -5887    -7852    -6839    -3223     2481     8195 
   12843    13320     6581    -1921    -4148      832     7755    10114 
    6394      459    -5242   -10180   -12398   -10183    -4067     3034 
    8406    11294     9421     2003    -5205    -6644    -2636     2932 
    6529     7480     5348     -886    -7542    -8272    -3485      637 
    1078       -5      822     3192     3816     3898     5614     5919 
    3566      999    -1125    -2633    -3026    -2921    -2421     -770 
    3126     9983    16328    15923     7519    -3549   -10274   -10579 
   -8388    -5402      344     7584    11476     9161     3807       16 
   -2808    -4529      992    16206    30501    27862     6469   -16595 
  -26144   -24030   -18866   -12198    -1637     8858    12468    10289 
    7782     7794    11214    15196    14419     5644   -11001   -27858 
  -31294   -16147     5613    17727    18671    17859    18242    14906 
    4989    -6917   -13105   -11680    -7242    -5989   -10083   -13938 
  -10926     -818    11448    20416    24321    22427    12188    -4594 
  -20811   -29639   -25512    -7376    16486    32516    31626    17220 
    2496    -5051    -9146   -12837   -13902   -11286    -7707    -5363 
   -1383     7670    19021    24908    17747     -603   -16330   -20965 
  -19423   -16159   -11858    -6934     2228    17851    33629    37597 
   23103      747   -14694   -20841   -18640   -11308    -6413    -4492 
   -1714     2390     5849     6060     5589     9841    15500    13219 
    1648    -9981   -11838    -1422    13852    21693    17095     6050 
   -2151    -5036    -8553   -14801   -18554   -16694   -10908    -6330 
   -4306     2448    17451    33813    42103    37859    24729     6697 
  -16220   -38119   -48899   -43831   -26258    -6214    11762    28029 
   35610    30766    18999     7959     3392     -970   -13423   -24725 
  -21906    -6635     9655    19230    24248    26642    19214     -854 
  -20852   -27616   -21693   -11813    -4217     2737    13676    26530 
   33705    31206    20671     5919    -9873   -23982   -29806   -22095 
   -7851     2355     8943    15844    18928    14150     6384     1320 
   -1410    -6033   -15753   -24533   -21072    -5300    10806    17486 
   15002     9491     5778     3538     -535    -5563    -7430    -5073 
    -610     2556     1982    -3488   -11688   -14354    -6596     6349 
   18061    25489    25037    15515     2327    -7622   -12141   -14721 
  -19041   -19836    -8895     7820    16071    13852    10092     8865 
    6173     1713     3242    11313    13537     3665    -9767   -18073 
  -21149   -20900   -14484     -344    12731    16220    12839     6779 
    -846    -5994    -4590     -695    -3674   -14624   -24889   -26612 
  -17474    -1023    18424    37054    44919    34523    12749    -7642 
  -21396   -32058   -40791   -39637   -23935    -2001    15736    26890 
   33368    33718    23032     4576    -8176    -7418      493     2872 
   -3495   -10116   -10886    -4438     7263    16468    18424    13984 
    4345    -4646    -7264    -7034    -6319    -1799     5320     9653 
    8144     3584     2346     5382     8883    11601    12564     9625 
    2346    -8884   -19178   -20121   -12587    -3932     2648     4202 
     186    -2261     1944    10382    18141    21516    21323    20819 
   20677    18619     9892    -6200   -20961   -26289   -21737    -9401 
    6763    20275    26606    23164    10743    -3688   -14129   -19294 
  -18825   -13390    -6687    -2323     2879    12734    21741    25158 
   25766    23980    16949     3049   -16279   -32815   -38207   -31962 
  -18123    -3186     7017    11067     9171     3643    -1807    -7381 
  -12518   -11635    -3114     7832    17024    21289    15889      712 
  -15954   -23500   -18445    -6226     5476    13346    19820    24633 
   21208     8858    -2795    -5744    -3109    -4479   -13356   -22779 
  -24676   -19150    -8863     4619    13699    13639    10795     8233 
    3257    -3581    -9837   -12024    -8428    -2384     3443     9281 
   15525    20491    19579    11053    -2196   -15226   -21029   -19203 
  -15121    -7703     2992    12019    19398    25594    28262    25149 
   14249      946    -6654   -11113   -14241    -9501      -62     3604 
    2157     2450     7411    13981    15222     8991     -972    -9424 
  -12898   -13531   -12172    -4972     6281    14527    18202    21913 
   25520    21583    10542     2673     1736     3842     4459     -201 
   -7528   -10543    -9694   -10970   -13725   -11809    -4327     3520 
    6821     5362     3732     2693    -2976   -11438   -14721   -11673 
   -5614      566     4889     8224    11630    15221    17547    14386 
    4509    -8147   -17842   -20931   -20363   -20783   -21359   -18455 
   -9826     3100    15924    25327    30113    31093    28552    18733 
    2182   -11605   -18162   -20078   -15624    -4252     7528    15469 
   22316    30858    34852    24664     3904   -15171   -28665   -38119 
  -42379   -39553   -29203   -13155     4167    16326    19850    20171 
   23660    26690    20371     3302   -12622   -14771    -5096     6400 
   12498    10639     5268     1831     -210     -463     3628    11524 
   20876    24642    15747     -140   -12876   -18092   -13791    -4629 
    1337     4865     8612     9675     6453     1683    -1256    -2579 
   -3835    -4688    -6211    -7635    -4729     3057    13686    23213 
   25089    20733    18177    16995    10594    -2563   -17856   -27106 
  -25620   -17015    -6666     1903     5571     2088    -7614   -14260 
   -9000     1404     6716     7296     5098     1120    -2146    -4592 
   -4881     -141     6129     6910      391    -8811   -12996    -9687 
   -5564    -4153     -538     5742     9128     9405    10235    12880 
   15275    12625     4961    -2358    -7723   -12731   -16483   -13869 
   -3210     7495    10971     9213     8522     9591     6186    -1836 
   -7506    -8985    -8137    -4656     2577    10066     8337    -2683 
   -9096    -5439     -537     -670    -2876    -1286     4407     9761 
   13659    17882    20274    15325     4118    -4069    -3669     3805 
   14351    21999    23805    23523    23893    20525     7258   -14280 
  -32678   -36925   -30204   -26589   -29347   -24489    -2863    23674 
   36903    34133    26032    18540     9066    -1421    -6008    -3592 
   -1979    -6608   -14666   -20101   -19093   -11663     1216    17143 
   27311    22350     5786    -7447    -9359    -6434    -6952    -8692 
   -1848    13129    21980    17064     4060    -7623   -13166   -16783 
  -22882   -27796   -25655   -16121    -5246     3127    10876    17078 
   18119    14970    10636     4941    -2905   -11043   -16179   -14434 
   -4523    10002    25180    35017    31305    15768    -1890   -15781 
  -19494    -9293     5521    14704    15277     6355    -6319   -11706 
   -3890    11157    19244    16613    12630    10874     5174    -8648 
  -25281   -34315   -30199   -16668    -3981     1611     3269     5086 
    7454     9344     8023     1008    -9134   -15754   -14395    -5498 
    7376    18161    20636    16621    15295    18211    17413    10031 
     275    -7925   -11769   -10540    -6025      587     6625     6475 
    -257    -6300    -7244    -5476    -2671     2111     7258     8494 
    3393    -5321   -11929   -14125   -12237    -5965     3542    12962 
   17244    13382     4159    -5954   -13354   -15844   -15604   -16225 
  -15969    -9000     4981    17963    21852    13539     -610    -5514 
    2381    10137    11236     9925     9508    10058     7353    -1275 
  -10015   -12710    -8253      463     6542     4388    -7088   -21208 
  -22006    -4054    14800    16777     4017    -8863    -9999    -3167 
   -1003    -2567     2668    14519    23634    23622    15457     5841 
     789     1622     6667    11267    11342     6933    -1725   -11411 
  -16903   -19800   -21240   -16833    -6801     2768     6999     6577 
    6278     8910    13915    17651    16179    10646     3226    -5331 
  -13905   -22662   -27131   -20086    -4509    10681    19126    17856 
   10733     2436    -6295   -10854    -8118    -3782    -2177    -2521 
   -2702      437     6581    13439    20842    25293    21728     9251 
   -8193   -21689   -25438   -22238   -17361   -13190    -6936     3754 
   13645    17940    19364    20731    19348    10989     -868    -5668 
   -2513    -2280    -9814   -17263   -14871    -3935     6669    11990 
    9788     1903    -3894    -5229    -4518     -638     4968     7803 
    7759     6581     5734     6994     9678    12638    14848    13271 
    8203     1948    -7723   -18327   -19815   -12771    -8920   -10809 
   -8757     4734    22185    26904    15126     -864    -7798    -3595 
    -568    -5356    -8104    -5027    -4155    -6988    -5390     5086 
   16004    15758     4314    -9217   -16131   -13356    -5464      348 
    1325    -2365   -10937   -20448   -22740   -17015   -10300    -4332 
    3796    14634    25569    27857    17725     6829     3937     6678 
   11439    13057     9221     2475    -7188   -14899   -11429     1686 
   15823    23409    20640    12641     3327   -10488   -22885   -22141 
   -9763     4140    14404    22712    26661    14567   -13594   -38897 
  -47140   -40676   -30483   -22874   -14844    -4506     5472    12503 
   14862    13058     9780     8291     8171     4278    -3904   -12868 
  -21955   -27630   -24560   -14412    -2867     7526    18307    28925 
   34497    31945    20684     4283    -8976   -17706   -24661   -25039 
  -17952   -11975    -9742    -6255     1939    13790    23576    25266 
   16579     -379   -18868   -31141   -33666   -29863   -25760   -20711 
   -8896    10076    29153    41747    46921    46712    39037    17375 
  -16740   -47285   -56160   -40455   -15103     3794    13606    18816 
   19417    15202    12468    13794     9795    -5908   -21867   -21564 
   -3960    17524    29875    31495    30240    28807    22393    10010 
   -8143   -31334   -48883   -49214   -33180   -11460     3994    12486 
   22214    30125    26642    15155     5877     2397     -255    -9563 
  -22532   -27668   -22145   -11496      866    12259    18859    19539 
   16627    14447    16313    18924    16343    11553    13126    23735 
   37257    40594    26800     8228      561     1611     1098        0 
    6725    19461    22545     3636   -29026   -54369   -61605   -54368 
  -36706   -10488    16337    32859    35784    33033    34465    34214 
   18802    -6716   -27279   -36832   -34123   -21699    -4727    13744 
   25783    26712    27271    31988    32146    27109    19271     6426 
   -6777   -13684   -14125    -8604      319     4989     3569     2322 
    3631     6460    12538    20586    21654     7358   -19669   -45754 
  -55833   -46560   -27936   -10164     1387     3546      288     -210 
    1776     -180    -6929   -11488    -5726     7045    11542     3500 
   -5227    -7562    -1788    12337    22493    14401   -11483   -43764 
  -63794   -59460   -39949   -16714     9348    32983    46730    52681 
   52073    37802    10450   -16398   -32224   -34344   -25594   -13626 
   -2377     7709    13149    11055     3430    -3250    -4773    -4033 
   -2740     2419    11888    21026    25558    24255    14462    -9672 
  -46785   -83647  -103219   -92055   -53198   -10750    15388    27012 
   31257    27668    15121    -1818   -13799   -14400    -6301     2688 
    4936     -490    -3632     3902    15947    22081    22214    21784 
   20964    13309    -3792   -17706   -13167     4932    20054    26946 
   29770    29451    25961    24397    26738    26266    20181    13123 
    4642   -10795   -31899   -47691   -49916   -43105   -35407   -26507 
  -10399    14972    42907    61618    64450    55275    41868    27689 
   10909   -12178   -39923   -62191   -70455   -62650   -37983    -1444 
   32795    54850    65618    64794    49928    23707    -9813   -43303 
  -64666   -69238   -61549   -44639   -21799     -734    18516    44633 
   72770    81932    61501    26190    -2332   -22526   -46410   -73140 
  -90213   -89185   -65426   -23002    18014    40122    42082    33961 
   31423    39934    50502    52111    34638     -719   -34057   -47133 
  -34418     2016    48116    86089   106489   101709    69633    15194 
  -54737  -116743  -140238  -122509   -83964   -37589    18146    82059 
  138623   169668   167069   134948    85854    28524   -29168   -74362 
 -105718  -120711   -98859   -41038    25520    85919   127242   132563 
  107684    70615    24769   -32867   -88720  -117159  -109433   -83172 
  -61550   -50961   -38399    -7419    41666    87215   109652   110737 
   96731    64109    15634   -34391   -76947  -108929  -120534   -99619 
  -49216     7905    46638    58650    53414    40235    19858     -383 
  -11124   -16938   -22512   -24772   -22855   -20501   -24417   -32825 
  -30164   -11466     7809    18551    24935    29141    34387    42920 
   47102    44316    41910    37530    18727   -17587   -58014   -87226 
 -101331  -100217   -80871   -42763     7136    53950    82549    82800 
   54332    17817    -4003   -19634   -43092   -58581   -51066   -28138 
    -538    21805    32474    33949    29608    22850    14898     1514 
  -19241   -40718   -49590   -40248   -21006     1422    23255    36138 
   39655    40235    35056    18850    -6064   -26636   -26109   -12727 
  -12970   -27831   -36792   -31895   -17849      642    22756    49964 
   74147    80704    64353    26514   -23304   -63937   -83563   -88735 
  -88492   -84431   -67662   -27402    29326    78428   101946   101004 
   83315    48359     -352   -42699   -63396   -66075   -55873   -32418 
    -340    28308    41025    33756    14264    -8527   -28706   -34632 
  -24470   -16293   -20830   -33486   -41527   -26439    12555    55787 
   88657   101116    85990    55046    28547    10812    -5977   -24317 
  -34749   -26570    -3727    23700    50815    65939    59138    42445 
   30491    21494    10002    -6158   -27996   -52035   -71766   -81054 
  -73206   -46346    -7438    37135    80241   102925    89741    48942 
    2178   -31089   -40312   -34288   -32652   -39621   -48435   -56246 
  -55333   -38361   -11121    15445    34940    48887    56277    47260 
   20974   -10114   -29995   -27205   -10187     1034     1530    -2292 
  -10821   -25269   -36180   -32077    -9767    22960    48886    57912 
   56056    49586    38496    24204    10415     2380     2369     4200 
     767    -9452   -24314   -37975   -42682   -33699   -12783    15518 
   48968    80222    92017    70432    21614   -31299   -72176  -102323 
 -123527  -128158  -108546   -62259     6035    78390   132113   159283 
  161889   138132    88234    14592   -71359  -136142  -153650  -126559 
  -69192    -2380    58868   109174   131264   117545    81573    25772 
  -42016   -95500  -118737  -107501   -68985   -21138    24495    58669 
   68701    49655    12000   -22879   -41388   -49476   -55302   -54378 
  -42979   -26482   -10230     4604    17832    28270    35664    39533 
   37246    27384    12321      548      795     9005    10447    -2820 
  -24213   -45662   -63045   -66089   -43474     2656    55903    93081 
   97082    70969    32815    -3079   -30169   -43930   -45002   -40069 
  -35827   -35101   -35642   -33693   -25011    -4438    24958    48035 
   48405    22508   -17631   -55514   -79907   -89455   -85716   -62140 
  -19124    25739    56035    63983    47626    16507   -10982   -23615 
  -23549   -15664    -1282    16271    26291    20235     5090    -3109 
    9290    44050    82530   103022    99469    72740    31741      708 
   -3743     5243     4010    -9104   -20834   -29250   -38078   -43482 
  -37404   -13351    20914    46152    54615    46149    18175   -20218 
  -49777   -58314   -45247   -20001     7198    35043    58554    66175 
   61321    53680    37878    11655   -10484   -17744   -16324   -20618 
  -36931   -54510   -56747   -36678       14    36200    55807    61149 
   63279    61931    48789    21467   -12182   -39112   -52120   -53033 
  -44329   -31607   -23467   -14411    10860    50880    84555    94765 
   80720    47872     3959   -33601   -50877   -55818   -58733   -52794 
  -33974   -11065     7761    18501    24108    31919    39052    37291 
   25860     9940     1219     9271    25637    32811    23598     5144 
  -10390   -18657   -24559   -32292   -37890   -31475   -10454    13965 
   31186    41288    45080    38072    19642    -3813   -27496   -50749 
  -71419   -81660   -72696   -46562   -15867    10458    32895    53435 
   66591    61936    38519     7060   -22658   -43019   -46163   -33407 
  -15556      518    15160    28605    39996    49364    52866    44879 
   27371     5902   -17948   -44451   -69221   -79667   -66195   -31764 
   13464    53981    75825    78341    67643    46291    16978   -12723 
  -35268   -48151   -52126   -47817   -34743   -15040     4741    19075 
   26963    28517    24362    19907    16121     1761   -26133   -51892 
  -62394   -59057   -49195   -35314   -13439    15867    41078    50595 
   41908    18779   -11195   -38611   -56979   -62553   -50691   -17248 
   32368    78579   102882   105267    93838    67381    25207   -22338 
  -65059   -95060  -100770   -76065   -28956    25010    71857   101263 
  110592   105475    89962    65763    35064    -2439   -42503   -72928 
  -82857   -69708   -41273    -7892    25774    55934    78339    90898 
   91733    81629    64320    43380    23430     6066   -10416   -22561 
  -24916   -17132    -3765     8024    14409    16216    14185     9363 
    3782    -1764    -5564    -4812    -2116    -3109    -7111    -9282 
   -8033    -7096   -11327   -17857   -16837    -3543    16911    35122 
   44683    45557    39259    26235    10999      761      585    11354 
   25857    35348    38657    35506    23809     5895   -11527   -22420 
  -27506   -29849   -27049   -18395    -7118     7874    27510    45646 
   55498    54613    40417     8646   -36525   -75741   -89318   -74144 
  -40682    -3757    22183    29366    21190     4618   -17577   -37135 
  -40194   -28703   -18345   -16863   -22820   -30256   -28891   -15118 
     365     3708    -7468   -22933   -31978   -33777   -33817   -34268 
