Origin Time       2016/04/16 01:25:00
Lat.              32.753
Long.             130.762
Depth. (km)       12
Mag.              7.3
Station Code      MYZ016
Station Lat.      31.6129
Station Long.     131.3743
Station Height(m) 9
Record Time       2016/04/16 01:25:33
Sampling Freq(Hz) 100Hz
Duration Time(s)  137
Dir.              E-W
Scale Factor      7845(gal)/8223790
Max. Acc. (gal)   19.141
Last Correction   2016/04/16 01:25:33
Memo.             
[...]
   -1694    -2029    -2257    -2297    -2212    -2114    -2077    -2166 
   -2411    -2732    -2978    -3006    -2710    -2119    -1503    -1213 
   -1360    -1722    -2022    -2224    -2430    -2647    -2863    -3157 
   -3603    -4126    -4576    -4869    -4963    -4843    -4557    -4151 
   -3603    -2903    -2126    -1387     -719     -114      298      319 
     -62     -642    -1162    -1460    -1575    -1683    -1891    -2147 
   -2350    -2420    -2322    -2079    -1799    -1609    -1544    -1516 
   -1441    -1291    -1011     -538      137      893     1472     1647 
    1379      832      252     -178     -402     -483     -518     -598 
    -846    -1348    -2026    -2774    -3600    -4504    -5341    -5900 
   -6096    -5999    -5719    -5336    -4920    -4561    -4369    -4419 
   -4692    -5059    -5319    -5371    -5302    -5213    -5093    -4814 
   -4271    -3549    -2830    -2189    -1576     -984     -519     -313 
    -353     -457     -427     -232      -13       56      -25      -71 
      52      318      689     1201     1861     2583     3192     3573 
    3765     3852     3793     3481     2991     2529     2168     1807 
    1404     1024      749      600      500      311      -14     -392 
    -749    -1173    -1796    -2635    -3574    -4471    -5250    -5891 
   -6372    -6701    -6928    -7071    -7086    -6878    -6380    -5665 
   -4978    -4565    -4444    -4463    -4522    -4656    -4923    -5285 
   -5590    -5709    -5620    -5386    -5023    -4452    -3659    -2802 
   -2079    -1572    -1259    -1089    -1007     -919     -720     -361 
     108      515      623      376      -78     -546     -810     -770 
    -499      -89      232      186     -259     -977    -1738    -2274 
   -2411    -2076    -1362     -486      280      679      614      160 
    -588    -1548    -2539    -3281    -3547    -3295    -2740    -2272 
   -2143    -2285    -2442    -2384    -2014    -1426     -857     -518 
    -502     -807    -1363    -1993    -2478    -2710    -2774    -2832 
   -2940    -3003    -2936    -2817    -2822    -3049    -3459    -3910 
   -4271    -4529    -4779    -5100    -5498    -5930    -6339    -6635 
   -6729    -6581    -6214    -5732    -5292    -5024    -4978    -5097 
   -5293    -5508    -5651    -5560    -5088    -4233    -3213    -2319 
   -1711    -1340    -1053     -728     -306      220      803     1354 
    1815     2201     2552     2913     3345     3867     4387     4756 
    4857     4676     4293     3807     3269     2678     1944      997 
     -86    -1117    -1954    -2583    -3049    -3341    -3407    -3284 
   -3126    -3088    -3230    -3514    -3842    -4139    -4403    -4677 
   -4972    -5229    -5435    -5659    -5902    -6038    -5948    -5678 
   -5385    -5150    -4909    -4563    -4016    -3260    -2436    -1740 
   -1314    -1200    -1274    -1285    -1015     -399      463     1341 
    1984     2266     2203     1849     1230      405     -488    -1291 
   -1930    -2423    -2743    -2803    -2636    -2432    -2295    -2169 
   -2030    -1927    -1892    -1958    -2135    -2342    -2440    -2397 
   -2299    -2201    -2114    -2027    -1881    -1630    -1389    -1336 
   -1545    -1945    -2398    -2810    -3149    -3427    -3703    -4006 
   -4274    -4392    -4313    -4085    -3808    -3550    -3287    -2920 
   -2412    -1841    -1334    -1051    -1092    -1391    -1794    -2214 
   -2613    -2922    -3080    -3079    -2936    -2659    -2247    -1753 
   -1336    -1133    -1175    -1440    -1880    -2376    -2736    -2770 
   -2362    -1560     -623       99      356       79     -607    -1514 
   -2492    -3438    -4282    -4932    -5306    -5343    -5035    -4472 
   -3792    -3090    -2432    -1872    -1463    -1224    -1150    -1185 
   -1275    -1412    -1590    -1736    -1707    -1331     -549      464 
    1444     2146     2442     2347     1975     1495     1067      691 
     225     -352     -940    -1467    -1927    -2332    -2728    -3184 
   -3708    -4236    -4672    -4918    -4943    -4801    -4554    -4220 
   -3828    -3524    -3511    -3851    -4418    -5003    -5416    -5544 
   -5368    -4972    -4502    -4104    -3827    -3542    -3018    -2158 
   -1081       -5      929     1703     2258     2469     2247     1629 
     776      -32     -598     -970    -1302    -1645    -1933    -2037 
   -1890    -1561    -1201     -993    -1089    -1479    -2084    -2817 
   -3476    -3852    -3861    -3530    -3013    -2478    -2053    -1813 
   -1698    -1598    -1547    -1615    -1798    -2107    -2538    -2994 
   -3470    -3959    -4309    -4490    -4626    -4819    -5138    -5501 
   -5718    -5709    -5471    -5026    -4444    -3798    -3152    -2555 
   -2061    -1710    -1545    -1617    -1903    -2292    -2614    -2685 
   -2428    -1961    -1457     -997     -587     -241      -36      -14 
     -55        9      233      564      858     1046     1230     1498 
    1822     2155     2388     2388     2062     1327      182    -1229 
   -2673    -3825    -4403    -4333    -3766    -2957    -2188    -1690 
   -1528    -1606    -1755    -1881    -2070    -2467    -3068    -3751 
   -4336    -4652    -4669    -4457    -4040    -3451    -2759    -2030 
   -1320     -658      -72      325      388       98     -427    -1019 
   -1498    -1769    -1823    -1665    -1318     -841     -257      370 
     911     1235     1243      859       47    -1154    -2582    -3997 
   -5150    -5857    -6100    -6004    -5724    -5371    -5023    -4735 
   -4496    -4214    -3790    -3163    -2367    -1579     -997     -753 
    -907    -1409    -2102    -2770    -3177    -3180    -2759    -1984 
   -1007      -52      675     1026      924      436     -241     -877 
   -1313    -1532    -1651    -1737    -1740    -1610    -1354     -994 
    -587     -197      136      361      368       72     -477    -1165 
   -1915    -2673    -3341    -3852    -4237    -4591    -4989    -5440 
   -5880    -6203    -6363    -6415    -6470    -6655    -6963    -7242 
   -7380    -7331    -7067    -6590    -5933    -5174    -4403    -3628 
   -2833    -2034    -1298     -741     -471     -477     -683     -969 
   -1206    -1352    -1429    -1399    -1219     -905     -552     -275 
    -160     -292     -739    -1435    -2187    -2721    -2851    -2698 
   -2477    -2215    -1844    -1354     -854     -487     -257      -40 
     255      626      951     1085      986      646       36     -832 
   -1876    -2890    -3593    -3792    -3453    -2770    -2087    -1660 
   -1605    -1964    -2714    -3730    -4810    -5742    -6389    -6718 
   -6786    -6659    -6350    -5869    -5238    -4475    -3669    -2899 
   -2189    -1580    -1121     -846     -745     -680     -429      135 
     992     2010     2995     3761     4189     4260     4009     3499 
    2833     2138     1522     1050      715      434       99     -326 
    -781    -1151    -1362    -1509    -1795    -2290    -2876    -3387 
   -3716    -3840    -3809    -3665    -3368    -2909    -2389    -1982 
   -1833    -1945    -2273    -2775    -3383    -4009    -4540    -4814 
   -4746    -4407    -3955    -3535    -3237    -3086    -3033    -2944 
   -2616    -1952    -1105     -364       31        4     -325     -718 
    -945     -908     -679     -390     -118      120      298      341 
     222       20     -203     -414     -550     -621     -702     -859 
   -1135    -1579    -2192    -2887    -3527    -4029    -4359    -4460 
   -4342    -4148    -4005    -3924    -3838    -3724    -3634    -3599 
   -3605    -3611    -3555    -3422    -3229    -2976    -2660    -2363 
   -2254    -2454    -2902    -3362    -3566    -3393    -2924    -2366 
   -1934    -1713    -1651    -1655    -1611    -1426    -1042     -463 
     209      778     1024      827      241     -558    -1381    -2069 
   -2523    -2747    -2857    -2988    -3235    -3626    -4101    -4531 
   -4792    -4811    -4622    -4406    -4379    -4645    -5140    -5672 
   -6031    -6112    -5881    -5343    -4552    -3626    -2736    -2016 
   -1439     -843     -110      745     1594     2270     2619     2579 
    2261     1872     1599     1524     1642     1933     2363     2891 
    3435     3861     4048     3973     3708     3361     2995     2621 
    2205     1694     1077      418     -210     -757    -1166    -1379 
   -1391    -1279    -1181    -1248    -1579    -2219    -3126    -4133 
   -5047    -5715    -6014    -5907    -5497    -4963    -4437    -3920 
   -3379    -2832    -2330    -1941    -1744    -1814    -2220    -2947 
   -3851    -4688    -5200    -5271    -4961    -4405    -3763    -3171 
   -2682    -2342    -2215    -2286    -2436    -2546    -2577    -2523 
   -2390    -2208    -2015    -1794    -1455     -909     -131      827 
    1830     2640     3017     2844     2172     1154      -11    -1127 
   -2039    -2646    -2890    -2790    -2450    -2043    -1776    -1806 
   -2180    -2853    -3794    -4972    -6251    -7395    -8185    -8563 
   -8614    -8418    -7994    -7404    -6786    -6301    -6080    -6186 
   -6558    -7002    -7345    -7491    -7411    -7129    -6663    -6037 
   -5320    -4568    -3792    -3030    -2361    -1814    -1359     -950 
    -619     -400     -230      -32      232      595     1019     1417 
    1760     2083     2393     2601     2616     2466     2226     1926 
    1582     1246      950      646      280     -153     -643    -1135 
   -1549    -1821    -1930    -1925    -1861    -1776    -1709    -1682 
   -1669    -1647    -1591    -1464    -1251     -990     -765     -656 
    -680     -781     -884     -943     -994    -1100    -1282    -1497 
   -1653    -1692    -1628    -1520    -1418    -1358    -1348    -1418 
   -1674    -2212    -3001    -3888    -4664    -5166    -5355    -5300 
   -5111    -4909    -4820    -4956    -5394    -6091    -6870    -7508 
   -7838    -7750    -7207    -6285    -5162    -3997    -2941    -2066 
   -1296     -521      263     1021     1717     2299     2724     2924 
    2822     2382     1598      566     -506    -1471    -2272    -2898 
   -3341    -3597    -3694    -3667    -3573    -3530    -3647    -3937 
   -4372    -4950    -5691    -6635    -7781    -9000   -10011   -10486 
  -10239    -9312    -7935    -6454    -5208    -4422    -4171    -4364 
   -4800    -5265    -5638    -5900    -6058    -6099    -5983    -5683 
   -5190    -4522    -3716    -2779    -1699     -493      781     2053 
    3244     4278     5060     5517     5647     5512     5208     4857 
    4579     4449     4468     4561     4649     4699     4733     4795 
    4896     4985     4997     4851     4445     3704     2629     1316 
     -56    -1313    -2373    -3225    -3921    -4572    -5240    -5919 
   -6538    -6971    -7105    -6889    -6328    -5503    -4585    -3770 
   -3190    -2880    -2782    -2739    -2558    -2138    -1509     -756 
      67      892     1663     2381     3075     3738     4332     4830 
    5242     5564     5769     5838     5771     5552     5193     4789 
    4445     4199     4041     3888     3642     3281     2813     2219 
    1489      645     -261    -1154    -1912    -2482    -2967    -3526 
   -4215    -5005    -5921    -7053    -8398    -9795   -10982   -11681 
  -11703   -11048    -9913    -8571    -7306    -6343    -5769    -5521 
   -5468    -5510    -5655    -5927    -6245    -6481    -6517    -6242 
   -5620    -4715    -3650    -2590    -1706    -1178    -1139    -1567 
   -2296    -3123    -3789    -4021    -3696    -2940    -2003    -1097 
    -299      413     1060     1638     2120     2498     2759     2868 
    2751     2328     1578      571     -595    -1809    -2961    -3963 
   -4704    -5086    -5143    -5059    -5073    -5320    -5791    -6407 
   -7078    -7738    -8401    -9084    -9753   -10388   -10901   -11098 
  -10840   -10150    -9212    -8271    -7496    -6963    -6664    -6519 
   -6431    -6285    -5965    -5475    -4918    -4318    -3615    -2776 
   -1822     -807      195     1132     1944     2578     3025     3284 
    3420     3562     3858     4398     5219     6322     7578     8745 
    9580     9926     9699     8822     7222     4963     2299     -380 
   -2658    -4303    -5352    -5981    -6403    -6750    -7094    -7534 
   -8111    -8708    -9192    -9466    -9406    -8951    -8148    -7138 
   -6154    -5385    -4922    -4818    -5031    -5395    -5688    -5636 
   -5020    -3890    -2521    -1205     -155      540      911     1035 
     931      538     -155    -1011    -1791    -2257    -2299    -1965 
   -1305     -346      870     2288     3734     4965     5783     6030 
    5585     4449     2790      972     -531    -1336    -1321     -658 
     353     1401     2176     2435     2087     1217       25    -1339 
   -2810    -4338    -5846    -7244    -8467    -9478   -10201   -10546 
  -10503   -10130    -9501    -8707    -7831    -6967    -6262    -5787 
   -5470    -5228    -5007    -4757    -4390    -3781    -2928    -1973 
   -1042     -190      560     1196     1667     1982     2276     2695 
    3323     4113     4868     5386     5574     5402     4895     4104 
    3118     2049      984       -4     -859    -1524    -1923    -2043 
   -1985    -1937    -2115    -2739    -4008    -5968    -8473   -11259 
  -13946   -16078   -17317   -17535   -16737   -15107   -13039   -10917 
   -8976    -7360    -6139    -5306    -4742    -4247    -3640    -2772 
   -1541      102     2196     4692     7437    10230    12846    15063 
   16734    17760    18046    17567    16448    14980    13501    12209 
   11226    10659    10438    10320    10072     9491     8394     6675 
    4353     1551    -1535    -4704    -7699   -10169   -11874   -12877 
  -13402   -13617   -13662   -13713   -13894   -14208   -14571   -14855 
  -15054   -15307   -15624   -15896   -16001   -15784   -15180   -14265 
  -13073   -11642   -10061    -8357    -6527    -4595    -2573     -579 
    1144     2455     3284     3577     3342     2663     1787     1057 
     728      928     1579     2513     3561     4530     5320     5886 
    6164     6145     5911     5575     5185     4719     4174     3580 
    2984     2450     2003     1663     1495     1499     1539     1431 
    1023      299     -595    -1541    -2417    -3002    -3177    -3018 
   -2688    -2454    -2562    -3136    -4255    -5872    -7771    -9724 
  -11539   -13030   -14123   -14912   -15543   -16102   -16582   -16895 
  -16872   -16312   -15076   -13213   -10932    -8510    -6273    -4494 
   -3294    -2691    -2609    -2756    -2744    -2249    -1062      774 
    2956     5115     6886     7966     8248     7808     6841     5652 
    4484     3387     2261      969     -588    -2393    -4255    -5846 
   -6833    -7002    -6415    -5421    -4515    -4086    -4223    -4849 
   -5864    -7071    -8221    -9169    -9880   -10438   -10962   -11455 
  -11844   -12067   -12074   -11878   -11573   -11232   -10935   -10798 
  -10817   -10828   -10670   -10234    -9533    -8706    -7836    -6945 
   -6056    -5166    -4303    -3492    -2677    -1833     -986      -71 
    1026     2365     3962     5782     7646     9306    10539    11196 
   11277    10894    10241     9606     9240     9209     9413     9660 
    9721     9445     8820     7882     6696     5410     4151     2928 
    1719      513     -715    -1975    -3310    -4784    -6377    -7967 
   -9348   -10341   -10957   -11234   -11151   -10787   -10285    -9771 
   -9342    -8941    -8394    -7611    -6536    -5116    -3464    -1736 
     -90     1239     2138     2650     2887     3010     3083     3078 
    3036     3034     3100     3240     3395     3523     3640     3744 
    3812     3815     3712     3480     3111     2544     1687      545 
    -758    -2042    -3094    -3690    -3708    -3211    -2417    -1621 
   -1081     -884    -1009    -1416    -1971    -2505    -2875    -2906 
   -2521    -1806     -909      -14      738     1313     1667     1803 
    1784     1595     1178      487     -533    -1841    -3307    -4823 
   -6238    -7426    -8361    -9028    -9467    -9814   -10177   -10573 
  -10943   -11199   -11294   -11288   -11265   -11191   -10978   -10562 
   -9949    -9231    -8456    -7619    -6735    -5803    -4841    -3893 
   -2994    -2181    -1491     -965     -642     -526     -553     -610 
    -594     -413        5      602     1230     1755     2077     2162 
    2016     1605      970      272     -329     -728     -857     -737 
    -425       56      649     1229     1683     1890     1746     1281 
     625      -98     -689     -897     -603      117     1116     2276 
    3431     4392     5051     5319     5194     4812     4282     3632 
    2890     2120     1443     1007      907     1123     1545     2037 
    2421     2548     2338     1746      842     -182    -1158    -2011 
   -2688    -3161    -3462    -3692    -3979    -4402    -4951    -5582 
   -6266    -7014    -7797    -8538    -9193    -9790   -10384   -10963 
  -11461   -11757   -11726   -11338   -10678    -9799    -8777    -7746 
   -6814    -6068    -5560    -5213    -4931    -4735    -4673    -4748 
   -4908    -5042    -5073    -4982    -4727    -4243    -3480    -2407 
   -1065      498     2266     4155     6008     7665     8978     9910 
   10567    11087    11538    11920    12174    12221    12037    11637 
   11090    10509    10004     9670     9497     9373     9207     8896 
    8299     7384     6239     4893     3343     1692       94    -1421 
   -2964    -4606    -6363    -8248   -10280   -12415   -14492   -16278 
  -17579   -18265   -18315   -17790   -16700   -15211   -13668   -12332 
  -11356   -10758   -10365   -10107    -9954    -9718    -9221    -8390 
   -7223    -5887    -4518    -3134    -1831     -700      270     1101 
    1864     2627     3346     3975     4509     4958     5393     5890 
    6366     6704     6886     6890     6659     6165     5367     4355 
    3369     2581     2004     1611     1343     1147     1030      962 
     877      783      714      685      677      579      283     -191 
    -758    -1339    -1908    -2473    -2971    -3349    -3697    -4158 
   -4793    -5579    -6401    -7117    -7657    -8010    -8113    -7865 
   -7250    -6336    -5224    -4055    -2970    -2116    -1734    -1894 
   -2421    -3122    -3776    -4195    -4364    -4233    -3732    -2918 
   -1885     -842      -56      445      735      808      750      633 
     437      180     -207     -830    -1587    -2343    -3034    -3589 
   -4040    -4482    -4935    -5389    -5857    -6389    -7025    -7676 
   -8135    -8270    -8113    -7685    -7020    -6276    -5609    -5089 
   -4727    -4469    -4238    -3993    -3786    -3692    -3670    -3591 
   -3329    -2872    -2284    -1610     -945     -372       58      209 
      52     -279     -702    -1075    -1193    -1050     -648       55 
     935     1887     2874     3774     4541     5121     5347     5154 
    4507     3331     1709     -199    -2238    -4148    -5709    -6853 
   -7539    -7792    -7695    -7256    -6592    -5931    -5337    -4888 
   -4764    -4936    -5282    -5664    -5880    -5875    -5683    -5263 
   -4652    -3965    -3242    -2489    -1799    -1255     -881     -693 
    -607     -394       18      579     1286     2062     2853     3599 
    4088     4256     4220     4072     3943     3896     3839     3753 
