Origin Time       2016/04/16 01:25:00
Lat.              32.753
Long.             130.762
Depth. (km)       12
Mag.              7.3
Station Code      MYZ014
Station Lat.      31.8454
Station Long.     131.3026
Station Height(m) 135
Record Time       2016/04/16 01:25:25
Sampling Freq(Hz) 100Hz
Duration Time(s)  183
Dir.              E-W
Scale Factor      7845(gal)/8223790
Max. Acc. (gal)   45.570
Last Correction   2016/04/16 01:25:25
Memo.             
[...]
  -11709    -6276     1667     6812     6579     4276     4469     7893 
   11997    13971    12861     9267     4072      -11      355     3859 
    6534     7811     8942     8991     6875     4657     6061    11518 
   16653    17845    16092    13585    10436     6262     1908    -2062 
   -5394    -6264    -3735     -394      587     -469     1036     8186 
   16233    18239    14045     8681     6600     8695    11803    12004 
    9364     6548     3547     -702    -4992    -7885    -7533    -2758 
    3152     6810     8305     7331     3546     -265       -8     4093 
    6775     5526     3551     3559     4051     2385      166     1171 
    4187     5937     7406    10065    11578    10233     8437     8132 
    9099    12002    16372    18796    15754     8209     3055     3642 
    5179     4712     2759    -1166    -5578    -7551    -6133    -2270 
    2022     5883     9603    11835     9242      649    -8667   -12201 
   -9936    -5825    -1859     2933     8702    12760    14304    16461 
   20077    21562    19518    15989    12213     9324     8437     8858 
    9427     9475     8208     4200    -2300    -7361    -7789    -4500 
   -1090    -1505    -5514    -8522    -7376    -3095      153      -76 
    -719     1100     3439     3879     3609     5171     7393     6945 
    3704      140    -1402      191     4530    10160    14253    15054 
   14204    13602    14331    16667    18202    17184    14926    12722 
    9826     5066       -9    -3492    -5940    -7500    -7827    -6687 
   -3122     1651     4252     3685     1296    -2084    -5447    -7107 
   -6520    -4114     -186     4572     9108    12439    13851    14188 
   15537    18708    22218    23075    20004    15807    12762     9799 
    7310     6821     6818     6232     6529     6822     4017    -1696 
   -6513    -7364    -4588    -1028     1395     2797     2748     1173 
    -222    -1161    -2377    -2847    -2562    -3704    -6444    -8167 
   -6826    -2184     4093     8382     8644     7607     8688    11848 
   16402    22335    27681    29891    28786    25853    22590    19597 
   16402    12667     8707     4571      658    -1728    -2682    -4527 
   -8687   -13105   -14543   -12294    -8105    -4710    -4064    -4509 
   -2745      702     2546     2311     2454     3388     2524     -796 
   -3543    -2771     1062     4638     6255     7145     8110     9494 
   12337    17138    22735    26347    26704    24871    20815    15252 
   11545    11049    11275     9300     5313     2326     1663     1275 
    -626    -2250     -804     2215     2898      697    -1771    -2181 
    -615      341     -531    -1230     -140     2026     2949     1413 
     186     2050     5607     8147     8089     5825     3501     1640 
    -599    -2596    -3032     -692     4634    10725    14419    14582 
   13522    14245    15805    14592    10053     5308     2623     1734 
    1836     1896      831      370     3380     8174    10642    10382 
   10018    10682    11113    10201     8025     5158     2208     -110 
    -328     1263     1146    -1578    -3218    -1895      -98    -1178 
   -6170   -12660   -16731   -16668   -13371    -8572    -4101     -903 
    1844     4708     6323     6829     9328    14832    20366    22500 
   20576    17734    16929    17032    16421    15241    12846     9132 
    6246     5894     7411     8860     9242     8139     5082     1930 
    1350     3157     5532     6860     6732     5925     4223     1020 
   -2889    -6087    -7788    -9003   -11113   -13753   -15746   -15464 
  -11820    -5983     -217     3846     6839    10935    16021    19923 
   21612    21597    21118    21624    23186    24090    23747    23260 
   22547    20694    18209    16460    15017    11843     7312     4314 
    3542     2596      103    -2253    -2569    -1684    -2185    -4681 
   -7537    -9684    -9996    -7568    -4352    -2558    -1752     -895 
     263     1767     3754     6430     9418    10543     7777     2749 
   -1032    -1162     2860     8060    10388     9886     9193     9100 
    9231     9949    11331    12607    13205    12993    11411     7838 
    3157     -225       -5     3578     7585     9589     9053     7315 
    6563     7121     8109     8622     7592     4885     1154    -2362 
   -4148    -3943    -2612    -1107      301     1649     2232     1729 
    1408     3106     6629     8617     6815     3416      896    -1764 
   -5648    -8520    -8351    -6038    -2662     1121     4214     6751 
    9915    13702    15942    14709    11634     9671     9528    10111 
   10103     9387     8796     8851     9728    11217    12779    13208 
   11017     7279     5555     6993     8365     6756     3232      804 
    1364     4112     6041     5420     3693     2799     2866     3453 
    3963     3225     1822     1695     2681     3273     2930     2180 
    1755     1656     1925     2893     3770     3129     1053     -261 
     571     2163     3426     4839     6489     8579    10849    11129 
    8642     5734     4484     5059     6363     6956     6475     5304 
    3982     3811     5219     6642     7207     8179    10563    13139 
   14096    13005    10790     9062     8387     7464     4986     1273 
   -1572    -1634     -453    -1464    -4598    -6511    -5412    -2224 
    1188     3419     4309     4253     3230     1647      873     1803 
    4125     6666     7676     7148     7052     7388     7431     8781 
   11809    13995    13192    10031     7626     7782     9296    10561 
   10624     9479     7657     5216     3396     3544     4344     3553 
     429    -2924    -3946    -3504    -2763    -1224      668     2736 
    4708     4615     2531     1135     1568     3377     5902     7778 
    7645     5868     4806     6114     8564    10185    10592    10862 
   11799    12356    12263    12822    13508    13165    11947    10473 
    9819     9998     9910     8953     7061     5487     5096     4282 
    1498    -2940    -6637    -6925    -4837    -3620    -4723    -7157 
   -8764    -8949    -8469    -7123    -4735    -2246     -851     -603 
    -561     -168     1096     3438     6235     9236    12077    13359 
   12919    13146    15495    18445    20023    19529    17791    16532 
   15969    14582    11998     9786     9154     9391     8451     5459 
    2238      668      333     -106    -1224    -2269    -2154    -1763 
   -3105    -6026    -8197    -7591    -4118      156     2686     2926 
    2506     2778     3776     5464     7607     9217     9620     8854 
    7622     6851     6250     4932     2975     1255      959     2489 
    4552     5765     6469     7881    10382    13112    14346    13072 
   10579     8637     6995     4826     2866     2115     1995     1683 
    1497     1741     1845     1189      -23    -1090    -1572    -1534 
   -1266    -1023     -812      326     3377     6945     8625     8494 
    8440     9163    10343    11816    12688    11924    10076     8039 
    5948     4050     2400      949      619     1568     1989     1175 
     292      120     1251     3592     5197     5120     4804     4757 
    3825     2011     1038     2281     5268     8116     9525    10174 
   10663     9436     5724     2457     2828     5803     7842     7542 
    6120     5294     6284     8463     9833     9398     6802     2292 
   -1888    -3256    -1906     -133      328     -275    -1098    -2053 
   -3198    -3750    -3234    -2768    -2836    -2004      391     3514 
    6947    10469    13266    14917    15984    17014    17328    16318 
   15294    14874    12711     7504     2347     1086     3361     6216 
    8517     9698     7971     4094     2299     4507     7747     8746 
    7404     5412     4525     5864     8444     9013     5988     1703 
   -1051    -1779    -1615    -1648    -1741    -1599    -1433    -1190 
    -845     -157     1723     4356     5741     5462     5182     5898 
    6951     7271     7018     6909     6605     5922     4865     3480 
    3454     5256     6211     5142     4220     5314     7804    10112 
   11269    11091    10033     8263     6057     4514     3547     2457 
    2369     3586     3954     2551     1039     1053     2185     2675 
    1682      -89    -1485    -1911    -1709     -584     3071     8745 
   12989    14053    13406    12783    12375    11614    11010    11673 
   13051    13269    11435     8849     7581     7935     8347     7555 
    5759     3793     1999      108    -2079    -4519    -7295   -10230 
  -12360   -12459   -10571    -8391    -6543    -3797      310     5329 
   10131    12533    11777     9741     8576     8702     9040     8749 
    8122     6913     4167     1274      627     1989     4176     6301 
    6913     5748     4067     2716     2068     2554     4344     6790 
    8464     8506     7708     7911    10181    13473    15668    15236 
   12137     8240     5555     4172     2978     1544     1127     2590 
    3969     3180     1080     -461     -880     -380      676     1395 
    1757     2817     4091     4414     4136     3942     4105     4638 
    5027     5418     7119    10689    15215    19018    20202    17784 
   12583     7105     4225     4672     6609     7604     6735     5726 
    6277     8009    10450    12471    12370    10350     6937     2562 
    -587     -803      719     1208     -418    -2404    -3034    -2631 
   -2107    -1410     -741    -1487    -3316    -3981    -2964     -946 
    1561     3377     4063     4851     7256    11149    13736    13009 
   10619     9146     9643    10998    11368    11118    11083    10478 
    9215     7793     5487     1737    -2420    -5713    -7931    -8545 
   -6648    -3303     -125     2709     4904     5868     5459     4480 
    4900     6635     6848     4679     2155     1200     2500     5252 
    7438     7684     6798     6779     8715    12258    16136    18670 
   19045    18469    18473    18705    18237    16812    14534    12541 
   11438     9693     6512     2879     -402    -2606    -3267    -3284 
   -3962    -5428    -6655    -6583    -4791    -1677     1345     2775 
    2043     -337    -2926    -4540    -5103    -4735    -3524    -1929 
      67     2766     5822     9001    12244    15118    17319    18655 
   18809    17793    16143    14119    11259     7609     4526     3238 
    3520     4494     5779     7487     9693    11643    12112    10617 
    7740     5364     4996     5229     4291     3231     3608     4584 
    3896      511    -4391    -8668   -10602    -9817    -7650    -6066 
   -5509    -4784    -3423    -1918     -275     1394     2735     3832 
    4124     2667       90    -2121    -2789    -1225     1302     2663 
    2820     2702     2716     3650     5884     8260     9167     8880 
    9526    11338    12093    11155    10405    11076    12096    12158 
   11615    11663    13610    18177    23951    28424    30442    30028 
   27471    23525    18563    12502     6774     2543    -1984    -8166 
  -14634   -19908   -23145   -23322   -20070   -14600    -9420    -6600 
   -5929    -5717    -5166    -4428    -3369    -2146    -1206     -349 
     500     1264     2533     4835     7759     9936    10343    10087 
   11237    14133    16978    17956    17180    15414    12486     8576 
    4575     1722     1703     4469     7591     8830     7096     2863 
   -1620    -4622    -5756    -4774    -1677     2544     6130     8222 
    9348     9786     9857    10238    10554    10227     9764    10029 
   11715    14214    14920    12352     8428     5298     2955     1090 
    -133     -585      456     3573     7731    11236    13231    13730 
   13281    12024     9319     5459     1367    -3157    -8267   -13190 
  -16983   -18473   -16942   -13236    -9521    -7815    -8318    -9520 
   -9784    -8319    -5312    -1543     2176     4973     6181     6478 
    7562    10250    14037    18392    22929    26244    27027    25622 
   22409    17427    12025     8305     7330     8569    10705    12519 
   13714    15279    17648    19476    19584    18204    16098    14158 
   13255    13409    13806    13798    12834    10411     7258     4855 
    4085     5582     8919    11495    10798     6511      283    -5202 
   -8546   -10885   -13668   -17289   -22218   -28561   -34403   -36790 
  -33825   -25583   -14642    -5193     -251       94    -2239    -4818 
   -5904    -5694    -4930    -3608    -2635    -2407     -457     5487 
   14559    23980    30777    33477    32923    30252    26962    25691 
   26724    27249    24895    19666    14358    12653    15053    18015 
   17721    12850     4891    -2770    -8343   -12762   -16575   -18698 
  -17956   -15075   -11854    -8830    -6358    -5300    -6087    -8436 
  -10766   -11751   -11349    -9259    -6065    -3854    -3180    -2334 
     -74     3392     7715    11834    13684    12993    11406    10189 
   10782    14107    18999    24171    28767    31649    32285    30473 
   26339    20586    14500     9949     7321     5796     5058     4253 
    3402     4066     5822     6782     6679     5968     4969     4256 
    3505     2065     -314    -4353    -8901   -10816    -9865    -8410 
   -6993    -4600    -1119     2587     5259     5580     3738     1559 
     346      630     2639     5562     8482    11121    13146    14632 
   16174    17537    17447    15696    14062    13579    13142    11530 
    8692     5092      413    -5898   -12847   -18634   -22461   -24351 
  -24486   -23915   -23695   -22119   -15815    -3157    13900    29550 
   38757    42510    45226    48903    52096    52708    49948    44886 
   39008    32663    25770    17452     7327    -2235    -9055   -13321 
  -16765   -20606   -22952   -22484   -21402   -20969   -20834   -20857 
  -19549   -15754   -10496    -4826      209     3447     5703     8451 
   11354    12982    11963     7834     1995    -2724    -4189    -2945 
    -929      767     1718     2579     5036     9121    13115    15745 
   16231    14615    11962     8617     4792     1781      596     1194 
    2759     3653     2349     -649    -3207    -4622    -5907    -7335 
   -7987    -6733    -3437      155     2322     3755     6262    10154 
   14113    16760    17235    15381    12391     9463     6218     2155 
   -2397    -6806    -9676   -10069    -9370    -9261    -9205    -7522 
   -3672      841     4294     5668     3642     -675    -3461    -3071 
     635     7688    15384    20979    24699    27272    29030    30634 
   32764    36042    40711    46132    50333    50868    47596    42881 
   38767    35591    32073    26524    18434     8322    -2273   -11331 
  -18593   -24875   -30381   -35378   -39326   -40736   -39476   -36887 
  -34688   -33966   -33575   -31106   -26064   -20150   -14197    -7533 
    -224     6714    12147    15244    16406    16780    17456    19662 
   23735    28151    30781    30616    28705    27268    27515    29099 
   30640    30493    28443    25725    23221    21236    19738    17891 
   14885    10712     5521     -653    -6785   -10908   -12565   -13101 
  -13311   -13745   -14866   -15635   -15271   -14315   -12855   -10219 
   -5902    -1059     2173     3674     4467     5268     7315    10639 
   13433    14407    13437    11163     8454     5638     2806      376 
    -453     1626     5405     8104     9749    12217    15456    18674 
   21676    23649    24659    26219    28718    30867    30912    28061 
   23059    17053    10721     5023     1070    -1463    -3130    -3717 
   -3882    -4144    -4287    -4635    -4849    -4137    -3422    -4456 
   -7395   -10523   -12772   -14476   -15137   -13899   -11327    -8688 
   -7020    -6789    -7715    -8294    -6093    -1007     4074     7504 
    9907    12105    14818    17892    20134    21305    21874    21431 
   19529    17298    16289    15898    14073     9877     4020    -2413 
   -9004   -15677   -22630   -29944   -36046   -39166   -39417   -37288 
  -33578   -29786   -26156   -22411   -18057   -11676    -3662     3979 
   10768    17104    22945    27828    31331    33847    36096    37643 
   36460    31213    23592    16341    10643     7148     6597     8530 
   11394    13552    14407    14967    16090    17649    19681    21481 
   21358    18854    14886    10594     6708     3360      676    -1426 
   -3333    -5113    -6300    -6239    -5314    -4482    -4033    -4135 
   -4367    -3969    -3921    -5352    -7150    -8299    -9294   -10035 
   -9639    -7832    -4310     1480     8564    14746    18693    20100 
   19485    18496    18534    19178    19264    18377    16659    14829 
   13259    11202     8750     6808     5628     5189     5412     6033 
    6185     5004     2925      858     -738    -1556    -1416     -687 
    -330     -957    -2157    -2505     -792     2008     3704     3107 
     287    -4014    -8966   -13359   -15475   -14490   -11152    -6975 
   -3113      402     4333     9101    13525    15147    13456    10754 
    8398     6124     3859     1436     -325      274     3184     7038 
   10875    14442    17949    21537    24988    27306    27522    26532 
   25983    25752    24452    21600    17994    14470    11232     8319 
    6050     4691     4164     4006     3461     1945     -635    -3761 
   -6822    -9749   -12415   -14334   -15061   -14584   -13528   -12456 
  -11267    -9562    -6694    -2290     2223     4622     4642     3796 
    3264     3079     2988     3424     5004     7813    11577    15921 
   20470    24501    26959    27460    26172    22680    16591     9416 
    3535     -637    -4083    -7167    -9614   -11017   -10970    -9551 
   -7964    -7238    -6704    -5104    -1657     3499     8922    12954 
   14783    14334    12145     9248     6870     5856     5856     5807 
    5113     3650     1850      926     1566     3156     4923     6470 
    7348     7439     7322     7360     7506     8054     9375    11526 
   14041    16302    18412    20229    20876    20206    18875    17358 
   15632    13471    10845     7817     5093     4183     5822     9155 
   12248    13278    12066     9918     7931     6266     4838     3763 
    2664      761    -1761    -4051    -5516    -5633    -4455    -2590 
    -174     2573     4738     5721     5518     4525     3500     2435 
     702    -1246    -2311    -2355    -2074    -1863    -1668    -1532 
   -1487    -1329     -834      -36      901     1953     2953     3704 
    4460     5252     5717     6135     7191     9123    11728    14821 
   18843    24140    29374    32583    33326    32092    29406    26385 
   23642    20468    16445    11973     7812     4656     1864    -1826 
   -6173   -10076   -13273   -16127   -19005   -21950   -24325   -25276 
  -24676   -22999   -20052   -15086    -8322    -1047     5417    10413 
   14033    16503    18133    19573    21321    23433    25141    25147 
   23251    20160    16410    12411     7992     2782    -2500    -6754 
   -9549   -10910   -10836    -9390    -7018    -4195    -1023     2744 
    7736    14407    22030    29208    35082    39183    41381    42294 
   42126    39842    34843    27963    20097    11792     3925    -2713 
   -7821   -11600   -14577   -16857   -18315   -18928   -18157   -15646 
  -11907    -7761    -4315    -2015      171     3406     7657    11276 
   12449    11762    11356    12108    13182    13489    12768    11269 
    9652     8916     8988     9097     9603    11199    14060    17864 
