Origin Time       2016/04/16 01:25:00
Lat.              32.753
Long.             130.762
Depth. (km)       12
Mag.              7.3
Station Code      MYZ013
Station Lat.      31.9087
Station Long.     131.4187
Station Height(m) 5
Record Time       2016/04/16 01:25:26
Sampling Freq(Hz) 100Hz
Duration Time(s)  237
Dir.              N-S
Scale Factor      7845(gal)/8223790
Max. Acc. (gal)   64.712
Last Correction   2016/04/16 01:25:27
Memo.             
[...]
   -1044     -610     1686     4059     4842     3704     1158    -2227 
   -5578    -7931    -9270   -10081   -10093    -8542    -5420    -1894 
     934     2805     3546     3005     1516     -183    -1293    -1553 
   -1418    -1291     -994      -28     2181     5675     9100    10719 
   10125     8056     5697     4039     3013     2062     1337     1463 
    2450     2825      801    -3213    -6921    -8280    -6583    -3240 
    -990    -1559    -4811    -8905   -11202   -10600    -7736    -3113 
    2544     7497    10389    10989     9570     6880     3902     1155 
   -1247    -3192    -4386    -4351    -2921     -884      612     1282 
    1561     1844     2351     3119     4155     5564     7391     9475 
   11415    13057    14655    15840    15480    13216     9836     5717 
     687    -4379    -7514    -7596    -5535    -3268    -2241    -2647 
   -3584    -4309    -4795    -5101    -5281    -5375    -5084    -4233 
   -3437    -3736    -5760    -8797   -10791   -10153    -7138    -3221 
     197     2606     3983     4031     2608      714      333     2519 
    5935     8136     7747     5320     2895     2403     4068     6862 
    9979    12873    14751    15383    15288    14196    11485     8108 
    5479     3696     2721     2875     3557     3947     4197     4776 
    5755     6718     7001     6156     4225     1719     -731    -2604 
   -3514    -3782    -4261    -5093    -5763    -5863    -5124    -4003 
   -3516    -3726    -4128    -4849    -5678    -5689    -4703    -3599 
   -3231    -3515    -3427    -1982      657     3213     4684     4923 
    4023     2493     1525     2276     5003     8564    11367    13347 
   15435    17320    18233    18218    17184    15075    12501     9891 
    7585     6114     5355     4936     5023     5760     6867     7879 
    8322     7454     4463     -218    -4822    -7689    -8025    -6512 
   -5167    -5385    -6810    -8483    -9846   -10354    -9545    -7429 
   -3973      530     4742     7531     9231    10493    11149    10941 
    9983     8316     6050     3497      631    -2681    -5740    -7333 
   -7277    -6801    -7172    -8549    -9871    -9672    -7921    -6139 
   -5057    -4033    -2516     -522     1586     3208     3789     3041 
    1271     -461     -987       87     1956     3520     4374     4286 
    3372     2663     3152     5015     7364     8635     8185     6831 
    5800     5436     5202     4864     4114     2444      487     -908 
   -2091    -3775    -6103    -8305    -8926    -7136    -4033    -2027 
   -2604    -5255    -8623   -11568   -13104   -12717   -10916    -8806 
   -7210    -6376    -6046    -5683    -5100    -4333    -3177    -1841 
    -611      835     2520     4083     5418     6419     7125     7865 
    8815     9626     9572     8413     6498     4440     3298     3723 
    5119     6492     7214     7088     6332     5566     5660     6945 
    8680     9899    10292     9819     8047     4959     1755     -278 
    -503     1279     4482     7865    10380    11416    10744     8382 
    4864     1252    -1939    -4747    -6843    -8002    -8622    -9204 
  -10052   -11227   -12202   -12104   -10686    -8592    -6556    -4895 
   -3549    -2015       71     2405     4969     8051    11169    13620 
   15435    17050    18590    19643    19854    19333    17919    15102 
   10854     5800      862    -3551    -7704   -11084   -12170   -10493 
   -7576    -5270    -4055    -3150    -1657      757     3958     7345 
    9952    10975     9983     7130     3335     -540    -4464    -8507 
  -12040   -14480   -15714   -15480   -13707   -11268    -9375    -7903 
   -5139     -198     5678    10554    13215    13616    12529    10609 
    8052     5390     3501     2234      319    -2898    -6737   -10200 
  -12633   -13171   -10851    -5814      396     5813     8857     9076 
    7586     5660     3717     2424     2370     2974     3157     2083 
    -379    -3317    -5726    -7354    -8129    -7843    -6868    -6285 
   -7137    -9606   -12594   -14581   -15264   -15163   -14281   -12329 
   -8830    -3299     3890    11743    18825    23257    23912    21371 
   17361    13104     8876     5112     2338      650      -93     -344 
    -256      602     2058     3459     4541     5009     4568     3400 
    1903      588     -152     -592     -940     -774       39     1009 
    1599     1763     1975     2478     3315     4773     6930     9501 
   11685    12204    10810     8638     6478     4112      731    -3858 
   -7723    -8316    -4942     1825    10916    20683    29481    35965 
   39110    38350    33841    26858    19514    13431     8503     3730 
   -1127    -5872   -10107   -12503   -12155   -10010    -7248    -4163 
   -1431     -329    -1613    -5208   -10319   -15628   -20251   -24055 
  -26896   -28684   -29551   -29328   -27946   -25622   -22125   -17194 
  -11385    -5499      103     5220     9235    11209    11097    10378 
   10646    12491    15944    20761    26173    30622    32100    29852 
   25247    20299    15990    12339     9354     7150     6075     6961 
   10042    14300    18458    21880    24695    27438    30325    32506 
   32617    29814    23545    14242     4117    -4907   -12456   -18661 
  -24055   -29367   -34623   -39407   -43378   -45885   -45805   -42801 
  -38043   -32690   -27415   -23325   -21151   -20210   -19219   -17554 
  -14879   -11190    -7655    -4865    -2328     -432       -1    -1404 
   -4415    -7978   -10578   -10922    -8625    -3983     2367     9231 
   15279    19249    20200    18108    13466     7222     1247    -2357 
   -2556     -279     2608     5557     9140    13221    16814    18829 
   18659    16565    13389     9987     6930     4260     1367    -2196 
   -6033    -9450   -12010   -13508   -13680   -12021    -8147    -2728 
    2057     4483     5409     6511     8190    10400    12865    15107 
   17185    18346    16454    10341      650   -11061   -22168   -29521 
  -31885   -30915   -28722   -25294   -19805   -13208    -7064    -1073 
    5830    13375    20216    24826    26314    24977    21784    18198 
   15345    12025     7018     2574      780      772     2624     6999 
   11129    12135    11164     9759     8044     6967     6825     6754 
    7271     9159    11583    13464    13743    11400     7164     2034 
   -4105   -10685   -16525   -21274   -25288   -27765   -27395   -25408 
  -22809   -18110   -11310    -3597     4384    10388    12414    11059 
    7555     3692     1764     1985     2706     2693      931    -3534 
   -9466   -13728   -15039   -14439   -12390    -8797    -4393     -112 
    3778     7832    13131    19807    26060    30264    32909    35378 
   38299    41071    41806    38724    32563    25708    19192    13155 
    8360     5611     5448     7893    11407    14106    16254    19039 
   21695    22717    21709    18400    13050     7223     1871    -2949 
   -6282    -7283    -7114    -7730   -10435   -15102   -20063   -24012 
  -26932   -29269   -30829   -30728   -28136   -22258   -13234    -2898 
    6720    14185    17965    17863    16031    13775    11003     8792 
    8334     9111     9508     8679     7105     5452     4237     3541 
    3041     2728     2079     -170    -4510   -10593   -18079   -26125 
  -33034   -36811   -36211   -31780   -24715   -15118    -3055    10412 
   23535    34078    40041    40435    36427    31139    26195    20799 
   14288     7380     1742    -1567    -2425     -996     1657     3955 
    4888     3819      851    -2193    -3387    -2413      521     4918 
    9188    11391    10203     5888      793    -3186    -6574   -10138 
  -13247   -15330   -16785   -18297   -20910   -25659   -31581   -36351 
  -38975   -39722   -39321   -38902   -38141   -35411   -30875   -26063 
  -21666   -17664   -13911   -10588    -7776    -5235    -3742    -3861 
   -4888    -6308    -6590    -3615     2316     9996    18852    27400 
   34273    39984    45152    49260    51771    52343    50811    48024 
   45084    41381    36274    31050    26601    22769    19452    16104 
   12037     6921      561    -6998   -14588   -20179   -23009   -23393 
  -21756   -19203   -16056   -11356    -5417      -18     3114     2602 
   -2085    -9976   -18929   -26986   -33601   -39009   -42589   -43132 
  -40420   -35005   -27461   -19032   -11087    -3788     3114     9225 
   14061    17338    19022    19857    20561    20862    20298    18855 
   16949    15173    13671    12825    13000    13169    12379    10260 
    6288     1139    -3969    -8430   -11244   -11271    -8540    -4164 
     427     3998     6844    10793    16443    22624    28031    31955 
   34446    35407    34342    31899    29538    27561    25195    21811 
   17639    13884    11353     9578     8181     7678     8291     9167 
    9682    10361    11666    12974    13009    11181     8215     4892 
    1426    -1480    -3241    -4072    -3646    -2204    -1651    -3180 
   -6617   -11014   -14539   -15637   -14985   -15453   -19539   -27820 
  -38962   -49798   -57333   -60377   -58283   -51167   -41328   -30828 
  -19892    -9725    -2006     3728     8222    11319    12926    12753 
   11080     9140     7665     7304     9040    12846    18030    23888 
   29693    34958    38932    40717    39937    37401    34572    31320 
   27048    23337    21813    21375    19939    16254     9606      720 
   -8271   -15774   -20795   -23307   -24813   -26005   -26337   -26025 
  -25671   -25429   -25493   -26175   -27328   -28202   -28459   -28526 
  -28996   -30693   -34089   -38190   -40979   -41044   -38628   -34924 
  -30904   -27372   -24768   -22361   -18925   -14235    -8808    -3138 
    1998     5919     8662    10790    13278    17136    22303    27704 
   32872    37660    41426    43949    45152    44374    40778    34855 
   29488    26222    23156    19080    15344    13899    15086    17221 
   19003    19650    18241    15574    13776    14347    17875    23548 
   28907    31407    30502    27635    24017    19939    16102    12876 
    9535     5574      989    -3549    -7539   -11047   -12918   -12907 
  -13132   -14712   -16567   -17334   -17482   -18339   -19859   -21705 
  -24008   -26422   -28217   -28890   -28617   -27380   -24544   -20642 
  -17055   -14442   -13139   -13392   -14415   -14310   -12656   -11062 
   -9593    -7092    -4074    -1252     2130     6586    10579    12345 
   12540    12550    12587    13073    15021    18351    22164    26082 
   29150    30250    29891    29031    27815    25753    23126    20995 
   19165    17431    16605    16633    16698    15782    13468    10936 
    9360     9388    11092    12850    12954    11403     8854     5189 
     184    -5395   -11298   -18643   -27522   -36128   -43210   -48127 
  -49237   -46880   -44003   -40508   -34615   -27743   -21658   -16549 
  -12708   -10046    -7703    -5471    -4203    -4110    -4579    -4855 
   -3469      747     7091    13620    18983    22370    23214    22750 
   22763    23679    25192    26489    26717    25265    22613    20474 
   19161    17797    16680    16524    16868    17410    18354    18338 
   16244    13177    10342     9127    10686    13783    17104    19889 
   19693    15105     7466    -1599   -10442   -17564   -22867   -26695 
  -29160   -30825   -32746   -35305   -37903   -40464   -43328   -45427 
  -45410   -43914   -42016   -39785   -37366   -34585   -30447   -24506 
  -17193    -9643    -3794    -1228    -2644    -7461   -13601   -19024 
  -21660   -20640   -17224   -11804    -4831     2373     9775    17243 
   23726    28399    31112    32026    31218    29249    26539    23299 
   20715    19942    20756    22307    24649    28665    34369    40366 
   44830    46943    47498    47598    47383    46538    45218    43819 
   42072    39181    35613    33108    31708    29922    27885    26549 
   25839    26018    27544    29748    31538    31354    27784    21431 
   14239     8052     3520     -596    -5536   -11146   -16872   -22056 
  -25957   -28173   -29027   -29701   -31027   -32888   -34971   -37207 
  -39395   -41162   -42676   -44139   -45245   -46029   -46813   -47405 
  -47538   -47208   -46218   -44367   -41608   -38219   -34727   -31309 
  -28210   -26003   -24494   -22796   -20800   -18819   -16727   -14702 
  -12471    -9096    -4796       74     6114    13220    20648    28170 
   35710    43191    50453    56637    60660    61817    59541    53966 
   46861    40566    35789    31803    28372    26299    26003    26908 
   28896    31918    34847    37327    40095    42867    44196    42538 
   37353    29677    20995    11777     2555    -4644    -8602   -10567 
  -12077   -13833   -16157   -18856   -21686   -24696   -27113   -27864 
  -27168   -25377   -22624   -19661   -16654   -13459   -10434    -7461 
   -3825      538     4702     8334    11739    14304    15444    15577 
   14963    13420    10624     6473     1910    -2019    -5162    -7931 
  -11190   -15477   -20460   -25249   -28591   -29358   -27288   -23545 
  -20023   -17791   -16448   -14721   -11958    -8665    -5351    -2020 
    1305     4549     7831    11257    14642    17813    21037    24511 
   27531    29222    29832    30132    30215    29808    29216    29257 
   30063    30747    30316    28765    27437    27792    30022    33255 
   36445    38925    40300    40023    37685    33077    26403    19202 
   13186     9196     7642     7789     7882     6679     3844     -722 
   -6901   -13988   -21282   -28324   -34545   -39775   -44659   -50220 
  -56682   -62617   -66097   -66447   -64104   -59424   -53137   -46479 
  -39792   -33115   -27054   -21354   -14588    -6659      666     6451 
   11084    14998    18607    22191    26088    30894    36159    40529 
   43792    46685    49567    52077    53400    53619    53546    53022 
   51719    49773    47104    44045    40998    37615    33644    29100 
   23834    17917    11692     5216    -1686    -8403   -13986   -18531 
  -22312   -25054   -26801   -27437   -26563   -24729   -22891   -21351 
  -20158   -19257   -18860   -19137   -19708   -21031   -23564   -27008 
  -31090   -34503   -36127   -36474   -36555   -37093   -37810   -37679 
  -35704   -31399   -25226   -17878   -10068    -3265     1417     4337 
    5798     6115     6936     8598     9336     8982     8849     9235 
    9856    11237    14359    18820    23039    26028    27593    28054 
   27679    26465    24988    23799    22927    23074    24872    27749 
   30613    32292    32548    31999    30863    29744    28775    26973 
   24073    19926    14432     8344     2227    -3335    -8284   -13500 
  -18817   -23660   -28009   -31367   -33340   -33926   -32991   -30723 
  -27704   -24568   -21675   -19091   -17041   -15665   -14413   -12906 
  -11878   -12231   -13312   -13289   -11426    -8385    -5004    -2146 
    -411      444      962     1992     4777     9413    14413    18341 
   20544    20698    19056    16491    13432    10112     6993     4078 
    1200    -1728    -4896    -8163   -10899   -12299   -11747    -9375 
   -6079    -2629      646     3260     4669     5043     4862     4230 
    3048     1221    -1431    -4801    -8274   -11674   -15153   -18261 
  -20773   -22851   -24063   -23881   -22457   -20279   -17701   -14751 
  -11516    -8520    -6146    -4469    -3858    -4725    -6531    -7819 
   -7717    -6436    -4403    -1672     2185     6964    11754    16594 
   22079    28042    33500    37457    39688    40219    38846    35415 
   30003    23117    15434     7801     1148    -4027    -7437    -9235 
  -10380   -11570   -13072   -15001   -16809   -18246   -19722   -21085 
  -22130   -23147   -24356   -26134   -28577   -30885   -32729   -34539 
  -35819   -35615   -33628   -29809   -25043   -20858   -17502   -14724 
  -13068   -12649   -12927   -13783   -14706   -14593   -13231   -11007 
   -8230    -5410    -2921     -810      923     1942     1614       76 
   -2074    -4502    -6477    -7375    -7169    -5887    -3569     -283 
    3989     8958    13763    17907    21795    25382    28027    29782 
   30890    31133    30755    30555    30542    30125    29239    27830 
   25516    22280    18549    14833    11521     8920     7156     6177 
    6021     6693     7978     9479    10755    11570    11881    11705 
   10829     8918     6252     3213     -342    -4055    -7198    -9698 
  -11956   -14439   -17440   -21022   -24861   -28189   -30406   -31518 
  -31868   -31874   -31963   -32536   -33831   -35784   -38006   -40053 
  -41782   -43017   -43521   -43753   -44235   -44656   -44583   -44030 
  -42921   -40690   -36744   -30878   -23345   -14818    -6177     1620 
    8224    13875    18447    21968    24854    27183    29192    31699 
   35328    39892    44685    49153    53099    56246    57844    57670 
   56897    56520    56084    54932    53410    52201    51300    50252 
   48760    46476    43229    39580    36003    32559    29548    26935 
   24050    20526    16536    12178     7626     3262     -955    -5134 
   -9109   -13367   -18786   -25120   -30915   -35545   -39964   -44113 
  -46337   -46118   -44220   -41669   -39472   -37573   -35748   -34229 
  -32863   -31583   -30237   -28607   -27175   -26083   -24603   -22188 
  -18901   -14925   -10170    -4496     1591     6864    10620    13396 
   15832    18018    19936    21613    23295    25222    27386    29786 
   31950    33161    33539    33761    34191    34605    34485    33682 
   32790    32501    32625    32325    31212    29467    27547    25843 
   23946    21250    18162    15171    11971     8407     4803     1348 
   -1803    -4423    -6239    -7101    -7383    -7462    -7477    -7743 
   -8297    -8938    -9622   -10222   -10794   -11724   -13051   -14346 
  -15333   -15894   -15854   -15241   -14230   -12887   -11354    -9952 
   -8892    -8215    -7960    -7928    -7526    -6299    -4199    -1487 
    1270     3511     4996     5834     6326     6382     5842     5271 
    5356     6231     7869    10100    12340    14046    15203    16275 
   17713    19423    20900    21585    21130    19716    17753    15503 
   12912     9632     5644     1408    -2540    -5772    -8144    -9783 
  -10897   -11619   -12039   -12579   -13555   -14592   -15138   -14875 
  -13690   -11943   -10145    -8372    -6592    -4984    -3464    -1598 
     637     2548     3459     3477     3188     3219     4174     6214 
    9115    12390    15037    16318    16513    16299    16164    16440 
   17174    17901    18100    17701    16835    15705    14625    13932 
   13865    14254    14584    14463    13707    12334    10513     8344 
    5890     3381     1235     -203     -842     -890     -808     -731 
    -521     -400     -715    -1753    -3653    -6096    -9239   -13678 
  -18677   -22855   -25691   -27001   -26908   -25925   -24351   -22207 
  -19256   -15272   -10486    -5443     -819     2907     5775     8051 
    9907    11534    13252    15318    17826    20568    22887    24244 
   24609    24178    23469    23318    24167    25593    26842    27506 
   27394    26438    25053    23784    22577    20937    18488    15373 
   12064     8932     6334     4467     3187     2224     1422      935 
     834      635     -228    -1937    -4398    -7258    -9837   -11483 
  -12055   -12043   -11967   -11754   -11078    -9804    -8016    -6227 
   -5227    -5427    -6426    -7487    -8128    -7935    -6933    -5756 
