Origin Time       2016/04/16 01:25:00
Lat.              32.753
Long.             130.762
Depth. (km)       12
Mag.              7.3
Station Code      MYZ014
Station Lat.      31.8454
Station Long.     131.3026
Station Height(m) 135
Record Time       2016/04/16 01:25:25
Sampling Freq(Hz) 100Hz
Duration Time(s)  183
Dir.              N-S
Scale Factor      7845(gal)/8223790
Max. Acc. (gal)   45.206
Last Correction   2016/04/16 01:25:25
Memo.             
[...]
    5332     8278    11890    16159    19554    21305    21988    21608 
   18902    13053     5593    -1540    -8203   -13710   -17613   -21613 
  -25342   -26137   -24096   -21934   -21903   -23538   -24291   -23800 
  -24046   -25088   -24856   -22700   -20283   -18513   -16246   -12541 
   -7654    -2762      562     1586      218    -3186    -6744    -7506 
   -4549    -1063      -87      684     4792    10358    13215    12653 
    9979     6710     3870     -533    -7931   -15300   -20642   -24622 
  -26411   -26273   -26761   -27530   -26646   -25016   -23747   -21956 
  -19089   -15385   -11688    -9919   -10770   -12190   -12621   -13409 
  -14717   -12822    -6417      453     5408    10268    15172    17069 
   14689     9655     3809    -1197    -4468    -6605    -8162    -9205 
   -9913   -10624   -12252   -14704   -15561   -13711   -12428   -14418 
  -16272   -14029   -10766   -11866   -15943   -17170   -14960   -13099 
  -11722    -8903    -5147    -1667      429      -35    -2844    -6675 
   -9940   -11426   -11398   -11028   -10584    -8810    -4737       82 
    3292     4789     4950     2917    -1282    -6725   -12772   -18345 
  -21622   -20920   -16949   -13429   -12934   -14150   -15051   -15817 
  -16771   -16391   -13637   -10133    -7946    -6417    -3824    -1364 
    -899     -610      625     -302    -3989    -6334    -5266    -2857 
   -1788    -2300    -2971    -4085    -6019    -6777    -6238    -7005 
   -8911   -10030   -11263   -14153   -17894   -20699   -21751   -21624 
  -21346   -21424   -21641   -20933   -18496   -15553   -14003   -13552 
  -12145    -8546    -3950     -980     -476     -869     -660      112 
    -167    -2559    -4889    -3960       52     3693     3782      -71 
   -6285   -13640   -20827   -24580   -22867   -19275   -18702   -20621 
  -21652   -21047   -19734   -17972   -15834   -13914   -12850   -12071 
  -10535    -9374   -10365   -11940   -11372    -8928    -6346    -4455 
   -3655    -4349    -6493    -8919    -9317    -6552    -2705     -707 
    -611      -14     1755     2597     1760      977      961      492 
   -1008    -2398    -3582    -7408   -14686   -20763   -22604   -22746 
  -22658   -20821   -17501   -14659   -12653   -10184    -7018    -5680 
   -8418   -12858   -14666   -14143   -14677   -16143   -16108   -14443 
  -12151    -9479    -6748    -4889    -4565    -4719    -4299    -4719 
   -7431   -10971   -12471   -11257    -9563    -9322    -9594    -8116 
   -4669     -700     3319     6782     7905     6575     4531     2470 
      60    -2102    -2718    -2253    -3397    -7307   -11477   -13254 
  -13547   -14802   -16646   -17177   -16625   -16190   -16147   -15986 
  -15513   -16490   -19156   -19083   -15124   -12993   -14740   -16085 
  -15461   -14701   -13720   -11700    -9755    -9396   -10184    -9884 
   -7295    -4040    -2205    -1223      508     1726      278    -2706 
   -5463    -8174   -10658   -12550   -13753   -13464   -12617   -13223 
  -13921   -12020    -8471    -6550    -6539    -5508    -2849    -1466 
   -2740    -4467    -4699    -4534    -5321    -6691    -8807   -12299 
  -15377   -14476    -9137    -4140    -3458    -4936    -5382    -6091 
   -9062   -13073   -16147   -17919   -18786   -19040   -17968   -14156 
   -8978    -5772    -4468    -3352    -3296    -4930    -6691    -7292 
   -6550    -5386    -5003    -4895    -4418    -5169    -8047   -10454 
  -10786   -11979   -14879   -15360   -13005   -11969   -12919   -13575 
  -13509   -13905   -14904   -13971    -9046    -2894      513     1327 
     993     -850    -4121    -7307    -9524   -11492   -14073   -16952 
  -19183   -19724   -17975   -15537   -15754   -19055   -21392   -20648 
  -19498   -18909   -17058   -14445   -11975    -8268    -2951     2269 
    6034     7902     7892     6552     4573     2301       79    -1969 
   -4423    -6710    -7083    -5900    -4970    -5204    -7023    -9794 
  -12089   -14104   -17192   -20892   -22503   -20961   -19259   -19730 
  -20524   -20517   -21682   -23684   -22409   -16275    -9501    -6200 
   -5007    -3022     -473     1296     2729     5088     7936     9574 
    9325     8215     7784     7639     6230     3866     1166    -2215 
   -5751    -9491   -14634   -20279   -23642   -23449   -21081   -18982 
  -18586   -19222   -19332   -19192   -20194   -21375   -20339   -17011 
  -13231   -10242    -9069   -10342   -12307   -12488   -10660    -7955 
   -5429    -4102    -4159    -3767     -761     3418     5327     4646 
    2627     -598    -4251    -7322    -9790   -11481   -12089   -11946 
  -11623   -10956    -9316    -7119    -5471    -4900    -5713    -7807 
  -10052   -11350   -11658   -11538   -11379   -11241   -11493   -12556 
  -13606   -13014   -10230    -6682    -3824     -926     2346     4182 
    4125     3152     1000    -2266    -5189    -7026    -8750   -11570 
  -14532   -15364   -14170   -13252   -13744   -15241   -17524   -20140 
  -21277   -19745   -16745   -13448    -9740    -6158    -3308     -630 
    1629     1937     -383    -4460    -8527   -10712   -10291    -8410 
   -7319    -8454   -10380    -9950    -6507    -2047     2254     6273 
    9364    10675     9301     4669    -1863    -7885   -12861   -17371 
  -20379   -20938   -20791   -21655   -22654   -22597   -21101   -18112 
  -15400   -15597   -18534   -21462   -22653   -21771   -18318   -13128 
   -8357    -4442     -997      963     1251     1784     3188     3418 
    1780      999     2380     3086     1561      307      958     1501 
      -1    -2214    -3491    -4748    -7136   -10783   -15842   -21894 
  -27247   -29382   -27203   -22967   -19684   -18372   -18697   -19597 
  -19870   -19390   -18715   -17394   -14506   -11001    -9058    -8800 
   -8215    -6750    -5593    -4483    -2041     1113     2655     1802 
     -21    -1401    -2168    -3480    -6281    -8418    -6891    -3284 
   -1471    -1472     -942      141      394     -167     -886    -2485 
   -6606   -12517   -16559   -17258   -16977   -17126   -16748   -15552 
  -14284   -12934   -11155    -9661    -8892    -8051    -7149    -6875 
   -7361    -9400   -13644   -18382   -21126   -21560   -20933   -19290 
  -15970   -11865    -8513    -6652    -6135    -6087    -6165    -6894 
   -8290    -9811   -10972   -11323   -10658    -9159    -7383    -6183 
   -5697    -4378    -1194     1502      700    -2933    -6728    -9645 
  -11335   -10485    -7271    -4318    -2739    -1030     1597     3979 
    4406     2153    -2161    -7074   -10924   -13051   -13656   -13054 
  -11959   -10767    -9558    -8460    -6724    -4537    -4514    -7643 
  -10940   -12062   -12729   -14683   -16208   -15542   -13466   -10771 
   -7137    -3223    -1084    -1655    -3782    -5623    -5497    -3457 
   -2238    -3939    -7770   -12048   -15078   -15417   -13502   -10984 
   -9377    -9749   -11306   -12322   -13285   -15252   -16622   -15639 
  -13555   -12236   -11844   -12712   -15280   -17509   -16808   -13585 
  -10120    -8232    -8480    -9629    -9450    -7527    -6189    -7302 
  -10193   -13073   -13771   -10404    -3943     1768     3905     2728 
     -94    -2813    -3959    -3179    -1487     -666    -1549    -3106 
   -4279    -5297    -7202   -10839   -15533   -19506   -21552   -21408 
  -19665   -17572   -15526   -12618    -8513    -4205     -661     1230 
     143    -3797    -8627   -12911   -15326   -14133   -10239    -7015 
   -5798    -5485    -5698    -7146    -9413   -10489    -9445    -8090 
   -7820    -7249    -5838    -5640    -6880    -7566    -7678    -8019 
   -7742    -6384    -4525    -3240    -4197    -7342   -11075   -15238 
  -19384   -21456   -21258   -20174   -17833   -13818    -9736    -6616 
   -4085    -2299    -1658    -1949    -2911    -5267    -9958   -15093 
  -17080   -15226   -10864    -5260    -1119     -714    -2612    -4294 
   -5742    -8352   -12827   -19055   -25454   -28996   -28663   -26539 
  -24501   -22778   -20895   -18917   -17703   -17127   -16155   -15168 
  -14662   -12919    -8587    -3454     -228      965     1784     1891 
    -880    -6711   -13197   -17424   -17552   -14112    -9366    -4999 
   -1310     1664     2822     1435    -1111    -3388    -4600    -3693 
   -2004    -2506    -5267    -8472   -11076   -13051   -15851   -20460 
  -24939   -26966   -27163   -27083   -25820   -22135   -17268   -12409 
   -7689    -4556    -4067    -4590    -4450    -3861    -3604    -3883 
   -4156    -3942    -3682    -4072    -4136    -1830     2169     4920 
    5447     4861     4291     4357     5154     6397     6847     5073 
    1848    -1474    -5238    -9174   -11808   -12735   -12460   -12280 
  -14343   -18796   -23251   -26057   -27075   -26353   -24310   -22071 
  -20256   -18237   -15337   -12100    -9246    -6318    -3183    -1004 
    -392     -855    -1795    -3107    -5113    -7510    -9873   -12560 
  -14635   -13836   -10338    -7209    -6562    -7796    -9921   -12494 
  -13948   -13363   -13066   -15381   -18644   -19406   -17377   -15195 
  -13360    -9900    -4710      525     4769     7437     8217     7209 
    4568      915    -2288    -3585    -2444     1096     6458    11754 
   14936    15387    13668    10813     7335     3075    -1651    -6309 
  -11109   -15721   -18465   -18685   -17689   -16471   -14839   -12636 
  -11032   -11610   -14247   -17923   -21818   -24845   -27071   -30034 
  -33681   -36441   -38179   -39096   -37683   -33023   -27000   -22003 
  -18149   -14496   -11048    -8170    -5602    -2747      191     2309 
    3842     6315    10100    13386    14941    15881    16613    15371 
   11603     6710     1181    -5243   -11530   -16124   -18785   -20385 
  -21531   -21713   -19660   -15271   -10960    -9420   -10743   -12833 
  -13802   -13900   -14601   -16379   -19272   -23403   -27064   -27627 
  -25051   -21104   -15735    -7670     2269    11495    18114    21435 
   21243    17181     9270    -1127   -11669   -20077   -25438   -28694 
  -30944   -32354   -33388   -34411   -34331   -32695   -30512   -27611 
  -22979   -17278   -12528    -9769    -8111    -6710    -6183    -6947 
   -8779   -11924   -15542   -17038   -15206   -11772    -9578   -10135 
  -12276   -13131   -10465    -4441     2205     6528     8256     8966 
    9225     8667     7623     6521     4691     1452    -2288    -4687 
   -4824    -3040      266     4602     8434    10555    10936     8618 
    2338    -6507   -14547   -18918   -19030   -16413   -12055    -5952 
     708     5524     6701     4228     -747    -7535   -15392   -23128 
  -30684   -37760   -42341   -42742   -38190   -29911   -21694   -15326 
   -9884    -5066     -577     3647     5818     3939    -2042    -9865 
  -16320   -19059   -17396   -12756    -7373    -2593      517     1274 
     324    -1580    -4664    -9142   -14442   -19777   -24594   -28048 
  -29056   -26951   -21620   -13875    -5301     2982    10087    14319 
   14521    11874     8843     6115     2385    -2073    -5223    -6662 
   -7229    -6852    -5495    -4101    -3562    -3937    -4523    -4945 
   -6000    -8244   -11068   -13660   -15337   -15519   -14196   -12046 
   -9788    -7681    -5802    -4369    -3885    -4446    -5363    -6972 
  -10999   -17923   -26203   -33538   -38032   -39183   -37316   -32784 
  -26433   -19236   -11539    -3281     5509    14395    22324    27662 
   29135    26897    22046    15561     8075      157    -8289   -17486 
  -25242   -28533   -26920   -21442   -14239    -8754    -7179    -9359 
  -13194   -15809   -15977   -14131   -10327    -4766      680     4652 
    8283    12631    17178    21223    23382    21984    17582    11426 
    2538    -9622   -21411   -28979   -33582   -37112   -37504   -33444 
  -27542   -22928   -20555   -20116   -21452   -23892   -26364   -28602 
  -29847   -28949   -26751   -24271   -20451   -14667    -8164    -1969 
    4170    10486    16629    21921    25050    25481    24108    21604 
   18945    17188    15282    11967     7734     2789    -3153    -9228 
  -14172   -17875   -20818   -22836   -23696   -23958   -24690   -26725 
  -30084   -34135   -38361   -42419   -45110   -44790   -41897   -38642 
  -35507   -30943   -24197   -16063    -7827    -1193     1964     1282 
   -1487    -4158    -5655    -6022    -5783    -5949    -7215    -8863 
   -9994   -10150    -9427    -9174    -9953   -10910   -11997   -13113 
  -13621   -14331   -16086   -17725   -17857   -16154   -12769    -7959 
   -2650     1528     4125     5687     6459     6424     4202     -966 
   -6833   -12179   -18112   -23757   -26283   -25384   -23554   -21193 
  -16278    -9420    -3453      398     2077     1753      415     -869 
   -2390    -5425   -10616   -17020   -22300   -24354   -22285   -16375 
   -8633    -1435     4268     8492    11192    11661    10119     8525 
    7769     7530     8257     9661     9682     7290     4144     1954 
     330    -1599    -3873    -6583   -10554   -16599   -23946   -30403 
  -34302   -35016   -33178   -30948   -29766   -28895   -26974   -23234 
  -18264   -14027   -12029   -12447   -14638   -17145   -18215   -17235 
  -15115   -12357    -8035    -2295     2971     7214    11338    14964 
   17247    18932    20478    20329    16912    10543     2713    -5807 
  -15298   -24798   -31959   -35901   -37050   -35596   -32313   -28167 
  -23237   -18013   -13751   -10710    -7985    -5084    -2558     -816 
     912     3489     6311     8738    11874    15817    18724    20534 
   22125    22518    20754    17189    12968     8827     3882    -2963 
  -12191   -23788   -36077   -46619   -53827   -56350   -53299   -45253 
  -33477   -19782    -7264     1121     4293     3276      330    -3141 
   -6828   -10196   -13358   -16823   -20034   -21543   -19354   -13138 
   -5301     1899     6652     7522     5366     1929    -1599    -5013 
  -10203   -17987   -25501   -30454   -33370   -34491   -33296   -30442 
  -27162   -23747   -20540   -18261   -16451   -14566   -13159   -12599 
  -12448   -11699   -10131    -8679    -7098    -4376    -1069     1831 
    3757     2880    -2575   -11572   -21429   -29914   -35289   -36559 
  -34210   -29756   -23834   -15607    -5256     4623    11165    13120 
   10894     5585    -1453    -8020   -12283   -14215   -14635   -13621 
  -10327    -5617    -2245     -508      673      -10    -3532    -8281 
  -12445   -15835   -19325   -22540   -24021   -23873   -23238   -22276 
  -20771   -19265   -18091   -16613   -14604   -12777   -11453   -10436 
  -10299   -11692   -13907   -16051   -17517   -17176   -14399    -9528 
   -3194     4144    11939    18663    23009    25215    25590    24031 
   21352    18442    14893    10192     4861       25    -3535    -5977 
   -7886    -9956   -12588   -15057   -16756   -18361   -19988   -20780 
  -20754   -20191   -18713   -16063   -12367    -8687    -6502    -6073 
   -6821    -7743    -8313    -9784   -12907   -16549   -19675   -21296 
  -20005   -16316   -12560    -9339    -5795    -2431     -284      318 
    -297    -1043    -1535    -2012    -1873     -999       52     1575 
    3954     6277     7110     5934     2646    -2600    -8490   -13101 
  -15394   -16394   -17849   -19704   -21405   -23326   -25331   -26801 
  -27449   -27070   -26098   -25192   -24046   -22592   -21385   -20349 
  -19354   -18281   -16610   -14288   -11546    -8648    -5888    -2795 
     993     4693     6843     6033     2118    -3804   -10493   -16355 
  -19634   -19394   -15967   -11229    -7458    -5548    -5402    -6905 
   -9783   -13184   -15585   -15890   -14382   -11921    -9412    -7543 
   -6006    -4068    -1638      787     2369     2308      992     -289 
   -1224    -2249    -3530    -5566    -8721   -12270   -14931   -15483 
  -13821   -11079    -7959    -4835    -2740    -2407    -3349    -4633 
   -5744    -6477    -6562    -5606    -3474     -967      872     2282 
    4155     6505     8961    11506    13537    13825    12029     8644 
    4279     -198    -4186    -7844   -11381   -14331   -15992   -16114 
  -15072   -13751   -13155   -14165   -16826   -19522   -20504   -20019 
  -19487   -19356   -19089   -18373   -16995   -14714   -12183   -10527 
  -10147   -10970   -12835   -15028   -16287   -15915   -14506   -13324 
  -12920   -12721   -12457   -12491   -12391   -11746   -11144   -10660 
   -9938    -9483    -9815   -10862   -12733   -15769   -19986   -24433 
  -26951   -25884   -22202   -18080   -14041   -10058    -7354    -6709 
   -7692    -9297   -10084    -9568    -8559    -7823    -7693    -7553 
   -6280    -3943    -1387      978     2817     3385     1837    -1895 
   -7132   -13502   -20517   -26781   -30936   -32335   -31147   -28405 
  -24945   -20979   -16995   -13703   -10883    -7628    -3927     -587 
    1935     3530     4398     5109     5952     7087     8923    11210 
   12985    13624    12741    10169     6338     1701    -3323    -7966 
  -11780   -15006   -17752   -19639   -20731   -21686   -22306   -21755 
  -20286   -18792   -17933   -18145   -18912   -19075   -18146   -16157 
  -13246   -10112    -7537    -5603    -4367    -3963    -3892    -3709 
   -3719    -4368    -5760    -7392    -8108    -7257    -5749    -4787 
   -4261    -3615    -2880    -1875      -36     2560     5258     7353 
    8222     7869     6812     5166     2654     -418    -3071    -4480 
   -4464    -3622    -2458     -436     2650     5310     5988     4837 
    2902      974     -479    -1578    -2795    -4077    -4862    -4702 
   -3704    -2756    -2783    -3770    -5184    -6669    -8248   -10237 
  -12480   -14466   -16002   -17046   -17750   -18295   -18353   -17778 
  -17362   -17676   -18180   -19271   -22461   -27088   -30620   -31904 
  -31790   -31473   -31213   -30564   -28983   -26338   -23009   -19259 
  -15051   -10733    -7406    -5285    -2948      295     3721     6739 
    9165    10671    11016    10463     9277     7354     4634     1347 
   -2111    -5849   -10584   -16777   -23795   -29959   -34366   -37307 
  -38051   -35866   -32082   -28267   -24919   -22072   -19593   -17324 
  -14895   -12213    -9684    -7055    -3392     1368     6122    10276 
   14339    18534    22469    25524    27121    27149    25647    23129 
   20865    19461    18354    16897    14777    11379     5952    -1304 
   -9204   -16559   -22928   -28401   -33243   -38013   -42492   -45486 
  -46662   -46044   -43011   -37844   -31354   -23928   -16915   -11832 
   -8590    -6235    -3457      560     4965     8931    12827    16748 
   20002    22229    24155    26466    28339    28258    25770    21486 
   15842     9265     3105    -1291    -4299    -7026    -9061    -9761 
   -9906   -10179   -11119   -13608   -17347   -21223   -24692   -27467 
  -29155   -29604   -29102   -28155   -27154   -26184   -24764   -22447 
  -19106   -14588    -9949    -6852    -5161    -4796    -6119    -7360 
   -7029    -6288    -6801    -8509   -10099   -11082   -11229    -9763 
   -7280    -5161    -3379    -1540      321     2231     3496     3036 
    1198     -943    -3375    -6293    -8681    -9294    -8614    -7735 
   -5753    -1876     1791     3221     3092     2833     2409      726 
   -2004    -4360    -6413    -8874   -11466   -14199   -17329   -20713 
  -23922   -26252   -27603   -28313   -28184   -27101   -25209   -22565 
  -19506   -16374   -13016    -9481    -6239    -3544    -1815    -1865 
   -3800    -6966   -10485   -13034   -13915   -14053   -14798   -16780 
