Origin Time       2016/04/16 01:25:00
Lat.              32.753
Long.             130.762
Depth. (km)       12
Mag.              7.3
Station Code      MYZ020
Station Lat.      32.4550
Station Long.     131.1470
Station Height(m) 612
Record Time       2016/04/16 01:25:14
Sampling Freq(Hz) 100Hz
Duration Time(s)  300
Dir.              E-W
Scale Factor      7845(gal)/8223790
Max. Acc. (gal)   180.597
Last Correction   2016/04/16 01:25:14
Memo.             
[...]
    3222     3221     3219     3221     3219     3219     3221     3221 
    3217     3213     3215     3221     3222     3219     3219     3222 
    3223     3223     3223     3221     3218     3210     3206     3218 
    3232     3232     3229     3229     3222     3213     3211     3217 
    3219     3223     3227     3225     3218     3218     3222     3221 
    3215     3211     3215     3227     3234     3231     3223     3213 
    3211     3218     3219     3219     3225     3221     3211     3213 
    3223     3227     3226     3227     3222     3213     3213     3215 
    3218     3225     3229     3223     3218     3217     3217     3221 
    3225     3225     3223     3221     3219     3217     3213     3211 
    3207     3213     3235     3242     3225     3210     3213     3225 
    3231     3226     3213     3206     3210     3219     3223     3223 
    3223     3223     3225     3219     3217     3221     3218     3213 
    3217     3221     3226     3225     3215     3213     3223     3229 
    3225     3219     3213     3211     3217     3225     3226     3221 
    3219     3221     3227     3231     3225     3215     3210     3213 
    3225     3229     3221     3217     3218     3213     3211     3219 
    3230     3229     3222     3215     3213     3217     3221     3219 
    3217     3217     3225     3234     3231     3219     3210     3213 
    3219     3221     3219     3225     3226     3218     3210     3213 
    3226     3226     3221     3222     3226     3223     3215     3210 
    3219     3227     3223     3223     3223     3215     3210     3210 
    3213     3223     3232     3230     3219     3211     3211     3217 
    3225     3230     3227     3219     3213     3213     3213     3211 
    3219     3226     3221     3219     3221     3219     3225     3227 
    3222     3219     3217     3211     3211     3217     3221     3221 
    3223     3227     3223     3215     3219     3226     3223     3219 
    3217     3213     3213     3218     3219     3222     3219     3217 
    3219     3222     3222     3221     3217     3217     3221     3223 
    3222     3217     3213     3215     3219     3221     3225     3226 
    3218     3213     3219     3226     3223     3221     3222     3222 
    3222     3223     3221     3217     3215     3218     3221     3223 
    3227     3229     3223     3213     3208     3217     3222     3221 
    3221     3221     3219     3219     3219     3219     3217     3218 
    3223     3226     3222     3218     3218     3215     3215     3222 
    3222     3219     3223     3227     3223     3219     3221     3222 
    3221     3218     3215     3213     3215     3221     3223     3222 
    3221     3223     3223     3217     3215     3218     3221     3223 
    3221     3219     3221     3219     3219     3223     3225     3227 
    3235     3244     3253     3272     3288     3302     3336     3403 
    3474     3510     3518     3551     3646     3754     3786     3707 
    3566     3445     3396     3412     3439     3435     3416     3429 
    3466     3503     3484     3304     2915     2551     2614     3192 
    3820     3929     3566     3346     3537     3643     3222     2636 
    2639     3449     4333     4353     3593     3046     3377     4266 
    4664     3770     2257     1861     2921     3459     2196      523 
    -294     -596      352     3690     7038     6727     3229     -162 
   -1107     1081     4197     3932     -592    -4639    -3277     3003 
    9169    10453     6743     2130     -259      558     4338     7321 
    5325      243    -1760     1836     7268    10121     9617     7080 
    3672      587      382     4199     8364     8120     3366    -1206 
   -1279     2725     7176     9157     8159     5287     1921      429 
    3924    10750    12135     3022    -8324   -10326    -2034     8591 
   13585    11203     6427     3747     2416     1088      602      205 
   -1570    -3443    -3761    -1138     5772    13828    16378    10986 
    2671     -519     4207     9738     6886    -2263    -7037    -3950 
    1509     5562     7156     5337     2847     3164     4051     2350 
    -805    -4396    -8827   -10922    -5722     5000    11980     9505 
    2937      352     1975     3057     1898     1094     2182     3179 
    3882     7230    11647     9961      784    -6521    -3505     7188 
   16460    18252    14030     9907     8182     6238     3997     2255 
   -1455    -5255    -2787     3709     6093     5768     7974     8500 
    4563     2924     3904     -957   -10204   -13699    -8181     3003 
   13054    13818     5674    -2357    -2141     7572    17373    14362 
   -1131   -14901   -17516   -13127    -6747     2142     9094     7736 
    3420     5918    15117    23218    22253     8581   -11006   -21236 
  -14611     1279    14370    16431     7485    -1366     2118    18143 
   32336    27245     4438   -15178   -16544    -1761    14860    16625 
    -915   -22770   -25671    -3403    26613    43980    37993    10055 
  -24035   -40239   -25029     5860    22287    14886     -819    -6633 
    3483    21587    30831    20370     -808   -13914   -10466     4121 
   18432    22480    14326     2107    -5173    -5557      834    12289 
   17884     7851    -8117   -12966    -4676     7155    12395     5798 
   -8397   -17406   -10747     4217    10152     5664     1583      279 
   -1378    -1930     -785    -1912    -5097    -5235     -707     7177 
   15965    19685    14567     7699     7782     8267      841    -4800 
   -1185     3099     4959     8382     8147       51    -3496     8550 
   22243    19441     5826    -4072    -6820    -4088     5625    17613 
   17936     7534     1363    -3036   -14539   -20839   -11052     1308 
    4522     4098     3160     3361     9695    14489     9622     5009 
    6396     3281    -8050   -16958   -14970    -1394    18103    26580 
   11485   -10870   -14852     1457    21747    29763    21427    11146 
   12046    13410     3339    -9472   -21514   -34960   -32738    -5171 
   27047    40431    29930     8869    -2860     2604    16170    19793 
    3261   -22222   -35167   -24356     3325    29865    39395    26829 
    3148   -10598    -5597     5092     6107    -1593    -7457    -1672 
   20898    44794    40576     8398   -20428   -28165   -23742   -20183 
  -19954   -17489    -1084    32474    59009    53624    22790   -10326 
  -30426   -33647   -20537     1242    17336    20911    14775     5894 
    1467      799     -210      -35     1328     3526    13005    27020 
   30121    16595    -4129   -19843   -26084   -23105   -10710     3585 
   13709    23993    28748    18408     3981     -592    -1588   -10692 
  -22704   -22019    -6268    10435    17024    15593    13311    13848 
   16309    17120     8243   -15682   -37957   -36146   -17084      319 
   13852    27569    35178    29084    22292    29219    34105    21361 
    1359   -16110   -25949   -17440     5188    20638    16704      -39 
  -10808    -5040     4477     3607    -3308    -7646    -9868   -14473 
  -21132   -22310   -10835     6475     9888    -2288    -6103     4888 
   18060    33112    41002    21822   -14100   -30592   -12058    15021 
   24902    24793    17952      719    -7585     4818    20237    26239 
   25288    13567    -7977   -19010   -12202    -3991     3634    15789 
   21087    15724     6558    -4325   -12089   -10006    -1327     1048 
   -5999    -9078      197    17185    30751    30570    19440     5489 
   -6995    -6417    10247    20968    10238   -12644   -30407   -29312 
   -8225    14351    17111     5120    -2196    -2095     8611    34574 
   50589    34025     1116   -24279   -30789   -16549      105    -5540 
  -29346   -43605   -30984     4472    40451    51867    40857    27627 
   19711    16931    16840     9736    -7333   -24865   -34846   -35425 
  -25215    -4083    18944    28246    23508    22096    28306    28038 
   11005   -13203   -20187   -11663   -13309   -22581   -19317    -1669 
   15422    18760    15367    16578    18453    17211    13536    -1162 
  -27882   -38128   -16715     8054    19215    23766    13171    -9501 
  -11475    12557    26781    17707     7453    -3331   -21875   -20872 
    6818    31010    37266    22540    -5877   -17882    -1836    13015 
     318   -25909   -40657   -41011   -26152     5630    32736    34076 
   22704    22756    40274    57034    45034    10478   -11558   -17329 
  -29139   -40301   -30198   -15263   -16785   -14508    11103    44250 
   63409    61129    39869    11155    -9120   -12931    -6655    -6069 
  -18250   -26302   -12312    11751    24790    23245     9471   -12517 
  -32211   -36440   -20054    -1606     5294    15245    26847    20857 
      93   -18962   -25006   -17838    -3851    10921    12808     -857 
   -9159    -4510     4599    16934    23217    11580     -660    12166 
   41785    57720    48656    29068    10979     1158     9847    25038 
   21740     4672    -5992    -7087    -7908   -10783    -7453      627 
    -513   -10744   -12326     2003    17628    22081    19179     6134 
  -25564   -54859   -53495   -35668   -25658   -11488    19687    43816 
   37590    14862    -3314   -11296    -4421    12957    19793     7990 
   -6521    -7650     7373    24968    26730    11587    -8451   -19957 
  -13154     9521    31650    30605     5235   -19488   -30796   -28017 
   -6710    21501    34898    28624    12388    -3607   -11496    -6006 
    3447     -693   -10722    -6241     2764    -6066   -27268   -38207 
  -29273    -8212    10081     9309    -6408    -8056    10585    27423 
   34018    34155    31611    29619    24726    14320       70   -12588 
  -13336    -5408    -4233    -8487    -4888     7955    19934    24842 
   31379    46471    56116    43910    13432   -15616   -31210   -38574 
  -33497    -8849    10206     5039     4644    25843    41567    39819 
   26185   -11094   -61982   -84389   -66833   -33867    -3712    14062 
   17217    14833    13116    20395    41276    57447    51725    22810 
  -22044   -56524   -55421   -27418      720     7334    -8500   -18868 
   -6544    17116    44435    62326    50094    15202   -17579   -27434 
   -8583    15726    27133    28181    18679     8978    10917    13234 
   12483    16362    21955    31870    40089    26569     3883    -6696 
  -21892   -55047   -87882   -98626   -80906   -47849   -16017    11577 
   28250    29409    33656    44261    41014    25853     9155    -6014 
  -10374    -5727    -4174    -7890   -11727   -14563   -19325   -17964 
   -2614    12772    16840    22793    39615    47884    31367     2389 
  -26592   -49509   -49738   -27618    -9647    -3631      981     2111 
    1597     7406    15090    19668    14324    -7809   -30289   -27433 
    2497    32614    33966     5127   -32663   -53426   -37057     5108 
   30096    23152    17278    29987    45347    55741    54526    24899 
  -23253   -58077   -65425   -47536   -15256     9061    13362    10339 
   13212    21153    31064    33607    16779   -10377   -29786   -36437 
  -28339    -5960    16365    22813    11643    -5503   -13593   -11495 
   -7596       -5    13220    23417    21744     7211    -2531    11861 
   32980    29790     9036     -702     5433    11133     3546   -15641 
  -24575    -4248    26416    33079    16592     1748    -2398     2292 
   13659    27481    34690    17601   -16978   -35415   -33864   -28277 
  -14341     9999    26580    21240     4548      695    17977    38237 
   39692    21029    -4051   -25809   -39175   -38192   -28829   -21675 
   -6890    21105    39989    37031    27106    20290     8055   -18328 
  -52767   -75735   -70295   -37736     7548    49666    71162    61870 
   32737     5189    -8037    -5719     4374     6998    -7801   -31102 
  -39810   -18551    21374    58337    84512    92950    74884    39941 
    6635   -12614   -14270   -13878   -24007   -31371   -33072   -40332 
  -42363   -32340   -25876   -23274   -13508    -4402    -5060    -5076 
    4614    15715    21774    26908    29826    25130    16240    11502 
    9761     2087    -3935     6944    23797    35019    50851    60678 
   38722    -4415   -37509   -46845   -34526   -11048    13312    35236 
   43244    22667   -17778   -57235   -76200   -59171   -25276    -6727 
    2404    10351     5040    -8571   -24858   -49825   -65727   -55088 
  -32433    -9406     9028     3464   -24251   -38249   -20298    16015 
   45755    44744    16266   -14640   -32524   -30754   -14993      -13 
   14076    28027    28144    14443     4112     1081    -4860   -16605 
  -27156   -32274   -27951    -6647    24950    44739    41134    23404 
    8009     5967    22388    55602    90648   109032   107308    88433 
   51152      877   -48004   -81395   -94051   -83918   -47459     2705 
   46349    79633   103549   116966   120044   104854    65009    13662 
  -28312   -56295   -76936   -87459   -87156   -91729  -105082  -111040 
 -108034  -105775  -100988   -91133   -80974   -65430   -37520    -7252 
   13855    27889    39484    54375    73967    85801    80898    60095 
   30118    11491    15259    27918    39623    48574    54213    60131 
   60785    47638    22351   -11556   -41928   -51625   -44595   -35868 
  -29223   -25308   -25559   -23175    -8768    17741    44174    52030 
   37989    19534     3061   -19855   -45855   -69750   -94751  -113035 
 -112596   -91712   -45524    22719    84429   116473   120695   105630 
   85806    78204    75429    66909    66586    71683    59528    27650 
  -25336  -101722  -167736  -186071  -169536  -147105  -111836   -47865 
   27824    82371   106008   113880   123661   144522   163165   158938 
  135803   101050    59063    30781    22276    11329   -10702   -26462 
  -20795     4513    35549    60072    76491    75533    43474    -3828 
  -41112   -67066   -82055   -77807   -60489   -53725   -67298   -80703 
  -79239   -69438   -54364   -36200   -21998   -15880   -17080   -18873 
  -16309    -4402    26360    66833    83295    61416    31437    22559 
   26995    29793    24359     3909   -17389   -12247    17556    51159 
   77406    85255    66490    36528    12496    -7877   -20753   -17375 
   -7717    -2045     1451    -4619   -24402   -34339   -18284     6705 
   19288    11110    -8594   -21020   -20988   -10183     9678    29644 
   42244    41451    24001     1818   -14321   -30327   -49499   -67744 
  -87169  -105335  -111983  -109545  -103501   -86697   -59139   -30984 
   -8133     2806    -2119   -19140   -45091   -66538   -59861   -26707 
    9351    40332    67249    84165    92549    95812    83795    53210 
   25143    22937    43366    62368    67987    67293    62626    48760 
   32985    30874    41019    55227    75558    88570    70816    30497 
   -7759   -35437   -52496   -60089   -59613   -54063   -54886   -67158 
  -80065   -82429   -64342   -24571     9863     9227   -20903   -55436 
  -79334   -86968   -77237   -56052   -29153     3177    33349    43154 
   26623    -1028   -23342   -27245     -329    45412    79403    96094 
  112612   132740   144355   138869   118470    92875    75058    72800 
   76254    70165    57258    41847    18027    -5181    -7756     9409 
   23398    14021   -17394   -53050   -83127  -109021  -127920  -138111 
 -143221  -139159  -116414   -76815   -35685   -11416   -16190   -46668 
  -87160  -124409  -146643  -141999  -114417   -80595   -44689     -163 
   44517    71597    85592   105591   131685   151559   159736   154774 
  137170   105845    63871    27656     6748    -4642    -9420   -10137 
   -9736     4398    40798    78347    92423    79447    46020     5346 
  -21319   -26072   -24470   -30692   -46525   -69785   -92809  -107954 
 -112206   -98911   -66093   -26115    11348    41346    50369    35680 
   13358    -5779   -14357    -4048    15584    23079    13127     3042 
    8085    19866    25037    28509    37385    44676    45863    49026 
   52338    39752    15697     3352     7649    19765    34809    46588 
   48456    37027    15086    -7055   -24584   -40509   -51592   -50004 
  -36312   -15984     4511    12055     4032    -1466     7545    24954 
   41514    53798    61113    57703    39812    18511     6994     7780 
   17027    26735    28945    19047    -5078   -38655   -69696   -87358 
  -88088   -74731   -48108    -8685    23387    22216     1135    -4945 
    8765    23846    27719    25490    32686    47515    55375    54272 
   45009    26408    11060    14766    36171    59111    67748    60112 
   43478    18863    -9308   -23603   -22553   -22914   -25787   -27248 
  -30920   -30399   -22346   -12992    -1759     8961    16194    27486 
   40455    42859    32640    12344   -11705   -26017   -27442   -22829 
  -15264   -12671   -21740   -30303   -26708   -17280   -10453    -5643 
    3299    20102    38205    46161    40968    28090    13228     1941 
   -3202    -1576    13757    41925    66803    80237    85839    80026 
   53538    13306   -18937   -36150   -47048   -53163   -53730   -54962 
  -59374   -62529   -58806   -47663   -33199   -15051     3815     9460 
   -1533   -15901   -26339   -31945   -28358   -15464     2444    20761 
   35314    49430    67238    83289    92959    97829    98091    89160 
   63749    26277      618     2494    19668    34226    38134    28054 
    9354    -2766     6252    35357    62814    69550    56080    28764 
   -5302   -31097   -35469   -22522   -10513   -13041   -28719   -49630 
  -70056   -84774   -87883   -79099   -66919   -59880   -52871   -36333 
  -20729   -20120   -25876   -24737   -13292     6943    26454    34982 
   34399    32409    33205    37660    41237    36020    22099     8668 
    3589     7338    12081     7912    -3986   -11511    -5841    12595 
   36709    59117    76269    84904    78958    54613    24011     9859 
   18655    37054    52594    61098    59240    48438    37007    24954 
    5391   -16302   -26987   -26207   -27328   -39876   -60814   -81270 
  -91030   -82026   -54376   -16206    20081    39471    32628     8232 
  -13325   -18624    -9876      765     7167     9942     5682    -3805 
   -8398    -2820    11105    24979    31422    35625    43447    49329 
   46282    32043    11681     2455    12402    25740    30121    25651 
   10010   -16299   -42360   -55896   -57819   -59459   -68030   -82206 
  -95701  -104384   -99814   -68072   -15876    29284    47698    41727 
   30747    28093    33569    48926    73311    93590    95042    74391 
   45443    25191    16860    20727    36127    51914    57960    52652 
   41636    32163    24495    16872     6743    -6569   -13892   -10382 
   -2421     6702    11207     1760   -14975   -28511   -40550   -50554 
  -55065   -55976   -59468   -71273   -85368   -86991   -66556   -27241 
   11904    30076    23367     5015   -10027   -20202   -28065   -28381 
  -20629   -14550   -13879    -8567     8371    28254    39943    42654 
   41609    38065    28052    13551     2004    -5499    -9979    -8604 
   -2515     -321    -5273    -7645      229    14142    26840    36294 
   44960    52483    53500    46196    34501    21525    10813     4476 
   -3788   -18609   -32591   -36413   -30338   -21374   -14833   -13803 
  -21968   -37311   -48554   -48282   -38970   -24264   -10450    -5071 
   -4483     -700     3411     3380     3499     5164     2452    -6417 
  -14870   -16267   -11506    -4237     4066    12293    20652    29405 
