Origin Time       2016/04/16 01:25:00
Lat.              32.753
Long.             130.762
Depth. (km)       12
Mag.              7.3
Station Code      MYZ005
Station Lat.      32.4281
Station Long.     131.6003
Station Height(m) 22
Record Time       2016/04/16 01:25:21
Sampling Freq(Hz) 100Hz
Duration Time(s)  110
Dir.              N-S
Scale Factor      7845(gal)/8223790
Max. Acc. (gal)   38.563
Last Correction   2016/04/16 01:25:21
Memo.             
[...]
   -1817    -2089    -1696     -939     -363     -193     -480     -899 
    -945     -738     -619     -411     -457    -1308    -2188    -2205 
   -1522     -799     -627     -907    -1375    -1871    -1895    -1707 
   -2157    -2833    -2797    -2201    -1663    -1539    -1791    -1833 
   -1539    -1328    -1035     -718     -920    -1275    -1453    -1949 
   -2458    -2502    -2640    -2762    -2098    -1171     -676     -450 
    -796    -1579    -1740    -1524    -1422     -812     -278     -548 
    -599     -355     -700    -1390    -2087    -2448    -1813     -677 
    -302     -842    -1468    -1651    -1124      -63      190     -608 
    -805     -459     -947    -1863    -2450    -2448    -1632    -1422 
   -2565    -2896    -1517     -112      395       11    -1499    -3134 
   -3194    -2305    -1745    -1289    -1306    -2281    -3090    -2652 
   -1282      -97       32     -778    -1626    -2184    -2709    -2783 
   -2133    -1606    -1934    -2546    -2745    -2695    -2157     -909 
     -44     -611    -2207    -3431    -3175    -1526      170      348 
    -766    -1543    -1737    -1838    -1273     -193       81     -688 
   -1385    -1393    -1055     -614     -595    -1614    -2899    -3136 
   -1927       20     1133      569     -449     -834    -1143    -1567 
   -1530     -773      -99     -767    -1748    -1250      186     1039 
    -101    -2747    -3504    -1474       97     -212    -1355    -2731 
   -3086    -1868    -1206    -2137    -3073    -3029    -2701    -2848 
   -2944    -2309    -1421     -481      457      399     -459     -719 
   -1043    -2349    -2598    -1173     -573    -1015    -1258    -1533 
   -1266     -299     -854    -3379    -4789    -3164     -498      595 
     322     -306    -1089    -1408    -1595    -2385    -3051    -3088 
   -2241     -618      334      -90    -1378    -2758    -3080    -2100 
    -859      -35     -108    -1183    -1894    -1479     -614       74 
    -162    -1036    -1244    -1036    -1070    -1159    -1676    -2411 
   -1939     -525      -90     -936    -1837    -2010     -981      589 
     446    -1554    -2921    -2490     -837      545     -140    -2121 
   -2999    -2490    -1560     -561      307      669      117    -1050 
   -1941    -2259    -1826     -658     -261    -1089    -1183     -688 
   -1269    -1408      110      738     -656    -2351    -3623    -3582 
   -1499      -25     -770    -1328     -945    -1206    -1695    -1416 
    -903       23     1692     2409     1235     -639    -2199    -2910 
   -2731    -2702    -3561    -4072    -3484    -3357    -3588    -2536 
   -1286    -1198    -1815    -2745    -2053      811     1390    -1121 
   -2497    -2886    -3766    -3393    -2493    -3021    -2914     -897 
     607      767      774      326     -859    -1230     -614     -870 
   -1821    -1593     -546     -799    -2378    -2960    -1575      210 
    1138     1360     -155    -3705    -4936    -1852      399     -275 
    -648     -772    -1343     -511      449     -414     -842       -4 
    -287    -1115     -587      365      355     -493    -1175    -2079 
   -3755    -4131    -2772    -1842     -838      866      376    -2623 
   -4067    -2602     -303      984     -317    -3998    -6579    -5474 
   -2416     -225      194     -679    -1304    -1336    -2267    -2837 
    -464     2247     1433     -530     -232     1409     3832     5949 
    3943     -595    -2087    -1977    -3781    -5522    -6087    -6288 
   -4665    -1900    -1017     -986       68      562      -16     -251 
     -27      579      826     -373     -364     1440      328    -3038 
   -3728    -2425    -1823    -1113      629     1910     1258     -931 
   -3288    -4176    -2705     -421      360     -935    -3192    -3592 
    -737     2624     3449      972    -2373    -3352    -3326    -3530 
   -2255    -1039    -1869    -1981     -149     -162    -2489    -3609 
   -3979    -5335    -5977    -4852    -3877    -3769    -1927     1156 
    1259      225     2191     4122     2754     -189    -3237    -5551 
   -5024    -2043      270      882       25    -2058    -2651      -62 
    2381     1640     -469    -1254     -780     -685    -1637    -2844 
   -4168    -5425    -5113    -2910      199     2598     1297    -2749 
   -3821    -1645     -679    -1703    -4139    -7460    -8600    -6156 
   -3235    -1926    -1235     -993     -370     2141     4097     3948 
    3264     1213    -1150     -336     1917     2513     1900      151 
   -1890    -1741     -834    -1464    -2012    -1922    -1709     -199 
     697     -929    -1690    -1155    -2941    -5620    -5773    -4525 
   -3538    -3302    -5039    -6400    -3912      438     3002     2681 
     610     -986     -688       45     -796     -851     1669     2986 
    1258     -934    -2678    -4112    -4166    -2142     1143     2525 
     230    -2064     -769     1795     1541    -1354    -3215    -2835 
   -3295    -5514    -7023    -7681    -7537    -4205      529     1915 
    1175      583    -1528    -3007    -1686    -1896    -4013    -4230 
   -3979    -3835    -1765     -325    -1478    -2901    -3083     -788 
    3850     6539     4679     1003     -481      383      286    -1795 
   -4071    -5001    -3416    -1055    -2307    -5734    -5335    -1475 
    1755     3105     1004    -3520    -4750    -1802     1004      890 
   -2290    -4888    -4634    -4407    -4973    -4564    -3789    -3368 
   -1799      743     1455      972     1876     2077     -656    -3449 
   -4353    -4742    -4419    -3084    -1807     -994     -999    -1323 
    -661      592      639      124     1139     2662     2849      926 
   -2440    -4213    -3690    -2825    -1674     -724    -1131    -1144 
    -355     -843    -2111    -2771    -2151     -454       35     -808 
   -1779    -4194    -6238    -4163     -600      565      531      832 
    1039      665     -862    -3913    -6354    -5066    -1642      140 
      81     -523    -1740    -3518    -4395    -4561    -4748    -3341 
    -881      209     -216    -1401    -2027    -1117    -1390    -4619 
   -6878    -6477    -5930    -4526    -1702     -148     -120     -367 
   -1000    -1372    -1320    -1971    -2837    -3114    -3612    -4013 
   -2875     -533      830     -450    -2324    -1775      139     1042 
     774      712      666     -699    -2153    -2398    -1420      618 
    1439        5     -788      773     3044     4020     2824      370 
   -1404    -2382    -3801    -5557    -6265    -5224    -4017    -4482 
   -5042    -4230    -4200    -4869    -3681    -2258    -2583    -2409 
   -1402    -2196    -3978    -4109    -4228    -6579    -7942    -5926 
   -3645    -2107       78     1391     2037     4005     4580     2207 
     853      896     -297     -704      715      596    -1179    -2038 
   -2743    -4380    -4838    -3510    -3604    -5478    -5351    -3167 
   -2259    -2354    -1625    -1574    -2952    -3445    -2964    -3068 
   -2463     -929     -707     -441      530     -749    -2478    -1629 
     542     2096      387    -3103    -2531      765     1674      993 
     -87    -2039    -2636    -1791    -2466    -4681    -5810    -4280 
   -2276    -1923     -992     1302     2276      804    -2079    -4302 
   -3693      105     4225     4938     3314     2718     2313      776 
    -199     -203     -864    -2165    -2669    -2053     -870     -217 
   -1062    -2556    -3149    -2417    -2008    -3908    -6656    -7215 
   -5517    -3267    -1355     -241      473     1318     1182       21 
      -9      826     -723    -4393    -5793    -4025    -1810     -101 
     834      278     -734     -907     -303      905     1431      521 
     -10     -585    -2636    -3334    -1887    -2155    -3944    -4315 
   -3870    -3466    -2440    -1802    -3343    -5524    -5634    -4128 
   -2016      125      858      774     1907     3067     1863     -488 
   -2030    -2604    -1560      517      791     -950    -2470    -3067 
   -2052      112     -259    -3024    -3861    -3202    -2820    -1053 
    1138     1564      992     -708    -3684    -4796    -2442      298 
     695     -479    -1513    -1861    -1942    -2074    -2475    -3831 
   -5166    -4132    -2107    -2188    -2587     -766     1333     1691 
     261    -1761    -1867      301     2498     2798      807    -1362 
   -1764    -1258     -866    -1111    -2598    -3869    -3118    -1769 
   -1121     -936    -2485    -4442    -3450    -1665    -2461    -3823 
   -2494      676     2500     2204      947     -832    -2293    -2201 
   -1629    -2208    -3146    -3364    -2621     -962      650     1192 
     433     -985    -2049    -2245    -1921    -1337     -615     -641 
      45     2898     4614     3150      289    -1698    -2123    -3231 
   -6196    -9078    -9547    -6847    -3476    -2192    -2091    -1092 
    1093     2623     1007    -2597    -4238    -3396    -2331    -1583 
    -666      -59     -135      365     2100     2641     1155       55 
   -1047    -3304    -4546    -3653    -2236    -1595    -1949    -3908 
   -7470    -9810    -8056    -3284     1410     3842     2782      101 
    -796     -653    -1020     -959     -820     -230     2176     3867 
    3798     5405     7500     6651     5798     6777     6110     3530 
     903    -2774    -7030    -9238    -9342    -8500    -6471    -3348 
    -341     1981     4051     5101     3946     1728     -152    -2053 
   -4253    -6004    -6848    -7759    -8403    -6374    -2686     -464 
     318      411      885     3605     6943     7744     6183     4317 
    3154     1732     -125      151     2436     3298     2278      207 
   -2559    -4044    -3753    -3067    -2571    -3366    -5476    -6494 
   -6544    -7639    -8888    -9053    -8816    -8454    -7595    -6350 
   -4619    -1664     1632     3213     3362     2442     -504    -3473 
   -4008    -3217    -2562    -2933    -4449    -4895    -3763    -3704 
   -5328    -6083    -4252    -1101      966     1395      953     -484 
   -2813    -5336    -7013    -6606    -4980    -2932     -576     -660 
   -3842    -5436    -2690      826     1567      407    -1097    -2010 
   -2315    -3063    -2910    -1019     -432    -1852    -2138     -291 
    2601     4954     3485    -1683    -4144    -1545     -288    -3064 
   -4791    -3433     -980      704    -1609    -7223    -9134    -6145 
   -4223    -3993    -2440     -707      -17      542       37    -2543 
   -4981    -5151    -4310    -4472    -4496    -2766    -1625    -2767 
   -4120    -5055    -6305    -7001    -6440    -4683    -2625    -1332 
     575     4398     7507     6777     3925     2281     1323      110 
   -1132    -3537    -6156    -6597    -5560    -3366      935     4355 
    3570     1414     1817     3105     2539     1933     3474     5841 
    6227     3626      868     -378    -2347    -4614    -5329    -5964 
   -6930    -6137    -2882      778     1784     -302    -2963    -3919 
   -2386      807     3789     5653     6118     4812     3308     3194 
    3349     2142    -1101    -4781    -6782    -8071    -8927    -8861 
  -10589   -14019   -13846   -10062    -8345    -8073    -5526    -4297 
   -7045    -8565    -6581    -4464    -3271    -2816    -3759    -5008 
   -4631    -2799    -2363    -4788    -6411    -2960     3658     8529 
   11026    12378    11724    10025     9570     8631     4714    -1282 
   -8473   -15626   -19174   -18063   -15778   -15357   -16594   -17482 
  -15955   -12514    -9868    -7678    -3159     3179     7879     9217 
    8136     6389     5483     4934     3572     3061     4544     5686 
    5292     4665     2986    -1443    -5979    -8648   -11776   -13975 
  -12344   -10350   -10362    -9863    -8818    -8109    -6531    -4303 
   -2139       16     1159      546    -1324    -3823    -5829    -6426 
   -6741    -7298    -6511    -5368    -6211    -7623    -7307    -4822 
    -985     2153     3208     2292     -514    -4529    -6848    -6323 
   -6890    -9919   -11115    -9666    -9401   -11342   -12968   -12132 
   -9478    -7160    -5613    -4999    -5737    -6309    -6327    -6426 
   -5701    -4407    -3516    -3577    -5175    -6767    -6223    -4008 
   -1479     1425     4634     5841     3954     2550     4889     8379 
    8477     5727     3366     -166    -7651   -15508   -18668   -16914 
  -13122   -11237   -13088   -15152   -12970    -7824    -3734    -1019 
    -176    -3510    -8746   -10856    -8668    -5566    -5135    -7011 
   -8618    -9325    -9861    -9497    -8264    -8928   -11442   -12159 
  -11226   -10651    -9439    -7888    -6377    -2442     2446     3969 
    3670     4719     5494     5441     5891     5436     4164     3634 
    2319     -333    -2215    -2943    -3736    -4535    -4202    -2180 
     670     2459     1844     -588    -1588     2008     7928    11121 
   11375    11462    11877    12647    12749     8215    -1378   -11605 
  -19261   -22526   -21809   -19701   -15534    -9054    -4754    -4810 
   -7771   -13351   -19116   -20385   -18511   -16918   -12402    -3757 
    4768    13193    21911    27333    28332    24586    16648    10099 
    6497      664    -7068   -10945   -10480    -9468    -7921    -5347 
   -6663   -12213   -13784   -10293    -8507    -7909    -4444      -27 
    3890     8375    11129    10903    10338     8849     4471    -1046 
   -6397   -11475   -14438   -15040   -16752   -20579   -23469   -23553 
  -19757   -12776    -6710    -3218    -1232      274     5524    16687 
   27739    34210    37804    39001    36671    30904    23036    15993 
   11718     9558     7889     4114    -3038   -10918   -16067   -17635 
  -16880   -15049   -12337    -8517    -4982    -4087    -5536    -7955 
  -10436   -10411    -7109    -3161      218     3474     6924    11745 
   18693    25307    28285    29025    31017    34645    38659    37960 
   26793    10008    -4662   -15072   -18686   -16895   -14631   -11743 
   -8395    -7857   -11388   -16675   -18935   -17309   -15873   -15981 
  -16322   -16309   -15232   -13373   -11345    -9514   -10476   -12690 
   -9385    -2430      702     -652    -5058    -9801    -9012    -4178 
   -1667     -433     2211     4612     6546     8390     8953     9246 
   12275    18202    22208    20699    15714     9097      661    -7092 
  -10722   -11578   -12305   -11080    -7548    -4896    -3388    -2469 
   -2953    -3180    -1641     -847    -1908     -974     3402     7307 
    8862    10156    11360    10147     7352     5907     5522     4213 
     599    -5174    -8592    -4828     3152     7396     4444    -1887 
   -5751    -6601    -8403   -12229   -16349   -18848   -17092   -12083 
   -8459    -7075    -5069    -1070     3336     5575     5131     3369 
    2791     6276    11507    12677     9281     4314     -425    -5232 
  -12012   -17913   -16696    -9202    -1791     1023     -685    -1900 
    1177     5853     6941     4185     2646     3469     4438     7528 
   11439    10967     9327    11523    14801    16208    14581     8812 
    2142    -1836    -3119    -1189      831    -3880   -12857   -18095 
  -19692   -20038   -16789   -10565    -6628    -6188    -5103     -357 
    5756     8378     8992    13406    18465    17952    14812    11677 
    8106     5736     1625    -5381    -8787    -7275    -5727    -6902 
   -8868    -7996    -5881    -5729    -6373    -5741    -1746     4885 
    7196     1618    -6613   -11149    -9059    -2978     1047     2768 
    4498     4598     4920     8371    11871    13585    13252     8190 
     218    -3372     -922      153    -4888   -10476   -10755    -8291 
   -6546    -5530    -5983    -6711    -4297      160     3360     6328 
    9713    10616    10385    11855    12445    11398    10584     8113 
    2776    -1394     -660     2151     2110     -553    -3241    -5103 
   -5795    -6567   -10258   -14519   -12337    -3257     5931    11317 
   13773    15002    15319    14076    13171    14245    14714    13089 
   10963     9852    10061    10048     8532     6608     4951     2533 
    -212    -1821    -3418    -6721   -10057   -10085    -6160     -842 
    3480     6185     7045     5497     3137     4043     8218    10098 
    7048     2574      124     -448     -970    -2289    -3889    -5917 
   -7784    -7203    -4833    -3176     -922     3883     8611    10281 
    9697     8286     7373     7690     5730       32    -3996    -4511 
   -4062    -1495     2319     2982     1216     -885    -3422    -2737 
    2733     7156     8002     6917     2245    -4752    -8533    -9212 
   -9988   -10156    -9086    -9333   -12209   -13680    -8926    -1112 
    2239      224    -3248    -6080    -5589      387     8005    12938 
   15256    15030    13365    12664    11846     8737     4459     2803 
    5112     8176    10349    12079    12421    12496    15169    19018 
   18870    13119     6704     4162     4307     4406     4912     6875 
    7870     6444     4791     2411    -2546    -7358    -9354    -9760 
   -9348    -7195    -3222     1188     4189     5647     6529     5822 
    3375     2756     5485     8866    10876    11345    10949     9644 
    6266     1579    -2425    -4526    -4530    -4773    -6097    -5009 
    -989     2281     3690     4707     5660     5578     4868     4289 
    2370       71       13     -523    -3335    -3958    -1097      688 
   -1321    -5616    -9090    -9942    -8719    -7042    -6300    -6922 
   -8062    -7977    -6252    -4315    -2990    -3127    -5888    -9525 
  -11129   -10531    -8533    -5875    -3712    -1958    -1007    -2386 
   -4502    -3527      859     4868     6629     7877     8089     5867 
    3694     3726     5510     7389     6731     4263     3229     2868 
    1763     1058      263    -1329    -2693    -3577    -4293    -5751 
   -8198    -9096    -7537    -6081    -5733    -5275    -4311    -2783 
    -565     1273     1919     1556     -135    -2652    -3805    -2674 
    -913     -592    -2259    -4355    -5085    -4599    -3088     -434 
    1669     2251     2394     1767     -866    -4935    -8951   -11022 
  -10245    -9132    -9705   -10770   -11592   -11823   -10559    -8407 
   -6701    -6407    -7696    -8738    -7715    -5495    -4024    -3183 
   -1773     -579       75     1610     2452      764     -399     1645 
    4811     5864     4442     2135     -548    -3045    -3375    -1632 
    -411     -257      402     1497     1182     -909    -3532    -6205 
   -7611    -6536    -5682    -7025    -8714    -9653    -9882    -9662 
  -10142   -11395   -12914   -14373   -14297   -11951    -8484    -5398 
   -3264    -1869    -1989    -3888    -5410    -4934    -3095    -1194 
    -270    -1202    -4251    -7730    -8711    -6457    -3946    -3776 
   -4568    -4266    -2894    -1262     -432     -556     -548     -557 
   -1980    -4006    -4330    -3827    -4484    -4922    -3726    -2412 
   -2239    -2285    -1787     -819      987     3071     3894     3605 
    4122     6050     7709     8191     7474     5043     1655    -1452 
   -4159    -5772    -6110    -7064    -8749    -9244    -8826    -8035 
   -5887    -3620    -3153    -2782    -1105      -81     -619    -1601 
   -2174    -1880     -691      837     1075     -868    -3272    -4734 
   -5678    -7040    -9046   -10801   -12197   -13495   -13408   -11634 
  -10234    -9765    -8588    -6832    -6538    -7626    -7396    -4974 
