Origin Time       2016/04/16 01:25:00
Lat.              32.753
Long.             130.762
Depth. (km)       12
Mag.              7.3
Station Code      MYZ011
Station Lat.      31.9951
Station Long.     131.2557
Station Height(m) 26
Record Time       2016/04/16 01:25:22
Sampling Freq(Hz) 100Hz
Duration Time(s)  182
Dir.              E-W
Scale Factor      7845(gal)/8223790
Max. Acc. (gal)   79.348
Last Correction   2016/04/16 01:25:23
Memo.             
[...]
    2678     2651     2625     2610     2605     2574     2498     2405 
    2336     2317     2347     2362     2303     2172     2045     2020 
    2085     2104     2015     1980     2155     2452     2686     2735 
    2520     2193     2187     2581     2915     2910     2735     2606 
    2690     2976     3056     2816     2739     2785     2461     2057 
    2031     2214     2837     4114     4727     3613     2030     1405 
    1580     2307     3331     3566     2893     2631     2982     2983 
    2548     2007     1537     2029     3485     4039     3279     2909 
    3269     3402     3289     2879     1679      873     2037     4093 
    4953     3892     1487      -49      939     2751     3360     3145 
    2667     2254     2735     3615     3325     2215     2027     2898 
    3824     4067     2889      885      503     2401     4035     3886 
    3084     2160      993      745     1671     2114     1694     1421 
    1486     2242     3541     3187     1377     1580     3152     2789 
    2338     4031     5096     4352     3836     3696     3345     2736 
    1362      884     3119     5232     4766     3909     3528     2111 
    1121     2276     3508     3121     2359     2860     4326     4313 
    2150     1044     2143     2219      577      334     2052     3335 
    3221     2535     2072     1741      688     -522      576     3593 
    4321     1923      162      129      361     1692     4276     5263 
    3955     2795     2636     2956     3893     4293     3165     2740 
    4091     4577     3665     3495     3530     2710     2921     4337 
    4207     2413     1363     1992     3904     5649     4558      784 
   -1128     1188     4360     5260     4491     2749      486      189 
    2879     4572     1803    -1554      217     4833     6093     3877 
    1455     -464     -511     3134     7338     8230     6197     2673 
      -4      722     2589     2177     1647     3615     5445     4781 
    3059     1574     1000     1910     3132     3242     2269     1552 
    2575     3917     2982     1039      217     -612    -1497     -808 
     288     1155     3557     6114     6056     4345     2986     2358 
    1998     1162      953     3580     6829     6436     3780     2583 
    3213     4125     2947       40       37     3025     4349     4279 
    4415     2953     1561     3307     5509     5367     4091     1962 
    -789    -1260      909     2782     3726     4320     4274     4594 
    5437     4288      859    -1016     1838     7377     9513     6874 
    4517     2756    -1688    -4891    -2970       -5     1433     2944 
    4712     7503    10809    10065     5605     2677      125    -3056 
    -666     5818     7395     5220     4673     2515    -3549    -7538 
   -6151    -3657    -1575     3499     8804     6983      845     -816 
    1457     3326     4648     3138    -2011    -3580     2074     9042 
   11819     7936    -1428    -7854    -6012     -795     4521    10523 
   12383     8004     5517     8171     9305     5880      720    -3468 
   -5283    -4036      800     6673     7931     3963      341     -479 
   -1919    -4502    -3030     2496     5509     5741     6921     5590 
    -421    -2425     4641     9981     4984     -986     1948     9063 
   11994     9135     3292    -2961    -8281    -9925    -4525     4926 
    9414     4865    -2162    -2772     2290     6604     9104     8889 
    2727    -3159      263     7356     8469     5320     2371     1213 
    2857     4054     1722     -550     -834    -2328    -5429    -7958 
   -7759    -2182     6145    10112     8965     6844     4311     2609 
    4824     6724     3867     1896     3353     4152     6430    10812 
    9826     3125    -2598    -6922   -10434    -8553     -807     5111 
    3487      579     5375    13603    15627    10436     3993     3937 
    8725     5618    -5076    -6598     1800     4233      370     1658 
    6396     5409    -1460    -6023    -1456     7614     9352     3731 
    1428     4071     4789     2694     3451     9120    13652    10741 
    2914    -1601    -1034    -2917    -8519    -8307      372    10029 
   14720    13693    10666     9826    10546     9539     6264     2678 
     -35     -882     1551     5316     5255      661    -4128    -6457 
   -5791    -3975    -4139    -3168     3466     9579     6296    -2674 
   -6477    -2706     1003      556     1933     7089     7231      849 
   -1470     2280     3847     3032     4043     4205     2015      594 
     155     -112     1566     4876     7094     7584     5568     -352 
   -5481    -2945     4143     6389     2238     -556     2960     7819 
    6779     -475    -7254    -6694      557     7906    10316     7827 
    5107     4970     5053     5175     5623      881   -10507   -20042 
  -20167   -10906     3453    15851    18004     8892     -702     -245 
    5556     4353    -1717      702     9756    12228     9787    10423 
    9961     5632     3736     3943      712    -2527    -1391      174 
    -411     -266     3735    10863    13174     5451    -3969    -5895 
     633    11299    12901    -1140   -13487   -10488    -1884     5355 
   14342    18882    12726     4278      288    -1320     1053     6156 
    5675     2747     6331    10314     8073     5244     1719    -6218 
  -11425    -9418    -5890    -3198      797     4288     4183     3670 
    7553    13106    14435     9991     2579    -2844    -3400     -631 
    2069     1279    -4436    -9925    -6376     4329     9317     4734 
   -2169    -7634   -10309    -6906     1019     6582     7820     8297 
    8186     7257     8384     9370     6535     3811     4455     6971 
    9487     6130    -4873   -11313    -4931     6412    14168    16213 
   11638     5205     4822     7966     6367     1321      518     3989 
    4023    -1977    -5914     -668     7144     6770     -830    -8403 
  -12695   -12511    -7148      805     6939     8995     7827     5694 
    4679     5543     6404     5745     4600     2718      110    -1132 
    -890     2118    10411    17778    15402     7082     1466      417 
    4207     9792     8391      544    -4110    -4305    -2536     2258 
    5792     4140     3082     5886     6351     1414    -3597    -5352 
   -5127    -2955      251     1513     -456    -4043    -4738     -772 
    3260     4793     5557     5182     3769     3184     2929     3377 
    4033      483    -3936     -340     6482     6249     1878    -1302 
   -4102    -4526     -680     3836     4918     2025        2     3171 
    6651     5425     3634     4459     4907     4095     5552     9954 
   11367     5952    -1138    -3879    -2911    -1116     2461     7870 
    7734     -899    -6990    -3759     2255     8520    15457    14543 
    3279    -5844    -2830     9217    18073    14615     4634     -627 
    -835    -1124     -263     3627     5259      -89    -8849   -13852 
  -11406    -3672     3515     7160     8586     6589      348    -3368 
    -819     1695      911     -514    -4104    -9868    -9953    -1982 
    7248    12937    11695     3955     1548    10038    17076    16638 
   17334    20776    20309    16079    11518     6486     2292     1696 
    4441     6420     2053    -6679    -9641    -5949    -5127    -6043 
   -1279     3454     1718     -183     1599     4365     8437     9620 
    1656    -7013    -6349     -715     4352     6203      984    -5178 
   -1013     9151    12799     9221     4036     -858    -4058    -4681 
   -2851     2027     6208     3388    -3518    -5611    -3554    -4587 
   -7109    -4190     3304     8209     5908      477     1615    10355 
   17037    16200    12002     9765     9574     9178     8299     6544 
    2285    -2930    -5270    -5076    -4591    -3300    -1188     1215 
    4467     6529     4758       10    -4710    -4764     1101     6993 
    8681     8226     7954     8143     8723     7835     3148    -2378 
   -3446     -594     2181     3477     2628     -203    -1334      -97 
     631     2880     7218     8210     6184     6119     7523     7456 
    3631    -4143    -9076    -6411    -2623    -2688    -2430     1178 
    6365    10716    10525     4003    -2355    -2463     -191      340 
     186    -1876    -6881    -7461     2662    13734    13864     7896 
    3792      418    -2556    -4317    -8307   -12144    -7275     3005 
    6575     2891     1463     5742    10860    13238    13562    12183 
    8607     4355     2640     4513     6883     6488     4295     3291 
    4068     5256     5093     2851      754      257     -342      -47 
    3051     4374     1599     1865     5960     5593     2654     3253 
    2879      -39      492     3544     5034     5726     4279     -449 
   -3100    -2438    -3707    -5289    -1382     6193    12559    16603 
   17307    13208     5661    -1628    -3492     2236     8903     9371 
    7107     5211    -1390   -10015   -11358    -7778    -6408    -6985 
   -6647    -1452     9367    15408     9776     3232     4212     5391 
    2808      785    -2226    -7014    -7188    -2708     1140     2990 
      16    -8772   -13297    -5179     8162    14990    13159     8122 
    6821    10405    13055    13320    13679     9406    -1822    -9312 
   -5498     3118     7890     7292     5741     7756    10747     9097 
    5027     4258     4719     1930    -1155    -1293    -2064    -4031 
     302    10870    13166     2019    -6952    -4611    -1657    -6127 
  -11011    -7696     3019    13011    14442     7844      388    -4441 
   -6556    -1663    10943    18931    14161     5980     2752     2647 
    3994     3566    -3307   -11198   -10180    -3384    -2043    -5404 
   -3281     4214     6952     2809      292     3028     6443     7917 
    5922      672     -355     3492     2319    -1567     2473     8660 
    5331    -1399      143     7335    12217    11897     5891    -1328 
   -3942    -4429    -5003    -1545     5039     9501    10567     8082 
    2610    -1416     -155     5391    11372    12816     7461      484 
   -2932    -4291    -4043      116     4797     3599    -2841    -7987 
   -6280     1985     7816     4336    -1998    -3049      -32     2951 
    3051     -660    -3915    -2053     2386     3252    -1104    -5609 
   -3099     6678    14889    14327     6354    -3018    -6988    -3241 
    2586     5647     6566     4969     3194     9090    20286    23167 
   15719     8618     5826     5529     7767    10281    10327     7935 
    4510     3457     5856     7874     6412     1206    -5024    -8033 
   -9342   -12675   -14072    -9687    -4147    -2228    -2362    -1794 
   -1580    -2102    -1263      139     1235     3198     3237      206 
    -772     -630    -2863      430    12997    21024    15583     6389 
    4289     8631    12409    10627     5150     1890     3063     5027 
    4602     2733     -650    -7264   -13851   -13489    -5737      846 
    -109    -4395    -4483     -368     2083      -72    -3998    -4228 
     929     6723     9161     9196     8194     6147     4332     5724 
   10438    13525    11137     4912     -870    -1582     4120     9009 
    5104    -3372    -6795    -4455     -681     3235     3703    -2794 
   -8807    -7508    -4623    -2889     1525     4679     3122     3111 
    6442     8768    10281    11188     9761     9157    12001    13703 
   11545    10752    12725    11247     6575     4407     3597     3021 
    5753     6068    -4384   -19318   -28255   -28624   -18634    -1044 
   10405     7238    -2791    -9996   -12167    -9192    -3118     1791 
    4614     6876    10207    15419    17945    12490     4764     3504 
    5351     4472     3570     6304    13512    22161    23689    14615 
    3808      602     2331     2455     2442     3630      903    -5246 
   -5749     1364     6130     3111    -1796    -5443    -9701   -11001 
   -7487    -4951    -3981    -1769    -2467    -6237    -5255      778 
    3824      664    -3802    -3300     3159    11398    16796    17504 
   14689     8922    -1169   -11321   -11750    -2565     5756     9223 
    9857     5940     -238     1093     8268     6230    -5328   -10708 
   -7168    -2393     3260     5772    -3959   -19909   -26446   -18299 
    -141    17871    22584    12942     3969     4588     7481     5248 
     -82    -3906    -4842    -3534     -473     3006     5630     7127 
    4870    -2685    -9999    -9386     1210    14674    19426    11497 
   -3446   -15803   -14652      164    10831     6166    -1706     -603 
    7075    16796    25645    30275    30396    24560     9847    -6984 
  -13837    -7923     5293    16634    16880     7263    -2153    -3987 
    4496    19006    25747    17250     4800      272      718      993 
     714    -2205    -7094    -9655   -11842   -16829   -19234   -13691 
   -5548    -4448   -10027   -11014    -1684     8509     9769     5373 
    1559      652     4905    10362     9178     5572     9644    18755 
   22165    15387     1873    -9458    -9143     4159    22719    34331 
   29485    10951    -9499   -21898   -19321    -2624    14011    15682 
     272   -19206   -21763     1000    34314    53230    43295    11909 
  -22894   -44082   -36220    -1595    33189    43895    28799     5140 
  -10631   -19215   -24777   -21991    -8680     7076    16915    22561 
   27326    21127    -1513   -22488   -27827   -27918   -31116   -28120 
  -11038    15091    37041    39881    19770    -9431   -26451   -18299 
    7013    26578    25318     5817   -15730   -17668     7530    37496 
   36925    -4263   -56960   -80577   -59998   -14823    21658    29963 
   16567      383   -11819   -21901   -21659    -5394    16120    27491 
   18252    -3484   -10102     7236    26774    30277    17300    -1170 
   -6231    10546    31420    35567    26003    14083      -52   -15052 
  -25185   -34596   -48550   -58002   -50360   -26663      334    19150 
   25832    22654    14111     4675      857     5964    15490    28688 
   46471    54604    39764    12078   -11681   -24738   -26225   -19881 
  -11361    -5406    -5445    -8202    -6252     1125     5860     -923 
  -18967   -34719   -30669    -5568    20907    31271    29701    32923 
   45220    51300    37893     9872   -16524   -28090   -25941   -17242 
    -149    25251    44727    41069    10424   -27265   -38885   -14434 
   16083    18713    -2405   -19292   -21883   -19589   -12816     5765 
   25278    26682    13707     5115     9892    21478    22751     4641 
  -15543   -14177     5890    24132    30318    27700    21965    15570 
    8914     4415     6042    11612     9821    -4676   -19835   -22937 
  -17466   -14391   -16652   -19098   -18809   -13960     1000    22954 
   34773    25924     7695    -1271     -372    -5563   -20622   -28355 
  -16275     5260    17979    18314    16983    20615    21456    10967 
   -3595    -9629    -5491     3511    12511    18343    20193    16823 
    6384    -7233   -15325   -11570     5661    29295    39847    19561 
  -23375   -58012   -63251   -43039   -11160    22076    47011    52112 
   31779    -4083   -30141   -27195    -5648     9111     8669     3334 
    4044    12567    21878    24859    23000    21604    19881    16297 
   17574    26138    30819    24102    11890     2755     -170      237 
     125     -575    -2444    -8878   -20174   -31320   -34985   -26379 
   -9751     2214     -661   -16160   -30865   -32846   -22108    -3667 
   18728    32863    25278     7003     3984    20007    33189    25907 
    2984   -15894   -14674     5643    28366    35352    22234     2328 
   -6795    -2361     2201    -6019   -26838   -46946   -49046   -26823 
    7678    32960    34940    18638     1750    -5451    -6505    -5664 
   -1345     7285    15596    15754     4895   -10929   -23878   -29334 
  -25789   -15537    -2992     7531    14580    21065    28116    31315 
   27141    17394     6539    -1599    -7541   -14840   -19121   -10912 
    3053     5089    -3063    -4795      380    -1181   -11479   -18318 
  -14520    -6439    -2716     -558     9297    23788    29778    26034 
   22512    21338    18889    19873    30387    43414    45601    32193 
    8856   -11943   -17803   -10039    -2710    -5032   -13667   -17562 
  -10019     1111     4901     2251    -1173    -4191    -6750    -7595 
   -8869   -15209   -23166   -23367   -15554    -4457     9570    19467 
   13289    -5440   -20794   -23280   -15718    -8579    -8945   -11585 
   -6338     7668    22083    32320    40541    44365    36332    20079 
   12124    18337    24945    21074    10953     1148    -6955   -13100 
  -14898   -10511    -4017     -233     2373     5980    11800    22693 
   36693    44065    34236     6739   -23114   -36412   -29584   -15603 
   -6910    -4703    -5486    -7414    -8317    -5215       23     -106 
   -4864    -2243     9437    15687     7715    -4535    -2940    18476 
   45446    58465    50232    27498     5371    -2026     4808     9759 
     769   -16618   -30154   -34703   -32786   -29735   -28872   -29261 
  -29176   -30248   -33785   -35622   -31482   -22011    -7947    10866 
   30669    45598    52367    48639    32825    12271     5516    24213 
   53086    62667    45724    23630    13532    10389     4808     -577 
     550     4748     2775    -7726   -18388   -18071    -6912     1806 
   -2311   -16895   -31668   -34379   -18968     3539    12970     6050 
     765     9782    23976    27621    17996     4941     -700     2006 
    2656    -5252   -13240   -10739    -1528     2098    -2373    -4245 
    4048    13768    10752    -4507   -16943   -15345    -6076    -3280 
   -7898   -10762    -9359    -6971    -6293    -9607   -17914   -28962 
  -35843   -32611   -23811   -18675   -17857   -15346    -7763     3456 
   14385    22098    26962    30781    34291    36823    36667    33340 
   29732    27773    23125    11589    -1120    -5135     1611    12160 
   16005     8980     -124     -553     6723    11037     2146   -18530 
  -35823   -38238   -29817   -18492    -7171     2817     8253     3476 
   -9987   -16368    -2350    25200    46138    47114    33319    18985 
    9910     4858     6629    17375    28663    28107    13575    -6241 
  -21806   -27990   -25558   -21000   -18725   -15454    -9159    -7002 
  -14578   -22709   -16762     3223    21942    26982    19217     6936 
    -430     4673    18983    26628    17419     1323    -3693     6860 
   20368    21412     7730    -6967    -8413     1888    10687     8640 
   -3573   -17844   -23832   -19623   -16880   -26029   -39583   -41031 
  -26601    -7900     3717     8513    14937    25809    33295    30677 
   21042    14986    22219    39032    49964    45922    30466    11550 
   -2628    -5819      892     9425    12425     8754     2890      766 
    4256     9258    10419     5965     -931    -2890     4440    16488 
   26059    29124    24189    12302    -1930    -8676      -35    15746 
   20024     7711    -6664    -9167    -1912     4780     5675     2061 
   -1888    -2494     -957        1     1502     2374    -3034   -15816 
  -29455   -35032   -27648   -12231    -2826    -8676   -19592   -16275 
    3046    19869    19025     3842    -9778    -9949      148    10019 
   13917    10886     4402     2705     8596    14534    16044    17647 
   21729    26639    31661    33760    29646    21130     9594    -4463 
  -15311   -19612   -22447   -26393   -25699   -15561    -1499     4135 
