Origin Time       2016/04/16 01:25:00
Lat.              32.753
Long.             130.762
Depth. (km)       12
Mag.              7.3
Station Code      MYZ006
Station Lat.      32.2565
Station Long.     131.5609
Station Height(m) 22
Record Time       2016/04/16 01:25:22
Sampling Freq(Hz) 100Hz
Duration Time(s)  300
Dir.              E-W
Scale Factor      7845(gal)/8223790
Max. Acc. (gal)   142.083
Last Correction   2016/04/16 01:25:21
Memo.             
[...]
   -3447     6547    13659    12928     6494    -1337    -7325    -9571 
   -7352    -1898     3125     4217      652    -4298    -7236    -7094 
   -1367     8361    14088    11259      -67   -14080   -20331   -15707 
   -2558    16384    33065    38859    30469     9937   -13887   -31307 
  -37401   -28925    -8345    12567    23791    22241     8856    -8025 
  -18084   -18242    -8912     5047    13471    12571     6122    -1765 
   -8289   -14219   -19005   -17892   -11782    -5255     1159     6200 
    7121     4734     1563    -2091    -5765    -6164    -1811     5050 
   11283    11936     4544    -6015   -14659   -19352   -17571    -8910 
    2385    10612    12658     8885     2091    -3731    -5268    -1102 
    8046    18252    23026    18955     8887    -2546   -12498   -17386 
  -13149    -1638    10762    19291    20191    14247     7094     -274 
   -7500    -9949    -8507    -7817    -6489    -1750     4363     9400 
   11696     8025      -75    -7406   -14463   -20278   -18594   -10349 
   -2721      433     -702    -3563    -5995    -6733    -4950    -3640 
   -5656    -8814   -10895   -10440    -5224     2263     6394     7404 
    8078     4980    -4795   -16065   -22509   -22408   -19168   -17258 
  -13321     -850    17842    35117    44583    39320    16441   -15615 
  -43391   -55128   -42574   -10138    27348    56678    65188    46981 
   12239   -22401   -40049   -31831   -10130     8483    20753    24547 
   16058    -1089   -16249   -19777   -14642   -10343    -7831    -3676 
    2511     7781     9281     7340      954   -10646   -20056   -15121 
    6061    28817    37304    26588      275   -29447   -46163   -38159 
   -7002    28526    50151    50326    26312    -9297   -34751   -42198 
  -32495   -10570     9447    16086     9868    -1375    -9972   -13329 
  -10485    -2439      896    -7462   -16834   -13729      938    16357 
   20239     6293   -18416   -38318   -42222   -29196    -5166    22161 
   41782    41563    23873     4877    -7052   -13563   -15519   -14674 
  -14000   -11561    -3279     9184    19652    23491    19418     8459 
   -4911   -13158   -14544   -13205   -10098    -6748    -5579    -4448 
   -2031      110      610     -259     -754      896     7435    16393 
   17431     7411    -7015   -20814   -28865   -25639   -12754     3323 
   16345    20070    12071    -4857   -24200   -31132   -16866     2779 
   11381    12384    10355     4158    -2690    -5455    -5692    -7501 
  -10528   -11379    -7169     1973    10152    13531    17741    25783 
   26096     8733   -14014   -23727   -18825    -4687    16418    35750 
   38210    19464    -9101   -32532   -39282   -26515     -661    30402 
   56467    66681    55609    24358   -16155   -49084   -60385   -45716 
  -13547    25591    59454    66413    38156    -7159   -49821   -75467 
  -69684   -38978    -7677    15961    32229    33157    18905    -4110 
  -30040   -46071   -46422   -36784   -20263    -3705     4692     8754 
   10716     5204    -7433   -22381   -32034   -27233    -8618    13277 
   25995    22279     7906    -4472    -8417    -4864      214     -365 
   -4325    -3261     2039     7685    14845    20216    20429    18422 
   13863     6714     2098     2336     7458    15149    18204    11780 
   -2965   -20972   -34308   -35248   -20877     5680    36605    58581 
   57647    30979    -8023   -36919   -42256   -30261   -12939     5815 
   22975    31819    31124    24304    10712   -10168   -32734   -46816 
  -42761   -21239     5548    25278    31498    21165    -3306   -31432 
  -51525   -54068   -36641   -12548     5393    18414    26661    25999 
   17825     6586    -4833   -15698   -25498   -29062   -19861    -1201 
   16101    24340    17579    -3669   -27033   -42295   -40791   -14347 
   24132    51938    58766    40768     4380   -32487   -55887   -55379 
  -26185    17462    52552    65978    52697    16869   -20148   -39305 
  -40382   -25478      615    21622    28224    24592    16163     4642 
   -9671   -21023   -24163   -21984   -12703     5811    22141    25897 
   16745     1329    -9688   -14482   -16293   -14339    -7635     7668 
   26505    31290    17987    -5394   -29609   -38469   -23955     5046 
   34892    52037    49007    27618    -6440   -43632   -69388   -71216 
  -47572    -7797    33988    62986    67913    49890    21717    -7088 
  -32265   -47464   -47348   -30411    -2997    19336    28212    29253 
   28016    23461    11234    -9232   -30459   -43688   -44490   -32138 
   -9811    12150    22322    20197     8712    -9090   -20262   -15433 
    1773    25756    45684    45829    22158   -14054   -47470   -66829 
  -66343   -49253   -23739     8001    40019    57777    54795    35425 
    8139   -20765   -44537   -47544   -25762     3681    27778    40159 
   32300     6710   -18952   -29851   -24403    -8792     6579    13486 
   14818    15542    13684     8047     2582      816      410    -3225 
  -10786   -18245   -20160   -15533    -4460    11678    22262    18631 
    4120   -13491   -26503   -28894   -17479     4388    24803    33916 
   29020     9402   -20279   -45728   -51321   -32922    -1252    28652 
   45949    43761    23835    -2679   -23022   -26802   -11871    10963 
   23508    14976    -5935   -25195   -37557   -35716   -14467    16444 
   43434    56778    48828    22185   -11254   -39704   -50673   -37017 
   -8845    15398    26212    22308     8702    -3944   -12980   -19575 
  -18177    -8661     4263    19390    31225    31314    18424     -741 
  -14615   -13999    -2496     8845    15635    17986    15140     7331 
   -5506   -19882   -26558   -20306    -3585    15855    25705    16794 
   -8230   -37496   -58210   -61060   -42753    -8007    32807    62522 
   59865    22708   -24624   -58266   -64254   -37322     4522    34905 
   46017    39484    18449    -6968   -24775   -27133   -15658    -2293 
    3283     1304    -3028    -5467    -4001     1632     5786     1138 
   -8252   -12912    -8563     5300    20690    25087    16283      234 
  -16672   -27549   -26090   -10118    13745    33281    41488    35883 
   16501    -7844   -25068   -28962   -19448    -2681    13392    23832 
   24690    17034     7740    -1174    -9275   -11865   -10443    -9751 
   -8588    -7798    -9333    -9462    -6844    -4888    -4450    -3880 
   -3055    -3500    -5902    -9406   -12373   -14539   -17543   -20530 
  -19981   -13815    -2936     8561    15746    15562     7713    -3577 
  -11352   -12318    -8863    -6345    -7203    -7345    -5268    -3165 
    3271    16773    30758    38730    36691    21240    -4619   -29164 
  -39120   -30519   -10744    11782    32710    46426    44572    22751 
  -12337   -44647   -60014   -54772   -33801    -5238    20841    35131 
   34180    19315    -5305   -30294   -43996   -39518   -19018     5879 
   22133    23623    11816    -5394   -20034   -27908   -24474    -9741 
    9825    29089    40824    36934    19387    -3550   -23032   -30554 
  -25381   -13273     1740    15919    25126    27869    22495     8567 
   -8406   -21590   -27677   -27128   -20745    -6065    14265    29820 
   34106    25531     4897   -18010   -29046   -24267    -9653     8113 
   22540    29226    28095    19846     7811     -301     1279    10609 
   20232    24040    18391     4240   -10345   -19479   -22419   -18689 
  -10597     -997     8982    14662    11198      738   -10788   -20731 
  -28545   -30466   -24322   -13903    -2758     6673    11468    10199 
    2521    -8414   -17532   -22829   -22820   -16495    -3932    13154 
   25269    22341     5798   -14623   -28019   -29845   -21856    -5460 
   12172    19407    14054     1675   -10728   -16563   -14689    -7739 
     275     3002    -1264    -7010   -10007    -9903    -6872    -2500 
     278      838      587     1005     4326    10813    17643    22705 
   21821     9548   -10251   -27529   -36400   -33863   -20008     -369 
   16649    21406    10817    -3981   -10532    -9324    -6372    -3109 
    1732     7203     9842     8116     2909    -5643   -15639   -22827 
  -24383   -18482    -5211    12004    28671    38869    36555    20717 
   -2296   -21193   -27517   -21486    -8806     5066    15130    15106 
    3300   -12893   -23797   -23086   -10890     4862    16079    18597 
   11271    -2138   -14906   -20432   -16217    -6343     4371    12911 
   16382    14080     7639    -1518   -12835   -23645   -28660   -25475 
  -15698    -2698     8352    11646     4449    -7447   -13486   -10616 
   -3308     5551    14794    21560    23869    22106    17631    13354 
   10762     5876    -3601   -12873   -18327   -19386   -13798    -1331 
   13695    22589    16727     -544   -17197   -25861   -23085    -9907 
    3006     3916    -8363   -23097   -26678   -15569     3422    21832 
   32030    27877     8846   -16322   -34342   -37756   -25517       59 
   29651    48271    45424    24104    -1240   -19032   -27329   -25818 
  -14378     2706    18507    24213    14088    -6339   -27360   -43848 
  -49817   -41812   -27719   -14403      758    16929    28036    30630 
   23155     8779    -5368   -16573   -23649   -23988   -18131    -7167 
    7430    19404    24671    24288    15550    -1829   -16129   -18588 
  -13161    -6154     -934     1618      553    -5837   -13347   -15801 
  -14627   -13313   -12287   -11329    -8444    -2199     4930    10199 
   12946    12980     8141    -4298   -19603   -25941   -17732     1100 
   24011    40101    37297    16025   -10343   -26921   -24584    -3219 
   27263    52060    60885    51896    28224    -3607   -31471   -43526 
  -38603   -23392    -4170    10243     8326    -9811   -29554   -38608 
  -36765   -30624   -23753   -13971      697    18781    32684    31307 
   15569     -344    -6207     -255    14203    28065    30778    17938 
   -3759   -22075   -30145   -25157    -7908     9767    13621     1904 
  -17211   -33054   -37494   -29587   -14592    -1829     2274     1672 
    2219     4077     7755    14727    19724    11781   -11684   -37817 
  -50094   -40667   -13494    18345    39555    39009    16308   -17268 
  -46153   -55128   -36211      410    32962    50390    54872    46921 
   29563    14149     6027     4055     8810    15705    18392    16835 
   11878     6812     7215     9855     7595     -552   -14871   -33933 
  -47374   -45202   -29756   -10683     3727     8592     4131    -6061 
  -16981   -22119   -17714    -3221    18239    36563    42260    32979 
   11739   -12428   -30118   -38996   -39646   -32879   -21109    -6577 
    7018    13798    12874    11861    18289    30384    41191    46533 
   42365    23924    -5749   -35698   -55181   -57098   -42684   -20572 
    4401    26843    34495    24209     4938   -14902   -25616   -20035 
   -3385    13608    20873    13213    -1738   -13327   -19803   -21266 
  -15464    -3396     8830    15447    15624     9248    -4024   -20098 
  -32832   -37589   -33021   -21088    -3227    17271    33232    39221 
   33131    17593      544   -12044   -18256   -16892    -7915     5745 
   17613    21222    15439     3279   -12224   -26549   -35183   -39937 
  -44119   -43771   -33976   -18731    -5584     2708     4884     1343 
   -2651    -3801    -1383     5651    14158    21585    28984    32695 
   27584    14501    -1034   -10621    -8733     2308    16391    28543 
   34087    27540     7550   -20225   -45285   -56270   -47960   -23573 
    9733    42610    61225    52145    15299   -33865   -75597   -94294 
  -83401   -47048     5030    57798    90155    90163    64485    23969 
  -22798   -60918   -73772   -57354   -23820    10840    39447    55301 
   47860    20700   -13355   -46449   -64389   -53951   -21591    13331 
   32356    28582     7177   -22960   -50039   -61882   -52436   -22566 
   18277    53141    65538    49272    14751   -19448   -38129   -32764 
   -7865    19205    35613    40285    34150    20101     3780    -9521 
  -13882   -11084   -10143   -12877   -14891   -13895    -9526     -297 
   13733    25617    27476    17921     1877   -10103   -11499    -6205 
    2111    12594    21381    25386    24255    18605    11435     4795 
     108     2584    13455    25084    29666    25077    13495     -459 
  -12449   -22154   -29743   -30862   -20362     2316    30199    50207 
   52431    38275    17617      500    -5660     1760    15113    23645 
   25046    18931     3272   -16619   -31916   -38232   -35812   -30944 
  -29488   -28343   -22739   -13601    -1779    11985    20460    18014 
    7740    -5933   -17215   -18632   -12108    -8109   -10447   -12393 
   -8387      337    11039    20641    23708    16526     4548    -1726 
    -131     3601     4538      488    -7268   -15792   -24412   -30442 
  -25177    -4436    21930    39931    44030    33928    11612   -15250 
  -38971   -56127   -64578   -64141   -53643   -30766    -2563    17474 
   23608    17400     2069   -14594   -21425   -13968     2484    17501 
   19854     7184   -13801   -36598   -52300   -53582   -43482   -28247 
  -14455   -10559   -18168   -28490   -31264   -22002    -1904    22636 
   43534    57443    63598    60913    53481    48255    47594    52859 
   62834    69178    67379    58954    43096    20213    -7079   -37551 
  -66765   -86529   -91018   -78746   -54206   -28358    -8915     5304 
   14643    15985    11765     7731     6448    12725    31320    57790 
   82857    93483    76265    31176   -28464   -81723  -106740   -92585 
  -43727    21204    76118    95793    65657    -3003   -79704  -136151 
 -149739  -113880   -48247    22883    80169    99557    72219    19595 
  -32972   -70170   -79207   -58205   -20749    15587    37615    38635 
   19318    -8494   -29381   -41108   -46433   -41443   -24288     3770 
   38075    65287    70048    48783    14399   -17614   -38445   -41401 
  -24502     4171    30179    42107    35128     9774   -24597   -50830 
  -52624   -24460    22555    68721    96145    91719    56018     6046 
  -39196   -65317   -62283   -32630     8401    45150    64508    55054 
   20351   -22693   -61549   -84041   -81938   -63819   -38707    -7682 
   24815    51914    65989    60952    39340    10087   -15504   -25929 
  -14905    14017    49391    79971    95979    89240    61211    22395 
  -15014   -38786   -40348   -22738     1208    19703    25627    16154 
   -4552   -26971   -41272   -41625   -27915    -4327    18558    26485 
   13701   -14100   -44104   -60620   -56053   -36134   -12426     5327 
   11701     5325    -9513   -24359   -31287   -25419   -11692    -2253 
   -2690   -11965   -26584   -39460   -43443   -34898   -15239     7092 
   20914    22370    15206     3528    -8235   -15317   -14895    -6264 
    7080    17786    19376    11673      982    -7357   -10976    -9396 
   -6643    -7194   -11904   -17012   -13666     2434    25404    47196 
   62513    67133    57620    35060     7423   -15179   -26330   -24400 
  -10651    10338    30658    44734    49412    42668    29829    19298 
   14724    17932    27468    36509    38971    33458    22063     8299 
   -6319   -24615   -46413   -63136   -66565   -54922   -31741    -5655 
   12872    16995     6023   -15518   -39752   -55378   -50399   -20687 
   26925    78966   115479   118554    89156    40844   -11766   -49500 
  -57496   -37064    -1391    34489    57709    53449    14835   -44291 
 -100372  -134551  -138179  -114774   -76651   -36776    -5651     6458 
    -982   -13588   -17899   -10068     9180    34307    53053    54400 
   39062    18705     5929     6420    18546    33658    40050    32443 
   13872    -5202   -14287   -14419   -11792   -10052    -9722    -7863 
   -5826    -8581   -15503   -23685   -31835   -36714   -33497   -18634 
    5864    29573    41513    38770    24063     1891   -19674   -32552 
  -34776   -27079   -11978     3163    11484     9994    -2494   -20569 
  -31610   -27931   -12418     7221    24129    35924    41862    39749 
   31213    20097     7033    -8731   -28336   -49168   -62068   -61249 
  -48000   -23611     5981    27515    32332    21913     6243    -1975 
    3940    22044    44369    62440    69840    63742    48782    32256 
   16868     4842      230     2740     6802     7759     7078     8749 
   13073    18866    25386    29412    26477    14932    -2852   -21073 
  -33026   -34519   -26823   -16995   -11580   -12874   -21259   -32648 
  -38361   -33307   -18723     -438    11232     7010   -12560   -36979 
  -53300   -52531   -34491    -7703    19661    43672    58780    60373 
   50406    31702     8785    -7411    -9567     1026    18658    31924 
   31006    16995    -5991   -33327   -53396   -56787   -44024   -19425 
    8530    25342    20062    -5562   -38931   -64207   -70220   -53790 
  -19261    19715    46793    54514    43623    20305    -5637   -25375 
  -30905   -19465     1842    23263    36038    33393    16503    -7144 
  -30701   -47891   -53158   -46900   -33535   -17093    -2569     4961 
    2970    -6376   -16586   -21790   -18466    -5732    12946    31584 
   43019    41936    29965    13451    -1483   -10971   -13034    -6905 
    5694    20650    33061    38993    37521    30152    18941     7850 
    2651     4305     6174     3588    -1005    -4734    -5594    -2254 
    2579     5540     4012    -4392   -16758   -27580   -34630   -35498 
  -27778   -14401    -1723     7238    14138    20071    23274    21672 
   15267     6825       -9    -2629      249     8197    19195    28633 
   30127    21724     6930    -9536   -21848   -24316   -15989    -2226 
    9055    12438     6153    -6810   -19149   -25793   -24644   -13626 
    3194    15911    19823    15626     4355    -9215   -17896   -18372 
   -9358     6577    19111    21516    15972     5013    -7248   -14515 
  -15546   -12808    -8718    -5555    -3102      553     4429     5456 
    2960    -1606    -7476   -14188   -21073   -26643   -27935   -24344 
  -18585   -13143   -11236   -15556   -23016   -26804   -23533   -15700 
   -7897    -3511    -3199    -3804    -3267    -3059    -2517      707 
    5526     8706     8078     3260    -4392   -12465   -18351   -20108 
  -17284   -12691   -11607   -15608   -20788   -22794   -19203    -9235 
    3963    13933    16796    12145     2272    -6115    -8023    -4626 
    1255     6304     7946     7063     5590     5572     9124    15971 
   23763    29789    30842    23851     8761    -9289   -22690   -25801 
  -17616    -3339     9298    15064    10654    -4203   -23175   -36805 
  -39638   -31193   -14985      940     8270     4901    -4877   -15616 
  -22921   -22617   -13112     2949    21100    36346    43896    41697 
   31827    19558    10108     5456     4338     4842     6374     8182 
    8185     5227      464    -4706    -9950   -14731   -19176   -24395 
  -29613   -32161   -29380   -20393    -7350     5748    14872    18081 
   15323     6571    -5363   -14899   -19710   -19869   -14816    -6781 
    -414     1630     -945    -6172   -10065    -9940    -6100    -1105 
    2004     1934     -581    -3601    -5854    -7171    -6493    -3244 
    1393     6200     9282     8166     2363    -5737   -12571   -16809 
  -20035   -24568   -31626   -39247   -43077   -39857   -29370   -15498 
   -3264     6243    13761    18917    22954    28313    35367    42458 
   47314    47422    40385    26141     9421    -1902    -2011     8016 
   20570    28336    29004    24344    18310    14524    13518    13072 
