Origin Time       2016/04/16 01:25:00
Lat.              32.753
Long.             130.762
Depth. (km)       12
Mag.              7.3
Station Code      MYZ001
Station Lat.      32.7050
Station Long.     131.3089
Station Height(m) 370
Record Time       2016/04/16 01:25:14
Sampling Freq(Hz) 100Hz
Duration Time(s)  300
Dir.              N-S
Scale Factor      7845(gal)/8223790
Max. Acc. (gal)   158.337
Last Correction   2016/04/16 01:25:14
Memo.             
[...]
   -8885    -8881    -8881    -8883    -8877    -8877    -8883    -8883 
   -8881    -8881    -8877    -8878    -8883    -8885    -8884    -8880 
   -8880    -8884    -8881    -8877    -8881    -8881    -8878    -8880 
   -8881    -8881    -8883    -8880    -8878    -8883    -8883    -8880 
   -8880    -8883    -8880    -8876    -8880    -8884    -8883    -8883 
   -8884    -8883    -8874    -8872    -8878    -8883    -8881    -8878 
   -8881    -8885    -8883    -8877    -8880    -8881    -8878    -8881 
   -8881    -8880    -8881    -8881    -8880    -8881    -8881    -8878 
   -8880    -8883    -8880    -8880    -8883    -8880    -8876    -8880 
   -8883    -8884    -8881    -8878    -8880    -8881    -8878    -8878 
   -8880    -8881    -8881    -8878    -8881    -8888    -8885    -8877 
   -8877    -8881    -8880    -8878    -8878    -8880    -8880    -8880 
   -8881    -8883    -8883    -8878    -8876    -8877    -8884    -8884 
   -8878    -8878    -8884    -8883    -8877    -8880    -8884    -8883 
   -8881    -8883    -8880    -8880    -8881    -8878    -8880    -8883 
   -8884    -8884    -8884    -8883    -8881    -8881    -8881    -8877 
   -8874    -8878    -8881    -8881    -8880    -8883    -8881    -8877 
   -8877    -8881    -8881    -8880    -8881    -8883    -8881    -8878 
   -8880    -8884    -8884    -8883    -8880    -8877    -8880    -8884 
   -8883    -8880    -8880    -8881    -8883    -8880    -8880    -8883 
   -8883    -8878    -8880    -8883    -8878    -8878    -8883    -8881 
   -8881    -8880    -8877    -8878    -8881    -8881    -8884    -8885 
   -8884    -8883    -8883    -8880    -8880    -8878    -8872    -8872 
   -8872    -8865    -8862    -8860    -8860    -8865    -8866    -8865 
   -8870    -8873    -8872    -8870    -8863    -8850    -8841    -8839 
   -8856    -8883    -8907    -8934    -8977    -9034    -9077    -9080 
   -9045    -9004    -8961    -8888    -8807    -8770    -8753    -8715 
   -8707    -8762    -8820    -8842    -8858    -8854    -8768    -8654 
   -8703    -8929    -9090    -9119    -9169    -9224    -9279    -9301 
   -8920    -8297    -8255    -8764    -9054    -8958    -8754    -8487 
   -8060    -7642    -7703    -8364    -9117    -9530    -9759    -9975 
   -9744    -8762    -7827    -8012    -9137    -9899    -9633    -9057 
   -8444    -7377    -6763    -7476    -8529    -9913   -12194   -12814 
  -10434    -7860    -6042    -4718    -5416    -7561    -9662   -11441 
  -11847   -11581   -12256   -11750    -9279    -8704   -10204   -10019 
   -8845    -8646    -7777    -6336    -6600    -8500   -10400   -11159 
  -10417    -8289    -6770    -7816    -8760    -7340    -5547    -4326 
   -3838    -6110   -10816   -13755   -12921   -10536    -7917    -4989 
   -4214    -7023    -9525    -9868   -10968   -12108   -11803   -12606 
  -12756    -8303    -3348    -3395    -7171   -11376   -13375   -12332 
  -10717    -8896    -6413    -5895    -6934    -7074    -6651    -6669 
   -8347   -11222   -12916   -13204   -12334   -10372    -7933    -5182 
   -5625   -10654   -13888   -13331   -12198   -10794   -10319    -9910 
   -6315    -2859    -3094    -4819    -6172    -7115    -8749   -10867 
  -11110    -8560    -3280      546    -2593    -8376   -11564   -13485 
  -12993   -11342   -12718   -13188   -10029    -8878   -10701   -11221 
  -10698    -9587    -7314    -7257    -8710    -7717    -6913    -8117 
   -8772    -8729    -7977    -5682    -4388    -6717    -8727    -6613 
   -6355   -10941   -13617   -13494   -12961   -10584    -9452   -10334 
   -8436    -7211    -9995   -10623    -8607    -8125    -8031    -8266 
   -8540    -5733    -1815    -2313    -7481   -12713   -15272   -14413 
  -10543    -8151    -8294    -5358    -1440    -3033    -5979    -6943 
  -10046   -12853   -10976    -7780    -6544    -8473   -13825   -18022 
  -17990   -15811   -12660    -9486    -6782    -2917     -287    -3199 
   -8108    -8860    -7874    -9290    -8988    -6681   -12079   -21996 
  -19897    -8440    -4976    -8510    -7113    -4190    -6748    -7919 
   -5308    -6180    -8376    -8349   -11295   -15611   -12023    -3392 
   -2447    -8712   -11134    -7608    -2101     3653     4032    -5005 
  -12717    -9904    -3607     1019     4410     2041    -6643   -16903 
  -26126   -29836   -26017   -19222   -12314    -6508    -3284    -1848 
   -3141    -7901   -11669   -13096   -14121   -12942   -11033   -11821 
  -12039    -9691   -10012   -14922   -16367    -8941    -1213    -2234 
   -6174    -4079     1113     2133    -2238    -8221   -11246    -8742 
   -3973    -5427   -13699   -17807   -12748    -7940   -11206   -15016 
  -10048    -1961    -3156   -13463   -18273   -11534    -1985     3283 
   -1063   -11857   -14764   -11967   -16421   -22435   -18223    -6964 
    3018     9730     9347     -224    -6489    -3522    -4814   -11059 
   -9755    -7947   -14338   -18239   -16761   -17957   -19533   -18068 
  -19599   -23014   -15803     -502     4050    -3393    -6203    -1954 
   -1277    -3496    -3653    -6006   -11221   -12326    -6075      931 
    -493    -5667    -5093    -4036    -6044    -3006     1548    -1148 
   -4510    -4914   -10369   -20163   -21523   -10831    -2416    -4909 
  -13134   -23002   -30246   -32148   -28165   -14559     2866    10748 
    7546      400    -4392    -5462   -10137   -17217   -13687    -3172 
    1907     2130    -2196   -13127   -25192   -31434   -28680   -18971 
   -6718     3329     3600    -5536   -16063   -22372   -16364    -4345 
   -5710   -13061   -10683    -7460    -6056     3605    11313     5958 
     907     1397    -2038    -2871     8385    18763    13869      634 
  -12783   -29385   -41478   -36637   -24001   -17643   -16365   -16314 
  -14018    -5914     1075    -3507   -13508   -11973    -1395     6066 
   13421    19093    11870    -9147   -31174   -39745   -34342   -21101 
   -6438    -1553    -3434      850     6077     7753     8543    -1956 
  -17238   -16800   -11078   -13925   -12171    -1378    -1206   -13809 
  -14454    -4136    -4707    -4970     7846     8318   -13491   -26100 
  -19597   -21232   -33443   -35865   -26933   -15721   -10909    -8850 
   -2466    -4158   -13852   -14303    -8716    -4434     6516    20272 
   23912    24266    25447    15932     -394   -13019   -23500   -28194 
  -19909    -6523     -834    -5896   -16912   -21708   -13397    -1664 
    -851   -11812   -17027   -11095   -12262   -22141   -22566   -18360 
  -26094   -30609   -18306    -8068    -4741     1209    -2752   -18338 
  -13930    14704    32305    33930    30815    12102   -10947   -17238 
  -18134   -25559   -31125   -27041   -23656   -30862   -33135   -19417 
   -3402     4168     5058     7782    18947    24592    12887     1092 
   -5740   -24804   -46530   -46133   -27834   -10767     3570    15063 
   11071      286     1227     -627   -18381   -33107   -33400   -27282 
  -19126   -11618    -7358    -4340    -5363   -12641   -17041   -13637 
   -7017     3615    18087    26542    21959     5354   -15614   -28587 
  -30720   -28150   -21501   -11299    -3592    -2012    -5895   -10667 
   -9078    -7038   -14661   -16374    -4788    -1334    -7323   -10758 
  -12513    -7997     -950    -7107   -13751    -2646     7423     5043 
    1999    -4918   -14111   -12096    -7804   -12838   -13211    -7461 
  -15653   -29124   -32398   -36283   -35208   -17795    -5599   -11425 
  -12278     3084    13533    13497    17541    13528    -4984   -11755 
  -10139   -21904   -31463   -19693     6293    29155    30631    10551 
  -11722   -26705   -28306    -7997    10937     5053      263     6527 
   -4552   -20370   -16809   -14392   -17550    -6755     2246   -13959 
  -32182   -23611   -10073   -14762   -20115   -17460   -14409    -1212 
   14967     3609   -15668   -11587   -13363   -25558   -20754   -16398 
  -19407   -11221    -5017   -13292   -16686    -4935     8330    17277 
   24007    18673    -2879   -21672   -24182   -23531   -28166   -25321 
  -17293   -22607   -32323   -25709    -7117    11874    28097    35094 
   25257     6952   -12550   -38599   -61654   -73079   -75393   -61699 
  -31140     9823    43914    44273    23205    17157    17705    -1837 
  -12987     3916     -677   -30485   -36328   -28713   -34923   -40061 
  -34573   -26454   -12237     4159      695   -19917   -27319   -16359 
   -7420     4544    29720    48729    50012    30889    -9085   -40212 
  -41215   -30046   -23036   -14845     -136    10055     8352     6457 
    7537    -3149   -23458   -33052   -33554   -35878   -31652   -22639 
  -19417   -16710   -15025   -11908     8492    32767    33917    22281 
   17830    16895    13304     7836     5752    13078    19728    15550 
    5073    -9412   -24652   -33944   -33181   -25220   -24842   -41103 
  -64373   -72334   -53534   -29806   -23321   -26978   -30937   -34111 
  -31218   -18079    -2300     -876   -18951   -38033   -39586   -19434 
   10207    25903    26163    23753    14470      336    -1475    11564 
   21899    16875     6662      899    -8252   -13412     2417    21158 
   20322    14958    19911    24322    14526    -7962   -26665   -36799 
  -49411   -56365   -46631   -34129   -29172   -29718   -32436   -34118 
  -38146   -40873   -35667   -27079    -9158    22164    42381    32599 
    7091   -14833   -26202   -21955    -7226     2427     4511     9680 
   15749     5512   -13111   -11729     -612   -11786   -37195   -42465 
  -15715    19475    26366     -778   -24098   -24394   -29565   -44069 
  -40586   -27378   -23290   -19650   -15140   -11561    -3335     3221 
    7763    20475    40467    58324    64083    54984    40676    30049 
   19545       -5   -25562   -42638   -49655   -57018   -64740   -67489 
  -67153   -58568   -34642   -13365    -8492    -2816     4683    -3133 
  -11844    -7001   -10315   -31864   -49742   -46170   -27067   -10963 
    1466    24898    46948    47582    39071    29756     9134   -13684 
  -21470   -30007   -55065   -65503   -40487    -8360    11394    24243 
   26977     6378   -30938   -52473   -52486   -55690   -56405   -44145 
  -39173   -38944   -23341    -7173    -3789     9027    37157    54858 
   57582    54372    36370     3742   -29007   -50404   -52955   -35449 
   -4747    18648    29559    52344    76878    66183    32591     6180 
  -13481   -22489   -20117   -35058   -73377   -98221   -89752   -78973 
  -94730  -101568   -61335   -11861     1247    -1711     9215    13242 
   -5208   -14404    -9019   -13936   -12015    11942    24318     9208 
   -1192    18732    54565    75664    71582    51559    23872     2312 
   -6758   -19606   -35117   -40093   -35719   -15556    18168    46344 
   58807    47573    16532    -4996    -4945   -15827   -54110   -90175 
 -113128  -127997  -120569   -97888   -84512   -86749   -91393   -76677 
  -49306   -31212    -6848    43241    95064   117019   108243    81911 
   48288    18512      238    -3300     4754    10693    13394    21559 
   25361    14835     -471    -8796   -15449   -37199   -72529   -96742 
 -107123  -131966  -161366  -149744  -104145   -75598   -80439   -90216 
  -81994   -59012   -25250     7862    25732    44590    61566    44084 
   16449    18928    25018    10123     5637    33852    70641    90408 
   89622    63944    15773   -29192   -50637   -55308   -53990   -44957 
  -32512   -33471   -49522   -54796   -41323   -42819   -68294   -83065 
  -71739   -48516   -29652   -17707    -3118    10704    13184    12055 
   14889    14916    12584     9603    -2571   -20081   -26499   -23020 
  -25683   -31141   -30288   -36278   -50511   -57191   -59387   -59552 
  -45543   -27170   -29693   -48903   -62081   -66595   -69974   -68584 
  -56535   -32520    -1748    21080    29698    35607    42570    34213 
    5946   -16024   -23147   -37681   -43100   -16025     4074       78 
   10052    36624    43326    18017    -6690    -1474    17489    20337 
    1252   -22327   -34734   -36121   -32773   -30502   -23514      -10 
   28243    37635    25292     7439     6987    32923    66303    87064 
   94516    91098    75641    59331    55480    48679    21297    -2110 
   -6004   -27201   -73167   -94354   -71334   -39991   -46655   -89550 
 -116406  -117281  -127016  -140549  -134753  -110407   -66685    -8205 
   40151    63188    68315    67341    64126    57790    39170     7264 
   -3106    27372    66113    89232   106789   122216   112730    70100 
   27151     1105   -20050   -29054   -23103   -31630   -78069  -140035 
 -144548   -67220    -5162   -14663   -25789   -11650   -12271   -21591 
  -14430     5562    17007     8467    -1385     -726     2006     -996 
  -15857   -28204   -20997     3115    39864    52914     1638   -72963 
 -103543   -96639   -99528  -109792   -98964   -85442   -90782   -95168 
  -86548   -75435   -55150   -21797    -6805    -9038    22300    91521 
  141385   125304    63923    24879    27131    26508    -2550   -30686 
  -19997    20322    69095   117324   129865    95007    57786    46462 
   43537    28084     6351    -4463    -9686   -30349   -54949   -50013 
  -25524   -16902   -25151   -28892   -24914   -25146   -27908   -15302 
   24360    76522   107947    98901    61854    30478    22879    24038 
   13910    -4618   -15267   -30959   -72727  -110585  -118694  -116202 
 -118057  -130422  -142773  -131036  -112523  -111366   -98086   -52250 
  -17315   -28486   -51208   -47544   -38861   -48343   -52521   -31851 
   -7565    -4033   -15871   -24383   -23519   -13053    22322    85398 
  139711   157108   140239   100573    72893    75664    63917    28246 
    4966   -27654   -71397   -77886   -45203    13234    69091    69769 
   31072    19383    32787    -3642   -83185   -95651   -36795    -5849 
  -19107   -37285   -39911   -30541   -40308   -61823   -66694   -65720 
  -56444   -29829   -10968   -14189   -22594   -21558   -11203       68 
    5104     8820    12028     6609    -1077     3581    27243    63418 
   90047    93344    83681    74629    69993    64628    50240    30184 
   10544   -10597   -30693   -47218   -63898   -86844  -119917  -152438 
 -170239  -173558  -165447  -136276   -84426   -40895   -22475    -5486 
   12403     8789    -9317    -5757    33543    55684    23264     7488 
   64627   112052    64467    16592    61834    91493    77094   102685 
  112974    84360    61314    35469    32548    56624    67038    54375 
   18252   -30906   -73103   -98761  -105590  -104565  -104026   -98514 
  -96122  -111430  -137335  -143388   -90745     3465    57933    61169 
   86575   131504   127402    81973    56728    67724    72986    47623 
   26050    31201    44392    46889    41235    40783    41101    36516 
   32903    23768     7964    -5011   -18405   -30959   -30434   -15229 
    7707    28864    43407    58091    65485    41628    -5625   -37669 
  -44265   -51260   -75844   -93978   -61025     4989    30793     7870 
  -11838    -4989    19622    41794    48288    53400    65376    61956 
   39441    27148    32929    39849    44274    47914    50296    58079 
   65072    58880    47849    35302     7959   -26519   -42948   -39977 
  -37960   -45711   -54248   -55577   -57604   -70524   -79513   -67408 
  -57955   -82286  -121095  -140255  -146080  -145686  -118922   -72717 
  -46030   -45044   -34137     -996    21894    21913    27981    50009 
   63252    60818    65634    79798    79110    65056    58662    55209 
   40825    24636    15367     7119     8385    27075    41227    36914 
   27148    21910    19224    11452    -3782   -18684   -29637   -37798 
  -42554   -46379   -49270   -48483   -46390   -44035   -43726   -51101 
  -55499   -39685   -16190   -10781   -15948    -7719     5906     3171 
   -7349    -6110     3520     6744     1359     2142    18615    40471 
   60251    79598    88326    77438    59564    44157    20564   -14982 
  -50136   -76121   -93405  -107790  -118098  -112990   -96981   -91153 
 -102331  -108684   -86568   -63313   -77283   -91201   -66545   -39444 
  -24950     -783    18863    21547    19939    15426     7177      288 
   -3210    -9255   -21674   -27133   -18354    -5013    11109    35006 
   62672    84115    92434    87316    70584    47096    25722     5375 
  -17184   -34713   -44332   -43798   -31935   -20115   -16467   -23791 
  -41025   -53622   -53061   -51511   -54822   -50031   -34412   -23448 
  -26913   -34323   -29092   -14469    -3508     4048    14920    28571 
   38878    43008    40737    29776    11757    -1702    -7423   -17038 
  -25641   -25807   -30539   -38788   -41742   -45223   -45728   -36302 
  -28344   -35413   -56627   -80072   -90414   -77078   -44010   -13059 
   -2893    -3908     2296     9522     7288     2673    -1634    -1890 
   12017    30214    39118    39764    29311     8012    -9373   -18303 
  -29790   -44726   -59753   -79385   -97692   -96762   -68899   -27140 
    4200    10987     4693     4758     5787    -3893    -9103     -905 
    1723    -9216   -21458   -23459   -13186    -4429    -7519   -13814 
  -15890   -12969   -11487   -19179   -26746   -31739   -46365   -65772 
  -75621   -69476   -49257   -25714    -6265    11662    31199    44496 
   38859    18404      131    -8263   -11176    -9734     3582    26813 
   43528    42912    26775     6261    -4606    -6409    -9867   -16198 
  -19029   -14025    -5273    -2019    -7005   -15840   -23565   -27726 
  -27662   -26507   -28359   -27942   -18531    -7931   -10945   -26599 
  -36030   -31850   -26887   -23811   -13921    -4504    -4500    -4942 
   -2513    -3454    -3599    -1794    -4515    -5603      550     7065 
   13495    22285    23230     9834    -2227     1271    10255    15763 
   25348    38217    41806    31376    10412   -10866   -21116   -24904 
  -28858   -25637   -13383      514    13576    23814    22349     3732 
  -17184   -22038   -18734   -18677   -13269      826    14762    24363 
   30127    34280    34385    23479     8972     3924     -472   -16690 
  -33831   -40066   -39707   -33961   -22724   -18739   -26669   -29281 
  -16216    -1277     1960     -557     1422     5769     5136    -2170 
   -9744    -5182    12675    24077    15851      365    -7280    -8822 
  -10029    -8276    -5227   -10362   -22324   -31318   -36269   -39727 
  -37588   -25261   -10184    -9432   -24565   -29439    -5722    27623 
   45804    47483    40550    28818    12553    -5026   -16833   -24156 
  -32255   -33142   -19136    -2559     5564    11514    17807    18449 
   14577    12062     9859     4067       76     2228    -2293   -22211 
  -41929   -47186   -45031   -43092   -34909   -16519     2220    12098 
   13961    10945     6528     2826    -1026    -1489      222    -5154 
  -13771   -17053   -20366   -27598   -31143   -25357   -17469   -16969 
  -15816    -1436    14457    10226   -11538   -28597   -28657   -20456 
  -15759   -14492   -13687   -10912    -7038   -13440   -30624   -41526 
  -43220   -45142   -43843   -32240   -15194    -4747    -4442    -5382 
   -5256    -7229    -9153   -11006   -10066    -7218   -14098   -26904 
  -31978   -32274   -31941   -28734   -27711   -30222   -30604   -30735 
  -29837   -20428    -7592    -3032    -5505    -7734   -12132   -23093 
  -32305   -33265   -34053   -39154   -43059   -40149   -28678   -15550 
   -7531      -70     8858    11638     5967      -75      665     6293 
    9921     8324     5289     4812     3260    -3361   -12726   -23148 
