Origin Time       2016/04/16 01:25:00
Lat.              32.753
Long.             130.762
Depth. (km)       12
Mag.              7.3
Station Code      MYZ007
Station Lat.      32.2353
Station Long.     131.1158
Station Height(m) 305
Record Time       2016/04/16 01:25:17
Sampling Freq(Hz) 100Hz
Duration Time(s)  112
Dir.              N-S
Scale Factor      7845(gal)/8223790
Max. Acc. (gal)   82.081
Last Correction   2016/04/16 01:25:17
Memo.             
[...]
   -5552    -5559    -5560    -5562    -5563    -5562    -5560    -5563 
   -5560    -5552    -5557    -5568    -5566    -5559    -5560    -5562 
   -5559    -5557    -5560    -5559    -5562    -5563    -5556    -5560 
   -5566    -5559    -5559    -5563    -5560    -5559    -5557    -5560 
   -5567    -5563    -5559    -5559    -5560    -5563    -5562    -5559 
   -5560    -5560    -5560    -5563    -5559    -5557    -5566    -5566 
   -5562    -5562    -5560    -5559    -5562    -5564    -5564    -5559 
   -5555    -5559    -5564    -5567    -5563    -5559    -5556    -5555 
   -5557    -5562    -5563    -5562    -5557    -5557    -5563    -5560 
   -5560    -5563    -5559    -5557    -5562    -5564    -5557    -5556 
   -5562    -5563    -5557    -5559    -5563    -5560    -5562    -5564 
   -5563    -5568    -5575    -5578    -5589    -5607    -5629    -5653 
   -5687    -5722    -5757    -5790    -5822    -5852    -5876    -5884 
   -5852    -5779    -5729    -5792    -5976    -6110    -5960    -5489 
   -5036    -5009    -5475    -6139    -6574    -6465    -5825    -5105 
   -5005    -5689    -6517    -6787    -6242    -5188    -4387    -4336 
   -5038    -6157    -7026    -7141    -6423    -5157    -3844    -3028 
   -3592    -5863    -8248    -8571    -6416    -3377    -1310    -1436 
   -3662    -6033    -7123    -7051    -6436    -5849    -4256    -1845 
   -1559    -3568    -6334    -9452   -10590    -8212    -4248     -758 
     746     -899    -5489   -10963   -13813   -12096    -6735     -319 
    2878      383    -5475   -11728   -15541   -12927    -4797     1736 
    1729    -3134    -7924    -9386    -9167   -10176    -9026    -3788 
   -1975    -5626    -7879    -7132    -5715    -5116    -6276    -7257 
   -7028    -7283    -7454    -6401    -5040    -3588    -2764    -4766 
   -8464    -9541    -6864    -4097    -3955    -5283    -6150    -5841 
   -5443    -5082    -3580    -2932    -4708    -7416    -9273    -7771 
   -2979      619     -493    -4774    -7361    -6262    -4473    -4371 
   -3574     -978     -581    -4013    -8854   -10270    -4506      959 
   -1614    -6762    -8908    -8175    -6435    -6393    -6388    -4012 
   -3232    -7384   -12089   -12024    -7325    -3029    -3406    -4839 
   -5628    -9305   -11115    -6789    -2425    -2830    -5962    -8962 
  -11682   -13336   -12303    -6359     3267     6193    -1182   -11146 
  -17448   -15194    -7426    -1178     3816     5628      615    -9842 
  -18819   -16843    -5791     3960     7911     4444    -6319   -15169 
  -13246    -5246     1868     4831       89    -8202   -14366   -16892 
  -12214    -3680      217     -855    -3284    -5679    -8394   -10174 
   -6770    -1416    -2602    -6342    -5502    -3950    -4768    -5888 
   -6266    -5780    -5355    -7130    -9270    -6934    -2887     -890 
   -1215    -8600   -17244   -16502   -10438      -98    10309     5211 
  -10228   -19311   -19847   -12376     -351     5327      454    -8497 
  -14397   -16788   -15939    -8712     2326     8540     5783    -1269 
   -7659   -14846   -20065   -15030    -1787     8407     9703     2988 
   -8263   -16661   -17960   -13230    -3715     1775    -1127    -1655 
     464    -3885   -11944   -14889    -9147    -2204     -526      483 
     660    -3820    -9219    -9387    -4326    -3573    -8972   -10392 
   -8251    -9396   -12652    -9972      770     3899    -5391   -10060 
   -6806    -4592    -5987    -7273    -2867      758    -5767   -13814 
  -12756    -6959    -1179     1991    -5899   -18846   -20301   -13532 
   -7360      626     9937    12619     3572   -11843   -26236   -32960 
  -22658     -815    13119    12399     5163    -2920   -12434   -20704 
  -22029   -15153    -4320     4085     5786     1441    -1728    -3507 
  -13073   -21820   -16235    -3416     9374    15676     4326   -15395 
  -23191   -16998    -5242     4496     4430    -2263    -6430   -10924 
  -12622    -3505     3068     1507      336    -8456   -18127   -11403 
   -3412    -1509     4568     4000    -5967   -13652   -19761   -18073 
   -4360     4649     4483     3963    -1605   -10976   -12208    -9316 
   -7152    -1533     -583    -4428    -1497    -4261   -15830   -12773 
   -2338    -1539    -1603    -4677   -13308   -17128   -17707   -13756 
   -4294    -1471    -5073    -8888   -10813    -5198      225    -1672 
   -3037    -8456   -16264    -7716     6604     5358      576     4733 
    5451    -5089   -17124   -19492    -8253     6160     5945     -195 
    4748     4804    -9644   -20852   -21979   -15947    -6781     1760 
   11464    12553     1104    -5543    -9158   -23296   -33434   -19022 
   10686    24343    10712    -3335    -5757   -16012   -25257   -15400 
   -4737    -2509     -251     2847     6693     -348   -16032   -16584 
   -9501    -7063     1011     9271     7267    -3996   -17992   -23060 
  -20621   -14138     1163     9639    -2309   -14207    -9606      436 
     506    -9676   -13802    -6556    -1965    -2309    -4143   -10292 
  -14506   -17884   -25231   -18531     3740    15060    12958     4985 
  -12236   -25516   -24462   -15255    -2667     4581     4094    -2381 
  -12916   -12263    -6443   -11861   -11901     2196    14404    14376 
    1298   -12718   -17212   -18135   -13171     3412    14278     4202 
  -10453   -10571    -8997   -17936   -21416   -14916   -10677    -7618 
    2546    19618    24521      652   -30230   -38601   -27984   -11352 
    8769    25805    29281    13478   -19051   -49462   -53944   -29326 
    5445    30720    36899    18497   -16231   -43834   -53327   -42198 
   -9180    22041    29762    21080     1466   -20590   -30325   -31781 
  -24347     -201    24939    32607    19588    -8451   -30412   -27907 
  -12964    -4530     4557    18289    14619   -10170   -29859   -25629 
   -2774    16110    21533    17589      -97   -17767   -17799   -16212 
  -13786     4310    12658    -4271   -19147   -21600   -16244    -1464 
    9833     8019     1225    -4095    -8028   -11237   -11438    -7350 
     945     4780   -10636   -24780    -9034     8635      557   -11649 
  -13683   -11792    -5109     1518    -1418    -4338     1266     1092 
   -5475    -5112    -7063   -12019    -6289    -4552   -15071   -14558 
   -3959    -5266   -12028   -12915   -10719     2208    20142    17227 
   -4002   -23172   -28953   -11190    11114     6164    -5670     -866 
   -2027   -11003    -8293    -3543    -3712    -1337     1404     1165 
   -7319   -20048   -17172    -4351    -1159    -1524     2019     6170 
    3361   -12021   -23296   -18230    -8110      -72     5599     9038 
    6276    -5074   -15662   -19387   -11865     4762    15495    16387 
    7466   -10868   -27075   -31789   -20290     1075    15855    16146 
    2593   -18461   -35937   -36818   -17443     6945    19333    11676 
   -9220   -25408   -32374   -26831    -1838    23060    22200       49 
  -18366   -17536    -9019    -7838   -10485    -9626    -4568    -5186 
  -15534   -18064   -11354    -8118      117     5537    -9282   -20536 
  -11531      307     5967     5543      895    -5054   -10295    -9508 
   -7813    -9497    -5590     4592    15597    17626     1601   -17161 
  -24649   -27357   -25007   -13922     2374    17968    20403     7546 
   -7481   -25196   -42337   -31990     2243    22023    20526    12120 
   -2290   -17734   -25558   -23076   -11083     1746     3816    -1350 
    3784    11888    -1113   -23086   -32003   -28705   -16131    -1321 
   11820    22107    14179    -9613   -30214   -41845   -36359   -12548 
   10736    21393    19155     6156   -11820   -25166   -25756   -16355 
   -1987    15097    20154     7535    -2792    -8179   -21092   -26345 
  -13882    -2425     8553    23989    22970    11786     7236   -10957 
  -37355   -43384   -38022   -22898    10624    36142    33728    10166 
  -19275   -34669   -36192   -29631    -5533    22432    26685     8005 
  -16586   -30515   -24009    -6550     4170     6145     4773    -5491 
  -19024   -18311   -10199   -10118   -15593   -16774    -6135    10273 
   17446    13099     7068     3568    -4757   -15333   -12729     -927 
    2675    -1861    -3936    -1123     1798    -2833   -19325   -33454 
  -28759   -13196     6196    29315    35580    14118   -15147   -38821 
  -51008   -37762    -2169    31506    44416    28752   -10897   -46446 
  -50928   -35345   -15129    19148    49877    41193     6188   -24742 
  -44841   -46199   -24406     7928    30708    27978     7084   -14706 
  -31438   -32648   -14305     7294    23260    28752    13043   -13008 
  -29948   -40327   -45625   -34410    -3898    32536    44652    15336 
  -24629   -40684   -33535    -9443    22798    36625    17377   -17996 
  -43893   -42718   -14524    14337    24291    24192    10269   -24898 
  -47175   -37863   -23425    -7209    16179    26368    17396    -2770 
  -25859   -35877   -27591    -6208    16663    25053    21809     4800 
  -33605   -58927   -46296   -15951    19738    38654    23129     8413 
   -1279   -38376   -66067   -42867    -2586    26676    42448    28540 
   -7010   -36306   -51386   -45353   -19656     2336    11492    16941 
   16848    -1102   -28470   -34514   -17793    -5316     2066    12366 
   12313     4233      733   -10003   -23467   -18598   -11861   -13365 
   -4850      707    -8322    -7739     4074     8989     6259    -6197 
  -23763   -23014    -6195     1534     1147     1154    -7697   -24214 
  -29878   -15823     6079    22615    28740    13387   -20335   -39224 
  -30624   -14632     3245    22396    21509    -8833   -42942   -53735 
  -42880   -18219    10384    17918     8937     9566     6691    -9837 
  -16741   -11375    -5440     -149    -3932   -15361   -16417    -8702 
   -4344     2805    13062     8149    -3743     2204     5167   -16671 
  -32674   -24664   -10982      378    17625    37990    34117    -2064 
  -35224   -47837   -46140   -26277      805    20015    30561    22627 
   -1850   -21321   -29070   -27163   -16474    -5922     -715     4903 
   10061     3358   -11731   -17729   -16021   -15882    -8702     4091 
    4855    -3958   -14224   -24385   -17695     5571    20547    22316 
   14216    -3848   -19330   -23799   -21489   -10727    10890    25535 
   18343     1869   -16143   -34447   -34407   -15570      495    14303 
   27103    24197     9964    -3889   -18445   -24036   -12930    -5337 
   -8064    -2732     4001     2382     4255     1906    -9023   -11167 
  -10783   -12937    -3932     1371    -9927   -16067   -11515    -2721 
   15855    29115    22324     7260   -10339   -23828   -25038   -23410 
  -13129     8248     8885    -8120    -8561    -5123   -15018   -20783 
  -25080   -34796   -27157     -459    23633    36666    28063    -1345 
  -21717   -20841   -16387   -17956   -20888   -15142     6151    26840 
   27573    18474     8128    -8063   -17192   -15412   -17672   -16430 
    -495    14752    11125    -8203   -19570    -7709    10629    12631 
   -3327   -30754   -49813   -29749    13838    35533    23026   -11703 
  -32464   -10602    18792    16726    -5552   -18895   -11920    -1977 
    -854     -423      552    -2890    -9832    -7843     4303     1170 
  -17973   -24236   -16644   -14061   -14843    -4286    17415    35182 
   35895    13170   -30029   -70158   -72461   -37970     5279    49796 
   75826    61669    32003    -3310   -48537   -66303   -48244   -29590 
  -10438    13095    15747     -908   -10785    -9076    -8970   -16984 
  -18997    -4382     5489    -3970   -16353   -22736   -23091   -14550 
   -5116     1457    10084    21379    35322    40309    23245    -6147 
  -30459   -40155   -44069   -52002   -41778   -11173     2100     2037 
   17501    30281    22091    10111    -3469   -24115   -33812   -27961 
  -22092   -15777    -3348     8483    15145    14998     7882     7171 
   14454     3260   -25427   -34931   -21281   -14247   -19167   -11746 
   10867    19491    10068     8842    15136     5259   -19164   -34847 
  -32351   -23641   -19993    -8687    20379    38071    16576   -27580 
  -56564   -53057   -37944   -28144    -3612    38834    62399    45879 
    2606   -42969   -67211   -54738   -14740    19781    36163    42568 
   23139   -20645   -47826   -51597   -42465    -4164    38684    32688 
   -7897   -34445   -32509    -8066    18904    23291    11493     8726 
   16096    13621    -8397   -34678   -40024   -21832     2096    24926 
   39572    25498   -12611   -42120   -53638   -57952   -46056   -15292 
    9317    21145    27145    23969    23086    21816     -558   -25038 
  -30900   -24529    -6782     6361     5458     5437    -9652   -39655 
  -36829    -5917    12406    19364    18805     9655     3611    -6696 
  -23993   -26825    -6994    23136    40230    30898     7985   -17180 
  -38936   -43640   -27761    -8860    -7366   -11751      266     9150 
     280    -4677    -4791    -7933    -6775    -7862    -8467     3559 
    3834   -17232   -17324     9752    26082    27298    14755   -18642 
  -41200   -37972   -35325   -28404    -5603    13555    24694    29493 
    9963   -25400   -42210   -34628   -12505    16223    21956   -10868 
  -45493   -46990   -25024    -1806    14045    18786    12280     3017 
   -4942   -13952   -16186    -9016    -3213     4309    13172     7962 
   -4342    -5946     3646    10404    -8641   -49794   -69930   -42323 
   10073    47345    54480    36934     3596   -21779   -20771   -11530 
  -11065   -11570   -13988   -24098   -31961   -30307   -19138     5089 
   33176    43809    31644     -353   -50691   -91605   -85753   -39506 
   14219    53090    58676    34649     7192   -24653   -62996   -72901 
  -44145    -5811    22748    32167    31792    36069    26104      297 
  -14553   -24879   -35808   -26790    -8954    -3819     1000     7956 
    -761   -13629   -10759    -2685     6829    19795    13856    -8604 
  -18643   -18212   -14231     1132    14257     4665   -19889   -31153 
  -17427     -687     6837    13347     6625   -16124   -28927   -28784 
  -19345     9131    28252     7663   -20457   -27183   -25529   -17813 
   -1467     4580    -7804   -15766    -7418    -2180     -167    11932 
   14179     -888    -8299    -6972    -3595     8213    10795    -2355 
   -5233    -4639   -14642   -11244     4288     7911    10291    16780 
    5174   -23253   -42522   -41032   -24254      457    22960    33302 
   25654    -3563   -39056   -55979   -51775   -35496   -17757   -10153 
  -10663   -16110   -25305   -19939     5521    20497     8410    -8815 
  -13413    -9454    -4908    -1722     6259    16922    16988    10701 
    8525     2498   -12534   -27911   -32547   -19917     3902    24015 
   26746     9830   -12251   -30343   -42530   -33536    -6224     9198 
    6968     -526   -13888   -25969   -18766     5564    16278    -6519 
  -35394   -38691   -23247    -4074     7317     3940     4207    18512 
   22119     2643   -13593    -7527    -1300   -10883   -14044      963 
   15921    13432    -3372   -14625   -12368    -3766     9250    18555 
    8910   -14003   -29349   -32769   -26701    -6164    13867    14839 
    8000    -1543   -20603   -33295   -26928   -14496    -5505    -2921 
  -12271   -18099    -5938      332    -6975    -1953     8591     5159 
     677     1869    -1915    -9184   -10134      804    10939     -473 
  -16960   -15832   -19161   -33932   -30955   -11061     5344    10207 
   -5501   -30654   -36967   -24138    -5483    12150    11587   -11709 
  -30913   -28402   -15827    -5086     5093    12402    11520     7476 
    4214    -6718   -24938   -25898      503    27477    36074    27943 
    6173   -12839   -14747    -8608    -2898     -392    -5054   -10948 
  -14207   -17524   -14598    -3825     5355     5737    -7901   -25458 
  -28039   -21556   -18192   -15797   -10308     4236    17942    14351 
    9364    14850    14103     5425    -2787   -14548   -24949   -23469 
  -11464    10800    34936    36533    11914   -20537   -44535   -45804 
  -26959    -4950    12268    20301    17535     1987   -30493   -56250 
  -47324   -19203     8938    36651    47428    31471     5308   -21757 
  -42853   -42776   -25145    -4595    17194    32115    24927     3312 
  -15380   -24679   -24097   -22451   -22199   -10474     8506    13211 
    1698    -5703      584     7304     5618     4484     5665    -4437 
  -23238   -28958   -16256     1780    12399     8679    -1466    -3977 
   -3874   -13113   -21795   -14991      818    13505    19192    10746 
  -14373   -35291   -29247    -6432     7330     6777     -102    -5674 
   -2432     2029    -6065   -19441   -25940   -25361   -16879    -3132 
    4676     3510      757      274     2470     4140    -3692   -16160 
  -15703    -8397   -14848   -23112    -8781    13956    22281    22409 
   17709     -330   -23249   -32104   -21618    -5836    -1687    -3578 
    3238    13458    18894    20908    16954     9111     3457    -2107 
  -10223   -20776   -27785   -21529    -6602     2782      451    -6704 
   -5861     -868    -5595   -16503   -29716   -46715   -51178   -33376 
   -7452    15279    28606    27017    15928     2154   -14797   -30519 
  -37500   -35545   -19344    11503    30993    25243    10512    -6309 
  -23531   -26353    -8380    17956    32069    23554     4329    -9005 
  -11488    -8480    -6361     1085    12276     9942     -103    -4978 
  -13468   -21651   -13339     6961    21255    18550     3812   -12649 
  -24958   -26407   -22164   -23332   -20198    -8163      511    11745 
   28755    33208    24081     9856   -14208   -40328   -46789   -28386 
   -2899    11408    11396     5381     6318    10755     1846   -13409 
  -19527   -19732   -16626   -10875    -5741      -39     2917     2515 
    4584     4000    -4901   -16791   -27398   -32458   -24859    -9494 
   -2297    -1042     8113    13909     4854    -6115   -14087   -16119 
   -6100    -2448   -14378   -21343   -15373    -3474     9988    17818 
   15155     3153   -12039   -18654   -14265    -4758     7504    10119 
   -5294   -20299   -23761   -23511   -19755   -10438     5034    24582 
   31684    17586    -4357   -21851   -32756   -36023   -28802   -13513 
    -712     3430     4087     7696    12502     9790    -2943   -15053 
  -19923   -18034    -5189     9370     5772    -8548   -15612   -20339 
  -25936   -21737    -5219    15010    25682    19827     4553   -13408 
  -32000   -42246   -33458    -8349    18396    34373    33561    15371 
  -10940   -32082   -41566   -37534   -20690       -1    12803    14342 
    5853    -8075   -14216    -4814     9877    15928    10339    -1647 
  -14635   -23485   -21015    -6397     9566    16421    13203     3559 
   -7626   -13532   -11218    -6718    -4754     -916     6859    12105 
    7333    -6934   -18056   -14179     1270    15182    16875     5478 
  -10646   -23789   -28348   -18554    -1424     6374     2571    -4494 
  -11333   -13644    -9921    -9787   -16020   -16649    -6366     6789 
   11881     2107   -15426   -25389   -23822   -15024    -1447    11017 
   12891     -245   -23966   -43123   -38666   -11886    13057    19859 
   10831    -3300    -9803    -6912    -3697    -4163    -9351   -17953 
  -19492    -8942     5667    15140    14797     6933    -3048   -10055 
   -6885     4095     8793     1008   -11566   -19553   -21847   -21255 
  -19751   -18508   -11144     6029    20298    18507     -379   -26623 
