Origin Time       2016/04/16 01:25:00
Lat.              32.753
Long.             130.762
Depth. (km)       12
Mag.              7.3
Station Code      MYZ020
Station Lat.      32.4550
Station Long.     131.1470
Station Height(m) 612
Record Time       2016/04/16 01:25:14
Sampling Freq(Hz) 100Hz
Duration Time(s)  300
Dir.              N-S
Scale Factor      7845(gal)/8223790
Max. Acc. (gal)   165.946
Last Correction   2016/04/16 01:25:14
Memo.             
[...]
   -5524    -5517    -5518    -5528    -5535    -5526    -5517    -5525 
   -5533    -5524    -5513    -5519    -5526    -5529    -5533    -5532 
   -5525    -5519    -5519    -5525    -5529    -5528    -5524    -5519 
   -5521    -5528    -5532    -5533    -5524    -5510    -5512    -5528 
   -5536    -5533    -5526    -5521    -5519    -5526    -5536    -5529 
   -5517    -5521    -5524    -5516    -5524    -5541    -5539    -5525 
   -5521    -5522    -5521    -5524    -5529    -5526    -5519    -5519 
   -5526    -5532    -5533    -5529    -5521    -5517    -5522    -5533 
   -5536    -5529    -5524    -5518    -5509    -5512    -5528    -5541 
   -5541    -5530    -5521    -5518    -5522    -5535    -5537    -5518 
   -5509    -5522    -5528    -5524    -5530    -5539    -5529    -5517 
   -5522    -5532    -5535    -5530    -5518    -5506    -5512    -5529 
   -5537    -5537    -5530    -5517    -5514    -5524    -5529    -5530 
   -5528    -5519    -5514    -5521    -5529    -5528    -5529    -5536 
   -5536    -5529    -5518    -5509    -5513    -5526    -5533    -5530 
   -5528    -5529    -5525    -5521    -5524    -5530    -5535    -5529 
   -5517    -5512    -5522    -5536    -5536    -5526    -5518    -5522 
   -5535    -5536    -5524    -5519    -5525    -5525    -5522    -5524 
   -5522    -5518    -5521    -5535    -5539    -5528    -5519    -5522 
   -5519    -5518    -5530    -5536    -5519    -5512    -5524    -5533 
   -5533    -5536    -5529    -5516    -5513    -5517    -5522    -5532 
   -5533    -5524    -5521    -5525    -5526    -5526    -5528    -5530 
   -5535    -5530    -5522    -5518    -5518    -5524    -5528    -5529 
   -5530    -5530    -5529    -5526    -5522    -5521    -5521    -5526 
   -5528    -5524    -5517    -5516    -5528    -5539    -5533    -5525 
   -5526    -5526    -5524    -5522    -5522    -5518    -5516    -5521 
   -5530    -5533    -5529    -5526    -5528    -5526    -5524    -5524 
   -5522    -5521    -5524    -5526    -5529    -5530    -5530    -5528 
   -5524    -5519    -5518    -5522    -5530    -5533    -5529    -5525 
   -5522    -5521    -5526    -5532    -5528    -5522    -5521    -5521 
   -5525    -5526    -5524    -5528    -5532    -5525    -5521    -5524 
   -5522    -5521    -5528    -5532    -5524    -5519    -5524    -5522 
   -5519    -5525    -5530    -5525    -5518    -5517    -5525    -5535 
   -5539    -5530    -5516    -5510    -5519    -5532    -5535    -5529 
   -5522    -5521    -5521    -5521    -5525    -5530    -5525    -5521 
   -5525    -5525    -5524    -5525    -5524    -5521    -5525    -5528 
   -5524    -5522    -5524    -5525    -5528    -5528    -5524    -5525 
   -5530    -5525    -5521    -5522    -5524    -5528    -5528    -5522 
   -5519    -5522    -5522    -5525    -5529    -5532    -5530    -5524 
   -5519    -5526    -5536    -5540    -5541    -5548    -5564    -5578 
   -5590    -5623    -5670    -5706    -5717    -5719    -5769    -5879 
   -5953    -5886    -5721    -5656    -5805    -6004    -6021    -5838 
   -5644    -5568    -5587    -5670    -5810    -5895    -5741    -5418 
   -5314    -5620    -5958    -5776    -5065    -4573    -5031    -6156 
   -6840    -6420    -5464    -5185    -5842    -6126    -5024    -3732 
   -4419    -7176    -9051    -7283    -3524    -2313    -4916    -7836 
   -7560    -4282    -1269    -1624    -5161    -8311    -8122    -5647 
   -3172    -1142    -1451    -6754   -12368    -9477      754     7731 
    5200    -4332   -13633   -15209    -8090      255     1826    -4930 
  -14770   -18516   -11133     1120     7726     4360    -5562   -13427 
  -14146   -11817   -10412    -7993    -3990    -3321    -8858   -13297 
   -7595     4368    10071     4009    -8205   -17757   -19950   -14879 
   -4556     5680     6629    -3138   -11950   -10956    -4014      496 
   -2803   -11587   -15770   -10199    -2682    -1984    -6273    -8947 
   -7087    -3260    -3064    -7010    -8395    -4097     -689    -4953 
  -13204   -15433    -8650    -2041    -5351   -14243   -14878    -2955 
    9471     8437    -4904   -14759    -8506     6759    11426     -248 
  -14029   -19469   -17463    -6929     8162    12810     2596    -9752 
  -13975    -9759    -1112     4684     2042    -5441   -10497   -11254 
   -9660    -5532     1417     5356     1148    -6569   -10829   -11245 
  -12401   -16609   -17895   -10239     -348     -105   -10986   -22855 
  -22804    -7217    10862    12993    -2550   -18014   -19226    -9011 
    4284    12571     5767   -13379   -24941   -20313    -9369     3932 
   17957    20002     8052     -996    -1632    -4567   -12348   -19673 
  -21075   -10675     5413    12420     6855    -5192   -14090    -8212 
    9409    16900     1781   -22848   -39984   -45985   -37828   -11666 
   17447    25851    11754    -8464   -21932   -20017      -63    18779 
   10782   -21282   -49316   -47910   -14762    26080    42662    21674 
  -16081   -33670   -18566     7450    17500     5078   -16023   -27095 
  -18412     3530    18245    10993   -10728   -28125   -29192   -14149 
    7480    20005     9235   -16649   -28927   -16164     4712    13531 
    3052   -18380   -32807   -27174    -6633     9693    10642     1177 
  -11038   -22717   -28136   -20799    -4398    10145    12550    -2458 
  -22106   -21154     2546    21984    17493    -4340   -23512   -24089 
   -6524    12700    15556     2932    -3184     6342    12418     3480 
   -7585    -9776    -3518     9988    19445     5177   -27217   -48097 
  -42188   -16464    11823    20659     1861   -23278   -27858   -14319 
   -4864    -7304   -13058   -16287   -15979   -12217   -12367   -21849 
  -24256    -2365    27078    34435    16096    -8863   -24898   -28348 
  -15475     9309    22204    15314    10891    11599    -1749   -16559 
  -12272    -5188    -9165   -17761   -26936   -25898    -9144     4858 
    5656     6824    13618    11680    -6949   -36366   -62059   -56219 
   -7137    45986    53964    18773   -19310   -28769    -2790    34846 
   40203     4306   -34132   -48425   -37238    -3875    23944    14558 
  -13317   -24737   -21401   -13921    -5096    -5763   -13805    -9545 
    6809    14952     7037   -10239   -30380   -45630   -45812   -29191 
   -9464    -3927    -9945    -6033    17435    43121    45029    16625 
  -22650   -44023   -25894    19488    41762    18783   -11622   -19372 
  -13653    -5227    -6696   -30762   -50940   -32294    10003    36963 
   35097    19665     6744    -6180   -25644   -44516   -48960   -36528 
  -19024    -5757     1703     2478     4186    18414    33589    27129 
    2956   -17038   -23905   -20636    -7101    10222    12571     -724 
   -8472    -7079    -7799    -9850   -14666   -23824   -19850     3241 
   20120    10230   -18208   -38234   -27359     4125    20547     5830 
  -20831   -35679   -32108    -9508    19924    21890   -11261   -41071 
  -44965   -36057   -18241    15828    47066    44727    18173     1248 
   -2041    -4611    -6157    -8270   -15113   -22108   -27695   -29639 
  -15381    15992    41219    41347    19076   -13701   -39052   -41328 
  -22527     3658    16127      843   -16289    -4676    10450      824 
  -13019   -15179    -9718     4384    15962     3701   -30947   -52951 
  -36387    -7339     7032    18095    20009    -6504   -34894   -32039 
  -10174    11819    29058    28989    11862    -2092   -16216   -40463 
  -46862   -19514     9904    18249     8579   -14233   -32387   -23323 
    3283    20015    18397     -828   -33489   -53235   -34321    12814 
   48699    35766   -17181   -55593   -53381   -29224     2829    25226 
   10042   -34619   -64281   -53086   -15823    23182    47773    42178 
   15751     6598    20444    27688    18631     -676   -18342   -12647 
    4683    -4658   -37033   -56317   -41453     6990    55187    59602 
   31766     6822   -20455   -47679   -42884   -14073    -2142   -15400 
  -32697   -38053   -31600   -20123    -3798    17979    37251    40593 
   21986    -5486   -24040   -25119    -6870    14544     9622   -22574 
  -41382   -16980    28534    53177    42049    11290   -16725   -24634 
   -7106     -313   -40375   -82615   -74121   -43614   -19400    11685 
   28934     8348    -8598     3596     6412    -4410    -1761    -6245 
  -22839   -10266    21577    30202    28726    34425    20291   -13213 
  -28972   -23290   -16398   -11917   -10142   -12930    -7315    15903 
   38863    43132    31086     9896    -6840    -6326    -8333   -33061 
  -53946   -51340   -50943   -54054   -34685   -15175   -27407   -46807 
  -43733   -25371    -1792    24047    37825    26007    -4036   -27087 
  -19489    11793    28672    13555    -7064   -12048    -7604     4700 
   23418    28316     7890   -18600   -27754   -21381    -9875    15302 
   56895    81789    63686    18685   -36894   -89903   -92244   -24185 
   42777    36491   -23625   -75833   -87920   -52762    10242    43090 
   14763   -30958   -46376   -39171   -27214    -5441    16233    20147 
   21832    30105    18143   -17365   -35853   -11769    29495    44317 
   21647   -12756   -32795   -28591     1656    43492    57333    18049 
  -33494   -43052   -26335   -12259     8775    21740    -2641   -41173 
  -53848   -40601   -16314    12941    25304      151   -42618   -67509 
  -57106   -19823    10237    10528     1815    12422    30773    25084 
   -1567   -17460   -11811     6143    23784    17930   -15601   -45424 
  -51106   -33438     6426    45006    43641     7758   -20105   -21536 
    1499    44861    72050    45549    -6650   -31623   -18817     4808 
    7886   -15591   -46953   -65118   -67255   -75506   -89606   -70536 
  -13565    34527    42897    28649    21336    24297    33724    49457 
   48103    10146   -45036   -80321   -70517   -24727    26145    65218 
   81031    55923    -1595   -50943   -63234   -45430   -16497    15903 
   27696   -17182   -80150   -73032     -618    54958    54409    10100 
  -43019   -61476   -40119   -24425   -44838   -72805   -70934   -39087 
    2664    30076    31093    18519     6909     2563    12129    28794 
   34973    25886     8712    -1132    10862    36335    53732    47510 
   15479   -23391   -47298   -47221   -17833    27669    50637    31463 
   -6767   -34083   -40737   -32899   -29332   -41656   -50824   -38623 
  -25952   -38564   -62993   -71663   -54183    -9841    33404    24174 
  -25488   -48479   -34400   -18048    -8757    -6702    -8490     3284 
   26142    40068    37639    22111     9949    20463    43370    50436 
   30543    -9059   -45719   -43461     -279    32472    23172    -7739 
  -36001   -44213   -21914     2949   -10939   -51815   -68322   -43973 
   -6057    14554    -3807   -48828   -72945   -63386   -50751   -45037 
  -38665   -40894   -52305   -43213     3871    68389   115086   108248 
   41638   -36896   -72499   -50426     7238    57438    56111     3997 
  -31153    -5733    36342    51707    40412     4870   -37731   -47444 
  -11785    23195    12548   -19943   -35563   -35977   -25525   -12332 
  -21504   -47925   -62868   -57700   -32282     4052    18581     -923 
  -20235   -10007    19360    41886    36116    -2811   -49910   -75234 
  -75593   -61349   -34646     2810    35650    45465    31043     7335 
   -3200    14952    41361    35770       93   -24618   -21027      702 
   30019    40458    12351   -22670   -29284   -18042   -11372   -15527 
  -24931   -26288   -17064   -12449   -22832   -40902   -46527   -24736 
   10484    26526    19819    20132    39275    62059    71730    56254 
   20429   -15834   -39837   -41046   -14242    12538     7726   -17199 
  -43291   -70700   -76694   -31519    35664    66807    49924    13837 
  -15248   -27365   -23433   -15068   -16033   -23198   -22033    -4914 
   20329    32325    23264     8482    -7924   -31471   -45828   -33890 
   -6569    14115    16180     1146   -17508   -20823    -3970    16150 
   25974    21470    -2290   -30402   -38199   -34168   -36294   -35822 
  -29636   -30075   -26401    -4099    10446    -9385   -37492   -39433 
  -13032    36162    79130    68308    17925   -13525   -11952     4738 
   28237    48633    48193    19375   -17795   -37565   -45550   -54140 
  -48181   -17393    12324    13787    -9680   -43804   -66334   -49059 
   -2563    21334    -8738   -63413   -90435   -74351   -21716    56555 
  115831   113778    69573    18562   -34258   -64710   -37197    19283 
   54572    62305    43553     8662   -10022   -11105   -18862   -30384 
  -27800   -16665   -15665   -23464   -21986    -1451    28721    43416 
   22887   -23507   -59398   -53958   -16314    18481    35388    41708 
   39522    26608      -36   -45808   -98516  -133421  -142518  -125446 
  -74155     3474    64539    73577    56498    57040    69525    73525 
   69056    52107    19134   -22057   -57635   -69819   -59818   -44169 
  -29706   -20443   -20749   -34804   -57132   -61337   -36026    -3068 
   16987    28282    45785    63838    64393    48042    21913    -9803 
  -31391   -31999   -21509   -10311    -3083    -5880   -17717   -34632 
  -54567   -66043   -60285   -49021   -47559   -57673   -72235   -79866 
  -70165   -44304   -13189    16908    48186    82570   110555   114084 
   93735    73268    64318    50882    13290   -44490   -98424  -129776 
 -132815  -112669   -87119   -69727   -54691   -28694    17278    78040 
  127789   145228   132499   102192    75988    77217   100292   114552 
   96726    44270   -25313   -88090  -131305  -147813  -137914  -120522 
 -113655  -119697  -125556  -105439   -47484    36864   121819   168411 
  151425    79763    -8540   -56434   -37295    14112    53127    63934 
   44000     1554   -40832   -72198   -95473   -96198   -56925     9458 
   68920    92777    77643    38875    -2489   -18781    -1308    18218 
    5000   -32327   -55231   -50924   -40618   -32984   -22249   -24113 
  -54940   -88970   -89793   -65630   -39452    -8002    18833    11144 
  -25774   -56430   -57246   -22279    39193   105915   153006   159844 
  128945    81253    31892    -1100     3734    33417    39041      498 
  -43605   -63240   -71109   -65954   -33762     1281     9729     5201 
    8525    12671    10497     -413   -30102   -63684   -73688   -66658 
  -49318   -11535    18268     -513   -43347   -61643   -54253   -35233 
   -4513    21132    21743    11900    10685    10863    12085    28976 
   51532    56096    42016    16552   -19110   -52582   -64467   -55777 
  -44369   -32764   -15429    -3527    -6423   -17180   -29204   -41015 
  -50180   -54839   -49945   -26104    10852    30347     5339   -50414 
  -87790   -76843   -34928     7869    35303    38310    22979    16915 
   31147    42078    41804    53248    74824    74515    44081     3707 
  -31239   -48477   -37530    -8474    18553    37543    52332    60327 
   54994    41689    35779    38330    33605    21955    21837    31779 
   31105     8772   -37489   -95755  -129803  -119828   -89830   -70951 
  -74339   -93070  -106768   -98933   -69884   -30086     5532    23203 
   19259    -5772   -43456   -55853   -13131    48822    75825    60512 
   24248    -5154    -8340     6845    25608    41715    49223    46460 
   40462    44140    65434    99484   134845   150613   123485    57088 
  -12684   -52620   -68736   -85766  -101008  -101079   -93872   -87023 
  -75806   -62795   -54288   -47501   -38737   -28451   -18369   -15954 
  -29995   -53789   -70814   -77804   -81981   -84802   -81419   -67089 
  -45756   -27876   -10066    21872    62112    88565    96033    95060 
   91714    87840    82439    69682    49653    32272    23888    21379 
   19064    12406    -1044   -18416   -28695   -19462    10423    48425 
   67670    41160   -16840   -54811   -48992   -27263   -23120   -38327 
  -58089   -73564   -74031   -50537   -18723   -10949   -40242   -78398 
  -88933   -75415   -56802   -31293    -3321    10787    12970    14949 
   19623    25893    32047    37076    44666    60043    76545    76061 
   53379    27333    18940    22176    16289     2351    -7200    -9146 
    4748    33632    41844     6432   -37600   -53873   -49214   -31780 
    -733    25947    27591     7280   -14459   -24088   -22766   -12175 
    4563    13516     3554   -18482   -38164   -50062   -53734   -42511 
  -16190     6539     9460    -2921   -17355   -26125   -23194    -3144 
   24966    43308    45636    36586    25038    22670    33871    46708 
   44564    23949    -5940   -30720   -36239   -16965    16501    36782 
   21514   -12673   -25527    -8704    15345    34048    44532    41335 
   24941    10697    14184    26600    29475    19306    -3538   -38352 
  -72715   -95909  -111450  -118586  -107095   -80931   -57858   -45393 
  -38335   -34646   -36884   -40398   -38966   -35916   -36439   -41395 
  -47237   -44444   -26981    -2478    19406    40058    57969    62122 
   52354    42076    39228    39332    38642    43482    54723    60563 
   55277    45349    38421    39781    49468    56874    53149    48061 
   58776    81930    90983    67524    22269   -20864   -48637   -60953 
  -62716   -65406   -80716   -97758   -90670   -58353   -26906   -15346 
  -22836   -37928   -51564   -61986   -62495   -46596   -27446   -20237 
  -18000    -7982     6808    18004    28077    36807    34437    25373 
   24892    31164    30588    22839    20490    27805    36709    39079 
   29901    10249    -9540   -17031    -4822    18075    27329    14123 
   -7380   -26393   -40691   -45712   -40394   -32409   -27808   -28316 
  -32115   -28459    -9180    18084    37345    36559    16497   -10247 
  -31218   -42943   -47595   -44321   -34126   -23924   -15649    -6798 
   -1956    -8618   -19479   -17811    -4807     4059     3453    -1217 
   -4492    -4477    -2863     -157     7631    19280    26647    27873 
   24495    17130    10542     3838    -8592   -17394   -10004     1713 
   -1582   -16537   -26119   -19611     3491    32435    48646    44508 
   31232    18403     6070    -3175    -6415    -2679     9089    21262 
   19500    -2034   -32981   -54999   -58224   -44905   -23321    -8397 
  -15969   -44516   -71921   -76450   -54757   -18139    18345    38954 
   33851    11134    -6014    -1088    18186    27699    13054   -17663 
  -44547   -51663   -39934   -23774   -11488     -503    10077    13640 
    7638     3331    11442    24993    30113    26457    18246     2134 
  -16779   -23899   -13803     5648    21153    25531    16888    -5738 
  -32490   -47807   -45373   -27970    -8176    -1347    -6480   -11195 
  -11990   -11450    -6764      864     -409   -10767   -14945   -13320 
  -21628   -42337   -61385   -65840   -54758   -34992   -15229     -646 
    9563    13147     6120    -5725   -13730   -18912   -23769   -22439 
  -11395     5305    24610    41575    46008    33104     9321   -13327 
  -23068   -13667     7358    21321    14785   -10386   -41585   -66637 
  -78695   -76215   -65004   -53908   -45829   -35946   -21126    -7935 
   -4881   -13096   -28290   -43692   -49842   -39430   -17820     -905 
    3528      702    -4163    -9524   -11496    -2100    20871    42402 
   43373    24844     4402    -6590    -7753      785    16459    28363 
   27286    15721     2096    -7919   -14251   -22291   -33982   -38753 
  -28328   -13378    -9108   -17273   -30588   -43740   -56361   -66232 
  -65435   -50766   -31622   -21350   -24730   -33326   -33091   -20113 
