Origin Time       2016/04/16 01:25:00
Lat.              32.753
Long.             130.762
Depth. (km)       12
Mag.              7.3
Station Code      MYZ019
Station Lat.      32.5006
Station Long.     131.4444
Station Height(m) 141
Record Time       2016/04/16 01:25:18
Sampling Freq(Hz) 100Hz
Duration Time(s)  105
Dir.              E-W
Scale Factor      7845(gal)/8223790
Max. Acc. (gal)   62.880
Last Correction   2016/04/16 01:25:18
Memo.             
[...]
   10370    10378    10380    10370    10362    10369    10380    10378 
   10372    10370    10372    10374    10376    10377    10376    10372 
   10368    10370    10381    10385    10376    10362    10366    10377 
   10378    10374    10372    10372    10377    10376    10372    10374 
   10376    10372    10372    10372    10376    10377    10369    10365 
   10372    10378    10376    10369    10372    10377    10376    10370 
   10369    10370    10376    10377    10372    10372    10374    10374 
   10374    10376    10376    10372    10370    10372    10380    10384 
   10382    10380    10384    10393    10408    10423    10443    10473 
   10513    10554    10592    10640    10697    10754    10814    10874 
   10906    10874    10760    10605    10498    10492    10552    10574 
   10513    10466    10557    10720    10677    10247     9674     9460 
    9833    10513    11071    11242    10987    10408     9771     9532 
    9906    10415    10345     9535     8677     8604     9217     9787 
    9875     9406     8772     8685     9651    11623    13265    12657 
   10022     7668     7300     8926    11111    12357    12603    11908 
    9949     8191     8657    10967    13230    13861    12600    10998 
   10251    10110    10662    11908    12552    11342     8896     7819 
    9643    12459    13567    12286     9803     8275     8845    10663 
   12148    11595     8762     6257     6667     9771    12640    12226 
    9537     8014     8482    10204    12966    15337    15288    12613 
    8734     6319     7330     9444     9589     8822     8598     8564 
    8812     9474    10766    12700    13670    13043    12949    14108 
   14003    12136    11152    11437    11059     9242     6860     5806 
    6978     8955    10484    11851    12957    12969    11454     9169 
    8634    11140    13389    12094     9661     9178     9070     7979 
    7372     8004     8461     7784     8912    13455    16198    13198 
    7383     3692     5015     9711    13135    13721    12872    10737 
    8143     8281    11194    12838    11983    10721    10405    11284 
   12336    12266    11554    11298    11580    11241     9640     9215 
   11392    12447     9693     5749     4228     5888     8579    10314 
   11056    10932     9232     6157     4734     7711    12155    13251 
   12420    13319    13524     9888     5968     6515    10415    13062 
   12893    11692     9968     8035     7665     9081    11495    13441 
   12031     8691     8863    12208    14080    14720    15593    14156 
   10038     6064     4275     7025    13771    19413    19704    13228 
    3807     -831     1320     7707    16128    20263    15992     8494 
    3115     2616     7068    10658    11601    13531    15163    14677 
   13232    11434    11102    11578     9698     7732     8827    12064 
   15815    16568    11572     5067     3742     8073    13123    14382 
   10996     7645     9566    13609    12866     6770      797     1663 
    9661    16594    17636    15515    12444     7958     2774     1374 
    7218    15988    19797    14928     4752     -970     3673    11670 
   14026    12541    12141    11098     8428     9806    16065    19737 
   18104    13360     7388     5364    10066    17959    24025    20717 
    6960    -2925     1364    10701    13278    10386     7294     5113 
    5609     8540     9090     6273     3971     5940    12873    17081 
   10511      795      838     8714    13926    12773     8900     7452 
   11753    19157    21637    16360     8428     3595     5957    13419 
   17784    16487    11973     5647     1706     3019     5509     7619 
   12129    15622    14351    12766    13995    15684    15020    10378 
    3993     1204     5841    15912    21280    14646     2330    -4109 
     980    13081    21486    20596    12303     3731     4941    16394 
   25691    24042    14620     5570     1975     3846     9684    16048 
   17537    12587     4008    -2330     -255     8972    16532    16096 
   11495    10041    11542     9860     2400    -3462     -691     5267 
    9435    12376     8868        2    -1611     7150    19245    26968 
   23539    14062    10573    12787    14566    14424    10825     5471 
    4510     6925     7307     9535    15649    14467     5954     4409 
    9336    12842    15741    18010    18450    17093    12344     5046 
     928     5560    15354    19016    12313     2882      476     7738 
   15348    11137     -665    -4498     4118    16368    21762    16321 
    5363    -1672     1077    11188    18354    15265     8131     7196 
   11583    14615    15453    14990    11446     7337     7832    11325 
   13115    13274    14000    14092    11927    11175    14301    16104 
   13049     9589    10419    14496    18543    20286    18651    15156 
   10820     4922     -310    -2660     -704     8349    19170    20952 
   13065     1602    -6025     -918    12318    19284    19652    18195 
   11623     2932     -797    -1595      946    12403    25151    25786 
   15414     4353     1850    10220    19476    19786    13473     6511 
    4932    12625    20351    15577     1975    -5275      -74     8454 
   13559    16193    15423    11838     8927     8905    10010     6400 
     -70      419     8417    15350    17100    13104     2636    -6806 
   -4395     7047    17080    22576    24983    23114    16705    10905 
    6151    -1826    -7423    -4525     5150    17300    19251     6947 
   -2349     1321    13292    25286    26900    19944    17057    17648 
   12206     5391     6481    10224     9903     7723     5656     4758 
    8316    14354    15612    13495    12001     8110     6558    12264 
   16737    17874    19160    14285     3940     1554     9817    17248 
   16920    12141     8949     9886    12120    11379     6427     -664 
   -5022    -2718     4035    10018    12885    13011    14427    21204 
   25945    21184    13668     7129     4623    15248    27152    22740 
    8858    -4396   -10665    -5498     2088     8579    18902    26098 
   25228    18886     7064      -91     8459    23792    33143    31812 
   21443    11481     4012    -5968   -10268    -1910     8082    10104 
    6421     3218     4974     9617    11746    11126    10944     7622 
     259     4534    22046    30487    24402    11680    -1823     -164 
   17994    30257    28833    21107     8306    -5239    -8919    -2062 
    6593    11149     8391     -336    -3364     4388     8634     4001 
    4166    10449    15871    24964    35185    34690    20025    -3136 
  -16309    -5248    15809    28111    23958     2540   -15963   -11047 
    9791    27827    28003    12136     1256     2635     7256    14175 
   22437    25995    23572    12787    -4818   -13671    -4021    14704 
   28659    29393    16005    -1695    -9629    -1441    15840    27608 
   27159    19417     9196     1687     5636    19716    32155    33921 
   20538    -2077   -15869    -8444    12764    26759    22792     9030 
   -4472   -12480    -8969     9834    34157    43345    28138      182 
  -19975   -21385    -9922     5678    20588    27918    24524    15785 
    8355     8241    17832    26732    24621    16340     8182     2045 
    2461    10805    19799    22535    21344    18041    13668    17286 
   23942    14214    -5171   -10304    -1781     6312    10755    11512 
    9887    11032    13709    13184     9705     4378     -326    -1804 
   -1123     3946    12567    14949     9409     2862     1100     8410 
   16952    16663    16353    22909    27688    26661    20943    11187 
    5640     9730    15492    15246     9678     4590     6131    12704 
   17555    17265    12316     5124    -1702    -4205     1032    11673 
   23141    28728    21235     6512    -3990    -7555    -1421    13269 
   23751    23172    15989     6538    -1953    -3667     6539    23870 
   35162    31310    13806    -5409   -13639    -8133     3422     9163 
    6891     4625     5519    10049    20424    30819    30430    17142 
    1221    -1387    13081    28277    30867    22152     5147   -11157 
  -12630     1937    21926    32579    24008     5590    -6056    -6478 
    2706    17196    27213    27738    20656     7519    -5848    -7678 
    4364    17286    21307    18378    11169     3574     1127     3084 
    8610    17104    23062    24895    22874    15039     3979    -4367 
   -3480     5898    12363    11384    10006    15202    25938    28842 
   17050     5339     4891    10755    16949    17772    11140     5481 
    6193     9136    12112    15337    16015    13871    10331     3839 
    -864     3127    11369    19377    25795    22468     9281      841 
    5379    15043    17236     9398      289    -2408      974     7264 
   14229    17923    16934    14909    13386    12933    13497    11708 
    6230    -1560    -5548     2663    19269    29544    23164     5287 
   -7442    -5448     6604    21029    34330    36749    18627    -4367 
  -12178    -6885     6934    21421    20996     6592    -8845   -14156 
   -2554    15869    23608    17659     8212     6922    16889    30418 
   36417    30827    19406     9664     6739    11871    18678    17064 
    4311    -9267   -11993    -3053    10719    19615    18936    15611 
   15064    14226    13740    16367    19300    18580    12363     3892 
    -364     2061     8201    11531     9849     6841     3407     1169 
    4463    11062    13984    10736     5371     3177     4621     8164 
   13014    14316     8777     2290      899     5090    12213    17416 
   20432    24140    23361    12031    -2377    -5584     4731    14894 
   14851    11570    13038    16104    15456     9166     2025     3073 
    9617    11848     9057     3133    -2401     1298    13694    25601 
   30970    23251     5949    -1568     7827    22700    30705    21913 
     278   -12361    -4707    10860    19233    17278     8272     -599 
    -882     5244    11967    20715    25980    18597     6254     1796 
    5096     9879    13289    16092    17725    14661     7302      989 
   -1698      -27     6912    15043    17474     9620    -4722   -11902 
   -7693    -1629     4531    13467    18628    16069     8739    -1636 
  -11053   -13521    -5826    11229    27383    27950    13269      124 
    -681     6633    14978    20433    20700    16733    11530     7520 
    8614    16101    21631    15843     2226    -5873    -1298     8536 
   11350     6956     6052    10397    13169    13390    10351     1140 
  -10612   -14796     -675    25423    36776    22191      495    -8062 
     822    17308    27306    29581    31433    30994    23498    13595 
    8471     7603     5942     3677     5148     8793     7774     1057 
   -3288     3183    15938    18350     6002    -6403    -8326     -730 
   10808    19127    23770    25886    20061     8059      257      619 
    6516    12931    16078    20237    29016    34338    26447     7047 
   -8372    -3965    13905    23630    17153     1414   -13915   -18621 
  -10107     3443    12775    13532    10395    12046    18126    22173 
   22998    23911    23006    13225    -5209   -20838   -20391    -3002 
   15097    18025     8404      999     4069    14914    27048    34603 
   37023    35873    28779    19143    15245    18092    26697    35753 
   31082     9987   -12410   -20362    -9828     7353    15021     9691 
    1198      903     9140    15454    13212     9576    13686    20560 
   19495     9085    -2413    -4653     3446    11461     9921       11 
   -9757   -13258    -9342      611    11062    14296     6482    -9413 
  -21917   -20281    -9004       10     1871    -2513    -6647    -3519 
    2185     3231     3659     8976    16497    20943    19203    12533 
    5918     -788    -9749   -13288    -3696    16524    37986    43078 
   21281    -6714    -7609    21822    51756    56105    34512     3377 
  -17716   -16834     2020    23404    32908    24834     7708    -1096 
    2102     8473    16883    25272    24090    11838    -1439    -2106 
   13971    32917    37114    23920     5873    -3397     -492     7623 
   13049    16733    21454    24327    24000    20171    13676    10828 
   11780     8078     -928    -7956   -11553   -13918   -11159     -738 
   10123    11524      395   -13552   -15865    -5683     2346    -3011 
  -11674    -5366    13666    23768     9413   -19639   -37925   -32625 
  -11917     5687     7388    -1127    -8721   -11097    -3894    10270 
   19526    20191    16312    10038     4994     6729    16017    25420 
   25547    15876     4669    -1059    -2461    -3306     1919    18306 
   33230    32845    19973     3203    -9306   -11311    -4135     8482 
   23267    34645    37674    31051    18060     4401    -2945     3846 
   20772    29219    19236      195   -11754    -4972    18786    43650 
   53485    43645    21546      600    -8529    -6243    -3014    -6434 
  -13228   -15211   -10183    -3125     3828     9664     7754    -2691 
  -10300    -5880     6241    14697    13347     2988    -9844   -14179 
   -6180     7053    18227    24802    26034    21118    12576     5864 
    3379     6110    12787    16047    10913     2016      596    15260 
   39359    52317    39908     9675   -15267   -16752     1560    18220 
   17342     3658    -4467     7808    35070    53395    47690    25868 
    4641      -93    16946    39563    47418    34998     9810   -13869 
  -24700   -17713     5572    31379    42071    32892    13344    -1494 
     745    20047    42075    52204    46845    32985    22720    22526 
   26788    23341     6054   -18046   -38395   -51135   -55541   -50117 
  -33458    -7920    14971    21028     7300   -13956   -22844   -10752 
   10246    25204    31911    38300    50089    57662    46315    17257 
  -13824   -27189    -9877    29928    65551    72931    48541    10790 
  -12010    -1333    31815    56343    52077    21201   -15256   -31033 
  -21161    -4807     3658     7344    11965    19433    29052    35114 
   33888    29871    30127    36354    43758    47301    43258    30865 
   19228    17551    22110    25594    27122    30636    38075    43278 
   38508    22908     3113   -10331   -15148   -19059   -22145   -16637 
   -3742     8447    15653    18220    16452     5605   -14428   -29088 
  -25837    -9664     4712     5983    -2673    -4525     8424    24348 
   30385    25559    16413    13189    20988    32271    36065    28171 
   10052   -10882   -20665   -11605     8433    24009    21676     1772 
  -17282   -20968   -14265    -7442    -1237     8388    17369    16459 
    6841    -1420    -2174     4661    15128    24159    30568    34925 
   37192    40799    48073    49477    30802    -4009   -29462   -26026 
   -1732    17026    10616   -13572   -27429   -16546     4739    18738 
   21312    12361    -5562   -19329   -12541    17501    54097    73421 
   65713    41246    16033     2380     6110    23760    44729    55125 
   48540    31513    14260     8108    18044    32516    34365    16413 
   -8927   -19325    -8401    13419    31488    31788    12375   -13001 
  -25242   -14270     5732     9667    -6658   -25860   -30711   -18472 
    -658     8721     3942    -8002   -14199   -11076    -5200     1422 
   12501    23232    24013    16483     6608    -5077   -12429    -4876 
   14716    32239    37331    27064     9059    -1111      710     5856 
   12841    23253    29616    27807    21597    12519     2257    -4706 
   -6052    -2918      360     1618     6424    16267    19379     6556 
  -14496   -24891   -12492    11754    25725    22825    13312    11349 
   23426    38029    38546    26936    17374    14899    13936    10426 
    9126    17678    33697    46060    47773    39750    28767    21085 
   13157     -437   -15909   -26134   -25407   -13937    -2037     3377 
    6864    11260    12019     5842    -5884   -17417   -19645   -10269 
    2600    11838    14743     9819     -973   -11982   -16320   -10554 
     665    10223    16991    24646    33882    39567    37077    26561 
   13437     6762     9211    13066    11373     7327     9767    18790 
   24074    21359    16355    14168    15637    18928    23673    31437 
   39109    40427    33961    24528    18743    20134    28539    40308 
   45360    33048     6880   -16544   -23650   -12194     6918    13987 
     149   -20958   -29893   -21381    -6115     2064     1456     -186 
    2323    11306    23209    27507    20869    11136     8148    13905 
   16507     6507    -6025    -5135    11356    29627    35006    28544 
   19986    12432     5092     1300     6774    20389    30558    28981 
   21293    17050    18495    21826    23715    24113    22416    15282 
    2702    -6843    -3223    12089    25417    25822    15997     7074 
    6060    11914    18808    19581    13878     9190     9408    11651 
   12181     9409     5251     3661     5076     5718     4159     2542 
    2677     5613     9336     7842    -1566   -13608   -20853   -21308 
  -16587    -7179     5358    16737    22019    19396    14779    15526 
   19044    16221     2515   -16282   -26736   -21970    -8671     4899 
   16653    27720    37791    40082    29392    13382     3736     4892 
   13689    22532    26198    24669    19996    13960     9207    11225 
   19388    22176    12519    -4036   -16409   -15296     -757    16428 
   24048    19201     9088      847    -3848    -3824     4017    18909 
   32266    35041    26206    12769     5984    11300    20247    22002 
   17231    12375     8858     4233       89     2489    14519    29749 
   34528    24571    13423    13736    20224    17647      415   -18339 
  -20919    -5333    14216    21508    12949     1547      225     6290 
    9541     5937      -32     -977     5310    12607    12091     2805 
   -6782    -9387    -6177    -3383    -3175     -481     7858    17389 
   21816    19217    13668    11280    13347    16055    16160    13369 
    9653     8281     9666     9768     6856     4688     7188    14601 
   21871    21471    13286     6104     6106    11095    17604    25151 
   30731    29893    24543    18827    13306     8927     6551     6200 
   10777    19583    24273    21325    18874    25579    38268    45223 
   40393    29069    21458    22663    27298    28726    29868    35222 
   39640    35104    23562    14199    11954    15447    20621    23984 
   24841    22418    15107     6027     1593     2848     4877     3721 
     650      712     5497     9844     9880     8360     8927    10951 
   11770    10781     9833     9844     9170     8961    14612    25447 
   32629    31419    25299    19039    14918    12938    11978    11580 
   12067    14208    18642    23851    26437    24644    20321    16239 
   13617    13423    15688    18939    22164    22515    15747     4276 
   -3483    -3530     1065     5296     5071     -217    -5849    -6955 
   -3738     1090     5169     6259     4116     2270     5489    14013 
   21485    21436    13088     1308    -5246    -1039    10763    23932 
   34114    37781    34022    25961    19477    19710    23873    24032 
   18422    11156     6473     6824    10426    13909    16696    18272 
   17975    18198    20826    24020    25871    26931    28239    28858 
   26590    20903    14563    12352    15302    17575    13714     5602 
    -198     1648    11561    23417    28572    24759    16915     9930 
    6689     8159    11560    13602    13408    11125     8104     6507 
