Origin Time       2016/04/16 01:25:00
Lat.              32.753
Long.             130.762
Depth. (km)       12
Mag.              7.3
Station Code      MYZ007
Station Lat.      32.2353
Station Long.     131.1158
Station Height(m) 305
Record Time       2016/04/16 01:25:17
Sampling Freq(Hz) 100Hz
Duration Time(s)  112
Dir.              E-W
Scale Factor      7845(gal)/8223790
Max. Acc. (gal)   72.727
Last Correction   2016/04/16 01:25:17
Memo.             
[...]
   -2967    -2965    -2964    -2964    -2961    -2965    -2972    -2971 
   -2965    -2960    -2955    -2963    -2976    -2970    -2959    -2959 
   -2961    -2963    -2972    -2974    -2967    -2963    -2957    -2959 
   -2967    -2970    -2967    -2970    -2965    -2957    -2959    -2967 
   -2971    -2967    -2967    -2967    -2967    -2964    -2960    -2963 
   -2974    -2971    -2960    -2961    -2967    -2967    -2963    -2959 
   -2960    -2964    -2963    -2955    -2948    -2938    -2918    -2896 
   -2879    -2862    -2841    -2822    -2806    -2795    -2783    -2783 
   -2811    -2871    -2929    -2917    -2795    -2659    -2682    -2949 
   -3314    -3499    -3333    -2871    -2347    -2088    -2304    -2896 
   -3418    -3420    -2941    -2409    -2278    -2720    -3431    -3935 
   -3931    -3252    -2139    -1296    -1308    -2311    -3917    -5220 
   -5266    -3873    -1813     -353     -616    -2559    -4939    -6388 
   -6278    -5049    -3133     -876      445      -68    -2474    -5922 
   -7570    -6129    -3396     -394     1480      437    -2077    -4672 
   -7508    -8753    -6733    -2101     3048     5327     2737    -3464 
   -9497   -11271    -8281    -2401     3712     5282     1104    -4417 
   -8176    -8941    -6408    -3126     -532     2139     2612    -1256 
   -5355    -5476    -3168    -1256    -1522    -4014    -5003    -2871 
   -1000     -355      -74    -1055    -2677    -4541    -6501    -5877 
   -2986     -923      225      993      463    -2011    -5806    -8163 
   -6898    -3604    -1233    -1248    -2519    -2377    -1009     -548 
   -1956    -5552    -8951    -8336    -4382    -1012     -141     -648 
   -1451    -3763    -7129    -8019    -5184    -1058       90    -3232 
   -5800    -3989    -1840    -2030    -2312    -1914    -1900    -3326 
   -5846    -5840    -1780     2361     2154    -2299    -6376    -6635 
   -4230    -2446    -2169    -1399     -625    -2386    -5845    -6393 
   -1451     3697     2986    -1642    -5894    -8604    -9652    -7060 
     344     7538     7740      681    -7510   -11353   -10771    -7045 
     167     8093     9778     2319    -8729   -14558   -10665    -2832 
     669      676     -660    -4577    -8388    -7167     -353     6366 
    6818     1024    -6088    -9733    -9132    -6151    -2007     1475 
     976    -2559    -4368    -5949    -8615    -6791    -1948     -427 
   -1111    -1224    -1123    -2263    -5498    -7647    -5313    -3429 
   -6011    -4787     2721     6099     3338    -2466   -11173   -13751 
   -6160      394     4167     8374     4869    -4495    -8324    -7487 
   -5454    -1034     3434     3778    -1489    -9662   -14897   -13055 
   -5278     3807     9606     9117     2354    -7177   -14638   -16424 
  -10959     -495     9370    13323     7507    -3936   -10700   -11848 
  -11044    -6858     -338     4414     4843     1094    -4538    -9355 
   -9599    -6102    -3734    -2628    -1705    -1209    -1051    -1408 
    -857      908     2253     -405    -8811   -13431    -9379    -4666 
    -649     2305      689    -1236    -2311    -4136    -3237    -1742 
   -1728      603     -391    -7921    -8351      419     5283     4757 
    1952    -3762    -9401   -13791   -15599    -8634     6945    20908 
   22327     8932    -8804   -18297   -19708   -17636   -10010     2896 
   15842    20412    10412    -6578   -19703   -22823   -14409    -4530 
     811     6577    11826    11128      888   -14071   -17139    -5621 
    2169     -591    -4722    -5718    -2990     -209    -4492    -6941 
     -47      336    -7921   -11461   -12109    -7368     3920     6247 
     961    -2347    -8492   -13046    -9660    -5204       78     6388 
    5159     -789    -4132    -8344   -12125    -9896    -4869      415 
    4660     2840    -1825    -3249    -3721    -1535     3987     2403 
   -6274   -11369   -10516    -3501     6881    11252     7528     1294 
   -2539    -3936    -7823   -10307    -3925     2218     -403    -5528 
   -7165     -175    10219     3667   -13810   -15001    -7052   -10589 
  -15889    -9251     4519    15901    16449     4384    -9058   -16426 
  -21946   -21361    -8685     6384    16444    21092    15669    -1281 
  -20821   -28236   -21779   -12625     -677    14816    20872    11389 
   -5246   -17824   -20873   -20823   -23149   -16212     4730    20876 
   18508     4923    -6278   -12403   -15539   -12509    -9040    -7094 
    2239     7663     -210    -6602    -6598    -4101     2180     7956 
   10061     8868     1537    -8480   -13729   -15534   -15479    -9606 
     810    11226    16573     9566    -6481   -18196   -17676    -5541 
    8104    12302     9248     2263    -7979   -13886   -15132   -11663 
    2573    12197     5852    -1788    -5960    -7798    -5174    -1289 
    3802     4349     -422      800     2598    -3133   -12475   -24185 
  -26545   -10026     9236    19240    19935     9491    -4577   -13340 
  -17805   -15082     -261    13147    10697     3709     1337    -3473 
  -12491   -24602   -31340   -17609     6983    20406    22673    18906 
    4881   -15954   -35476   -44432   -27321    10430    38893    41531 
   21084   -11632   -37767   -40107   -19602     7489    29716    39314 
   26356    -3265   -26557   -31338   -23615    -8727     8563    17224 
   12162    -1927   -19352   -32024   -25600    -1030    15192    10625 
    -594    -6972    -5665    -2551    -5589    -7649     -499     7064 
    3484    -8394   -19747   -24062   -14361     2882    12772    16764 
   14706     -579   -15396   -17599   -13848    -3855     8222     7789 
   -3608   -14681   -18998   -14841    -7078     -352     4988     8144 
    6423    -2083    -8959    -4006     2500     -152    -3280    -4232 
   -4816     1457     5082    -4992   -12005    -7979    -8421   -11946 
   -6377     3456    11772    15280     6961    -4045    -4282    -1803 
   -5783    -9239   -10164   -11886    -4943     8094     8487     -446 
   -6122    -7122    -3568    -3693   -11129   -12898    -4486     4009 
    1494   -11099   -16883    -7666     4124     6122    -1996   -10936 
   -9779     -660     4359     3873     1657    -5281   -11574   -10528 
   -8044    -3412     3674     4205     2068     1069    -7231   -16664 
  -11847     -133     4947     7553     4452    -8579   -16530   -18868 
  -24138   -18157     6625    28588    28845    11454   -13026   -30676 
  -26925    -8110     9521    22148    24938    10728    -9163   -19315 
  -16592    -2016    10590     8016     1642      167    -3481   -10339 
  -15480   -13656    -1796     9968     9620     1142    -5413    -4729 
    -372     1534     5003     7786    -2702   -17668   -15807    -3400 
    2084     2559     1107    -3877    -7317    -8209    -7935    -1445 
    9267    11813     1354   -13374   -21964   -21072   -12915    -3134 
    4827    13018    17791    11942    -2559   -19577   -31113   -29910 
  -16791     3850    21622    22810     8208    -8361   -17875   -21401 
  -20456   -14710    -6806     2344    12453    14708     4606    -4745 
   -6858    -9497   -10237    -6255    -3028     4737    14335     5727 
  -14856   -21082   -12233    -3738     -206     4770    15646    24247 
   16159   -11491   -38187   -39155   -17581     6031    19815    19325 
    7781    -5907   -16915   -17513    -5390     2317    -1150    -2259 
    1910     5351     2543   -10073   -19381   -16106   -10685    -5310 
     178     2584    11931    21088    12270    -4153   -21683   -36634 
  -26950      545    19090    26129    19591    -1907   -20031   -26970 
  -24759    -6073    18354    26347    16216    -5931   -25687   -23102 
   -7942      691     6798     9720     2964    -2805    -3365    -8532 
  -14354   -13116    -9445    -3824     4051     9443    14042    13602 
    1004   -16173   -26430   -19997    -1761     8228     9810    14852 
   19570    12874    -7028   -29436   -45034   -44374   -19407    13701 
   35550    43236    29521    -4097   -36143   -49971   -37408    -2338 
   29581    38267    26361     1382   -26253   -41910   -39055   -18365 
   11718    31591    29370    13464    -4162   -18997   -25455   -19238 
   -5539     6867    13073    14335     7290   -15314   -37231   -33430 
   -7720    20949    37546    33087    12717   -13005   -36192   -44409 
  -29265     -480    22913    30334    18871    -5119   -20984   -19792 
  -12274    -5011    -1081    -2305    -5563    -8279    -2779    11020 
   14854     6061    -4795   -17393   -24952   -26188   -21658     3411 
   31321    33578    25169    12360   -13601   -34326   -41150   -35453 
   -1615    40756    49546    28426    -5659   -40192   -50652   -39810 
  -17964    21270    51565    46701    25053    -2659   -37266   -57014 
  -47487   -17292    19462    37974    24871     1908   -11295   -16711 
  -19441   -18756    -9315     2855     4162    -2052    -8564   -14555 
  -13363    -8626    -7399     2068    14846     8046    -8294   -12429 
   -9408    -5752     -544     1236     -680     -912    -3890   -13674 
  -14975    -6812    -8336    -6705     9725    17390    13890    12245 
    2737   -14204   -19912   -18874   -22383   -11075    21321    42877 
   38817    18505    -8955   -26505   -30878   -29490    -8517    28100 
   45408    27598   -11387   -43243   -48631   -31896    -3234    21273 
   27774    25000     9525   -29481   -61558   -58822   -29490    17610 
   58024    55915    21284   -11672   -34716   -47162   -38755   -10048 
   18571    31159    29934    14008   -13143   -33219   -41560   -39240 
  -19562    11075    33658    34346    21262     9740    -4753   -25178 
  -39499   -35224    -5787    35471    56427    36302   -10709   -49661 
  -61319   -46955   -16058    12136    23272    21726    14829     3569 
  -12926   -30257   -36478   -28282   -11087    10272    19646     5071 
  -17018   -29477   -32840   -27841   -14871     1786    14883    13999 
   -1563   -20839   -31217   -22088    -2604     3808     1636    10669 
   21166    12064   -14445   -37087   -30111     6012    33114    28383 
    2509   -24997   -28264   -11214    -6373    -6355     9414    21533 
   20382    17300      604   -23688   -25583   -18316   -17972    -6763 
   11256    22663    27126    15018    -6841   -18234   -23715   -25130 
  -12046     5173    16059    25847    25366     4523   -22405   -42259 
  -48311   -29243     2930    18017    15885    13373     3958   -17163 
  -32459   -30650   -15579      125     7942    14874    15159    -2243 
  -19016   -21336   -13285     9807    38246    47937    36752     9545 
  -30098   -50044   -20655    25029    34722    14134    -1620    -1759 
    5062     4621    -4367    -5359     -568   -10768   -27606   -22721 
     413    12461     2053   -14116   -17664   -12347   -10312    -7400 
     558      195    -9288   -11159    -6621    -5556    -6203    -5366 
     126     5142    -4317   -17373   -10281     4039    -2520   -21577 
  -21153     5519    27182    14269   -17994   -24621     5067    31707 
   24432    -4538   -22977   -15404     4874    22351    33509    28231 
    2752   -20474   -26242   -20231    -7277     5421    10783     7258 
   -7843   -23515   -25807   -25089   -24987   -16310    -9972   -11333 
  -10616   -11334   -12202    -4200     3893    11843    34697    48905 
   18030   -32046   -59968   -68511   -50928     6069    57581    61777 
   40923    14476   -17564   -35422   -34508   -38299   -40517   -20754 
   -2932    -7242   -11755   -12164   -14388    -1435    10770    -5745 
  -16606     4074    18242     7335    -6205   -10521    -4418     6998 
    8124    -1355    -4067     4324    13713    17352     9177   -14737 
  -37381   -33504    -2349    32206    37238     4982   -37102   -68435 
  -66746   -20043    23139    24498     6177    -4437     5359    17722 
   -2336   -39214   -52872   -38684    -1530    42093    51219    25691 
     558   -23260   -44404   -34341     2461    29744    31363    10871 
  -21863   -46261   -38800     2208    43559    51385    25459   -15861 
  -46687   -41238    -9590    11994    14823    12145     2677   -18173 
  -32212   -20740    -2652     -866      425    16256    29495    17861 
  -21799   -60589   -57522   -15519    22793    34711    26264     3613 
  -18734   -18260    -9769   -18517   -23184   -10254     1537     9921 
   14612    13475    21927    33870    19784   -15371   -33865   -21444 
    2150    19242    26877    24027    14567     8496     3127    -6777 
  -15321   -21131   -14963     7553    16060     1755    -9035   -16421 
  -19588     1161    22819    13848    -4938   -11387    -8947    -1008 
    3117      218     6696    27783    43762    35537    10022   -14782 
  -34418   -41752   -21419    23295    58031    52369    20366   -13991 
  -42584   -47675   -25782     3558    28699    29631    -4984   -34847 
  -25863     -313     8529   -13293   -47139   -52353   -28591    -2928 
   13412    11712     7630    20472    19010   -10307   -29099   -23836 
   -8783    14177    33641    29864    11291   -10631   -40682   -54200 
  -21088    23477    28760     5567   -13683   -16713     1321    21934 
   13606   -18983   -40114   -25569     8230    27121    24467     6704 
  -22711   -48290   -59490   -55607   -27014    13603    24718     4838 
   -8658    -5367     4200    13385    10416    -9995   -34674   -46016 
  -41827   -31449    -7754    27421    35640     8117   -16494   -17008 
    2952    25521    19234   -15751   -36649   -24988    -9322    -1737 
   16507    41809    47814    23182   -18512   -53590   -63641   -42180 
  -13728    -5545     9721    50841    73275    53357    11188   -33775 
  -51898   -33145   -13633   -11291   -10211    -2083    11655    19345 
   10719     5171    14832    11859   -13078   -30269   -24264    -3863 
   10774      646   -22732   -25582     5058    38722    39016     7429 
  -33490   -50268   -18841    28977    44975    20625   -25983   -57067 
  -39173     9182    43394    44773    18631   -14129   -28247   -19291 
    5809    35691    43386    24301     7661    -1721   -18553   -34407 
  -35230   -14276    24376    48244    38033    15687    -8548   -33061 
  -38610   -26824   -13061     -440     5607     8058    14770    13400 
   -8329   -34627   -33188     2498    36499    43895    35981    19503 
   -3376   -23012   -38011   -44408   -36694   -23321    -5697    20390 
   34138    19352    -3090   -18118   -29284   -29651   -18492    -6909 
    1282     1505    -5150    -5244      818     4789    10532    11746 
   -7287   -33049   -32852    -4023    22356    19118    -7418   -23241 
  -13227     -464      148     2246     8441     6567    -1078    -8858 
  -13329    -2509    15734    12893    -4325    -6426    -3439   -10012 
   -5279     9439     9202    -2650   -14220   -18802    -9235     2956 
    3688    -4153   -13659   -23145   -38144   -49454   -30296    16505 
   57306    68265    42770    -7539   -53796   -73090   -55651    -4324 
   45751    53411    28134     5115    -6988   -12422    -9339    -5185 
  -12127   -25555   -32630   -27068    -8677    13416    21153     6878 
  -15749   -33208   -39465   -27356    -5779     1271   -13275   -31041 
  -33619   -22079    -4650     8370     3507   -15805   -33632   -43154 
  -39977   -13845    31117    63101    60124    36398    11379   -12121 
  -39347   -61674   -52975    -9416    38245    58737    39021    -6280 
  -39919   -47106   -40921   -17909    19638    41118    37380    17772 
  -17003   -48930   -54569   -40834   -21174     5356    26464    29767 
   34101    41725    27233     -178   -16472   -25215   -28764   -25336 
  -23465   -17057     5011    26239    27156     9598   -15473   -29974 
  -21978    -1672    14354    11379   -12775   -28660   -14206     7500 
   17470    25195    22261    -2781   -25338   -27480   -14311    11181 
   25122    10771      715     5964    -3530   -23549   -25294   -10521 
    1194     4338      990    -8872   -16988   -15531    -7180     6739 
   16406     2369   -31083   -51931   -34377     8024    36772    38628 
   20742   -15542   -54101   -67069   -52488   -24663     8758    29083 
   22989     8700    -7173   -33840   -52775   -43598   -15650     8071 
   11095     1371    -3034    -3180    -9512   -22149   -25826    -5401 
   27263    47541    48082    28686    -5447   -24058    -4953    24859 
   29084     5937   -23161   -30915    -6899    27565    43949    34252 
   11709    -6133    -9451     3433    24815    42249    45091    26188 
   -8549   -38383   -44459   -27193    -4348    13439    28134    34272 
   25564    14813    14258    14033     7257     1634    -3500   -10706 
  -11983    -5019     6361    17901    16774    -2448   -23260   -27359 
   -9019    20868    35854    20189   -14218   -43636   -54544   -47968 
  -21474    20619    44675    33550    10559    -7003   -16549   -23317 
  -34864   -37879   -22700    -1911    18605    37062    36759     5373 
  -37551   -57645   -39232     8001    52035    63670    44595    11608 
  -15723   -21060   -16029   -17940   -19440   -17294   -16806   -14931 
  -10308       21    12150     9977    -4766   -17317   -19915    -8542 
    8654    18311    23290    25096    11259   -13297   -27402   -24182 
   -4079    22378    30229    17061     -579   -18863   -32292   -30032 
  -15414     3105    20056    22262     5567    -7666    -2666     5265 
     473   -12881   -21508   -11404    18334    39144    30649    12325 
   -2121   -15972   -18702    -9520    -4672    -5313    -6494   -12231 
  -21531   -23915   -15361    -6440      679    12291    17247     6705 
  -11844   -32259   -46427   -44284   -22443    10210    30142    26944 
   12133    -8945   -23774   -10698    17027    28749    14480   -20068 
  -49522   -49408   -29882   -10589     5088    18381    28922    31175 
   16075    -8283   -20504   -16478    -8579    -2215     3935     5398 
    2377     4795     7885     1912      467    10948    17587    16964 
   16633    14249    10521     6475    -6960   -23784   -18999     8561 
   29188    26746    10278    -7761   -16090   -14173    -9972     3225 
   21629    19511      433   -10917   -12208    -7548     2251     7650 
    3943     1067     5818     7935     -847   -10189   -13446   -15975 
  -15383    -9732    -2430    11793    28368    27301     5030   -18890 
  -23611    -7245    12393    17518     9902     6285     7472     -610 
  -12946   -16968   -16368   -17362   -17882    -7557    16011    33299 
   30603    10731   -19691   -42958   -41809   -15943    21247    44034 
   38238    20532     5463   -11458   -26495   -27526   -11726    15588 
   35731    27688     -244   -22431   -28937   -24417   -13938      677 
   13032    10996    -6711   -26550   -32935   -17663    11769    31756 
   22038    -9582   -32760   -29525    -9804     2614    -4858   -15290 
  -10574    -2380    -1279    -1444    -1815      159     4411     -298 
  -10561   -11966    -4963     3869     8743     3913    -3709    -4502 
   -3483    -6601    -9322    -7446    -2405     5755    13313     7985 
  -10774   -26350   -24040    -1467    22670    22125    -2262   -26029 
  -29471   -10233    16568    28169    13579   -12781   -28008   -23805 
   -3663    15773    12367    -7600   -17798   -15955   -17069   -20000 
  -14797    -1817    10543    13143     3465    -7622    -6774     2683 
    8073     6919     3965      436    -3665    -5510    -2546     4567 
   11651    12272     1941   -16991   -33501   -35523   -20638     1567 
