Origin Time       2016/04/16 01:25:00
Lat.              32.753
Long.             130.762
Depth. (km)       12
Mag.              7.3
Station Code      MYZ009
Station Lat.      32.0461
Station Long.     130.8110
Station Height(m) 230
Record Time       2016/04/16 01:25:21
Sampling Freq(Hz) 100Hz
Duration Time(s)  167
Dir.              E-W
Scale Factor      7845(gal)/8223790
Max. Acc. (gal)   64.764
Last Correction   2016/04/16 01:25:21
Memo.             
[...]
    7479     7468     7452     7427     7411     7426     7454     7479 
    7496     7496     7458     7408     7418     7504     7600     7634 
    7581     7489     7474     7586     7701     7703     7669     7641 
    7553     7473     7473     7482     7479     7485     7446     7398 
    7446     7501     7456     7452     7547     7515     7246     6983 
    6922     6964     6983     7030     7117     7144     7096     7013 
    6985     7206     7614     7789     7527     7202     7240     7548 
    7781     7740     7423     7079     6999     7138     7294     7319 
    7275     7420     7732     7996     8125     7734     6736     6130 
    6507     7200     7705     7958     7709     7068     6569     6581 
    7253     8235     8667     8174     7304     6947     7481     8321 
    8635     8347     7836     7431     7465     7805     8040     8310 
    8492     8166     7978     8365     8395     7782     7622     8437 
    9269     9027     7735     6245     5768     6642     7406     6987 
    6481     7118     8309     8739     8259     7591     6970     6330 
    5819     5406     5065     5362     6759     8510     9252     8816 
    8248     7903     7307     6561     5987     5377     4796     5100 
    6662     8284     8473     7443     6664     6681     6832     6948 
    7187     6967     6358     6208     6108     5510     5363     6473 
    8505    10296    10161     7938     5965     6123     7700     9173 
    9880     9472     8014     6443     5764     6708     9062    10627 
    9632     7497     6836     8100     9238     8753     7890     7716 
    7140     6135     6135     6937     7618     8113     8205     8266 
    9355    10669    10145     7884     6141     6197     7512     9038 
    9543     8649     7838     7951     7905     7581     7873     7836 
    6485     5474     6049     6509     5710     5358     6731     8634 
    9394     8212     5243     2829     4337     8710    10660     8610 
    5895     4579     4606     6038     7928     8120     6282     4942 
    5678     7191     8236     8641     8431     7973     7127     6330 
    7404     9639    10559    10021     7454     2454     -955      365 
    3946     6748     8257     8841     9448    10516    10428     8071 
    5526     5441     7414     9147     9194     7799     7674    11750 
   17494    18381    13524     9325     9428    11107    12029    11703 
    9300     5952     4241     4266     4365     5164     7820     9331 
    7985     7680     9034     8351     6602     6912     7673     6033 
    3750     3743     4500     5209     9040    14584    15426    10226 
    3102    -1493      -47     6782    12779    12447     7132     2143 
    -405     -810     1478     4928     7896    11443    13416    10102 
    3977      484     1433     4610     6831     5998     2452      -55 
    1410     5377     8070     6797     3434     2143     3944     7964 
   12996    17221    19255    17976    14090    10619     9073     8756 
    8923     8681     7283     5670     6176    10027    14678    16198 
   14349     9661     1656    -3890      112     8106     9355     3480 
   -3065    -4887      180     7983    12468    13717    14401    15272 
   16912    16926    10854     1026    -5144    -3330     4558    10736 
   11140    10027    10258    11747    13859    13555    10268     6924 
    5336     5169     3245    -1664    -5182    -4405     -712     5228 
   13865    21849    21744    11176     -989    -5655    -5400    -4810 
   -1339     4590     6912     6848    12488    21651    22844    14855 
    5574    -1468    -3388     2948    10949    11306     7553     8869 
   13817    12993     3334    -6562    -7488     -361     8540    14162 
   13377     7854     4710     8037    12217    11450     8837     6754 
    2922     -388     1738     9038    15196    13324     4610    -2102 
     211    11373    22698    22266     9913    -1044    -2060     2073 
    3856     4223     7962    12897    13945    11462     9063     9069 
   10469    10227     6569     1590     1278     7712    14405    15031 
   10755     6893     5367     4047     4310     8098     9660     6181 
    5221     9537    12058    10107     7539     3854    -3260    -7804 
   -2562     7832    12750     9774     5112     3511     4441     5814 
    5522     3253     2151     3773     4950     2068    -3861    -6567 
     -62    13463    23595    23409    17270    13836    15890    18767 
   18207    15554    13888    14357    14304    10957     7591     7268 
    7564     7345     9115    13657    18295    20582    20105    16995 
   11493     4059    -4537   -11473   -11105      685    19869    34210 
   34181    23063    12128     9175    12804    14509     9734     3618 
    2149     6201    14243    22736    24606    15673     3053    -2654 
     579     8556    16101    19093    17277    13393     9153     5190 
    3196     3631     3631      603    -3901    -6424    -5840    -2493 
    2389     5255     3685     -360    -2369     1948    10885    14638 
    8984     2602     1044      -47    -3144    -6219    -6072      900 
   11543    15345     9417     2884     2266     4966     5590      978 
   -5560    -7614    -4437     1491     8407    13212    13718    11410 
    8939     7581     7839     9487     9726     5536     -558    -2627 
     -13     3300     6871    12474    17377    17262    13155     8824 
    4379     -919    -3488     -292     4386     4457     1476     -190 
   -1084    -1177     1129     2990     1297    -3275    -8631   -10396 
   -4029     7106    12892     9157     2389      506     4823    10081 
   10349     6303     3304     3989     7430    10710    11439    10284 
    7881     4048     1298     3232     9517    13880     9139    -2081 
   -7708    -2219     6509     9634     7871     6790     9116    13733 
   17115    16459    13016    10017     8719     8349     8309     9216 
   11874    16282    21145    23094    19727    14050    11159    12247 
   15352    18837    21986    24322    24603    19858     9016    -2421 
   -7055    -3996     2073     8116    13878    17417    16602    14222 
   13872    13770    11400     8243     6498     7264    10474    12858 
   10901     5767     1480     1552     6282    10335     8486     3821 
    3302     7761    12517    14700    15564    16903    18520    20025 
   21080    20606    19161    17747    15115    10943     7838     8128 
   10602    11897    11638    12619    15163    16237    14515    11549 
    8496     6099     4476     2573     2609     7647    13833    16129 
   16058    15800    13597     8294     2802     1553     4395     6052 
    3785      297    -1362     -673     1313     2731     2273      783 
    -880    -3152    -2906     4106    12521    13591     9850     8487 
   10006    12529    14529    12399     5668     -209    -2118    -2717 
   -4036    -4629    -2546     2542     9020    12900     9938     1278 
   -6507    -8638    -6150    -3099     -942     2369     6509     8012 
    6232     3572     1422     -216    -1554    -2798    -3573    -2355 
    1028     3368     2501     1020     2924     8513    13621    14965 
   14085    13251    11310     7223     3519     2119     1709     2060 
    4113     5651     4380     3194     5383     9028    11838    14090 
   14929    13023     9301     6232     5131     4714     3397      864 
   -2751    -6285    -7371    -4565     1004     6313     9868    13548 
   18245    21208    20379    17462    15192    13238    10050     8230 
   10372    12295     9973     6612     5510     5478     5822     6124 
    5902     8519    14145    16237    13533    10482     8648     8611 
   10820    13693    16190    17190    13986     6906      681    -1746 
   -1582     -676     -252     -581      689     6473    15695    23340 
   25277    21249    13255     4549     -292     2338    11181    19249 
   20306    15106     9288     7776    10395    12731    11724     8073 
    4769     3391     2211      504     -207      243     1185     2948 
    4993     5135     2519    -1224    -3759    -3061     1394     6785 
    9144     8055     6066     5030     4672     3993     4365     8094 
   13435    16777    17462    16641    16421    18746    21674    21668 
   18211    12607     7371     5659     7207     8461     7406     5320 
    3207      791     -152     1171     1327     -265     1081     6596 
   12125    15018    16349    17447    17323    14796    10976     7519 
    4557     1540    -1070    -1457     1683     6791    10945    12469 
   10308     4969      -76    -1682      461     5146    10191    12838 
   11954     9027     7106     8364    11946    15041    15465    13747 
   12706    13194    13545    14014    16189    18507    17764    14362 
   10895     7357     3377     1567     3068     4511     4509     6583 
   11448    15229    16187    14982    12387    10277     9504     8434 
    5906     2362    -1109    -2115     1441     7366    11627    13146 
   12729    11318     8887     4499     -480    -3555    -3800     -382 
    5329     8803     7720     3369     -634      321     4932     5621 
     870    -2876    -2866    -1780     -811      903     3816     7973 
   12738    16513    17749    15889    12614    11561    13554    14490 
   11453     7836     8980    14278    18303    18281    15379    12476 
   12463    14848    17907    22206    26672    28092    24881    16945 
    6085    -2882    -5339    -1271     4086     5503     3150      696 
    1620     6864    12969    15954    14636     9633     5071     5763 
    9774    12445    14003    15840    16767    15936    13981    12352 
   12212    12291    10971     9412     8718     8002     6971     5742 
    3581      573    -2806    -5935    -6345    -3669    -2398    -6273 
  -14308   -21961   -23998   -18871   -10741    -5559    -5319    -7865 
  -10929   -13717   -16968   -21344   -24831   -24881   -20437   -11346 
    -375     7051     7958     5081     5512    13109    21865    23988 
   20009    13903     7854     4897     7477    14126    21411    26676 
   28865    28547    27176    25695    22959    17043     9752     6043 
    7847    12356    15569    16765    18634    20267    17988    13954 
   10504     3369    -7518   -13911   -10755    -1024     9234    16297 
   20094    20983    20123    21331    25330    27461    25170    19971 
   13463     8187     7354    11583    18727    24987    27811    27697 
   26187    25880    28676    32089    33543    33543    30578    21134 
    5660    -9096   -14628   -10216    -3928    -1622    -3232    -6540 
   -6057     2123    13163    20655    23122    20925    16227    13220 
   13822    15719    15444    13038    12634    16347    20132    19981 
   17838    17154    17929    17660    13290     3321    -9786   -20518 
  -24908   -23052   -17167   -10142    -4685     -436     6573    17327 
   24836    23818    20823    23618    28682    28671    22933    15822 
    9852     3975     -592      475     6114     8244     1543    -9860 
  -17932   -19737   -17067   -11724    -6258    -4136    -5335    -5822 
   -2664     1541     2144      407       43    -1464    -7960   -17486 
  -24979   -25166   -17201    -7140       28     3742     5813    10339 
   18573    26055    28336    25408    19214     9107    -6080   -22377 
  -32832   -36131   -38175   -41893   -42245   -34510   -20152    -4078 
    8469    13298     9834     2303    -3839    -7909   -13452   -19603 
  -21703   -20474   -18179   -11759     1918    21332    37143    38044 
   29907    28958    35075    38271    37980    38114    42325    51737 
   58334    55575    46395    35333    26050    19450    12118     3453 
    -328     7002    22428    34808    35517    24682     7570   -11076 
  -27241   -37071   -38948   -33273   -22682   -11414     -992     8279 
   14288    17491    21312    26320    30689    34307    38643    44392 
   49736    50980    47200    42633    42109    45623    47425    41358 
   26658     8023    -6463   -10393    -5263     1560     4865     5530 
    6115     3812    -7358   -25972   -41594   -46330   -40954   -28583 
  -10291    11149    29211    38529    39187    35221    30690    27271 
   25818    28143    33647    36514    31465    19973     8043     1236 
    -305    -1760    -4511    -4113     1479    10905    23144    34690 
   40348    40293    38134    34352    25980     8553   -15929   -32278 
  -29042   -15047    -3400     3140     3057    -6093   -20313   -31693 
  -34501   -29906   -25878   -27055   -31237   -35413   -37141   -34385 
  -25826   -10388    10111    30798    47880    59351    64717    65546 
   63556    59587    53889    46909    39923    33227    26084    18673 
   11842     6415     3105     1925     1703      112    -4436    -9192 
   -8685    -1215     9944    19732    24082    22397    17929    15070 
   15728    19120    23886    28167    30771    32489    33609    32324 
   25670    12429    -3967   -18106   -27970   -35712   -42049   -45532 
  -47818   -50622   -52930   -54326   -53322   -47106   -35478   -21433 
   -8764     1969    14712    31241    43016    39430    25726    16195 
   12588     6108    -5377   -13938   -12488    -2662     8253    15942 
   21057    23819    23112    18384    10072      506    -6679   -11446 
  -18808   -29413   -38067   -41172   -35305   -19394      214    15495 
   23615    26723    26543    22851    17736    14499    13763    14743 
   17136    21293    27711    35384    42296    46685    46053    39328 
   29561    20417    13401     8293     3580    -1440    -7441   -16606 
  -28691   -40381   -49944   -57086   -60443   -57944   -48852   -36452 
  -25259   -14786    -2821     6660     7056    -1767   -13867   -21960 
  -20511    -9548     5034    17200    25303    29787    30781    28628 
   23599    17155    12542    11391    11623    11084    11180    13409 
   16494    18520    17225    11145     2683    -3186    -3284     1637 
    8770    16438    23606    26870    22968    14354     6801     2466 
     183      259     4342    11529    17909    20598    21451    24480 
   29458    33076    34578    35390    36995    39866    41353    37605 
   28894    19512    13119     9570     5481     -400    -4479    -5238 
   -7002   -12193   -18441   -23433   -24722   -20601   -12429    -1549 
   10539    20493    25046    21682    11481     1220    -3127    -1296 
    5697    17583    30186    37512    39545    39965    39947    38484 
   34302    27737    20275    12961     6974     3607     4911    11863 
   20679    25777    24700    18453    10328     4203     2023     2957 
    3658      588    -5351    -9139    -7442    -2317     2613     7624 
   14345    22081    27945    27733    19476     6393    -6010   -15815 
  -23763   -28597   -29727   -27324   -18469    -2718    12837    19372 
   14592     4128    -4873    -9640   -12174   -14789   -16336   -14173 
   -7179     1856     6787     4662    -1352    -6100    -6627    -3940 
    -657     2922     7023     8673     5707      976    -2238    -3184 
   -1259     3511     8433     9984     7373     2795     -310     1759 
    9798    18584    21899    18627    11599     4806      422    -1821 
   -2033    -1019     -734    -1512    -2182    -1690      387     3708 
    7816    12089    15330    16460    15527    13706    12233    11958 
   13389    16892    22543    29448    35606    38813    38700    37250 
   36495    37747    42504    50341    57688    61720    61785    57244 
   47829    34442    18670     4117    -2956      838    10353    17037 
   18643    18391    18370    18698    17624    12121     2918    -5020 
   -8203    -6459     -589     7572    13957    15693    14706    15082 
   18927    25456    32533    38200    41535    43270    44469    44398 
   40851    32918    22358    12213     5505     3855     5454     6573 
    5759     3738     1539      727     2344     4781     5066     1081 
   -8090   -19448   -27361   -30659   -32190   -32809   -30895   -25888 
  -18819   -10019      348     9972    15383    14543     7782    -2511 
  -12702   -19272   -21448   -21681   -21865   -21510   -20417   -19321 
  -17772   -15384   -13359   -12301   -11720   -11454   -11596   -12297 
  -13839   -16568   -20946   -27160   -33969   -38769   -38913   -32911 
  -21745    -8861     2523    11777    18608    20942    18166    14011 
   13606    18199    25172    31090    32286    26325    15125     4476 
    -627       87     3028     4687     3369     -535    -3905    -3582 
     263     5301     9513    11739    11821    11236    12085    15145 
   20054    25861    30528    31803    29674    26384    23413    20954 
   20123    22129    25891    29285    31264    31899    31793    31572 
   31205    29246    24740    18917    12928     7649     4918     4962 
    5181     3484      907      187     2652     6100     6744     4399 
    2338     2901     5821     9066    10758    10642     9516     8306 
    8033     8684     9154     9571    12279    19487    29153    35799 
   36620    32852    25721    15913     5803    -1019    -2517     -191 
    2192     1826    -1451    -6254   -10709   -12750   -11967   -10405 
   -9977   -10365   -10972   -11826   -11711    -9687    -7287    -7125 
   -9941   -13597   -15560   -14527   -10309    -3734     4148    11885 
   17431    20085    20640    18962    14578     8398     1570    -4789 
   -8797    -9046    -6061    -1711     2767     7506    12930    17764 
   18785    15479    12183    11862    12368    11155     8494     5965 
    5027     5702     6227     5023     2677      784     -753    -2951 
   -6285   -11283   -17502   -23634   -29439   -34369   -36178   -31908 
  -19298     -224    17281    24302    19917    11929     7485     7474 
   10434    15882    22400    26658    26315    22968    20760    21745 
   25008    29451    34339    38600    41459    42134    38928    30946 
   19522     7169    -3358   -10208   -12972   -12015    -8758    -4441 
    1664     9976    18469    25033    29914    34032    36953    38758 
   40668    42422    42537    39588    32123    21404    12599     9904 
   12966    18906    25934    33761    40733    43580    40347    31436 
   18716     4210    -9525   -17959   -17239    -7896     5648    17307 
   22254    20842    18068    17104    16436    14409    11533     8182 
    5044     3481     3511     3856     2556    -2201    -9420   -15239 
  -16639   -13358    -6960     -202     3990     4140      822    -3885 
   -7867   -10030   -10187    -8257    -3797     3130    11192    17999 
   20741    18306    13155     9468     9694    13323    17598    19411 
   17523    13242     8136     1491    -7739   -17979   -26102   -29936 
  -29178   -24746   -18041   -11288    -6673    -3812     -372     4155 
    7874     9081     8002     6777     7210     8854    10525    11662 
   11574    10081     8637     9190    12379    16823    20397    21793 
   20567    17763    15896    15935    16152    14513     9703     1506 
   -7558   -12810   -11940    -7176    -1185     5047     9736    10903 
    9355     7921     9085    13120    17334    19249    19425    20241 
   23446    28480    33548    37516    39850    40136    38524    35920 
   33045    30659    30076    31661    33971    34905    32904    28158 
   22855    19383    19018    21456    24769    26465    24977    21131 
   17311    14685    12820    11429    10438     8922     5623      789 
   -3589    -5859    -5918    -4171     -811     3488     7755    11657 
