Origin Time       2016/04/16 01:25:00
Lat.              32.753
Long.             130.762
Depth. (km)       12
Mag.              7.3
Station Code      MYZ017
Station Lat.      31.4637
Station Long.     131.2277
Station Height(m) 6
Record Time       2016/04/16 01:25:34
Sampling Freq(Hz) 100Hz
Duration Time(s)  122
Dir.              E-W
Scale Factor      7845(gal)/8223790
Max. Acc. (gal)   19.839
Last Correction   2016/04/16 01:25:34
Memo.             
[...]
     -81      240      569      822      934      876      656      321 
     -64     -378     -467     -225      334     1063     1786     2465 
    3164     3978     4854     5516     5751     5647     5436     5312 
    5400     5787     6409     7063     7669     8239     8638     8789 
    8820     8833     8929     9275     9906    10706    11470    12027 
   12360    12445    12231    11777    11117    10164     8905     7418 
    5706     3731     1593     -421    -1992    -2972    -3443    -3592 
   -3499    -3179    -2681    -2043    -1255     -261      953     2232 
    3392     4419     5325     6087     6828     7684     8590     9466 
   10312    11144    11985    12704    13059    13068    12857    12324 
   11402    10250     9066     8087     7400     6802     6170     5522 
    4812     4044     3341     2849     2552     2215     1680      949 
     182     -338     -477     -356     -157       58      373      873 
    1548     2259     2849     3295     3727     4232     4700     5038 
    5265     5313     5178     5027     4907     4777     4747     4974 
    5510     6268     7141     8090     8958     9482     9609     9532 
    9383     9147     8792     8371     7974     7616     7246     6820 
    6322     5745     5104     4530     4175     3990     3866     3824 
    3879     4010     4135     4023     3589     3018     2413     1705 
     892      114     -464     -697     -542     -148      352      953 
    1590     2144     2563     2875     3168     3538     4028     4631 
    5320     6054     6785     7447     7992     8410     8797     9329 
   10057    10929    11958    13036    13922    14465    14570    14255 
   13824    13505    13126    12492    11673    10681     9413     7959 
    6482     5067     3879     3026     2362     1729     1104      525 
     103     -164     -442     -804    -1267    -1833    -2374    -2801 
   -3118    -3271    -3095    -2432    -1266      306     2155     4068 
    5818     7345     8653     9594    10011     9906     9367     8533 
    7636     6868     6307     5958     5795     5787     5946     6278 
    6756     7326     7881     8324     8653     8937     9144     9099 
    8668     7878     6804     5502     4050     2544     1121      -18 
    -730     -980     -696      174     1475     2924     4332     5628 
    6716     7488     7931     8117     8071     7750     7196     6559 
    5931     5368     4934     4646     4575     4823     5391     6195 
    7117     7973     8568     8895     9067     9028     8599     7759 
    6594     5175     3597     2034      638     -518    -1341    -1721 
   -1535     -728      540     1985     3349     4411     5111     5519 
    5680     5688     5640     5512     5406     5539     5898     6261 
    6501     6723     7121     7743     8460     9154     9815    10434 
   10854    10890    10521     9815     8865     7913     7202     6710 
    6268     5771     5219     4680     4223     3915     3811     3870 
    3967     3964     3781     3418     2911     2316     1651      911 
     183     -461    -1026    -1424    -1566    -1459    -1055     -321 
     623     1632     2600     3334     3681     3734     3738     3851 
    4036     4207     4364     4468     4396     4171     3942     3808 
    3812     3987     4442     5273     6421     7751     9131    10404 
   11373    11855    11745    11064     9975     8712     7458     6319 
    5377     4660     4140     3815     3726     3905     4276     4758 
    5328     5902     6419     6859     7203     7484     7777     8073 
    8259     8179     7747     7029     6219     5503     4953     4577 
    4356     4243     4167     4074     3981     3925     3965     4182 
    4534     4911     5263     5571     5819     5926     5803     5474 
    4999     4448     3923     3530     3376     3476     3775     4222 
    4703     5071     5316     5548     5890     6453     7196     7954 
    8652     9216     9526     9602     9490     9175     8683     8021 
    7211     6419     5830     5535     5510     5614     5730     5854 
    5944     5921     5763     5448     4958     4337     3689     3098 
    2509     1767      791     -313    -1339    -2137    -2690    -3118 
   -3613    -4203    -4677    -4823    -4602    -4086    -3352    -2412 
   -1208      238     1745     3179     4535     5810     7036     8240 
    9312    10173    10829    11292    11638    11931    12054    11916 
   11597    11203    10844    10636    10578    10574    10514    10327 
   10033     9734     9436     8988     8301     7470     6635     5925 
    5387     4907     4376     3801     3160     2501     1949     1502 
    1074      649      263       11      -22      143      406      680 
     942     1197     1483     1792     2065     2281     2404     2404 
    2346     2281     2205     2126     2119     2319     2778     3411 
    4155     4976     5850     6777     7699     8497     9061     9266 
    9131     8847     8556     8313     8139     7998     7862     7649 
    7279     6794     6259     5740     5298     4889     4423     3886 
    3341     2890     2621     2552     2610     2668     2627     2421 
    2026     1502     1042      851      986     1359     1836     2319 
    2759     3087     3252     3283     3194     2952     2597     2226 
    1911     1765     1930     2450     3217     4048     4892     5776 
    6606     7321     8002     8712     9441    10106    10600    10986 
   11457    12101    12862    13648    14385    15045    15549    15664 
   15213    14314    13230    12183    11306    10616    10108     9734 
    9347     8878     8367     7811     7236     6654     5948     5115 
    4306     3597     2957     2388     1954     1702     1561     1401 
    1123      664       18     -653    -1206    -1582    -1599    -1116 
    -209      996     2319     3554     4646     5584     6282     6739 
    7001     7132     7312     7665     8218     8993     9958    10996 
   11935    12546    12707    12452    11824    10889     9837     8773 
    7639     6439     5243     4104     3095     2355     1962     1794 
    1703     1630     1463     1151      764      365       40     -124 
     -52      311      803     1179     1412     1525     1545     1606 
    1742     1949     2398     3198     4307     5648     6964     7997 
    8703     9028     8922     8492     7850     7087     6295     5456 
    4585     3785     3087     2551     2257     2169     2212     2319 
    2365     2309     2304     2447     2698     3022     3291     3331 
    3217     3115     3119     3393     4036     4951     6006     7094 
    8100     8951     9701    10476    11326    12174    12910    13410 
   13636    13660    13504    13119    12487    11612    10588     9572 
    8769     8401     8510     8888     9293     9509     9304     8496 
    7038     5038     2705      299    -1887    -3611    -4787    -5476 
   -5713    -5471    -4787    -3790    -2669    -1506     -272      955 
    2045     2924     3518     3781     3805     3776     3775     3719 
    3595     3501     3472     3419     3245     2876     2312     1671 
    1039      423     -163     -724    -1325    -1998    -2724    -3461 
   -4101    -4496    -4621    -4546    -4263    -3735    -2961    -1846 
    -375     1279     2967     4631     6254     7816     9255    10467 
   11442    12279    13009    13635    14219    14716    14958    14872 
   14488    13825    12910    11769    10396     8806     7117     5440 
    3780     2124      495    -1048    -2385    -3403    -4036    -4275 
   -4214    -3940    -3492    -2928    -2199    -1201       68     1557 
    3187     4874     6564     8208     9775    11213    12409    13350 
   14054    14500    14739    14871    14978    15152    15480    15974 
   16494    16885    17046    16923    16545    15985    15318    14582 
   13694    12610    11369     9946     8375     6832     5491     4390 
    3439     2508     1561      662     -137     -783    -1192    -1367 
   -1371    -1264    -1102     -849     -422      149      724     1189 
    1521     1759     1890     1902     1929     2133     2543     3142 
    3931     4904     6033     7231     8401     9525    10563    11441 
   12166    12721    12984    12926    12565    11942    11237    10629 
   10153     9795     9574     9501     9489     9344     8865     7955 
    6755     5479     4132     2724     1431      356     -502    -1125 
   -1474    -1517    -1259     -778     -194      407      962     1413 
    1728     1930     2138     2513     3123     3899     4766     5676 
    6502     7064     7281     7234     7059     6798     6378     5788 
    5212     4866     4766     4868     5158     5485     5648     5540 
    5135     4526     3707     2608     1368      125    -1053    -1973 
   -2582    -3109    -3608    -3951    -4178    -4345    -4449    -4568 
   -4712    -4792    -4827    -4904    -5088    -5425    -5910    -6439 
   -6852    -7022    -6862    -6349    -5513    -4305    -2674     -799 
    1036     2594     3665     4178     4240     4035     3844     3906 
    4297     5104     6378     7966     9675    11373    12933    14338 
   15701    17131    18607    19982    21112    21837    21940    21317 
   20092    18503    16733    14874    13147    11739    10542     9436 
    8303     6845     4976     2817      457    -1799    -3535    -4606 
   -4962    -4553    -3572    -2230     -545     1412     3400     5242 
    6883     8255     9322    10212    11029    11801    12591    13443 
   14312    15128    15836    16348    16573    16480    16101    15539 
   14829    14052    13383    12792    12093    11222    10195     9101 
    8078     7157     6315     5435     4375     3223     2120     1047 
      17     -953    -1977    -3122    -4327    -5483    -6489    -7281 
   -7780    -7884    -7623    -7175    -6729    -6268    -5529    -4456 
   -3319    -2161     -855      434     1651     3026     4631     6423 
    8363    10249    11819    12951    13660    13922    13721    13320 
   13011    12727    12405    12183    12036    11846    11591    11288 
   10971    10550     9909     9062     7969     6609     5040     3295 
    1418     -463    -2158    -3538    -4714    -5751    -6484    -6940 
   -7276    -7431    -7383    -7194    -6829    -6349    -5818    -5186 
   -4437    -3543    -2408    -1036      486     2111     3761     5350 
    6831     8114     9147     9899    10335    10512    10517    10424 
   10299    10076     9636     8927     7956     6925     6070     5390 
    4882     4594     4395     4197     4031     3888     3831     3899 
    3936     3915     3935     3888     3719     3559     3357     3080 
    2876     2635     2200     1692     1078      282     -411     -722 
    -683     -450      -95      396     1028     1714     2307     2764 
    3152     3465     3696     3951     4351     4932     5667     6498 
    7399     8367     9362    10326    11226    11978    12476    12744 
   12852    12748    12387    11967    11796    12006    12671    13806 
   15140    16409    17520    18203    18204    17543    16259    14503 
   12519    10358     8128     6151     4527     3134     1991     1084 
     295     -299     -670     -936    -1080    -1028     -838     -540 
    -128      225      311       89     -387     -912    -1206    -1181 
    -835     -105     1007     2296     3566     4830     6057     7074 
    7809     8332     8653     8787     8850     8924     9026     9175 
    9437     9787    10037    10068     9911     9578     8961     7997 
    6839     5663     4642     3940     3555     3473     3708     4136 
    4579     4946     5229     5443     5602     5718     5778     5759 
    5663     5513     5337     5238     5320     5540     5780     6044 
    6367     6682     6922     7105     7322     7657     8071     8517 
    9050     9601    10129    10774    11547    12313    12995    13524 
   13814    13801    13452    12852    12152    11508    11021    10665 
   10400    10212    10018     9756     9410     8854     7969     6815 
    5471     3951     2304      623     -959    -2338    -3442    -4270 
   -4916    -5467    -5968    -6431    -6793    -7007    -7102    -7078 
   -6952    -6744    -6373    -5798    -4994    -3894    -2554    -1156 
     156     1334     2307     2938     3264     3574     4039     4648 
    5368     6092     6702     7146     7419     7550     7461     7061 
    6450     5737     4922     4071     3229     2278     1185      144 
    -653    -1150    -1444    -1706    -1929    -2020    -1960    -1788 
   -1647    -1652    -1728    -1698    -1433     -907      -43     1368 
    3345     5691     8302    11024    13617    15908    17753    19080 
   19932    20308    20193    19735    19084    18227    17084    15718 
   14288    12950    11859    11038    10311     9603     8924     8124 
    7076     5815     4419     3019     1699      378     -935    -2149 
   -3321    -4480    -5486    -6180    -6473    -6330    -5679    -4464 
   -2747     -637     1784     4413     7056     9508    11554    12988 
   13760    14040    13973    13620    13139    12638    12094    11553 
   10999    10399     9751     8954     7990     6964     5931     5003 
    4270     3682     3207     2775     2214     1472      627     -324 
   -1364    -2359    -3215    -3801    -3942    -3645    -2997    -2031 
    -861      413     1786     3288     4993     6893     8911    11049 
   13257    15414    17500    19527    21454    23178    24580    25529 
   25899    25631    24768    23418    21694    19711    17625    15622 
   13813    12121    10451     8791     7087     5265     3321     1248 
    -893    -2901    -4649    -6129    -7257    -8032    -8577    -8927 
   -9092    -9112    -8919    -8403    -7585    -6552    -5398    -4266 
   -3196    -2074     -927      114     1036     1935     2797     3445 
    3782     3870     3705     3227     2488     1539      413     -677 
   -1505    -1973    -2045    -1748    -1152     -378      456     1293 
    1996     2401     2512     2382     2083     1690     1244      818 
     419      110      109      359      665     1179     1998     2970 
    4124     5498     6964     8421     9813    11187    12649    14139 
   15627    17126    18457    19468    20070    20182    19890    19299 
   18457    17429    16147    14593    12968    11373     9774     8235 
    6893     5790     4939     4386     4152     4209     4436     4641 
    4739     4727     4583     4378     4191     3984     3754     3541 
    3276     2889     2412     1791      959      112     -549     -934 
    -862     -284      718     2121     3721     5281     6764     8048 
    9099    10069    10897    11462    11878    12275    12629    12816 
   12791    12638    12351    11853    11198    10444     9553     8517 
    7425     6326     5193     4043     2878     1698      637     -148 
    -685    -1047    -1197    -1132     -935     -650     -321      -13 
     299      746     1348     1989     2655     3345     3973     4568 
    5161     5601     5913     6251     6571     6825     7125     7535 
    7997     8451     8926     9379     9660     9679     9441     8923 
    8078     7014     5877     4672     3489     2583     2104     2047 
    2354     2986     3916     5111     6562     8176     9748    11065 
   11982    12511    12734    12571    11914    10893     9742     8579 
    7473     6566     5945     5560     5354     5381     5643     6022 
    6523     7180     7862     8503     9184     9903    10659    11483 
   12271    12872    13248    13398    13312    13035    12645    12225 
   11863    11616    11418    11233    11207    11412    11812    12476 
   13417    14472    15460    16221    16602    16567    16160    15387 
   14278    12920    11430     9961     8542     7125     5864     4892 
    4027     3138     2278     1381      265    -1111    -2691    -4414 
   -6135    -7678    -8929    -9837   -10409   -10636   -10524   -10072 
   -9292    -8380    -7530    -6667    -5736    -4873    -4122    -3308 
   -2313    -1270     -302      696     1856     3192     4708     6377 
    8135     9913    11589    12992    13959    14358    14210    13643 
   12748    11573    10180     8627     7007     5432     3931     2415 
     772     -816    -2022    -2924    -3782    -4552    -5131    -5518 
   -5514    -4806    -3484    -1964     -356     1399     3071     4372 
    5194     5425     5113     4573     3960     3200     2386     1804 
    1630     1795     2130     2604     3306     4222     5192     6062 
    6754     7190     7281     7048     6600     5921     4970     3892 
    2889     2150     1777     1733     1979     2635     3850     5425 
    7206     9471    11643    13088    14679    16210    16695    17134 
   18023    18299    18023    17975    17918    17478    16978    16603 
   16312    15921    15140    14189    13138    11780    10454     9202 
    7797     6542     5409     4243     3242     2303     1517      816 
    -229    -1297    -2160    -3001    -3572    -3875    -4060    -3964 
   -3632    -3057    -2211    -1359     -499      515     1671     2910 
    3959     4734     5470     6107     6577     7036     7522     8010 
    8510     9016     9491     9891    10208    10434    10619    10809 
   10872    10721    10496    10300     9996     9536     9059     8627 
    8309     8164     8087     7964     7761     7512     7245     6886 
    6399     5724     4818     3846     2866     1826      855       13 
    -731    -1387    -1989    -2590    -3234    -3866    -4396    -4907 
   -5441    -5876    -6027    -5760    -5119    -4194    -3018    -1628 
     -81     1560     3164     4617     5975     7364     8737     9969 
   11119    12208    13116    13865    14559    15196    15764    16299 
   16840    17373    17830    18166    18315    18153    17564    16575 
   15261    13621    11796    10076     8414     6619     4909     3440 
    1933      278    -1431    -3105    -4621    -5989    -7202    -8182 
   -8976    -9547    -9855   -10068   -10270   -10419   -10573   -10706 
  -10714   -10575   -10191    -9413    -8222    -6639    -4730    -2651 
    -558     1412     3127     4513     5643     6625     7416     7974 
    8374     8640     8785     8907     9085     9324     9606     9860 
    9994    10010     9922     9760     9587     9378     9085     8749 
    8322     7746     7102     6450     5734     4882     3871     2748 
    1564      367     -750    -1696    -2459    -3100    -3684    -4194 
   -4563    -4799    -4973    -5027    -4818    -4342    -3653    -2710 
   -1516     -139     1359     2893     4390     5860     7299     8649 
    9803    10709    11337    11572    11425    11045    10428     9555 
    8579     7596     6593     5684     5032     4662     4482     4286 
    3991     3719     3466     3088     2629     2259     2006     1814 
    1760     1925     2263     2759     3445     4275     5148     5977 
    6744     7520     8317     9028     9621    10160    10615    10936 
   11164    11356    11534    11627    11516    11213    10767    10172 
    9489     8835     8253     7719     7252     6922     6711     6616 
    6759     7163     7650     8122     8564     8833     8895     8818 
    8444     7730     6940     6211     5486     4722     3937     3261 
    2754     2349     2098     2060     2193     2520     2999     3554 
