Origin Time       2016/04/16 01:25:00
Lat.              32.753
Long.             130.762
Depth. (km)       12
Mag.              7.3
Station Code      MYZ002
Station Lat.      32.6978
Station Long.     131.6831
Station Height(m) 19
Record Time       2016/04/16 01:25:21
Sampling Freq(Hz) 100Hz
Duration Time(s)  259
Dir.              N-S
Scale Factor      7845(gal)/8223790
Max. Acc. (gal)   186.604
Last Correction   2016/04/16 01:25:21
Memo.             
[...]
   -9067    -8372    -6916    -7622   -10107   -11121    -8351    -2744 
    2114     3411     1270    -2458    -5579    -6841    -7903   -10836 
  -13257   -11998    -9196    -7982    -7132    -4455    -1020     -122 
   -2986    -6201    -5343     -924     1210    -3330   -10573   -12738 
   -9416    -6702    -7765   -10554   -11427    -8600    -4594    -3369 
   -3005     1136     5015     1233    -7010   -11200    -9390    -4789 
   -1412    -2336    -5296    -4606    -1907    -4128    -9879   -11851 
   -9147    -6598    -7074   -10045   -13248   -13588   -10592    -7388 
   -4974    -1463     2134     2924      992    -1332    -2033     -880 
    -144    -2431    -7734   -13167   -15504   -13432    -7726    -1826 
      98    -1420    -2820    -3519    -3979    -4192    -6781   -11732 
  -13911   -13662   -15447   -16639   -13593    -9034    -4723      500 
    5148     7198     7060     3965    -2720    -8642    -9406    -6673 
   -3840    -2562    -4577    -9070   -11133    -8471    -4769    -4595 
   -7944   -10100    -8225    -4993    -2718    -1838    -4858   -11407 
  -15246   -13667   -10233    -7117    -3847     -234     3655     6552 
    5962     1200    -5386   -10963   -14007   -13024    -8210    -3769 
   -2843    -3262    -1833      -25    -2951   -11179   -18157   -19520 
  -17381   -13714    -7670      137     6845    11045    12479     9662 
    1719    -9769   -19873   -21261   -12791    -2913     1350      305 
   -3505    -7236    -9633   -14443   -22158   -24408   -17394    -6372 
    5146    14206    16279    12102     4283    -6847   -16289   -16679 
  -11558   -11584   -15387   -13090    -4976     1660     2003    -4926 
  -11954   -10214    -2884     1795     4750     9548    12476     9524 
    1568    -9192   -18300   -22276   -25805   -31834   -32312   -23133 
  -11157     -947     7056    11866    14484    14321     8374      926 
   -1564    -3042    -7869   -11075   -10166    -9506   -10143   -10064 
  -10329   -10717    -7858    -3109    -1621    -3400    -6475   -11880 
  -16055   -12598    -4858     -376     1648     3492     2748     1655 
    5371    10736    11881     7183    -5953   -26657   -43459   -47691 
  -44300   -37318   -22026      224    20055    31680    32509    23834 
   13209     5844    -1764   -17004   -36894   -45052   -32231    -6934 
   16123    26793    24008    14805     6107    -2066   -12583   -23797 
  -31642   -33068   -25753   -12339     -553     4376     2409    -2606 
   -4943    -3273    -2232    -4045    -4963    -1371     5136     8314 
    3476    -7249   -17053   -20784   -19278   -14642    -5988     5404 
   14632    16909    10104    -3349   -16915   -23244   -21521   -18998 
  -20362   -22999   -22365   -16001    -6351      427     1687      745 
    1560     3568     2891     -201      493     8257    18894    26126 
   26172    18686     7123    -2970   -10381   -20687   -34196   -41291 
  -38398   -32472   -28954   -28775   -28744   -20742    -4168     7419 
    6744     2906      926    -4320   -12205   -15298    -7736    10573 
   28633    29876    11572    -8918   -14314    -5521     4436     5736 
   -1386   -12777   -24237   -27253   -17149    -2431     3435    -5370 
  -19780   -24193   -14245     -178     2193   -11327   -23967   -21655 
  -12961    -9929   -12825   -17242   -13419     5135    23521    25000 
   16252     8526     2435      363     3141     3481     -171    -2101 
   -2673    -7912   -17146   -21095   -16636   -12178   -13833   -18983 
  -23863   -26379   -22407   -11240    -2768    -4459    -9304    -7411 
    1918    12888    20517    20452     9189    -5892   -11204    -7045 
   -4176    -4587    -5306   -10802   -22063   -27893   -23031   -15398 
  -10299    -8509   -10269    -8727     2700    15978    16170      355 
  -18412   -25504   -20542   -14396   -10800    -4310     5706    15321 
   22256    24830    21609    10669    -8187   -27963   -37633   -33345 
  -21771    -9306     3929    16932    24347    20348     1742   -27556 
  -52878   -58301   -42566   -19554    -2967     4617     7885    11731 
   17112    18270    10843      289    -4444     -602     3888      446 
   -7018   -15288   -28761   -38399   -30045   -13787    -7408    -8469 
   -6477      653     7651     8517     3288    -3327    -5590    -1317 
    3790     5320     4635     2130      126     2913     7612     6864 
   -2165   -16856   -31506   -40567   -40864   -31205   -15807    -2531 
    7126    13446    11624     3129    -4779   -12691   -21250   -22989 
  -18049   -16692   -21284   -25456   -24210   -14135     4303    19264 
   17709     6875     5648    17932    30369    30937    22906    15924 
   10978     3465    -9707   -26462   -37847   -37956   -31226   -23274 
  -15545   -10998   -14288   -25621   -37582   -40421   -30402    -9377 
   16236    34962    41457    40285    33242    20356     7106    -3435 
  -11935   -15364   -11823    -8604   -15229   -27635   -31985   -26603 
  -20842   -17275   -12908    -4556     9059    16955     5688   -16282 
  -29469   -29801   -23425   -13879    -6085    -1552     9113    29872 
   46310    43492    22376    -8685   -38923   -53087   -47665   -38893 
  -35960   -27618    -6916    17836    39172    52243    48146    26657 
    1314   -18403   -31135   -34333   -30203   -27742   -27506   -22786 
  -15399   -11192   -11136   -14415   -14472    -3404    10586    13832 
    9698     9647    17037    26383    26981    14231    -2401   -12568 
  -18108   -25938   -35399   -38685   -32117   -22866   -21007   -24723 
  -22686   -11947     1677    16113    31198    43312    49171    46823 
   33119     9481   -14493   -31082   -39772   -42885   -44763   -48305 
  -48945   -41681   -30018   -19460    -9472     4492    22716    36765 
   40927    40162    37527    29670    17594     4499   -11361   -28105 
  -37933   -39657   -35762   -25402   -15109   -15244   -22612   -26963 
  -26229   -23637   -19846   -13471    -3226    11929    28379    37312 
   36391    32992    30179    22477     7761    -9869   -26499   -38173 
  -41922   -41596   -42703   -42387   -35857   -26034   -15698    -1948 
   12892    19970    17695    12544     9806    12683    20468    25103 
   19217     6744    -3009    -9944   -19541   -30294   -38952   -46730 
  -50244   -41152   -21146    -3653     4988    11427    20159    29112 
   34560    30854    17666     4407    -1405    -1293    -1098    -5907 
  -16934   -30639   -41683   -46305   -45416   -43468   -38886   -25004 
   -3889    14199    23745    27184    28714    32533    39640    40684 
   26940     3964   -18126   -34428   -41806   -40169   -36975   -36742 
  -33976   -26526   -17240    -5679     6718    16206    22168    24679 
   24466    23360    18192     6284    -5157   -10219   -11551   -12322 
  -16011   -24178   -29293   -24894   -17551   -16682   -22157   -26672 
  -23052   -10336     4909    13679    13713    11911    10777     5116 
   -2917    -5614    -2875     1247     5164     7202     7338     8175 
    6165    -5043   -21632   -34210   -36364   -25369    -8324     1107 
     657     -727     -476    -3269    -9837   -16173   -17872   -12525 
   -2565     4936     4251    -1995    -4833     -741     3913     3134 
    -753    -3761    -7794   -15439   -24088   -30493   -34195   -33164 
  -24070    -8943     5836    15396    17263    12494     5255    -2964 
  -11970   -16645   -13198    -6714    -2794     -286     4024     9938 
   11403     4122    -4434    -5535    -2343    -2187    -5864    -8131 
   -5022     -480    -1039    -6787   -13304   -16965   -17100   -15145 
  -10419    -1381     7700     9502     3312    -5945   -14395   -18693 
  -16799   -10400      -36    14143    26912    33440    30723    14187 
  -12328   -33930   -41808   -38865   -29698   -20209   -15043    -8109 
    5543    16511    15894     7510    -1948   -10218   -15163   -14725 
  -10667    -5659     -946      265    -5393   -14894   -22160   -25717 
  -25759   -22501   -20052   -19404   -14310    -3863     4654     7010 
    4684     2393     3924     5902     3253    -3397   -11372   -17058 
  -16636   -10712    -1757     7182    10035     4905    -1660    -3740 
   -2389    -2235    -4846    -5849    -1823     3132     4036     1399 
   -3350    -9293   -13413   -13937   -10654    -2195     8418    13396 
   10689     5606     2571      271    -6064   -15822   -20286   -16168 
  -12788   -15504   -16676   -10809    -1956     1903    -6413   -23545 
  -34975   -32849   -23961   -17729   -14304    -7036     6029    19094 
   26137    24692    14593     -472   -11639   -11419    -1784     8209 
   10698     4504    -3501    -6450    -7061   -10893   -16492   -20976 
  -25074   -28042   -27018   -22162   -17311   -16484   -18301   -15054 
   -3773     9221    18482    21979    18014    10087     6475     8160 
    4645   -11087   -31345   -45621   -51807   -49928   -39806   -25677 
  -11460     1709    10565    14790    19484    23843    21600    12514 
    1333    -6990    -6210     4135    11394     4419   -10989   -22499 
  -25316   -21161   -14987   -12707   -16160   -22648   -28333   -28800 
  -20110    -2211    19071    35758    43595    41060    28817    13188 
    1047    -8748   -22806   -43082   -63121   -74981   -76816   -71192 
  -58806   -39812   -17172     5968    25991    38151    40608    37065 
   35677    39889    41794    32690    13868    -7052   -24483   -37658 
  -48982   -60006   -65159   -57410   -41786   -28672   -18901    -7312 
    7342    22266    33143    34339    26577    20664    21824    23318 
   20075    11668    -2714   -20193   -35843   -50984   -64790   -65346 
  -46939   -20885     -292    10185    14628    20858    28425    29506 
   20866     7267    -3312    -7958   -10215   -13591   -21126   -35040 
  -51615   -61735   -56867   -36459   -10624     9231    20979    28186 
   32080    33008    30631    21816     8849      432    -2425    -7042 
  -15650   -25330   -34981   -41851   -41408   -33859   -22237    -8480 
    5097    15433    20266    18584    11229     1903    -6015   -11828 
  -14089   -12006    -9792   -11850   -16316   -19473   -22072   -24875 
  -24645   -19642   -12368    -5555      446     6002    10318    12495 
   11026     2601   -13543   -31902   -45466   -52064   -51390   -40536 
  -21196    -2743     9055    15121    15423    10629     6933     7402 
    6239     2227     3264     9941    10386    -4000   -25536   -38475 
  -37712   -29559   -19701   -12270   -11356   -17018   -27762   -42741 
  -56214   -60637   -56631   -47568   -30819    -6766    15812    30806 
   38322    38904    34362    26913    14881    -1934   -17248   -25307 
  -27459   -27791   -26873   -22380   -12132     1286     9518     7758 
    -818   -10326   -15391   -14265   -11043   -11344   -16139   -22149 
  -26014   -23012    -9672     8606    21629    24128    17489     6516 
   -2984    -8221   -13231   -22934   -35175   -43727   -44304   -36382 
  -24822   -18117   -18149   -16814   -10741    -7358   -12121   -23133 
  -34757   -42071   -45675   -47389   -44903   -35124   -17717     2926 
   19430    29668    38244    47564    55072    58657    57207    48024 
   30207     7735   -14611   -32499   -40032   -36360   -29521   -25591 
  -21130    -9738     8467    26738    39536    44921    42682    35599 
   25724     9589   -14998   -41999   -62245   -71702   -73013   -71073 
  -70352   -73808   -78571   -77085   -65244   -44837   -19845     5389 
   28300    49752    67886    77328    76445    65488    47132    30751 
   23537    22145    18411     9116    -3850   -19140   -34896   -47640 
  -55864   -58506   -50785   -30901    -7804     7649    12695    11225 
    8878     6392     1363    -3123    -2826     1413     6556     7847 
    1120   -12652   -29100   -44394   -56506   -62961   -60729   -49096 
  -28348     -136    27969    45006    46642    39156    31402    26196 
   20183     9197    -5684   -19013   -28539   -35869   -42265   -49744 
  -60521   -73595   -84568   -87860   -80673   -63468   -38152    -9514 
   17925    43436    65739    83262    98024   111620   121482   125108 
  122173   110191    85293    46907    -2471   -56269  -104194  -140536 
 -165686  -179134  -179147  -164170  -133543   -92017   -46048     2833 
   53546   101420   140259   163971   170989   166311   153519   129165 
   87986    32913   -25004   -77452  -116252  -132183  -129806  -119745 
 -103511   -80875   -50873   -14053    18513    39032    52747    67039 
   86211   107827   121563   116702    89985    54141    27243     8573 
   -9580   -22708   -31443   -42696   -52564   -60390   -74205   -92874 
 -108546  -118378  -123216  -122405  -112708   -90019   -53681    -9073 
   37719    79760   105601   111288   106494    99691    89590    70121 
   38014     -889   -35079   -58835   -75007   -86344   -89883   -82047 
  -63633   -37598   -10276    10500    25882    41793    59597    79763 
  100892   118033   127016   124815   111485    90690    64106    30599 
   -9883   -52766   -88161  -110033  -122270  -129492  -132586  -134106 
 -137278  -140540  -135951  -114601   -77546   -36287      515    31376 
   58225    84373   107770   121875   122442   107009    78898    47669 
   16756   -18499   -58965   -97521  -124097  -131477  -122260  -105699 
  -86170   -63455   -36686    -3456    35955    74664   104448   121902 
  129201   132308   132924   123739    98578    59952    15492   -27101 
  -62494   -86421   -97310   -99574   -98672   -96086   -92165   -89000 
  -88808   -90968   -91474   -85112   -67609   -39847    -8733    24482 
   66510   114326   154774   180904   189868   178044   147135   102691 
   50650    -1891   -49894   -90331  -119486  -134646  -133834  -118125 
  -94297   -69525   -47673   -25407     5151    41370    71766    88002 
   86200    70985    52216    32999    12995    -5780   -21632   -30994 
  -28028   -13855     1611     9850     9155     3225    -3743   -11618 
  -18800   -19009    -9157     7260    23724    34638    37373    31577 
   19897     8814     3546     1402    -5036   -16767   -26208   -28961 
  -30310   -35943   -44887   -50315   -41929   -16193    18690    51237 
   73537    84647    86684    79516    65588    50672    38013    25803 
   10648    -6815   -24537   -42469   -59360   -71520   -77503   -81851 
  -87536   -91990   -93637   -91139   -83628   -73564   -62189   -46373 
  -21335    11322    42237    65863    84480   100095   110616   113796 
  110249   101848    89157    71408    48139    18576   -16298   -48585 
  -69125   -76480   -74707   -68851   -63748   -60651   -53542   -35051 
   -7420    17944    32691    40510    48895    56932    59744    54141 
   37301    11132   -16341   -38827   -55178   -66163   -71917   -70610 
  -60165   -41686   -19017     5383    30410    51301    63000    65096 
   58267    45504    32119    18202     1602   -15132   -29317   -42214 
  -54545   -62889   -63761   -57746   -47830   -37524   -28129   -16073 
    2242    23849    42580    55956    63672    65095    60939    51295 
   34405    11313   -12383   -31023   -42988   -50046   -54886   -59683 
  -63707   -62729   -53761   -38161   -18484     3522    25643    45955 
   61751    68200    63942    52201    35307    15421    -4688   -24364 
  -41966   -51476   -49350   -40514   -31492   -23735   -15118    -2455 
   15156    33276    44103    43645    36016    26391    15012     2057 
  -11344   -24611   -34701   -39432   -39853   -36464   -30121   -21909 
  -11772    -1535     6972    15460    25525    36597    47761    57391 
   61771    55657    39195    21161     7245    -4062   -13340   -22419 
  -35178   -50321   -62500   -66746   -61842   -51784   -40014   -26288 
   -9814     8012    23431    33236    37389    37400    34245    30002 
   26190    20979    12847     2250    -9771   -21226   -29906   -34493 
  -33913   -27523   -18080   -11260    -9232    -7704    -2758     2991 
    6516     8811     9841     8600     5113    -1060    -9722   -19979 
  -30952   -39678   -41268   -33640   -20154    -5418     7489    15385 
   16571    13786    12225    15105    21304    25556    22681    13129 
    1788    -7426   -14179   -19738   -23284   -22508   -16769    -8503 
   -1864     1399     3115     5242     7703     8712     6831     3815 
    3099     4630     4804      756    -7636   -16710   -21298   -20721 
  -17821   -14087   -10474    -8610    -8710    -8546    -5485     -383 
    3061     3046     -738    -7345   -12791   -15570   -18936   -24609 
  -31634   -38878   -45326   -50155   -51306   -45931   -33480   -16487 
    -265    10635    17443    23961    30072    32830    29766    19113 
    2875   -12492   -23411   -31889   -39700   -46045   -50853   -53657 
  -50777   -40153   -25365   -10405     4950    19530    27390    24826 
   13265    -1962   -13186   -18069   -22287   -30593   -40412   -46030 
  -43773   -33029   -17702    -3117     9666    21158    29594    32952 
   30350    22419    12282     2893    -6812   -19437   -33744   -45296 
  -52621   -57890   -61368   -61376   -56484   -46407   -34973   -27048 
  -21853   -15703    -8068     -280     6467    10999    13591    14543 
   12638     7002    -2328   -13839   -24707   -33397   -40267   -45758 
  -48292   -44973   -35442   -22584    -9717      872     7634     9847 
    8996     7491     5501     2593      -43    -2747    -7994   -15041 
  -20517   -24406   -28233   -31186   -31882   -29592   -24995   -20930 
  -19924   -20811   -19082   -13733    -9598    -8796    -8487    -7331 
   -6004    -4247    -3415    -7033   -14823   -23280   -30639   -35955 
  -38217   -37859   -35812   -30927   -22241   -12895    -7068    -5154 
   -5089    -5931    -6108    -2641     4421    11880    15826    14255 
    9576     4176    -2905   -12459   -23179   -32942   -39854   -42884 
  -42747   -39857   -32713   -22827   -14490    -7878     -942     5958 
   12166    17447    20061    18507    13510     5908    -3613   -12737 
  -19066   -21909   -21720   -18412   -11610    -3446     2124     3319 
    2010     1282     2448     5327     9137    10914     6427    -5027 
  -20074   -35255   -47834   -54869   -55447   -51104   -42836   -31891 
  -20831   -10701    -1471     6139    11113    13054    13776    14426 
   12726     7754     1871    -3208    -7530   -11053   -13809   -16131 
  -16908   -14864   -11321    -9193    -9705   -11211   -12097   -12514 
  -12713   -12224   -10233    -6016     -307     4232     5688     4746 
    2612     -990    -6492   -12806   -17894   -19368   -15803    -9468 
   -4715    -2479      -60     3819     7672    10530    12233    11125 
    6218     -274    -6137   -11083   -14851   -18142   -23253   -29786 
  -33118   -29515   -20304   -10057    -2408     1672     3951     7457 
   11785    13101    10296     5655     1221    -1487    -2322    -3920 
   -8111   -13089   -17018   -20129   -22180   -21755   -18146   -12066 
   -5410    -1009      803     3483     7827    10642    10917    10314 
   10598    12764    14713    12453     6003     -386    -4349    -6747 
   -8233    -8799    -8441    -6331    -2762    -1521    -4915    -9232 
  -10867   -11245   -11668   -11169   -10015    -8307    -5270    -2574 
   -2420    -3535    -2276     2970     9279    12370    10910     6335 
     493    -5834   -12675   -19246   -24214   -27421   -28949   -28052 
  -25030   -20699   -14160    -5436     2571     7974    11277    12513 
   11911    10864     8969     4833     -252    -4168    -6844    -8768 
