Origin Time       2016/04/16 01:25:00
Lat.              32.753
Long.             130.762
Depth. (km)       12
Mag.              7.3
Station Code      MYZ012
Station Lat.      31.8723
Station Long.     131.0685
Station Height(m) 149
Record Time       2016/04/16 01:25:24
Sampling Freq(Hz) 100Hz
Duration Time(s)  103
Dir.              E-W
Scale Factor      7845(gal)/8223790
Max. Acc. (gal)   77.296
Last Correction   2016/04/16 01:25:24
Memo.             
[...]
    2205     1871      248    -1831    -3073    -3001    -2018     -773 
     288     1023     1471     1806     2193     2543     2415     1547 
     359     -573     -918     -588       64      666     1201     1563 
    1625     1614     1528      831     -815    -2887    -4305    -4482 
   -3685    -2644    -2079    -1944    -1559     -688      367     1205 
    1507     1182      257    -1155    -2660    -3500    -3051    -1714 
    -238     1390     3060     4223     4731     4626     4132     3294 
    1505     -888    -2280    -1798     -124     1229     1566     1586 
    1921     2396     2477     1775      646     -186     -672    -1347 
   -2224    -2669    -2365    -1554     -556      379      908      722 
      78     -291      -70      294     -207    -2231    -4892    -6384 
   -5788    -3634     -774     2400     5074     5850     4351     1718 
    -403    -1123     -846     -311      348     1166     1937     2500 
    2949     3549     4245     4212     2543     -530    -3568    -5101 
   -4968    -3944    -2656    -1506     -518      486     1067      720 
     -35     -212      417     1202     1343      386    -1516    -3485 
   -4630    -4695    -3740    -1791      846     2895     2690      182 
   -2770    -4113    -2944      -43     3176     5840     6879     5800 
    4093     3127     2594     2074     1757     1332      238     -714 
      32     2620     5729     7734     7065     3244    -1935    -5792 
   -7348    -7281    -5994    -3414     -459     1038       89    -2856 
   -6555    -9177    -9373    -7528    -4475     -556     3450     6601 
    8251     8345     7985     7742     6698     4685     2137    -1147 
   -4055    -4733    -3672    -2380     -949      365       56    -2245 
   -4553    -4956    -3558    -1651       87     2027     3711     3775 
    2093     -499    -2733    -3226    -2250     -784      864     1987 
    2141     1614      807      756     2072     4568     7489     8113 
    5015      973    -1495    -2130    -1135       65      325      788 
    1537      832    -1132    -2767    -3163    -2139     -778      -74 
     232      234      109     -164    -1674    -4650    -8552   -13042 
  -15518   -12644    -5405     1794     5464     5286     4047     4812 
    7360     8764     8189     7528     6436     2492    -3680    -7688 
   -5055     2285     5848     2868     -970    -2376    -2427    -2045 
    -503     3766     9606    12286     8387       -5    -7094    -9525 
   -8901    -7882    -7175    -5965    -3402     -633     1244     4266 
    8472     8646     1972    -7507   -14395   -16989   -16098   -11859 
   -4938     1545     5486     6791     4241    -2001    -7321    -7948 
   -4994     -727     3435     5623     5140     3670     3634     7065 
   13100    16345    12429     3738    -3788    -7685    -9543    -9518 
   -5067     3634    10949    12241     9275     5791     4519     6984 
   10125     9549     5915     1548    -3638    -9324   -13890   -16332 
  -16479   -15585   -15245   -14862   -13306   -10702    -6731     -926 
    5034     8355     7260     1880    -3308    -1386     7746    16352 
   19430    18578    15620    10820     6755     5368     4560     3909 
    5350     7338     6677     3111     -230     -259     1468     1165 
   -2455    -8066   -11832   -10300    -5632    -2828    -2682    -2874 
   -3134    -4082    -4556    -3127      207     4218     7788    10003 
    9151     4279    -3276   -10787   -15214   -14812   -11200    -7886 
   -6239    -6057    -7256    -7200    -2288     6679    15518    20907 
   20760    13475     1270    -9864   -16179   -16299   -10152    -1221 
    6367    10338     9844     7959    10234    16521    20374    19174 
   14400     4280   -10154   -20676   -22771   -18881   -10824     -645 
    6038     5616     1323    -1840    -3268    -3549    -2178    -1641 
   -4051    -6164    -5818    -6615   -11488   -16955   -17104   -11468 
   -5239    -3365    -6470    -9779    -8149    -2111     4799    10301 
   13255    13360    12121    12297    13987    14234    11703     7156 
    2133     -665      209     3699     8148    11651    12247     9404 
    4232    -1706    -7268   -11780   -14415   -14104   -11483    -9967 
  -11026   -10103    -3840     3149     6083     5454     1609    -4561 
   -9111   -10125    -7911    -2258     4546     8048     6663     2641 
    -818    -2101    -1941    -1588     -915     -394    -2384    -6564 
   -8332    -5448     -392     5060    10598    14993    17743    18943 
   17329    12642     7443     3273    -1737    -8931   -16552   -22068 
  -22717   -16128    -3811     9842    21659    30163    33289    27679 
   14104      695    -5860    -7318    -7705    -8355    -9999   -10679 
   -6592     1271     8989    13170    11298     4930    -1781    -5727 
   -6246    -6092    -7011    -7596    -8055   -10494   -14347   -15920 
  -13558    -8619    -2640      537    -1495    -6115   -13636   -21516 
  -18426    -3349    11115    18517    22721    26361    24556    14704 
    3360    -3786    -6718    -7314    -7673    -8770    -9730    -7604 
   -1549     4236     7298     8515     7169     3481      664      842 
    3696     8114    12181    12499     6978    -1993   -10326   -16249 
  -19317   -17874   -10435      691    10530    16629    18914    16672 
   10508     1836    -8703   -17791   -21752   -20731   -16671   -11935 
   -7115    -1302     4086     7346     8128     5424    -1043    -8548 
  -12501   -10771    -5765     -517     4880    10230    11894     8284 
    4128     4237     8040    11118    10741     8880     7044     4162 
    1864     3227     7284    10378     9726     5668     1243    -2655 
   -6717    -9632   -11925   -15762   -19623   -21485   -22125   -21238 
  -16459    -8052      141     6407    12216    17003    18457    16246 
   11850     7813     5822     4479     2143    -1927    -8149   -12803 
  -11097    -4841     1564     7364    12206    13860    11723     7905 
    3994     -668    -6081    -9749   -10022    -6967    -1188     5463 
   12159    17640    18030    13198     6304    -1467    -8424   -12698 
  -14743   -15310   -13957    -9774    -3539     2259     6193     8401 
    9707    10214     8591     4758      469    -2764    -4079    -3943 
   -3754    -4299    -6006    -8484   -10015    -8863    -4471     1911 
    7470     9483     6812     1089    -3979    -6670    -8191    -8985 
   -7924    -4421      675     5818     9844    11668    11226    10800 
   11928    13293    12934     9965     5300     1205     -303      831 
    2243     2093      174    -3991    -9942   -15045   -16955   -16488 
  -16262   -16440   -15369   -12546    -7815    -2091     1845     3052 
    3420     4630     6848     8947     9925    10069     9379     7049 
    2905    -2848    -8938   -12754   -13860   -13992   -13359   -10840 
   -5937      637     6952    11267    13417    14245    14103    12456 
    9591     6858     4633     2396       44    -1478     -997      778 
    2174     2386     1556     1266     2066     1321    -2092    -5293 
   -6060    -5319    -4376    -3086    -1196      429      357    -1784 
   -4556    -6767    -8579    -9791    -9617    -6863    -1044     4627 
    6127     3940     1161     -110      386     1077     1156     1954 
    3634     4050     1736    -2022    -4433    -4502    -3785    -3850 
   -5143    -6818    -6799    -3558     2401     8641    11835     9972 
    4594      168     -953    -1039    -2020    -3057    -3191    -1992 
    -148     1011     2366     5194     8067     9421     9683     9170 
    7526     5598     5293     6724     6933     4035     -121    -3754 
   -6498    -8109    -9471   -11476   -13392   -14270   -13558   -11376 
   -9734   -10754   -13300   -13772   -10764    -6523    -2223     3331 
    9435    14130    16592    15561    10845     5393     1732      -87 
    -225     1669     5495    10686    16549    21986    24767    22044 
   13905     4391    -3430    -8577    -9726    -7654    -5526    -3542 
     985     7225    10790     9994     6990     4295     2282     -276 
   -3203    -5286    -6697    -7719    -8243    -9251   -11823   -15421 
  -18431   -20247   -20298   -16783   -10422    -4706    -1540    -1223 
   -3653    -7527   -10282    -9273    -3650     4472    11626    15485 
   15083    10802     4950      218    -1989    -1975    -1340     -603 
    1541     5413     9077    10771    11067    11125    10177     7327 
    4387     3532     4010     4311     4525     4860     4938     4045 
    1802     -417    -1420    -2095    -3229    -4592    -5279    -4238 
   -2400    -2038    -4109    -7631   -10608   -12436   -14366   -16137 
  -15682   -12738    -9081    -5687    -2204     1366     4334     6219 
    7180     8356    10793    13329    13423     9896     3890    -2056 
   -5212    -4402    -1248     1683     3057     2330     -361    -3098 
   -2964      841     5826     9173    10173     9751     9644    10971 
   12713    12706     9884     5003     -493    -5672   -10304   -13905 
  -15147   -14218   -13865   -15315   -16639   -16402   -15103   -13255 
  -10693    -7696    -4945    -2512     -587      220       52     -824 
   -2223    -2903    -2126     -499     1726     4072     5373     5784 
    6093     5599     4031     3271     4174     5235     5071     2982 
    -103    -1308      718     4855     9847    14751    17890    17458 
   13636     8487     3923     1301     1329     3076     4858     6304 
    8122    10249    11365     9992     5701     -697    -7649   -13281 
  -16533   -17355   -15483   -11527    -7903    -6359    -6266    -6091 
   -5692    -6343    -8221    -9626    -9069    -7091    -5782    -6555 
   -9120   -12507   -15348   -15996   -13896    -9801    -4700      695 
    5730     9553    11817    12619    11807     9876     7851     5958 
    4148     3055     3226     3978     4594     5663     7827    10844 
   13612    14835    14562    13802    13246    12873    12417    12244 
   12183    10451     5776     -569    -5930    -8621    -8919    -8543 
   -8907   -10114   -11888   -14040   -15893   -16347   -14912   -12507 
  -10270    -7917    -5254    -3776    -4812    -8289   -13076   -16822 
  -17559   -15396   -11213    -5923    -1201     1610     2679     3144 
    4446     7102     9621    10465    10062     9570     9833    11443 
   14112    17392    21216    24288    24098    19616    13000     7304 
    3138     -218    -2196    -1829      838     4739     7604     7358 
    4460     1166     -946    -2532    -5721   -10740   -15618   -19391 
  -21857   -22485   -21791   -20771   -19684   -18073   -14812    -9695 
   -4225      126     3310     6832    11487    15136    15815    14787 
   13509    12101    11518    12355    13008    11422     7227     1366 
   -4820    -9301   -10774    -9494    -6100    -2369     -225      386 
     -45    -1478    -3059    -3061     -635     2436     3827     3384 
    1568    -1575    -4878    -6234    -5433    -5240    -7553   -11038 
  -13842   -15506   -16217   -15574   -12445    -6766     -581     3937 
    6544     7639     7325     6815     7096     6799     4665     1733 
    -500    -1453    -1065      643     4317     9930    15612    20067 
   22711    22994    22084    20687    16964    10824     5706     3586 
    3132     3296     4064     4348     2986      423    -3172    -8737 
  -14998   -18925   -20352   -20830   -20042   -17537   -14385   -11832 
  -10497   -10580   -12198   -14936   -17481   -18777   -18569   -16817 
  -14131   -11535    -9177    -6891    -5039    -3650    -2184     -564 
    1107     3721     8120    13513    18493    22824    27345    32151 
   35974    37612    36528    32917    28059    22812    17107    11980 
    9180     9015     9936     9852     8309     6068     3206        8 
   -2307    -2874    -2353    -3028    -6801   -12964   -19251   -24606 
  -29459   -34110   -38278   -40779   -40074   -36553   -32166   -28291 
  -24825   -20321   -14145    -7663    -2154     3192    10369    18751 
   24038    23233    17887    11426     5995     2126      -37     -205 
    1872     5875     9596    10123     7460     3553    -1185    -6501 
  -10658   -12596   -12626   -11364    -9741    -8904    -9460   -10899 
  -11973   -11881   -10369    -7338    -3341     1190     6897    14129 
   22237    29960    35881    39850    42809    44988    45327    42291 
   35951    28961    24048    21498    18948    13009     2350   -11356 
  -24780   -34523   -40216   -43897   -45250   -42585   -36602   -29581 
  -23591   -19890   -18604   -18436   -17605   -15480   -11468    -5541 
   -1104     -834    -2263    -2343     -718     1802     4085     6392 
   10451    16336    22330    26147    26001    22902    18922    15464 
   14778    17934    23676    30295    35590    37710    36154    30978 
   23085    14046     5285    -1535    -5390    -6874    -7258    -8068 
  -10033   -12214   -14126   -16680   -21080   -27804   -34913   -38749 
  -38107   -34971   -30918   -26846   -24490   -24985   -28015   -32840 
  -38673   -43168   -42820   -36899   -27576   -16942    -6305     3954 
   13139    19246    21477    22893    27742    36043    45048    53686 
   61302    65452    63027    53487    40009    25686    11836     1564 
   -1798       79     3013     4568     4517     4315     4731     4988 
    3770     -495    -8098   -17730   -27927   -37045   -44502   -51236 
  -56997   -60995   -63593   -64998   -65129   -62607   -55044   -43108 
  -29799   -17024    -5501     5402    17050    29377    41011    51375 
   60831    69286    76201    80622    81013    76561    67786    55807 
   41764    26977    12775     -382   -12357   -21786   -27012   -28231 
  -26761   -23252   -18246   -13090    -9464    -8272    -8480    -8482 
   -8657    -9868   -11206   -11607   -11537   -12136   -14018   -16848 
  -19523   -20591   -18852   -14885   -10790    -7712    -6442    -8904 
  -15535   -23882   -31571   -37360   -40007   -38832   -33933   -26045 
  -16668    -6646     3613    12383    18288    22226    26088    31109 
   36701    40875    42962    44439    46965    51047    55071    55919 
   53127    48735    42595    34129    25195    17537    11553     6687 
    2336    -1420    -5475   -11029   -17204   -23256   -29853   -36126 
  -40365   -42329   -42157   -39650   -34951   -29300   -24753   -23226 
  -25903   -31618   -36710   -38171   -35334   -29336   -21969   -14509 
   -7734    -1189     6501    14825    21946    27645    32377    34749 
   32879    27892    24003    24859    29693    34385    36998    37327 
   33000    23616    13458     5514      594      427     3893     4376 
   -2652   -11758   -15844   -16840   -18119   -19095   -19120   -16839 
  -13005   -11214   -12143   -14075   -15495   -15896   -15963   -15838 
  -15109   -13667   -11574    -9212    -7358    -6732    -7175    -7931 
   -8444    -7983    -6056    -2700     2097     7271    10606    11388 
   11080    10891    10812    11095    11782    12726    14651    16738 
   16974    15403    13452    12569    13004    13324    12881    12460 
   12351    11807     9798     5818      294    -5356    -9662   -12039 
  -11724    -8477    -4340    -1189      818     1537      881     -989 
   -4303    -9116   -14679   -19218   -21269   -21762   -21701   -19603 
  -14369    -7319     -338     5371     9629    13034    15130    14596 
   11988     9647     8650     7820     5526      928    -5732   -12571 
  -17234   -19183   -19047   -16780   -12995   -10121    -9791   -10809 
  -11399   -11884   -13819   -17620   -21882   -24435   -23940   -20378 
  -14936    -9622    -5020     -128     4973     9250    12654    15823 
   18804    21678    24533    26634    27837    28410    27693    25525 
   22891    21015    20537    20175    18079    14165     8814     2317 
   -4419   -10648   -15209   -16008   -12528    -7356    -2902     1011 
    4534     6026     4164     -722    -7924   -16227   -23630   -29563 
  -34299   -36807   -36348   -33096   -27147   -19286    -9909     1621 
   14260    25107    31684    34123    35891    39661    44819    49989 
   53196    52470    47834    39579    28467    17204     8009     1534 
   -2559    -5306    -7327    -8910    -9613    -7651    -3069     1394 
    4271     4630      626    -6848   -15163   -23410   -31414   -38902 
  -44950   -48335   -49389   -48887   -47297   -45123   -41521   -35563 
  -28101   -20760   -14821   -10887    -8993    -8110    -6223    -2039 
    4207    10786    15620    18165    18922    17857    14789    10665 
    6863     3805     1524      493     1899     7257    16569    27831 
   38250    45312    48332    48009    44477    37953    29392    19934 
   10590     1379    -8286   -18347   -27876   -35421   -39973   -41644 
  -41219   -38905   -34241   -27441   -19510   -12121    -6929    -3623 
    -715     2582     6564    11142    15449    17842    17321    14945 
   12170     9437     6916     4402     1561    -1318    -4248    -7860 
  -11780   -14262   -13960   -11151    -7419    -4237    -1394     1927 
    5610     9163    11450    11465     9695     6696     3102        2 
   -2517    -4969    -6955    -6598    -2513     3559     9045    13201 
   15793    17340    19338    22088    24690    26042    25300    22025 
   15801     7430     -499    -5887    -9035   -11724   -14723   -17131 
  -18090   -17882   -17213   -16398   -15155   -13473   -12604   -13387 
  -15103   -17451   -20169   -21486   -20206   -16713   -11928    -7080 
   -2731      946     3094     3381     2350      259    -2552    -5363 
   -7759    -8804    -6739    -1158     6361    13660    19116    22442 
   24509    25863    26118    25332    24451    23974    23763    23487 
   22351    20263    18497    17717    17348    16337    12841     5246 
   -5655   -17143   -26885   -33172   -35176   -34221   -31931   -29324 
  -28439   -29708   -30940   -31251   -30960   -29913   -28269   -27103 
  -27824   -30380   -33331   -35127   -33944   -28818   -20869   -11874 
   -2910     5360    12260    17448    21199    24046    26578    29215 
   31746    33571    34137    33741    33581    33563    32618    31347 
   31086    31992    33531    35567    38809    43002    46064    47110 
   46136    41746    33739    23402    11180    -2060   -15056   -27251 
  -37740   -44837   -47618   -48150   -50217   -55183   -60883   -64228 
  -64336   -62745   -60609   -57788   -53673   -47036   -38060   -29047 
  -20937   -13539    -7156     -907     6535    14412    21238    26863 
   31749    36528    41593    46515    51042    54352    54549    51354 
   46284    40619    35436    31357    28529    27243    26672    25451 
   23608    20872    16729    13005    11982    13413    14840    14183 
   12112    10048     7852     4710      -94    -6197   -12569   -19307 
  -26974   -35532   -43791   -49346   -50660   -48749   -46278   -44714 
  -43167   -40593   -37453   -34828   -33053   -31428   -28683   -24334 
  -19796   -15747   -10774    -4375     2652     9443    14951    18759 
   21413    23280    23571    21458    17942    14708    12590    12016 
   12398    12401    11904    11500    11161    10646    10102     9464 
    8125     6015     3588     1306     -129     -660     -387     1497 
    5306     9790    12868    12800     9170     3321    -2660    -7564 
  -10866   -12622   -13933   -15277   -16294   -17406   -18979   -20918 
  -22774   -23012   -20811   -17640   -15253   -13508   -11362    -8715 
