Origin Time       2016/04/16 01:25:00
Lat.              32.753
Long.             130.762
Depth. (km)       12
Mag.              7.3
Station Code      MYZ008
Station Lat.      32.1060
Station Long.     131.3928
Station Height(m) 65
Record Time       2016/04/16 01:25:22
Sampling Freq(Hz) 100Hz
Duration Time(s)  300
Dir.              N-S
Scale Factor      7845(gal)/8223790
Max. Acc. (gal)   135.943
Last Correction   2016/04/16 01:25:22
Memo.             
[...]
  -10783    -7439    -5798    -6072    -4136     1557     7082     7796 
    3018    -2508    -4881    -6328    -9516   -13201   -14077   -10119 
   -4498    -1582      -36     3322     7213     7654     3871    -1279 
   -6528   -11587   -14638   -14364    -9910    -2647     2671     4324 
    4780     5787     7434     7438     2851    -4132    -8433    -8858 
   -7211    -5661    -5202    -3532     1113     6617    10041     8677 
    1848    -5834    -9454    -9871    -9771    -8482    -5229    -2150 
   -1225    -2332    -3865    -4286    -3609    -2382    -1274    -1170 
   -2020    -4286    -8889   -13572   -14396   -10026    -2173     5826 
   11171    12656     9675     2442    -7241   -16271   -21009   -19202 
  -11458    -1522     4864     4456     -704    -4959    -2999     3867 
    8202     5949       21    -4664    -6650    -9532   -15268   -18211 
  -12707    -1533     8610    14268    15079    12098     7036      822 
   -4406    -6886    -9533   -13872   -17155   -17086   -11062     -265 
    7352     8407     6723     5053     4484     3457    -1440    -8382 
  -13695   -17741   -20787   -20449   -13676    -2015     5803     5242 
    3196     6744    14562    19322    14208      216   -14964   -23795 
  -23850   -19419   -15519   -11940    -6052     2155     8494     8437 
    3743      928     2619     5493     5162      477    -4926    -7993 
  -10509   -11989    -8060      600     8118    10401     8519     6762 
    6130     3731     -897    -5212    -6801    -6750   -10454   -17410 
  -18586   -11072     -924     6711    11826    17412    21047    14195 
   -4491   -24102   -32520   -28111   -17922    -8324    -2061      493 
    -446    -4008    -5409    -1818     1620     2856     6436    11184 
   10488     2479    -6284    -7452    -2797    -1525    -7689   -17478 
  -21369   -12999     -184     4633     -754    -9171   -11264    -3981 
    8023    17433    16378     5366    -4116    -6394    -7877   -14069 
  -18809   -11146     4791    11138     2747    -5501    -1036     9891 
   12052      643   -13859   -19137   -14671    -6747      481     3440 
    3335     6415    11020    10066     1213   -14254   -27056   -23743 
   -7631     3692     3283      257     2768     7041     6064      387 
   -2184     5533    16819    14737    -3397   -20067   -18422    -1803 
    9994     4293   -10477   -17560   -13108    -8229   -11468   -16154 
  -10069     6332    20707    22418    10438    -4429    -9882    -6218 
   -1648    -1728    -5703    -6592    -1626     2751     1628    -4814 
  -11670    -9285     1804     4572   -10755   -29369   -29110    -8124 
   12592    14574     2208    -6831    -5640    -2925    -5547   -10030 
  -10594    -5665     1167     3854     1729     2150     7464     9879 
    6150      314    -4228    -4043     2405    10318    10821     1688 
   -7094    -7655    -3643    -2452   -10537   -28371   -43602   -40649 
  -20290      850    13667    24032    35051    40332    32536    11937 
   -8251   -14319   -11198   -16777   -38815   -62424   -65090   -41072 
   -1560    36421    57280    59012    50835    33944     3842   -32710 
  -62273   -75149   -68551   -49663   -25624     3520    33687    53665 
   56403    44284    23440     -152   -21624   -39339   -52512   -56905 
  -44734   -12032    30253    59754    62209    45058    29034    22469 
   15282      683   -19116   -37681   -41658   -27870   -13370    -7267 
     765    14681    23680    20502     8985     -838    -2319      101 
    -170    -4414   -11973   -20439   -26307   -26892   -21703   -14347 
   -9185    -5032     2891    14704    24424    25843    18895     7860 
   -7192   -26989   -43891   -46669   -32563   -11519     4425    13649 
   22987    37669    52031    50816    25408   -14548   -47065   -55653 
  -44757   -30365   -18045    -2664    18038    38021    51219    57614 
   53674    34889     5838   -26075   -53666   -69985   -70211   -50533 
  -16703    14621    34196    45316    51154    48528    31359      448 
  -31873   -51679   -54101   -44571   -31720   -17807      148    20933 
   36391    37632    24661     6785    -9948   -26806   -43243   -52714 
  -46121   -22122     5152    22291    30685    36043    40666    39546 
   23357    -4495   -28505   -36221   -28567   -21482   -24000   -23809 
  -10048     9487    21577    23634    21980    20518    15037    -1629 
  -25774   -41095   -39328   -28690   -16883    -6115     -483     2178 
    9474    19129    23575    19627     7087    -9728   -23315   -29250 
  -28355   -26244   -26551   -22026    -3916    20447    32663    25891 
   12565     4471    -2092   -13142   -26752   -37191   -36972   -25486 
  -14169    -8318     2023    23383    46525    54785    40639    13454 
  -12228   -28776   -37471   -44683   -50002   -46091   -29187      -81 
   29438    42423    42222    42049    39835    27480     4003   -23398 
  -42950   -47090   -34707   -11658     9404    20366    22844    21859 
   21801    21767    14697    -2155   -19862   -28637   -32157   -37646 
  -41037   -34373   -16518     4430    18384    25146    29754    31117 
   24965    11676    -4375   -18819   -28081   -30338   -26580   -19584 
  -10536     2555    18746    30380    32988    31379    27978    19375 
    6901    -6363   -22164   -38412   -44979   -37411   -24224   -11308 
    2988    13981    17284    16011     8604    -3145    -8139    -6987 
   -8104    -8729    -5044     -205     3429     5270     4797      502 
   -9792   -23187   -29690   -22707   -10497    -5366    -5670    -1516 
   10808    23711    24930    12950    -3310   -17066   -25324   -28904 
  -30476   -25802    -9861     9363    19170    18404    14686    10561 
    1695   -11252   -21832   -26946   -24756   -14446    -1657     9437 
   20957    31129    34588    32185    26835    16865     5260     -387 
   -3707   -11745   -20075   -23020   -19919   -12887    -7799    -6096 
   -2034     5275     9151     5934    -1660   -10166   -15913   -15665 
  -11067    -4877     3217    11776    16702    15736     6924   -10399 
  -27560   -33112   -26322   -14782    -7896    -9612   -12923   -11729 
  -10322   -11931   -11591    -3947     9863    19866    17431     8807 
    3481     1274     -139    -3510   -11877   -20952   -22338   -13899 
   -3207     1989     5570    13865    21701    20860    12098     1991 
   -3958    -5143    -7071   -14671   -23332   -24054   -16340    -8719 
   -7747   -11344   -13643   -10438    -1279     7523     7434    -1989 
  -10399    -9474    -4780    -4938   -10666   -15626   -11823    -3503 
   -1638    -3492      584    10245    17771    19433    17334    13432 
    6399    -7842   -29295   -45369   -41095   -21425    -7244    -5788 
   -3414    10790    30435    41301    37099    24302    11704      253 
  -12105   -22292   -25070   -17668    -3132     6971     5424    -1872 
   -6393    -3056     5896    10551     6721     2254     2262    -2882 
  -19468   -36356   -41990   -33933   -18079    -8068    -5859     3019 
   20922    32547    27210    10039    -4393   -11844   -20466   -28632 
  -24590    -5702    16394    27422    25239    21744    25721    28858 
   20286     1800   -19002   -33795   -37093   -31047   -21772   -15581 
  -13875   -12285    -7362     3323    16923    20995    11468     1863 
    1115     3823     3387    -2489    -8418    -4321     7676    14476 
   12943    12702    15574    10432    -6053   -23708   -34657   -40100 
  -43588   -40892   -23747     2423    23039    31218    25683    12803 
    3761    -4958   -20108   -31079   -27965   -15695    -2856     5852 
   11017    13552     9116     -378    -1541    10112    21440    19602 
    5510    -9678   -16235   -13096    -3476     9360    19769    20912 
   11479    -3354   -18986   -29326   -25153   -11884    -6701   -10727 
  -11144     -479    15034    20358    12421     1769    -2770     1752 
    8122     5790    -5161   -16420   -18539   -10196    -1426     1179 
     -81    -1246     1474     6751     7507     -553   -15300   -28386 
  -32178   -27807   -19036    -7903     1707     9516    18858    27426 
   30275    25305    15815     9640     6393     -588   -11438   -24956 
  -38319   -42846   -36628   -25575   -12837    -1561     5197     9200 
   10393     6627      216    -6843   -13888   -17397   -15364    -8962 
    1038    13370    22669    21323     7331    -9994   -17153   -14067 
  -11734   -12197    -8668     1213    10662    10347     1603    -6162 
  -10192   -11668    -9668    -6917    -5460    -2697       14     1004 
    3549     6628     6112     3144      249    -2046    -2416     -472 
     383    -1410     -487     7860    17880    15734    -3377   -22820 
  -25115   -16163    -9975   -10012   -12197    -6099    10423    19284 
   11043     1105     2192     7318     5227    -2407    -4093     5836 
   19053    24090    19191     8199    -5101   -16183   -22268   -26163 
  -32929   -39695   -36277   -19294     1729    13597    14692    16765 
   25174    29222    19835     1351   -16363   -23402   -15646    -2713 
    3645     4513     5732     7418     6084     -886   -11464   -20196 
  -22127   -14666    -3038     2934     4279    10559    21560    26844 
   20228     6540    -4742   -10476   -13335   -15662   -18931   -20034 
  -14813    -8098    -4422     1215    10889    16313     9840    -4144 
  -12893   -11161    -7094    -8699   -11580    -4020    15419    30218 
   24941     5024   -10714   -12835   -10860   -17397   -30649   -35877 
  -22647     -450    14585    20734    24520    28653    30225    23033 
    4942   -18781   -39361   -49944   -50616   -44928   -33959   -18719 
   -1796    13481    22967    24403    19611    10844    -3812   -24493 
  -42481   -47075   -32822    -4376    22330    35626    34881    22530 
    7146    -1899    -9585   -24980   -41436   -42272   -24645    -6559 
     710     9040    25231    35758    30150    14191      125    -7217 
  -14972   -29270   -40585   -31947    -1852    32247    50670    45002 
   24101     3802   -13085   -32886   -52756   -61325   -52806   -31517 
   -1545    33558    59945    66430    55896    32956     2764   -29187 
  -58899   -75906   -73649   -59848   -42574   -20534     8159    36803 
   54495    53158    33771     8222   -14372   -30950   -35960   -32323 
  -33465   -39210   -33754   -11659    14312    31430    38087    37596 
   31027    15851    -6758   -25047   -27352   -17394   -11204   -16302 
  -21910   -17153    -3300    15196    33988    47164    48840    35634 
   13956    -4434   -17570   -31598   -48174   -59452   -56057   -38221 
  -14860     3788    16033    28795    40294    41181    30510    12158 
   -8945   -23237   -24318   -15411    -5047      407     2242     4956 
    6385    -1750   -21550   -41678   -48570   -40747   -24740    -6909 
    5491     8104     2674    -4828    -3906     9093    21878    22386 
   14141    10921    20358    32009    28849    10658    -9036   -22693 
  -28405   -21898    -3707    12391    13579     4719    -2169     1494 
   14708    19869     7281    -6605    -7318     -649     2111    -6669 
  -25601   -38348   -32961   -18820   -11442   -15477   -20903   -14303 
    2709    17679    24387    25652    25216    21052     8608   -10305 
  -25620   -29145   -25886   -23454   -16002     2878    25481    38981 
   37925    30052    27772    31669    30449    16177    -2988   -11422 
   -7884    -3308    -1668       76     1898      291    -7111   -16353 
  -18449    -9406     5058    15102    13778     1786   -11600   -18288 
  -20841   -25266   -34287   -45742   -44142   -13948    32374    64285 
   64245    38863     7084   -20553   -42645   -54673   -51413   -35604 
  -19657   -11537    -3734    12640    38298    65161    75654    60091 
   27985    -6718   -37710   -63166   -80597   -86996   -83268   -75790 
  -66174   -46354   -10913    37164    86999   119603   122061   100697 
   69693    33601    -7742   -48651   -80851   -94853   -87988   -74937 
  -66290   -48150    -4766    52512    91531    91073    59683    20745 
  -13640   -45605   -74441   -92851   -94155   -72529   -29554    20547 
   62667    92074   109912   108222    72457     7384   -58185   -96179 
 -101656   -92593   -79251   -50018     3487    71902   127124   137191 
  101934    49293    -2539   -50461   -88750  -114214  -129284  -123998 
  -89861   -37821    20110    73201   111111   132702   132089    99827 
   41936   -23591   -75635  -101776  -112376  -117563  -104206   -63670 
  -14627    19242    42168    70715    91284    82556    45750   -13601 
  -78966  -119807  -122696   -97139   -60106   -22216    13109    36286 
   38940    25766     8800     1551     5350     9670    12167    14665 
   12564     6450     5701    11734    15909    12676      855   -14382 
  -19549    -6361    19710    45457    57261    48482    25232     -508 
  -23977   -46445   -64088   -66328   -46150   -10285    24773    47821 
   59019    62927    60579    48093    22275   -18152   -68440  -106821 
 -114628  -102365   -85660   -58498   -12193    40429    76769    91165 
   93087    84280    57712    14042   -32312   -60663   -64327   -55530 
  -42503   -24027     1302    34315    64038    72146    62174    49330 
   29957    -5463   -52869   -96816  -111854   -81072   -19958    39363 
   71258    63672    37104    27673    33552    27760     1968   -36398 
  -70811   -79911   -59115   -25725     -915     8220    14026    31440 
   55958    70557    64925    41751    12700   -19294   -58302   -89856 
  -93417   -70236   -30161    26878    94160   138762   129342    78702 
   22584   -28015   -77319  -120702  -145065  -128609   -65383    11792 
   68673   101837   118885   120974   106886    78279    38755    -8648 
  -54360   -82035   -89889   -95040  -102374   -90501   -45079    11580 
   45149    48130    35078    23969    27702    37389    29165     2512 
  -15180   -10580     1653     7855     7325     9192    20692    27962 
   19400     7103    -4241   -19604   -29835   -29342   -24232   -15226 
   -8895   -17343   -28350   -21936    -5831     3308     4895     5875 
    9948    18608    31541    38524    25205    -4799   -32249   -45165 
  -48296   -55098   -66939   -65268   -37160     3704    35098    54097 
   71556    86148    80885    47094    -1664   -44452   -64098   -49927 
  -15869     4340     -819   -12719   -15408    -9934    -8430   -19523 
  -34511   -36683   -21235    -2038     6077      962   -16320   -39031 
  -53609   -52215   -33909    -6752    16391    29674    27083     6891 
  -11217   -10905   -10984   -36205   -72033   -83934   -63436   -24706 
   16972    46303    58199    63963    68615    64613    47332    16042 
  -22474   -51374   -63300   -67876   -72790   -73921   -67150   -51094 
  -17265    37169    91581   116118    99455    55209     1183   -54695 
 -103346  -129428  -123970   -87743   -27646    36408    78493    92619 
   94734    92508    77313    48554    13919   -19916   -44296   -59394 
  -68176   -62442   -40929   -14316    13378    42685    67925    83687 
   90370    89432    81409    64991    39361     9256   -18357   -35649 
  -36236   -26365   -20007   -22916   -34776   -52301   -64847   -64118 
  -51574   -30045      411    37972    75273    99496    98790    74602 
   39405     2662   -26874   -43920   -55962   -64233   -62090   -60442 
  -66267   -60282   -29274    14743    48485    55553    36470     3148 
  -29764   -54697   -71718   -76207   -62904   -33939     3673    35594 
   52628    61572    61699    42917    10889   -21236   -48691   -70248 
  -82929   -80480   -64152   -46383   -28518    -1021    28042    35343 
   17539    -2450    -9575    -8000    -2878     5435    20715    44516 
   62791    55761    21219   -25512   -67872   -92565   -87679   -53480 
   -8637    25047    40772    44076    34150     7254   -24151   -42950 
  -47252   -41732   -26666    -4125    18891    38119    55422    71691 
   79143    67063    35048    -3634   -29876   -35179   -29415   -24513 
  -24105   -26431   -19670     6813    42319    67508    74537    64981 
   43578    15196   -15086   -40246   -59374   -80334  -104016  -120542 
 -121216   -99971   -56793    -8384    21600    27197    20983    13518 
   10809    17578    24108    14800    -6237   -23814   -34481   -40400 
  -39657   -36433   -32679   -14013    21269    48766    55312    46122 
   21622   -12375   -36217   -40373   -35635   -33490   -30298   -19190 
   -3056    14948    33007    43713    41798    28985    12347     2839 
    2027    -3046   -20212   -42592   -60313   -66212   -57231   -36467 
   -7638    25879    60070    92627   116496   123176   113779    89371 
   48369    -1725   -51733   -96529  -126129  -127862   -98632   -44253 
   28927    97864   128391   123909   108591    81361    41110    -5999 
  -61919  -110128  -125514  -104606   -51641    21091    84551   114483 
  111325    90410    57685    19057    -9024   -22500   -28435   -29970 
  -26147   -13365     4278    14683    12981     4450    -5819   -16710 
  -23822   -21536   -11091     3022    16946    27252    30978    23689 
    7159    -6772   -14658   -23151   -30730   -33882   -34356   -29128 
  -16186    -1637    10277    15951     8866    -3350    -2991     7323 
   11268     5201    -7430   -24025   -38433   -47078   -51987   -53730 
  -50132   -38227   -15647    12808    35669    49361    60551    71645 
   74818    60517    30883     2245   -13520   -22452   -33118   -42201 
  -41750   -28359    -7604     9374    18300    23639    26469    18775 
   -4592   -36459   -66866   -86888   -84140   -56209   -18666    13829 
   38269    54128    59935    54922    37071     6218   -30073   -56150 
  -59370   -43494   -23226   -10404    -6475    -4866    -2667    -1325 
   -2921   -10936   -20335   -20237   -13431   -10376   -11531   -11133 
   -3666    10708    18585     9690    -5147   -10739    -5822     1146 
    1611    -7169   -22175   -36467   -42838   -38901   -24834    -2600 
   20332    35891    40786    32800    13398    -5582   -11014     -546 
   15962    20140     2068   -27013   -52668   -69460   -70580   -52212 
  -19943    22229    69323   105513   115473    97675    60724    14285 
  -30650   -61146   -74542   -77954   -74470   -65252   -50827   -30418 
   -9582     6993    20561    28961    30689    26318    13328    -1826 
   -7651    -8490   -12330   -12853    -3754    10362    21311    23737 
   20767    22944    35765    51232    54074    37520    10620   -11307 
  -20256   -18203    -7291    10601    26339    33854    35367    33404 
   32429    33141    26631     6600   -22370   -48778   -62175   -57148 
  -34168     -105    36819    68539    86493    88177    77156    55705 
   24579   -13960   -53990   -82745   -86809   -63926   -22206    26465 
   68424    95542   111543   116873    97513    47362   -15296   -64709 
  -89958   -93424   -72168   -22567    43069   101255   129408   121147 
   88209    42826    -3670   -42596   -76874  -101428   -95581   -54876 
    2455    57357    92132    97476    83343    55563    10053   -40992 
  -78127   -93540   -85903   -63957   -43507   -27688   -10243     8502 
   25276    37366    38758    28620    14971     4719      230    -2519 
  -12198   -29180   -42978   -44726   -37822   -32455   -28678   -19973 
   -9583    -3586     -356      662    -1443    -2459    -3237    -9585 
  -20128   -32435   -45308   -52798   -53142   -52888   -57920   -67777 
  -74143   -66014   -40814    -7236    23928    45243    49438    34361 
