Origin Time       2016/04/16 01:25:00
Lat.              32.753
Long.             130.762
Depth. (km)       12
Mag.              7.3
Station Code      MYZ015
Station Lat.      31.7185
Station Long.     131.0621
Station Height(m) 159
Record Time       2016/04/16 01:25:27
Sampling Freq(Hz) 100Hz
Duration Time(s)  169
Dir.              N-S
Scale Factor      7845(gal)/8223790
Max. Acc. (gal)   45.151
Last Correction   2016/04/16 01:25:27
Memo.             
[...]
   -6223    -7173    -7933    -5699    -3098    -2975    -4228    -4820 
   -4685    -4008    -2169      916     3612     3680     1740     -186 
   -3088    -8595   -15599   -20862   -20133   -12941    -5043    -1563 
   -1560     -981     1645     4302     4692      980    -6902   -14777 
  -17358   -13181    -5647     -284     -383    -5533   -11780   -14544 
  -14829   -15741   -15820   -13826   -10579    -5597     -939    -1065 
   -4864    -6246    -3346    -1036    -4217   -11358   -16094   -16059 
  -14303   -12075    -9802   -10000   -12370   -13846   -13839   -13370 
  -12827   -11533    -8229    -4212    -2407    -3996    -7414    -9043 
   -9444   -13325   -19791   -23382   -21064   -13473    -5517    -1872 
   -1575    -2072    -3140    -5590    -9922   -14650   -16777   -14998 
  -11350    -9582   -10570   -11519   -10936   -10527   -12893   -18067 
  -21483   -19228   -12347    -3180     5471     9529     7365     2010 
   -2072    -3908    -6112   -10177   -14073   -16124   -17528   -17868 
  -14485    -7763     -518     5143     7003     4419     -298    -4591 
   -6214    -4446    -1471      376       20    -2504    -5235    -5942 
   -6423   -11726   -21632   -29548   -31679   -28208   -20181   -10633 
   -2235     5173    12302    17442    17483    12665     7191     4869 
    6480     9725    11016     9494     7294     5260     2273    -2419 
   -9154   -17131   -22134   -19989   -12839    -7130    -5401    -5193 
   -5293    -5763    -4464       97     5575     8073     5566     -679 
   -6264    -6700    -2200     1706      861    -1715    -1144     2442 
    6336     8129     6577     2681    -1786    -5481    -8680   -12918 
  -17084   -17950   -14586    -9791    -7755    -9892   -13811   -16244 
  -15396   -11329    -6056    -2914    -2612    -2234        2     3663 
    7636     9715     7526      681    -8569   -15844   -16753   -12510 
   -9580    -9610    -9494    -9973   -11673   -12263   -12097   -11873 
  -10903   -10316   -11561   -14366   -16903   -16968   -13373    -7565 
   -3582    -3607    -6436    -9969   -11535    -9834    -7626    -9086 
  -14395   -19506   -22472   -23866   -22507   -18447   -13733   -10173 
  -10130   -13398   -16012   -14513    -9215    -3443     -284    -2281 
   -9865   -17998   -20537   -17081   -12021    -9325   -10401   -13891 
  -15735   -13192    -8650    -5562    -4417    -5518    -8775   -11002 
   -9832    -6913    -4379    -2390    -1007    -1833    -5585    -9888 
  -12179   -11379    -7539    -3666    -3273    -5082    -5429    -3717 
   -1768     -492     -245    -2354    -6309    -8235    -6026    -1826 
    1252     2045     2126     2018     -287    -3954    -6416    -7713 
   -7441    -4881    -2570    -3221    -6347    -9969   -12237   -12313 
  -11439   -11379   -10933    -7036      -54     6874    11546    11659 
    6245     -940    -4330    -3026    -1224     -847     -291      868 
    1273    -1759    -8097   -13358   -15307   -14305   -11271    -8127 
   -5958    -4625    -3626    -2442    -1060     -309    -1591    -4980 
   -8418    -9234    -6124    -1116     2484     4473     6720     9333 
   10596     9512     6102      352    -5906    -9929   -12540   -15460 
  -17599   -18087   -16245   -10785    -3636     1711     3767     1360 
   -4784    -9725    -9690    -7460    -7732   -10399   -12645   -13529 
  -14181   -15741   -17874   -19492   -19627   -18250   -16246   -13263 
   -8802    -3901      337     2455      805    -3727    -7609    -9045 
  -10027   -12237   -15219   -18397   -20313   -18881   -14910   -11350 
   -9400    -8318    -7132    -5827    -5675    -7209    -9009    -9529 
   -9382   -10477   -12550   -14107   -14997   -14921   -14014   -14199 
  -16190   -17475   -14975    -8972    -2967      422     1823     3095 
    4760     5934     4534     -827    -7609   -11533   -10740    -6070 
    -502     2354     1532     -608     -892      974      444    -6288 
  -15597   -20683   -19558   -15056   -10760    -9540   -11946   -14319 
  -12525    -7322    -3716    -5668   -11468   -15391   -13535    -6794 
     178     3550     3230      604    -2397    -3468    -2253     -211 
     899     -425    -4197    -8243    -9730    -7180    -1198     4401 
    4399    -1378    -8136   -12459   -13544   -12013    -9004    -4464 
    1093     5292     7160     7754     6739     2924    -2362    -5850 
   -5424    -2025     1026     2022     2629     4017     4918     4109 
       2    -9022   -20317   -27869   -27205   -19083   -10022    -5745 
   -5790    -6430    -5552    -4024    -3429    -4282    -6205    -7346 
   -5227     -382     3559     3705     -251    -6592   -13292   -19020 
  -22445   -22858   -20914   -17834   -15064   -13129   -10514    -6019 
    -903     2174      361    -6405   -14176   -20109   -23608   -23728 
  -20780   -16299   -10632    -4436     -413     -303    -2704    -4926 
   -5073    -2967     -369      255    -1088    -1656     -741     -363 
    -645      -52      496    -1937    -8182   -15072   -19010   -20082 
  -20227   -20116   -20587   -22855   -24649   -22582   -18470   -16281 
  -16301   -15764   -12217    -6412    -1676      305     1306     2986 
    4852     6698     7601     4734    -2184    -8449   -10073    -9224 
   -8939    -8330    -7246    -8085   -11830   -16437   -19469   -21577 
  -23973   -24457   -21845   -18661   -16865   -15849   -13355    -8648 
   -3569      550     3096     4517     6454     8671     9910    10355 
   11384    12831    11181     5317     -888    -4531    -5260    -4666 
   -6508   -11804   -16806   -19186   -20068   -19407   -17216   -16213 
  -16660   -15195   -10909    -6741    -4734    -3146     -144     3134 
    4920     4359     1803     -928    -2057    -1237       29      344 
     406     1290     2832     3766     3109     2020     2377     3956 
    4378     1799    -2924    -7295    -9042    -7647    -5089    -3634 
   -3711    -4403    -5190    -6426    -7948    -9367   -10758   -11589 
  -10798    -7888    -4434    -3090    -3627    -4074    -4500    -5998 
   -8406   -11157   -14972   -18847   -18898   -14133    -7415    -1949 
    -305    -1826    -2261     -197     1190      553    -1267    -4630 
   -7010    -3984     2126     5135     4294     2336      -32    -2432 
   -3823    -4835    -6092    -6620    -5740    -3489    -1776    -4351 
  -11457   -18981   -24128   -26221   -24602   -20194   -15804   -13695 
  -13568   -12398    -8187    -2581     2118     4215     1368    -5914 
  -12109   -13138   -10793    -8461    -7236    -6851    -7603   -10255 
  -13618   -14679   -13533   -14298   -18573   -22484   -22615   -20055 
  -16632   -12339    -7360    -3462    -2886    -5186    -7049    -6588 
   -4106      842     8058    13810    14679    11635     7317     3570 
     897    -1767    -5999   -13072   -20398   -22466   -19391   -16370 
  -16926   -21336   -26898   -30468   -30195   -25709   -20426   -17752 
  -15934   -11469    -3632     3713     6862     7398     6917     4953 
    2921     2243     1880      436    -1651    -3416    -5404    -7838 
   -9537    -9830    -9061    -9366   -12687   -15990   -15745   -13254 
  -10932    -9684    -8391    -6658    -6021    -4941    -2297    -1246 
   -2381    -2959    -1764     1378     5373     7202     6077     4475 
    3939     4431     5422     4546       18    -6581   -12657   -16362 
  -16880   -14470   -10692    -7624    -4803     -804     2729     3218 
    1158     -319       75      515     1125     3744     6858     7747 
    6085     3148      309    -2111    -4024    -4947    -5603    -6543 
   -7072    -6790    -5497    -4656    -6154    -8892   -11674   -13645 
  -13166   -10994    -8946    -7200    -5584    -4638    -4828    -5432 
   -5800    -6276    -6635    -5775    -3611    -1852    -2126    -4471 
   -6567    -6033    -4588    -3790    -2101    -1294    -4918   -11065 
  -15052   -15403   -13139    -9504    -6315    -5117    -6347    -9270 
  -11045    -9273    -5944    -5086    -6997    -8838    -9568    -9428 
   -7913    -4889    -1799    -1210    -3585    -5923    -5140    -1692 
     722      151    -1472    -2824    -4266    -5718    -7425    -8812 
   -9232    -9702   -10199   -10704   -12467   -15449   -17447   -15889 
  -11211    -5976    -3230    -5626   -10191   -10918    -6632     -714 
    1578    -2351    -9420   -14692   -14817   -10998    -8229    -8773 
  -11543   -14862   -16625   -17119   -19193   -22673   -24416   -23485 
  -20440   -15447   -10234    -6640    -4266    -2817    -2835    -3835 
   -5178    -6693    -8012    -8631    -7061    -2241     3649     7003 
    6021      861    -6667   -12642   -13959   -11553    -7819    -4159 
   -1094     1414     2565     1426    -2004    -7164   -12100   -15222 
  -16357   -14613   -10134    -5451    -2087      533     2686     2955 
     679    -1858    -2901    -3217    -3402    -3354    -3242    -3746 
   -5992    -9545   -12028   -12598   -12505   -12476   -11947    -9605 
   -6141    -4341    -4510    -4835    -4055    -2978    -4121    -7624 
  -11937   -16281   -18782   -17602   -13532    -8414    -3601     -448 
     877     1652     1980     1707     2185     3472     3761     2678 
    1675     1606     1350     -639    -3662    -6056    -7919    -9693 
  -10697   -10766   -10172    -7530    -1549     4926     7312     4568 
   -1954    -9532   -14045   -14885   -14872   -14918   -13571   -10493 
   -8209    -8579   -10251   -11792   -13063   -14104   -14944   -14829 
  -12626    -8078    -2223     2597     4140     1332    -4414    -8303 
   -7611    -5134    -3665    -3314    -3527    -4082    -5572    -7685 
   -9127    -9844    -9892    -8989    -7650    -6210    -4734    -3365 
   -1996     -788      -79     -503    -2458    -4718    -5314    -2978 
    1345     4209     3379      101    -3352    -6058    -7943    -8891 
   -9505   -10482   -11113   -10797   -10187    -9782    -9497    -9328 
   -9382    -9397    -8919    -8156    -7543    -7187    -6912    -5795 
   -3333     -892     -121     -985    -2479    -4318    -6127    -6569 
   -5836    -5914    -7557   -10150   -12978   -15056   -15530   -14638 
  -13878   -14569   -16258   -17225   -15842   -11514    -5726    -1780 
   -2034    -5217    -7781    -8344    -8581    -9926   -11587   -12214 
  -12077   -11726   -10894   -10088    -9427    -7399    -4055    -1480 
    -542     -804    -1680    -1887     -356     1914     2523      747 
   -1485    -2706    -3462    -4252    -4814    -5120    -5377    -6142 
   -8214   -11002   -12434   -12036   -11782   -12833   -14763   -16903 
  -18099   -17977   -18215   -19965   -21253   -19398   -14737    -9810 
   -6724    -5833    -6264    -7361    -8922   -11318   -15137   -19321 
  -21423   -20567   -17814   -14316   -11176    -8927    -7236    -6146 
   -5940    -6790    -8772   -11391   -13266   -12973   -11029    -8522 
   -5818    -4411    -4633    -4387    -3111    -1718     -583     -359 
   -1177    -1196      893     3537     5123     5410     3593     -225 
   -4212    -7416   -10046   -11843   -12307   -11746   -10000    -6165 
    -857     3788     5397     2608    -3369    -9811   -14632   -16991 
  -17459   -17385   -17626   -18391   -19193   -18396   -14634    -8929 
   -3804     -673      896     1676     2311     3321     3615     1594 
   -2961    -9180   -14710   -17527   -18426   -18165   -15670   -11338 
   -7510    -5557    -5166    -5157    -4428    -2698     -291     1927 
    2921     3009     3399     4305     5795     8324    11389    13466 
   12676     8610     3877     1557     1861     2473     1350    -2098 
   -7523   -12638   -14700   -14090   -12806   -11726   -10609    -9053 
   -7697    -6821    -5894    -5209    -4899    -5135    -6810    -9408 
  -10854   -10004    -8052    -7127    -7915    -9593   -11263   -12671 
  -13194   -11805    -9000    -5670    -2126     -295    -2072    -6978 
  -13427   -18856   -21556   -22859   -23899   -24079   -23097   -20934 
  -17597   -13209    -8037    -3466     -599     1890     5521     9567 
   11662    10164     6072      850    -5051   -11103   -16965   -22207 
  -26781   -30958   -32860   -31090   -26233   -17567    -6571     3271 
   11774    18229    20444    18661    14547    10296     7723     6860 
    6447     5620     4920     3808      639    -4126    -9875   -16883 
  -23610   -27788   -28355   -25597   -22088   -20842   -21204   -21574 
  -21783   -18588   -10633    -2592     3804     9246    13124    16073 
   17670    17058    15091    12734    10251     6852     2600    -2358 
   -8046   -12368   -16479   -22871   -28729   -30869   -27450   -18621 
   -8094     1256     7855    10602     9243     3643    -4779   -13446 
  -20686   -25440   -27585   -28813   -29974   -29713   -27905   -26060 
  -23720   -18659   -11561    -5051     2111    11021    19379    25704 
   27993    25434    20043    13258     5463    -3592   -11280   -15545 
  -19116   -22133   -23777   -25843   -26755   -24846   -23315   -22215 
  -19236   -17404   -16966   -15620   -16029   -17811   -17470   -14712 
  -10126    -4822    -1043      -58    -1541    -4621    -5749    -1710 
    4428    10071    16598    23276    26812    24031    15078     4303 
   -4114    -8748    -9628    -7674    -4996     -977     6843    14493 
   15525     8671    -4322   -19207   -30863   -37339   -38476   -34335 
  -26469   -16329    -3793     7403    11735    11955    12577    11539 
    7423     1981    -2770    -5140    -7157   -11188   -13799   -15566 
  -21203   -26119   -27086   -27047   -24580   -20083   -14122    -5036 
    4650    14233    24787    34427    40286    40667    36899    31087 
   24709    17834     8865    -1086   -10251   -18738   -25652   -31195 
  -34821   -35964   -38367   -41021   -40601   -38191   -32440   -23418 
  -14314    -7029    -1728     3917     9362    12179    12680    11619 
   10629    11434    14407    18948    22702    23545    20313    14679 
   10561     5405    -3073   -10493   -17043   -22712   -23413   -19305 
  -13153    -9049    -7260    -3249     2890     9252    15101    17369 
   13743     4426    -7830   -18612   -27432   -36612   -44676   -47406 
  -44124   -37956   -30882   -24070   -19495   -16402   -12827   -10234 
   -8803    -5169     1509     8814    14073    15553    12141     3906 
   -5946   -13778   -19286   -23195   -24332   -22316   -19211   -16335 
  -13435   -10490    -8340    -7786    -8483    -9590   -10289   -10222 
  -10547   -11044    -9910    -9360   -11141   -13613   -16918   -17712 
  -12985    -7468    -3287     -252     -244    -2891    -7855   -13274 
  -16576   -19537   -21699   -20787   -18476   -15761   -12121    -8688 
   -6990    -6648    -6558    -7356    -8120    -5337      631     5505 
    7608     7715     5710     1250    -5397   -12058   -16128   -18364 
  -17872   -12647    -5915      400     5445     7064     8019     9877 
   10291     8005     2168    -4534    -9811   -16083   -22681   -28193 
  -33663   -38060   -40664   -41458   -39754   -36001   -30341   -22578 
  -13624    -4386     4783    13657    20636    23517    22546    18516 
   11095     1525    -7098   -12143   -14072   -15836   -17340   -16698 
  -15346   -12942    -9130    -8075    -7776    -4965    -3046     -741 
    3844     8240    12534    16796    19372    18813    15931    12652 
    8066     2666    -1457    -4409    -6411    -8606   -12148   -16519 
  -21227   -22376   -17712   -12561    -7226      561     6308     9930 
   13624    15400    14940    12424     8707     5516     3856     5147 
    7600     8981     9919     8529     3708    -2336    -8264   -12170 
  -12858   -10673    -5674      225     5055     7084     3734    -3586 
  -11092   -17764   -23280   -26482   -27027   -26077   -25172   -23556 
  -19780   -16272   -15827   -17377   -19394   -21235   -22071   -21058 
  -17793   -13846   -11280    -9092    -6097    -3643    -1336     -625 
   -5587   -11713   -14357   -17043   -19527   -19818   -18571   -15070 
   -9810    -4706     -425     3375     6457     7695     6782     4415 
    1570     -546    -1328    -1397    -1777    -3163    -5637    -8681 
  -11504   -13798   -15758   -17038   -16972   -15345   -12868   -10633 
   -8251    -4615     -529     1479      198    -2913    -6002    -8454 
  -10848   -14011   -17386   -19777   -20650   -19834   -18150   -17084 
  -17775   -20986   -26215   -32005   -36414   -39132   -41673   -41928 
  -38770   -34445   -28084   -20911   -15761   -11908    -9702    -8978 
   -7839    -5760    -2628      824     3962     7723    11219    12190 
   10204     5238    -1707    -7495   -10473   -11195    -9917    -6907 
   -2813     2301     7879    12398    14696    14173    10800     5336 
    -720    -5864    -9888   -12772   -14027   -13884   -12622   -10347 
   -7581    -5451    -4463    -3965    -4369    -6002    -8105   -10565 
  -12561   -12461   -10158    -6971    -4060    -2120    -1791    -3175 
   -5319    -7249    -8176    -6729    -2619     2628     7736    12713 
   16362    15387     9589     1803    -6711   -14706   -20058   -20916 
  -16964   -10561    -3002     5017    10110    10147     5394    -2681 
  -10681   -17070   -21894   -23329   -19981   -12356    -2878     5097 
    9186     8039     2196    -5992   -14031   -20079   -23340   -23602 
  -20364   -13657    -6142    -1142      712     -180    -2841    -5377 
   -6815    -6739    -5088    -1814     3138     8777    13817    17189 
   18509    17581    13803     7103    -1648    -9711   -14988   -17922 
  -18110   -16171   -13926   -11181    -9860   -11442   -13591   -15916 
  -18346   -19202   -17691   -12858    -5366     1732     6264     7362 
    4768    -1482   -10436   -18846   -23700   -24793   -22284   -15807 
   -7449      -35     6034     9112     7542     3780    -1171    -7695 
  -13057   -16602   -20013   -21006   -17436   -11958    -5846      612 
    5013     6959     6174     3551     2525     3920     7145     9900 
    9940     8370     5000     -707    -7234   -13489   -19047   -23217 
  -24063   -20892   -15147    -6910      896     4325     5489     3913 
   -1740    -7225   -12442   -18350   -22659   -25294   -25960   -24476 
  -22373   -19903   -16501   -12787    -9752    -6947    -3620     -279 
    2798     5919     8658    10525    11101     9809     6407     1092 
   -3289    -5386    -8893   -13174   -15651   -18824   -22847   -26306 
  -29020   -29277   -26947   -23202   -18327   -12657    -6373     -197 
    4336     6200     5256     1830    -2319    -4014    -3511    -3797 
   -4515    -5144    -6872    -9189   -12399   -16891   -20831   -23341 
  -23943   -21901   -17362   -10080    -1236     6137    10420    10764 
    6967     1230    -3828    -6652    -6907    -6189    -5057    -2755 
    -440      823     1548     1711      774     -589    -1651    -2791 
   -3542    -3223    -1962      171     2739     4696     5053     3765 
    1459    -1617    -5734   -10881   -16414   -21922   -27207   -31078 
  -32179   -30989   -28490   -24715   -20295   -16012   -12079    -9038 
   -6643    -4338    -2130      658     3823     5854     6833     7528 
    7395     6276     4083      639    -2355    -4090    -5521    -6697 
   -7840    -9549   -11005   -11668   -13304   -16877   -20841   -24058 
  -26558   -28301   -29081   -29035   -28251   -26443   -24086   -21867 
  -19179   -15558   -11823    -8692    -6053    -3316     -750      492 
     656      733      672      626     1166     2540     4284     4351 
