Origin Time       2016/04/16 01:25:00
Lat.              32.753
Long.             130.762
Depth. (km)       12
Mag.              7.3
Station Code      MYZ004
Station Lat.      32.3889
Station Long.     131.3339
Station Height(m) 298
Record Time       2016/04/16 01:25:17
Sampling Freq(Hz) 100Hz
Duration Time(s)  127
Dir.              E-W
Scale Factor      7845(gal)/8223790
Max. Acc. (gal)   85.715
Last Correction   2016/04/16 01:25:17
Memo.             
[...]
     378      373      370      370      372      373      375      373 
     375      378      376      372      373      378      378      376 
     373      372      370      369      372      375      376      376 
     375      372      375      378      376      373      372      373 
     376      375      373      372      373      376      378      375 
     373      375      375      376      376      373      372      373 
     372      373      376      376      375      373      373      375 
     373      375      379      378      372      368      370      375 
     378      379      378      375      373      375      375      376 
     378      375      372      372      372      373      375      373 
     372      372      372      373      376      376      375      375 
     375      375      375      375      373      375      376      373 
     373      376      379      378      373      370      372      376 
     379      380      379      376      372      372      375      379 
     376      376      376      373      373      375      378      375 
     372      370      373      378      378      376      373      373 
     376      378      375      373      375      375      373      370 
     372      376      378      378      375      375      375      372 
     370      373      373      373      376      378      376      375 
     373      373      375      375      375      378      378      383 
     394      413      445      486      531      587      650      714 
     804      984     1236     1390     1242      733       83     -237 
      28      654     1333     1813     1753     1070      110     -757 
   -1448    -1867    -1501     -178     1557     3345     4426     3708 
    1722     -451    -2565    -3731    -3384    -2085      -58     1815 
    2475     2385     1547     -124    -1312    -1695    -1883    -1750 
   -1410     -712      807     2126     2546     2552     1703      174 
   -1156    -2756    -3823    -2430      544     2736     3604     3681 
    2772     1081     -351    -1371    -2092    -2001     -984      411 
    1699     2602     2740     2470     2212     1065     -463     -754 
    -490     -128     1062     2057     2154     2412     2713     1802 
    -317    -2573    -4284    -4820    -3376     -305     2915     5300 
    6556     6060     3549      218    -2601    -4190    -3663    -1316 
    1005     2631     3732     3442     1968     1255     1169      -40 
   -1323    -1374    -1561    -1864    -1031      295     1641     3134 
    3910     3323     1628     -268    -1398    -1806    -1528        2 
    2173     3336     3096     2150      321    -2613    -4452    -3339 
   -1390     -394      950     2594     2448      329    -1567    -2115 
   -2527    -3087    -2397     -569      731     1622     3226     3497 
    1360      144      140     -959    -1911    -2222    -3100    -2619 
    -410      -32    -1080     -599      963     3327     6385     7709 
    6332     4047     2200      -23    -2187    -1683      178      278 
    -289     -834    -2219    -2161        1      993      819     1034 
     854     1408     2898     2222     -517    -2336    -1858     -126 
     702      434      346      496      232      -97      148      483 
     841     1169      324     -681     -103      305     -805    -1402 
    -448     1258     3422     4535     2907      608      -27      -54 
     -13      662     1111      912     1667     4395     6947     7298 
    5825     2397    -1642    -3126    -1713      812     2408     2380 
    1856      803     -796    -2052    -3281    -4743    -5805    -5519 
   -2584     3288     8469     7454     1337    -3488    -4923    -4295 
   -2176      344     2188     3451     3987     3427     2511     1694 
     324    -1016    -1271    -1413    -1590     -920     -908    -1050 
    1217     3373     2674      940     -225      506     2895     3893 
    3230     1993     -769    -4691    -6840    -4722      506     4912 
    5493     2678    -1048    -4171    -4522    -1781       -5      859 
    3705     5710     3998     1093     -407     -762      596     3793 
    4974     2673     -433    -3871    -7088    -7182    -3126     2201 
    4722     5301     6336     5130     2459     1848      299    -1857 
    -882     -157     -870     -469     -756    -1333     -526    -1233 
   -2425      472     5348     8460     9999     9146     5219      754 
   -1057    -1474    -4974    -9327    -8916    -5377    -2276       13 
    1539     2520     2047     -186    -1929    -2787    -2172     2092 
    7034     9322    11327    12096     7542      770    -3631    -6085 
   -6057    -4058    -2880    -1467     -835    -3632    -5570    -5292 
   -4970    -2114      375    -1647    -1197     5886    10882     7182 
    -884    -7495    -8745    -2421     5073     5818     2043    -1053 
   -2172    -1765     -658     1921     6296     8872     7284     3626 
   -1443    -7026    -8586    -7678    -8077    -4537     2512     5991 
    9876    14281    10523     2825    -1694    -3488     -318     5991 
    8191     6060     3709     1891    -1480    -5166    -4338    -1591 
   -2857    -4774    -3059     -434     1081     2524     3653     5030 
    7974     9377     5603    -1478    -5560    -2988     -274    -1471 
   -1026     -626    -2037      957     4625     3673     2185      869 
    -453      526     2693     4288     4599     2072    -3865    -9599 
  -11141    -9084    -3742     5414    13062    12775     6290     -858 
   -6153    -7230    -1891     5391     8091     7584     6616     3959 
     598    -1718    -3550    -5164    -5012    -1302     3615     4299 
     -89    -5266    -8131    -6407     1317     8305     7044     3485 
    3406     1914     -565    -1260    -2034     1744     8847     7438 
    -160    -4387    -6465    -7314    -4365      106     2265     1968 
    -774    -6658   -10345    -7500    -2367     2438     4577     -291 
   -6858    -6493      425     9248    13919     8446    -3538   -10573 
   -7307      893     6681     9418    10369    10335    12348    14230 
   12532     9185     3508    -5649   -13273   -13953   -10145    -6616 
   -2166     1212     -476    -2776    -2477    -2610    -4099    -3573 
    1518     8170    12307    12567     8583      321    -9691   -10810 
     441     7912     5738     4646     4374      294    -3393    -3306 
   -3407    -7526   -10386    -8588    -6976    -4041     3735     7727 
    3331     1674     6427     7943     3557    -2220    -7033    -9424 
   -8201    -4345     -649     2857     9725    16487    14798     8210 
    4368      438    -5873   -12100   -17219   -15873    -5319     4549 
    6277     1626    -4085    -5223    -3294     -218     3646     3828 
    4314     8058     6389      787     -864      263     2828     5367 
    3353    -2525    -6766    -5768    -1169     1567      318      149 
    4268     6497     4197     4594     8559     8215     2239    -2501 
   -4126    -4662      214     9617    13271    10554     7123      129 
  -12598   -21609   -17027    -5508      241     3186     8922     9250 
    1818    -2226    -1572    -3157    -3379    -2459    -9047   -13247 
   -2461     8349     7631     6459     7964     6250     4082     3138 
     205    -2945    -1597     3834     5964     1995      487     2789 
     697    -3360    -2594     2173     8266    10774     4982    -5265 
  -13073   -14937   -10724    -4391     1709     8920    13779    11168 
    6120     4240     2546     1229      738     -738      973     2832 
   -1672    -4445    -2656    -2727     -598     2798     1447     1792 
    5271     5525     4148     3960     3998     3755     2143    -1795 
   -4025     -895     1405    -1062    -2128    -1859    -3099    -2038 
    -869    -1179     1732     4252     5096     9563    12202     6419 
   -4954   -15861   -18789   -13086    -5211     1938     5837     4966 
    1688    -5084   -14254   -18516   -15554    -6534     6960    17455 
   19361    15631    10038     2471    -5792   -10049    -8776    -3785 
    2747     7784     8961     5798     2718     3400     2524    -2201 
   -3168     1548     4680     4748     4529     1163    -3834    -3329 
     187      685     -506    -1259    -1366    -3400    -8584    -9432 
   -3967      291     4078     9674     8198    -2030    -8056    -6815 
   -4491      178     4684     5256     7916    12276    11790     6214 
   -3909   -14046   -15061    -6733     4238    12698    16483    16033 
   11306     3240    -3832    -4722      -45     2451      877     -789 
   -3250    -5325    -2909     1559     3532     4577     6216     5352 
    2253    -1676    -6872    -8355    -3831      214     -318    -3636 
   -6662    -7307    -4283     1917     7002     7203     3974     1502 
    1390     1147      498     3437     8391     8120     3873     1617 
   -2282    -9306    -9364    -1247     3383     4200     7929     8590 
    3852      954     -764     -882     5464    12849    12006     5454 
    1497    -1377    -4930    -4403    -3392    -5062    -4396    -3573 
   -5636    -5427    -1395     2832     3896     -336    -6290    -7322 
   -2274     5335     9764     5285    -3524    -5285      815     6804 
    7295     2928     -854    -1128       56     1221     2736     4540 
    4814     2641      190    -2008    -4342    -4411    -4124    -6326 
   -3372     7751    14254    10397     5867     5188     2266    -3851 
   -6191    -4459    -2613      116      928    -2995    -7226    -8404 
   -6399    -3465    -1945      616     5769    11168    15483    17722 
   16364    12949     9729     4284    -4494   -11079   -13670   -15407 
  -12079     -723     8487     6820    -1401    -6448    -5825    -5300 
   -6177    -6799    -8357    -6643      621     5769     6307     6281 
    5436     3581     1669    -1903    -4779    -3167    -1129    -1597 
    -164     3928     7160     8899     8568     4838      372    -1093 
     184     2678     5682     7647     7717     7456     6853     2710 
   -4199    -8545    -7514    -2592      588     -448    -1590    -2678 
   -4031    -3574    -5443   -10378   -12874   -11191    -4737     3115 
    6691     6254      637    -9267   -13003    -7847    -2712     -361 
    1625     3592     3909     -816    -7514    -9737    -7700    -2486 
    3442     5945     6251     4534     -274    -5044    -7429    -4553 
    3802     9907    11145    13143    16433    16121    11181     5211 
    -994    -7767   -11433   -11052   -10181   -10446    -8428    -1092 
    5768     8302    12190    16849    15556    10100     5738     1852 
   -1956    -3917    -6076   -10350   -12820    -9258    -3731    -1701 
    -853    -2543    -9059   -11488    -7672    -5614    -4761    -3369 
   -4646    -5987    -4180    -1359     1906     3595      642    -1594 
    3375    12699    17566    13825     6593     1290      246     2606 
    2150    -3535   -10127   -12634    -9296    -4016      951     4125 
    1902       49     3523     6303     5724     2180    -3412    -5919 
   -2862     2404     2955    -2597    -7064    -7299    -3046     3743 
    2728    -8819   -22547   -33575   -36813   -30705   -21296   -10579 
   -3211    -3847    -4428    -1120     3403    10034    12991     7172 
    -864    -5510    -5348     -313     2609    -1378    -4966    -3184 
     893     5459     6384     1104    -2782    -1252      268    -1328 
   -4612    -6782    -4635     3492    15751    25358    24223    10719 
   -7280   -16491    -8868     8378    19003    16243     6577    -1503 
   -2598     1381     3481     3634     3352      -71    -5471   -11475 
  -19193   -23843   -19503    -8499     3586    12634    14812     9551 
    1107    -5575    -8252    -7227    -4016      263     4197     3863 
   -1479    -6166    -8226   -10582   -13149   -14455   -12781    -6385 
     842     1980    -3744   -10693   -12168    -5115     4411     6628 
    2147      143     4315     8671     7172     2623     1715     7246 
   16067    20136    15429     7325      699    -4261    -6151    -5070 
   -4183    -2636     2178     5054     -229    -5452      468    12309 
   21660    27613    25610    12993    -2505   -16923   -31895   -40629 
  -33331   -11596    10620    19063    12197     -679   -10272   -15596 
  -22152   -29677   -33991   -36448   -36560   -30555   -18312     -743 
   16981    26380    26269    20389    14427    14651    19327    21693 
   19861    14512     4393    -8194   -17332   -20667   -16880    -4220 
   14535    33255    44685    41771    26812    11367     -603   -10883 
  -17898   -23658   -27272   -23776   -19391   -21103   -24956   -27966 
  -28713   -23233   -11917     3550    24047    46658    62499    60523 
   38047     7254   -16154   -22138   -10110     4013     5017    -1802 
   -7261    -8549    -3470     3899     7252     5123    -1998    -6971 
   -3470      -31    -5265   -15302   -22258   -20301    -8884     6650 
   20164    30551    35478    25411      332   -25801   -41316   -41206 
  -29056   -17964   -17170   -22847   -28571   -32221   -30011   -19647 
   -1821    20718    36216    35519    24869    14982    11754    12306 
    8028    -3010   -17641   -32182   -40576   -43532   -47869   -53865 
  -58322   -55370   -34470     2787    38439    54745    44081    16961 
   -4780   -12380   -10902    -7917   -11743   -21184   -28202   -31943 
  -31125   -23827   -13270     1197    19651    37458    53808    68161 
   76364    75620    65658    50785    38898    30909    20159     -850 
  -36868   -75381   -89480   -74035   -49360   -28717   -11772     6932 
   31185    56377    77638    88717    79228    51806    16648   -21605 
  -52524   -66283   -66550   -58388   -44753   -31417   -22524   -21520 
  -28462   -32609   -24340    -8896     5012    18762    33138    37935 
   28036    12811     1946    -2267    -4596    -8356    -7501    -3557 
   -6817   -11805    -6835     2151     4914     6335    16040    26875 
   23370    11303     2682    -3388     2027    22141    36466    32493 
   14808    -3608   -11130    -3612    26200    67009    84308    70146 
   44219    19683     3488    -1262      289     2358     6831    16995 
   24862    22557    17635    17421    17161    11304     -444   -18781 
  -43113   -62282   -65080   -54028   -35550   -17925   -12371   -17061 
  -19407   -13363     2683    27062    46465    46159    24557    -6328 
  -26438   -22451     1667    30770    46246    36653     8884   -17791 
  -26611   -15476      133     2584   -10866   -25386   -21802     -627 
   17590    19624     9709    -1136    -5414    -8858   -25046   -50117 
  -61768   -50009   -24359     -785     5641    -5850   -23916   -39374 
  -45538   -42928   -38496   -33623   -26549   -17443    -6280     5336 
   12426    13954    17666    27193    34798    34890    31710    31789 
   35858    38067    32911    23160    15727    10098      -40   -16482 
  -33173   -40288   -34908   -24495   -14489    -4009     6880    16470 
   23436    27540    29548    30226    29971    26796    20235    16634 
   21293    32579    44388    47412    36875    19417     6424     3449 
    4854      805    -9456   -19947   -27522   -28181   -18216    -5325 
     103    -2758   -13131   -27496   -35428   -32783   -22079    -2836 
   20601    36066    37563    27608    11051    -4225   -12676   -13938 
   -7963     3256    14582    21212    23872    25768    24520    20243 
   17265    15282    13232     9140      942    -6443    -9639   -11538 
  -11952    -9985    -9197   -10797   -11994   -14018   -19550   -21867 
  -13799      513    16249    28827    26870     7652   -15543   -29810 
  -32217   -27673   -22755   -22049   -28359   -37916   -42041   -37921 
  -28877   -18338   -11306   -12141   -15797   -15538   -14319   -15398 
  -16700   -17135   -16943   -15828   -11455     -399    14993    28046 
   36261    39376    36142    29451    25901    28615    36254    45967 
   53493    56766    58078    56103    46599    31155    13736    -3049 
  -14481   -15483    -7371     3202    11365    13717    11946    14593 
   20877    20707    12307     1317    -6511    -6990    -2569     -859 
   -4025    -7758   -11360   -17124   -23045   -26532   -26185   -19357 
   -8264     -673     -139    -3199    -4943    -2135     4847    11122 
   14666    19689    27985    37189    43914    40713    25234     9553 
    2964     2331     2840    -1042   -11947   -23178   -30415   -35908 
  -38213   -33735   -23704   -14808   -15566   -26002   -33598   -27534 
  -10249     7177    14631    10457     1194    -5991    -7497    -2948 
    4064     7530     5864     2758     1150     2349     4687     3874 
    1312     1926     6349    13309    19614    18947     9142    -4340 
  -14029   -15202    -8324     2498    14913    24695    22781     7936 
   -6505    -6290     8334    24679    32594    31340    25088    18145 
   11003     2313    -3299     -313     5886     6164      438    -5684 
   -6038     3609    17594    23788    17061     2309    -8962    -7892 
    1858    11696    17339    16069     8163    -2299   -12348   -20078 
  -25211   -28607   -28863   -24144   -13888    -3105    -2552   -13697 
  -25350   -26774   -15018     1934    11952    12815    11394    14854 
   25008    35406    39112    36598    32553    31072    31899    31320 
   26288    16826     8460     6650    12487    25925    40759    45879 
   37469    18970    -3472   -23304   -38826   -49108   -48910   -36386 
  -16968     1575    13784    19637    22607    25622    28972    28649 
   21139    10183     3206     3781     8459     9024     1282   -10329 
  -19944   -26601   -32036   -36948   -39085   -35735   -28498   -20363 
  -13251   -10034    -9504    -7256    -4327    -3007     -754     4951 
   13377    22117    27530    26003    18185     9379     3657     2098 
    4450     8326    11546    12650     9502     3103    -4575   -13366 
  -18392   -13392    -1287     9919    16580    19657    20823    20954 
   20233    17744    12999     6038    -3923   -14503   -20341   -19452 
  -13367    -4535     3757     9514    12921    13265    11086    10206 
   11712    12933    10555     1772   -11473   -22755   -26912   -22125 
  -10788      893     7948    10547    11731    14014    18181    21757 
   20873    14774     6235     -680    -4079    -5775    -8310   -13008 
  -18103   -20132   -19943   -19722   -18721   -16768   -13351    -7429 
   -1949     -419    -1175     -668     1479     3565     4649     4028 
     859    -4785   -12464   -19566   -20336   -13451    -4618     2431 
    8486    12876    13077     9108     2415    -7030   -17034   -23242 
  -25342   -25687   -24290   -19781   -12908    -6837    -4199    -5323 
   -7250    -5035     1773     8662    12132    10821     6443     2690 
     376     -266     1125     2016     1930     3046     5593    10524 
   17572    20391    13687      646   -11479   -17716   -17095   -15757 
  -22452   -33772   -38234   -32584   -19777    -4822     5421    10154 
   13090    15468    17047    16659    15260    16167    18364    18734 
   16440    12382    10336    12942    18072    22887    25540    24517 
   19431    11670     3790    -2687    -6752    -7857    -7468    -5968 
   -3395    -2316    -2640     -730     4164     8532     7485    -1013 
  -12773   -20802   -21342   -15329    -7160    -1383       70    -3713 
  -13051   -25377   -36175   -42348   -43229   -39411   -31965   -21455 
