Origin Time       2016/04/16 01:25:00
Lat.              32.753
Long.             130.762
Depth. (km)       12
Mag.              7.3
Station Code      MYZ002
Station Lat.      32.6978
Station Long.     131.6831
Station Height(m) 19
Record Time       2016/04/16 01:25:21
Sampling Freq(Hz) 100Hz
Duration Time(s)  259
Dir.              E-W
Scale Factor      7845(gal)/8223790
Max. Acc. (gal)   193.630
Last Correction   2016/04/16 01:25:21
Memo.             
[...]
    6956     6621     4085     1594      336      -55     -360    -1533 
   -3355    -3657    -1656      263      163    -1371    -2980    -3420 
   -2335    -1015       11     1910     4590     5989     4568     1281 
    -939     -314     1463      700    -4045    -9266   -10226    -6536 
   -1474     1734     2104     1190      548      182      222     1382 
    3805     6608     7673     5154      508    -2281    -1520     -220 
   -2003    -5614    -7547    -7078    -4325        4     2188       74 
   -2798    -1826     3078     7776     7785     2106    -5103    -8085 
   -6060    -2928    -1136     -510     -531       39     1927     2901 
    1656      706      993      303    -1644    -2602    -1250     1495 
    3288     2366      190      133     1667       87    -6409   -13151 
  -14004    -8974    -3936    -3252    -5371    -4606     1426     7545 
    9026     7943     7659     8385     9140     9101     7433     4845 
    3148     1196    -3078    -7256    -8148    -7109    -7179    -9470 
  -12498   -12059    -5268     3890     8221     5949      967    -2999 
   -4675    -4635    -4027    -2200     1468     3784     1887     -888 
     661     5235     6766     3246    -2228    -6150    -7179    -7425 
   -8968    -9853    -6721      637     7898    10392     7950     3778 
     990      460     1606     3882     4399     -438    -8428   -14218 
  -15909   -13668    -8139    -1767     2442     3277     2960     5098 
   10192    15410    16665    11931     5125     1499       11    -3743 
  -11094   -19642   -24159   -21000   -13864    -8903    -7542    -7692 
   -5977     -473     7037    13872    18469    20042    19012    16594 
   12833     6246    -2636   -10500   -15792   -19373   -21377   -21290 
  -18882   -14620   -10011    -5035     1717     9254    16456    23724 
   28181    26724    22427    18404    11325    -2191   -18376   -30049 
  -33457   -28844   -19464   -11171    -7869    -7482    -5090     1316 
    9428    15385    17093    14975    10656     6660     4357     1965 
   -1852    -6365   -11503   -18480   -28146   -37790   -41534   -35174 
  -18388     4162    24475    37677    43900    45196    42103    31338 
   12096    -7827   -20669   -25083   -20719   -10316    -3175    -4143 
   -8806   -13294   -16431   -16388   -13560   -10012    -5177     2481 
   12731    24147    32665    32096    21099     5169    -9405   -17189 
  -16803   -17626   -27371   -37226   -36332   -26338   -11342     6912 
   21798    26703    23122    17473    16418    22312    29817    29573 
   16849    -1876   -16653   -25670   -29899   -27552   -19758    -9693 
      76     6062     9047    14123    19673    19280    14717    11178 
    5915    -3603   -12339   -15804   -14362   -11155   -10156   -12093 
  -13089    -9140    -1161     5894    10824    17892    27557    35401 
   37496    28447     7450   -14021   -25193   -27822   -27757   -25902 
  -21582   -16518   -12595   -11865   -16606   -24109   -26532   -19143 
   -5602     7863    18971    26446    29096    27912    24684    22270 
   23004    25355    23980    13466    -3271   -16378   -21803   -20768 
  -13818    -6284    -6336   -15201   -27319   -34940   -33190   -24429 
  -14404    -4911     7245    23843    40238    48099    41582    21208 
   -4873   -22231   -20800    -5674    10959    21909    25120    22956 
   19723    16087    12251    10134     6300    -4989   -21404   -33932 
  -33563   -17037     8321    27031    27183    11198    -9521   -27008 
  -38610   -41143   -29241    -5829    14721    20927    11993    -1755 
   -7400    -6085    -5921    -6604    -4455     3213    15239    23220 
   23674    21752    19743    17535    13888     3561   -13234   -26865 
  -28597   -14713    10987    32528    33718    15365    -7654   -21679 
  -22145   -11885      288     4464      899    -1348     2300     9509 
   18804    28737    32020    24031     8418   -11203   -28210   -33804 
  -30473   -26191   -21826   -13112     2698    20309    28011    19469 
      -8   -17356   -20352    -8945     2461     1717    -6864   -11379 
   -6928     2486     9306     9548     6372     5076     8286    14251 
   16467    10277    -1341   -10099    -7091     9049    27464    35144 
   27747     9607    -9819   -21250   -21872   -17517   -16530   -21643 
  -31816   -44211   -49972   -41705   -25515   -12653    -4877     2393 
   11080    21597    35095    48139    53879    51908    47158    42955 
   40786    39143    33127    19522     -532   -23606   -46336   -65549 
  -77013   -77661   -68555   -51754   -29470    -7480    10106    25762 
   41258    53053    57488    54681    48239    41725    33836    22715 
   10187    -3406   -17498   -29554   -40583   -52203   -61001   -60674 
  -47401   -21613    10559    35237    44004    44085    41634    34054 
   22559    11095     -854   -13085   -21521   -23716   -21197   -16803 
  -12634    -8564    -3657      652     2934     4912     8260    12542 
   17829    22420    20953    13215     4718    -4941   -18692   -32150 
  -40389   -43151   -38627   -25833    -9768     4629    15387    21523 
   25972    34526    48001    59421    60057    45736    18670   -10049 
  -24556   -20640   -11310   -10318   -17537   -25402   -30532   -30639 
  -23518   -13294    -4816      430     -858   -10590   -23637   -30334 
  -24322    -8464    10184    28651    46233    57964    57149    41532 
   13419   -16364   -31010   -25760   -11406    -1016     -993    -8929 
  -19689   -28566   -29265   -19334    -3013    11088    14712     8688 
     467    -2980     3470    16708    25764    24459    17404    11952 
    5467   -10031   -30855   -45831   -49508   -37648    -9891    18476 
   31135    30129    25636    20632    13225     2976    -9445   -21640 
  -28262   -28441   -26098   -19912    -9023     1026     9410    19522 
   26655    23514    14062     7373     5707     9298    19430    30977 
   36300    35089    27664    10002   -14561   -35465   -48438   -52990 
  -44651   -23618     -987    11811    12383     4981    -5651   -15697 
  -20241   -15611    -2578    14885    29174    31297    22314    13527 
    9285     4441    -3206   -12850   -24551   -34480   -35540   -26879 
  -13626     3055    22048    34950    36788    32367    25983    16746 
    4207    -8171   -15620   -16748   -14539   -11542    -6316     1232 
    4818     -972   -12594   -23531   -32834   -40915   -43152   -34106 
  -15156     5945    23677    38157    49297    54742    51704    37705 
   15712    -3422   -11663   -12664   -14210   -18574   -23403   -25427 
  -23598   -19954   -14538    -5134     6345    14836    18837    20783 
   20673    16529    11244     7969     3848    -2702    -8433   -12062 
  -16952   -25037   -32104   -33087   -26384   -13068     1062    10396 
   17311    25593    32278    32746    27526    19332     9778     1728 
   -3303    -7609   -12803   -19021   -26640   -33859   -35375   -27075 
  -10642     9570    28895    39946    36659    23329    13189    14906 
   25335    33103    25756     2220   -23808   -40151   -46089   -44136 
  -36597   -28082   -20862   -15034   -10519    -4215     3207     6103 
    4472     2222     1059     2338     5594     6895     4284     -191 
   -4612    -8492   -11677   -13464   -12373    -7947    -1845     3443 
    5922     5015     3184     3333     3699     1615    -2539    -7673 
  -10164    -6393      286     3898     3842     3935     5377     5603 
    5074     7429    12657    16495    16459    12433     4010    -5745 
  -12474   -17528   -23498   -29624   -33606   -30561   -16803     2604 
   17552    22253    19178    17221    20999    23141    17532     9355 
    2832    -3816   -10763   -16336   -17938   -12887    -4756     -687 
   -1455    -2964    -1405     5922    16305    22559    22081    17166 
    9591     1560    -4476    -9612   -15007   -18156   -19288   -21824 
  -23456   -18184    -4340    14678    30936    34762    23275     4140 
  -11247   -18427   -21257   -21074   -14727    -5732    -1981    -3699 
   -6709   -10947   -16471   -18482   -12420      909    15515    24422 
   26515    24692    19491    11118     2085    -5389   -11132   -13184 
   -7044     5441    15944    19538    15546     5671    -5420   -13640 
  -17011   -14558    -7742      -43     5174     5400     1263    -1900 
    -317     1008    -4575   -13933   -19433   -18185   -10962    -2284 
     929    -1930    -3775      183     6037     8579     8417     5216 
   -3898   -15400   -21651   -18945    -6968    10494    22748    19993 
    5057    -9038   -12893    -6983     2938    11029    15041    17829 
   21938    23683    18515     8417    -2844   -14339   -23566   -25743 
  -18904    -6621     2614     2401    -2659    -4796    -5128    -4780 
    -230     4129     -222   -11553   -22045   -26740   -22827   -10615 
    4422    15417    18045    11181    -2262   -13855   -14823    -4418 
   11574    26023    33492    33798    29906    23852    15962     5448 
   -5949   -14445   -19055   -20756   -19908   -17328   -14728   -12660 
  -10635    -9522    -9803    -9112    -5425        4     4359     5945 
    5379     5611    10085    17317    19522    12865     4139      483 
     950     3677     9031    13001    10627     3588    -4393   -10467 
   -9776    -1888     5003     4329    -1995    -8676   -12042   -11804 
  -11191   -12901   -16762   -20744   -20356   -11340     4027    17977 
   26784    32211    33256    27355    16494     5034    -4395   -11646 
  -16909   -18797   -16062    -9992    -4635    -3856    -7429   -11245 
  -11086    -4735     7329    19450    23449    18393    11102     5343 
   -1561   -11311   -20841   -25785   -24484   -20367   -17265   -12105 
   -1728     9128    16174    20964    25432    32128    44429    57028 
   55827    35019     5111   -21249   -41607   -55336   -57877   -51050 
  -41149   -28529   -14422    -4814      263     7119    17779    27928 
   31774    26684    18246    14843    14041     7148    -4779   -13404 
  -14596    -9448    -3412    -3861   -11929   -21647   -26792   -25188 
  -18153    -7117     6925    23058    40884    55966    60459    53407 
   41212    28001    14172      689   -11786   -23647   -33401   -38809 
  -40668   -40297   -35166   -23211    -8355     3929    12680    19735 
   24954    25941    21343    11599    -1287   -13086   -19674   -19059 
  -12228    -4255     1136     6147    11881    15951    20587    29949 
   40942    47401    47223    40521    27382     9563    -8872   -23782 
  -32906   -36289   -35217   -29895   -20515    -9495      -49     4155 
    1788    -2011    -2862    -2590    -2053      -20     2687     6801 
   14454    23872    32178    38619    40705    34766    23121    12753 
    5483    -1713    -8626   -12654   -15498   -21907   -32564   -44081 
  -52496   -52410   -39444   -16379     7666    23765    27363    19404 
    6115    -3242    -2826     4941    14112    20949    25134    30150 
   38587    46558    47177    38020    21803     2930   -12985   -24671 
  -39410   -60249   -79018   -87639   -83646   -68834   -49386   -31792 
  -18087    -5395    10790    32705    58599    82885   100030   107454 
  103999    91165    73556    53638    31420     8190   -15830   -41638 
  -65753   -81920   -88219   -87872   -85351   -82395   -76439   -64704 
  -47289   -25229    -1545    17990    29693    34620    35139    31486 
   24451    17842    13864    10741     7258     6273    12137    23625 
   33264    35833    32404    26979    22653    19965    17194    11724 
    2921    -7727   -19751   -32539   -43266   -49177   -49449   -45638 
  -41841   -39592   -33905   -22183    -9995    -1973     1267    -1062 
   -6727   -10631    -9699    -3485     4606     8557     5595    -1351 
   -6380    -6259    -3156     -436      731      309      136     3921 
   12228    21273    27886    31941    34815    37427    39631    39652 
   33804    21876    10602     4459     -325    -7939   -17570   -26052 
  -30990   -32252   -31233   -27733   -19330    -5460    11115    25940 
   33581    31386    21043     4199   -18391   -44343   -68796   -85106 
  -88902   -80284   -58893   -25612    10112    39614    63818    82993 
   94224    97016    89274    68014    37296     7001   -14697   -25708 
  -31270   -39906   -54037   -68111   -76472   -76665   -69870   -60573 
  -51251   -42589   -34507   -23141    -6862    10802    28181    44068 
   54194    57561    58176    57422    52875    44864    37039    30780 
   24817    19606    17604    20753    27425    30928    24813     7608 
  -16365   -37571   -49003   -50992   -45515   -35290   -25956   -20683 
  -18454   -18347   -19329   -19838   -18095   -11851    -3246     1060 
    -477     -859     8810    31102    58881    81260    90633    83431 
   62514    37625    15579    -4654   -25076   -45033   -62614   -74233 
  -75643   -65778   -47602   -25633    -3951    15156    30175    37427 
   31704    12357   -13555   -36516   -50738   -55302   -52084   -43708 
  -30709   -10692    16699    46129    71378    92213   110334   122665 
  126789   123026   110306    91504    72411    52018    25085    -8197 
  -40689   -67281   -87292   -97788   -97996   -94487   -94342   -99161 
 -104815  -105171   -96811   -79961   -57568   -33523   -10639     9023 
   25596    41111    53665    59354    59105    55152    47386    38065 
   29852    19912     7547     -540     -718     2126     -224   -11333 
  -26659   -42277   -58850   -75732   -91590  -105943  -117201  -122208 
 -116417   -97498   -67675   -28961    19059    73426   124966   165358 
  191991   202695   193287   163456   119743    72102    30380     2064 
  -10987   -13822   -15712   -24007   -38707   -56457   -75014   -90686 
 -100283  -103345  -100275   -92898   -81395   -62623   -36377    -6084 
   24700    50827    66239    69691    64825    53262    34129    11776 
   -5204   -16353   -27492   -38303   -44847   -42626   -25431     6072 
   39572    62353    71632    69515    59373    48060    40332    35613 
   31965    27819    22265    14096      487   -19843   -44084   -67290 
  -85344   -98697  -110104  -118956  -122377  -115659   -94610   -59580 
  -13590    35550    74930    98514   111331   118805   125806   137149 
  145971   139436   112035    63663     1544   -60922  -112309  -143968 
 -152002  -139951  -117294   -93112   -67466   -36410    -3520    22455 
   36640    40375    38242    34973    36030    45902    61312    73180 
   75952    71126    64860    60534    53495    37307    12973   -11700 
  -30446   -42182   -48190   -50850   -53639   -58314   -62691   -62598 
  -55019   -37999    -9101    30447    70860   100770   115225   111873 
   90370    59059    30462     7230   -17521   -45869   -72976   -94856 
 -106839  -104018   -88025   -63458   -31942     4982    43596    78927 
  105844   118987   111931    82078    37241    -7344   -40867   -64474 
  -81886   -89850   -86880   -78023   -66243   -51964   -37064   -24189 
  -15109    -6239     8136    27453    47704    66580    81793    88603 
   83428    68359    48658    28479     9614    -7279   -22566   -37347 
  -51588   -65788   -80420   -92878   -99519   -98308   -88904   -71625 
  -46132   -12649    24961    60929    92134   116008   127441   121034 
   93814    52030    11851   -18427   -44174   -69566   -92275  -106897 
 -108634   -96669   -74239   -47730   -22462     -329    17922    33228 
   47505    58968    61860    52532    34060    14007    -2739   -17454 
  -32731   -47518   -58870   -65017   -64962   -58899   -48408   -33469 
  -12226    15490    46553    74912    92975    96406    88601    77710 
   69364    62250    49353    26759       60   -23398   -41122   -53948 
  -65264   -75658   -81422   -79975   -69379   -48612   -21097     6332 
   28478    43987    51624    49253    38294    24919    14285     5575 
   -3596   -11803   -17362   -20848   -21104   -14881    -2844     7430 
    9483     6274     3477     1023    -2141    -4946    -8357   -13892 
  -21033   -28383   -33292   -33653   -30929   -28044   -25562   -21509 
  -14732    -6052     5273    20983    38163    51112    57399    57917 
   54854    50517    46707    42569    33216    16210    -4946   -25637 
  -41193   -48690   -50296   -49977   -50507   -53102   -56231   -56423 
  -51266   -40977   -27726   -14315    -2232     9047    20314    31486 
   42082    50780    55201    54341    49860    43947    37154    28620 
   19341    12614     9660     8756     7759     5239     1485    -1071 
    -911     -162    -1476    -4795    -9246   -14895   -20899   -24632 
  -24533   -21590   -17587   -13308    -8910    -6219    -7036    -8916 
   -7168      261    11635    22480    28478    29384    28709    29200 
   30430    30526    27953    22017    13639     5595      976      356 
     529    -3202   -12118   -22734   -31680   -37555   -38454   -33335 
  -24675   -16221    -8155     2440    16190    31245    45496    55215 
   57252    52509    44443    37295    33806    32255    28563    20731 
    9855    -1179    -9441   -14023   -17193   -22724   -32205   -43283 
  -51507   -53484   -47746   -33948   -15030     2308    13649    19799 
   23012    25123    28290    32648    35765    36875    36925    36337 
   35905    35471    32625    26437    19211    11954     2714    -9558 
  -24223   -39667   -52404   -58888   -58248   -51611   -39475   -21631 
    -159    19379    30871    31220    21813     8406    -1707    -4212 
     446     8404    16348    23993    30874    35284    36687    34708 
   29654    24305    20602    17455    13547     8819     2728    -4963 
  -11468   -14524   -16505   -19766   -23469   -26867   -30248   -32625 
  -31410   -25266   -15020    -1545    13900    28553    40020    47518 
   51387    52836    51287    43190    27483     9119    -6358   -17965 
  -26499   -31885   -34811   -36045   -34982   -31672   -27619   -23625 
  -19476   -15163   -11053    -7971    -6814    -7327    -7616    -4710 
    3253    14588    24979    30272    28445    20756    10859     2350 
   -3087    -6569   -11330   -19041   -26669   -29239   -25300   -17842 
  -10012    -3808    -2037    -4942    -8676   -10612   -10696    -9988 
  -10404   -11877   -12183   -10615    -7807    -4351     -727     3781 
   10262    18419    26680    32829    35235    33241    26636    17197 
    8471     2003    -3053    -7501   -11358   -13748   -13948   -12604 
  -11161   -11183   -12718   -13493   -12515   -11462   -11236   -11230 
  -11294   -11651   -11121    -8108    -3910     -903      724     1528 
    2215     3487     4428     4421     4820     5667     4792     1949 
    -398     -492     1865     6223    10588    11368     6546    -1279 
   -7041    -8958    -9540   -11034   -14087   -18577   -21984   -21497 
  -18191   -14654   -11296    -7492    -2556     4591    13671    22491 
   29181    32611    31399    24876    14620     3740    -5144   -11126 
  -15066   -18640   -23129   -28215   -32262   -34373   -34727   -33662 
  -30971   -25481   -16744    -6500     2484     8361    10817     9516 
    4104    -2972    -6968    -5853    -2311      646     2701     4090 
    5356     8383    13423    17675    18858    17709    16065    14233 
   11144     5518    -3295   -14407   -25679   -34650   -39536   -40014 
  -36535   -30134   -22462   -14053    -4444     5698    14184    18700 
   18871    16411    12914     9111     5680     2766     -514    -4299 
   -7403    -9510   -10758    -9879    -6403    -2562     -195     1457 
