Origin Time       2016/04/16 01:25:00
Lat.              32.753
Long.             130.762
Depth. (km)       12
Mag.              7.3
Station Code      MYZ019
Station Lat.      32.5006
Station Long.     131.4444
Station Height(m) 141
Record Time       2016/04/16 01:25:18
Sampling Freq(Hz) 100Hz
Duration Time(s)  105
Dir.              N-S
Scale Factor      7845(gal)/8223790
Max. Acc. (gal)   64.441
Last Correction   2016/04/16 01:25:18
Memo.             
[...]
    2662     2663     2671     2674     2668     2662     2666     2677 
    2678     2668     2663     2667     2669     2668     2667     2669 
    2674     2667     2659     2667     2677     2671     2662     2663 
    2673     2677     2666     2659     2668     2678     2674     2660 
    2660     2671     2675     2668     2662     2666     2674     2671 
    2663     2664     2671     2671     2669     2666     2668     2674 
    2668     2663     2668     2677     2673     2662     2662     2673 
    2677     2668     2662     2667     2674     2669     2663     2664 
    2673     2675     2669     2664     2667     2673     2668     2664 
    2664     2667     2663     2647     2636     2636     2632     2605 
    2571     2546     2531     2509     2474     2434     2397     2367 
    2354     2392     2502     2647     2736     2709     2623     2598 
    2675     2713     2540     2280     2343     2911     3538     3541 
    2833     2115     2019     2355     2524     2444     2548     2953 
    3219     3160     3186     3510     3693     3241     2467     2388 
    3283     4145     4168     3450     2168      648       -8     1267 
    3877     5368     4241     2355     2266     3343     3165     1566 
     920     2355     3694     2856     1224     1107     2165     2601 
    2199     2257     2894     2926     2501     2914     3828     3256 
     838     -634     1158     4320     5412     3971     1813      685 
    1428     3410     5266     5584     3551     1050      970     2654 
    3221     1902      479     1097     2991     3126     1852     1946 
    2955     2896     2173     2709     5204     7209     5686     2218 
    1167     2814     3526     1588     -638     -446      923     1154 
    1653     3404     3682     2068     2053     4637     6754     6079 
    3842     2706     2671     1334     -901     -588     2764     5193 
    3387     -695    -1543     2770     7053     5605     1094      626 
    3840     4596     3090     3885     5139     3056      463     1672 
    4996     4826     1151      502     3807     5036     2211     -864 
    -781     1645     3171     3353     4197     5368     4477     1938 
    1085     2636     4197     3715      946    -1102      764     4170 
    3859      457     1034     7348    11018     6633      155     -965 
    2261     4125     3784     4816     6006     3291     -566      266 
    3813     2721    -2315    -2748     2841     7515     6840     2424 
    -291     1341     3689     4314     4252     2926      803     1440 
    4893     6189     3154       63      525     1513     -122     -529 
    3763     8122     7048     1927    -2154    -2519     -330     3083 
    7419     9566     6858     2928      784    -1580    -3634    -2403 
    2236     7761    10241     7993     3576     -248    -2338    -2007 
     164     2020     2515     3011     4074     3923     1977     -504 
   -2565    -2739      823     7422    11381     7821     1958     1755 
    4936     4191    -1444    -5196     -502    10055    16425    11325 
    -566    -5633      302     5894     3165     -566     2995     8040 
    5131    -2890    -5347     1717     9931     9367     1711    -2266 
    2828     8853     5960    -1744    -3457      693     1683    -1032 
     785     5902     5387      203    -2767    -2022     1480     7136 
   12133    10978     1514    -6787    -1883     9058     8021    -2362 
   -4236     4390    10937    10883     8267     2543    -6107    -7723 
    2995    14185    12155      978    -3160     4228     9223     2596 
   -6139    -7364    -3103     4047    11348    11175     2010    -6430 
   -5341     3466    10837    10621     5724     2610     3597     6295 
    6232     1622    -4008    -6065    -2766     3530     8185     8374 
    3886    -1285     -699     5499    10477     9300     2251    -4652 
   -3852     3244     6743     3015     -159     2768     5475     -325 
   -9725    -9231     1350     8694     8630     7411     6367     3244 
     961     3704     8718     9563     4515    -1888    -3067     2755 
    8437     5786    -1060    -1005     6490    11847     9005     2573 
     237     2052     5698    10654    11600     3094    -8730   -10457 
    -730     6960     4425    -3603    -7285     -810     9587    13375 
    8594      463    -4253    -2920      932     5948    13736    16866 
    7211    -3319     -422     5128    -1660   -12513   -10116     7649 
   23511    19575     1443   -10215    -6259     4045     5697    -1256 
   -1767     9305    17925     9474    -8166   -11978     2732    15903 
   12294      280    -5433    -3481     1175     6102     8311     4969 
   -1092    -2965     1648     8271    11240     7685     -249    -5815 
   -3393     5225    11009     7153    -1668    -5092    -1394     2901 
    5736     6772     1194    -6323    -3678     6157    10840     6801 
   -1728    -7254    -3694     5694    11327     9466     3693     -982 
     -81     4236     4413     1424     1688     4356     4704     1614 
    -864     1152     4069     4949     8064    11105     5192    -5836 
   -8812    -1907     6555    12356    14261    10180     2177    -2936 
   -1559      209    -2581    -1966     7596    14742    10060     5166 
    9705     9683    -3836   -14584    -9165     4449    13950    16969 
   16110    11265      287   -10851    -9451     2474    10358     9137 
    2490    -2625     -677     2362     -383    -5060    -5260       17 
    6956    15021    22746    18998     3364    -6791    -3678     4737 
    9429     6096    -2069    -6806    -6737    -5899    -2506     3430 
    7555     8476     3202    -3577     1640    15511    20056     8603 
   -6895   -10570    -1073    10195    13865     9306     2735     -306 
     476     2868     2740    -1425    -2529     2386     4823     2893 
    3106     2867    -2816    -6131     1048    12139    15371     7973 
   -1316    -1545     5883    10467     8401     1494    -7645   -11777 
   -6421     2832     8127     6866     2296    -1580    -2276     3071 
   11958    17032    14964     6635    -2513    -5440    -3672     -999 
    3210     2334    -6292    -7510     1826     6470     3581    -1444 
   -6516    -3955     9618    23145    23611     7915   -10555   -11223 
    4187    10390     -168    -5015     6096    15111    10046      788 
   -2262    -4266   -11213   -13265    -2768     8149     7408     1381 
    1626     8166    12645     9711     2816     1377     7652    10569 
    4920     3323    12401    18859    10295    -8684   -17880    -3434 
   14827    11128    -3744    -9362    -9585   -10041    -1784    16583 
   28021    18393    -2559   -12330    -2836    15721    26396    17649 
   -1358   -11196    -7635     -175     -286   -10453   -15789    -5675 
    5516     4367      754     4230     7843     6554     5142     4298 
    -328    -5325     -309    15830    26109    14844    -6648   -12698 
     548    10882     5543    -2282    -3640    -7561   -16104   -16726 
   -1341    20098    27707    14330    -6490   -15672    -6484     8780 
   13565     8334     2515    -4283   -11229    -5850    12822    25242 
   19076     4603      459     9043    12336     3165    -2068     4279 
    6774    -2326   -10170   -10395    -8433    -4035     3970     8572 
    3287    -8706   -15462    -6110    11184    13915     -279   -10187 
   -4496     9989    24417    28678    15565    -3458   -10864    -4372 
    7074    11084     1534   -10854   -11076     2001    17338    22493 
   14570     2898    -4745    -7959    -4685     4338    11155    11780 
    6874    -2313   -11230   -14233    -5705    11696    19175     6777 
   -8847   -10963    -2293     6667    11691    13891     8622    -7384 
  -19969   -13971     3767    16027    17964    15388     9331    -2178 
  -12417   -11072      417    10336    12606    11119     9721     5840 
   -3726   -14069   -14455    -1539    14146    17558     4090   -12387 
  -14297    -2133    12031    18889    14958     6536     5131    13053 
   19113    12205    -4479   -17011   -16745    -9991    -5620     -935 
    7902    13351     5089   -12406   -20803   -10273     9575    20596 
   13794       18    -4459    -1968    -4256    -7075    -1431     5575 
    5393      571    -2957     -942     3176     2245     -714      737 
    4375     6648     8286     8599     7646    10945    19043    21541 
   10395    -7974   -17098    -9316     5254    11551     5386    -2201 
   -2940    -1980      603     7227     8878      473   -12060   -20013 
  -14195     2949    13560    10172     3888      908     1266     7951 
   13940     9795     2500      -41     1429     7200    12426     8802 
   -2098   -13371   -17902   -10868     2378    11878    12073     2610 
  -10355   -15618    -5590    11226    17923    12329     5070     2204 
    1914     4938    13892    18825    11055      797    -1914     -889 
   -3317    -6446    -1174     7966     6708    -2452    -1876     8507 
    9567    -1007    -8660    -8922    -8149    -9922    -5652     9541 
   18621    12267     5516     5988     7290     6199     3632      186 
   -5779    -9508     -148    16428    18829      201   -20611   -21729 
   -4166    13085    15763     5076    -7127    -9502      -95    12052 
   15959     9942     2959     3530     7668     6655     1233    -2515 
   -2847    -1615      325     1277    -1341    -4214     -103    10889 
   19132    16518     5262    -3017     1404    10484     9491     1545 
   -3419    -5302    -4237     2520    12086    14882     5143    -8391 
  -11268      645    17617    23791    14122        8    -7165    -7013 
   -4545    -2546     -608     2091     4997     4820     -228    -5073 
   -3404     3636     7063     2323    -3302    -3046     4149    14608 
   18790    15811    12588     7333     -897    -6478    -8401    -5795 
    2882     9728     6936    -3271   -15747   -21701   -11832     8189 
   23198    24633    12977     -861    -3929     1086     3565     2779 
    1819    -1220    -6361    -9583    -8376    -1271     7240     5919 
   -3593    -8005    -5845    -2705     1165     3453     1878     -324 
     456     8560    20038    19218     6492     -380     1101      359 
   -3100    -1512     7279    14562    12756     6496    -1085   -12326 
  -17830    -5790    12887    15998     2948    -7373    -7134    -5356 
   -7838    -8351    -1192     6222     5859     5205     8332     3272 
   -8667    -7915     8251    21246    18449     4299    -8441   -12646 
  -10986    -4811     6781    17613    21068    16146     5163    -3210 
   -3700    -4399    -9902   -11541    -4321     3620     2565    -6381 
  -10866    -1185    13652    16402     6480    -3036    -4442     1649 
    9468     9382    -2612   -16486   -17905    -6933     2280      542 
   -7257   -10957   -10027   -12677   -17134   -15921   -12286    -8791 
   -1348     7657    10651     4785    -4434    -6269     2832    13905 
   18526    17211    14193    11115     6486     3653     9242    20012 
   25871    21566     9031    -4283   -10107    -6004     2442     4953 
   -6539   -28098   -42597   -36462   -15194     2990     7508     4436 
    4128     8410    15620    25290    31016    25384    12830     5339 
    8604    14401    10284    -1629    -7044     -301     6933     1239 
  -12468   -18882   -14173    -4573     4378    10481    14227    11592 
   -1348   -13367   -10438     3462    15489    19738    14889     1688 
  -13220   -21151   -17302    -3499    11264    18569    15974     5860 
   -3445    -3420     4949    14250    19465    20332    18327    13686 
    7524     4500     8310    14515    13313     1965   -12541   -21988 
  -22131   -15337    -7519    -1447      287    -6473   -17832   -20445 
   -8128     9221    18794    16758     8785     5938    13072    24127 
   31523    29081    13255    -6822   -16020   -14222   -10920    -6648 
    2844    15310    17811    -1620   -29160   -36737   -20386     -211 
    6519    -2957   -18820   -25462   -15300     1503     7063    -3589 
  -16528   -17049    -8428    -5019    -9366    -7915     5248    17273 
   16943     9009     4708     8942    17971    25138    26550    21960 
   13144     4114      679     4529    10883    14512    12467     5590 
    -163    -1729    -1561      144     4117     7983     8167      201 
  -13552   -19468   -10627     1977     4953    -3041   -13254   -15724 
   -9077        5     5532     4513      259     -425     2647     8938 
   17570    18045     5422    -7619    -8891    -2496    -2215   -12629 
  -21598   -19739   -16449   -21209   -25938   -21791   -13402    -7786 
   -6925   -12231   -23249   -33902   -35737   -23259    -2844     6686 
   -1696   -12748   -13682    -5927     5737    14284    10393    -5435 
  -17336    -8457    17605    37215    33865    15982     4299     8451 
   18073    18621    11803     8784    12216    19090    27187    31436 
   28675    22998    18851    18316    20962    20852    14958     7964 
    2052    -4519   -11414   -17961   -23467   -25543   -24332   -22026 
  -17851   -11078    -3055     6342    16551    23344    23171    16267 
    4525    -7106    -8522     6180    28198    41050    35376    14662 
   -7996   -20455   -22813   -23765   -24911   -19502    -7996     -437 
   -1672    -5352    -4939    -2052     -332     -666    -2729    -5869 
  -10909   -15764   -14149    -7503    -3821    -3037     1965    12160 
   18693    15587    10624    15723    31625    47113    50511    41212 
   28323    17749     5891    -7840    -8877    15490    51414    66638 
   43943    -2501   -45380   -64881   -55441   -27939     -365    14769 
   16121    10744     1094   -15986   -38534   -56338   -56335   -37435 
  -13144     4648    11130     6987     -560    -4064    -3098     -946 
    4017    14539    24433    26936    23726    14430    -4461   -25691 
  -33542   -20898     2488    17718    15807    10243    20506    43861 
   60012    59584    51399    45982    42662    35792    27237    22769 
   20806    15530     6578    -2546    -8529   -11545   -19881   -37293 
  -49407   -38114    -3559    32533    47100    37389    16603     1699 
    6748    26408    36671    28510    17988    19877    32368    41342 
   34491    15581    -3369   -18161   -30447   -38807   -38250   -26330 
   -7673     6226     2829   -19133   -44886   -54677   -41688   -22130 
  -16592   -19850    -8160    23544    53360    64913    63214    58324 
   57654    63335    67045    60234    43553    23433     6219    -4927 
  -10994   -19728   -37307   -55432   -62004   -55472   -41739   -30944 
  -30619   -32606   -22420    -1723    15060    19300    13477     5741 
    2388     3896     6655     6910     4415     -378    -6815    -6377 
    7056    21130    19581     3898    -8561    -4113    11368    20938 
   16946     7596     4661     7233     6292      -23    -8154   -16027 
  -22311   -23557   -15452    -4450    -4444   -13527   -17038    -9297 
    2417     6482      526    -4326      294     8646    11986     9587 
    1534   -13024   -24815   -24255   -15790    -4876     7778    18931 
   27531    32229    29871    26991    30747    36155    38086    37141 
   35563    38195    43719    39607    19908    -5123   -23248   -30009 
  -25029   -10692     3819     6837    -3538   -17999   -23448   -13798 
    -430     4205     7978    19446    28156    23706    13054     9640 
   13703    12864     2170   -11025   -17616   -13641    -5548    -3078 
   -6797   -13980   -25369   -37882   -41296   -27648    -3269    12125 
    5184   -15155   -28513   -24525   -12706    -9298   -10208      938 
   20973    35934    42429    40689    32540    26754    29068    36960 
   45036    46276    40139    35954    36877    36818    32949    28169 
   25895    23322    14386     1979    -4834     -691    14719    33351 
   42368    36848    19800     1780     -538    12568    21502    15735 
    -241   -16875   -25447   -23868   -11703    11392    35932    45819 
   33813    10736    -1742     7411    26411    36273    33203    26565 
   22644    19127    10623    -2162   -10968    -9063     2617    14894 
   17821    12873     9217     9491     7753     -999   -11827   -11308 
    6447    27480    32791    21397     8472     6713    13514    17027 
   14204     9776     2924    -7447   -15034   -14208    -8171    -4729 
   -4729    -1413     6898    13200    12708     9869    11923    19649 
   26908    26774    17690     3909    -7531    -8612      901     8239 
    4622    -3819    -9478   -10944    -9676    -9617   -13011   -16178 
  -14690    -8776    -2911    -1682    -2559     2820    13794    18438 
   12673     6717     9532    18252    23093    19772    14813    12739 
    6673    -7307   -18247   -15649    -5404     1475     2416      143 
     274     5861    11615    14377    15479    12640     7011     6212 
   12703    19622    19396    14820    16503    25994    31693    25285 
   11284     -803    -4669      538    10467    18852    22288    22769 
   23994    25944    24891    17281     5678    -3397    -9753   -16695 
  -22088   -21411   -13329    -2160     3677      234    -8286   -14181 
  -10295     2830    13605    13320     7603     6054     9798    13217 
   10258     1773    -2895      495     6767    13294    19774    23031 
   21709    18272    15418    12334     5840    -3073    -8093    -4033 
    6839    14022     9468     -101    -2505     1941     4581     2701 
    -307    -2201    -2781    -1740      540     2170      992    -2658 
   -5358    -6049    -8506   -12997   -12634    -4379     4553     5476 
     890     2253    10532    14580     9757      533    -5638    -1695 
    9780    17500    16814    13251    11146     8995     3103    -7647 
  -16157   -13266    -2018     5942     6241     3232     -639    -5968 
  -10212   -11074   -11388   -15156   -23689   -33900   -38519   -33238 
  -23206   -18453   -22192   -26622   -23899   -16278   -10277    -7168 
   -3349     2079     5242     5611     7210    10868    12748     8359 
   -1410    -8176    -5853     1554     6841     6902     1197    -8428 
  -16840   -19263   -13435    -1178     9306    10644     5076    -1252 
   -6594   -12016   -17502   -20331   -17288    -9911    -4828    -6909 
  -10833    -4677    13088    30207    36720    32800    23280    13528 
    5760    -1300    -4270     2390    13686    18019    10050    -4932 
  -15124   -14770    -9664    -6583    -5471    -1878     7030    16980 
   20169    15033     7450     4438     7651    11871    11784     7817 
    5437    10238    20790    28769    28031    19333     8136     1927 
    3738     7595     8209     7492     6899     4777     -982   -10057 
  -15886   -13486    -8240    -7852   -11206   -10824    -5049     -317 
   -1521    -8098   -15741   -19518   -18254   -13564    -8156    -6640 
  -10311   -14284   -15336   -13994    -9435    -1929     4595     6902 
    4190    -2300    -7750    -6743      791     9867    14601    10962 
     429    -8431    -7848     -346     4928     3917      838     1850 
    8087    13649    11929     4398     -719     1591     8743    14288 
   12788     5121    -1429    -2592     -751     1393     2648     1645 
   -1425    -4414    -4752     -228     7082     8900      741    -9690 
  -12486    -8071    -2731      901     3420     4785     3574     -467 
   -3102       64     6924    11496     9918     3825     -954    -1204 
     773     1845     2273     2687      884    -4045    -9344   -10625 
