Origin Time       2016/04/16 01:25:00
Lat.              32.753
Long.             130.762
Depth. (km)       12
Mag.              7.3
Station Code      MYZ009
Station Lat.      32.0461
Station Long.     130.8110
Station Height(m) 230
Record Time       2016/04/16 01:25:21
Sampling Freq(Hz) 100Hz
Duration Time(s)  167
Dir.              N-S
Scale Factor      7845(gal)/8223790
Max. Acc. (gal)   75.450
Last Correction   2016/04/16 01:25:21
Memo.             
[...]
    9514     9491     9472     9501     9522     9499     9460     9460 
    9499     9514     9502     9501     9495     9481     9481     9495 
    9497     9497     9509     9508     9483     9472     9486     9512 
    9525     9504     9477     9481     9493     9497     9491     9486 
    9497     9518     9513     9489     9479     9486     9483     9474 
    9486     9501     9499     9497     9502     9490     9467     9467 
    9499     9521     9501     9471     9477     9505     9512     9504 
    9497     9490     9487     9494     9502     9509     9506     9489 
    9482     9495     9497     9490     9497     9495     9486     9499 
    9514     9505     9486     9475     9483     9499     9497     9486 
    9485     9490     9486     9471     9477     9502     9506     9491 
    9494     9502     9489     9475     9485     9493     9489     9477 
    9468     9489     9495     9460     9428     9420     9433     9445 
    9441     9454     9471     9454     9406     9350     9337     9375 
    9417     9466     9495     9481     9466     9485     9510     9512 
    9489     9487     9506     9517     9539     9580     9625     9636 
    9590     9512     9460     9454     9471     9475     9479     9529 
    9599     9596     9510     9409     9344     9381     9509     9629 
    9722     9802     9846     9917    10048    10133    10084     9956 
    9867     9829     9705     9464     9317     9387     9526     9518 
    9354     9208     9150     9053     8896     8851     8842     8594 
    8187     7928     7796     7659     7677     7901     8039     7925 
    7707     7711     8247     9162     9715     9385     8658     8367 
    8638     9238    10052    10729    10818    10462    10316    10592 
   10866    11029    11302    11583    11745    11651    11033    10017 
    9246     9167     9428     9432     9211     9058     8837     8378 
    8187     9024    10559    11410    10720     9049     7989     8712 
   10739    12799    14007    13944    12842    11465    10465    10179 
   10578    11253    11765    11862    11365    10287     9099     8665 
    9526    11082    11873    10966     8951     7179     6081     5418 
    5395     6232     7553     8160     6762     4101     2751     4159 
    7153     9196     8869     7088     5914     6222     7153     8033 
    8822     8999     8109     6609     5486     5506     6804     8849 
   10542    10922     9888     8106     6828     7109     8577     9860 
   10258    10299    10625    10940    10851    11254    13099    15583 
   17230    17587    16872    15238    13209    11765    11168    10551 
    9533     9502    11449    13051    11335     7935     7323    10316 
   13505    13834    10963     7242     5475     5597     6066     6974 
    8398     8958     7767     5381     3481     3680     5414     6852 
    7528     7767     6886     4540     2839     4615     9602    13738 
   13397     9417     5667     5206     8110    12151    15566    17469 
   15934     9568     1567    -1914      965     5609     7798     8148 
    8337     8645     9135     8881     6713     4735     6598    11635 
   14889    13844    11650    11443    12179    12621    13740    15680 
   16278    14075    10532     7986     8064    11171    14388    14025 
   10628     6605     2772      -58     -912      500     3951     8033 
   10781    10519     6995     3232     1968     1642      922     1831 
    4826     7643     9765    11803    12240     9281     4899     4318 
    9899    17462    21293    21192    21927    25690    26870    18943 
    5998    -1379     1314    10709    19327    21424    18804    15801 
   11755     4135    -4484    -7665    -3956     1094     3474     4606 
    6201     7340     7267     7001     7365     8372    11389    17344 
   22461    21658    15002     7778     5702     8197     8545     4199 
    -289    -1606     -715     1252     4330     7358     7051      506 
  -10017   -17517   -17986   -12143    -2781     4606     6624     3870 
   -2934    -8530    -5659     3785    12841    18107    19437    18893 
   17952    15178    11053     9936    12931    15384    15650    18544 
   25729    32042    33572    31752    30573    31930    31477    23434 
   10168      627      441     7720    16426    20653    18272    12498 
    6629     1757      928     5544    12118    16467    15541    11942 
   12009    13770    10426     2477    -2091     3555    15255    21667 
   18806    13427    13171    16735    16802    10777     3145    -2303 
   -7148   -10854    -7723     3187    15075    21307    21404    18679 
   13964     7650     4248     5996     8365     7893     6397     7813 
   15885    26943    29704    22257    15917    18773    27355    31870 
   25925    14025     6234     6913    13275    18808    18424    13946 
   10525    10747    12735    12036     8625     6525     6828     9863 
   17122    25947    30203    26090    14845     2740    -1914     5024 
   18665    28246    27352    18868     9069     1321    -3451    -5036 
   -3227     3284    14046    22806    22111    11913     -855   -10762 
  -18218   -23935   -23611   -14704    -3770     -321    -6158   -14161 
  -17128   -14230    -9801    -8803   -12214   -16954   -17587    -8627 
   10050    32088    47960    49003    36687    23846    18027    16914 
   19116    21828    20401    15114     8955     6139     6431     3024 
   -3443    -4851      322     4777      767   -10323   -19244   -20386 
  -15326    -6795     1547     3331    -1467    -5162    -6141    -8328 
   -9595    -4261     7398    17498    19512    16888    17851    23961 
   28505    25752    18463    15219    19931    26013    25965    21706 
   20294    25003    31494    31691    23202    10650    -2425   -14149 
  -18243    -9288     6786    18216    20729    17282    11275     6593 
    6832    10808    13084     9238     1613    -1833     3234    13697 
   22423    23901    19473    14762    12938    13166    13921    14461 
   11708     4820     2879    12579    25555    31143    29440    27303 
   28961    31723    31631    29047    25239    18662     8349    -1682 
   -5620    -2290     4205     9837    14353    18662    21339    19612 
   12855     4519     -761    -2327    -2234     -876     2128     5601 
    7294     6731     4228    -2716   -13203   -18716   -15179    -8235 
   -2350     3383    10517    16540    15300     7512     2471     5060 
   11635    17073    19853    21222    21157    18802    16625    18765 
   26030    35039    40506    39101    31675    22025    14030     8530 
    4225     -243    -5093    -6304     -162     8696    11916     6897 
    -756    -3748    -1732      727      160    -4527   -10696   -12413 
   -5204     8606    21344    28013    28760    26553    25444    26234 
   27105    28024    28902    29058    27924    24850    21841    20979 
   20179    15873     6824    -4159   -11369   -11001    -4677     2755 
    6985     5169    -2088    -8646    -8376    -2533     2911     4152 
    1606    -2361    -7306   -12923   -14786    -9471    -1057     3167 
    2525     4855    14901    25033    23734    11028     -261      754 
   11723    21458    22728    17057     6856    -6139   -14412   -10612 
    1509     9499     5994    -3439    -9786    -9636    -2817     7688 
   15145    16157    14057    12513    12191    14255    19893    26131 
   28192    24793    18064    11591     9599    14030    21559    26862 
   28144    26446    21231    11607     2073      517     8914    20042 
   25193    23346    18314    10989     1737    -5698    -8295    -6415 
   -1904     3355     8853    14675    18828    18871    15294    10908 
    8229     8007     9009     8969     7979     9250    13439    17050 
   17763    15886    12056     6924     2724     3472     9804    14823 
   11874     3665    -3948    -9417   -11022    -7400    -2636      108 
    2978     5522     3676    -1975    -6343    -5046     3001    13454 
   20464    23090    23656    23168    21810    21054    21898    23556 
   24489    21493    12009     -658    -8648    -5837     5501    14746 
   14416     6957    -1925    -9328   -13312    -9994     1985    15927 
   22006    17066     7411     1386     1528     5572    10046    12622 
   13568    12850     8437      317    -6367    -5382     2625    10762 
   14654    15391    13886     7497    -2479    -6866       23    13317 
   24177    27888    25936    20503    12008     4415     3942    10055 
   15654    16627    14189    10793    10795    18657    30604    37377 
   36115    28742    15792      788    -8229    -5159     8236    22740 
   30902    31824    26410    17913    11774     8677     6023     4382 
    6806    12946    16573    11821     -692   -13155   -16001    -9705 
   -3036     1133     4415     5393     4261     4789     9486    17764 
   25002    24680    15753     4336    -2648    -3191      263     6234 
   14094    19826    19631    14122     7209     3424     4132     8329 
   14787    20182    21428    19805    17944    15611    11986     8750 
    8252    10513    12471    11345     9201     9988    12607    13019 
   11573    11349    12301    12650    12373    11503     8029     1822 
   -1863     2659    13778    22520    21910    14895     9387     8367 
   10193    13780    18623    24466    30588    32235    23521     7015 
   -5297    -5312     1161     4104     2184       25      548     2736 
    3812     2751     1192     1185     2910     4475     3242    -1328 
   -6660   -10469   -12426   -13427   -14612   -14008    -7958     1965 
   10061    13605    15010    17656    20713    21315    20116    19106 
   17024    12415     7233     3678     2359     4199     9192    14184 
   15622    13304     9416     5764     4405     7819    13693    15616 
   12586     9804    11070    16090    22682    28035    28223    21052 
   10817     4986     5656     9225    13020    16405    18117    18003 
   17707    17859    18222    18481    17212    12973     6785     1426 
   -2189    -5634    -9428   -11435    -9140    -2403     5868    11207 
    9942     2303    -5991    -8090    -2613     5113     7896     2740 
   -8696   -22762   -33345   -34258   -23897    -6787     7562    12425 
    9776     5127     2590     3361     4814     4905     4963     5964 
    7358     8293     7987     8064    11221    16656    21131    22203 
   19723    16491    15026    14931    15801    17995    20385    21447 
   20822    19809    19692    19467    19032    18987    16602    10909 
    6208     5460     6520     5597     3169     4248    10239    16453 
   19886    22868    27068    30372    32113    33488    33161    29820 
   24605    17940     9832     2893     1139     5613    12519    17856 
   21726    25280    28382    31737    36292    41223    43857    40990 
   32999    24896    20399    18454    16636    14261    11861     9829 
    7758     5599     5031     7335    10797    11729     7236    -1944 
  -11084   -15988   -15596   -10709    -3569     3477     9055    12568 
   14904    17069    17949    15269     9132     3271      761     1553 
    4715     9031    13914    18971    21097    17922    10722     2393 
   -1992      526     5826     8476     6369      816    -3793    -4956 
   -4245    -3705    -4907    -9224   -16029   -22484   -26596   -28792 
  -29292   -26310   -17537    -2412    16160    31749    37519    32653 
   23545    15384     9119     6064     6528     8073     8291     6046 
    2126    -1718    -3298      184     7668    14412    18734    23022 
   28692    33511    35891    37951    40238    39058    31649    19643 
    6864    -2902    -5877    -1587     5371    11105    15060    17779 
   19357    17905    13481    11749    16754    25501    32058    33103 
   31338    32179    37640    47034    57480    63481    61942    54089 
   42047    27905    15315     8560     8129     9609     7846      446 
  -10837   -21304   -26893   -26576   -23101   -20942   -21907   -25195 
  -29177   -30748   -28671   -25748   -22681   -15684    -2188    15101 
   28367    31437    28252    27627    33129    44062    56905    65245 
   65581    58351    45869    33465    24742    17826     9207    -2980 
  -16112   -24826   -27978   -28313   -26954   -21620    -9306     9946 
   31214    45218    45554    38385    35527    37350    35603    26580 
   11499    -3597   -10324    -7921    -1869     3474     6552     8064 
    7796     4631      459     -888     1922     6197     7799     4693 
   -1840    -8579   -13398   -17199   -20731   -21066   -15303    -4546 
    7890    18017    21012    13887      128   -12282   -19180   -21902 
  -21652   -17568    -9051     2782    15226    26991    36417    37269 
   30235    26254    27418    28252    28138    25108    21065    25884 
   39596    53449    61338    59103    48062    33743    19928     9383 
    4222     6006    13737    20957    20889    12903     1571    -8039 
  -13363   -13792    -9821    -4622    -3114    -6409   -10489   -10550 
   -4734     3042     5208     -888    -9493   -12312    -4768    11772 
   31047    46657    57591    64972    65308    55769    40190    23917 
    9537    -2064   -10868   -17221   -20911   -21344   -18904   -15358 
  -11828    -8179    -4527    -1699    -2365    -9429   -21014   -31938 
  -39372   -43278   -45209   -47058   -45517   -31163      -93    35240 
   54492    52903    47016    50171    58459    64561    64913    57593 
   46211    36023    27048    17716     9459     6546    11455    20436 
   26524    26380    22516    17581     9544    -5143   -26558   -49333 
  -65281   -69603   -63794   -51200   -33721   -14652     2687    19192 
   35473    45886    45947    42577    44068    47476    47171    40740 
   26424     6577   -10872   -15504    -5235     9711    21945    30468 
   33038    27044    12001    -7785   -23930   -31392   -32730   -32671 
  -31804   -28625   -23618   -19506   -18948   -21957   -24167   -18693 
   -4003    13601    26606    30796    28513    26095    23699    19155 
   15599    14245    15364    22372    33440    41617    42103    34099 
   20133     4220    -8634   -13988   -12587    -9364    -5702      820 
    8982    13440     9745    -2797   -19446   -31288   -32640   -27159 
  -23288   -24360   -22623    -6945    18415    38001    47409    52313 
   57888    64130    65658    59892    46368    27587    13521    11303 
   17432    20204    12183       18    -7010    -5852     2597    13954 
   22916    25609    19718     6003    -9740   -18090   -12453     5181 
   24810    36433    37293    30825    23152    21001    28406    42093 
   53678    57978    55366    48435    38653    27383    19418    19055 
   24541    31414    37810    43167    44393    38794    29096    20814 
   17925    20722    24021    21517    11853    -1965   -14199   -18611 
  -13737    -2583    12314    27163    34709    30343    16556      766 
   -9652   -11911    -8035    -2389      818     -486    -5196    -9208 
   -8035    -1325     5902     7736     2212    -7425   -16459   -23530 
  -29587   -34784   -38057   -37928   -34555   -30547   -28522   -28923 
  -28709   -21685    -4793    16081    30597    33174    27487    21475 
   18243    15979    13463    11117     9136     6328     2442       41 
     980     3713     5464     4695     2168     -263    -2525    -4712 
   -3376     5158    17205    22420    14721     -680   -13883   -21277 
  -26495   -32093   -35685   -34807   -30159   -24147   -18851   -13417 
   -4949     7912    24043    37407    39105    30360    21702    16048 
   10561     7978    11685    20016    27811    29713    25986    21386 
   18686    18400    20592    25134    30711    34364    34377    31828 
   30451    34382    41563    43036    31218     7948   -13676   -20403 
  -12945    -2403     2319     -684    -6723    -9262    -6928    -3250 
    -976     1273     7230    17689    26967    27333    18939     9262 
    3045     1359     4263     9024    13516    18324    22210    23252 
   21887    18378    13093     8100     5622     7630    13263    17564 
   17338    13008     6912     3345     3838     5414     6097     5694 
    4098     2694     3030     3815     2868      639     -164     3034 
   10879    20696    26827    24799    15574     4727    -2077    -2211 
    4041    14107    23881    29285    27664    19518     8364    -2121 
   -9396   -12154   -10808    -6285      715     8291    13355    14270 
   12964    13710    19118    27336    34200    37917    39271    38940 
   37442    35823    34753    33876    32740    31453    30861    31760 
   33434    35248    38227    43052    48655    52809    53265    48969 
   40645    30447    19893     8702    -2820   -12302   -17031   -17394 
  -18516   -25084   -35144   -41681   -38665   -24102    -1201    20390 
   30141    26703    17653    10129     6876     8408    13128    16777 
   15832    11145     6768     5377     5540     4044     -421    -7172 
  -14985   -22206   -27067   -28845   -28567   -28246   -30022   -35658 
  -44031   -50279   -50161   -43109   -29583    -8885    16445    36109 
   39083    27236    15075    12657    15560    15151    10948     7754 
    7825    11124    15503    15653     9934     2803    -2025    -4340 
   -6721   -10821   -14395   -15646   -13834    -7056     4191    15206 
   20834    21066    21575    26134    33486    42002    50488    57893 
   64967    71483    74397    71169    60801    43610    23421     5992 
   -3468     -950    11265    24417    31679    31540    26170    19953 
   16394    16249    18645    22157    25324    26574    24730    20453 
   16128    14810    18025    24624    33093    42573    51216    55817 
   53836    45667    34796    24968    17824    12769     7461      522 
   -7001   -13409   -17559   -20530   -24830   -30942   -37928   -44412 
  -48141   -48305   -45269   -38288   -28282   -18608   -10979    -5445 
   -1656     2110     8401    18740    31658    43316    50163    49897 
   42828    32069    21084    13068     9223     7160     4864     2366 
    -685    -4866   -10034   -14296   -14278    -9435    -3450      -62 
     153    -1367    -3908    -7340    -9917    -9278    -5431     -818 
    1803     2994     5545     9616    15080    22137    27873    30223 
   30345    29659    29421    30036    30978    31930    32190    31425 
   29560    25874    20598    15473    11584     8262     4525      276 
   -3419    -5305    -5443    -5231    -6558    -8883    -8328    -2562 
    7283    17972    24910    25859    22261    16100     8016    -3088 
  -16302   -26381   -30034   -28597   -23641   -15777    -6482      927 
    3399     1833     -217     -918     -144     2397     6137     9435 
   11149    11017    10392    11716    16193    22513    27278    28706 
   28236    27141    25548    23282    20243    16983    14203    12907 
   13693    14893    13971     9362     1221    -7761   -14899   -19823 
  -22096   -20711   -16216   -10138    -4225      989     6502    11294 
   14058    16487    20428    26053    31734    35510    37816    39557 
   40225    39459    37272    34194    31117    28020    24466    19175 
   10423       16    -7712   -11209   -12043   -12287   -12752   -12316 
   -9787    -5177     1198     7703    12046    14577    17073    19491 
   20714    21321    22997    26314    31265    37360    42763    45496 
   44469    39310    30738    20760    12873    10788    14719    21028 
   26076    28516    28763    27199    23809    19769    16892    15714 
