Origin Time       2016/04/16 01:25:00
Lat.              32.753
Long.             130.762
Depth. (km)       12
Mag.              7.3
Station Code      MYZ010
Station Lat.      31.9968
Station Long.     130.9721
Station Height(m) 207
Record Time       2016/04/16 01:25:21
Sampling Freq(Hz) 100Hz
Duration Time(s)  239
Dir.              N-S
Scale Factor      7845(gal)/8223790
Max. Acc. (gal)   49.879
Last Correction   2016/04/16 01:25:21
Memo.             
[...]
   -2659    -3109    -3303    -2953    -2177    -1710    -2004    -2633 
   -2903    -2535    -1680     -804     -434     -697    -1337    -2126 
   -2785    -2820    -2069    -1053     -225      589     1491     2012 
    1822     1291      880      522      121      -93        4      175 
       9     -571    -1009     -708      199      835      410     -966 
   -2511    -3478    -3585    -3053    -2284    -1533     -966     -850 
   -1463    -2577    -3148    -2389    -1039     -454     -949    -1800 
   -2234    -2169    -2083    -2207    -2343    -2282    -1933    -1360 
    -940    -1228    -2262    -3424    -4393    -5281    -5689    -4986 
   -3515    -2559    -2697    -3088    -3001    -2745    -2640    -2346 
   -1714    -1336    -1637    -2277    -2811    -3129    -3196    -2828 
   -1890     -653      425     1007      753     -502    -2296    -3717 
   -4064    -3208    -1675     -353      303      449      278      268 
    1165     2485     2492      496    -2226    -3856    -3503    -1638 
     553     2043     2511     2288     1420     -373    -2450    -3284 
   -2091      294     2133     1956     -375    -3375    -5312    -5667 
   -4870    -3563    -2273    -1258     -807    -1586    -3854    -6365 
   -7111    -5331    -2284     -276     -575    -2143    -3132    -2893 
   -1830     -475      387     -355    -2816    -5302    -5818    -3855 
    -652     1810     2551     2235     1498     -148    -2902    -5425 
   -6114    -4953    -3161    -1614     -503      -40     -535    -1723 
   -3048    -4535    -6322    -7996    -9211    -9825    -9294    -7470 
   -5632    -4521    -2914        9     3253     5459     6096     5440 
    4074     2708     2038     2286     3068     3684     3569     2570 
     568    -2259    -4882    -6308    -6278    -4941    -2799     -868 
    -537    -2335    -4708    -5217    -3187    -1020    -1956    -6207 
  -11032   -13883   -13347    -9097    -2840     2708     6123     7051 
    4839     -710    -7034   -10156    -8918    -4807      341     4452 
    6266     6251     6118     8017    11190    10594     3596    -4442 
   -6673    -3828    -1926    -4342    -8961   -11211    -9586    -7071 
   -6372    -6424    -4748    -1479      540     -741    -5246   -11832 
  -17579   -18126   -11369      297    11603    18198    18850    14195 
    5405    -5355   -13618   -14058    -6008     5541    14905    18090 
   13446     3109    -7543   -13497   -14575   -14053   -12864    -9585 
   -5113    -3206    -6026   -12028   -17855   -20437   -18351   -11061 
     288    10808    15553    14274    10296     6115     2176       40 
    1696     4869     4882     1761     -324      449     2792     5665 
    8449     8808     4491    -2295    -6751    -7168    -5478    -3730 
   -1586     2081     5337     5004     1821    -1192    -2821    -3917 
   -5462    -5875    -2937     1814     5555     8108     9109     5393 
   -3873   -13026   -15507   -10551    -1769     7479    14407    15866 
   10885     2288    -5189    -7716    -4395     2857    10361    13517 
    9589       70   -10263   -16081   -15870   -13015    -9991    -6361 
   -3840    -6976   -16510   -26485   -30442   -26175   -14990    -1182 
   10160    16431    17663    16222    15762    17067    17575    16054 
   13201     9321     4409    -2061    -9605   -14000   -11488    -4151 
    3028     6485     4622    -2062   -10323   -14305    -9826      622 
    9660    11661     7419     1316    -3925    -6623    -5352     -153 
    7307    13567    15064    10476     1366    -8189   -13738   -12622 
   -5439     2182     2459    -6782   -19896   -29228   -30038   -20504 
   -2319    16945    27818    27010    18308     7002    -3693   -11365 
  -14002   -12729   -11425   -12650   -15353   -17120   -17388   -16725 
  -15464   -13882   -11704    -9317    -8459    -8540    -6430     -838 
    7634    16800    21442    17194     4772   -10285   -20607   -22767 
  -18756   -11973    -5647    -2258    -2336    -4556    -6539    -6562 
   -4727    -1580     3319     9369    12974    11011     4779    -2141 
   -7705   -10258    -7380      191     7659    11308    11153     8378 
    3253    -3165    -7264    -5134     3379    14035    21721    23630 
   19712    12010     3899    -1661    -3746    -3192    -1728     -881 
   -1534    -4738   -10050   -13343   -10435    -3060     1975      351 
   -5691   -11134   -12791   -10154    -4537     2062     8100    12626 
   14631    13400     9383     3796    -1810    -5701    -6625    -4256 
      47     3734     5670     7096     9369    11009     8527     1031 
   -8743   -17705   -23897   -26482   -25711   -21706   -14250    -4577 
    4603    10766    12291     9369     4035    -1773    -6605    -9027 
   -8464    -4968      834     6407     8413     6154     2533      830 
    1691     3634     4518     2695    -1729    -6825   -10655   -13227 
  -15217   -15433   -12094    -5917       -8     2857     1999    -1591 
   -6351   -10679   -13186   -13258   -11068    -7260    -3100      131 
    2394     5089     9028    13172    16774    19934    21911    21385 
   17710    12124     7339     4641     3287     2789     2524      552 
   -4687   -12492   -20073   -24831   -25929   -23310   -17405   -10206 
   -4623    -2110    -2185    -3568    -4360    -3121      212     5157 
   10492    14146    14945    13343    10561     8102     6656     5590 
    4374     2717      295    -2220    -3776    -4155    -3419    -1857 
    -584    -1077    -3975    -8497   -13030   -16047   -16761   -15398 
  -14060   -15167   -16957   -16121   -13784   -11776    -8525    -3202 
    2245     5486     5610     3936     2635     2358     2350     2890 
    5656    10083    13236    14139    13942    13238    11728     9225 
    5996     1773    -4102   -10478   -14273   -14071   -11848    -9852 
   -7873    -4509       37     3573     4565     4025     3852     3438 
     471    -4677    -9412   -12484   -13383   -10573    -3565     4777 
   10582    12155    10245     7117     4303     1151    -3241    -8322 
  -12536   -14439   -13036    -8137    -1583     3568     5235     3056 
   -1692    -7074   -11109   -12613   -12445   -11635    -9659    -6038 
   -2062     -476    -2435    -4923    -3234     2905     7650     5979 
    -718    -8128   -13829   -16817   -15525    -9027      764     9555 
   12610     7636    -3173   -15597   -26291   -31703   -28516   -17550 
   -3965     6332     9529     5462    -1977    -6762    -5268     2130 
   13297    24429    31747    33816    29617    19379     6735    -3325 
   -7134    -4009     4336    15187    24621    28684    25512    16183 
    4622    -4622    -9229    -9089    -5530    -1858     -924    -1772 
   -2797    -4741    -7847   -10654   -11033    -7593    -2085     2114 
    3535     2293    -1405    -6929   -12325   -14909   -13913   -11524 
   -9958    -9649   -10488   -12307   -15041   -18268   -20131   -18565 
  -12837    -3943     5339    12187    14987    13151     8394     4326 
    2667     2731     3936     5856     7742     8863     8230     4916 
   -1377    -9644   -16869   -19772   -17922   -14021   -10534    -7994 
   -6686    -6932    -8870   -13119   -18824   -22956   -23552   -20636 
  -14673    -6677     1113     6355     8991    11018    13887    16819 
   17166    13956    10021     8692    10902    15418    19930    22833 
   23307    19711    11713     2762    -4140    -9504   -13803   -16114 
  -16740   -17726   -20367   -23712   -25539   -23490   -17239    -9331 
   -2763     -257    -2403    -5618    -7084    -7322    -6404    -4035 
   -1101     1540     2982     2671     1378       99     -164     1206 
    2963     2752     -233    -3975    -5509    -3102     2781     8937 
   12055    11180     6548     -733    -8861   -16525   -21980   -22680 
  -18107   -11230    -5944    -4120    -4804    -5759    -5660    -3554 
    1833     9855    17104    19863    16645     9259     1360    -4660 
   -8313    -8645    -5112     -890      506     -338    -1742    -2990 
   -3649    -4017    -4052    -2922     -480     2586     5391     7149 
    7827     8421     9424     9439     6605     1310    -3993    -7819 
  -10362   -11547   -11029    -9787    -9070    -8549    -7431    -4923 
    -274     5138     8515     8820     6939     4014     1663     1402 
    2330     2498     1119    -1719    -4591    -5557    -2859     5244 
   16845    25818    28113    23918    14577     2381    -9135   -16649 
  -17786   -13158    -6473     -430     4199     6772     7319     6856 
    6266     5778     4548     1375    -3169    -7176   -10215   -13390 
  -16525   -18014   -16968   -13518    -9134    -6705    -7723   -10400 
  -11689   -10385    -7855    -5732    -4333    -3535    -2967    -1985 
    -278     1884     3580     3971     2502    -1416    -7194   -12448 
  -14050   -10692    -4390     1237     2509    -1954    -9470   -16490 
  -20430   -19093   -12753    -5103      575     4687     8306    10007 
    8795     6631     6583     9576    13555    16599    18493    19190 
   18247    15304    10866     6569     3678     1875      302    -1356 
   -3609    -6772    -9760   -11468   -11830   -11134   -10187   -10158 
  -11353   -12534   -11934    -9265    -5414     -811     3563     5730 
    4444      -22    -6114   -11777   -15010   -14187    -8673      454 
    9933    16517    19180    17910    13497     7804     1925    -4171 
   -9896   -14154   -16748   -17470   -16133   -14143   -12661   -11384 
   -9790    -7510    -5011    -3010     -866     2731     7992    12876 
   14409    11955     7780     4145     1300    -1228    -2602    -1557 
     897     1937      916     -178     -645     -895     -405      583 
    1080      741    -1282    -5181    -9028   -11225   -11183    -8976 
   -6124    -3680    -1499     -195     -750    -3049    -5354    -5292 
   -2015     3410     9306    14334    17400    17659    15628    13212 
   11920    11914    12016    10565     7758     6305     8561    13686 
   18659    21429    21235    17805    11807     4162    -3856    -9894 
  -12275   -11065    -7678    -4627    -3847    -5408    -8033    -9821 
   -8846    -4464     1601     6612     8527     6404     1953    -1131 
   -1287      429     3038     5798     7203     5757     1394    -3871 
   -7400    -8500    -8189    -7115    -5519    -4074    -3419    -3569 
   -4230    -4725    -4517    -4735    -6921   -10746   -15190   -19623 
  -23051   -25371   -27133   -27032   -23993   -19530   -15310   -11348 
   -7415    -4587    -3959    -4845    -5798    -6115    -5661    -3912 
    -126     5517    11634    16332    18257    16803    12772     8703 
    5925     3805     2768     3643     5568     7577     9540    11280 
   13473    17477    23068    28686    32811    33644    29916    22586 
   14049     5996    -1053    -6922   -11429   -14249   -14666   -12822 
  -10899   -10849   -12285   -13980   -14821   -13895   -12221   -12104 
  -14161   -16791   -17552   -15142   -10646    -6102    -2214     1509 
    4579     5961     6435     7873    11399    16461    21330    25398 
   29331    33023    34838    32840    26987    19047    10508     2255 
   -4220    -6588    -3415     3030     7126     5109    -1501    -9958 
  -20596   -33185   -43258   -46224   -41783   -32833   -23118   -15906 
  -12285   -11457   -11900   -10970    -7132    -1606     4039     8694 
   10673     8062      346    -9856   -17163   -17317   -11020    -1846 
    7727    16113    22299    25740    24684    17691     5975    -8141 
  -22164   -33091   -39457   -41787   -40039   -33388   -21502    -4981 
   13043    26464    29802    22805     9896    -5096   -19184   -26935 
  -23761   -10550     7415    23565    32659    32995    27099    20154 
   16780    18149    21547    23399    22592    18728     9837    -4558 
  -21028   -34384   -40984   -40147   -33385   -23409   -12935    -3499 
    3592     6124     2978    -3770   -10403   -14150   -14274   -11611 
   -7512    -4241    -4218    -8091   -14906   -22789   -28988   -29587 
  -21577    -6704     9046    20115    24302    21139    11018    -2667 
  -14631   -21254   -21232   -14679    -4275     5174    10369    10578 
    6224     -837    -8155   -14898   -19345   -17481    -8279     4956 
   17805    26258    28069    22669    11611     -669    -9994   -14663 
  -14307    -8810      472     9115    12953    12087     9306     6392 
    2739    -2727    -9024   -13479   -14203   -11493    -7657    -6115 
   -9016   -15365   -22931   -30095   -34742   -34221   -27233   -15354 
   -2521     7793    13892    14885    11118     5433     2091     3119 
    6501     9563    12094    14011    13247     8321     1135    -4808 
   -8073    -8431    -5246      599     7160    12509    13366     8094 
     -99    -7314   -12154   -13281    -9328    -1077     9508    19963 
   27232    29408    25852    16829     5316    -3063    -4205     1196 
    9640    17162    19881    16136     7830     -770    -5784    -5686 
   -1314     4581     8756     8595     2887    -6994   -18006   -27067 
  -32057   -32971   -31132   -27953   -25334   -24804   -26373   -29685 
  -34973   -41862   -47880   -49902   -47034   -40945   -33783   -25721 
  -16478    -8256    -2540     2380     7342    11018    13209    15090 
   17389    19780    21000    20318    18052    14339     9936     6893 
    6304     8129    13115    21035    29143    34380    34373    28582 
   20476    14415    10435     6185     2037     -153     -265      688 
    1570     2826     5888     9518    11064     8085    -1892   -17379 
  -32262   -40531   -38489   -25442    -4066    20460    40987    50862 
   48701    38271    24688    13323     8085     9977    17566    26310 
   30707    28244    20250    10121      155    -8795   -14652   -15390 
  -11971    -6717    -1755      604     -423    -3352    -5998    -6775 
   -5594    -3358     -623     2110     3375     2278       10    -2261 
   -4436    -6356    -7391    -6356    -2879     1227     3766     4183 
    2373    -1962    -8177   -15444   -23477   -31329   -36316   -36192 
  -32902   -30261   -29085   -27913   -26192   -25124   -25570   -26161 
  -23904   -17558   -10471    -6411    -5506    -7267   -11888   -17656 
  -21743   -23198   -21636   -16058    -7387     2147    10750    16660 
   19009    18601    16602    13537    10806    10416    11843    12571 
   10956     7140     2556    -2133    -7219   -12128   -15529   -15384 
  -10551    -3167     3776     8842    11438    11306     8615     3998 
   -1509    -6569   -10181   -12272   -13900   -16205   -18168   -17321 
  -12734    -5576     2790    11371    18011    20532    19049    15246 
   11126     7831     5022     2731     1729     1973     2751     3115 
    2639     2322     2683     2899     3013     3769     4818     5536 
    6525     8575    10967    12144    10998     6852     -299    -9270 
  -17841   -23630   -25694   -24584   -20555   -13809    -6174     -621 
    1340      450    -2312    -5945    -8081    -6669    -1883     4298 
    8567     8056     2997    -4132   -11221   -16638   -18544   -16187 
  -10453    -2731     4683     9174    10476    10084     9077     8044 
    7021     5641     4093     3580     5134     7738     9633    10482 
   10552    10289    10544    11502    12764    14311    15803    15846 
   13243     8671     3808     -814    -5670   -10073   -11920   -10539 
   -7586    -5339    -5109    -5803    -5377    -4270    -4360    -5643 
   -6852    -7389    -7730    -8978   -11149   -13027   -14034   -14607 
  -15063   -15272   -15371   -15140   -13513   -10219    -6012    -1902 
    1016     2764     4191     4872     3869     2029     1039     1405 
    2822     4725     6118     6385     5633     4040     1833     -558 
   -2322    -2327     -256     3395     7794    11311    12216     9950 
    5268     -418    -5784    -9541   -10492    -8221    -3319     2758 
    8513    13004    14894    12976     8082     2250    -2957    -6170 
   -6460    -4371    -1927    -1705    -4770    -9536   -13892   -17339 
  -20163   -22018   -22023   -19604   -15084   -10002    -6227    -4469 
   -4282    -4764    -5140    -5387    -5610    -5196    -3102     1356 
    7298    12216    14191    13127    10293     8248     9591    14818 
   22523    30442    35896    36764    32236    23222    12660     4195 
    -344    -1638    -1285     -588     -934    -4051   -10476   -18458 
  -25675   -31174   -34728   -35225   -31700   -25177   -17547   -10154 
   -3674     1842     5802     6999     5424     2584      -25    -2119 
   -3492    -3198     -954     2371     5942     9645    13822    18989 
   24875    29500    30427    26210    16773     3821   -10192   -23822 
  -35746   -44291   -49235   -51077   -49762   -46187   -42434   -39494 
  -36482   -33266   -31120   -30154   -29259   -27147   -23400   -20002 
  -18711   -18569   -18520   -18782   -19300   -19291   -17409   -12217 
   -3978     5585    15211    23348    28178    29293    27081    22690 
   18152    14058     9486     3871    -2616    -8549   -11709   -11473 
   -9113    -5829    -2160      982     2548     2552     1710      912 
    1159     2986     6458    11132    15881    19226    19943    18330 
   15839    13096    10292     8503     8598     9801    11024    12429 
   14373    16519    17616    15487     9983     3878    -1395    -6585 
  -11476   -15488   -19523   -23965   -27529   -29347   -28949   -26001 
  -21888   -18029   -14103    -9304    -3557     1846     5358     6257 
    4677     2001     -207    -1428    -1588     -795      272     1015 
    1873     3268     4203     3565     1746     -233    -1968    -3325 
   -4270    -5358    -7153    -9508   -12019   -13729   -13089    -9979 
   -6411    -3977    -2224     -503     1009     2896     6644    12719 
   19353    23723    24494    22299    18592    15217    13189    11673 
    9984     8513     6574     2724    -2936    -8955   -13745   -16255 
  -16364   -14916   -13286   -12245   -11641   -11550   -12303   -13032 
  -12118    -8607    -2224     5873    12518    14763    12135     6070 
   -1012    -5863    -6196    -2111     5049    13605    21904    28308 
   31261    30697    27988    24507    21006    17699    14995    13250 
   12110    11300    10828     9937     7230     2447    -2768    -6401 
   -7744    -7127    -5026    -2243      -52     -187    -3770    -9175 
  -13844   -17224   -19251   -19299   -17667   -15403   -12833    -9517 
   -5517    -1826      770     2232     2388      934    -1553    -3888 
   -5513    -6460    -6062    -3519       64     2182     1202    -2497 
   -7924   -15124   -22972   -27938   -27882   -23572   -16594    -9155 
   -3730    -1548    -2906    -7103   -11696   -14349   -14374   -11562 
   -6177      195     5733     9174    10192     9794     9104     8692 
    8880     9798    11422    12671    11834     8688     4396      723 
   -1011    -1308     -681     1294     3848     5519     5888     4761 
    2656     1173      193    -1247    -2149    -1945    -1721    -1775 
   -1606    -1074      -75     1448     3084     4180     4148     2826 
     650    -2366    -6693   -11442   -14529   -14825   -13309   -12258 
  -12529   -12954   -12953   -13563   -16015   -20002   -23564   -24968 
  -23957   -20996   -16406   -10527    -4102     1379     4086     3680 
    1181    -2608    -6048    -7006    -5339    -1260     5528    12931 
   18473    22341    24727    24856    22806    19614    16663    15083 
