Origin Time       2016/04/16 01:25:00
Lat.              32.753
Long.             130.762
Depth. (km)       12
Mag.              7.3
Station Code      MYZ003
Station Lat.      32.5659
Station Long.     131.6598
Station Height(m) 7
Record Time       2016/04/16 01:25:21
Sampling Freq(Hz) 100Hz
Duration Time(s)  300
Dir.              N-S
Scale Factor      7845(gal)/8223790
Max. Acc. (gal)   62.089
Last Correction   2016/04/16 01:25:21
Memo.             
[...]
   -9316    -8322    -6988    -5363    -3412    -1505     -660     -993 
   -1310    -1120     -274     1413     2898     3167     2743     2458 
    2162     1071     -797    -2247    -2610    -2249    -1371     -537 
    -461     -707     -851     -797     -449     -739    -2029    -3626 
   -5124    -5420    -4197    -3011    -2636    -3489    -5829    -7952 
   -8363    -7510    -6559    -6407    -6242    -4639    -2322     -387 
    1328     2438     2436     1876      842     -765    -1359      -23 
    1709     2986     3832     3303     1437     -166    -1097    -2698 
   -5302    -7381    -8194    -8171    -7236    -5391    -3682    -2983 
   -2454    -1642    -2000    -3073    -2820    -2168    -2396    -2066 
   -1047    -1603    -4143    -7099    -9629   -10912    -9678    -6119 
   -2018     1472     4332     5649     4783     3237     2092     1069 
      72     -826    -1325     -728     1518     5220     8561     8441 
    4000    -1620    -5516    -7329    -7623    -7843    -8915    -9931 
  -10511   -11253   -11458    -9651    -6193    -2933     -870      289 
    1444     3343     5918     7441     5548     1390    -1436    -1710 
     238     3477     5999     5872     2555    -1645    -4962    -8681 
  -12541   -14200   -13473   -11993   -10057    -7761    -6502    -5647 
   -3219      383     3593     5551     6486     6583     5605     4661 
    3993     1937     -700    -2601    -5441    -8714    -9467    -7892 
   -5374    -2146      969     1846    -1175    -5601    -7649    -7715 
   -7099    -5459    -3362    -1688     -252      811     1387     2667 
    5055     6430     4757     1048    -2687    -6039    -8144    -7711 
   -5413    -2593      306     2863     3519     1509     -773    -1128 
   -1048    -2173    -2385    -1030    -1984    -5606    -8351    -9055 
   -7381    -4433    -2785    -1584      854     3549     4661     3183 
     322    -2538    -5406    -7236    -7441    -7273    -6795    -4654 
    -317     3943     4238      128    -4838    -7354    -6691    -3859 
    -490     1217     1201     1120      491     -838    -2001    -2612 
   -1734     -666    -1024    -1135     -784    -1065    -1425    -2633 
   -5032    -5958    -4572    -3084    -2031        1     2548     4207 
    5144     5293     4256     1408    -3369    -6839    -7917    -9312 
  -10497   -10845   -10797    -8120    -3325      307      885    -1982 
   -5125    -6138    -6615    -6239    -3121     2496     8068    10181 
    8560     5238     2130     2098     4646     6536     7967     8520 
    6135     2301     -261    -2297    -6883   -12735   -15299   -14328 
  -10775    -4348     1699     1996    -4797   -14170   -21343   -25157 
  -24730   -20189   -14986   -10249    -3812     3727    10061    14405 
   17032    18337    18243    17641    16742    13809     9536     6160 
    4217     2766     -105    -4402    -9382   -15361   -19615   -19661 
  -17741   -14970   -11352    -9909   -11277   -12486   -11576    -7252 
     131     7935    12958    12363     8236     6835     9282    10790 
    8340     3528     -271    -2015    -3323    -5063    -6839    -8480 
   -9666    -9254    -7890    -8024    -7581    -3840       83     2917 
    4752     1777    -4877    -9069    -9776    -9684    -9728    -8907 
   -5703      287     7642    12819    12078     6278     -614    -6091 
   -7938    -5764    -2134     1826     5805     9190    12864    16915 
   18652    14053     2825    -9752   -19433   -25772   -28737   -27984 
  -25424   -23195   -20078   -15936   -10779    -3211     3449     7406 
   10558    11078     9374     8151     6710     5364     4953     4360 
    3611     4905     9213    13273    13869    11048     6091     1034 
   -3295    -7026    -9378   -11651   -15169   -16918   -15384   -13654 
  -12370   -10477   -10087   -11754   -12727   -10980    -8382    -9121 
  -12182   -13842   -13833   -11630    -8118    -7570    -8615    -3793 
    7304    17705    24960    29385    30331    28783    24233    19035 
   17435    13839     4306    -4847   -11078   -15012   -15637   -15901 
  -18732   -21717   -23359   -25783   -27849   -27226   -25515   -22848 
  -19602   -17240   -12042    -3341     4055    10797    18578    25701 
   31471    33102    28950    23852    20027    14877     9562     5790 
    1084    -4218    -7704   -10925   -13227    -9659     -766     4564 
     430    -8251   -15709   -22129   -26952   -27179   -22380   -16275 
  -10925    -5313     -896     1917     4024     3048     -460    -3123 
   -3927    -3192    -2115      128     3281     3342     1486     1117 
     425    -2359    -5528    -4048     5301    17128    24065    23475 
   15903     5575    -3534   -10941   -15828   -18322   -19923   -20679 
  -20475   -19234   -17446   -16058   -14193   -11368    -9371    -9451 
   -9794    -7388    -2276     3117     6702     6982     3983    -1048 
   -6272    -8846    -6770     -121     8563    15688    20214    21173 
   15456     5175    -1907    -4220    -6563    -8857    -8186    -6075 
   -4212    -1576     1117     1182     -901    -3241    -7985   -14909 
  -18149   -16480   -13629   -10417    -8228   -10532   -14262   -12904 
   -6438     2415    12216    20318    23421    20156    13728     7651 
    1375    -2355      911     6367     6285     1394    -3173    -6127 
   -8433    -9447   -10164   -12411   -14879   -15854   -14627   -11153 
   -6035     -508     2254     2358     3707     4977     4776     7263 
   11358    11696     8815     5265      652    -5671   -10995   -11062 
   -8171    -7094    -6035    -5271    -7874    -9806    -8857    -8874 
   -9169    -7364    -5097    -3186     -873     1593     3645     4136 
    2733     1013     -810    -1804      693     4225     4401     1995 
   -1302    -4768    -7668   -11607   -16182   -18234   -18454   -17388 
  -13150    -7369    -3025    -1402    -1408     -533    -1154    -5213 
   -7188    -4635     -246     5814    10916    11842    12143    12829 
   11029     8430     6484     5398     4797      -68    -8252   -13944 
  -19122   -24004   -24344   -22253   -19718   -16035   -12293    -8073 
   -3273      758     2855     2428     2938     6945    11449    13598 
   13780    14466    15822    16293    15816    11646     4079     -874 
   -3134    -5186    -5935    -5628    -4849    -4716    -7797   -12478 
  -15736   -18395   -18974   -14671    -9596    -7368    -4535     -148 
    2385     2529     1132    -1314    -2289      241     4961     8472 
    9054     8681     7740     3784    -2254    -7288   -10288   -11148 
   -8957    -4186     -834     -105      648     -332    -6070   -14535 
  -20919   -21679   -18050   -12122    -3440     3730     4225     2068 
    1393      783     1202     2284      504    -1421      120     2579 
    4401     5197     4297     3836     3241      622     -793      903 
    4183     7391     7211     2501    -2681    -5043    -5647    -5235 
   -2938    -1949    -5599   -10712   -12861   -10764    -7083    -5902 
   -6052    -4641    -3350    -4095    -5175    -3123     2774     8023 
    7931     2532    -2636    -1270     5290    11415    14492    13633 
    9336     2863    -4189    -9104   -11809   -13702   -14744   -16528 
  -18929   -17795   -12182    -5420     -546      990     -689    -4870 
   -9807   -11898    -8586    -1780     3354     4417     3524     1949 
    -136     -369     3134     8612    11453     9648     7299     7132 
    7115     6420     5265     3442      846    -3566    -9679   -15618 
  -18077   -15078   -11375   -10465    -9864    -9643    -8914    -5730 
   -4533    -5817    -4203     -851      885      901     -939    -3848 
   -6330    -7344    -6624    -4068      -31     1768      491     1189 
    4502     7137     8992    11345    14220    14527     9409     2856 
   -1230    -4024    -4838    -4818    -8421   -13347   -14754   -12826 
   -8999    -5938    -6197    -8131    -9622    -9790    -7524    -3310 
    1642     5827     6619     3892      689    -1291    -2803    -4884 
   -7936   -10513    -9810    -6480    -3331     -120     3465     6249 
    7917     8694     8950     7354     4352     3925     4787     4590 
    5908     7118     5308     2382     -538    -2431    -2938    -5409 
  -10156   -14592   -18168   -19669   -19299   -17805   -11772    -2662 
    1463    -1096    -5867    -9310    -8398    -2559     4467     9508 
   11754    10910     8737     7586     6968     5220     1524    -2484 
   -4090    -3969    -3678    -3133    -2473    -1942    -2459    -2910 
   -1081     -444    -1221     3380    10979    14116    13975    12127 
    7307     2490      351    -1088    -3331    -5737    -8324   -11808 
  -16687   -21149   -21778   -19629   -16974   -13101    -9903    -8279 
   -6126    -5155    -6598    -8619    -9040    -4824     2799    10111 
   16771    21258    22705    23620    22960    18936    13775     8058 
    1952    -1906    -4276    -7360   -10739   -16309   -24698   -30701 
  -32371   -31565   -27965   -22934   -17757   -11333    -6725    -6162 
   -5846    -3708      287     5537     9648    13207    17043    18739 
   17454    13834     8040     1021    -4861    -7159    -4909      985 
    6493     7033     2612    -3018    -5096    -1914     2625     5062 
    4463      506    -2972    -2669    -1622    -1826    -2575    -5007 
   -9568   -15031   -19549   -21855   -22951   -22478   -19259   -15896 
  -14349   -12082    -7682    -3661     -278     5508    12563    16754 
   18601    21088    24287    27846    31406    31340    24340    11785 
    -639    -6841    -6393    -3738    -2470    -3069    -4360    -6069 
   -8221   -10543   -14181   -19971   -25454   -27355   -25407   -21069 
  -15815   -10886    -5975    -1517       85    -1836    -6288   -11121 
  -13246   -12799   -11939   -11371   -10841    -8546    -3466     1227 
    2295      271    -2866    -5030    -5428    -6264    -7315    -5240 
   -1167     3001     8333    12475    13471    13270    12286    11476 
   11578    10939    10208     8741     4689     1067     -962    -3358 
   -5977    -9560   -12807   -13332   -14388   -17077   -18983   -20578 
  -20837   -19664   -19642   -19228   -17888   -17632   -16488   -14047 
  -12599   -10382    -4968     2254     9720    17965    23633    21759 
   17289    15896    14115    10743     7761     5135     3527     3456 
    5524     8497     8904     7929     7510     4591    -1059    -5169 
   -8109   -12251   -14802   -14974   -15896   -18145   -21911   -26123 
  -27093   -24505   -21009   -18843   -19082   -20923   -22594   -22042 
  -18858   -13541    -5377     2578     5656     5709     6037     6836 
    9713    15840    22316    26766    30727    35359    37902    35249 
   28256    20147    12478     5112     -114    -1548    -2725    -5373 
   -6744    -9583   -16926   -24721   -30489   -35160   -39830   -45600 
  -51185   -54687   -54990   -50545   -41980   -33291   -28135   -24916 
  -18725    -8417     4284    18209    30932    40317    46607    49351 
   48432    46882    44921    37972    26343    15234     6585      756 
   -2752    -5881    -8453   -11094   -14017   -14083   -12764   -14608 
  -19133   -24628   -30145   -32706   -31587   -30558   -31265   -30250 
  -24599   -15762    -7187     -864     3407     5164     3234    -1367 
   -6917   -11805   -14515   -15259   -14324   -12326   -10631    -8808 
   -6573    -3703     1304     6416     7808     5692     1370    -4556 
  -10563   -16213   -20576   -19677   -12919    -6010    -2621    -1000 
     764     2623     3870     3336       60    -5902   -14214   -23029 
  -28497   -30136   -31600   -34186   -36490   -36620   -32189   -23348 
  -11534     1819    11519    13549     9339     1447    -5931    -8367 
   -6982    -4684    -1227     2573     4892     6824     9031    10405 
    9840     6216     1038    -3977   -10323   -17695   -23799   -27375 
  -26781   -22416   -17231   -13007   -10230    -6494      912     8066 
   10631    10046     8533     9008    14338    22484    28865    29528 
   21963     9109    -2034    -8408   -10191    -8305    -8125   -11485 
  -12052    -9271    -7983   -10010   -17092   -27400   -36807   -44275 
  -45539   -37841   -26912   -16949    -7547      396     6255    11786 
   16131    14318     5425    -6060   -16964   -24260   -25662   -23673 
  -19022    -8792     4698    14229    15919    12795    10669    10296 
    8391     5026     1984     -843    -3102    -3488    -1775     -280 
   -1360    -3442    -4515    -4633    -3173     -194     3990    10099 
   14577    12139     5103     -905    -5545   -10361   -15288   -21425 
  -28269   -32429   -33463   -31147   -23789   -16070   -14554   -18522 
  -23895   -26927   -24545   -17452    -9354    -2336     4804    13809 
   24478    36116    47594    55987    59796    60351    58526    54843 
   50201    43956    35631    27704    22087    18396    17986    21136 
   24889    28757    32424    33046    29887    22293     9282    -5564 
  -18037   -28152   -36201   -39170   -34727   -26592   -21917   -23229 
  -26721   -30878   -39154   -50920   -61292   -67157   -66239   -58627 
  -48451   -40157   -34877   -30068   -24340   -17652    -8244     3951 
   17730    31315    40477    43572    41534    34256    23928    13533 
    4476     -241      280     1795      803    -3898   -10967   -15680 
  -17517   -20356   -24788   -30094   -35050   -35865   -31143   -23899 
  -17038   -10589    -4453     -530     2361     8542    17977    26882 
   32028    32806    33636    37534    41137    43455    46965    50809 
   53666    56475    59765    62459    62891    59907    51480    36948 
   20707     5736    -9927   -24555   -32455   -32224   -25270   -14324 
   -5320    -1038     -791    -5301   -12336   -17640   -19191   -16441 
  -12633   -11711   -14499   -22065   -33131   -43098   -50295   -55448 
  -58126   -58282   -56678   -52432   -44436   -34290   -23010    -9342 
    5508    18258    27372    31912    30951    26173    22821    24024 
   25635    23692    20154    16251    10557     3950    -1048    -4024 
   -5675    -6004    -5524    -5219    -5572    -6937    -9910   -14763 
  -21266   -29027   -36474   -41794   -44795   -45242   -42857   -37893 
  -28880   -14430     2085    14246    20375    24209    27700    31787 
   38549    46446    51840    52251    45307    32818    20749    11075 
    1842    -7223   -14786   -20092   -23315   -24599   -25080   -28066 
  -34813   -42078   -46056   -44528   -36181   -22184    -7807     2091 
    9073    16436    22399    25290    26163    24525    21845    21114 
   21227    21479    23525    27903    34051    39409    41924    42766 
   42543    41920    42696    43459    40946    34310    25447    16216 
    6012    -5844   -19526   -34209   -44953   -48120   -46229   -43663 
  -42982   -43019   -40892   -36248   -30134   -23765   -18724   -15591 
  -14315   -14563   -15542   -17512   -20231   -21899   -23139   -24823 
  -23719   -18395   -11597    -4685      893     2656     2748     4159 
    4550     2089     -897     -873     5435    17802    31189    40633 
   46051    50784    56223    60793    62629    60812    55618    48308 
   41214    35995    31045    24744    17949    10544     2025    -4852 
   -7973    -9933   -13051   -16672   -20158   -22881   -23758   -23638 
  -25845   -30782   -33862   -32341   -26740   -17123    -5568     3227 
    7298     9058    11511    14323    14658    12089     8870     6478 
    6060     7052     5907     2041    -1332    -2482    -1794    -1111 
   -1343    -1509    -1944    -1637     1586     5972    10098    13882 
   15040    14069    13803    14185    15239    18004    21892    25967 
   29182    29542    26246    20352    11996      402   -12401   -21976 
  -26640   -28767   -30117   -28653   -22520   -14170    -6474      -17 
    3670     3134       60    -1680     1891    10808    20027    26752 
   32449    36470    37918    38983    39132    35835    29386    19979 
    9787     3831     1831      689      315       29    -1142    -2207 
   -3242    -5489    -8515   -11352   -13522   -13582   -10196    -4002 
    1883     4368     4955     6431     8370    10963    14872    18746 
   22075    24848    26154    25820    24433    22110    18126    13020 
    8981     6691     6033     7272     9325    10514     9755     6492 
     907    -6145   -13649   -20548   -25467   -28591   -31533   -34059 
  -35523   -36427   -36755   -35815   -31707   -24231   -17406   -13413 
  -10701    -7954    -4330     -365     2803     6295    10885    15886 
   22026    29647    36620    41108    42593    40938    37395    33052 
   26391    16486     5158    -5204   -12214   -15356   -17963   -22816 
  -28836   -34052   -37179   -36849   -33690   -30520   -27507   -22516 
  -16569   -12297    -9582    -6448    -1101     6974    16615    26006 
   33354    37976    40447    40100    35841    28453    18642     7079 
   -3820   -12009   -17323   -20953   -24397   -28088   -31811   -33933 
  -31036   -23013   -14226    -6694     1201     9308    15664    20686 
   25038    26364    24150    21384    18974    16283    14426    14184 
   14539    14318    12874    10893    11060    13860    16092    15622 
   11765     4872    -2535    -9504   -16949   -24412   -30588   -33917 
  -34022   -32702   -31201   -30126   -30246   -30684   -30843   -30912 
  -28613   -22808   -15040    -4668     7079    14941    17597    16533 
   12380     8048     5537     4205     3929     3846     4345     7078 
    9927    10052     6759      287    -6469   -11070   -14665   -17390 
  -17633   -15290   -11188    -6026     -847     2925     4741     4842 
    3281     1057     -799    -3122    -6396    -9815   -13207   -16398 
  -18647   -19979   -20424   -19710   -18636   -17456   -14959   -10520 
   -4892     -735    -1044    -5533   -12023   -18485   -22353   -22762 
  -21054   -18033   -13878    -8388    -1977     2669     3419     1499 
    -633    -1717    -1871    -1995    -1841      598     5937    12185 
   17074    18968    16814    10788     2751    -4909   -11119   -15896 
  -19508   -22833   -26901   -31625   -36255   -39941   -41959   -42796 
  -42669   -40456   -36031   -29988   -22943   -16826   -13416   -12737 
  -13458   -13000    -9034    -1652     6777    14112    20252    25321 
   27659    25762    20295    12457     2571    -7805   -15512   -19408 
  -20601   -19649   -17477   -15365   -13340   -12657   -15662   -21502 
  -27197   -30797   -31461   -30288   -29678   -30246   -30961   -30252 
  -25793   -17259    -8319    -2554     -283       47      411     1821 
    3430     4192     4811     6644     9194    11253    13410    16081 
   17701    16946    13208     6087    -2627    -9964   -15271   -19583 
  -23473   -27093   -30291   -32899   -35089   -36774   -37176   -35696 
  -33358   -31201   -28907   -27267   -26932   -26042   -23159   -18813 
  -14459   -11557    -9566    -6484    -1317     5543    12175    16610 
   18981    19446    18106    16741    15515    13474    11722    10376 
    8652     6907     4342      973     -812     -610     -834    -3504 
   -7821   -11817   -15490   -18940   -22090   -26505   -32092   -36505 
  -38205   -36184   -30848   -24980   -21093   -19287   -17289   -13784 
   -9938    -6165    -2057     2452     6856     9483    10669    12145 
   13548    14550    14921    13876    11743     8649     4963     2012 
    -283    -2267    -2868    -1745      -32      985      241    -2303 
