Origin Time       2016/04/16 01:25:00
Lat.              32.753
Long.             130.762
Depth. (km)       12
Mag.              7.3
Station Code      MYZ015
Station Lat.      31.7185
Station Long.     131.0621
Station Height(m) 159
Record Time       2016/04/16 01:25:27
Sampling Freq(Hz) 100Hz
Duration Time(s)  169
Dir.              E-W
Scale Factor      7845(gal)/8223790
Max. Acc. (gal)   43.595
Last Correction   2016/04/16 01:25:27
Memo.             
[...]
  -10963    -7634    -4327    -1647     1509     5231     7433     6091 
    1498    -3973    -8154   -10046    -8807    -4959    -1737    -1359 
   -1614      765     4252     4050      336    -1705     -274     2149 
    3294     1858    -1767    -5391    -6604    -4365    -2014    -3744 
   -7626    -8721    -5082      885     4340     3418      521     -965 
     619     2658     2457      966     -699    -1235      -58      318 
   -1545    -4252    -5917    -5549    -5077    -6858   -10207   -12411 
  -10296    -4359      993     3638     4191     3478     2713     2396 
    2042     1227     -137    -2242    -5252    -8473   -11310   -12699 
  -10778    -6486    -2764     -672      -54     -642    -2000    -3308 
   -3173    -1668     -199     1520     3738     4436     1702    -4068 
   -9861   -13574   -16282   -17745   -14754    -6223     3780    10241 
   11587     8233     1323    -5902    -9641    -9570    -8739    -7831 
   -4248     1989     7674     9995     7310      233    -6652    -8934 
   -7696    -6138    -5081    -4383    -4059    -4768    -7380   -11044 
  -13898   -13506    -8064     -288     5035     6564     4880     1449 
   -1277    -3014    -5046    -7719    -9231    -7431    -4013    -1780 
   -1093    -2380    -4962    -6964    -9154   -10727    -8773    -4012 
    1200     4977     6478     5938     3558      788    -2066    -5868 
   -8560    -7858    -4814    -2257     -626      834      311    -1614 
   -1993    -1032      464     2837     5441     6444     4743      -65 
   -6886   -11048   -10471    -8144    -5154     -190     6154    10320 
    9968     6859     2856    -1255    -4510    -6039    -4893    -2134 
       5      886       81    -2932    -8021   -13005   -14509   -12565 
   -9310    -5664    -1906     1544     3240     2546      615    -1868 
   -3615    -2681      591     3713     4934     5049     5178     4963 
    4401     3858     2581      180    -1478    -1314    -1102    -1278 
    -754     -897    -3137    -6500    -9996   -12841   -13833   -11963 
   -7657    -3414     -683      552       14     -525     1240     3728 
    3878     2290     1884     2832     2716      143    -3869    -7896 
  -11946   -15997   -18644   -18112   -14692   -10197    -5263     -980 
     915      805      -67     -758      -56     2056     3612     2782 
     387     -895      718     4803     8671     9572     7723     5684 
    4444     2516      -65    -2594    -6338   -10728   -14170   -17513 
  -20888   -22373   -20497   -15664    -9891    -4870     -650     3322 
    6729     8576     8536     7539     5922     2859      184      895 
    3056     2783      116    -2574    -3559    -2879    -2322    -2116 
    -603     1668     3177     3470     1794    -1922    -6602   -10069 
  -10168    -8387    -7136    -5630    -3748    -3065    -3030    -2397 
   -1707    -1911    -2893    -3385    -2386     -692     -205    -2027 
   -5753    -9724   -12260   -12962   -11549    -7869    -3491       -4 
    2219     2828     1564     -981    -3477    -4895    -4938    -3480 
   -1433     -414     -549    -1127    -1746    -2139    -3036    -5703 
   -9450   -11176    -8965    -4800    -1417      442      853      398 
    -221    -1073    -2520    -4431    -5815    -5508    -3655    -2068 
   -2272    -3392    -2893     -143     2434     3078     2141      673 
     -35       28     -129     -388     -737    -2133    -4581    -6659 
   -7346    -6889    -5630    -4210    -3946    -4912    -5416    -4349 
   -2826    -2425    -3686    -6458    -9478   -11194   -10990    -8753 
   -5435    -2859    -1255     1175     5142     8166     7846     5630 
    4186     3705     2601       41    -2820    -5171    -7300    -8024 
   -6512    -4722    -4484    -4885    -3372      788     5054     7280 
    7865     7195     5513     4000     2598      -71    -4087    -7600 
   -8779    -8404    -9259   -12804   -16572   -15830   -10114    -3450 
    1773     5748     9512    13111    14524    12803     9250     4758 
      97    -2857    -3686    -4178    -5455    -7542    -9821   -10440 
   -8194    -4441    -1000     2475     6775    10758    12822    12564 
   10039     5213     -980    -6157    -7992    -6405    -3817    -2193 
   -1189     -292     -217    -1260    -2654    -3905    -4896    -5918 
   -7366    -8209    -8164    -8694    -9143    -7597    -4730    -2342 
   -1077    -1163    -2531    -4645    -6339    -5977    -3834    -1460 
     751     2111     1946      787    -1320    -4228    -6542    -6964 
   -5247    -2066     1989     6564    10362    12187    11973    10065 
    6075     -224    -6396   -10085   -11709   -11788   -10416    -9012 
   -8800    -9011    -9424   -10719   -12028   -12957   -13792   -13170 
  -10179    -6234    -3901    -4338    -5973    -6432    -4823    -2808 
   -1904     -178     3434     6322     6564     4197      762    -1414 
   -2001    -1595     -905    -1588    -4278    -7252    -7699    -5717 
   -5169    -6786    -6505    -3377    -1420    -2261    -3179    -3169 
   -3639    -4806    -6018    -6980    -8461   -10342   -10064    -7214 
   -4641    -4005    -3754    -1491     1765     3570     4311     5279 
    6181     5680     3869     2191      144    -3107    -6492    -8440 
   -7723    -5346    -3645    -2930    -2654    -3232    -5188    -7507 
   -8602    -8394    -7402    -6347    -5636    -4738    -3731    -2751 
   -1840    -1426    -1308    -1232     -680      376       81    -1910 
   -3146    -1930      568     2515     4553     7573    10540    12475 
   12946    11441     7642     3026      118    -1132    -1921    -2589 
   -4167    -6971    -9647   -11084   -11180   -10809   -11002   -11137 
   -9267    -5613    -2799    -1898    -1878    -1553     -804     -880 
   -2006    -2482    -1506        5     1939     4884     6926     5850 
    4040     4747     6312     5448     2424     -818    -3478    -4514 
   -3346    -1878    -1930    -3229    -4293    -3369     -780      692 
    -831    -4341    -7627   -10138   -12276   -13398   -13215   -12503 
  -11427    -9599    -7267    -4765    -2211     -329      157     -874 
   -3017    -5306    -6547    -5337    -1602     2631     5664     7346 
    8618    10107    10732     9607     7758     6659     6648     6910 
    7134     7223     5404      418    -6388   -12815   -17359   -19953 
  -20826   -18959   -14631   -10378    -7496    -5999    -6226    -7628 
   -9450   -11056   -10355    -6405    -1457     2249     3819     2565 
   -1229    -5736    -8428    -7719    -4823    -2170       29     2353 
    3738     3885     4047     4997     6585     6658     3348     -827 
   -2853    -3676    -5601    -8607   -10986   -12614   -14179   -14754 
  -13810   -12118   -10628    -9780    -8121    -4974    -1937      726 
    3971     7740    10269     9370     5456     1246     -900     -658 
     274      577      584      477      164      787     2177     2185 
    1004      810     2438     4369     4359     2209     -733    -3315 
   -4973    -5917    -6266    -5886    -5786    -7196    -9722   -12152 
  -14162   -15260   -13590    -8803    -3078      835     1439      172 
    -864    -1845    -3782    -6872    -9823    -9942    -6079     -619 
    3563     5929     6725     6008     4668     4137     4468     3969 
    2174      421    -1127    -3222    -5707    -8263   -10216   -10791 
  -10949   -11183   -10359    -8970    -8311    -8523    -8954    -8131 
   -5633    -2141     2191     6207     8098     6919     3416       29 
   -2505    -5119    -7410    -8826   -10015   -11576   -13355   -15074 
  -15788   -14477   -11842    -8474    -4156       16     1933      923 
   -1495    -4436    -8104   -11515   -13250   -12698   -10320    -7454 
   -4773    -1694     1271     2034     1445     2613     5243     6637 
    5867     5177     6659     8453     8305     6521     3586     -616 
   -5418    -8437    -8002    -6120    -5100    -4159    -1431     3338 
    7137     7560     6316     4939     3466     2435     2759     4564 
    5908     5387     3983     2913     1548    -2319    -8032   -11404 
  -10358    -6296    -1649     1883     3534     3207     2504     2975 
    3655     3148     1701     1254     3811     7832     9691     8721 
    6443     3492        0    -3345    -5714    -6741    -6107    -3458 
     175     2038      481    -2805    -5131    -5557    -4973    -4679 
   -4403    -3138     -862     1620     3179     3780     3828     2826 
     741    -2817    -8215   -13663   -17359   -18792   -18752   -18185 
  -15809   -11520    -7125    -3547    -2172    -2168     -989      352 
    1111     2616     4261     5282     5705     5485     5161     3943 
     627    -3528    -6332    -6998    -5744    -3916    -3473    -4530 
   -6242    -7744    -8579    -9321    -9443    -8847    -8310    -6197 
   -1777     2635     4926     4837     3645     1371    -2762    -7163 
   -9934   -10962   -10804   -10180    -9497    -8941    -8907    -9603 
  -10408   -10224    -8989    -7169    -4348     -600     2640     3677 
    1653    -2180    -5981    -8872    -9984    -9703    -9055    -7717 
   -5424    -2201     1988     6044     7955     6983     4823     2896 
     692    -1744    -3294    -4024    -5314    -7211    -7723    -6199 
   -4571    -3959    -3213    -1263     1494     4039     6212     7821 
    7684     6077     4327     3036     2386     1554     -197    -2228 
   -3951    -5584    -7431    -8908    -8854    -7593    -6151    -4974 
   -4650    -4544    -3206     -625     2452     5096     6597     7026 
    6374     4804     2727      266    -2280    -4359    -5406    -5630 
   -5930    -6004    -4911    -3549    -3850    -5674    -6693    -5825 
   -3754     -691     2982     6330     8883    10093     9184     6304 
    2876     -112    -3115    -6006    -7553    -7652    -7113    -6066 
   -4936    -4750    -5815    -6874    -5888    -2629     1258     4568 
    6743     7890     8618     8217     5402      849    -3025    -4752 
   -4838    -3892    -2405    -1672    -2037    -2407    -2816    -4094 
   -5825    -7411    -8618    -8783    -7855    -7460    -9290   -12044 
  -13106   -13204   -14184   -15121   -14399   -11706    -7596    -3080 
     410     1464      868      504      295      156      355      510 
    1210     3015     5011     5698     5067     5171     6619     8007 
    8536     8056     7173     6084     4059      837    -3717    -8715 
  -12429   -14337   -14361   -12781   -10631    -8317    -5719    -2925 
    -360     1181     1873     2708     3164     1787    -1127    -4186 
   -6631    -7527    -6808    -5891    -5209    -4499    -3906    -3457 
   -3634    -5046    -6835    -7110    -5467    -3797    -3272    -3327 
   -3693    -4480    -6118    -8075    -8490    -6517    -1798     5304 
   12501    17865    20939    21597    19857    16421    12425     8457 
    4661     1185    -1982    -5046    -7746    -9216    -9819   -10754 
  -11313   -10450    -8667    -6867    -5914    -5606    -5397    -6255 
   -7950    -8730    -8768    -8168    -6195    -4710    -4752    -3819 
   -1325      810     2058     3262     4793     5417     4496     3227 
    1418    -1872    -5887    -9958   -14038   -17118   -18184   -17608 
  -15745   -12807   -10341    -8927    -7026    -3898     -364     2596 
    4932     6779     7302     6500     5680     5298     4666     3589 
    2929     2960     3244     4093     5256     5221     3125    -1096 
   -6758   -11709   -14377   -15236   -14945   -13367   -10644    -7482 
   -4799    -3615    -3848    -3786    -2644    -2076    -2602    -2308 
   -1318    -1277    -1711    -2312    -3507    -4217    -3667    -2964 
   -3160    -4069    -5460    -7661   -10628   -13446   -15396   -16758 
  -17217   -16077   -14153   -12267    -9563    -4992      827     6346 
   11140    15588    19210    20974    20657    18216    13500     7746 
    2705     -850    -3044    -5088    -7607   -10447   -14486   -19163 
  -23004   -26079   -27780   -27206   -24108   -18871   -13389    -8668 
   -3527     1648     4770     6262     6612     5179     3069      144 
   -3302    -4475    -3618    -2641    -1687     -781      498     1807 
    2477     5131    10918    17038    22339    27087    30878    32184 
   29475    22990    12888      700   -10388   -18426   -22142   -23066 
  -23754   -23588   -22380   -20595   -18323   -15954   -13027   -10076 
   -7164    -3176     1140     4773     7719    10334    12336    12802 
   11843    10114     8068     5260      645    -4164    -6574    -8661 
  -13257   -17408   -18972   -19619   -19256   -17859   -15439   -11546 
   -7034     -579     8301    16822    24587    30997    33531    33454 
   32200    29042    24941    19098     9732     -915    -9909   -16622 
  -21797   -25429   -26349   -26107   -24953   -20785   -16555   -14277 
  -12106    -9259    -6396    -5510    -4132      255     3761     5703 
    7723     8253     6224     1352    -5259   -11350   -17251   -23965 
  -29745   -32462   -32240   -30773   -28908   -24875   -18635   -14659 
  -13738   -11368    -6912    -4045    -3588    -2951      106     6056 
   12698    17587    20570    21724    20240    16856    13996    11464 
    7956     4419     1621     -600    -3114    -6141    -7747    -9572 
  -14359   -18299   -20255   -22422   -23136   -21880   -17977   -10854 
   -2304     6411    12927    16275    17562    17355    16886    15714 
   12332     7569     2911     -572    -2516    -3256    -2627     -869 
    2247     5864     6797     5433     2801    -2552    -9818   -15693 
  -16137   -10825    -1628    11061    24287    34558    40768    43272 
   43116    38727    28706    15769     3099    -6984   -13778   -17979 
  -19387   -20591   -23004   -23182   -22168   -22395   -21065   -17770 
  -14782   -11395    -8390    -6901    -4762    -3204    -2875     -820 
    1487     1721      680     -391     -791     -808     -499     -283 
   -2070    -6018   -10307   -14422   -19309   -25903   -33509   -40872 
  -46206   -47104   -44498   -40392   -33971   -24364   -13412    -4804 
     218     3445     5709     6985     6902     5468     5381     8132 
   11913    15727    19153    21959    24790    27194    28613    28829 
   27348    24377    19404    11514     2396    -6507   -15727   -23842 
  -29911   -34371   -36224   -35501   -33139   -30551   -28966   -27170 
  -24663   -21855   -18281   -14293    -9942    -5836    -3511    -2371 
   -1831    -2355    -3190    -3470    -2285     1389     6250    10481 
   14413    18602    23240    27503    29735    31050    32240    31899 
   31379    31352    30152    27229    21065    12368     3717    -5184 
  -13517   -20237   -25116   -26067   -24352   -23372   -22736   -21548 
  -19951   -17911   -15792   -13485   -10395    -7005    -4008       -5 
    5625    11126    15858    19665    21562    21712    21254    20136 
   17938    15115    11028     5310     -767    -6777   -12133   -16051 
  -19224   -21204   -21199   -19290   -14517    -8351    -3280      202 
    1047      814     1297      777     -373    -1144    -1914    -1537 
      97     1871     4174     7619    12191    16980    20367    21516 
   20646    19359    17501    13265     7955     1944    -5336   -12573 
  -18916   -21263   -18809   -14976   -10346    -5525    -1425     2034 
    2803      990    -1741    -5793   -10440   -15299   -20200   -24171 
  -29161   -35803   -40814   -42384   -41141   -38152   -33434   -27189 
  -21126   -15496    -9217    -2178     4608    10524    16174    20623 
   23193    24922    25307    24761    24364    22954    20042    15865 
   10164     4215       41    -1788    -2366    -3267    -4688    -7190 
  -10547   -11944   -11807   -11985   -12355   -12814   -12231   -11789 
  -12749   -13396   -13919   -14145   -13468   -13236   -13579   -14388 
  -16104   -17896   -18620   -17767   -15719   -13826   -12853   -12638 
  -12954   -13734   -15087   -16436   -17220   -17921   -18663   -18875 
  -18318   -16606   -12964    -7534    -1135     5175    10501    15431 
   20422    24628    27708    29759    30878    30697    27919    22801 
   16645     9845     3569    -1302    -5020    -8006   -10693   -11801 
  -10655    -8382    -6062    -4662    -3570    -2625    -2633    -3434 
   -4637    -5204    -5768    -6963    -6327    -4245    -3566    -4237 
   -5367    -6756    -8040    -9329   -11291   -13728   -15048   -14017 
  -11057    -7462    -3916     -514     2385     4527     5840     6409 
    6511     5769     3726     1044    -1742    -5036    -9015   -13479 
  -17806   -21118   -22993   -23707   -23317   -20814   -15982    -9852 
   -3991      400     4634    10250    16397    21879    26018    28046 
   28321    27877    26592    24644    22611    19901    16544    13193 
    8401     1975    -1854    -2579    -4091    -6323    -8469   -10261 
  -11245   -13510   -16121   -16895   -17874   -19759   -20742   -19664 
  -16991   -14613   -13063   -12241   -12761   -13437   -12160    -8125 
   -1825     4895    10265    14434    18351    21455    21784    18496 
   13460     8209     1143    -8133   -16440   -21397   -23205   -22395 
  -18582   -12361    -5727      892     7354    12652    17478    21961 
   24441    24646    22820    18522    12399     5765     -785    -7006 
  -12564   -17246   -20545   -21995   -22550   -23188   -24283   -26631 
  -29319   -30036   -28366   -25578   -22326   -17948   -12128    -5871 
     -32     5687    11067    14376    15279    14565    11955     8662 
    6102     3130     -139    -2706    -6558   -12340   -17556   -21685 
  -24987   -26846   -26944   -23302   -15635    -7373       -9     5352 
    8095     9918     9256     6462     4962     3175       35    -2893 
   -5248    -6385    -6234    -5225    -3492    -1780    -1081    -2087 
   -4461    -7551   -10870   -13717   -16726   -19327   -19464   -17872 
  -15083   -12112   -10827    -9369    -7650    -7115    -6544    -6316 
   -6142    -4164    -1777     -388      530      490     -824    -2792 
   -4212    -4140    -3650    -3742    -3352    -1298     1310     2771 
    3599     3354      477    -2844    -5066    -7603   -10002   -11439 
  -10860    -7927    -4769    -1356     2697     5906     8089     8627 
    6918     4788     3184     2242     3036     4970     6130     5196 
    2455     -931    -5024    -9869   -14310   -16764   -16537   -14542 
  -12630   -11568   -10121    -7711    -5382    -3678    -1435     2363 
    6856    11034    15607    20765    23974    24181    23032    20806 
   17126    12781     9549     8661     9109    10397    12969    15786 
   17743    18411    18087    17730    17618    17128    15730    13682 
   11204     8431     5437     2863     1598      549     -857    -1995 
   -3277    -4760    -6837   -10239   -13027   -14288   -15418   -14929 
  -12067    -8803    -5727    -2720      730     4648     8087    11431 
   14523    14794    11877     8256     4095    -1903    -9350   -16713 
  -22693   -27568   -32262   -35974   -37473   -37166   -36131   -35286 
  -34597   -33273   -31347   -28764   -25315   -21402   -17021   -11890 
   -5584     1718     8667    14651    20009    24690    28147    29990 
   30132    28507    25516    21855    17944    14179    10426     6014 
    2328      207    -2751    -5190    -4608    -3226    -1609       23 
     801     1181    -1000    -5485    -9328   -13531   -18808   -23634 
  -27363   -29300   -28634   -25797   -21944   -17601   -12962    -8540 
