Origin Time       2016/04/16 01:25:00
Lat.              32.753
Long.             130.762
Depth. (km)       12
Mag.              7.3
Station Code      MYZ011
Station Lat.      31.9951
Station Long.     131.2557
Station Height(m) 26
Record Time       2016/04/16 01:25:22
Sampling Freq(Hz) 100Hz
Duration Time(s)  182
Dir.              N-S
Scale Factor      7845(gal)/8223790
Max. Acc. (gal)   63.694
Last Correction   2016/04/16 01:25:23
Memo.             
[...]
    8617     6866     6879     6878     7596    10968    13297     8525 
   -2124    -9265    -6610     1278     7229     9304     6733      868 
   -1861      -93     1386     3298     7756    10096     7169     4055 
    4922     4831    -1165    -7585    -6985    -1383     2073     1873 
    3019     5796     6538     7630     8436     4260     1729     5775 
    5506    -1593    -2776     3713     9062    11504    11367     5953 
   -1394    -2860     1263     4307     4860     4590     3480     3046 
    2894      872     -116     2523     5977     7365     5638     1236 
   -2737    -3160       79     4438     6667     5539     2033    -1084 
    -924     -491    -3024    -2805     2581     5765     4970     4662 
    3562     -324    -4283    -6400    -4627     3424    13756    17356 
   10744     1139    -1949     2447     7886     7902     3469     2947 
    7622     8985     3218    -4733    -7041    -2423     1887     2340 
    2434     3111     1296     -544     4098    12033    14188    10955 
    8367     7121     5837     4333     1982      -65      604     4117 
    6662     4214     -317     -456     3140     4310     2535     1334 
    -241    -3449    -4928    -2034     1993     2770     1903     2344 
    2783     1564    -1221    -4912    -7685    -7364    -2619     5140 
    8812     3361    -2898     1445    13454    21826    20553    10326 
    -488    -2188     2799     6278     7014     6542     3987    -1216 
   -7389   -10192    -6018     1723     5127     1244    -4384    -4683 
    -695     1919     3190     6486    10528    10669     8094     9529 
   14489    15083     8654      784    -2452     -726     3036     9263 
   17280    18115     9286     2995     3815     4322     4258     7091 
    9984    10455     8001     2884    -1611    -4058    -4093      315 
    4806     2390    -3700    -5327    -1117     2416    -2211   -11218 
  -12051    -3586     4159     6648     5840     4928     6011     8781 
   10659     8106     4835     9239    16459    14979     7492     2569 
     313    -1119      741     7994    15252    12837     1888    -4788 
   -1457     3865     2891    -3376    -8144    -5733     2178     7020 
    4187    -1649    -4418    -4266    -4085    -3183    -1638    -1840 
   -1489     2417     7395    10426     9929     4577    -2293    -4480 
    -747     6219    11526     8883     1435     -550      673    -3406 
   -7214    -2450     5977    11084    13316    13517    10403     6534 
    7145    11878    13730    10143     7811     9400     9108     6145 
    4387      550    -7668   -11111    -4908     1822     3102     1749 
   -2053    -6822    -5059     3927    11807    13142     8816     3314 
     421     -429     -929    -1610    -2766    -2505      880     2486 
   -3738   -12803   -13004    -3165     5628     7395     6440     4683 
     751    -2463    -2232      346     4457     9767    14481    16794 
   16231    12754     6767     1436      762     3202     4406     4068 
    3169     2508     3488     3406       47    -2944    -4592    -5063 
     333    10473    16413    14562     8752     4125     2398    -1185 
   -8406   -10597    -2461     7430     8275     1229    -4174    -3260 
    -464    -1364    -3515    -1097     4315     7067     7649    10639 
   14268    13058     7877     3169     1683     2641      915    -5583 
  -11502   -11701    -6399     1405     6404     3848    -2308    -4881 
   -3944      -39     8343    16009    16375    10852     4654      695 
    -346     2026     6698     9023     7782     6975     6689     6035 
    6427     4666     -712    -3048     1584     7808     9994     9470 
    7777     3928     1399     4653    10442    11947     7827     2196 
    -723      864     6443    11769     9448     -903    -8792    -7209 
    -382     5610     9004     8926     4741     -417    -3146    -4245 
   -4541    -4178    -4310    -3219      -32       43    -3262    -1687 
    3773     3287    -2254    -4199     -263     6069    11377    13829 
   13115    10072     5117    -1023    -5719    -5462      454     6906 
    8403     6201     4766     2792    -3969    -9147    -1984    12704 
   20829    19106    14338    11553    10486     8114     4606     4918 
    9128    11529    11399    10382     5190    -3844    -9968   -11979 
  -12495   -10126    -5489    -1961     1159     4604     4804      506 
   -4352    -6110    -4907    -3102    -2142    -1017     2146     6038 
    7939     8437     7835     5810     5213     6916     8706    10485 
   11527     9675     7276     8573    11892    11785     6640      846 
     284     4645     8154     7701     3823     -579    -2285    -2792 
   -3557    -1185     3942     5306     1331    -3271    -5541    -4094 
    1277     6647     9180    11815    15754    15708     9375     2550 
    -506    -1975    -3634    -4369    -4209    -2874     1248     5262 
    4683     1764     1308     3674     5506     4384     2899     4149 
    6396     8144     8499     5013      -32    -3883    -8411   -10446 
   -5571     1468     6705    11622    13481     8645     2501     3018 
    6843     5314      383    -1020     2162     6772     7809     5368 
    6605    12190    14747    11676     6157     2267     3246     5792 
    3804     -109     -741     -660    -3252    -4877    -1410     4537 
    7138     4930     3196     4723     5333     3634     2263     3153 
    7794    13254    11973     2802    -4510    -2952     1837     2770 
    1590     2581     5042     5329     2852      172    -1852    -2863 
    -849     3026     5840     8197     8575     3435    -1634     1719 
    9475    12501    10913     9842     9539     8324     7103     5765 
    3057     -266    -2342    -2126     -553      413      313     -737 
   -2415    -1677     2066     3770     1177    -2006     -491     6399 
   11886    11323     8762     8922    10775    10864     9228     9842 
   12514    12075     9424     8981     9563     9186     7119     2087 
   -2855    -4384    -5833    -8385    -7807    -3697      926     3516 
    1725    -2872    -4261      155     6569    11645    15327    15326 
    8494     -457    -3524    -1135     2640     8156    14477    15642 
   10073     5287     5248     5297     3736     2640      990    -1906 
   -2835     1036     6925     8324     4748     3858     8129    10716 
    8239     4220     2677     3947     3381    -1060    -3847     -737 
    5638    11124    14405    15658    14010     8476      -87    -8687 
  -11102    -5255     -999    -3959    -4978     -954    -1682   -10027 
  -18327   -21142   -18034   -11572    -7647    -7908    -4384     5776 
   11901     9306     6944     8447     8957     7326     5562     5950 
   11068    17259    15597     6835     1008      163     1228     5976 
   12595    14706    11639     6446      289    -3557    -1161     5344 
   12256    15522    10517     1821    -4484   -11419   -17321   -14315 
   -5035    -1120    -6632   -14083   -16761   -14412    -8087    -1537 
    -198     -427     4903    10994    10841     8775    10454    13586 
   14459    16147    21857    25933    24463    20659    14709     6955 
    2358     2126     5071    11013    14677    11333     4839     -890 
   -5632    -8675   -10859   -12032    -8939     -869     9791    16989 
   13325      792   -12464   -22725   -26847   -22049   -13039    -4954 
    2331     5840     2172    -2049      542     4538     3950     5051 
   11584    15304    12020     8013     5443      708    -3343    -1895 
    1599     2047      733     1617     5495     7674     2227    -8237 
  -12664    -4814     9999    21820    24030    17174     7844     1317 
   -2209    -3126    -1457      407     2697    10161    21743    29358 
   28471    20011     8129    -1260    -7074   -10263    -5529     7333 
   16173    15520    11626     5814    -4275   -14083   -16860   -13973 
  -14366   -19778   -19045    -5441    11587    19283    16863    11761 
    9516    11706    15513    16308    14273    12513     9370     1094 
   -9339   -15480   -16869   -15777   -10263     1048    12139    14116 
    5709    -5826   -11884    -7750     3778    12920    12287     7044 
    6963    11076    14270    16183    14783     9745     8185    14829 
   25282    29801    20976     3090    -9845   -11435   -10675   -18378 
  -33392   -43333   -37276   -17074     4747    17695    22524    22079 
   13208     -453    -6307      573    14670    28732    38453    42947 
   38755    23581     8247     4440     7537     7854     5475     5532 
    7573     6889     2380    -4519   -11450   -12692    -5992      890 
     583    -3377    -4810    -3886    -4482   -10129   -18792   -23723 
  -22270   -15072    -3150     5389      398   -14008   -23014   -17832 
   -1528    14011    18430    13289     7680     9136    19913    31484 
   29447    14802     3696     2400     3716     3179     4106     8471 
   11580    10597     5088    -8567   -27426   -39537   -37122   -20418 
    3032    19359    23687    24853    26288    23363    14963     2163 
  -11028   -16291   -11755    -4271     3912    16151    27311    28711 
   23407    14247    -4851   -26335   -28995   -10655     9558    18445 
   16842    11858    10817    14854    20590    24930    23441    15502 
    6666    -1742   -12629   -22731   -23279   -12486    -1256      681 
   -2359    -1686     1814     2187    -1579    -8650   -18146   -24405 
  -22226   -11729     4363    19070    23838    17929     8280     2100 
    2231     6061    11443    19461    24467    18773     7378    -1966 
   -5418     3896    22941    32578    20491    -3731   -21432   -24058 
  -14608      -37    13247    22002    21853     9913    -5007   -11257 
   -8370     -976    10669    22557    23433    12499     -897   -14845 
  -27306   -27062    -9128    16424    35224    39704    34261    30806 
   34009    38448    36505    20537    -9054   -36647   -43918   -30515 
  -16991   -17639   -20725   -12051      -13      648    -5964    -6990 
   -4583    -8787   -15982   -10963    10665    30298    27650     7375 
   -9055    -7179     9270    22805    20262     8006     2938     9088 
   15778    15824    11946     9934    10280     8310     2806    -3258 
   -6547    -3950     3137     6825     4121     5019    15553    22052 
    9668   -13591   -26053   -19471    -5400     4631    11711    19302 
   23395    16983     2003    -7117    -1530     7176     4857    -6239 
  -17055   -19278    -6627    11874    17813     8841     -909    -1829 
    1113      270     -826     5547    18837    32691    43123    46714 
   37349    16688     -394    -1973     5090     3002   -12347   -25070 
  -22291    -8536     3240     1679   -14813   -31827   -32611   -18193 
   -1934     5860     2091    -6327    -9373    -8785   -11561   -16891 
  -20754   -18936    -7094    11562    27737    35937    36583    33725 
   30622    26028    21455    23090    28792    30218    27733    25589 
   21190    12555     4684     2097     5578    11638    10993      -81 
  -13921   -22508   -22900   -18330   -17459   -23815   -30341   -27591 
  -14291      352     8239    11988    13707     8004    -4799   -15057 
  -13528     2587    24394    35337    31467    27201    31519    35843 
   31348    21008    15357    19450    20964     7452   -11294   -21277 
  -25574   -31480   -36953   -36765   -28298   -12609     3609    13139 
   15919    17653    21313    23332    21054    18254    19707    22851 
   18203     2899   -11661   -13458    -4213     4621     5273     1251 
     490     3715     6420     8114    12247    18040    18165     7997 
  -10022   -31549   -48799   -51324   -38616   -21315    -8961    -5185 
   -6786    -4467     4625     9933     3836    -6065   -10161    -8853 
   -5138     1992    11747    18816    19615    14700     6188    -1859 
   -4564    -2720    -2597    -4656    -2343     3501     1749   -12166 
  -25496   -22437    -4810    11458    17232    16826    15419    12040 
    7011     6153    13000    21964    25681    25434    27688    33444 
   35156    27047    16050    14072    22370    30069    25797    10426 
   -2600    -2465     6913    13338    10516     2242    -2721     -311 
    2907      184    -5549   -10060   -14049   -15847   -10655    -1466 
    1603    -3746   -10415   -14786   -18813   -23028   -25944   -25822 
  -20907   -12187    -6011    -9949   -22424   -32194   -32008   -24273 
  -15195    -9647    -6473    -1472     3257     3620     3889    12160 
   27099    36086    32701    28184    33785    44194    48390    42350 
   27576    10179     -171       47     2860     -762    -9169   -14562 
  -13699    -7268     4423    17813    24825    21608    12993     7597 
   12445    25154    33081    29070    17896     4477    -8611   -16228 
  -17683   -20232   -25990   -25240   -10557     9629    19989    16073 
    4411    -7711   -14767   -15061   -12619   -11214   -11345   -12465 
  -13726   -15380   -16829   -13969    -6378    -2808   -12293   -30964 
  -41045   -29922    -6650    12051    21799    28206    36410    44733 
   46695    39935    27889    15221     7036     8383    17694    23804 
   19124     9888     3403    -1457    -4804    -4803    -6642   -15422 
  -24435   -25083   -20653   -18131   -16488   -14158   -17388   -29059 
  -39383   -37743   -24586    -7230     6558    10717     5098    -3651 
   -6735      661    14019    24634    29732    32262    34740    36231 
   34676    30685    26989    25546    25972    26940    29056    33230 
   37143    36644    30375    21950    15238     8812    -2438   -22452 
  -47497   -63633   -59719   -41122   -24138   -20102   -26134   -31615 
  -32258   -30948   -28285   -22428   -13369      464    19553    35560 
   38911    28996    12460    -2505   -10197    -7449     3133    11223 
   10874     8275    11098    17058    16429     4402   -11118   -16235 
   -5215    13645    25631    23360    13633     7766     6797     2552 
   -8827   -21946   -28914   -24626    -8854    10540    20875    15677 
    -873   -18341   -25478   -17355      796    19113    30689    33785 
   29763    20711     8972    -2038    -6760     -147    14526    26075 
   27804    22819    17400    14146    11422     8919     8669     9485 
    8010     5973     9841    19386    23499    15358     1672    -8631 
  -12359    -8229     3861    19526    31070    32984    25462    13815 
    6130     6945     9147      936   -15556   -24970   -18476    -2778 
    8253     6918    -2373   -10388   -12001    -5995     5332    14648 
   16819    13752     8401     3238      118    -4545   -15237   -27961 
  -32499   -21317     3352    27125    34927    26816    13213      619 
   -6592    -4305     2342     4217     1418    -1590    -3753    -4949 
   -6635   -11533   -16221   -12964    -2130     7890    13954    19880 
   25843    25558    14149    -3649   -14424   -10476     -167     5516 
    7026     7362     5243     2427     2837     4060      723    -5117 
   -7172    -4777      205     7327    12804    12703    11435    16209 
   24084    25289    18168    10154     5653     1790    -3811    -7457 
   -4847     2227     7381     6330     1198    -4345   -11187   -20313 
  -27388   -26298   -15017     1908    15180    18104    11850     1416 
   -7924   -11535    -9263    -4515      286     4900    10207    14808 
   15419    12538    12043    18482    26748    26454    16094     5987 
    5551    12942    20640    25178    27692    29994    31459    29656 
   23847    16259    11491    11944    12348     7130     1097     1230 
    3457    -2295   -18609   -37096   -46384   -40944   -24074    -6307 
    2343     1080    -3316    -5519    -4816    -1239     4064     7348 
    7275     6698     8414    11520    11793     7732     4220     7929 
   19645    30963    32593    25536    18004    14393    12452     8563 
    3003     -726    -1337    -1657    -4106    -6199    -3078     5174 
   12032    11830     5917      495      566     5352     8799     6990 
    2413    -1375    -3068    -1367     3731     8241     7257     1293 
   -2404      577     3591    -1775   -13221   -20424   -16702    -6146 
    2811     7738    10629    10821     5363    -4164   -10689   -10731 
   -8863    -9200    -8908    -2948    10617    27992    41438    47825 
   49500    47376    41512    34222    27621    22270    19230    19429 
   21217    22029    22179    22299    18360     6318   -11364   -27504 
  -34408   -28660   -15113    -3636       68     -558      253     2258 
    1313    -4590   -11914   -13564    -7312     2242     9718    11271 
    7799     5742     8397    12918    16598    19637    22042    21878 
   18216    12382     6280     1489    -3073   -11107   -22827   -32101 
  -33107   -26055   -13965     -689     8860    13770    16845    18150 
   15828    10245     4210      487       60     3715    10729    15531 
   13146     6739     3642     6361    12106    17945    21126    18657 
   11572     4630      -90    -3989    -6521    -4927     -569     -500 
   -8847   -19911   -24848   -21138   -12147    -3774    -1925    -6883 
  -11670   -10536    -5389     -286     3630     4864     1146    -4980 
   -5593     3464    15546    20322    15812     7755      202    -5216 
   -5607    -1128     3407     5519     6662     7273     6335     3889 
     372    -3272    -4243    -1116     3554     7256     9799    10451 
    7705     2411    -1732    -1626     2160     6300     7962     7127 
    5582     3310     -815    -4707    -5570    -4546    -3443     -823 
    5333    13247    17297    13263     3450    -5252    -8272    -7033 
   -5618    -4729    -2624     -880    -3325   -10891   -20336   -26505 
  -26040   -19377    -9409      791     9522    16849    22019    21803 
   15133     6700     3046     6145    10891    10764     5572     -450 
   -4835    -6269    -3221     2917     7423     7138     4001     2470 
    4712     9895    16070    21091    23815    24644    23444    18662 
   10696     4052     2466     3164      163    -6817   -10714    -5593 
    5921    15160    16182     9869      484    -7292    -9949    -9312 
  -10463   -12491    -9867    -2565     3828     4926      603    -4199 
   -2898     4989    13117    16406    16051    17554    24572    33404 
   36660    31171    19572     8433     4517     8449    13710    13413 
    6517    -1954    -6760    -7732    -8082   -10409   -14611   -18040 
  -18789   -16626   -10812    -2677     1910    -1539   -10270   -17266 
  -18107   -12839    -3059     9132    20047    25347    22920    13763 
     938   -10331   -15344   -14261    -9240     -949     8421    15676 
   20193    20911    14843     4001    -3559    -3605      685     5304 
    8499     8487     3753    -3986   -10594   -13139   -10795    -4797 
    1271     3495      741    -5071   -11689   -17824   -22486   -24730 
  -24205   -20861   -13570    -2520     7210    10015     5823    -1254 
   -5977    -4163     3711    12995    19943    24395    27962    29997 
   27442    20429    13783    10755    10336    11634    15052    19514 
   22256    20109    11549     -222    -9830   -15738   -19072   -19728 
  -17010   -10643    -2322     2559      -67    -6496    -8958    -4467 
    3399     9923    14330    19476    26788    32859    31785    20379 
    2093   -14485   -22262   -19822   -12083    -8241   -13081   -21354 
  -24417   -19111    -9876    -3102      664     4994     9405     9560 
    4739     -788    -3265    -1732     3149     9317    14476    16545 
