Origin Time       2016/04/16 01:25:00
Lat.              32.753
Long.             130.762
Depth. (km)       12
Mag.              7.3
Station Code      MYZ003
Station Lat.      32.5659
Station Long.     131.6598
Station Height(m) 7
Record Time       2016/04/16 01:25:21
Sampling Freq(Hz) 100Hz
Duration Time(s)  300
Dir.              E-W
Scale Factor      7845(gal)/8223790
Max. Acc. (gal)   85.972
Last Correction   2016/04/16 01:25:21
Memo.             
[...]
     -23      872      994       43    -1498    -2471    -2690    -2681 
   -2681    -2552    -2343    -2386    -2519    -2398    -2284    -2169 
   -1648     -780      496     2378     4074     4796     4777     4187 
    3186     2141      793     -820    -2280    -3939    -5320    -5400 
   -4752    -3743    -2223    -1128     -657     -471    -1431    -3312 
   -4614    -5412    -6527    -7484    -7276    -5711    -3323     -646 
    1788     3350     3688     2932     1455     -409    -2110    -2882 
   -2467    -1100      795     2415     3051     2556     1227     -206 
    -893     -383      918     2072     2570     2255     1379      746 
     211     -962    -2412    -3649    -4614    -5108    -5410    -5968 
   -6679    -7160    -7071    -6671    -6380    -5721    -4128    -2169 
    -862     -349     -291     -880    -2000    -2896    -3519    -3861 
   -2980     -769     1626     3315     3754     3117     2323     1372 
      16     -769     -237     1250     2509     2168      877      441 
     656      468     -333    -1796    -3292    -3643    -2565     -724 
     596      160    -2052    -5215    -8356   -10066    -9732    -8035 
   -4907     -886     1738     3499     6752     9624     8816     4947 
     854    -1282    -1233     -469      255     1188     2064     2596 
    2396      486    -2448    -4554    -6419    -8461    -8623    -7094 
   -5660    -3731    -1381      -11      881     2042     3090     4248 
    5220     4523     2200     -268    -2281    -3765    -4635    -5260 
   -5784    -5640    -4398    -2362     -220      997     -135    -4074 
   -9425   -14255   -16567   -14347    -7877       32     6957    11450 
   12874    12719    12904    12287     8222      934    -6363   -10322 
   -9688    -6095    -2714    -1856    -3118    -3974    -3001    -1345 
    -370     -376    -1525    -3276    -4453    -5164    -5988    -6056 
   -5143    -5278    -6612    -5582     -823     4731     8927    11003 
    9664     5676     2056       45    -1883    -5134    -8013    -7734 
   -4783    -1474      413     -437    -2556    -3169    -2513    -1351 
     874     3080     3277     1123    -1742    -3122    -3406    -4207 
   -4946    -5123    -4568    -1554     3446     6600     5922     3013 
    -683    -5408   -10646   -14150   -13946   -10312    -5152        2 
    3747     4808     3672     1239    -2652    -7132    -9574    -8283 
   -4421     -664     1397     2150     3141     4431     3653      560 
   -1773    -1833     -220     1475     1120       47     1209     2998 
    2358     -279    -2914    -4299    -3984    -2224      230     2986 
    5630     6295     3589     -967    -5171    -8085    -9131    -8579 
   -8398    -9690   -10935   -11138   -11132   -10917    -9726    -7477 
   -5219    -4017    -2502      688     4318     7466     8721     6022 
    1640      265     3485     9445    14652    17311    18758    19383 
   17072    10739      919   -10507   -18954   -21892   -21778   -19423 
  -13721    -6837    -1921    -1243    -5248   -10173   -13124   -14794 
  -15331   -14968   -13128    -6686     3693    12610    16965    16857 
   13197     8149     4170     1139    -2269    -4877    -5458    -5335 
   -5233    -5184    -5915    -6875    -6852    -6350    -6199    -4600 
     589     6735     8942     6139     1503     -892     -341     1359 
    3965     6812     8863    11175    12806    11398     7565     2412 
   -2319    -4195    -5030    -7102    -8803    -9198    -8688    -7807 
   -8502   -11074   -11884    -8870    -5961    -6767    -9409   -11214 
  -10887    -8414    -6498    -6577    -7020    -6072     -986     8941 
   17992    21648    21878    20587    17100    11352     4561    -1132 
   -3755    -3160     -268     4572    10395    14480    14704    11034 
    3454    -8919   -23901   -34428   -36555   -34773   -32933   -28757 
  -21996   -15546    -9556    -5036    -3686    -2249     1048     3831 
    7130    12330    17301    21203    22551    18307    10771     4441 
    -326    -2763     -926     3234     7125    11395    15615    17170 
   14532     5965    -8935   -24526   -33407   -33185   -26703   -19481 
  -14204    -8298     -805     6527    14069    19419    17477     9933 
    1880    -4872    -9490   -12376   -13621   -10496    -4044      903 
    5486    13302    21467    25682    24077    14457     -400   -11735 
  -15133   -12692    -7751    -3200      434     4422     7655     8394 
    6076     -834   -10656   -17841   -21139   -22102   -18940    -9810 
    3353    16438    26388    31135    28425    20494    12657     4488 
   -5702   -13369   -15680   -16078   -15828   -13471   -10721   -10261 
  -13165   -16935   -16572   -14170   -14142   -11461    -3078     5845 
   13740    19553    19319    15817    12654     6751    -1462    -7707 
  -11573   -12514    -9945    -6844    -3680      946     4823     7342 
    9375     7812     1647    -5351   -10976   -14445   -15132   -14453 
  -12725    -7847     -557     5895    10968    14481    14014     9609 
    3393    -4766   -13633   -18733   -18777   -15966   -10940    -3932 
    3487    10095    15392    18238    15643     7044    -2560    -8888 
  -10708    -7441     -739     6805    13784    18621    19245    13946 
    3235    -9890   -21840   -28335   -26901   -18890    -5637     9907 
   20920    23072    17811    10339     5584     2551    -2282    -6774 
   -7168    -4483     -603     3292     3919       82    -3527    -2390 
    2027     5571     6372     5027     2675     -429    -4149    -7275 
   -8343    -6264    -1228     3750     5178     3766     2106    -1053 
   -5895    -7439    -5238    -3704    -1190     4915    10497    12906 
   13675    12405     8668     3880    -2767   -11888   -18893   -19120 
  -14080    -7558    -1154     3697     5116     3034     -575    -3377 
   -4062    -3240    -3267    -6166   -10864   -12874   -10767    -9373 
   -9367    -6084    -1714     -298     1815     6644    11169    15196 
   18315    17494    13562     9605     6077     2813      355     -695 
    -719    -2083    -5386    -9046   -14570   -21467   -23438   -20316 
  -18387   -17748   -16055   -15811   -18145   -20025   -19440   -16471 
   -9783     1852    13849    21064    25992    30812    32779    32074 
   28709    19048     5377    -5530   -12044   -13761    -9443    -2610 
    3375     8939    12256    10875     5683    -1313    -7789   -12742 
  -17135   -20479   -21568   -19462   -12613    -3653     2096     5552 
   10088    14261    16048    16368    16347    15047    11237     6711 
    3653     1668      573      396      451      872      415    -2878 
   -7547   -11516   -14003   -13603   -10733    -6917    -3026    -1196 
     -60     3892     6779     4918     2081     -326    -2803    -2340 
     544     2215     2811     3265     2941     1929      665     -523 
   -1509    -3336    -5826    -6705    -6930    -8999   -10666   -10558 
  -11064   -10405    -5414     1522     6673     8318     7110     5331 
    2265    -2999    -7542   -10868   -13783   -12155    -4437     5441 
   15970    24559    25895    21332    14920     5428    -7059   -18080 
  -24376   -24965   -20395   -12896    -4187     5174    12768    15483 
   12995     5248    -5418   -11493   -11394   -11070   -10941    -8418 
   -5439    -2876      583     4024     5721     5603     5003     3429 
   -1367    -7321   -10705   -11866   -10415    -6199    -2382     1912 
    8326    12706    13172    10658     4237    -3669    -8988   -10876 
   -8441    -3368    -1224    -1850    -1032     -325    -2092    -4722 
   -8627   -13898   -16112   -13745    -8856    -1094     7650    12402 
   12141     7681      877    -2520     -905     1007     2299     4194 
    3532     -202    -2400    -2050    -1198      -25     1003     1814 
    3844     6448     7684     5938       25    -7340   -12193   -14805 
  -16078   -14740   -10287    -3956     2205     5989     5953     3496 
    1833     1370      955      955      946      283      -78      603 
    2242     3269     1599     -855     -565      807     -569    -3414 
   -3418    -1112    -1520    -5636    -9791   -11892   -11264    -7129 
   -1644      818       81     -359     -824    -2201    -1953     -715 
    1163     6848    12993    14397    13467    11963     9161     7126 
    5113      317    -5116    -8991   -12479   -15091   -16441   -19651 
  -23946   -22300   -14044    -6841    -4523    -5117    -5314    -2860 
    1398     6700    11901    12370     7682     3240     1252     1470 
    4009     7811    12177    15237    13838     9396     6238     5547 
    5080     1078    -7452   -15639   -18565   -16681   -13500   -12530 
  -14450   -16050   -15427   -14170   -13045   -11753   -10319    -7665 
   -3744    -1435    -2046    -2625    -1224     -475    -1611    -1556 
     638     3824     8154    11202    11273    12055    14222    14813 
   13930    11018     4903    -1719    -6003    -6880    -4939    -3896 
   -5621    -8467   -12312   -16745   -19430   -20372   -21070   -21303 
  -20683   -19197   -15697    -9614    -3138      799     2501     4535 
    7430    11217    17004    22526    23147    18689    13710    10385 
    5964      940     -341      -68    -1977    -3229    -4355    -8703 
  -12109   -12147   -13475   -16106   -15556   -11002    -5363    -3186 
   -5027    -5286    -1923     2473     7927    12577    13028    12393 
   12826    10335     4568     -425    -2182    -1370    -1883    -4949 
   -7314    -8799   -10982   -12737   -13250   -12758   -11975   -11333 
   -9190    -5320    -1206     3693     8240    10091    10917    11207 
    9629     8823     9166     7010     2385    -3307    -8733   -10173 
   -7527    -4314    -2089    -2309    -4691    -5611    -4626    -4654 
   -7041   -11514   -16136   -18522   -19035   -18107   -13806    -6754 
   -1193     1325     2573     2851     2184     1444     -648    -5267 
   -9894   -10905    -7763    -3001     2454     9309    14778    16237 
   15966    15093    11352     5115      526     -499    -1230    -2907 
   -1925     1021     1794     1244      635    -2331    -6856    -8779 
   -7916    -7429    -7361    -6104    -4735    -5024    -7798   -12472 
  -16229   -17200   -15430   -11407    -7580    -5491    -2720     1868 
    6089     8683    10408    12511    14889    15599    13914    11591 
   10341    10092     9182     6266     1622    -3870    -8775   -11919 
  -14585   -17209   -16502   -11245    -4803      248     3057     3176 
    2041     1362     1588     2837     4083     4314     4062     3175 
    1327     -621    -3160    -7225   -11614   -15434   -19317   -23236 
  -25435   -23909   -20104   -18079   -18146   -17230   -13903    -8314 
   -1193     6720    14787    21315    26581    32139    35683    35532 
   33497    29785    24383    18636    12584     6254     -594    -9420 
  -19680   -29127   -36686   -41494   -42222   -39654   -36030   -31027 
  -24598   -19252   -13711    -5250     2614     7226    12326    18716 
   22549    23915    26029    29683    34180    39077    42601    41581 
   35514    27515    19148    10038     1711    -4804   -11159   -17458 
  -21924   -25726   -31125   -36660   -40166   -41636   -41638   -40751 
  -37002   -27760   -17308   -10670    -4190     5070    13733    22131 
   32877    42743    48455    49574    43502    29941    14550     1150 
  -11620   -23762   -31074   -30677   -25421   -20133   -15807   -12064 
  -12719   -19678   -26147   -26647   -23151   -16619    -7354      425 
    5595    12294    22032    32628    41558    46237    46445    44307 
   39479    30657    19376     7165    -5327   -15789   -23323   -30186 
  -36656   -40562   -41401   -39954   -37162   -34100   -29392   -20949 
  -11940    -6952    -4746    -1742     3046     7676     9774    12259 
   19649    29600    38631    46776    51611    50870    47040    41474 
   33165    23446    13926     4205    -5557   -14481   -23198   -33430 
  -43761   -49121   -48093   -45632   -45685   -45307   -39698   -30362 
  -20889   -10809    -1397     3948     6431     8082     8467     9198 
   11902    14396    14575    12876    10372     8131     7099     7298 
    7566     6994     6280     7026     9711    12413    14247    17365 
   21285    23656    26210    29416    29515    25991    20355    11722 
     932    -8800   -14955   -16314   -14585   -12224    -9262    -7056 
   -7916   -10686   -14681   -20741   -25906   -27476   -28109   -30716 
  -35294   -40504   -44282   -44587   -39675   -29552   -16764    -2821 
   11927    24775    32481    34704    33265    30217    25972    19408 
   11109     3010    -4602   -12262   -19658   -24818   -25077   -20926 
  -15284    -9736    -4892     -691     2323      781    -5238    -9192 
   -8414    -5360      157     7115    11553    12873    11919     9279 
    8073     9653    11194    10706     8263     5213     4156     4648 
    3623     2111     2882     4989     7700    11237    13004    12301 
   12402    12849     9756     3003    -5297   -13667   -19840   -22832 
  -23304   -19955   -11237      728    11956    19800    23294    24012 
   25411    27051    25354    21884    20314    20132    21012    22449 
   21384    18574    17604    18311    19614    21151    19350    10516 
   -3931   -20790   -37854   -52672   -65184   -75914   -81098   -79845 
  -78698   -81595   -85338   -86926   -86640   -84269   -79648   -74714 
  -69475   -61326   -49708   -35656   -19421    -1628    15977    31278 
   42661    50515    57241    64473    72320    80250    86324    88919 
   88965    87875    86200    84306    80709    72635    60716    48978 
   39653    30842    19238     4062   -12035   -25120   -32130   -32611 
  -30441   -29735   -29239   -27626   -27472   -29018   -30396   -32217 
  -34576   -35561   -34615   -31450   -23845   -11410     1949    12164 
   18798    24175    29474    33311    34572    33486    30915    27702 
   24046    21184    20081    18117    12542     3407    -7931   -18816 
  -27111   -33212   -37380   -39046   -38608   -37191   -36648   -37970 
  -39314   -39935   -42287   -47024   -51760   -55058   -56947   -57426 
  -56643   -55566   -55482   -55111   -50591   -41096   -29972   -19097 
   -8016     2673    13687    27942    44162    57755    67178    72932 
   75197    73827    68944    62108    54518    45335    33247    18835 
    6443     -322    -5019   -12266   -20795   -28417   -34724   -39961 
  -46773   -56774   -66584   -71297   -67562   -55464   -39320   -21897 
   -1579    20889    40568    54060    60644    62388    63536    64469 
   62889    59698    55879    49707    41156    33351    28005    24467 
   23317    24630    24952    21105    13441     3002   -11084   -28629 
  -45932   -59495   -68334   -71733   -68832   -60413   -48897   -36475 
  -23681    -9350     7682    25834    39795    44265    40086    31770 
   19500     2754   -14069   -26713   -33015   -31838   -25820   -18107 
   -8334     3036    13351    20008    19480     9289    -7897   -25229 
  -37084   -43591   -47738   -48878   -44327   -34969   -22781    -8352 
    3639     7028     4241     1009    -3659   -11580   -20355   -27981 
  -32751   -31141   -22073   -10156      754    11889    22312    27757 
   27086    20842     9466    -4082   -17081   -29980   -41809   -49616 
  -53345   -53282   -46793   -32235   -11761    10376    30592    46584 
   55938    57210    52720    47567    45891    48871    54503    59360 
   62665    66714    71861    75122    74314    70073    63726    54845 
   42877    29560    16177     2556   -10296   -21764   -32679   -42404 
  -49445   -53245   -52601   -48273   -44840   -43198   -39433   -32589 
  -24070   -15138    -8298    -3649      924     4074     3727      811 
   -3688    -8814   -13169   -17501   -22084   -24568   -24275   -22083 
  -17409   -11276    -7146    -5857    -5312    -4327    -2710     -400 
    2062     4293     5771     5428     4544     6583    11561    15631 
   16915    15943    11645     3114    -7101   -16615   -24836   -29797 
  -30634   -30127   -30904   -33513   -36882   -39100   -39722   -39089 
  -36360   -30689   -22303   -13061    -5525      286     6683    14805 
   23553    31428    38240    44772    51633    58534    63549    64392 
   61078    55341    48423    40539    30499    17139     3015    -7271 
  -13113   -17280   -20904   -23751   -25158   -22905   -17032   -12307 
  -12028   -14056   -15203   -15210   -15340   -15233   -12827    -7635 
   -1518     4116     9051    13273    16641    18543    19024    18850 
   17261    13460     8368     2578    -3157    -7677   -11811   -16274 
  -19751   -22634   -26256   -28507   -27733   -26584   -27503   -30438 
  -34458   -38215   -40535   -40065   -35280   -26886   -17135    -6293 
    5614    15685    22191    27438    33034    37770    40940    43522 
   46035    47321    46187    42607    36641    27626    15381     2673 
   -6571   -12452   -17663   -22449   -25824   -28669   -32476   -37131 
  -41575   -44829   -45127   -40728   -33018   -25415   -18392   -10224 
   -1028     8120    16454    23222    28317    32047    34534    35708 
   35695    35284    35367    36475    38002    37096    32325    26600 
   21243    13756     4131    -5464   -15431   -26193   -35738   -42508 
  -46337   -47934   -48853   -49102   -46951   -41864   -34122   -24070 
  -13466    -3183     8156    20197    31148    41083    49881    56002 
   58426    57302    54063    50255    45793    39240    29554    18308 
    8943     2405    -3782   -11180   -18261   -23205   -26368   -29013 
  -31683   -34852   -38190   -39297   -36247   -29747   -21647   -13402 
   -5626     2482    11411    18963    23454    26964    31322    34411 
   33818    30739    27171    23187    18558    13026     6033    -2070 
  -10484   -18503   -24541   -26379   -23544   -17572   -10301    -4874 
   -3842    -4977    -5667    -6961    -8494    -7080    -1541     6292 
   13869    19772    24281    28660    33704    37862    39133    37939 
   34717    29822    25774    23469    21011    18416    16059    11867 
    5294    -2295   -11284   -22299   -33879   -43703   -50230   -53654 
  -54557   -52694   -48660   -43595   -37450   -29446   -19415    -9077 
    -510     6802    14426    22385    30211    37910    44757    49266 
   51200    51525    51343    51915    52593    50753    46163    40420 
   32813    22079     9530    -2949   -14524   -24251   -31041   -34484 
  -35625   -36300   -37423   -38998   -39837   -38655   -36675   -34912 
  -31833   -26790   -20169   -11813    -2713     6361    16021    25158 
   30649    30666    26846    22820    20605    19739    18233    14057 
    8001     2735     -156     -373      375     -159    -1822    -3784 
   -5871    -7982   -10906   -14891   -18158   -19747   -20773   -22144 
  -23786   -24894   -23814   -19296   -11654    -2355     6399    12343 
   14222    12339     8383     4320     1599     1372     3466     5748 
    6559     5622     2822     -332    -1334     -955    -1973    -4448 
   -6690    -8291    -9355    -9602    -9165    -8398    -7229    -5362 
   -2482     1294     5005     7923    10019    10409     7825     3300 
    -741    -3229    -3596    -1470     1838     4791     6987     7820 
    6913     5111     3177     1530      928     1692     3253     4735 
    5209     3650     -263    -4837    -7323    -6759    -4499    -2008 
     847     4592     8012     9066     7182     3570      324     -747 
