Origin Time       2016/04/16 01:25:00
Lat.              32.753
Long.             130.762
Depth. (km)       12
Mag.              7.3
Station Code      MYZ013
Station Lat.      31.9087
Station Long.     131.4187
Station Height(m) 5
Record Time       2016/04/16 01:25:26
Sampling Freq(Hz) 100Hz
Duration Time(s)  237
Dir.              E-W
Scale Factor      7845(gal)/8223790
Max. Acc. (gal)   53.738
Last Correction   2016/04/16 01:25:27
Memo.             
[...]
     546     1417     1005      129     -288     -349     -594     -800 
    -346      533      931      274    -1286    -3014    -4126    -4356 
   -3877    -3118    -2565    -2376    -2471    -2974    -3946    -4965 
   -5416    -4885    -3443    -1935    -1559    -2944    -5618    -8111 
   -9116    -8579    -7238    -5827    -4941    -4608    -4240    -3260 
   -1559      351     1640     1915     1362      357     -685    -1278 
   -1175     -702     -309     -210     -646    -1795    -3397    -4660 
   -4833    -4168    -3728    -4067    -4708    -5035    -5060    -5123 
   -5164    -4765    -3970    -3504    -3852    -4727    -5621    -6412 
   -6972    -6571    -4864    -2792    -1389     -776     -514        8 
    1065     2170     2535     1744     -205    -2786    -4785    -5327 
   -4783    -3910    -3021    -2262    -1863    -2158    -3172    -4241 
   -4837    -4912    -4315    -3272    -2843    -3701    -5348    -6899 
   -7803    -8208    -8857   -10015   -10920   -10640    -9217    -7892 
   -7886    -9163   -10585   -10790    -9158    -6381    -3631    -1456 
     -54      418       32    -1259    -3335    -5109    -5711    -5698 
   -5833    -6168    -6534    -6566    -5859    -4753    -4180    -4603 
   -5738    -7037    -7673    -6835    -4788    -2837    -1933    -1975 
   -2574    -3530    -4363    -4558    -4095    -3109    -1914     -953 
    -194      741     1698     1791      492    -1671    -3649    -4538 
   -4027    -2525     -787      645     1482     1220     -477    -2817 
   -4240    -4144    -3132    -1533      352     1375      900     -337 
   -1476    -2296    -2967    -3550    -3839    -3823    -3593    -3215 
   -3134    -3771    -4748    -5184    -4739    -3981    -3608    -3902 
   -4824    -6021    -6848    -6806    -6115    -5530    -5633    -6486 
   -7188    -6305    -3619     -606     1000      753     -114      -47 
     967     1682     1586     1258     1105      972      502     -475 
   -1551    -2020    -1728    -1413    -1800    -2435    -2303    -1337 
    -625     -984    -1935    -2682    -2876    -2397    -1680    -1124 
    -591     -315     -491     -675     -708     -616     -128      369 
     -86    -1431    -2651    -3303    -3948    -5310    -7123    -8324 
   -8594    -8729    -9509   -10617   -10854    -9779    -8348    -7410 
   -6994    -7260    -8410    -9979   -11394   -12240   -11970   -10606 
   -8635    -6394    -4974    -5664    -7974   -10057   -10436    -8942 
   -6718    -5058    -4330    -4280    -4368    -3931    -3040    -2420 
   -2014     -849     1606     4946     8128     9913     9879     8949 
    8197     7477     6046     3700      812    -1637    -2297     -897 
     990     1679      907     -777    -2875    -5032    -7005    -8743 
  -10721   -13441   -16298   -17953   -17934   -16926   -15943   -15655 
  -15836   -15674   -14638   -12341    -8675    -4542    -1237      513 
     525     -864    -2825    -4347    -4704    -4137    -3600    -3407 
   -2984    -2166    -1547    -1336    -1150    -1048    -1609    -2992 
   -4418    -4754    -4064    -3618    -3975    -4442    -4375    -4136 
   -4538    -5525    -6385    -6781    -6770    -6523    -6033    -5174 
   -4194    -3361    -2571    -1655     -626      272      830      996 
     625      -76     -217      689     1975     2702     2833     3144 
    3963     4953     5898     6876     8006     9100     9639     9285 
    8050     6126     4155     2952     2312     1085    -1414    -4730 
   -7788    -9764   -10262    -9424    -7978    -6219    -4077    -2565 
   -2624    -3542    -4600    -5684    -6222    -5879    -5027    -4174 
   -3653    -3333    -3252    -4237    -6941   -10740   -13905   -15033 
  -13867   -10922    -7399    -4684    -3349    -3005    -2956    -2740 
   -2147    -1386    -1071    -1502    -2471    -3470    -3993    -4094 
   -3838    -2929    -1615     -643     -438     -869    -1348    -1225 
    -634     -289      -49      787     2184     3854     5425     6066 
    5605     4691     3515     2158     1163      298    -1382    -3915 
   -6521    -8726   -10592   -12448   -14539   -16942   -19336   -20667 
  -20275   -18790   -16954   -15128   -13608   -12158   -10438    -8748 
   -7246    -5836    -4845    -4572    -4730    -4654    -4048    -3549 
   -3578    -3589    -3235    -2461     -973     1128     3459     5525 
    6424     5915     5011     4392     3588     2355     1162      186 
    -876    -2413    -4291    -5327    -4321    -1830      -41     -318 
   -1755    -3200    -4849    -6710    -8058    -8858    -9567    -9890 
   -9211    -7959    -7176    -6975    -6754    -6243    -5555    -4847 
   -4345    -4762    -6484    -8256    -8787    -8106    -6270    -3618 
   -1440     -168     1023     2578     4155     5283     5757     5629 
    4984     3823     2446     1772     2338     3354     3726     3213 
    2386     1410     -394    -2907    -5481    -8319   -11068   -12297 
  -11422    -9477    -7659    -6303    -5543    -5229    -4788    -4118 
   -3469    -3042    -3071    -3842    -5445    -6966    -7533    -7711 
   -8247    -9067    -9778   -10223   -10400   -10143    -9263    -7684 
   -5460    -2243     2388     7429    11273    13211    12962    10463 
    6442     2416     -301    -1334    -1206    -1105    -1435    -1339 
    -832    -1150    -3080    -6355    -9645   -11200   -10234    -7434 
   -4055     -804     2199     4580     5486     4510     2121     -961 
   -3959    -6340    -8293   -10104   -11808   -13012   -12463    -9366 
   -4847     -835     1564     2199     1439      128     -843    -1667 
   -3465    -6612   -10282   -13618   -16069   -17098   -16645   -15237 
  -13271   -11002    -9067    -7873    -6952    -5937    -4595    -2089 
    1533     4495     5247     3628      600    -2066    -3032    -2419 
   -1333     -818     -843     -479      935     3393     6241     8159 
    8198     6771     5058     3960     3437     2513      513    -2081 
   -4590    -6840    -8527    -9408    -9915   -10685   -12282   -14837 
  -17334   -18531   -18025   -16109   -13791   -11998   -10750   -10034 
   -9725    -8985    -7758    -7179    -7744    -8734    -8900    -7304 
   -4429    -1661      140      819     1013     1969     4044     6223 
    7457     7601     7114     6754     7042     7376     6628     4708 
    2466      572     -702    -1170     -932     -634    -1043    -2539 
   -5174    -8336   -10696   -11464   -10957    -9811    -8401    -6903 
   -5837    -6207    -8098    -9972   -10459    -9464    -7820    -6820 
   -7141    -8660   -10936   -13288   -15340   -16622   -16235   -13938 
  -10565    -7414    -5108    -3392    -2579    -3114    -3358    -1053 
    2698     4669     4345     3524     2844     2234     2381     3223 
    3211     1541     -808    -2837    -4333    -5047    -5143    -5637 
   -7009    -8559    -9322    -8802    -7105    -4431    -1057     1757 
    2671     2062     1252     1078     1765     2876     3476     2791 
    1057     -598    -1683    -2704    -3712    -4178    -4066    -3942 
   -4384    -5351    -6016    -5563    -4047    -2432    -1591    -1425 
   -1387    -1148     -762     -823    -1626    -2299    -2107    -1748 
   -1975    -2673    -4003    -6031    -7736    -8306    -8253    -8702 
  -10052   -11626   -12345   -11461    -8999    -5919    -3518    -2458 
   -2610    -3492    -4423    -4653    -3735    -2386    -2295    -3859 
   -5582    -6288    -6388    -6615    -6651    -5756    -3805    -1347 
     544     1036      594      387     1011     2296     3964     6033 
    8202     9558     9265     7560     5841     4896     4383     4429 
    5054     4874     2808     -406    -3459    -6115    -9207   -13058 
  -16715   -19365   -20972   -21423   -20776   -19714   -18800   -17930 
  -16595   -14833   -13441   -12613   -11855   -11159   -10234    -8070 
   -5008    -2712    -1719    -1476    -1431    -1093     -378      330 
     515     -157    -1547    -3177    -4455    -4901    -4482    -3612 
   -2710    -1810     -857      106     1021     1746     2498     3678 
    5162     6686     8027     8993     9726    10026     9467     8453 
    7568     6756     5634     3889     1723     -283    -2046    -4062 
   -6374    -8299    -9516   -10469   -11418   -11940   -11616   -10697 
  -10038   -10486   -11912   -13311   -13922   -13541   -12806   -12964 
  -14110   -14924   -14517   -13167   -11589   -10498   -10189   -10134 
   -9759    -8846    -7091    -4448    -1354     1368     2546     1755 
      97     -857     -699     -388     -942    -2515    -4390    -5668 
   -6249    -6711    -7426    -7992    -7600    -6330    -4901    -3307 
   -1387      477     2074     3145     3244     2651     2116     1863 
    1923     2533     3414     3969     4107     3974     3835     4260 
    5687     7811     9563     9936     8637     6124     3422     1512 
     469     -468    -1917    -4032    -6781    -9844   -12771   -15232 
  -16903   -17471   -17158   -16742   -16491   -16355   -16380   -16194 
  -15649   -14793   -13266   -11041    -8368    -5319    -2394     -841 
   -1215    -1910    -1096      895     2915     4480     5184     4747 
    3740     3381     4475     6405     7568     7188     6165     5960 
    7015     8460     9358     9440     8748     7572     6451     5676 
    5042     4180     2775      800     -957    -1927    -2702    -3688 
   -4630    -5306    -5638    -5938    -6501    -6919    -6808    -6654 
   -7482   -10000   -13821   -17371   -19246   -19637   -19576   -19481 
  -19287   -19105   -19103   -18873   -17432   -14638   -11712    -9713 
   -8486    -7167    -5248    -3111    -1467     -882    -1354    -2034 
   -2161    -1769    -1468    -1939    -3156    -3987    -3134     -464 
    2971     5867     7330     7365     6760     6070     5181     3847 
    2215      978      697      985      882     -225    -2008    -3630 
   -4803    -5849    -7045    -8391   -10069   -12212   -14080   -14661 
  -13555   -11102    -8191    -5470    -3078    -1017      787     2098 
    2502     2245     1587      121    -2015    -3851    -5080    -6274 
   -7692    -8766    -8635    -7150    -5205    -3440    -1687     -133 
     997     2199     3477     3924     2736       75    -2934    -5740 
   -8799   -11646   -12864   -12228   -10705    -9312    -8799    -9285 
  -10381   -11570   -12330   -12484   -11942   -10485    -8634    -7350 
   -6393    -5243    -4781    -5317    -5760    -5956    -6459    -7152 
   -7789    -8245    -8170    -6924    -4149     -403     3734     7682 
   10131    10810    11156    11732    11722    10957     9807     8299 
    6853     6030     6006     7029     8712     9648     8961     6724 
    3125     -969    -4148    -6186    -7756    -9448   -11731   -14315 
  -16406   -17469   -17547   -17779   -18986   -20455   -21379   -21497 
  -20923   -20610   -21406   -23220   -25590   -27672   -28441   -27727 
  -26152   -24356   -22607   -20641   -17938   -14351   -10408    -6782 
   -3661     -504     3738     9699    16794    23791    29528    33241 
   35248    36551    37423    37894    38419    39005    39073    37839 
   34840    30898    27176    23267    18111    11742     4575    -3044 
  -10187   -16258   -21604   -26222   -29427   -30905   -31068   -30470 
  -29485   -28657   -28667   -29470   -30225   -30514   -30654   -30719 
  -30659   -30782   -30946   -30562   -29435   -27265   -23568   -18562 
  -12870    -7026    -1683     2679     6246     9282    11604    12910 
   12958    12081    11398    11657    12730    14189    15295    15132 
   13574    11365     8962     6026     2407    -1026    -3322    -4085 
   -3119    -1004      832     1202     -317    -3115    -5752    -7107 
   -7056    -5945    -4534    -3964    -4241    -4052    -2770     -693 
    2239     5850     8721     9787     9791     9887     9931     9180 
    7248     3694    -1449    -7056   -11943   -15534   -17706   -18781 
  -19039   -17988   -14800    -9506    -3724      178     1282      -75 
   -3555    -8185   -13104   -18085   -22566   -26179   -28642   -29386 
  -28537   -26913   -25564   -25839   -28394   -32355   -35960   -37308 
  -35094   -29328   -21132   -12221    -4120     2830     9202    14708 
   17988    18569    17316    15507    14100    13309    12907    12322 
   10804     8033     4140     -286    -4028    -5918    -5647    -3171 
    1764     8757    16081    21736    24985    25768    23992    20491 
   16175    11296     6301      726    -5965   -12205   -16714   -19635 
  -21118   -22272   -23971   -25425   -26458   -27180   -26158   -22221 
  -16225    -9852    -4629    -2461    -4480    -9530   -15444   -20636 
  -24229   -26200   -27345   -28216   -28749   -28331   -26109   -22356 
  -18046   -13319    -8009    -2623     1551     4032     6426     9559 
   12168    14085    15909    16806    17024    17406    16054    12285 
    8383     5171     3451     5487    10944    17014    22214    26578 
   30397    34048    37129    38678    38082    34912    29818    23642 
   15211     4024    -7068   -15592   -22308   -27731   -30265   -29172 
  -25213   -18902   -10935    -2673     4279     8365     8797     5744 
     526    -5026   -10170   -14442   -16652   -16441   -14774   -12461 
  -10338    -9645   -11071   -14902   -20545   -25713   -28813   -30451 
  -31306   -31212   -30115   -28344   -26843   -26365   -26442   -26362 
  -25756   -24922   -24483   -23363   -20232   -15754    -9828    -1155 
    9046    18272    25948    32260    37781    43563    48960    52288 
   52830    51020    48032    44562    40211    34821    29517    24764 
   19225    12931     7722     3665     -450    -4600    -8310   -11642 
  -14562   -16441   -17037   -17610   -18929   -20306   -21887   -23730 
  -24368   -23386   -22115   -21431   -21848   -23693   -25725   -26283 
  -24777   -21853   -19711   -19731   -20200   -18850   -15074    -9103 
   -2011     4306     9294    13722    16680    16609    14569    12517 
   10725     8734     7173     7365     8348     7862     5953     2921 
   -1692    -6596   -10566   -13710   -15157   -14146   -12375   -12228 
  -13855   -15682   -17169   -19039   -21444   -23649   -24656   -23773 
  -21712   -20371   -20501   -21420   -23043   -25074   -26065   -25282 
  -22832   -18794   -13973    -9433    -5560    -2484      141     3071 
    6619    10790    15313    19251    21265    20833    18635    15434 
   11935     8770     5756     3021     1497      777     -399    -2095 
   -4464    -8519   -13977   -19025   -22580   -24922   -26631   -28117 
  -28957   -27850   -24470   -19961   -15525   -12127   -10463    -9830 
   -8630    -7003    -6706    -7673    -8154    -7778    -6627    -4125 
    -862     2424     6701    12718    19809    26686    31531    33338 
   33120    31873    29231    25392    21683    18616    16100    14419 
   12916    10463     6829     2195    -2755    -7144   -10725   -13612 
  -16324   -19290   -21554   -21560   -18897   -14534   -10228    -7852 
   -8753   -13066   -19117   -23954   -25169   -22254   -16505   -10899 
   -8505    -9402   -11195   -12077   -11871   -11445   -11198   -10164 
   -7697    -4695    -1572     2992     9163    14696    18209    19626 
   18160    13597     7094      425    -4568    -7406    -8193    -6799 
   -4417    -2759    -2097    -1892    -1895    -1591     -251     1642 
    2953     3339     3028     2880     3544     4137     4266     4866 
    5842     6172     5223     2976        9    -3144    -6241    -9234 
  -11943   -13512   -13180   -10852    -6839    -2092     2504     6828 
   10578    13497    16588    20839    25590    29963    33621    35716 
   35868    34831    32915    29766    25635    20773    14133     5093 
   -4824   -13254   -18488   -20733   -21837   -22593   -22673   -22937 
  -24217   -25836   -27507   -29223   -30183   -30559   -31669   -34376 
  -38763   -43698   -47208   -48270   -47648   -46734   -45354   -42226 
  -37555   -32375   -26707   -20592   -14658    -9137    -3769     1791 
    7281    11971    16093    20611    24836    26590    24894    20154 
   14021     9322     7569     8644    12225    17159    21068    21818 
   19329    14945     9810     4718      -10    -4502    -8343   -10450 
  -11022   -12220   -15296   -18874   -21456   -23400   -25033   -25196 
  -23017   -18963   -13451    -6380     1472     8052    12179    14442 
   15190    14499    13262    11919    10239     8540     6995     5125 
    3067     1677     1026      301     -884    -2249    -3352    -3997 
   -3935    -2700     -973      411     2521     5433     6777     5702 
    2853    -2748   -11125   -19340   -25590   -30188   -33361   -36417 
  -41035   -45886   -48037   -46537   -42803   -38889   -35575   -32421 
  -29531   -27824   -27616   -28576   -29606   -27864   -22262   -15215 
   -7603      853     8070    13235    17828    21760    25215    29883 
   35272    39849    43494    45427    44599    41652    37604    33232 
   29812    27635    25999    24669    22194    17061    10785     4774 
   -1880    -9612   -17246   -24165   -31329   -38720   -44663   -47926 
  -47911   -45056   -41407   -38792   -37089   -35087   -32960   -31276 
  -28354   -22373   -13710    -4189     4218    10484    14260    15993 
   16690    16965    17443    18453    19916    21709    23263    24040 
   23836    22802    21807    21525    21519    21637    22107    21690 
   20220    20034    21321    22312    22414    21095    18246    15026 
   12514    11292    11268    11848    12318    12264    11750     9841 
    5849     1387    -2218    -5201    -7430    -8117    -7515    -6959 
   -6866    -7481    -9324   -11761   -14565   -18277   -21895   -23868 
  -24341   -23785   -21892   -19313   -16980   -14793   -13197   -12737 
  -12802   -12864   -12854   -12517   -11605   -10110    -7992    -5792 
   -4891    -5629    -6959    -8144    -8849    -8800    -8403    -8553 
   -9664   -11961   -15639   -19553   -22445   -24493   -25513   -24517 
  -21471   -17423   -13497   -10517    -8607    -7111    -5179    -1825 
    3079     7944    11207    12931    14035    15190    16713    18241 
   19047    18918    17982    16507    14378    10851     5699     -409 
   -6835   -13135   -18114   -20399   -19842   -17049   -12980    -8985 
   -5864    -3825    -3183    -3638    -4595    -6901   -11414   -17046 
  -22543   -27384   -31132   -33594   -34300   -33470   -32721   -32837 
  -33543   -34361   -34393   -32761   -29299   -24949   -19943   -13559 
   -7096    -2100     1885     5035     7541    10724    15271    20696 
   26419    31976    36705    39974    41800    42797    43465    44386 
   45833    46620    45794    43568    39530    33416    26327    19083 
   11724     4869      -98    -2289    -1694     1615     6546    10806 
   13435    14918    15826    16614    16764    15215    11929     7690 
    3149    -1258    -4810    -7352    -9555   -11356   -12355   -12725 
  -12357   -11092    -9387    -7353    -5022    -3310    -2581    -2272 
   -2340    -2613    -2511    -2276    -2413    -2821    -3244    -3643 
   -4159    -4806    -5771    -7651   -10436   -13815   -18245   -23870 
  -30273   -37073   -43386   -48390   -51173   -50306   -45863   -38967 
  -30202   -20636   -11283    -2648     4469    10045    14524    17491 
   18968    19939    20742    20952    21006    22056    23160    22373 
   20593    19184    17905    16960    16193    15178    14179    12830 
