Origin Time       2016/04/16 01:25:00
Lat.              32.753
Long.             130.762
Depth. (km)       12
Mag.              7.3
Station Code      MYZ016
Station Lat.      31.6129
Station Long.     131.3743
Station Height(m) 9
Record Time       2016/04/16 01:25:33
Sampling Freq(Hz) 100Hz
Duration Time(s)  137
Dir.              N-S
Scale Factor      7845(gal)/8223790
Max. Acc. (gal)   21.801
Last Correction   2016/04/16 01:25:33
Memo.             
[...]
   -3484    -3774    -3838    -3769    -3701    -3797    -4192    -4901 
   -5760    -6574    -7257    -7769    -8052    -8095    -7966    -7823 
   -7820    -7982    -8228    -8505    -8812    -9111    -9312    -9360 
   -9293    -9246    -9336    -9555    -9801   -10002   -10121   -10100 
   -9871    -9427    -8858    -8359    -8122    -8181    -8351    -8380 
   -8105    -7495    -6579    -5362    -3927    -2484    -1189      -71 
     861     1595     2135     2467     2571     2574     2731     3222 
    4029     4980     5863     6540     6910     6801     6087     4885 
    3461     2061      788     -427    -1660    -2870    -4017    -5148 
   -6296    -7411    -8359    -9097    -9782   -10562   -11416   -12201 
  -12781   -13139   -13331   -13269   -12764   -11722   -10261    -8727 
   -7524    -6839    -6647    -6885    -7439    -8085    -8502    -8418 
   -7773    -6751    -5661    -4753    -4164    -3927    -3969    -4182 
   -4488    -4823    -5164    -5510    -5775    -5798    -5447    -4672 
   -3542    -2228     -990     -101      303      272      -14     -422 
    -942    -1576    -2270    -2917    -3385    -3582    -3511    -3277 
   -3026    -2894    -2983    -3352    -4003    -4833    -5675    -6409 
   -6924    -7138    -7115    -7065    -7184    -7487    -7869    -8187 
   -8294    -8148    -7799    -7337    -6893    -6583    -6505    -6694 
   -7017    -7229    -7177    -6847    -6282    -5583    -4838    -4120 
   -3528    -3149    -3037    -3208    -3607    -4133    -4650    -4984 
   -5016    -4710    -4178    -3669    -3383    -3372    -3543    -3727 
   -3835    -3917    -4031    -4128    -4101    -3882    -3508    -3061 
   -2602    -2196    -1953    -1935    -2110    -2361    -2581    -2712 
   -2752    -2808    -3040    -3522    -4207    -4947    -5549    -5927 
   -6110    -6176    -6219    -6340    -6616    -7109    -7755    -8385 
   -8842    -9061    -9096    -9040    -8961    -8877    -8727    -8418 
   -7997    -7548    -7029    -6359    -5571    -4811    -4245    -3919 
   -3738    -3584    -3388    -3177    -3021    -2910    -2816    -2721 
   -2632    -2529    -2366    -2162    -2015    -1984    -2100    -2392 
   -2853    -3430    -4031    -4531    -4861    -5040    -5096    -5042 
   -4922    -4757    -4545    -4286    -4017    -3893    -4081    -4599 
   -5294    -5968    -6467    -6728    -6763    -6687    -6640    -6706 
   -6855    -6945    -6817    -6413    -5848    -5309    -4936    -4796 
   -4887    -5152    -5476    -5661    -5548    -5100    -4379    -3492 
   -2560    -1692    -1011     -616     -557     -834    -1424    -2270 
   -3227    -4101    -4796    -5327    -5724    -6018    -6249    -6454 
   -6691    -7022    -7492    -8129    -8901    -9657   -10200   -10455 
  -10504   -10501   -10517   -10544   -10558   -10504   -10247    -9649 
   -8721    -7652    -6666    -5894    -5335    -4907    -4540    -4209 
   -3893    -3504    -2986    -2421    -1937    -1634    -1534    -1556 
   -1629    -1783    -2087    -2567    -3191    -3877    -4552    -5184 
   -5722    -6124    -6419    -6677    -7002    -7495    -8093    -8568 
   -8708    -8459    -7882    -7059    -6103    -5194    -4525    -4212 
   -4215    -4405    -4646    -4779    -4656    -4247    -3584    -2706 
   -1706     -756      -32      364      441      266      -41     -340 
    -499     -503     -433     -378     -400     -561     -876    -1251 
   -1513    -1528    -1308     -996     -741     -626     -714    -1085 
   -1772    -2674    -3578    -4251    -4523    -4392    -4005    -3550 
   -3200    -3096    -3307    -3792    -4402    -4984    -5455    -5823 
   -6120    -6292    -6304    -6259    -6252    -6243    -6162    -6015 
   -5877    -5802    -5800    -5896    -6129    -6516    -7053    -7646 
   -8109    -8301    -8228    -8007    -7723    -7375    -6970    -6556 
   -6153    -5768    -5440    -5240    -5235    -5448    -5833    -6273 
   -6633    -6806    -6693    -6252    -5583    -4882    -4338    -4023 
   -3913    -3990    -4261    -4692    -5201    -5740    -6307    -6897 
   -7427    -7750    -7778    -7604    -7406    -7329    -7426    -7695 
   -8082    -8444    -8572    -8333    -7732    -6883    -5950    -5142 
   -4642    -4526    -4726    -5057    -5256    -5127    -4610    -3778 
   -2794    -1833    -1071     -645     -558     -702     -961    -1262 
   -1601    -1988    -2405    -2841    -3312    -3821    -4327    -4695 
   -4746    -4441    -3927    -3439    -3183    -3281    -3774    -4580 
   -5478    -6264    -6860    -7250    -7423    -7380    -7136    -6736 
   -6278    -5846    -5479    -5152    -4797    -4332    -3703    -2930 
   -2115    -1405     -954     -861    -1094    -1490    -1846    -2008 
   -1929    -1680    -1387    -1161    -1078    -1158    -1395    -1757 
   -2157    -2488    -2714    -2901    -3106    -3312    -3466    -3528 
   -3516    -3477    -3430    -3355    -3256    -3190    -3244    -3505 
   -4045    -4882    -5937    -7022    -7923    -8474    -8600    -8372 
   -7974    -7630    -7542    -7808    -8368    -9036    -9610    -9979 
  -10133   -10125   -10068   -10087   -10253   -10525   -10781   -10893 
  -10777   -10424    -9900    -9305    -8750    -8310    -8000    -7811 
   -7692    -7576    -7435    -7272    -7065    -6750    -6186    -5242 
   -3855    -2085     -139     1642     2905     3439     3277     2667 
    1930     1317      918      679      421     -106    -1081    -2432 
   -3867    -5086    -5898    -6270    -6388    -6601    -7236    -8436 
  -10077   -11836   -13324   -14288   -14698   -14624   -14153   -13406 
  -12559   -11762   -11092   -10527    -9991    -9458    -9011    -8688 
   -8352    -7793    -6929    -5857    -4727    -3609    -2602    -1858 
   -1455    -1385    -1521    -1664    -1734    -1773    -1795    -1740 
   -1514    -1073     -422      425     1362     2161     2628     2675 
    2354     1861     1431     1254     1475     2123     3075     4068 
    4757     4889     4415     3410     2034      436    -1323    -3121 
   -4770    -6139    -7218    -8113    -8927    -9682   -10366   -10971 
  -11493   -11877   -11940   -11512   -10625    -9537    -8625    -8230 
   -8459    -9154    -9985   -10512   -10324    -9231    -7350    -5076 
   -2891    -1158      -81      259      -41     -670    -1229    -1395 
   -1017      -98     1233     2759     4228     5348     5915     5937 
    5494     4649     3474     2066      587     -787    -1966    -2924 
   -3667    -4153    -4220    -3793    -2948    -1838     -696      128 
     259     -553    -2331    -4865    -7719   -10362   -12432   -13780 
  -14399   -14436   -14183   -13926   -13884   -14175   -14767   -15522 
  -16271   -16883   -17250   -17328   -17167   -16860   -16499   -16135 
  -15674   -14947   -13867   -12487   -10940    -9410    -8048    -6913 
   -6011    -5294    -4650    -3924    -2965    -1726     -266     1282 
    2767     4032     4901     5179     4733     3615     2101      610 
    -490    -1047    -1085     -714     -191      109     -139    -1097 
   -2682    -4617    -6535    -8044    -8900    -9051    -8575    -7707 
   -6781    -6083    -5775    -5876    -6316    -6967    -7632    -8198 
   -8667    -9066    -9406    -9648    -9687    -9431    -8839    -7898 
   -6605    -5013    -3322    -1850     -857     -429     -530    -1084 
   -2023    -3191    -4380    -5441    -6261    -6777    -6967    -6787 
   -6284    -5607    -4923    -4353    -3920    -3645    -3615    -3882 
   -4322    -4745    -5036    -5161    -5138    -5036    -4932    -4884 
   -4928    -5116    -5445    -5826    -6188    -6498    -6743    -7010 
   -7404    -7931    -8564    -9239    -9807   -10116   -10055    -9553 
   -8640    -7477    -6301    -5283    -4431    -3653    -2853    -1975 
   -1047     -153      648     1344     1872     2111     2057     1861 
    1722     1765     2003     2338     2623     2705     2408     1553 
     124    -1732    -3780    -5776    -7515    -8781    -9367    -9185 
   -8332    -7080    -5823    -4896    -4477    -4587    -5062    -5595 
   -5856    -5665    -5113    -4411    -3771    -3414    -3470    -3909 
   -4579    -5287    -5850    -6148    -6184    -6030    -5732    -5336 
   -4908    -4468    -4014    -3559    -3049    -2367    -1404     -194 
    1011     1926     2332     2079     1156     -205    -1683    -2925 
   -3624    -3798    -3611    -3175    -2671    -2227    -1857    -1553 
   -1291    -1020     -731     -502     -450     -680    -1266    -2289 
   -3805    -5737    -7917   -10196   -12336   -13981   -14821   -14728 
  -13829   -12474   -11090   -10060    -9599    -9691   -10121   -10594 
  -10836   -10631    -9909    -8838    -7676    -6683    -6123    -6134 
   -6762    -7893    -9229   -10477   -11410   -11889   -11944   -11761 
  -11578   -11520   -11495   -11371   -11052   -10385    -9259    -7704 
   -5922    -4299    -3191    -2767    -2980    -3578    -4251    -4738 
   -4831    -4417    -3543    -2455    -1452     -719     -266       22 
     326      796     1483     2280     2976     3368     3335     2896 
    2181     1323      414     -468    -1275    -2015    -2749    -3582 
   -4629    -5931    -7381    -8796   -10049   -11082   -11830   -12145 
  -11919   -11181   -10045    -8645    -7152    -5765    -4710    -4166 
   -4190    -4637    -5258    -5934    -6656    -7357    -7860    -8031 
   -7903    -7588    -7159    -6646    -6031    -5305    -4522    -3767 
   -3092    -2589    -2380    -2448    -2641    -2739    -2548    -1979 
   -1047       93     1189     1972     2236     1956     1317      592 
       8     -332     -467     -508     -529     -603     -838    -1282 
   -1902    -2614    -3325    -4001    -4664    -5283    -5787    -6115 
   -6312    -6523    -6917    -7580    -8494    -9595   -10804   -11988 
  -12970   -13583   -13747   -13518   -13063   -12513   -11908   -11335 
  -10912   -10670   -10547   -10385   -10045    -9445    -8575    -7531 
   -6397    -5194    -4035    -3014    -2124    -1389     -877     -652 
    -711     -942    -1111    -1075     -907     -734     -677     -818 
   -1194    -1859    -2818    -4010    -5289    -6412    -7160    -7423 
   -7206    -6633    -5913    -5277    -4912    -4896    -5175    -5655 
   -6249    -6845    -7329    -7661    -7863    -8002    -8164    -8401 
   -8626    -8626    -8267    -7533    -6424    -4997    -3407    -1869 
    -584      344      888     1109     1131     1011      824      784 
    1053     1644     2484     3437     4305     4887     4988     4472 
    3381     1914      367     -987    -2029    -2731    -3098    -3199 
   -3144    -3067    -3121    -3376    -3832    -4530    -5508    -6701 
   -7925    -8941    -9641   -10071   -10274   -10270   -10103    -9840 
   -9570    -9398    -9319    -9223    -9065    -8878    -8737    -8676 
   -8645    -8542    -8276    -7778    -7002    -5922    -4608    -3256 
   -2079    -1212     -656     -326     -151      -71      -58      -55 
      27      240      656     1304     2095     2914     3596     3928 
    3798     3194     2176      854     -677    -2288    -3707    -4796 
   -5671    -6394    -6960    -7449    -7992    -8591    -9147    -9703 
  -10242   -10646   -10989   -11395   -11901   -12505   -13157   -13794 
  -14381   -14859   -15153   -15194   -14931   -14374   -13547   -12464 
  -11164    -9720    -8266    -6939    -5784    -4806    -3956    -3150 
   -2366    -1602     -815       -8      751     1381     1800     1966 
    1891     1649     1331      992      664      329      -60     -521 
   -1051    -1669    -2378    -3130    -3794    -4228    -4349    -4176 
   -3846    -3553    -3511    -3874    -4610    -5594    -6667    -7626 
   -8267    -8519    -8480    -8317    -8175    -8077    -7935    -7719 
   -7427    -6990    -6403    -5756    -5131    -4621    -4303    -4145 
   -4017    -3871    -3743    -3612    -3431    -3142    -2655    -1923 
    -961      174     1370     2439     3226     3723     4041     4367 
    4869     5552     6276     6848     7018     6590     5611     4174 
    2300      110    -2235    -4579    -6748    -8776   -10722   -12495 
  -14079   -15507   -16823   -18087   -19300   -20460   -21528   -22403 
  -23080   -23577   -23772   -23618   -23168   -22380   -21269   -19916 
  -18311   -16484   -14565   -12676   -10944    -9462    -8237    -7258 
   -6453    -5688    -4907    -4104    -3310    -2559    -1854    -1148 
    -344      600     1661     2778     3827     4657     5157     5283 
    5125     4792     4345     3867     3431     3064     2724     2281 
    1641      823     -129    -1147    -2121    -3037    -3948    -4837 
   -5622    -6246    -6711    -7103    -7507    -7954    -8428    -8949 
   -9587   -10334   -11128   -11951   -12771   -13505   -14052   -14310 
  -14222   -13802   -13128   -12349   -11593   -10897   -10304    -9828 
   -9297    -8565    -7623    -6482    -5215    -3852    -2365     -828 
     696     2211     3666     5063     6318     7260     7843     8051 
    7879     7433     6821     6181     5724     5578     5741     6137 
    6615     7028     7250     7082     6359     5030     3086      715 
   -1749    -4109    -6219    -7994    -9559   -11052   -12555   -14215 
  -16031   -17825   -19434   -20718   -21656   -22277   -22588   -22639 
  -22468   -22122   -21656   -21039   -20177   -19005   -17559   -16004 
  -14480   -13003   -11554   -10196    -8934    -7632    -6148    -4368 
   -2200      406     3365     6435     9420    12131    14334    15939 
   16989    17590    17906    18058    18068    18007    17919    17693 
   17253    16565    15558    14220    12587    10594     8222     5603 
    2853       78    -2589    -5030    -7134    -8915   -10388   -11578 
  -12571   -13344   -14021   -14773   -15585   -16459   -17386   -18350 
  -19279   -20031   -20544   -20777   -20707   -20321   -19585   -18551 
  -17412   -16254   -15051   -13905   -12825   -11761   -10746    -9668 
   -8398    -6987    -5471    -3905    -2434    -1107       52      864 
    1220     1175      789      187     -467    -1053    -1447    -1590 
   -1552    -1444    -1368    -1456    -1750    -2187    -2736    -3317 
   -3775    -4040    -4017    -3549    -2686    -1615     -460      592 
    1343     1749     1798     1476      873       74     -846    -1765 
   -2635    -3404    -3993    -4441    -4864    -5356    -5968    -6654 
   -7353    -8058    -8714    -9283    -9809   -10276   -10635   -10891 
  -11014   -10957   -10771   -10517   -10197    -9807    -9278    -8526 
   -7599    -6571    -5525    -4575    -3726    -2886    -1975     -899 
     382     1748     3073     4278     5233     5849     6095     5946 
    5474     4835     4122     3364     2574     1711      738     -295 
   -1320    -2297    -3210    -4005    -4611    -5090    -5552    -5906 
   -6057    -6042    -5914    -5850    -6010    -6399    -6949    -7578 
   -8172    -8571    -8681    -8538    -8206    -7774    -7300    -6782 
   -6266    -5837    -5479    -5116    -4710    -4190    -3523    -2758 
   -1856     -778      449     1792     3153     4459     5675     6702 
    7406     7647     7375     6643     5489     3955     2121      121 
   -1852    -3605    -5088    -6436    -7761    -9035   -10288   -11577 
  -12834   -13914   -14808   -15529   -16058   -16474   -16808   -17050 
  -17281   -17537   -17750   -17909   -17956   -17727   -17209   -16497 
  -15615   -14617   -13578   -12550   -11578   -10609    -9587    -8532 
   -7426    -6250    -5017    -3728    -2471    -1372     -492      121 
     496      773     1012     1210     1418     1655     1837     1873 
    1714     1321      765      228     -174     -387     -357     -121 
     214      502      548      252     -328    -1078    -1876    -2627 
   -3284    -3875    -4453    -5078    -5819    -6677    -7558    -8333 
   -8905    -9259    -9400    -9355    -9178    -8887    -8499    -8051 
   -7534    -6880    -6065    -5113    -4074    -3038    -2058    -1138 
    -344      275      739     1062     1279     1472     1683     1946 
    2303     2728     3153     3527     3834     4106     4410     4788 
    5235     5687     6064     6316     6397     6254     5871     5277 
    4510     3627     2697     1722      670     -457    -1682    -3007 
   -4369    -5694    -6922    -8001    -8957    -9832   -10621   -11329 
  -11890   -12191   -12201   -11932   -11458   -10922   -10431   -10035 
   -9737    -9477    -9197    -8877    -8482    -7987    -7444    -6901 
   -6394    -5960    -5614    -5347    -5135    -4962    -4797    -4568 
   -4220    -3746    -3192    -2617    -2042    -1472     -973     -592 
    -334     -159       36      314      635      919     1062      973 
     581     -167    -1258    -2552    -3869    -5022    -5836    -6226 
   -6185    -5733    -4943    -3967    -2986    -2151    -1543    -1183 
   -1080    -1189    -1386    -1568    -1684    -1736    -1790    -1953 
   -2319    -2914    -3673    -4518    -5364    -6122    -6736    -7249 
   -7722    -8164    -8530    -8742    -8730    -8487    -8091    -7618 
   -7089    -6561    -6095    -5714    -5417    -5198    -5017    -4870 
   -4823    -4939    -5206    -5564    -5965    -6385    -6805    -7203 
   -7562    -7867    -8143    -8449    -8811    -9196    -9580    -9949 
  -10265   -10508   -10669   -10732   -10677   -10508   -10251    -9949 
   -9632    -9308    -8999    -8741    -8533    -8351    -8174    -7978 
   -7750    -7482    -7168    -6824    -6484    -6226    -6168    -6349 
   -6751    -7340    -8010    -8626    -9109    -9416    -9522    -9452 
   -9227    -8835    -8281    -7565    -6693    -5698    -4619    -3511 
   -2436    -1431     -514      336     1124     1803     2324     2656 
    2749     2543     2003     1133       23    -1163    -2293    -3284 
   -4077    -4622    -4976    -5279    -5597    -5973    -6501    -7223 
   -8166    -9308   -10492   -11601   -12571   -13300   -13771   -14033 
  -14131   -14115   -13994   -13730   -13238   -12433   -11291    -9847 
   -8175    -6369    -4537    -2783    -1190      193     1387     2417 
    3316     4156     4969     5752     6471     7049     7416     7523 
    7321     6781     5937     4864     3597     2176      653     -949 
   -2623    -4342    -6093    -7857    -9539   -11051   -12368   -13473 
  -14376   -15086   -15615   -16046   -16421   -16731   -16934   -16987 
  -16911   -16699   -16289   -15630   -14769   -13765   -12591   -11271 
   -9845    -8371    -6980    -5703    -4550    -3589    -2828    -2249 
   -1807    -1441    -1096     -733     -380     -124       29       70 
     -89     -448     -950    -1537    -2128    -2705    -3269    -3755 
   -4187    -4650    -5128    -5617    -6118    -6559    -6886    -7079 
   -7157    -7168    -7080    -6890    -6681    -6493    -6385    -6421 
   -6569    -6790    -7052    -7272    -7439    -7555    -7547    -7425 
   -7275    -7103    -6933    -6794    -6617    -6367    -6041    -5589 
   -4993    -4275    -3501    -2772    -2141    -1636    -1298    -1148 
   -1204    -1475    -1884    -2366    -2938    -3589    -4271    -4978 
   -5698    -6393    -7061    -7740    -8379    -8891    -9270    -9472 
   -9451    -9294    -9057    -8757    -8503    -8340    -8276    -8343 
   -8472    -8599    -8743    -8877    -8947    -8945    -8851    -8649 
   -8344    -7951    -7522    -7149    -6913    -6866    -6990    -7230 
