Origin Time       2016/04/16 01:25:00
Lat.              32.753
Long.             130.762
Depth. (km)       12
Mag.              7.3
Station Code      MYZ004
Station Lat.      32.3889
Station Long.     131.3339
Station Height(m) 298
Record Time       2016/04/16 01:25:17
Sampling Freq(Hz) 100Hz
Duration Time(s)  127
Dir.              N-S
Scale Factor      7845(gal)/8223790
Max. Acc. (gal)   107.916
Last Correction   2016/04/16 01:25:17
Memo.             
[...]
    5719     5715     5711     5714     5717     5718     5718     5717 
    5715     5715     5717     5721     5718     5714     5717     5717 
    5717     5719     5719     5717     5717     5718     5718     5719 
    5718     5714     5713     5714     5718     5722     5721     5717 
    5717     5717     5714     5717     5718     5717     5718     5721 
    5717     5717     5718     5718     5717     5717     5717     5718 
    5719     5718     5719     5719     5717     5717     5721     5719 
    5718     5718     5717     5718     5718     5715     5718     5719 
    5718     5719     5717     5714     5718     5719     5718     5719 
    5719     5718     5717     5718     5719     5718     5717     5718 
    5718     5717     5715     5717     5719     5719     5718     5718 
    5717     5715     5715     5717     5718     5718     5718     5721 
    5721     5718     5718     5719     5718     5717     5717     5717 
    5719     5719     5719     5719     5717     5714     5717     5721 
    5719     5715     5717     5717     5718     5719     5719     5715 
    5714     5714     5714     5718     5719     5722     5721     5717 
    5717     5718     5717     5717     5717     5718     5719     5719 
    5717     5715     5715     5717     5717     5718     5714     5706 
    5691     5668     5638     5607     5575     5543     5510     5455 
    5325     5131     5011     5152     5618     6176     6408     6065 
    5298     4549     4263     4669     5599     6463     6782     6763 
    6768     6539     5692     4419     3213     2643     3244     5026 
    7236     8753     8858     7759     6259     5086     4500     4337 
    4482     5080     6084     6929     7160     7192     7474     7600 
    6945     5603     4448     3942     3928     4868     6799     8440 
    8845     8029     6527     5035     3967     3646     4396     5881 
    6997     7041     6232     5400     5304     5497     5327     5109 
    5116     5198     4922     4263     4153     4734     5347     5922 
    6153     5648     5023     4949     5260     5356     5107     5360 
    6675     8060     8206     7068     5259     3272     1960     2143 
    3848     6196     7576     7534     7446     7699     7258     5923 
    4494     3971     4542     4956     4336     3890     5101     6870 
    7458     7749     8704     8560     5926     2729     1698     2814 
    4008     4776     6269     7793     7550     5825     4120     3457 
    4039     4776     5120     6340     8239     8507     6980     5829 
    5800     5556     4280     3824     5950     8460     8461     6804 
    6404     7711     8228     7371     5890     3021      606     1921 
    5702     8154     8248     7882     7912     7515     6460     5548 
    5402     5239     5101     5902     5887     3345      332      456 
    4504     8669     9061     6359     4083     4546     6999     9146 
    9624     8253     5304     2651     3057     5919     7950     7555 
    5428     3599     3936     6177     7951     7493     5834     4612 
    4368     4860     5259     5686     6169     5961     5796     6066 
    5713     5294     6453     8611     9020     6313     2915     2245 
    3923     4765     3924     3576     5070     6899     7474     7236 
    6470     4891     3743     4055     4410     3511     1991     1722 
    4125     7882    10088     8752     4835     2583     3981     6100 
    5960     4236     3937     6319     9742    12027    11723     8182 
    2270    -1750      727     7661    12254    10773     5497      958 
   -1271     -550     4194     8785     7213     2043      961     4965 
    8374     8343     7452     7717     7897     6955     6079     6265 
    6474     5983     5585     5080     4029     4021     5798     7281 
    7138     7368     9443    10335     7020     1859     -399     1601 
    4468     5918     8085    10081     8479     5852     5533     5281 
    3330     1898     3631     8058    11148     9011     3489     1449 
    5346    10388    12690    12248     9073     3461     -749      445 
    4688     6744     6133     4699     2010    -1273    -1266     3570 
    9298    11623    10701     8849     6454     3693     3319     6218 
    7950     5502     2130     1485     3391     6119     7820     7682 
    6705     6115     7114     9651    10885     8937     4051    -2232 
   -4367     1457     9639    12606    10039     6247     3566      888 
   -1448     -488     3812     8451    11032    10411     7487     5117 
    5898     9549    12056    10413     6323     3488     4915     9153 
   10519     8047     5931     4872     2755     1146     2803     6475 
    8950     8476     6156     3589     1044     1471     7063    12420 
   11452     5381       94       31     3867     7040     8460    10397 
   12102    10423     7578     7840     8596     6083     1537    -2685 
   -3056     2589     9115    11152     9413     5182     -767    -4876 
   -3388     2890     8730    10138     7696     3284     -726     -422 
    4568     9132    10207     8843     4927      710     1968     7685 
   10722     9458     8691     9676     8702     5715     3433     2388 
    3044     5715     9250    10906     8641     5923     6214     7198 
    6739     5519     4699     4737     6578    11310    14991    12792 
    6678      251    -4666    -5464     -857     6959    13225    13886 
    9428     3527     -943    -2593     -546     4421     8735     9501 
    7126     4326     4741     6886     5458     2824     4610     8573 
    9474     6932     4299     2571     1325     4168    11527    16086 
   12789     4295    -1031     1393     5196     5011     4195     6174 
    9512    10419     7321     2272    -1969    -2134     5358    17587 
   23105    15182     1301    -8111   -10462    -6077     4627    16725 
   20262     9077    -7028   -10296     2133    17294    22599    15888 
    5422    -1448    -3141     1645     9703    12930     7406    -3183 
   -7366     1922    15510    20846    14692     4657     1444     3200 
    3234     4403     8345     8658     2849    -1386     1829     6735 
    6436     3211     1984     2635     4533     8908    11607     9219 
    7481     8071     4887     -533     1004    10116    15997    13749 
   11105    12923    14291    12082    10582    11362     9864     5796 
    3469     3605     4772     8352    13413    13911     9493     5281 
    2604     1304     2033     3241     1039    -5001    -9159    -5796 
    5200    15670    16407     9683     3612     1817     2997     3689 
    4882     8469    10509     8941     5471     2605     3688     7707 
   10578    11481    12170    10057     1934    -3562     -128     4955 
    9632    15842    17116     8127    -5632   -10781    -1977     8961 
   11591     8028     2944     1107     5027     8838     6754     3121 
    4892     8699     4892    -5277    -9275    -3222     5692    14162 
   20272    18455     8618    -1024    -2471     2728     6470     4980 
     -22    -3032     1696    10075    12915    10944     8769     4664 
    -139     -961      538     3377    10262    17294    17528    12089 
    7726     6971     6613     4745     3669     5125     8529    12614 
   12803     4584    -6863   -11510    -6934     1206     6693     9563 
   13504    15871    11520     3828     -540     -348     2388     4729 
    5616     7643     9989     9169     7557    10235    16090    17392 
   11476     6891     9271    12672    10292     3326     -758      915 
    2863     2818     2201     1586     2138     2430     2744     4587 
    4487     2894     2682     1833     1842     6110    12264    15368 
   11931     6056     4652     3037    -3385    -6944    -1981     9229 
   19310    19951    12833     5188      -76    -1321     2924     9375 
   10840     6907     5425     8923    12155     9447     1125    -3414 
     502     5896     9626    12421    11049     5405     -562    -2562 
    1456     7614    10706     9801     7763     7250     7512     6285 
    4241     4617     5483     2772     -256     -702    -1711    -4252 
   -4644     -211     6492    11036    11912     8044    -1344   -10358 
   -8851     3576    13977    14110    11497    13588    16862    16093 
   11286     6651     4926     5243     8444    13504    14959    12577 
   10539     9983     9657     6673     -342    -6517    -5472     2214 
   11311    17292    14283     2860    -5578    -4797     1093     4438 
    2754     2128     3075     1286    -1026     -376     4050     8586 
    8459     5707     2995     -648    -3106      940    10399    16194 
   14779    11352     7889     2169    -2001     1738     9643    13821 
   13409    10536     6405     2857     2619     6224    10665    13941 
   15114    11504     3802    -1667    -3335    -5767    -7560    -4488 
    1695     6736     8625     8637     7325     3894     -315    -2096 
    1517     6567     5583      386     -814     5439    12147    10781 
    5268     2163      454     1614     7064    10160     7473     4236 
    4868     9711    17425    23310    20312     9382      747      143 
    5262    11611    13884     9720     2430    -2045      344     6569 
    8977     5128      -76    -1948     -778     1328     4617     9279 
   10415     4341    -3204    -5968    -3345     3979    11060    11399 
    6075      244    -2295    -1433       21     3700     9941    11331 
    4491    -5159    -9134    -4333     2521     5481     5139     4210 
    5764    11531    20823    29203    30061    22985    14165     6998 
     395    -5518    -7182    -2369     4639     9435    13285    15684 
   13089     7314     3176      288    -3316    -5394    -3469     3703 
   15012    22484    20676    14585     9680     7022     5956     3487 
   -1208    -3302     -999       95    -3910    -9038    -8147    -1053 
    3105      102    -2597    -1240      467     4225    12420    18527 
   16058     7716     3295     8291    14376    12676     7601     5823 
    7118     7327     4499     2269      387    -3423    -3563     1584 
    6662     9890    11510    13942    17640    15664     6407    -2278 
   -4275     1831    12760    20352    19839    14380     8638     4905 
    4507     7327     8533     2805    -5377    -8453    -6567    -1772 
    3146     4271     3836     5585     7693     6498      176    -8814 
  -14548   -13525    -7329      637     8610    13432    11901     9007 
   10245    10320     4448     -945      500     5475     8619     8542 
    6318     4770     5039     4927     3496     3064     4912     6327 
    5481     4942     7203     9829     9128     6704     3141    -4552 
  -11781    -9815      612     9938    11934    10131     8787     6511 
    2737      662     2305     5989     9656    12217    11603     6592 
    -284    -5830    -9580    -9763    -4183     3122     6751     5618 
    1846      872     5027    10106    12781    13664    15881    20825 
   26316    29716    26910    17905     9337     3130     -932       36 
    3519     3815    -1677   -12017   -20212   -21709   -19997   -15406 
   -7312    -1358    -1128    -4838    -8233    -6934     -730     6930 
   12373    13221    10362     9895    15898    21904    20102    11483 
    2427    -1213     1179     7227    15434    21614    20962    14598 
    7789     4104     2365     -558    -4522    -6652    -6540    -6035 
   -5355    -4822    -4901    -2498     4824    13707    18106    15935 
   12272    10833     8726     6231     6764     9130    10157     7572 
    1069    -6104    -8352    -1561    10291    17359    15993     9231 
     832    -1641     8155    23183    29185    21712    10486     5825 
    7373    12177    19874    25088    19311     2311   -14913   -20216 
  -10990     4382    13001     8486    -5252   -20177   -29385   -29299 
  -21659   -12410    -4151     4209     9163     5512    -6242   -18404 
  -20537   -11889    -1613     5421    10112    13035    14519    13888 
   10821     8708    11245    18156    24565    23826    15377     5308 
   -2447    -7373    -9675   -11157   -12569   -10990    -3256     7315 
   12827    13147    14708    19387    24864    27923    27180    24852 
   23274    23643    25807    27521    25097    14997    -1173   -15634 
  -21050   -16353    -7827    -1267     5896    16529    26354    29247 
   23329    15946    16386    22226    26545    28857    29083    24135 
   15731    11506    14557    18407    16320    10261     4438    -1062 
   -6985   -13235   -15994   -10966    -4248    -4849   -11317   -18800 
  -25084   -27125   -24538   -20132   -14621    -6269     6864    22297 
   32899    34597    29481    22067    15388     9652     3663    -2003 
   -5200    -6416    -8267   -11867   -15661   -16560   -13996   -11024 
   -9126    -4766     4793    14863    19271    18216    17116    20908 
   27820    34291    39802    37446    20337    -1890   -13817   -11709 
   -1948     6891     9586     6520      140    -7595   -14671   -21352 
  -28043   -31538   -29234   -20640    -6930     8068    20903    26913 
   21683    10377     2766     2756     9013    15919    17601    14188 
    7847      329    -2980     2381    13420    21852    19930     8843 
   -1151    -2137     7462    23444    35368    35041    22183      765 
  -21566   -35873   -37492   -26632    -9228     3738     7005     7381 
   10451    12182    10292     8020     8186    12691    19643    22997 
   19236     9788     -969    -9938   -16995   -22419   -27379   -32768 
  -35789   -32819   -25751   -21290   -19287    -6814    24849    66645 
  102540   118843   112864    95181    66942    25759   -11560   -33149 
  -42797   -41995   -37598   -40009   -47389   -48514   -35442   -13879 
    9223    36679    63104    74483    68963    58591    54402    52564 
   42580    24520     1198   -25029   -44298   -52613   -53350   -45350 
  -32655   -24012   -19865   -17609   -14536    -8129    -3416    -5104 
   -9477    -8598     3518    20494    29493    24871     8100    -8411 
   -6478    18630    52452    74106    74601    58696    38215    27570 
   29370    35224    41129    45916    48139    48303    47633    45775 
   36837    18717     4698     5763    16998    30948    40828    38214 
   22499     1304   -17992   -29393   -27687   -13043     8303    26806 
   30431    14250    -7994   -14047     4332    34326    53504    48147 
   24456     -118   -13309   -12901    -4873     1443     2440      -40 
   -6123   -15807   -23311   -19392     -800    23145    37496    34969 
   20347     2654   -12197   -19502   -15896    -4658     5678    10305 
   11033     9153     3643    -2154     -225    11514    23938    28887 
   29030    29069    27677    23666    19483    14813     6569    -4126 
  -11959   -13093   -10230    -9130    -8158    -1242    10534    19265 
   18034     5845   -11985   -27932   -37473   -41628   -45346   -51800 
  -58313   -60112   -56623   -51010   -45193   -38464   -30244   -20999 
  -10578     1358    14813    29675    41419    41130    26944     9776 
    3326    11828    28574    44343    52309    46579    25999      457 
  -11986     -915    22482    35644    27403     5219   -16619   -28861 
  -26562   -11064     5008     9900     5494      344    -2259    -4692 
   -6856    -4668     2493     9726    14393    16803    13043     2913 
   -4072    -1085    11481    26628    33334    30240    23147    12964 
    1917    -3997    -5027    -7605   -12532   -13691   -11475   -12707 
  -18299   -21631   -13988     5857    26099    33529    25861     9919 
   -5448   -13960   -12868    -4230     3808     3391    -5134   -13926 
  -14477    -5582     5660    13100    17173    19337    20012    22242 
   26935    31006    34300    36567    34005    25636    14794     5979 
    1687      395      753     3912     9018    12571    12521     8571 
     353   -10791   -19772   -22504   -21950   -24829   -32417   -38304 
  -37400   -31109   -23298   -17798   -14793   -11319    -7155    -1944 
    6019    15333    21961    22648    19156    15550    12685    10134 
    7460     6046     9578    17740    27184    36894    45018    46419 
   38431    25373    14642    11321    15942    24156    29147    26434 
   18628    12398    10636    13049    19855    27329    27375    18762 
    8696     3978     8430    19167    26310    24169    15255     4895 
    -897     2524    14085    26418    31136    25416    13921     5239 
    5674    13618    21270    23226    20607    17038    13193     8476 
    5914     7622    10015     9833     7927     6366     5730     4375 
    2355     2666     6026     9873    11531    10886    10493    12060 
   15877    21724    26134    24472    17096     7939       39    -5223 
   -8777   -12692   -17667   -22542   -23519   -16596    -3715     7612 
   12563    13821    15865    18100    18148    16619    13747     8748 
    4824     4599     3341    -1285    -3272    -1162      346     1227 
    3916     8992    16170    23299    28135    29474    27387    26847 
   33542    45083    53048    50642    37114    18015      692   -10358 
  -14559   -13915   -11496   -10905   -13489   -16816   -18262   -16863 
  -14255   -15028   -20461   -25524   -24777   -17228    -6797     2003 
    8861    16240    24939    31915    33810    31175    26887    24251 
   24980    26889    27136    24524    17826     7458    -3804   -13671 
  -18814   -14823    -4129     4486     6524     2848    -3082    -4692 
    1132    10386    17766    20675    21394    24271    28871    32108 
   32837    30736    26449    22168    19542    16946     9940    -1664 
  -10704   -11990    -7703    -2548       71      562     1691     4167 
    8225    13801    18400    20696    21629    20852    17004    10158 
    2397    -2938    -4807    -6519    -9424   -10309    -8719    -7211 
   -6952    -8972   -12675   -14412   -11630    -5054     1611     4604 
    5317     6979     8109     6417     3376     1445     1625     3794 
    7132    10908    15348    20028    23137    23458    20745    15051 
    7585     1777     1267     5983    11029    11718     9591     8247 
    8102     9049     8749     4033    -1243    -1239     3734    10810 
   17339    19519    15260     8395     5902     9647    14597    16383 
   16056    16382    17437    17691    16638    15003    13070    10018 
    6802     6389     8671     9952     8336     5240     2340      922 
    2681     7726    12491    12356     7985     5564     8230    12345 
   14241    14953    16321    17720    17802    15591    10605     3492 
   -3701    -8318   -10260   -12193   -15094   -17528   -18335   -17668 
  -16463   -14401    -9464     -868     9001    16397    19458    18870 
   16245    13460    11368     9271     7746     7857     8133     7827 
    7854     6211      575    -5980    -8347    -5346     1290     8695 
   12231     8395    -2398   -15510   -24432   -26562   -22750   -14535 
   -5811      631     6050    11160    14229    13581     9369     4310 
    1405      987     2022     3083     3234     4021     6227     8586 
   10982    12947    13311    12702    11716     9752     8114     9099 
   10210     6893      656    -3514    -3613    -1971    -2829    -6327 
   -8888   -10463   -12672   -13497   -12432   -13390   -17433   -19799 
  -15507    -5092     6972    17996    25728    26601    20066     8581 
   -4843   -16024   -21209   -20609   -18102   -16259   -14407   -11998 
   -9201    -5917    -2274     1878     5466     6219     4835     4145 
