Origin Time       2016/04/16 01:25:00
Lat.              32.753
Long.             130.762
Depth. (km)       12
Mag.              7.3
Station Code      MYZ006
Station Lat.      32.2565
Station Long.     131.5609
Station Height(m) 22
Record Time       2016/04/16 01:25:22
Sampling Freq(Hz) 100Hz
Duration Time(s)  300
Dir.              N-S
Scale Factor      7845(gal)/8223790
Max. Acc. (gal)   101.691
Last Correction   2016/04/16 01:25:21
Memo.             
[...]
  -13944   -22254   -21385   -14277    -6299     3115    11870    14675 
    9624    -1189   -11207   -14303   -11352    -6980    -3628     -801 
    1833     2668      625    -3400    -7788   -11680   -16031   -19849 
  -17998    -9701    -1390     3855     8515    11506     7943    -2660 
  -14988   -23188   -24260   -19132   -12699    -9458   -10841   -16978 
  -23762   -23531   -14150    -1275     7304     7560     2334    -4240 
  -13096   -22914   -25849   -19446    -9325      248     5651     3555 
   -2498    -5925    -6050    -6646    -9211   -13286   -18233   -19691 
  -12542      159     8887     9944     7059      596    -9107   -13682 
   -6388     8428    20015    21890    15971     6443    -5107   -18750 
  -30493   -31399   -21963   -13753    -9749    -3784     3689     7321 
    6413     3539     -641    -6967   -14793   -22204   -26542   -26254 
  -22499   -16553   -11521   -10494   -10291    -9742   -12001   -13231 
  -10362    -9532   -12447   -12317    -5559     4648    13393    15014 
    3578   -15672   -26142   -23352   -17004    -9571      984     9620 
   10520     1972   -13084   -25589   -25979   -14403    -3420    -1399 
   -1503      263     1047     4086    10395    15934    18269    14689 
    6643    -2038    -9644   -13446   -15102   -17058   -14720    -9139 
   -8299   -10335    -6663     2695    10057    12418    11840     7030 
   -1372    -8202   -12991   -16077   -14673   -12170   -15676   -23249 
  -25936   -21651   -15977   -10751    -5335    -2527     -895     2554 
    -253   -13007   -22233   -20731   -14908    -8001      292     7472 
    8118    -1320   -14725   -20062   -14762    -8497    -7767    -9335 
   -9413    -8714    -8822    -9116    -9406   -11982   -18457   -24752 
  -22006   -10531    -2238    -1910    -3217    -1981    -2853   -10624 
  -17964   -14434    -1857    11060    17258    11669    -3554   -17810 
  -24217   -23479   -16113    -7403    -6460    -9355    -8885    -8496 
   -9915   -12873   -16117   -12860    -4283     4456    16443    27931 
   28818    18947      626   -24205   -42757   -39106   -12748    18837 
   38103    40305    26437      531   -26046   -42059   -44783   -35374 
  -15858     5768    20634    26377    21278     6493    -9070   -20665 
  -28213   -27834   -20525   -12553    -5142    -1341    -7219   -18613 
  -25550   -22049    -8006     8185    17134    13598    -3585   -25710 
  -42816   -48927   -36275    -8758    17764    32757    29859    11048 
  -10573   -27268   -36768   -33644   -17799     1922    15807    16506 
    2254   -20993   -44146   -56357   -47672   -18181    17539    40813 
   43641    29583     8418   -10991   -26338   -34508   -30858   -17220 
     -99    12602    16762    13770     3504   -10335   -16509    -9989 
    3412    15784    22268    19607     3817   -25135   -54897   -64567 
  -47136   -17404    11280    33378    39414    26157     1935   -24830 
  -45681   -51351   -41305   -26279   -12806     3665    18346    19207 
   10554      430   -12779   -25597   -28059   -16752     1537    18172 
   26501    18176    -5638   -28655   -38472   -31855    -9837    15211 
   28509    27218    15475     -365   -16758   -31279   -35023   -27534 
  -17923    -7962     -436      221    -1601     -623     2101      294 
   -8341   -17913   -25498   -28462   -22296   -11804    -2583     6145 
   15215    23580    23483     9707   -10239   -31765   -51879   -56708 
  -41488   -19221       72    13845    19944    15124    -2309   -24603 
  -39150   -40343   -25739     1809    26236    33365    22443    -1487 
  -29423   -48669   -50912   -35160    -5451    26622    43537    35422 
   10978   -13871   -34105   -46348   -40556   -16806    14891    43730 
   53192    35805     4557   -26794   -47839   -46419   -23850     3229 
   21320    26256    15489   -10062   -39434   -59458   -59950   -34762 
    8437    50769    73738    66294    32645   -11362   -50359   -72092 
  -69101   -46265   -18775      920     9290     9207     5268    -1706 
  -11001   -15377   -12420    -9134    -4770     5390    15237    18554 
   15229     4734    -8807   -18308   -24970   -31476   -31957   -22464 
  -11497    -7164    -3561     3445     5620      899    -5996   -17363 
  -30470   -32194   -18472     2282    20771    30608    28904    14324 
  -10314   -33571   -44552   -39557   -20524     2100    15018    14440 
    2555   -18526   -38601   -44205   -36594   -23157    -2255    23215 
   39596    38760    22801     1026   -14662   -22326   -25622   -23410 
  -17201   -11241    -5011     2079     7294     7040    -4388   -26612 
  -44489   -45295   -31788   -10697    11105    24395    26302    20148 
    7460    -8002   -18571   -21498   -19076   -11665       72    10411 
   13620    10615     4874    -4444   -19421   -37512   -51193   -50009 
  -27959     5495    30839    37890    27994     3870   -25547   -42709 
  -38425   -18847     3149    14335     8357   -11506   -34692   -45283 
  -34338    -8664    17474    31490    29589    16649    -2816   -25474 
  -45424   -55070   -46940   -20574     9382    23918    19596     4225 
  -16322   -33490   -37122   -25182    -1908    23710    38043    33149 
   13790    -9846   -29922   -39515   -33652   -16371     2575    18103 
   28876    31070    18480    -7771   -34345   -49034   -47031   -28166 
   -2116    18805    29853    25768     5437   -17216   -29729   -30508 
  -20407    -5686     5185     9634     6465    -3434   -14949   -23209 
  -22396    -9290     8748    21382    24003    14742    -4588   -26212 
  -40099   -38511   -22075     -568    16313    23047    17617     4927 
   -7430   -15784   -18999   -18320   -15993   -12366    -7352    -1377 
    2565      766    -4318   -10901   -20970   -28507   -25868   -15272 
   -1701    10223    13360     4955    -8135   -17941   -21401   -17469 
   -8365     2359    13829    20395    13834    -1861   -14759   -19094 
  -15913    -8766     -923     6731    12694    12393     4002    -8365 
  -19484   -24730   -20929   -10319     1428     9684     9811     -129 
  -13146   -19728   -18122   -11487    -4159    -2604   -10841   -24052 
  -31199   -27238   -15638     -216    12217    13709     5019    -8820 
  -22042   -28588   -27766   -20507    -7677     4378     8626     3265 
   -9317   -22053   -27949   -27899   -24904   -18041    -8167     1154 
    7001     6385     -583    -8764   -14673   -16141    -9489     1331 
    6741     3680    -7639   -23726   -33088   -30094   -20491    -6963 
    9734    21973    23861    16623     3080   -11502   -20737   -22574 
  -18546   -13867   -11369    -6956    -2378    -3167    -5888    -7037 
   -7527    -6089    -2824     -622    -1613    -5915    -9266    -7202 
   -1850     1372    -2292   -14596   -28917   -35546   -31522   -17516 
    3883    23201    30073    24132    12604      433   -11496   -20702 
  -22642   -17201    -9725    -4513    -2558    -4020    -7944   -11360 
  -11535    -8090    -2766     1524     3289     3249     1930     -133 
   -2438    -5494    -8811   -10698   -10327    -6952    -1178     3931 
    7632     9656     5760    -3549   -11045   -14820   -17733   -19256 
  -17661   -13620    -9104    -5714    -2907     1742     8164    12717 
   12976     9819     4982    -1958   -11784   -21847   -27889   -27904 
  -24070   -20417   -16625    -9969    -3146     -253     -182     -453 
    -114      598     1509     2303      193    -5926   -13564   -19564 
  -19116    -9995     1452     6145     3219    -1699    -7164   -12333 
  -12100    -6667    -1718      -37    -3022   -11315   -19812   -19741 
   -8093     7723    18827    24334    24455    15562      530   -10952 
  -16429   -21308   -27409   -31945   -32908   -30306   -25656   -19491 
  -11226    -3330      950     2669     4947     9412    13446    10770 
    -762   -17209   -34077   -46543   -49384   -40918   -23847    -4248 
   11346    19668    18430     6647   -10740   -25702   -32711   -29793 
  -16991     3017    22918    34528    34053    22944     3828   -22063 
  -47113   -57537   -47696   -23141     4804    23454    25878    11325 
  -14670   -38076   -45758   -34018    -9320    17014    37875    46282 
   35926    13841    -8515   -26293   -33651   -28759   -18469    -5915 
    6524    11862     9332      610   -15678   -33038   -40248   -34685 
  -21882    -7419     7079    19161    22999    15896     -936   -23193 
  -39417   -40678   -31047   -16524      831    14185    16765    10590 
    -830   -16837   -33394   -42329   -37350   -19078     5977    29077 
   40277    32941     9514   -21289   -49983   -66533   -63154   -42256 
  -14222    12262    29612    30257    12629   -17389   -46764   -59760 
  -49226   -20193    12708    33060    34978    20324    -5273   -27234 
  -33741   -24844    -3880    21789    42477    53536    47525    19086 
  -19006   -50656   -68520   -64373   -38431    -5900    19398    32233 
   31815    20379     2756   -15661   -28358   -28333   -15407     1314 
    9178     2636    -9339   -15452   -14817   -10893    -7175    -8999 
  -18652   -29478   -31896   -25408   -15423    -3316     8918    14219 
    9545    -1005   -14343   -27891   -33447   -24915    -9089     2647 
    7280     6997     2231    -6767   -17859   -27434   -30723   -27533 
  -23148   -17273    -5587     9850    22858    28118    25427    20036 
   13105     2070    -8700   -10867    -3619     6714    14856    18196 
   14794     4297   -10729   -25425   -35380   -39638   -39923   -36567 
  -29906   -23363   -18034   -12713    -9782    -9162    -5512     1235 
    5611     5996     3776     -589    -7630   -17290   -24061   -22945 
  -18729   -15697   -12216    -8176    -2477     6643    16413    23778 
   27916    26253    13336   -11114   -36269   -51540   -54677   -43623 
  -17541    14839    39372    45277    31194     5007   -22624   -40419 
  -38045   -15117    14648    35363    40637    31325    12758    -6527 
  -21400   -28259   -21721    -5462    10137    21343    25577    19350 
    3704   -18773   -41970   -58066   -63721   -58139   -42375   -18905 
    6235    23148    25609    10724   -18295   -45596   -57484   -53218 
  -35264    -9804    12037    24004    22778     6463   -16453   -31085 
  -30700   -18986     -970    18262    29566    24615     1447   -32742 
  -63313   -79609   -77076   -54183   -18639    16281    39833    42801 
   21270   -17616   -57244   -78591   -71610   -40860      641    36559 
   52307    44905    21810    -6901   -31066   -42307   -35336   -13018 
   14017    38511    53410    49310    28498      430   -29774   -53901 
  -60331   -42882    -5894    34778    62827    69113    50118    12888 
  -26713   -52373   -50781   -22852    10879    29627    26632     4475 
  -25365   -48879   -63940   -71918   -67707   -54117   -42075   -30906 
  -14326     2832    13000    14874    10334     3231    -2012     -449 
   10813    25326    32170    26374     7271   -24250   -61202   -90455 
 -101830   -93247   -69280   -40332   -18597   -11888   -21250   -41643 
  -60489   -64095   -50046   -21132    18665    53913    63845    39839 
   -5239   -45260   -61453   -47514    -7338    38965    68197    72076 
   50670    12841   -22094   -43210   -48147   -33149    -2891    30291 
   56712    70240    71103    63466    47858    25496     2948   -14567 
  -25664   -27788   -19157    -4406     7339     8255    -5324   -29289 
  -50657   -57352   -44733   -13149    28733    64940    83147    79305 
   58896    33444    11543      714     7078    26017    45504    53511 
   40435     7719   -29559   -52131   -46661   -14859    25777    51864 
   47329    13898   -32819   -76150  -102567  -102725   -77376   -38033 
    1274    29745    38840    24483    -6795   -41652   -68625   -77579 
  -62359   -31349    -1929    16363    21312    12221    -5060   -20740 
  -29695   -30622   -24236   -13451    -2282     3219    -1312   -12707 
  -22520   -24665   -21616   -21019   -25635   -31504   -34152   -31995 
  -25404   -14401      595    13437    15153     5688    -6964   -17980 
  -25632   -27695   -26712   -28462   -33619   -38400   -38970   -33674 
  -23807   -12653    -5233    -4644    -7761   -10574   -13551   -18120 
  -23525   -27514   -26366   -15506     3018    17055    17410     4872 
  -13516   -23912   -15568     8355    37656    61773    72075    65060 
   41868     7160   -30061   -55729   -58654   -41305   -13991    14234 
   35835    46045    42493    26129     1682   -27229   -55044   -70100 
  -62568   -32310    10895    52832    79801    79652    51061     9352 
  -27622   -46754   -37285    -2482    39576    75107    93753    84117 
   50583    10242   -25583   -48585   -52486   -42701   -31519   -26424 
  -26372   -23322   -10276    10220    29596    40853    37913    16741 
  -17419   -48787   -62129   -55271   -33766    -4417    20360    30186 
   25348     7257   -24159   -57489   -78957   -88033   -85113   -68697 
  -44423   -18831     4499    21259    27547    24509    17277     9190 
     623    -6130    -7214    -4131      606     6818    10134     5771 
   -6743   -25446   -44794   -56064   -53203   -37497   -16456     -305 
    5427     3574     -747    -3451    -4923   -11377   -23724   -34106 
  -36626   -31209   -19152    -3762     6536     4364    -9400   -26014 
  -34512   -29741   -11880    14519    37426    48158    48554    41631 
   30489    21321    18046    20451    25375    27831    26682    24629 
   23126    22750    21651    15788     5355    -5533   -13787   -19647 
  -26144   -33026   -34840   -27295    -8509    20922    54571    80786 
   86347    64480    20345   -34430   -85283  -113422  -104901   -63852 
  -10967    30276    45469    30537    -8198   -50507   -75436   -77423 
  -59899   -30234    -1291    18269    27810    29743    27305    19656 
    4298   -16618   -38952   -56767   -64346   -61002   -45287   -15120 
   21987    51601    61190    46934    18275   -12587   -37594   -47556 
  -37770   -14782     6697    12604      155   -22968   -45499   -58056 
  -57079   -41959   -17035     6736    20171    19989    10338     -874 
  -10457   -15535   -11395     -769     9385    16398    18793    17288 
   17293    20063    23151    27530    30568    25400     9830   -13940 
  -38122   -51325   -48990   -34879   -17163    -5769    -8000   -22501 
  -39433   -50593   -52597   -44582   -29565    -9659    14833    37314 
   48286    43654    23573    -4280   -25252   -31251   -20973     3958 
   31545    47827    49654    37984    15938    -7512   -26306   -40432 
  -47154   -43434   -33916   -21794    -3443    19283    38990    50403 
   48547    31656     7231   -12410   -21438   -20943   -12773    -3899 
   -4500   -14447   -24826   -31156   -34083   -34213   -32722   -27814 
  -16129    -1223    13062    26119    30986    20102    -2222   -22669 
  -29945   -20111     3890    31928    52211    56589    40007     6955 
  -29492   -58419   -71467   -65881   -50310   -36051   -27197   -23035 
  -22081   -21344   -19127   -16032   -11237    -7056    -9553   -18763 
  -29154   -35081   -31101   -17194      805    20819    41554    54895 
   52925    33945     3730   -26180   -48143   -56997   -46863   -24236 
   -5940     -595    -7682   -24745   -43490   -52353   -47866   -33399 
  -13824     3539    11632     8658      182    -6322    -8245    -4614 
    4602    13369    14346     9705     8918    15471    26707    41210 
   53829    55095    41401    17400    -7080   -20925   -18254     -618 
   25222    50517    68702    76221    71629    54950    27004    -7326 
  -38696   -58661   -62392   -50342   -29772   -10816      298     1198 
   -8792   -25128   -40436   -49509   -48554   -38446   -23886    -7480 
    6266    10729     6006    -2914   -11527   -14281    -7987     4101 
   14904    17585     9640    -6165   -24115   -37135   -39807   -32225 
  -19120    -5084     7420    16609    21902    24655    25440    23053 
   15989     3526   -11846   -25209   -32047   -29308   -17674     -762 
   16301    28208    32088    26437    14277     3308    -3674    -7838 
   -8942    -8880   -10854   -14991   -20250   -26223   -31893   -35580 
  -35631   -31331   -23738   -14068    -2354     9809    18544    20452 
   13003    -2739   -20719   -33616   -34287   -21290    -2712    12357 
   19184    16305     5738    -8834   -23847   -35016   -37079   -26886 
   -7739    12441    24676    20217    -2168   -32636   -58530   -70652 
  -65003   -43771   -14627    11458    26763    30634    25388    15049 
    4874    -1807    -3211     -291     3821     7844    10844    12422 
   13362    10860     1440   -13574   -29181   -35469   -24376     -853 
   23642    40613    43399    28937     4488   -16555   -27193   -26516 
  -15033     2470    19750    33962    42462    41615    30642    12082 
   -8762   -24911   -32718   -32744   -27467   -20449   -14852   -14195 
  -19881   -27834   -34221   -37382   -34263   -24501   -12237    -2578 
    -718    -7229   -16952   -26373   -32853   -32593   -26347   -18019 
  -10485    -7271    -9792   -15721   -22923   -28521   -29429   -26744 
  -24201   -23908   -24363   -21774   -14801    -5898     2188     6586 
    2941    -9279   -23510   -32340   -31529   -19523      912    22971 
   38691    41125    28123     4865   -19818   -37617   -43136   -36408 
  -21465    -4506     6687     8075     2070    -6494   -13725   -17849 
  -17867   -13532    -7901    -4122    -2155    -1389     -908      989 
    4151     6960     8054     5884      522    -5429    -9288    -9855 
   -8155    -5926    -4301    -4635    -6581    -9243   -14119   -19614 
  -20575   -16551   -10732    -6336    -7438   -15975   -31159   -49316 
  -62511   -65098   -56300   -37274   -13819     4994    11990     3912 
  -14846   -33149   -40992   -33627   -12704    12973    33120    41532 
   34828    14310   -11904   -34280   -45288   -40296   -22187    -1364 
   12097    12594     -733   -20702   -35758   -38774   -27630    -5749 
   16789    29864    28543    14305    -4464   -18026   -21627   -15538 
   -5401      372    -2046   -12152   -27697   -44180   -56489   -59247 
  -49994   -33027   -13937     3422    14430    16429    10847      990 
   -9296   -16411   -17814   -13383    -6484     -814     2551     3669 
    2479    -1354    -7759   -14608   -18841   -17928   -10347     1136 
   10187    13020    10185     4850      240    -2577    -2768       64 
    2995     2439    -3046   -13238   -24795   -32139   -31482   -23329 
  -12424    -3315     2654     5224     4779     2945      785    -1501 
   -3260    -4256    -4918    -5417    -6542    -8267    -8579    -7153 
   -6095    -7321   -11911   -18848   -24578   -25994   -22994   -17653 
  -11443    -4251     4051    12267    18381    20806    18819    12672 
    4803     -186     -533      398       67     -929    -2755    -6748 
  -12637   -18339   -22584   -24723   -22947   -16692    -8185     -560 
    3225     2454      236      405     3167     4483       78   -10328 
  -23777   -35800   -40628   -35488   -23534   -10486    -1570      464 
   -3979   -12150   -19525   -23268   -23947   -22353   -19579   -17875 
  -17505   -17109   -16015   -14316   -12618   -10351    -6833    -3899 
   -4386    -9001   -14613   -16806   -14047    -8328    -3159    -1085 
   -2477    -5910    -9004    -8348    -1264    10474    22117    29621 
   30204    23261    10644    -4549   -17818   -24818   -24470   -18489 
  -10455    -6192   -10782   -24159   -41318   -55526   -60149   -50674 
