Origin Time       2016/04/16 01:25:00
Lat.              32.753
Long.             130.762
Depth. (km)       12
Mag.              7.3
Station Code      MYZ017
Station Lat.      31.4637
Station Long.     131.2277
Station Height(m) 6
Record Time       2016/04/16 01:25:34
Sampling Freq(Hz) 100Hz
Duration Time(s)  122
Dir.              N-S
Scale Factor      7845(gal)/8223790
Max. Acc. (gal)   33.551
Last Correction   2016/04/16 01:25:34
Memo.             
[...]
    9273     9749    10215    10613    10968    11353    11792    12112 
   12071    11583    10743     9728     8575     7180     5560     3825 
    2034      326    -1117    -2266    -3186    -3997    -4814    -5623 
   -6358    -6933    -7214    -7160    -6843    -6289    -5502    -4585 
   -3673    -2783    -1923    -1155     -436      310     1065     1813 
    2546     3221     3846     4476     5096     5691     6334     7040 
    7715     8248     8553     8564     8284     7807     7261     6762 
    6369     6096     5937     5886     5934     5984     5867     5532 
    5001     4266     3348     2336     1302      261     -747    -1696 
   -2610    -3530    -4477    -5420    -6295    -7056    -7628    -7884 
   -7765    -7329    -6623    -5683    -4606    -3411    -2064     -612 
     866     2330     3685     4762     5466     5854     6022     6023 
    5890     5647     5350     5089     4935     4954     5151     5389 
    5529     5560     5464     5213     4855     4460     4077     3771 
    3597     3534     3504     3459     3385     3261     3041     2683 
    2203     1714     1364     1190     1148     1212     1308     1282 
    1021      537      -64     -598     -919    -1023     -900     -540 
       0      700     1554     2482     3395     4276     5173     6085 
    6968     7770     8444     9027     9620    10261    10881    11381 
   11699    11723    11349    10619     9657     8548     7354     6114 
    4801     3393     1979      661     -533    -1560    -2380    -3055 
   -3631    -4102    -4510    -4880    -5169    -5385    -5587    -5745 
   -5726    -5410    -4737    -3704    -2400     -990      372     1626 
    2691     3473     3944     4175     4283     4368     4484     4633 
    4725     4688     4571     4415     4238     4106     4063     4077 
    4097     4182     4433     4861     5363     5769     5908     5733 
    5324     4780     4175     3555     2947     2363     1871     1524 
    1297     1156     1121     1209     1449     1807     2096     2147 
    1939     1505      940      373     -189     -760    -1262    -1584 
   -1605    -1235     -553      194      783     1098     1053      623 
     -40     -679    -1043     -982     -491      340     1317     2157 
    2600     2500     1942     1185      411     -257     -656     -735 
    -535      -32      711     1530     2327     3042     3634     4113 
    4531     4968     5464     5992     6556     7206     7924     8623 
    9192     9574     9756     9705     9373     8753     7952     7094 
    6234     5433     4781     4293     3893     3485     2970     2270 
    1421      553     -238     -908    -1416    -1736    -1844    -1721 
   -1374     -828     -156      548     1196     1672     1849     1729 
    1412      955      425      -79     -460     -654     -689     -579 
    -310       79      577     1206     1949     2762     3562     4268 
    4824     5292     5809     6409     7026     7561     7808     7611 
    7036     6292     5585     5027     4622     4351     4155     3858 
    3307     2473     1435      390     -457    -1030    -1318    -1379 
   -1321    -1205    -1038     -859     -700     -517     -261       67 
     422      677      767      739      630      487      379      305 
     261      322      523      842     1305     1864     2349     2679 
    2924     3123     3296     3470     3612     3655     3487     3041 
    2378     1561      731       90     -301     -481     -540     -633 
    -847    -1171    -1549    -1956    -2365    -2656    -2727    -2644 
   -2525    -2349    -2064    -1728    -1302     -666      144     1075 
    2192     3520     5051     6727     8388     9871    11055    11808 
   12046    11942    11805    11774    11840    11942    11944    11708 
   11124    10139     8810     7279     5732     4278     2882     1497 
     125    -1215    -2485    -3643    -4683    -5597    -6356    -6886 
   -7123    -7119    -6894    -6447    -5891    -5304    -4627    -3782 
   -2714    -1402      140     1842     3544     5046     6141     6709 
    6785     6515     6115     5798     5711     5915     6318     6752 
    7080     7223     7153     6856     6480     6228     6088     5980 
    5815     5489     5009     4341     3376     2219     1060       20 
    -834    -1509    -2026    -2362    -2465    -2324    -1991    -1544 
   -1111     -812     -711     -837    -1258    -1980    -2795    -3450 
   -3757    -3634    -3172    -2471    -1547     -460      604     1448 
    2006     2334     2586     2922     3352     3828     4367     4958 
    5585     6230     6866     7557     8372     9228    10045    10809 
   11429    11757    11689    11178    10258     9009     7584     6210 
    4986     3873     2836     1819      764     -286    -1267    -2114 
   -2718    -3087    -3342    -3510    -3557    -3511    -3437    -3379 
   -3366    -3423    -3535    -3663    -3839    -4067    -4313    -4619 
   -4976    -5260    -5337    -5053    -4349    -3260    -1840     -195 
    1606     3464     5220     6852     8364     9761    11076    12198 
   12933    13194    12989    12401    11577    10669     9798     9053 
    8387     7627     6718     5771     4907     4207     3682     3284 
    2943     2584     2139     1516      731      -65     -800    -1470 
   -2050    -2494    -2849    -3153    -3281    -3152    -2818    -2282 
   -1539     -618      468     1648     2811     3866     4645     4938 
    4658     3889     2766     1480      294     -585    -1026     -978 
    -526      153      881     1551     2189     2859     3537     4197 
    4849     5439     5908     6257     6465     6534     6498     6293 
    5813     5050     4002     2745     1457      289     -603    -1139 
   -1366    -1328    -1124     -864     -540     -175      149      400 
     572      707      890     1165     1498     1819     2079     2304 
    2536     2805     3149     3557     3880     4008     3978     3861 
    3663     3385     3005     2473     1845     1235      645      106 
    -310     -676    -1090    -1632    -2351    -3107    -3690    -4055 
   -4247    -4195    -3883    -3406    -2762    -1915     -912      167 
    1275     2394     3497     4498     5304     5913     6413     6837 
    7210     7628     8078     8464     8776     8957     8923     8642 
    8071     7215     6134     4873     3551     2280     1075     -118 
   -1390    -2721    -3987    -5086    -6018    -6797    -7337    -7646 
   -7816    -7789    -7500    -6961    -6188    -5215    -4023    -2606 
   -1081      429     1815     2945     3754     4301     4716     5089 
    5417     5719     6034     6299     6450     6556     6637     6598 
    6467     6361     6322     6381     6586     6966     7470     7946 
    8241     8322     8233     7950     7393     6588     5647     4688 
    3820     3102     2478     1815     1011       70     -901    -1781 
   -2501    -3053    -3477    -3786    -3970    -3997    -3807    -3331 
   -2539    -1518     -414      672     1649     2506     3319     4152 
    5050     5995     6956     8005     9166    10376    11655    13039 
   14413    15579    16297    16365    15745    14539    13009    11493 
   10230     9310     8730     8424     8252     8090     7874     7591 
    7241     6813     6334     5845     5337     4842     4375     3932 
    3620     3492     3504     3585     3599     3420     2980     2273 
    1383      419     -450    -1092    -1534    -1798    -1895    -1977 
   -2147    -2425    -2820    -3284    -3728    -4051    -4139    -3932 
   -3495    -2915    -2293    -1809    -1548    -1437    -1343    -1065 
    -511      224     1078     1941     2639     3145     3527     3859 
    4174     4422     4575     4584     4388     3994     3537     3130 
    2737     2498     2515     2409     2201     2126     1769     1181 
     770      340      -98     -367     -630     -989    -1522    -2242 
   -3056    -4000    -4941    -5605    -5979    -6034    -5599    -4753 
   -3670    -2444    -1220     -141      693     1375     2126     3001 
    4017     5161     6272     7263     8037     8486     8691     8731 
    8572     8322     8135     7950     7758     7765     8021     8391 
    8745     8910     8800     8467     7920     7182     6316     5408 
    4515     3563     2423     1039     -564    -2307    -4140    -6064 
   -8017    -9886   -11526   -12789   -13531   -13594   -12946   -11689 
  -10019    -8197    -6488    -5115    -4158    -3554    -3215    -2972 
   -2612    -2000    -1101       47     1385     2884     4580     6438 
    8283     9985    11531    12926    14162    15228    16109    16789 
   17242    17427    17281    16726    15780    14529    13109    11703 
   10376     9163     8121     7134     6110     5081     4013     2894 
    1783      715     -322    -1381    -2492    -3611    -4684    -5719 
   -6713    -7604    -8317    -8761    -8850    -8604    -8172    -7616 
   -6934    -6241    -5590    -4866    -3943    -2794    -1516     -257 
     907     1971     3013     4174     5433     6697     8000     9278 
   10372    11202    11691    11896    12009    12066    11989    11734 
   11241    10520     9647     8602     7377     6076     4735     3343 
    1885      325    -1286    -2837    -4232    -5418    -6443    -7338 
   -8083    -8696    -9196    -9536    -9660    -9517    -9062    -8357 
   -7522    -6554    -5329    -3910    -2438     -799     1084     3088 
    5169     7215     9032    10577    11863    12921    13857    14782 
   15665    16365    16776    16837    16596    16147    15424    14359 
   13092    11712    10200     8694     7287     5853     4390     3037 
    1815      662     -518    -1840    -3315    -4850    -6401    -7979 
   -9585   -11237   -12941   -14577   -15992   -17134   -17955   -18299 
  -18171   -17664   -16705   -15298   -13590   -11674    -9653    -7614 
   -5518    -3396    -1296      877     3137     5359     7452     9254 
   10594    11481    12006    12280    12420    12483    12490    12469 
   12387    12124    11601    10831     9842     8702     7534     6409 
    5327     4342     3505     2713     1872     1021      178     -616 
   -1224    -1556    -1579    -1302     -824     -257      288      730 
    1111     1506     1883     2170     2343     2470     2640     2813 
    2907     2948     2941     2816     2517     2097     1645     1212 
     876      753      884     1179     1487     1636     1572     1385 
    1043      535      112      -67      -76       85      467     1020 
    1651     2338     3119     3970     4860     5771     6669     7501 
    8228     8861     9454    10065    10735    11458    12198    12912 
   13494    13822    13861    13582    13003    12204    11223    10176 
    9294     8684     8237     7794     7249     6525     5575     4355 
    2857     1200     -454    -1988    -3353    -4534    -5487    -6210 
   -6706    -6951    -7037    -6995    -6764    -6451    -6174    -6006 
   -5907    -5636    -5050    -4178    -3109    -2001     -996     -212 
     301      673      999     1244     1383     1389     1250     1021 
     757      511      357      297      270      233      129     -101 
    -502    -1107    -1927    -2874    -3767    -4476    -4880    -4838 
   -4395    -3688    -2735    -1521     -116     1421     3057     4683 
    6254     7850     9451    10903    12098    13084    13911    14531 
   14889    14979    14868    14627    14293    13919    13486    12945 
   12334    11643    10827     9930     8972     7885     6706     5541 
    4396     3265     2168     1084      -54    -1293    -2643    -4112 
   -5652    -7180    -8702   -10150   -11303   -12058   -12420   -12295 
  -11674   -10698    -9463    -8005    -6450    -5104    -4202    -3688 
   -3433    -3302    -3055    -2573    -1867     -903      301     1684 
    3213     4870     6639     8430    10183    11944    13740    15531 
   17261    18871    20286    21346    21884    21930    21577    20788 
   19527    17922    16042    13787    11149     8260     5246     2242 
    -600    -3137    -5273    -7055    -8571    -9842   -10916   -11866 
  -12680   -13316   -13751   -13915   -13783   -13336   -12495   -11287 
   -9813    -8144    -6354    -4523    -2736    -1090      388     1710 
    2875     3956     5038     6131     7229     8268     9212    10099 
   10941    11715    12426    13073    13629    14099    14494    14708 
   14544    13932    12891    11412     9579     7566     5455     3254 
     955    -1435    -3809    -6095    -8299   -10377   -12316   -14123 
  -15653   -16767   -17466   -17701   -17454   -16892   -16129   -15091 
  -13732   -12052   -10100    -8027    -5900    -3658    -1277     1279 
    4003     6716     9213    11462    13570    15616    17621    19615 
   21568    23318    24745    25867    26609    26892    26769    26300 
   25508    24390    22932    21232    19379    17392    15346    13281 
   11148     8932     6696     4464     2187     -170    -2509    -4714 
   -6795    -8761   -10546   -12170   -13710   -15272   -16908   -18445 
  -19700   -20580   -20875   -20479   -19512   -18069   -16244   -14106 
  -11670    -9084    -6488    -3811     -931     2111     5202     8259 
   11176    13891    16444    18874    21223    23512    25736    27865 
   29844    31627    33108    34111    34496    34156    33106    31446 
   29199    26362    22929    18886    14392     9634     4792       44 
   -4571    -8892   -12577   -15646   -18357   -20888   -23422   -26017 
  -28486   -30578   -32097   -32850   -32563   -31062   -28545   -25591 
  -22681   -19681   -16454   -13383   -10482    -7353    -4009     -556 
    2948     6304     9504    12561    15434    18207    20825    23224 
   25546    27761    29686    31212    32294    32917    32954    32266 
   31004    29431    27598    25407    22724    19599    16355    12717 
    8424     4742     1239    -3677    -7807   -10839   -15138   -18847 
  -21393   -24390   -27041   -29059   -30397   -31167   -31580   -30541 
  -28291   -25857   -23112   -20031   -17135   -14521   -11823    -9246 
   -6694    -3771     -738     2555     6030     9258    12487    15541 
   18181    20679    22954    25049    27137    28950    30459    31631 
   31892    31082    29349    26721    23885    21471    19299    17452 
   16136    14897    13421    11870    10312     8688     6990     5337 
    3792     2261      738     -838    -2623    -4577    -6616    -8691 
  -10677   -12532   -14234   -15639   -16705   -17471   -17871   -17876 
  -17539   -16980   -16360   -15716   -14991   -14021   -12609   -10790 
   -8710    -6431    -3939    -1296     1252     3589     5772     7750 
    9505    11175    12816    14426    16120    17979    19984    22098 
   24152    25975    27465    28463    28879    28752    28200    27410 
   26414    25096    23441    21440    19097    16441    13427    10139 
    6839     3657      591    -2319    -5078    -7782   -10417   -12888 
  -15223   -17390   -19234   -20709   -21752   -22297   -22308   -21737 
  -20695   -19361   -17787   -16085   -14328   -12317    -9896    -7182 
   -4252    -1136     2065     5202     7974    10234    12131    13749 
   15199    16600    17888    19083    20223    21181    21907    22307 
   22108    21208    19797    18076    16197    14305    12420    10447 
    8330     6035     3630     1223    -1182    -3592    -5895    -8017 
  -10068   -12122   -14088   -15963   -17814   -19609   -21315   -22793 
  -23786   -24200   -24104   -23566   -22566   -21088   -19236   -17178 
  -15049   -12872   -10601    -8228    -5779    -3326     -926     1437 
    3719     5830     7794     9667    11377    12881    14296    15632 
   16727    17559    18212    18581    18450    17748    16474    14677 
   12538    10272     8000     5776     3631     1606     -255    -1968 
   -3530    -4950    -6237    -7319    -8159    -8868    -9477    -9842 
   -9853    -9471    -8719    -7605    -6039    -4077    -1964      109 
    2061     3874     5560     7091     8418     9539    10471    11260 
   11980    12742    13586    14459    15298    15989    16445    16726 
   16826    16633    16152    15445    14520    13431    12286    11213 
   10226     9188     8020     6743     5339     3842     2293      672 
    -955    -2527    -4020    -5347    -6440    -7215    -7581    -7596 
   -7365    -6890    -6173    -5320    -4388    -3404    -2505    -1825 
   -1301     -819     -425     -176        0      174      373      623 
     943     1390     2045     2905     3923     5104     6415     7796 
    9236    10719    12183    13536    14666    15480    15909    15896 
   15417    14524    13311    11851    10243     8569     6895     5258 
    3642     2073      542     -997    -2523    -3977    -5397    -6858 
   -8317    -9780   -11358   -12962   -14455   -15827   -16945   -17659 
  -17982   -17933   -17563   -16995   -16289   -15388   -14139   -12586 
  -10906    -9063    -7036    -4946    -2756     -438     1910     4260 
    6567     8768    10854    12777    14543    16212    17750    19072 
   20205    21177    21929    22452    22744    22746    22452    21886 
   21024    19816    18238    16306    14011    11372     8522     5667 
    2918      263    -2236    -4475    -6470    -8278    -9968   -11703 
  -13574   -15585   -17703   -19769   -21628   -23133   -24043   -24270 
  -23938   -23161   -22036   -20700   -19183   -17385   -15255   -12833 
  -10146    -7149    -3897     -575     2688     5711     8294    10514 
   12513    14262    15807    17292    18734    20036    21103    21855 
   22177    21914    20900    19089    16664    13986    11315     8699 
    6142     3609     1096    -1287    -3462    -5370    -6987    -8367 
   -9489   -10372   -11134   -11774   -12307   -12816   -13225   -13477 
  -13626   -13609   -13336   -12852   -12143   -11113    -9794    -8305 
   -6670    -4861    -2941     -981     1004     2988     4916     6763 
    8503    10107    11603    13018    14357    15646    16869    17928 
   18698    19097    19137    18900    18384    17529    16347    14925 
   13312    11529     9670     7788     5896     4133     2594     1232 
       4    -1140    -2280    -3443    -4611    -5760    -6939    -8176 
   -9352   -10362   -11145   -11619   -11817   -11778   -11483   -10983 
  -10368    -9705    -8991    -8144    -7088    -5778    -4207    -2363 
    -298     1817     3923     5971     7813     9463    11025    12483 
   13819    15120    16383    17517    18527    19434    20164    20679 
   20966    20943    20574    19846    18711    17153    15176    12808 
   10180     7461     4716     2000     -558    -2840    -4824    -6620 
   -8330    -9977   -11530   -12962   -14212   -15153   -15715   -15867 
  -15560   -14818   -13721   -12388   -10994    -9590    -8113    -6520 
   -4743    -2763     -750     1185     3096     4956     6686     8236 
    9594    10810    11924    12939    13871    14701    15348    15753 
   15881    15630    14851    13536    11831     9883     7797     5629 
    3423     1254     -837    -2782    -4518    -6030    -7291    -8283 
   -8995    -9417    -9513    -9198    -8408    -7136    -5467    -3546 
   -1499      553     2524     4322     5949     7429     8692     9760 
   10651    11325    11842    12195    12388    12540    12657    12726 
   12772    12793    12819    12833    12796    12647    12258    11623 
