Origin Time       2016/04/16 01:25:00
Lat.              32.753
Long.             130.762
Depth. (km)       12
Mag.              7.3
Station Code      MYZ005
Station Lat.      32.4281
Station Long.     131.6003
Station Height(m) 22
Record Time       2016/04/16 01:25:21
Sampling Freq(Hz) 100Hz
Duration Time(s)  110
Dir.              E-W
Scale Factor      7845(gal)/8223790
Max. Acc. (gal)   23.142
Last Correction   2016/04/16 01:25:21
Memo.             
[...]
   -1013    -1344     -689      318     1102     1236      697      194 
     398      778      631      190     -422    -1148    -1590    -1865 
   -1941    -1348     -783     -897     -777      -81      764     1588 
    1621      796       82     -652    -1391    -1188     -164      751 
    1008      472      -63      211      591      504      503      720 
     939      822       -5     -685     -314      303      664     1418 
    2133     2115     1980     1761     1216     1159     1097       28 
    -645     -175      221      456      616      -58    -1080    -1667 
   -2160    -2581    -2269     -753     1089     1613      897     -244 
   -1560    -1903     -733      433      591       -5    -1213    -2417 
   -2492    -1617     -660      542     1837     2091     1074       36 
     176     1151     1737     1366     -144    -1966    -1698      733 
    2787     3738     3353     1256     -283      359     1722     2525 
    2498     1286     -525    -1506    -1210      207     2305     3793 
    3817     2220       68     -631      206     1632     2539     1154 
   -1498    -2435    -1449      383     2330     2531      372    -1746 
   -2150    -1431     -156      965     1102      544     -225     -962 
   -1336     -834      486      961       79     -535     -338      274 
     965      950     -201    -1694    -2042     -928      390      899 
     556     -288     -963     -753      311     1030       47    -1528 
   -1664     -876     -532     -876    -1148     -966     -805     -160 
     877     1460     2646     4060     3230      899       47      935 
    1252      499      144     -386    -1899    -2862    -2717    -2351 
   -1690     -723      -49      595     1215     1144     1300     2263 
    2496     1885     1714     2062     2625     2079     -303    -2170 
   -2535    -2296    -1302     -313      -60      225      726      892 
    1013     1441      870     -585     -299     1603     2785     2450 
    1005      255      785      459     -459     -603     -642     -252 
     -43    -1356    -2367    -2010     -880     1410     3910     4484 
    2758      459    -1129    -2088    -2003    -1065     -538     -707 
    -818      -45      972     1155     1020      853      252     -846 
   -1881    -1404      548     1506     -131    -2841    -4131    -3375 
   -1320      772     1632      365    -2118    -2949    -2139    -1308 
      11      807       70     -886    -1561     -970     1494     3087 
    2255      699     -812    -2467    -3105    -1682     1013     2921 
    2498      375    -1703    -2749    -2342     -650     1368     2974 
    3289     2189     1912     2891     3269     3468     3532     2677 
    2111     1401     -307     -985    -1021    -2721    -4137    -2948 
    -899      702     2415     3383     3388     3886     3910     2038 
     153     -109      -86     -322       93     -276    -1806    -1568 
    -135     -163      -91     1532     3069     3369     1668    -1923 
   -4851    -4989    -2872     -472     1067     1544      911     -117 
    -324     1093     3561     4901     3670     1551     -399    -3510 
   -5224    -2438     1279     2265     1166    -1763    -4734    -3586 
     155     3314     6415     6075      954    -2304    -1344      769 
    2909     3723     1630    -1852    -3423    -1894      405     1781 
    2995     3257     1117    -1564    -1603     1665     5466     5894 
    2106    -2590    -4866    -5023    -4812    -4807    -5721    -7426 
   -7850    -6732    -4521     -167     4793     8199     9239     7009 
    4067     2570      845     -495        4      373    -1802    -5282 
   -7010    -7013    -5613    -2876    -1563     -789     1312     2288 
    2878     3873     3619     3899     3939      812    -2420    -2258 
    -575      315      772      877      280     -446    -1535    -2322 
   -1028      -14    -1975    -3861    -3014     -697     1440     2083 
    1687     1872     1810      144    -1972    -2493     -787     2315 
    5198     6956     7344     5992     4703     4440     3096     1431 
     626    -1142    -3738    -5798    -6301    -4301     -876     2504 
    4757     4949     3665     2033      987      618        9    -1534 
   -3970    -5012    -3299    -1896    -1605      448     3056     3703 
    4510     5825     4860     2994     1946      615     -230      109 
     276     -460    -1856    -3620    -4415    -1734     3141     5857 
    6862     7704     6524     4415     3273     1761     -298    -2710 
   -4727    -4981    -5829    -7537    -7515    -7778    -8248    -5262 
   -1526      140     2124     2623       58    -1417    -1362    -1634 
    -982      427      517     -770    -1339     -835     -164     1470 
    2875     2803     4293     7458     7546     4025      857    -1911 
   -4737    -4266    -1324     1466     4083     4008      919    -1182 
   -1965    -1799     1632     4653     2646      289    -1000    -5227 
   -7507    -4081    -1656    -2413    -3492    -4688    -2550     2596 
    4132     4342     7226     9197     9499     8741     5420     2083 
     643    -1166    -3018    -3327    -3870    -5601    -5877    -3451 
     571     5398     7901     7160     7888    10168    10444     8424 
    4784     1281    -1426    -4288    -5481    -5489    -7446    -8459 
   -6238    -4986    -4994    -3462    -1005     2442     5575     5221 
    3626     3384     3300     4090     4884     3373      899    -2254 
   -4444    -2160     1474     3117     3746     1798    -1397     -765 
     859     -390     -893      -52      -65      203     -292    -1278 
    1710     5618     4748     3038     3364     2957     2041     1340 
    -548    -3234    -3879    -2551    -2539    -3775    -4533    -4135 
   -1768      642       45    -1810    -1509      103     1150     2107 
    3782     5371     5517     3894      328    -3276    -3908    -2940 
   -2435    -1547     -696    -1024    -1521    -1632    -2304    -3175 
   -3321    -3103    -2767     -980     1956     1594    -2251    -3136 
      59     3358     6072     7921     8021     6901     4271     1327 
    -218     -807      602     3784     5638     5250     3797     2200 
    1232     1517     1765      583    -1088    -3033    -5059    -4801 
   -1809      938     1196      305      198      575     2176     5383 
    7438     7142     4807      965    -1833    -2631    -2961    -2671 
   -1298    -1062    -1706     -519      953     1822     3466     3466 
    1043       -5     1399     2543     1539     -195     -565     -240 
     280     1927     4068     5367     4904     2718     1094     1374 
    2405     3574     4325     4228     3585     1939      -63     -459 
     568      210    -2319    -3511    -1570     -168    -1570    -1941 
     143     1089     1603     3990     4887     2107    -1024    -2598 
   -3083    -2432    -2087    -2133     -990     -646    -1787    -1232 
    1216     3396     4421     3102     -558    -2959    -1968     -388 
      87     1060     1701       79    -1998    -2674    -1742     1075 
    2581      573     -591        4     -519      675     4746     5413 
    1102    -1418      298     2543     3503     2887     1726     2386 
    3327     2058     1755     4463     5325     1930    -2120    -3488 
   -2060    -1262    -2168    -2739    -4367    -6460    -5157     -980 
    2922     3861      814    -3869    -6825    -5965    -1760     2207 
    3037     1574      398      328       83       -1      546      -44 
    -425     1761     3200     1050     -598     1070     1922      926 
    1876     3418     3168     3126     2694     1159     2020     3719 
    1505    -1277     -162     1810     1980     1984     1310     -996 
   -1863    -1310    -2135    -1906     -160     -468    -1189     -166 
     562      737     2126     3600     1961    -1773    -2847     -650 
    1080     1111      198    -1605    -2606    -2482    -2779    -2698 
   -2471    -2731    -2664    -2875    -2972    -2174    -1201      410 
    2997     4878     4079     1189    -1060    -2365    -3006    -1937 
   -1298    -2250    -2201    -1470    -1318     -849      211     2007 
    3218     2215      731       16      446     1975     1842      360 
      -9     -631    -2444    -4159    -3998    -1755     -400     -923 
   -1444    -1370     -767     -288     -715     -689      163      124 
     131     1718     3237     2979     1462      565     1694     3532 
    3638     2034     -430    -1880     -166     1561     1606     2647 
    2886     1320      908     1115      103    -2095    -4099    -3404 
     -51     2899     2554       16      375     2848     2504     1725 
    2353     1255     -349    -1269    -2191    -1055      649      569 
     928     1826     1526     -220    -2650    -3751    -2906     -672 
    1777     1987      352     -896    -1301     -303     1937     3338 
    3024     2154     1158      -70      207     2385     3792     3339 
    1645     -834    -3277    -4820    -4572    -4006    -4457    -2787 
    -355    -2234    -4060     -616     3589     5213     5773     5281 
    3807     2984     3034     2506     1603     1260     -137    -3358 
   -5930    -5918    -4634    -3719    -2766    -2444    -3303    -3600 
   -3321    -2938    -1705     -814     -263     1094     2095     3746 
    6130     6014     4455     2497    -1599    -5900    -8683   -10862 
  -11362    -9792    -8453    -7134    -4780    -3327    -2257      352 
    2511     3132     3177     2049      616     1584     3836     4020 
    2563     1354      526      114      295     1942     5181     6932 
    5790     4163     2641      646     -206     -206    -1982    -5443 
   -8642   -10308    -9590    -7118    -5339    -4905    -3095      116 
    1460     2187     4595     5968     4159      942    -1163    -1179 
     -54      241     -777    -1451    -1059     -737     -767       52 
    1275     1449     1129      981     1151     1107     -445    -1698 
    -369     1192      446     -728      480     3561     5134     3369 
    1668     2952     4336     2913     -190    -2425    -2656    -1925 
   -2501    -5240    -8340   -10652   -12390   -12854   -11430    -9019 
   -6563    -3222      828     2292     -370    -5140    -9013    -9343 
   -6870    -4472    -2516     -750     -584     -981     1387     4866 
    5563     5012     5765     6752     6427     4729     2697     1926 
    2914     3963     3450     2509     2955     3557     2430      477 
   -1499    -3497    -3951    -2000      175       91    -1509    -2816 
   -3591    -2713      255     2481     2641     1927      388    -1013 
    -178     1304      141    -2759    -4828    -5917    -5368    -2654 
    -363      189     -448    -4058    -8681    -8133    -5287    -5671 
   -5876    -5509    -6318    -5273    -4001    -3462     -421     2224 
    1420      355     1513     3470     4051     3256     2447     1775 
     761      137       60     -319     -553       82      932      430 
   -1359    -1752      440     3406     5198     6290     7592     6984 
    4348     3283     4634     6300     6200     3601     -199    -3443 
   -5679    -7056    -7942    -8953    -7618    -2490     1813     2951 
    1636    -1912    -4664    -6084    -7599    -5760     -954     1105 
     307     -317      112     1522     2057     1498     2640     3717 
    1559    -1062    -2693    -4357    -3763    -1000      153     -221 
     533     1830     3283     5999     6525     2598    -1317    -1595 
     268     1065     1116     1003    -1159    -3186    -2616    -1081 
    1021     3119     3142     1038    -1690    -3518    -4230    -4558 
   -3071      847     3267     2542     1098    -1286    -4299    -4923 
   -3163     -112     3851     5892     4214     1220     -874    -1898 
   -2003    -2397    -3296    -2610     -957      -89      978     1286 
    -934    -2918    -2474    -1857    -2262    -2317    -1858    -1008 
    2031     7323     9369     4854       20     -222     1572     2943 
    2785     2107     2943     3105      764    -1906    -2565     -298 
    2215      486    -3402    -4238    -3662    -2957     1345     7160 
   10299    10827     8108     3160    -1070    -4266    -4623      -39 
    4974     4618      257    -3225    -4217    -3388    -1898    -2683 
   -6633    -9958   -10608   -10983   -11990   -10110    -4062      599 
   -1352    -7250    -9949    -7071    -1657     3647     6705     6470 
    3946     -638    -5043    -5147    -2095      -20      -44     -125 
    1767     3042     1193     -399      157      194    -1215    -3134 
   -4708    -4233    -1846       36      685      858     1578     3631 
    6250     8317     8750     6540     3145      826    -1055    -4258 
   -8024   -10118   -10704   -12318   -14793   -13740    -7989     -194 
   10493    21408    24223    19989    15696    11549     6790     4629 
    5788     7082     7083     6813     7495    10260    12491    10000 
    5148     1618    -2134    -4860    -2999     -469    -1998    -5647 
   -9344   -12102   -11592    -8175    -5532    -4371    -2338     -612 
   -1174    -4097    -9929   -14628   -14231   -12058    -8467    -2015 
    2955     5422     8830    12789    13379     7573     -325    -1274 
    4253     8040     7771     6350     4911     2083    -1946    -4153 
   -3770    -2423      194     2947     1370    -3252    -4051     -337 
    4527     9248    10727     6451     -411    -3689     -576     3507 
    2430    -2134    -6084    -5605      295     5192     6729     9352 
   12719    16659    22386    24459    19471    13238     9846     5937 
     302    -4112    -5910    -4095     -149     2232     3075     2821 
    1298      619      849      513      464      519    -1350    -2735 
     174     3997     5603     7249     7840     5687     3744     2373 
    -994    -5377    -9767   -15063   -18323   -16636   -11830    -6970 
   -5790    -9713   -15082   -17948   -16519   -10326     -892     5377 
    1318    -8800   -14617   -13783    -7539     1420     6660     8451 
   11797    14720    14412    11346     5243      222      464     1124 
   -1701    -4704    -5071    -3577     -608     5092     9968     7919 
    1351    -1953     1190     6393     7381     4878     2242    -1584 
   -6963   -11445   -12229    -7221     1537     8338     9229     5513 
    2643     3899     6347     6602     6042     5840     5497     6273 
    6632     3661      102    -2669    -8031   -14106   -15012   -11200 
   -7839    -6197    -3948    -1949    -2824    -4637    -4719    -4359 
   -3705      -99     5582     8289     6642     4754     5572     7480 
    7506     6166     5509     5702     6561     6322     4689     5584 
    9180    11838    12764    12046     7346    -2683   -13099   -16897 
  -14543   -11521    -8592    -4710    -3222    -4445    -5421    -6663 
   -5398     1262     7036     8676    10214    10681     6902     -508 
   -9292   -12742    -7279     -702     1042     -733    -2369     1156 
    8303    11392     7655      467    -4938    -7011    -8810    -9058 
   -5661    -3682    -3526    -1366     -922    -2232     -757      522 
     144      510      409      174     1459     2972     4665     7396 
    7268     1509    -3279    -2986    -4280   -10689   -16621   -16017 
  -10269    -7789   -11151   -13304   -10697    -6254    -1557     1852 
    1244    -1156    -2319    -3345    -3283    -1150    -1250    -5815 
   -9913   -10309   -10305   -10962    -8696    -3582     1721     7149 
    9067     4411     1028     3015     3748     1541     -491    -1038 
     386     2659     5344     7619     8000     9227    11543    11263 
   10616    12414    13234    10732     7325     5945     7111     7971 
    6789     7427    10308     9632     5911     4178     4347     5692 
    7933     6971     2751     -425    -4017    -9242   -12334   -11731 
   -8017    -1448     5678     8563     6964     6081     6956     7936 
    8806     7820     4658     3586     7769    12305    10432     4421 
     966      915     1347     3364     8421    12546    12490     8579 
    2863      864     4302     5297     -383    -7273   -12166   -15444 
  -14659    -9953    -6404    -5640    -4527    -1339     2126     3882 
    4390     4205     2917      900     -522      286     2249     1757 
   -1046    -3095    -4444    -6895   -10166   -12595   -12999   -11877 
  -11375   -11965   -12066   -11553    -9435    -3435     2700     4005 
    3870     5217     7103    12509    19811    21886    20910    20891 
   18607    14885    13431    13108    13167    14125    14697    14416 
   13744    12100     9659     8460     9662    11410    11491    10678 
    9984     8934     9177    11403    11275     8237     7668     8077 
    3666    -3067    -7812   -11229   -11992    -8182    -3651    -2581 
   -3908    -4654    -3653    -3330    -6411    -9842    -9482    -5575 
    -302     2623     2496     2970     2740     -626    -2894    -2151 
   -2196    -4186    -5387    -3827    -1089      -36      573     3099 
    4563     2913     2253     4081     5097     4055     1456    -2338 
   -5578    -6531    -5659    -4402    -3539    -2983    -2697    -3250 
   -3291     -880     1417     1159       16     -680       45     1923 
    2606     2513     2679     2613     3134     3095     1042      -35 
     361     -942    -2781    -2228     -322      670      687      967 
    2219     5167     9371    10512     6543     2748     3046     5429 
    6949     5964     3075     -329    -4338    -8037    -9765    -9470 
   -6970    -2702      741     2628     4032     3796     1537     -129 
    -490    -1590    -3819    -6238    -8048    -7842    -7335   -10288 
  -13961   -12914    -9244    -7302    -6222    -5301    -5705    -7003 
   -8517    -9292    -7964    -6129    -6620    -7780    -7774    -9575 
  -12725   -12974   -10563    -7712    -5873    -5930    -6511    -6227 
   -4650    -1942       28      252    -1019    -3354    -4132    -2149 
     -47     1584     4553     7121     5976     3662     4691     7017 
    6921     4653     1394     -757      850     4738     7122     7480 
    6542     3615      102    -1129      106     3099     7105     9806 
    9763     8048     6940     7406     7546     5996     3651     1475 
     -98    -1744    -4024    -5263    -3993    -1179     1271     2863 
    4660     5988     5487     4486     3451     1991     1927     3388 
    4017     2450      128     -391     -695    -2501    -3055    -2565 
   -2909    -1587     2520     7118    10335    11318    10589     8961 
    6902     5104     3334     1753     1792     3175     3899     3073 
    1553      822     1250     1799     1878     1908     2084     1962 
    1495     1539     1750      378    -2091    -3815    -4880    -5154 
   -3956    -2290    -1124     -178     1377     3905     5675     5205 
    4598     6131     8303     8762     7537     6104     6015     7238 
    7836     7973     9286     9273     6628     6178     8596     8780 
    6731     5294     3311      808      974     3092     3507     2454 
    1576       52    -2083    -2721    -1383     -445     -492      804 
    3118     4001     2273    -1849    -5454    -5686    -3697    -1987 
   -1104     -530     -622    -1745    -2999    -3001    -1196     1634 
    4531     5950     4753     3524     3866     4124     5008     6535 
    6847     7214     8598     9965    10578     9849     9009     9510 
