Origin Time       2016/04/16 01:25:00
Lat.              32.753
Long.             130.762
Depth. (km)       12
Mag.              7.3
Station Code      MYZ012
Station Lat.      31.8723
Station Long.     131.0685
Station Height(m) 149
Record Time       2016/04/16 01:25:24
Sampling Freq(Hz) 100Hz
Duration Time(s)  103
Dir.              N-S
Scale Factor      7845(gal)/8223790
Max. Acc. (gal)   63.682
Last Correction   2016/04/16 01:25:24
Memo.             
[...]
    3336     3322     3316     3330     3357     3365     3357     3357 
    3345     3321     3329     3341     3321     3312     3311     3303 
    3321     3331     3308     3296     3303     3304     3308     3315 
    3310     3289     3271     3260     3265     3277     3272     3254 
    3241     3250     3280     3284     3275     3277     3246     3199 
    3194     3211     3202     3192     3226     3258     3249     3235 
    3230     3208     3188     3200     3221     3231     3277     3349 
    3384     3379     3335     3264     3218     3210     3225     3289 
    3411     3547     3642     3705     3719     3586     3353     3179 
    3144     3291     3613     4017     4407     4687     4739     4537 
    4220     3929     3580     3161     2907     2991     3437     4118 
    4734     5013     4757     3819     2349      946      299      533 
    1228     2043     2917     3861     4733     5134     4909     4260 
    3265     1956      675      203     1101     2816     4378     5513 
    6280     6501     5952     4800     3553     2539     1763     1190 
    1000     1418     2319     3219     3690     3734     3688     3620 
    3206     2415     1634     1094      760      649     1020     1999 
    3208     4266     5044     5366     5270     5107     5035     5000 
    4900     4579     4140     3873     3757     3586     3225     2811 
    2771     3164     3701     4353     5055     5293     4553     2928 
    1225      363      376      487      522     1367     3550     6227 
    8133     8931     8822     7666     5297     2025    -1023    -2444 
   -2046     -712      984     3029     5157     6423     5902     3828 
    1682      608      125     -691    -1273     -359     2020     4595 
    6219     6907     7279     7052     5474     2889      739       23 
     102       67      635     2629     4992     6323     6602     6458 
    6169     5585     4704     4104     4243     4499     3734     2089 
    1023     1317     2331     2836     2295     1597     1443      905 
    -668    -2115    -1960     -148     1877     2728     2852     3981 
    6762     9715    10801     9574     7225     5086     3303     1190 
    -448        5     1701     2717     2994     2914     2436     2293 
    2835     2983     2334     2042     2655     3312     3369     2960 
    2317     1710     1300     1024     1215     2212     3237     3084 
    1578     -326    -1316     -650     1468     4251     6890     9212 
   11402    13238    13956    12418     8164     2648    -1667    -3321 
   -2461     -105     2754     5383     7408     8260     6093      -93 
   -7149   -10527    -9520    -6370    -2207     2802     7801    12063 
   14519    13320     8343     1760    -4261    -8839   -11352   -10185 
   -4676     2792     9126    13440    16324    17869    16998    12274 
    4421    -3036    -7302    -7997    -5854    -2095     2640     8479 
   13563    14704    11943     7099      332    -7482   -13763   -16097 
  -13131    -5752     3422    11639    16849    18250    15147     7508 
   -1938    -9591   -13389   -12789    -8968    -3130     5213    15379 
   23963    27459    23770    13327       -5   -11136   -16457   -14701 
   -7264     2442    10960    16237    18424    19203    18355    12293 
    -144   -12826   -17949   -14251    -6531     1301     9479    18588 
   25331    24317    15259     4482    -3658   -11122   -19489   -23388 
  -15805      508    15429    22991    22855    18254    14324     9621 
   -1266   -12764   -14162    -7267    -1846    -1048      662     8289 
   17633    20371    14623     4413    -5859   -13204   -16147   -13718 
   -5617     6048    17421    24968    27207    25313    21227    15566 
    8586     2165    -2177    -5759    -9049    -8614    -2450     6497 
   14085    16823    14123    10049     7230     4248      155    -3519 
   -3897     -785     1383       87     -832     2980     9624    12700 
    9454     3689     -631    -3307    -5265    -6214    -4872     -835 
    4068     6474     5027     2944     3771     6608     8159     7869 
    7927     8885     8711     5229     -348    -3623    -3639    -3942 
   -5691    -6893    -6878    -4976     -654     2533     2412     2486 
    4544     6338     6848     7148     7398     5593      484    -5076 
   -6993    -5908    -4943    -2729     2988     9450    14195    17628 
   17813    12540     4548    -1726    -5204    -7089    -6732    -2430 
    2905     3723      178    -1954     1576     9281    14608    11145 
     105    -8953    -8885    -2166     5130     9458    10341     9437 
    7882     5621     3168     1243      -32    -1026    -1336      962 
    5497     8179     7254     5138     2789    -1171    -5687    -7254 
   -4970    -1556     1385     5108    10227    15939    19927    16875 
    4163   -12820   -25551   -28526   -21149    -6521    10162    24101 
   34353    38943    33386    20966     9359       32    -8509   -15187 
  -16906   -12789    -4364     6569    16071    21208    22288    18716 
   10476      738    -6597    -8257    -2785     6211    12091    13267 
   13915    16336    18760    17616     9574    -3161   -13559   -18037 
  -16737    -8900     4638    18893    29174    33161    28877    17118 
    1632   -14407   -26606   -29906   -24451   -15295    -5602     5013 
   14162    17864    17406    14863     8540    -2779   -16811   -26497 
  -25261   -15681    -4009     8700    22315    32985    37219    36259 
   32919    25601    11916    -4164   -15384   -17736   -12452    -4789 
    1701     9288    19761    28279    28308    17741       93   -15764 
  -22307   -20829   -15691    -7291     3623    14160    22504    27056 
   26887    22728    14993     3530   -10658   -22312   -24649   -18090 
   -8876     -827     6297    13605    19907    21740    16409     4496 
   -9086   -17629   -18222   -13128    -6727    -2698     -746     2608 
    7539    10602     9641     4672    -2477    -9524   -13996   -11431 
    -184    14494    25199    26940    19288     6313    -5950   -12151 
  -12561   -11881    -9590    -3198     5999    19500    34828    41350 
   35712    21161      692   -17057   -24067   -22468   -16817    -8202 
    1143     7669    11422    14342    15313    12630     5868    -3838 
   -9707    -5007     5911    12883    14191    15519    17987    18600 
   16671    11367     2022    -6754    -9975    -8777    -5100     1142 
    6293     5467      233    -3574    -4120    -5011    -6871    -5267 
      35     4955     7804     7842     5637     4668     4602      799 
   -6797   -13743   -17582   -17053    -9872     2853    15543    24657 
   30028    30954    26322    15140    -1290   -15632   -21456   -19338 
  -11441     -668    10443    21369    28290    28283    21595     8025 
   -7056   -17008   -21760   -20983   -12818      -27    11113    17743 
   22184    25276    24413    17397     3979   -10215   -15435    -9749 
    -114     7198    10887    13358    15996    17220    16393    13948 
    9329     3474    -1063    -3088    -1576     3551     7491     4962 
   -2613    -9699   -12452   -10681    -7233    -5223    -5670    -6416 
   -2673     6424    14877    17953    14531     5702    -2323    -4704 
   -2995      -70     1175      -64     -151     3400     8775    13104 
   14443    11653     4923    -2782    -6971    -5285     1170     8856 
   14029    14681    11213     6188     1939    -1838    -6524   -10744 
  -11350    -8421    -4661    -1545      718     2509     4271     5329 
    4951     3316     1183      693     4006    10049    15840    19480 
   19800    16992    13316    10048     6859     3975     1000    -2866 
   -5692    -4552      899     8164    13188    13856    11550     8172 
    4884     1696    -2014    -4882    -4684    -1071     3326     4360 
    2073     -205    -2797    -7203   -11290   -12154    -9396    -4774 
     218     5044     9217    13651    18868    21027    16206     6881 
    -966    -4009    -2367     2019     6918    10856    11836     7840 
     122    -7550   -12290   -13535   -12807   -10689    -5382     2963 
   10740    15110    15888    14092    11267     8560     5467     2663 
    4118    11349    19244    22851    23171    21883    18114    11416 
    1831    -8155   -13176   -12082    -8618    -5298    -1799     2569 
    5377     2474    -5653   -13174   -15599   -13616    -9640    -5158 
   -1036     3184     7788    11589    14204    15599    14451    10386 
    6241     5593     8006    10150    11317    12112    10254     4156 
   -3422    -9235   -12345   -12469   -10714    -9661    -7983    -1962 
    6264    11897    13360     9745     1975    -6454   -13450   -17313 
  -16293   -10812    -2999     4380    10994    19252    27542    31078 
   30022    26476    19693    11136     4393       47    -2267    -1297 
    3003     8391    12313    12954    10048     5433     1081    -2485 
   -4799    -5656    -5968    -5292    -2119     2095     4405     4611 
    3820     3044     3831     5985     7167     5814     2794      147 
   -1934    -4936    -8648   -10493    -8031    -1714     4186     5668 
    4174     4294     6988     8762     6705      961    -5861   -10341 
  -11820   -11502    -8664    -2979     3304     8457    12550    15996 
   18755    20045    19365    17532    15535    13425    10735     7969 
    6724     7288     8301     8571     8071     8229     9180     8499 
    6165     4506     3005      411    -1509     -872     1248     2376 
    1152    -2504    -7722   -12329   -14366   -14566   -15187   -16687 
  -17030   -13832    -7149      203     5522     8155     8625     8302 
    9373    12252    14912    16372    17061    15788    11600     6675 
    3459     2331     2413     2405     2058     2053     2150     1894 
    1382      469     -608    -1455    -1645      608     6033    12204 
   16276    16513    12560     6123     -645    -6186    -9005    -8390 
   -4868       81     4321     6646     7717     7890     5643      -75 
   -6980   -10233    -6685     1977    10813    16509    19888    22133 
   21767    17509    10305     2034    -6477   -15566   -23152   -24255 
  -17139    -6241     2560     6853     8259     9410     9666     6254 
     -32    -5348    -6963    -4291     1088     7811    15900    23786 
   28945    29986    26608    20744    14997     9405     2890    -3345 
   -5475    -1429     5147     9009     9624     9483     9120     7410 
    3828     -626    -3254    -2574      302     4639     9846    14310 
   17925    21132    21795    18470    12777     5896    -1557    -7539 
  -10038    -8375    -3825      704     3659     5206     5235     4376 
    3994     3937     3456     2636     1285     -464     -859      414 
     957     -598    -4099    -8829   -12325   -11889    -7821    -3376 
    -890     -125    -1100    -3586    -4734    -2740      432     3038 
    5533     8032     9587     9992     9963     9624     8414     6129 
    3218      526    -1447    -2525    -2092      203     3314     5325 
    5090     3423     2123     2205     3109     2975     1182      168 
    2107     5433     7091     6141     4024     2647     2245     1642 
     214    -1198     -688     2227     5613     8186    10746    13691 
   15611    15516    14125    12439    11025     9931     8735     7395 
    6593     7169     9556    13003    15992    17482    16081    10602 
    2902    -3299    -6862    -9891   -13246   -14920   -14121   -11689 
   -7553    -2481     1620     4477     5833     4153      216    -2266 
    -823     3581     8992    14721    20511    25780    29442    29976 
   26793    21061    14563     7735      367    -6412   -11128   -12276 
   -8189     -307     7252    11772    11626     7369     3240     1777 
    1945     2527     2535     1707     1179     2121     4063     4380 
    1452    -2970    -6995   -10490   -12575   -10804    -4021     5306 
   14156    22250    29690    34866    35229    28652    16251     3154 
   -6397   -12058   -14034   -12177    -8295    -4606    -1999     -989 
   -1599    -3627    -7805   -14526   -21417   -24424   -21857   -15070 
   -6050     3114    10436    14092    12464     6439     -291    -4124 
   -3350     1189     7291    13759    20501    27253    33264    37651 
   40016    40018    36749    30114    22133    15893    12933    12488 
   13776    15877    16776    15797    13598     9972     4804     -950 
   -6586   -12245   -17432   -20771   -21608   -20606   -19680   -20008 
  -20262   -19650   -19550   -20833   -23071   -24300   -21300   -13502 
   -4060     3913     9991    15110    18689    19711    18731    16721 
   14506    12345     9171     4484      144    -1653    -1344    -1417 
   -3856    -8915   -14720   -18497   -20083   -21882   -23676   -22270 
  -17154   -11086    -5767     -531     6122    14014    20144    22455 
   22690    22937    22845    21953    21274    22010    24822    28493 
   29145    24601    17402    10473     3501    -4789   -13297   -18855 
  -20455   -20611   -20763   -19209   -14297    -7103    -1520     -510 
   -1236     2062    10628    20659    27924    30661    30033    28509 
   27125    24136    17932    10174     3406    -1878    -6704   -11229 
  -12803    -9587    -5175    -4256    -6385    -8360    -9832   -13460 
  -20742   -28915   -32632   -29525   -22056   -12849    -1794    11422 
   25083    36540    43316    44329    42287    41277    42244    44748 
   48749    52735    55255    56151    54170    47728    36994    23325 
    8411    -6500   -20541   -32472   -41940   -50078   -57379   -62102 
  -63007   -62695   -63402   -63072   -59238   -51250   -39484   -25046 
   -8293    10968    31415    50309    63890    68381    64289    56168 
   47281    38672    30183    21211    12969     7015     2600    -1017 
   -3280    -4391    -5112    -6139    -8351   -11295   -13593   -15584 
  -18378   -21204   -22505   -21293   -16591    -9089    -1389     4500 
    7217     7045     6318     5281     2195    -2231    -5360    -6366 
   -6629    -7268    -8540    -9963    -9383    -6508    -4587    -3345 
      47     4175     7981    11927    13501    12046     9784     5956 
   -1017    -8460   -11921   -10293    -5601      901    10712    24534 
   38753    48946    53472    52689    47328    37947    26680    16883 
   10037     6498     7119    11213    16668    21698    23292    18364 
    8010    -3254   -11168   -15021   -18137   -21709   -23282   -22337 
  -19780   -16343   -13745   -12415   -12089   -13082   -13420   -11333 
   -8108    -4546     -733     2288     4104     5602     8548    14068 
   20250    23009    20101    13643     8380     7469     9922    12108 
   11601     9400     7283     4139    -1765    -8907   -14624   -18331 
  -20142   -19993   -18715   -16569   -12606    -7365    -3230    -1323 
    -319     1483     3581     4045     3317     4012     7784    14195 
   20518    24052    25338    27700    33216    39047    40535    36863 
   30326    22693    13895     2988    -9741   -21324   -27988   -29450 
  -27673   -22401   -14345    -7326    -2342     1448     2358      662 
    -950    -2335    -3954    -4067    -1290     2898     5829     6448 
    4972     2196      222      511     1468      357    -3273    -7176 
   -9860   -12776   -16351   -17599   -14725    -9251    -2623     4407 
    9887    12815    15086    17668    18316    15003     8576     2185 
   -1586    -2808    -1367     4438    14490    26156    36841    44334 
   46703    44339    38973    30445    18936     7021    -4517   -15813 
  -23634   -25928   -23413   -16058    -7087    -1946     -244     2587 
    8796    15745    19357    19147    16313    11300     4433    -3708 
  -11048   -15639   -17750   -18469   -18931   -18944   -17443   -15392 
  -13227    -9030    -1899     6477    12741    15196    15577    15093 
   13878    13959    16413    19866    23383    25249    23746    20622 
   17720    14611    12185    12991    17228    23232    31008    39845 
   47405    53322    57029    55890    49210    39131    27238    13099 
   -3402   -19732   -32528   -39849   -40857   -36294   -28686   -20920 
  -15203   -11736    -9108    -6885    -5630    -5223    -5575    -6748 
   -7831    -9034   -11932   -15934   -18843   -20196   -21373   -23319 
  -25080   -24768   -22310   -19529   -17118   -13968    -8579     -407 
    9019    17221    23839    31314    40466    48004    51128    49769 
   44536    37558    31407    25451    18252    10701     4295     -209 
   -3808    -8267   -11851   -11630   -10193   -12384   -17308   -20025 
  -18831   -15974   -12251    -6775    -1653      573      268    -2447 
   -7264   -12409   -16638   -19195   -19651   -17957   -14111    -8841 
   -3196     2496     8413    13757    17053    17783    16572    15431 
   16482    19774    24224    28845    32579    35116    37309    39414 
   41077    41910    39725    32452    21124     8667    -1478    -7249 
   -8889    -7414    -4472    -1829     -514    -1680    -5829   -11786 
  -17945   -23500   -28544   -32842   -35316   -35495   -34203   -32379 
  -29451   -24031   -16282    -7101     3300    13427    21247    27527 
   33844    38183    37500    33565    30223    28345    26725    22464 
   13535     3454    -2500    -4069    -5476    -8919   -11592   -11188 
   -8834    -6381    -5157    -3963     -211     6097    13752    21857 
   29234    34720    36957    35372    32206    31108    32729    34666 
   35266    33831    30376    26534    23032    18839    13483     7260 
     475    -7037   -15163   -22847   -30248   -38638   -47246   -53554 
  -56721   -58128   -58800   -58606   -56933   -53044   -46722   -38651 
  -30314   -22997   -16897   -11584    -6353     -234     7588    16548 
   24829    31591    37010    40963    43150    42807    39195    33516 
   27963    23338    19327    16185    14739    14547    13621    10598 
    5475     -924    -6779   -10532   -11483    -8688    -2267     6058 
   14346    21277    27302    33647    39557    42637    40791    32794 
   19360     3771   -10547   -22110   -30674   -36589   -40495   -43008 
  -45010   -46484   -46399   -45150   -43379   -40153   -34720   -27016 
  -17672    -8116      634     8510    16060    22756    26582    26948 
   25658    24638    24337    24194    24420    26087    28709    30001 
   28838    27153    27360    28275    27472    25286    21865    15500 
    6706    -1266    -6616    -9944   -11709   -12086   -11712   -10187 
   -6763    -2363     1826     5732     9804    14570    19876    24976 
   29728    34399    38461    40822    41111    39145    34233    26718 
   17922     8170    -2840   -14565   -25546   -35009   -43742   -52251 
  -59043   -61483   -58773   -53484   -48675   -44653   -40478   -36306 
  -31720   -26350   -21240   -15620    -7636     2316    12721    22389 
   30284    35137    36364    35068    32800    30136    27017    24360 
   23579    24333    25115    25377    25624    25740    24251    19816 
   12349     2700    -7304   -15970   -23326   -29141   -31726   -31205 
  -29878   -28498   -26677   -24834   -22513   -18751   -14445   -11213 
   -9297    -7759    -6311    -5487    -4916    -4315    -4274    -4178 
   -2775      626     6546    14014    21095    26904    30915    33046 
   34620    36406    37832    39041    40355    41242    41851    42715 
   43679    44323    43191    39075    32647    23137     9304    -6139 
  -19350   -28989   -35807   -40348   -41650   -40421   -39150   -38360 
