Origin Time       2016/04/16 01:25:00
Lat.              32.753
Long.             130.762
Depth. (km)       12
Mag.              7.3
Station Code      MYZ018
Station Lat.      31.3985
Station Long.     131.3052
Station Height(m) 12
Record Time       2016/04/16 01:25:36
Sampling Freq(Hz) 100Hz
Duration Time(s)  125
Dir.              N-S
Scale Factor      7845(gal)/8223790
Max. Acc. (gal)   12.728
Last Correction   2016/04/16 01:25:36
Memo.             
[...]
    4365     4391     4437     4500     4554     4573     4541     4460 
    4334     4176     4023     3892     3778     3693     3647     3653 
    3715     3816     3931     4014     4044     4041     4045     4105 
    4230     4409     4611     4788     4908     4950     4889     4726 
    4467     4113     3694     3267     2886     2587     2400     2324 
    2338     2413     2494     2540     2573     2627     2744     2952 
    3241     3576     3916     4212     4440     4591     4680     4743 
    4784     4784     4727     4606     4446     4280     4139     4036 
    3970     3910     3820     3682     3501     3304     3153     3094 
    3142     3294     3514     3788     4105     4433     4774     5130 
    5486     5838     6174     6486     6770     6990     7126     7173 
    7156     7101     7010     6898     6775     6640     6486     6278 
    5995     5653     5275     4888     4500     4107     3724     3355 
    3010     2697     2401     2126     1877     1644     1413     1201 
    1039      951      926      965     1055     1198     1416     1705 
    2050     2439     2848     3275     3721     4205     4738     5309 
    5902     6475     6964     7327     7535     7596     7538     7380 
    7148     6866     6563     6273     6006     5784     5626     5539 
    5525     5571     5634     5680     5698     5706     5721     5749 
    5778     5769     5688     5512     5224     4865     4464     4036 
    3593     3098     2538     1929     1277      623       20     -506 
    -949    -1301    -1563    -1734    -1802    -1753    -1601    -1339 
    -939     -403      252      981     1709     2405     3073     3715 
    4320     4868     5355     5771     6107     6381     6609     6791 
    6914     6971     6959     6864     6690     6435     6099     5721 
    5339     4980     4657     4352     4052     3759     3477     3213 
    2949     2655     2319     1953     1582     1255     1017      886 
     868      978     1228     1575     1973     2385     2779     3164 
    3543     3905     4230     4509     4742     4926     5054     5142 
    5209     5273     5343     5421     5516     5638     5800     5996 
    6185     6301     6282     6088     5710     5169     4530     3839 
    3115     2377     1628      882      191     -379     -791    -1067 
   -1230    -1271    -1198    -1000     -677     -263      256      903 
    1641     2425     3235     4047     4823     5530     6176     6759 
    7269     7701     8055     8343     8568     8729     8835     8889 
    8892     8850     8745     8552     8256     7871     7414     6879 
    6285     5672     5062     4484     3963     3492     3073     2693 
    2343     2031     1776     1590     1463     1391     1367     1366 
    1390     1447     1544     1709     1952     2246     2543     2802 
    3010     3154     3256     3355     3465     3603     3781     3981 
    4191     4391     4568     4731     4885     5060     5273     5524 
    5807     6110     6426     6744     7055     7348     7603     7803 
    7963     8094     8206     8303     8364     8378     8340     8248 
    8132     7992     7799     7528     7171     6731     6212     5625 
    4981     4309     3658     3051     2502     2023     1584     1147 
     689      205     -286     -773    -1243    -1669    -2053    -2385 
   -2647    -2836    -2922    -2872    -2663    -2290    -1786    -1162 
    -417      441     1387     2377     3368     4327     5235     6092 
    6885     7585     8179     8664     9032     9256     9308     9169 
    8812     8245     7510     6660     5779     4928     4135     3404 
    2729     2107     1559     1089      692      349       52     -182 
    -338     -396     -349     -206       11      271      545      832 
    1123     1431     1769     2142     2556     2999     3462     3942 
    4421     4904     5382     5833     6251     6629     6963     7252 
    7501     7709     7870     7989     8085     8163     8248     8332 
    8387     8418     8421     8376     8264     8040     7693     7236 
    6714     6176     5644     5119     4594     4036     3426     2749 
    2030     1318      666      125     -255     -441     -422     -216 
     147      625     1179     1794     2454     3150     3880     4625 
    5362     6053     6640     7076     7321     7361     7206     6874 
    6423     5933     5468     5078     4777     4585     4519     4560 
    4680     4842     5004     5173     5366     5641     6039     6517 
    7025     7526     7962     8293     8499     8565     8457     8149 
    7645     6976     6216     5441     4698     4014     3403     2851 
    2349     1856     1336      781      216     -306     -737    -1050 
   -1208    -1206    -1059     -781     -398       70      606     1169 
    1723     2241     2697     3064     3323     3485     3568     3608 
    3643     3690     3753     3800     3798     3732     3557     3288 
    2988     2700     2463     2327     2315     2424     2646     2967 
    3330     3667     3954     4166     4295     4360     4374     4351 
    4303     4233     4168     4102     4036     3967     3854     3672 
    3430     3154     2882     2613     2315     1982     1613     1213 
     788      349      -72     -441     -720     -903    -1026    -1105 
   -1148    -1154    -1105     -973     -702     -253      372     1156 
    2053     3007     3971     4887     5702     6389     6943     7358 
    7659     7886     8067     8218     8334     8388     8367     8264 
    8070     7773     7384     6939     6462     5971     5510     5111 
    4766     4486     4268     4094     3943     3809     3712     3651 
    3618     3620     3645     3692     3773     3871     3978     4102 
    4256     4457     4704     4989     5300     5618     5942     6243 
    6486     6654     6702     6604     6365     6010     5590     5173 
    4787     4446     4155     3902     3670     3447     3229     3011 
    2795     2574     2334     2087     1858     1702     1663     1753 
    1975     2316     2743     3230     3735     4214     4650     5034 
    5360     5616     5775     5840     5844     5827     5836     5904 
    6038     6203     6349     6444     6458     6381     6223     6000 
    5733     5454     5204     5016     4899     4841     4795     4722 
    4600     4393     4101     3732     3295     2825     2353     1900 
    1491     1116      781      510      329      291      430      730 
    1163     1668     2189     2671     3053     3323     3495     3586 
    3628     3631     3596     3528     3412     3260     3095     2928 
    2775     2656     2560     2481     2440     2458     2554     2763 
    3088     3511     4003     4521     5032     5514     5938     6313 
    6642     6880     6993     6936     6706     6323     5819     5248 
    4653     4058     3492     2972     2527     2165     1854     1568 
    1306     1073      873      723      643      664      819     1151 
    1652     2284     2984     3684     4326     4873     5301     5603 
    5773     5830     5810     5742     5656     5557     5471     5443 
    5498     5643     5861     6137     6465     6812     7148     7476 
    7796     8101     8398     8696     8964     9162     9288     9274 
    9073     8749     8299     7696     7032     6363     5689     5044 
    4453     3927     3478     3127     2879     2733     2712     2774 
    2843     2871     2817     2644     2374     2058     1755     1486 
    1242     1017      801      616      479      387      386      493 
     693      973     1308     1676     2046     2389     2701     2999 
    3317     3681     4091     4557     5065     5589     6123     6648 
    7140     7577     7959     8294     8575     8830     9070     9255 
    9360     9383     9328     9208     9008     8729     8395     8012 
    7578     7111     6613     6096     5560     5005     4436     3842 
    3218     2556     1863     1150      464     -120     -571     -882 
   -1023     -997     -834     -564     -233      151      612     1135 
    1672     2163     2562     2857     3071     3232     3321     3303 
    3191     2992     2735     2446     2123     1783     1448     1148 
     926      781      730      784      920     1133     1408     1717 
    2053     2412     2786     3173     3599     4078     4606     5175 
    5740     6261     6693     6972     7064     6960     6646     6135 
    5467     4688     3850     2998     2201     1501      896      396 
       2     -284     -449     -506     -471     -344     -139      136 
     469      842     1250     1675     2102     2533     2951     3345 
    3709     4028     4283     4460     4573     4633     4626     4558 
    4414     4186     3902     3586     3302     3099     3006     3052 
    3227     3492     3809     4140     4487     4846     5213     5590 
    5954     6274     6515     6646     6647     6497     6197     5768 
    5250     4704     4175     3694     3298     2994     2791     2705 
    2720     2825     3007     3256     3565     3912     4266     4587 
    4843     5030     5147     5216     5270     5317     5386     5495 
    5633     5798     5987     6196     6424     6656     6883     7089 
    7261     7429     7623     7865     8176     8552     8988     9463 
    9950    10423    10841    11181    11412    11497    11431    11188 
   10760    10184     9485     8677     7794     6874     5948     5039 
    4178     3349     2536     1764     1024      305     -364     -970 
   -1487    -1872    -2104    -2168    -2077    -1872    -1582    -1252 
    -923     -615     -353     -144       14      144      259      352 
     444      556      692      859     1047     1264     1521     1794 
    2079     2378     2706     3102     3581     4143     4788     5499 
    6251     7010     7749     8454     9093     9643    10081    10372 
   10507    10471    10258     9869     9304     8583     7730     6775 
    5786     4820     3920     3137     2481     1939     1501     1147 
     872      684      615      691      923     1313     1836     2436 
    3063     3661     4187     4604     4903     5085     5130     5040 
    4837     4521     4107     3596     2984     2290     1516      696 
    -108     -851    -1475    -1941    -2234    -2336    -2232    -1930 
   -1467     -876     -180      587     1410     2277     3167     4087 
    5046     6044     7083     8113     9104    10041    10894    11630 
   12221    12637    12872    12930    12834    12603    12251    11811 
   11298    10708    10061     9355     8572     7703     6751     5714 
    4592     3410     2196      981     -195    -1318    -2373    -3314 
   -4118    -4762    -5204    -5436    -5456    -5254    -4850    -4261 
   -3492    -2555    -1493     -369      778     1948     3109     4233 
    5305     6304     7242     8147     9026     9841    10558    11165 
   11637    11944    12074    12000    11722    11257    10648     9957 
    9207     8401     7553     6669     5771     4908     4110     3392 
    2759     2215     1764     1421     1201     1107     1150     1337 
    1645     2043     2492     2945     3392     3819     4209     4556 
    4854     5097     5283     5405     5448     5397     5242     4974 
    4598     4122     3551     2914     2265     1641     1063      560 
     129     -237     -550     -828    -1088    -1333    -1560    -1749 
   -1867    -1890    -1811    -1647    -1420    -1166     -911     -677 
    -487     -319     -167      -10      193      467      823     1289 
    1863     2536     3299     4131     5007     5904     6802     7669 
    8486     9255     9954    10558    11049    11412    11630    11688 
   11587    11340    10956    10474     9918     9308     8688     8094 
    7553     7094     6723     6419     6158     5906     5640     5325 
    4934     4450     3848     3130     2327     1475      618     -211 
    -993    -1710    -2354    -2915    -3388    -3763    -4033    -4205 
   -4266    -4202    -4009    -3682    -3227    -2643    -1904    -1019 
     -25     1017     2057     3071     4023     4880     5628     6241 
    6727     7098     7350     7520     7638     7695     7701     7682 
    7647     7591     7504     7388     7242     7083     6924     6768 
    6647     6574     6529     6513     6513     6504     6471     6401 
    6285     6119     5898     5613     5246     4803     4289     3711 
    3090     2434     1746     1053      359     -328    -1000    -1656 
   -2276    -2851    -3368    -3808    -4158    -4395    -4526    -4542 
   -4418    -4159    -3784    -3312    -2759    -2111    -1366     -540 
     365     1336     2340     3350     4348     5316     6232     7092 
    7871     8526     9061     9485     9804    10033    10161    10183 
   10080     9814     9385     8793     8032     7138     6158     5140 
    4140     3203     2377     1717     1263     1028     1009     1194 
    1549     2050     2685     3427     4260     5158     6064     6937 
    7765     8527     9208     9779    10227    10554    10759    10848 
   10825    10696    10467    10142     9715     9189     8592     7963 
    7325     6685     6038     5386     4741     4118     3544     3036 
    2587     2199     1846     1509     1204      938      719      556 
     427      325      261      232      251      360      587      943 
    1402     1946     2577     3264     3986     4746     5540     6369 
    7241     8160     9140    10187    11283    12386    13466    14476 
   15391    16198    16822    17201    17358    17308    17043    16537 
   15812    14935    13903    12734    11520    10263     8932     7561 
    6183     4801     3431     2101      824     -399    -1535    -2571 
   -3530    -4419    -5247    -6008    -6705    -7371    -7974    -8472 
   -8838    -9057    -9136    -9063    -8800    -8365    -7771    -7005 
   -6072    -5004    -3825    -2529    -1120      351     1831     3283 
    4671     5962     7149     8253     9270    10164    10922    11560 
   12124    12673    13220    13722    14122    14418    14646    14797 
   14862    14827    14686    14472    14173    13771    13281    12699 
   12028    11326    10615     9880     9131     8387     7639     6863 
    6066     5238     4367     3477     2575     1652      697     -274 
   -1220    -2142    -3033    -3840    -4552    -5154    -5605    -5900 
   -6023    -5954    -5714    -5317    -4770    -4086    -3294    -2454 
   -1609     -774       43      846     1621     2351     3046     3715 
    4360     4996     5632     6264     6897     7560     8247     8946 
    9653    10350    11049    11761    12478    13185    13838    14407 
   14883    15244    15485    15610    15593    15429    15087    14531 
   13779    12883    11890    10847     9794     8753     7732     6759 
    5830     4926     4058     3237     2477     1809     1223      718 
     314       14     -187     -309     -367     -386     -398     -409 
    -434     -506     -616     -753     -909    -1055    -1165    -1235 
   -1270    -1263    -1206    -1128    -1044     -934     -807     -664 
    -483     -282      -45      238      546      872     1221     1584 
    1954     2338     2729     3105     3457     3778     4063     4326 
    4580     4838     5101     5368     5668     6004     6369     6774 
    7191     7588     7962     8298     8579     8807     8959     9038 
    9058     9004     8857     8629     8324     7954     7538     7094 
    6635     6174     5709     5224     4718     4190     3676     3190 
    2712     2241     1763     1267      772      289     -166     -591 
    -986    -1333    -1632    -1894    -2118    -2327    -2513    -2659 
   -2764    -2811    -2776    -2644    -2401    -2052    -1617    -1111 
    -526      128      847     1640     2493     3379     4299     5243 
    6191     7148     8110     9070    10026    10956    11834    12622 
   13262    13710    13929    13900    13626    13126    12445    11623 
   10679     9640     8540     7410     6276     5177     4149     3194 
    2300     1472      722       56     -511     -957    -1256    -1405 
   -1394    -1247     -984     -606     -124      459     1121     1819 
    2519     3165     3754     4322     4862     5358     5821     6255 
    6664     7034     7353     7619     7816     7959     8040     8027 
    7902     7684     7396     7055     6673     6282     5899     5535 
    5217     4941     4683     4436     4194     3970     3769     3585 
    3429     3312     3241     3208     3218     3271     3345     3422 
    3499     3580     3684     3809     3940     4081     4213     4321 
    4391     4403     4363     4286     4190     4095     4005     3924 
    3854     3782     3709     3609     3465     3299     3118     2941 
    2785     2659     2590     2584     2636     2736     2863     3005 
    3129     3215     3265     3250     3172     3038     2836     2581 
    2281     1949     1626     1313     1015      739      493      276 
      76      -93     -222     -321     -383     -417     -427     -414 
    -369     -284     -152       32      259      503      750      993 
    1212     1435     1669     1872     2053     2262     2519     2808 
    3083     3326     3542     3708     3828     3909     3947     3936 
    3878     3804     3697     3539     3377     3223     3071     2964 
    2913     2917     2957     3018     3107     3213     3303     3358 
    3364     3308     3191     3025     2811     2556     2282     1995 
    1688     1370     1048      754      508      311      183      131 
     152      241      390      606      892     1243     1648     2083 
    2546     3040     3546     4067     4595     5103     5589     6025 
    6389     6679     6890     7023     7072     7026     6912     6714 
    6412     6029     5578     5063     4504     3929     3373     2841 
    2331     1848     1402     1015      702      475      349      338 
     442      650      943     1286     1629     1946     2231     2471 
    2673     2821     2905     2948     2967     2988     3033     3096 
    3175     3258     3338     3415     3489     3574     3666     3748 
    3828     3894     3942     3983     4017     4044     4054     4044 
    4009     3920     3773     3569     3310     3021     2724     2424 
    2149     1912     1723     1588     1507     1468     1459     1482 
    1539     1624     1748     1921     2143     2423     2740     3083 
    3438     3776     4091     4367     4600     4797     4942     5026 
    5066     5067     5035     4977     4896     4793     4666     4514 
    4318     4071     3790     3485     3168     2857     2556     2284 
    2052     1852     1706     1602     1535     1517     1535     1591 
    1687     1821     1992     2196     2424     2662     2906     3153 
    3383     3591     3785     3947     4078     4176     4237     4280 
    4315     4348     4387     4433     4500     4606     4741     4909 
    5115     5355     5633     5937     6249     6550     6828     7074 
    7264     7383     7411     7364     7248     7041     6762     6436 
    6069     5687     5301     4903     4511     4128     3753     3407 
    3095     2824     2593     2403     2273     2196     2177     2232 
    2357     2538     2770     3038     3335     3645     3958     4253 
    4509     4722     4874     4954     4972     4923     4823     4685 
