Origin Time       2016/04/16 01:25:00
Lat.              32.753
Long.             130.762
Depth. (km)       12
Mag.              7.3
Station Code      MYZ018
Station Lat.      31.3985
Station Long.     131.3052
Station Height(m) 12
Record Time       2016/04/16 01:25:36
Sampling Freq(Hz) 100Hz
Duration Time(s)  125
Dir.              E-W
Scale Factor      7845(gal)/8223790
Max. Acc. (gal)   10.155
Last Correction   2016/04/16 01:25:36
Memo.             
[...]
    8395     8394     8328     8212     8052     7865     7666     7443 
    7213     6982     6744     6511     6282     6046     5798     5552 
    5316     5088     4872     4675     4519     4425     4388     4422 
    4546     4779     5128     5574     6076     6596     7084     7514 
    7892     8240     8573     8900     9207     9481     9721     9911 
   10044    10120    10134    10092    10008     9892     9760     9641 
    9543     9477     9456     9485     9551     9647     9757     9869 
    9975    10072    10150    10193    10184    10116     9981     9779 
    9522     9217     8860     8454     8009     7533     7053     6610 
    6241     5960     5771     5664     5623     5634     5694     5825 
    6033     6316     6679     7117     7597     8111     8655     9197 
    9687    10111    10496    10839    11072    11171    11183    11126 
   10987    10783    10552    10312    10064     9811     9555     9310 
    9101     8947     8856     8833     8870     8964     9123     9350 
    9634     9964    10303    10594    10785    10829    10698    10380 
    9891     9269     8552     7771     6952     6134     5343     4598 
    3913     3307     2795     2392     2124     2026     2114     2378 
    2801     3336     3924     4519     5085     5571     5942     6184 
    6296     6299     6250     6214     6245     6367     6605     6971 
    7461     8044     8688     9377    10091    10813    11515    12182 
   12802    13358    13844    14249    14548    14747    14855    14871 
   14823    14732    14592    14413    14207    14003    13845    13734 
   13676    13663    13640    13555    13377    13063    12604    11994 
   11236    10338     9319     8218     7083     5933     4806     3770 
    2863     2092     1495     1096      896      901     1107     1486 
    2006     2627     3312     4072     4903     5772     6648     7496 
    8281     8977     9552     9995    10326    10552    10683    10741 
   10739    10683    10600    10517    10457    10430    10432    10454 
   10498    10554    10600    10628    10633    10621    10601    10570 
   10536    10521    10534    10571    10628    10700    10801    10943 
   11107    11288    11476    11650    11809    11952    12044    12071 
   12039    11921    11695    11358    10909    10365     9757     9108 
    8444     7789     7152     6527     5900     5262     4615     3963 
    3314     2671     2030     1387      753      159     -365     -795 
   -1105    -1273    -1274    -1088     -726     -229      383     1107 
    1946     2901     3965     5136     6384     7666     8941    10160 
   11277    12253    13073    13761    14327    14757    15057    15238 
   15305    15280    15156    14920    14585    14166    13693    13220 
   12779    12382    12037    11747    11503    11319    11199    11119 
   11064    11007    10943    10881    10821    10773    10737    10719 
   10727    10751    10760    10732    10640    10465    10206     9877 
    9490     9053     8557     8002     7410     6795     6162     5518 
    4866     4210     3561     2930     2338     1831     1428     1136 
     982      974     1119     1429     1900     2512     3237     4055 
    4955     5910     6870     7803     8677     9487    10245    10947 
   11577    12129    12595    12973    13257    13435    13493    13413 
   13198    12870    12452    11967    11441    10897    10345     9784 
    9225     8654     8039     7383     6698     5975     5213     4406 
    3541     2636     1725      847       55     -599    -1074    -1345 
   -1431    -1354    -1084     -607        0      689     1479     2350 
    3260     4197     5155     6093     6971     7777     8507     9143 
    9694    10157    10489    10662    10694    10611    10431    10170 
    9847     9520     9216     8904     8579     8283     8043     7862 
    7731     7642     7611     7634     7688     7743     7781     7807 
    7821     7819     7805     7769     7705     7624     7527     7431 
    7364     7315     7268     7217     7146     7052     6945     6835 
    6706     6550     6399     6285     6205     6147     6126     6151 
    6228     6345     6484     6666     6903     7184     7512     7905 
    8344     8797     9258     9718    10172    10613    11038    11422 
   11747    12017    12221    12348    12395    12373    12302    12179 
   12016    11838    11651    11446    11225    10990    10750    10514 
   10276    10034     9818     9641     9490     9383     9348     9381 
    9470     9580     9680     9753     9776     9742     9649     9501 
    9333     9157     8961     8743     8513     8274     8032     7789 
    7537     7284     7052     6860     6744     6725     6806     6995 
    7288     7666     8106     8579     9069     9563    10058    10547 
   11026    11473    11880    12240    12559    12846    13099    13293 
   13413    13436    13346    13142    12815    12367    11821    11213 
   10584     9979     9421     8938     8559     8284     8098     7983 
    7929     7936     7983     8039     8097     8156     8198     8205 
    8171     8097     7997     7901     7832     7797     7811     7882 
    8001     8141     8270     8367     8441     8477     8461     8410 
    8319     8182     7993     7735     7420     7072     6709     6369 
    6080     5863     5730     5692     5760     5940     6216     6574 
    6999     7465     7959     8471     8984     9482     9948    10359 
   10706    10979    11175    11310    11404    11460    11469    11426 
   11308    11109    10821    10450    10007     9513     8980     8437 
    7893     7342     6793     6252     5729     5232     4762     4326 
    3951     3650     3419     3261     3165     3117     3127     3198 
    3280     3380     3543     3769     4039     4376     4791     5273 
    5815     6399     6995     7585     8155     8676     9109     9454 
    9722     9927    10096    10246    10392    10546    10698    10841 
   10975    11078    11137    11160    11157    11138    11118    11099 
   11075    11057    11060    11091    11157    11272    11429    11604 
   11762    11877    11935    11921    11853    11749    11612    11452 
   11267    11061    10845    10624    10407    10200    10007     9819 
    9632     9436     9232     9030     8847     8712     8633     8595 
    8583     8588     8592     8572     8517     8417     8241     7982 
    7641     7233     6789     6331     5896     5499     5130     4789 
    4463     4145     3858     3589     3355     3191     3109     3137 
    3302     3604     4059     4654     5362     6169     7048     7966 
    8887     9779    10635    11450    12231    12958    13591    14110 
   14506    14787    14970    15045    15030    14939    14764    14513 
   14200    13817    13366    12855    12290    11677    11029    10366 
    9711     9090     8522     8033     7641     7338     7137     7033 
    7018     7067     7132     7202     7281     7373     7481     7619 
    7788     7964     8121     8230     8280     8248     8105     7848 
    7480     7017     6489     5902     5282     4660     4041     3438 
    2896     2452     2102     1830     1624     1489     1448     1524 
    1736     2085     2571     3200     3958     4808     5711     6629 
    7538     8424     9283    10084    10805    11431    11952    12382 
   12734    13008    13227    13408    13548    13648    13694    13668 
   13560    13367    13076    12680    12190    11612    10972    10292 
    9605     8958     8375     7857     7415     7045     6732     6465 
    6250     6076     5950     5895     5910     6000     6174     6434 
    6771     7175     7638     8133     8649     9177     9691    10166 
   10578    10894    11109    11226    11226    11113    10903    10608 
   10253     9884     9521     9174     8850     8537     8235     7931 
    7636     7364     7125     6944     6844     6818     6872     7006 
    7190     7406     7636     7863     8086     8310     8536     8758 
    8992     9240     9509     9809    10127    10462    10816    11169 
   11520    11848    12106    12264    12293    12164    11890    11488 
   10978    10395     9767     9127     8517     7952     7443     7020 
    6708     6512     6439     6508     6721     7055     7479     7960 
    8473     9000     9495     9933    10287    10537    10686    10717 
   10623    10408    10091     9701     9262     8800     8345     7911 
    7496     7115     6781     6481     6211     5964     5738     5532 
    5343     5181     5060     4989     4974     5023     5124     5271 
    5481     5759     6081     6439     6828     7241     7677     8120 
    8563     9018     9481     9956    10455    10978    11527    12091 
   12660    13230    13770    14253    14681    15037    15311    15518 
   15655    15720    15723    15678    15577    15404    15165    14864 
   14489    14037    13501    12887    12214    11488    10708     9880 
    9018     8141     7276     6431     5618     4847     4129     3481 
    2922     2451     2057     1748     1547     1456     1479     1640 
    1930     2316     2808     3411     4126     4956     5888     6910 
    8004     9115    10219    11323    12421    13489    14499    15414 
   16200    16823    17238    17420    17388    17149    16715    16127 
   15426    14631    13760    12834    11878    10920     9981     9074 
    8215     7439     6768     6211     5772     5464     5278     5188 
    5175     5228     5321     5441     5598     5796     6029     6282 
    6539     6801     7080     7369     7649     7909     8135     8310 
    8413     8426     8348     8171     7889     7519     7082     6617 
    6160     5733     5362     5059     4833     4685     4619     4627 
    4716     4891     5142     5463     5841     6258     6709     7191 
    7700     8232     8787     9369     9965    10562    11148    11713 
   12244    12746    13230    13660    13995    14270    14539    14777 
   14889    14850    14746    14571    14284    13922    13514    13059 
   12568    12020    11426    10840    10266     9684     9127     8629 
    8197     7854     7614     7484     7479     7585     7793     8075 
    8383     8702     9018     9300     9543     9738     9882     9968 
    9979     9906     9767     9563     9297     8985     8644     8297 
    7951     7604     7249     6891     6548     6230     5934     5664 
    5395     5134     4927     4773     4641     4554     4540     4606 
    4735     4893     5125     5485     5935     6427     6945     7493 
    8090     8719     9364    10018    10650    11236    11778    12268 
   12708    13095    13405    13620    13736    13753    13668    13487 
   13228    12900    12529    12129    11706    11290    10872    10462 
   10075     9691     9302     8924     8548     8179     7816     7441 
    7055     6681     6332     6002     5698     5467     5323     5258 
    5259     5305     5386     5495     5616     5742     5861     5968 
    6065     6165     6278     6400     6505     6600     6700     6808 
    6913     6993     7047     7103     7169     7225     7260     7285 
    7318     7371     7443     7553     7708     7920     8195     8526 
    8891     9256     9595     9876    10076    10201    10265    10260 
   10197    10099     9972     9817     9639     9454     9282     9121 
    8981     8866     8766     8677     8594     8513     8440     8371 
    8324     8295     8274     8280     8303     8329     8361     8397 
    8428     8456     8476     8497     8519     8540     8576     8627 
    8679     8733     8787     8833     8869     8874     8827     8741 
    8622     8480     8338     8201     8081     8004     7947     7877 
    7805     7740     7677     7614     7561     7548     7605     7715 
    7862     8043     8251     8494     8764     9038     9309     9570 
    9807    10021    10215    10385    10511    10592    10620    10570 
   10449    10276    10065     9836     9589     9346     9134     8959 
    8826     8725     8646     8595     8553     8505     8441     8365 
    8286     8205     8122     8055     8007     7990     8017     8087 
    8199     8348     8513     8675     8820     8937     9018     9070 
    9090     9077     9035     8958     8845     8710     8561     8408 
    8271     8163     8093     8055     8040     8055     8085     8109 
    8110     8082     8028     7940     7817     7673     7500     7298 
    7084     6856     6604     6342     6075     5802     5530     5266 
    5015     4795     4625     4518     4471     4479     4545     4669 
    4843     5055     5298     5563     5850     6181     6550     6940 
    7340     7731     8101     8463     8815     9159     9489     9787 
   10050    10281    10462    10601    10712    10797    10860    10908 
   10936    10945    10937    10917    10891    10862    10820    10747 
   10632    10481    10292    10050     9767     9467     9166     8881 
    8617     8371     8143     7915     7673     7425     7152     6847 
    6519     6168     5810     5458     5108     4795     4535     4314 
    4151     4063     4036     4059     4129     4230     4369     4549 
    4776     5071     5440     5873     6376     6943     7560     8235 
    8954     9683    10420    11171    11931    12656    13301    13846 
   14284    14613    14843    14962    14968    14866    14651    14335 
   13942    13466    12877    12190    11430    10600     9709     8777 
    7832     6864     5863     4850     3832     2821     1867     1000 
     218     -476    -1060    -1524    -1878    -2120    -2214    -2169 
   -2016    -1726    -1281     -731     -105      612     1422     2277 
    3121     3958     4788     5590     6356     7076     7743     8364 
    8911     9350     9678     9896    10022    10080    10099    10093 
   10068    10034    10007     9985     9967     9941     9907     9876 
    9837     9778     9701     9616     9513     9378     9196     8965 
    8688     8351     7954     7510     7023     6511     5998     5499 
    5026     4576     4139     3712     3295     2894     2504     2137 
    1807     1501     1219     1013      908      849      828      900 
    1084     1367     1732     2161     2659     3211     3781     4357 
    4945     5541     6133     6706     7250     7750     8193     8560 
    8841     9032     9134     9154     9088     8950     8768     8545 
    8309     8097     7923     7805     7750     7740     7765     7809 
    7855     7882     7873     7832     7766     7673     7581     7515 
    7488     7514     7612     7784     8035     8359     8726     9117 
    9518     9906    10263    10584    10863    11090    11257    11377 
   11430    11400    11295    11102    10821    10488    10115     9702 
    9262     8822     8398     8000     7641     7340     7114     6964 
    6891     6894     6980     7144     7354     7592     7844     8097 
    8333     8548     8729     8883     9027     9159     9278     9397 
    9513     9626     9745     9856     9958    10055    10143    10224 
   10300    10362    10408    10440    10458    10450    10420    10376 
   10324    10273    10222    10185    10169    10157    10150    10154 
   10164    10181    10199    10208    10227    10251    10269    10289 
   10311    10326    10345    10366    10393    10431    10478    10534 
   10596    10656    10714    10773    10821    10868    10922    10979 
   11032    11084    11137    11190    11237    11273    11304    11330 
   11345    11361    11376    11379    11383    11377    11337    11256 
   11133    10966    10766    10540    10296    10044     9783     9532 
    9297     9082     8895     8733     8591     8457     8337     8241 
    8167     8106     8060     8024     8000     7987     7990     7998 
    8010     8043     8098     8166     8252     8356     8464     8575 
    8688     8792     8876     8935     8957     8938     8878     8768 
    8621     8444     8243     8035     7834     7630     7429     7242 
    7067     6894     6729     6581     6457     6361     6296     6268 
    6272     6301     6365     6457     6561     6683     6831     6999 
    7195     7418     7662     7925     8209     8507     8819     9139 
    9466     9791    10088    10357    10594    10781    10922    11029 
   11097    11129    11126    11080    10987    10845    10666    10450 
   10192     9910     9603     9263     8895     8505     8101     7695 
    7283     6875     6494     6147     5842     5589     5401     5283 
    5221     5224     5285     5386     5536     5738     5983     6276 
    6608     6963     7346     7747     8151     8553     8939     9301 
    9645     9953    10210    10409    10542    10605    10598    10537 
   10443    10322    10185    10049     9918     9794     9676     9563 
    9448     9317     9170     8996     8789     8552     8278     7982 
    7666     7319     6949     6562     6162     5775     5414     5090 
    4837     4666     4577     4581     4679     4851     5081     5347 
    5630     5900     6135     6339     6508     6631     6709     6758 
    6790     6824     6870     6936     7021     7121     7229     7334 
    7435     7538     7643     7758     7881     8009     8141     8286 
    8437     8584     8719     8845     8947     9026     9073     9076 
    9047     9013     8993     8997     9038     9131     9273     9462 
    9688     9936    10199    10484    10770    11049    11338    11634 
   11928    12228    12526    12806    13054    13246    13374    13439 
   13435    13367    13252    13106    12958    12818    12680    12569 
   12486    12418    12371    12333    12276    12204    12110    11990 
   11851    11700    11533    11364    11195    11020    10864    10727 
   10586    10459    10357    10296    10292    10319    10369    10450 
   10555    10686    10836    10996    11169    11345    11502    11637 
   11759    11877    12000    12122    12247    12379    12521    12650 
   12754    12825    12846    12811    12718    12571    12378    12150 
   11892    11593    11260    10910    10530    10115     9675     9215 
    8743     8271     7801     7346     6925     6546     6204     5896 
    5630     5424     5270     5161     5107     5104     5146     5233 
    5356     5519     5738     5999     6300     6629     6978     7349 
    7727     8102     8484     8849     9194     9532     9849    10146 
   10419    10655    10866    11049    11194    11304    11377    11408 
   11410    11379    11325    11245    11140    11017    10872    10706 
   10519    10299    10058     9811     9547     9273     8999     8727 
    8471     8240     8050     7902     7793     7720     7670     7638 
    7630     7619     7597     7562     7493     7388     7256     7089 
    6897     6690     6473     6259     6054     5861     5686     5526 
    5394     5297     5231     5193     5182     5193     5238     5324 
    5448     5621     5857     6150     6488     6871     7302     7766 
    8264     8792     9332     9873    10405    10909    11361    11747 
   12062    12302    12465    12546    12532    12422    12213    11900 
   11499    11016    10455     9840     9197     8537     7889     7285 
    6739     6252     5838     5497     5235     5049     4930     4878 
    4893     4961     5071     5208     5360     5536     5733     5933 
    6127     6316     6497     6662     6808     6937     7052     7159 
