Origin Time       2016/04/16 01:25:00
Lat.              32.753
Long.             130.762
Depth. (km)       12
Mag.              7.3
Station Code      MYZ010
Station Lat.      31.9968
Station Long.     130.9721
Station Height(m) 207
Record Time       2016/04/16 01:25:21
Sampling Freq(Hz) 100Hz
Duration Time(s)  239
Dir.              E-W
Scale Factor      7845(gal)/8223790
Max. Acc. (gal)   51.284
Last Correction   2016/04/16 01:25:21
Memo.             
[...]
    5765     5759     5760     5764     5759     5759     5768     5768 
    5760     5760     5764     5760     5759     5763     5764     5763 
    5767     5764     5759     5760     5764     5763     5759     5763 
    5765     5760     5759     5764     5765     5760     5760     5764 
    5760     5759     5760     5765     5759     5757     5765     5765 
    5760     5760     5764     5763     5763     5768     5768     5760 
    5760     5764     5760     5759     5760     5763     5760     5759 
    5763     5764     5760     5760     5763     5763     5760     5760 
    5763     5767     5767     5764     5763     5763     5760     5753 
    5751     5759     5765     5763     5760     5764     5763     5756 
    5756     5765     5764     5760     5769     5767     5756     5757 
    5763     5760     5759     5763     5764     5763     5764     5765 
    5764     5759     5759     5760     5760     5760     5765     5763 
    5759     5760     5763     5757     5759     5765     5765     5760 
    5760     5760     5759     5763     5768     5768     5768     5767 
    5764     5763     5768     5772     5772     5776     5776     5775 
    5772     5771     5773     5775     5775     5782     5786     5779 
    5768     5759     5752     5749     5756     5764     5759     5745 
    5732     5710     5686     5676     5679     5680     5684     5698 
    5709     5701     5697     5710     5725     5738     5768     5800 
    5815     5823     5850     5910     5995     6053     6031     5968 
    5958     5999     5994     5902     5817     5809     5823     5773 
    5644     5512     5470     5478     5387     5188     5036     5019 
    5066     5138     5310     5595     5842     5958     6041     6201 
    6326     6211     5996     6108     6542     6802     6704     6564 
    6663     6941     7140     7011     6583     6172     5844     5131 
    3873     2772     2590     3339     4576     5884     6883     7295 
    7159     6644     5625     4060     2708     2548     3719     5543 
    7175     8064     8284     8275     8230     8027     7593     7001 
    6204     5098     3965     3465     3897     4938     6174     7203 
    7461     6822     5999     5688     5641     5111     4110     3412 
    3430     3959     4563     4855     4978     5508     6635     7821 
    8356     8085     7489     6922     6093     4602     2882     2185 
    3141     4735     5570     5683     6207     7609     8954     9022 
    7732     6066     4839     4023     3330     2896     2998     3815 
    5526     7722     9344     9934     9950     9693     8590     6189 
    3580     2425     2930     4175     5503     6571     7041     7102 
    7533     8367     8436     7061     5040     3381     2338     1973 
    2509     3688     4708     5223     5652     6297     6933     7315 
    7452     7411     6978     5776     4223     3412     3572     3943 
    4401     5815     8517    11164    11751     9655     6137     3307 
    2732     4101     5751     6782     7398     7597     6917     5298 
    3716     3483     4796     6237     5988     3562      222    -1833 
    -895     2671     6482     8434     8664     8739     9285     9215 
    7364     4342     2506     3508     6210     8279     9205    10211 
   11584    12020    10712     8159     5266     2929     1714     1765 
    3388     6801    11110    14584    15921    14419     9447     1274 
   -7749   -13956   -14809   -10415    -2324     7551    16391    21269 
   20615    14974     7056       20    -4055    -4622    -2678      818 
    5572    10482    13386    13150    11304     9954     9223     8581 
    8329     8698     9437    10214    10476     9383     6797     3798 
    1340     -552    -1969    -2729    -2685    -2290    -2408    -2583 
    -637     4500    10629    14698    16546    17833    18061    15063 
    8900     2515     -919      175     5475    12286    16537    16785 
   15014    12226     7650     1836    -3180    -5528    -4637    -1035 
    4814    10897    12976    10243     7742     8506     8436     3067 
   -5385   -10540    -9185    -4903    -3844    -6779    -7967    -2407 
    9053    21343    29674    33516    35328    34696    27751    13235 
   -4693   -19784   -26973   -24360   -14877    -3917     5157    12368 
   19175    24213    23604    17544    10893     7450     7600     9190 
    9088     4617    -4376   -13124   -15444   -11006    -4347     2770 
   12349    23638    30360    27333    17543     7919     1086    -3566 
   -4706        5     9197    18279    24993    29369    28146    16497 
   -2758   -19053   -25285   -21645   -10589     3825    14870    17230 
   11993     4726    -1503    -7187   -10786    -7482     3222    13165 
   14578     8110    -1296    -9315   -13049   -11121    -2272    13293 
   30697    43463    48205    44139    31729    14215    -1721   -10916 
  -13791   -12426    -7101      434     4972     2602    -4484   -10893 
  -13089    -9765    -1952     6871    13359    15472    12332     6095 
    1405      395     2134     6652    14018    21482    25066    22732 
   16183     9396     4212     -847    -6624   -10821   -10625    -5829 
    2076    10906    17223    18800    17207    15163    12931     9321 
    3970    -1944    -5470    -4442      271     6770    13653    19388 
   21767    18870    11554     3288    -3368    -8198   -10976    -9880 
   -5319    -1829    -1779    -3412    -5050    -4631     -214     7357 
   16071    23834    28069    26385    18287     6870    -3796   -11919 
  -16124   -14396    -7755     -641     5147    11360    17413    20317 
   19881    18694    17338    14064     9082     5757     6251     6809 
    2944    -1923    -2081     1147     3828     6197    10216    15898 
   21536    24528    22265    14368     4492    -1501     -880     3423 
    7037     8615     9576    11155    11584     8104     1715    -4003 
   -7569    -9240    -8807    -6898    -5279    -4923    -5498    -5227 
   -2386     2058     6064     9563    13251    15880    16047    15424 
   16094    17323    17845    17664    16794    14108     8239      673 
   -4712    -6957    -8341    -9508    -9436    -8739    -8912    -9583 
   -8241    -2964     5509    15173    23988    29338    28466    21184 
   11838     5268     1699    -1154    -3703    -4517    -2754      403 
    3310     6130     9491    12866    15546    16368    13404     6219 
   -2251    -7195    -6845    -4260    -2079      550     4419     8101 
   10378    11826    13039    13813    15183    18485    21968    21843 
   15573     3983    -8421   -16733   -18688   -14142    -4271     8835 
   22797    34619    40425    37573    27994    16479     5972    -2444 
   -8240   -11672   -12550    -9987    -4681      419     2535      978 
   -3381    -9322   -15473   -19695   -20011   -16002    -7484     5366 
   19199    28944    32436    31249    28371    26775    28067    30537 
   30935    28112    22388    13583     2241    -8545   -14127   -11362 
   -1318    10976    19886    21961    16839     7207    -2424    -8302 
   -9528    -6912    -1629     3989     6952     4884    -2010    -9351 
  -12098    -8839    -1583     6440    12071    12723     7983      665 
   -5568    -8383    -6323      940    11184    20166    24765    24471 
   19569    10933     1561    -5097    -7425    -4685     2223     9007 
   11658    10262     6724     1949    -3230    -6993    -7766    -5135 
     490     7843    14793    19097    19672    16528    10152     3152 
    -633     -766      834     4473    10947    17867    21330    19839 
   15344    11317    10282    12188    15380    18570    19803    16195 
    7145    -4664   -15504   -22536   -23980   -18993    -9427     -249 
    4299     4135     1166    -3883    -9640   -12523    -9566    -1133 
    8945    16653    21217    23429    23461    21709    18594    14486 
   10523     7315     4359     1161    -3202    -9393   -14780   -14370 
   -6103     7295    21126    31418    35850    33190    23404     8847 
   -6434   -18463   -23946   -20920   -10104     5598    22804    37681 
   45747    43548    31856    15894     1447    -7402   -10011    -9418 
   -7592    -3605     1729     3526     -517    -4945    -4228      147 
    3955     6106     8174    10412    10847     8033     2967    -1399 
   -2799    -1948    -1073    -1382    -2297    -2074     -588      479 
    1242     3705     9046    16160    22551    26670    27834    25505 
   20214    12908     4552    -2759    -6939    -7315    -4047     1725 
    7685    11271    10532     5886      747    -1243      994     5734 
   10503    13436    12699     8550     4475     2851     2664     1884 
    -224    -2146    -2284    -1723    -1910    -2092    -1417     -141 
    1632     3850     5620     6085     5289     3284      166    -3009 
   -5424    -6966    -6247    -1452     6714    16263    26141    34385 
   37879    36207    32096    28167    25748    24916    23993    20177 
   11896      585   -10543   -18871   -22404   -19926   -12687    -3524 
    5398    11790    12303     6330     -579    -1975     2822    10350 
   17477    23066    26700    26827    22068    13182     2683    -6501 
  -12455   -14536   -12158    -4504     7087    18048    24127    24166 
   19191    11514     3684    -2389    -5107    -4097    -1167     1752 
    4965     9123    12918    15025    15735    16060    16092    13894 
    7938      287    -5182    -6964    -6133    -3906     -928     2876 
    8120    13631    16073    13937     9545     5636     1856    -3569 
   -9425   -12373   -11373    -7384    -1520     4016     7045     8167 
    9121     9690     9312     8683     8191     8395    10033    12028 
   13356    14598    15099    13377    10552     8509     6180     1929 
   -2948    -6237    -7326    -6631    -4278      754     9215    19070 
   26002    27360    24586    20298    15556    10967     7973     7666 
    8453     7462     3665    -2204    -8129   -11974   -13147   -11329 
   -6120      704     5744     7250     5676     2224     -857    -1011 
    1512     3879     5220     7025     8791     8365     6019     3932 
    2448     -117    -4003    -6457    -4958     -918     2203     3221 
    2964     1533    -1405    -5208    -8982   -12140   -13419   -11222 
   -5406     2570    11036    18968    25820    30375    30928    27608 
   22393    16977    12744    10764    11025    12548    13007     9845 
    3127    -4639   -10787   -13278   -11102    -5212     2636    11492 
   19576    24552    26410    25622    21348    14385     7295     2573 
    1649     3134     4903     7094    10096    13292    15901    16600 
   14800    11799     8665     4942     -552    -8286   -16909   -23845 
  -26055   -21774   -12858    -2596     7685    17857    26950    32579 
   32476    26730    18792    13188    10720     9499     9691    11533 
   13464    15213    16730    15743    11271     5979     2840     3646 
    9008    16109    21459    25675    29681    30619    26187    18175 
    9880     3140    -1688    -5057    -8741   -14476   -21371   -27475 
  -32212   -34886   -33440   -26721   -16529    -5703     4511    13212 
   18736    20752    20453    18742    16486    14463    12112     8783 
    4787      749    -1699     -760     2307     4329     4687     4602 
    4374     4606     6569     9925    12865    14839    16233    16362 
   15245    13925    12439    11358    11772    12858    13775    15024 
   16117    16506    17793    21304    25069    26157    24688    21972 
   17193     9322     -565    -9767   -15253   -16009   -13867   -10088 
   -3848     3874     9254     9576     5097    -1714    -7777   -11742 
  -13380   -12383   -10133    -9151   -10777   -14983   -19755   -21904 
  -19930   -13999    -4807     6126    16332    22744    23236    18677 
   12869     9417     9140    11257    14949    18874    21091    19475 
   13038     3925    -3559    -6134    -3388     2251     7867    12908 
   18125    22356    23255    20322    15163     9759     5775     4128 
    4101     4027     3046     1155    -1787    -5467    -8891   -11655 
  -13012   -11826    -8915    -5854    -3468    -2986    -4363    -4936 
   -2859     1055     5251     8654    10764    12051    13054    13269 
   13082    14372    17077    19195    19973    19761    18531    15770 
   11256     6192     2523      688     -191     -712    -1221    -1208 
    1313     7400    15541    23395    29346    32038    29470    20649 
    8314    -2620    -8911   -10211    -7776    -3168     2114     6628 
    8999     9170     8660     8596     9366    10673    11611    12644 
   14944    17636    18793    18229    17721    19090    22304    25447 
   26509    24636    19707    12174     3268    -5778   -14044   -20544 
  -24254   -24263   -20368   -13541    -5995     -669      583    -1941 
   -6589   -11273   -14361   -15105   -12591    -5790     4097    14045 
   22211    27693    29472    28336    26751    25785    24784    23521 
   22464    20923    16545     7604    -4622   -16806   -26350   -31792 
  -32163   -27290   -18260    -7905      283     4274     4164     2066 
     429     -562    -1372        9     5071    11261    15290    17394 
   20000    23370    25072    24004    21929    20073    17695    14809 
   12822    11786    10600     9585     9061     7641     4243     -973 
   -6898   -11434   -13923   -16480   -19471   -19531   -14698    -5871 
    6151    19602    30431    35008    33031    27521    21109    13281 
    4023    -2543    -3194     -153     3414     6381     8001     7430 
    3379    -5194   -18188   -33643   -45713   -47997   -39731   -24278 
   -5073    14661    31949    43443    45554    38645    27974    18081 
   11237    10478    16883    26611    35085    40647    42504    38307 
   27352    12784    -2589   -16902   -25984   -26053   -17540    -2808 
   15653    33446    44393    42601    26944     5271   -11288   -17132 
  -12779    -2678     7600    14840    17976    16411     9948      707 
   -6268    -7169    -2801     3146     7744     9698     7338     -257 
  -10874   -21193   -28028   -27598   -18635    -4079    12155    25893 
   32863    33682    33652    35082    35965    35046    32702    28359 
   20224     7846    -5506   -15322   -20216   -19858   -13170    -2347 
    7087    10941     8147     -174   -11632   -23595   -33470   -38819 
  -38869   -34051   -24571   -11227     3867    17829    28339    33417 
   31214    22042     8627    -4675   -13535   -17247   -16872   -11533 
   -2860     3969     6876     7300     6180     3708     1810     3797 
    9763    15770    18314    17010    13957    12046    13090    16833 
   22475    30180    39414    47232    51017    51136    47700    39181 
   26302    12310     -282    -9448   -12892   -11218    -8139    -5479 
   -2355     1337     4266     5154     3608      550    -1973    -1786 
    1887     7834    13886    17400    16517    11838     4762    -3217 
   -8762    -8648    -2255     9421    23799    36229    42570    41121 
   32485    19426     5409    -6405   -12784   -11630    -3118    10214 
   23625    32066    32767    25690    13096     -741   -12289   -19718 
  -20717   -15082    -6820      309     4943     6660     5938     4580 
    4837     7817    12490    16202    16590    12598     3927    -8795 
  -22771   -33756   -39475   -40637   -37423   -29404   -19720   -13277 
  -11244   -10788    -9346    -7665    -7601    -9093   -10284    -8355 
   -1848     7859    18659    28709    35996    38491    34404    23294 
    7153    -9717   -22172   -26345   -21184    -9227     5336    19214 
   29218    32929    31390    27405    22234    16518    12272    11398 
   12734    13055    11070     7603     3275     -681    -2258    -1385 
     679     3809     7900    11261    11786     8914     3684    -2533 
   -7865   -10201    -9144    -5120     2215    12042    21894    30215 
   37195    42234    42070    34418    21519     7553    -4642   -12814 
  -14681   -10640    -3555     4868    12691    15373    10203     -261 
  -11240   -19494   -23931   -24023   -19017    -8730     4548    15965 
   22603    25365    25334    22793    18631    13266     5992    -2551 
   -9401   -12532   -12592   -10916    -7569    -1331     7692    16093 
   20544    21378    20154    17236    13495    10678    10114    12101 
   15129    16727    15446    11195     5215     -569    -4549    -5164 
   -1822     4118    10574    15261    16437    14823    12964    12788 
   14899    18777    23141    26987    29296    28310    23125    14457 
    3355    -8760   -19539   -26816   -29485   -27121   -20656   -13163 
   -7086    -2303     1015     1389    -1528    -6270   -11477   -17232 
  -23413   -28682   -32059   -32942   -30133   -23361   -14412    -5296 
    3022     9717    13609    13964    10655     4348    -2420    -6748 
   -7395    -3505     5290    17146    28830    37519    41469    39768 
   32695    23109    15392    11980    12505    15939    21208    25942 
   27332    24475    18183     9634      297    -7654   -11955   -12935 
  -12784   -11152    -6631     -217     6470    12083    14912    15182 
   15157    15215    13674    10650     8208     7474     8513    10933 
   12900    12258     9107     5169     1170    -2727    -4807    -2754 
    3753    13058    23017    31194    35293    34110    27191    15628 
    3905    -2554    -1771     5090    15651    26153    32383    31298 
   21780     6748    -6997   -14585   -16019   -12384    -5125     1746 
    5019     4668      600    -6754   -13903   -17089   -14997    -8256 
     681     8244    12210    12482    10055     6349     2597       47 
      70     2811     6709     9252     8109     2862    -4527   -11263 
  -15608   -17469   -16596   -12144    -5268     1494     7129    11510 
   14411    15886    16128    15685    15237    15132    15330    14870 
   12915    10496     9180     8679     7252     3880    -1035    -6424 
  -11267   -14975   -16796   -15889   -12394    -6835      433     8403 
   15928    22079    25176    23852    19014    13494    10010     9320 
   11016    15195    21042    25868    27639    25878    20837    14411 
    8781     3816     -746    -3445    -3391     -881     3835     9841 
   15213    18793    20650    21269    21567    22045    22061    21278 
   20351    19477    17605    13186     5579    -3715   -12174   -18423 
  -21656   -20829   -16522   -11184    -6442    -2641     -368       18 
    -301      842     4388     9059    13073    15619    16337    15133 
   13000    11173     9499     7753     6743     6480     5891     4652 
    3369     2666     3046     4395     5070     3090    -2212   -10709 
  -21693   -32579   -39687   -40747   -35031   -22989    -7555     6947 
   17358    22114    21763    18189    12571     6704     3083     1572 
     -59    -2821    -5722    -6558    -3950     1008     6446    11695 
   16576    20899    24497    26329    25740    24328    23715    23039 
   20560    16376    12469    10265     9113     8230     7619     6984 
    6600     6604     5505     2733      -70    -1501    -1347      298 
    2952     5387     6681     6890     6197     4275      425    -4818 
   -9593   -13389   -16210   -17081   -15898   -12654    -6519     1436 
    8168    12121    13408    11341     5798     -164    -2906    -1737 
    2778    10125    17577    21876    22252    18378    10547     2083 
   -3500    -4958    -1784     5948    16155    25419    31106    31256 
