Origin Time       2016/04/16 01:25:00
Lat.              32.753
Long.             130.762
Depth. (km)       12
Mag.              7.3
Station Code      NAR004
Station Lat.      34.5280
Station Long.     135.9512
Station Height(m) 311
Record Time       2016/04/16 01:27:44
Sampling Freq(Hz) 100Hz
Duration Time(s)  60
Dir.              N-S
Scale Factor      7845(gal)/8223790
Max. Acc. (gal)   0.917
Last Correction   2016/04/16 01:27:46
Memo.             
[...]
   -8807    -8802    -8787    -8766    -8756    -8753    -8743    -8748 
   -8758    -8760    -8765    -8783    -8796    -8800    -8803    -8806 
   -8811    -8822    -8823    -8830    -8851    -8860    -8857    -8866 
   -8866    -8858    -8854    -8847    -8838    -8830    -8829    -8826 
   -8819    -8816    -8819    -8812    -8808    -8812    -8807    -8792 
   -8787    -8787    -8784    -8787    -8787    -8783    -8783    -8784 
   -8787    -8785    -8779    -8779    -8777    -8776    -8789    -8802 
   -8810    -8827    -8841    -8849    -8854    -8856    -8860    -8863 
   -8862    -8863    -8866    -8869    -8872    -8872    -8872    -8874 
   -8869    -8860    -8850    -8837    -8829    -8823    -8811    -8800 
   -8797    -8793    -8789    -8789    -8797    -8807    -8806    -8800 
   -8804    -8804    -8791    -8795    -8812    -8812    -8812    -8827 
   -8834    -8826    -8827    -8837    -8830    -8816    -8819    -8824 
   -8822    -8829    -8841    -8847    -8850    -8853    -8850    -8837 
   -8818    -8803    -8797    -8793    -8785    -8776    -8773    -8779 
   -8783    -8776    -8772    -8769    -8757    -8749    -8756    -8754 
   -8743    -8746    -8753    -8748    -8742    -8743    -8746    -8746 
   -8742    -8741    -8738    -8735    -8738    -8729    -8721    -8729 
   -8730    -8721    -8737    -8756    -8756    -8764    -8779    -8766 
   -8757    -8765    -8756    -8743    -8749    -8761    -8766    -8768 
   -8773    -8789    -8792    -8787    -8792    -8792    -8784    -8785 
   -8789    -8785    -8777    -8779    -8784    -8784    -8781    -8775 
   -8776    -8781    -8777    -8773    -8773    -8768    -8766    -8769 
   -8761    -8752    -8753    -8752    -8748    -8753    -8757    -8757 
   -8764    -8768    -8768    -8768    -8754    -8748    -8756    -8749 
   -8739    -8743    -8746    -8743    -8746    -8749    -8750    -8750 
   -8758    -8765    -8762    -8761    -8769    -8773    -8775    -8776 
   -8775    -8779    -8796    -8807    -8806    -8810    -8824    -8827 
   -8812    -8806    -8800    -8789    -8787    -8781    -8776    -8779 
   -8773    -8770    -8775    -8766    -8760    -8760    -8750    -8745 
   -8750    -8754    -8760    -8761    -8764    -8776    -8781    -8769 
   -8769    -8784    -8785    -8781    -8785    -8789    -8787    -8789 
   -8785    -8785    -8793    -8802    -8804    -8814    -8823    -8829 
   -8830    -8838    -8843    -8834    -8827    -8841    -8843    -8822 
   -8819    -8835    -8833    -8823    -8826    -8829    -8833    -8830 
   -8816    -8807    -8802    -8797    -8803    -8807    -8797    -8796 
   -8807    -8804    -8795    -8797    -8804    -8802    -8800    -8802 
   -8800    -8804    -8810    -8812    -8818    -8822    -8826    -8829 
   -8818    -8807    -8808    -8804    -8797    -8802    -8803    -8802 
   -8807    -8820    -8826    -8820    -8820    -8819    -8806    -8796 
   -8795    -8796    -8797    -8799    -8797    -8796    -8799    -8799 
   -8787    -8777    -8775    -8768    -8765    -8775    -8783    -8787 
   -8791    -8793    -8791    -8776    -8760    -8754    -8748    -8730 
   -8719    -8725    -8727    -8712    -8710    -8721    -8716    -8708 
   -8715    -8726    -8730    -8731    -8745    -8761    -8761    -8761 
   -8777    -8784    -8777    -8783    -8803    -8806    -8799    -8810 
   -8820    -8816    -8819    -8835    -8846    -8843    -8843    -8850 
   -8850    -8842    -8841    -8845    -8839    -8838    -8835    -8838 
   -8846    -8843    -8838    -8841    -8834    -8819    -8808    -8803 
   -8800    -8796    -8792    -8795    -8802    -8797    -8791    -8792 
   -8787    -8770    -8760    -8756    -8750    -8739    -8730    -8739 
   -8746    -8737    -8737    -8748    -8749    -8741    -8745    -8760 
   -8758    -8750    -8765    -8779    -8777    -8776    -8781    -8783 
   -8768    -8748    -8738    -8726    -8710    -8702    -8700    -8695 
   -8687    -8684    -8677    -8668    -8662    -8649    -8635    -8633 
   -8621    -8603    -8610    -8623    -8619    -8623    -8638    -8648 
   -8655    -8667    -8672    -8673    -8673    -8671    -8672    -8676 
   -8683    -8695    -8704    -8711    -8719    -8725    -8729    -8741 
   -8748    -8743    -8743    -8745    -8746    -8761    -8764    -8752 
   -8764    -8784    -8779    -8781    -8803    -8810    -8807    -8818 
   -8835    -8839    -8834    -8839    -8849    -8841    -8838    -8851 
   -8850    -8841    -8839    -8839    -8839    -8841    -8838    -8835 
   -8830    -8830    -8829    -8829    -8834    -8837    -8839    -8851 
   -8860    -8858    -8856    -8854    -8857    -8854    -8851    -8856 
   -8843    -8827    -8830    -8829    -8810    -8797    -8787    -8779 
   -8769    -8758    -8750    -8748    -8743    -8731    -8725    -8727 
   -8723    -8714    -8708    -8706    -8699    -8681    -8672    -8680 
   -8677    -8662    -8653    -8650    -8648    -8638    -8619    -8596 
   -8588    -8587    -8571    -8553    -8559    -8561    -8553    -8546 
   -8540    -8533    -8527    -8526    -8519    -8503    -8490    -8496 
   -8506    -8500    -8497    -8506    -8502    -8487    -8483    -8484 
   -8484    -8487    -8497    -8507    -8517    -8529    -8542    -8557 
   -8571    -8579    -8594    -8598    -8594    -8596    -8607    -8618 
   -8625    -8622    -8627    -8634    -8633    -8637    -8638    -8641 
   -8652    -8662    -8675    -8691    -8699    -8700    -8703    -8707 
   -8708    -8706    -8704    -8706    -8703    -8704    -8708    -8715 
   -8725    -8731    -8738    -8738    -8737    -8749    -8761    -8760 
   -8764    -8781    -8791    -8792    -8807    -8830    -8839    -8838 
   -8845    -8857    -8863    -8863    -8873    -8883    -8876    -8872 
   -8878    -8880    -8874    -8868    -8868    -8873    -8869    -8863 
   -8873    -8873    -8863    -8863    -8863    -8858    -8856    -8862 
   -8858    -8847    -8862    -8876    -8872    -8880    -8888    -8885 
   -8896    -8911    -8908    -8914    -8932    -8942    -8943    -8951 
   -8968    -8977    -8980    -8988    -8996    -9001    -9012    -9022 
   -9020    -9015    -9013    -9016    -9016    -9001    -8986    -8985 
   -8982    -8972    -8962    -8962    -8957    -8943    -8938    -8929 
   -8910    -8900    -8904    -8893    -8873    -8876    -8893    -8891 
   -8883    -8891    -8903    -8903    -8896    -8896    -8895    -8887 
   -8889    -8893    -8887    -8889    -8899    -8899    -8900    -8904 
   -8901    -8895    -8891    -8881    -8870    -8865    -8851    -8835 
   -8830    -8834    -8834    -8827    -8829    -8846    -8854    -8853 
   -8865    -8881    -8885    -8889    -8904    -8923    -8934    -8937 
   -8946    -8972    -8997    -9005    -9016    -9032    -9038    -9038 
   -9043    -9046    -9038    -9027    -9026    -9022    -9009    -9009 
   -9012    -9001    -8995    -8999    -8999    -8993    -8997    -8995 
   -8980    -8974    -8981    -8974    -8957    -8953    -8957    -8954 
   -8943    -8941    -8950    -8954    -8950    -8955    -8966    -8977 
   -8989    -9000    -9003    -9012    -9027    -9036    -9042    -9036 
   -9034    -9045    -9042    -9034    -9036    -9036    -9027    -9019 
   -9011    -9000    -8996    -8997    -8988    -8976    -8970    -8962 
   -8961    -8959    -8950    -8945    -8950    -8947    -8939    -8934 
   -8931    -8941    -8949    -8943    -8942    -8951    -8951    -8938 
   -8934    -8934    -8923    -8919    -8926    -8923    -8918    -8924 
   -8931    -8929    -8920    -8926    -8943    -8943    -8941    -8954 
   -8964    -8962    -8969    -8980    -8988    -8988    -8992    -9005 
   -9012    -9012    -9018    -9018    -9019    -9015    -8996    -8985 
   -8974    -8946    -8928    -8912    -8884    -8860    -8835    -8808 
   -8776    -8743    -8726    -8699    -8667    -8646    -8627    -8610 
   -8595    -8573    -8557    -8549    -8526    -8505    -8494    -8484 
   -8467    -8440    -8413    -8401    -8383    -8359    -8349    -8333 
   -8316    -8307    -8303    -8290    -8263    -8241    -8226    -8201 
   -8167    -8154    -8143    -8116    -8091    -8081    -8068    -8047 
   -8027    -8012    -7996    -7977    -7966    -7963    -7960    -7956 
   -7960    -7966    -7969    -7974    -7979    -7992    -8002    -7997 
   -8005    -8027    -8031    -8035    -8051    -8064    -8073    -8086 
   -8097    -8101    -8108    -8111    -8108    -8110    -8118    -8124 
   -8128    -8136    -8151    -8167    -8177    -8197    -8220    -8229 
   -8237    -8255    -8271    -8280    -8293    -8305    -8317    -8330 
   -8344    -8357    -8371    -8382    -8401    -8421    -8431    -8441 
   -8457    -8474    -8487    -8496    -8505    -8517    -8525    -8525 
   -8529    -8543    -8553    -8561    -8572    -8592    -8611    -8621 
   -8625    -8630    -8638    -8633    -8619    -8618    -8618    -8604 
   -8599    -8598    -8590    -8583    -8576    -8564    -8556    -8543 
   -8520    -8499    -8477    -8459    -8446    -8430    -8414    -8417 
   -8418    -8414    -8424    -8434    -8441    -8453    -8464    -8482 
   -8494    -8507    -8525    -8536    -8533    -8537    -8546    -8548 
   -8549    -8552    -8549    -8546    -8543    -8540    -8533    -8522 
   -8509    -8506    -8503    -8487    -8476    -8474    -8474    -8472 
   -8469    -8473    -8476    -8477    -8487    -8494    -8503    -8519 
   -8529    -8540    -8561    -8581    -8602    -8623    -8650    -8675 
   -8684    -8700    -8730    -8748    -8753    -8769    -8787    -8791 
   -8796    -8808    -8816    -8818    -8816    -8820    -8822    -8819 
   -8818    -8818    -8814    -8803    -8795    -8795    -8787    -8769 
   -8760    -8758    -8753    -8743    -8742    -8742    -8741    -8738 
   -8739    -8748    -8756    -8761    -8764    -8773    -8799    -8815 
   -8818    -8839    -8861    -8865    -8877    -8893    -8901    -8899 
   -8895    -8901    -8899    -8873    -8854    -8847    -8826    -8785 
   -8760    -8741    -8708    -8675    -8645    -8614    -8588    -8569 
   -8553    -8540    -8523    -8510    -8509    -8506    -8509    -8517 
   -8529    -8543    -8559    -8575    -8595    -8610    -8626    -8650 
   -8662    -8668    -8680    -8698    -8715    -8721    -8726    -8742 
   -8748    -8748    -8750    -8743    -8742    -8743    -8733    -8729 
   -8733    -8729    -8725    -8726    -8726    -8718    -8711    -8716 
   -8723    -8719    -8721    -8743    -8764    -8770    -8787    -8822 
   -8846    -8865    -8893    -8920    -8943    -8968    -8992    -9012 
   -9027    -9040    -9061    -9078    -9093    -9104    -9116    -9128 
   -9143    -9150    -9146    -9147    -9153    -9142    -9132    -9137 
   -9134    -9121    -9120    -9115    -9108    -9101    -9090    -9082 
   -9078    -9065    -9053    -9049    -9049    -9046    -9042    -9043 
   -9046    -9046    -9046    -9040    -9028    -9028    -9034    -9027 
   -9012    -9012    -9016    -9008    -8996    -8995    -8986    -8970 
   -8964    -8953    -8935    -8929    -8928    -8922    -8918    -8927 
   -8932    -8920    -8918    -8928    -8927    -8914    -8907    -8908 
   -8896    -8885    -8881    -8870    -8854    -8841    -8823    -8806 
   -8792    -8766    -8739    -8727    -8708    -8681    -8669    -8665 
   -8654    -8638    -8626    -8617    -8599    -8576    -8549    -8520 
   -8490    -8453    -8414    -8388    -8359    -8319    -8286    -8262 
   -8237    -8198    -8156    -8129    -8109    -8073    -8043    -8028 
   -8009    -7983    -7973    -7964    -7946    -7935    -7938    -7933 
   -7928    -7935    -7943    -7940    -7943    -7962    -7974    -7977 
   -7982    -7992    -7998    -8004    -8009    -8013    -8016    -8027 
   -8040    -8040    -8035    -8040    -8048    -8051    -8047    -8050 
   -8060    -8064    -8064    -8068    -8067    -8068    -8077    -8082 
   -8087    -8093    -8097    -8108    -8117    -8120    -8122    -8135 
   -8144    -8147    -8159    -8175    -8186    -8203    -8228    -8247 
   -8264    -8291    -8318    -8340    -8360    -8391    -8428    -8460 
   -8494    -8532    -8559    -8594    -8635    -8662    -8688    -8727 
   -8760    -8787    -8822    -8853    -8881    -8914    -8945    -8968 
   -8982    -8999    -9022    -9043    -9054    -9062    -9081    -9101 
   -9109    -9119    -9131    -9140    -9157    -9166    -9170    -9182 
   -9188    -9194    -9208    -9207    -9205    -9216    -9216    -9209 
   -9208    -9205    -9202    -9196    -9177    -9166    -9163    -9146 
   -9130    -9131    -9124    -9111    -9116    -9117    -9104    -9099 
   -9101    -9097    -9096    -9092    -9084    -9086    -9090    -9076 
   -9058    -9047    -9031    -9011    -8996    -8978    -8949    -8924 
   -8914    -8892    -8856    -8829    -8810    -8783    -8752    -8729 
   -8711    -8684    -8660    -8640    -8617    -8594    -8572    -8552 
   -8545    -8527    -8502    -8496    -8487    -8461    -8441    -8424 
   -8404    -8382    -8368    -8360    -8341    -8326    -8316    -8294 
   -8276    -8266    -8252    -8236    -8222    -8213    -8205    -8194 
   -8186    -8181    -8166    -8154    -8148    -8132    -8114    -8104 
   -8090    -8078    -8064    -8048    -8040    -8033    -8013    -7997 
   -7992    -7979    -7969    -7962    -7952    -7948    -7948    -7948 
   -7948    -7947    -7951    -7955    -7951    -7946    -7946    -7942 
   -7931    -7927    -7921    -7903    -7889    -7886    -7874    -7855 
   -7844    -7835    -7825    -7817    -7813    -7808    -7798    -7796 
   -7794    -7788    -7789    -7798    -7801    -7803    -7813    -7834 
   -7848    -7852    -7859    -7871    -7879    -7879    -7885    -7890 
   -7886    -7884    -7884    -7875    -7873    -7875    -7865    -7859 
   -7860    -7859    -7857    -7852    -7851    -7850    -7848    -7857 
   -7867    -7871    -7884    -7893    -7897    -7909    -7924    -7931 
   -7947    -7969    -7983    -8004    -8029    -8052    -8073    -8098 
   -8125    -8148    -8175    -8210    -8241    -8266    -8301    -8338 
   -8364    -8394    -8426    -8449    -8477    -8509    -8532    -8553 
   -8579    -8603    -8621    -8642    -8669    -8687    -8702    -8730 
   -8760    -8777    -8792    -8818    -8841    -8851    -8861    -8884 
   -8908    -8922    -8939    -8966    -8999    -9023    -9038    -9069 
   -9104    -9127    -9147    -9188    -9217    -9232    -9258    -9294 
   -9310    -9319    -9335    -9348    -9360    -9367    -9369    -9373 
   -9371    -9358    -9348    -9340    -9321    -9300    -9286    -9275 
   -9259    -9238    -9219    -9211    -9197    -9163    -9140    -9134 
   -9111    -9078    -9062    -9057    -9042    -9022    -9020    -9022 
   -9008    -9001    -9011    -9015    -9015    -9019    -9028    -9038 
   -9043    -9054    -9076    -9085    -9089    -9103    -9119    -9128 
   -9135    -9143    -9154    -9163    -9166    -9165    -9159    -9147 
   -9136    -9127    -9115    -9093    -9069    -9051    -9028    -8992 
   -8964    -8938    -8901    -8870    -8838    -8804    -8777    -8746 
   -8714    -8691    -8668    -8648    -8633    -8621    -8612    -8607 
   -8608    -8614    -8614    -8608    -8604    -8604    -8600    -8588 
   -8583    -8577    -8569    -8565    -8559    -8542    -8532    -8529 
   -8520    -8507    -8502    -8503    -8500    -8494    -8503    -8517 
   -8522    -8523    -8540    -8557    -8567    -8583    -8608    -8629 
   -8648    -8673    -8702    -8729    -8753    -8776    -8803    -8830 
   -8853    -8877    -8903    -8920    -8935    -8959    -8980    -8992 
   -9007    -9028    -9043    -9051    -9062    -9073    -9082    -9092 
   -9099    -9108    -9120    -9127    -9126    -9127    -9140    -9151 
   -9146    -9143    -9157    -9161    -9153    -9159    -9173    -9178 
   -9184    -9198    -9211    -9221    -9238    -9256    -9279    -9300 
   -9316    -9336    -9355    -9371    -9391    -9409    -9424    -9447 
   -9464    -9472    -9487    -9505    -9522    -9537    -9545    -9556 
   -9571    -9578    -9579    -9580    -9578    -9571    -9567    -9556 
   -9539    -9526    -9525    -9516    -9497    -9491    -9490    -9475 
   -9459    -9456    -9451    -9436    -9423    -9421    -9418    -9404 
   -9397    -9400    -9397    -9391    -9390    -9390    -9393    -9390 
   -9385    -9381    -9374    -9366    -9355    -9346    -9335    -9319 
   -9300    -9290    -9279    -9258    -9244    -9244    -9236    -9213 
   -9189    -9184    -9177    -9147    -9126    -9119    -9108    -9094 
   -9080    -9076    -9073    -9059    -9051    -9059    -9057    -9043 
   -9045    -9055    -9054    -9049    -9051    -9058    -9062    -9062 
   -9062    -9071    -9081    -9080    -9078    -9085    -9092    -9089 
   -9090    -9101    -9104    -9101    -9104    -9112    -9119    -9115 
   -9109    -9116    -9128    -9134    -9136    -9147    -9162    -9170 
   -9178    -9194    -9207    -9211    -9215    -9224    -9231    -9236 
   -9243    -9250    -9256    -9262    -9267    -9269    -9266    -9269 
   -9274    -9270    -9266    -9267    -9267    -9274    -9278    -9275 
   -9278    -9289    -9292    -9292    -9298    -9305    -9305    -9306 
   -9310    -9309    -9305    -9302    -9298    -9297    -9283    -9265 
   -9259    -9252    -9229    -9208    -9192    -9171    -9147    -9120 
   -9094    -9076    -9050    -9020    -8999    -8980    -8958    -8939 
   -8927    -8912    -8900    -8895    -8896    -8899    -8888    -8885 
   -8899    -8899    -8888    -8896    -8903    -8899    -8904    -8910 
   -8912    -8915    -8914    -8920    -8922    -8914    -8916    -8916 
   -8905    -8904    -8896    -8891    -8893    -8888    -8883    -8880 
   -8883    -8881    -8868    -8861    -8862    -8850    -8838    -8841 
   -8842    -8837    -8839    -8847    -8851    -8857    -8866    -8876 
   -8889    -8899    -8908    -8923    -8942    -8965    -8980    -8993 
   -9020    -9036    -9046    -9065    -9082    -9099    -9116    -9126 
   -9135    -9147    -9155    -9159    -9167    -9173    -9175    -9178 
   -9180    -9180    -9177    -9174    -9180    -9180    -9170    -9171 
   -9186    -9190    -9193    -9205    -9212    -9209    -9221    -9239 
   -9244    -9244    -9252    -9269    -9275    -9274    -9279    -9290 
   -9298    -9301    -9298    -9305    -9315    -9316    -9319    -9319 
   -9319    -9325    -9328    -9329    -9335    -9331    -9327    -9329 
   -9322    -9317    -9312    -9301    -9300    -9293    -9278    -9275 
   -9275    -9267    -9255    -9246    -9250    -9248    -9236    -9236 
   -9246    -9246    -9242    -9248    -9258    -9261    -9265    -9273 
   -9278    -9278    -9283    -9293    -9298    -9304    -9305    -9301 
   -9305    -9317    -9322    -9325    -9325    -9321    -9327    -9333 
   -9336    -9339    -9328    -9321    -9328    -9320    -9306    -9308 
   -9305    -9286    -9278    -9278    -9267    -9258    -9262    -9265 
   -9258    -9259    -9270    -9277    -9286    -9302    -9312    -9315 
   -9321    -9340    -9355    -9359    -9369    -9374    -9378    -9387 
   -9390    -9393    -9408    -9412    -9405    -9409    -9413    -9408 
   -9409    -9408    -9391    -9381    -9381    -9371    -9363    -9364 
   -9352    -9335    -9331    -9327    -9317    -9310    -9310    -9305 
   -9290    -9282    -9289    -9286    -9275    -9275    -9270    -9261 
   -9263    -9269    -9271    -9273    -9271    -9275    -9275    -9270 
