Origin Time       2016/04/16 01:25:00
Lat.              32.753
Long.             130.762
Depth. (km)       12
Mag.              7.3
Station Code      NAR004
Station Lat.      34.5280
Station Long.     135.9512
Station Height(m) 311
Record Time       2016/04/16 01:27:44
Sampling Freq(Hz) 100Hz
Duration Time(s)  60
Dir.              E-W
Scale Factor      7845(gal)/8223790
Max. Acc. (gal)   0.831
Last Correction   2016/04/16 01:27:46
Memo.             
[...]
    3037     3038     3030     3034     3040     3028     3021     3033 
    3037     3032     3030     3036     3042     3044     3038     3037 
    3051     3063     3057     3053     3073     3088     3076     3078 
    3100     3107     3103     3113     3126     3129     3132     3145 
    3159     3163     3165     3176     3188     3194     3196     3200 
    3203     3211     3208     3202     3208     3213     3203     3207 
    3226     3222     3213     3221     3222     3215     3218     3227 
    3223     3213     3213     3219     3215     3215     3218     3210 
    3211     3217     3203     3191     3199     3198     3184     3180 
    3180     3168     3153     3154     3153     3136     3127     3136 
    3130     3111     3114     3127     3122     3115     3118     3123 
    3133     3142     3141     3144     3163     3168     3161     3177 
    3196     3194     3200     3221     3227     3226     3245     3269 
    3268     3267     3284     3296     3302     3315     3322     3319 
    3329     3348     3349     3346     3361     3376     3379     3381 
    3385     3387     3395     3407     3407     3402     3415     3424 
    3414     3418     3431     3424     3422     3433     3427     3415 
    3422     3430     3422     3418     3422     3427     3429     3431 
    3430     3429     3435     3443     3437     3431     3443     3446 
    3438     3442     3451     3445     3439     3447     3446     3439 
    3440     3440     3438     3446     3449     3440     3446     3464 
    3466     3465     3481     3492     3484     3484     3504     3510 
    3501     3507     3518     3516     3519     3530     3527     3515 
    3523     3530     3522     3519     3526     3527     3524     3530 
    3530     3528     3530     3537     3542     3546     3554     3562 
    3569     3578     3581     3588     3605     3612     3608     3615 
    3631     3630     3630     3638     3636     3636     3650     3653 
    3632     3624     3639     3639     3615     3605     3612     3603 
    3585     3581     3578     3563     3549     3546     3539     3524 
    3515     3511     3503     3492     3483     3474     3474     3472 
    3461     3453     3457     3454     3446     3449     3456     3453 
    3453     3457     3459     3454     3453     3457     3461     3459 
    3453     3454     3464     3461     3450     3447     3453     3453 
    3449     3446     3447     3449     3446     3445     3446     3449 
    3445     3440     3442     3440     3439     3439     3437     3430 
    3422     3420     3419     3411     3406     3396     3388     3385 
    3373     3361     3358     3345     3330     3330     3321     3298 
    3294     3295     3272     3254     3262     3261     3241     3234 
    3237     3231     3223     3222     3218     3211     3208     3202 
    3198     3202     3202     3200     3203     3204     3200     3200 
    3206     3202     3194     3199     3204     3203     3194     3191 
    3199     3204     3200     3194     3198     3207     3204     3191 
    3191     3194     3183     3173     3180     3183     3164     3150 
    3156     3149     3127     3121     3123     3114     3102     3100 
    3092     3080     3083     3082     3065     3059     3057     3046 
    3038     3037     3029     3022     3029     3029     3010     3005 
    3017     3013     3001     3002     3007     3001     3001     3006 
    3002     3003     3011     3010     3007     3017     3024     3024 
    3033     3041     3037     3045     3063     3060     3056     3073 
    3082     3071     3083     3105     3103     3105     3127     3140 
    3136     3141     3159     3164     3163     3172     3179     3180 
    3188     3192     3191     3199     3211     3208     3206     3219 
    3227     3222     3226     3235     3235     3238     3249     3257 
    3254     3256     3272     3288     3291     3295     3304     3312 
    3319     3329     3333     3339     3353     3358     3360     3372 
    3381     3379     3384     3396     3396     3396     3397     3396 
    3399     3406     3400     3392     3393     3396     3388     3388 
    3388     3380     3368     3372     3379     3368     3355     3364 
    3366     3354     3354     3360     3353     3346     3352     3349 
    3339     3341     3343     3334     3335     3336     3325     3325 
    3334     3326     3310     3312     3319     3304     3292     3299 
    3300     3281     3275     3283     3271     3252     3256     3252 
    3230     3222     3226     3217     3200     3194     3190     3180 
    3171     3157     3146     3148     3140     3121     3118     3122 
    3105     3095     3106     3102     3083     3083     3090     3084 
    3079     3084     3086     3082     3087     3090     3087     3090 
    3103     3102     3100     3115     3123     3119     3130     3145 
    3141     3136     3152     3164     3156     3159     3176     3184 
    3187     3194     3204     3211     3217     3226     3237     3246 
    3252     3248     3253     3271     3267     3262     3281     3288 
    3277     3283     3299     3298     3288     3298     3311     3306 
    3296     3304     3314     3314     3312     3314     3316     3326 
    3335     3336     3336     3339     3348     3358     3361     3358 
    3364     3379     3388     3388     3392     3407     3418     3418 
    3431     3445     3442     3446     3464     3465     3458     3466 
    3484     3489     3483     3491     3514     3522     3515     3520 
    3532     3544     3546     3546     3559     3577     3576     3573 
    3592     3607     3604     3608     3628     3636     3630     3631 
    3647     3661     3659     3658     3673     3690     3700     3704 
    3713     3730     3738     3738     3750     3774     3781     3776 
    3790     3807     3807     3817     3839     3839     3835     3848 
    3858     3861     3865     3863     3865     3880     3892     3882 
    3883     3902     3912     3909     3915     3921     3924     3927 
    3935     3942     3940     3942     3946     3948     3955     3963 
    3967     3979     3989     3983     3982     3996     4000     3989 
    3993     4010     4008     3991     3997     4014     4012     4002 
    4012     4016     4001     3994     4001     4003     3998     3990 
    3989     3998     4002     3997     4002     4013     4003     3993 
    4001     4010     4002     3996     4009     4016     4006     4009 
    4020     4017     4013     4023     4031     4027     4017     4017 
    4017     4020     4017     4016     4017     4024     4017     4010 
    4013     4013     4002     3996     3994     3987     3974     3969 
    3967     3954     3943     3944     3939     3925     3919     3915 
    3904     3890     3879     3871     3867     3861     3844     3836 
    3836     3827     3815     3812     3807     3793     3775     3766 
    3769     3754     3731     3723     3716     3700     3688     3674 
    3661     3653     3645     3624     3615     3618     3608     3595 
    3593     3595     3589     3582     3580     3580     3580     3580 
    3581     3580     3582     3589     3595     3600     3605     3609 
    3612     3620     3628     3634     3642     3653     3669     3680 
    3690     3701     3715     3727     3728     3734     3751     3765 
    3767     3771     3782     3792     3794     3792     3800     3808 
    3807     3809     3815     3813     3812     3817     3819     3819 
    3827     3828     3823     3828     3835     3827     3824     3834 
    3831     3823     3828     3824     3816     3819     3820     3812 
    3808     3812     3809     3798     3794     3800     3796     3792 
    3797     3794     3790     3790     3789     3784     3784     3784 
    3778     3773     3776     3775     3770     3771     3771     3765 
    3761     3763     3761     3755     3751     3746     3743     3743 
    3738     3735     3735     3734     3726     3719     3723     3717 
    3705     3707     3709     3697     3688     3697     3697     3684 
    3685     3690     3689     3685     3680     3680     3686     3689 
    3682     3676     3685     3690     3680     3678     3692     3692 
    3681     3684     3690     3686     3686     3693     3692     3688 
    3693     3697     3699     3703     3704     3701     3705     3711 
    3708     3707     3713     3711     3703     3707     3712     3705 
    3703     3713     3716     3703     3697     3709     3708     3688 
    3681     3690     3689     3677     3673     3674     3670     3659 
    3650     3650     3651     3640     3624     3623     3627     3613 
    3597     3595     3592     3580     3570     3568     3561     3547 
    3537     3534     3526     3511     3503     3496     3483     3465 
    3451     3442     3431     3419     3402     3388     3381     3369 
    3355     3342     3330     3315     3310     3303     3284     3268 
    3267     3258     3248     3241     3225     3217     3219     3208 
    3191     3183     3177     3164     3152     3149     3142     3122 
    3111     3114     3098     3071     3065     3067     3045     3022 
    3021     3019     3002     2982     2974     2967     2956     2937 
    2922     2915     2910     2896     2882     2878     2871     2852 
    2839     2839     2829     2816     2813     2810     2802     2794 
    2785     2776     2775     2772     2762     2755     2758     2755 
    2744     2740     2740     2739     2736     2735     2732     2725 
    2725     2728     2716     2702     2706     2705     2687     2678 
    2679     2667     2659     2662     2647     2624     2623     2623 
    2608     2594     2590     2586     2574     2560     2555     2552 
    2546     2539     2535     2524     2515     2515     2511     2504 
    2500     2496     2494     2494     2489     2485     2485     2486 
    2485     2479     2477     2478     2484     2485     2479     2485 
    2496     2493     2492     2504     2515     2512     2516     2533 
    2543     2539     2544     2560     2569     2573     2584     2594 
    2597     2606     2614     2619     2624     2629     2632     2636 
    2650     2656     2655     2659     2671     2681     2682     2683 
    2687     2691     2695     2701     2702     2702     2705     2709 
    2713     2716     2716     2718     2721     2721     2716     2717 
    2725     2721     2713     2717     2720     2712     2706     2710 
    2709     2698     2698     2704     2693     2679     2678     2677 
    2669     2663     2659     2658     2654     2648     2641     2640 
    2639     2627     2619     2620     2613     2600     2594     2590 
    2577     2567     2569     2565     2552     2542     2535     2529 
    2521     2511     2498     2494     2496     2489     2474     2475 
    2485     2481     2475     2477     2479     2481     2485     2489 
    2494     2502     2511     2517     2524     2529     2535     2550 
    2563     2571     2577     2586     2601     2610     2616     2628 
    2641     2641     2646     2660     2668     2671     2682     2691 
    2694     2704     2713     2717     2727     2739     2740     2745 
    2756     2759     2759     2770     2776     2776     2781     2787 
    2790     2787     2790     2797     2792     2791     2801     2799 
    2789     2791     2803     2799     2787     2797     2805     2799 
    2798     2801     2802     2806     2809     2809     2811     2816 
    2818     2824     2832     2832     2824     2829     2844     2841 
    2828     2837     2853     2844     2836     2843     2847     2839 
    2837     2843     2844     2844     2843     2839     2839     2844 
    2844     2844     2852     2856     2853     2862     2874     2870 
    2863     2878     2890     2886     2893     2906     2909     2911 
    2924     2929     2928     2933     2943     2945     2947     2955 
    2959     2961     2972     2976     2976     2991     3005     3002 
    3007     3028     3034     3033     3046     3061     3065     3078 
    3098     3103     3107     3125     3142     3148     3159     3176 
    3180     3191     3211     3219     3222     3237     3248     3253 
    3267     3284     3291     3295     3310     3329     3330     3334 
    3352     3358     3362     3383     3395     3392     3403     3420 
    3424     3430     3451     3464     3459     3469     3489     3496 
    3503     3511     3518     3524     3534     3539     3550     3577 
    3586     3568     3573     3600     3596     3584     3607     3634 
    3631     3622     3627     3630     3630     3645     3655     3651 
    3653     3653     3655     3666     3669     3670     3682     3690 
    3686     3684     3700     3719     3707     3697     3717     3727 
    3709     3708     3727     3735     3738     3747     3748     3743 
    3748     3757     3757     3761     3769     3770     3774     3794 
    3813     3813     3819     3832     3842     3850     3855     3861 
    3874     3882     3880     3889     3906     3915     3919     3935 
    3951     3956     3950     3951     3967     3969     3965     3981 
    3990     3986     3991     4003     4009     4013     4020     4021 
    4027     4036     4033     4033     4048     4055     4055     4072 
    4087     4079     4074     4090     4105     4098     4095     4113 
    4122     4120     4124     4137     4140     4139     4149     4159 
    4162     4167     4174     4176     4183     4186     4183     4190 
    4199     4197     4197     4205     4207     4192     4186     4197 
    4202     4194     4194     4197     4194     4187     4182     4172 
    4167     4164     4159     4159     4159     4152     4143     4147 
    4152     4140     4128     4136     4143     4131     4121     4128 
    4128     4117     4116     4117     4113     4112     4109     4102 
    4102     4104     4095     4093     4098     4097     4082     4077 
    4083     4074     4062     4068     4072     4064     4063     4069 
    4063     4050     4047     4044     4033     4029     4028     4020 
    4009     4003     4000     3994     3984     3978     3973     3967 
    3959     3951     3946     3940     3932     3928     3927     3921 
    3913     3909     3905     3897     3890     3888     3883     3875 
    3869     3866     3865     3859     3854     3848     3842     3839 
    3839     3832     3824     3824     3823     3817     3813     3811 
    3805     3804     3802     3794     3792     3794     3785     3774 
    3778     3774     3761     3759     3757     3748     3742     3738 
    3731     3716     3709     3708     3699     3680     3669     3665 
    3657     3646     3634     3630     3622     3607     3599     3593 
    3580     3565     3561     3557     3539     3522     3519     3511 
    3495     3480     3470     3461     3447     3433     3422     3410 
    3396     3379     3364     3354     3333     3308     3307     3296 
    3267     3252     3254     3242     3211     3188     3186     3177 
    3153     3134     3126     3113     3092     3086     3083     3063 
    3045     3045     3034     3011     3006     3006     2988     2970 
    2965     2964     2957     2948     2941     2938     2933     2926 
    2924     2921     2913     2903     2902     2905     2893     2872 
    2876     2889     2874     2862     2871     2871     2853     2844 
    2847     2844     2833     2830     2836     2825     2810     2809 
    2811     2799     2785     2782     2782     2774     2763     2756 
    2749     2740     2731     2724     2717     2710     2710     2706 
    2695     2688     2694     2693     2685     2682     2685     2686 
    2686     2688     2693     2691     2695     2704     2706     2705 
    2710     2720     2725     2733     2740     2740     2744     2754 
    2759     2758     2763     2774     2775     2772     2779     2786 
    2791     2801     2799     2792     2799     2808     2801     2795 
    2806     2816     2810     2806     2811     2811     2809     2810 
    2813     2814     2813     2811     2809     2803     2799     2801 
    2805     2809     2806     2801     2808     2814     2806     2799 
    2811     2820     2811     2813     2821     2818     2818     2825 
    2828     2828     2828     2830     2835     2837     2837     2837 
    2836     2836     2833     2828     2835     2839     2828     2822 
    2829     2830     2826     2826     2826     2825     2826     2820 
    2813     2821     2825     2813     2810     2820     2820     2808 
    2810     2824     2820     2808     2816     2828     2820     2811 
    2822     2829     2826     2825     2828     2832     2833     2835 
    2841     2852     2852     2844     2853     2867     2867     2867 
    2880     2890     2882     2886     2906     2911     2906     2917 
    2938     2938     2936     2953     2965     2967     2978     2986 
    2990     2999     3014     3022     3025     3037     3045     3048 
    3061     3076     3076     3076     3090     3103     3106     3117 
    3127     3126     3134     3154     3163     3160     3179     3202 
    3198     3198     3221     3235     3235     3244     3262     3276 
    3287     3302     3312     3323     3338     3348     3357     3369 
    3381     3388     3400     3407     3411     3424     3440     3445 
    3453     3469     3478     3483     3491     3507     3516     3516 
    3530     3547     3547     3550     3574     3585     3585     3604 
    3618     3615     3634     3661     3658     3658     3693     3717 
    3709     3721     3753     3766     3771     3789     3809     3821 
    3831     3844     3856     3877     3898     3905     3915     3935 
    3948     3955     3969     3981     3983     3989     4005     4013 
    4012     4023     4040     4047     4051     4063     4068     4067 
    4074     4086     4091     4098     4099     4102     4117     4128 
    4120     4120     4140     4147     4133     4136     4159     4155 
    4135     4143     4159     4155     4149     4159     4159     4153 
    4159     4163     4149     4151     4159     4149     4144     4153 
    4156     4144     4143     4145     4136     4126     4128     4126 
    4121     4110     4101     4099     4097     4088     4077     4072 
    4074     4062     4051     4055     4051     4040     4040     4040 
    4032     4024     4025     4024     4013     4003     4005     4005 
    3997     3989     3987     3989     3984     3975     3971     3974 
    3973     3960     3951     3951     3947     3936     3929     3929 
    3924     3916     3917     3917     3904     3897     3902     3899 
    3886     3877     3873     3869     3865     3859     3851     3846 
    3842     3840     3834     3827     3823     3820     3816     3808 
    3794     3785     3782     3775     3761     3755     3750     3740 
    3734     3723     3712     3711     3703     3690     3682     3673 
    3662     3653     3647     3642     3639     3634     3626     3615 
    3609     3608     3609     3603     3592     3588     3580     3573 
    3574     3569     3555     3551     3554     3549     3530     3520 
    3523     3515     3500     3495     3488     3480     3476     3462 
    3447     3445     3440     3426     3415     3411     3403     3391 
    3384     3377     3366     3360     3357     3345     3330     3327 
