Origin Time       2016/04/16 01:25:00
Lat.              32.753
Long.             130.762
Depth. (km)       12
Mag.              7.3
Station Code      NAR001
Station Lat.      34.7154
Station Long.     135.7272
Station Height(m) 150
Record Time       2016/04/16 01:27:39
Sampling Freq(Hz) 100Hz
Duration Time(s)  64
Dir.              E-W
Scale Factor      7845(gal)/8223790
Max. Acc. (gal)   1.405
Last Correction   2016/04/16 01:27:40
Memo.             
[...]
    -388     -383     -376     -372     -369     -361     -357     -356 
    -352     -352     -356     -357     -359     -364     -372     -386 
    -400     -415     -434     -456     -486     -515     -544     -576 
    -614     -649     -681     -712     -745     -777     -807     -838 
    -872     -901     -928     -957     -982    -1004    -1026    -1050 
   -1071    -1089    -1102    -1117    -1124    -1125    -1127    -1127 
   -1123    -1120    -1112    -1105    -1101    -1093    -1081    -1077 
   -1074    -1073    -1073    -1074    -1080    -1086    -1093    -1102 
   -1115    -1127    -1140    -1161    -1182    -1205    -1229    -1255 
   -1281    -1310    -1341    -1367    -1385    -1405    -1426    -1443 
   -1455    -1463    -1463    -1460    -1455    -1443    -1431    -1418 
   -1401    -1385    -1367    -1347    -1327    -1310    -1293    -1274 
   -1254    -1236    -1225    -1209    -1194    -1183    -1169    -1152 
   -1138    -1120    -1100    -1081    -1065    -1047    -1030    -1015 
    -994     -974     -961     -945     -923     -908     -900     -890 
    -882     -877     -873     -868     -864     -859     -849     -841 
    -827     -812     -797     -777     -756     -737     -714     -689 
    -664     -635     -610     -581     -557     -538     -518     -498 
    -487     -475     -460     -451     -445     -440     -436     -429 
    -423     -421     -418     -417     -414     -415     -421     -425 
    -436     -446     -456     -468     -479     -493     -511     -525 
    -542     -568     -589     -611     -638     -661     -687     -715 
    -743     -770     -797     -824     -854     -882     -905     -927 
    -947     -966     -984     -996    -1007    -1011    -1005    -1000 
    -992     -976     -963     -946     -916     -888     -859     -826 
    -789     -754     -722     -685     -649     -612     -579     -548 
    -519     -491     -468     -449     -434     -429     -429     -430 
    -438     -448     -457     -469     -480     -498     -513     -519 
    -531     -545     -553     -565     -579     -588     -599     -612 
    -625     -635     -648     -658     -669     -684     -692     -697 
    -710     -719     -727     -739     -756     -772     -789     -804 
    -824     -850     -876     -903     -929     -955     -986    -1017 
   -1047    -1078    -1111    -1144    -1179    -1219    -1258    -1297 
   -1339    -1385    -1431    -1475    -1520    -1564    -1605    -1642 
   -1676    -1711    -1745    -1776    -1807    -1840    -1869    -1894 
   -1918    -1939    -1956    -1966    -1975    -1979    -1980    -1979 
   -1973    -1962    -1954    -1944    -1927    -1912    -1899    -1883 
   -1867    -1852    -1833    -1813    -1795    -1777    -1761    -1745 
   -1726    -1709    -1694    -1676    -1661    -1648    -1632    -1614 
   -1588    -1564    -1543    -1516    -1482    -1444    -1405    -1367 
   -1321    -1273    -1221    -1165    -1107    -1053     -992     -929 
    -870     -808     -747     -692     -639     -587     -537     -495 
    -459     -427     -402     -386     -373     -365     -361     -361 
    -365     -372     -380     -392     -413     -436     -457     -483 
    -508     -532     -564     -599     -629     -660     -692     -723 
    -754     -781     -803     -824     -846     -868     -888     -908 
    -927     -947     -963     -976     -990    -1007    -1020    -1031 
   -1039    -1050    -1053    -1059    -1067    -1075    -1081    -1092 
   -1107    -1124    -1142    -1165    -1188    -1213    -1242    -1266 
   -1287    -1308    -1321    -1329    -1334    -1333    -1331    -1323 
   -1310    -1294    -1274    -1248    -1221    -1190    -1151    -1105 
   -1055    -1003     -946     -884     -822     -764     -706     -649 
    -589     -535     -487     -440     -399     -363     -325     -294 
    -263     -234     -210     -186     -164     -155     -147     -139 
    -136     -139     -144     -152     -160     -174     -189     -202 
    -214     -230     -240     -245     -256     -263     -263     -263 
    -266     -265     -263     -261     -257     -255     -252     -248 
    -246     -246     -248     -249     -255     -261     -275     -288 
    -302     -325     -351     -376     -409     -448     -487     -529 
    -583     -639     -693     -751     -812     -873     -935     -999 
   -1060    -1117    -1174    -1233    -1286    -1332    -1378    -1420 
   -1459    -1499    -1532    -1557    -1584    -1609    -1632    -1658 
   -1688    -1714    -1740    -1768    -1799    -1826    -1854    -1881 
   -1906    -1930    -1956    -1979    -1996    -2015    -2033    -2049 
   -2065    -2079    -2096    -2111    -2123    -2135    -2147    -2155 
   -2160    -2161    -2162    -2161    -2160    -2153    -2137    -2114 
   -2088    -2057    -2016    -1971    -1918    -1856    -1787    -1718 
   -1641    -1560    -1478    -1390    -1301    -1216    -1132    -1048 
    -970     -899     -832     -772     -722     -679     -639     -610 
    -585     -566     -557     -552     -550     -561     -573     -585 
    -606     -627     -653     -683     -707     -731     -757     -778 
    -800     -822     -842     -864     -882     -899     -913     -928 
    -945     -959     -974     -987     -999    -1013    -1030    -1043 
   -1057    -1077    -1096    -1116    -1143    -1177    -1215    -1254 
   -1297    -1345    -1393    -1441    -1493    -1543    -1587    -1632 
   -1675    -1713    -1750    -1780    -1809    -1833    -1849    -1859 
   -1865    -1865    -1857    -1845    -1826    -1803    -1776    -1740 
   -1691    -1642    -1591    -1532    -1471    -1408    -1340    -1269 
   -1198    -1129    -1057     -982     -911     -838     -766     -693 
    -623     -553     -483     -419     -352     -284     -221     -160 
    -101      -47        4       49       87      121      149      170 
     183      193      193      189      183      170      156      139 
     112       86       58       22      -16      -58     -102     -148 
    -194     -237     -279     -328     -379     -425     -475     -523 
    -573     -626     -675     -723     -773     -820     -864     -909 
    -950     -986    -1021    -1050    -1075    -1097    -1113    -1125 
   -1135    -1146    -1154    -1152    -1154    -1156    -1156    -1154 
   -1150    -1144    -1144    -1139    -1133    -1133    -1131    -1125 
   -1120    -1112    -1107    -1107    -1098    -1089    -1078    -1067 
   -1057    -1044    -1031    -1017    -1000     -984     -972     -957 
    -939     -924     -911     -897     -892     -888     -880     -876 
    -870     -861     -853     -845     -834     -818     -800     -784 
    -764     -741     -719     -687     -658     -635     -606     -575 
    -546     -518     -493     -472     -454     -441     -430     -417 
    -411     -411     -407     -406     -403     -402     -410     -418 
    -423     -438     -459     -477     -502     -529     -556     -587 
    -623     -660     -702     -743     -780     -819     -861     -896 
    -931     -969    -1000    -1026    -1050    -1070    -1090    -1111 
   -1127    -1139    -1152    -1162    -1165    -1174    -1181    -1179 
   -1182    -1185    -1178    -1173    -1165    -1152    -1143    -1131 
   -1115    -1102    -1092    -1078    -1067    -1053    -1039    -1030 
   -1020    -1011    -1000     -987     -976     -967     -955     -939 
    -924     -907     -889     -874     -857     -838     -822     -801 
    -780     -760     -738     -715     -696     -675     -652     -626 
    -598     -572     -548     -518     -493     -473     -449     -432 
    -417     -402     -392     -387     -383     -383     -392     -405 
    -423     -449     -475     -506     -548     -588     -631     -680 
    -728     -778     -831     -885     -940     -993    -1044    -1096 
   -1144    -1196    -1244    -1290    -1334    -1377    -1413    -1449 
   -1483    -1512    -1540    -1567    -1586    -1602    -1617    -1629 
   -1640    -1649    -1655    -1657    -1657    -1653    -1645    -1640 
   -1632    -1626    -1621    -1615    -1609    -1599    -1594    -1584 
   -1568    -1556    -1543    -1521    -1501    -1482    -1453    -1421 
   -1391    -1355    -1316    -1278    -1242    -1206    -1167    -1128 
   -1092    -1058    -1024     -989     -953     -920     -892     -862 
    -832     -805     -781     -760     -739     -719     -700     -681 
    -666     -652     -638     -625     -614     -604     -596     -588 
    -584     -581     -579     -583     -585     -589     -595     -599 
    -607     -618     -627     -638     -650     -661     -669     -675 
    -685     -699     -704     -714     -731     -743     -749     -760 
    -774     -781     -785     -795     -801     -807     -811     -811 
    -810     -811     -811     -810     -808     -808     -805     -801 
    -799     -795     -792     -792     -796     -796     -799     -808 
    -816     -827     -843     -858     -877     -897     -918     -940 
    -965     -985    -1009    -1032    -1051    -1069    -1088    -1102 
   -1115    -1121    -1128    -1131    -1125    -1123    -1117    -1105 
   -1094    -1081    -1065    -1050    -1035    -1021    -1012    -1000 
    -993     -985     -977     -974     -974     -974     -978     -984 
    -989     -993     -996    -1000    -1005    -1009    -1016    -1019 
   -1017    -1019    -1023    -1021    -1017    -1015    -1008     -999 
    -994     -987     -976     -963     -955     -939     -918     -897 
    -876     -854     -834     -812     -788     -764     -741     -715 
    -696     -673     -649     -629     -612     -598     -581     -564 
    -552     -546     -540     -535     -535     -537     -540     -550 
    -558     -565     -579     -602     -623     -646     -675     -708 
    -745     -785     -828     -869     -915     -965    -1009    -1048 
   -1090    -1133    -1171    -1208    -1239    -1266    -1297    -1328 
   -1355    -1378    -1398    -1417    -1435    -1449    -1460    -1470 
   -1472    -1470    -1464    -1460    -1455    -1444    -1429    -1414 
   -1397    -1382    -1368    -1352    -1339    -1324    -1305    -1287 
   -1269    -1246    -1224    -1198    -1173    -1142    -1105    -1070 
   -1036     -997     -959     -918     -874     -835     -795     -753 
    -710     -665     -623     -583     -537     -491     -448     -403 
    -360     -319     -275     -236     -205     -168     -133     -108 
     -82      -54      -32      -13        1       16       29       37 
      41       47       54       55       56       59       63       65 
      65       65       67       67       70       67       63       63 
      60       56       54       49       45       43       35       27 
      22       18       13        4       -4       -9      -17      -27 
     -35      -47      -62      -74      -86     -103     -125     -144 
    -168     -193     -217     -245     -276     -309     -348     -387 
    -422     -461     -499     -535     -579     -627     -673     -719 
    -767     -816     -864     -908     -951     -996    -1035    -1075 
   -1116    -1151    -1185    -1217    -1246    -1278    -1305    -1323 
   -1348    -1372    -1387    -1408    -1425    -1435    -1447    -1456 
   -1462    -1468    -1471    -1468    -1470    -1468    -1462    -1453 
   -1444    -1431    -1418    -1399    -1378    -1358    -1333    -1302 
   -1270    -1242    -1208    -1166    -1127    -1089    -1044     -999 
    -955     -907     -858     -811     -764     -718     -673     -623 
    -579     -537     -493     -453     -414     -375     -338     -306 
    -275     -243     -211     -180     -149     -121      -97      -72 
     -49      -25        0       27       47       65       83       98 
     112      128      137      144      149      148      143      136 
     125      105       79       51       17      -22      -63     -102 
    -149     -197     -244     -295     -346     -402     -459     -510 
    -561     -615     -669     -723     -778     -830     -882     -934 
    -986    -1039    -1090    -1138    -1183    -1233    -1282    -1329 
   -1375    -1417    -1455    -1494    -1530    -1560    -1588    -1610 
   -1628    -1641    -1641    -1636    -1632    -1621    -1603    -1586 
   -1566    -1541    -1517    -1493    -1470    -1448    -1424    -1401 
   -1377    -1351    -1329    -1308    -1282    -1258    -1237    -1215 
   -1190    -1171    -1148    -1121    -1097    -1074    -1046    -1020 
    -994     -965     -935     -903     -866     -831     -796     -756 
    -719     -688     -657     -623     -599     -576     -550     -529 
    -514     -499     -491     -487     -483     -477     -475     -476 
    -479     -479     -481     -491     -496     -496     -503     -514 
    -522     -529     -540     -552     -562     -576     -589     -603 
    -615     -625     -631     -641     -649     -656     -661     -665 
    -665     -668     -668     -665     -669     -669     -658     -648 
    -638     -625     -612     -603     -588     -571     -552     -532 
    -515     -493     -472     -453     -432     -405     -379     -352 
    -325     -297     -268     -236     -206     -180     -157     -131 
    -109      -90      -74      -59      -44      -35      -31      -28 
     -25      -18      -14      -10       -4        2       14       31 
      47       70       98      128      160      199      237      275 
     311      348      390      427      460      493      523      542 
     558      568      573      572      561      542      519      487 
     451      409      353      294      228      151       75       -5 
     -93     -180     -274     -370     -463     -557     -654     -749 
    -838     -926    -1011    -1096    -1177    -1250    -1318    -1386 
   -1449    -1506    -1563    -1618    -1665    -1710    -1753    -1786 
   -1818    -1852    -1876    -1894    -1910    -1918    -1923    -1926 
   -1921    -1912    -1906    -1895    -1880    -1863    -1848    -1833 
   -1818    -1804    -1791    -1779    -1765    -1755    -1744    -1732 
   -1721    -1710    -1702    -1691    -1679    -1669    -1655    -1641 
   -1629    -1610    -1590    -1574    -1556    -1539    -1521    -1499 
   -1478    -1457    -1437    -1417    -1395    -1375    -1355    -1331 
   -1308    -1285    -1260    -1237    -1210    -1183    -1161    -1135 
   -1107    -1086    -1065    -1039    -1020    -1005     -987     -976 
    -969     -958     -951     -949     -946     -945     -945     -947 
    -949     -947     -946     -946     -942     -934     -927     -920 
    -911     -901     -890     -877     -862     -849     -842     -834 
    -824     -818     -810     -804     -805     -801     -801     -804 
    -807     -811     -816     -823     -834     -842     -850     -857 
    -861     -866     -873     -877     -880     -880     -881     -880 
    -874     -869     -862     -850     -841     -832     -820     -810 
    -801     -796     -788     -777     -766     -760     -754     -747 
    -741     -741     -743     -741     -741     -750     -757     -764 
    -773     -783     -795     -804     -816     -832     -847     -857 
    -866     -877     -892     -907     -922     -935     -949     -962 
    -978     -994    -1009    -1026    -1042    -1057    -1073    -1092 
   -1112    -1133    -1151    -1170    -1190    -1209    -1230    -1254 
   -1275    -1298    -1325    -1348    -1371    -1397    -1420    -1444 
   -1474    -1498    -1516    -1537    -1554    -1571    -1586    -1595 
   -1605    -1615    -1624    -1632    -1640    -1645    -1653    -1664 
   -1671    -1680    -1695    -1707    -1718    -1729    -1744    -1760 
   -1776    -1790    -1802    -1814    -1826    -1836    -1844    -1854 
   -1863    -1867    -1871    -1873    -1872    -1865    -1857    -1845 
   -1825    -1804    -1783    -1750    -1717    -1684    -1645    -1603 
   -1564    -1517    -1470    -1421    -1372    -1324    -1273    -1220 
   -1169    -1116    -1058    -1003     -950     -890     -831     -778 
    -726     -669     -615     -565     -517     -469     -423     -383 
    -346     -309     -276     -251     -230     -218     -212     -211 
    -216     -225     -245     -270     -295     -326     -365     -407 
    -453     -506     -562     -625     -684     -746     -812     -877 
    -943    -1005    -1067    -1133    -1197    -1254    -1310    -1366 
   -1418    -1471    -1518    -1563    -1606    -1647    -1683    -1719 
   -1750    -1775    -1798    -1823    -1846    -1864    -1876    -1892 
   -1908    -1923    -1935    -1941    -1952    -1964    -1969    -1977 
   -1988    -1993    -1999    -2001    -2001    -2004    -2004    -2001 
   -1999    -1991    -1982    -1975    -1962    -1949    -1937    -1922 
   -1910    -1894    -1872    -1854    -1836    -1810    -1786    -1757 
   -1728    -1698    -1661    -1625    -1590    -1545    -1499    -1455 
   -1408    -1356    -1305    -1248    -1193    -1138    -1075    -1012 
    -953     -890     -830     -772     -712     -650     -595     -545 
    -498     -457     -421     -387     -360     -334     -314     -305 
    -298     -294     -294     -297     -305     -317     -333     -352 
    -372     -394     -419     -441     -461     -487     -511     -531 
    -552     -571     -584     -595     -607     -619     -625     -629 
    -630     -630     -633     -638     -639     -639     -641     -638 
    -638     -638     -638     -641     -639     -641     -649     -653 
    -654     -662     -666     -672     -683     -692     -704     -715 
    -723     -737     -749     -756     -762     -767     -773     -781 
    -780     -777     -778     -774     -769     -762     -753     -741 
    -728     -712     -695     -675     -649     -633     -619     -598 
    -576     -560     -538     -519     -506     -492     -479     -471 
    -463     -459     -454     -454     -460     -468     -480     -498 
    -518     -544     -568     -595     -630     -662     -696     -737 
    -774     -812     -855     -896     -938     -986    -1031    -1075 
   -1127    -1174    -1220    -1271    -1324    -1381    -1436    -1490 
   -1544    -1598    -1655    -1713    -1765    -1818    -1872    -1917 
   -1961    -2011    -2053    -2088    -2121    -2150    -2178    -2203 
   -2219    -2230    -2236    -2242    -2243    -2241    -2238    -2231 
   -2215    -2199    -2185    -2163    -2139    -2116    -2085    -2053 
   -2023    -1989    -1956    -1921    -1880    -1838    -1799    -1761 
   -1719    -1675    -1628    -1578    -1528    -1475    -1416    -1358 
   -1296    -1228    -1163    -1098    -1026     -953     -876     -801 
    -728     -653     -576     -506     -436     -363     -299     -240 
    -180     -124      -72      -28        9       41       71       94 
     110      118      122      120      108       94       78       56 
      28       -5      -39      -82     -129     -176     -229     -288 
    -348     -409     -468     -523     -588     -656     -719     -785 
    -850     -909     -972    -1031    -1086    -1142    -1198    -1252 
   -1305    -1355    -1402    -1452    -1497    -1547    -1601    -1645 
   -1687    -1733    -1781    -1829    -1876    -1919    -1964    -2007 
   -2045    -2079    -2118    -2153    -2181    -2203    -2215    -2227 
   -2234    -2230    -2219    -2204    -2180    -2146    -2107    -2061 
