Origin Time       2016/04/16 01:25:00
Lat.              32.753
Long.             130.762
Depth. (km)       12
Mag.              7.3
Station Code      NAR002
Station Lat.      34.6683
Station Long.     135.8352
Station Height(m) 90
Record Time       2016/04/16 01:27:39
Sampling Freq(Hz) 100Hz
Duration Time(s)  148
Dir.              N-S
Scale Factor      7845(gal)/8223790
Max. Acc. (gal)   6.287
Last Correction   2016/04/16 01:27:40
Memo.             
[...]
   -2743    -2806    -2868    -2926    -2982    -3032    -3073    -3117 
   -3157    -3190    -3217    -3242    -3256    -3260    -3258    -3250 
   -3232    -3210    -3180    -3150    -3115    -3063    -3006    -2960 
   -2915    -2859    -2799    -2747    -2688    -2623    -2567    -2519 
   -2459    -2403    -2358    -2312    -2266    -2226    -2181    -2137 
   -2106    -2073    -2029    -1982    -1941    -1898    -1852    -1803 
   -1749    -1696    -1641    -1578    -1512    -1451    -1378    -1296 
   -1220    -1146    -1057     -961     -868     -772     -669     -569 
    -472     -367     -255     -147      -45       60      167      270 
     370      468      562      658      751      841      924     1004 
    1085     1163     1232     1300     1367     1425     1479     1530 
    1578     1617     1648     1675     1699     1713     1713     1714 
    1711     1688     1653     1621     1576     1520     1459     1393 
    1314     1230     1139     1044      949      842      726      611 
     496      378      255      135        9     -117     -243     -367 
    -495     -618     -738     -862     -985    -1104    -1225    -1345 
   -1462    -1578    -1698    -1815    -1930    -2047    -2165    -2281 
   -2398    -2513    -2628    -2745    -2860    -2975    -3087    -3194 
   -3302    -3416    -3527    -3631    -3736    -3842    -3944    -4048 
   -4156    -4263    -4364    -4464    -4568    -4680    -4784    -4882 
   -4982    -5088    -5188    -5286    -5389    -5489    -5580    -5672 
   -5763    -5849    -5933    -6016    -6089    -6160    -6230    -6284 
   -6334    -6386    -6430    -6460    -6493    -6524    -6539    -6546 
   -6558    -6564    -6558    -6542    -6521    -6494    -6459    -6416 
   -6367    -6313    -6250    -6176    -6097    -6019    -5935    -5837 
   -5741    -5647    -5539    -5427    -5317    -5200    -5077    -4958 
   -4833    -4696    -4560    -4425    -4283    -4139    -3994    -3846 
   -3693    -3534    -3379    -3223    -3059    -2890    -2725    -2565 
   -2396    -2218    -2046    -1881    -1711    -1537    -1368    -1200 
   -1028     -861     -699     -538     -375     -211      -56       91 
     241      392      530      662      795      920     1038     1152 
    1263     1366     1466     1566     1664     1760     1856     1948 
    2037     2130     2220     2303     2385     2466     2543     2617 
    2683     2744     2803     2856     2901     2941     2975     2995 
    3011     3032     3042     3040     3034     3024     3002     2979 
    2959     2930     2895     2862     2829     2790     2751     2717 
    2682     2640     2600     2563     2524     2477     2428     2388 
    2344     2293     2239     2193     2143     2087     2034     1984 
    1933     1877     1821     1771     1719     1658     1601     1549 
    1495     1431     1367     1308     1248     1185     1120     1053 
     986      923      857      788      723      661      599      545 
     493      444      398      357      324      297      276      261 
     251      246      248      256      270      291      315      344 
     380      415      459      506      553      608      672      724 
     773      837      899      955     1015     1073     1121     1175 
    1235     1289     1343     1394     1440     1490     1543     1593 
    1642     1694     1744     1799     1852     1903     1960     2020 
    2077     2133     2188     2241     2293     2344     2393     2435 
    2467     2494     2517     2532     2536     2533     2525     2506 
    2479     2440     2390     2335     2270     2192     2107     2012 
    1904     1788     1665     1539     1398     1243     1084      927 
     762      589      413      229       44     -139     -326     -521 
    -714     -907    -1105    -1300    -1485    -1671    -1863    -2049 
   -2231    -2412    -2592    -2767    -2937    -3107    -3277    -3443 
   -3607    -3767    -3925    -4074    -4217    -4364    -4510    -4642 
   -4768    -4900    -5027    -5146    -5263    -5377    -5485    -5587 
   -5692    -5792    -5880    -5962    -6046    -6120    -6193    -6264 
   -6320    -6376    -6426    -6465    -6505    -6540    -6566    -6590 
   -6606    -6615    -6617    -6620    -6623    -6619    -6606    -6598 
   -6586    -6566    -6546    -6525    -6500    -6467    -6435    -6399 
   -6356    -6311    -6264    -6214    -6156    -6092    -6031    -5965 
   -5890    -5810    -5729    -5645    -5557    -5467    -5373    -5273 
   -5174    -5074    -4974    -4873    -4766    -4661    -4557    -4450 
   -4338    -4230    -4128    -4020    -3909    -3801    -3692    -3584 
   -3474    -3364    -3253    -3142    -3028    -2914    -2805    -2687 
   -2563    -2444    -2330    -2205    -2074    -1949    -1826    -1695 
   -1560    -1431    -1301    -1167    -1023     -880     -747     -610 
    -467     -329     -195      -49       94      225      357      499 
     635      761      892     1026     1148     1269     1391     1509 
    1628     1741     1844     1939     2042     2144     2236     2330 
    2421     2501     2574     2651     2721     2790     2860     2924 
    2980     3036     3087     3141     3196     3244     3288     3331 
    3365     3402     3440     3472     3492     3515     3543     3566 
    3572     3569     3574     3585     3584     3572     3569     3561 
    3532     3503     3483     3456     3418     3376     3333     3284 
    3225     3164     3107     3046     2972     2901     2840     2770 
    2683     2609     2540     2454     2367     2292     2208     2118 
    2037     1954     1859     1772     1694     1605     1514     1439 
    1364     1281     1204     1142     1077     1000      929      872 
     820      761      699      650      610      564      518      486 
     457      427      409      395      376      365      364      360 
     359      364      367      367      378      387      386      386 
     396      400      396      395      390      375      361      349 
     326      292      257      221      180      136       86       31 
     -29      -90     -152     -222     -301     -375     -446     -526 
    -616     -712     -805     -893     -987    -1084    -1175    -1275 
   -1381    -1472    -1564    -1667    -1767    -1859    -1958    -2062 
   -2157    -2247    -2343    -2442    -2546    -2646    -2737    -2832 
   -2932    -3028    -3123    -3222    -3315    -3402    -3492    -3585 
   -3673    -3757    -3842    -3928    -4008    -4085    -4162    -4233 
   -4301    -4364    -4426    -4486    -4545    -4604    -4657    -4710 
   -4764    -4812    -4858    -4908    -4956    -5005    -5060    -5111 
   -5157    -5209    -5267    -5316    -5363    -5420    -5478    -5530 
   -5589    -5645    -5694    -5746    -5800    -5849    -5902    -5954 
   -5991    -6029    -6079    -6124    -6157    -6186    -6224    -6259 
   -6282    -6308    -6340    -6363    -6382    -6408    -6436    -6454 
   -6469    -6494    -6517    -6531    -6543    -6563    -6578    -6582 
   -6590    -6601    -6600    -6592    -6592    -6592    -6577    -6558 
   -6543    -6523    -6497    -6477    -6448    -6408    -6370    -6340 
   -6300    -6247    -6197    -6146    -6084    -6019    -5952    -5872 
   -5787    -5699    -5601    -5494    -5389    -5273    -5144    -5019 
   -4889    -4746    -4602    -4453    -4294    -4132    -3973    -3807 
   -3636    -3465    -3289    -3109    -2934    -2759    -2579    -2401 
   -2226    -2053    -1880    -1703    -1530    -1360    -1183    -1012 
    -846     -681     -517     -351     -186      -23      140      298 
     446      599      750      895     1038     1178     1314     1447 
    1575     1701     1825     1945     2061     2170     2276     2381 
    2486     2583     2673     2759     2844     2924     2995     3063 
    3132     3199     3256     3303     3352     3403     3443     3473 
    3511     3553     3572     3589     3612     3627     3628     3634 
    3638     3628     3608     3588     3565     3537     3507     3469 
    3423     3372     3315     3260     3202     3134     3057     2979 
    2903     2828     2745     2656     2567     2481     2394     2301 
    2212     2123     2029     1938     1852     1760     1669     1584 
    1493     1401     1314     1233     1147     1059      978      896 
     810      730      652      568      486      405      325      243 
     156       75       -4      -89     -176     -263     -351     -434 
    -522     -612     -700     -781     -866     -955    -1044    -1129 
   -1215    -1297    -1374    -1451    -1530    -1610    -1686    -1755 
   -1826    -1902    -1975    -2045    -2114    -2188    -2261    -2324 
   -2389    -2459    -2531    -2600    -2668    -2737    -2808    -2876 
   -2945    -3014    -3082    -3149    -3218    -3284    -3349    -3411 
   -3469    -3528    -3588    -3642    -3692    -3743    -3790    -3834 
   -3873    -3909    -3944    -3978    -4005    -4025    -4047    -4068 
   -4082    -4091    -4105    -4110    -4104    -4102    -4098    -4083 
   -4067    -4050    -4028    -4001    -3970    -3937    -3904    -3865 
   -3821    -3776    -3736    -3692    -3640    -3593    -3549    -3497 
   -3449    -3407    -3362    -3316    -3284    -3248    -3207    -3177 
   -3152    -3127    -3109    -3088    -3076    -3073    -3065    -3060 
   -3067    -3073    -3078    -3090    -3109    -3130    -3150    -3175 
   -3206    -3235    -3258    -3289    -3329    -3362    -3391    -3423 
   -3458    -3492    -3524    -3553    -3585    -3622    -3657    -3689 
   -3723    -3761    -3796    -3828    -3867    -3909    -3940    -3971 
   -4013    -4051    -4083    -4120    -4155    -4185    -4220    -4253 
   -4283    -4310    -4333    -4356    -4382    -4405    -4418    -4429 
   -4441    -4455    -4464    -4473    -4475    -4469    -4467    -4467 
   -4461    -4449    -4440    -4429    -4411    -4395    -4379    -4355 
   -4329    -4305    -4276    -4248    -4220    -4182    -4139    -4101 
   -4059    -4013    -3970    -3923    -3865    -3808    -3755    -3699 
   -3634    -3570    -3505    -3437    -3366    -3295    -3221    -3146 
   -3065    -2979    -2895    -2814    -2727    -2635    -2543    -2451 
   -2353    -2257    -2165    -2068    -1964    -1859    -1757    -1655 
   -1553    -1447    -1337    -1236    -1135    -1026     -919     -818 
    -718     -615     -514     -417     -318     -221     -128      -35 
      62      152      240      330      421      504      594      684 
     762      838      923     1007     1084     1162     1240     1316 
    1393     1464     1533     1610     1683     1744     1810     1885 
    1949     2006     2069     2133     2187     2242     2301     2350 
    2397     2444     2484     2520     2558     2584     2612     2643 
    2664     2677     2693     2713     2721     2728     2737     2747 
    2755     2763     2774     2783     2792     2802     2808     2816 
    2833     2848     2852     2863     2875     2879     2886     2902 
    2907     2905     2910     2914     2907     2902     2896     2887 
    2878     2867     2848     2822     2798     2778     2755     2724 
    2687     2651     2610     2562     2508     2455     2401     2338 
    2269     2204     2134     2052     1966     1888     1799     1702 
    1609     1509     1399     1287     1174     1053      932      808 
     677      542      407      270      126      -14     -155     -302 
    -453     -602     -750     -897    -1043    -1193    -1345    -1490 
   -1632    -1784    -1927    -2062    -2204    -2342    -2467    -2594 
   -2729    -2853    -2967    -3086    -3200    -3304    -3410    -3511 
   -3603    -3693    -3785    -3867    -3947    -4027    -4099    -4166 
   -4228    -4291    -4352    -4409    -4464    -4517    -4563    -4603 
   -4648    -4698    -4743    -4784    -4826    -4866    -4905    -4947 
   -4985    -5023    -5059    -5096    -5131    -5159    -5186    -5212 
   -5235    -5258    -5275    -5283    -5289    -5294    -5296    -5287 
   -5273    -5258    -5240    -5217    -5185    -5146    -5107    -5066 
   -5020    -4965    -4907    -4854    -4800    -4737    -4675    -4617 
   -4557    -4494    -4436    -4382    -4326    -4271    -4220    -4167 
   -4121    -4081    -4035    -3993    -3958    -3920    -3886    -3858 
   -3832    -3807    -3781    -3761    -3747    -3731    -3716    -3709 
   -3700    -3690    -3686    -3678    -3676    -3676    -3666    -3659 
   -3661    -3658    -3649    -3646    -3645    -3631    -3622    -3618 
   -3605    -3586    -3572    -3558    -3538    -3515    -3492    -3468 
   -3440    -3415    -3384    -3352    -3321    -3288    -3258    -3225 
   -3180    -3144    -3109    -3061    -3013    -2972    -2925    -2870 
   -2813    -2759    -2704    -2640    -2575    -2516    -2455    -2390 
   -2324    -2258    -2191    -2126    -2060    -1987    -1917    -1844 
   -1764    -1688    -1610    -1518    -1431    -1344    -1248    -1147 
   -1046     -942     -832     -715     -600     -486     -360     -228 
     -99       29      166      303      442      585      726      868 
    1015     1166     1312     1457     1606     1755     1902     2053 
    2199     2342     2486     2629     2770     2906     3038     3168 
    3298     3423     3544     3665     3781     3890     4003     4116 
    4214     4311     4411     4502     4588     4673     4754     4824 
    4891     4955     5012     5060     5103     5139     5169     5190 
    5202     5208     5211     5206     5190     5166     5140     5100 
    5046     4988     4927     4858     4776     4685     4594     4496 
    4390     4275     4155     4033     3902     3765     3624     3485 
    3342     3194     3040     2886     2729     2570     2412     2254 
    2093     1929     1767     1606     1448     1289     1128      970 
     815      661      506      351      197       43     -108     -256 
    -407     -558     -708     -859    -1004    -1147    -1296    -1445 
   -1590    -1729    -1877    -2025    -2165    -2309    -2463    -2605 
   -2744    -2890    -3030    -3171    -3314    -3449    -3581    -3719 
   -3846    -3964    -4085    -4205    -4317    -4423    -4526    -4622 
   -4712    -4799    -4880    -4955    -5024    -5085    -5140    -5190 
   -5238    -5281    -5317    -5350    -5377    -5401    -5424    -5445 
   -5458    -5472    -5483    -5487    -5491    -5495    -5495    -5491 
   -5483    -5478    -5468    -5454    -5439    -5425    -5409    -5387 
   -5363    -5346    -5325    -5296    -5263    -5233    -5200    -5162 
   -5120    -5076    -5031    -4978    -4923    -4872    -4814    -4747 
   -4680    -4614    -4537    -4460    -4383    -4298    -4212    -4121 
   -4027    -3932    -3835    -3730    -3623    -3519    -3411    -3298 
   -3184    -3069    -2952    -2836    -2717    -2594    -2475    -2358 
   -2230    -2106    -1992    -1875    -1749    -1630    -1516    -1401 
   -1286    -1173    -1063     -954     -845     -739     -639     -542 
    -444     -348     -259     -168      -78        5       83      162 
     240      314      383      450      515      575      634      691 
     739      785      835      877      912      950      984     1011 
    1036     1059     1078     1093     1107     1116     1121     1120 
    1117     1116     1111     1097     1084     1065     1043     1023 
    1000      974      949      919      881      846      818      785 
     749      711      677      645      608      571      540      514 
     484      454      427      403      380      357      340      322 
     302      280      263      251      236      212      195      184 
     167      144      128      109       86       63       36        4 
     -31      -60      -94     -139     -184     -230     -280     -332 
    -383     -444     -503     -556     -618     -685     -741     -800 
    -870     -936     -997    -1060    -1123    -1182    -1247    -1312 
   -1372    -1435    -1497    -1556    -1615    -1672    -1733    -1794 
   -1850    -1907    -1962    -2015    -2076    -2134    -2188    -2241 
   -2289    -2335    -2386    -2436    -2477    -2513    -2554    -2592 
   -2620    -2647    -2675    -2700    -2713    -2727    -2740    -2748 
   -2744    -2743    -2743    -2733    -2725    -2718    -2695    -2668 
   -2651    -2633    -2605    -2579    -2556    -2533    -2505    -2471 
   -2436    -2412    -2393    -2366    -2336    -2309    -2278    -2251 
   -2232    -2215    -2195    -2178    -2168    -2155    -2138    -2120 
   -2116    -2118    -2110    -2104    -2107    -2114    -2111    -2115 
   -2126    -2138    -2147    -2158    -2162    -2166    -2176    -2187 
   -2204    -2224    -2236    -2238    -2243    -2251    -2257    -2259 
   -2265    -2266    -2261    -2251    -2245    -2241    -2234    -2220 
   -2207    -2196    -2184    -2162    -2144    -2137    -2123    -2101 
   -2091    -2085    -2069    -2053    -2046    -2041    -2033    -2026 
   -2026    -2025    -2016    -2012    -2012    -2012    -2010    -2004 
   -2001    -1999    -1996    -1996    -1991    -1975    -1964    -1962 
   -1961    -1952    -1941    -1933    -1930    -1925    -1915    -1908 
   -1907    -1907    -1904    -1900    -1902    -1903    -1903    -1910 
   -1919    -1922    -1921    -1923    -1935    -1949    -1953    -1949 
   -1956    -1966    -1972    -1980    -1989    -1992    -1992    -2000 
   -2015    -2018    -2015    -2019    -2025    -2026    -2020    -2016 
   -2019    -2016    -2010    -2004    -1993    -1980    -1966    -1946 
   -1927    -1908    -1880    -1844    -1811    -1786    -1752    -1709 
   -1671    -1641    -1601    -1551    -1502    -1455    -1412    -1370 
   -1323    -1275    -1225    -1177    -1133    -1092    -1043     -989 
    -935     -889     -847     -796     -741     -693     -652     -610 
    -564     -514     -468     -425     -378     -332     -289     -244 
    -195     -148     -105      -59       -9       43       89      131 
     186      240      284      333      388      433      477      531 
     581      621      664      708      749      789      830      868 
     903      936      961      980      999     1021     1046     1055 
    1055     1058     1058     1055     1051     1039     1020      996 
     969      942      908      868      824      781      728      673 
     616      556      493      432      363      287      206      125 
      45      -36     -121     -210     -301     -394     -486     -576 
    -670     -770     -873     -974    -1075    -1177    -1279    -1385 
   -1490    -1597    -1705    -1807    -1908    -2015    -2121    -2220 
   -2317    -2420    -2521    -2610    -2700    -2792    -2880    -2964 
   -3048    -3123    -3191    -3265    -3338    -3397    -3450    -3507 
   -3555    -3600    -3646    -3684    -3713    -3747    -3781    -3805 
   -3823    -3839    -3852    -3863    -3866    -3867    -3870    -3861 
   -3848    -3840    -3831    -3807    -3776    -3753    -3731    -3699 
   -3653    -3612    -3581    -3543    -3495    -3447    -3404    -3357 
   -3306    -3257    -3210    -3161    -3109    -3057    -3013    -2967 
   -2920    -2867    -2818    -2778    -2732    -2683    -2644    -2605 
   -2565    -2531    -2493    -2455    -2425    -2394    -2361    -2331 
   -2304    -2274    -2250    -2234    -2220    -2211    -2201    -2192 
