Origin Time       2016/04/16 01:25:00
Lat.              32.753
Long.             130.762
Depth. (km)       12
Mag.              7.3
Station Code      NAR007
Station Lat.      34.2213
Station Long.     135.7369
Station Height(m) 760
Record Time       2016/04/16 01:27:32
Sampling Freq(Hz) 100Hz
Duration Time(s)  60
Dir.              N-S
Scale Factor      7845(gal)/8223790
Max. Acc. (gal)   1.449
Last Correction   2016/04/16 01:27:33
Memo.             
[...]
    4743     4739     4733     4726     4722     4719     4722     4731 
    4746     4762     4779     4793     4804     4812     4812     4807 
    4804     4803     4804     4812     4826     4841     4851     4862 
    4873     4877     4881     4882     4882     4881     4881     4880 
    4878     4877     4873     4872     4874     4878     4882     4891 
    4897     4904     4914     4923     4926     4926     4923     4912 
    4895     4873     4847     4823     4804     4789     4783     4779 
    4774     4772     4773     4780     4791     4801     4818     4838 
    4851     4857     4860     4857     4846     4834     4822     4812 
    4801     4792     4785     4776     4762     4750     4742     4737 
    4733     4731     4729     4723     4719     4712     4704     4699 
    4693     4692     4699     4698     4695     4698     4699     4698 
    4699     4700     4702     4707     4710     4710     4708     4707 
    4710     4718     4726     4738     4747     4752     4753     4756 
    4756     4754     4757     4762     4764     4761     4760     4758 
    4758     4757     4757     4760     4760     4761     4765     4769 
    4776     4784     4791     4793     4795     4791     4787     4784 
    4781     4774     4773     4777     4780     4784     4792     4801 
    4806     4811     4819     4827     4835     4842     4847     4847 
    4843     4828     4807     4780     4752     4723     4700     4683 
    4665     4653     4648     4649     4657     4671     4689     4716 
    4742     4764     4781     4795     4803     4806     4808     4806 
    4795     4787     4779     4765     4753     4745     4742     4745 
    4754     4765     4777     4792     4803     4808     4811     4814 
    4814     4808     4800     4791     4779     4766     4758     4748 
    4741     4739     4745     4748     4752     4758     4765     4769 
    4773     4780     4789     4801     4814     4833     4849     4861 
    4866     4864     4857     4850     4842     4835     4831     4824 
    4820     4816     4811     4808     4806     4800     4793     4784 
    4768     4750     4735     4722     4712     4707     4704     4703 
    4703     4702     4699     4693     4692     4696     4700     4708 
    4722     4737     4748     4761     4769     4774     4776     4774 
    4772     4765     4753     4741     4733     4729     4725     4718 
    4718     4723     4726     4726     4722     4715     4708     4699 
    4689     4687     4687     4689     4693     4699     4704     4710 
    4710     4712     4712     4710     4710     4708     4704     4699 
    4689     4681     4672     4660     4650     4649     4649     4650 
    4654     4657     4657     4657     4657     4658     4664     4676 
    4692     4710     4726     4739     4754     4766     4773     4774 
    4774     4770     4764     4757     4748     4738     4723     4704 
    4687     4672     4656     4641     4631     4621     4610     4600 
    4591     4585     4588     4594     4603     4615     4629     4644 
    4660     4677     4699     4722     4743     4761     4772     4779 
    4781     4783     4783     4780     4779     4776     4769     4764 
    4760     4754     4752     4753     4757     4764     4772     4781 
    4792     4804     4818     4828     4835     4834     4826     4814 
    4800     4783     4769     4764     4762     4765     4768     4766 
    4764     4758     4748     4738     4729     4715     4700     4684 
    4673     4665     4656     4652     4658     4662     4665     4668 
    4668     4666     4661     4649     4642     4634     4623     4617 
    4610     4600     4595     4590     4584     4583     4581     4580 
    4583     4585     4584     4581     4580     4579     4576     4573 
    4577     4584     4592     4606     4619     4630     4642     4650 
    4650     4653     4660     4664     4669     4676     4679     4680 
    4681     4684     4684     4689     4696     4708     4720     4735 
    4753     4769     4779     4784     4787     4787     4785     4783 
    4779     4776     4770     4766     4766     4774     4785     4800 
    4822     4845     4864     4884     4904     4920     4941     4961 
    4977     4992     5001     5003     4997     4988     4976     4963 
    4950     4938     4927     4920     4916     4911     4903     4896 
    4888     4878     4872     4864     4858     4852     4845     4831 
    4814     4797     4779     4761     4746     4734     4725     4718 
    4718     4720     4726     4739     4758     4777     4799     4818 
    4831     4839     4846     4845     4838     4833     4830     4831 
    4834     4835     4843     4850     4845     4839     4837     4830 
    4823     4820     4816     4808     4804     4800     4796     4797 
    4801     4807     4814     4823     4833     4839     4847     4857 
    4862     4870     4878     4884     4885     4885     4881     4872 
    4858     4843     4828     4816     4808     4800     4793     4785 
    4776     4770     4770     4773     4776     4783     4787     4787 
    4784     4777     4765     4753     4743     4735     4727     4723 
    4720     4712     4699     4687     4675     4662     4650     4641 
    4634     4630     4626     4623     4623     4625     4629     4637 
    4648     4660     4673     4688     4703     4718     4730     4738 
    4745     4752     4756     4757     4752     4741     4729     4710 
    4689     4672     4654     4639     4631     4623     4619     4618 
    4615     4612     4612     4617     4626     4642     4660     4677 
    4693     4704     4710     4720     4729     4735     4742     4750 
    4760     4766     4768     4766     4764     4757     4748     4741 
    4734     4730     4729     4730     4730     4731     4737     4743 
    4747     4753     4762     4773     4780     4788     4796     4807 
    4819     4827     4838     4849     4857     4864     4868     4870 
    4870     4866     4861     4855     4845     4837     4833     4830 
    4831     4834     4837     4838     4839     4839     4837     4828 
    4822     4814     4812     4814     4816     4818     4820     4822 
    4823     4826     4830     4841     4850     4854     4861     4864 
    4860     4858     4857     4850     4845     4839     4828     4819 
    4811     4803     4799     4797     4801     4804     4803     4799 
    4795     4789     4783     4777     4773     4765     4758     4748 
    4739     4731     4725     4720     4718     4716     4714     4708 
    4704     4703     4706     4708     4710     4718     4725     4730 
    4735     4738     4738     4738     4738     4739     4741     4741 
    4741     4739     4734     4722     4707     4689     4671     4654 
    4641     4631     4627     4626     4629     4637     4645     4653 
    4665     4680     4695     4710     4725     4731     4737     4739 
    4738     4739     4743     4750     4756     4758     4765     4768 
    4762     4760     4756     4750     4748     4748     4748     4747 
    4741     4733     4722     4708     4699     4696     4695     4698 
    4703     4706     4707     4710     4719     4727     4734     4742 
    4747     4752     4757     4758     4761     4766     4772     4777 
    4784     4788     4788     4788     4788     4788     4793     4801 
    4804     4807     4804     4796     4788     4779     4764     4754 
    4750     4742     4735     4731     4726     4722     4720     4722 
    4729     4738     4753     4766     4774     4783     4789     4791 
    4787     4780     4769     4753     4733     4714     4696     4677 
    4660     4648     4634     4623     4617     4615     4619     4626 
    4633     4642     4649     4652     4654     4660     4665     4669 
    4673     4677     4680     4681     4675     4665     4656     4645 
    4633     4619     4606     4599     4585     4568     4557     4544 
    4530     4519     4510     4499     4487     4473     4467     4460 
    4449     4442     4438     4436     4434     4436     4440     4446 
    4453     4461     4473     4486     4495     4504     4517     4529 
    4537     4537     4535     4534     4535     4541     4552     4568 
    4588     4611     4633     4652     4673     4689     4699     4710 
    4720     4723     4722     4718     4710     4702     4695     4687 
    4684     4684     4687     4695     4704     4716     4730     4745 
    4761     4779     4796     4812     4826     4841     4858     4870 
    4882     4893     4901     4911     4914     4905     4899     4896 
    4885     4878     4876     4873     4876     4881     4885     4889 
    4893     4901     4905     4907     4911     4911     4908     4903 
    4897     4893     4888     4882     4881     4878     4872     4865 
    4858     4851     4847     4847     4849     4855     4866     4876 
    4882     4891     4892     4889     4885     4880     4872     4861 
    4852     4843     4831     4819     4804     4788     4776     4760 
    4742     4729     4712     4695     4681     4669     4656     4644 
    4634     4630     4627     4622     4619     4617     4612     4610 
    4612     4615     4623     4634     4645     4664     4685     4704 
    4720     4733     4746     4764     4777     4791     4808     4826 
    4842     4861     4881     4896     4907     4918     4930     4936 
    4946     4955     4962     4966     4972     4974     4976     4981 
    4986     4994     5007     5019     5030     5039     5044     5044 
    5036     5020     5000     4978     4951     4922     4893     4865 
    4841     4820     4804     4797     4793     4791     4792     4793 
    4795     4797     4799     4795     4791     4784     4777     4766 
    4753     4738     4723     4710     4702     4695     4685     4676 
    4669     4661     4652     4642     4631     4615     4599     4588 
    4575     4561     4554     4552     4550     4548     4548     4550 
    4546     4538     4527     4509     4490     4473     4459     4446 
    4438     4433     4433     4442     4450     4459     4475     4495 
    4514     4537     4561     4584     4606     4627     4648     4661 
    4668     4676     4680     4676     4669     4662     4653     4649 
    4652     4653     4656     4661     4662     4658     4650     4641 
    4633     4622     4612     4606     4598     4587     4573     4560 
    4549     4541     4535     4531     4530     4530     4526     4521 
    4515     4509     4499     4490     4479     4464     4446     4429 
    4415     4401     4390     4384     4379     4375     4372     4368 
    4365     4365     4365     4368     4374     4383     4390     4398 
    4413     4429     4445     4463     4482     4502     4521     4540 
    4560     4577     4595     4612     4625     4630     4633     4634 
    4633     4626     4618     4610     4603     4595     4590     4587 
    4591     4596     4602     4614     4631     4648     4668     4687 
    4699     4710     4720     4730     4738     4748     4758     4768 
    4777     4785     4792     4803     4819     4838     4858     4878 
    4896     4912     4928     4943     4961     4980     4999     5020 
    5044     5070     5098     5131     5162     5200     5239     5268 
    5293     5316     5332     5341     5351     5356     5358     5360 
    5360     5359     5360     5364     5370     5374     5383     5391 
    5395     5401     5406     5410     5413     5410     5406     5405 
    5402     5402     5402     5400     5398     5400     5395     5391 
    5391     5389     5381     5375     5374     5375     5375     5379 
    5389     5398     5404     5412     5420     5421     5422     5422 
    5421     5420     5420     5418     5416     5417     5417     5414 
    5416     5417     5417     5420     5422     5422     5418     5409 
    5401     5389     5377     5373     5370     5366     5368     5374 
    5373     5368     5363     5351     5333     5314     5290     5267 
    5247     5224     5205     5192     5179     5169     5162     5155 
    5148     5142     5131     5120     5107     5093     5081     5063 
    5046     5030     5007     4982     4958     4932     4905     4878 
    4851     4823     4792     4758     4725     4692     4657     4617 
    4575     4534     4494     4455     4415     4375     4337     4302 
    4268     4236     4209     4186     4168     4153     4140     4131 
    4126     4126     4128     4133     4144     4156     4171     4189 
    4205     4220     4232     4243     4247     4251     4256     4256 
    4253     4251     4243     4240     4233     4225     4214     4205 
    4194     4180     4167     4149     4128     4106     4087     4069 
    4055     4041     4027     4010     3997     3986     3975     3967 
    3963     3963     3967     3978     3989     3997     4009     4023 
    4032     4040     4050     4055     4060     4069     4072     4074 
    4078     4078     4079     4087     4093     4091     4095     4106 
    4113     4124     4144     4167     4197     4230     4266     4309 
    4355     4393     4434     4479     4519     4560     4598     4635 
    4675     4710     4747     4783     4812     4839     4866     4887 
    4907     4931     4961     4994     5032     5074     5120     5171 
    5224     5279     5337     5398     5463     5525     5584     5644 
    5702     5756     5810     5867     5921     5972     6021     6064 
    6103     6137     6168     6196     6219     6242     6259     6273 
    6284     6290     6293     6292     6292     6288     6281     6276 
    6270     6265     6262     6262     6265     6268     6270     6276 
    6280     6284     6288     6285     6280     6274     6264     6247 
    6231     6210     6178     6145     6106     6058     6004     5948 
    5892     5838     5787     5740     5691     5647     5606     5563 
    5514     5466     5417     5367     5316     5268     5221     5169 
    5117     5059     4996     4932     4865     4793     4720     4652 
    4584     4519     4459     4401     4348     4301     4255     4212 
    4168     4122     4083     4052     4023     3994     3974     3959 
    3944     3935     3931     3927     3920     3915     3913     3919 
    3927     3939     3955     3975     3998     4027     4060     4102 
    4151     4197     4243     4288     4334     4376     4418     4459 
    4496     4533     4568     4604     4642     4683     4727     4777 
    4830     4878     4923     4969     5007     5035     5059     5078 
    5089     5093     5098     5100     5098     5093     5089     5081 
    5073     5066     5060     5053     5046     5042     5034     5023 
    5016     5008     4996     4989     4982     4973     4962     4950 
    4934     4909     4885     4860     4830     4796     4765     4731 
    4693     4657     4623     4585     4546     4511     4479     4449 
    4421     4393     4371     4349     4327     4307     4288     4270 
    4251     4228     4209     4191     4172     4149     4132     4118 
    4097     4072     4055     4041     4027     4014     4002     3990 
    3979     3965     3951     3939     3929     3920     3912     3908 
    3909     3913     3924     3940     3963     3990     4017     4047 
    4077     4105     4133     4166     4197     4228     4260     4295 
    4333     4374     4414     4457     4506     4557     4606     4661 
    4719     4774     4831     4891     4947     5003     5058     5113 
    5169     5224     5275     5324     5367     5410     5448     5479 
    5509     5537     5562     5580     5598     5620     5637     5648 
    5660     5672     5682     5688     5691     5692     5692     5689 
    5680     5661     5647     5632     5614     5599     5582     5560 
    5541     5518     5487     5460     5437     5413     5387     5363 
    5341     5324     5306     5294     5286     5281     5279     5282 
    5282     5281     5281     5277     5270     5262     5250     5239 
    5231     5217     5201     5192     5181     5169     5161     5150 
    5138     5123     5103     5076     5049     5019     4986     4950 
    4920     4892     4862     4839     4822     4807     4801     4799 
    4795     4796     4797     4796     4799     4801     4804     4810 
    4818     4830     4843     4855     4868     4882     4900     4918 
    4939     4963     4986     5009     5032     5053     5074     5093 
    5115     5136     5150     5162     5182     5201     5221     5247 
    5275     5306     5343     5381     5418     5460     5503     5549 
    5597     5649     5701     5748     5791     5825     5856     5881 
    5902     5922     5931     5938     5946     5949     5949     5948 
    5948     5948     5949     5949     5949     5946     5940     5935 
    5929     5921     5914     5904     5891     5876     5861     5842 
    5819     5790     5756     5722     5688     5648     5606     5567 
    5530     5494     5456     5421     5386     5350     5313     5277 
    5238     5201     5167     5135     5103     5071     5042     5016 
    4993     4970     4951     4938     4923     4914     4903     4892 
    4884     4876     4865     4849     4837     4823     4806     4788 
    4776     4760     4746     4734     4718     4698     4681     4671 
    4665     4660     4649     4642     4642     4641     4644     4652 
    4660     4672     4687     4696     4703     4710     4714     4714 
    4715     4710     4706     4704     4703     4696     4692     4695 
    4698     4700     4706     4712     4720     4730     4741     4753 
    4762     4770     4776     4776     4774     4765     4750     4734 
    4712     4685     4660     4627     4592     4558     4523     4486 
    4449     4414     4376     4336     4297     4256     4215     4176 
    4140     4107     4072     4040     4013     3987     3964     3943 
    3921     3901     3885     3867     3847     3832     3821     3815 
    3813     3821     3836     3851     3871     3896     3921     3947 
    3974     4005     4040     4074     4113     4153     4197     4245 
    4291     4336     4384     4430     4476     4527     4577     4625 
    4675     4725     4769     4818     4865     4908     4955     5005 
    5051     5093     5138     5179     5220     5260     5300     5336 
    5367     5395     5422     5445     5466     5485     5501     5514 
    5529     5544     5556     5570     5582     5593     5601     5605 
    5606     5607     5603     5597     5585     5572     5560     5547 
    5532     5519     5506     5493     5479     5464     5448     5429 
    5412     5390     5366     5341     5317     5293     5268     5244 
    5220     5197     5173     5144     5113     5085     5051     5013 
    4976     4935     4895     4861     4828     4795     4769     4748 
    4725     4699     4680     4662     4644     4623     4604     4585 
    4561     4533     4502     4468     4429     4387     4342     4295 
    4241     4187     4135     4086     4041     4006     3978     3955 
    3943     3937     3936     3940     3950     3963     3974     3986 
    3996     4005     4013     4021     4032     4048     4066     4085 
    4110     4139     4164     4192     4228     4261     4295     4337 
    4378     4415     4455     4490     4523     4554     4581     4606 
    4626     4645     4661     4673     4680     4685     4691     4695 
