Origin Time       2016/04/16 01:25:00
Lat.              32.753
Long.             130.762
Depth. (km)       12
Mag.              7.3
Station Code      NAR007
Station Lat.      34.2213
Station Long.     135.7369
Station Height(m) 760
Record Time       2016/04/16 01:27:32
Sampling Freq(Hz) 100Hz
Duration Time(s)  60
Dir.              E-W
Scale Factor      7845(gal)/8223790
Max. Acc. (gal)   1.224
Last Correction   2016/04/16 01:27:33
Memo.             
[...]
     822      823      818      812      815      818      820      828 
     843      859      876      895      913      927      940      951 
     954      957      957      953      949      942      939      945 
     953      963      984     1008     1030     1051     1069     1085 
    1094     1101     1107     1105     1098     1089     1070     1050 
    1026      999      976      958      936      913      892      873 
     858      851      854      864      877      905      935      962 
     990     1021     1053     1081     1102     1127     1144     1150 
    1154     1155     1147     1136     1128     1116     1101     1080 
    1050     1019      992      967      940      920      908      899 
     896      896      901      912      926      943      959      967 
     972      973      967      959      950      936      919      903 
     885      868      855      849      847      853      864      877 
     885      890      900      903      900      893      892      896 
     899      900      903      908      913      918      922      928 
     934      936      938      934      929      919      901      885 
     872      855      838      823      807      792      776      762 
     751      745      738      735      730      722      715      708 
     702      706      714      720      733      743      750      761 
     774      791      812      838      869      896      919      935 
     945      953      958      957      954      947      938      926 
     911      899      885      872      864      854      845      845 
     846      854      872      895      920      950      980     1003 
    1024     1044     1055     1059     1057     1042     1026     1008 
     986      965      945      929      918      907      896      886 
     881      885      895      903      916      935      955      969 
     984     1004     1020     1035     1048     1065     1085     1101 
    1116     1131     1142     1148     1144     1129     1109     1081 
    1046     1008      974      939      903      876      855      842 
     842      847      861      882      901      919      938      953 
     959      966      973      976      977      977      981      985 
     984      982      985      978      965      953      938      920 
     903      893      888      889      893      895      897      903 
     901      893      882      872      854      838      835      837 
     845      862      884      909      928      942      953      966 
     978      985      994     1011     1023     1030     1039     1044 
    1050     1062     1070     1074     1075     1073     1065     1058 
    1046     1026     1007      987      967      949      935      923 
     916      915      912      911      911      916      926      938 
     953      972      990     1008     1021     1031     1039     1050 
    1059     1069     1081     1090     1102     1117     1132     1147 
    1161     1171     1181     1185     1185     1181     1170     1152 
    1132     1111     1088     1063     1042     1023     1008     1000 
     997      994      996     1003     1011     1020     1032     1043 
    1055     1073     1093     1116     1138     1158     1177     1188 
    1185     1177     1162     1136     1102     1067     1032     1003 
     977      958      945      935      929      926      926      928 
     931      934      938      936      935      935      936      940 
     946      955      967      978      985      980      972      966 
     951      932      923      913      905      903      900      897 
     897      899      901      909      923      935      946      958 
     967      974      981      989      994      999     1004     1007 
    1005     1000      997      986      974      966      953      938 
     924      907      884      861      842      818      792      770 
     743      720      702      687      676      675      679      687 
     700      711      724      741      756      769      783      797 
     811      822      838      858      872      885      899      907 
     913      922      926      927      928      929      934      940 
     946      953      963      974      985      996     1000     1000 
     999      999      992      981      966      949      929      911 
     897      888      877      873      877      881      884      890 
     897      900      903      908      909      909      912      915 
     916      922      934      945      954      966      982      994 
    1000     1009     1016     1020     1028     1038     1042     1048 
    1053     1051     1046     1036     1023     1007      980      954 
     932      905      884      869      858      850      846      846 
     846      849      855      868      886      908      928      955 
     986     1016     1043     1073     1104     1128     1147     1161 
    1167     1165     1152     1133     1115     1093     1071     1053 
    1036     1024     1015     1005      992      976      959      940 
     915      885      857      827      795      767      747      733 
     724      719      719      724      731      737      747      761 
     776      791      804      822      837      842      849      855 
     855      854      857      858      854      851      849      849 
     849      850      851      851      853      853      846      841 
     838      834      830      830      837      847      857      864 
     873      877      877      877      885      892      903      919 
     936      955      970      982      994     1008     1023     1039 
    1053     1063     1065     1059     1044     1030     1007      980 
     959      940      920      907      893      876      862      857 
     851      851      858      864      870      880      889      897 
     903      908      915      920      928      942      958      973 
     984      992      994      987      973      958      947      935 
     922      913      912      909      903      900      900      897 
     897      903      912      920      927      932      938      946 
     951      958      972      987     1004     1017     1026     1035 
    1039     1036     1032     1031     1031     1034     1035     1039 
    1048     1058     1067     1075     1084     1094     1102     1107 
    1112     1109     1102     1100     1093     1085     1077     1070 
    1070     1073     1071     1073     1077     1080     1084     1089 
    1093     1094     1093     1090     1085     1073     1065     1058 
    1050     1042     1038     1035     1034     1036     1042     1047 
    1051     1053     1046     1038     1024     1000      980      959 
     936      915      897      882      870      858      847      842 
     838      834      835      843      854      862      870      880 
     889      901      915      927      938      949      959      969 
     977      985      993     1000     1009     1017     1028     1039 
    1050     1058     1067     1067     1058     1046     1034     1017 
    1000      984      974      972      969      974      986      999 
    1015     1032     1044     1053     1062     1062     1055     1048 
    1035     1012      992      973      947      927      909      895 
     882      873      869      869      874      889      908      922 
     927      931      931      922      909      897      885      874 
     866      858      855      861      864      868      876      888 
     900      909      924      939      945      949      954      949 
     939      932      928      927      929      934      942      955 
     969      980      989      997     1007     1016     1026     1030 
    1030     1030     1030     1030     1034     1038     1038     1036 
    1032     1016      994      976      953      928      913      901 
     892      892      903      918      929      946      958      962 
     961      958      957      953      951      954      962      980 
     999     1013     1028     1044     1055     1058     1055     1051 
    1046     1042     1034     1023     1011      996      978      958 
     942      932      923      920      922      920      920      929 
     940      950      963      977      982      978      973      959 
     936      912      889      870      853      837      820      808 
     799      793      791      795      801      807      816      827 
     834      842      854      861      866      873      877      877 
     873      868      862      849      824      801      780      757 
     738      724      715      712      710      708      715      730 
     747      773      803      831      869      909      946      984 
    1020     1051     1077     1093     1093     1084     1073     1051 
    1026     1012      999      982      967      957      947      936 
     928      923      916      911      901      889      877      873 
     868      862      858      858      858      850      846      847 
     843      841      842      838      835      828      820      811 
     796      781      770      761      757      757      761      766 
     769      770      770      769      767      765      762      764 
     764      760      757      754      751      751      760      769 
     783      803      822      838      851      858      855      854 
     857      853      850      849      843      841      845      845 
     850      866      885      903      926      950      976     1000 
    1028     1060     1102     1146     1189     1236     1278     1314 
    1351     1377     1397     1418     1437     1451     1466     1471 
    1474     1479     1478     1471     1468     1470     1472     1475 
    1480     1479     1474     1466     1456     1444     1435     1426 
    1416     1408     1398     1390     1383     1378     1372     1368 
    1366     1367     1363     1344     1325     1304     1270     1237 
    1205     1174     1147     1119     1090     1065     1042     1016 
     993      969      949      931      912      893      876      858 
     838      816      797      778      760      746      733      720 
     715      712      710      707      702      702      706      706 
     704      704      706      702      700      702      697      696 
     702      706      711      719      720      715      710      704 
     697      692      687      683      680      679      677      683 
     693      710      730      754      784      814      842      876 
     905      938      974     1016     1057     1093     1129     1165 
    1188     1202     1213     1220     1221     1217     1205     1194 
    1181     1162     1143     1125     1105     1085     1069     1058 
    1051     1053     1059     1065     1073     1081     1089     1097 
    1107     1119     1133     1148     1159     1169     1181     1193 
    1206     1227     1250     1271     1298     1323     1343     1362 
    1372     1377     1378     1374     1363     1348     1327     1298 
    1270     1236     1198     1155     1107     1058     1008      955 
     905      857      815      783      754      734      722      714 
     714      715      726      741      751      767      787      803 
     820      827      823      818      803      778      747      706 
     656      608      557      506      456      405      359      321 
     286      257      237      221      210      201      194      187 
     182      174      167      160      155      156      159      160 
     166      171      172      172      171      167      168      174 
     183      199      221      244      270      303      340      382 
     425      469      514      553      581      600      621      637 
     649      658      673      683      683      679      672      665 
     657      650      645      638      637      639      646      665 
     693      727      772      822      870      916      965     1016 
    1065     1115     1163     1208     1252     1294     1331     1362 
    1394     1428     1456     1486     1513     1535     1557     1576 
    1595     1614     1628     1641     1655     1657     1658     1663 
    1661     1661     1663     1661     1658     1656     1651     1647 
    1642     1634     1629     1622     1606     1591     1576     1556 
    1537     1520     1502     1489     1475     1464     1462     1463 
    1468     1482     1501     1520     1537     1556     1574     1590 
    1606     1626     1644     1667     1692     1715     1741     1776 
    1810     1842     1880     1917     1949     1977     1999     2014 
    2019     2019     2014     1996     1972     1941     1900     1850 
    1796     1741     1684     1621     1552     1478     1398     1317 
    1236     1154     1074      997      923      853      784      718 
     656      599      545      499      461      429      402      386 
     386      395      406      419      438      453      463      469 
     471      467      461      453      437      415      390      363 
     332      292      251      206      157      108       60       18 
     -13      -35      -45      -47      -41      -31      -20       -5 
      13       32       47       64       72       81       90       95 
      95       91       81       67       51       25       -2      -32 
     -67     -101     -131     -167     -201     -233     -263     -289 
    -313     -330     -338     -340     -336     -328     -313     -286 
    -252     -217     -176     -135      -93      -49       -8       25 
      60       94      122      151      178      201      224      246 
     266      294      326      355      382      414      446      479 
     514      546      581      619      654      691      731      766 
     803      845      886      929      976     1026     1074     1117 
    1161     1197     1224     1252     1279     1297     1314     1334 
    1351     1364     1377     1386     1395     1405     1414     1426 
    1437     1445     1453     1459     1459     1455     1445     1431 
    1418     1399     1372     1350     1329     1308     1282     1260 
    1244     1227     1208     1188     1167     1152     1143     1133 
    1129     1131     1136     1147     1161     1177     1193     1209 
    1225     1239     1252     1267     1279     1286     1291     1297 
    1289     1275     1264     1251     1230     1213     1201     1193 
    1190     1193     1200     1215     1232     1252     1275     1305 
    1336     1366     1395     1422     1445     1463     1476     1485 
    1485     1480     1476     1466     1456     1449     1440     1436 
    1437     1444     1457     1480     1506     1532     1559     1591 
    1628     1663     1692     1729     1769     1800     1825     1848 
    1865     1873     1873     1867     1852     1830     1803     1773 
    1740     1706     1671     1634     1595     1556     1521     1486 
    1456     1435     1413     1391     1377     1367     1359     1348 
    1336     1324     1310     1294     1271     1243     1212     1171 
    1125     1080     1032      980      927      874      815      751 
     696      643      589      542      506      481      464      454 
     453      456      464      475      488      499      506      508 
     515      518      513      502      488      469      446      419 
     390      357      324      294      266      244      222      207 
     212      228      246      278      324      372      425      483 
     544      604      666      726      777      820      857      880 
     892      899      896      884      872      853      826      795 
     760      724      689      656      623      599      583      571 
     566      576      592      611      638      668      696      722 
     745      760      767      764      753      738      715      683 
     649      615      579      544      514      486      464      446 
     425      415      415      418      429      445      467      503 
     540      575      615      660      702      741      783      820 
     849      872      893      905      911      915      912      905 
     896      889      881      872      866      868      873      884 
     897      915      938      963      993     1028     1063     1102 
    1142     1177     1205     1229     1247     1255     1255     1251 
    1242     1228     1213     1194     1175     1161     1146     1135 
    1128     1127     1138     1154     1173     1201     1237     1273 
    1310     1355     1399     1440     1480     1516     1544     1563 
    1567     1561     1549     1528     1499     1467     1431     1393 
    1348     1308     1267     1223     1183     1147     1105     1067 
    1035     1005      980      954      934      922      912      903 
     897      897      900      903      909      919      929      943 
     957      976     1000     1021     1038     1058     1077     1089 
    1101     1115     1123     1125     1125     1121     1116     1107 
    1093     1085     1075     1065     1059     1057     1053     1047 
    1038     1026     1011      993      970      945      920      892 
     857      818      780      738      689      646      607      564 
     521      481      442      403      368      333      298      268 
     243      220      203      195      189      187      194      203 
     216      232      253      275      298      322      342      359 
     370      379      387      392      391      388      383      372 
     361      348      332      321      309      291      271      252 
     236      222      211      203      201      201      207      224 
     248      275      309      348      383      421      453      483 
     510      530      544      552      556      553      546      532 
     522      511      496      481      467      453      440      425 
     421      422      425      440      459      480      510      540 
     575      615      662      712      762      812      861      903 
     950      999     1043     1090     1142     1188     1229     1277 
    1314     1347     1382     1412     1435     1455     1468     1474 
    1470     1462     1455     1443     1426     1412     1404     1398 
    1389     1383     1385     1390     1398     1413     1429     1451 
    1475     1502     1532     1563     1593     1625     1656     1683 
    1707     1734     1759     1773     1784     1796     1806     1807 
    1803     1800     1802     1798     1792     1790     1787     1780 
    1776     1779     1781     1787     1796     1807     1822     1833 
    1842     1854     1868     1872     1876     1876     1867     1854 
    1838     1814     1790     1767     1741     1717     1694     1675 
    1657     1638     1621     1602     1583     1561     1533     1498 
    1466     1431     1391     1348     1306     1271     1239     1202 
    1169     1143     1120     1094     1070     1050     1028     1000 
     980      962      939      911      882      855      826      797 
     770      741      711      684      657      630      607      585 
     566      553      540      532      529      526      523      523 
     529      540      558      569      579      594      607      618 
