Origin Time       2016/04/16 01:25:00
Lat.              32.753
Long.             130.762
Depth. (km)       12
Mag.              7.3
Station Code      NAR002
Station Lat.      34.6683
Station Long.     135.8352
Station Height(m) 90
Record Time       2016/04/16 01:27:39
Sampling Freq(Hz) 100Hz
Duration Time(s)  148
Dir.              E-W
Scale Factor      7845(gal)/8223790
Max. Acc. (gal)   3.603
Last Correction   2016/04/16 01:27:40
Memo.             
[...]
    1111     1183     1251     1314     1382     1447     1505     1560 
    1617     1672     1722     1773     1819     1861     1906     1944 
    1980     2019     2052     2085     2119     2146     2177     2207 
    2230     2250     2272     2292     2307     2322     2340     2351 
    2357     2363     2366     2359     2349     2338     2327     2308 
    2281     2254     2220     2182     2144     2104     2060     2014 
    1964     1912     1865     1807     1746     1692     1637     1578 
    1522     1464     1404     1343     1282     1224     1166     1107 
    1048      994      942      888      837      788      743      702 
     658      615      573      533      500      468      437      406 
     372      344      324      295      268      244      216      191 
     172      149      125      103       78       55       35       11 
      -5      -27      -51      -74      -93     -116     -140     -157 
    -176     -197     -214     -234     -257     -271     -286     -307 
    -322     -333     -346     -355     -357     -364     -367     -365 
    -363     -357     -351     -342     -332     -322     -311     -297 
    -283     -266     -249     -234     -220     -206     -194     -175 
    -156     -139     -120      -99      -79      -58      -37      -14 
      13       43       71       99      129      159      189      221 
     252      287      321      351      382      411      441      471 
     498      525      553      579      596      612      635      656 
     669      684      697      710      720      727      735      743 
     747      751      758      760      765      773      770      766 
     770      774      773      770      767      770      770      762 
     760      760      757      753      749      741      738      739 
     731      718      715      715      707      696      687      676 
     670      665      653      638      630      622      608      592 
     585      577      564      550      540      529      526      515 
     498      490      484      468      460      454      438      423 
     417      405      391      373      356      344      333      311 
     289      278      263      243      221      205      193      175 
     155      144      131      116      106      102       95       85 
      82       81       76       78       81       79       81       89 
      97       98      103      112      120      125      135      141 
     144      153      164      172      174      174      176      182 
     183      183      183      182      180      180      175      168 
     167      167      162      157      155      151      147      144 
     141      140      141      141      144      144      149      156 
     164      174      186      199      214      229      245      271 
     301      329      353      383      421      459      498      537 
     576      619      665      711      760      805      847      893 
     940      984     1026     1069     1105     1148     1193     1228 
    1258     1291     1328     1359     1389     1418     1451     1480 
    1509     1535     1566     1598     1629     1656     1680     1709 
    1745     1775     1795     1817     1848     1873     1896     1919 
    1941     1964     1989     2004     2012     2034     2053     2056 
    2058     2068     2068     2060     2053     2047     2038     2020 
    1995     1971     1953     1926     1891     1861     1831     1794 
    1750     1707     1668     1630     1584     1535     1490     1439 
    1382     1331     1279     1221     1165     1109     1047      982 
     916      851      787      720      649      579      508      433 
     361      291      218      147       76        0      -71     -133 
    -198     -268     -329     -388     -451     -506     -552     -604 
    -656     -699     -734     -773     -810     -841     -866     -892 
    -911     -926     -940     -951     -953     -953     -955     -953 
    -942     -932     -922     -900     -880     -861     -834     -804 
    -778     -747     -707     -672     -635     -592     -552     -513 
    -469     -423     -379     -336     -289     -248     -209     -166 
    -122      -86      -52      -18       11       41       63       83 
     103      120      128      135      135      129      129      128 
     110       91       76       49       21       -2      -35      -76 
    -114     -149     -189     -236     -284     -329     -373     -423 
    -477     -535     -592     -642     -697     -758     -818     -873 
    -928     -985    -1038    -1093    -1151    -1200    -1250    -1304 
   -1354    -1397    -1439    -1485    -1528    -1564    -1601    -1640 
   -1677    -1713    -1749    -1784    -1817    -1852    -1890    -1919 
   -1949    -1991    -2031    -2062    -2091    -2126    -2166    -2200 
   -2228    -2262    -2295    -2319    -2347    -2378    -2403    -2424 
   -2448    -2466    -2479    -2497    -2509    -2513    -2521    -2532 
   -2536    -2529    -2524    -2519    -2509    -2498    -2481    -2454 
   -2431    -2415    -2388    -2350    -2319    -2286    -2245    -2207 
   -2172    -2126    -2079    -2037    -1993    -1944    -1895    -1848 
   -1798    -1746    -1694    -1640    -1586    -1528    -1478    -1428 
   -1370    -1308    -1250    -1196    -1143    -1081    -1015     -953 
    -890     -828     -765     -697     -630     -565     -495     -421 
    -356     -291     -216     -140      -72        0       72      136 
     202      272      340      406      472      533      595      658 
     722      783      843      903      962     1020     1080     1136 
    1189     1247     1312     1368     1416     1468     1532     1584 
    1630     1680     1732     1781     1829     1872     1914     1958 
    2004     2042     2079     2120     2165     2204     2231     2255 
    2297     2342     2369     2390     2423     2455     2484     2512 
    2536     2559     2589     2616     2633     2654     2675     2690 
    2704     2724     2736     2743     2748     2754     2754     2749 
    2745     2740     2728     2713     2695     2671     2648     2627 
    2597     2560     2525     2488     2444     2401     2354     2305 
    2261     2208     2154     2100     2045     1988     1930     1876 
    1814     1749     1687     1624     1559     1497     1431     1360 
    1289     1220     1154     1084     1009      936      866      792 
     718      645      577      504      425      351      280      210 
     135       56      -11      -78     -155     -229     -295     -364 
    -434     -498     -561     -623     -684     -747     -800     -846 
    -903     -953     -987    -1032    -1081    -1119    -1144    -1178 
   -1216    -1243    -1263    -1287    -1312    -1332    -1355    -1375 
   -1390    -1405    -1422    -1435    -1455    -1474    -1480    -1490 
   -1505    -1518    -1530    -1545    -1554    -1563    -1576    -1597 
   -1614    -1624    -1637    -1657    -1675    -1695    -1714    -1728 
   -1745    -1768    -1786    -1803    -1822    -1833    -1841    -1856 
   -1871    -1876    -1883    -1891    -1891    -1884    -1884    -1881 
   -1868    -1856    -1849    -1837    -1817    -1799    -1783    -1760 
   -1737    -1711    -1680    -1648    -1617    -1587    -1551    -1507 
   -1470    -1428    -1383    -1343    -1301    -1256    -1213    -1167 
   -1120    -1074    -1034     -990     -942     -895     -853     -814 
    -773     -724     -679     -642     -606     -572     -537     -492 
    -449     -419     -386     -344     -306     -272     -234     -195 
    -160     -125      -83      -41       -4       37       75      110 
     155      202      238      276      322      365      406      453 
     499      542      594      645      695      745      792      845 
     901      955     1005     1059     1113     1171     1235     1286 
    1334     1397     1459     1512     1564     1620     1675     1726 
    1777     1829     1878     1926     1966     2010     2053     2100 
    2141     2177     2215     2257     2290     2319     2355     2396 
    2431     2458     2492     2527     2558     2596     2632     2659 
    2693     2735     2772     2802     2836     2880     2922     2951 
    2986     3030     3063     3092     3129     3160     3188     3221 
    3246     3264     3284     3303     3317     3329     3333     3335 
    3336     3335     3333     3323     3308     3292     3272     3249 
    3219     3187     3152     3118     3076     3030     2986     2937 
    2882     2822     2763     2706     2647     2583     2515     2442 
    2376     2307     2238     2173     2104     2030     1961     1894 
    1826     1767     1705     1634     1568     1516     1462     1401 
    1344     1287     1232     1183     1138     1086     1035      986 
     940      893      846      800      756      715      675      626 
     581      546      506      469      429      391      361      330 
     294      265      245      220      189      163      143      126 
     106       83       64       49       37       28       11       -8 
     -13      -20      -37      -51      -56      -63      -70      -81 
     -95     -103     -106     -117     -129     -131     -137     -148 
    -152     -153     -166     -174     -175     -178     -191     -201 
    -201     -202     -214     -222     -221     -224     -230     -236 
    -243     -248     -253     -261     -270     -282     -295     -305 
    -318     -332     -344     -365     -387     -399     -413     -438 
    -464     -484     -502     -523     -548     -572     -598     -619 
    -643     -675     -704     -723     -747     -785     -820     -846 
    -881     -927     -963     -990    -1021    -1060    -1107    -1147 
   -1181    -1219    -1258    -1298    -1337    -1367    -1395    -1435 
   -1471    -1494    -1517    -1547    -1570    -1584    -1599    -1618 
   -1632    -1640    -1647    -1651    -1648    -1647    -1648    -1644 
   -1632    -1621    -1611    -1599    -1582    -1566    -1549    -1530 
   -1509    -1482    -1453    -1431    -1405    -1370    -1334    -1304 
   -1269    -1228    -1183    -1140    -1098    -1055    -1003     -946 
    -896     -847     -787     -723     -665     -608     -540     -464 
    -398     -336     -266     -191     -112      -37       37      110 
     186      268      349      421      502      591      672      753 
     838      920     1000     1086     1169     1254     1341     1425 
    1507     1587     1667     1755     1841     1919     1995     2074 
    2151     2227     2303     2374     2447     2523     2589     2652 
    2724     2790     2841     2894     2953     3009     3055     3094 
    3133     3176     3208     3232     3258     3281     3298     3310 
    3316     3319     3322     3319     3308     3298     3284     3258 
    3237     3223     3200     3165     3133     3106     3071     3028 
    2986     2951     2909     2857     2806     2758     2708     2658 
    2606     2548     2490     2439     2384     2319     2258     2205 
    2144     2077     2011     1941     1872     1806     1737     1667 
    1591     1513     1440     1364     1281     1201     1123     1043 
     967      884      795      712      638      562      473      383 
     306      228      143       63       -9      -85     -166     -246 
    -324     -396     -468     -532     -595     -661     -730     -799 
    -859     -907     -955    -1015    -1065    -1117    -1174    -1220 
   -1259    -1304    -1354    -1401    -1444    -1486    -1520    -1547 
   -1583    -1634    -1676    -1701    -1723    -1760    -1796    -1826 
   -1856    -1888    -1919    -1952    -1984    -2007    -2027    -2057 
   -2100    -2139    -2155    -2170    -2207    -2243    -2273    -2299 
   -2317    -2343    -2374    -2400    -2423    -2444    -2470    -2498 
   -2515    -2519    -2533    -2559    -2577    -2594    -2612    -2621 
   -2623    -2628    -2646    -2664    -2673    -2674    -2674    -2678 
   -2685    -2690    -2694    -2700    -2704    -2695    -2686    -2687 
   -2695    -2702    -2701    -2691    -2678    -2666    -2658    -2658 
   -2654    -2635    -2613    -2600    -2578    -2554    -2539    -2528 
   -2502    -2467    -2439    -2415    -2385    -2358    -2331    -2293 
   -2250    -2209    -2169    -2130    -2096    -2056    -2008    -1956 
   -1892    -1826    -1783    -1749    -1696    -1625    -1549    -1482 
   -1424    -1367    -1302    -1232    -1155    -1077    -1009     -942 
    -862     -785     -719     -648     -564     -477     -399     -330 
    -256     -175      -90       -2       83      164      237      307 
     379      460      553      639      706      762      835      922 
     999     1053     1107     1171     1240     1308     1366     1417 
    1468     1521     1576     1630     1679     1729     1783     1830 
    1872     1917     1965     2011     2057     2106     2150     2187 
    2220     2263     2316     2359     2397     2430     2469     2508 
    2542     2583     2631     2666     2688     2718     2759     2797 
    2825     2863     2906     2938     2961     2994     3034     3069 
    3106     3149     3186     3213     3246     3291     3335     3375 
    3411     3442     3481     3527     3565     3601     3642     3685 
    3726     3757     3788     3821     3859     3898     3927     3946 
    3969     3993     4009     4021     4039     4052     4055     4059 
    4062     4059     4050     4036     4032     4031     4013     3977 
    3942     3915     3890     3861     3824     3780     3727     3665 
    3611     3574     3526     3451     3373     3303     3230     3152 
    3079     3006     2921     2835     2747     2655     2560     2469 
    2380     2285     2184     2084     1985     1883     1784     1684 
    1579     1476     1374     1264     1156     1055      954      849 
     743      639      533      425      326      237      135       28 
     -65     -164     -270     -361     -450     -550     -645     -727 
    -816     -912    -1000    -1081    -1167    -1246    -1323    -1405 
   -1489    -1563    -1629    -1691    -1761    -1838    -1907    -1962 
   -2016    -2073    -2128    -2182    -2232    -2281    -2331    -2376 
   -2415    -2455    -2492    -2527    -2565    -2600    -2625    -2650 
   -2668    -2685    -2708    -2733    -2749    -2754    -2754    -2758 
   -2764    -2776    -2787    -2778    -2758    -2743    -2740    -2736 
   -2721    -2712    -2695    -2666    -2640    -2619    -2587    -2562 
   -2548    -2527    -2484    -2436    -2404    -2374    -2346    -2317 
   -2276    -2230    -2189    -2153    -2119    -2085    -2050    -2007 
   -1961    -1921    -1880    -1845    -1818    -1786    -1737    -1683 
   -1642    -1606    -1567    -1533    -1505    -1453    -1391    -1345 
   -1308    -1270    -1227    -1179    -1127    -1069    -1015     -967 
    -919     -870     -823     -762     -691     -638     -595     -542 
    -486     -427     -363     -303     -252     -195     -136      -87 
     -36       29       99      159      209      252      303      364 
     430      488      531      572      622      677      735      787 
     827      866      915      959      994     1039     1088     1117 
    1147     1181     1208     1246     1282     1301     1321     1352 
    1374     1389     1409     1426     1443     1462     1472     1479 
    1490     1501     1512     1517     1520     1522     1524     1524 
    1528     1532     1528     1524     1521     1516     1514     1509 
    1503     1502     1502     1490     1476     1476     1482     1476 
    1463     1456     1460     1464     1460     1453     1453     1453 
    1453     1460     1460     1457     1466     1472     1466     1463 
    1470     1474     1471     1466     1459     1459     1466     1463 
    1453     1448     1443     1437     1435     1431     1424     1420 
    1414     1399     1386     1382     1381     1374     1363     1348 
    1334     1325     1317     1305     1289     1269     1246     1227 
    1217     1204     1174     1142     1119     1096     1063     1032 
    1007      977      943      909      872      828      792      765 
     731      683      635      589      538      496      460      407 
     356      313      255      197      149       98       44       -5 
     -58     -116     -180     -233     -272     -319     -382     -441 
    -498     -549     -592     -635     -688     -746     -797     -835 
    -874     -920     -961    -1003    -1047    -1080    -1112    -1147 
   -1177    -1206    -1246    -1277    -1293    -1308    -1333    -1355 
   -1374    -1395    -1413    -1425    -1435    -1441    -1452    -1466 
   -1474    -1471    -1468    -1474    -1479    -1471    -1466    -1467 
   -1463    -1452    -1440    -1424    -1408    -1395    -1379    -1362 
   -1343    -1325    -1306    -1278    -1243    -1219    -1196    -1165 
   -1133    -1104    -1069    -1034    -1003     -969     -936     -907 
    -870     -822     -780     -756     -727     -688     -653     -616 
    -575     -537     -504     -475     -445     -406     -360     -321 
    -289     -257     -228     -193     -149     -108      -71      -31 
      13       47       83      128      170      211      249      276 
     314      363      399      429      464      499      530      561 
     592      619      642      665      692      719      743      764 
     780      796      815      834      849      859      866      874 
     880      885      897      905      895      884      890      893 
     880      868      858      846      838      835      824      801 
     781      772      761      749      738      722      702      696 
     684      669      664      657      645      634      625      615 
     603      599      606      602      587      584      589      589 
     594      603      603      604      618      625      625      638 
     662      676      683      699      715      726      739      758 
     777      793      811      826      835      853      881      903 
     915      928      946      962      985     1009     1023     1036 
    1067     1096     1107     1123     1155     1183     1202     1227 
    1248     1269     1297     1331     1359     1381     1408     1435 
    1459     1491     1520     1541     1574     1605     1625     1648 
    1680     1710     1740     1772     1792     1811     1840     1869 
    1899     1929     1953     1977     2004     2025     2041     2070 
    2107     2130     2147     2163     2178     2200     2232     2265 
    2284     2292     2301     2316     2340     2369     2390     2401 
    2413     2425     2432     2448     2481     2501     2497     2492 
    2502     2515     2523     2531     2533     2528     2521     2513 
    2501     2496     2490     2473     2446     2419     2389     2362 
    2340     2316     2280     2231     2177     2135     2100     2058 
    2008     1956     1895     1833     1788     1744     1691     1634 
    1572     1505     1448     1398     1350     1293     1228     1166 
    1105     1044      993      939      873      811      757      695 
     631      577      521      457      402      351      292      234 
     182      121       62       11      -44     -101     -155     -210 
