Origin Time       2016/04/16 01:25:00
Lat.              32.753
Long.             130.762
Depth. (km)       12
Mag.              7.3
Station Code      NAR003
Station Lat.      34.5169
Station Long.     135.7191
Station Height(m) 68
Record Time       2016/04/16 01:27:34
Sampling Freq(Hz) 100Hz
Duration Time(s)  70
Dir.              E-W
Scale Factor      7845(gal)/8223790
Max. Acc. (gal)   2.496
Last Correction   2016/04/16 01:27:35
Memo.             
[...]
    1729     1781     1831     1876     1921     1966     2010     2053 
    2092     2130     2168     2204     2242     2278     2309     2340 
    2367     2392     2415     2435     2448     2461     2467     2475 
    2485     2490     2492     2490     2481     2469     2457     2439 
    2420     2403     2386     2367     2347     2324     2300     2281 
    2262     2238     2215     2199     2181     2165     2149     2134 
    2119     2106     2092     2079     2062     2045     2030     2012 
    1991     1972     1956     1938     1918     1900     1884     1865 
    1849     1836     1818     1799     1786     1773     1755     1741 
    1733     1725     1715     1707     1702     1698     1692     1692 
    1696     1702     1711     1722     1734     1755     1775     1800 
    1836     1868     1895     1930     1965     1999     2031     2066 
    2102     2138     2168     2199     2231     2255     2281     2303 
    2316     2324     2334     2340     2343     2340     2334     2319 
    2300     2278     2254     2224     2191     2146     2100     2058 
    2006     1945     1891     1836     1767     1698     1632     1566 
    1502     1437     1371     1308     1250     1189     1132     1081 
    1035      992      957      922      890      874      862      842 
     835      838      832      835      851      862      874      892 
     907      928      949      967      987     1007     1019     1030 
    1046     1059     1065     1074     1084     1088     1094     1105 
    1111     1115     1123     1135     1150     1166     1185     1213 
    1240     1270     1308     1350     1391     1437     1489     1547 
    1606     1661     1721     1787     1845     1896     1956     2016 
    2065     2115     2168     2218     2263     2311     2354     2386 
    2424     2467     2505     2542     2577     2605     2631     2654 
    2674     2690     2702     2708     2709     2714     2709     2693 
    2673     2644     2602     2552     2500     2442     2374     2297 
    2219     2133     2034     1937     1838     1733     1622     1513 
    1408     1301     1188     1075      976      877      774      680 
     598      510      423      353      286      212      148      101 
      54        0      -45      -82     -118     -155     -184     -209 
    -232     -251     -259     -265     -274     -274     -271     -265 
    -253     -237     -218     -197     -171     -136      -98      -55 
      -5       37       90      160      233      302      388      481 
     575      684      791      895     1016     1133     1244     1363 
    1483     1606     1734     1863     1993     2116     2230     2344 
    2458     2563     2666     2767     2867     2960     3044     3125 
    3202     3267     3317     3369     3419     3464     3503     3543 
    3577     3599     3623     3653     3673     3686     3709     3736 
    3757     3778     3808     3839     3863     3880     3901     3920 
    3927     3932     3942     3946     3946     3944     3939     3919 
    3890     3852     3805     3750     3688     3624     3555     3474 
    3387     3299     3206     3102     2997     2893     2790     2688 
    2592     2496     2400     2311     2231     2158     2087     2018 
    1958     1907     1859     1819     1787     1755     1728     1706 
    1683     1658     1636     1613     1588     1563     1537     1509 
    1483     1456     1422     1390     1362     1333     1308     1287 
    1270     1255     1248     1251     1254     1259     1277     1301 
    1331     1370     1421     1478     1541     1606     1677     1753 
    1836     1918     1998     2074     2153     2232     2317     2409 
    2493     2563     2633     2700     2759     2821     2882     2934 
    2984     3036     3083     3127     3168     3196     3218     3241 
    3254     3262     3275     3283     3280     3273     3264     3249 
    3234     3218     3194     3171     3152     3126     3096     3071 
    3048     3019     2991     2959     2922     2886     2844     2802 
    2759     2714     2669     2623     2570     2517     2461     2398 
    2336     2274     2207     2143     2084     2018     1949     1883 
    1817     1742     1669     1598     1526     1457     1386     1313 
    1251     1189     1117     1050      985      919      853      788 
     730      672      610      552      499      445      391      344 
     299      255      216      183      151      120       97       78 
      56       37       23       10        1       -4       -8       -2 
       5        4       11       28       40       54       74       94 
     114      140      171      201      233      271      313      355 
     405      461      521      583      652      724      799      877 
     965     1057     1147     1237     1329     1421     1512     1601 
    1692     1781     1861     1939     2019     2093     2155     2215 
    2282     2338     2380     2428     2475     2513     2550     2586 
    2614     2644     2678     2705     2729     2754     2776     2797 
    2816     2826     2839     2849     2853     2852     2852     2848 
    2835     2820     2806     2786     2754     2721     2687     2644 
    2596     2546     2489     2431     2367     2299     2231     2162 
    2085     2004     1926     1845     1755     1669     1588     1501 
    1412     1333     1247     1156     1080     1003      916      837 
     765      693      619      549      483      419      357      291 
     232      178      120       64       21      -29      -90     -133 
    -174     -220     -261     -299     -337     -372     -402     -423 
    -437     -445     -449     -448     -446     -436     -410     -380 
    -348     -305     -256     -202     -144      -86      -17       52 
     118      187      263      341      413      490      575      652 
     726      805      882      958     1039     1125     1209     1294 
    1385     1478     1572     1667     1765     1868     1972     2073 
    2181     2296     2409     2519     2628     2737     2848     2957 
    3064     3171     3271     3368     3464     3554     3628     3697 
    3763     3820     3867     3910     3950     3979     3997     4002 
    4001     3991     3970     3947     3916     3870     3823     3773 
    3719     3659     3593     3527     3464     3393     3326     3260 
    3190     3125     3068     3007     2945     2887     2832     2778 
    2725     2675     2628     2578     2523     2469     2419     2366 
    2309     2259     2205     2146     2091     2033     1975     1923 
    1868     1810     1755     1706     1661     1615     1568     1528 
    1490     1452     1417     1386     1359     1339     1318     1298 
    1281     1264     1250     1240     1239     1239     1239     1242 
    1248     1256     1271     1289     1308     1331     1359     1389 
    1421     1455     1489     1528     1570     1609     1652     1699 
    1745     1792     1844     1898     1956     2026     2091     2157 
    2224     2281     2335     2396     2454     2506     2562     2617 
    2669     2716     2759     2798     2833     2863     2890     2915 
    2947     2974     2999     3028     3048     3065     3090     3109 
    3126     3146     3168     3183     3191     3204     3217     3219 
    3225     3229     3226     3222     3217     3208     3198     3180 
    3163     3144     3122     3102     3073     3038     3005     2971 
    2932     2891     2847     2795     2739     2679     2617     2552 
    2486     2416     2338     2258     2181     2102     2025     1949 
    1869     1794     1718     1636     1560     1493     1420     1350 
    1285     1221     1162     1105     1046      992      939      885 
     837      793      754      718      681      645      607      571 
     535      503      471      441      414      390      369      351 
     328      307      295      280      265      256      252      249 
     252      259      265      276      291      313      340      370 
     402      440      487      542      596      652      715      785 
     851      923     1000     1071     1146     1227     1305     1377 
    1455     1534     1605     1674     1745     1814     1881     1948 
    2014     2081     2147     2211     2281     2347     2407     2467 
    2529     2589     2646     2704     2759     2809     2856     2905 
    2949     2988     3028     3068     3102     3130     3160     3188 
    3211     3232     3250     3268     3284     3299     3311     3322 
    3333     3336     3339     3345     3339     3331     3326     3314 
    3295     3271     3238     3208     3180     3149     3111     3064 
    3007     2947     2884     2821     2752     2681     2613     2542 
    2469     2408     2344     2273     2199     2126     2057     1992 
    1927     1868     1811     1750     1691     1634     1578     1518 
    1464     1420     1374     1327     1286     1240     1194     1156 
    1117     1077     1039     1003      963      924      886      854 
     824      792      762      733      702      677      653      629 
     610      592      579      571      569      569      572      581 
     595      611      639      668      697      738      783      826 
     877      931      985     1042     1100     1165     1230     1296 
    1359     1422     1491     1557     1618     1688     1759     1819 
    1887     1956     2023     2093     2165     2232     2303     2370 
    2438     2502     2565     2629     2693     2755     2821     2887 
    2947     3001     3044     3084     3123     3156     3186     3215 
    3244     3267     3280     3288     3292     3283     3271     3257 
    3234     3213     3198     3173     3138     3103     3060     3009 
    2960     2909     2852     2799     2743     2677     2612     2552 
    2489     2420     2355     2289     2219     2151     2088     2026 
    1964     1903     1849     1795     1737     1682     1632     1586 
    1540     1497     1456     1418     1385     1352     1321     1298 
    1282     1266     1250     1240     1239     1243     1244     1248 
    1262     1277     1293     1312     1336     1360     1385     1408 
    1435     1463     1489     1514     1540     1564     1583     1601 
    1622     1641     1653     1669     1687     1702     1718     1734 
    1748     1763     1786     1813     1836     1858     1887     1915 
    1945     1975     2007     2043     2074     2104     2139     2173 
    2204     2234     2266     2299     2319     2336     2359     2377 
    2385     2397     2411     2412     2408     2405     2398     2389 
    2377     2363     2344     2322     2300     2282     2255     2224 
    2203     2182     2154     2128     2106     2085     2064     2042 
    2025     2008     1991     1979     1969     1961     1954     1946 
    1941     1937     1929     1922     1922     1921     1919     1923 
    1922     1923     1930     1939     1946     1956     1968     1982 
    1995     2003     2015     2033     2049     2058     2070     2095 
    2115     2126     2139     2157     2172     2184     2191     2196 
    2201     2199     2196     2192     2180     2161     2141     2114 
    2081     2042     1998     1956     1907     1845     1788     1729 
    1658     1595     1532     1459     1391     1331     1264     1201 
    1142     1081     1023      973      931      888      850      820 
     795      773      761      747      739      741      741      739 
     747      762      778      793      812      828      845      873 
     905      931      958      990     1019     1051     1088     1117 
    1143     1178     1215     1244     1281     1317     1352     1394 
    1439     1476     1517     1567     1614     1660     1711     1764 
    1813     1868     1930     1988     2046     2111     2176     2238 
    2308     2377     2444     2509     2577     2643     2704     2766 
    2825     2879     2934     2986     3024     3057     3092     3115 
    3130     3145     3149     3144     3136     3123     3102     3071 
    3033     2992     2947     2894     2836     2774     2702     2627 
    2548     2465     2371     2278     2188     2091     1992     1894 
    1790     1687     1586     1483     1382     1285     1185     1090 
     999      905      820      735      650      572      499      427 
     364      301      240      190      144       95       52       21 
     -11      -43      -60      -75      -89      -97     -105     -103 
     -94      -86      -70      -43      -16       13       52       94 
     140      194      256      324      394      468      548      631 
     720      812      911     1012     1116     1223     1331     1440 
    1554     1674     1791     1904     2018     2130     2247     2363 
    2473     2579     2685     2786     2882     2976     3069     3150 
    3225     3300     3369     3423     3473     3520     3558     3586 
    3612     3627     3634     3632     3626     3611     3591     3562 
    3526     3484     3434     3377     3321     3257     3184     3109 
    3030     2940     2847     2754     2656     2554     2446     2338 
    2235     2126     2011     1899     1781     1658     1541     1425 
    1305     1185     1067      954      847      737      625      521 
     413      299      197       99        0      -94     -176     -251 
    -328     -400     -469     -533     -598     -653     -702     -745 
    -774     -792     -800     -807     -804     -788     -773     -753 
    -712     -666     -615     -556     -492     -422     -346     -272 
    -189      -95      -11       70      163      259      344      434 
     526      608      687      767      850      926      997     1069 
    1142     1213     1282     1355     1428     1495     1560     1632 
    1711     1784     1859     1939     2018     2097     2182     2269 
    2353     2434     2516     2598     2679     2762     2837     2906 
    2979     3048     3106     3163     3211     3254     3299     3335 
    3361     3387     3412     3426     3430     3437     3433     3416 
    3403     3385     3355     3326     3298     3258     3211     3167 
    3121     3071     3019     2965     2907     2856     2802     2737 
    2681     2629     2569     2504     2448     2388     2319     2253 
    2191     2120     2046     1977     1906     1825     1744     1669 
    1590     1506     1426     1351     1274     1194     1124     1059 
     990      926      872      822      774      728      691      661 
     635      614      598      587      576      577      585      594 
     607      626      645      670      700      734      778      827 
     877      932      996     1058     1124     1200     1277     1354 
    1433     1517     1602     1688     1773     1857     1939     2026 
    2115     2200     2280     2361     2442     2520     2596     2669 
    2740     2810     2878     2947     3013     3079     3140     3192 
    3244     3298     3346     3391     3430     3462     3492     3516 
    3535     3549     3557     3561     3557     3546     3528     3507 
    3478     3443     3407     3369     3316     3257     3198     3132 
    3063     2995     2920     2837     2758     2677     2589     2504 
    2421     2335     2249     2162     2073     1984     1900     1813 
    1725     1641     1556     1471     1389     1312     1233     1154 
    1081     1011      936      869      810      747      687      630 
     579      533      490      446      410      382      355      330 
     317      306      297      295      303      314      328      348 
     375      406      442      481      523      576      635      691 
     749      818      886      954     1024     1097     1169     1243 
    1323     1398     1472     1548     1625     1702     1777     1854 
    1930     2004     2077     2144     2214     2286     2353     2416 
    2481     2540     2598     2659     2710     2755     2803     2848 
    2882     2915     2949     2976     3002     3021     3033     3044 
    3053     3056     3053     3045     3032     3014     2997     2978 
    2949     2914     2886     2855     2811     2768     2729     2686 
    2636     2587     2540     2494     2447     2397     2349     2304 
    2261     2212     2166     2123     2079     2037     1999     1958 
    1921     1887     1852     1822     1799     1776     1750     1729 
    1714     1696     1683     1672     1661     1655     1647     1640 
    1636     1632     1626     1624     1626     1626     1625     1630 
    1637     1640     1649     1664     1677     1692     1711     1736 
    1761     1788     1819     1854     1884     1912     1946     1980 
    2010     2045     2084     2116     2143     2174     2203     2223 
    2235     2249     2258     2259     2259     2262     2259     2247 
    2228     2208     2178     2144     2116     2085     2047     2008 
    1966     1929     1890     1845     1803     1764     1721     1675 
    1640     1611     1574     1532     1503     1474     1439     1413 
    1391     1368     1348     1328     1310     1296     1282     1277 
    1273     1263     1252     1247     1246     1244     1246     1248 
    1252     1254     1258     1270     1282     1287     1297     1308 
    1317     1327     1334     1344     1351     1358     1374     1387 
    1391     1399     1413     1420     1431     1445     1459     1470 
    1479     1497     1518     1533     1548     1571     1594     1611 
    1632     1658     1679     1699     1721     1741     1761     1781 
    1803     1825     1840     1854     1875     1898     1908     1917 
    1929     1935     1937     1942     1945     1939     1935     1927 
    1911     1896     1880     1858     1837     1804     1765     1728 
    1687     1645     1605     1551     1491     1440     1383     1327 
    1270     1205     1138     1081     1021      955      899      846 
     787      727      672      619      569      525      483      444 
     410      376      349      330      310      289      283      278 
     268      266      278      284      298      325      348      364 
     392      434      468      500      548      599      642      688 
     739      791      845      897      951     1008     1062     1113 
    1169     1225     1282     1340     1402     1460     1516     1575 
    1637     1696     1759     1818     1877     1933     1987     2047 
    2102     2151     2204     2254     2299     2344     2384     2420 
    2455     2484     2505     2525     2542     2552     2565     2575 
    2577     2574     2570     2563     2551     2535     2515     2489 
    2461     2432     2401     2367     2331     2286     2239     2191 
    2138     2087     2033     1972     1914     1858     1800     1742 
    1684     1626     1566     1509     1456     1409     1360     1313 
    1274     1233     1196     1165     1138     1111     1089     1074 
    1063     1057     1053     1053     1062     1071     1084     1105 
    1129     1152     1181     1216     1251     1287     1328     1367 
    1414     1464     1512     1561     1613     1663     1714     1768 
    1819     1872     1927     1980     2030     2081     2134     2185 
    2239     2290     2340     2388     2436     2485     2525     2563 
