Origin Time       2016/04/16 01:25:00
Lat.              32.753
Long.             130.762
Depth. (km)       12
Mag.              7.3
Station Code      NAR001
Station Lat.      34.7154
Station Long.     135.7272
Station Height(m) 150
Record Time       2016/04/16 01:27:39
Sampling Freq(Hz) 100Hz
Duration Time(s)  64
Dir.              N-S
Scale Factor      7845(gal)/8223790
Max. Acc. (gal)   2.087
Last Correction   2016/04/16 01:27:40
Memo.             
[...]
   -2565    -2625    -2687    -2748    -2799    -2848    -2896    -2938 
   -2975    -3010    -3045    -3075    -3102    -3127    -3153    -3179 
   -3198    -3213    -3238    -3258    -3275    -3298    -3323    -3343 
   -3368    -3396    -3423    -3451    -3481    -3510    -3539    -3572 
   -3604    -3630    -3657    -3685    -3707    -3724    -3742    -3762 
   -3778    -3790    -3800    -3811    -3820    -3828    -3834    -3836 
   -3838    -3840    -3840    -3836    -3835    -3834    -3831    -3828 
   -3825    -3821    -3820    -3823    -3827    -3828    -3832    -3834 
   -3828    -3820    -3815    -3805    -3794    -3785    -3771    -3754 
   -3738    -3723    -3705    -3685    -3669    -3646    -3619    -3599 
   -3574    -3544    -3518    -3492    -3461    -3434    -3407    -3379 
   -3355    -3330    -3302    -3279    -3256    -3227    -3200    -3175 
   -3148    -3115    -3080    -3046    -3017    -2986    -2957    -2932 
   -2903    -2878    -2863    -2847    -2826    -2817    -2811    -2801 
   -2797    -2799    -2803    -2813    -2826    -2837    -2851    -2863 
   -2875    -2887    -2894    -2901    -2906    -2905    -2902    -2901 
   -2891    -2876    -2860    -2836    -2808    -2778    -2740    -2704 
   -2664    -2621    -2578    -2539    -2504    -2473    -2447    -2423 
   -2405    -2396    -2389    -2386    -2392    -2400    -2409    -2423 
   -2440    -2459    -2479    -2497    -2515    -2529    -2538    -2546 
   -2560    -2570    -2573    -2574    -2577    -2578    -2579    -2582 
   -2579    -2577    -2574    -2570    -2571    -2575    -2577    -2582 
   -2592    -2598    -2608    -2623    -2644    -2664    -2688    -2718 
   -2749    -2783    -2818    -2852    -2886    -2921    -2953    -2980 
   -3007    -3036    -3060    -3079    -3096    -3114    -3129    -3138 
   -3149    -3161    -3169    -3176    -3183    -3188    -3194    -3200 
   -3210    -3217    -3225    -3235    -3248    -3257    -3269    -3284 
   -3300    -3312    -3321    -3329    -3336    -3345    -3349    -3352 
   -3353    -3354    -3353    -3353    -3353    -3350    -3346    -3345 
   -3345    -3341    -3334    -3326    -3321    -3315    -3306    -3299 
   -3291    -3279    -3268    -3257    -3240    -3222    -3204    -3186 
   -3167    -3142    -3118    -3092    -3065    -3040    -3011    -2982 
   -2955    -2920    -2882    -2853    -2821    -2785    -2754    -2721 
   -2691    -2664    -2644    -2632    -2624    -2616    -2613    -2614 
   -2617    -2629    -2646    -2664    -2688    -2712    -2736    -2768 
   -2805    -2844    -2891    -2940    -2990    -3042    -3102    -3159 
   -3217    -3280    -3339    -3395    -3456    -3516    -3574    -3631 
   -3686    -3738    -3785    -3827    -3865    -3904    -3937    -3964 
   -3989    -4010    -4029    -4041    -4047    -4048    -4050    -4048 
   -4041    -4027    -4005    -3978    -3948    -3915    -3875    -3832 
   -3784    -3738    -3692    -3638    -3586    -3532    -3476    -3424 
   -3372    -3316    -3261    -3203    -3148    -3090    -3036    -2986 
   -2933    -2884    -2843    -2801    -2763    -2737    -2712    -2683 
   -2666    -2655    -2647    -2644    -2643    -2640    -2644    -2647 
   -2646    -2644    -2643    -2640    -2636    -2631    -2625    -2623 
   -2624    -2625    -2627    -2632    -2641    -2648    -2655    -2669 
   -2690    -2708    -2724    -2744    -2767    -2790    -2816    -2844 
   -2870    -2893    -2915    -2940    -2959    -2974    -2986    -2998 
   -3003    -3003    -3002    -3002    -2995    -2986    -2971    -2952 
   -2934    -2911    -2882    -2860    -2830    -2795    -2759    -2720 
   -2682    -2650    -2616    -2583    -2550    -2516    -2490    -2467 
   -2442    -2417    -2397    -2378    -2361    -2347    -2335    -2319 
   -2308    -2299    -2288    -2280    -2276    -2273    -2269    -2266 
   -2266    -2267    -2272    -2276    -2280    -2288    -2296    -2303 
   -2315    -2334    -2350    -2370    -2397    -2425    -2454    -2488 
   -2525    -2567    -2610    -2651    -2698    -2740    -2787    -2837 
   -2880    -2920    -2963    -3003    -3042    -3082    -3118    -3154 
   -3188    -3223    -3256    -3284    -3316    -3349    -3380    -3410 
   -3434    -3457    -3485    -3515    -3538    -3562    -3588    -3608 
   -3626    -3645    -3659    -3670    -3676    -3681    -3684    -3680 
   -3676    -3673    -3662    -3647    -3634    -3619    -3597    -3577 
   -3554    -3526    -3496    -3464    -3429    -3392    -3353    -3312 
   -3271    -3229    -3187    -3148    -3109    -3069    -3030    -2992 
   -2956    -2922    -2886    -2852    -2826    -2799    -2762    -2728 
   -2701    -2671    -2641    -2612    -2579    -2551    -2521    -2493 
   -2463    -2432    -2404    -2378    -2349    -2319    -2297    -2278 
   -2261    -2242    -2224    -2214    -2207    -2199    -2199    -2203 
   -2204    -2208    -2219    -2230    -2245    -2262    -2285    -2316 
   -2349    -2382    -2424    -2470    -2519    -2565    -2616    -2669 
   -2729    -2786    -2841    -2894    -2941    -2986    -3030    -3069 
   -3109    -3146    -3180    -3213    -3244    -3272    -3302    -3329 
   -3355    -3387    -3414    -3443    -3477    -3505    -3534    -3568 
   -3599    -3627    -3657    -3685    -3711    -3732    -3753    -3774 
   -3789    -3796    -3805    -3809    -3805    -3801    -3793    -3774 
   -3754    -3736    -3716    -3686    -3657    -3626    -3592    -3557 
   -3527    -3496    -3459    -3426    -3395    -3357    -3316    -3280 
   -3244    -3203    -3160    -3115    -3068    -3022    -2975    -2925 
   -2879    -2836    -2790    -2744    -2700    -2663    -2629    -2593 
   -2559    -2527    -2496    -2471    -2451    -2430    -2411    -2394 
   -2376    -2362    -2358    -2357    -2354    -2353    -2354    -2361 
   -2370    -2378    -2389    -2398    -2405    -2417    -2431    -2442 
   -2454    -2469    -2479    -2493    -2509    -2520    -2532    -2544 
   -2558    -2573    -2583    -2594    -2609    -2624    -2639    -2651 
   -2663    -2681    -2704    -2721    -2745    -2775    -2801    -2830 
   -2867    -2902    -2937    -2976    -3017    -3056    -3092    -3127 
   -3161    -3192    -3227    -3262    -3289    -3315    -3345    -3373 
   -3402    -3427    -3450    -3477    -3508    -3535    -3561    -3589 
   -3619    -3645    -3674    -3708    -3740    -3767    -3794    -3820 
   -3846    -3873    -3896    -3917    -3940    -3962    -3979    -3997 
   -4020    -4041    -4063    -4086    -4107    -4129    -4153    -4172 
   -4190    -4213    -4230    -4243    -4258    -4271    -4287    -4301 
   -4310    -4321    -4333    -4345    -4357    -4372    -4387    -4402 
   -4415    -4422    -4429    -4440    -4445    -4448    -4450    -4452 
   -4449    -4446    -4445    -4445    -4445    -4445    -4442    -4444 
   -4449    -4455    -4459    -4460    -4464    -4472    -4477    -4484 
   -4495    -4504    -4515    -4526    -4538    -4550    -4564    -4575 
   -4585    -4596    -4606    -4614    -4619    -4623    -4627    -4626 
   -4619    -4610    -4598    -4584    -4567    -4548    -4527    -4506 
   -4482    -4456    -4429    -4402    -4372    -4340    -4310    -4279 
   -4240    -4197    -4158    -4116    -4074    -4033    -3986    -3942 
   -3902    -3859    -3815    -3770    -3726    -3680    -3632    -3582 
   -3537    -3492    -3443    -3393    -3342    -3291    -3241    -3188 
   -3134    -3084    -3033    -2979    -2930    -2882    -2833    -2787 
   -2743    -2701    -2664    -2636    -2614    -2594    -2575    -2565 
   -2558    -2551    -2552    -2558    -2565    -2574    -2592    -2612 
   -2636    -2667    -2702    -2736    -2774    -2821    -2870    -2915 
   -2965    -3019    -3076    -3136    -3194    -3252    -3310    -3372 
   -3434    -3492    -3551    -3615    -3678    -3740    -3805    -3865 
   -3921    -3977    -4031    -4082    -4133    -4183    -4228    -4270 
   -4309    -4347    -4380    -4414    -4444    -4468    -4494    -4519 
   -4542    -4564    -4587    -4610    -4626    -4641    -4656    -4671 
   -4681    -4693    -4703    -4706    -4708    -4706    -4700    -4692 
   -4676    -4653    -4630    -4604    -4571    -4533    -4494    -4450 
   -4403    -4353    -4306    -4258    -4209    -4164    -4120    -4067 
   -4017    -3975    -3931    -3885    -3842    -3796    -3750    -3707 
   -3663    -3619    -3580    -3542    -3505    -3470    -3437    -3406 
   -3380    -3354    -3334    -3317    -3303    -3289    -3280    -3272 
   -3261    -3250    -3241    -3234    -3226    -3218    -3210    -3199 
   -3188    -3177    -3171    -3165    -3161    -3160    -3164    -3167 
   -3171    -3183    -3198    -3213    -3237    -3261    -3287    -3314 
   -3349    -3385    -3424    -3464    -3503    -3546    -3592    -3643 
   -3697    -3750    -3805    -3861    -3919    -3974    -4036    -4101 
   -4166    -4233    -4305    -4372    -4438    -4507    -4580    -4646 
   -4710    -4774    -4837    -4893    -4949    -4999    -5047    -5093 
   -5134    -5169    -5206    -5240    -5271    -5297    -5317    -5335 
   -5354    -5368    -5377    -5386    -5390    -5389    -5386    -5379 
   -5367    -5354    -5332    -5305    -5283    -5255    -5217    -5178 
   -5138    -5088    -5034    -4978    -4922    -4862    -4797    -4727 
   -4653    -4584    -4515    -4444    -4374    -4306    -4237    -4172 
   -4113    -4055    -3998    -3943    -3890    -3842    -3798    -3750 
   -3707    -3667    -3628    -3589    -3550    -3511    -3473    -3435 
   -3399    -3364    -3327    -3287    -3250    -3218    -3183    -3152 
   -3121    -3086    -3052    -3025    -2998    -2971    -2949    -2928 
   -2903    -2882    -2866    -2848    -2829    -2811    -2795    -2782 
   -2770    -2759    -2748    -2739    -2727    -2716    -2704    -2690 
   -2677    -2666    -2654    -2636    -2624    -2609    -2594    -2581 
   -2567    -2548    -2531    -2517    -2502    -2489    -2478    -2469 
   -2466    -2467    -2467    -2470    -2479    -2493    -2511    -2529 
   -2551    -2577    -2605    -2636    -2673    -2708    -2745    -2786 
   -2826    -2871    -2914    -2957    -3005    -3051    -3094    -3133 
   -3176    -3226    -3272    -3314    -3357    -3400    -3439    -3476 
   -3511    -3546    -3576    -3604    -3630    -3650    -3670    -3690 
   -3707    -3723    -3738    -3753    -3769    -3788    -3807    -3827 
   -3850    -3870    -3890    -3917    -3946    -3973    -3998    -4020 
   -4047    -4072    -4094    -4114    -4131    -4147    -4164    -4174 
   -4180    -4190    -4192    -4191    -4191    -4187    -4178    -4172 
   -4163    -4151    -4133    -4116    -4102    -4087    -4068    -4054 
   -4039    -4017    -4000    -3982    -3962    -3942    -3921    -3899 
   -3877    -3854    -3834    -3811    -3781    -3754    -3728    -3699 
   -3667    -3634    -3600    -3563    -3530    -3492    -3446    -3406 
   -3366    -3326    -3283    -3240    -3194    -3153    -3111    -3069 
   -3038    -3006    -2971    -2943    -2918    -2901    -2889    -2882 
   -2878    -2879    -2882    -2891    -2909    -2929    -2949    -2970 
   -2992    -3014    -3036    -3059    -3080    -3102    -3123    -3146 
   -3168    -3187    -3213    -3241    -3261    -3284    -3314    -3338 
   -3365    -3393    -3419    -3443    -3468    -3492    -3518    -3544 
   -3568    -3589    -3613    -3634    -3657    -3680    -3699    -3713 
   -3724    -3735    -3740    -3738    -3738    -3734    -3719    -3700 
   -3682    -3659    -3634    -3603    -3569    -3530    -3485    -3438 
   -3391    -3341    -3292    -3242    -3194    -3144    -3090    -3042 
   -2999    -2953    -2911    -2874    -2833    -2797    -2766    -2737 
   -2713    -2690    -2667    -2652    -2641    -2628    -2623    -2623 
   -2617    -2616    -2623    -2631    -2641    -2656    -2675    -2690 
   -2709    -2736    -2762    -2787    -2820    -2851    -2876    -2902 
   -2929    -2960    -2988    -3013    -3036    -3056    -3071    -3087 
   -3098    -3105    -3106    -3106    -3098    -3084    -3071    -3055 
   -3034    -3011    -2986    -2957    -2926    -2891    -2855    -2814 
   -2772    -2732    -2690    -2646    -2602    -2563    -2523    -2481 
   -2439    -2403    -2370    -2335    -2303    -2273    -2241    -2211 
   -2185    -2160    -2135    -2115    -2097    -2083    -2070    -2057 
   -2046    -2037    -2027    -2022    -2020    -2018    -2016    -2018 
   -2022    -2026    -2029    -2030    -2037    -2047    -2056    -2060 
   -2066    -2076    -2084    -2091    -2097    -2107    -2115    -2119 
   -2126    -2137    -2143    -2154    -2163    -2176    -2191    -2205 
   -2226    -2250    -2276    -2300    -2327    -2361    -2396    -2430 
   -2469    -2515    -2563    -2613    -2664    -2720    -2781    -2844 
   -2906    -2971    -3033    -3094    -3156    -3219    -3277    -3335 
   -3397    -3456    -3504    -3553    -3603    -3647    -3685    -3719 
   -3750    -3774    -3796    -3815    -3827    -3832    -3835    -3834 
   -3828    -3821    -3808    -3792    -3774    -3753    -3730    -3701 
   -3667    -3638    -3604    -3565    -3527    -3488    -3446    -3400 
   -3348    -3295    -3244    -3188    -3130    -3068    -3003    -2940 
   -2876    -2808    -2739    -2673    -2604    -2535    -2471    -2405 
   -2338    -2276    -2214    -2151    -2089    -2025    -1962    -1903 
   -1844    -1784    -1725    -1665    -1610    -1556    -1507    -1456 
   -1405    -1366    -1327    -1282    -1248    -1221    -1190    -1162 
   -1142    -1120    -1098    -1085    -1077    -1069    -1063    -1062 
   -1062    -1067    -1077    -1088    -1101    -1115    -1131    -1148 
   -1167    -1189    -1215    -1239    -1260    -1287    -1312    -1339 
   -1366    -1389    -1418    -1449    -1472    -1501    -1532    -1559 
   -1590    -1628    -1664    -1701    -1744    -1792    -1841    -1896 
   -1956    -2016    -2079    -2147    -2215    -2286    -2361    -2436 
   -2511    -2587    -2664    -2739    -2816    -2891    -2963    -3034 
   -3103    -3171    -3235    -3299    -3357    -3411    -3464    -3511 
   -3550    -3586    -3619    -3645    -3663    -3677    -3681    -3680 
   -3676    -3662    -3640    -3615    -3584    -3546    -3507    -3468 
   -3424    -3380    -3334    -3284    -3234    -3190    -3144    -3098 
   -3053    -3009    -2965    -2926    -2887    -2852    -2814    -2776 
   -2743    -2710    -2681    -2652    -2623    -2598    -2574    -2550 
   -2531    -2513    -2494    -2482    -2469    -2459    -2457    -2457 
   -2458    -2461    -2467    -2477    -2492    -2509    -2528    -2552 
   -2579    -2606    -2639    -2675    -2713    -2749    -2790    -2833 
   -2874    -2913    -2956    -3001    -3045    -3088    -3130    -3171 
   -3208    -3244    -3281    -3316    -3349    -3381    -3407    -3434 
   -3461    -3483    -3500    -3514    -3523    -3530    -3538    -3539 
   -3535    -3527    -3515    -3504    -3491    -3464    -3438    -3412 
   -3377    -3338    -3298    -3253    -3211    -3164    -3111    -3064 
   -3015    -2961    -2909    -2860    -2811    -2763    -2717    -2673 
   -2631    -2587    -2548    -2516    -2482    -2450    -2421    -2397 
   -2377    -2355    -2335    -2323    -2309    -2299    -2292    -2284 
   -2284    -2286    -2286    -2288    -2290    -2293    -2300    -2308 
   -2311    -2317    -2324    -2331    -2338    -2347    -2358    -2369 
   -2378    -2388    -2398    -2409    -2421    -2434    -2447    -2461 
   -2474    -2489    -2508    -2525    -2544    -2565    -2584    -2600 
   -2620    -2643    -2667    -2688    -2713    -2739    -2763    -2790 
   -2818    -2844    -2870    -2898    -2924    -2947    -2972    -2997 
   -3014    -3032    -3049    -3065    -3082    -3095    -3106    -3114 
   -3123    -3132    -3137    -3140    -3142    -3142    -3144    -3142 
   -3141    -3141    -3141    -3140    -3134    -3132    -3132    -3129 
   -3125    -3117    -3109    -3106    -3096    -3090    -3090    -3088 
   -3087    -3084    -3078    -3076    -3079    -3080    -3086    -3099 
   -3107    -3117    -3132    -3149    -3171    -3196    -3222    -3250 
   -3283    -3312    -3346    -3385    -3426    -3468    -3511    -3554 
   -3597    -3646    -3699    -3753    -3804    -3854    -3905    -3956 
   -4008    -4058    -4102    -4147    -4195    -4237    -4271    -4305 
   -4336    -4364    -4390    -4409    -4422    -4433    -4440    -4442 
   -4441    -4438    -4436    -4425    -4409    -4393    -4378    -4359 
   -4337    -4315    -4287    -4256    -4228    -4202    -4172    -4144 
   -4116    -4087    -4055    -4031    -4008    -3983    -3955    -3929 
   -3908    -3883    -3859    -3839    -3817    -3792    -3767    -3742 
   -3715    -3689    -3662    -3634    -3605    -3574    -3544    -3511 
   -3476    -3446    -3414    -3380    -3349    -3316    -3287    -3260 
   -3231    -3203    -3180    -3164    -3144    -3125    -3114    -3105 
   -3095    -3094    -3095    -3100    -3107    -3118    -3134    -3152 
   -3172    -3199    -3231    -3260    -3294    -3331    -3369    -3415 
   -3459    -3503    -3549    -3599    -3647    -3692    -3738    -3786 
   -3835    -3882    -3927    -3970    -4012    -4051    -4088    -4125 
   -4158    -4186    -4210    -4228    -4247    -4260    -4271    -4279 
   -4276    -4271    -4266    -4258    -4248    -4237    -4220    -4199 
   -4178    -4155    -4129    -4101    -4069    -4043    -4014    -3978 
   -3943    -3913    -3882    -3848    -3811    -3769    -3735    -3708 
   -3676    -3642    -3611    -3584    -3558    -3532    -3510    -3491 
   -3470    -3453    -3434    -3415    -3404    -3392    -3376    -3365 
   -3357    -3345    -3334    -3326    -3319    -3311    -3304    -3298 
   -3294    -3287    -3284    -3281    -3275    -3272    -3265    -3257 
   -3254    -3249    -3240    -3235    -3231    -3225    -3219    -3218 
   -3218    -3221    -3221    -3223    -3231    -3238    -3248    -3258 
   -3269    -3284    -3302    -3317    -3338    -3364    -3388    -3415 
   -3442    -3470    -3501    -3534    -3570    -3607    -3643    -3684 
   -3727    -3770    -3817    -3866    -3919    -3973    -4024    -4078 
   -4139    -4197    -4256    -4321    -4379    -4430    -4487    -4550 
   -4608    -4661    -4714    -4765    -4814    -4858    -4899    -4941 
   -4980    -5011    -5038    -5062    -5082    -5101    -5115    -5125 
   -5130    -5125    -5119    -5112    -5100    -5081    -5059    -5034 
   -5007    -4978    -4945    -4908    -4873    -4835    -4791    -4745 
   -4704    -4660    -4612    -4563    -4511    -4456    -4399    -4341 
   -4282    -4222    -4158    -4090    -4028    -3969    -3906    -3844 
   -3784    -3723    -3665    -3613    -3565    -3518    -3474    -3434 
   -3397    -3368    -3345    -3327    -3308    -3295    -3287    -3280 
   -3277    -3280    -3284    -3291    -3298    -3303    -3312    -3326 
   -3336    -3346    -3354    -3366    -3376    -3384    -3395    -3404 
   -3407    -3412    -3415    -3414    -3419    -3422    -3419    -3415 
   -3411    -3407    -3403    -3396    -3393    -3388    -3381    -3376 
   -3372    -3368    -3368    -3373    -3369    -3366    -3368    -3366 
   -3358    -3354    -3352    -3341    -3330    -3323    -3310    -3291 
   -3272    -3254    -3230    -3203    -3177    -3149    -3114    -3079 
   -3041    -3001    -2957    -2914    -2870    -2824    -2778    -2729 
