Origin Time       2016/04/16 01:25:00
Lat.              32.753
Long.             130.762
Depth. (km)       12
Mag.              7.3
Station Code      NAR003
Station Lat.      34.5169
Station Long.     135.7191
Station Height(m) 68
Record Time       2016/04/16 01:27:34
Sampling Freq(Hz) 100Hz
Duration Time(s)  70
Dir.              N-S
Scale Factor      7845(gal)/8223790
Max. Acc. (gal)   2.899
Last Correction   2016/04/16 01:27:35
Memo.             
[...]
    5206     5228     5252     5273     5289     5308     5320     5331 
    5343     5351     5351     5352     5355     5351     5339     5327 
    5312     5287     5266     5248     5228     5204     5173     5140 
    5112     5078     5043     5011     4973     4931     4895     4862 
    4830     4796     4760     4729     4700     4669     4644     4618 
    4588     4563     4540     4513     4486     4461     4440     4419 
    4392     4364     4341     4320     4303     4295     4280     4266 
    4260     4252     4241     4238     4238     4236     4236     4240 
    4245     4253     4263     4274     4286     4305     4325     4345 
    4368     4393     4417     4442     4475     4504     4533     4564 
    4590     4614     4642     4671     4692     4714     4737     4757 
    4774     4789     4806     4819     4828     4838     4846     4849 
    4852     4854     4849     4841     4833     4823     4814     4806 
    4791     4779     4769     4760     4754     4752     4750     4750 
    4752     4754     4760     4766     4776     4792     4803     4808 
    4820     4835     4842     4849     4857     4862     4866     4868 
    4865     4866     4868     4860     4846     4841     4834     4819 
    4811     4804     4789     4773     4762     4752     4746     4741 
    4727     4723     4726     4725     4729     4738     4745     4752 
    4758     4768     4780     4791     4800     4814     4824     4837 
    4851     4861     4865     4873     4882     4885     4889     4895 
    4895     4891     4895     4899     4892     4891     4891     4882 
    4874     4874     4873     4872     4872     4876     4877     4882 
    4888     4889     4892     4897     4901     4907     4916     4923 
    4926     4927     4936     4938     4930     4931     4927     4914 
    4905     4896     4880     4869     4857     4841     4826     4810 
    4789     4765     4745     4726     4700     4673     4653     4631 
    4599     4572     4548     4514     4483     4452     4413     4376 
    4341     4299     4258     4225     4186     4143     4107     4069 
    4028     3996     3967     3936     3910     3893     3875     3861 
    3855     3850     3838     3828     3827     3828     3825     3819 
    3815     3813     3811     3812     3817     3820     3820     3828 
    3842     3856     3877     3898     3923     3955     3984     4014 
    4052     4088     4126     4174     4218     4256     4302     4352 
    4392     4429     4469     4509     4538     4571     4606     4638 
    4668     4695     4727     4761     4788     4818     4852     4882 
    4914     4949     4978     5011     5046     5076     5107     5143 
    5173     5198     5227     5250     5268     5290     5310     5325 
    5339     5358     5373     5382     5389     5394     5401     5397 
    5393     5391     5386     5382     5377     5363     5339     5319 
    5297     5270     5233     5194     5157     5116     5067     5017 
    4972     4920     4862     4812     4764     4710     4658     4606 
    4557     4513     4471     4425     4378     4333     4289     4248 
    4209     4167     4129     4094     4058     4028     4000     3974 
    3955     3937     3925     3924     3927     3932     3940     3951 
    3970     3994     4021     4050     4077     4109     4152     4191 
    4225     4263     4299     4332     4364     4399     4434     4464 
    4491     4515     4538     4564     4584     4595     4610     4623 
    4631     4644     4650     4652     4657     4658     4656     4661 
    4664     4660     4660     4666     4669     4672     4673     4671 
    4668     4666     4661     4656     4649     4638     4625     4615 
    4606     4590     4568     4548     4529     4510     4488     4471 
    4459     4440     4425     4421     4417     4410     4414     4418 
    4421     4430     4442     4453     4464     4476     4490     4504 
    4519     4535     4554     4568     4577     4592     4606     4617 
    4626     4642     4660     4668     4677     4695     4710     4725 
    4737     4754     4772     4791     4808     4828     4846     4862 
    4885     4911     4932     4953     4974     4996     5019     5043 
    5065     5082     5096     5111     5128     5142     5152     5163 
    5166     5167     5173     5173     5166     5161     5151     5135 
    5117     5098     5081     5062     5036     5011     4984     4954 
    4923     4891     4854     4823     4787     4743     4699     4653 
    4606     4561     4513     4460     4406     4352     4295     4236 
    4175     4121     4067     4012     3962     3916     3866     3813 
    3767     3724     3685     3645     3599     3554     3518     3484 
    3451     3422     3396     3372     3355     3352     3348     3346 
    3358     3376     3397     3430     3466     3511     3563     3612 
    3663     3723     3788     3851     3920     3993     4067     4147 
    4233     4321     4405     4494     4584     4669     4756     4846 
    4936     5019     5101     5186     5268     5347     5427     5506 
    5579     5652     5727     5805     5873     5940     6008     6072 
    6127     6183     6239     6289     6334     6373     6407     6436 
    6465     6489     6505     6516     6527     6531     6527     6520 
    6512     6496     6470     6443     6419     6389     6356     6319 
    6284     6249     6212     6173     6129     6087     6048     6004 
    5960     5922     5880     5836     5795     5759     5717     5675 
    5638     5601     5562     5525     5491     5451     5412     5382 
    5354     5317     5286     5258     5229     5205     5181     5157 
    5139     5123     5108     5100     5096     5093     5096     5103 
    5112     5123     5138     5161     5184     5208     5235     5265 
    5292     5323     5356     5383     5410     5440     5463     5481 
    5503     5519     5525     5528     5530     5521     5512     5499 
    5475     5448     5428     5398     5362     5327     5287     5240 
    5197     5157     5104     5053     5008     4961     4909     4862 
    4816     4762     4710     4664     4611     4560     4514     4464 
    4411     4363     4315     4266     4218     4175     4131     4081 
    4035     3997     3959     3925     3897     3869     3838     3815 
    3800     3781     3763     3750     3734     3726     3717     3703 
    3688     3676     3665     3651     3634     3615     3596     3572 
    3549     3527     3499     3469     3442     3410     3376     3342 
    3311     3281     3256     3230     3202     3175     3152     3134 
    3119     3109     3109     3114     3125     3141     3164     3199 
    3244     3289     3341     3404     3474     3547     3632     3717 
    3802     3901     4000     4091     4187     4288     4390     4486 
    4583     4687     4784     4878     4974     5067     5159     5252 
    5341     5429     5514     5597     5679     5755     5825     5895 
    5960     6022     6079     6127     6174     6218     6251     6277 
    6301     6319     6328     6339     6347     6345     6338     6332 
    6319     6304     6290     6269     6242     6211     6178     6145 
    6107     6064     6018     5968     5914     5856     5791     5722 
    5649     5566     5479     5398     5308     5215     5127     5038 
    4942     4846     4753     4661     4572     4486     4403     4325 
    4255     4197     4148     4099     4059     4029     4013     4003 
    4000     4003     4017     4043     4074     4112     4155     4200 
    4245     4301     4360     4419     4477     4541     4603     4662 
    4726     4785     4837     4887     4931     4970     5012     5050 
    5078     5101     5121     5136     5151     5166     5177     5186 
    5201     5213     5216     5225     5238     5242     5254     5268 
    5267     5271     5283     5287     5287     5285     5281     5282 
    5279     5273     5268     5256     5239     5223     5201     5174 
    5147     5117     5088     5055     5019     4980     4943     4907 
    4865     4820     4776     4727     4683     4645     4606     4556 
    4510     4469     4423     4379     4340     4298     4252     4207 
    4167     4136     4107     4072     4043     4017     3989     3965 
    3951     3944     3937     3932     3937     3951     3965     3987 
    4021     4055     4094     4149     4212     4266     4332     4409 
    4486     4561     4638     4718     4796     4872     4945     5015 
    5080     5142     5202     5255     5298     5337     5370     5400 
    5427     5448     5468     5487     5499     5506     5513     5517 
    5517     5516     5513     5512     5509     5503     5501     5497 
    5485     5471     5459     5443     5421     5400     5374     5347 
    5316     5285     5247     5206     5164     5117     5069     5017 
    4963     4908     4854     4795     4733     4677     4623     4565 
    4511     4461     4410     4357     4311     4270     4232     4200 
    4168     4135     4110     4094     4081     4078     4077     4068 
    4072     4093     4110     4132     4166     4200     4238     4280 
    4325     4374     4425     4480     4535     4594     4653     4710 
    4769     4835     4899     4958     5022     5085     5147     5205 
    5267     5327     5379     5435     5486     5528     5570     5614 
    5653     5692     5725     5748     5776     5800     5815     5829 
    5841     5848     5856     5861     5861     5861     5859     5856 
    5857     5856     5850     5841     5823     5809     5798     5782 
    5759     5732     5703     5670     5629     5585     5541     5493 
    5437     5377     5316     5248     5182     5112     5035     4959 
    4887     4812     4735     4660     4588     4515     4445     4379 
    4318     4261     4209     4159     4114     4077     4044     4016 
    3991     3973     3956     3944     3944     3948     3954     3967 
    3986     4001     4025     4062     4099     4139     4180     4228 
    4283     4342     4407     4473     4540     4611     4688     4764 
    4842     4927     5011     5093     5182     5270     5362     5458 
    5549     5636     5729     5825     5913     6004     6103     6196 
    6282     6367     6455     6535     6610     6685     6754     6814 
    6871     6922     6960     6993     7020     7036     7045     7047 
    7032     7009     6979     6940     6891     6836     6771     6694 
    6616     6535     6443     6346     6250     6148     6041     5934 
    5830     5719     5606     5497     5390     5279     5171     5067 
    4963     4862     4761     4662     4565     4469     4375     4284 
    4195     4109     4029     3955     3882     3813     3750     3689 
    3632     3581     3530     3487     3443     3397     3358     3321 
    3277     3238     3204     3167     3132     3099     3064     3032 
    3002     2976     2955     2933     2920     2911     2906     2910 
    2922     2938     2960     2986     3018     3064     3109     3159 
    3215     3280     3350     3423     3504     3593     3678     3766 
    3865     3964     4060     4163     4271     4376     4484     4598 
    4707     4816     4928     5038     5143     5251     5355     5452 
    5551     5649     5730     5810     5892     5961     6021     6081 
    6133     6174     6214     6243     6264     6276     6278     6280 
    6268     6246     6226     6196     6156     6115     6068     6012 
    5954     5887     5814     5741     5660     5574     5487     5398 
    5309     5211     5111     5015     4915     4814     4712     4603 
    4495     4393     4291     4180     4074     3973     3865     3757 
    3655     3551     3443     3339     3238     3136     3037     2943 
    2856     2775     2700     2628     2562     2505     2459     2419 
    2382     2358     2343     2336     2340     2349     2362     2388 
    2423     2458     2501     2559     2621     2681     2749     2824 
    2902     2984     3073     3160     3245     3338     3429     3510 
    3597     3686     3765     3844     3925     3998     4069     4140 
    4202     4260     4321     4380     4434     4486     4531     4577 
    4621     4662     4702     4734     4768     4807     4837     4865 
    4900     4926     4946     4968     4988     5003     5017     5027 
    5031     5030     5024     5015     5000     4976     4943     4907 
    4868     4827     4780     4726     4672     4615     4556     4495 
    4431     4369     4307     4245     4185     4126     4072     4024 
    3974     3923     3885     3851     3823     3802     3785     3770 
    3770     3776     3792     3815     3840     3874     3920     3975 
    4032     4095     4167     4243     4322     4407     4494     4584 
    4680     4777     4877     4972     5066     5164     5252     5332 
    5414     5490     5555     5616     5675     5722     5763     5796 
    5823     5844     5856     5860     5860     5857     5850     5844 
    5830     5814     5796     5773     5748     5715     5676     5640 
    5605     5560     5510     5464     5414     5359     5298     5238 
    5178     5112     5042     4973     4901     4831     4760     4683 
    4604     4523     4436     4352     4268     4176     4083     3987 
    3889     3786     3682     3577     3466     3355     3248     3137 
    3022     2906     2797     2687     2578     2473     2371     2273 
    2177     2087     2011     1939     1868     1807     1760     1717 
    1680     1653     1638     1632     1630     1637     1655     1672 
    1696     1734     1772     1809     1852     1899     1944     1995 
    2052     2104     2155     2219     2284     2346     2412     2482 
    2551     2623     2700     2776     2852     2936     3019     3102 
    3190     3281     3369     3461     3551     3639     3724     3811 
    3892     3965     4036     4109     4176     4233     4295     4356 
    4409     4455     4496     4535     4575     4617     4650     4676 
    4696     4710     4722     4726     4725     4716     4700     4680 
    4660     4633     4602     4568     4531     4494     4456     4421 
    4387     4353     4327     4310     4291     4270     4252     4241 
    4233     4225     4228     4230     4228     4233     4248     4256 
    4263     4275     4284     4291     4309     4329     4345     4367 
    4395     4422     4445     4469     4500     4535     4571     4606 
    4645     4688     4726     4766     4819     4873     4918     4959 
    5001     5046     5084     5119     5154     5179     5202     5227 
    5248     5266     5278     5282     5287     5287     5279     5273 
    5263     5247     5229     5215     5196     5171     5146     5120 
    5093     5060     5027     4993     4956     4912     4869     4835 
    4800     4757     4715     4676     4633     4594     4561     4522 
    4480     4444     4409     4376     4345     4314     4286     4263 
    4238     4214     4194     4180     4167     4151     4135     4124 
    4110     4097     4087     4082     4078     4072     4064     4054 
    4044     4039     4031     4024     4017     4009     3998     3993 
    3987     3979     3974     3970     3960     3951     3951     3950 
    3947     3942     3935     3935     3932     3925     3920     3915 
    3909     3902     3890     3875     3861     3844     3824     3807 
    3786     3763     3744     3723     3699     3674     3653     3632 
    3613     3597     3582     3565     3554     3550     3546     3546 
    3555     3566     3580     3600     3630     3659     3692     3735 
    3780     3824     3878     3937     3997     4055     4116     4171 
    4233     4295     4352     4409     4463     4515     4568     4619 
    4668     4722     4773     4820     4872     4923     4970     5013 
    5065     5112     5150     5188     5231     5270     5302     5333 
    5360     5383     5405     5422     5432     5435     5429     5417 
    5404     5383     5355     5323     5289     5243     5194     5154 
    5111     5059     5007     4958     4904     4850     4803     4762 
    4719     4671     4627     4594     4563     4529     4500     4479 
    4456     4438     4428     4417     4405     4402     4405     4407 
    4413     4419     4429     4446     4464     4475     4491     4517 
    4538     4558     4583     4604     4623     4646     4673     4692 
    4708     4731     4753     4766     4781     4799     4814     4824 
    4830     4835     4842     4849     4851     4850     4847     4849 
    4850     4849     4849     4843     4835     4827     4824     4820 
    4818     4814     4804     4795     4788     4774     4757     4746 
    4734     4718     4700     4680     4661     4642     4621     4599 
    4580     4557     4534     4511     4488     4467     4449     4429 
    4415     4409     4399     4391     4388     4388     4391     4398 
    4407     4415     4423     4437     4450     4464     4486     4509 
    4530     4553     4580     4608     4639     4677     4710     4743 
    4781     4826     4869     4908     4947     4986     5027     5071 
    5113     5151     5192     5229     5259     5293     5329     5360 
    5390     5418     5443     5472     5498     5519     5541     5563 
    5579     5593     5605     5617     5625     5629     5632     5634 
    5634     5630     5623     5618     5613     5601     5582     5559 
    5535     5508     5478     5443     5404     5362     5321     5273 
    5228     5184     5131     5082     5034     4976     4923     4878 
    4830     4779     4733     4684     4641     4600     4556     4513 
    4473     4436     4403     4376     4347     4320     4299     4282 
    4266     4255     4248     4248     4248     4253     4268     4286 
    4303     4330     4360     4392     4433     4480     4527     4576 
    4630     4692     4754     4818     4888     4961     5030     5103 
    5179     5252     5327     5405     5474     5539     5607     5675 
    5740     5802     5860     5913     5965     6014     6053     6093 
    6135     6169     6192     6214     6238     6258     6273     6285 
    6295     6296     6299     6304     6307     6308     6308     6305 
    6304     6303     6297     6289     6282     6270     6255     6241 
    6222     6205     6189     6168     6139     6115     6097     6072 
    6041     6014     5985     5957     5926     5891     5854     5817 
    5779     5738     5702     5664     5620     5579     5540     5498 
    5459     5428     5394     5355     5317     5283     5251     5220 
    5194     5164     5131     5107     5085     5059     5038     5013 
    4985     4962     4943     4918     4895     4872     4850     4834 
    4816     4796     4780     4761     4742     4726     4710     4698 
    4688     4677     4665     4660     4654     4644     4635     4630 
    4625     4622     4621     4622     4627     4631     4635     4644 
    4653     4665     4681     4702     4725     4747     4773     4799 
    4828     4861     4897     4934     4965     4999     5036     5073 
    5112     5159     5204     5240     5278     5321     5362     5401 
    5443     5481     5519     5562     5602     5641     5678     5717 
    5756     5793     5830     5863     5894     5929     5958     5984 
    6014     6039     6058     6079     6103     6120     6131     6142 
