Origin Time       2016/04/16 01:25:00
Lat.              32.753
Long.             130.762
Depth. (km)       12
Mag.              7.3
Station Code      NGN010
Station Lat.      36.3281
Station Long.     138.4357
Station Height(m) 740
Record Time       2016/04/16 01:29:16
Sampling Freq(Hz) 100Hz
Duration Time(s)  60
Dir.              E-W
Scale Factor      7845(gal)/8223790
Max. Acc. (gal)   1.212
Last Correction   2016/04/16 01:29:18
Memo.             
   -2258    -2261    -2267    -2280    -2295    -2307    -2319    -2330 
   -2338    -2347    -2357    -2363    -2371    -2381    -2394    -2413 
   -2431    -2444    -2454    -2463    -2477    -2490    -2500    -2506 
   -2516    -2538    -2563    -2578    -2583    -2590    -2605    -2621 
   -2629    -2632    -2643    -2663    -2681    -2694    -2702    -2706 
   -2714    -2727    -2737    -2745    -2758    -2772    -2783    -2781 
   -2776    -2786    -2803    -2811    -2809    -2808    -2817    -2829 
   -2837    -2841    -2840    -2839    -2840    -2843    -2847    -2855 
   -2860    -2863    -2860    -2856    -2857    -2866    -2870    -2866 
   -2867    -2871    -2874    -2871    -2866    -2868    -2879    -2884 
   -2880    -2874    -2867    -2867    -2875    -2886    -2889    -2884 
   -2879    -2874    -2876    -2887    -2894    -2893    -2887    -2879 
   -2878    -2884    -2889    -2887    -2884    -2882    -2886    -2889 
   -2884    -2880    -2879    -2880    -2882    -2882    -2880    -2882 
   -2886    -2882    -2872    -2866    -2868    -2874    -2875    -2872 
   -2866    -2863    -2866    -2867    -2863    -2857    -2851    -2851 
   -2855    -2855    -2851    -2844    -2843    -2844    -2844    -2841 
   -2836    -2837    -2840    -2843    -2841    -2836    -2832    -2836 
   -2836    -2830    -2825    -2825    -2829    -2836    -2832    -2822 
   -2817    -2813    -2811    -2818    -2818    -2810    -2802    -2797 
   -2792    -2795    -2794    -2786    -2776    -2767    -2759    -2756 
   -2751    -2743    -2736    -2728    -2717    -2709    -2704    -2694 
   -2685    -2675    -2659    -2643    -2635    -2629    -2619    -2604 
   -2586    -2574    -2565    -2558    -2544    -2529    -2516    -2501 
   -2485    -2473    -2461    -2444    -2428    -2416    -2403    -2388 
   -2374    -2363    -2350    -2334    -2317    -2300    -2285    -2276 
   -2261    -2243    -2228    -2215    -2204    -2187    -2172    -2157 
   -2142    -2130    -2118    -2101    -2087    -2073    -2060    -2045 
   -2029    -2014    -2000    -1985    -1973    -1962    -1948    -1929 
   -1912    -1900    -1890    -1876    -1864    -1850    -1837    -1823 
   -1811    -1803    -1792    -1780    -1768    -1761    -1755    -1748 
   -1738    -1729    -1722    -1715    -1707    -1702    -1698    -1692 
   -1688    -1684    -1679    -1676    -1675    -1676    -1674    -1671 
   -1667    -1667    -1667    -1664    -1664    -1664    -1665    -1672 
   -1676    -1676    -1676    -1676    -1683    -1688    -1687    -1688 
   -1694    -1701    -1709    -1713    -1718    -1728    -1729    -1729 
   -1740    -1748    -1755    -1773    -1787    -1791    -1794    -1800 
   -1813    -1826    -1837    -1844    -1856    -1869    -1881    -1892 
   -1903    -1914    -1925    -1935    -1948    -1964    -1979    -1993 
   -2006    -2020    -2034    -2045    -2060    -2073    -2085    -2101 
   -2119    -2133    -2150    -2168    -2182    -2199    -2214    -2226 
   -2241    -2259    -2274    -2288    -2305    -2323    -2338    -2353 
   -2366    -2378    -2390    -2404    -2420    -2438    -2454    -2465 
   -2474    -2490    -2506    -2520    -2531    -2540    -2554    -2569 
   -2579    -2592    -2606    -2621    -2635    -2646    -2655    -2666 
   -2685    -2701    -2714    -2727    -2735    -2743    -2754    -2768 
   -2782    -2797    -2808    -2821    -2837    -2852    -2862    -2870 
   -2880    -2894    -2910    -2924    -2934    -2947    -2960    -2971 
   -2976    -2983    -2991    -3002    -3014    -3025    -3033    -3042 
   -3049    -3055    -3060    -3064    -3068    -3076    -3086    -3088 
   -3090    -3096    -3100    -3102    -3105    -3107    -3106    -3102 
   -3103    -3109    -3115    -3118    -3118    -3114    -3107    -3103 
   -3100    -3099    -3096    -3095    -3096    -3098    -3092    -3086 
   -3080    -3073    -3067    -3060    -3052    -3046    -3048    -3048 
   -3042    -3033    -3021    -3007    -2997    -2988    -2980    -2972 
   -2967    -2964    -2956    -2943    -2929    -2914    -2902    -2894 
   -2884    -2871    -2862    -2852    -2841    -2830    -2817    -2801 
   -2785    -2771    -2755    -2744    -2735    -2721    -2709    -2695 
   -2682    -2667    -2652    -2636    -2624    -2609    -2597    -2587 
   -2577    -2565    -2552    -2538    -2516    -2500    -2489    -2477 
   -2465    -2455    -2442    -2430    -2416    -2401    -2385    -2369 
   -2354    -2343    -2332    -2319    -2305    -2293    -2285    -2276 
   -2261    -2245    -2232    -2219    -2207    -2196    -2188    -2174 
   -2162    -2154    -2143    -2128    -2116    -2106    -2095    -2085 
   -2076    -2064    -2053    -2049    -2041    -2030    -2025    -2018 
   -2006    -1999    -1993    -1987    -1981    -1979    -1975    -1969 
   -1962    -1958    -1958    -1956    -1949    -1946    -1945    -1948 
   -1949    -1949    -1949    -1949    -1949    -1949    -1949    -1953 
   -1960    -1962    -1964    -1969    -1977    -1984    -1988    -1991 
   -1995    -2003    -2010    -2019    -2026    -2029    -2038    -2052 
   -2058    -2064    -2070    -2079    -2088    -2097    -2107    -2120 
   -2133    -2142    -2150    -2160    -2172    -2182    -2192    -2203 
   -2215    -2226    -2239    -2253    -2262    -2274    -2289    -2299 
   -2304    -2315    -2328    -2340    -2353    -2365    -2380    -2396 
   -2408    -2413    -2421    -2436    -2452    -2463    -2475    -2488 
   -2496    -2506    -2520    -2532    -2542    -2550    -2560    -2573 
   -2589    -2602    -2608    -2613    -2623    -2633    -2640    -2648 
   -2662    -2674    -2685    -2694    -2700    -2705    -2713    -2720 
   -2724    -2732    -2740    -2747    -2754    -2762    -2767    -2771 
   -2775    -2781    -2790    -2792    -2790    -2795    -2802    -2805 
   -2811    -2817    -2821    -2822    -2828    -2833    -2833    -2837 
   -2843    -2844    -2849    -2859    -2863    -2866    -2867    -2870 
   -2870    -2872    -2880    -2889    -2896    -2902    -2903    -2898 
   -2893    -2899    -2914    -2917    -2911    -2914    -2922    -2929 
   -2930    -2925    -2915    -2913    -2924    -2940    -2940    -2925 
   -2915    -2911    -2906    -2899    -2896    -2898    -2901    -2899 
   -2891    -2879    -2863    -2843    -2829    -2822    -2818    -2818 
   -2810    -2789    -2767    -2745    -2729    -2717    -2700    -2685 
   -2671    -2647    -2623    -2602    -2582    -2563    -2543    -2517 
   -2489    -2461    -2442    -2428    -2403    -2367    -2338    -2319 
   -2297    -2272    -2241    -2207    -2184    -2173    -2155    -2124 
   -2093    -2069    -2045    -2016    -1989    -1971    -1952    -1930 
   -1908    -1883    -1856    -1836    -1819    -1798    -1775    -1755 
   -1734    -1715    -1699    -1682    -1663    -1644    -1626    -1610 
   -1593    -1572    -1559    -1543    -1524    -1509    -1495    -1480 
   -1468    -1455    -1440    -1421    -1404    -1394    -1385    -1371 
   -1356    -1344    -1333    -1324    -1314    -1308    -1300    -1289 
   -1281    -1275    -1271    -1262    -1254    -1250    -1251    -1248 
   -1239    -1232    -1233    -1239    -1243    -1244    -1242    -1243 
   -1244    -1246    -1251    -1259    -1264    -1273    -1282    -1291 
   -1298    -1305    -1310    -1323    -1340    -1352    -1370    -1387 
   -1397    -1409    -1431    -1449    -1464    -1479    -1499    -1520 
   -1539    -1557    -1580    -1606    -1626    -1644    -1668    -1696 
   -1723    -1749    -1773    -1798    -1823    -1852    -1877    -1899 
   -1926    -1958    -1988    -2015    -2045    -2073    -2098    -2124 
   -2154    -2185    -2214    -2245    -2272    -2297    -2324    -2351 
   -2374    -2400    -2432    -2465    -2493    -2517    -2543    -2563 
   -2582    -2604    -2625    -2650    -2678    -2705    -2727    -2747 
   -2767    -2785    -2798    -2810    -2824    -2841    -2862    -2886 
   -2906    -2918    -2933    -2945    -2951    -2961    -2974    -2984 
   -2997    -3010    -3018    -3026    -3036    -3042    -3049    -3057 
   -3061    -3061    -3065    -3073    -3079    -3080    -3084    -3084 
   -3083    -3086    -3090    -3094    -3092    -3090    -3088    -3087 
   -3083    -3076    -3076    -3080    -3076    -3068    -3063    -3057 
   -3051    -3045    -3041    -3030    -3017    -3011    -3007    -3002 
   -2995    -2986    -2974    -2964    -2956    -2947    -2937    -2929 
   -2917    -2903    -2891    -2884    -2876    -2867    -2859    -2847 
   -2835    -2824    -2814    -2805    -2795    -2783    -2770    -2759 
   -2749    -2739    -2729    -2718    -2708    -2700    -2695    -2686 
   -2677    -2667    -2658    -2646    -2635    -2625    -2620    -2610 
   -2601    -2592    -2581    -2569    -2558    -2548    -2540    -2531 
   -2519    -2508    -2500    -2488    -2477    -2469    -2461    -2448 
   -2439    -2427    -2416    -2409    -2401    -2392    -2382    -2370 
   -2359    -2350    -2342    -2334    -2324    -2313    -2301    -2292 
   -2284    -2274    -2265    -2258    -2254    -2245    -2236    -2227 
   -2215    -2212    -2211    -2205    -2200    -2195    -2188    -2180 
   -2174    -2168    -2165    -2163    -2160    -2157    -2154    -2147 
   -2146    -2146    -2141    -2138    -2139    -2135    -2134    -2138 
   -2138    -2138    -2142    -2143    -2144    -2149    -2151    -2147 
   -2149    -2154    -2155    -2158    -2163    -2168    -2170    -2173 
   -2174    -2178    -2184    -2189    -2195    -2199    -2205    -2211 
   -2215    -2223    -2227    -2231    -2238    -2243    -2250    -2258 
   -2265    -2273    -2280    -2285    -2292    -2297    -2304    -2312 
   -2319    -2328    -2336    -2342    -2350    -2359    -2366    -2376 
   -2386    -2394    -2404    -2415    -2425    -2438    -2446    -2450 
   -2461    -2477    -2488    -2496    -2508    -2520    -2532    -2543 
   -2552    -2560    -2571    -2583    -2598    -2613    -2623    -2633 
   -2646    -2659    -2671    -2681    -2688    -2700    -2717    -2732 
   -2740    -2748    -2758    -2767    -2778    -2787    -2794    -2805 
   -2817    -2822    -2828    -2837    -2844    -2852    -2863    -2868 
   -2872    -2880    -2887    -2893    -2899    -2906    -2911    -2917 
   -2922    -2928    -2930    -2932    -2934    -2938    -2943    -2944 
   -2945    -2947    -2948    -2949    -2949    -2953    -2956    -2956 
   -2956    -2957    -2956    -2953    -2955    -2957    -2959    -2957 
   -2957    -2957    -2955    -2952    -2948    -2945    -2947    -2944 
   -2941    -2940    -2937    -2933    -2930    -2925    -2922    -2918 
   -2915    -2913    -2907    -2903    -2899    -2894    -2889    -2880 
   -2870    -2862    -2855    -2844    -2836    -2830    -2824    -2814 
   -2801    -2787    -2771    -2759    -2748    -2736    -2724    -2713 
   -2697    -2677    -2656    -2636    -2624    -2609    -2593    -2577 
   -2556    -2535    -2516    -2492    -2466    -2446    -2427    -2405 
   -2384    -2363    -2342    -2319    -2297    -2273    -2246    -2220 
   -2196    -2177    -2160    -2134    -2110    -2089    -2068    -2046 
   -2023    -1993    -1968    -1949    -1933    -1915    -1892    -1865 
   -1838    -1817    -1799    -1783    -1768    -1753    -1732    -1709 
   -1686    -1664    -1648    -1637    -1626    -1609    -1593    -1583 
   -1570    -1552    -1539    -1528    -1518    -1505    -1497    -1494 
   -1486    -1478    -1475    -1471    -1468    -1463    -1457    -1457 
   -1457    -1459    -1463    -1468    -1478    -1486    -1489    -1491 
   -1499    -1509    -1517    -1530    -1545    -1560    -1574    -1588 
   -1605    -1621    -1640    -1658    -1676    -1694    -1714    -1737 
   -1764    -1788    -1809    -1833    -1858    -1885    -1911    -1937 
   -1962    -1989    -2019    -2049    -2077    -2106    -2134    -2162 
   -2193    -2224    -2255    -2286    -2317    -2349    -2380    -2412 
   -2446    -2475    -2508    -2546    -2582    -2616    -2650    -2682 
   -2714    -2745    -2779    -2816    -2851    -2886    -2922    -2953 
   -2984    -3017    -3049    -3083    -3115    -3148    -3183    -3215 
   -3240    -3265    -3294    -3322    -3354    -3385    -3414    -3438 
   -3454    -3472    -3499    -3524    -3546    -3566    -3584    -3599 
   -3612    -3627    -3643    -3658    -3673    -3682    -3686    -3692 
   -3703    -3715    -3721    -3721    -3723    -3730    -3734    -3734 
   -3730    -3724    -3724    -3730    -3731    -3726    -3721    -3717 
   -3711    -3707    -3701    -3696    -3693    -3684    -3670    -3661 
   -3657    -3650    -3643    -3634    -3623    -3613    -3605    -3595 
   -3585    -3574    -3561    -3554    -3549    -3539    -3526    -3514 
   -3500    -3491    -3485    -3473    -3456    -3442    -3433    -3422 
   -3410    -3399    -3388    -3377    -3368    -3354    -3338    -3326 
   -3316    -3303    -3288    -3272    -3261    -3254    -3246    -3234 
   -3217    -3199    -3184    -3169    -3157    -3145    -3132    -3117 
   -3102    -3090    -3079    -3067    -3055    -3042    -3025    -3007 
   -2997    -2986    -2975    -2964    -2953    -2940    -2926    -2915 
   -2902    -2887    -2874    -2867    -2862    -2855    -2848    -2836 
   -2817    -2799    -2790    -2791    -2791    -2787    -2779    -2768 
   -2758    -2745    -2739    -2736    -2733    -2729    -2720    -2709 
   -2706    -2706    -2702    -2697    -2691    -2682    -2674    -2669 
   -2668    -2664    -2656    -2652    -2654    -2651    -2647    -2640 
   -2632    -2624    -2619    -2619    -2616    -2609    -2600    -2596 
   -2593    -2583    -2574    -2567    -2562    -2556    -2546    -2536 
   -2527    -2517    -2511    -2504    -2494    -2484    -2469    -2458 
   -2450    -2439    -2430    -2417    -2403    -2392    -2381    -2366 
   -2354    -2349    -2342    -2332    -2319    -2308    -2296    -2286 
   -2280    -2270    -2262    -2258    -2251    -2246    -2241    -2236 
   -2235    -2230    -2226    -2224    -2223    -2222    -2223    -2226 
   -2230    -2228    -2224    -2230    -2238    -2239    -2245    -2251 
   -2255    -2261    -2267    -2272    -2278    -2288    -2297    -2308 
   -2319    -2328    -2334    -2338    -2347    -2358    -2370    -2382 
   -2394    -2407    -2416    -2423    -2428    -2440    -2457    -2467 
   -2479    -2494    -2508    -2521    -2531    -2542    -2554    -2565 
   -2579    -2596    -2608    -2617    -2629    -2641    -2654    -2667 
   -2675    -2688    -2704    -2714    -2725    -2737    -2751    -2764 
   -2772    -2781    -2790    -2803    -2817    -2826    -2833    -2843 
   -2853    -2862    -2868    -2878    -2886    -2891    -2896    -2902 
   -2905    -2910    -2913    -2917    -2925    -2930    -2933    -2936 
   -2933    -2932    -2930    -2928    -2930    -2934    -2932    -2929 
   -2925    -2918    -2913    -2909    -2902    -2894    -2882    -2876 
   -2874    -2867    -2852    -2841    -2832    -2820    -2808    -2797 
   -2785    -2771    -2759    -2749    -2735    -2718    -2705    -2691 
   -2674    -2655    -2640    -2624    -2606    -2589    -2571    -2552 
   -2536    -2520    -2504    -2488    -2467    -2448    -2430    -2409 
   -2393    -2377    -2358    -2343    -2328    -2308    -2290    -2274 
   -2255    -2238    -2220    -2203    -2187    -2170    -2155    -2141 
   -2126    -2107    -2095    -2084    -2068    -2053    -2045    -2033 
   -2019    -2006    -1991    -1981    -1973    -1964    -1954    -1945 
   -1934    -1926    -1919    -1912    -1903    -1896    -1888    -1880 
   -1876    -1873    -1869    -1868    -1865    -1856    -1845    -1840 
   -1838    -1838    -1840    -1837    -1833    -1830    -1829    -1826 
   -1825    -1819    -1814    -1810    -1806    -1807    -1811    -1814 
   -1813    -1807    -1802    -1800    -1802    -1802    -1804    -1810 
   -1806    -1800    -1799    -1802    -1804    -1810    -1813    -1814 
   -1813    -1814    -1821    -1826    -1831    -1842    -1844    -1842 
   -1846    -1854    -1863    -1872    -1880    -1890    -1895    -1899 
   -1908    -1922    -1935    -1945    -1952    -1960    -1968    -1981 
   -2001    -2019    -2030    -2041    -2053    -2064    -2079    -2093 
   -2107    -2126    -2141    -2153    -2173    -2192    -2205    -2219 
   -2232    -2246    -2263    -2282    -2301    -2319    -2335    -2350 
   -2366    -2384    -2396    -2409    -2425    -2444    -2463    -2482 
   -2493    -2505    -2521    -2536    -2550    -2565    -2581    -2593 
   -2605    -2621    -2636    -2648    -2663    -2671    -2679    -2690 
   -2704    -2716    -2729    -2740    -2747    -2751    -2763    -2775 
   -2779    -2782    -2787    -2794    -2805    -2808    -2808    -2814 
   -2818    -2817    -2818    -2822    -2826    -2828    -2829    -2828 
   -2826    -2828    -2829    -2825    -2820    -2818    -2816    -2809 
   -2803    -2801    -2798    -2795    -2789    -2783    -2778    -2771 
   -2764    -2759    -2756    -2747    -2736    -2727    -2721    -2718 
   -2712    -2700    -2688    -2679    -2671    -2667    -2660    -2648 
   -2640    -2633    -2624    -2612    -2604    -2600    -2590    -2577 
   -2567    -2556    -2548    -2546    -2540    -2532    -2519    -2504 
   -2498    -2496    -2486    -2475    -2467    -2461    -2457    -2452 
   -2442    -2436    -2432    -2425    -2419    -2415    -2405    -2397 
   -2393    -2390    -2385    -2380    -2378    -2373    -2363    -2357 
   -2353    -2347    -2343    -2338    -2332    -2328    -2323    -2319 
   -2316    -2307    -2296    -2286    -2284    -2278    -2270    -2263 
   -2255    -2247    -2239    -2230    -2222    -2215    -2204    -2193 
   -2187    -2182    -2176    -2166    -2154    -2143    -2135    -2124 
   -2115    -2106    -2098    -2095    -2088    -2073    -2064    -2057 
   -2046    -2038    -2034    -2029    -2023    -2016    -2008    -2001 
   -1998    -1991    -1984    -1979    -1975    -1972    -1968    -1964 
   -1961    -1954    -1948    -1952    -1954    -1954    -1954    -1945 
   -1933    -1933    -1939    -1946    -1949    -1946    -1945    -1944 
   -1942    -1945    -1954    -1958    -1960    -1961    -1960    -1961 
   -1971    -1975    -1977    -1980    -1981    -1981    -1987    -1991 
   -1995    -2006    -2018    -2023    -2023    -2023    -2026    -2033 
   -2041    -2047    -2056    -2065    -2072    -2077    -2083    -2088 
   -2093    -2101    -2106    -2107    -2115    -2124    -2134    -2141 
   -2144    -2149    -2153    -2160    -2168    -2172    -2174    -2180 
   -2185    -2192    -2199    -2204    -2208    -2205    -2208    -2215 
   -2220    -2222    -2223    -2227    -2234    -2236    -2236    -2235 
   -2236    -2239    -2236    -2234    -2235    -2238    -2239    -2238 
   -2238    -2238    -2235    -2236    -2239    -2232    -2224    -2224 
   -2226    -2227    -2227    -2223    -2222    -2222    -2215    -2211 
   -2208    -2207    -2205    -2205    -2208    -2209    -2209    -2207 
   -2203    -2201    -2200    -2199    -2199    -2203    -2203    -2201 
   -2204    -2208    -2212    -2212    -2211    -2212    -2212    -2212 
   -2215    -2223    -2228    -2232    -2232    -2232    -2239    -2243 
   -2246    -2250    -2254    -2262    -2272    -2277    -2280    -2285 
   -2292    -2299    -2304    -2308    -2315    -2324    -2334    -2342 
   -2349    -2355    -2363    -2371    -2378    -2385    -2394    -2407 
