Origin Time       2016/04/16 01:25:00
Lat.              32.753
Long.             130.762
Depth. (km)       12
Mag.              7.3
Station Code      NGN024
Station Lat.      35.5232
Station Long.     137.8374
Station Height(m) 538
Record Time       2016/04/16 01:28:40
Sampling Freq(Hz) 100Hz
Duration Time(s)  67
Dir.              E-W
Scale Factor      7845(gal)/8223790
Max. Acc. (gal)   1.481
Last Correction   2016/04/16 01:28:41
Memo.             
[...]
  -15915   -15905   -15892   -15866   -15830   -15816   -15823   -15815 
  -15793   -15781   -15790   -15807   -15797   -15770   -15776   -15797 
  -15801   -15809   -15822   -15823   -15835   -15854   -15859   -15867 
  -15886   -15915   -15943   -15957   -15966   -15979   -15998   -16028 
  -16054   -16071   -16098   -16131   -16162   -16189   -16210   -16246 
  -16287   -16305   -16343   -16397   -16421   -16451   -16510   -16560 
  -16598   -16637   -16671   -16717   -16771   -16820   -16865   -16915 
  -16977   -17031   -17061   -17104   -17176   -17238   -17286   -17332 
  -17377   -17429   -17481   -17527   -17578   -17633   -17678   -17724 
  -17770   -17815   -17863   -17891   -17896   -17917   -17965   -18017 
  -18050   -18058   -18052   -18057   -18081   -18110   -18117   -18107 
  -18106   -18119   -18131   -18126   -18114   -18115   -18122   -18112 
  -18087   -18063   -18061   -18063   -18044   -18019   -17988   -17957 
  -17948   -17937   -17898   -17852   -17820   -17799   -17782   -17755 
  -17716   -17670   -17632   -17612   -17568   -17514   -17486   -17466 
  -17424   -17375   -17332   -17302   -17275   -17227   -17165   -17118 
  -17084   -17057   -17031   -17000   -16949   -16889   -16848   -16823 
  -16803   -16783   -16741   -16694   -16669   -16649   -16618   -16592 
  -16576   -16559   -16536   -16513   -16497   -16486   -16470   -16441 
  -16424   -16426   -16418   -16406   -16401   -16379   -16355   -16352 
  -16352   -16340   -16325   -16318   -16310   -16301   -16297   -16283 
  -16274   -16278   -16275   -16260   -16243   -16229   -16232   -16254 
  -16263   -16258   -16254   -16251   -16244   -16248   -16264   -16285 
  -16298   -16303   -16306   -16316   -16335   -16359   -16371   -16380 
  -16401   -16421   -16438   -16449   -16460   -16491   -16525   -16540 
  -16553   -16560   -16575   -16609   -16627   -16634   -16659   -16686 
  -16708   -16730   -16735   -16746   -16785   -16820   -16829   -16831 
  -16843   -16869   -16903   -16923   -16926   -16931   -16960   -16984 
  -16984   -16995   -17014   -17014   -17008   -17012   -17015   -17024 
  -17037   -17018   -16991   -16984   -16988   -16983   -16969   -16949 
  -16929   -16922   -16903   -16872   -16856   -16845   -16823   -16803 
  -16783   -16764   -16752   -16727   -16684   -16645   -16641   -16654 
  -16632   -16584   -16552   -16528   -16510   -16490   -16444   -16421 
  -16433   -16414   -16368   -16344   -16335   -16316   -16293   -16275 
  -16260   -16252   -16262   -16256   -16218   -16190   -16190   -16194 
  -16202   -16208   -16193   -16167   -16154   -16150   -16144   -16139 
  -16150   -16164   -16155   -16128   -16123   -16133   -16131   -16131 
  -16141   -16155   -16174   -16179   -16171   -16178   -16202   -16227 
  -16236   -16240   -16267   -16306   -16318   -16321   -16352   -16398 
  -16420   -16430   -16459   -16495   -16524   -16538   -16545   -16572 
  -16615   -16649   -16675   -16694   -16700   -16711   -16737   -16771 
  -16806   -16829   -16837   -16843   -16857   -16875   -16900   -16923 
  -16955   -16975   -16968   -16969   -17004   -17030   -17038   -17057 
  -17078   -17090   -17096   -17101   -17113   -17120   -17126   -17149 
  -17166   -17166   -17165   -17162   -17161   -17178   -17202   -17199 
  -17189   -17205   -17219   -17205   -17204   -17239   -17263   -17250 
  -17240   -17251   -17266   -17274   -17266   -17262   -17275   -17282 
  -17278   -17280   -17281   -17280   -17263   -17242   -17239   -17246 
  -17251   -17247   -17219   -17201   -17197   -17190   -17193   -17189 
  -17163   -17154   -17159   -17157   -17163   -17169   -17161   -17163 
  -17162   -17151   -17167   -17192   -17199   -17202   -17202   -17207 
  -17230   -17251   -17270   -17282   -17277   -17290   -17316   -17324 
  -17350   -17381   -17386   -17393   -17400   -17417   -17450   -17473 
  -17485   -17490   -17494   -17529   -17562   -17556   -17568   -17601 
  -17620   -17636   -17641   -17651   -17682   -17695   -17694   -17707 
  -17729   -17759   -17778   -17768   -17766   -17775   -17779   -17793 
  -17811   -17815   -17815   -17811   -17803   -17807   -17820   -17830 
  -17834   -17825   -17805   -17803   -17815   -17810   -17793   -17775 
  -17770   -17790   -17798   -17753   -17710   -17705   -17705   -17687 
  -17675   -17682   -17667   -17622   -17586   -17566   -17558   -17544 
  -17505   -17463   -17440   -17427   -17408   -17365   -17321   -17301 
  -17253   -17181   -17158   -17158   -17122   -17058   -16995   -16946 
  -16929   -16912   -16872   -16816   -16771   -16734   -16687   -16637 
  -16603   -16573   -16544   -16513   -16474   -16438   -16403   -16362 
  -16325   -16297   -16263   -16239   -16221   -16197   -16186   -16178 
  -16137   -16096   -16081   -16070   -16050   -16042   -16031   -16005 
  -15988   -15978   -15955   -15936   -15939   -15935   -15900   -15862 
  -15857   -15863   -15854   -15836   -15822   -15809   -15807   -15797 
  -15769   -15754   -15763   -15768   -15754   -15749   -15759   -15758 
  -15742   -15734   -15741   -15761   -15774   -15759   -15749   -15762 
  -15777   -15793   -15803   -15795   -15799   -15824   -15838   -15847 
  -15865   -15881   -15886   -15893   -15920   -15958   -15978   -15994 
  -16015   -16033   -16065   -16096   -16116   -16141   -16170   -16193 
  -16222   -16256   -16286   -16313   -16332   -16348   -16372   -16402 
  -16436   -16464   -16486   -16502   -16518   -16542   -16582   -16610 
  -16606   -16606   -16637   -16667   -16688   -16708   -16707   -16707 
  -16740   -16765   -16760   -16760   -16779   -16799   -16809   -16814 
  -16822   -16842   -16860   -16877   -16880   -16886   -16918   -16955 
  -16978   -16992   -17010   -17037   -17066   -17093   -17128   -17166 
  -17193   -17221   -17247   -17266   -17304   -17354   -17390   -17417 
  -17446   -17489   -17531   -17555   -17578   -17608   -17635   -17670 
  -17713   -17748   -17768   -17793   -17822   -17847   -17876   -17913 
  -17936   -17953   -17972   -17983   -17992   -18023   -18063   -18080 
  -18096   -18107   -18095   -18096   -18110   -18114   -18139   -18171 
  -18143   -18111   -18129   -18142   -18141   -18157   -18158   -18142 
  -18149   -18142   -18111   -18110   -18139   -18149   -18135   -18122 
  -18119   -18112   -18106   -18099   -18083   -18073   -18080   -18073 
  -18065   -18054   -18015   -17980   -17965   -17944   -17925   -17925 
  -17905   -17864   -17847   -17826   -17775   -17739   -17709   -17661 
  -17641   -17632   -17590   -17539   -17497   -17460   -17417   -17370 
  -17338   -17309   -17270   -17227   -17181   -17138   -17107   -17066 
  -17021   -17001   -16977   -16938   -16920   -16897   -16852   -16814 
  -16788   -16761   -16760   -16758   -16731   -16708   -16696   -16680 
  -16667   -16659   -16665   -16667   -16646   -16634   -16649   -16667 
  -16671   -16668   -16665   -16667   -16672   -16691   -16708   -16719 
  -16748   -16780   -16789   -16783   -16779   -16794   -16840   -16885 
  -16903   -16922   -16952   -16991   -17014   -17018   -17032   -17070 
  -17123   -17181   -17228   -17254   -17265   -17281   -17309   -17352 
  -17400   -17446   -17496   -17540   -17566   -17582   -17602   -17640 
  -17690   -17716   -17730   -17779   -17838   -17874   -17907   -17925 
  -17925   -17941   -17976   -18025   -18063   -18061   -18068   -18103 
  -18123   -18139   -18158   -18157   -18157   -18173   -18183   -18193 
  -18215   -18223   -18198   -18175   -18185   -18203   -18195   -18180 
  -18169   -18153   -18127   -18100   -18085   -18085   -18064   -18018 
  -17984   -17960   -17932   -17896   -17844   -17793   -17764   -17732 
  -17683   -17637   -17590   -17527   -17455   -17410   -17375   -17315 
  -17253   -17199   -17139   -17092   -17041   -16964   -16903   -16875 
  -16829   -16761   -16699   -16649   -16606   -16563   -16519   -16476 
  -16437   -16405   -16351   -16285   -16249   -16233   -16206   -16177 
  -16141   -16102   -16066   -16029   -16008   -15990   -15952   -15928 
  -15925   -15896   -15858   -15835   -15816   -15807   -15790   -15749 
  -15716   -15705   -15701   -15688   -15647   -15610   -15596   -15588 
  -15579   -15572   -15556   -15526   -15489   -15468   -15462   -15465 
  -15475   -15475   -15456   -15444   -15437   -15427   -15427   -15429 
  -15434   -15452   -15475   -15500   -15522   -15533   -15537   -15545 
  -15579   -15637   -15688   -15724   -15750   -15780   -15819   -15870 
  -15931   -15978   -16005   -16048   -16108   -16156   -16213   -16272 
  -16306   -16345   -16403   -16454   -16518   -16588   -16636   -16675 
  -16717   -16753   -16808   -16877   -16938   -16988   -17032   -17081 
  -17119   -17147   -17193   -17246   -17288   -17339   -17394   -17443 
  -17504   -17547   -17562   -17589   -17626   -17682   -17753   -17802 
  -17832   -17868   -17891   -17925   -17973   -18000   -18037   -18104 
  -18152   -18171   -18192   -18222   -18256   -18292   -18318   -18339 
  -18373   -18416   -18438   -18432   -18435   -18461   -18486   -18492 
  -18485   -18481   -18478   -18477   -18474   -18455   -18435   -18424 
  -18405   -18372   -18347   -18335   -18315   -18287   -18252   -18214 
  -18179   -18152   -18119   -18075   -18040   -18025   -18009   -17968 
  -17911   -17868   -17851   -17832   -17799   -17772   -17755   -17725 
  -17701   -17689   -17656   -17633   -17633   -17613   -17587   -17583 
  -17572   -17551   -17551   -17548   -17517   -17502   -17516   -17513 
  -17498   -17486   -17470   -17470   -17490   -17474   -17437   -17435 
  -17446   -17437   -17423   -17415   -17400   -17382   -17358   -17325 
  -17313   -17316   -17288   -17240   -17211   -17185   -17166   -17154 
  -17124   -17080   -17038   -17000   -16966   -16942   -16922   -16895 
  -16856   -16812   -16773   -16734   -16705   -16679   -16642   -16615 
  -16587   -16544   -16506   -16478   -16451   -16421   -16380   -16353 
  -16336   -16309   -16287   -16259   -16220   -16204   -16194   -16173 
  -16159   -16150   -16121   -16096   -16096   -16087   -16056   -16046 
  -16058   -16059   -16056   -16036   -16013   -16031   -16047   -16031 
  -16023   -16027   -16028   -16038   -16050   -16054   -16047   -16048 
  -16070   -16085   -16089   -16097   -16100   -16109   -16128   -16140 
  -16155   -16179   -16187   -16183   -16193   -16216   -16236   -16241 
  -16249   -16266   -16278   -16283   -16287   -16291   -16305   -16318 
  -16320   -16326   -16336   -16340   -16351   -16352   -16343   -16347 
  -16362   -16382   -16401   -16401   -16394   -16395   -16413   -16451 
  -16470   -16463   -16463   -16471   -16491   -16521   -16537   -16548 
  -16563   -16569   -16580   -16598   -16616   -16649   -16676   -16688 
  -16703   -16719   -16738   -16767   -16786   -16803   -16829   -16846 
  -16869   -16900   -16912   -16909   -16918   -16952   -16981   -16978 
  -16980   -16989   -16995   -17018   -17034   -17015   -17026   -17054 
  -17050   -17050   -17064   -17061   -17050   -17050   -17058   -17069 
  -17077   -17087   -17084   -17067   -17053   -17047   -17053   -17058 
  -17054   -17041   -17035   -17032   -17026   -17015   -17000   -16995 
  -16995   -16975   -16955   -16961   -16975   -16969   -16949   -16931 
  -16923   -16929   -16935   -16929   -16923   -16922   -16923   -16929 
  -16938   -16946   -16938   -16926   -16932   -16937   -16943   -16966 
  -16974   -16968   -16972   -16980   -16969   -16969   -16988   -17000 
  -17001   -17004   -17020   -17030   -17037   -17053   -17043   -17024 
  -17054   -17087   -17084   -17076   -17081   -17096   -17123   -17134 
  -17122   -17113   -17123   -17140   -17154   -17157   -17157   -17159 
  -17166   -17161   -17154   -17165   -17169   -17167   -17177   -17178 
  -17166   -17165   -17167   -17159   -17154   -17161   -17165   -17161 
  -17162   -17147   -17116   -17113   -17126   -17118   -17113   -17104 
  -17073   -17070   -17077   -17054   -17041   -17041   -17018   -17000 
  -16989   -16977   -16974   -16969   -16937   -16903   -16892   -16889 
  -16875   -16846   -16812   -16791   -16785   -16767   -16727   -16703 
  -16695   -16671   -16634   -16600   -16579   -16569   -16561   -16536 
  -16491   -16460   -16456   -16438   -16407   -16394   -16386   -16379 
  -16374   -16351   -16328   -16324   -16330   -16335   -16332   -16335 
  -16339   -16332   -16332   -16344   -16355   -16386   -16407   -16394 
  -16388   -16407   -16436   -16472   -16486   -16471   -16483   -16525 
  -16557   -16573   -16579   -16586   -16613   -16653   -16672   -16668 
  -16692   -16734   -16742   -16741   -16765   -16800   -16829   -16843 
  -16843   -16856   -16888   -16918   -16922   -16926   -16965   -17008 
  -17010   -17004   -17027   -17064   -17097   -17115   -17126   -17151 
  -17182   -17207   -17228   -17239   -17258   -17298   -17328   -17350 
  -17375   -17390   -17406   -17439   -17469   -17489   -17502   -17517 
  -17550   -17572   -17575   -17586   -17601   -17609   -17621   -17626 
  -17631   -17635   -17632   -17625   -17617   -17597   -17583   -17586 
  -17582   -17562   -17533   -17486   -17442   -17427   -17416   -17381 
  -17334   -17297   -17257   -17209   -17159   -17111   -17078   -17047 
  -16983   -16914   -16869   -16826   -16780   -16730   -16663   -16600 
  -16553   -16506   -16463   -16407   -16339   -16281   -16236   -16195 
  -16147   -16085   -16025   -15985   -15949   -15908   -15862   -15822 
  -15795   -15758   -15695   -15660   -15664   -15635   -15583   -15554 
  -15535   -15520   -15518   -15504   -15479   -15460   -15442   -15427 
  -15419   -15421   -15424   -15410   -15390   -15392   -15403   -15403 
  -15404   -15410   -15407   -15403   -15410   -15417   -15429   -15453 
  -15472   -15472   -15475   -15495   -15515   -15534   -15553   -15564 
  -15576   -15595   -15624   -15662   -15684   -15688   -15723   -15770 
  -15782   -15789   -15822   -15867   -15916   -15946   -15962   -15998 
  -16054   -16100   -16119   -16131   -16179   -16252   -16294   -16313 
  -16351   -16413   -16480   -16530   -16555   -16576   -16614   -16672 
  -16734   -16780   -16829   -16879   -16918   -16955   -16992   -17032 
  -17077   -17120   -17173   -17223   -17247   -17280   -17342   -17386 
  -17406   -17443   -17491   -17527   -17567   -17610   -17644   -17680 
  -17725   -17752   -17778   -17829   -17886   -17917   -17933   -17957 
  -17984   -18021   -18064   -18088   -18110   -18142   -18162   -18184 
  -18211   -18225   -18235   -18252   -18261   -18269   -18283   -18297 
  -18307   -18304   -18297   -18292   -18285   -18283   -18289   -18289 
  -18269   -18239   -18225   -18216   -18202   -18179   -18145   -18117 
  -18108   -18092   -18058   -18022   -17987   -17965   -17938   -17895 
  -17863   -17838   -17797   -17759   -17747   -17724   -17667   -17610 
  -17581   -17560   -17525   -17481   -17450   -17421   -17388   -17355 
  -17311   -17261   -17232   -17202   -17166   -17146   -17128   -17087 
  -17038   -17007   -16983   -16946   -16918   -16899   -16872   -16842 
  -16806   -16764   -16744   -16733   -16700   -16668   -16641   -16609 
  -16588   -16573   -16537   -16506   -16492   -16471   -16444   -16424 
  -16398   -16365   -16344   -16330   -16310   -16289   -16282   -16263 
  -16232   -16210   -16190   -16174   -16170   -16164   -16143   -16119 
  -16108   -16100   -16086   -16079   -16074   -16066   -16077   -16083 
  -16060   -16048   -16060   -16066   -16070   -16085   -16086   -16089 
  -16117   -16132   -16116   -16117   -16154   -16183   -16187   -16193 
  -16209   -16228   -16260   -16276   -16263   -16274   -16320   -16345 
  -16353   -16362   -16376   -16407   -16426   -16425   -16448   -16479 
  -16488   -16502   -16529   -16549   -16568   -16592   -16609   -16613 
  -16626   -16654   -16675   -16688   -16707   -16723   -16745   -16771 
  -16783   -16786   -16806   -16835   -16860   -16883   -16903   -16920 
  -16946   -16972   -16988   -17008   -17030   -17053   -17092   -17135 
  -17161   -17173   -17190   -17217   -17251   -17285   -17313   -17346 
  -17383   -17410   -17425   -17443   -17471   -17500   -17535   -17567 
  -17594   -17625   -17653   -17666   -17679   -17703   -17734   -17775 
  -17805   -17818   -17836   -17859   -17876   -17886   -17905   -17932 
  -17945   -17948   -17968   -17988   -17994   -17991   -17988   -18000 
  -18019   -18011   -17990   -17987   -17992   -17987   -17971   -17950 
  -17940   -17940   -17929   -17901   -17867   -17838   -17826   -17818 
  -17791   -17750   -17718   -17701   -17682   -17640   -17597   -17574 
  -17551   -17521   -17489   -17452   -17424   -17404   -17373   -17334 
  -17311   -17292   -17259   -17230   -17215   -17196   -17167   -17142 
  -17124   -17107   -17087   -17072   -17050   -17037   -17031   -17015 
  -16995   -16988   -16984   -16983   -16972   -16951   -16938   -16942 
  -16943   -16941   -16942   -16943   -16937   -16935   -16941   -16943 
  -16949   -16957   -16958   -16964   -16960   -16955   -16969   -16980 
  -16995   -17012   -17001   -16992   -17011   -17023   -17023   -17018 
  -17012   -17031   -17054   -17058   -17053   -17050   -17054   -17057 
  -17049   -17050   -17078   -17097   -17092   -17067   -17038   -17047 
  -17084   -17087   -17067   -17070   -17064   -17043   -17035   -17038 
  -17046   -17054   -17043   -17026   -17010   -16992   -16992   -16992 
  -16978   -16972   -16965   -16949   -16945   -16934   -16923   -16922 
  -16902   -16886   -16888   -16879   -16872   -16872   -16860   -16846 
  -16842   -16842   -16843   -16837   -16843   -16852   -16837   -16820 
  -16833   -16854   -16856   -16849   -16857   -16857   -16842   -16848 
  -16872   -16886   -16895   -16892   -16880   -16880   -16902   -16903 
  -16880   -16880   -16906   -16911   -16900   -16895   -16908   -16920 
  -16903   -16880   -16883   -16902   -16929   -16943   -16915   -16892 
  -16900   -16903   -16906   -16911   -16914   -16922   -16922   -16908 
  -16903   -16909   -16923   -16931   -16926   -16922   -16932   -16958 
  -16972   -16952   -16935   -16952   -16989   -17018   -17021   -17018 
  -17027   -17038   -17041   -17055   -17080   -17097   -17104   -17107 
  -17122   -17145   -17158   -17165   -17173   -17189   -17205   -17204 
  -17200   -17221   -17238   -17242   -17253   -17259   -17265   -17274 
  -17261   -17250   -17270   -17288   -17300   -17320   -17309   -17285 
  -17277   -17274   -17284   -17305   -17315   -17316   -17319   -17311 
  -17293   -17284   -17297   -17313   -17313   -17315   -17317   -17315 
  -17323   -17320   -17302   -17301   -17311   -17311   -17324   -17340 
  -17332   -17309   -17297   -17304   -17311   -17304   -17298   -17307 
  -17317   -17311   -17296   -17298   -17301   -17292   -17285   -17281 
  -17284   -17302   -17304   -17286   -17290   -17286   -17259   -17258 
  -17275   -17275   -17274   -17277   -17267   -17250   -17239   -17232 
  -17223   -17225   -17231   -17209   -17192   -17202   -17196   -17169 
  -17161   -17151   -17128   -17109   -17104   -17104   -17098   -17080 
  -17049   -17018   -17008   -16989   -16964   -16965   -16965   -16949 
  -16929   -16892   -16868   -16869   -16848   -16817   -16814   -16812 
  -16794   -16776   -16760   -16746   -16733   -16721   -16708   -16700 
  -16698   -16692   -16682   -16671   -16663   -16659   -16652   -16641 
  -16632   -16622   -16616   -16613   -16614   -16623   -16619   -16606 
  -16603   -16596   -16583   -16572   -16567   -16571   -16572   -16568 
