Origin Time       2016/04/16 01:25:00
Lat.              32.753
Long.             130.762
Depth. (km)       12
Mag.              7.3
Station Code      NGN015
Station Lat.      36.0454
Station Long.     138.1116
Station Height(m) 761
Record Time       2016/04/16 01:28:44
Sampling Freq(Hz) 100Hz
Duration Time(s)  137
Dir.              N-S
Scale Factor      7845(gal)/8223790
Max. Acc. (gal)   3.197
Last Correction   2016/04/16 01:28:45
Memo.             
[...]
     190      149      112       74       37        8      -18      -47 
     -75      -97     -116     -131     -144     -155     -163     -168 
    -168     -167     -164     -157     -149     -141     -129     -110 
     -90      -70      -44      -18        5       37       68      101 
     141      182      221      266      315      361      409      459 
     511      566      621      673      731      792      853      912 
     969     1032     1097     1158     1219     1282     1343     1405 
    1471     1535     1599     1663     1728     1791     1852     1915 
    1977     2039     2101     2161     2220     2278     2334     2392 
    2447     2501     2554     2605     2651     2695     2740     2785 
    2825     2863     2902     2937     2967     2998     3026     3055 
    3079     3100     3121     3140     3157     3175     3187     3196 
    3210     3219     3227     3232     3237     3241     3242     3244 
    3242     3238     3235     3234     3230     3226     3223     3221 
    3215     3207     3202     3198     3188     3180     3177     3168 
    3157     3148     3137     3125     3114     3103     3090     3079 
    3065     3052     3037     3017     2998     2986     2970     2948 
    2928     2906     2884     2866     2843     2821     2801     2781 
    2759     2740     2720     2698     2678     2658     2636     2616 
    2598     2579     2559     2539     2520     2501     2485     2470 
    2454     2438     2423     2411     2397     2386     2377     2369 
    2362     2357     2349     2346     2344     2340     2338     2335 
    2334     2332     2328     2326     2326     2324     2323     2319 
    2313     2309     2309     2303     2295     2286     2280     2273 
    2262     2250     2241     2231     2215     2199     2184     2168 
    2151     2138     2116     2092     2070     2049     2026     2001 
    1979     1956     1933     1906     1878     1852     1825     1798 
    1772     1744     1714     1688     1660     1628     1595     1563 
    1532     1499     1463     1425     1390     1351     1310     1267 
    1225     1185     1142     1094     1048     1000      954      907 
     854      799      746      693      638      584      529      471 
     415      356      295      240      183      124       68       16 
     -37      -90     -139     -187     -234     -278     -319     -361 
    -400     -432     -463     -488     -510     -529     -546     -561 
    -569     -573     -577     -573     -565     -556     -542     -525 
    -506     -481     -450     -417     -379     -338     -298     -251 
    -199     -149      -91      -29       28       90      160      228 
     295      367      440      514      588      666      747      830 
     912      997     1081     1166     1255     1341     1428     1518 
    1609     1701     1794     1885     1975     2069     2163     2257 
    2350     2444     2538     2633     2733     2832     2926     3021 
    3114     3206     3299     3391     3480     3566     3650     3732 
    3811     3888     3964     4036     4101     4167     4228     4286 
    4342     4393     4440     4484     4525     4558     4591     4623 
    4649     4671     4691     4707     4720     4729     4735     4739 
    4737     4733     4730     4725     4718     4708     4698     4687 
    4673     4657     4639     4621     4602     4580     4557     4531 
    4506     4482     4456     4428     4401     4372     4342     4317 
    4289     4261     4233     4209     4182     4152     4122     4094 
    4066     4036     4009     3978     3951     3923     3890     3859 
    3828     3798     3766     3736     3705     3672     3639     3607 
    3574     3542     3511     3478     3443     3410     3377     3339 
    3304     3272     3240     3208     3176     3141     3106     3073 
    3045     3014     2982     2949     2917     2887     2857     2825 
    2797     2766     2732     2702     2674     2647     2621     2594 
    2570     2543     2516     2492     2469     2442     2419     2397 
    2373     2351     2327     2301     2277     2254     2228     2203 
    2177     2153     2126     2100     2070     2039     2008     1975 
    1941     1907     1875     1841     1803     1764     1726     1691 
    1655     1614     1575     1534     1490     1448     1409     1368 
    1327     1285     1242     1197     1156     1116     1074     1035 
     994      953      912      874      838      801      764      728 
     697      665      633      606      577      552      529      504 
     479      454      433      415      399      382      365      351 
     338      330      325      319      315      313      313      314 
     317      319      322      330      341      353      365      378 
     395      411      430      454      479      506      535      566 
     600      633      668      704      741      781      824      864 
     908      953      996     1043     1094     1146     1197     1252 
    1306     1363     1424     1479     1534     1595     1656     1718 
    1779     1841     1903     1965     2026     2087     2150     2212 
    2274     2338     2398     2458     2519     2578     2633     2688 
    2744     2799     2857     2910     2961     3014     3069     3122 
    3176     3231     3287     3339     3391     3443     3497     3546 
    3592     3642     3689     3730     3770     3813     3851     3889 
    3924     3954     3984     4014     4040     4060     4078     4097 
    4113     4122     4131     4135     4136     4135     4128     4117 
    4105     4090     4074     4055     4029     4002     3975     3944 
    3905     3866     3825     3776     3728     3681     3626     3562 
    3499     3437     3369     3296     3222     3146     3068     2986 
    2903     2816     2727     2639     2550     2455     2359     2266 
    2174     2077     1980     1885     1788     1691     1594     1499 
    1404     1305     1209     1111     1013      920      830      741 
     656      566      479      399      317      234      157       83 
       5      -67     -137     -202     -263     -326     -383     -436 
    -488     -538     -584     -625     -662     -697     -733     -762 
    -783     -803     -823     -835     -842     -850     -854     -851 
    -847     -838     -827     -812     -793     -769     -738     -700 
    -661     -619     -575     -525     -473     -419     -360     -301 
    -238     -170      -98      -22       56      140      221      309 
     406      499      592      692      793      893      994     1097 
    1202     1306     1412     1521     1625     1726     1831     1933 
    2029     2130     2232     2335     2438     2535     2631     2731 
    2828     2918     3005     3092     3179     3264     3349     3430 
    3511     3592     3667     3738     3808     3877     3942     4001 
    4058     4117     4174     4223     4271     4317     4356     4392 
    4428     4459     4483     4502     4522     4541     4554     4564 
    4571     4576     4579     4575     4560     4545     4527     4500 
    4471     4441     4405     4365     4321     4268     4215     4164 
    4106     4043     3975     3904     3828     3753     3674     3589 
    3501     3415     3323     3227     3133     3038     2940     2836 
    2732     2628     2520     2412     2307     2196     2085     1975 
    1867     1755     1644     1532     1421     1312     1200     1092 
     985      874      764      658      553      449      351      252 
     152       54      -41     -133     -218     -303     -390     -472 
    -552     -631     -704     -774     -843     -907     -965    -1021 
   -1078    -1129    -1174    -1219    -1259    -1294    -1323    -1348 
   -1372    -1398    -1417    -1429    -1439    -1447    -1445    -1439 
   -1429    -1414    -1397    -1378    -1354    -1329    -1300    -1263 
   -1223    -1181    -1139    -1098    -1057    -1012     -965     -916 
    -864     -810     -754     -700     -649     -598     -544     -490 
    -438     -383     -326     -274     -224     -171     -122      -74 
     -25       21       67      112      159      209      252      291 
     336      376      415      457      498      540      583      625 
     665      707      749      792      838      886      934      978 
    1023     1070     1117     1162     1209     1259     1306     1359 
    1409     1456     1503     1547     1593     1641     1683     1726 
    1775     1822     1869     1918     1969     2019     2065     2114 
    2163     2215     2266     2319     2373     2427     2482     2538 
    2593     2650     2708     2770     2829     2890     2951     3010 
    3071     3130     3191     3250     3308     3366     3424     3483 
    3538     3586     3636     3688     3736     3782     3823     3861 
    3897     3929     3955     3979     4002     4024     4041     4058 
    4063     4063     4066     4062     4050     4033     4014     3991 
    3967     3936     3899     3863     3823     3776     3728     3678 
    3626     3572     3514     3453     3387     3316     3245     3171 
    3090     3013     2934     2852     2768     2686     2601     2515 
    2427     2338     2250     2161     2073     1982     1890     1799 
    1709     1615     1522     1431     1345     1259     1169     1081 
     992      903      820      735      656      575      490      414 
     342      263      189      117       47      -17      -81     -143 
    -202     -259     -315     -368     -419     -469     -521     -566 
    -607     -648     -685     -715     -750     -783     -811     -834 
    -857     -880     -903     -923     -940     -955     -967     -980 
    -990    -1000    -1007    -1012    -1013    -1013    -1013    -1011 
   -1008    -1000     -986     -976     -965     -947     -929     -911 
    -888     -862     -832     -801     -770     -737     -699     -658 
    -618     -579     -535     -488     -438     -390     -336     -280 
    -225     -168     -103      -37       23       90      163      233 
     303      375      449      526      606      684      761      841 
     920      999     1078     1161     1242     1325     1405     1487 
    1574     1661     1745     1830     1914     1993     2073     2154 
    2236     2319     2397     2475     2554     2632     2706     2781 
    2856     2928     2997     3068     3137     3198     3256     3314 
    3372     3429     3481     3530     3581     3627     3666     3704 
    3738     3771     3800     3827     3848     3866     3882     3896 
    3904     3908     3909     3908     3902     3896     3886     3870 
    3854     3838     3815     3789     3765     3738     3704     3669 
    3631     3589     3547     3500     3449     3396     3339     3283 
    3229     3168     3103     3037     2970     2901     2828     2755 
    2683     2608     2533     2458     2380     2297     2219     2141 
    2064     1985     1906     1826     1750     1677     1603     1528 
    1457     1389     1321     1259     1202     1142     1084     1032 
     980      929      882      838      799      761      723      691 
     664      638      616      599      584      575      568      566 
     569      572      575      579      592      607      626      649 
     675      700      727      760      792      827      868      913 
     958     1004     1053     1104     1154     1205     1262     1318 
    1372     1431     1493     1557     1624     1688     1752     1815 
    1887     1960     2030     2095     2162     2231     2301     2373 
    2442     2513     2581     2647     2713     2776     2837     2899 
    2963     3021     3076     3132     3187     3240     3284     3329 
    3369     3412     3453     3489     3520     3549     3574     3597 
    3620     3643     3662     3676     3689     3700     3704     3707 
    3711     3711     3713     3716     3708     3699     3692     3681 
    3669     3655     3639     3623     3607     3589     3570     3547 
    3523     3501     3483     3459     3434     3407     3380     3354 
    3325     3298     3271     3241     3208     3176     3141     3106 
    3069     3032     2995     2955     2910     2863     2822     2779 
    2733     2685     2636     2587     2535     2484     2430     2376 
    2322     2262     2203     2143     2081     2018     1952     1878 
    1802     1726     1653     1579     1503     1428     1351     1271 
    1193     1117     1039      962      885      810      735      658 
     583      511      445      380      315      256      199      148 
      94       45        4      -36      -76     -112     -143     -171 
    -191     -209     -222     -230     -236     -238     -237     -232 
    -224     -210     -193     -171     -148     -120      -86      -55 
     -18       27       71      118      171      225      280      341 
     410      481      553      627      702      784      864      946 
    1035     1125     1213     1304     1401     1493     1587     1687 
    1788     1891     1998     2100     2201     2305     2411     2513 
    2617     2721     2828     2929     3029     3129     3229     3327 
    3426     3524     3620     3712     3802     3890     3973     4051 
    4129     4205     4282     4359     4430     4495     4558     4619 
    4676     4726     4776     4826     4870     4912     4950     4985 
    5015     5044     5071     5093     5112     5128     5143     5155 
    5163     5166     5169     5167     5158     5148     5136     5124 
    5108     5089     5071     5050     5022     4989     4956     4916 
    4874     4831     4784     4735     4688     4631     4572     4514 
    4452     4387     4325     4258     4192     4124     4051     3978 
    3904     3824     3743     3661     3574     3489     3402     3310 
    3221     3129     3034     2938     2847     2751     2651     2550 
    2450     2351     2251     2150     2049     1949     1848     1745 
    1644     1541     1441     1347     1250     1151     1055      957 
     855      756      658      566      476      383      294      209 
     124       39      -43     -121     -195     -266     -336     -398 
    -459     -521     -579     -633     -680     -720     -758     -793 
    -822     -849     -874     -893     -907     -919     -926     -928 
    -929     -927     -919     -905     -889     -873     -853     -824 
    -793     -760     -723     -687     -646     -602     -553     -502 
    -446     -394     -336     -272     -207     -144      -75       -2 
      70      144      222      298      372      454      537      618 
     700      785      864      945     1030     1109     1189     1269 
    1348     1428     1507     1586     1663     1738     1811     1880 
    1946     2014     2079     2141     2199     2258     2311     2354 
    2398     2444     2490     2531     2570     2608     2641     2673 
    2702     2729     2754     2778     2802     2821     2843     2863 
    2880     2893     2906     2918     2926     2938     2952     2964 
    2978     2990     2999     3009     3017     3025     3033     3041 
    3048     3053     3059     3060     3061     3064     3065     3065 
    3064     3060     3056     3051     3044     3032     3021     3011 
    2999     2984     2971     2952     2929     2910     2887     2862 
    2837     2814     2791     2770     2748     2725     2698     2671 
    2644     2614     2586     2560     2531     2500     2466     2434 
    2403     2367     2332     2297     2261     2223     2185     2147 
    2110     2073     2038     2003     1969     1934     1898     1864 
    1831     1795     1755     1722     1690     1655     1617     1580 
    1544     1507     1471     1436     1399     1362     1327     1291 
    1252     1213     1178     1143     1104     1069     1038     1004 
     970      938      907      877      845      815      787      761 
     738      718      695      670      649      629      608      592 
     579      565      553      542      531      523      519      513 
     506      503      502      504      506      508      513      515 
     517      523      531      538      548      556      564      576 
     591      602      616      634      650      666      680      693 
     710      723      735      749      761      773      788      799 
     811      823      835      847      859      872      885      897 
     907      916      924      936      950      962      972      981 
     992     1003     1016     1031     1046     1059     1070     1081 
    1094     1105     1119     1129     1144     1161     1177     1192 
    1208     1225     1243     1260     1282     1301     1318     1341 
    1362     1379     1402     1424     1440     1462     1483     1499 
    1517     1533     1548     1563     1579     1593     1609     1625 
    1638     1653     1668     1679     1688     1696     1709     1719 
    1728     1740     1752     1759     1768     1777     1783     1790 
    1796     1802     1806     1809     1813     1814     1811     1807 
    1806     1803     1799     1795     1792     1784     1773     1767 
    1761     1750     1737     1725     1711     1695     1677     1663 
    1647     1628     1606     1588     1571     1557     1539     1520 
    1503     1487     1472     1457     1440     1428     1417     1401 
    1382     1370     1356     1341     1329     1320     1308     1297 
    1290     1285     1279     1274     1270     1269     1269     1267 
    1263     1260     1263     1269     1271     1274     1282     1289 
    1293     1298     1310     1323     1336     1350     1366     1383 
    1405     1426     1448     1472     1498     1526     1554     1586 
    1618     1651     1686     1723     1763     1803     1845     1884 
    1922     1964     2007     2049     2089     2134     2178     2220 
    2263     2309     2354     2397     2439     2477     2516     2554 
    2590     2623     2654     2686     2717     2745     2771     2794 
    2817     2837     2853     2870     2886     2898     2909     2921 
    2930     2937     2949     2959     2963     2970     2972     2972 
    2974     2976     2975     2972     2971     2967     2963     2957 
    2953     2948     2938     2929     2924     2917     2909     2902 
    2896     2891     2884     2874     2866     2857     2848     2836 
    2825     2814     2799     2782     2767     2754     2736     2718 
    2704     2688     2675     2662     2646     2627     2613     2597 
    2578     2559     2542     2523     2497     2470     2444     2417 
    2390     2363     2335     2307     2276     2242     2208     2172 
    2135     2098     2060     2019     1981     1942     1900     1857 
    1813     1768     1722     1675     1629     1582     1535     1489 
    1440     1390     1340     1291     1243     1193     1146     1100 
    1053     1004      955      908      862      819      776      734 
     693      653      615      581      545      510      477      445 
     417      390      364      344      324      302      287      274 
     255      240      232      224      217      212      209      209 
     210      214      224      236      245      261      282      305 
     328      352      378      406      434      468      504      544 
