Origin Time       2016/04/16 01:25:00
Lat.              32.753
Long.             130.762
Depth. (km)       12
Mag.              7.3
Station Code      NGN010
Station Lat.      36.3281
Station Long.     138.4357
Station Height(m) 740
Record Time       2016/04/16 01:29:16
Sampling Freq(Hz) 100Hz
Duration Time(s)  60
Dir.              N-S
Scale Factor      7845(gal)/8223790
Max. Acc. (gal)   1.514
Last Correction   2016/04/16 01:29:18
Memo.             
[...]
   -1537    -1552    -1560    -1561    -1560    -1566    -1572    -1575 
   -1578    -1580    -1586    -1591    -1599    -1605    -1606    -1606 
   -1606    -1610    -1614    -1621    -1628    -1634    -1637    -1636 
   -1632    -1632    -1638    -1642    -1644    -1644    -1645    -1645 
   -1651    -1655    -1655    -1649    -1649    -1653    -1656    -1653 
   -1648    -1647    -1649    -1648    -1644    -1642    -1640    -1641 
   -1645    -1644    -1638    -1630    -1625    -1624    -1622    -1621 
   -1617    -1613    -1610    -1603    -1597    -1591    -1588    -1590 
   -1586    -1576    -1568    -1564    -1557    -1551    -1547    -1541 
   -1537    -1534    -1528    -1522    -1516    -1505    -1498    -1495 
   -1491    -1489    -1483    -1472    -1460    -1453    -1449    -1444 
   -1437    -1429    -1421    -1414    -1408    -1402    -1395    -1383 
   -1375    -1368    -1362    -1355    -1351    -1340    -1331    -1325 
   -1317    -1308    -1300    -1296    -1291    -1282    -1277    -1271 
   -1264    -1258    -1248    -1239    -1235    -1230    -1227    -1224 
   -1221    -1215    -1215    -1213    -1206    -1201    -1197    -1194 
   -1196    -1194    -1192    -1192    -1189    -1188    -1189    -1189 
   -1189    -1189    -1190    -1190    -1192    -1192    -1193    -1196 
   -1196    -1196    -1198    -1200    -1202    -1206    -1206    -1205 
   -1206    -1208    -1215    -1221    -1221    -1220    -1223    -1223 
   -1225    -1230    -1230    -1233    -1235    -1232    -1232    -1236 
   -1243    -1246    -1243    -1246    -1244    -1242    -1246    -1251 
   -1252    -1258    -1260    -1259    -1258    -1260    -1264    -1270 
   -1274    -1277    -1281    -1282    -1282    -1293    -1297    -1301 
   -1305    -1310    -1320    -1328    -1329    -1333    -1343    -1350 
   -1355    -1360    -1368    -1377    -1385    -1391    -1402    -1413 
   -1422    -1429    -1437    -1444    -1455    -1466    -1475    -1489 
   -1499    -1507    -1521    -1530    -1537    -1549    -1563    -1575 
   -1587    -1598    -1606    -1615    -1628    -1638    -1648    -1660 
   -1671    -1677    -1686    -1695    -1702    -1714    -1729    -1738 
   -1741    -1748    -1755    -1763    -1775    -1787    -1794    -1800 
   -1803    -1806    -1810    -1817    -1830    -1841    -1850    -1857 
   -1858    -1859    -1867    -1868    -1868    -1872    -1883    -1896 
   -1906    -1911    -1911    -1908    -1907    -1911    -1919    -1927 
   -1930    -1930    -1935    -1939    -1939    -1938    -1938    -1939 
   -1944    -1949    -1952    -1949    -1949    -1945    -1941    -1941 
   -1942    -1938    -1937    -1939    -1941    -1935    -1930    -1929 
   -1922    -1912    -1910    -1910    -1907    -1902    -1899    -1895 
   -1887    -1880    -1878    -1875    -1867    -1858    -1852    -1845 
   -1830    -1822    -1821    -1817    -1810    -1803    -1790    -1777 
   -1768    -1757    -1749    -1740    -1728    -1719    -1715    -1707 
   -1695    -1682    -1671    -1661    -1655    -1647    -1636    -1622 
   -1611    -1605    -1595    -1586    -1578    -1566    -1554    -1547 
   -1540    -1534    -1526    -1514    -1503    -1498    -1495    -1489 
   -1482    -1478    -1472    -1467    -1462    -1459    -1457    -1455 
   -1448    -1444    -1443    -1440    -1441    -1440    -1435    -1431 
   -1431    -1431    -1435    -1435    -1431    -1431    -1429    -1428 
   -1431    -1431    -1431    -1435    -1436    -1436    -1443    -1448 
   -1445    -1443    -1444    -1447    -1448    -1451    -1453    -1456 
   -1459    -1460    -1457    -1457    -1459    -1460    -1460    -1462 
   -1466    -1470    -1471    -1470    -1467    -1464    -1463    -1466 
   -1466    -1467    -1471    -1472    -1472    -1472    -1471    -1471 
   -1472    -1472    -1471    -1475    -1478    -1475    -1478    -1483 
   -1480    -1479    -1485    -1489    -1490    -1494    -1497    -1497 
   -1497    -1499    -1505    -1509    -1509    -1514    -1514    -1512 
   -1517    -1521    -1520    -1521    -1526    -1528    -1528    -1532 
   -1535    -1537    -1539    -1541    -1543    -1544    -1545    -1548 
   -1552    -1552    -1551    -1551    -1551    -1554    -1559    -1557 
   -1554    -1556    -1559    -1560    -1564    -1567    -1564    -1563 
   -1563    -1561    -1566    -1568    -1566    -1564    -1568    -1571 
   -1574    -1575    -1574    -1575    -1580    -1583    -1582    -1586 
   -1590    -1590    -1591    -1597    -1603    -1606    -1609    -1610 
   -1611    -1617    -1624    -1628    -1630    -1634    -1641    -1649 
   -1655    -1658    -1663    -1669    -1676    -1682    -1691    -1701 
   -1705    -1711    -1721    -1728    -1733    -1740    -1746    -1757 
   -1768    -1772    -1777    -1786    -1794    -1804    -1815    -1821 
   -1826    -1837    -1845    -1849    -1854    -1859    -1867    -1876 
   -1884    -1894    -1900    -1906    -1908    -1912    -1919    -1930 
   -1937    -1941    -1945    -1948    -1948    -1949    -1952    -1956 
   -1962    -1966    -1966    -1964    -1962    -1968    -1975    -1975 
   -1968    -1962    -1966    -1971    -1975    -1975    -1964    -1949 
   -1942    -1945    -1956    -1960    -1953    -1938    -1925    -1918 
   -1919    -1923    -1918    -1907    -1898    -1890    -1885    -1884 
   -1877    -1865    -1849    -1833    -1826    -1822    -1817    -1810 
   -1796    -1783    -1773    -1763    -1748    -1734    -1723    -1713 
   -1701    -1691    -1684    -1675    -1661    -1645    -1626    -1614 
   -1606    -1599    -1594    -1588    -1576    -1556    -1539    -1528 
   -1521    -1521    -1520    -1509    -1497    -1485    -1476    -1467 
   -1459    -1451    -1444    -1441    -1439    -1431    -1421    -1414 
   -1409    -1405    -1401    -1393    -1383    -1378    -1377    -1377 
   -1374    -1364    -1355    -1347    -1344    -1344    -1343    -1339 
   -1332    -1327    -1324    -1323    -1323    -1320    -1313    -1308 
   -1305    -1306    -1308    -1308    -1304    -1297    -1293    -1297 
   -1302    -1305    -1305    -1301    -1300    -1306    -1310    -1313 
   -1317    -1320    -1321    -1325    -1332    -1339    -1344    -1350 
   -1355    -1363    -1372    -1381    -1390    -1398    -1402    -1412 
   -1425    -1437    -1449    -1460    -1467    -1479    -1490    -1498 
   -1509    -1521    -1533    -1547    -1560    -1574    -1586    -1595 
   -1603    -1615    -1626    -1634    -1645    -1657    -1668    -1682 
   -1691    -1701    -1711    -1719    -1723    -1733    -1745    -1753 
   -1763    -1771    -1773    -1775    -1777    -1788    -1807    -1821 
   -1826    -1833    -1831    -1826    -1830    -1837    -1844    -1854 
   -1869    -1884    -1896    -1899    -1895    -1890    -1888    -1895 
   -1908    -1923    -1938    -1949    -1954    -1958    -1960    -1960 
   -1961    -1966    -1973    -1988    -2003    -2011    -2018    -2022 
   -2020    -2023    -2031    -2034    -2041    -2053    -2065    -2070 
   -2070    -2070    -2069    -2073    -2083    -2092    -2101    -2107 
   -2111    -2111    -2110    -2110    -2111    -2114    -2118    -2126 
   -2135    -2142    -2150    -2150    -2141    -2130    -2130    -2133 
   -2141    -2153    -2160    -2160    -2157    -2153    -2147    -2146 
   -2151    -2157    -2161    -2163    -2162    -2160    -2161    -2161 
   -2157    -2157    -2161    -2165    -2168    -2172    -2172    -2166 
   -2161    -2158    -2158    -2162    -2165    -2168    -2170    -2168 
   -2163    -2160    -2157    -2157    -2155    -2153    -2151    -2151 
   -2153    -2154    -2151    -2143    -2133    -2126    -2124    -2124 
   -2124    -2120    -2111    -2107    -2104    -2100    -2095    -2083 
   -2070    -2064    -2060    -2057    -2053    -2041    -2027    -2018 
   -2014    -2011    -2003    -1992    -1987    -1982    -1977    -1971 
   -1961    -1949    -1941    -1935    -1929    -1925    -1917    -1907 
   -1899    -1892    -1887    -1880    -1869    -1859    -1852    -1849 
   -1845    -1837    -1826    -1819    -1813    -1804    -1796    -1787 
   -1779    -1772    -1767    -1763    -1753    -1737    -1726    -1718 
   -1709    -1703    -1695    -1683    -1669    -1656    -1642    -1629 
   -1617    -1605    -1594    -1587    -1578    -1564    -1548    -1532 
   -1518    -1503    -1489    -1474    -1462    -1448    -1435    -1420 
   -1405    -1393    -1378    -1360    -1345    -1332    -1320    -1306 
   -1293    -1282    -1274    -1260    -1247    -1235    -1221    -1209 
   -1200    -1193    -1183    -1177    -1170    -1162    -1155    -1146 
   -1133    -1128    -1128    -1124    -1119    -1117    -1116    -1109 
   -1105    -1104    -1101    -1100    -1102    -1104    -1104    -1107 
   -1107    -1107    -1105    -1107    -1112    -1116    -1119    -1121 
   -1124    -1128    -1136    -1142    -1147    -1150    -1151    -1156 
   -1165    -1174    -1181    -1189    -1196    -1202    -1210    -1220 
   -1227    -1236    -1247    -1256    -1270    -1282    -1287    -1296 
   -1306    -1318    -1329    -1341    -1352    -1363    -1372    -1382 
   -1394    -1405    -1418    -1426    -1439    -1451    -1459    -1466 
   -1478    -1490    -1501    -1509    -1517    -1525    -1530    -1534 
   -1541    -1549    -1552    -1556    -1563    -1566    -1567    -1566 
   -1561    -1563    -1570    -1571    -1574    -1574    -1567    -1564 
   -1563    -1557    -1556    -1557    -1554    -1552    -1551    -1545 
   -1537    -1530    -1524    -1517    -1516    -1518    -1516    -1509 
   -1502    -1489    -1478    -1478    -1479    -1474    -1464    -1456 
   -1445    -1439    -1436    -1431    -1422    -1414    -1404    -1394 
   -1387    -1377    -1364    -1354    -1343    -1336    -1331    -1323 
   -1312    -1298    -1282    -1271    -1266    -1262    -1255    -1246 
   -1232    -1217    -1204    -1194    -1196    -1196    -1185    -1174 
   -1165    -1154    -1144    -1139    -1133    -1129    -1129    -1131 
   -1129    -1124    -1115    -1107    -1102    -1101    -1102    -1102 
   -1102    -1104    -1104    -1105    -1107    -1107    -1107    -1102 
   -1102    -1107    -1112    -1117    -1121    -1121    -1124    -1127 
   -1135    -1146    -1151    -1151    -1150    -1146    -1144    -1148 
   -1159    -1170    -1179    -1192    -1198    -1197    -1192    -1189 
   -1190    -1192    -1196    -1209    -1224    -1232    -1235    -1232 
   -1230    -1229    -1229    -1233    -1237    -1244    -1251    -1254 
   -1258    -1260    -1262    -1263    -1260    -1255    -1256    -1260 
   -1260    -1258    -1259    -1262    -1259    -1252    -1248    -1248 
   -1246    -1240    -1233    -1230    -1228    -1221    -1216    -1213 
   -1210    -1205    -1198    -1189    -1179    -1174    -1169    -1161 
   -1155    -1148    -1139    -1133    -1125    -1119    -1115    -1105 
   -1094    -1088    -1078    -1073    -1065    -1058    -1051    -1043 
   -1036    -1032    -1026    -1021    -1016    -1011    -1003     -996 
    -992     -986     -984     -980     -978     -978     -973     -967 
    -966     -963     -965     -967     -966     -967     -972     -974 
    -974     -973     -973     -981     -992    -1000    -1003    -1003 
   -1005    -1015    -1026    -1039    -1053    -1060    -1063    -1070 
   -1081    -1100    -1113    -1120    -1129    -1140    -1148    -1163 
   -1179    -1190    -1201    -1212    -1221    -1230    -1244    -1255 
   -1263    -1269    -1278    -1291    -1304    -1312    -1320    -1325 
   -1329    -1340    -1354    -1362    -1367    -1368    -1371    -1382 
   -1394    -1402    -1404    -1399    -1401    -1412    -1422    -1429 
   -1431    -1428    -1431    -1441    -1449    -1453    -1452    -1449 
   -1451    -1455    -1463    -1467    -1464    -1460    -1463    -1470 
   -1479    -1485    -1483    -1476    -1476    -1482    -1485    -1486 
   -1487    -1486    -1486    -1490    -1497    -1502    -1502    -1501 
   -1501    -1498    -1501    -1507    -1513    -1517    -1520    -1520 
   -1522    -1524    -1528    -1534    -1539    -1541    -1543    -1541 
   -1541    -1545    -1549    -1553    -1556    -1560    -1563    -1563 
   -1563    -1561    -1559    -1561    -1571    -1578    -1575    -1567 
   -1561    -1559    -1564    -1574    -1579    -1576    -1564    -1552 
   -1547    -1552    -1560    -1561    -1553    -1543    -1535    -1535 
   -1535    -1533    -1528    -1522    -1520    -1520    -1518    -1513 
   -1499    -1489    -1483    -1483    -1489    -1485    -1472    -1460 
   -1453    -1449    -1445    -1443    -1437    -1428    -1418    -1410 
   -1405    -1402    -1399    -1391    -1378    -1366    -1359    -1354 
   -1351    -1347    -1337    -1327    -1314    -1301    -1296    -1290 
   -1279    -1267    -1258    -1248    -1237    -1225    -1212    -1201 
   -1185    -1173    -1163    -1151    -1135    -1119    -1102    -1089 
   -1075    -1062    -1047    -1031    -1015     -999     -982     -962 
    -942     -927     -911     -889     -869     -849     -832     -816 
    -793     -770     -751     -728     -702     -681     -657     -635 
    -618     -598     -575     -553     -526     -503     -484     -463 
    -440     -417     -392     -368     -348     -332     -314     -294 
    -270     -246     -228     -209     -193     -176     -157     -139 
    -120     -108      -95      -79      -64      -47      -32      -22 
     -13       -2        4       14       23       28       32       41 
      47       55       62       63       62       63       63       64 
      65       64       63       63       60       52       47       44 
      36       25       16        9        4       -5      -14      -25 
     -36      -47      -64      -79      -94     -110     -121     -125 
    -139     -155     -171     -193     -217     -236     -259     -278 
    -287     -302     -325     -344     -365     -390     -411     -432 
    -451     -475     -499     -522     -545     -566     -589     -610 
    -633     -657     -681     -711     -739     -758     -780     -805 
    -828     -851     -877     -903     -928     -953     -978    -1003 
   -1028    -1057    -1081    -1100    -1121    -1143    -1165    -1193 
   -1223    -1247    -1271    -1291    -1308    -1332    -1362    -1389 
   -1409    -1426    -1448    -1467    -1489    -1512    -1530    -1549 
   -1571    -1593    -1617    -1641    -1660    -1679    -1698    -1714 
   -1734    -1759    -1781    -1800    -1818    -1833    -1852    -1873 
   -1892    -1914    -1930    -1945    -1961    -1980    -1996    -2011 
   -2030    -2053    -2070    -2084    -2097    -2110    -2120    -2133 
   -2149    -2168    -2185    -2200    -2211    -2219    -2228    -2239 
   -2250    -2262    -2277    -2289    -2300    -2311    -2319    -2328 
   -2334    -2336    -2343    -2354    -2366    -2378    -2386    -2388 
   -2390    -2390    -2388    -2393    -2404    -2416    -2424    -2427 
   -2428    -2430    -2428    -2428    -2434    -2436    -2435    -2439 
   -2442    -2442    -2442    -2440    -2438    -2435    -2434    -2434 
   -2431    -2431    -2432    -2428    -2424    -2423    -2420    -2417 
   -2417    -2416    -2413    -2407    -2397    -2392    -2386    -2386 
   -2385    -2378    -2370    -2366    -2362    -2355    -2347    -2338 
   -2334    -2326    -2322    -2323    -2319    -2308    -2295    -2288 
   -2285    -2278    -2269    -2263    -2261    -2257    -2253    -2251 
   -2243    -2230    -2222    -2219    -2215    -2219    -2219    -2214 
   -2208    -2205    -2200    -2196    -2199    -2196    -2195    -2199 
   -2201    -2200    -2196    -2196    -2196    -2196    -2199    -2199 
   -2200    -2200    -2199    -2203    -2208    -2209    -2208    -2204 
   -2201    -2201    -2205    -2207    -2207    -2205    -2204    -2203 
   -2203    -2203    -2204    -2201    -2195    -2189    -2189    -2191 
   -2185    -2182    -2184    -2181    -2174    -2172    -2169    -2165 
   -2163    -2163    -2160    -2149    -2144    -2147    -2149    -2147 
   -2144    -2141    -2135    -2130    -2126    -2126    -2128    -2130 
   -2130    -2128    -2126    -2124    -2124    -2123    -2120    -2120 
   -2120    -2119    -2121    -2126    -2126    -2123    -2121    -2123 
   -2121    -2120    -2124    -2126    -2126    -2130    -2130    -2126 
   -2123    -2123    -2124    -2126    -2126    -2134    -2137    -2135 
   -2135    -2137    -2134    -2134    -2139    -2139    -2138    -2141 
   -2144    -2146    -2150    -2151    -2154    -2158    -2160    -2163 
   -2169    -2172    -2174    -2181    -2184    -2185    -2191    -2196 
   -2203    -2207    -2208    -2209    -2215    -2226    -2231    -2238 
   -2246    -2251    -2255    -2257    -2255    -2261    -2270    -2278 
   -2282    -2288    -2293    -2297    -2304    -2309    -2315    -2319 
   -2324    -2327    -2335    -2343    -2349    -2355    -2358    -2361 
   -2365    -2369    -2377    -2389    -2393    -2396    -2401    -2407 
   -2408    -2413    -2416    -2417    -2427    -2434    -2436    -2438 
   -2440    -2444    -2450    -2455    -2459    -2461    -2457    -2454 
   -2455    -2454    -2455    -2459    -2457    -2450    -2446    -2446 
   -2448    -2447    -2435    -2423    -2416    -2413    -2408    -2394 
   -2382    -2378    -2374    -2366    -2355    -2336    -2316    -2308 
   -2300    -2289    -2278    -2267    -2253    -2235    -2218    -2203 
   -2189    -2173    -2158    -2143    -2130    -2120    -2106    -2089 
   -2074    -2058    -2042    -2025    -2007    -1993    -1980    -1969 
   -1960    -1952    -1937    -1919    -1902    -1885    -1872    -1863 
   -1854    -1844    -1830    -1819    -1810    -1798    -1781    -1769 
   -1760    -1748    -1737    -1728    -1719    -1710    -1699    -1690 
   -1679    -1665    -1652    -1640    -1628    -1617    -1609    -1602 
   -1591    -1580    -1571    -1561    -1549    -1537    -1525    -1513 
   -1505    -1497    -1490    -1483    -1472    -1462    -1452    -1439 
   -1425    -1418    -1412    -1405    -1401    -1390    -1377    -1366 
   -1358    -1352    -1343    -1333    -1328    -1323    -1314    -1305 
   -1298    -1293    -1285    -1277    -1267    -1259    -1250    -1246 
   -1242    -1235    -1228    -1221    -1212    -1204    -1200    -1190 
   -1181    -1175    -1171    -1166    -1159    -1155    -1152    -1148 
   -1143    -1138    -1131    -1125    -1121    -1119    -1117    -1117 
   -1113    -1107    -1107    -1107    -1107    -1104    -1104    -1105 
   -1107    -1107    -1111    -1115    -1117    -1120    -1125    -1128 
   -1127    -1131    -1139    -1147    -1154    -1161    -1165    -1170 
   -1175    -1182    -1193    -1201    -1204    -1212    -1225    -1236 
   -1246    -1255    -1264    -1273    -1282    -1293    -1304    -1314 
   -1325    -1337    -1350    -1364    -1375    -1383    -1395    -1409 
   -1420    -1431    -1441    -1455    -1472    -1487    -1498    -1506 
   -1517    -1533    -1549    -1561    -1571    -1583    -1597    -1610 
   -1624    -1637    -1647    -1657    -1669    -1680    -1691    -1703 
   -1714    -1725    -1734    -1745    -1755    -1765    -1776    -1783 
   -1791    -1806    -1815    -1821    -1830    -1840    -1842    -1849 
   -1857    -1864    -1872    -1881    -1890    -1894    -1895    -1903 
   -1911    -1912    -1914    -1919    -1923    -1927    -1934    -1938 
   -1938    -1937    -1935    -1938    -1938    -1938    -1941    -1942 
