Origin Time       2016/04/16 01:25:00
Lat.              32.753
Long.             130.762
Depth. (km)       12
Mag.              7.3
Station Code      NGN020
Station Lat.      35.8282
Station Long.     137.9532
Station Height(m) 636
Record Time       2016/04/16 01:28:51
Sampling Freq(Hz) 100Hz
Duration Time(s)  60
Dir.              N-S
Scale Factor      7845(gal)/8223790
Max. Acc. (gal)   1.334
Last Correction   2016/04/16 01:28:53
Memo.             
[...]
   -4544    -4544    -4550    -4554    -4554    -4556    -4556    -4556 
   -4560    -4567    -4572    -4577    -4585    -4587    -4585    -4590 
   -4595    -4599    -4604    -4610    -4610    -4608    -4606    -4610 
   -4614    -4615    -4618    -4623    -4622    -4619    -4623    -4621 
   -4615    -4614    -4615    -4618    -4621    -4619    -4615    -4615 
   -4615    -4614    -4615    -4619    -4618    -4619    -4622    -4622 
   -4622    -4625    -4623    -4623    -4630    -4634    -4635    -4638 
   -4642    -4644    -4644    -4645    -4648    -4654    -4660    -4658 
   -4657    -4660    -4662    -4665    -4668    -4668    -4669    -4671 
   -4675    -4679    -4680    -4677    -4680    -4684    -4684    -4683 
   -4683    -4688    -4689    -4688    -4687    -4687    -4687    -4684 
   -4683    -4685    -4685    -4684    -4684    -4683    -4680    -4677 
   -4675    -4675    -4677    -4675    -4673    -4672    -4669    -4669 
   -4669    -4666    -4666    -4668    -4666    -4665    -4666    -4668 
   -4664    -4662    -4666    -4668    -4664    -4664    -4666    -4666 
   -4668    -4672    -4676    -4681    -4683    -4683    -4687    -4691 
   -4692    -4698    -4706    -4712    -4718    -4725    -4733    -4737 
   -4741    -4750    -4761    -4766    -4768    -4772    -4779    -4785 
   -4792    -4799    -4801    -4803    -4806    -4807    -4808    -4816 
   -4822    -4820    -4819    -4820    -4822    -4822    -4823    -4824 
   -4826    -4826    -4826    -4826    -4824    -4823    -4827    -4831 
   -4833    -4828    -4830    -4833    -4833    -4828    -4828    -4834 
   -4835    -4837    -4839    -4841    -4838    -4839    -4842    -4845 
   -4845    -4843    -4847    -4849    -4847    -4849    -4849    -4850 
   -4852    -4852    -4850    -4850    -4850    -4851    -4852    -4852 
   -4851    -4847    -4847    -4849    -4847    -4846    -4847    -4846 
   -4847    -4851    -4851    -4849    -4851    -4854    -4855    -4860 
   -4861    -4860    -4865    -4872    -4873    -4876    -4881    -4884 
   -4889    -4897    -4905    -4908    -4908    -4914    -4923    -4931 
   -4935    -4941    -4947    -4954    -4961    -4966    -4970    -4981 
   -4993    -4999    -5003    -5008    -5013    -5022    -5030    -5035 
   -5040    -5049    -5054    -5057    -5058    -5062    -5070    -5080 
   -5081    -5080    -5085    -5086    -5084    -5089    -5093    -5090 
   -5092    -5093    -5089    -5088    -5090    -5088    -5082    -5080 
   -5080    -5078    -5074    -5074    -5070    -5065    -5063    -5059 
   -5053    -5049    -5046    -5044    -5043    -5042    -5036    -5034 
   -5031    -5027    -5027    -5027    -5023    -5023    -5026    -5027 
   -5023    -5017    -5015    -5017    -5020    -5017    -5016    -5013 
   -5013    -5012    -5009    -5008    -5009    -5009    -5003    -5000 
   -5000    -4997    -4993    -4992    -4993    -4992    -4986    -4986 
   -4985    -4982    -4982    -4981    -4977    -4976    -4974    -4972 
   -4970    -4972    -4970    -4963    -4965    -4969    -4963    -4956 
   -4955    -4953    -4947    -4946    -4945    -4938    -4931    -4927 
   -4923    -4918    -4912    -4909    -4901    -4893    -4889    -4884 
   -4876    -4869    -4861    -4852    -4847    -4842    -4833    -4823 
   -4816    -4814    -4808    -4796    -4785    -4780    -4774    -4770 
   -4768    -4760    -4753    -4748    -4742    -4735    -4730    -4725 
   -4720    -4722    -4719    -4712    -4707    -4703    -4702    -4702 
   -4698    -4695    -4689    -4681    -4679    -4676    -4669    -4666 
   -4662    -4653    -4648    -4648    -4642    -4631    -4626    -4623 
   -4612    -4602    -4595    -4588    -4580    -4571    -4560    -4550 
   -4542    -4530    -4518    -4509    -4496    -4487    -4476    -4467 
   -4457    -4445    -4436    -4426    -4419    -4411    -4401    -4392 
   -4386    -4379    -4374    -4369    -4364    -4356    -4351    -4344 
   -4338    -4337    -4336    -4333    -4333    -4330    -4326    -4321 
   -4318    -4317    -4318    -4318    -4318    -4320    -4320    -4320 
   -4321    -4324    -4326    -4329    -4334    -4340    -4344    -4349 
   -4355    -4360    -4365    -4372    -4383    -4392    -4402    -4413 
   -4421    -4428    -4440    -4450    -4459    -4471    -4483    -4492 
   -4506    -4521    -4529    -4538    -4552    -4567    -4581    -4596 
   -4608    -4621    -4634    -4649    -4665    -4681    -4700    -4715 
   -4730    -4746    -4762    -4779    -4796    -4814    -4833    -4847 
   -4862    -4880    -4899    -4914    -4928    -4946    -4959    -4974 
   -4992    -5008    -5022    -5034    -5049    -5062    -5074    -5086 
   -5101    -5113    -5123    -5134    -5143    -5152    -5166    -5177 
   -5186    -5198    -5209    -5216    -5224    -5238    -5251    -5265 
   -5278    -5285    -5294    -5308    -5323    -5339    -5354    -5364 
   -5377    -5394    -5410    -5422    -5436    -5455    -5472    -5485 
   -5498    -5514    -5529    -5545    -5562    -5578    -5594    -5609 
   -5622    -5633    -5645    -5656    -5668    -5682    -5694    -5705 
   -5713    -5722    -5732    -5742    -5749    -5755    -5763    -5769 
   -5776    -5786    -5791    -5798    -5806    -5811    -5814    -5815 
   -5818    -5821    -5825    -5827    -5829    -5827    -5829    -5827 
   -5821    -5818    -5811    -5802    -5793    -5786    -5778    -5769 
   -5755    -5738    -5722    -5706    -5688    -5670    -5651    -5630 
   -5610    -5584    -5559    -5533    -5506    -5479    -5456    -5429 
   -5395    -5362    -5329    -5296    -5263    -5231    -5194    -5162 
   -5130    -5093    -5053    -5015    -4977    -4941    -4908    -4873 
   -4837    -4799    -4761    -4723    -4684    -4652    -4621    -4585 
   -4552    -4521    -4486    -4450    -4422    -4392    -4359    -4330 
   -4306    -4282    -4256    -4228    -4199    -4178    -4159    -4140 
   -4118    -4098    -4081    -4064    -4048    -4033    -4017    -4006 
   -3998    -3989    -3979    -3970    -3963    -3958    -3950    -3944 
   -3944    -3942    -3939    -3940    -3943    -3944    -3943    -3943 
   -3947    -3955    -3960    -3964    -3970    -3978    -3983    -3990 
   -4001    -4010    -4017    -4027    -4035    -4043    -4054    -4063 
   -4074    -4086    -4098    -4107    -4114    -4121    -4135    -4147 
   -4153    -4163    -4176    -4183    -4187    -4197    -4205    -4209 
   -4214    -4223    -4232    -4240    -4243    -4247    -4251    -4255 
   -4256    -4260    -4266    -4278    -4282    -4282    -4284    -4291 
   -4297    -4303    -4313    -4320    -4327    -4336    -4342    -4352 
   -4367    -4382    -4398    -4415    -4429    -4438    -4455    -4476 
   -4502    -4526    -4550    -4576    -4599    -4618    -4641    -4669 
   -4702    -4735    -4768    -4797    -4828    -4862    -4892    -4922 
   -4959    -4999    -5034    -5069    -5105    -5138    -5173    -5211 
   -5247    -5282    -5327    -5367    -5400    -5435    -5475    -5509 
   -5544    -5584    -5623    -5656    -5689    -5726    -5757    -5787 
   -5822    -5857    -5887    -5915    -5940    -5962    -5987    -6011 
   -6030    -6050    -6070    -6088    -6100    -6112    -6124    -6135 
   -6142    -6151    -6161    -6165    -6169    -6174    -6174    -6170 
   -6170    -6169    -6165    -6161    -6154    -6147    -6142    -6134 
   -6119    -6106    -6093    -6080    -6068    -6056    -6041    -6025 
   -6008    -5987    -5968    -5950    -5934    -5918    -5898    -5875 
   -5854    -5836    -5813    -5792    -5772    -5749    -5727    -5710 
   -5688    -5663    -5641    -5621    -5601    -5580    -5557    -5536 
   -5514    -5495    -5478    -5456    -5436    -5420    -5404    -5385 
   -5368    -5355    -5341    -5328    -5313    -5300    -5287    -5275 
   -5266    -5255    -5244    -5235    -5228    -5215    -5208    -5202 
   -5192    -5184    -5178    -5169    -5161    -5152    -5146    -5139 
   -5131    -5123    -5115    -5105    -5097    -5090    -5081    -5071 
   -5063    -5053    -5042    -5034    -5024    -5012    -5004    -4997 
   -4984    -4973    -4963    -4951    -4941    -4932    -4922    -4908 
   -4899    -4885    -4869    -4857    -4846    -4831    -4816    -4804 
   -4789    -4773    -4760    -4745    -4730    -4715    -4699    -4684 
   -4672    -4656    -4637    -4623    -4614    -4598    -4581    -4565 
   -4552    -4537    -4525    -4514    -4499    -4487    -4479    -4468 
   -4459    -4452    -4442    -4431    -4426    -4425    -4419    -4413 
   -4409    -4406    -4406    -4403    -4403    -4405    -4405    -4407 
   -4410    -4411    -4413    -4418    -4423    -4429    -4436    -4440 
   -4445    -4450    -4459    -4467    -4469    -4475    -4486    -4496 
   -4502    -4511    -4519    -4525    -4533    -4538    -4546    -4558 
   -4573    -4583    -4591    -4599    -4606    -4612    -4622    -4633 
   -4645    -4652    -4660    -4668    -4677    -4687    -4693    -4699 
   -4710    -4720    -4727    -4733    -4741    -4746    -4752    -4758 
   -4765    -4770    -4776    -4781    -4788    -4792    -4799    -4806 
   -4812    -4816    -4820    -4828    -4837    -4841    -4847    -4858 
   -4866    -4874    -4887    -4897    -4908    -4918    -4928    -4943 
   -4955    -4966    -4984    -5001    -5015    -5027    -5042    -5062 
   -5081    -5100    -5120    -5138    -5158    -5177    -5196    -5216 
   -5238    -5260    -5281    -5300    -5325    -5346    -5360    -5381 
   -5401    -5421    -5441    -5459    -5475    -5497    -5516    -5530 
   -5549    -5570    -5587    -5602    -5618    -5638    -5656    -5671 
   -5686    -5703    -5719    -5736    -5751    -5764    -5779    -5796 
   -5811    -5825    -5840    -5854    -5871    -5884    -5899    -5911 
   -5919    -5933    -5949    -5960    -5972    -5988    -6004    -6012 
   -6025    -6037    -6049    -6062    -6075    -6083    -6097    -6112 
   -6119    -6126    -6138    -6148    -6156    -6166    -6180    -6185 
   -6189    -6200    -6210    -6210    -6214    -6219    -6219    -6224 
   -6231    -6230    -6230    -6231    -6228    -6226    -6226    -6223 
   -6216    -6214    -6211    -6205    -6199    -6191    -6178    -6170 
   -6165    -6154    -6142    -6134    -6126    -6110    -6093    -6080 
   -6066    -6053    -6037    -6023    -6008    -5988    -5968    -5949 
   -5931    -5911    -5888    -5868    -5845    -5818    -5795    -5772 
   -5745    -5718    -5691    -5663    -5633    -5605    -5574    -5543 
   -5513    -5479    -5443    -5406    -5371    -5333    -5298    -5263 
   -5221    -5179    -5143    -5107    -5063    -5022    -4984    -4942 
   -4900    -4860    -4819    -4780    -4739    -4698    -4657    -4619 
   -4579    -4538    -4502    -4464    -4425    -4387    -4353    -4317 
   -4276    -4245    -4215    -4186    -4158    -4124    -4091    -4064 
   -4035    -4006    -3986    -3964    -3942    -3921    -3898    -3873 
   -3852    -3835    -3819    -3804    -3788    -3773    -3757    -3746 
   -3734    -3719    -3705    -3697    -3690    -3681    -3674    -3669 
   -3659    -3649    -3643    -3643    -3639    -3634    -3634    -3634 
   -3627    -3622    -3623    -3623    -3624    -3628    -3628    -3630 
   -3634    -3634    -3634    -3638    -3643    -3649    -3655    -3662 
   -3670    -3674    -3678    -3685    -3694    -3704    -3713    -3726 
   -3738    -3751    -3762    -3774    -3788    -3801    -3816    -3832 
   -3850    -3865    -3875    -3893    -3919    -3936    -3951    -3974 
   -3994    -4012    -4031    -4050    -4071    -4094    -4116    -4136 
   -4158    -4178    -4197    -4218    -4241    -4266    -4288    -4310 
   -4336    -4359    -4380    -4402    -4428    -4452    -4475    -4499 
   -4525    -4549    -4572    -4596    -4621    -4646    -4675    -4702 
   -4725    -4748    -4777    -4807    -4830    -4857    -4887    -4915 
   -4939    -4965    -4996    -5023    -5047    -5076    -5105    -5131 
   -5155    -5185    -5212    -5235    -5262    -5289    -5313    -5339 
   -5367    -5391    -5413    -5440    -5466    -5486    -5506    -5530 
   -5552    -5572    -5594    -5613    -5632    -5651    -5667    -5682 
   -5698    -5711    -5726    -5741    -5752    -5763    -5775    -5786 
   -5795    -5805    -5814    -5819    -5825    -5831    -5834    -5836 
   -5840    -5842    -5844    -5844    -5841    -5840    -5838    -5834 
   -5834    -5830    -5819    -5815    -5815    -5809    -5798    -5793 
   -5786    -5773    -5763    -5753    -5744    -5732    -5719    -5709 
   -5701    -5691    -5676    -5663    -5651    -5637    -5621    -5607 
   -5595    -5584    -5571    -5555    -5539    -5524    -5510    -5497 
   -5479    -5462    -5451    -5436    -5417    -5401    -5387    -5371 
   -5354    -5339    -5321    -5302    -5285    -5266    -5250    -5233 
   -5215    -5194    -5169    -5148    -5128    -5105    -5088    -5067 
   -5039    -5016    -4994    -4969    -4943    -4918    -4892    -4864 
   -4841    -4818    -4789    -4758    -4731    -4703    -4672    -4644 
   -4617    -4590    -4557    -4526    -4498    -4467    -4433    -4405 
   -4376    -4344    -4313    -4282    -4248    -4220    -4192    -4159 
   -4126    -4097    -4067    -4039    -4009    -3979    -3951    -3927 
   -3898    -3869    -3844    -3821    -3794    -3766    -3743    -3723 
   -3700    -3676    -3655    -3636    -3620    -3603    -3584    -3569 
   -3558    -3544    -3530    -3519    -3511    -3504    -3497    -3489 
   -3481    -3477    -3474    -3476    -3476    -3474    -3476    -3473 
   -3472    -3478    -3485    -3487    -3491    -3499    -3504    -3510 
   -3520    -3530    -3535    -3542    -3555    -3568    -3577    -3588 
   -3596    -3605    -3615    -3627    -3642    -3653    -3663    -3677 
   -3689    -3694    -3701    -3717    -3728    -3734    -3747    -3761 
   -3765    -3769    -3780    -3792    -3801    -3805    -3808    -3815 
   -3819    -3821    -3828    -3835    -3838    -3840    -3842    -3842 
   -3839    -3840    -3844    -3842    -3834    -3834    -3835    -3828 
   -3823    -3821    -3817    -3808    -3801    -3797    -3792    -3785 
   -3780    -3774    -3766    -3762    -3759    -3754    -3747    -3743 
   -3738    -3734    -3735    -3732    -3731    -3732    -3734    -3734 
   -3735    -3738    -3742    -3750    -3754    -3757    -3765    -3774 
   -3781    -3786    -3796    -3805    -3813    -3824    -3835    -3846 
   -3856    -3867    -3877    -3889    -3899    -3910    -3923    -3936 
   -3947    -3955    -3964    -3977    -3986    -3994    -4001    -4006 
   -4014    -4020    -4025    -4029    -4033    -4035    -4035    -4033 
   -4033    -4036    -4036    -4031    -4025    -4024    -4017    -4012 
   -4006    -4003    -3998    -3991    -3982    -3973    -3965    -3960 
   -3954    -3944    -3935    -3925    -3917    -3912    -3902    -3896 
   -3890    -3885    -3882    -3879    -3874    -3870    -3867    -3866 
   -3866    -3866    -3867    -3871    -3874    -3875    -3883    -3892 
   -3897    -3902    -3915    -3928    -3940    -3951    -3965    -3978 
   -3993    -4010    -4029    -4047    -4066    -4087    -4109    -4131 
   -4155    -4178    -4202    -4228    -4253    -4278    -4305    -4333 
   -4359    -4384    -4413    -4442    -4467    -4491    -4519    -4546 
   -4571    -4599    -4629    -4654    -4679    -4706    -4730    -4753 
   -4780    -4804    -4824    -4847    -4872    -4892    -4914    -4935 
   -4954    -4974    -4994    -5013    -5031    -5051    -5070    -5086 
   -5101    -5121    -5138    -5152    -5169    -5186    -5201    -5217 
   -5232    -5246    -5260    -5273    -5286    -5298    -5308    -5324 
   -5339    -5347    -5358    -5373    -5382    -5394    -5406    -5413 
   -5420    -5433    -5445    -5448    -5458    -5471    -5478    -5485 
   -5494    -5497    -5501    -5514    -5519    -5519    -5528    -5535 
   -5536    -5541    -5547    -5544    -5543    -5547    -5549    -5548 
   -5548    -5549    -5544    -5541    -5544    -5543    -5537    -5539 
   -5537    -5530    -5526    -5526    -5522    -5518    -5519    -5514 
   -5506    -5509    -5509    -5502    -5495    -5495    -5494    -5487 
   -5481    -5476    -5472    -5468    -5464    -5462    -5456    -5448 
   -5443    -5441    -5433    -5429    -5424    -5420    -5420    -5416 
   -5408    -5402    -5400    -5400    -5395    -5390    -5390    -5387 
   -5381    -5381    -5383    -5379    -5377    -5377    -5373    -5370 
   -5373    -5373    -5368    -5371    -5374    -5371    -5373    -5374 
   -5371    -5368    -5373    -5377    -5379    -5377    -5375    -5375 
   -5377    -5377    -5374    -5375    -5377    -5375    -5373    -5373 
   -5373    -5370    -5368    -5368    -5362    -5356    -5354    -5347 
   -5339    -5339    -5336    -5331    -5327    -5320    -5312    -5302 
   -5294    -5287    -5286    -5277    -5266    -5259    -5252    -5243 
   -5232    -5220    -5208    -5197    -5188    -5179    -5169    -5155 
   -5144    -5131    -5119    -5107    -5093    -5084    -5071    -5058 
   -5046    -5031    -5019    -5011    -5000    -4984    -4969    -4965 
   -4955    -4938    -4928    -4920    -4907    -4896    -4888    -4877 
   -4868    -4860    -4847    -4837    -4828    -4820    -4811    -4803 
   -4797    -4788    -4777    -4770    -4764    -4756    -4746    -4739 
   -4734    -4729    -4722    -4712    -4706    -4702    -4699    -4695 
   -4688    -4681    -4677    -4673    -4666    -4665    -4665    -4660 
   -4656    -4656    -4653    -4649    -4648    -4649    -4653    -4654 
   -4656    -4656    -4653    -4653    -4660    -4665    -4665    -4668 
   -4673    -4676    -4680    -4687    -4691    -4698    -4704    -4712 
   -4720    -4726    -4730    -4741    -4748    -4758    -4769    -4779 
   -4785    -4795    -4808    -4822    -4833    -4847    -4862    -4873 
   -4885    -4900    -4915    -4930    -4949    -4965    -4980    -4996 
   -5013    -5032    -5047    -5063    -5081    -5101    -5121    -5139 
   -5157    -5174    -5193    -5215    -5232    -5248    -5270    -5294 
   -5314    -5332    -5351    -5374    -5395    -5414    -5432    -5451 
   -5472    -5493    -5512    -5532    -5551    -5564    -5583    -5603 
   -5620    -5637    -5653    -5667    -5684    -5701    -5714    -5727 
   -5742    -5755    -5765    -5776    -5787    -5796    -5809    -5821 
   -5831    -5841    -5846    -5853    -5861    -5868    -5873    -5879 
   -5886    -5890    -5892    -5899    -5902    -5906    -5913    -5914 
   -5915    -5921    -5923    -5923    -5926    -5927    -5929    -5934 
   -5937    -5935    -5935    -5937    -5937    -5937    -5938    -5940 
   -5940    -5938    -5935    -5935    -5933    -5933    -5934    -5930 
   -5923    -5921    -5917    -5908    -5902    -5899    -5894    -5883 
   -5875    -5869    -5861    -5850    -5838    -5827    -5815    -5803 
   -5793    -5782    -5765    -5751    -5736    -5718    -5705    -5691 
   -5678    -5663    -5644    -5628    -5611    -5595    -5579    -5564 
   -5548    -5530    -5514    -5501    -5487    -5471    -5455    -5441 
   -5427    -5412    -5400    -5389    -5379    -5367    -5354    -5343 
   -5333    -5325    -5317    -5309    -5302    -5293    -5283    -5277 
   -5273    -5268    -5263    -5262    -5256    -5250    -5246    -5243 
   -5235    -5232    -5232    -5229    -5225    -5223    -5221    -5217 
   -5212    -5209    -5212    -5211    -5205    -5202    -5201    -5196 
