Origin Time       2016/04/16 01:25:00
Lat.              32.753
Long.             130.762
Depth. (km)       12
Mag.              7.3
Station Code      NGN015
Station Lat.      36.0454
Station Long.     138.1116
Station Height(m) 761
Record Time       2016/04/16 01:28:44
Sampling Freq(Hz) 100Hz
Duration Time(s)  137
Dir.              E-W
Scale Factor      7845(gal)/8223790
Max. Acc. (gal)   3.860
Last Correction   2016/04/16 01:28:45
Memo.             
[...]
    1483     1444     1401     1356     1308     1255     1205     1152 
    1096     1038      978      919      855      791      728      664 
     596      529      460      388      318      248      175      101 
      27      -47     -125     -199     -276     -355     -432     -506 
    -579     -650     -719     -791     -858     -920     -984    -1047 
   -1105    -1161    -1212    -1260    -1305    -1344    -1379    -1412 
   -1439    -1460    -1479    -1494    -1502    -1506    -1506    -1501 
   -1489    -1468    -1449    -1428    -1398    -1364    -1332    -1293 
   -1246    -1196    -1143    -1086    -1026     -962     -893     -820 
    -749     -676     -599     -521     -437     -353     -271     -183 
     -91        1       93      186      279      375      472      568 
     664      762      862      963     1060     1155     1251     1350 
    1443     1532     1625     1718     1802     1884     1965     2047 
    2126     2199     2269     2338     2404     2466     2525     2581 
    2629     2675     2717     2752     2785     2811     2835     2853 
    2866     2874     2874     2870     2866     2856     2840     2820 
    2795     2766     2732     2694     2654     2608     2556     2501 
    2442     2381     2317     2250     2174     2096     2016     1935 
    1852     1767     1679     1591     1501     1408     1317     1221 
    1127     1036      943      851      764      675      583      493 
     407      321      233      149       68      -11      -90     -164 
    -240     -317     -392     -463     -532     -602     -673     -741 
    -808     -874     -938    -1000    -1062    -1117    -1171    -1224 
   -1274    -1323    -1368    -1412    -1455    -1497    -1532    -1568 
   -1601    -1626    -1652    -1679    -1696    -1713    -1726    -1734 
   -1737    -1740    -1741    -1736    -1728    -1718    -1702    -1684 
   -1665    -1642    -1614    -1584    -1554    -1524    -1487    -1449 
   -1408    -1362    -1317    -1270    -1216    -1166    -1116    -1060 
   -1007     -955     -899     -838     -783     -724     -665     -603 
    -540     -476     -415     -355     -286     -217     -152      -85 
     -16       47      114      186      257      326      395      464 
     540      612      681      751      824      897      970     1046 
    1116     1183     1252     1324     1394     1464     1535     1606 
    1675     1742     1811     1881     1949     2014     2079     2144 
    2207     2267     2326     2378     2428     2477     2520     2562 
    2604     2640     2674     2706     2731     2751     2774     2791 
    2803     2813     2821     2825     2828     2826     2817     2806 
    2792     2774     2752     2732     2704     2668     2632     2592 
    2544     2496     2446     2392     2338     2282     2224     2165 
    2104     2043     1982     1922     1861     1796     1732     1671 
    1611     1556     1499     1443     1393     1344     1296     1254 
    1210     1171     1140     1107     1075     1051     1030     1011 
     994      978      967      957      949      940      932      929 
     929      927      927      929      934      938      943      954 
     972      985     1000     1019     1039     1062     1084     1107 
    1135     1163     1189     1213     1237     1262     1290     1317 
    1343     1372     1402     1428     1456     1487     1513     1539 
    1567     1595     1624     1649     1671     1687     1705     1723 
    1740     1755     1764     1767     1771     1773     1773     1769 
    1763     1755     1750     1738     1722     1706     1687     1663 
    1640     1615     1586     1549     1509     1468     1429     1383 
    1334     1293     1250     1206     1161     1112     1065     1019 
     967      915      861      805      753      702      648      596 
     544      490      441      394      342      295      252      207 
     162      117       74       32       -5      -45      -83     -121 
    -156     -190     -222     -253     -279     -305     -328     -348 
    -369     -388     -405     -422     -441     -457     -473     -491 
    -504     -517     -530     -544     -558     -571     -579     -591 
    -603     -615     -629     -641     -649     -661     -673     -684 
    -692     -704     -712     -719     -728     -737     -741     -747 
    -757     -761     -761     -764     -765     -766     -769     -770 
    -770     -770     -773     -776     -774     -772     -776     -776 
    -772     -769     -765     -760     -757     -753     -745     -734 
    -727     -720     -707     -692     -683     -670     -657     -641 
    -623     -604     -584     -562     -540     -515     -486     -459 
    -432     -403     -372     -340     -306     -270     -234     -199 
    -162     -120      -75      -31       16       62      103      147 
     191      233      275      321      363      405      445      483 
     523      562      599      637      679      715      751      789 
     826      858      890      920      947      967      987     1008 
    1026     1042     1058     1071     1085     1098     1107     1113 
    1121     1127     1132     1140     1148     1155     1161     1167 
    1177     1185     1193     1201     1212     1223     1230     1240 
    1255     1271     1285     1301     1321     1341     1366     1391 
    1416     1441     1468     1497     1528     1559     1593     1629 
    1664     1698     1737     1777     1817     1852     1891     1930 
    1972     2014     2056     2095     2138     2181     2224     2270 
    2315     2357     2401     2444     2485     2529     2573     2614 
    2655     2697     2737     2774     2811     2851     2886     2920 
    2949     2975     3003     3036     3061     3087     3109     3130 
    3150     3169     3186     3199     3213     3226     3238     3246 
    3250     3252     3248     3242     3237     3223     3208     3196 
    3180     3160     3138     3118     3099     3075     3049     3022 
    2991     2959     2926     2893     2855     2816     2771     2727 
    2687     2647     2602     2559     2519     2474     2428     2386 
    2343     2297     2251     2205     2158     2107     2061     2015 
    1966     1917     1868     1819     1772     1723     1674     1621 
    1572     1521     1467     1418     1370     1318     1267     1216 
    1162     1107     1050      994      936      877      819      760 
     695      629      565      496      427      361      291      216 
     141       65       -9      -83     -159     -238     -321     -405 
    -491     -577     -662     -746     -830     -915    -1003    -1090 
   -1177    -1262    -1347    -1425    -1502    -1580    -1652    -1723 
   -1795    -1861    -1923    -1984    -2041    -2098    -2151    -2196 
   -2238    -2278    -2316    -2350    -2378    -2403    -2423    -2439 
   -2457    -2473    -2481    -2485    -2493    -2494    -2490    -2488 
   -2479    -2465    -2451    -2434    -2413    -2390    -2366    -2340 
   -2311    -2278    -2243    -2205    -2166    -2126    -2083    -2037 
   -1987    -1934    -1878    -1825    -1765    -1709    -1651    -1588 
   -1526    -1467    -1402    -1332    -1266    -1197    -1125    -1057 
    -985     -911     -838     -764     -689     -616     -540     -460 
    -382     -299     -214     -133      -55       25      108      189 
     271      349      423      500      579      654      730      804 
     877      951     1024     1092     1159     1227     1294     1358 
    1418     1475     1530     1587     1645     1699     1750     1803 
    1857     1907     1956     2007     2056     2102     2150     2195 
    2241     2288     2334     2380     2428     2473     2517     2565 
    2610     2654     2697     2740     2783     2822     2863     2901 
    2938     2975     3006     3038     3073     3100     3127     3159 
    3183     3202     3221     3240     3256     3271     3284     3295 
    3304     3312     3322     3331     3336     3343     3349     3350 
    3349     3350     3353     3353     3349     3346     3342     3334 
    3326     3316     3300     3284     3265     3240     3213     3186 
    3157     3127     3099     3069     3034     2998     2964     2925 
    2884     2844     2802     2759     2712     2663     2616     2565 
    2512     2463     2409     2350     2293     2238     2180     2118 
    2060     2003     1941     1880     1822     1759     1694     1634 
    1575     1513     1453     1394     1334     1274     1213     1152 
    1093     1035      980      923      866      810      757      706 
     650      595      542      491      441      388      334      283 
     234      186      136       86       36      -10      -62     -112 
    -162     -214     -263     -307     -356     -409     -459     -506 
    -557     -602     -645     -692     -739     -785     -830     -874 
    -918     -959    -1000    -1044    -1088    -1128    -1166    -1201 
   -1239    -1275    -1305    -1332    -1360    -1387    -1413    -1437 
   -1459    -1478    -1494    -1513    -1530    -1544    -1556    -1567 
   -1574    -1580    -1586    -1587    -1583    -1580    -1578    -1570 
   -1557    -1547    -1535    -1521    -1502    -1485    -1462    -1437 
   -1412    -1383    -1352    -1321    -1286    -1250    -1209    -1163 
   -1115    -1065    -1011     -954     -896     -832     -765     -700 
    -633     -560     -487     -414     -340     -263     -184     -103 
     -21       62      147      234      318      402      492      579 
     661      746      832      918     1000     1085     1165     1243 
    1321     1398     1475     1552     1625     1691     1759     1825 
    1888     1946     2004     2061     2114     2161     2211     2257 
    2296     2334     2367     2398     2425     2447     2463     2475 
    2484     2488     2488     2484     2475     2467     2454     2435 
    2412     2386     2354     2322     2289     2254     2214     2166 
    2116     2066     2012     1956     1904     1849     1788     1726 
    1667     1605     1540     1476     1414     1348     1282     1220 
    1156     1092     1026      961      897      837      774      710 
     646      583      521      461      400      337      279      222 
     164      106       52       -1      -56     -105     -153     -205 
    -257     -309     -359     -407     -454     -503     -549     -591 
    -633     -675     -715     -757     -792     -823     -855     -890 
    -920     -946     -969     -994    -1017    -1036    -1055    -1069 
   -1081    -1097    -1109    -1115    -1116    -1117    -1116    -1113 
   -1107    -1096    -1081    -1062    -1042    -1017     -987     -958 
    -926     -890     -854     -812     -767     -719     -665     -611 
    -558     -502     -441     -378     -314     -248     -182     -114 
     -44       31      105      176      252      328      403      480 
     562      643      724      807      890      974     1057     1138 
    1221     1305     1385     1466     1548     1626     1699     1772 
    1844     1914     1984     2050     2118     2181     2243     2301 
    2355     2405     2452     2500     2544     2581     2612     2644 
    2674     2701     2724     2740     2754     2763     2768     2771 
    2771     2762     2749     2737     2721     2704     2683     2659 
    2631     2604     2570     2535     2498     2458     2415     2370 
    2324     2274     2223     2173     2119     2061     1999     1942 
    1883     1815     1752     1694     1629     1564     1506     1444 
    1379     1317     1256     1194     1131     1071     1015      955 
     896      838      784      727      673      623      572      525 
     481      437      395      355      318      286      253      224 
     195      168      144      124      103       82       67       58 
      49       43       37       37       40       45       49       58 
      67       79       95      116      139      160      186      216 
     241      266      295      324      357      395      427      459 
     491      523      561      598      633      670      712      753 
     791      827      862      895      928      963      997     1030 
    1060     1092     1124     1158     1190     1224     1258     1290 
    1323     1358     1394     1429     1466     1503     1543     1580 
    1617     1657     1695     1732     1769     1810     1849     1888 
    1930     1975     2014     2053     2096     2134     2169     2209 
    2247     2281     2317     2354     2388     2420     2447     2474 
    2500     2525     2550     2570     2593     2613     2631     2647 
    2659     2667     2675     2681     2679     2678     2675     2666 
    2656     2648     2632     2613     2594     2571     2544     2515 
    2481     2446     2411     2367     2319     2274     2222     2169 
    2111     2047     1984     1918     1844     1767     1688     1606 
    1521     1431     1340     1251     1158     1062      963      862 
     760      657      552      446      341      236      129       25 
     -81     -187     -294     -400     -506     -614     -720     -826 
    -927    -1034    -1142    -1247    -1348    -1448    -1549    -1648 
   -1744    -1838    -1930    -2022    -2115    -2204    -2289    -2377 
   -2459    -2533    -2610    -2685    -2752    -2820    -2884    -2940 
   -2995    -3048    -3092    -3137    -3180    -3213    -3237    -3260 
   -3280    -3292    -3298    -3302    -3298    -3287    -3272    -3253 
   -3229    -3203    -3172    -3136    -3092    -3041    -2988    -2938 
   -2880    -2816    -2748    -2678    -2602    -2524    -2446    -2361 
   -2273    -2178    -2081    -1984    -1883    -1777    -1672    -1564 
   -1451    -1333    -1215    -1100     -984     -864     -739     -610 
    -484     -360     -230     -101       25      153      283      410 
     537      662      789      913     1036     1162     1285     1402 
    1520     1637     1755     1872     1987     2101     2218     2327 
    2435     2542     2646     2744     2843     2941     3034     3126 
    3217     3304     3388     3466     3542     3619     3686     3750 
    3812     3871     3924     3981     4032     4079     4126     4171 
    4210     4245     4271     4289     4307     4320     4326     4329 
    4327     4324     4314     4295     4275     4255     4225     4192 
    4156     4113     4067     4020     3967     3909     3844     3773 
    3703     3634     3557     3477     3399     3315     3230     3142 
    3052     2959     2866     2771     2673     2573     2469     2365 
    2262     2161     2057     1949     1845     1738     1634     1530 
    1425     1321     1221     1120     1017      918      820      723 
     627      532      441      352      266      180       98       18 
     -58     -133     -201     -261     -322     -378     -425     -477 
    -526     -571     -610     -642     -676     -711     -738     -757 
    -777     -793     -801     -811     -815     -814     -808     -799 
    -788     -773     -757     -741     -723     -702     -677     -649 
    -623     -592     -557     -523     -490     -449     -409     -369 
    -329     -287     -241     -193     -148     -102      -54       -5 
      39       85      129      174      218      263      309      355 
     399      442      484      529      569      608      650      689 
     726      762      795      827      861      892      920      950 
     977     1000     1019     1042     1065     1085     1100     1116 
    1129     1139     1146     1152     1159     1163     1167     1166 
    1162     1158     1154     1148     1140     1131     1117     1104 
    1092     1078     1060     1039     1023     1005      984      961 
     940      918      892      868      843      816      788      761 
     738      712      687      664      638      612      588      564 
     533      506      481      456      429      402      373      344 
     314      283      252      222      191      160      129      101 
      70       40       10      -21      -51      -82     -116     -147 
    -175     -205     -234     -265     -297     -328     -357     -386 
    -414     -441     -464     -491     -517     -542     -568     -591 
    -614     -637     -660     -683     -702     -720     -737     -754 
    -769     -781     -795     -808     -818     -824     -830     -834 
    -835     -831     -827     -822     -810     -795     -780     -764 
    -745     -723     -700     -673     -642     -611     -579     -542 
    -504     -464     -423     -378     -333     -284     -228     -172 
    -118      -64       -9       47      112      174      234      295 
     357      422      486      550      622      689      753      818 
     886      951     1012     1075     1140     1202     1262     1323 
    1381     1436     1490     1541     1591     1638     1687     1736 
    1780     1822     1865     1906     1939     1971     2000     2031 
    2060     2084     2107     2126     2146     2161     2170     2182 
    2192     2196     2196     2199     2200     2199     2192     2181 
    2170     2160     2143     2124     2104     2081     2058     2033 
    2003     1972     1944     1911     1875     1840     1800     1760 
    1722     1684     1645     1606     1560     1520     1479     1431 
    1385     1343     1300     1258     1215     1170     1125     1084 
    1043     1000      957      916      877      838      805      767 
     727      691      653      615      583      553      519      490 
     461      434      409      383      357      330      310      289 
     271      256      240      220      206      197      184      170 
     159      152      140      129      122      114      106       98 
      90       81       76       74       70       65       64       64 
      64       65       68       68       71       78       86       94 
     102      110      122      136      148      163      178      194 
     211      230      251      274      298      324      348      373 
     400      429      456      484      514      540      568      598 
     627      654      684      715      745      776      807      832 
     858      886      913      936      959      980      999     1016 
    1031     1044     1055     1063     1074     1081     1086     1093 
    1098     1101     1102     1104     1098     1093     1090     1085 
    1078     1070     1057     1043     1030     1012      996      980 
     958      938      916      893      876      854      830      805 
     784      760      734      708      685      665      648      630 
     610      595      583      565      552      540      529      521 
     515      513      513      510      510      515      521      526 
     538      550      562      583      602      616      638      662 
     687      711      741      773      811      849      886      931 
     978     1021     1067     1116     1162     1212     1267     1320 
    1372     1425     1478     1533     1588     1642     1696     1750 
    1806     1861     1917     1973     2026     2079     2130     2178 
    2226     2273     2317     2361     2401     2438     2473     2506 
    2538     2567     2593     2617     2636     2655     2674     2687 
