Origin Time       2016/04/16 01:25:00
Lat.              32.753
Long.             130.762
Depth. (km)       12
Mag.              7.3
Station Code      NGN024
Station Lat.      35.5232
Station Long.     137.8374
Station Height(m) 538
Record Time       2016/04/16 01:28:40
Sampling Freq(Hz) 100Hz
Duration Time(s)  67
Dir.              N-S
Scale Factor      7845(gal)/8223790
Max. Acc. (gal)   2.125
Last Correction   2016/04/16 01:28:41
Memo.             
[...]
  -25083   -25105   -25126   -25146   -25159   -25186   -25227   -25247 
  -25255   -25297   -25347   -25358   -25370   -25413   -25447   -25462 
  -25493   -25539   -25570   -25593   -25624   -25648   -25667   -25698 
  -25731   -25748   -25766   -25801   -25830   -25843   -25860   -25883 
  -25906   -25929   -25952   -25972   -25979   -25975   -25984   -26014 
  -26037   -26032   -26026   -26059   -26077   -26053   -26048   -26075 
  -26077   -26059   -26069   -26086   -26065   -26057   -26076   -26061 
  -26029   -26029   -26038   -26021   -25994   -25988   -25988   -25972 
  -25942   -25920   -25915   -25911   -25886   -25860   -25851   -25843 
  -25828   -25805   -25780   -25772   -25772   -25747   -25713   -25702 
  -25698   -25683   -25674   -25663   -25644   -25636   -25625   -25591 
  -25577   -25594   -25582   -25551   -25554   -25563   -25552   -25547 
  -25551   -25536   -25532   -25544   -25532   -25525   -25542   -25533 
  -25528   -25556   -25563   -25536   -25548   -25578   -25569   -25559 
  -25575   -25575   -25581   -25613   -25631   -25632   -25641   -25647 
  -25650   -25675   -25697   -25690   -25699   -25725   -25733   -25737 
  -25748   -25756   -25764   -25767   -25762   -25768   -25783   -25777 
  -25774   -25801   -25807   -25782   -25785   -25805   -25787   -25779 
  -25810   -25826   -25818   -25824   -25828   -25818   -25818   -25822 
  -25820   -25839   -25866   -25857   -25832   -25841   -25852   -25830 
  -25820   -25837   -25847   -25847   -25852   -25839   -25814   -25822 
  -25839   -25822   -25822   -25848   -25855   -25855   -25861   -25853 
  -25852   -25875   -25878   -25859   -25872   -25901   -25898   -25895 
  -25909   -25906   -25897   -25907   -25909   -25898   -25909   -25922 
  -25903   -25898   -25918   -25922   -25903   -25893   -25894   -25891 
  -25897   -25902   -25890   -25882   -25876   -25867   -25863   -25856 
  -25849   -25853   -25847   -25825   -25817   -25825   -25820   -25801 
  -25789   -25776   -25759   -25749   -25748   -25744   -25732   -25711 
  -25698   -25691   -25671   -25648   -25645   -25640   -25614   -25594 
  -25596   -25586   -25559   -25544   -25532   -25508   -25496   -25490 
  -25465   -25444   -25444   -25421   -25381   -25373   -25375   -25353 
  -25327   -25316   -25305   -25289   -25274   -25259   -25252   -25242 
  -25211   -25196   -25204   -25200   -25181   -25178   -25177   -25161 
  -25153   -25163   -25165   -25153   -25147   -25161   -25170   -25158 
  -25147   -25169   -25195   -25191   -25186   -25205   -25215   -25213 
  -25224   -25234   -25232   -25247   -25267   -25266   -25261   -25272 
  -25272   -25267   -25276   -25281   -25290   -25307   -25295   -25277 
  -25294   -25316   -25307   -25299   -25317   -25331   -25332   -25338 
  -25343   -25351   -25363   -25366   -25374   -25401   -25415   -25404 
  -25413   -25446   -25447   -25440   -25469   -25493   -25490   -25506 
  -25535   -25536   -25539   -25555   -25564   -25578   -25594   -25594 
  -25600   -25629   -25644   -25637   -25636   -25644   -25659   -25672 
  -25670   -25671   -25701   -25725   -25713   -25710   -25743   -25760 
  -25756   -25777   -25805   -25802   -25810   -25836   -25841   -25845 
  -25874   -25902   -25918   -25922   -25924   -25945   -25979   -25990 
  -25994   -26022   -26048   -26048   -26059   -26087   -26096   -26096 
  -26126   -26154   -26156   -26165   -26188   -26192   -26192   -26207 
  -26217   -26221   -26229   -26238   -26241   -26253   -26265   -26252 
  -26246   -26268   -26273   -26264   -26262   -26272   -26287   -26299 
  -26296   -26279   -26277   -26293   -26300   -26296   -26304   -26312 
  -26304   -26298   -26299   -26300   -26302   -26308   -26311   -26295 
  -26284   -26291   -26293   -26279   -26273   -26281   -26283   -26259 
  -26242   -26245   -26245   -26229   -26210   -26206   -26208   -26198 
  -26184   -26175   -26161   -26147   -26141   -26131   -26117   -26106 
  -26104   -26099   -26084   -26079   -26071   -26046   -26036   -26045 
  -26032   -26002   -26003   -26007   -25979   -25961   -25969   -25964 
  -25942   -25936   -25933   -25924   -25913   -25899   -25894   -25901 
  -25888   -25863   -25866   -25874   -25857   -25843   -25855   -25866 
  -25861   -25855   -25852   -25852   -25848   -25837   -25848   -25870 
  -25866   -25845   -25849   -25863   -25857   -25853   -25867   -25874 
  -25867   -25866   -25878   -25884   -25888   -25893   -25886   -25888 
  -25902   -25909   -25914   -25921   -25925   -25921   -25911   -25915 
  -25924   -25920   -25911   -25906   -25920   -25938   -25922   -25894 
  -25893   -25905   -25895   -25878   -25879   -25880   -25863   -25855 
  -25857   -25841   -25813   -25810   -25818   -25790   -25753   -25753 
  -25744   -25710   -25698   -25686   -25650   -25629   -25614   -25581 
  -25555   -25544   -25513   -25473   -25459   -25446   -25404   -25367 
  -25346   -25318   -25303   -25299   -25265   -25219   -25204   -25186 
  -25143   -25119   -25116   -25099   -25062   -25038   -25027   -25000 
  -24964   -24942   -24929   -24915   -24889   -24853   -24835   -24838 
  -24821   -24786   -24757   -24736   -24723   -24726   -24707   -24665 
  -24648   -24652   -24632   -24610   -24614   -24607   -24583   -24588 
  -24606   -24586   -24563   -24574   -24579   -24570   -24582   -24601 
  -24602   -24611   -24629   -24632   -24642   -24671   -24683   -24694 
  -24732   -24761   -24763   -24783   -24829   -24857   -24876   -24912 
  -24945   -24965   -24999   -25039   -25070   -25099   -25137   -25178 
  -25209   -25242   -25284   -25320   -25343   -25378   -25435   -25477 
  -25496   -25532   -25573   -25597   -25637   -25686   -25714   -25745 
  -25790   -25825   -25852   -25886   -25929   -25968   -26006   -26038 
  -26072   -26118   -26160   -26183   -26221   -26271   -26298   -26325 
  -26379   -26426   -26453   -26492   -26538   -26563   -26599   -26659 
  -26694   -26708   -26746   -26788   -26811   -26846   -26890   -26921 
  -26947   -26974   -26998   -27037   -27071   -27075   -27090   -27141 
  -27170   -27168   -27189   -27222   -27245   -27263   -27272   -27283 
  -27311   -27336   -27332   -27334   -27363   -27375   -27375   -27395 
  -27409   -27403   -27409   -27423   -27415   -27400   -27402   -27405 
  -27391   -27379   -27380   -27383   -27360   -27324   -27314   -27329 
  -27311   -27263   -27241   -27232   -27202   -27175   -27148   -27111 
  -27091   -27070   -27016   -26963   -26933   -26901   -26854   -26804 
  -26754   -26704   -26666   -26624   -26558   -26496   -26451   -26392 
  -26318   -26257   -26210   -26157   -26100   -26041   -25971   -25909 
  -25860   -25801   -25731   -25674   -25625   -25571   -25513   -25455 
  -25400   -25346   -25293   -25250   -25203   -25143   -25096   -25062 
  -25019   -24964   -24921   -24900   -24877   -24827   -24775   -24759 
  -24742   -24694   -24661   -24648   -24622   -24609   -24605   -24575 
  -24545   -24545   -24537   -24499   -24478   -24494   -24503   -24484 
  -24463   -24462   -24463   -24459   -24451   -24451   -24455   -24466 
  -24472   -24460   -24451   -24463   -24484   -24494   -24493   -24498 
  -24525   -24555   -24556   -24556   -24594   -24645   -24661   -24667 
  -24699   -24741   -24767   -24793   -24830   -24864   -24892   -24927 
  -24962   -24985   -25019   -25066   -25099   -25112   -25134   -25166 
  -25193   -25219   -25251   -25277   -25295   -25326   -25347   -25353 
  -25361   -25381   -25404   -25417   -25427   -25450   -25470   -25473 
  -25474   -25496   -25517   -25525   -25536   -25550   -25559   -25574 
  -25587   -25594   -25609   -25639   -25654   -25659   -25691   -25725 
  -25734   -25752   -25785   -25797   -25813   -25849   -25874   -25886 
  -25915   -25951   -25971   -25988   -26015   -26037   -26049   -26075 
  -26107   -26127   -26144   -26157   -26168   -26184   -26198   -26210 
  -26223   -26227   -26225   -26234   -26238   -26225   -26218   -26227 
  -26226   -26212   -26203   -26200   -26193   -26185   -26180   -26168 
  -26152   -26147   -26152   -26146   -26130   -26114   -26109   -26106 
  -26109   -26106   -26086   -26069   -26071   -26080   -26083   -26061 
  -26044   -26057   -26063   -26045   -26040   -26046   -26049   -26049 
  -26042   -26033   -26033   -26037   -26037   -26037   -26048   -26050 
  -26036   -26038   -26052   -26046   -26037   -26044   -26050   -26057 
  -26064   -26052   -26036   -26037   -26048   -26053   -26056   -26053 
  -26048   -26045   -26040   -26037   -26045   -26053   -26052   -26060 
  -26065   -26052   -26045   -26057   -26067   -26073   -26083   -26095 
  -26104   -26111   -26118   -26133   -26157   -26165   -26164   -26190 
  -26222   -26226   -26236   -26269   -26281   -26284   -26311   -26339 
  -26342   -26341   -26361   -26384   -26387   -26383   -26393   -26410 
  -26411   -26411   -26422   -26422   -26403   -26392   -26401   -26397 
  -26380   -26380   -26387   -26372   -26350   -26345   -26341   -26316 
  -26293   -26298   -26302   -26277   -26250   -26239   -26231   -26221 
  -26213   -26204   -26187   -26177   -26173   -26157   -26134   -26119 
  -26118   -26133   -26130   -26102   -26092   -26103   -26096   -26084 
  -26086   -26088   -26090   -26090   -26079   -26076   -26091   -26094 
  -26080   -26084   -26096   -26090   -26086   -26099   -26098   -26092 
  -26111   -26123   -26113   -26117   -26138   -26144   -26134   -26137 
  -26154   -26180   -26198   -26185   -26172   -26195   -26218   -26222 
  -26230   -26245   -26264   -26284   -26288   -26281   -26293   -26325 
  -26345   -26347   -26361   -26380   -26388   -26403   -26406   -26397 
  -26411   -26442   -26449   -26451   -26464   -26465   -26472   -26493 
  -26500   -26492   -26507   -26528   -26516   -26505   -26528   -26542 
  -26532   -26532   -26541   -26526   -26523   -26550   -26543   -26500 
  -26504   -26530   -26497   -26454   -26470   -26489   -26454   -26411 
  -26407   -26408   -26399   -26383   -26360   -26345   -26343   -26333 
  -26306   -26276   -26265   -26268   -26256   -26225   -26203   -26193 
  -26170   -26134   -26115   -26106   -26083   -26057   -26040   -26017 
  -25982   -25952   -25934   -25907   -25872   -25845   -25828   -25802 
  -25758   -25720   -25705   -25687   -25652   -25616   -25583   -25548 
  -25513   -25488   -25465   -25442   -25423   -25394   -25354   -25331 
  -25321   -25297   -25266   -25249   -25239   -25212   -25180   -25168 
  -25165   -25147   -25128   -25118   -25097   -25076   -25065   -25042 
  -25018   -25026   -25027   -24992   -24970   -24984   -24981   -24956 
  -24954   -24972   -24960   -24943   -24957   -24964   -24957   -24968 
  -24991   -25003   -25003   -25006   -25029   -25053   -25054   -25062 
  -25096   -25124   -25134   -25147   -25169   -25189   -25208   -25229 
  -25252   -25281   -25313   -25338   -25361   -25384   -25404   -25429 
  -25462   -25500   -25528   -25551   -25570   -25594   -25631   -25660 
  -25685   -25722   -25752   -25759   -25766   -25791   -25824   -25837 
  -25843   -25875   -25894   -25894   -25914   -25929   -25922   -25938 
  -25964   -25961   -25951   -25967   -25992   -25986   -25974   -25991 
  -26007   -26002   -25995   -25995   -25990   -25982   -25984   -25999 
  -26007   -25992   -25974   -25980   -25987   -25969   -25956   -25967 
  -25967   -25945   -25944   -25969   -25974   -25951   -25941   -25951 
  -25952   -25941   -25929   -25929   -25938   -25940   -25934   -25926 
  -25917   -25920   -25924   -25905   -25884   -25897   -25911   -25894 
  -25879   -25886   -25886   -25857   -25836   -25845   -25848   -25833 
  -25833   -25830   -25817   -25817   -25817   -25793   -25777   -25799 
  -25810   -25793   -25795   -25807   -25790   -25782   -25799   -25801 
  -25801   -25832   -25848   -25828   -25822   -25837   -25840   -25845 
  -25870   -25888   -25901   -25909   -25914   -25924   -25936   -25944 
  -25952   -25967   -25980   -26001   -26017   -26017   -26028   -26059 
  -26073   -26063   -26071   -26096   -26113   -26123   -26144   -26164 
  -26185   -26211   -26225   -26225   -26253   -26296   -26307   -26306 
  -26339   -26380   -26391   -26411   -26447   -26461   -26469   -26493 
  -26497   -26497   -26536   -26577   -26586   -26589   -26603   -26619 
  -26632   -26640   -26642   -26652   -26669   -26669   -26658   -26667 
  -26685   -26682   -26677   -26678   -26670   -26662   -26658   -26644 
  -26634   -26638   -26628   -26605   -26601   -26600   -26573   -26542 
  -26526   -26503   -26481   -26477   -26470   -26430   -26399   -26395 
  -26372   -26326   -26293   -26269   -26246   -26231   -26206   -26164 
  -26130   -26104   -26075   -26055   -26030   -25988   -25961   -25951 
  -25917   -25880   -25868   -25856   -25834   -25824   -25801   -25758 
  -25747   -25760   -25737   -25701   -25701   -25699   -25675   -25659 
  -25659   -25639   -25614   -25616   -25612   -25585   -25574   -25577 
  -25552   -25519   -25513   -25513   -25489   -25455   -25431   -25412 
  -25388   -25359   -25338   -25318   -25290   -25257   -25226   -25193 
  -25153   -25119   -25099   -25068   -25024   -24999   -24975   -24933 
  -24904   -24894   -24857   -24807   -24779   -24752   -24725   -24713 
  -24680   -24637   -24610   -24571   -24516   -24490   -24472   -24428 
  -24400   -24387   -24339   -24285   -24247   -24197   -24154   -24139 
  -24113   -24069   -24043   -24025   -23981   -23936   -23895   -23838 
  -23819   -23839   -23815   -23761   -23739   -23714   -23656   -23630 
  -23639   -23629   -23616   -23619   -23593   -23549   -23522   -23507 
  -23506   -23522   -23533   -23542   -23545   -23519   -23504   -23534 
  -23558   -23548   -23557   -23602   -23625   -23637   -23672   -23699 
  -23707   -23733   -23768   -23793   -23835   -23897   -23959   -24004 
  -24043   -24070   -24101   -24152   -24217   -24294   -24368   -24422 
  -24476   -24549   -24607   -24645   -24706   -24793   -24871   -24934 
  -25011   -25095   -25154   -25205   -25263   -25330   -25401   -25469 
  -25536   -25613   -25685   -25737   -25775   -25818   -25878   -25940 
  -26005   -26079   -26127   -26146   -26187   -26248   -26283   -26300 
  -26345   -26408   -26450   -26468   -26487   -26509   -26528   -26549 
  -26568   -26589   -26615   -26631   -26636   -26652   -26659   -26639 
  -26624   -26639   -26654   -26647   -26635   -26622   -26597   -26569 
  -26547   -26530   -26509   -26497   -26497   -26485   -26447   -26399 
  -26349   -26310   -26285   -26261   -26236   -26219   -26196   -26165 
  -26122   -26063   -26011   -25991   -25975   -25938   -25913   -25909 
  -25866   -25802   -25776   -25752   -25698   -25666   -25655   -25628 
  -25601   -25573   -25513   -25461   -25456   -25450   -25404   -25358 
  -25338   -25318   -25280   -25239   -25208   -25177   -25142   -25099 
  -25069   -25045   -25002   -24954   -24926   -24895   -24854   -24815 
  -24773   -24734   -24700   -24657   -24611   -24579   -24551   -24522 
  -24497   -24463   -24420   -24387   -24376   -24341   -24288   -24281 
  -24291   -24271   -24244   -24228   -24212   -24198   -24193   -24197 
  -24208   -24209   -24201   -24197   -24204   -24217   -24225   -24229 
  -24245   -24255   -24252   -24268   -24300   -24308   -24306   -24328 
  -24359   -24372   -24385   -24412   -24433   -24439   -24452   -24479 
  -24501   -24516   -24547   -24588   -24611   -24614   -24636   -24669 
  -24695   -24722   -24753   -24784   -24817   -24841   -24859   -24883 
  -24906   -24929   -24960   -24999   -25037   -25068   -25092   -25111 
  -25135   -25169   -25195   -25211   -25236   -25272   -25307   -25326 
  -25335   -25353   -25371   -25386   -25419   -25463   -25482   -25486 
  -25501   -25509   -25513   -25546   -25591   -25622   -25641   -25654 
  -25656   -25656   -25672   -25702   -25733   -25751   -25763   -25783 
  -25806   -25816   -25826   -25857   -25874   -25870   -25890   -25934 
  -25952   -25952   -25974   -26002   -26011   -26006   -26025   -26049 
  -26045   -26050   -26087   -26103   -26091   -26096   -26125   -26140 
  -26136   -26125   -26123   -26141   -26158   -26154   -26158   -26176 
  -26169   -26145   -26142   -26141   -26122   -26122   -26136   -26119 
  -26084   -26079   -26088   -26071   -26041   -26022   -26006   -25983 
  -25974   -25976   -25964   -25940   -25920   -25894   -25868   -25866 
  -25863   -25837   -25812   -25801   -25779   -25753   -25733   -25704 
  -25683   -25691   -25683   -25636   -25601   -25583   -25556   -25528 
  -25500   -25474   -25467   -25451   -25400   -25361   -25342   -25299 
  -25258   -25250   -25226   -25181   -25153   -25126   -25092   -25073 
  -25042   -24985   -24957   -24952   -24914   -24873   -24861   -24834 
  -24790   -24775   -24761   -24726   -24707   -24695   -24657   -24634 
  -24633   -24617   -24594   -24592   -24590   -24575   -24572   -24572 
  -24560   -24570   -24592   -24592   -24590   -24607   -24628   -24645 
  -24664   -24678   -24699   -24740   -24772   -24781   -24808   -24859 
  -24892   -24910   -24956   -25018   -25045   -25064   -25114   -25168 
  -25209   -25251   -25288   -25331   -25381   -25425   -25463   -25510 
  -25555   -25585   -25635   -25695   -25726   -25753   -25805   -25852 
  -25898   -25941   -25965   -25995   -26055   -26109   -26138   -26175 
  -26218   -26246   -26289   -26353   -26387   -26397   -26438   -26493 
  -26536   -26572   -26599   -26624   -26666   -26704   -26724   -26757 
  -26806   -26838   -26847   -26878   -26917   -26939   -26962   -27005 
  -27044   -27060   -27071   -27090   -27122   -27156   -27177   -27197 
  -27220   -27234   -27251   -27280   -27302   -27309   -27321   -27352 
  -27376   -27376   -27382   -27398   -27409   -27414   -27425   -27437 
  -27436   -27423   -27432   -27449   -27440   -27415   -27406   -27405 
  -27395   -27382   -27378   -27376   -27355   -27324   -27309   -27295 
  -27270   -27259   -27263   -27249   -27207   -27171   -27151   -27131 
  -27116   -27101   -27072   -27036   -27004   -26973   -26943   -26913 
  -26873   -26840   -26817   -26775   -26728   -26698   -26659   -26608 
  -26570   -26536   -26488   -26439   -26396   -26341   -26288   -26253 
  -26210   -26163   -26126   -26073   -26009   -25968   -25937   -25878 
  -25816   -25790   -25759   -25699   -25654   -25632   -25598   -25551 
  -25512   -25483   -25455   -25427   -25407   -25384   -25359   -25338 
  -25328   -25320   -25307   -25282   -25270   -25272   -25272   -25272 
  -25284   -25290   -25288   -25292   -25304   -25313   -25321   -25338 
  -25361   -25377   -25389   -25411   -25438   -25455   -25470   -25496 
  -25520   -25533   -25556   -25601   -25632   -25645   -25679   -25714 
  -25732   -25760   -25790   -25806   -25839   -25891   -25917   -25915 
  -25944   -25988   -26003   -26021   -26049   -26064   -26080   -26111 
  -26137   -26147   -26164   -26191   -26213   -26223   -26230   -26246 
  -26271   -26288   -26299   -26314   -26327   -26329   -26343   -26368 
  -26380   -26391   -26403   -26406   -26419   -26442   -26437   -26428 
  -26451   -26468   -26466   -26477   -26493   -26482   -26472   -26476 
  -26477   -26485   -26496   -26493   -26488   -26495   -26489   -26468 
  -26454   -26446   -26441   -26446   -26441   -26415   -26393   -26393 
  -26395   -26376   -26349   -26338   -26337   -26326   -26300   -26279 
  -26285   -26285   -26268   -26264   -26253   -26219   -26203   -26212 
  -26207   -26193   -26208   -26215   -26190   -26181   -26200   -26196 
