Origin Time       2016/04/16 01:25:00
Lat.              32.753
Long.             130.762
Depth. (km)       12
Mag.              7.3
Station Code      NGN020
Station Lat.      35.8282
Station Long.     137.9532
Station Height(m) 636
Record Time       2016/04/16 01:28:51
Sampling Freq(Hz) 100Hz
Duration Time(s)  60
Dir.              E-W
Scale Factor      7845(gal)/8223790
Max. Acc. (gal)   1.038
Last Correction   2016/04/16 01:28:53
Memo.             
[...]
    2759     2771     2787     2801     2814     2830     2844     2856 
    2868     2879     2891     2902     2914     2926     2938     2949 
    2956     2963     2974     2978     2982     2991     2999     3005 
    3010     3013     3017     3021     3022     3021     3022     3024 
    3026     3026     3026     3024     3019     3017     3018     3017 
    3011     3007     3007     3001     2994     2990     2984     2979 
    2974     2964     2955     2948     2945     2936     2925     2915 
    2906     2896     2887     2875     2867     2859     2843     2829 
    2822     2810     2794     2783     2768     2749     2739     2727 
    2706     2693     2681     2660     2647     2635     2614     2598 
    2587     2565     2548     2536     2517     2501     2493     2473 
    2452     2442     2425     2407     2396     2382     2367     2355 
    2338     2327     2317     2297     2284     2272     2253     2246 
    2239     2218     2209     2204     2187     2178     2172     2154 
    2151     2151     2133     2124     2128     2116     2107     2111 
    2104     2101     2106     2097     2097     2098     2092     2095 
    2102     2100     2102     2107     2107     2115     2120     2119 
    2124     2130     2130     2135     2142     2143     2149     2157 
    2162     2166     2173     2181     2187     2191     2200     2209 
    2218     2222     2232     2242     2250     2265     2278     2285 
    2299     2312     2323     2334     2347     2361     2376     2390 
    2405     2419     2434     2448     2461     2475     2497     2513 
    2524     2543     2563     2574     2590     2610     2623     2636 
    2654     2667     2679     2694     2706     2718     2736     2744 
    2752     2766     2775     2779     2786     2794     2802     2808 
    2817     2824     2826     2828     2830     2837     2843     2844 
    2843     2844     2847     2849     2853     2856     2856     2856 
    2857     2860     2860     2860     2863     2862     2863     2863 
    2862     2860     2863     2863     2860     2857     2859     2855 
    2848     2852     2851     2844     2844     2839     2835     2835 
    2828     2821     2817     2814     2813     2808     2799     2797 
    2797     2791     2787     2782     2775     2772     2772     2771 
    2767     2763     2759     2758     2755     2749     2745     2745 
    2747     2745     2743     2743     2736     2731     2733     2733 
    2732     2735     2736     2735     2732     2731     2729     2729 
    2733     2732     2731     2733     2733     2731     2731     2731 
    2728     2725     2725     2724     2721     2724     2721     2717 
    2713     2712     2710     2705     2700     2695     2690     2685 
    2681     2673     2664     2662     2655     2648     2640     2632 
    2627     2619     2609     2601     2592     2583     2577     2567 
    2558     2548     2539     2532     2525     2516     2506     2498 
    2494     2490     2482     2475     2469     2459     2452     2446 
    2439     2435     2428     2420     2416     2411     2401     2398 
    2394     2390     2386     2382     2380     2378     2376     2374 
    2376     2376     2376     2377     2376     2376     2377     2380 
    2377     2378     2382     2385     2389     2389     2390     2393 
    2394     2398     2407     2408     2407     2411     2417     2420 
    2421     2424     2430     2436     2439     2440     2446     2450 
    2451     2454     2459     2461     2461     2463     2463     2466 
    2470     2470     2469     2469     2469     2467     2466     2467 
    2467     2467     2469     2466     2461     2459     2459     2458 
    2454     2451     2448     2444     2440     2439     2438     2435 
    2432     2430     2427     2424     2423     2420     2416     2415 
    2417     2415     2409     2408     2411     2411     2409     2408 
    2408     2409     2412     2412     2412     2413     2419     2423 
    2424     2425     2427     2430     2434     2438     2446     2454 
    2458     2461     2465     2473     2479     2488     2497     2506 
    2515     2520     2527     2539     2546     2552     2563     2577 
    2587     2597     2606     2619     2631     2644     2656     2668 
    2678     2688     2704     2717     2727     2735     2747     2756 
    2767     2781     2790     2798     2808     2817     2825     2833 
    2841     2848     2853     2863     2871     2878     2884     2889 
    2895     2905     2911     2915     2917     2920     2925     2930 
    2936     2940     2943     2949     2956     2959     2964     2967 
    2972     2976     2980     2983     2988     2995     3001     3003 
    3003     3006     3013     3017     3018     3019     3019     3021 
    3025     3025     3021     3019     3022     3022     3019     3014 
    3010     3006     2999     2994     2992     2991     2983     2975 
    2967     2960     2953     2947     2934     2925     2915     2903 
    2894     2886     2874     2859     2844     2833     2818     2805 
    2792     2776     2759     2745     2732     2714     2697     2679 
    2660     2640     2625     2609     2589     2565     2546     2528 
    2509     2488     2463     2444     2427     2404     2384     2367 
    2347     2323     2303     2284     2261     2241     2223     2204 
    2184     2161     2139     2123     2106     2088     2070     2052 
    2034     2023     2008     1992     1979     1961     1948     1939 
    1929     1915     1906     1900     1890     1880     1876     1871 
    1863     1861     1859     1858     1857     1858     1863     1868 
    1871     1876     1884     1892     1900     1911     1922     1935 
    1949     1965     1981     1999     2016     2034     2047     2066 
    2092     2114     2133     2157     2180     2203     2228     2250 
    2273     2303     2327     2350     2381     2412     2438     2466 
    2496     2523     2551     2582     2614     2643     2669     2701 
    2731     2756     2785     2810     2839     2870     2901     2926 
    2951     2979     3007     3029     3053     3082     3105     3125 
    3152     3172     3190     3211     3229     3245     3264     3283 
    3296     3310     3326     3342     3352     3362     3376     3385 
    3393     3403     3411     3416     3423     3429     3430     3435 
    3443     3445     3443     3450     3450     3445     3446     3446 
    3440     3435     3433     3427     3423     3416     3407     3397 
    3385     3375     3365     3354     3342     3331     3316     3300 
    3284     3269     3249     3231     3213     3191     3172     3150 
    3123     3098     3076     3051     3025     2999     2971     2941 
    2910     2882     2855     2825     2798     2768     2732     2704 
    2678     2646     2613     2584     2556     2525     2496     2469 
    2439     2411     2385     2357     2328     2303     2276     2251 
    2228     2204     2181     2161     2142     2120     2098     2081 
    2066     2050     2031     2014     1999     1987     1977     1966 
    1956     1949     1944     1930     1927     1929     1926     1921 
    1919     1918     1918     1923     1927     1934     1941     1945 
    1949     1964     1977     1984     1989     2004     2025     2041 
    2053     2068     2084     2104     2126     2146     2168     2191 
    2215     2235     2257     2285     2312     2336     2363     2393 
    2420     2447     2474     2506     2538     2565     2596     2628 
    2659     2690     2720     2747     2775     2809     2839     2860 
    2887     2914     2938     2967     2997     3019     3038     3061 
    3082     3098     3119     3142     3161     3177     3192     3200 
    3210     3223     3237     3246     3253     3260     3264     3269 
    3275     3273     3272     3271     3268     3264     3264     3260 
    3250     3242     3235     3226     3213     3204     3194     3180 
    3169     3159     3142     3126     3111     3096     3083     3065 
    3046     3029     3011     2994     2974     2956     2938     2922 
    2906     2889     2871     2851     2830     2814     2799     2783 
    2767     2752     2737     2721     2706     2694     2682     2666 
    2650     2636     2624     2610     2600     2592     2581     2567 
    2558     2551     2540     2527     2519     2515     2506     2500 
    2493     2486     2477     2470     2463     2459     2457     2452 
    2448     2446     2442     2438     2436     2430     2428     2430 
    2427     2421     2419     2420     2421     2421     2421     2416 
    2411     2411     2412     2412     2413     2411     2408     2408 
    2405     2398     2396     2397     2396     2392     2393     2393 
    2385     2378     2377     2371     2367     2366     2365     2361 
    2354     2349     2347     2344     2338     2335     2335     2331 
    2328     2324     2317     2316     2319     2317     2313     2312 
    2311     2312     2313     2312     2313     2319     2323     2326 
    2336     2342     2342     2354     2367     2373     2385     2401 
    2412     2424     2439     2459     2478     2493     2512     2531 
    2546     2569     2592     2613     2635     2656     2677     2698 
    2718     2740     2764     2786     2803     2824     2841     2859 
    2882     2906     2924     2941     2953     2964     2980     2999 
    3015     3032     3042     3055     3065     3073     3084     3096 
    3106     3115     3122     3127     3136     3142     3154     3168 
    3173     3179     3184     3188     3199     3208     3215     3222 
    3227     3231     3240     3248     3254     3262     3272     3276 
    3276     3281     3288     3295     3300     3304     3310     3312 
    3310     3312     3315     3316     3321     3325     3325     3319 
    3315     3314     3311     3307     3303     3298     3291     3283 
    3276     3268     3258     3249     3241     3230     3217     3206 
    3194     3179     3167     3154     3141     3126     3111     3096 
    3084     3073     3057     3037     3021     3007     2991     2976 
    2963     2945     2926     2910     2891     2871     2856     2841 
    2820     2801     2787     2764     2740     2727     2714     2688 
    2668     2655     2632     2606     2589     2574     2552     2527 
    2508     2490     2465     2442     2423     2401     2380     2357 
    2336     2319     2299     2274     2255     2238     2219     2199 
    2182     2172     2154     2135     2124     2111     2098     2091 
    2083     2074     2069     2061     2053     2050     2050     2052 
    2052     2053     2058     2060     2064     2070     2077     2083 
    2092     2102     2111     2124     2141     2151     2163     2180 
    2192     2205     2224     2243     2262     2280     2297     2313 
    2330     2349     2371     2390     2408     2427     2448     2469 
    2490     2511     2529     2550     2570     2589     2612     2632 
    2651     2671     2693     2710     2731     2754     2774     2791 
    2810     2830     2851     2872     2891     2909     2925     2941 
    2957     2974     2990     3006     3024     3040     3053     3068 
    3082     3094     3105     3115     3127     3140     3150     3161 
    3168     3169     3177     3186     3190     3194     3200     3202 
    3207     3210     3208     3208     3213     3217     3218     3219 
    3217     3213     3215     3218     3217     3218     3218     3217 
    3215     3215     3217     3215     3213     3211     3211     3210 
    3208     3204     3200     3198     3194     3191     3188     3187 
    3183     3176     3171     3165     3159     3152     3149     3145 
    3138     3130     3121     3111     3103     3094     3080     3073 
    3069     3057     3041     3030     3015     2999     2986     2972 
    2955     2936     2920     2902     2878     2856     2840     2821 
    2794     2770     2749     2724     2695     2671     2648     2624 
    2597     2573     2546     2520     2493     2465     2442     2420 
    2389     2361     2336     2312     2289     2266     2242     2219 
    2193     2170     2151     2130     2106     2085     2066     2046 
    2030     2012     1991     1975     1962     1948     1933     1922 
    1910     1898     1892     1884     1871     1868     1865     1857 
    1852     1852     1849     1848     1848     1848     1850     1852 
    1854     1858     1861     1864     1871     1873     1878     1890 
    1894     1898     1907     1915     1923     1933     1944     1953 
    1961     1972     1981     1993     2008     2020     2031     2043 
    2060     2073     2084     2102     2118     2130     2146     2165 
    2180     2192     2208     2228     2247     2265     2286     2303 
    2316     2335     2357     2378     2400     2419     2436     2457 
    2477     2493     2512     2536     2555     2575     2601     2621 
    2636     2659     2683     2704     2720     2740     2766     2789 
    2814     2837     2855     2875     2901     2925     2944     2967 
    2995     3018     3041     3065     3087     3113     3136     3154 
    3177     3203     3225     3244     3262     3287     3310     3327 
    3349     3369     3385     3404     3427     3445     3461     3480 
    3499     3511     3523     3543     3561     3574     3588     3601 
    3613     3624     3638     3649     3657     3667     3677     3684 
    3690     3694     3694     3700     3705     3704     3701     3700 
    3697     3692     3688     3680     3667     3659     3650     3638 
    3626     3608     3589     3574     3555     3537     3520     3497 
    3473     3451     3424     3397     3373     3343     3316     3295 
    3265     3226     3198     3173     3138     3100     3071     3041 
    3002     2963     2932     2902     2866     2828     2795     2762 
    2727     2690     2656     2629     2597     2563     2536     2508 
    2474     2442     2420     2397     2366     2338     2322     2301 
    2277     2257     2234     2211     2195     2178     2161     2144 
    2130     2118     2102     2088     2074     2064     2053     2045 
    2034     2029     2020     2008     2001     2001     1996     1987 
    1987     1989     1984     1981     1982     1980     1975     1977 
    1980     1980     1980     1981     1982     1980     1981     1987 
    1987     1984     1982     1982     1982     1987     1988     1985 
    1988     1993     1989     1987     1989     1992     1993     1996 
    2000     2000     1999     2000     2003     2003     2008     2012 
    2016     2019     2022     2023     2026     2031     2037     2041 
    2049     2057     2061     2066     2074     2081     2088     2098 
    2111     2121     2130     2143     2154     2166     2184     2196 
    2204     2219     2238     2251     2262     2278     2296     2307 
    2319     2338     2351     2366     2384     2398     2411     2424 
    2439     2454     2466     2477     2488     2500     2511     2523 
    2533     2544     2554     2560     2565     2571     2578     2584 
    2590     2596     2598     2601     2605     2609     2610     2613 
    2617     2616     2614     2619     2616     2612     2614     2616 
    2610     2608     2609     2605     2601     2600     2600     2596 
    2592     2590     2586     2578     2573     2574     2570     2567 
    2565     2559     2552     2550     2543     2539     2540     2538 
    2531     2524     2521     2516     2506     2501     2498     2490 
    2482     2481     2475     2465     2457     2450     2442     2435 
    2424     2417     2412     2403     2392     2386     2381     2371 
    2361     2357     2350     2336     2327     2323     2315     2305 
    2301     2296     2288     2278     2272     2266     2259     2249 
    2246     2242     2231     2223     2218     2209     2201     2195 
    2188     2180     2173     2168     2162     2149     2138     2130 
    2121     2118     2107     2098     2093     2085     2076     2072 
    2064     2052     2047     2043     2037     2034     2030     2022 
    2018     2015     2014     2014     2010     2007     2012     2014 
    2011     2014     2016     2018     2019     2022     2026     2031 
    2033     2038     2047     2053     2058     2062     2069     2079 
    2087     2095     2107     2116     2121     2135     2149     2157 
    2169     2181     2189     2201     2215     2228     2242     2255 
    2263     2274     2286     2301     2317     2330     2340     2353 
    2363     2378     2390     2396     2408     2421     2427     2439 
    2451     2455     2466     2478     2481     2489     2498     2505 
    2513     2517     2523     2531     2533     2535     2544     2546 
    2548     2554     2555     2556     2565     2569     2567     2571 
    2575     2577     2578     2579     2581     2584     2586     2589 
    2593     2592     2593     2598     2600     2604     2608     2605 
    2606     2616     2619     2617     2623     2627     2631     2633 
    2635     2640     2643     2646     2650     2652     2650     2654 
    2659     2660     2663     2667     2663     2664     2669     2666 
    2663     2668     2667     2666     2666     2660     2659     2660 
    2652     2650     2651     2644     2641     2636     2628     2624 
    2623     2616     2612     2612     2604     2593     2589     2583 
    2575     2574     2565     2558     2556     2550     2542     2539 
    2536     2527     2520     2519     2512     2505     2501     2494 
    2486     2481     2478     2473     2465     2459     2458     2454 
    2448     2444     2439     2436     2435     2434     2431     2428 
    2427     2424     2419     2420     2423     2420     2419     2424 
    2424     2420     2424     2430     2431     2434     2436     2438 
    2439     2439     2442     2446     2450     2452     2457     2461 
    2463     2465     2467     2475     2477     2474     2481     2488 
    2488     2489     2493     2496     2497     2498     2500     2502 
    2502     2504     2502     2502     2506     2505     2502     2504 
    2504     2500     2498     2497     2493     2493     2492     2486 
    2484     2481     2478     2475     2471     2469     2466     2459 
    2455     2455     2454     2450     2444     2440     2438     2435 
    2432     2430     2428     2427     2421     2415     2416     2416 
    2409     2405     2408     2404     2401     2401     2396     2390 
    2389     2389     2390     2390     2386     2384     2380     2381 
    2382     2380     2378     2381     2380     2380     2385     2388 
    2386     2388     2392     2394     2396     2398     2403     2408 
    2415     2419     2420     2430     2442     2446     2448     2459 
    2471     2478     2486     2496     2502     2515     2529     2535 
    2544     2560     2574     2586     2597     2612     2624     2635 
    2652     2668     2681     2697     2716     2729     2743     2759 
    2778     2794     2810     2826     2843     2863     2880     2890 
    2907     2929     2941     2956     2978     2994     3003     3015 
    3033     3048     3057     3071     3086     3098     3107     3118 
    3127     3137     3149     3159     3165     3173     3180     3186 
