Origin Time       2016/04/16 01:25:00
Lat.              32.753
Long.             130.762
Depth. (km)       12
Mag.              7.3
Station Code      NGS004
Station Lat.      33.1808
Station Long.     129.7177
Station Height(m) 23
Record Time       2016/04/16 01:25:26
Sampling Freq(Hz) 100Hz
Duration Time(s)  112
Dir.              E-W
Scale Factor      3920(gal)/6182761
Max. Acc. (gal)   29.760
Last Correction   2016/04/16 01:25:26
Memo.             
[...]
   -6152    -5611    -5666    -6859    -8674    -9947    -9958    -9059 
   -7882    -6925    -6840    -7773    -9385   -11356   -12580   -11866 
   -9546    -6767    -4633    -3881    -4143    -4677    -5377    -6193 
   -6889    -7491    -8095    -8408    -7764    -6004    -4115    -3183 
   -3489    -5062    -7590   -10126   -11969   -12804   -12330   -10997 
   -9556    -7753    -5371    -3364    -2768    -3947    -6456    -8832 
   -9911    -9811    -8785    -7014    -5379    -4619    -4501    -4616 
   -4955    -5643    -6765    -8271    -9741   -10447    -9983    -8508 
   -6545    -5320    -6071    -8029    -8998    -8231    -6690    -5592 
   -6024    -7960    -9695    -9785    -8415    -6434    -4407    -2903 
   -2742    -4157    -6526    -9110   -10757   -10268    -8011    -5075 
   -1890      384     -218    -3777    -7945   -10638   -11601   -11138 
   -9467    -7593    -6582    -6350    -6409    -6360    -5714    -4778 
   -5006    -7407   -10847   -12839   -12251    -9955    -6985    -3865 
   -1358     -466    -1655    -4208    -6690    -8447    -9759   -10309 
   -9104    -6321    -3954    -4043    -6582    -9362   -10271    -9431 
   -8064    -6773    -6133    -6409    -6939    -7599    -8412    -8350 
   -7363    -6677    -6433    -5864    -4612    -3293    -3652    -6561 
  -10060   -11345    -9798    -6669    -3259     -928    -1089    -3749 
   -7763   -11896   -14317   -13724   -11123    -8339    -6473    -5876 
   -5903    -6026    -6942    -9047   -11359   -12539   -11654    -8572 
   -4400     -929      290    -1262    -4459    -7553    -9475    -9757 
   -8687    -7179    -5729    -4618    -4404    -5099    -6071    -7376 
   -9845   -12855   -13918   -11818    -7720    -3265     -272     -509 
   -3676    -7639   -10738   -12029   -10630    -6691    -2014     1184 
    1636     -743    -4908    -8738   -10480   -10331    -9465    -8294 
   -6672    -4945    -3999    -4327    -5602    -7233    -8694    -9770 
  -10746   -11333   -10625    -9214    -8658    -8754    -8176    -6731 
   -5497    -5611    -6888    -8075    -8746    -9598   -11007   -12178 
  -11652    -9064    -6120    -4355    -3097    -1678    -1423    -3810 
   -8541   -13396   -15723   -14837   -11866    -8089    -5087    -4202 
   -5191    -7206    -9485   -10391    -8790    -6176    -4679    -4174 
   -3654    -3562    -4556    -5882    -6448    -6076    -5152    -4374 
   -5089    -8229   -12252   -14020   -12155    -7755    -2801      619 
     693    -3725   -11518   -17956   -18883   -15146    -9724    -4614 
   -1721    -2130    -4749    -7771    -9965   -10637    -9872    -8410 
   -7082    -6065    -4702    -3187    -2845    -4073    -6376    -8648 
   -8382    -4623     -215     1749      280    -4151    -9303   -12700 
  -14137   -14516   -14010   -12222    -8722    -4304    -1369    -1227 
   -2752    -4856    -7398    -9362    -9032    -6394    -3567    -2056 
   -1471    -1599    -2608    -3735    -4833    -6816    -9192   -10414 
  -10441   -10041    -8595    -5687    -3409    -3731    -6101    -9168 
  -11719   -12506   -11090    -8644    -7126    -6750    -6331    -5847 
   -5371    -4554    -4339    -5160    -6048    -7073    -8472    -8852 
   -7157    -4391    -2576    -2884    -4937    -7742   -10291   -11456 
  -11051   -10195    -9527    -8984    -9028    -9747   -10262   -10341 
  -10521   -10805   -10710    -9726    -7855    -5912    -4403    -3341 
   -3162    -3839    -4443    -4712    -5097    -5506    -5377    -4412 
   -3201    -2798    -3143    -3258    -3170    -3976    -5955    -8029 
   -9376   -10048   -10205   -10391   -11045   -10978    -9034    -6438 
   -4934    -4451    -4125    -3881    -4382    -6030    -8045    -9022 
   -8664    -8142    -8469    -9146    -9289    -9620   -11049   -12234 
  -11587    -9635    -7593    -6195    -5612    -4874    -2826     -313 
     -49    -3103    -7342   -10683   -12580   -12580   -10789    -8248 
   -5806    -3830    -2512    -2206    -3140    -4904    -7060    -9178 
  -10483   -10632    -9588    -7309    -4952    -4246    -5316    -7022 
   -8368    -8926    -8700    -7142    -3951    -1139     -627    -1943 
   -4541    -7555    -8559    -6622    -3311     -479      508    -1072 
   -5217   -10410   -13214   -12045    -9497    -8162    -8185    -9559 
  -12027   -13484   -12498   -10748   -10086    -9851    -9078    -8033 
   -6922    -6020    -6065    -6792    -6899    -6108    -5528    -5494 
   -5051    -4195    -3831    -3884    -4113    -4774    -5429    -5802 
   -6444    -6929    -6550    -6477    -7739    -9199    -9719    -9491 
   -9047    -9093   -10097   -11359   -11667   -10609    -8764    -6746 
   -4750    -3531    -4031    -5777    -7582    -8312    -6732    -3338 
    -519      229    -1167    -4135    -7294    -9419   -10423   -10666 
  -10357    -9482    -7761    -5192    -2317       57      937     -199 
   -3205    -7863   -12779   -15200   -14167   -11058    -7100    -3659 
   -2083    -1925    -2868    -5305    -7541    -7698    -6391    -4755 
   -3648    -4099    -6126    -8978   -11839   -13133   -11625    -8057 
   -4346    -2760    -4690    -8564   -11588   -12871   -12538   -10648 
   -7975    -5578    -4106    -4064    -5431    -7217    -8469    -9233 
   -9738    -9483    -7969    -5425    -2402       16       91    -2593 
   -6089    -8531    -9921   -10537    -9628    -6827    -3529    -1724 
   -2277    -4932    -8553   -11173   -11291    -9055    -6010    -4371 
   -5688    -8964   -11393   -11990   -12151   -12530   -12396   -11155 
   -8928    -6876    -6330    -7036    -7487    -6931    -6185    -5953 
   -5671    -5168    -5250    -6056    -6836    -6768    -5723    -4931 
   -5224    -5418    -4657    -3737    -3552    -4662    -6992    -9156 
   -9668    -7983    -4319     -193     1686     -566    -6193   -11926 
  -14439   -13012    -9035    -4429    -1557    -1612    -3083    -4634 
   -6834    -9555   -11416   -11674   -10693    -9007    -6296    -2518 
     307     -238    -4097    -8479   -10520   -10109    -8475    -5828 
   -3316    -3187    -5219    -7596    -9799   -11235   -10729    -8969 
   -7908    -7890    -7890    -7530    -7047    -6539    -6336    -6686 
   -6594    -5032    -3230    -3390    -6008   -10159   -14327   -16046 
  -13453    -7376     -713     2708     -397    -9094   -17487   -20112 
  -16266    -8792    -2018     -285    -4389   -10659   -15574   -17821 
  -16706   -13119    -9919    -8940    -9421    -9747    -9485    -8968 
   -8281    -7642    -7187    -6483    -5241    -3671    -2092     -890 
    -916    -2793    -5257    -6325    -5737    -4128    -2002     -511 
    -926    -3103    -5700    -8247   -11407   -14286   -14386   -11296 
   -7335    -4704    -4534    -7192   -11354   -14352   -14323   -10884 
   -4983      649     2587     -326    -5527    -9312   -10244    -8977 
   -6675    -4612    -3859    -5396    -9672   -15054   -18500   -18120 
  -14488   -10130    -6889    -4606    -3558    -4819    -8007   -11638 
  -14122   -14002   -11081    -6599    -2382     -245    -1183    -4745 
   -8774   -10372    -8741    -6156    -4853    -4875    -5804    -7260 
   -7526    -5425    -2671    -1565    -2211    -3742    -5917    -8690 
  -11858   -14676   -15666   -14039   -10315    -5769    -2840    -3951 
   -8740   -14740   -19700   -21493   -19122   -14621   -10752    -8202 
   -6719    -5974    -5279    -4725    -4807    -4719    -3687    -3092 
   -4617    -7138    -8387    -8505    -8714    -8768    -8261    -7475 
   -6410    -5581    -6047    -7386    -8331    -8667    -8253    -6349 
   -3895    -3461    -5188    -6859    -8034    -9158    -9246    -8162 
   -7264    -6895    -6487    -6538    -7968    -9989   -10983   -10294 
   -7553    -3146      674     1694     -689    -5773   -11612   -15605 
  -15626   -11243    -4693      807     3454     2717     -714    -4774 
   -7543    -8102    -6540    -4320    -3486    -5206    -9319   -14122 
  -16656   -14929   -10033    -4715     -822      436    -1591    -5589 
   -9406   -11827   -12070   -10105    -7463    -5956    -6020    -6771 
   -7710    -9122   -10402   -10664   -10381    -9913    -8807    -7376 
   -6205    -5239    -4844    -5658    -7502    -9772   -11979   -13506 
  -13449   -11340    -8072    -5247    -3884    -4315    -6248    -8671 
  -10661   -11833   -11552    -9278    -6120    -4189    -4239    -5237 
   -5808    -5483    -4742    -4036    -3074    -1446       21     -307 
   -2545    -5221    -7185    -7813    -7122    -6171    -5685    -5855 
   -7391   -10155   -12369   -12909   -12302   -11049    -9043    -6453 
   -3986    -2585    -2373    -2256    -2367    -4549    -8473   -11354 
  -11813    -9872    -5771    -1498      655     1027      622    -1106 
   -4492    -8026    -9499    -8657    -7275    -6067    -4475    -2972 
   -2274    -2146    -2299    -2176    -1006      860     2397     2905 
    2273     1168     -270    -3141    -7752   -12663   -16234   -17784 
  -17210   -14407   -10210    -7038    -6853    -9077   -11400   -12164 
  -11244    -9151    -6633    -4603    -3751    -4665    -7303   -10198 
  -11321    -9624    -6433    -4445    -4106    -4168    -5039    -6817 
   -7410    -6243    -5323    -5981    -7873    -9812   -10691   -10672 
  -10499   -10256    -9850    -9294    -8741    -8566    -8523    -7844 
   -6538    -5266    -4201    -3128    -2201    -1623    -1585    -2559 
   -4127    -5092    -4969    -3441     -617     1535     1002    -2093 
   -6189    -9394   -10613   -10426    -9790    -8857    -8520   -10230 
  -12799   -13602   -12597   -10954    -8624    -5770    -3873    -4885 
   -9221   -14478   -17904   -18385   -15424    -9917    -4470     -626 
    1337      797    -2035    -5338    -7108    -6409    -4261    -2685 
   -1884     -839     -307    -1634    -4200    -6648    -8667   -10534 
  -12243   -13347   -13372   -12035    -9474    -7103    -6860    -8823 
  -11472   -13680   -14413   -12687    -9221    -5742    -3304    -2548 
   -3337    -4368    -4640    -3634     -503     4605     9452    11338 
    9122     3368    -4251   -10832   -13354   -11765    -8898    -6429 
   -4326    -3976    -7369   -13633   -19376   -21550   -19138   -13148 
   -6077    -1393    -1339    -4730    -8852   -12440   -15067   -15792 
  -14099   -10504    -5567      495     6927    11719    12594     9132 
    3351    -1777    -4177    -3470     -989      488    -1087    -4690 
   -7942    -9710   -10095    -9788    -9400    -9799   -12483   -16809 
  -19692   -19963   -18455   -15161   -10173    -4514      480     3482 
    4395     3412      120    -3759    -5661    -6184    -6877    -7836 
   -9223   -10809   -11463   -10862    -9778    -9012    -8706    -8816 
  -10206   -13438   -16766   -17613   -15275   -11280    -8334    -8652 
  -12044   -16042   -18001   -15922    -9030      426     8298    11458 
    8175     -711   -10157   -14167   -10848    -3261     4070     8156 
    7343     1761    -5740   -12157   -15995   -16285   -14456   -14257 
  -16176   -17509   -17920   -18454   -17930   -15238   -11969    -9889 
   -8163    -5382    -2088     1380     6105    11479    14686    13507 
    7709     -787    -8648   -12848   -12032    -7121     -231     6667 
   10939     9606     1968    -9409   -19804   -24571   -21903   -13670 
   -4168     1724     1352    -3604    -8925   -11366   -10045    -6591 
   -4098    -4045    -5217    -5515    -3262     1443     6051     7721 
    5358     -191    -7047   -13617   -17740   -16618   -10992    -5661 
   -3855    -4988    -6912    -7804    -7876    -9083   -11873   -14189 
  -13881   -10825    -7161    -5249    -5474    -7057    -9139    -9589 
   -6293     -540     4402     6892     6810     4098    -1404    -8831 
  -15402   -18520   -18172   -16295   -14923   -14463   -14028   -14093 
  -15610   -16812   -15076   -10516    -5540    -2136     -644    -1158 
   -3829    -7565   -11502   -16014   -19889   -20113   -15695    -8529 
    -971     4945     6434     1718    -5849   -10325    -9764    -5722 
    -402     3236     3021     -359    -4058    -6255    -8484   -12702 
  -17934   -21267   -19716   -12782    -3644     4435     9841    10862 
    7045      717    -5397    -9726   -11655   -11775   -10751    -8080 
   -3324     2599     7785    10204     8100      501   -11615   -25282 
  -36736   -42414   -40817   -33730   -24024   -13668    -4872      -82 
     435    -1339    -3996    -7070    -8679    -6972    -3533     -966 
    1595     6802    13713    17715    15579     7186    -5921   -20339 
  -31122   -34346   -29834   -21689   -15124   -12944   -15741   -22996 
  -32166   -39117   -41048   -37486   -28714   -16009    -3250     4750 
    6475     5005     3975     3429     1260    -3412    -9168   -12810 
  -11991    -7630    -2755     -179    -1115    -5158   -11055   -16099 
  -16803   -12689    -6691    -1178     3165     5977     7566     8558 
    8440     7523     8738    13306    17667    17816    13619     7503 
    1837    -1381    -1087     1668     4244     3828    -1492   -11159 
  -21198   -26686   -25151   -16758    -3403    10486    18414    16094 
    4856   -10372   -23966   -30427   -27558   -18729    -8477      793 
    6656     6605      938    -7005   -14016   -19374   -22866   -22323 
  -16263    -6426     5085    16431    23583    22991    14866     2351 
   -8891   -12920    -8858     -888     6282     9131     6844     2197 
   -1556    -3019    -2842    -2243     -882     1529     4114     6352 
    6924     3865    -2469   -10072   -17244   -22083   -22009   -14920 
   -1666    12188    18148    10550    -8664   -31445   -48579   -53996 
  -47613   -33953   -17977    -4200     2378    -1173   -12097   -23436 
  -29364   -28022   -21115   -12578    -6088    -3836    -7060   -14142 
  -20504   -23017   -21381   -16741   -11404    -7697    -6545    -7040 
   -7752    -8851   -10868   -12753   -13705   -14140   -13859   -11860 
   -7685    -1767     4399     7454     3824    -5791   -16254   -22453 
  -21242   -12738    -2166     4336     5598     3588      177    -2370 
   -2944    -2760    -2993    -4162    -6932   -11042   -14613   -15673 
  -13916   -10473    -6494    -3128    -1856    -3871    -9952   -18261 
  -22215   -16344    -2837    11584    21053    21467    11344    -5670 
  -21292   -28223   -24970   -14773    -2521     6459     8028     1560 
   -9949   -21721   -28662   -26992   -16982    -3772     5610     6902 
    1251    -6084    -8811    -4004     4185     8183     3583    -8835 
  -22162   -26397   -17480     -400    15635    22899    19279     7509 
   -7820   -20989   -28419   -31108   -30157   -25319   -18369   -11499 
   -5231     -774     -485    -5160   -12407   -17948   -18430   -13097 
   -3893     5361    10710    10619     6768      756    -7655   -17401 
  -25154   -28339   -26488   -20442   -12068    -4550     -915    -2078 
   -7559   -16063   -24744   -30826   -32956   -29620   -19921    -6817 
    3689     6901     2056    -8346   -20215   -29287   -33172   -32218 
  -27736   -20426   -11611    -4076      474     1919     -191    -5571 
  -12553   -19394   -24337   -25833   -23254   -17091    -9378    -2616 
    2458     6189     7844     6371     1884    -5029   -13291   -20029 
  -21179   -14455    -2205    10006    17756    18607    11730     -464 
  -12839   -19838   -17652    -6819     7790    20124    25505    22045 
   11083    -3994   -18534   -27479   -28586   -23283   -13856    -3899 
     905    -1728    -7111    -9067    -5636     1621     9882    16015 
   17970    15688    10572     5410     3309     5053     9033    12968 
   14871    14173    11314     6192     -931    -7907   -12492   -14855 
  -16217   -16472   -15071   -12549   -10285    -9505   -10457   -12587 
  -14928   -16044   -15077   -12830   -10676    -9423    -9551   -10595 
  -11112   -11208   -13221   -18152   -23161   -24107   -19333   -10359 
   -1203     2946     -804   -10536   -20913   -26958   -26497   -19645 
   -8892      382     3559      960    -3469    -6005    -4963     -729 
    4856     9423    10748     7581      588    -7382   -12111   -11724 
   -9269    -7880    -6574    -3738       71     3196     3355    -1754 
  -12551   -25485   -34075   -34105   -25653   -11196     3633    11099 
    6986    -6753   -23568   -35981   -39472   -33012   -18985    -3209 
    8489    12545     7504    -4063   -16041   -23441   -24667   -21152 
  -15847   -10987    -8674   -10755   -15414   -18190   -16766   -12014 
   -6469    -3018    -3620    -7978   -13362   -16834   -16924   -13403 
   -7977    -3945    -3275    -5352    -8462   -10990   -12250   -13112 
  -14427   -14966   -13002    -9362    -6499    -4789    -2214     2016 
    6059     8178     8503     7931     6606     3330    -2285    -7105 
   -7330    -2852     4013    10682    14171    12633     6784    -1223 
   -8776   -13920   -16642   -17123   -13847    -6010     3770    10930 
   11977     6205    -3726   -13087   -17920   -16806   -11262    -5360 
   -3453    -6565   -11608   -15426   -17804   -19316   -19231   -16819 
  -12623    -8294    -5268    -3280    -1759    -1484    -2966    -6010 
  -10771   -16636   -21464   -22855   -19800   -13807    -8084    -5528 
   -7879   -14634   -21899   -25226   -23900   -20459   -17500   -16090 
  -15502   -14404   -12774   -11827   -13005   -17358   -23958   -29531 
  -31148   -27401   -18060    -6391     1494     2877     -238    -6099 
  -14238   -22104   -24979   -20544   -11723    -4099    -2320    -7897 
  -17591   -25832   -29045   -25962   -17369    -7238     -254     1563 
   -1938    -9880   -19319   -26278   -27653   -21896   -10396     2359 
   11678    14623    10578     2024    -6690   -11645   -10503    -3701 
    5202    11871    14379    13265     8741      918    -7655   -12836 
  -11592    -4244     4367     7529     1822    -9848   -20117   -22856 
  -17026    -6049     4139     8098     4741    -2891   -10926   -15881 
  -15751   -11688    -6650    -3475    -4697   -11155   -20529   -28747 
  -31643   -26679   -16241    -6811    -3747    -8707   -18969   -28076 
  -30160   -23460   -10547     2615     9522     7277    -1472   -10549 
  -14709   -12398    -5001     4425    11773    13360     8036    -1264 
   -9002   -11426    -8916    -4088      419     2033     -747    -6150 
  -10171   -10485    -8454    -6894    -6492    -5866    -4249    -2478 
   -1750    -2016    -2350    -2168     -778     1920     3796     3074 
     773    -2069    -5799   -10035   -13696   -16679   -19398   -20892 
  -19221   -14133    -7389    -1185     1470    -2342   -11715   -21666 
  -26703   -23225   -11300     3779    14455    16769    11190     -133 
  -12616   -19757   -19045   -13552    -7176    -2804    -2627    -6307 
  -11278   -15700   -19027   -20399   -18480   -13546    -8449    -5806 
   -5832    -7878   -11056   -13180   -12181    -8583    -4897    -3108 
   -3831    -6311    -8242    -7656    -4971    -1583     1709     3836 
    3554     1470      194     1469     4308     6638     7453     7137 
    7101     8490    10179     9601     5895      534    -4743    -8917 
  -11049   -10848   -10037   -10724   -12891   -15142   -16246   -15512 
  -13491   -11562   -10034    -8693    -9063   -12858   -18443   -21863 
  -20958   -16796   -12356   -10017    -9324    -8645    -8238    -8797 
   -9198    -8050    -5001     -468     4108     7027     7072     3279 
   -3745   -11278   -16476   -17761   -15795   -13438   -12089   -10006 
