Origin Time       2016/04/16 01:25:00
Lat.              32.753
Long.             130.762
Depth. (km)       12
Mag.              7.3
Station Code      NGS009
Station Lat.      32.8456
Station Long.     130.0218
Station Height(m) 23
Record Time       2016/04/16 01:25:18
Sampling Freq(Hz) 100Hz
Duration Time(s)  234
Dir.              E-W
Scale Factor      3920(gal)/6182761
Max. Acc. (gal)   91.437
Last Correction   2016/04/16 01:25:18
Memo.             
[...]
   -9090    -9091    -9093    -9097    -9100    -9103    -9106    -9108 
   -9109    -9109    -9109    -9112    -9116    -9121    -9127    -9130 
   -9131    -9134    -9138    -9143    -9152    -9160    -9165    -9174 
   -9185    -9196    -9205    -9216    -9229    -9245    -9260    -9267 
   -9265    -9254    -9231    -9172    -9062    -8936    -8847    -8786 
   -8702    -8601    -8512    -8407    -8237    -8048    -7953    -8006 
   -8146    -8260    -8308    -8327    -8360    -8473    -8742    -9175 
   -9713   -10300   -10843   -11133   -11044   -10781   -10601   -10449 
  -10110    -9545    -8885    -8302    -8075    -8473    -9203    -9455 
   -8944    -8377    -8444    -8864    -9122    -9417    -9885    -9953 
   -9463    -9146    -9357    -9617    -9598    -9311    -8500    -7092 
   -5924    -5861    -6703    -7770    -8773    -9624   -10290   -10898 
  -11215   -10616    -9428    -8948    -9416    -9885   -10087   -10596 
  -11351   -11246    -9678    -7751    -6898    -7252    -8120    -8947 
   -9441    -9523    -9362    -9189    -9039    -8826    -8330    -7366 
   -6569    -7018    -8730   -10823   -12574   -13291   -12543   -10950 
   -9619    -8987    -8480    -7285    -5691    -4800    -4882    -5471 
   -6522    -8201   -10009   -11049   -11260   -11366   -11616   -11630 
  -11095   -10038    -8916    -8340    -8258    -8037    -7767    -8103 
   -8636    -8444    -7910    -7831    -7866    -7573    -7380    -7690 
   -8319    -8820    -8884    -8664    -8737    -9520   -10665   -11293 
  -10883    -9816    -8922    -8400    -7810    -7187    -7365    -8657 
   -9824    -9845    -9320    -8800    -8107    -7197    -5979    -4647 
   -4309    -5807    -8342   -10480   -11959   -13254   -14236   -14369 
  -13810   -13337   -13101   -12598   -11715   -10785    -9929    -8767 
   -6873    -4608    -3448    -4531    -6796    -8321    -8463    -7082 
   -4479    -2630    -3336    -5912    -8691   -11411   -14354   -16163 
  -15567   -14440   -14910   -15347   -13358   -10167    -8562    -8592 
   -8699    -8767    -8679    -6860    -2994      571     1676      617 
   -1374    -4266    -8078   -10825   -10782    -9857   -10887   -13108 
  -13939   -13051   -12013   -12057   -13183   -14178   -14118   -13393 
  -12021    -9618    -7519    -6923    -6570    -5782    -5821    -6477 
   -6402    -6625    -8657   -10761   -10801    -9776    -9221    -9170 
   -9548   -10069    -9937    -9522    -9988   -11137   -11643   -10462 
   -8231    -7107    -7129    -6083    -4490    -4557    -4655    -2361 
    -394    -2681    -8020   -12262   -13789   -13343   -10709    -5943 
   -2286    -3455    -8897   -14262   -16158   -14835   -12695   -11887 
  -12763   -14452   -16442   -17564   -15963   -11862    -7303    -4097 
   -3520    -5606    -8192    -8929    -8497    -8322    -6997    -4225 
   -2831    -3641    -5015    -6390    -8147   -10666   -13887   -15934 
  -14790   -11754    -9166    -7000    -5763    -7607   -11590   -13240 
  -10708    -7275    -6307    -7210    -7995    -7791    -5817    -2721 
   -1962    -5663   -11518   -15748   -17133   -16581   -13911    -9112 
   -5164    -4381    -4706    -3847    -3790    -6814   -10547   -11848 
  -11011    -9154    -6462    -3333     -965     -462    -1240    -2985 
   -7038   -12070   -13841   -12176   -11626   -13636   -15033   -14061 
  -11894   -10259   -10463   -11961   -11813    -8134    -3214     -937 
   -2157    -5131    -8574   -11534   -12202    -8894    -2670     1937 
    1547    -3023   -10111   -17889   -22812   -23223   -21044   -17801 
  -13481    -9753    -9070   -10112   -10000    -8371    -4996     -389 
    2068     1119    -1027    -3672    -6780    -8113    -6670    -4852 
   -4342    -4405    -5356    -8559   -12951   -16137   -17975   -19337 
  -18917   -15145    -9676    -5761    -4155    -3064    -2308    -3775 
   -6615    -7930    -8338    -9492    -9418    -7141    -5266    -5246 
   -7025   -10695   -14435   -16289   -17156   -17089   -14796   -12351 
  -12075   -12416   -12063   -11046    -7954    -2686     1864     4683 
    6602     4892    -2659   -11548   -15759   -13108    -5659     1471 
    5273     4801    -2647   -15912   -26325   -26908   -20443   -14141 
   -9719    -6252    -7230   -13396   -18146   -18016   -16455   -15325 
  -11267    -2509     5204     5758      903    -4737    -9349   -13270 
  -18091   -23255   -24047   -18887   -14061   -14138   -14519   -10320 
   -4364    -1376    -1108      -45     2644     4119     3361     2308 
    1196    -1863    -6669   -10190   -11159   -11006    -8830    -2754 
    3429     3595    -2414   -10920   -19589   -25307   -24087   -16553 
   -8368    -4187    -4376    -7523   -12320   -16890   -19293   -17797 
  -12252    -7095    -6748    -9280   -11718   -14883   -17672   -15685 
   -8942    -3593    -3695    -6112    -6389    -5326    -5170    -4445 
   -1675      577     -237    -1628       -9     2028    -1095    -9644 
  -19308   -27388   -34033   -37928   -34820   -22881    -7228     4061 
    8718     9785     7495     1687    -2955    -3127    -1247    -1041 
   -3872    -8369   -12055   -14715   -18135   -20657   -18769   -14799 
  -13386   -13764   -13423   -12395   -10724    -8171    -5918    -5144 
   -5036    -3824    -2178    -2561    -3696    -1825     1683     1078 
   -5457   -13804   -19511   -21038   -19472   -17107   -14384   -11390 
  -10637   -11900   -10911    -7942    -8464   -12980   -15917   -14927 
  -11509    -6145     -500     2433     2415       24    -5788   -14192 
  -21111   -23915   -23862   -22321   -18912   -13702    -8271    -6061 
   -9342   -14632   -16349   -12380    -4112     4133     7151     3721 
   -1712    -4693    -6136    -8876   -12952   -16215   -16361   -12938 
   -8673    -7067    -8119    -8828    -7739    -5739    -3215     -194 
    1829      961    -3272    -9378   -13906   -13368    -8287    -3554 
   -3367    -8533   -16820   -23276   -24778   -23677   -22235   -18007 
   -9408    -1567    -1275    -7096   -11072   -10748   -10550   -11516 
  -10548    -8558    -9129   -11231   -10978    -8042    -5464    -5157 
   -5893    -5846    -5838    -6898    -7546    -7095    -6873    -7848 
  -10059   -12781   -15621   -17612   -14802    -6434       45     -346 
   -2470    -1365     -676    -5257   -12754   -16924   -15232   -10372 
   -5960    -3668    -4126    -7042   -11050   -15126   -17316   -13785 
   -4354     4947     8519     6259     1403    -3962    -8714    -9450 
   -4667     -690    -4353   -13172   -20818   -25343   -26070   -22019 
  -16242   -13246   -13422   -14583   -14932   -13676   -11336    -8361 
   -5201    -2947     -512     4107     9277    11581     9191     1475 
  -10532   -23000   -30874   -31623   -27319   -21452   -15885   -12181 
  -10900   -10115    -7818    -4229    -2572    -5301    -8664    -8362 
   -6608    -6351    -7916   -12918   -20150   -22807   -18158   -10985 
   -5276    -1769    -1146    -3228    -6895   -11374   -14397   -13603 
  -10698    -8269    -5570    -3101    -4462    -9481   -13019   -12084 
   -8387    -3648     2384     7773     7803     1305    -6654   -11760 
  -15361   -17989   -16682   -12672   -10706   -11375   -12636   -13484 
  -13024   -11135    -9100    -7959    -7896    -9028   -11381   -13835 
  -15110   -15001   -12550    -6764      672     7147    10741    10074 
    6007      164    -7753   -15925   -19919   -21102   -24353   -27307 
  -26147   -24657   -25046   -23000   -17366   -11586    -7262    -3835 
     181     6273    11559    10376     3772     -473     1365     4871 
    4364      -94    -5290   -10963   -17503   -22314   -24612   -27362 
  -30789   -32116   -30780   -26412   -17128    -4418     6063    10359 
   10081     9183     8415     6841     5935     5769     2385    -5034 
  -11497   -14438   -16649   -18882   -18478   -16568   -16573   -17108 
  -16290   -17375   -21438   -22446   -16641    -7914      183     7248 
   11137     9678     4201    -1405    -3407    -2332    -1543    -1730 
   -2990    -7288   -13731   -18964   -23489   -28654   -31421   -30563 
  -28665   -24909   -17705   -10850    -8266    -8913    -9975    -9147 
   -4959     1213     5663     5295     -347    -7558   -11767   -13774 
  -16438   -17230   -13236    -8254    -6472    -7165    -8789   -10339 
  -10644    -9234    -5285     1951    10747    17794    20747    18760 
   13011     6378     -643   -10360   -22303   -32393   -36730   -34197 
  -28049   -22908   -19919   -17511   -14129    -8844    -1134     8571 
   17206    19787    14269     3862    -8130   -21234   -33197   -39796 
  -39661   -34044   -25025   -16011    -9994    -6940    -5508    -5577 
   -5593    -1505     6944    14236    15831    11681     4763    -1569 
   -7006   -13431   -20736   -25725   -24709   -18195   -11235    -6312 
   -1334     3802     5879     3173    -2406    -7427   -11349   -16203 
  -21248   -24145   -25895   -27989   -27714   -22070   -13030    -4200 
    3356     9970    16337    22462    26476    26485    21966    13118 
    1057   -12508   -26142   -37484   -43989   -46526   -47662   -46718 
  -41329   -31752   -20799   -11765    -5821    -1721      528      -64 
   -1920    -2519    -1523      206     1934     1708    -2532    -8428 
  -11131   -10071    -8264    -7118    -6278    -6608   -10051   -16296 
  -21820   -23892   -23817   -23111   -20178   -14441    -7949    -2470 
    1658     5789     9931    10402     4659    -5954   -18947   -31599 
  -40584   -43307   -40350   -35359   -30701   -25357   -18406   -12056 
   -7855    -2149     8414    20278    27789    29792    26991    18416 
    5473    -6626   -15200   -20481   -20587   -15054    -8972    -7149 
   -9779   -15180   -22012   -28712   -32981   -32502   -26455   -17854 
  -12014    -8986    -3660     4623    11823    17366    24013    30533 
   31538    25869    17943    11116     6544     4389     1403    -7295 
  -21400   -35236   -45373   -52543   -56724   -56771   -53404   -48507 
  -43144   -36686   -27589   -15919    -2887    10928    23825    32791 
   36806    37480    35690    29889    19614     7251    -6224   -21460 
  -35533   -43791   -46323   -46282   -43771   -37529   -29702   -23582 
  -21176   -22883   -24732   -21868   -14437    -4181     8130    19100 
   23699    20486    12242     2714    -5631   -11692   -15151   -17268 
  -19561   -21332   -22779   -25895   -29797   -32334   -34450   -38228 
  -41686   -37965   -24779    -9698     1961    13621    26195    35262 
   40635    44592    45066    40341    32536    21857     5389   -15527 
  -33620   -43815   -47105   -46099   -42619   -39089   -37282   -36033 
  -32702   -25831   -16147    -6000     2876     9838    13118    11332 
    7239     5608     7631     9766     8328     3775    -1357    -6915 
  -13757   -20511   -26066   -30980   -34535   -35973   -37336   -41196 
  -47682   -54283   -56668   -51187   -37456   -16621     9087    33228 
   49019    55205    53074    44521    33589    22986    12617     2521 
   -7461   -18173   -29424   -40671   -51991   -61810   -66814   -66194 
  -62815   -58989   -53332   -43600   -31578   -21881   -15462    -8125 
    2723    14281    23414    30517    37696    47202    59542    71300 
   77088    73134    59003    37037    10006   -18703   -42865   -56414 
  -59887   -59999   -62487   -68224   -74566   -77996   -77082   -72242 
  -62993   -49127   -32311   -14407     3614    21902    40248    55859 
   66299    72779    76994    78672    76216    66825    49840    28114 
    3441   -22840   -47535   -68532   -84459   -92822   -93035   -87475 
  -76455   -56524   -26006    10372    42356    62173    71714    76484 
   76914    70953    57872    36422     6995   -26929   -63075   -98245 
 -125969  -142283  -146279  -136550  -112844   -76864   -30674    21971 
   72866   110312   127046   127491   121031   111377    99560    87085 
   71206    48285    20080    -9413   -38000   -63277   -82185   -94589 
 -101455  -101608   -94116   -80521   -64854   -50656   -37347   -22590 
   -6883     7424    20472    33578    43862    46612    42145    35049 
   29652    28795    33104    40152    45013    40691    21453   -10461 
  -45053   -71734   -84868   -84529   -71409   -47768   -23726    -9097 
   -3129     -939    -1796    -7720   -19428   -33803   -46046   -54965 
  -61760   -66754   -69344   -67445   -59318   -44821   -24241     -246 
   22751    43777    63915    80901    90633    90055    77708    55358 
   25705    -9930   -47817   -81296  -104680  -114130  -107990   -89366 
  -66211   -44966   -24552     -764    25745    50120    67025    70938 
   58969    35116     8312   -15326   -36325   -55844   -71173   -80076 
  -83118   -80333   -70304   -53032   -31265    -7434    18357    43903 
   64027    76440    81259    77193    62117    35117     1389   -27689 
  -45985   -56839   -62341   -60043   -50709   -37269   -19548     2417 
   24732    42021    50447    48005    35128    16921      384   -13331 
  -28005   -44449   -60620   -72720   -74409   -64760   -50805   -39435 
  -33850   -31316   -24194    -8770    12516    35630    56398    70665 
   74777    67801    53548    36823    20117     4743    -9955   -27243 
  -48685   -70372   -86192   -93879   -95939   -95896   -93908   -85668 
  -67514   -41173   -10821    20316    47992    67304    76378    76491 
   71113    65632    62921    61048    57002    47147    28289     1401 
  -30759   -64537   -93569  -112132  -120000  -121858  -116555   -98405 
  -71254   -39656    -4830    25645    52554    83285   110371   125901 
  133923   135160   125933   104881    72531    35248      864   -31713 
  -66271   -99094  -121573  -127513  -117673   -96563   -68678   -41803 
  -21255    -4067    11500    24972    38338    49091    50210    39790 
   21672      398   -18875   -30917   -35206   -36472   -39307   -44064 
  -47027   -45037   -38613   -28344   -14190      514     9520     8519 
    -315   -10216   -17097   -21857   -26949   -33026   -37960   -38329 
  -32158   -21897   -13240    -9019    -8157    -9845   -13657   -17390 
  -17973   -13591    -4051     9164    21731    28068    25571    15429 
     936   -13731   -25945   -35342   -40796   -39889   -32820   -23373 
  -15228    -9292    -3722     4179    14783    23598    24458    16394 
    3129   -10701   -20354   -23911   -21923   -14749    -6460    -4632 
  -11071   -19139   -22747   -22327   -20458   -17621   -12984    -6019 
    2572    11706    19516    21755    16020     5115    -7191   -19201 
  -30354   -39084   -42558   -41771   -41451   -41399   -37020   -28566 
  -21951   -21864   -26524   -29700   -27613   -20014    -7950     4820 
   12831    13468     7621    -2495   -11891   -14028    -8035     1347 
    9529    13624    13864    13362    13180    10818     3997    -6774 
  -19271   -31843   -43082   -50644   -53043   -49904   -40290   -25419 
  -11217    -2762     1914     7240    12937    15376    12013     3740 
   -6195   -15496   -21840   -22088   -16766    -9922    -4390     -831 
    1173     1220    -2276    -9294   -18827   -30293   -40309   -44450 
  -43755   -42242   -41364   -41313   -41725   -40969   -38196   -33350 
  -25735   -15951    -7657    -4700    -6719    -9835   -12037   -14435 
  -16915   -16878   -12873    -5968     2873    13013    21544    24857 
   22723    18168    14446    13025    13170    12548     8788     1351 
   -8292   -17380   -22632   -22895   -20436   -19423   -24151   -35132 
  -47193   -54775   -56461   -53252   -45401   -32167   -14637     3245 
   17929    28299    34245    35571    32136    24567    14998     5781 
   -2547   -10870   -19556   -27998   -36021   -43692   -48355   -45433 
  -34864   -22683   -14707   -11697   -10646    -9089    -6484    -2719 
    1519     4717     5394     2625    -2651    -9483   -19024   -31316 
  -43778   -53750   -59512   -60358   -57467   -52842   -45525   -31813 
  -10586    15233    40706    59560    67018    64004    55713    46548 
   38741    32186    24105    12721    -1003   -16176   -32148   -47100 
  -57345   -57733   -46097   -26717    -7722     3940     7048     5589 
    2652    -1193    -4826    -6877    -7329    -6710    -4622     -528 
    4221     7203     7143     4247    -1033    -7903   -13966   -17449 
  -19723   -22551   -24060   -20162   -11175    -3028      448      367 
   -1932    -5252    -6485    -2879     5608    15862    22615    22312 
   14690      557   -17471   -33504   -42217   -42608   -36077   -24560 
  -11955    -3035      151     -550     -595     4305    14787    27467 
   37093    39353    34170    26456    21125    17735    12249     2270 
  -10923   -23879   -33723   -39372   -41147   -40108   -37002   -31341 
  -22724   -13157    -5374      397     5837    11558    15805    16515 
   13155     6782      -62    -5845   -11801   -19320   -28130   -36788 
  -43865   -49352   -53070   -52061   -42660   -25328    -6486     5751 
    8432     4333    -2458    -7814    -8825    -6690    -4868    -6192 
  -12959   -24806   -37661   -47840   -53382   -52022   -42301   -25247 
   -3873    17013    32020    38779    38772    33651    24045    12483 
    2698    -3934    -7990   -10451   -12676   -15253   -17280   -17810 
  -16705   -13997    -9810    -4878     -431     2726     5027     7192 
    8674     8279     5850     2667      634      947     2943     4719 
    4930     2598    -3647   -13664   -24580   -33070   -37894   -40242 
  -42258   -44910   -46925   -45666   -39483   -29228   -16910    -4658 
    4752     9574    10954    11150    10983     9857     7621     4985 
    1965    -1654    -4618    -5603    -5225    -4962    -5014    -4342 
   -2714    -1547    -2646    -7074   -14335   -22090   -27850   -30497 
  -29718   -25379   -17960    -8973     -594     5378     8631    10157 
   10682     9989     7812     4910     2625     1304      705      942 
    1548     1679     1261      354    -1479    -3986    -5442    -4480 
   -2303    -1817    -4025    -7045    -9794   -12858   -15500   -16054 
  -14294   -11080    -6920    -2098     2814     7656    12015    13417 
    8707    -2400   -16246   -27601   -33043   -32257   -26668   -19047 
  -13928   -13931   -16586   -17678   -14713    -6876     4548    16238 
   24502    26587    22423    14788     5972    -3903   -15436   -28871 
  -43699   -58008   -68285   -71378   -67036   -57442   -45593   -33732 
  -21001    -5357    11555    25907    36085    42356    45635    46819 
   45222    39437    29246    15794     1241   -12053   -22865   -31935 
  -40190   -45784   -46152   -42009   -35898   -29854   -25612   -23981 
  -24478   -26089   -27681   -28229   -26549   -21704   -14666    -7853 
   -2550     1340     4019     5796     6524     5398     3397     2969 
    3571     1789    -3886   -12163   -21647   -31655   -40704   -45803 
  -44914   -40115   -36418   -36341   -36986   -33778   -24676    -9963 
    8248    26034    39594    46737    46984    41138    29790    13404 
   -5796   -24672   -40454   -49918   -51415   -47937   -44393   -43016 
  -43215   -42716   -38036   -26333    -7648    14063    33491    47725 
   55318    54993    47470    35229    20731     6003    -8058   -21665 
  -33933   -42807   -47690   -49494   -48927   -46015   -40116   -30651 
  -18188    -4407     9009    21038    30301    34740    33343    27296 
   19313    11915     6160     1815    -2108    -6861   -12390   -16539 
  -17851   -17652   -17821   -19178   -21792   -24095   -22869   -15965 
