Origin Time       2016/04/16 01:25:00
Lat.              32.753
Long.             130.762
Depth. (km)       12
Mag.              7.3
Station Code      NGS020
Station Lat.      34.6609
Station Long.     129.4594
Station Height(m) 10
Record Time       2016/04/16 01:25:47
Sampling Freq(Hz) 100Hz
Duration Time(s)  106
Dir.              N-S
Scale Factor      3920(gal)/6182761
Max. Acc. (gal)   6.560
Last Correction   2016/04/16 01:25:47
Memo.             
[...]
  -13021   -13022   -13003   -12974   -12984   -13009   -13059   -13148 
  -13160   -13042   -12873   -12719   -12605   -12569   -12623   -12724 
  -12817   -12828   -12729   -12575   -12432   -12355   -12392   -12522 
  -12693   -12914   -13226   -13572   -13792   -13779   -13531   -13135 
  -12725   -12364   -12097   -11995   -12088   -12345   -12658   -12886 
  -12964   -12954   -12905   -12778   -12586   -12395   -12213   -12045 
  -11920   -11826   -11723   -11616   -11607   -11791   -12173   -12688 
  -13143   -13289   -13094   -12760   -12446   -12174   -11930   -11752 
  -11749   -11986   -12414   -12934   -13419   -13762   -13939   -13942 
  -13761   -13439   -13106   -12930   -12950   -13061   -13119   -12998 
  -12734   -12510   -12458   -12586   -12775   -12880   -12866   -12758 
  -12597   -12490   -12470   -12442   -12445   -12545   -12642   -12734 
  -12870   -13014   -13160   -13215   -13079   -12802   -12519   -12441 
  -12652   -12962   -13120   -12980   -12616   -12249   -12009   -11939 
  -12007   -12160   -12413   -12715   -12965   -13144   -13203   -13089 
  -12863   -12572   -12209   -11810   -11493   -11416   -11599   -11947 
  -12363   -12696   -12858   -12922   -12914   -12798   -12593   -12308 
  -11987   -11752   -11695   -11772   -11907   -12123   -12505   -13024 
  -13508   -13771   -13735   -13444   -12974   -12450   -12032   -11795 
  -11740   -11867   -12125   -12422   -12705   -12986   -13266   -13476 
  -13520   -13310   -12848   -12284   -11760   -11406   -11365   -11631 
  -12102   -12653   -13093   -13346   -13480   -13534   -13539   -13516 
  -13360   -12990   -12547   -12223   -12098   -12248   -12624   -12969 
  -13102   -12979   -12700   -12527   -12579   -12710   -12782   -12765 
  -12640   -12428   -12215   -12053   -11979   -12027   -12146   -12257 
  -12373   -12574   -12862   -13066   -13048   -12895   -12767   -12712 
  -12687   -12562   -12243   -11897   -11755   -11830   -12029   -12289 
  -12519   -12662   -12711   -12633   -12459   -12327   -12327   -12479 
  -12742   -13009   -13216   -13373   -13421   -13288   -13087   -12956 
  -12870   -12830   -12831   -12764   -12624   -12508   -12462   -12517 
  -12695   -12887   -12945   -12860   -12720   -12611   -12562   -12506 
  -12411   -12370   -12444   -12556   -12609   -12551   -12385   -12235 
  -12232   -12381   -12647   -12934   -13072   -13046   -12981   -12937 
  -12940   -12999   -12968   -12716   -12334   -11966   -11704   -11662 
  -11874   -12273   -12769   -13213   -13460   -13457   -13251   -12981 
  -12721   -12422   -12070   -11746   -11557   -11587   -11848   -12269 
  -12745   -13213   -13575   -13683   -13500   -13065   -12485   -11989 
  -11704   -11645   -11847   -12258   -12768   -13276   -13635   -13746 
  -13643   -13380   -12987   -12521   -12062   -11698   -11571   -11793 
  -12273   -12863   -13419   -13685   -13567   -13249   -12828   -12320 
  -11872   -11643   -11697   -11978   -12331   -12691   -13087   -13442 
  -13699   -13836   -13738   -13361   -12798   -12206   -11793   -11625 
  -11633   -11793   -12137   -12649   -13201   -13604   -13731   -13563 
  -13232   -12958   -12838   -12813   -12770   -12654   -12497   -12388 
  -12389   -12445   -12505   -12644   -12879   -13105   -13231   -13164 
  -12884   -12512   -12165   -11938   -11908   -12056   -12330   -12702 
  -13104   -13422   -13521   -13354   -13006   -12575   -12178   -11928 
  -11849   -11961   -12282   -12719   -13069   -13182   -13098   -12943 
  -12791   -12670   -12514   -12275   -12133   -12304   -12754   -13252 
  -13497   -13306   -12827   -12323   -11921   -11688   -11608   -11591 
  -11631   -11741   -11918   -12201   -12550   -12818   -12927   -12870 
  -12626   -12276   -12035   -12023   -12201   -12527   -12911   -13230 
  -13503   -13761   -13914   -13865   -13568   -13118   -12655   -12209 
  -11846   -11669   -11700   -11889   -12103   -12262   -12442   -12723 
  -13060   -13313   -13330   -13059   -12649   -12359   -12319   -12444 
  -12584   -12689   -12771   -12842   -12947   -13075   -13175   -13262 
  -13282   -13069   -12559   -11873   -11239   -10870   -10862   -11155 
  -11572   -11991   -12440   -12965   -13477   -13788   -13758   -13331 
  -12606   -11912   -11537   -11564   -11976   -12649   -13403   -14050 
  -14371   -14282   -13882   -13331   -12780   -12294   -11849   -11539 
  -11600   -12053   -12574   -12854   -12811   -12599   -12484   -12521 
  -12540   -12469   -12396   -12382   -12388   -12346   -12266   -12239 
  -12296   -12383   -12414   -12343   -12286   -12401   -12648   -12898 
  -13121   -13315   -13430   -13426   -13283   -12969   -12545   -12175 
  -11963   -11904   -11949   -12093   -12337   -12624   -12894   -13095 
  -13181   -13156   -13057   -12914   -12760   -12630   -12563   -12561 
  -12594   -12667   -12767   -12878   -13002   -13084   -13091   -13094 
  -13133   -13152   -13080   -12863   -12558   -12289   -12089   -11920 
  -11777   -11712   -11743   -11817   -11906   -11976   -12013   -12103 
  -12251   -12338   -12312   -12206   -12048   -11842   -11584   -11337 
  -11234   -11326   -11557   -11846   -12115   -12332   -12559   -12818 
  -13007   -13061   -12945   -12587   -12078   -11608   -11260   -11083 
  -11097   -11220   -11395   -11660   -12064   -12598   -13153   -13542 
  -13626   -13410   -12922   -12241   -11637   -11343   -11400   -11783 
  -12385   -13001   -13449   -13621   -13511   -13229   -12915   -12675 
  -12580   -12639   -12710   -12646   -12496   -12290   -11985   -11632 
  -11304   -11102   -11140   -11418   -11901   -12522   -13103   -13455 
  -13510   -13331   -12993   -12574   -12184   -11840   -11570   -11503 
  -11718   -12164   -12653   -12997   -13142   -13102   -12922   -12655 
  -12314   -11960   -11656   -11415   -11276   -11308   -11597   -12165 
  -12878   -13553   -14014   -14126   -13903   -13451   -12895   -12422 
  -12166   -12122   -12237   -12445   -12639   -12768   -12886   -13038 
  -13229   -13480   -13701   -13690   -13422   -13058   -12684   -12317 
  -11986   -11759   -11790   -12185   -12841   -13546   -14115   -14406 
  -14371   -14050   -13556   -13090   -12762   -12503   -12334   -12307 
  -12368   -12505   -12730   -13017   -13360   -13679   -13809   -13661 
  -13295   -12869   -12526   -12332   -12298   -12446   -12755   -13083 
  -13301   -13388   -13332   -13131   -12867   -12621   -12383   -12162 
  -12001   -11922   -11963   -12160   -12527   -13071   -13709   -14196 
  -14355   -14290   -14166   -13992   -13729   -13369   -12937   -12514 
  -12198   -12065   -12163   -12422   -12665   -12755   -12672   -12454 
  -12174   -11909   -11695   -11571   -11566   -11646   -11720   -11734 
  -11744   -11820   -11957   -12127   -12326   -12532   -12706   -12845 
  -12967   -12998   -12864   -12673   -12581   -12621   -12738   -12862 
  -12924   -12905   -12877   -12905   -13024   -13218   -13333   -13259 
  -13072   -12905   -12893   -13039   -13160   -13158   -13079   -12949 
  -12765   -12560   -12351   -12110   -11862   -11679   -11588   -11601 
  -11774   -12105   -12454   -12720   -12895   -12944   -12894   -12849 
  -12839   -12869   -12960   -13043   -13019   -12929   -12910   -13028 
  -13261   -13517   -13627   -13477   -13102   -12650   -12291   -12130 
  -12144   -12251   -12346   -12297   -12076   -11850   -11810   -11984 
  -12276   -12584   -12850   -13048   -13214   -13348   -13302   -13041 
  -12718   -12432   -12223   -12113   -12065   -12070   -12134   -12202 
  -12232   -12214   -12139   -12039   -11914   -11759   -11655   -11641 
  -11695   -11872   -12166   -12414   -12498   -12444   -12310   -12137 
  -11960   -11761   -11568   -11485   -11523   -11627   -11854   -12233 
  -12668   -13091   -13430   -13633   -13813   -14043   -14195   -14129 
  -13814   -13310   -12709   -12090   -11542   -11209   -11194   -11468 
  -11893   -12341   -12789   -13246   -13709   -14121   -14269   -14013 
  -13440   -12657   -11850   -11283   -11029   -11036   -11218   -11428 
  -11594   -11792   -12123   -12571   -13006   -13250   -13160   -12737 
  -12112   -11411   -10729   -10186    -9940   -10098   -10649   -11533 
  -12606   -13580   -14228   -14509   -14464   -14173   -13720   -13140 
  -12485   -11849   -11410   -11369   -11753   -12476   -13373   -14158 
  -14613   -14655   -14331   -13803   -13159   -12468   -11852   -11395 
  -11221   -11435   -11978   -12691   -13361   -13807   -13975   -13889 
  -13609   -13263   -13011   -12887   -12786   -12619   -12314   -11917 
  -11671   -11737   -12051   -12487   -12928   -13237   -13338   -13243 
  -12989   -12625   -12248   -11932   -11687   -11621   -11854   -12290 
  -12748   -13047   -13065   -12926   -12789   -12616   -12388   -12169 
  -11940   -11650   -11338   -11136   -11167   -11448   -11927   -12533 
  -13159   -13726   -14170   -14361   -14191   -13685   -12951   -12107 
  -11337   -10834   -10621   -10615   -10764   -11012   -11319   -11679 
  -12070   -12455   -12744   -12850   -12812   -12706   -12601   -12557 
  -12567   -12629   -12759   -12940   -13181   -13439   -13564   -13457 
  -13107   -12550   -11938   -11495   -11380   -11604   -12023   -12454 
  -12722   -12792   -12881   -13163   -13565   -13884   -13887   -13465 
  -12719   -11788   -10830   -10114    -9861   -10071   -10615   -11336 
  -12088   -12773   -13280   -13487   -13374   -12982   -12390   -11809 
  -11471   -11472   -11795   -12371   -13044   -13677   -14251   -14747 
  -15050   -15104   -14976   -14718   -14340   -13867   -13359   -12929 
  -12676   -12604   -12614   -12590   -12560   -12671   -13010   -13506 
  -13988   -14334   -14488   -14400   -14114   -13735   -13301   -12858 
  -12492   -12308   -12381   -12675   -13070   -13463   -13761   -13870 
  -13734   -13415   -13066   -12763   -12512   -12325   -12166   -12041 
  -12105   -12476   -13117   -13884   -14505   -14714   -14505   -14024 
  -13376   -12735   -12341   -12260   -12405   -12611   -12725   -12748 
  -12786   -12891   -12942   -12774   -12402   -11911   -11422   -11080 
  -10894   -10893   -11185   -11763   -12493   -13093   -13219   -12778 
  -11961   -10977    -9948    -9061    -8525    -8410    -8727    -9458 
  -10430   -11402   -12174   -12630   -12790   -12738   -12500   -12062 
  -11437   -10728   -10059    -9500    -9190    -9318    -9929   -10898 
  -11949   -12801   -13368   -13668   -13666   -13347   -12828   -12361 
  -12170   -12264   -12539   -12888   -13172   -13317   -13411   -13572 
  -13837   -14180   -14481   -14572   -14358   -13862   -13286   -12875 
  -12669   -12572   -12513   -12532   -12773   -13262   -13813   -14178 
  -14146   -13644   -12840   -12014   -11313   -10736   -10294   -10031 
   -9969   -10086   -10381   -10933   -11791   -12893   -14021   -14871 
  -15272   -15219   -14749   -13946   -12937   -12034   -11680   -12083 
  -13068   -14238   -15283   -16143   -16804   -17178   -17104   -16370 
  -14990   -13298   -11616   -10130    -9119    -8968    -9881   -11699 
  -13904   -15744   -16654   -16469   -15250   -13315   -11123    -9032 
   -7528    -7203    -8160   -10013   -12345   -14710   -16629   -17869 
  -18399   -18149   -17103   -15488   -13715   -12233   -11336   -11014 
  -11160   -11717   -12517   -13356   -14038   -14293   -14067   -13607 
  -13044   -12393   -11693   -10950   -10264    -9813    -9686    -9936 
  -10620   -11699   -12987   -14097   -14594   -14362   -13627   -12733 
  -12059   -11794   -11811   -11964   -12248   -12661   -13182   -13809 
  -14468   -14963   -15079   -14622   -13532   -12126   -10899   -10189 
  -10178   -10802   -11749   -12652   -13086   -12687   -11508    -9948 
   -8421    -7237    -6545    -6415    -6923    -7912    -8948    -9655 
   -9870    -9738    -9628    -9711    -9859    -9816    -9380    -8655 
   -8000    -7733    -7985    -8623    -9371   -10014   -10477   -10745 
  -10767   -10517   -10030    -9452    -9061    -9047    -9444   -10254 
  -11340   -12441   -13346   -13853   -13818   -13335   -12707   -12267 
  -12151   -12227   -12343   -12497   -12726   -12963   -13087   -13123 
  -13225   -13514   -13952   -14258   -14135   -13679   -13252   -13062 
  -13163   -13633   -14479   -15533   -16578   -17466   -18110   -18470 
  -18542   -18302   -17792   -17128   -16350   -15416   -14314   -13106 
  -11950   -11008   -10332    -9969   -10055   -10608   -11444   -12377 
  -13257   -13868   -14015   -13600   -12602   -11224    -9940    -9186 
   -9056    -9305    -9550    -9563    -9372    -9130    -9076    -9508 
  -10644   -12462   -14548   -16201   -16854   -16333   -14851   -12944 
  -11223   -10164   -10128   -11276   -13367   -15845   -18145   -19795 
  -20445   -20092   -19054   -17594   -15878   -14094   -12481   -11450 
  -11380   -12356   -14295   -16844   -19293   -20954   -21392   -20489 
  -18520   -15901   -13084   -10744    -9505    -9493   -10410   -11842 
  -13419   -14895   -16099   -16715   -16472   -15453   -13958   -12398 
  -11118   -10095    -9152    -8318    -7813    -7766    -8113    -8737 
   -9468   -10099   -10451   -10425   -10244   -10355   -11029   -12168 
  -13329   -14102   -14331   -13940   -13043   -11994   -11175   -10868 
  -11211   -12158   -13382   -14448   -15220   -15825   -16277   -16328 
  -15691   -14433   -13057   -12173   -12096   -12659   -13510   -14515 
  -15789   -17383   -18937   -19853   -19819   -18865   -17235   -15342 
  -13578   -12269   -11713   -12047   -13129   -14560   -15977   -17199 
  -18015   -18126   -17256   -15368   -12880   -10461    -8739    -8214 
   -9098   -11249   -14234   -17443   -20307   -22314   -22954   -22038 
  -19872   -16947   -13762   -10904    -8973    -8392    -9269   -11255 
  -13591   -15610   -17031   -17697   -17431   -16270   -14526   -12510 
  -10490    -8817    -7898    -7996    -9059   -10728   -12455   -13764 
  -14505   -14658   -14195   -13235   -11950   -10499    -9198    -8386 
   -8155    -8452    -9285   -10546   -11873   -12975   -13778   -14182 
  -14167   -13969   -13757   -13330   -12368   -10874    -9250    -8101 
   -7895    -8627    -9876   -11139   -11950   -11944   -11107    -9725 
   -8103    -6545    -5386    -4810    -4716    -4838    -5062    -5427 
   -5819    -6086    -6308    -6612    -6964    -7306    -7783    -8602 
   -9720   -10863   -11808   -12567   -13317   -14161   -15069   -15973 
  -16791   -17375   -17503   -16970   -15862   -14611   -13654   -13216 
  -13351   -13956   -14743   -15308   -15357   -14916   -14160   -13181 
  -12090   -11191   -10807   -10977   -11453   -11936   -12272   -12506 
  -12781   -13221   -13839   -14627   -15600   -16441   -16578   -15834 
  -14616   -13447   -12528   -11811   -11354   -11312   -11754   -12559 
  -13344   -13688   -13514   -13099   -12789   -12691   -12599   -12316 
  -11887   -11451   -10993   -10465    -9993    -9799   -10053   -10718 
  -11491   -12101   -12529   -12937   -13390   -13604   -13212   -12277 
  -11323   -10822   -10733   -10650   -10327    -9962    -9992   -10592 
  -11432   -11972   -11967   -11653   -11423   -11375   -11257   -10860 
  -10347   -10080   -10272   -10898   -11741   -12530   -13106   -13436 
  -13540   -13461   -13254   -12972   -12708   -12557   -12469   -12375 
  -12463   -13039   -14135   -15354   -16127   -16202   -15829   -15491 
  -15528   -15908   -16342   -16614   -16700   -16586   -16260   -15837 
  -15442   -15101   -14780   -14401   -14000   -13726   -13634   -13791 
  -14258   -14782   -14969   -14710   -14218   -13772   -13468   -13264 
  -13128   -13064   -13089   -13224   -13458   -13712   -13952   -14209 
  -14424   -14494   -14421   -14286   -14171   -14069   -13890   -13603 
  -13306   -13193   -13261   -13182   -12779   -12368   -12389   -12970 
  -13854   -14608   -14861   -14509   -13751   -12821   -11859   -11066 
  -10714   -11021   -11990   -13329   -14620   -15563   -16012   -15858 
  -15047   -13705   -12140   -10770    -9933    -9703    -9889   -10201 
  -10545   -11182   -12365   -13955   -15440   -16179   -15841   -14720 
  -13447   -12458   -11837   -11510   -11512   -11974   -12811   -13640 
  -14075   -14069   -13873   -13596   -13165   -12793   -12962   -13849 
  -15067   -15983   -16271   -16083   -15724   -15263   -14499   -13355 
  -12076   -11020   -10431   -10288   -10393   -10607   -10838   -10989 
  -11010   -10904   -10802   -10989   -11647   -12646   -13643   -14320 
  -14642   -14856   -15166   -15464   -15465   -15116   -14699   -14560 
  -14849   -15345   -15639   -15565   -15207   -14727   -14253   -13769 
  -13215   -12615   -12103   -11898   -12096   -12478   -12719   -12726 
  -12549   -12247   -12010   -11979   -12013   -11886   -11503   -11000 
  -10684   -10760   -11147   -11607   -11965   -12113   -11954   -11515 
  -10999   -10704   -10885   -11525   -12333   -13016   -13601   -14444 
  -15736   -17054   -17631   -17053   -15537   -13692   -12095   -10997 
  -10438   -10500   -11168   -12122   -12966   -13547   -13910   -14198 
  -14537   -14754   -14426   -13424   -12070   -10771    -9830    -9493 
   -9830   -10674   -11803   -12955   -13798   -14123   -13893   -13180 
  -12127   -10857    -9553    -8589    -8318    -8766    -9645   -10587 
  -11326   -11761   -11905   -11868   -11851   -12011   -12337   -12654 
  -12716   -12425   -11879   -11242   -10708   -10474   -10661   -11322 
  -12393   -13610   -14629   -15139   -14937   -14143   -13135   -12226 
  -11555   -11163   -11109   -11396   -11755   -11766   -11274   -10497 
   -9747    -9190    -8802    -8468    -8255    -8383    -8867    -9493 
  -10098   -10736   -11549   -12538   -13527   -14252   -14458   -14010 
  -12923   -11341    -9573    -8026    -7100    -7098    -8035    -9629 
  -11498   -13246   -14507   -15040   -14834   -14037   -12753   -11090 
   -9280    -7701    -6875    -7107    -8248    -9974   -11890   -13564 
  -14656   -14950   -14395   -13207   -11822   -10636    -9797    -9269 
   -8969    -8907    -9193    -9846   -10730   -11690   -12585   -13211 
  -13468   -13464   -13243   -12762   -12097   -11366   -10708   -10445 
  -10909   -12026   -13294   -14239   -14727   -14844   -14722   -14380 
  -13788   -13133   -12727   -12781   -13313   -14039   -14638   -15071 
  -15363   -15442   -15300   -15040   -14757   -14467   -14157   -13825 
  -13617   -13843   -14579   -15468   -16076   -16189   -15803   -15028 
  -13931   -12580   -11268   -10390   -10244   -10883   -11975   -13147 
  -14339   -15536   -16506   -16842   -16277   -15005   -13537   -12332 
  -11562   -11150   -11128   -11730   -13054   -14846   -16629   -17933 
  -18419   -17913   -16528   -14647   -12680   -11018   -10091   -10230 
  -11386   -12994   -14414   -15426   -16149   -16704   -17071   -17051 
  -16349   -14881   -12948   -11029    -9480    -8539    -8445    -9320 
  -11034   -13234   -15345   -16770   -17264   -16919   -15950   -14670 
  -13409   -12438   -12026   -12318   -13224   -14498   -15694   -16363 
  -16545   -16584   -16579   -16379   -15852   -15046   -14103   -13099 
  -12151   -11470   -11176   -11300   -11833   -12630   -13423   -13992 
  -14241   -14110   -13586   -12788   -11950   -11363   -11161   -11222 
  -11373   -11515   -11600   -11668   -11765   -11864   -11999   -12308 
  -12814   -13341   -13622   -13487   -13013   -12413   -11865   -11499 
  -11311   -11193   -11095   -11004   -10991   -11201   -11600   -11934 
  -11982   -11737   -11374   -11056   -10838   -10714   -10674   -10774 
