Origin Time       2016/04/16 01:25:00
Lat.              32.753
Long.             130.762
Depth. (km)       12
Mag.              7.3
Station Code      NGS014
Station Lat.      32.6106
Station Long.     130.1849
Station Height(m) 3
Record Time       2016/04/16 01:25:16
Sampling Freq(Hz) 100Hz
Duration Time(s)  237
Dir.              E-W
Scale Factor      3920(gal)/6182761
Max. Acc. (gal)   125.492
Last Correction   2016/04/16 01:25:16
Memo.             
[...]
    3708     3709     3715     3714     3712     3709     3707     3710 
    3710     3708     3710     3713     3715     3713     3710     3713 
    3716     3712     3711     3714     3714     3712     3712     3716 
    3714     3709     3708     3708     3705     3706     3711     3713 
    3712     3710     3711     3712     3712     3714     3712     3708 
    3705     3706     3710     3712     3712     3716     3714     3706 
    3705     3708     3710     3714     3716     3716     3712     3709 
    3711     3712     3709     3713     3717     3714     3711     3710 
    3711     3711     3706     3705     3711     3714     3714     3713 
    3710     3708     3708     3709     3710     3711     3714     3717 
    3715     3711     3709     3710     3711     3709     3712     3715 
    3713     3714     3716     3712     3707     3706     3710     3712 
    3710     3710     3715     3714     3709     3709     3711     3712 
    3712     3713     3713     3709     3705     3707     3709     3713 
    3719     3721     3720     3717     3714     3705     3698     3702 
    3710     3710     3708     3707     3709     3713     3712     3713 
    3716     3713     3711     3716     3718     3715     3711     3710 
    3711     3709     3711     3714     3710     3709     3712     3710 
    3709     3708     3708     3709     3708     3711     3718     3715 
    3708     3707     3709     3709     3708     3712     3715     3711 
    3707     3709     3709     3712     3720     3724     3720     3710 
    3708     3712     3709     3705     3707     3711     3712     3711 
    3712     3712     3710     3709     3705     3704     3711     3717 
    3716     3710     3706     3706     3709     3710     3715     3720 
    3712     3704     3710     3716     3717     3720     3722     3716 
    3706     3701     3703     3704     3703     3707     3711     3714 
    3721     3721     3713     3709     3712     3712     3708     3708 
    3715     3719     3716     3710     3704     3704     3706     3707 
    3711     3716     3715     3712     3707     3703     3708     3719 
    3723     3717     3710     3706     3703     3710     3718     3717 
    3718     3718     3709     3703     3705     3710     3717     3720 
    3713     3706     3703     3708     3713     3710     3713     3717 
    3710     3706     3709     3715     3722     3724     3719     3710 
    3700     3702     3707     3710     3717     3720     3718     3713 
    3705     3708     3717     3719     3720     3718     3709     3702 
    3701     3705     3712     3715     3716     3714     3707     3706 
    3711     3714     3719     3719     3712     3707     3704     3706 
    3711     3710     3713     3716     3713     3713     3714     3711 
    3707     3706     3714     3718     3713     3715     3718     3715 
    3717     3718     3719     3719     3712     3710     3715     3716 
    3726     3744     3752     3752     3754     3760     3766     3772 
    3784     3798     3806     3820     3842     3863     3879     3889 
    3903     3922     3937     3955     3976     3992     4007     4023 
    4030     4034     4047     4071     4078     4031     3959     3941 
    3947     3877     3779     3750     3768     3730     3567     3432 
    3544     3744     3692     3474     3404     3341     2998     2648 
    2757     3350     3834     3690     3304     3047     2801     2806 
    3226     4114     5326     5574     4191     2465     1646     1785 
    2758     4555     5839     5280     3899     2835     1885     1040 
    1413     3886     6283     5853     3669     2380     2593     3001 
    3043     3519     4219     4572     4526     3905     3320     3446 
    4197     4884     5040     5671     5854     3635     1717     2307 
    3170     3447     3981     4418     4076     3620     3566     2303 
     648     1432     3211     3915     4425     5064     4931     3895 
    3386     3656     2765     1785     3623     6408     6950     6009 
    5311     5544     6321     6045     4742     4215     5318     7233 
    7646     5467     2822     2210     3249     3684     3420     3967 
    5004     5826     6170     4999     3596     4278     4850     3685 
    3751     5486     5614     3820     3376     4844     4974     3569 
    3887     5376     4538     2191     2297     4457     4557     2579 
    2036     3260     4279     4306     4128     4945     5208     3043 
     870     1218     3206     4852     4419     1743     -662      260 
    3903     6359     6375     6214     6943     6719     4620     4155 
    7382    10397     9173     3516    -2043    -2291      736     2886 
    4155     4496     3936     3002     1587       29    -1591    -1246 
    2537     6085     7118     7139     7080     6664     5116     3316 
    2374     2203     3901     6088     5904     4862     4057     3108 
    3837     6099     7382     7127     7135     8570     7938     2319 
   -2162     -471      759    -3249    -4609     2489     8454     3401 
   -6247    -8274    -1182     6283     9414    10749     9847     6585 
    5028     5839     6536     6870     9142    12249    10782     5833 
    4223     7014     9322     5667    -1889    -3488     -155    -1369 
   -2923     2063     7147     6249     1314    -4023    -6720    -4839 
     138     3717     4536     4192     2734     2486     5670     8018 
    6677     6665    10656    10379     2008    -2073     2972     6503 
    6585     8052    10493    14351    18686    17576    10479     6258 
    7803     6819     3386     5407     9542     7484      989     -741 
    3750     4211    -1453    -2555     4710    13354    15864    11942 
    7791     6362     7454    11701    15780    13576     5028    -1128 
     476     3035      819    -3477    -5679    -1246     9877    20364 
   23863    17908     6009    -2912    -5225    -3780    -1197     1633 
    4827     6463     3962      520     1291     3847     3047     2570 
    7533    10224     2776    -6486    -9937   -10723    -6549     8532 
   28311    37643    31445    19755    10128     1209    -6340    -8623 
   -6554    -3585     1929     8679     8501     1493    -2812    -1650 
    -955    -1140     2723     7180     5264      630     1722     7999 
   12021     9864     5874     4542     1353    -3808    -3151      412 
    -279    -3557    -4011      467     1478    -4223    -3357     5920 
   10892     9309     9265    15867    22555    17699     3911    -3422 
   -1318    -2934    -9153    -8515    -7265   -17354   -27053   -21217 
   -8033     -818     4054    14475    24803    26601    21392    14449 
   11334    10901     5227    -3103    -5320       96     4049    -5205 
  -17597   -14153      -10     8047     1708   -11118    -9271     8106 
   12536    -7000   -21974    -9105    13335    17269     6407      590 
    3526     6533     6980     9105     9375     1419    -7974   -10734 
   -6015     4449    15670    25960    32149    26315    14893    11591 
   11412     3893    -1782     4955    10835     1443   -10488    -7903 
    2720    10937    17439    18628    13116    14217    26776    34343 
   28208    19415    14520    11708    10966     9200     4045    -1493 
   -5739    -5119     8379    33612    53572    52024    30316     3430 
  -14883   -22903   -26090   -26224   -21338    -7820    12688    26568 
   23611    11077     2006      760     1907    -3129   -15869   -25962 
  -21276    -5285     5863     6751     4897     3667     4100    12429 
   25389    27395    16495     6304     4496     6831     5238      826 
    2741    12088    18430    15649     9144     1928    -5822   -10291 
  -10011    -4992      835    -2311   -16304   -29343   -28087   -11110 
   11992    30592    40766    47296    51523    43748    22730     3980 
   -2739    -1396     -620    -7406   -15757   -13788    -6990    -7927 
  -11422    -6792     1907     5122      110    -9808   -20279   -28789 
  -30829   -23968   -15289    -9253       74    14178    24624    24809 
   17044     9514     8224    12243    18463    28652    42270    45478 
   26550    -4685   -27834   -32854   -27877   -21854    -8192    11522 
   20631    13945    -5625   -33700   -55847   -61749   -57532   -50192 
  -36058   -13896     7065    21298    30031    32217    29719    27809 
   28113    32263    36457    31936    25525    24979    19077     4826 
   -6495   -13239   -19436   -19870    -6648    12316    19233    11359 
   -2547   -18523   -31825   -33128   -20416    -3694     5982     3957 
   -6163   -10357    -1486    10356    18609    21786    14436      -77 
  -14116   -23524   -18577     -441    14537    24243    34366    39044 
   35871    34773    39514    37847    25642    16271    12476     7037 
    2477    -1412    -9630   -13793    -4260     9920    15466    13087 
    6716    -4600   -14837   -16003   -14765   -23313   -36634   -37048 
  -22054    -4411     8434    15034    16834    19399    24969    27698 
   21597    10959     5567     7165     9049     6415     3311     4118 
    4071     3437    13280    33811    48766    44175    21334    -3756 
  -15335   -15822   -18228   -25829   -30517   -23673    -7887     5056 
   12390    21434    33243    37847    27375     9351    -3615   -11925 
  -24488   -39581   -44590   -37444   -28142   -19371    -4871    13099 
   21952    19432    12535     3636     -293     7797    19614    24784 
   26459    32142    36922    32161    23364    17247    12766    11391 
   10341      265   -18630   -35207   -43479   -49236   -55291   -56458 
  -53205   -47698   -35409   -15031     5624    18165    20577    14977 
    7532     3886     1859    -2093    -9232   -17156   -17119    -5633 
   11446    29506    48587    68023    78832    71537    50489    27709 
   13582    10052     8519     5447     2007    -4314    -9866   -10911 
  -10913   -11226   -12082   -14182   -16690   -16031    -8438      914 
    6535    10811    11557     7012     3715      618    -6547   -10516 
   -6155     2357    11346    20716    27336    21425     3604   -12360 
  -22859   -31555   -35380   -31944   -23332   -11060     2531    10572 
    9361     8394    16365    27160    34627    39428    40477    36071 
   22646    -3087   -32552   -50763   -50439   -32971    -6738    16084 
   28351    31096    28767    22596    14845    14115    21678    29809 
   36488    41509    39190    25720     6656    -8922   -18273   -20990 
  -18809   -21797   -34757   -45215   -40397   -26415   -16688   -10758 
     476    18548    34487    37016    25480    12322     5207    -1932 
   -8708    -3860     9877    16319    10669     3115        6    -4474 
  -12921   -20286   -26547   -32502   -33734   -30162   -28252   -31916 
  -36339   -33193   -24186   -20311   -24033   -25969   -19705    -7471 
    5714    16497    26634    40817    54874    58395    53277    49962 
   51960    57444    60446    54056    40032    25280    16965    19305 
   26888    30568    24605     8738    -8939   -21296   -27403   -23791 
   -7641    12509    23914    28326    37132    48793    52594    47551 
   43777    48802    56726    59975    63312    68912    65935    52168 
   39691    31193    20093     7039    -3119    -9390   -12639   -11460 
   -8537   -10732   -16068   -19308   -23105   -32577   -49780   -70385 
  -83234   -79704   -65024   -54333   -53168   -54289   -54284   -54123 
  -51796   -47690   -44988   -46231   -50602   -51719   -47875   -43762 
  -40005   -33697   -23257   -10631     1092     9533    10248     2299 
   -5845    -6886    -5748    -5169     3564    19789    36486    56748 
   78800    93336    98617   100167   101964    99662    87808    70664 
   57060    48921    38951    25237    18889    24793    36586    51281 
   64958    72970    77929    76753    61840    36164     6212   -19879 
  -30557   -26761   -21357   -22417   -27454   -30535   -32037   -32455 
  -28911   -24857   -25972   -30801   -34402   -37174   -42841   -52238 
  -66788   -85174   -99403  -104562  -102976   -98203   -89396   -74340 
  -54836   -31694    -5162    20123    41931    58857    59368    31435 
  -16555   -57865   -75282   -77137   -73998   -60063   -29208    15948 
   64310    98354   112836   119311   127526   133169   127772   113148 
   94071    75665    66999    66604    64677    57790    44920    29643 
   17706     6438    -1235     1977     9992    13141     7239    -6384 
  -22170   -39889   -63734   -93409  -120990  -135745  -133503  -117981 
  -95952   -72009   -45080   -15834     4778     5128   -13740   -40789 
  -60161   -56616   -31336    -1171    24199    48838    77808   106598 
  125202   132149   132574   126619   111464    87777    62072    44046 
   36996    32568    18398    -6269   -26690   -31254   -19284     6281 
   35503    63241    94590   122840   137840   136609   114366    77732 
   41917    11034   -11810   -19858   -20230   -26441   -37105   -45187 
  -48187   -40644   -22956    -5985     1954    -3953   -25134   -57357 
  -93566  -125614  -147128  -150977  -131943   -95932   -54627   -20256 
   -6775   -16163   -29476   -32406   -32615   -36779   -40238   -43041 
  -50109   -59572   -66945   -72351   -73771   -67344   -53884   -37189 
  -23447   -17217   -16648   -16785   -12930    -1422    18974    44155 
   68742    90793   105617   110192   112635   120014   127920   130275 
  127534   122902   118434   115213   109051    89795    53602    10930 
  -20462   -29592   -16055    19635    74680   135422   181167   200010 
  197474   171805   105451    10938   -64960  -109504  -150165  -185469 
 -194177  -183914  -164372  -133639   -97821   -65938   -48215   -47364 
  -53614   -64960   -83496  -101086  -111425  -116590  -119304  -121328 
 -122485  -116934   -95804   -57388   -11782    28580    58548    80859 
  101200   119830   132184   136822   133335   116860    83236    39319 
    -941   -28075   -35845   -22121     8309    47500    83664   110563 
  132537   145579   138207   113078    79385    35343   -11377   -38807 
  -53739   -79169  -108189  -129587  -143551  -141760  -122162   -93641 
  -66089   -46284   -29297   -11940     2770    14599    15025    -3859 
  -33261   -63801   -92554  -115247  -132513  -145825  -141969  -105054 
  -40359    28382    80911   114864   136260   146558   146795   138205 
  121536   103356    90618    81958    73703    67183    66186    73704 
   85402    85573    62253    24478    -4005   -14693   -23120   -35946 
  -42421   -34814   -13476     4243    -2495   -26712   -53711   -77833 
  -91651   -97342   -98167   -86128   -60238   -26786     7049    33975 
   54106    67253    67490    57612    51865    56372    60113    49773 
   20560   -20094   -52742   -65636   -65184   -60062   -51809   -36813 
  -10102    26611    63519    89219    95548    84156    65758    51482 
   47078    44805    31599     8400   -16958   -39665   -51223   -48083 
  -39610   -31298   -21707   -14297   -13076   -18081   -27010   -30023 
  -16672     4766    17756    22129    24302    21429     9660    -7410 
  -21854   -28943   -30923   -33344   -36005   -29739    -9864    18606 
   48966    70553    78830    85021    94331    98363    91349    74606 
   48036     9619   -30579   -55677   -59291   -45244   -23926    -1944 
   23448    52930    81016    97255    91515    62903    19484   -25441 
  -63003   -96126  -125263  -143271  -148419  -138361  -111820   -81429 
  -59027   -49398   -57956   -84040  -116762  -141751  -151845  -147096 
 -128449   -98471   -60395   -17349    29026    76836   117147   144420 
  164315   178666   184329   183549   176458   158049   129408    98410 
   72527    56142    48850    48078    57115    81796   117195   148284 
  162793   157893   138552   111003    77659    40360     2972   -31432 
  -58740   -72556   -72262   -67162   -66868   -70281   -67851   -52688 
  -29737   -14460   -15907   -26273   -36061   -48498   -68192   -89953 
 -108102  -120534  -125607  -126928  -129834  -129959  -117508   -90866 
  -56836   -25028    -5918    -3258   -11151   -23319   -34316   -37800 
  -34143   -27483   -19814   -14684   -12408    -8042     1412    17559 
   40061    64442    88913   116169   144537   165905   173116   164955 
  145688   119832    87258    47288     4999   -31384   -53644   -54276 
  -33044      914    33945    55225    65946    69924    65318    55414 
   39537    10431   -25265   -53655   -67125   -64855   -52526   -34298 
  -14234     -904     3416     4977     5931     2625    -3337    -7025 
   -7827    -4551     2161     5895     4751     2335      459     2006 
   10498    21938    30760    41497    60396    83931   103905   113852 
  108641    85679    48851     6715   -34527   -69910   -93526  -105907 
 -112430  -115600  -116444  -112454   -99416   -79454   -55386   -26893 
    1988    22654    30865    31618    33542    41172    51685    57919 
   57733    56783    59266    63795    68668    73682    80929    93466 
  108155   118093   121344   118891   111328   100346    85028    62863 
   39972    27370    28594    39470    50740    54319    50666    41411 
   24922     3167   -17540   -32309   -42036   -49969   -56870   -64885 
  -77773   -94654  -109422  -115589  -113144  -108580  -105060   -99691 
  -90144   -76331   -59367   -42107   -26685   -12966    -1636     3880 
       0   -13303   -31451   -47965   -59097   -64296   -63360   -58462 
  -54728   -55405   -58235   -54109   -38278   -20086    -7275     4191 
   20517    43811    69971    91550   102700   100730    89814    77598 
   68440    65480    69416    75817    80520    83418    85807    85367 
   76245    56220    30524     8193    -6834   -18350   -27891   -33718 
  -36407   -35845   -31595   -24358   -15330    -8312    -6159    -7102 
   -7113    -1022    14601    34710    47337    46541    37514    25810 
   12101      850       39     9598    23695    38053    47727    50026 
   44662    28598     3312   -20398   -34299   -42256   -50478   -56883 
  -58043   -53608   -42946   -27634   -12046      -21     5576     3312 
   -4943   -16119   -28192   -37116   -38948   -35895   -32002   -26389 
  -17556    -7693     2174    14354    30301    48864    67395    81094 
   85030    78264    61244    34553     2609   -26058   -40605   -34990 
  -14015    12408    35215    49422    56172    57500    55097    53072 
   52390    51496    51693    51714    48810    43500    35876    28570 
   24765    21865    19981    20124    16201     7111    -1629   -11980 
  -28997   -50332   -70886   -89262  -104407  -114221  -121589  -129996 
 -135917  -134682  -126470  -115658  -106793  -100109   -91199   -75021 
  -53544   -35315   -23240   -12417      319    13980    26497    36406 
   45337    58152    76435    94471   105712   107206    97858    81568 
   68324    66000    74808    88437    99243   103700    99167    85627 
   71706    60936    48492    35774    25188    17530    13682     7601 
   -2907   -13679   -24753   -32919   -32074   -22478    -7306    10313 
   26088    34796    32823    21141     2805   -18730   -37800   -49430 
  -53117   -49607   -37698   -18358     3045    19955    27671    25852 
   17979     6871    -7872   -25903   -42586   -52825   -54256   -46854 
  -33893   -20882   -10977    -2916     5314    11923    11942     1734 
  -17180   -39232   -59195   -72457   -75149   -68298   -55696   -38803 
  -19523    -1103    15394    29111    38349    44188    50168    58348 
   66968    72409    72876    67743    56475    42153    29994    20267 
