Origin Time       2016/04/16 01:25:00
Lat.              32.753
Long.             130.762
Depth. (km)       12
Mag.              7.3
Station Code      NGS015
Station Lat.      33.2558
Station Long.     129.1255
Station Height(m) 58
Record Time       2016/04/16 01:25:37
Sampling Freq(Hz) 100Hz
Duration Time(s)  101
Dir.              E-W
Scale Factor      3920(gal)/6182761
Max. Acc. (gal)   7.085
Last Correction   2016/04/16 01:25:37
Memo.             
[...]
   -2547    -2127    -1825    -1507     -487     1164     2475     2737 
    2102     1279      922      910      437     -582     -987      -67 
    1276     1913     1970     2088     2233     2014     1321      415 
     -14      592     1722     2291     1948     1172      449      -82 
    -424     -674     -971    -1149     -954     -599     -357       33 
     784     1554     1982     1819      849     -312     -512      178 
     587      418      381      632      795     1018     1410     1371 
     680       60        5      202      482     1221     2418     3395 
    3757     3736     3287     2029      347     -888    -1387    -1014 
     463     2233     2649     1450      280      202      448      263 
     -29      -11      255      509      467      119       83      974 
    2141     2098      577     -939    -1000      192     1542     2626 
    3394     3601     3386     3082     2623     2000     1514     1234 
     950      653      557      766     1256     1769     1687      895 
     290      541     1279     1885     2082     1856     1409     1042 
     931      984      973      744      299     -166     -546     -992 
   -1378    -1315     -874     -431      -17      387      455       54 
    -372     -390      -17      442      582      236     -129       53 
     475      497      187     -103     -182      179      833     1090 
     628       77      225     1080     2059     2505     2143     1462 
    1133     1207     1392     1445     1104      547      482      932 
    1071      672      363      631     1419     2135     2002      999 
     -69     -572     -369      304      760      643      500      706 
     859      875     1197     1579     1261      305     -560     -836 
    -301      911     2047     2391     2085     1725     1627     1768 
    1926     1876     1710     1866     2641     3740     4554     4641 
    3757     2139      776      480      904     1229     1171      784 
     302      465     1720     3159     3586     3113     2412     1460 
     303     -374     -440     -488     -658     -731     -740     -667 
    -357      130      514      581      337       -6      -42      450 
     976      868      140     -718    -1290    -1359     -888      -12 
     893     1451     1794     2323     2942     3151     2728     1972 
    1430     1445     1733     1620      919      218      158      652 
    1027      908      645      757     1250     1644     1529      974 
     472      469      869     1100      784      167     -285     -451 
    -428     -188      289      886     1437     1662     1411      944 
     554      385      567     1025     1366     1300     1008      901 
    1241     1967     2640     2882     2860     2945     3157     3102 
    2517     1757     1292     1205     1420     1641     1156     -356 
   -1839    -1855     -483      943     1429      867     -187     -894 
    -985    -1005    -1239    -1302    -1135    -1113    -1188    -1063 
    -769     -263      622     1325      941     -188     -676     -100 
     520      311     -521    -1264    -1327     -610      254      533 
     306      190      506      997     1062      444     -221      -46 
     864     1547     1585     1441     1496     1715     1918     1748 
    1129      763     1146     1652     1498      908      656      944 
    1285     1303     1074      807      575      323      152      299 
     690     1045     1339     1649     1915     1953     1726     1579 
    1734     1950     2142     2404     2302     1381      238      -86 
     443      980      971      450     -197     -426      -81      382 
     581      582      545      466      157     -510    -1237    -1583 
   -1492    -1155     -718     -500     -683     -602      381     1488 
    1625     1187     1029      857      296       -2      393      933 
    1069      825      498      365      569      995     1268     1175 
     903      758      952     1523     2061     1863      959      243 
      78     -151     -716    -1058     -990     -964     -898     -407 
      68       83      212      837     1215      754      -58     -532 
    -523     -109      544      936      768      551      693      627 
     -86     -821     -859     -213      760     1624     1962     1848 
    1861     2189     2259     1563      363     -579     -686      142 
    1497     2580     2799     2312     1803     1697     1831     2082 
    2494     2733     2437     1812     1447     1582     1807     1828 
    1851     1959     1988     1939     1949     1959     1729     1286 
     914      709      644      726      870     1125     1640     2107 
    2118     1904     1922     2216     2628     3019     3013     2399 
    1917     2274     2842     2827     2454     1996     1357      803 
     658      802     1209     1950     2544     2442     1949     1698 
    1742     1807     1715     1155       65     -766     -748     -540 
    -881    -1533    -2023    -2130    -1627     -631      294      895 
    1166      846      -46     -909    -1262    -1034     -258      774 
    1367     1173      690      444      399      524      860      943 
     318     -629    -1270    -1509    -1364     -673      283      856 
    1022     1229     1472     1559     1681     1872     1733     1218 
     865      919     1020      821      285     -353     -566       -3 
    1072     2090     2552     2296     1787     1735     2117     2184 
    1690     1188      962      837      948     1592     2627     3765 
    4662     4581     3211     1509      668      908     1790     2701 
    2938     2293     1387      968     1336     2155     2357     1233 
    -270     -697      -62      660     1171     1655     1876     1611 
    1133      654      165     -121       34      325      207     -261 
    -537     -414      -80      266      394      101     -471     -967 
   -1164     -903     -180      557      849      690      191     -586 
   -1350    -1676    -1356     -588      107      506      940     1591 
    2162     2338     2016     1266      425        6        1     -307 
    -973     -874      475     2145     3134     2963     1722      406 
       4      300      613     1058     1912     2536     2376     1957 
    1698     1345      904      561      363      590     1339     2041 
    2156     1907     1884     2141     2330     2200     1535      623 
     304      731     1284     1574     1565     1382     1259     1166 
     838      406      270      376      397      420      764     1385 
    1879     1824     1074       20     -697     -780     -311      365 
     656      339       74      617     1687     2200     1625      673 
     324      740     1477     1912     1444      117    -1109    -1109 
     310     2153     3131     2735     1657     1145     1626     2448 
    2924     2833     2240     1443      779      346       17     -307 
    -438       -7     1088     2483     3502     3548     2628     1416 
     539       66      -13      485     1267     1654     1802     2443 
    3319     3550     2994     1823       93    -1423    -1707     -914 
     102     1077     1970     2360     2163     1801     1408      991 
     786      665      233     -210     -104      258      355      358 
     575      915     1163     1233     1275     1506     1730     1566 
    1263     1300     1389     1027      332     -412    -1132    -1612 
   -1555    -1060     -523     -103      226      272      -85     -522 
    -750     -837     -818     -551      -82      296      483      641 
     746      471     -251     -776     -461      359      861      722 
     226     -117       88      825     1689     2427     3030     3182 
    2575     1609      946      813     1056     1305     1162      587 
     -37     -275      -76      163       94     -159     -248      -21 
     512     1216     1727     1776     1562     1458     1466     1370 
    1282     1444     1743     1998     2208     2218     1853     1505 
    1803     2559     2984     2842     2473     2059     1520      827 
     163     -234     -255      190     1088     1912     2015     1579 
    1296     1257     1132     1017     1162     1494     1892     2254 
    2329     2043     1656     1371     1118      680     -165    -1291 
   -2074    -1988    -1182     -339      -59     -425    -1057    -1461 
   -1414    -1178    -1174    -1416    -1525    -1392    -1296    -1140 
    -512      309      560      309      418     1170     1964     2232 
    1962     1628     1708     2030     2063     1774     1487     1451 
    2013     3236     4376     4634     4076     3228     2348     1571 
    1091      871      701      534      351       49     -227     -174 
      77       75     -183     -138      541     1347     1451      694 
    -249     -735     -650     -103      680     1291     1500     1425 
    1276     1190     1254     1407     1393     1036      511      202 
     273      529      838     1289     1905     2567     3043     3005 
    2299     1140      -35     -771     -727       84     1140     1796 
    1863     1623     1442     1379     1284     1305     1696     2140 
    2083     1614     1278     1240     1420     1874     2249     1922 
    1045      374      211      398      928     1681     2071     1733 
     958      177     -307     -242      314      933     1312     1420 
    1215      815      504      290      156      376     1101     2006 
    2554     2591     2395     2120     1743     1398     1365     1682 
    1899     1664     1220      894      716      608      395      -49 
    -519     -647     -274      416      972     1059      806      669 
     991     1644     2210     2442     2279     1868     1619     1663 
    1665     1338      705       53     -205      252     1288     2209 
    2468     2009      945     -246     -824     -635     -147      302 
     710     1036     1091      885      588      184     -374     -849 
    -840     -225      627     1287     1613     1600     1477     1731 
    2420     2936     2887     2585     2390     2340     2449     2652 
    2765     2739     2477     1781      917      421      277      250 
     601     1358     1865     1794     1273      310     -605     -558 
     433     1603     2709     3702     4014     3405     2593     2154 
    1981     2112     2648     3113     3215     3353     3621     3619 
    3464     3531     3403     2577     1640     1272     1139      897 
     821      802      411      -41       11      349      544      754 
    1099     1217     1027      874      854      935     1274     1735 
    1767     1345     1150     1371     1513     1315      822      117 
    -487     -717     -890    -1388    -1762    -1430     -798     -575 
    -875    -1565    -2342    -2499    -1677     -467      343      535 
     261     -166     -326     -111      179      189     -274    -1041 
   -1530    -1274     -452      379      815      720      237     -339 
    -752     -789     -509     -370     -611     -903    -1000    -1094 
   -1269    -1282    -1166    -1395    -2075    -2612    -2500    -1870 
   -1160     -585      -49      505      826      608      -43     -639 
    -845     -707     -372       32      324      383      393      752 
    1656     2847     3722     3744     2968     1996     1295      972 
    1130     1672     2048     2060     2211     2764     3336     3580 
    3641     3903     4453     4913     4846     4277     3739     3686 
    4067     4529     4844     5014     4985     4669     4275     4146 
    4336     4620     4763     4542     3696     2293     1009      523 
     660      617       69     -538     -907    -1304    -1859    -2196 
   -2026    -1520    -1171    -1553    -2772    -4217    -5314    -5959 
   -6036    -5354    -4324    -3848    -4365    -5674    -7325    -8634 
   -8975    -8338    -7280    -6366    -5882    -5783    -5772    -5720 
   -5688    -5381    -4404    -3004    -1987    -1975    -2809    -3724 
   -4069    -3734    -3060    -2350    -1607     -909     -633     -954 
   -1321     -895      510     2337     3854     4595     4705     4773 
    4977     4980     4842     5071     5702     6198     6294     6236 
    6199     6056     5647     4937     4147     3795     4204     5077 
    5833     6169     6258     6437     6687     6667     6098     5077 
    4157     3708     3482     3207     3008     3025     3177     3489 
    4102     4755     4879     4360     3590     2768     1787      831 
     582     1485     2954     3862     3671     2687     1669     1383 
    1944     2557     2377     1607     1047      994     1446     2392 
    3199     2888     1505      327      364     1400     2686     3561 
    3460     2283      607     -823    -1472    -1081      171     1540 
    2174     1770      597     -814    -1838    -1969    -1037      489 
    1497     1184     -127    -1397    -1861    -1573    -1199    -1465 
   -2480    -3369    -3021    -1514     -357     -992    -3257    -5657 
   -6930    -6828    -5815    -4791    -4520    -4894    -5220    -5131 
   -4813    -4533    -4283    -4090    -4267    -4974    -5818    -6155 
   -5684    -4615    -3395    -2370    -1496     -455      823     2085 
    3125     3856     4087     3576     2414     1194      551      634 
    1160     1775     2333     2784     2870     2470     1931     1574 
    1422     1574     2109     2671     2928     3218     3901     4646 
    5120     5623     6525     7752     9047    10260    11269    11907 
   12010    11395    10021     8304     7016     6718     7296     7923 
    7696     6689     5941     6108     6760     7020     6173     4108 
    1799      626     1023     2296     3445     3709     2659      602 
   -1285    -1939    -1286      -88      679      585      169      285 
    1089     1934     1966      941     -329     -868     -747     -784 
   -1388    -2361    -3528    -4814    -5786    -5728    -4287    -2039 
    -183      470       54     -707    -1161    -1111     -902    -1142 
   -1928    -2522    -2324    -1600     -763       67      513      113 
    -813    -1543    -1909    -2002    -1738    -1330    -1293    -1716 
   -2191    -2318    -1999    -1628    -1835    -2562    -2901    -2273 
   -1119     -207       24     -577    -1725    -2556    -2363    -1447 
    -727     -670    -1087    -1660    -2109    -2247    -2106    -1802 
   -1426     -970     -301      638     1736     2626     2589     1019 
   -1799    -4445    -5305    -3837     -757     2522     4686     5201 
    4295     2588      882        1      412     1657     2543     2161 
     672     -710     -596     1364     4067     5858     5922     4714 
    3126     1736      764       41     -947    -2342    -3595    -4073 
   -3453    -1979     -577        5      -98     -345     -357      -22 
     453      750      848      966     1069      953      830     1219 
    2298     3673     4531     4349     3645     3416     3847     4197 
    3903     3150     2294     1526     1057      838      562      167 
    -330    -1153    -2280    -3042    -2824    -1696        7     1866 
    3134     3274     2575     1791     1485     1744     2161     2176 
    1595      583     -569    -1365    -1210      107     2187     4232 
    5357     5070     3916     3056     2780     2368     1482      563 
      68      218     1157     2499     3098     2248      716     -243 
    -396     -364     -550     -901    -1313    -1827    -2603    -3653 
   -4552    -4641    -3617    -1835      -26     1193     1790     2181 
    2390     1982      704    -1384    -3661    -4779    -3873    -1767 
    -130      264     -153     -658     -673       30      970     1508 
    1591     1552     1632     1710     1463      897      519      890 
    1897     2775     3040     2909     2706     2475     2302     2350 
    2398     1977      882     -760    -2566    -3880    -4209    -3754 
   -3141    -2728    -2504    -2383    -2198    -1782    -1407    -1532 
   -1988    -2064    -1434     -517      201      677      940      889 
     608      415      573     1025     1411     1473     1298     1062 
     786      454      111     -148      -76      506     1240     1550 
    1381     1103     1021     1209     1423     1244      590      -55 
    -194      191      901     1710     2171     1862      866     -278 
   -1080    -1294     -866       18     1011     1824     2309     2432 
    2281     2090     2040     2082     2242     2636     3014     3042 
    2928     3100     3545     3946     4135     4130     4085     4324 
    4836     5072     4755     4122     3239     2130     1248      861 
     608      244       16      -58     -365     -838     -844      -36 
    1427     3109     4281     4423     4002     4002     4803     5947 
    6656     6385     5290     4113     3396     3052     2754     2243 
    1270     -140    -1454    -2127    -2083    -1587    -1099    -1180 
   -1919    -2635    -2577    -1538       73     1376     1736     1468 
    1425     1964     2444     1875      192    -1407    -1752    -1258 
   -1387    -2575    -3872    -4441    -4307    -3921    -3581    -3202 
   -2502    -1517     -912    -1326    -2441    -3072    -2280     -490 
     790      607     -494    -1317    -1416    -1300    -1555    -2072 
   -2061    -1002      519     1330      950       66     -261      424 
    1759     2789     2690     1614      359     -487     -697     -123 
    1253     2896     3863     3654     2665     1824     1798     2392 
    2830     2590     1844     1309     1655     2690     3332     2772 
    1368      106     -470     -402       20      340      423      639 
     964      786      -59     -898     -985     -211      845     1294 
     661     -451     -854     -238      462      396     -298    -1086 
   -1612    -1549     -721      429     1041      623     -578    -1765 
   -2095    -1399     -342      423      923     1304     1195      328 
    -761    -1231     -644      929     2924     4411     4632     3595 
    1945      339     -722     -852     -209      353      107     -775 
   -1581    -1833    -1433     -627      -70     -295     -921    -1090 
    -529      452     1558     2413     2299      750    -1620    -3289 
   -3013     -770     2347     4802     5447     4322     2587     1516 
    1536     2131     2626     2672     2147     1206      272     -227 
     -93      508     1109     1293     1128     1059     1296     1660 
    1861     1653     1061      562      656     1173     1433     1272 
    1276     1803     2466     2742     2547     2216     2337     3312 
    4563     4852     3851     2552     1990     2211     2606     2831 
    2986     3022     2637     1817     1018      766     1272     2254 
    2954     2597     1154     -533    -1402     -908      567     2030 
    2803     2977     2964     2850     2396     1588      745      148 
     -79       29      153     -127     -822    -1333    -1147     -563 
    -176       18      259      273     -188     -643     -415      659 
    2199     3559     4112     3620     2679     2332     2833     3376 
    3111     1848        4    -1642    -2550    -2936    -3273    -3437 
   -2890    -1622     -412     -122     -946    -2268    -3225    -3325 
   -2638    -1726    -1107     -844     -850    -1106    -1430    -1396 
    -666      731     2378     3478     3244     1690     -273    -1692 
