Origin Time       2016/04/16 01:25:00
Lat.              32.753
Long.             130.762
Depth. (km)       12
Mag.              7.3
Station Code      NGS002
Station Lat.      33.3444
Station Long.     129.7054
Station Height(m) 2
Record Time       2016/04/16 01:25:27
Sampling Freq(Hz) 100Hz
Duration Time(s)  142
Dir.              N-S
Scale Factor      3920(gal)/6182761
Max. Acc. (gal)   52.315
Last Correction   2016/04/16 01:25:28
Memo.             
[...]
   14352    15239    16127    17003    17948    19274    20970    21881 
   21267    19406    16910    14628    12869    11522    10449     9145 
    7576     6431     6076     6269     6585     6701     6339     5374 
    4134     3038     2123     1229      328     -328     -634    -1025 
   -1656    -1909    -1314      -34     1602     3546     5974     8422 
    9772     9931    10162    11389    13517    16073    18435    20018 
   20594    20281    19850    20527    22669    25387    27452    28188 
   27783    26482    24165    21221    18569    16768    15769    15069 
   14142    12842    11528    10937    11398    12510    13973    15472 
   16068    15107    12985    10394     7829     5865     4855     4641 
    5006     5780     6770     7905     9052    10107    11262    12568 
   13720    14484    14773    14539    13641    11782     9232     6925 
    5380     4559     4331     4648     5617     7273     9589    12291 
   14656    16201    17033    17539    17815    17376    16187    15049 
   14265    13390    12365    11813    12344    13842    15390    16027 
   15661    15051    14834    15171    16037    17083    17851    18273 
   18256    17395    15847    14549    13990    13821    13591    13104 
   12553    12347    12597    13016    13236    13366    13928    14905 
   15541    15200    14009    12701    11831    11559    12011    12957 
   13706    13840    13298    12019    10221     8664     8095     8567 
    9353     9478     8722     7824     7257     6848     6530     6441 
    6774     7526     8300     8888     9610    10920    13009    15450 
   17367    18121    17688    16723    15918    15350    14873    14593 
   14732    15087    15139    14919    14786    14821    14904    14776 
   14541    14757    15350    15587    15251    14750    14334    13899 
   13567    13776    14512    15200    15353    14950    14393    13914 
   13292    12345    11189     9981     8628     7192     6207     5834 
    5723     5816     6370     7840    10221    12312    13140    13029 
   12582    12380    12872    13595    13701    12933    11811    11311 
   11829    12824    13756    14603    15601    16888    18276    19381 
   19927    19764    19061    18521    18718    19406    19792    19460 
   18966    19201    20193    21209    21926    22182    21263    19000 
   16202    13608    11786    10882    10054     8265     5322     2111 
    -148    -1106    -1177     -806     -440     -237      -77     -191 
    -759    -1308    -1450    -1551    -2003    -2400    -1950     -406 
    1679     3689     5642     7888    10777    14444    18431    22087 
   25011    26876    27702    28055    28406    28813    29177    29301 
   29004    28207    26788    25103    24185    24557    25707    26917 
   27565    27120    25857    24587    23444    22163    20734    19172 
   17484    15556    13102    10111     6745     3320      537    -1062 
   -1311     -434      635     1152     1440     2061     3009     3801 
    4203     4549     4936     5042     4752     4178     3515     3140 
    3419     4290     5437     6784     8382    10068    11423    12316 
   13261    14501    15610    16394    16821    16816    16852    17344 
   17897    18121    18361    19355    21275    23296    24541    25030 
   25044    24499    23523    22505    21551    20592    19587    18517 
   17283    15749    13917    11746     9279     6897     4799     2890 
    1150     -573    -2362    -3575    -3354    -1773       80     1377 
    2386     3539     4609     5326     5892     6892     8935    11903 
   14663    16037    16071    15822    15946    16436    17265    18426 
   19823    21162    21965    21948    21274    20621    20383    19790 
   17931    14950    11715     9004     7046     5617     4323     3114 
    2577     2957     3726     4643     5726     6530     6919     7482 
    8455     9612    10852    11824    12022    11544    11094    11539 
   13197    15516    17743    19430    20425    20914    21497    22698 
   24333    25922    27061    27393    27128    26775    26025    24162 
   21408    18605    16049    13697    11742    10157     8451     6431 
    4680     3778     3576     3679     3994     4459     4766     4560 
    3545     1788      104     -824    -1007     -261     1551     3889 
    6233     8476    10723    13147    15819    18489    20394    20719 
   19535    17802    16553    16228    16402    16421    16137    15731 
   15771    16951    19076    21180    22435    22698    22135    20592 
   18117    15276    12883    11602    10941    10000     9004     8302 
    7774     7542     7784     8731    10315    11491    11580    11081 
   10186     8864     7970     8035     8429     8462     7867     6967 
    6761     7634     8936    10228    11329    11924    11928    11253 
    9919     8527     7801     8273     9971    12119    13815    14722 
   15264    16062    17066    18086    19374    21053    22970    24721 
   25450    24589    22539    20026    17553    15443    13767    12384 
   10977     8991     6128     2889      162    -1577    -2251    -1848 
    -670      582     1217     1127     1144     2248     4494     7416 
   10868    14451    17244    18810    19356    19464    19646    19663 
   19544    20005    21050    21957    22121    21589    21295    22069 
   23803    25818    27359    27851    27260    25895    23696    20983 
   18901    17686    16506    15011    13284    11331     9345     7990 
    7743     7993     7916     7623     7648     8102     8454     8426 
    8544     9006     9430     9683     9841    10064    10365    10380 
    9924     9024     7768     6720     6305     5916     4736     2848 
    1156      226     -523    -1848    -3426    -4247    -3858    -2658 
   -1118      620     2382     3985     5526     7077     8450     9687 
   11339    13824    16774    19322    21291    23680    27348    32034 
   36906    41057    43502    43658    42034    39640    37025    34084 
   30257    25435    20007    14119     8122     2677    -1788    -5120 
   -7195    -7573    -5935    -2576     1665     5333     7328     7903 
    7749     7297     7055     7357     8041     8917    10065    11426 
   12625    13417    13931    14470    15321    16500    17663    18371 
   18387    17730    16388    14481    12722    11792    11697    12086 
   12520    12802    12972    12833    12401    12172    12561    13826 
   16005    18442    20026    20297    19799    19245    19146    19818 
   21268    23543    26537    29483    31337    31508    30372    28786 
   26911    24277    20631    16147    11295     6309      830    -5126 
  -10465   -13834   -14459   -12561    -9348    -6190    -4013    -3019 
   -2633    -2492    -2770    -3046    -2589    -1646    -1077    -1038 
    -913     -265      996     2683     4477     6810    10137    13783 
   16799    18533    18638    17290    15014    12630    10604     8671 
    6807     5653     6008     7777     9895    11928    14059    16219 
   18520    21001    23361    25694    28044    29656    29749    28397 
   26656    25673    25275    24914    25053    26099    27855    29853 
   31411    32305    33018    34535    37710    41888    45327    46809 
   45847    42307    36311    28273    18988     9687     1496    -5482 
  -11542   -16211   -18562   -17714   -13430    -7303    -1728     2480 
    6169    10384    15069    19092    21494    22042    21040    19153 
   17174    15771    15287    15424    14947    12937     9935     6137 
    1024    -4676    -9855   -13958   -16383   -17145   -16568   -14625 
  -11603    -7738    -3174     1438     5631     9035    11174    12607 
   14427    16976    20327    24390    28356    31378    32933    33021 
   33062    34444    36588    38051    37673    35008    30914    26750 
   23444    21411    20370    19524    18081    15578    12149     8443 
    4959     1973     -105    -1271    -2020    -2611    -3254    -4237 
   -5238    -5486    -4006      185     6435    12677    17726    21646 
   25014    28297    31402    33866    35258    35502    34631    32798 
   30523    27981    24973    21640    18562    16439    15352    14892 
   14908    15172    14930    13670    12010    11127    11347    11788 
   11284     8970     4784      293    -2482    -2682     -438     3372 
    7635    11445    13613    13479    12153    11466    11987    12655 
   12099    10126     8017     7180     7876     9259    10305    10895 
   11463    12036    12413    12174    10669     7858     4397      852 
   -2490    -5616    -8763   -11796   -14328   -16113   -16739   -15833 
  -13364    -9597    -5289    -1483     1174     2749     4045     6209 
    9504    12997    15742    17307    17616    17018    15800    13962 
   11942    10459     9713     9065     7527     5342     3975     4478 
    7217    11838    17306    22642    27049    29947    30991    29720 
   25889    20435    14746     9374     5168     2961     1903      955 
    -232    -1753    -2880    -2978    -2369    -1534     -692      137 
    1008     2118     3408     4063     3806     3707     5096     8941 
   15218    22625    30131    37209    42571    45562    47444    49392 
   51351    52937    53662    53160    51787    50449    50155    51308 
   53366    55688    57892    59612    60452    60267    59455    58435 
   57123    54890    50965    45411    39013    32688    27220    22900 
   19604    16792    13923    11051     8410     6278     4919     4714 
    6003     7965     9556    10581    10846    10204     8780     6736 
    4196     1249    -1696    -4375    -7137    -9877   -11841   -12920 
  -13526   -13920   -14708   -16186   -17921   -19828   -21697   -22883 
  -23594   -24976   -27504   -29896   -30502   -28784   -24989   -20070 
  -15598   -12924   -12197   -11824    -9626    -4764     1990     9015 
   14301    16683    16859    16073    14784    12869    10103     6746 
    3504      974     -611    -1383    -1355     -207     2407     6471 
   11097    14768    16501    16475    15411    13837    12136    10707 
    9737     8921     7581     5364     2883     1100      238       77 
     283       38    -1427    -4013    -6463    -6873    -4193     1220 
    8355    16010    23036    28522    31784    32579    31397    29365 
   27307    25094    22639    20304    18179    16671    16657    18087 
   19824    20857    20845    20047    19216    18854    18840    18816 
   18096    16386    14281    12147    10153     8453     6402     3331 
    -654    -5315   -10675   -16722   -22780   -27614   -30315   -30825 
  -29665   -26960   -22335   -16116    -9624    -4206     -634     1394 
    3142     5287     7706    10353    12496    13232    13058    12495 
   11439    10390     9601     9036     9361    10347    10969    11306 
   11709    12385    13900    16062    18221    20632    23727    27095 
   29823    31332    31779    32176    33787    36805    40533    44472 
   48530    52333    54600    54415    52427    50155    49279    50250 
   51564    51638    49959    47107    44244    41521    38634    36457 
   36288    38749    43229    47785    50530    50881    49197    45879 
   41348    36600    32668    29507    26099    21681    16689    12289 
    9052     6658     4872     3856     4153     6849    11854    17035 
   20566    22247    22522    21369    18293    13757     9441     6571 
    5213     5020     5773     7302     9547    12563    16227    20197 
   23620    25105    23814    19919    14008     6947     -101    -6146 
  -10819   -14647   -18598   -23022   -27685   -32083   -35177   -36270 
  -35584   -33642   -31482   -30310   -30729   -32997   -36492   -39872 
  -42473   -43998   -44135   -43026   -40853   -37808   -34526   -31459 
  -28323   -24681   -20414   -15428    -9593    -3325     2244     6179 
    8367     9174     9234     9374    10289    12173    14966    19036 
   24832    31956    39253    45698    51093    55774    59895    63176 
   64776    63751    60179    55194    50049    45401    40765    35056 
   28135    21024    15071    11237     9323     8461     8234     8510 
    9459    11442    13759    15097    15335    15226    15022    14493 
   13592    12530    11536    10721    10280    11029    13743    17844 
   21737    23814    23389    21092    17954    15164    14250    15860 
   19255    23336    26969    29284    30596    31636    32688    34082 
   35634    36538    36685    36599    36606    36881    37277    37051 
   35629    33024    29472    25675    22415    19907    18350    18020 
   18940    20442    21060    19905    16885    11781     4939    -2557 
   -9909   -16489   -21694   -25312   -27275   -27369   -25194   -20500 
  -13702    -5891     1361     6820    10263    11632    10817     8332 
    4939     1507     -817    -1444    -1052     -896    -1470    -2405 
   -2847    -1612     1582     5300     7917     9132     9245     8162 
    5994     3381     1021     -108      882     3523     6542     9181 
   11275    13329    15895    18457    20096    20514    19858    18638 
   17539    16917    16854    17150    17464    17743    18213    19423 
   21907    25372    28845    31532    32737    31896    29325    25474 
   20504    15188     9637     2769    -5339   -13334   -19895   -24232 
  -26670   -27790   -27820   -27393   -27039   -26752   -26435   -25948 
  -25225   -24316   -23126   -21522   -19813   -18682   -18291   -17922 
  -16635   -13750    -9087    -3221     2693     7535    10903    13380 
   16105    19874    24687    30284    36535    43451    51362    60294 
   69489    78209    85796    91281    94269    94950    93260    89433 
   84021    77104    68741    59245    48808    38077    28452    20825 
   14940    10024     5621     2203      101    -1762    -4735    -9074 
  -14318   -19930   -25332   -29991   -33965   -38216   -43461   -49069 
  -53909   -57471   -59748   -60157   -57607   -52649   -47214   -42131 
  -37416   -33187   -29121   -24688   -19180   -11875    -3943     2597 
    7980    12927    16997    20441    23494    25887    28153    30641 
   33089    35669    38574    41498    44489    48347    53516    59807 
   66784    73263    78191    82001    84909    86179    86050    85041 
   82749    78848    73294    66575    59804    53335    47214    42246 
   38568    35294    31841    27868    23231    18525    14249     9973 
    5049     -741    -7298   -14329   -21137   -26854   -31596   -36463 
  -42089   -47978   -52705   -54877   -54477   -52604   -50255   -47512 
  -43605   -38211   -31506   -23463   -15061    -8347    -4547    -3297 
   -2727     -960     1812     4521     7018     9001     9940    10570 
   11936    14214    17722    22574    27976    33453    38586    42342 
   44438    45324    44995    43454    41094    38275    35232    31967 
   28351    24634    21181    18169    16074    15516    16480    18022 
   19007    18870    17742    16665    16778    17802    18307    17417 
   15181    11856     8276     5455     3268     1046    -1536    -4579 
   -7590    -9919   -12299   -15796   -19662   -23059   -26384   -29177 
  -30336   -29507   -27325   -25460   -24441   -23210   -21228   -17943 
  -12922    -7424    -3236    -1071     -368      288     2018     5117 
    9330    14106    18694    22454    25747    29500    33852    38413 
   42528    45519    47778    50027    52180    54067    55911    58095 
   60507    62280    63032    63131    62829    61985    59277    53826 
   49799    50501    46652    32779    25027    26708    19395    10324 
   11694     8701     1896     1403      467    -1402     -804      570 
    1685     -309    -4021    -6156    -8914   -12027   -12505   -11383 
  -10610   -10242    -9603    -8222    -6713    -5408    -3516      122 
    5907    12127    17908    24131    29669    33336    35929    38081 
   40442    43611    47189    50253    52009    52023    50120    46763 
   42884    39181    36480    35360    35465    35988    36142    35494 
   33812    30835    26879    22716    18667    14422     9612     4129 
   -1920    -8411   -15760   -23942   -31112   -35979   -39061   -40219 
  -38888   -35635   -31799   -28921   -27492   -25930   -22388   -17445 
  -12923    -9388    -6561    -3713     -168     3380     6251     9604 
   14511    20539    27400    34409    39766    42960    44574    45248 
   46158    47592    48999    50413    52055    53459    53503    52044 
   49944    47602    45515    44223    43254    41815    39452    35400 
   29259    21994    14570     7356      711    -5374   -10843   -15321 
  -18647   -20706   -21499   -21297   -20372   -18717   -16081   -12354 
   -7600    -2285     2644     6803    10209    12405    13212    13028 
   12749    13363    15131    17986    21430    25192    29940    35422 
   40480    44317    46526    47069    45845    42989    39056    34644 
   30533    26950    23712    20945    18460    15919    13054     9779 
    6226     2028    -2703    -7086   -11091   -15106   -19068   -22630 
  -24998   -25808   -25840   -25497   -24579   -23316   -21630   -18920 
  -14759    -9485    -4002     1508     6581     9776    10781    10182 
    8897     8593     9792    11895    14487    17007    19401    21813 
   24592    28244    32044    35636    39079    41552    42494    41489 
   39101    36603    33931    31046    27970    24193    20245    16985 
   15019    14600    14613    13977    12741    10957     8342     4758 
     569    -3086    -4723    -3811     -857     3378     7930    11990 
   15084    17384    19936    23352    27301    30856    32879    33459 
   33498    33098    32501    32308    32474    33196    34702    36337 
   37569    38001    37419    36162    34396    32137    29309    26106 
   23091    20236    17222    13799     9845     6049     3293     1597 
     485     -548    -1800    -3118    -4322    -5525    -6550    -7083 
   -7861    -9811   -12779   -16356   -19844   -22123   -22781   -21818 
  -19312   -16069   -12885    -9804    -6604    -2964     1188     5226 
    8718    11809    14542    17100    19785    22711    26118    29915 
   33470    36202    37879    38767    39330    39754    40000    40067 
   40031    39688    38797    37408    35417    32381    27972    22444 
   16608    11407     7135     3014    -1773    -7163   -12673   -17629 
  -21414   -23866   -24878   -24573   -23385   -21274   -18190   -14353 
   -9649    -4277      917     5201     8799    12968    18371    24205 
   29222    32498    34027    34648    35452    37468    40588    43670 
   45802    46340    45217    43150    41116    40069    39946    39916 
   39931    40095    39845    38470    35350    30448    24399    18130 
   12695     8561     5250     1825    -2412    -7567   -13271   -18388 
  -21618   -22877   -22869   -22368   -22189   -22588   -23396   -24343 
  -24717   -24012   -22487   -20422   -18068   -15845   -13542   -10724 
   -7805    -5292    -3323    -1924     -587     1013     2670     4646 
    7017     9348    11641    14052    16541    19026    21383    23621 
   25737    27464    28495    28897    29016    28989    29059    29519 
   29967    30082    30139    30065    29473    28139    26225    24570 
   24107    25080    26843    28242    28655    28104    26754    25205 
   24015    22946    21733    20632    19633    17977    15142    11889 
    9458     8203     7722     7590     7448     7112     6761     6680 
    6902     7031     6671     5962     5139     4185     2901      956 
