Origin Time       2016/04/16 01:25:00
Lat.              32.753
Long.             130.762
Depth. (km)       12
Mag.              7.3
Station Code      NGS021
Station Lat.      34.3973
Station Long.     129.3240
Station Height(m) 17
Record Time       2016/04/16 01:25:51
Sampling Freq(Hz) 100Hz
Duration Time(s)  103
Dir.              E-W
Scale Factor      3920(gal)/6182761
Max. Acc. (gal)   8.823
Last Correction   2016/04/16 01:25:52
Memo.             
[...]
  -10310   -10637   -10680   -10399   -10027    -9861   -10025   -10452 
  -10897   -11152   -11175   -10915   -10474   -10162   -10118   -10322 
  -10705   -11042   -11127   -10905   -10449   -10019    -9833    -9920 
  -10224   -10562   -10719   -10665   -10498   -10315   -10212   -10264 
  -10447   -10618   -10646   -10526   -10288    -9970    -9720    -9645 
   -9681    -9798    -9998   -10166   -10231   -10263   -10330   -10446 
  -10608   -10842   -11077   -11088   -10745   -10188    -9709    -9555 
   -9770   -10177   -10674   -11226   -11573   -11515   -11230   -10964 
  -10855   -10986   -11238   -11353   -11324   -11363   -11491   -11502 
  -11285   -10940   -10602   -10263    -9907    -9712    -9878   -10406 
  -11084   -11610   -11831   -11801   -11560   -11065   -10446   -10046 
  -10071   -10398   -10743   -10933   -11013   -11064   -11060   -10976 
  -10896   -10929   -11041   -11075   -10979   -10789   -10555   -10435 
  -10541   -10741   -10839   -10750   -10542   -10383   -10342   -10312 
  -10222   -10167   -10223   -10307   -10325   -10274   -10198   -10199 
  -10413   -10825   -11176   -11285   -11241   -11118   -10908   -10739 
  -10782   -11063   -11475   -11860   -12042   -11865   -11350   -10752 
  -10318   -10136   -10244   -10579   -10930   -11107   -11020   -10639 
  -10116    -9743    -9665    -9777    -9985   -10293   -10595   -10728 
  -10750   -10814   -10940   -11049   -11063   -10940   -10752   -10619 
  -10561   -10550   -10611   -10731   -10775   -10613   -10300   -10034 
   -9978   -10164   -10420   -10513   -10448   -10408   -10437   -10425 
  -10346   -10328   -10489   -10733   -10798   -10571   -10236   -10057 
  -10168   -10477   -10772   -10988   -11184   -11296   -11208   -10993 
  -10760   -10484   -10250   -10275   -10484   -10543   -10371   -10193 
  -10157   -10222   -10301   -10302   -10200   -10096   -10060   -10060 
  -10124   -10305   -10532   -10711   -10804   -10754   -10533   -10250 
  -10062   -10035   -10162   -10447   -10830   -11083   -10985   -10536 
   -9942    -9512    -9485    -9866   -10507   -11154   -11483   -11372 
  -10950   -10419   -10027    -9943   -10113   -10412   -10685   -10720 
  -10470   -10094    -9743    -9512    -9490    -9672    -9885   -10001 
  -10128   -10403   -10797   -11190   -11454   -11481   -11268   -10892 
  -10469   -10164   -10135   -10440   -10984   -11481   -11574   -11108 
  -10307    -9568    -9172    -9294    -9969   -10879   -11516   -11642 
  -11357   -10844   -10338   -10159   -10505   -11226   -11881   -12043 
  -11595   -10745    -9913    -9569    -9890   -10623   -11367   -11805 
  -11705   -11080   -10307    -9846    -9990   -10763   -11746   -12300 
  -12126   -11392   -10525   -10016   -10056   -10439   -10891   -11249 
  -11413   -11324   -10934   -10288    -9656    -9387    -9607   -10183 
  -10872   -11330   -11313   -10957   -10528   -10132    -9860    -9836 
  -10018   -10246   -10393   -10339   -10091    -9923   -10062   -10399 
  -10731   -10956   -11020   -10934   -10784   -10643   -10573   -10605 
  -10710   -10864   -11002   -10981   -10718   -10277    -9844    -9675 
   -9916   -10426   -10876   -11040   -10887   -10527   -10191   -10086 
  -10222   -10492   -10757   -10872   -10786   -10559   -10307   -10185 
  -10268   -10524   -10850   -10972   -10602    -9861    -9200    -8964 
   -9235    -9873   -10586   -11113   -11272   -10942   -10239    -9571 
   -9354    -9705   -10415   -11067   -11189   -10665    -9852    -9135 
   -8783    -8966    -9591   -10448   -11259   -11682   -11578   -10994 
  -10127    -9385    -9104    -9450   -10407   -11565   -12333   -12324 
  -11561   -10525    -9800    -9720   -10279   -11159   -11951   -12253 
  -11793   -10790    -9834    -9459    -9885   -10860   -11824   -12290 
  -12086   -11428   -10709   -10330   -10529   -11101   -11639   -11866 
  -11583   -10827    -9984    -9471    -9468    -9888   -10458   -10860 
  -10933   -10753   -10410    -9964    -9655    -9685    -9954   -10229 
  -10347   -10323   -10268   -10164    -9967    -9793    -9833   -10170 
  -10626   -10867   -10744   -10413   -10138    -9966    -9777    -9660 
   -9778   -10022   -10205   -10264   -10219   -10205   -10408   -10779 
  -10993   -10839   -10455   -10109    -9962   -10074   -10473   -11162 
  -11918   -12238   -11781   -10695    -9507    -8842    -8983    -9738 
  -10729   -11497   -11593   -10940    -9912    -9054    -8824    -9355 
  -10279   -11005   -11209   -10961   -10522   -10164   -10049   -10208 
  -10541   -10847   -10966   -10831   -10492   -10225   -10316   -10720 
  -11169   -11464   -11530   -11374   -11133   -11006   -11050   -11167 
  -11270   -11330   -11363   -11369   -11290   -11188   -11203   -11293 
  -11347   -11367   -11309   -11093   -10834   -10700   -10699   -10781 
  -10892   -10923   -10830   -10668   -10471   -10257   -10075    -9975 
  -10023   -10231   -10472   -10627   -10653   -10490   -10177    -9977 
  -10104   -10432   -10680   -10726   -10601   -10346   -10052    -9891 
  -10021   -10492   -11165   -11744   -11988   -11867   -11485   -10974 
  -10515   -10326   -10489   -10807   -10997   -10960   -10830   -10805 
  -10926   -11119   -11326   -11401   -11167   -10670   -10174    -9934 
  -10004   -10214   -10365   -10446   -10539   -10570   -10400   -10057 
   -9709    -9561    -9719    -9993   -10053    -9867    -9732    -9887 
  -10338   -10941   -11460   -11650   -11470   -11120   -10815   -10638 
  -10599   -10594   -10461   -10225   -10022    -9812    -9520    -9332 
   -9533   -10118   -10763   -11146   -11151   -10832   -10371   -10015 
   -9898    -9991   -10254   -10604   -10779   -10542    -9997    -9503 
   -9390    -9683   -10066   -10242   -10223   -10203   -10267   -10294 
  -10146    -9912    -9809    -9854    -9896    -9846    -9698    -9508 
   -9372    -9348    -9476    -9722    -9940   -10029   -10030   -10057 
  -10195   -10424   -10621   -10714   -10709   -10536   -10203    -9958 
   -9969   -10206   -10596   -10951   -11026   -10819   -10581   -10477 
  -10426   -10323   -10211   -10139   -10113   -10164   -10310   -10567 
  -10944   -11308   -11430   -11249   -10934   -10667   -10486   -10349 
  -10243   -10168   -10090   -10020   -10029   -10179   -10491   -10896 
  -11258   -11428   -11324   -11065   -10850   -10696   -10500   -10221 
   -9882    -9598    -9556    -9746    -9949   -10027    -9985    -9888 
   -9878   -10037   -10238   -10345   -10374   -10411   -10494   -10542 
  -10490   -10456   -10574   -10782   -10847   -10622   -10249    -9969 
   -9868    -9935   -10101   -10208   -10147    -9946    -9639    -9291 
   -9066    -9059    -9233    -9586   -10091   -10542   -10694   -10527 
  -10254   -10092   -10145   -10401   -10708   -10896   -10887   -10657 
  -10315   -10079   -10054   -10238   -10612   -11073   -11436   -11590 
  -11562   -11439   -11295   -11172   -11074   -10980   -10857   -10703 
  -10499   -10143    -9582    -9015    -8749    -8862    -9210    -9690 
  -10242   -10702   -10887   -10772   -10551   -10501   -10736   -11125 
  -11444   -11569   -11507   -11308   -11000   -10611   -10245   -10062 
  -10102   -10204   -10247   -10385   -10824   -11467   -11996   -12136 
  -11779   -11141   -10655   -10546   -10749   -11184   -11755   -12215 
  -12283   -11858   -11172   -10748   -10961   -11651   -12296   -12493 
  -12164   -11453   -10587    -9904    -9769   -10243   -10897   -11176 
  -10919   -10424   -10059    -9919    -9909    -9977   -10136   -10361 
  -10539   -10454   -10030    -9564    -9422    -9573    -9727    -9793 
   -9906   -10102   -10224   -10137    -9869    -9530    -9210    -8970 
   -8930    -9259    -9979   -10801   -11323   -11373   -11068   -10641 
  -10406   -10586   -11010   -11283   -11173   -10624    -9791    -9074 
   -8851    -9269   -10246   -11451   -12404   -12753   -12564   -12248 
  -12137   -12276   -12508   -12568   -12308   -11825   -11265   -10722 
  -10423   -10615   -11214   -11835   -12141   -12034   -11656   -11299 
  -11192   -11364   -11705   -12073   -12262   -12057   -11463   -10771 
  -10313   -10245   -10516   -10915   -11224   -11375   -11374   -11225 
  -11021   -10892   -10779   -10426    -9676    -8720    -8045    -8087 
   -8799    -9650   -10118   -10025    -9437    -8594    -7885    -7604 
   -7739    -8012    -8075    -7796    -7385    -7188    -7405    -8022 
   -8869    -9660   -10059    -9950    -9592    -9312    -9289    -9700 
  -10606   -11698   -12415   -12272   -11140    -9394    -7664    -6488 
   -6292    -7316    -9197   -11024   -12045   -12098   -11480   -10697 
  -10253   -10452   -11259   -12330   -13192   -13416   -12844   -11810 
  -10916   -10539   -10769   -11547   -12524   -13101   -12897   -11981 
  -10705    -9579    -9095    -9396   -10227   -11203   -12070   -12664 
  -12709   -12010   -10807    -9584    -8731    -8478    -8715    -8918 
   -8676    -8115    -7673    -7681    -8112    -8616    -8838    -8634 
   -8061    -7373    -6969    -7155    -7972    -9194   -10408   -11267 
  -11644   -11602   -11379   -11314   -11583   -12026   -12216   -11762 
  -10749    -9777    -9411    -9782   -10723   -11946   -13071   -13717 
  -13678   -13079   -12382   -12095   -12502   -13557   -14794   -15459 
  -15101   -13929   -12586   -11697   -11573   -12161   -13081   -13705 
  -13548   -12630   -11415   -10497   -10365   -11213   -12703   -13988 
  -14171   -12897   -10692    -8678    -7727    -7966    -8979   -10088 
  -10599   -10163    -8892    -7356    -6512    -7122    -9078   -11453 
  -13093   -13228   -11836    -9642    -7678    -6688    -6876    -7936 
   -9241   -10220   -10578   -10316    -9774    -9438    -9540    -9923 
  -10158    -9822    -8843    -7506    -6199    -5283    -5031    -5511 
   -6464    -7374    -7798    -7655    -7267    -7128    -7519    -8253 
   -8936    -9310    -9180    -8442    -7409    -6748    -6935    -7901 
   -9154   -10191   -10789   -10908   -10641   -10365   -10578   -11436 
  -12573   -13300   -13091   -11983   -10575    -9700    -9892   -11058 
  -12690   -14223   -15190   -15236   -14305   -12947   -12154   -12579 
  -14016   -15546   -16094   -15139   -13053   -10721    -9046    -8750 
  -10020   -12186   -14081   -14686   -13566   -11205    -8870    -7877 
   -8795   -11066   -13363   -14421   -13631   -11341    -8796    -7314 
   -7388    -8663   -10362   -11605   -11796   -10905    -9533    -8726 
   -9334   -11315   -13618   -14844   -14239   -12246   -10229    -9526 
  -10534   -12621   -14573   -15105   -13537   -10274    -6639    -4227 
   -4093    -6141    -9090   -11226   -11555   -10324    -8764    -8391 
   -9968   -12971   -16053   -17864   -17686   -15573   -12304    -9212 
   -7457    -7452    -8869   -10607   -11234   -10056    -7615    -5175 
   -3824    -3901    -5088    -6894    -8936   -10869   -12241   -12597 
  -11962   -11035   -10581   -10869   -11738   -12889   -14023   -14774 
  -14650   -13354   -11206    -9014    -7578    -7369    -8396   -10229 
  -12256   -13969   -15053   -15401   -15153   -14561   -13716   -12569 
  -11266   -10191    -9639    -9532    -9495    -9281    -8985    -8790 
   -8708    -8549    -8030    -6996    -5501    -3740    -2133    -1253 
   -1453    -2658    -4439    -6200    -7469    -8132    -8346    -8327 
   -8217    -8124    -8154    -8311    -8467    -8507    -8517    -8712 
   -9045    -9227    -9235    -9459   -10258   -11553   -12860   -13717 
  -14048   -14019   -13645   -12782   -11534   -10362    -9733    -9874 
  -10621   -11275   -11030    -9648    -7531    -5467    -4433    -5102 
   -7263    -9879   -11771   -12256   -11309    -9362    -7131    -5548 
   -5479    -7093    -9627   -12049   -13708   -14252   -13537   -11863 
   -9892    -8260    -7434    -7683    -8914   -10692   -12490   -13778 
  -13953   -12685   -10385    -8078    -6860    -7337    -9180   -11300 
  -12695   -13070   -12692   -12095   -11888   -12266   -12821   -13118 
  -13063   -12659   -11777   -10283    -8459    -7079    -6808    -7643 
   -8984   -10163   -10890   -11237   -11414   -11614   -11957   -12523 
  -13274   -13875   -13711   -12222    -9410    -6026    -3060    -1068 
     -84       11     -643    -1690    -2513    -2647    -2295    -2255 
   -3101    -4630    -6242    -7602    -8811   -10141   -11650   -12969 
  -13518   -13061   -12026   -11236   -11311   -12289   -13669   -14829 
  -15520   -15918   -16196   -16387   -16556   -16806   -17315   -18224 
  -19143   -19191   -17900   -15683   -13380   -11743   -11252   -11854 
  -12830   -13397   -13403   -13148   -12776   -12220   -11586   -11179 
  -11229   -11704   -12202   -12228   -11799   -11506   -11864   -12778 
  -13707   -14074   -13534   -12208   -10665    -9514    -9100    -9372 
   -9730    -9393    -8236    -6970    -6523    -7481    -9858   -12973 
  -15612   -16538   -15147   -12075    -9210    -8474   -10357   -13779 
  -17016   -18593   -17873   -15236   -11956    -9717    -9688   -11853 
  -15045   -17587   -18294   -17020   -14500   -12023   -10906   -11829 
  -14500   -17707   -19920   -20200   -18594   -15920   -13338   -11700 
  -11152   -11318   -11543   -11264   -10554   -10003   -10007   -10409 
  -10715   -10539    -9864    -8795    -7421    -6189    -5817    -6486 
   -7550    -8120    -7643    -6201    -4523    -3439    -3355    -4449 
   -6814   -10023   -12977   -14513   -14186   -12415   -10087    -8273 
   -7932    -9445   -12353   -15516   -17679   -18062   -16641   -14231 
  -12144   -11477   -12621   -15073   -17576   -18747   -17855   -15354 
  -12783   -11725   -12839   -15870   -19819   -23135   -24481   -23345 
  -20197   -16412   -13464   -12068   -12152   -12957   -13261   -12255 
  -10188    -7911    -6049    -4860    -4621    -5592    -7527    -9552 
  -10547    -9916    -8203    -6608    -5915    -6031    -6389    -6699 
   -7139    -7819    -8399    -8480    -8211    -8238    -9000   -10316 
  -11694   -12725   -13328   -13801   -14308   -14580   -14489   -14275 
  -14187   -14291   -14394   -14256   -14004   -13957   -14112   -14233 
  -14255   -14279   -14379   -14493   -14329   -13653   -12732   -12100 
  -11989   -12247   -12681   -13340   -14216   -14861   -14549   -12744 
   -9628    -6349    -4415    -4606    -6405    -8420    -9408    -9024 
   -7687    -6044    -4793    -4563    -5540    -7298    -8936    -9435 
   -8369    -6261    -4084    -2673    -2491    -3546    -5415    -7410 
   -8861    -9357    -8979    -8385    -8369    -9345   -11227   -13466 
  -15213   -15663   -14498   -12199    -9858    -8552    -8699    -9769 
  -10782   -11299   -11592   -11736   -11393   -10638   -10071   -10156 
  -10927   -11972   -12730   -13097   -13476   -14189   -15121   -15923 
  -16327   -16221   -15750   -15377   -15516   -16035   -16228   -15407 
  -13723   -12297   -12313   -14004   -16489   -18441   -18971   -18047 
  -16272   -14359   -12910   -12460   -13240   -14663   -15478   -14855 
  -13077   -11103    -9827    -9668   -10461   -11541   -12026   -11460 
  -10286    -9401    -9315    -9835   -10492   -10984   -11024   -10211 
   -8476    -6475    -5253    -5460    -6940    -8961   -10574   -10993 
  -10014    -8217    -6717    -6379    -7253    -8729    -9886    -9947 
   -8998    -7988    -7751    -8383    -9527   -10727   -11529   -11746 
  -11507   -11003   -10529   -10474   -10892   -11445   -11837   -11971 
  -11676   -10721    -9272    -7819    -6637    -5822    -5463    -5392 
   -5218    -4635    -3555    -2274    -1454    -1539    -2254    -2961 
   -3220    -2934    -2449    -2474    -3488    -5364    -7541    -9213 
   -9599    -8484    -6446    -4448    -3271    -3227    -4291    -6264 
   -8584   -10386   -11111   -10762    -9703    -8544    -7945    -8231 
   -9400   -11319   -13517   -15103   -15501   -15010   -14388   -14196 
  -14530   -15125   -15639   -15766   -15252   -14183   -13152   -12762 
  -13081   -13740   -14346   -14695   -14678   -14107   -12899   -11473 
  -10646   -10971   -12185   -13301   -13408   -12413   -10941    -9700 
   -9086    -9130    -9665   -10488   -11288   -11641   -11311   -10663 
  -10554   -11379   -12539   -13200   -13084   -12353   -11326   -10433 
  -10124   -10729   -12145   -13555   -14022   -13391   -12227   -11187 
  -10722   -10882   -11250   -11234   -10371    -8659    -6725    -5487 
   -5463    -6401    -7578    -8373    -8552    -8225    -7641    -7077 
   -6890    -7385    -8450    -9446    -9652    -8955    -8135    -8201 
   -9336   -10765   -11618   -11593   -10939   -10196    -9876   -10144 
  -10901   -12032   -13327   -14407   -14830   -14255   -12788   -11110 
   -9973    -9718   -10256   -11188   -11954   -12110   -11582   -10826 
  -10511   -10802   -11323   -11743   -11936   -11874   -11676   -11570 
  -11713   -12109   -12748   -13623   -14500   -14979   -14916   -14577 
  -14339   -14419   -14745   -14978   -14821   -14218   -13233   -12090 
  -11245   -11083   -11611   -12468   -13171   -13442   -13264   -12790 
  -12358   -12336   -12880   -13911   -15042   -15623   -15247   -14222 
  -13463   -13777   -15160   -16750   -17437   -16697   -14887   -12708 
  -10753    -9586    -9646   -10784   -12267   -13338   -13520   -12732 
  -11455   -10375    -9835    -9817   -10123   -10476   -10719   -10864 
  -10990   -11196   -11511   -11798   -11875   -11602   -10887    -9867 
   -9049    -9014   -10022   -11948   -14186   -15674   -15492   -13527 
  -10704    -8559    -8046    -8701    -9411    -9631    -9608    -9799 
  -10358   -11138   -11998   -12894   -13659   -13893   -13373   -12445 
  -11771   -11926   -13064   -14599   -15516   -15212   -13887   -12259 
  -11059   -10659   -11011   -11767   -12417   -12470   -11680   -10166 
   -8441    -7271    -7236    -8341   -10039   -11529   -12135   -11662 
  -10413    -8946    -7945    -7929    -8771    -9727   -10055    -9526 
   -8501    -7572    -7103    -7254    -8102    -9373   -10391   -10656 
  -10239    -9600    -9306    -9674   -10458   -11163   -11685   -12214 
  -12668   -12654   -12015   -11123   -10522   -10430   -10700   -11121 
  -11595   -12016   -12109   -11483   -10029    -8196    -6672    -5876 
   -5763    -5934    -6090    -6283    -6526    -6616    -6573    -6739 
   -7317    -8135    -8726    -8580    -7687    -6674    -6077    -5848 
   -5761    -5802    -6024    -6328    -6454    -6246    -5986    -6256 
   -7330    -8888   -10341   -11219   -11358   -10952   -10388    -9986 
   -9884   -10064   -10422   -10858   -11344   -11870   -12290   -12460 
  -12549   -12900   -13528   -14006   -13943   -13430   -12860   -12449 
  -12091   -11574   -10924   -10435   -10299   -10417   -10677   -11141 
  -11792   -12337   -12408   -11864   -10927   -10101    -9809    -9990 
  -10214   -10212   -10091    -9970    -9757    -9312    -8589    -7794 
   -7391    -7633    -8306    -9092    -9836   -10487   -11047   -11552 
  -12004   -12251   -12082   -11542   -10897   -10292    -9844    -9868 
  -10570   -11752   -12957   -13643   -13424   -12491   -11530   -11042 
  -11007   -11193   -11473   -11798   -11995   -11692   -10641    -9219 
   -8230    -8140    -8848    -9961   -10978   -11439   -11100   -10139 
   -9136    -8567    -8476    -8723    -9119    -9360    -9199    -8621 
   -7904    -7492    -7633    -8208    -8910    -9503    -9935   -10155 
  -10018    -9438    -8380    -6937    -5511    -4609    -4510    -5182 
   -6242    -7003    -6873    -5830    -4560    -4064    -4859    -6492 
