Origin Time       2016/04/16 01:25:00
Lat.              32.753
Long.             130.762
Depth. (km)       12
Mag.              7.3
Station Code      NGS019
Station Lat.      32.9002
Station Long.     129.9582
Station Height(m) 2
Record Time       2016/04/16 01:25:19
Sampling Freq(Hz) 100Hz
Duration Time(s)  254
Dir.              E-W
Scale Factor      3920(gal)/6182761
Max. Acc. (gal)   116.160
Last Correction   2016/04/16 01:25:19
Memo.             
[...]
   16560    16560    16558    16553    16551    16553    16553    16549 
   16546    16545    16542    16539    16537    16531    16524    16520 
   16516    16510    16505    16498    16492    16487    16478    16466 
   16458    16449    16437    16422    16407    16390    16372    16352 
   16336    16325    16314    16297    16280    16263    16250    16252 
   16270    16299    16324    16325    16297    16253    16225    16253 
   16358    16520    16701    16852    16960    17068    17256    17591 
   18044    18484    18747    18726    18426    17944    17388    16822 
   16243    15591    14840    14156    13887    14222    14970    15788 
   16466    16981    17446    18070    18928    19646    19572    18463 
   16792    15301    14440    14162    14152    14339    14952    16090 
   17611    19033    19474    18561    17032    15823    15078    14425 
   13852    13655    13880    14484    15417    16421    17341    18101 
   18375    18015    17420    17101    17371    18136    18637    18131 
   16712    14999    13712    13428    14220    15762    17480    18591 
   18859    18996    19569    20116    19829    18581    16942    15554 
   14955    15261    15552    14915    13873    13396    13427    13513 
   13678    14185    15234    16758    18481    19848    19800    18020 
   15766    14240    13383    12588    11773    11668    12925    15440 
   18500    20765    20990    19484    17934    17605    18107    18195 
   17519    16760    16484    16871    17864    18772    18680    17681 
   16385    14984    14266    15328    17426    18444    17419    15305 
   13651    13241    14018    15481    16899    17910    18855    20300 
   22403    24481    25440    24613    22377    20151    18783    17670 
   16264    14789    13749    13806    15016    16143    15989    14841 
   13841    13963    15423    16994    17289    16961    17404    18157 
   17617    15302    12383    10497    10507    12684    16737    20740 
   22689    22933    22078    19433    15539    12388    11022    11079 
   11399    11272    11646    13395    15673    17458    18451    18341 
   17143    15925    16302    18579    21146    22469    22155    20377 
   17787    15258    13116    11185     9688     9476    11040    13873 
   16925    18974    19268    18384    17602    17795    19315    21503 
   22866    22806    21381    18492    15200    12959    11618    10724 
   10897    13021    16986    20551    21052    18521    14696    10961 
    8181     5904     3516     2894     6103    11924    17334    19616 
   17906    15108    15223    18647    22671    25039    25563    25505 
   26122    26996    26589    24925    23147    21801    21273    21006 
   19854    18065    16014    13811    12376    11551    10049     8202 
    7503     8293     9917    12063    14567    16763    18154    18831 
   18986    19504    21199    22816    23621    24975    26467    26054 
   23558    20331    17733    16233    15311    14498    13243    11104 
    9291    10181    13975    17232    17283    15428    13363    11477 
   10902    12330    14288    14981    14569    14632    15510    15828 
   15189    15052    16757    19667    21425    20656    17932    14019 
   10050     7594     6808     7360    10031    15310    21978    26879 
   27301    24595    22237    21830    22863    23243    21327    18512 
   17413    17808    16827    14051    11849    10483     9611    10625 
   12400    11750     9255     8359    10240    13740    18504    24679 
   30225    32181    30723    28496    26657    24479    21707    19403 
   18374    18160    18293    18004    15671    11737     8669     7634 
    9124    12985    16127    15553    12800    11349    11421    11222 
   11065    11873    13599    17086    22577    28264    32294    33236 
   30487    25366    20257    17538    18403    21253    23039    22264 
   19304    15564    12898    12171    12035    10384     7874     7058 
    8007     8897     9381    10365    12307    15246    19046    22445 
   23586    22700    22485    24553    26921    26918    24485    20775 
   16665    13035    10582     9774    10223    10227     9346     9872 
   12871    16096    16843    14067     9197     4888     3581     7741 
   16760    25547    30047    30117    27078    22930    19540    17145 
   15807    15150    13751    12416    12654    12642    10903     9152 
    8153     6643     5324     6246     8726    11211    13971    16321 
   17637    20501    25906    30518    32221    31924    30736    29638 
   29715    29939    26741    18899    10169     5287     6126    10826 
   16080    20710    23743    22425    16898    10209     3804     -252 
    1226     7638    14395    16333    11762     6180     7589    15289 
   20144    18073    13208     8901     6866     9624    16759    24814 
   31881    38282    43817    46448    44382    39156    33635    27895 
   21328    15662    12679    11975    12078    11561     9211     4991 
     147    -2804    -1013     5013    12305    19029    23990    26989 
   28190    26285    21814    18277    18137    20501    20911    15735 
    8009     3995     4716     5702     3858      -53    -3270    -1755 
    6444    17365    24839    26920    25746    23501    21589    21315 
   22736    24951    28002    31235    31393    26798    19812    12815 
    7561     6523     9099    10975    10259    10262    14823    22351 
   26980    25815    21333    17259    15266    15376    17587    20487 
   20915    18180    14516    11327     9263     9584    12445    15347 
   15222    12910    11593    10034     5849     1517     -568     -136 
    3731    10721    19057    27206    33992    38558    39404    34493 
   24478    13718     5425      -88    -1883     -599       20      -78 
    2215     6180     9431    11430    12659    15127    20458    27759 
   35516    40920    40721    36033    29591    22611    17110    13281 
    9353     6147     5338     7469    12457    18232    22485    25065 
   26447    26892    25370    20428    15239    14434    16998    20531 
   25524    30776    33121    32585    31237    28726    23570    16749 
   10997     7861     8374    12607    16176    15310    12654    10597 
    8002     5543     5021     6100     7421     8667    11804    18883 
   28070    34279    33883    28023    20930    15185    10605     6999 
    3755      293     -427     3950    10490    15685    19125    22562 
   27675    33286    36718    37022    34861    31885    29468    27383 
   24939    20430    12521     4731     1475     1923     3135     3540 
    2942     3732     8754    16555    22639    24043    20756    14872 
    9704     8177    10275    14341    19371    23233    24599    25280 
   25809    25216    24171    22597    19499    16120    14323    14064 
   14457    15281    17377    20622    21662    17976    12491     9418 
    8819     8471     8109     9135    11446    13594    14994    16083 
   17779    20092    21668    22414    22366    20291    18542    20425 
   23016    22546    20049    17031    13320     9506     6633     3936 
     322    -1956     1089     9226    17846    23909    27807    31031 
   34307    35889    32966    25598    17482    13192    13694    15181 
   14564    12461     9378     4727      234    -1315      -66     2196 
    4814     8281    13444    19352    22749    22229    20501    19911 
   19185    17335    15668    14752    14646    16204    19194    21851 
   23112    22950    20353    15136    10237     6795     2675    -1371 
   -2110     1472     8178    15109    19647    21982    22197    19742 
   16980    16745    18713    21450    24752    29186    34265    37676 
   36838    31277    24550    21566    22406    22717    20392    18317 
   20686    28334    36968    40369    36479    27708    17390     9634 
    7343     8786    10245    10476    10020     9530     9838    10024 
    8218     5060     1253    -3683    -7150    -4959     3425    15113 
   26042    33056    36038    35046    28738    19466    12349     9082 
    9147    12786    18639    23368    25914    27967    29770    29043 
   24344    18409    15694    16052    16622    17466    18463    17909 
   16106    13489    10232     7940     6355     3313    -1154    -4924 
   -6696    -6291    -3070     3321    10947    16561    18846    18707 
   17294    16507    19017    25867    34785    41374    43310    41232 
   35599    27588    21250    19964    21914    21798    17210    11551 
    9379    10843    12638    12396    10116     6977     3581      305 
    -681     1013     1853     1896     5921    14676    22993    26007 
   23731    19947    17687    16460    14809    13897    15051    18060 
   23536    29881    32508    31284    30352    30530    29675    28282 
   28114    27705    25132    21281    16874    11375     5743     2433 
    2369     4539     7970    11683    14858    17848    20701    22316 
   22242    20722    17236    11465     5141     1569     2680     7149 
   13091    20626    29127    35228    36365    33694    30486    29191 
   29906    31052    31236    30300    28744    27018    25585    23836 
   20182    14872     9860     6019     3025      416    -2295    -4553 
   -3941     1339     9459    16061    18249    16760    14224    12355 
   11402    11896    16207    25898    37454    45006    46312    42763 
   36907    31087    25910    20824    14944     6817    -2574    -8661 
   -9177    -7491    -6670    -4872    -1077     1370     1190      503 
     143      346     2347     7200    14564    22655    29798    34950 
   37192    35655    30537    24337    19627    16753    15126    14134 
   13525    13808    13825    10965     6632     5188     6808     8288 
    8362     7299     5544     4810     6793    11418    17691    23440 
   24849    20540    14767    13124    17384    25861    35928    44799 
   49680    49692    46340    41309    35434    29250    23713    19130 
   14674    10839     8645     6584     2520    -2993    -8283   -12982 
  -16856   -19606   -20830   -18840   -13283    -5767     2952    12215 
   21290    30159    37998    43619    47050    49058    50082    50278 
   50068    49066    45821    40255    33876    26788    17447     6702 
   -1897    -6766    -8166    -6516    -4708    -5468    -7283    -8364 
   -9667   -12204   -14623   -13744    -8821    -2616     3510    10139 
   16498    21226    24928    28633    31403    32537    32066    29472 
   26071    25413    30116    38685    46466    50384    49374    43478 
   35708    30471    29110    28717    26159    21744    18068    17325 
   19239    21353    21386    18047    11126     1713    -8446   -17935 
  -25762   -30308   -29443   -22264   -10380     2610    13955    23112 
   28697    27926    21193    11664     -175   -14510   -26740   -31488 
  -27695   -16269     1135    21127    39735    54368    64889    71690 
   74021    72267    68230    62529    56456    54204    57963    64164 
   67573    64970    54547    36664    15327    -4864   -22546   -38554 
  -52922   -63966   -70097   -71923   -70800   -66065   -56526   -43076 
  -26451    -6536    12968    26840    36352    44488    49609    52800 
   57567    63689    70447    76591    80080    80455    77592    72479 
   65065    53686    41397    32625    26158    20090    15798    13574 
   11956    10071     7048     3279      326    -1805    -4931   -11053 
  -18570   -24054   -26925   -27189   -25471   -21783   -12531     2411 
   18690    34689    48643    56954    59297    57226    51441    42500 
   30828    19074    12695    14012    19261    23106    22847    18253 
   11434     6852     6859     8987     9724     7525     2108    -6619 
  -17709   -29284   -39284   -44389   -43375   -38742   -31854   -24468 
  -19760   -17513   -15709   -12684    -6274     4078    17471    33193 
   50341    66812    78374    83532    86388    88078    86104    82259 
   78991    76172    74071    71055    64445    54226    41878    29680 
   19276    10342     3905      920    -1996    -7575   -13533   -16360 
  -15045   -12056   -10462   -10948   -13933   -19271   -23581   -24096 
  -22628   -21386   -19530   -17020   -15613   -14985   -14273   -14354 
  -14403   -11073    -2873     6589    14978    29059    51545    71757 
   85627   100291   116029   127392   132686   132488   126287   114257 
   99551    83122    63220    41588    19784    -4071   -29835   -54591 
  -75908   -91642   -98612   -94573   -81514   -63426   -43212   -23882 
   -5882    13802    35288    55044    69270    75458    74703    70410 
   64328    57070    51151    49991    54272    61711    69619    75743 
   77146    70435    52785    23775   -10363   -39127   -57772   -66489 
  -63277   -49772   -33660   -19185    -7734    -2196    -2420    -4446 
   -4651    -1515     3640     7792     9941    11894    13605    12246 
    7476      247   -10493   -22831   -31967   -36867   -39209   -40210 
  -40378   -36660   -22992     2821    35347    64562    84954   101003 
  115203   121091   116724   105642    86907    61379    36331    16544 
    3533     -359     2086     5227     9153    14884    19765    19744 
   12321    -2152   -20006   -32316   -33385   -27858   -19144    -6655 
    5441    13743    19808    22804    19458     9897      131    -2320 
    -713    -4834    -5552    11647    31969    44142    59491    69538 
   63808    51985    34051    10745    -9517   -28051   -44681   -54245 
  -57085   -56602   -52746   -45138   -37169   -29162   -20444   -13024 
   -2809    14520    36299    61435    91730   126575   160633   186702 
  199773   196399   177863   151414   123039    96054    73534    54662 
   35776    17923     4393    -6553   -18171   -29908   -40588   -51388 
  -62202   -68897   -67428   -59412   -50465   -43266   -36180   -27722 
  -17913    -7158     3655    13034    16385     9497    -2075   -10812 
  -15777   -14187    -4508     6510    12624    12631     8149     5447 
   12102    27600    45186    60677    70972    72578    64603    47428 
   23300    -2079   -23557   -38362   -44080   -42508   -39261   -34041 
  -22948    -6139    15176    38589    57984    69137    72108    67421 
   58353    53004    55502    61872    67470    70699    71298    68290 
   59048    41802    17246   -11308   -35008   -44756   -48144   -57440 
  -58402   -40590   -27768   -27093   -19702    -4730    13475    36361 
   55439    63848    64002    59920    56333    55419    53304    47098 
   37568    23941     7572    -6708   -18965   -32785   -47269   -57407 
  -60304   -58788   -56578   -52734   -44812   -33735   -22483   -11998 
   -1462     9424    20133    29462    37717    46873    57460    68918 
   80637    91534   100180   104497   102791    94779    82290    70486 
   62517    55011    44539    31262    15696    -1395   -18375   -33851 
  -46334   -53832   -54801   -49737   -40585   -27403   -10252     7399 
   22640    34009    38322    34774    27173    19713    18410    29267 
   49316    70317    87199    97137    99037    94540    85910    73665 
   57490    38629    19634     3057    -9041   -16387   -21739   -28885 
  -39469   -52624   -66037   -76413   -80996   -78445   -67241   -48085 
  -26026    -4921    15559    36474    56737    73018    81547    81370 
   75890    67854    55831    39293    20799     2600   -12115   -18768 
  -16714   -10115    -3903    -1851    -5103   -10626   -14059   -12442 
   -3958     8670    19104    24562    26017    25150    23959    24984 
   29904    36657    42338    47202    51328    53200    52958    52281 
   52085    51355    48661    44403    38716    30527    20912    11869 
    2603    -7769   -17584   -24449   -25694   -20026    -9687     1619 
    9951    11984     7077    -3676   -17309   -28879   -35932   -38788 
  -36641   -28300   -13943     5361    26498    44662    57316    64178 
   64529    59622    53932    50035    46903    43835    40360    34005 
   22948     8264    -7543   -21615   -32136   -39223   -43288   -45134 
  -46862   -50272   -55129   -58833   -58912   -55406   -48418   -36715 
  -20628    -3173    12922    28008    42529    54507    63249    68598 
   68970    65835    63550    65075    70837    77523    79169    72509 
   58991    41820    24072     8134    -5444   -16783   -24705   -28587 
  -28910   -24997   -16631    -4830     9912    25677    39080    49263 
   58312    67645    75751    79913    78768    71706    57639    37754 
   17232     -121   -14948   -26374   -29856   -23969   -12667    -1955 
    1724    -4399   -16918   -30644   -40901   -44210   -40814   -32803 
  -20842    -5607    10688    27114    44490    60037    68733    69956 
   65298    55686    44354    36424    34784    36819    36772    32365 
   25274    17889    12062     7880     5447     6741    12337    20322 
   28786    36020    40837    43111    42908    40863    37463    31441 
   20838     6196    -7691   -15625   -16006   -10076     -862     8255 
   15193    19327    23027    30201    40625    50283    55988    57209 
   56365    56217    56993    57763    57498    54129    45791    33436 
   19755     5950    -8137   -21439   -31200   -36634   -41163   -47826 
  -55747   -62580   -66038   -64190   -56569   -43637   -26557    -7547 
   12077    32257    51027    65126    73844    77577    75670    69274 
   61755    54908    47353    36950    24082    11079     -529    -9649 
  -14649   -15058   -12036    -6275     1146     7411    11451    14599 
   17406    20411    25800    35601    48671    61587    72758    82004 
   88033    90305    89689    85365    75253    58572    37044    16553 
    3022    -4358    -9372   -12897   -15662   -18186   -17212   -10757 
   -1918     6247    12183    14525    14465    15398    19626    26452 
   32249    33608    29986    22234    11006    -2815   -17541   -30790 
  -40153   -43610   -40517   -31956   -19945    -8232     -946      799 
   -1935    -8201   -16268   -22451   -23388   -18241    -7444     8348 
   27305    45384    58234    64640    65781    62713    56279    47727 
   38341    28259    17586     8697     4513     5256     8050     9359 
    7578     2750    -3829    -9256   -11179    -9235    -3091     7616 
   21071    34467    46188    55948    64010    69644    71761    70254 
   65296    57286    46874    35489    26233    21563    20723    20664 
   18736    14244     7818     1242    -2112     1049    11643    26683 
   40051    47793    51131    51538    48234    42367    35688    27390 
   17364     6211    -5730   -15945   -22885   -28811   -35975   -44453 
  -52955   -59081   -60036   -54437   -43432   -29780   -16104    -3725 
    6970    15694    22683    27642    29100    27566    25770    25952 
   29584    36481    44954    54083    62764    68976    72175    73047 
   71458    67714    63761    61277    60550    61311    63325    65859 
   67140    65231    59071    48827    35962    22080     7619    -7011 
  -20380   -31414   -38980   -41260   -38432   -32857   -26559   -20972 
  -16636   -11754    -3974     5501    12942    16288    15772    13617 
   13043    15619    20937    27779    35208    42383    46717    45335 
   37677    25233    11442      563    -4712    -4221     -188     5567 
   13578    23136    30657    33953    33981    32087    29193    26085 
   22584    18679    14619     9491     2517    -6061   -14569   -19942 
  -20274   -15100    -4837     8068    20189    28671    32053    31250 
   27582    20590    10850     2442     -362     3391    11941    21855 
