Origin Time       2016/04/16 01:25:00
Lat.              32.753
Long.             130.762
Depth. (km)       12
Mag.              7.3
Station Code      NGS012
Station Lat.      32.7884
Station Long.     130.3463
Station Height(m) 99
Record Time       2016/04/16 01:25:14
Sampling Freq(Hz) 100Hz
Duration Time(s)  243
Dir.              N-S
Scale Factor      3920(gal)/6182761
Max. Acc. (gal)   71.919
Last Correction   2016/04/16 01:25:14
Memo.             
[...]
  -10826   -10818   -10902   -10872   -10785   -10831   -10875   -10839 
  -10854   -10869   -10822   -10812   -10856   -10881   -10844   -10808 
  -10870   -10879   -10770   -10821   -10941   -10849   -10789   -10867 
  -10831   -10810   -10897   -10869   -10799   -10841   -10870   -10821 
  -10826   -10908   -10871   -10767   -10834   -10897   -10818   -10829 
  -10901   -10837   -10772   -10849   -10901   -10836   -10832   -10875 
  -10816   -10808   -10884   -10856   -10828   -10872   -10842   -10801 
  -10854   -10887   -10853   -10829   -10836   -10839   -10833   -10853 
  -10871   -10850   -10817   -10836   -10874   -10826   -10820   -10910 
  -10857   -10771   -10861   -10886   -10809   -10868   -10895   -10767 
  -10798   -10939   -10852   -10774   -10905   -10877   -10748   -10853 
  -10924   -10805   -10830   -10910   -10784   -10776   -10948   -10878 
  -10752   -10875   -10911   -10775   -10806   -10919   -10869   -10793 
  -10824   -10859   -10848   -10851   -10868   -10839   -10810   -10858 
  -10866   -10796   -10849   -10923   -10807   -10780   -10909   -10852 
  -10779   -10911   -10899   -10744   -10812   -10926   -10840   -10784 
  -10884   -10885   -10775   -10826   -10909   -10838   -10822   -10869 
  -10820   -10805   -10893   -10892   -10809   -10828   -10870   -10816 
  -10816   -10901   -10876   -10794   -10838   -10873   -10807   -10842 
  -10931   -10847   -10741   -10840   -10922   -10820   -10817   -10922 
  -10832   -10749   -10884   -10905   -10792   -10850   -10917   -10801 
  -10777   -10903   -10898   -10804   -10830   -10876   -10804   -10811 
  -10932   -10867   -10758   -10856   -10883   -10791   -10844   -10927 
  -10837   -10784   -10880   -10852   -10781   -10899   -10908   -10773 
  -10817   -10890   -10833   -10827   -10901   -10864   -10753   -10835 
  -10935   -10817   -10808   -10909   -10823   -10789   -10889   -10867 
  -10818   -10867   -10875   -10797   -10792   -10902   -10890   -10792 
  -10848   -10880   -10788   -10826   -10917   -10843   -10789   -10870 
  -10863   -10785   -10853   -10925   -10832   -10785   -10864   -10865 
  -10820   -10861   -10878   -10816   -10798   -10871   -10887   -10807 
  -10837   -10908   -10812   -10770   -10878   -10894   -10847   -10836 
  -10822   -10825   -10867   -10883   -10823   -10821   -10896   -10830 
  -10753   -10882   -10938   -10803   -10802   -10900   -10828   -10774 
  -10909   -10913   -10765   -10819   -10905   -10805   -10820   -10923 
  -10836   -10773   -10882   -10890   -10790   -10832   -10913   -10831 
  -10770   -10875   -10898   -10810   -10855   -10883   -10784   -10809 
  -10905   -10863   -10814   -10864   -10845   -10786   -10873   -10903 
  -10781   -10829   -10926   -10811   -10773   -10901   -10895   -10801 
  -10825   -10868   -10835   -10827   -10876   -10882   -10803   -10801 
  -10903   -10861   -10782   -10890   -10892   -10757   -10834   -10919 
  -10807   -10813   -10908   -10828   -10774   -10885   -10889   -10811 
  -10866   -10866   -10775   -10844   -10918   -10822   -10799   -10899 
  -10869   -10769   -10842   -10932   -10840   -10767   -10856   -10893 
  -10795   -10825   -10936   -10841   -10751   -10865   -10904   -10818 
  -10833   -10891   -10824   -10781   -10884   -10884   -10801   -10889 
  -10880   -10742   -10859   -10937   -10776   -10820   -10944   -10801 
  -10744   -10918   -10918   -10777   -10829   -10906   -10805   -10793 
  -10923   -10888   -10764   -10829   -10914   -10805   -10788   -10944 
  -10896   -10733   -10821   -10936   -10814   -10789   -10944   -10854 
  -10712   -10891   -10941   -10767   -10833   -10929   -10801   -10778 
  -10886   -10880   -10848   -10859   -10811   -10795   -10887   -10891 
  -10800   -10832   -10884   -10826   -10819   -10875   -10862   -10827 
  -10847   -10853   -10805   -10823   -10905   -10875   -10788   -10822 
  -10889   -10845   -10821   -10898   -10860   -10757   -10848   -10915 
  -10797   -10829   -10923   -10804   -10780   -10900   -10856   -10803 
  -10885   -10878   -10787   -10823   -10903   -10859   -10800   -10847 
  -10874   -10807   -10813   -10909   -10873   -10782   -10855   -10893 
  -10786   -10835   -10941   -10820   -10763   -10909   -10875   -10757 
  -10891   -10956   -10785   -10784   -10898   -10844   -10826   -10907 
  -10852   -10756   -10817   -10888   -10854   -10878   -10969   -10947 
  -10879   -10859   -10748   -10651   -10793   -10928   -10864   -10872 
  -10991   -11027   -11042   -10965   -10676   -10497   -10660   -10944 
  -11085   -11036   -10900   -10754   -10744   -10921   -10933   -10653 
  -10613   -10950   -11028   -10713   -10674   -11090   -11150   -10500 
  -10222   -10865   -11305   -10818   -10147   -10386   -11357   -11718 
  -11169   -10609   -10451   -10484   -10692   -11118   -11161   -10667 
  -10698   -11575   -12096   -11471   -10323    -9874   -10643   -11213 
  -10353    -9962   -11249   -11782   -10785   -10417   -10965   -11276 
  -11071   -10162    -9458   -10373   -11191   -10540   -10818   -12355 
  -12376   -10553    -9419   -10320   -11483   -11093   -10191   -10372 
  -10957   -10828   -10444   -10651   -11617   -12072   -11257   -10983 
  -11495   -10768    -9277    -9420   -11530   -12777   -11292    -9396 
   -9667   -11323   -11678   -10895   -11123   -10715    -9329   -10357 
  -11755   -10279    -9552   -11212   -12126   -11606   -10280    -9562 
  -11188   -12887   -12056   -10570   -11011   -12127   -11111    -9371 
  -10278   -11729   -10383    -9431   -11618   -12542   -10739   -11569 
  -13556   -11134    -9131   -11716   -12227    -8918    -8884   -12386 
  -13801   -12599   -10533    -9186    -9804   -10671   -10943   -10737 
  -10116   -11001   -11773    -9917    -8639    -9653   -10427   -10866 
  -11534   -11158   -10856   -10421    -8246    -7378    -9229   -12231 
  -15395   -15681   -12243    -9357    -9496    -9833    -9177   -10836 
  -13570   -12681   -11299   -12854   -12462    -9341    -8572   -10754 
  -12175   -10652    -9397   -11210   -13128   -12591   -11342   -10811 
   -9847    -9316    -9474    -7725    -7755   -13468   -17827   -15207 
   -9982    -8142   -10266   -11266    -9261    -8396   -10854   -14642 
  -15675   -12554    -8982    -9651   -13341   -13691   -12405   -13853 
  -14034   -10930    -8229   -10231   -13996   -12322    -9558   -10492 
  -11451   -10212    -5192    -3816   -12628   -17266   -11702    -8069 
   -9486   -10492    -5277      168    -9653   -26561   -26725   -12483 
   -7547   -12660    -8974    -1555    -4363   -11643   -15193   -15804 
  -18075   -18629   -11280    -6711   -12297   -14413    -8236    -6979 
  -11652   -10195    -6737   -14524   -25104   -19928    -6653    -4863 
  -10042   -10580    -8685    -8957   -12629   -14762    -9257    -3517 
   -7245   -13806   -15302   -14357   -13821   -15842   -16984    -9728 
    1029     2870    -7163   -18717   -21340   -15625    -9769    -9091 
   -8349    -4579    -3127    -5878   -11774   -18197   -19175   -14672 
  -12150   -11331    -8739    -8926   -11582   -13065   -14588   -15479 
  -14935   -12737   -10015   -10753   -11426    -7521    -7411   -13484 
  -14075    -9068    -5007    -3304   -10957   -20683   -15723    -6373 
   -7535   -13577   -15360   -11940   -10463   -14315   -13036    -3496 
   -2671   -14843   -23013   -20310   -13182    -8352    -8342    -7428 
   -1670     -104    -9778   -19843   -17859   -10709    -8682    -6959 
   -4619    -8720   -14148   -13990   -13934   -20023   -24993   -17887 
   -6651    -2778       68      373   -10496   -20713   -19693   -12738 
   -2521     4195    -1168   -11853   -21743   -30619   -30660   -19464 
  -10398   -11512   -11743    -4077      278    -6016   -15609   -18932 
  -13757    -8177   -10122   -13131    -9170    -5666    -9796   -14150 
  -13230    -8936    -2525    -4429   -17888   -23614   -17738   -13019 
  -11427   -12302   -11193    -4620    -1620    -7848   -17670   -20541 
  -14476   -11852   -16077   -20016   -23259   -21478   -13493   -10483 
  -11073    -9225   -10416   -15033   -17542   -12706    -3453     -919 
   -2415    -5434   -16223   -24683   -21478   -11786    -5644   -11692 
  -17007   -13998   -18500   -21729   -10253    -1702    -3447    -7737 
  -14608   -19255   -15621   -10664    -9463    -5759     -490    -1971 
   -5713    -4878    -9703   -26131   -36691   -29980   -14708     -367 
    3812    -1711    -6183   -12397   -19144   -16967   -15274   -17943 
  -14560   -11015   -11953    -7716    -1140    -1405    -3349      706 
    4087    -4484   -20312   -28758   -27320   -25361   -27256   -25547 
  -12770      607     -751    -8488    -8037    -4326    -7052   -18490 
  -28078   -19000    -1275     3529     1492     1130    -6351   -21659 
  -35476   -40314   -28169    -9710   -11472   -21878   -11797    -1496 
  -17789   -35761   -28836   -15237   -14149   -11125     2003     9881 
    7557     3980     3217    -1055   -10222   -10091    -4383   -12742 
  -23529   -17469    -7026    -6613   -13451   -23008   -28371   -23163 
  -15414   -15919   -14555    -5057    -9253   -22539   -14481     2063 
    5768    11351    20927    12169   -12119   -26652   -30894   -38239 
  -42597   -33885   -17566    -6098    -1165     3044     2125    -7399 
  -15163   -17546   -17581    -4920    15189    15336     4601     9620 
   13790    -2534   -21056   -25750   -25558   -27489   -28255   -24534 
  -13377    -1687    -3101   -15713   -24168   -22659   -15122    -2888 
   -1638   -17951   -17926    -4267   -19742   -45521   -39398   -15094 
   -2035     3796    12578     8513    -7151   -10349    -6756    -9503 
  -13340    -9439     2849     1713   -18386   -30164   -30566   -31725 
  -28994   -21469   -13087    -7369    -7830    -9679    -6775       30 
    3724    -2265    -9297    -4507     1322    -3794   -10096   -12111 
  -16783   -29144   -42614   -43432   -31961   -23346   -22623   -19721 
  -13493   -11167    -7816     2688    11264     9222     1006    -8355 
  -11205    -4864    -4285   -10687   -17592   -26918   -24793   -12171 
  -11742   -18549   -15063    -1124     9345     7427     6151     7790 
   -1328   -12895   -14381    -9261    -5870    -4525    10787    30788 
   22071    -5293   -25698   -33453   -20283     -930     1505    -4780 
   -8156    -3065    10258    16917    11849     3647    -1703     1991 
   13495    21530    16648    -5836   -33032   -41784   -30378   -12852 
   -2001    -1170      498     6695     8907     1580   -17336   -32477 
  -19482     7111    12459      936    -6491   -15065   -29552   -31120 
  -15155    -7721   -18899   -29817   -26962   -15773    -9798   -10429 
  -14349   -21312   -19569   -10350    -6989    -4021     4581    18130 
   24997    10960    -3785    -3725    -3151    -1315     5937     7734 
    2688     1993     9873     7638   -19439   -42503   -35930   -23071 
  -21662   -20634   -13840     -127    13104     9071    -6998   -12136 
   -7776   -15582   -37821   -63373   -79828   -69972   -43924   -27605 
  -16956      236    24165    46355    48281    32856    24433    23558 
   11928    -9021   -13932      349     -932   -22813   -36151   -39445 
  -40857   -40005   -42032   -41801   -39078   -49434   -66822   -63288 
  -36804   -19638   -21142   -15113     3490    14471    12275     3742 
  -13182   -37306   -49718   -44074   -38207   -39813   -39320   -30593 
  -25042   -32777   -38723   -29325    -6239    21733    36934    38938 
   40742    38175    30377    25756    14080   -16552   -49199   -61593 
  -61268   -66464   -70076   -54219   -29671   -24905   -34015   -28529 
  -11463     5439    23221    23323    -1780   -17703    -2828    21722 
   23771     1128   -12664    -3972     1465      -10    10466    21480 
   15388     2314     2493    16120    15958    -3224    -9870     6386 
   19698    11091    -2209      319     7346    11868    18714    15928 
   10016    22611    34260    19072    -3673    -5315     4306     3524 
    3368     9174     2268   -10055    -9318     2962    23738    45228 
   49773    32359    13440    11495     9660    -3752    -3629    14804 
   24213    17337    10319    11914    16891    19039    14141     4000 
    2384    13250    21584    17555     4554    -9957   -18157   -14772 
   -4740    -3538   -15048   -22293   -15816    -5991    -2596    -5848 
  -12410   -15334   -11332    -7507    -1171    19413    46967    56859 
   29566   -17738   -44662   -52977   -63309   -64283   -52156   -38249 
  -20743     3296    27766    33888    19457    17086    33116    38404 
   25562     8876    -3428   -10624   -10386    -5689    -9968   -23345 
  -27411   -12599     9226    18418    14730    15158    16265     6211 
   -1369     4403    14032    18863    16682     9945    -2781   -27885 
  -57683   -72314   -60420   -30251   -10338   -16703   -24092   -14838 
   -8272   -20409   -48891   -76930   -96273  -113530  -112106   -87766 
  -67722   -49075   -24003   -14422   -26286   -43334   -52928   -48989 
  -35156   -23445   -19759   -18744   -12172     3127    18884    23777 
   17831     1566   -26104   -53981   -71052   -76749   -77063   -77281 
  -71105   -58640   -47150   -27796    -2712     5991    -2021    -7118 
   -5870    -6122     2222    31445    65749    80134    75215    69178 
   56624    24500    -7695   -25371   -33650   -30648   -24678   -22418 
  -14127    -6472   -15296   -37449   -52373   -50144   -53856   -75071 
  -89592   -86563   -66209   -27910    -3056    -9933   -15529    -1869 
   14081    15667     2611      450    23814    46360    49100    53588 
   80769   102588    82446    44103    21112     4846    -6508    -5824 
   -3107     2374    18045    30177    24886    14382    18762    33465 
   39102    33893    19961    -8695   -41781   -66931   -87180   -97650 
  -88551   -59635   -20330     1269    -9726   -17458     4671    20779 
    -948   -34399   -47655   -45336   -40649   -35895   -31261   -25836 
  -25797   -41029   -59262   -66613   -73191   -77822   -63587   -35648 
  -13041    -5778   -16158   -36677   -54072   -57638   -41487   -14249 
    8571    18377    10800    -5909   -18922   -35141   -56582   -61565 
  -48376   -37581   -30418   -18345    -2809     7622     6380    -1335 
   -8722   -17405   -27602   -28252   -10351    15314    30721    32248 
   27672    14864    -7651   -20183   -12418     5515    27418    45793 
   50203    38831    15127   -13299   -32025   -32047   -24187   -24012 
  -24203    -4421    28554    41317    22582    -6384   -26135   -35638 
  -44792   -54251   -55544   -49881   -35556   -10682     3829     -756 
   -1496     4302    -7345   -37105   -61637   -64765   -51083   -41223 
  -42151   -44076   -41921   -32646   -20896   -13626    -8941   -13824 
  -28558   -36024   -41344   -55558   -52640   -18177    12353    17054 
   18025    25736    21064     -252   -22758   -39750   -42271   -25330 
  -15442   -29190   -40414   -30544   -15386    -9514    -6465    -3382 
  -10381   -21011   -25390   -33326   -46031   -56075   -57800   -46589 
  -31692   -20732   -14963   -17317   -19452   -11905    -6000   -24690 
  -55993   -55699   -29707   -20280   -17635     5256    33746    45868 
   39089    26489    22976    28356    37024    41506    38099    36877 
   30339     1277   -29750   -38211   -32383   -25434   -30058   -48978 
  -59754   -55906   -52393   -42556   -13435    16737    16487   -11178 
  -32221   -32528   -26443   -32502   -51632   -50038    -3288    52904 
   72944    62159    45962    29260     8397   -14438   -29774   -29568 
  -18619    -2154    20550    45299    62714    65665    53982    31269 
    3675   -12504     -726    27371    42568    37656    27009    23414 
   22328     7359   -21830   -53086   -73717   -69499   -51701   -46400 
  -44641   -25876    -6028   -10695   -33537   -50140   -56690   -68362 
  -78803   -71503   -57686   -48029   -34978   -22003   -16133   -12571 
   -9113    -5807    -2404    -4111    -8332    -3107     9813    18933 
   23939    26110    23067    20703    21726    16992     6122     5772 
   18839    18169    -9520   -26061     8102    59633    67488    38552 
   15041     3995    -7666   -20694   -17919     8142    38525    56073 
   44552     -148   -35228   -34307   -31706   -46550   -53445   -29032 
   12468    24554    -4255   -33324   -42670   -43398   -47075   -63632 
  -78458   -65107   -36205   -21027   -16646    -5727     5597    -3688 
  -35574   -66679   -75799   -69855   -70457   -80873   -86307   -76406 
  -54750   -33345   -23137   -26026   -29983   -20998     -993    15235 
   16944     9122     7630    23016    45912    52726    37005    13614 
   -9257   -28269   -33839   -22542    -1862    16134    21678    15941 
    7150     -401    -8929   -24967   -46521   -56851   -43451   -14139 
    3983    -6191   -26407   -38269   -48126   -62284   -76085   -78081 
  -62029   -33678    -1548    20463    21834     9608    -3428    -8750 
   -5753    -3921   -11065   -18935   -16325   -13325   -21740   -31582 
  -31385   -22637   -15883   -20413   -28463   -30073   -32435   -43941 
  -62048   -71088   -58007   -39947   -35295   -37932   -42381   -43886 
  -39754   -40899   -49314   -52173   -40797   -16854     7142    17136 
   15284    14178    17014    22551    29789    25703    -3253   -46308 
  -72835   -68556   -57369   -64032   -77183   -74320   -51748   -22363 
   -1595     6027     5976     7061    12749    13227     1066   -14597 
  -21292   -17624    -9565    -2607    -3225   -12869   -22586   -28342 
  -36227   -48362   -56133   -51678   -43846   -42828   -41415   -33739 
  -23296   -13679    -8504    -5635    -1928     1234     9638    24306 
   27227     8970   -15728   -35481   -52528   -63498   -63189   -56999 
  -48634   -37603   -29750   -30462   -36587   -37745   -27660   -20921 
  -26808   -20601     5331    19907    16643    15323    16899    16561 
   16492    13991    10814    15832    29512    45369    59687    67623 
   62454    48932    40963    39717    34016    19906     5100    -2588 
   -6786   -13894   -19999   -24444   -36267   -56735   -74086   -74246 
  -54826   -30083   -18995   -28590   -46836   -55424   -48828   -36444 
  -29055   -27062   -24916   -20211   -13782    -7493    -1862     5872 
   20306    41965    60661    64204    56314    50208    48390    47201 
   48092    52791    59695    65177    65537    58722    41108     7219 
  -34761   -56881   -48404   -38408   -50389   -68839   -71515   -61597 
  -56325   -57198   -48701   -28235   -10944    -7536   -14469   -18743 
  -13033    -3797     -624    -6778   -15131   -14509    -8764    -9608 
  -14434   -15772    -9835     4578    16144    20671    30625    39638 
   36243    33531    37532    36790    26924    10036   -12377   -33811 
  -43032   -38694   -31333   -28123   -28157   -27827   -28700   -37480 
  -54025   -65788   -58527   -35649   -16904   -12033   -13617   -11979 
   -1645    12082    14300     3262    -3294     5124    11562     -804 
  -16725   -18907   -14891   -13503   -14816   -17866   -17271    -7556 
    8491    26766    45689    60829    66028    56865    39287    27978 
   26528    28834    31086    32356    34553    32404    19564    11288 
   22308    39125    45274    40160    29271    19514    12957     8873 
   10996    16140    15922    11076     3187    -7506   -15974   -21468 
  -25981   -30179   -37453   -45711   -50230   -53493   -55157   -50662 
  -39995   -24813    -5592    12582    15220    -3329   -25512   -35740 
