Origin Time       2016/04/16 01:25:00
Lat.              32.753
Long.             130.762
Depth. (km)       12
Mag.              7.3
Station Code      NGS015
Station Lat.      33.2558
Station Long.     129.1255
Station Height(m) 58
Record Time       2016/04/16 01:25:37
Sampling Freq(Hz) 100Hz
Duration Time(s)  101
Dir.              N-S
Scale Factor      3920(gal)/6182761
Max. Acc. (gal)   9.921
Last Correction   2016/04/16 01:25:37
Memo.             
[...]
   -1016    -1185    -1601    -1883    -1951    -2101    -2361    -2577 
   -2616    -2297    -1793    -1519    -1431    -1452    -1797    -2096 
   -1577     -404      489      696      419     -156     -965    -1956 
   -2817    -3062    -2790    -2658    -2881    -3081    -3120    -3251 
   -3537    -3743    -3597    -3036    -2323    -1796    -1523    -1259 
    -690       64      284     -451    -1514    -2133    -2377    -2456 
   -2116    -1395    -1025    -1575    -2591    -3031    -2486    -1553 
    -991     -942    -1221    -1749    -2251    -2251    -1737    -1209 
   -1071    -1307    -1535    -1381     -941     -618     -401      112 
     828     1075      728      469      655      816      404     -584 
   -1714    -2544    -2989    -3258    -3398    -3172    -2405    -1237 
    -299     -314    -1103    -1741    -1797    -1561    -1354    -1316 
   -1495    -1749    -1894    -1855    -1649    -1516    -1784    -2356 
   -2760    -2762    -2548    -2330    -2106    -1707     -933       27 
     498       90     -871    -2018    -3288    -4342    -4634    -4165 
   -3265    -2222    -1524    -1349    -1157     -584       52      327 
     215       61       80       80      -32      -35       66       34 
    -149     -394     -643     -667     -356      -72     -294    -1122 
   -2032    -2272    -1948    -2020    -2823    -3632    -3827    -3407 
   -2579    -1742    -1431    -1817    -2447    -2636    -2348    -2100 
   -1828    -1194     -704    -1064    -2004    -2691    -2557    -1541 
    -361      -28     -661    -1677    -2602    -3042    -2970    -2758 
   -2346    -1589    -1142    -1473    -1846    -1496     -776     -463 
    -888    -1766    -2397    -2430    -2171    -1851    -1392     -828 
    -212      249     -164    -1630    -2912    -2994    -2369    -1744 
   -1286    -1219    -1478    -1506    -1210    -1089    -1416    -2049 
   -2664    -3125    -3739    -4417    -4204    -2784    -1221     -399 
    -248     -597    -1183    -1537    -1866    -2573    -3024    -2506 
   -1362     -284      260       90     -467    -1106    -2009    -2976 
   -3143    -2240    -1010     -269     -381    -1156    -1858    -1960 
   -1782    -1924    -2400    -2709    -2464    -1752    -1130    -1219 
   -1993    -2630    -2432    -1590     -719     -148       97      183 
     349      430      -44     -999    -1859    -2451    -3027    -3632 
   -3857    -3141    -1577     -161      206     -271     -752     -993 
   -1326    -1804    -2258    -2552    -2285    -1233     -136      131 
    -287     -834    -1358    -1786    -2013    -2046    -1906    -1784 
   -1864    -1836    -1529    -1428    -1559    -1363    -1171    -1662 
   -2270    -2303    -2202    -2317    -2376    -2282    -2085    -1919 
   -2175    -2742    -2904    -2690    -2744    -2935    -2850    -2655 
   -2440    -2220    -2359    -2826    -3002    -2648    -2060    -1432 
    -846     -461     -318     -291     -106      413      822      475 
    -479    -1307    -1576    -1358     -855     -305     -123     -527 
   -1177    -1595    -1657    -1708    -2123    -2727    -3120    -3172 
   -2852    -2189    -1583    -1583    -2089    -2404    -2297    -1987 
   -1447     -823     -617     -932    -1371    -1682    -1979    -2375 
   -2764    -3028    -3180    -3147    -2643    -1687    -1084    -1492 
   -2349    -2754    -2558    -2004    -1323     -743     -346      -68 
     277      743      895      288     -849    -1946    -2815    -3387 
   -3243    -2251    -1105     -585     -757    -1227    -1750    -2218 
   -2525    -2816    -3241    -3449    -2985    -1958    -1010     -810 
   -1469    -2363    -2744    -2518    -2176    -2100    -2269    -2468 
   -2551    -2482    -2192    -1675    -1114     -652     -329     -193 
    -221     -383     -700     -982     -879     -484     -387     -803 
   -1374    -1858    -2204    -2431    -2691    -2881    -2665    -2163 
   -1815    -1680    -1629    -1718    -1876    -1943    -2010    -2020 
   -1675    -1110     -732     -572     -513     -527     -503     -527 
    -827    -1182    -1226    -1073     -937     -748     -514     -444 
    -634    -1029    -1482    -1734    -1579    -1119     -807    -1045 
   -1504    -1343     -350      705     1072      751      140     -367 
    -548     -529     -554     -650     -874    -1453    -2390    -3268 
   -3555    -2999    -1885     -973     -889    -1499    -2142    -2397 
   -2363    -2398    -2613    -2698    -2476    -2221    -2217    -2475 
   -2787    -2772    -2280    -1801    -1837    -2061    -1908    -1506 
   -1314    -1461    -1688    -1570    -1157    -1086    -1634    -2362 
   -2829    -2944    -2828    -2717    -2636    -2208    -1354     -774 
    -970    -1495    -1720    -1560    -1290    -1284    -1838    -2710 
   -3126    -2813    -2350    -2073    -1738    -1324    -1226    -1745 
   -2597    -2921    -2279    -1339     -947    -1271    -2131    -3041 
   -3072    -1857     -400       52     -670    -1891    -2760    -2731 
   -1935     -759      452     1047      720      244      234      242 
     -88     -505     -883    -1206    -1272     -890      -52      760 
     678     -440    -1738    -2657    -3246    -3304    -2727    -2095 
   -2019    -2577    -3345    -3627    -3101    -2170    -1485    -1307 
   -1474    -1691    -1673    -1436    -1340    -1601    -2095    -2468 
   -2384    -2030    -1897    -1947    -1832    -1622    -1554    -1661 
   -2012    -2589    -3033    -3071    -2855    -2761    -2999    -3248 
   -2988    -2326    -1799    -1611    -1800    -2452    -3200    -3348 
   -2702    -1732    -1021     -810     -977    -1366    -1911    -2464 
   -2812    -2973    -3188    -3466    -3502    -3227    -2857    -2355 
   -1783    -1692    -2085    -2162    -1705    -1127     -595     -254 
    -253     -400     -681    -1264    -1841    -2055    -2059    -2013 
   -1823    -1554    -1385    -1202     -868     -586     -542     -727 
   -1177    -1797    -2181    -2046    -1598    -1165     -841     -883 
   -1593    -2547    -3073    -3129    -2810    -2085    -1396    -1354 
   -2043    -3172    -4224    -4538    -3933    -2928    -2123    -1647 
   -1345    -1233    -1383    -1555    -1472    -1217    -1001     -906 
    -988    -1217    -1418    -1515    -1477    -1176     -717     -470 
    -542     -789    -1162    -1493    -1384     -766     -124      165 
     274      319       53     -465     -862    -1123    -1369    -1429 
   -1323    -1530    -2236    -2905    -2919    -2217    -1305     -930 
   -1600    -3132    -4611    -4959    -3723    -1588      -91     -110 
    -912    -1525    -1960    -2270    -2057    -1415     -910     -769 
   -1029    -1763    -2580    -2746    -2109    -1367    -1369    -2246 
   -3143    -3080    -2084     -849      156      462     -327    -1664 
   -2537    -2683    -2370    -1811    -1400    -1547    -2163    -2684 
   -2568    -2046    -1989    -2600    -3173    -3316    -3271    -3104 
   -2680    -2251    -2228    -2625    -3035    -2988    -2471    -2007 
   -1972    -2218    -2462    -2336    -1360      221     1290     1142 
     124    -1039    -1748    -1551     -455      756     1120      390 
    -788    -1428    -1143     -589     -582    -1180    -1989    -2633 
   -2727    -2214    -1610    -1349    -1453    -1914    -2634    -3163 
   -3012    -2168    -1154     -608     -793    -1317    -1420     -915 
    -372     -287     -751    -1517    -2003    -1831    -1415    -1404 
   -1706    -1806    -1683    -1626    -1802    -2330    -3025    -3376 
   -3137    -2393    -1369     -644     -739    -1327    -1804    -2153 
   -2423    -2329    -1928    -1559    -1267    -1009     -813     -684 
    -766    -1035    -1138    -1141    -1525    -2226    -2789    -3146 
   -3257    -2901    -2389    -2391    -3035    -3816    -4121    -3705 
   -2868    -2048    -1445    -1194    -1364    -1668    -1640    -1137 
    -530     -264     -391     -690     -931     -965     -867     -840 
    -873     -695     -199      187      -55     -840    -1749    -2518 
   -2744    -1951     -442      797     1131      599     -414    -1346 
   -1773    -1667    -1279    -1118    -1682    -2723    -3266    -2625 
   -1145      162      415     -610    -2126    -2853    -2459    -1695 
   -1156     -968    -1251    -1856    -2198    -2143    -2147    -2246 
   -2204    -2134    -1962    -1418     -808     -666    -1115    -2000 
   -2828    -2910    -2219    -1383     -816     -747    -1414    -2429 
   -2905    -2634    -2208    -2015    -2017    -2188    -2501    -2735 
   -2545    -1815     -932     -431     -513     -993    -1465    -1636 
   -1567    -1533    -1699    -1801    -1370     -509      -14     -399 
   -1378    -2394    -3020    -3032    -2627    -2224    -1959    -1753 
   -1548    -1226     -758     -434     -596    -1272    -2132    -2624 
   -2339    -1496     -731     -343     -363     -983    -2050    -2876 
   -3045    -2658    -2031    -1691    -1948    -2444    -2731    -2790 
   -2643    -2227    -1778    -1593    -1586    -1639    -1832    -2050 
   -2099    -2116    -2263    -2335    -2219    -2138    -2099    -1877 
   -1512    -1216    -1058     -978     -830     -560     -466     -780 
   -1198    -1395    -1373    -1000     -181      598      777      413 
     -99     -502     -777     -961     -969     -818     -680     -475 
     111     1073     1900     2083     1560      497     -728    -1466 
   -1486    -1277    -1311    -1559    -1780    -1803    -1538    -1025 
    -484     -198     -221     -172      184      307     -252     -910 
   -1094    -1231    -1687    -1988    -1711    -1150     -920    -1206 
   -1514    -1427    -1232    -1333    -1621    -1915    -2354    -2902 
   -3074    -2541    -1689    -1338    -1889    -2854    -3493    -3728 
   -4079    -4935    -6069    -6807    -6692    -5834    -4730    -3878 
   -3414    -3271    -3547    -4203    -4758    -4743    -4260    -3802 
   -3709    -3958    -4274    -4351    -4145    -3941    -3999    -4139 
   -3887    -3140    -2332    -1774    -1378    -1131    -1220    -1534 
   -1607    -1310    -1047    -1128    -1363    -1296     -766     -101 
     400      597      267     -499    -1130    -1227     -915     -555 
    -516     -990    -1674    -1948    -1609    -1094     -874     -931 
    -932     -571       77      489      412      117     -350    -1068 
   -1515    -1084       77     1338     2098     1918      986      197 
     163      718     1449     1947     1927     1575     1262     1039 
     935     1071     1325     1566     1920     2352     2560     2361 
    1662      468     -765    -1496    -1788    -1962    -2089    -2159 
   -2018    -1325     -100     1105     1650     1211       55    -1138 
   -1950    -2358    -2420    -2292    -2274    -2489    -2617    -2181 
   -1106      130      880      779      -82    -1347    -2644    -3670 
   -4320    -4765    -5145    -5364    -5325    -5036    -4498    -3860 
   -3572    -3889    -4298    -4085    -3377    -2858    -2727    -2694 
   -2620    -2519    -2175    -1227      218     1393     1660     1175 
     456     -388    -1478    -2503    -2989    -2879    -2288    -1402 
    -828    -1027    -1539    -1780    -1842    -1789    -1438    -1096 
   -1163    -1482    -1813    -1931    -1427     -506        7      105 
     548     1405     2250     2988     3350     2936     2034     1286 
    1008     1257     1866     2397     2413     1865     1199      911 
     969      917      442     -335     -941     -920     -325      286 
     417       27     -528     -708     -165      770     1333     1265 
     902      392     -334     -983    -1058     -474      387     1014 
    1000      304     -606    -1161    -1271    -1281    -1366    -1378 
   -1318    -1338    -1337    -1131     -709     -185       27     -597 
   -1852    -2904    -3269    -2911    -2000    -1165     -940     -964 
    -813     -836    -1278    -1821    -2380    -3143    -3990    -4535 
   -4375    -3492    -2551    -2358    -3225    -4953    -6817    -7656 
   -6879    -5274    -4151    -4087    -4919    -6156    -7115    -7270 
   -6680    -5804    -4960    -4293    -3980    -4041    -4233    -4314 
   -4343    -4536    -4786    -4712    -4225    -3599    -2994    -2256 
   -1324     -585     -459     -854    -1374    -1914    -2653    -3596 
   -4436    -4762    -4312    -3254    -2159    -1532    -1498    -1839 
   -2153    -2262    -2380    -2537    -2364    -1852    -1550    -1677 
   -1956    -2250    -2451    -2338    -1985    -1679    -1469    -1176 
    -726     -247      184      653     1158     1463     1397     1184 
    1110     1174     1247     1089      438     -483    -1022     -855 
    -328       23      -68     -540    -1072    -1351    -1260     -799 
    -282     -318    -1048    -2019    -2956    -3830    -4498    -5169 
   -6240    -7254    -7367    -6705    -6186    -6517    -7747    -9166 
   -9681    -8840    -7238    -5796    -5133    -5461    -6496    -7618 
   -8261    -8138    -7463    -7060    -7636    -9027   -10506   -11236 
  -10630    -9166    -8188    -8467    -9661   -10878   -11232   -10410 
   -8855    -7225    -6070    -5813    -6390    -7166    -7488    -7079 
   -6117    -5181    -4694    -4283    -3357    -2065     -973     -340 
     -64      144      323       37     -956    -2205    -3091    -3400 
   -3381    -3543    -4094    -4586    -4494    -3729    -2435     -786 
    1025     2868     4663     6192     7169     7658     8245     9589 
   11682    13546    13997    12764    10485     7957     5803     4280 
    3167     2267     1834     2251     3678     5934     8321     9877 
   10207     9803     9376     9148     8989     8895     9015     9303 
    9316     8582     7113     5363     3904     3309     3914     5239 
    6096     5804     4747     3685     3238     3723     4795     5514 
    5294     4570     4166     4316     4536     4229     3251     1823 
     149    -1489    -2641    -3170    -3363    -3415    -3404    -3529 
   -3711    -3491    -2687    -1875    -2188    -4318    -7456    -9765 
  -10154    -9040    -7576    -6815    -7147    -7964    -8413    -8351 
   -8071    -7839    -8034    -8942   -10447   -12206   -13715   -14376 
  -13952   -12832   -11776   -11325   -11325   -11224   -10787   -10184 
   -9673    -9538   -10048   -11032   -11583   -10652    -8153    -5050 
   -2382     -799     -544    -1147    -1635    -1475     -771      139 
     849     1238     1608     2068     2413     2532     2331     1797 
    1473     2144     3863     5760     6906     7023     6311     5185 
    4261     3999     4354     5079     6038     7065     8000     8994 
   10228    11310    11606    11088    10286     9728     9597     9506 
    8820     7614     6871     7340     8703     9968    10305     9677 
    8857     8654     9179    10006    10450     9795     8219     6905 
    6550     6650     6311     4966     2639      100    -1556    -1740 
    -606     1080     2098     1566     -323    -2654    -4377    -4740 
   -3918    -3000    -2904    -3654    -4878    -6255    -7261    -7397 
   -6893    -6568    -7068    -8355    -9686   -10214    -9787    -8967 
   -8222    -7617    -7174    -6761    -6013    -4955    -4103    -3736 
   -3712    -4019    -4770    -5740    -6487    -6781    -6846    -7264 
   -8332    -9723   -10943   -11599   -11450   -10762   -10217   -10275 
  -10847   -11360   -11142   -10062    -8709    -7939    -8314    -9606 
  -10829   -11157   -10591    -9529    -8304    -7422    -7529    -8635 
   -9855   -10361   -10117    -9558    -9153    -9254   -10011   -11350 
  -12689   -13078   -12209   -10697    -9296    -8396    -7954    -7710 
   -7437    -6901    -6022    -5028    -4032    -3014    -2284    -2238 
   -2896    -3778    -3966    -2870    -1047      371      896      933 
    1181     2148     3672     4765     4745     4069     3386     3006 
    3449     5039     7170     8739     8843     7276     5018     3565 
    3395     3806     3995     3671     3205     3376     4420     5540 
    5831     5206     4079     2827     1823     1355     1419     1879 
    2547     2974     2696     1932     1374     1171      831     -153 
   -1957    -4166    -5930    -6688    -6531    -5959    -5481    -5324 
   -5330    -5161    -4859    -4881    -5304    -5657    -5704    -5832 
   -6629    -8100    -9421    -9788    -9142    -7951    -6921    -6867 
   -8182   -10241   -11701   -11661   -10362    -8752    -7768    -7880 
   -8890    -9985   -10172    -9129    -7533    -6217    -5486    -5486 
   -6245    -7230    -7841    -8157    -8584    -9194    -9819   -10342 
  -10671   -10772   -10788   -10891   -11094   -11281   -11291   -11016 
  -10616   -10313    -9952    -9204    -7928    -6219    -4485    -3328 
   -3052    -3276    -3106    -1925      -51     1586     2355     2207 
    1371      236     -635     -625      479     1975     2632     1811 
      56    -1430    -1790     -918      762     2495     3475     3497 
    3216     3457     4493     6036     7422     7933     7388     6289 
    5265     4647     4418     4359     4484     5038     5693     5533 
    4359     3059     2510     3038     4483     6046     6679     5898 
    3969     1794      512      578     1453     2261     2283     1160 
    -723    -2231    -2413    -1443     -377      -76     -506     -927 
    -688      168     1078     1503     1230      280    -1235    -2937 
   -4079    -4104    -3330    -2853    -3539    -5144    -6472    -6362 
   -4761    -2911    -2296    -3341    -5171    -6516    -6725    -6006 
   -4989    -4188    -3858    -4058    -4603    -5051    -4995    -4362 
   -3395    -2560    -2410    -3077    -3988    -4397    -3980    -2824 
   -1267      201     1287     2046     2534     2787     3030     3303 
    3319     2972     2422     1824     1439     1594     2164     2415 
    1664      -82    -2082    -3317    -3387    -2940    -2851    -3429 
   -4581    -6005    -7073    -7142    -5935    -3538     -665     1354 
    1746     1054      329        2     -293    -1084    -2457    -3860 
   -4540    -4406    -4172    -4461    -5134    -5517    -5070    -4080 
   -3465    -3545    -3725    -3507    -2928    -2163    -1430     -840 
     -79      975     1635     1204     -105    -1501    -2526    -3447 
   -4839    -6760    -8338    -8554    -7533    -6385    -5958    -6359 
   -7134    -7544    -7114    -5951    -4478    -3125    -2219    -1894 
   -2148    -3098    -4825    -6825    -8179    -8484    -8229    -8162 
   -8548    -9130    -9687   -10131    -9998    -8613    -6015    -3137 
   -1053     -312     -741    -1668    -2499    -3178    -4105    -5571 
   -7140    -7841    -7331    -6235    -5200    -4432    -3981    -3836 
   -3928    -4215    -4531    -4430    -3553    -2164    -1041     -835 
   -1646    -3049    -4286    -4539    -3353    -1060     1183     2115 
    1326     -467    -1909    -1833      -60     2519     4606     5262 
    4419     2744     1107      317      792     2165     3456     3811 
    3167     2239     1947     2750     4293     5597     5832     5043 
    4028     3526     3689     4086     4036     3162     1724      321 
    -525     -646     -460     -666    -1440    -2293    -2801    -2983 
   -3074    -3252    -3242    -2441     -850      746     1610     1438 
     317    -1310    -3062    -4680    -5527    -5092    -4012    -3534 
