Origin Time       2016/04/16 01:25:00
Lat.              32.753
Long.             130.762
Depth. (km)       12
Mag.              7.3
Station Code      NGS020
Station Lat.      34.6609
Station Long.     129.4594
Station Height(m) 10
Record Time       2016/04/16 01:25:47
Sampling Freq(Hz) 100Hz
Duration Time(s)  106
Dir.              E-W
Scale Factor      3920(gal)/6182761
Max. Acc. (gal)   4.780
Last Correction   2016/04/16 01:25:47
Memo.             
[...]
    5164     5192     5207     5177     5144     5088     4976     4870 
    4814     4839     4993     5265     5543     5671     5575     5277 
    4898     4579     4407     4435     4649     4954     5228     5358 
    5297     5086     4842     4672     4619     4694     4810     4849 
    4814     4786     4868     5083     5305     5428     5414     5292 
    5154     5066     5070     5172     5317     5441     5478     5370 
    5119     4860     4736     4768     4904     5028     5040     4942 
    4794     4676     4658     4761     4938     5121     5244     5229 
    5067     4839     4627     4485     4452     4568     4824     5154 
    5459     5609     5497     5137     4688     4397     4439     4777 
    5200     5471     5469     5271     5075     5022     5107     5222 
    5271     5218     5074     4866     4686     4651     4740     4884 
    5000     4986     4926     4929     4983     5029     4958     4721 
    4407     4197     4229     4427     4619     4728     4743     4696 
    4671     4725     4831     4922     4966     4953     4842     4633 
    4429     4334     4437     4739     5088     5324     5361     5226 
    5015     4769     4508     4314     4281     4429     4665     4819 
    4813     4723     4684     4763     4929     5116     5257     5294 
    5192     4960     4691     4524     4543     4732     4978     5154 
    5206     5169     5110     5061     4979     4767     4391     3971 
    3709     3706     3953     4374     4779     5005     5030     4855 
    4563     4355     4334     4455     4646     4786     4805     4816 
    4921     5059     5154     5189     5137     5023     4932     4895 
    4965     5136     5280     5303     5151     4832     4491     4330 
    4448     4755     5083     5280     5295     5206     5120     5063 
    5003     4934     4882     4847     4794     4715     4659     4637 
    4683     4867     5143     5330     5263     4937     4499     4109 
    3876     3867     4101     4502     4919     5193     5250     5152 
    5044     5041     5123     5179     5185     5174     5173     5207 
    5246     5266     5330     5480     5665     5805     5865     5803 
    5587     5282     5003     4837     4784     4764     4756     4756 
    4712     4675     4743     4934     5210     5495     5648     5546 
    5240     4886     4634     4602     4753     4954     5107     5119 
    4989     4896     5006     5289     5614     5826     5795     5523 
    5110     4709     4502     4517     4676     4909     5086     5083 
    4938     4781     4701     4725     4852     5047     5221     5281 
    5188     4979     4778     4691     4756     4908     4989     4968 
    4915     4849     4782     4718     4695     4789     5005     5289 
    5549     5684     5619     5379     5107     4884     4709     4647 
    4725     4872     5059     5223     5278     5233     5091     4875 
    4665     4492     4432     4617     4981     5348     5648     5758 
    5602     5290     4928     4641     4545     4617     4787     4989 
    5162     5200     5022     4738     4533     4505     4684     4968 
    5180     5200     4956     4541     4179     4034     4144     4403 
    4688     4958     5149     5199     5108     4938     4792     4733 
    4753     4848     5009     5178     5337     5491     5587     5572 
    5444     5267     5132     5095     5144     5185     5127     4982 
    4809     4674     4631     4694     4816     4855     4703     4386 
    4033     3863     4011     4367     4686     4753     4530     4211 
    4032     4047     4192     4389     4520     4578     4644     4731 
    4828     4895     4836     4618     4311     4051     3952     4056 
    4347     4709     4981     5089     5060     4988     4913     4800 
    4669     4497     4268     4154     4241     4456     4706     4873 
    4929     4925     4938     5097     5381     5637     5751     5654 
    5430     5291     5379     5710     6085     6181     5866     5306 
    4766     4485     4592     4984     5421     5675     5630     5364 
    5036     4782     4708     4764     4796     4770     4737     4742 
    4837     4982     5067     5053     4980     4887     4830     4926 
    5194     5483     5595     5454     5149     4796     4507     4417 
    4519     4672     4790     4861     4932     5097     5387     5653 
    5710     5541     5227     4933     4782     4712     4685     4750 
    4889     5036     5147     5228     5301     5350     5302     5114 
    4848     4621     4529     4637     4929     5258     5469     5504 
    5372     5138     4913     4771     4765     4953     5273     5529 
    5584     5421     5110     4788     4562     4477     4539     4676 
    4801     4898     4949     4938     4896     4832     4750     4658 
    4573     4558     4613     4689     4778     4869     4966     5054 
    5070     5016     4947     4862     4757     4624     4463     4340 
    4290     4284     4315     4400     4565     4801     5006     5053 
    4926     4698     4456     4298     4337     4631     5075     5428 
    5504     5295     4938     4622     4495     4581     4794     5026 
    5164     5188     5183     5183     5157     5050     4815     4548 
    4428     4540     4858     5250     5532     5580     5385     5067 
    4797     4724     4893     5229     5581     5737     5567     5144 
    4647     4254     4074     4141     4414     4771     5093     5299 
    5360     5295     5179     5143     5244     5378     5455     5516 
    5586     5603     5523     5324     5024     4729     4580     4620 
    4790     5046     5341     5615     5827     5919     5849     5614 
    5250     4890     4658     4559     4595     4773     5015     5200 
    5250     5203     5137     5087     5072     5018     4806     4473 
    4207     4176     4432     4867     5298     5595     5678     5554 
    5337     5106     4907     4847     4955     5125     5247     5235 
    5077     4906     4918     5190     5599     5900     5947     5772 
    5466     5108     4759     4469     4263     4174     4259     4514 
    4860     5182     5354     5318     5125     4883     4741     4813 
    5089     5442     5643     5532     5192     4829     4600     4569 
    4738     5048     5343     5473     5384     5101     4782     4589 
    4493     4409     4337     4266     4177     4103     4098     4179 
    4309     4425     4517     4604     4656     4646     4595     4538 
    4494     4475     4508     4614     4795     5008     5203     5339 
    5380     5350     5333     5429     5636     5817     5884     5841 
    5714     5559     5423     5304     5173     5045     4999     5030 
    5047     5015     4931     4806     4659     4540     4527     4639 
    4841     5100     5336     5450     5401     5231     5071     5025 
    5029     4990     4884     4715     4557     4551     4748     5044 
    5287     5341     5152     4792     4404     4116     3980     4011 
    4161     4342     4526     4715     4905     5081     5174     5136 
    5011     4935     4995     5151     5337     5468     5494     5424 
    5261     5071     5036     5295     5763     6175     6289     6034 
    5574     5147     4881     4833     4968     5128     5180     5084 
    4851     4599     4512     4678     5054     5461     5645     5490 
    5091     4650     4369     4295     4318     4345     4346     4334 
    4339     4409     4633     5024     5418     5629     5624     5530 
    5509     5635     5856     6065     6180     6139     5975     5799 
    5637     5477     5403     5474     5594     5646     5577     5373 
    5088     4786     4486     4255     4161     4167     4228     4334 
    4448     4559     4632     4572     4379     4134     3929     3913 
    4177     4641     5143     5525     5659     5545     5303     5074 
    4956     4902     4824     4698     4511     4360     4395     4671 
    5191     5771     6131     6161     5888     5476     5189     5209 
    5499     5797     5880     5697     5290     4817     4482     4382 
    4528     4842     5174     5395     5476     5447     5358     5271 
    5205     5124     5007     4843     4609     4332     4095     3952 
    3973     4197     4520     4830     5075     5204     5220     5171 
    5095     4995     4831     4609     4400     4346     4522     4829 
    5175     5448     5541     5541     5603     5794     6080     6313 
    6308     5935     5265     4576     4156     4188     4635     5223 
    5656     5755     5509     5084     4669     4365     4223     4261 
    4443     4670     4822     4818     4603     4221     3882     3804 
    4100     4703     5362     5821     5927     5681     5217     4688 
    4292     4218     4456     4840     5249     5638     5953     6118 
    6082     5868     5568     5289     5142     5180     5341     5506 
    5604     5638     5637     5683     5847     6075     6254     6286 
    6141     5889     5631     5446     5401     5561     5894     6248 
    6481     6551     6456     6144     5586     4898     4306     4009 
    4070     4387     4767     4993     4985     4870     4829     5007 
    5425     5874     6114     6055     5742     5346     5031     4917 
    5117     5590     6119     6442     6364     5906     5255     4610 
    4148     3993     4155     4522     4910     5143     5074     4646 
    4009     3423     3110     3213     3683     4269     4675     4715 
    4408     3942     3494     3168     3063     3169     3356     3555 
    3787     4113     4603     5233     5848     6208     6112     5590 
    4897     4302     3953     3847     3887     3940     3930     3900 
    3909     3944     3970     3932     3806     3677     3699     3964 
    4383     4784     5064     5157     5109     5062     5061     5055 
    4985     4765     4356     3871     3516     3450     3691     4161 
    4715     5153     5347     5275     5076     4955     4944     4939 
    4837     4616     4335     4066     3922     3958     4160     4539 
    4987     5344     5549     5548     5374     5235     5332     5662 
    6082     6469     6708     6681     6381     5904     5401     5050 
    4950     5093     5435     5872     6268     6551     6702     6690 
    6497     6227     6099     6223     6514     6773     6819     6612 
    6224     5819     5619     5735     6105     6535     6764     6606 
    6106     5481     4970     4788     5034     5567     6107     6452 
    6540     6435     6271     6174     6205     6331     6492     6622 
    6694     6750     6748     6543     6059     5319     4499     3895 
    3714     3974     4502     5002     5250     5187     4867     4396 
    3901     3483     3174     3001     2973     3080     3297     3568 
    3901     4354     4911     5534     6133     6540     6607     6316 
    5856     5511     5476     5750     6067     6134     5939     5637 
    5419     5437     5712     6196     6745     7053     6761     5769 
    4452     3361     2926     3384     4615     6146     7423     7961 
    7481     6073     4156     2342     1156      761     1009     1583 
    2130     2408     2409     2317     2255     2297     2555     2950 
    3286     3555     3854     4239     4730     5231     5572     5624 
    5346     4872     4486     4371     4520     4859     5245     5460 
    5346     4820     3962     3150     2761     2877     3343     3892 
    4361     4857     5575     6540     7599     8473     8846     8534 
    7588     6311     5245     4961     5661     7066     8570     9554 
    9721     9065     7805     6493     5738     5825     6651     7812 
    8771     9111     8746     7955     7168     6718     6727     7095 
    7564     7802     7552     6823     5937     5253     4866     4715 
    4730     4808     4863     4868     4854     4863     4898     4949 
    4944     4791     4493     4028     3325     2431     1552      981 
    1001     1716     3009     4588     6078     7140     7487     6967 
    5731     4216     2939     2301     2509     3562     5113     6531 
    7219     6895     5806     4547     3576     3007     2687     2356 
    1834     1122      378     -176     -284      238     1241     2314 
    3108     3399     3107     2302     1194      214     -177      207 
    1288     2819     4355     5375     5640     5299     4685     4077 
    3603     3414     3712     4460     5355     6089     6435     6294 
    5892     5718     6131     7178     8592     9879    10537    10191 
    8724     6509     4328     2916     2622     3388     4832     6350 
    7386     7737     7553     7137     6774     6613     6657     6855 
    7069     7055     6673     6111     5755     5806     6255     7070 
    7994     8479     8103     6859     5195     3820     3262     3628 
    4710     6099     7250     7771     7608     6928     6016     5106 
    4264     3484     2764     2116     1618     1395     1524     2015 
    2904     4280     6053     7741     8701     8515     7211     5279 
    3500     2640     3053     4497     6337     7803     8374     8133 
    7586     7243     7375     7976     8808     9473     9590     9063 
    8144     7237     6682     6630     6941     7269     7341     7185 
    6945     6560     5840     4797     3761     3152     3191     3750 
    4405     4741     4590     3946     2952     1871      932      319 
     152      418      963     1535     1903     1959     1709     1236 
     632       57     -297     -327      -74      244      369      146 
    -490    -1411    -2244    -2629    -2410    -1587     -359      898 
    1731     1781     1111      145     -704    -1029     -405     1304 
    3724     6128     7770     8090     6883     4517     1924      125 
    -421       61     1130     2438     3700     4703     5317     5501 
    5319     4842     4165     3540     3153     2929     2707     2391 
    1948     1368      680       63     -222     -110      201      513 
     762      933     1043     1221     1624     2231     2854     3289 
    3397     3164     2730     2423     2642     3507     4779     6020 
    6775     6825     6252     5375     4697     4575     4985     5642 
    6206     6375     5990     5233     4601     4478     4852     5450 
    6011     6449     6801     7079     7237     7177     6781     5992 
    5002     4294     4379     5397     6960     8345     8948     8666 
    7823     6875     6275     6271     6736     7374     7957     8378 
    8542     8321     7711     6913     6272     6076     6337     6867 
    7353     7386     6676     5282     3625     2299     1804     2236 
    3178     4092     4743     5156     5433     5675     6002     6524 
    7235     7985     8524     8580     8072     7236     6493     6169 
    6327     6876     7726     8682     9421     9699     9436     8694 
    7664     6640     5916     5635     5793     6299     6925     7362 
    7404     7072     6578     6151     5818     5377     4638     3606 
    2511     1736     1564     1968     2582     2922     2742     2117 
    1376      969     1165     1910     2908     3767     4169     3966 
    3267     2491     2136     2404     3165     4155     5040     5456 
    5171     4230     3032     2170     2001     2461     3191     3716 
    3719     3248     2684     2455     2712     3272     3750     3819 
    3423     2824     2454     2598     3304     4453     5714     6659 
    7004     6702     5945     5059     4317     3930     4035     4525 
    5062     5398     5505     5447     5394     5534     5898     6451 
    7080     7581     7835     7775     7284     6279     4776     3022 
    1479      579      575     1476     2915     4194     4710     4286 
    3056     1364     -259    -1340    -1614    -1056       42     1190 
    1933     2081     1823     1559     1610     2102     3028     4295 
    5685     6855     7446     7350     6807     6271     6289     7059 
    8114     8749     8458     7155     5382     3972     3420     3688 
    4393     5162     5798     6174     6138     5655     4995     4554 
    4419     4286     3857     3198     2598     2221     2019     1944 
    2112     2615     3339     4091     4666     4867     4606     4026 
    3443     3060     2881     2873     3030     3337     3771     4267 
    4662     4808     4665     4291     3876     3671     3807     4250 
    4817     5235     5346     5206     4873     4297     3450     2446 
    1648     1493     2128     3348     4657     5485     5613     5179 
    4450     3731     3238     2951     2731     2631     2809     3240 
    3768     4184     4275     3978     3519     3285     3454     3890 
    4334     4531     4387     4013     3625     3470     3719     4303 
    4886     5140     5064     4906     4917     5234     5708     6000 
    5992     5894     5984     6384     7022     7678     8070     8030 
    7590     6923     6352     6228     6565     7022     7209     6916 
    6247     5551     5202     5418     6072     6827     7391     7525 
    7061     6016     4690     3537     2816     2566     2762     3363 
    4256     5184     5817     5905     5429     4652     3936     3522 
    3550     4054     4802     5343     5302     4617     3623     2863 
    2768     3503     4912     6537     7825     8447     8343     7589 
    6459     5400     4842     5010     5751     6669     7387     7607 
    7268     6608     5978     5696     5971     6805     7861     8613 
    8762     8309     7399     6242     5067     4144     3750     4013 
    4768     5630     6211     6252     5703     4798     3982     3747 
    4355     5560     6745     7395     7353     6788     6026     5362 
    4919     4623     4392     4170     3827     3331     2839     2471 
    2129     1577      694     -428    -1496    -2079    -1892     -972 
     405     1805     2780     3159     3087     2705     2152     1710 
    1593     1811     2237     2735     3241     3680     4009     4310 
    4657     5035     5399     5743     6075     6340     6467     6409 
    6140     5747     5465     5485     5826     6373     7016     7654 
    8056     8013     7477     6522     5419     4524     4064     4099 
    4476     4938     5321     5584     5790     6010     6242     6363 
    6175     5611     4833     4112     3640     3423     3354     3395 
    3600     3914     4185     4304     4219     4022     3904     3973 
    4216     4562     4987     5487     5950     6231     6309     6262 
    6166     6019     5799     5428     4786     3949     3161     2563 
    2245     2286     2633     3078     3300     3071     2434     1626 
    1024     1053     1839     3000     3975     4412     4187     3419 
    2524     1993     2113     2926     4188     5348     5847     5442 
    4331     3131     2463     2544     3232     4104     4637     4573 
    3973     3013     1936     1046      586      631     1063     1625 
    2008     1935     1361      595       -5     -296     -235      198 
    1008     2116     3291     4293     5015     5427     5512     5295 
    4913     4503     4138     3881     3717     3607     3548     3499 
    3464     3505     3631     3785     3841     3684     3313     2784 
    2201     1777     1728     2056     2624     3395     4307     5157 
    5749     5972     5812     5283     4397     3289     2245     1595 
    1509     1896     2572     3363     4083     4555     4663     4467 
