Origin Time       2016/04/16 01:25:00
Lat.              32.753
Long.             130.762
Depth. (km)       12
Mag.              7.3
Station Code      NGS021
Station Lat.      34.3973
Station Long.     129.3240
Station Height(m) 17
Record Time       2016/04/16 01:25:51
Sampling Freq(Hz) 100Hz
Duration Time(s)  103
Dir.              N-S
Scale Factor      3920(gal)/6182761
Max. Acc. (gal)   6.271
Last Correction   2016/04/16 01:25:52
Memo.             
[...]
    4511     4204     3929     3711     3569     3550     3647     3813 
    3899     3728     3345     3022     3019     3343     3737     3941 
    3917     3854     3967     4215     4334     4170     3864     3729 
    3912     4253     4567     4793     4866     4790     4602     4279 
    3962     3864     3965     4101     4068     3753     3290     2868 
    2605     2595     2869     3391     3973     4339     4395     4194 
    3807     3362     2986     2828     3034     3555     4140     4467 
    4370     3970     3472     3053     2852     2943     3380     4056 
    4622     4753     4371     3669     3028     2794     3101     3776 
    4450     4839     4816     4419     3929     3636     3623     3831 
    4086     4218     4174     4008     3903     3983     4177     4352 
    4380     4221     3927     3599     3416     3463     3638     3854 
    4038     4086     4036     4000     3994     3954     3797     3435 
    2938     2639     2822     3456     4236     4698     4546     3925 
    3232     2795     2749     3057     3618     4258     4746     4928 
    4765     4389     4120     4191     4489     4666     4460     4003 
    3679     3628     3743     3970     4284     4599     4822     4822 
    4539     4117     3737     3463     3339     3497     4012     4660 
    5033     4869     4271     3719     3677     4164     4908     5593 
    5869     5527     4678     3688     3021     2982     3560     4474 
    5219     5359     4907     4190     3564     3336     3619     4213 
    4766     4980     4729     4139     3573     3395     3686     4267 
    4899     5362     5472     5151     4504     3849     3580     3849 
    4457     5056     5319     5081     4516     3990     3714     3689 
    3851     4095     4332     4521     4567     4388     4079     3799 
    3602     3502     3465     3408     3316     3225     3174     3258 
    3545     3943     4281     4478     4567     4597     4559     4468 
    4326     4057     3720     3497     3465     3637     3965     4245 
    4335     4254     4080     3894     3687     3460     3430     3802 
    4412     4841     4756     4223     3734     3697     4000     4320 
    4585     4896     5207     5242     4787     4047     3541     3630 
    4245     4938     5250     5069     4515     3802     3259     3212 
    3829     4948     6066     6641     6420     5597     4683     4117 
    4086     4564     5312     5944     6091     5552     4445     3214 
    2388     2312     2958     3916     4659     4860     4564     4089 
    3639     3239     2957     2928     3218     3745     4296     4643 
    4648     4321     3817     3387     3243     3456     3955     4529 
    4897     4845     4339     3546     2779     2432     2798     3719 
    4620     4935     4441     3360     2221     1629     2005     3297 
    4900     5937     5839     4750     3328     2311     2182     2940 
    4164     5193     5434     4784     3676     2757     2564     3214 
    4345     5351     5716     5316     4453     3591     3131     3278 
    3975     4895     5552     5524     4778     3723     2941     2857 
    3477     4391     5072     5182     4691     3773     2729     2038 
    2107     2915     4059     4943     5044     4312     3173     2149 
    1655     1901     2690     3567     4186     4357     4038     3403 
    2734     2351     2546     3303     4219     4779     4692     4055 
    3222     2602     2499     2951     3769     4670     5321     5474 
    5123     4485     3875     3581     3701     4056     4323     4332 
    4147     3912     3759     3771     3906     4037     4094     4086 
    4048     3983     3804     3431     2982     2692     2657     2826 
    3177     3719     4377     4958     5234     5111     4730     4328 
    4081     4071     4277     4573     4810     4854     4584     4025 
    3403     2975     2875     3126     3616     4105     4377     4314 
    3854     3120     2513     2395     2791     3506     4312     5038 
    5537     5595     5088     4262     3603     3448     3764     4237 
    4551     4558     4228     3626     3001     2767     3252     4410 
    5753     6675     6875     6409     5501     4505     3858     3827 
    4334     4976     5306     5212     4980     4936     5112     5341 
    5481     5440     5168     4714     4264     4096     4386     4950 
    5277     5007     4318     3690     3482     3692     3999     4135 
    4091     3889     3586     3340     3265     3421     3709     3745 
    3288     2552     2002     2032     2651     3444     4017     4265 
    4179     3754     3147     2689     2630     2954     3394     3638 
    3592     3442     3489     3905     4603     5344     5898     6100 
    5871     5267     4504     3901     3683     3863     4264     4624 
    4794     4827     4818     4796     4792     4794     4733     4645 
    4659     4830     5143     5521     5764     5691     5329     4899 
    4671     4758     5011     5181     5104     4784     4351     3926 
    3647     3716     4190     4821     5237     5215     4788     4285 
    4114     4341     4711     5020     5176     5086     4723     4188 
    3731     3696     4286     5331     6288     6600     6090     4999 
    3783     2905     2559     2652     2997     3333     3405     3222 
    3035     3053     3288     3574     3637     3271     2545     1785 
    1342     1442     2114     3182     4335     5231     5549     5118 
    4155     3184     2652     2704     3215     3896     4445     4669 
    4536     4160     3790     3789     4368     5276     5986     6182 
    5949     5654     5666     5968     6209     6219     6151     6182 
    6368     6657     6969     7294     7573     7544     6978     5930 
    4677     3626     3092     2996     2948     2624     1962     1142 
     452      119      225      665     1186     1517     1470     1009 
     373      -59     -111      173      748     1606     2658     3580 
    3944     3676     3114     2588     2283     2274     2493     2821 
    3110     3138     2874     2571     2440     2560     2922     3267 
    3274     2989     2757     2871     3407     4156     4785     5117 
    5143     4939     4668     4633     5170     6293     7509     8163 
    7923     6971     5942     5538     5925     6641     7028     6578 
    5203     3398     2002     1700     2663     4378     5809     5976 
    4598     2257       10    -1181     -865      747     2969     5008 
    6249     6496     6097     5758     6149     7476     9190    10239 
    9862     8116     5697     3483     2194     2248     3662     5832 
    7582     7873     6514     4241     2271     1494     1933     2983 
    3841     3917     3238     2256     1465     1239     1614     2295 
    2925     3202     3014     2478     1814     1381     1652     2861 
    4641     6060     6258     5208     3679     2533     2217     2710 
    3770     5113     6272     6647     5991     4703     3588     3180 
    3225     3037     2282     1257      654     1072     2568     4563 
    6181     6694     5804     3861     1807      580      571     1537 
    2754     3354     2906     1857     1186     1557     2907     4576 
    5700     5770     4907     3590     2281     1367     1146     1718 
    2922     4243     4953     4673     3689     2702     2463     3477 
    5698     8462    10815    11932    11412     9517     7193     5496 
    4958     5517     6661     7545     7421     6232     4701     3759 
    3860     4738     5718     6288     6316     5738     4488     3001 
    2186     2579     3967     5648     6718     6614     5615     4506 
    3834     3640     3815     4401     5474     6904     8246     8873 
    8417     7019     5066     3012     1511     1272     2567     4857 
    6993     7936     7342     5617     3573     1947     1221     1543 
    2357     2653     1872      228    -1418    -1973     -981     1031 
    3060     4253     4267     3432     2693     2939     4196     5763 
    6778     6563     5105     3276     2270     2857     4956     7525 
    9098     8773     6654     3683     1171      -20       12      562 
     928      799      428      425     1261     2953     4983     6410 
    6541     5536     4178     3437     4058     6060     8681    10853 
   11760    11187     9575     7856     6950     7169     8130     9138 
    9615     9342     8373     6953     5613     5055     5707     7306 
    8790     8893     7144     4224     1453     -100     -189      695 
    1851     2872     3707     4294     4486     4256     3652     2846 
    2287     2371     3058     3965     4467     3991     2576      785 
    -726    -1332     -553     1668     4690     7438     9102     9333 
    8150     6062     3930     2585     2510     3621     5489     7670 
    9745    11346    12185    12083    11258    10384    10105    10557 
   11275    11548    11002     9845     8591     7684     7353     7612 
    8272     8979     9305     8958     7922     6361     4444     2243 
     -99    -2123    -3209    -3069    -2007     -708      254      790 
    1226     1862     2628     3190     3182     2424     1149     -120 
   -1026    -1537    -1633    -1163     -134     1146     2193     2627 
    2479     2096     1700     1272      843      615      802     1505 
    2585     3586     3931     3258     1795      437      267     1928 
    5148     8553    10367     9600     6493     2218    -1660    -3909 
   -3959    -1880     1427     4437     5845     5261     3389     1609 
    1062     1907     3331     4316     4335     3396     1867      349 
    -549     -356     1104     3270     4739     4320     2216     -308 
   -2132    -2923    -3031    -2950    -2873    -2830    -2820    -2659 
   -2175    -1398     -458      284      331     -460    -1769    -2902 
   -2996    -1695      383     2176     3054     3080     2798     2812 
    3214     3611     3712     3566     3369     3317     3587     4321 
    5464     6611     7216     6912     5788     4583     4184     4806 
    5990     7109     7590     7165     6166     5262     4915     5062 
    5215     4870     3900     2693     1827     1547     1717     2180 
    3066     4576     6263     7022     5994     3171     -559    -3830 
   -5602    -5541    -3781     -850     2285     4567     5325     4704 
    3666     3157     3381     3880     3859     2805     1067     -516 
   -1278     -955      267     1924     3569     4773     5096     4444 
    3397     2860     3268     4285     5239     5526     4837     3285 
    1215     -779    -1743     -978     1466     4918     8137     9761 
    9283     7300     4989     3557     3690     5171     6979     7811 
    6779     4041     1009     -497      277     2630     5221     6803 
    6532     4256      702    -2761    -4785    -4700    -2668      631 
    4153     6592     6962     5250     2445       28     -786      421 
    3208     6444     8656     8732     6616     3480     1127      831 
    2540     5111     7140     7626     6294     3815     1711     1419 
    3187     6150     9095    10910    11054     9866     8183     6817 
    6218     6338     6834     7358     7725     7935     8030     8083 
    8158     8099     7767     7275     6659     5847     4941     4089 
    3345     2766     2341     1854     1128      235     -623    -1079 
    -803       28      915     1569     2088     2756     3573     4075 
    3885     3238     2689     2327     1703      574     -647    -1188 
    -496     1362     3653     5251     5282     3809     1755      196 
    -360     -130      425      970     1306     1299      794     -103 
    -717     -313     1119     2824     3999     4379     4118     3458 
    2549     1554      915     1074     2023     3327     4330     4534 
    3923     2880     1941     1337      953      930     1577     2777 
    3967     4540     4324     3722     3267     3186     3374     3623 
    3873     4270     5014     6075     7143     7981     8574     8936 
    8936     8439     7654     7105     7124     7520     7726     7355 
    6652     6295     6702     7527     7964     7542     6506     5545 
    5235     5672     6614     7727     8620     8882     8245     6826 
    5246     4320     4560     5924     7859     9628    10741    11042 
   10523     9410     8166     7103     6234     5502     4890     4408 
    4103     4099     4626     5824     7415     8706     9039     8164 
    6239     3768     1603      662     1417     3551     6067     7911 
    8526     7827     6097     4016     2375     1716     2183     3434 
    4738     5488     5504     4869     3839     2839     2171     1875 
    1871     1917     1658      961       51     -555     -265     1114 
    3135     4981     5887     5522     4091     2091      168     -963 
    -973     -143      978     1897     2413     2545     2195     1285 
     111     -763     -858      -71     1293     2867     4345     5382 
    5713     5351     4706     4579     5641     7731     9863    10997 
   10709     9355     7768     6759     6728     7514     8531     9250 
    9516     9363     8705     7414     5765     4494     4192     4910 
    6231     7504     8216     8154     7292     5896     4508     3677 
    3750     4680     5929     6758     6617     5409     3704     2502 
    2400     3238     4486     5469     5500     4316     2350      546 
     -92      835     2705     4290     4673     3702     1808     -157 
   -1164     -579     1386     3680     4858     3895      941    -2678 
   -5312    -5880    -4296    -1528      954     2051     1499     -183 
   -1921    -2669    -2087     -567     1219     2569     2955     2295 
     947     -440    -1092     -562      843     2277     2987     2726 
    1748      580     -254     -515     -186      735     2006     3000 
    3102     2133      500    -1025    -1743    -1434     -434      730 
    1651     2034     1733      933      207      125      771     1643 
    1942     1185     -201    -1129     -775      856     3023     4774 
    5553     5358     4493     3486     3034     3524     4582     5383 
    5459     5020     4513     4119     3776     3567     3744     4327 
    5013     5535     5947     6474     7100     7495     7393     6880 
    6356     6274     6825     7723     8434     8684     8463     7788 
    6807     5795     4993     4706     5310     6817     8703    10259 
   10881    10250     8598     6656     5118     4197     3744     3536 
    3403     3367     3569     3967     4312     4438     4345     4040 
    3572     3227     3432     4393     5835     7072     7451     6880 
    5828     4882     4367     4168     3949     3595     3341     3589 
    4532     5746     6482     6335     5276     3497     1508      -33 
    -654     -268      762     1887     2662     2924     2943     3172 
    3676     3952     3406     2079      754      237      750     1979 
    3433     4572     4823     3989     2528     1238      826     1491 
    2732     3853     4549     4849     4858     4803     5057     5858 
    7043     8079     8376     7738     6564     5510     4924     4732 
    4776     4972     5305     5807     6353     6729     6892     6863 
    6604     6117     5499     4982     4810     4964     5181     5241 
    5144     4968     4697     4316     3973     3931     4289     4829 
    5225     5275     4941     4391     3902     3687     3774     3968 
    4032     3961     3969     4213     4549     4605     4147     3333 
    2575     2229     2386     2897     3619     4468     5213     5570 
    5495     5185     4996     5195     5631     5970     6195     6486 
    6832     7077     7116     6894     6455     6046     5830     5582 
    5024     4115     2980     1927     1259      955      859     1055 
    1737     2813     3844     4449     4682     4801     4887     4852 
    4543     3943     3300     2926     2970     3384     3909     4228 
    4282     4334     4574     4878     5121     5303     5285     4816 
    3771     2265      715     -435    -1008     -985     -506       63 
     419      546      688     1107     1804     2591     3224     3455 
    3253     2896     2739     2882     3050     2908     2478     2196 
    2473     3177     3920     4571     5013     4934     4068     2527 
    1010      469     1413     3469     5498     6425     5913     4284 
    2385     1314     1716     3460     5771     7448     7546     6087 
    3994     2472     2299     3488     5505     7588     8938     8955 
    7613     5587     3838     3093     3502     4628     5851     6708 
    7047     6998     6611     5838     4922     4367     4518     5219 
    5920     6216     6160     6016     5906     5858     6053     6658 
    7441     7869     7559     6500     5161     4278     4129     4525 
    5322     6180     6641     6564     5827     4466     3101     2481 
    2991     4400     5835     6465     6098     5079     3977     3329 
    3401     4087     5020     5731     5823     5248     4368     3712 
    3740     4648     6129     7444     7995     7741     7023     6273 
    5893     6073     6673     7366     7789     7743     7423     7241 
    7377     7749     8258     8786     9111     9082     8813     8534 
    8402     8474     8588     8500     8223     7925     7594     7074 
    6278     5338     4675     4656     5134     5637     5834     5669 
    5251     4668     3893     3014     2430     2576     3454     4484 
    4986     4789     4282     3952     3946     4079     4112     3992 
    3878     3850     3779     3608     3482     3571     3937     4342 
    4304     3629     2631     1803     1543     1999     2961     3940 
    4438     4287     3715     3155     3010     3383     4000     4489 
    4562     4002     2791     1272       88     -152      743     2273 
    3448     3654     3060     2112     1294     1081     1675     2824 
    3903     4311     3843     2762     1675     1160     1403     2231 
    3180     3737     3819     3690     3555     3566     3787     4142 
    4542     4863     5023     5164     5498     6071     6692     7045 
    6976     6572     5949     5160     4380     3977     4254     5076 
    5935     6358     6139     5396     4476     3705     3360     3695 
    4706     6002     6921     6892     5910     4627     3870     4009 
    4791     5666     6161     6083     5479     4522     3635     3330 
    3745     4614     5395     5417     4471     3028     1723     1049 
    1226     2069     3118     3768     3605     2747     1675      982 
    1125     1980     3022     3860     4209     3890     3060     2083 
    1268      831      881     1286     1835     2456     3024     3338 
    3268     2805     2211     1855     1910     2291     2637     2683 
    2533     2322     2078     1846     1769     2080     2829     3682 
    4142     3832     2747     1401      473      368     1092     2192 
    3070     3351     2851     1664      259     -696     -643      447 
    2091     3585     4330     4270     3803     3350     3208     3486 
    4065     4617     4816     4700     4527     4341     4091     3894 
    3921     4283     4818     5024     4713     4122     3399     2745 
    2377     2329     2785     3802     4854     5265     4698     3438 
    2256     1714     1925     2817     4065     5278     6247     6690 
    6515     6211     6230     6504     6760     6753     6419     5965 
