Origin Time       2016/04/16 01:25:00
Lat.              32.753
Long.             130.762
Depth. (km)       12
Mag.              7.3
Station Code      NGS001
Station Lat.      33.3616
Station Long.     129.5383
Station Height(m) 135
Record Time       2016/04/16 01:25:29
Sampling Freq(Hz) 100Hz
Duration Time(s)  193
Dir.              N-S
Scale Factor      3920(gal)/6182761
Max. Acc. (gal)   44.972
Last Correction   2016/04/16 01:25:29
Memo.             
[...]
    7592     8339     9711    11464    13704    16582    19614    21804 
   22733    22804    22138    20091    16252    11354     6706     3017 
     313    -1339    -1686     -506     2189     5641     8588    10701 
   12776    15070    16739    17251    17304    17839    18726    19118 
   18584    17315    15634    13704    11666     9846     8719     8583 
    8999     8968     8222     7522     7312     7247     7280     8026 
    9747    11666    12660    12440    11949    12398    13802    15026 
   15281    14727    13694    11914     8903     5174     2206      865 
     846     1882     4426     8594    13171    16664    18854    20123 
   20061    18228    15374    12526     9879     7543     5866     4433 
    2517      564     -179     1079     4277     8576    13044    17296 
   20765    22154    20825    17933    15264    13749    13454    13999 
   14707    14688    13242    10751     8457     7102     6699     7093 
    7885     8648     9523    10821    12331    13646    14599    15011 
   14708    13779    12381    10744     9405     8586     7667     6161 
    4564     3463     3037     3772     6018     9037    11769    13832 
   15314    16419    17211    17472    17151    16527    15700    14537 
   12963    10951     8756     7036     6133     5750     5602     5536 
    5357     5517     7093    10256    13822    16618    18353    19314 
   19945    20593    21286    21580    20705    18335    15053    11707 
    8860     7045     6716     7672     9012     9806     9662     8632 
    6873     4694     2744     1870     2518     4327     6649     9402 
   12982    17226    20936    22698    21831    18691    14653    11292 
    9036     7302     5864     4799     3778     2944     3532     6409 
   10763    14698    16702    16560    15044    13075    11424    10632 
   10622    10856    11136    11434    11300    10332     8467     5853 
    3393     2446     3464     6188    10590    15960    20031    20841 
   18870    16020    13341    10912     9027     8256     8500     8936 
    9226     9704    10366    10981    11735    12639    12952    12066 
   10378     8705     7678     7941     9788    12670    15729    18293 
   19748    19812    18933    17651    15930    13777    11737    10343 
    9709     9547     9298     8512     7362     6564     6455     6632 
    6710     6644     6695     7549     9605    12151    13972    14480 
   14022    13507    13686    14440    14871    14290    12811    10882 
    8816     6843     5216     4217     3990     4276     4617     4850 
    5238     6345     8762    12527    16878    20696    23007    23429 
   22245    19825    16718    14151    13171    13596    14428    14378 
   12279     8237     4005     1433      966     2051     4343     7719 
   11677    15244    17203    16965    15369    13851    13047    12648 
   12062    11059    10085     9937    10761    11457    10771     8974 
    7447     6675     5917     4796     3944     4139     5632     8237 
   11641    15474    19033    21222    21478    20531    19566    19125 
   19026    18701    17690    16072    14466    13649    13729    13887 
   13383    12151    10512     8943     7648     6575     5970     5974 
    6221     6636     7675     9619    12142    14269    15035    14442 
   13188    11769    10635    10349    10944    11842    12502    12855 
   13293    13962    14314    14196    14490    15566    16335    15641 
   13533    10914     8732     7594     7745     9164    11544    13821 
   14384    12756    10318     8741     8565     9322    10270    11071 
   12021    13301    14261    14222    13601    13250    13071    12465 
   11574    10945    10684    10763    11297    12181    13294    14827 
   16553    17481    17166    16293    15494    14761    13792    12318 
   10309     7785     4908     2234      198    -1000     -875      771 
    3381     6628    10828    15891    20605    23282    23232    21344 
   18799    16056    13667    12326    11450     9739     7343     5746 
    5812     7091     8825    10632    12099    12893    13529    14666 
   15780    16183    16495    17243    17512    16450    14697    13623 
   13877    14924    15763    15789    14964    13511    11693     9722 
    7679     5790     4776     5005     5651     6056     6861     8795 
   11716    14962    17755    19574    20252    19756    18264    16088 
   13402    10408     7430     4669     2329      883      748     1884 
    3911     6243     8511    10979    13790    16580    19354    22304 
   24876    25951    24551    20649    15548    10813     7070     4329 
    2777     2749     4211     6691     9782    13198    16247    17906 
   17406    14614    10305     6003     3085     2078     2805     4792 
    7304     9503    10953    11802    12533    13624    15138    16678 
   17658    17475    16011    14047    12553    11610    10379     8389 
    6418     5498     5815     6947     8318     9356     9645     9147 
    8462     8485     9627    11642    14002    16130    17226    16553 
   14417    11909     9715     8143     7600     8463    10747    13817 
   16911    19846    22206    22596    20212    16282    12771    10382 
    8646     7283     6382     5652     4700     3756     3359     3781 
    5225     7892    11335    14446    16590    17979    18760    18715 
   17719    15748    12946     9737     6544     4152     3762     5427 
    7478     8247     7497     6133     5318     6019     8655    12503 
   15942    17637    17148    15100    13146    12654    13238    13511 
   12891    11751    10491     9285     8278     7625     7371     7342 
    7353     7292     7044     6866     7535     9378    11490    12809 
   13630    15053    17422    20146    22227    22577    20764    17508 
   13952    10670     7688     5109     3233     2155     1867     2554 
    4310     6846     9437    11184    11793    11789    11940    13069 
   15684    19066    21619    22414    21570    19662    17469    15690 
   14578    14141    14307    14263    12296     7544     1447    -3430 
   -5424    -4443    -1229     3696     9855    16157    21307    24303 
   24611    22636    19596    16494    13635    11122     8969     6766 
    4254     2131     1454     2508     4852     8045    11614    14857 
   17402    19247    20121    19782    18566    16876    14818    12647 
   10746     9257     8117     7161     6194     5260     4650     4568 
    5135     6490     8461    10664    12987    15005    15708    15004 
   14160    14053    14279    13965    12547    10035     7008     4589 
    4142     6235    10106    14417    18165    20886    22212    21573 
   18831    14826    10699     7034     4104     2318     1740     1761 
    1976     2660     4041     5813     7419     8500     9117     9418 
    9517    10140    12282    15638    18676    20222    19998    18016 
   14483    10371     7086     5201     4414     4480     5046     5546 
    6226     7907    10490    13043    14979    16265    16956    16958 
   16250    15027    13445    11592     9822     8808     8947     9933 
   11264    12631    13593    13669    12659    10474     7540     5391 
    5477     7480     9936    11892    12990    13051    12571    12560 
   13332    14155    14047    12202     8491     4493     2644     3756 
    6897    11199    16048    20151    21852    20546    17286    13594 
   10249     7594     6055     5933     7234     9635    12253    14027 
   14876    15650    16836    18463    20446    21975    21949    20296 
   17659    14332    10535     6809     3574     1243      403     1209 
    3349     6377     9706    13025    16463    19832    22432    23821 
   24171    23669    22051    19311    16363    13936    11651     9117 
    6699     4755     3420     2827     2786     2932     3290     4023 
    5134     6769     9285    12831    16845    20277    22454    23039 
   21742    18965    15704    12473     9321     6662     5158     4873 
    4921     4326     3462     3666     5288     7780    10960    14445 
   17403    19407    20268    19868    18496    16572    14498    12824 
   11811    11151    10416     9329     7966     6872     6287     5997 
    6373     7991    10247    11600    10939     8605     6106     4231 
    2375      294    -1169    -1306      -63     2345     5665     9709 
   13967    17499    19901    21495    22396    22515    22038    21098 
   19499    17196    14638    12263    10064     8200     7326     7565 
    8034     8017     7832     8080     8855     9977    11263    12403 
   13069    13153    12668    11524     9946     8857     9014    10217 
   11810    13212    14077    14361    14070    13353    12793    12715 
   12573    11927    11352    11663    12802    13931    14408    14244 
   13524    12138    10484     9698    10708    13612    17931    22771 
   26820    28726    27970    25047    20428    14454     8415     3954 
    1291     -541    -2146    -3287    -3423    -2438     -643     2082 
    6166    11193    15673    18142    18259    16645    14145    11658 
    9987     9452     9778    10464    11142    11496    11360    10905 
   10139     8927     7895     7919     8870     9986    10920    11785 
   12649    13593    14917    16586    17978    18548    18092    16725 
   15077    13714    12589    11717    11355    11249    10971    10798 
   11246    12246    13159    13206    12097    10502     9660    10238 
   11625    12508    12059    10524     8638     6768     4926     3230 
    1856      719     -336    -1111    -1384    -1272     -666      966 
    3931     8029    12745    17402    21513    25173    28696    31909 
   34351    35778    35855    34171    31033    27177    22725    17857 
   13594    10398     7775     5729     4515     3926     3831     3941 
    3388     1692     -508    -2128    -2542    -1840     -755     -131 
     167     1294     3910     7481    11146    14475    17451    20012 
   21722    22136    21264    19406    16790    13598    10333     8094 
    8004     9945    12451    14465    16199    17488    17176    14815 
   11137     7047     3187     -211    -3161    -5236    -5520    -3399 
     794     5913    10673    14327    16772    18162    18871    19690 
   21315    23384    24429    23424    21088    18665    16186    13286 
   10270     7456     5107     3820     3589     3432     2923     2839 
    3513     3929     3110     1461      384      735     1944     3146 
    4444     6233     8515    11239    14335    17588    20755    23542 
   25610    26646    26656    26168    25444    23853    20881    17149 
   13725    11031     9037     8015     8268     9437    10748    11648 
   12051    12118    11749    10559     8547     6331     4469     3030 
    1727      150    -1460    -1924     -321     3105     7057     9806 
   10534    10057     9845    11205    15181    21655    28674    33795 
   36032    35778    33416    29240    24147    19256    14971    10803 
    6244     1728    -1412    -1927      285     3905     7107     8893 
    9474     9554     9841    11021    13375    16502    19736    22499 
   24400    25382    25528    24782    23024    20467    17884    16168 
   15696    16095    16546    16463    15535    13399    10218     7329 
    6445     8135    11619    15751    19353    21392    21566    20177 
   17651    14326    10370     6243     2847      827      564     2623 
    7173    13382    20031    26249    31449    35288    37844    39039 
   38392    35932    32205    27452    21945    16324    10904     5473 
     -13    -5172    -9653   -13144   -14852   -13784    -9823    -3736 
    3363     9896    14669    17992    20811    23685    26625    28992 
   30323    30711    29875    27383    23242    17434    10339     3377 
   -2032    -5282    -6179    -4769    -1488     3000     7937    12550 
   16493    19914    22677    24169    23927    21749    17876    13185 
    8592     4844     2375      650    -1123    -2617    -2982    -2260 
    -979      883     3453     6376     9358    12271    15005    18078 
   22355    27714    32765    36071    37303    36960    35305    32271 
   28168    23562    18717    13809     8950     3768    -2201    -8742 
  -14953   -19943   -23498   -25826   -26756   -25627   -21867   -15574 
   -7683      420     7483    12528    15422    17513    19972    22433 
   24401    26002    27188    27571    26925    25330    22837    19665 
   16647    14670    13894    13973    14359    14207    12838    10231 
    6406      962    -6033   -13285   -19052   -22309   -23046   -21949 
  -20014   -17950   -15699   -12871    -9184    -4294     2260    10952 
   21956    34716    47960    59553    66599    66947    60160    46961 
   29474    11011    -6054   -20650   -31961   -39664   -43866   -45029 
  -43999   -40735   -34529   -25318   -13304      903    15819    29741 
   40912    48008    51064    50514    46653    40923    34860    28010 
   19828    10866     1007    -8881   -16278   -19705   -18887   -14697 
   -8444     -808     7419    15993    24824    33042    39916    44864 
   46961    44717    37062    24463     8255    -9501   -25782   -37130 
  -40961   -37262   -27881   -14648      322    14348    26047    35478 
   42229    46120    48124    48755    47647    44203    37545    27461 
   15182     1014   -15316   -30670   -42122   -50037   -53953   -53818 
  -50281   -42730   -31957   -19104    -5007     8181    18726    25948 
   29844    30653    28499    24685    20828    16926    12429     7311 
    1554    -4811   -11335   -17163   -21401   -23325   -21958   -16006 
   -4964    10330    28592    48038    65568    77649    82278    79974 
   72562    61302    47126    31106    14210    -1905   -15608   -26095 
  -31956   -32664   -29569   -23660   -15698    -6226     4398    15281 
   25676    34344    40066    42714    42710    40614    36006    28178 
   17994     7022    -3621   -12874   -19531   -22613   -21249   -15168 
   -5557     6045    18520    30545    41005    48834    52400    51333 
   47116    40897    32928    23395    13127     3621    -4000    -9046 
  -10519    -7712    -1224     7248    15726    23041    29442    35521 
   41276    46536    50937    53307    52334    47820    40618    32353 
   25177    20317    17557    16338    16115    16379    16302    14862 
   12651    11698    13200    16939    21796    26505    30698    34410 
   37372    39288    39480    37202    32721    27153    21257    14961 
    8399     2514    -1735    -3790    -3308     -283     4641    10089 
   15087    19823    24101    26705    26704    24254    20573    17164 
   15257    15193    15562    14471    11032     5231    -1572    -7044 
   -9732    -9246    -5958    -1058     4724    11604    19330    26823 
   33081    37237    38690    37844    35329    31075    25237    18726 
   12742     8177     4878     2147     -409    -2880    -4420    -3673 
    -569     4412    11659    21163    31308    39450    43358    42714 
   38667    32219    24567    17820    13397    10404     6862     1622 
   -5485   -13873   -22308   -29411   -33841   -34689   -31503   -23693 
  -11542     2605    15930    26899    34907    39465    39504    34176 
   25024    15675     9165     5767     3673     1982      909      115 
    -528     -220     1553     4058     5973     6486     5195     2036 
   -2211    -6663   -11043   -14565   -15651   -13627    -9592    -5300 
   -1097     4295    11123    17673    22254    23717    21339    15529 
    7236    -2513   -12126   -19924   -24661   -25657   -23576   -19986 
  -15774   -11269    -6878    -2730     1444     6062    11760    19193 
   27885    36176    42631    46586    47930    46861    43486    37849 
   30438    22315    14743     8380     3060    -1398    -5346    -9354 
  -13070   -15261   -15121   -12817    -8576    -2020     6961    17410 
   27521    35269    39346    39691    36737    30632    21419     9494 
   -3936   -17060   -28337   -36699   -41007   -40511   -35849   -28471 
  -19432    -9062     2452    14357    25455    34566    41067    45056 
   46438    44873    41009    35638    28376    19695    11440     4644 
    -494    -4331    -7605   -10459   -13010   -15594   -18062   -19911 
  -20731   -20416   -18802   -15591   -10486    -3020     6836    18238 
   29128    36154    36995    32113    23644    13718     3606    -6091 
  -15147   -23367   -29909   -33484   -33126   -28512   -19997    -8939 
    2690    13736    23899    32792    40105    45837    49688    50697 
   48198    42715    34508    23186    10079    -3063   -15731   -26367 
  -33401   -36730   -36664   -34004   -29270   -22887   -15721    -8014 
     -36     7092    11782    13125    11912     9861     8990    10838 
   15152    20397    25123    28677    31143    32722    33352    32908 
   31392    28183    22526    15226     7607      195    -6263   -10877 
  -13391   -13760   -12057    -8695    -3985     1916     8557    15460 
   22189    28464    34650    40655    45186    46884    45228    40988 
   35980    31860    29264    28435    29770    32812    35942    37465 
   36594    33390    28084    21556    15329    10044     5546     2230 
     961     2213     5815    11057    17063    23282    29281    34440 
   38211    40108    40212    39348    37783    35124    31261    26209 
   20211    14418    10112     7799     7739    10305    15620    22588 
   28458    30515    28139    22680    15662     7919       -2    -7534 
  -13961   -18744   -21685   -22508   -21398   -19302   -16521   -12453 
   -7007     -535     7004    15094    22145    26789    28184    25794 
   19968    11928     3372    -3841    -8438   -10204    -9591    -7179 
   -3608       24     2457     3422     3360     2132     -397    -3011 
   -4126    -3215     -102     5002    10719    15670    19429    22460 
   25656    28936    31179    31544    29754    26156    21676    17103 
   13180    10776    10392    12271    16669    23204    30224    35723 
   38648    38678    35521    28828    18774     6915    -4567   -14439 
  -22246   -27693   -30136   -28490   -22889   -15153    -7158      161 
    7045    14176    21269    27341    32030    34959    35103    32305 
   27326    20209    11573     4046     -867    -3840    -5686    -7390 
   -8877    -9436    -9536    -9213    -8287    -6535    -2921     2078 
    6572     9963    13331    18012    24413    31665    38011    42240 
   43888    42197    36980    29029    19665    10977     4350     -734 
   -5242    -9258   -12553   -15482   -18541   -21402   -22587   -20686 
  -15738    -8345     1057    11563    21989    31572    39949    46485 
   50161    50254    46770    40481    32850    25775    20688    17950 
   17420    18600    20474    21832    21549    19237    15607    11760 
    8745     7600     8601    10946    13880    17005    19803    21981 
   23530    24079    22865    19503    14521     9183     4712     1767 
     915     2971     8402    16580    25896    34603    41216    44960 
   45907    44007    39147    31977    23321    13716     3847    -5614 
  -14318   -21857   -27367   -29955   -29484   -26448   -21417   -15160 
   -8831    -3459      767     4451     8285    12685    17584    22079 
   24999    26186    26388    25797    23969    20848    16669    11840 
    7380     4097     1773       60    -1106    -1637    -1031      684 
    2562     4418     6949    10306    14231    18256    21344    22757 
   22340    19882    15484     9733     3131    -3916   -11017   -17700 
