Origin Time       2016/04/16 01:25:00
Lat.              32.753
Long.             130.762
Depth. (km)       12
Mag.              7.3
Station Code      NGS005
Station Lat.      33.0371
Station Long.     129.9171
Station Height(m) 3
Record Time       2016/04/16 01:25:20
Sampling Freq(Hz) 100Hz
Duration Time(s)  130
Dir.              N-S
Scale Factor      3920(gal)/6182761
Max. Acc. (gal)   38.124
Last Correction   2016/04/16 01:25:20
Memo.             
[...]
  -10382   -10369   -10363   -10377   -10373   -10367   -10377   -10374 
  -10364   -10371   -10371   -10363   -10366   -10368   -10362   -10366 
  -10371   -10359   -10352   -10362   -10358   -10341   -10346   -10352 
  -10338   -10333   -10331   -10324   -10323   -10316   -10302   -10301 
  -10290   -10275   -10275   -10261   -10245   -10253   -10243   -10226 
  -10238   -10223   -10195   -10209   -10216   -10212   -10241   -10258 
  -10255   -10277   -10297   -10313   -10364   -10427   -10468   -10500 
  -10542   -10618   -10731   -10836   -10919   -10984   -11004   -10954 
  -10867   -10822   -10861   -10897   -10793   -10515   -10171    -9878 
   -9651    -9494    -9493    -9608    -9652    -9579    -9548    -9725 
  -10106   -10527   -10809   -10838   -10616   -10353   -10308   -10462 
  -10673   -10887   -10909   -10572   -10237   -10339   -10719   -10993 
  -11056   -10936   -10660   -10367   -10357   -10784   -11285   -11274 
  -10582    -9648    -9136    -9338   -10033   -10830   -11358   -11285 
  -10597    -9811    -9478    -9537    -9588    -9549    -9495    -9331 
   -9179    -9535   -10562   -11643   -11897   -11127   -10159    -9802 
   -9842    -9814    -9882   -10214   -10415   -10215   -10136   -10656 
  -11151   -10790    -9883    -9313    -9322    -9570    -9896   -10394 
  -10795   -10463    -9520    -9134    -9951   -11195   -11942   -12103 
  -11854   -11296   -10623   -10012    -9697    -9763    -9643    -8806 
   -7882    -7983    -9090   -10245   -11103   -11877   -12073   -11160 
  -10031    -9922   -10720   -11592   -11986   -11736   -11229   -10909 
  -10604   -10193   -10076   -10431   -10773   -10432    -9451    -8729 
   -8738    -8814    -8488    -8449    -9365   -10725   -11779   -12811 
  -14097   -14786   -14331   -13315   -12308   -11499   -11006   -10737 
  -10427    -9883    -9344    -9274    -9535    -9828   -10163    -9876 
   -8446    -7202    -7571    -8899    -9741    -9788    -9701    -9939 
  -10278   -10481   -10881   -11684   -12349   -12480   -12518   -12783 
  -12869   -12386   -11503   -10767   -10509   -10343    -9841    -9303 
   -8963    -8686    -8692    -9265   -10520   -12294   -12995   -11062 
   -8019    -6626    -7505    -9739   -12032   -13166   -12696   -10807 
   -8628    -8018    -9417   -11208   -11373    -9098    -5792    -4268 
   -5844    -8980   -11455   -12533   -12366   -10958    -9031    -8433 
   -9928   -11968   -12575   -11425   -10176   -10355   -11347   -11960 
  -11938   -11193    -9998    -9265    -9739   -11690   -14123   -14936 
  -13672   -11812   -10169    -9171    -9541   -10700   -11286   -10758 
   -9328    -7665    -6544    -6654    -7946    -9257   -10062   -10949 
  -11910   -12207   -11909   -12196   -13078   -13041   -12252   -12286 
  -12860   -12418   -10860    -9782    -9902    -9685    -8580    -8375 
   -9030    -8741    -8307    -9431   -10972   -11220   -10614    -9930 
   -9230    -8933    -9121    -9421   -10419   -12167   -12517   -10344 
   -8401    -9821   -13286   -14730   -13242   -11769   -11778   -11532 
  -10044    -8610    -8197    -7874    -6779    -6381    -8038   -10106 
  -10702   -10190    -9216    -7703    -6335    -6978   -10466   -14507 
  -16172   -15499   -14150   -12861   -11768   -10941   -10114    -9114 
   -7753    -5137    -2039    -1978    -6059   -11424   -15357   -16453 
  -14708   -11529    -8646    -7570    -8191    -9326   -10415   -10406 
   -9090    -8236    -8790   -11366   -16107   -19873   -19677   -16563 
  -13217   -11180   -10117    -9351    -9144    -8874    -7667    -6388 
   -6084    -7336   -10173   -13002   -13925   -12015    -8017    -4898 
   -5139    -8214   -11584   -12803   -11775   -10932   -11922   -13555 
  -14308   -14934   -16257   -16555   -14076   -10153    -7660    -7657 
   -9046   -10660   -11593   -10929    -9487    -9227   -10101   -11149 
  -12210   -12111   -10179    -7816    -5901    -5248    -6894    -9704 
  -11935   -12708   -11532    -9448    -8140    -8049    -8952   -10298 
  -11316   -12079   -13148   -14218   -14287   -12915   -10684    -7820 
   -4433    -2966    -5388    -9164   -11052   -10756    -9281    -8274 
   -9049   -11013   -13140   -14303   -12721    -8934    -6545    -7611 
  -10300   -12252   -13536   -14633   -14676   -13743   -13227   -12967 
  -11497    -9272    -8402    -9228   -10174   -10226    -9676    -9334 
   -9127    -8646    -9387   -12555   -15272   -14085   -10644    -8645 
   -8410    -8865    -9957   -11067   -10977    -9488    -8220    -9183 
  -12287   -15971   -18487   -17256   -11152    -4207    -2799    -8087 
  -14635   -17799   -18109   -17381   -15659   -12673    -9589    -7960 
   -7507    -6559    -3787     -748    -2371    -9748   -16768   -18597 
  -16844   -14725   -12350    -8595    -5431    -5650    -7750    -9084 
  -10572   -13603   -16488   -16635   -14792   -14585   -16605   -17224 
  -14173    -9473    -6476    -5513    -5249    -6261    -7705    -6942 
   -5245    -5306    -7622   -12600   -18287   -20376   -18360   -14805 
  -10437    -5300    -1727    -2713    -7737   -12013   -11839    -9746 
  -10621   -13807   -14721   -12628   -10547    -9353    -7564    -5679 
   -6131    -9118   -12249   -14141   -14255   -11421    -6069     -737 
    1619    -1142    -7803   -13923   -15996   -13991   -10627    -8685 
   -9173   -11951   -15778   -18134   -17411   -13925    -9082    -6133 
   -8314   -13335   -14565   -10474    -6835    -7084    -8926   -11359 
  -15589   -19277   -17364    -9453    -1657     1087       56    -2368 
   -6530   -11151   -12489   -10727   -10868   -15485   -20863   -22334 
  -19568   -14349    -8245    -3557    -2443    -4925    -8247    -8978 
   -6847    -4785    -5103    -7935   -12612   -17629   -20259   -18714 
  -13935    -9384    -8581   -11259   -14154   -15031   -12771    -7155 
   -1283      309    -3306    -8955   -12518   -12143    -9508    -7376 
   -6772    -7940   -11280   -15212   -16568   -14036    -8945    -4427 
   -4082    -8808   -14682   -16140   -12877    -8914    -5670    -4347 
   -7553   -13194   -17063   -17798   -15218   -11311    -9348    -9640 
  -10978   -12773   -13710   -12026    -7525    -2712     -973    -2870 
   -6079    -8656   -10318   -11312   -11480   -10919   -11325   -14041 
  -16861   -16871   -14887   -13041   -10375    -5465    -2087    -5418 
  -12944   -17692   -18163   -16785   -14047    -9884    -6761    -8535 
  -14605   -18185   -14994    -8332    -2854     -261    -1713    -7559 
  -14598   -18247   -17071   -14349   -14447   -16545   -16103   -12244 
   -7809    -4905    -4040    -4460    -5660    -8699   -13245   -16819 
  -18983   -20789   -20485   -16420   -11043    -6834    -4362    -5025 
   -8951   -12808   -13858   -13062   -11674    -8897    -5724    -5178 
   -6948    -7874    -6800    -5014    -4580    -6490    -8938   -10537 
  -12547   -13972   -11767    -7348    -5114    -6902   -10829   -13619 
  -14569   -14282   -12709   -12437   -15418   -18327   -18128   -15496 
  -12002    -8794    -6421    -5443    -6484    -8460    -9138    -7669 
   -4835    -2588    -4018    -9908   -15866   -17526   -15911   -13673 
  -10992    -7839    -5672    -5946    -8452   -10343    -9296    -8582 
  -11914   -15650   -15843   -15018   -14782   -12456    -7303    -2667 
   -1186    -1443    -1993    -3953    -7218   -10829   -15279   -19859 
  -22641   -23218   -21321   -16235    -9739    -5168    -3590    -4679 
   -8375   -12806   -15250   -15555   -14491   -11990    -9552    -9609 
  -11421   -12116   -11964   -13409   -15458   -15868   -15753   -15843 
  -14708   -12050    -8377    -5108    -4758    -6637    -6925    -5431 
   -6136    -9405   -11320   -11554   -13018   -15545   -16092   -12268 
   -5818    -2777    -5884   -10154   -10533    -9352   -11229   -14926 
  -16281   -15475   -15803   -17537   -17247   -13082    -7561    -4371 
   -3971    -3703    -2862    -3590    -5901    -8363   -10931   -12767 
  -13425   -14211   -14113   -11221    -7607    -6246    -7077    -8700 
   -9857   -10232   -10211    -8658    -4717     -875     -425    -4185 
  -10100   -14428   -15293   -14233   -12186    -8429    -4867    -5195 
   -9793   -14807   -15954   -14128   -14074   -16030   -16138   -13710 
  -11588   -11705   -12542   -12143   -12010   -13532   -14863   -14273 
  -12860   -13121   -14420   -12979    -8356    -4339    -3551    -4878 
   -5922    -6937    -9103   -10143    -7463    -3387    -2843    -7635 
  -14844   -19921   -20516   -16905   -10378    -3937    -1705    -4189 
   -7538    -9090    -9452    -9314    -9048   -10193   -13598   -17692 
  -19906   -18681   -14914   -11420    -9273    -6982    -4823    -5008 
   -6897    -7458    -6653    -8057   -12366   -15109   -14180   -12721 
  -12523   -11255    -7759    -5831    -8393   -12357   -14492   -15324 
  -15744   -15691   -14576   -12407   -11100   -11333   -10475    -7348 
   -5036    -5791    -6900    -5100    -2069    -2149    -6277   -10440 
  -11250   -10638   -11236   -11895   -11950   -13240   -15494   -15299 
  -11777    -9163    -9942   -11123   -10925   -11318   -13106   -14265 
  -12617    -9294    -8286   -10648   -13215   -14671   -16429   -17095 
  -14388   -10856   -10273   -12112   -12977   -11251    -9540   -10123 
  -11062   -10964   -11315   -12806   -14812   -16149   -14714   -10498 
   -7287    -7165    -7337    -5793    -4767    -6950   -11975   -16520 
  -18408   -18868   -17798   -13192    -6838    -3091    -3065    -4276 
   -4992    -6200    -8161    -8609    -6701    -4889    -4694    -4299 
   -2682    -2546    -6227   -11460   -14300   -13859   -11617    -9060 
   -7209    -6343    -6242    -6487    -6730    -7047    -6947    -5712 
   -4580    -5544    -8092    -9818    -9281    -7388    -6619    -7646 
   -8619    -9197   -10285   -10763    -9723    -8308    -7395    -7881 
  -10621   -13944   -16069   -17733   -19551   -21148   -21904   -20472 
  -16766   -12702    -9115    -5438    -2214    -1157    -3206    -7717 
  -12963   -16591   -17055   -14949   -11870    -8908    -6411    -5448 
   -8304   -13623   -15708   -13357   -11459   -13027   -16982   -20967 
  -22615   -20407   -14663    -7218     -266     3188      718    -4968 
   -8045    -7022    -4966    -3863    -3154    -2712    -3535    -5662 
   -7462    -7188    -6108    -7639   -11471   -13820   -12975    -9928 
   -6646    -5128    -5805    -8498   -13427   -18004   -18378   -15704 
  -13410   -11688   -10227    -9850   -10345   -11105   -11070    -8714 
   -5652    -5104    -5968    -4924    -1926      536      555    -1126 
   -2213    -3319    -6949   -11735   -13445   -11260    -8408    -6476 
   -4115    -1762    -1596    -3660    -6270    -8188    -9257   -10069 
  -10835   -11115   -10719    -9959    -9112    -8223    -7399    -7094 
   -7718    -9071   -10911   -12868   -14076   -14666   -15395   -15664 
  -14114   -10106    -5582    -3923    -4397    -4127    -4015    -5437 
   -7051    -7008    -4634    -2861    -5505   -10020   -11470   -11146 
  -12471   -14263   -13889   -11491    -9713   -11712   -17225   -22740 
  -26538   -27508   -23236   -14938    -7756    -5219    -7082   -10157 
  -10657    -8431    -7415    -8808    -9450    -9661   -12935   -18235 
  -20826   -18303   -13115    -9340    -7558    -6215    -5861    -8065 
  -12267   -15541   -15627   -13947   -13514   -14012   -13004   -11326 
  -11222   -11458    -9595    -5542    -1602     -243    -1190    -3504 
   -7814   -12654   -14739   -14328   -14923   -17964   -21257   -22818 
  -23209   -23726   -25028   -26848   -27933   -27483   -25900   -22884 
  -17638   -11959    -8191    -5354    -1675     3011     7832    11581 
   14707    18114    20358    20088    17985    14316     8655     2349 
   -2558    -6227    -9962   -14564   -20479   -26915   -32625   -37297 
  -39616   -37508   -31002   -21645   -11310    -3033      751     1000 
     403      509     1853     5321    11239    16813    18266    15331 
    9899     2865    -5277   -14185   -24446   -35250   -42402   -41936 
  -34969   -26418   -19418   -14396   -12793   -15642   -19201   -18738 
  -15285   -13124   -13146   -13125   -11364    -7369    -2049     2379 
    5094     6074     2439    -6717   -14738   -15121    -9728    -4412 
   -1639    -1029    -2536    -5564    -8574   -11036   -13350   -15158 
  -15654   -14584   -11703    -7105    -2905    -2114    -4381    -5740 
   -3957     -792     1363     1688     -108    -3709    -7108    -8190 
   -6566    -3115     -607    -2589    -7765   -11245   -11735   -10301 
   -7128    -4064    -4279    -8370   -12978   -13554    -9682    -4908 
    -741     2464     1734    -3218    -7204    -7094    -5477    -5620 
   -8349   -12988   -17049   -17565   -15175   -12880   -11390   -10647 
  -11595   -11816    -6335     3935    11601    12102     7572     1803 
   -3744    -8312    -8727    -2173     7733    13818    14058    11092 
    5565    -3362   -13660   -22217   -27915   -30430   -30034   -28005 
  -24627   -19249   -12630    -6883    -3822    -4376    -7992   -11556 
  -10985    -5836     -190     2262     1079    -2166    -4298    -1483 
    5702    10950     9612     2326    -8189   -18680   -26574   -29656 
  -25057   -15125    -8282    -7867    -9677   -10969   -13430   -19018 
  -27477   -37680   -47307   -51750   -49252   -43893   -39128   -34720 
  -30327   -24943   -16209    -4669     6113    13478    15713    11054 
     379   -10734   -16124   -15092   -11726    -9180    -8007    -7733 
   -7142    -7628   -13488   -23283   -30687   -34943   -37763   -36277 
  -28342   -15044     2669    21450    35911    44926    49761    48813 
   41032    29277    17650     9124     3570    -2336   -11000   -21698 
  -31540   -37727   -39977   -38872   -35704   -34765   -38162   -42441 
  -43949   -40770   -32421   -21573   -11788    -4766    -1858    -2270 
    -301     7310    16955    25512    31262    30384    21543     8853 
   -2679   -11980   -20139   -26298   -29203   -28672   -25291   -22243 
  -23279   -28012   -33961   -40358   -44848   -43009   -35184   -26190 
  -19187   -14517   -10666    -7698    -8836   -13494   -17007   -18991 
  -22288   -26529   -28060   -25095   -21255   -20909   -24071   -28804 
  -33439   -37036   -40168   -42664   -43410   -43822   -45861   -47818 
  -47212   -44609   -41539   -39101   -37764   -34916   -28030   -18950 
   -9470     1500    14124    26164    34837    37834    34213    24380 
    9827    -4694   -13301   -14116    -8178     1331     8495     9566 
    5674     -738    -8359   -15500   -19456   -19060   -15650   -10769 
   -4340     3107     8697    11605    13148    12042     8462     6991 
    9708    14276    18506    20828    19783    15221     6713    -5637 
  -18192   -27938   -35565   -41138   -42157   -36261   -25373   -16558 
  -14945   -18764   -24124   -28853   -30528   -26634   -17096    -4006 
    8757    16677    19590    21770    24630    24740    21492    19508 
   19728    17003     8409    -3419   -14497   -22609   -26368   -24513 
  -18144   -11031    -6121    -3130     1174     9625    20187    27816 
   29630    25483    17253     8525     3598     5742    13244    19695 
   19241     9178    -8393   -27362   -41775   -47587   -44740   -36842 
  -26946   -18819   -15336   -12293    -4710     5920    16739    25548 
   28934    25365    16241     4869    -3125    -4324    -1228     2111 
    2948     -379    -7810   -17979   -27859   -34152   -36975   -38568 
  -39160   -38287   -38042   -39086   -38268   -34979   -30625   -22922 
  -10547     2025    10092    13426    12412     5087    -8006   -21549 
  -31167   -35536   -33065   -23898   -12786    -3492     4441    10880 
   13876    11458     2237   -10531   -19642   -22618   -22253   -19880 
  -15246   -10711    -9888   -11942   -13402   -14257   -15599   -17053 
  -18504   -18225   -14304    -8532    -2917     1601     2153    -2780 
  -11635   -21891   -28549   -28027   -23771   -21078   -21069   -21150 
  -18361   -12825    -7692    -6580   -12015   -24357   -39214   -48894 
  -49280   -41169   -28283   -17634   -14899   -19551   -27579   -35068 
  -39539   -40228   -37100   -32176   -29596   -29876   -28435   -22505 
  -14311    -6486      145     3926     3230      -75    -1986     -483 
    3082     5320     3542    -1986    -8695   -13316   -13338    -9303 
   -4500    -2147    -4095   -10346   -19050   -26985   -30531   -28891 
  -24435   -18355   -11611    -7988    -8991   -11727   -14721   -17148 
  -16046   -10929    -5425    -3230    -6270   -14679   -24481   -28237 
  -22659   -11750    -1629     4265     6101     4011    -2705   -11289 
  -18399   -24569   -30800   -36669   -41010   -41327   -36314   -28138 
  -20569   -17144   -18860   -23284   -27755   -29703   -27244   -22697 
  -18680   -14680   -11153    -8384    -5263    -4082    -7635   -14375 
  -22232   -29629   -33802   -34210   -33249   -31845   -29242   -26452 
  -24904   -23676   -21657   -19339   -18274   -20037   -22559   -20060 
  -10647     1389    11975    19356    21884    19150    12901     5807 
    1048      283      829    -1185    -4346    -4153     -918     1922 
    3717     4999     4990     2767     -780    -3485    -5409    -8334 
  -12295   -16075   -19331   -22171   -23331   -21181   -16254   -10259 
   -4511     -357     1572     1965     1582     1614     3917     8235 
   12121    14231    14484    12662     9383     5697     1697    -2342 
   -5862    -8533    -9878   -10636   -12397   -15657   -19689   -22578 
  -22618   -19634   -13879    -6508     -415     1821     -493    -6068 
  -11769   -14933   -14654   -10883    -6550    -6139   -10464   -17098 
  -21127   -18094   -10720    -4820    -1504      164     -333    -2670 
   -4005    -1936     1940     3721     1535    -3717    -9903   -14831 
  -18053   -20593   -22525   -22954   -21722   -19976   -18336   -16552 
  -15719   -16976   -20723   -27994   -37306   -43541   -43503   -38754 
  -32502   -26835   -22306   -17819   -13351   -12240   -15566   -18860 
  -19756   -21373   -24915   -26929   -25336   -21343   -16240   -11391 
   -8555    -8895   -13420   -22243   -33293   -42840   -48099   -49454 
  -48263   -45054   -40318   -34615   -29373   -24873   -19470   -14811 
  -13649   -15232   -19210   -25132   -29228   -28336   -22093   -11812 
    -908     7093    10395     7832      724    -6985   -13582   -18565 
  -19357   -15571   -11358    -9765    -9323    -8918   -10091   -11585 
  -10933   -10120   -11360   -13297   -14122   -13832   -13102   -11262 
   -7259    -1867     3033     6396     7464     4531    -2522   -10144 
  -14180   -12835    -6715     1381     7913    10980    10298     6858 
    4053     5392    10488    16701    21419    21944    18350    13066 
    7400     3334     2898     3827     2573     -588    -4639   -11212 
  -20614   -29421   -34523   -35172   -31169   -23302   -14130    -6650 
   -3208    -4026    -7175   -10266   -10850    -7867    -3060      502 
     428    -3645    -9739   -14883   -17425   -17641   -16039   -13779 
  -13791   -17562   -22660   -26211   -28068   -28308   -25323   -18525 
   -9461      -81     8010    13268    13793     8290    -1723   -12037 
  -18145   -17292   -10174      267    11626    20963    24750    22332 
   16260     9474     3173    -2541    -5960    -4323     2251    10217 
   16658    20879    21882    18733    13256     9003     7900     8407 
    7445     3429    -3775   -12334   -18109   -18340   -13339    -5391 
