Origin Time       2016/04/16 01:25:00
Lat.              32.753
Long.             130.762
Depth. (km)       12
Mag.              7.3
Station Code      NGS003
Station Lat.      33.2016
Station Long.     129.4128
Station Height(m) 22
Record Time       2016/04/16 01:25:29
Sampling Freq(Hz) 100Hz
Duration Time(s)  121
Dir.              N-S
Scale Factor      3920(gal)/6182761
Max. Acc. (gal)   45.515
Last Correction   2016/04/16 01:25:29
Memo.             
[...]
  -10391   -10069    -7697    -4269     -800     1781     3468     4633 
    4698     2731     -993    -5064    -7941    -8493    -6957    -5183 
   -4453    -4318    -4257    -4424    -4975    -5909    -6583    -5815 
   -3742    -1893     -946     -629     -967    -1869    -2776    -3411 
   -4269    -6159    -8994   -11630   -12987   -12221    -8848    -3623 
    2092     7353    11156    12379    10823     7525     3710     -387 
   -5260   -10734   -15337   -17387   -16616   -14258   -11447    -8124 
   -4003       56     2845     4301     4806     4143     2371      329 
   -1193    -1831    -1708    -1539    -1811    -2122    -1953    -1549 
   -1841    -3668    -6791    -9795   -11320   -11004    -8924    -5173 
    -754     2608     4455     5831     7079     7260     5967     3961 
    1973      127    -1795    -4161    -7156   -10599   -13989   -16113 
  -15746   -13530   -11182    -9315    -7867    -6535    -4174     -225 
    4124     7422     9190     9756     9876     9711     8181     4294 
   -1585    -8094   -13522   -16639   -17499   -16825   -15171   -13134 
  -10954    -7670    -2430     3507     7653     8658     6838     3343 
    -507    -3897    -6847    -9550   -11618   -12103   -10080    -5689 
    -533     3426     4933     3825     1435     -314    -1212    -2774 
   -5426    -7793    -8843    -8529    -6967    -4737    -2947    -2291 
   -2991    -4882    -6620    -6740    -5488    -3533    -1045      904 
    1286      710     -284    -2176    -4650    -6432    -7052    -7106 
   -7435    -8694   -10729   -12075   -10979    -7181    -1874     3510 
    7525     9143     8280     5188      712    -3402    -6361    -8850 
  -10893   -11399    -9967    -7236    -3840     -537     1652     2541 
    2818     3070     3556     3976     3749     2875     1513     -130 
   -1151    -1343    -1966    -3408    -4962    -7024    -9948   -12231 
  -12645   -11788   -10309    -8010    -4813    -1217     2099     4790 
    6643     7130     5799     2542    -2347    -7812   -12368   -14993 
  -15794   -15677   -15109   -13953   -12128    -9189    -4300     2378 
    9215    14272    16264    14984    11706     8092     4212     -808 
   -6736   -12476   -17046   -19605   -20251   -20026   -18805   -15295 
   -9570    -3291     2267     6850    10316    12024    11523     9469 
    6916     4089      695    -3209    -7176   -10778   -13896   -16320 
  -17433   -16985   -15149   -11621    -6554    -1679     1670     4143 
    6193     6546     4539     1762      133     -158     -498    -2354 
   -5408    -7707    -8436    -8625    -8679    -7931    -6588    -5603 
   -5045    -4508    -4161    -3946    -2997     -828     1913     4181 
    5692     7024     8205     7820     4573     -987    -7275   -12905 
  -16280   -16071   -12787    -8368    -4713    -2657    -1392     -141 
     -26    -1986    -4363    -4778    -3017     -564     1484     2933 
    4016     5205     6833     8504     8749     5956      511    -5144 
   -9166   -11707   -13660   -15112   -15249   -13687   -11479    -9828 
   -8265    -5727    -2289     1602     5519     8395     9593     9466 
    7875     4371     -240    -4556    -8055   -10935   -13322   -14864 
  -15010   -14123   -13275   -12260    -9613    -5261    -1040     1989 
    4512     6964     8590     8722     7410     4554     -107    -5827 
  -10961   -14158   -14819   -13217   -10464    -7659    -5232    -3295 
   -1781     -409      639      794      200     -528    -1310    -2536 
   -4584    -7095    -8679    -8379    -6551    -3782     -789     1052 
    1188      854     1172     1785     1814      597    -2165    -5722 
   -8480    -9325    -8112    -5720    -4006    -4052    -4747    -4525 
   -3353    -2222    -1949    -2571    -3243    -3155    -2327    -1147 
    -194     -475    -2407    -4867    -6393    -6685    -6207    -5196 
   -3635    -1790     -391       74     -118     -805    -2379    -4401 
   -4980    -2886      501     2545     1864    -1080    -4843    -8186 
  -10781   -12501   -12800   -11875   -10988   -10223    -8044    -3991 
     588     4363     6644     7090     6129     4640     2400    -1802 
   -7729   -13021   -15732   -15839   -14082   -11162    -7726    -3898 
     450     4890     8721    11443    12806    13043    12383    10257 
    6138      765    -4484    -9204   -14019   -18890   -22538   -23686 
  -21874   -17577   -12149    -7003    -2973     -562      347     1061 
    3121     6409     9073    10028    10214    10528    10388     8959 
    6167     2385    -1786    -5458    -7940    -9147    -9336    -8788 
   -7733    -6516    -5596    -4999    -4069    -2030     1084     3824 
    4254     1704    -3099    -8988   -14387   -17266   -16374   -12165 
   -6331    -1079     1775     2094     1241      531      719     1987 
    3613     4648     4920     4777     4272     2858      163    -2917 
   -4917    -5460    -5314    -5482    -6634    -8619   -10567   -11750 
  -11840   -10807    -9451    -8886    -9004    -8931    -8141    -6054 
   -2485     1416     4476     6739     8273     8230     5987     2147 
   -1860    -4858    -6970    -9282   -12218   -14913   -16396   -16814 
  -16759   -15880   -13519    -9821    -5033      712     6411    11038 
   14899    17894    18249    14947     8990     1951    -4432    -8668 
  -10959   -12523   -13617   -13622   -12318   -10349    -8721    -8014 
   -8344    -9514   -10662   -10925   -10480    -9731    -8484    -6682 
   -4468    -1836      649     2119     2271     1088     -708    -1517 
    -937     -304     -565    -1558    -3018    -4691    -6059    -6842 
   -7463    -8509    -9592    -9340    -6774    -2079     3712     9127 
   13315    16727    19484    20252    17921    12546     4581    -4634 
  -12873   -19480   -25554   -30743   -32879   -30870   -25279   -16888 
   -6416     4932    15308    22712    25657    23431    16356     5916 
   -5472   -15072   -21032   -23098   -21838   -18021   -12696    -6929 
   -1817     1623     3586     5201     6655     7209     6472     4476 
    1734     -416    -1037    -1157    -2796    -6708   -11764   -16037 
  -18277   -18568   -17382   -14383    -8990    -1742     5859    12166 
   15631    15244    11020     4081    -3269    -8437   -10692   -11486 
  -12094   -12420   -11907    -9944    -6168    -1597     1732     2636 
    1270    -1682    -5256    -8400   -10726   -12567   -14146   -15150 
  -14956   -13336   -11287   -10168    -9816    -9036    -6962    -2685 
    4134    11988    18658    22697    23815    23090    21788    20003 
   17314    13268     6860    -2630   -14285   -25759   -34349   -38209 
  -37110   -31838   -23224   -11862     1358    14163    23432    27340 
   25872    20199    12502     5073     -769    -4918    -8195   -10863 
  -11586    -9328    -5002     -141     3997     6128     6308     6422 
    7372     8004     7758     7544     7897     8377     8141     5980 
     873    -6868   -15664   -23889   -30358   -34079   -34418   -31242 
  -24495   -13883      501    16800    31529    41885    46857    46420 
   40808    30330    16302     1545   -11466   -21493   -27895   -31566 
  -34220   -35642   -35107   -33352   -30359   -24817   -15981    -4243 
    8454    19611    28429    35344    40630    44295    45238    41008 
   29486    10481   -13307   -36994   -56265   -68735   -73189   -69406 
  -57991   -39462   -15149    11259    35000    52001    59508    56902 
   45325    27288     7322    -9503   -20390   -25501   -26237   -23523 
  -18190   -11241    -3399     4003     9467    13226    16239    18292 
   18633    16930    13103     7773     2715     -987    -4056    -6791 
   -8737   -11080   -15767   -22819   -30464   -36642   -39781   -38697 
  -32370   -20525    -3918    15927    36287    53491    64003    64773 
   54415    34696    10086   -13484   -31073   -41506   -45959   -45141 
  -40397   -34441   -28227   -20246   -10328     -727     6693    11162 
   11988     9510     5391     1106    -1848    -1407     2827     8115 
   11268    11283     8038      789    -9889   -19999   -24681   -23242 
  -19473   -16956   -16323   -16856   -17988   -18452   -16243   -10612 
   -3257     2781     5352     4420     1046    -4073   -10489   -17047 
  -21321   -20399   -12988     -847    11628    19531    20296    14382 
    3770    -8794   -20093   -28295   -34374   -39562   -42307   -40546 
  -35117   -28544   -22343   -16670   -11452    -7596    -6661    -8213 
   -9376    -8550    -6092    -1451     6085    15250    23348    27836 
   27884    24028    16560     6076    -5884   -17740   -28216   -36828 
  -44079   -49723   -52248   -50632   -44417   -32874   -16062     4552 
   26516    45921    58731    63924    62301    53537    38689    22454 
    8914    -1685   -10783   -19217   -26534   -31117   -31860   -29850 
  -27268   -24587   -20947   -16691   -12175    -5806     3212    12488 
   19378    23469    24624    21687    14043     3024    -7879   -14414 
  -14404    -8524     1639    13841    24622    31144    31908    25573 
   12021    -6632   -27568   -47558   -62846   -70713   -69995   -60970 
  -44985   -24073    -1547    19270    36626    49330    56189    56540 
   50168    38038    22897     6916    -9135   -23336   -33834   -41067 
  -45239   -46205   -45591   -44687   -43651   -42811   -40942   -35245 
  -24110    -8439     8176    21587    29927    33318    32821    29372 
   22963    13793     2195   -11361   -23586   -30322   -31621   -29661 
  -24910   -18028   -10378    -1299     9654    18606    21663    19884 
   14995     6942    -2703   -11446   -18636   -23939   -25881   -24901 
  -23589   -22132   -18915   -13385    -4792     6859    18344    25950 
   29162    29400    27456    23944    19764    14979     9392     3556 
   -2118    -7407   -10744   -10525    -8067    -5453    -2838     -444 
    1373     3777     7635    11472    13068    11673     7202     -802 
  -11969   -23925   -32881   -35370   -29746   -16395     2917    23922 
   39267    43855    38984    28239    14222     -302   -12859   -21720 
  -25261   -22657   -14059     -754    13599    24331    29260    29207 
   25271    17612     7235    -3454   -12270   -17365   -16963   -11267 
   -3476     2769     6463     9019    11688    13832    13667    10169 
    3816    -3799   -11062   -17189   -21079   -21126   -17947   -14324 
  -11640    -8995    -4955     1203     8708    15296    18962    19663 
   18123    14139     8135     2006    -3826   -10459   -16734   -20594 
  -22585   -23317   -21249   -15541    -7571      901     9438    18912 
   29708    40444    48396    50488    45366    34083    18114    -1212 
  -21771   -40434   -54235   -61750   -62158   -54738   -41159   -25659 
  -11511     1037    13309    25530    35544    41110    42447    40447 
   34864    25391    12174    -3705   -20162   -35943   -50221   -60873 
  -66430   -66929   -61343   -47915   -26434      832    28531    50461 
   63433    67563    64634    56721    45071    30597    14583    -1882 
  -18012   -32445   -43126   -48769   -50178   -49290   -47263   -44475 
  -40978   -35978   -28492   -18571    -7643     2325    11182    20199 
   28094    31332    28181    18615     2904   -16411   -34670   -49040 
  -59359   -65255   -65902   -61617   -52392   -37229   -16863     5866 
   27912    45927    56902    60239    56712    46919    32372    15068 
   -3986   -23752   -41896   -55172   -60844   -58277   -49061   -36025 
  -21704    -7081     7024    18682    26267    29110    27318    22203 
   15417     7779      -96    -7198   -12682   -16326   -18877   -21734 
  -25481   -29291   -32109   -33573   -33569   -32213   -29369   -22828 
   -9882     8155    26387    40627    48686    49998    45051    33992 
   17625     -524   -15737   -25343   -29770   -30595   -27745   -20394 
   -9887     1461    12244    20653    24693    23935    19516    13106 
    5502    -2695    -9412   -13420   -15535   -15463   -12692    -9178 
   -7195    -8264   -13330   -20326   -24965   -24907   -20417   -12341 
   -2135     7015    11989    12496    10320     7011     3175    -2001 
  -10019   -20104   -28599   -32020   -29589   -22792   -12739      -29 
   13085    24351    33338    39297    40635    36059    25239    10263 
   -5052   -17650   -26362   -32084   -36327   -39592   -41677   -41309 
  -36167   -25474   -11229     3105    14125    20328    22645    22627 
   21309    18692    13417     5403    -2253    -6682    -8461    -9740 
  -10916   -10869    -9416    -7138    -3862      688     6042    11434 
   15782    17519    15612    10269     2212    -8268   -21051   -34943 
  -47189   -54458   -54754   -48289   -36457   -21219    -5305     8345 
   17970    23440    25134    23366    18755    12129     4473    -2813 
   -8211   -11241   -13320   -16217   -19613   -21836   -22203   -21019 
  -18729   -16019   -13372   -10557    -7226    -3672     -741     1474 
    3775     5610     5200     2566     -346    -2466    -4272    -6307 
   -8469   -10202   -11247   -11881   -11813   -10229    -7386    -4421 
   -2276    -1972    -3961    -6976    -8930    -8235    -4509      896 
    5553     7443     5710     1184    -3510    -5580    -3997      321 
    5617    10079    12326    11946     9725     7618     7281     7838 
    6349      806    -8182   -18752   -29578   -39736   -47555   -50853 
  -49192   -44526   -38626   -31381   -22084   -11141      -57    10330 
   20964    32246    42021    48603    53175    56568    57054    52878 
   43660    29089     9370   -13137   -34674   -52320   -65016   -72706 
  -74975   -71185   -61398   -46267   -27350    -8205     7131    17520 
   25213    32215    36995    36745    31365    22346    10103    -4475 
  -18079   -27292   -31179   -30770   -27931   -24566   -21789   -19766 
  -17563   -13421    -6882      735     8776    17301    25000    29164 
   27843    21892    13756     4697    -5059   -14770   -23396   -30719 
  -37159   -42266   -44078   -40729   -33054   -23770   -13725    -2355 
    9099    18233    23749    25703    24750    21525    16181     8149 
   -2953   -15428   -25883   -32144   -34038   -31848   -26154   -18500 
  -10718    -3278     4804    13431    20378    23885    24475    23762 
   22785    21513    19218    15108     8608     -655   -12120   -23174 
  -30345   -31823   -27648   -18733    -6432     7802    21933    33417 
   40363    41587    36862    27730    16338     4220    -6962   -15445 
  -20592   -22791   -22967   -22632   -21906   -18492   -11199    -1906 
    6725    13099    16551    16644    13165     7006      336    -5118 
   -9107   -11481   -11547    -9491    -6887    -5000    -3766    -2854 
   -2462    -2843    -4131    -6372    -8692    -9891   -10169   -10101 
   -8786    -5329     -825     3094     5925     7371     6513     2717 
   -2539    -6065    -6480    -5138    -3294    -1068     1343     3182 
    3293      610    -4781   -11492   -18117   -23387   -25861   -25226 
  -22330   -17801   -12480    -8024    -5586    -4684    -4081    -3300 
   -2342     -571     2622     6576     9474     9743     7668     4711 
    1371    -2827    -7397   -10416   -10867    -9921    -8773    -7223 
   -5310    -4342    -5016    -6062    -5717    -3300      977     6811 
   13466    18743    20379    18850    16354    13739    10736     7183 
    2395    -4161   -11540   -18959   -26576   -33113   -36253   -35849 
  -33300   -28437   -20322   -10074     -372     7175    12857    17021 
   18663    16999    13136     8870     4784      579    -3507    -6639 
   -8106    -7546    -5315    -2430      397     2432     1965    -1719 
   -5928    -6982    -4292      411     5649     9871    11587    10827 
    8750     6433     4264     1547    -2701    -8044   -12617   -14874 
  -14454   -12012    -8593    -4848    -1579     -265    -1868    -5436 
   -8534    -9538    -8682    -6621    -3586     -281     2074     3219 
    3794     3786     2951     1928     1119       94    -1458    -3847 
   -6898    -8685    -7798    -5738    -4311    -3280    -1625     1087 
    4166     6198     6735     6631     6343     5544     3952     1309 
   -2232    -5884    -9470   -13566   -17953   -21151   -21546   -18543 
  -13084    -6951    -1039     4862    10466    14687    17532    20498 
   23589    24350    21242    15070     7114    -1542    -9710   -16615 
  -21550   -23270   -21361   -16810   -10462    -3110     3420     7732 
   10357    12185    13290    13953    14338    13594    11081     7383 
    3988     2549     3436     5194     5945     4864     2505      149 
   -1330    -1897    -1921    -2072    -2984    -4246    -4851    -4512 
   -3640    -2795    -2294    -1935    -1215      148     1928     3501 
    4116     3453     1942      281     -929    -1475    -1825    -2290 
   -2299    -1548     -504      889     2786     4013     3196      687 
   -1845    -3718    -5641    -7118    -6184    -2365     2885     8142 
   12547    15613    17021    16001    12081     6184     -577    -7538 
  -13149   -15483   -14272   -10921    -6864    -2646     1680     5932 
    9945    13263    14402    12168     7116      359    -7180   -13798 
  -17765   -19008   -18280   -15746   -11177    -4554     2987     9241 
   12974    14321    13287     9845     4606    -1739    -8216   -13357 
  -16613   -18639   -19822   -19800   -18102   -14251    -8069     -669 
    6033    11000    14231    15603    14691    11736     7788     3684 
    -527    -5086    -9856   -14602   -19373   -23890   -27191   -28124 
  -26059   -21396   -15063    -7809     -407     6279    11819    16110 
   18587    18282    14692     8412      716    -7513   -15462   -22019 
  -27062   -31104   -33150   -31369   -25711   -17814    -9155     -562 
    7305    13416    16577    16453    13644     8884     2992    -3147 
   -9223   -15200   -20701   -25220   -27995   -28105   -25431   -20412 
  -13258    -4669     3766    10816    16125    19295    19836    17624 
   12395     4162    -5419   -13872   -20130   -24075   -24795   -21813 
  -16943   -12731    -9647    -6500    -2803     1133     5011     8062 
    9261     8624     7178     5674     4233     2706      648    -2187 
   -5006    -6637    -7014    -7302    -8641   -11001   -13137   -13741 
  -12607   -10559    -8425    -6301    -3811     -849     2432     5935 
    9238    11437    11723     9787     6079     1758    -2410    -6674 
  -10975   -14229   -15489   -14575   -11724    -7463    -2437     2755 
    7370    10905    13316    14379    14029    12733    10314     6183 
    1154    -3307    -6893    -9697   -10990   -10110    -7954    -6393 
   -5948    -5425    -4072    -2431    -1014      269     1485     2453 
    2781     2129      658    -1198    -2929    -3764    -3456    -2658 
   -1728     -923    -1703    -5284   -10130   -12925   -11624    -6644 
     -60     5844     9961    12435    13548    13508    12941    12207 
   10771     7914     3289    -3044   -10429   -17760   -24084   -28818 
  -31485   -31401   -28051   -21991   -14638    -7147      -84     6013 
   10587    13808    16088    16681    14245     8272     -575   -10293 
  -18223   -23055   -25436   -26336   -25860   -23630   -19474   -13608 
   -6744      -90     5337     9185    11334    11934    11631    10725 
    8533     4287    -1579    -7485   -11814   -13913   -14349   -13782 
  -11980    -8864    -5658    -3927    -3870    -4208    -3932    -3457 
   -3456    -3783    -4007    -3914    -3889    -4931    -7392   -10296 
