Origin Time       2016/04/16 01:25:00
Lat.              32.753
Long.             130.762
Depth. (km)       12
Mag.              7.3
Station Code      NGS001
Station Lat.      33.3616
Station Long.     129.5383
Station Height(m) 135
Record Time       2016/04/16 01:25:29
Sampling Freq(Hz) 100Hz
Duration Time(s)  193
Dir.              E-W
Scale Factor      3920(gal)/6182761
Max. Acc. (gal)   37.269
Last Correction   2016/04/16 01:25:29
Memo.             
[...]
   -9664    -7023    -3916    -1333      278     1008      920       49 
   -1275    -2572    -3446    -3785    -4094    -5047    -6449    -7300 
   -6980    -5636    -3583    -1166     1103     2908     4000     3656 
    1127    -3434    -8906   -13703   -16362   -16303   -14153   -11007 
   -7395    -3479       36     1897     1248    -1461    -4546    -6490 
   -7142    -7195    -6899    -5775    -3248      539     4277     6058 
    4799     1225    -2834    -6103    -8482   -10266   -11349   -11202 
   -9485    -6497    -2890      713     3520     4545     3432      834 
   -2319    -5422    -8092    -9955   -10606    -9793    -7723    -4964 
   -2265     -547     -240     -831    -1747    -2929    -4280    -5355 
   -5583    -4797    -3663    -3178    -3710    -4739    -5464    -5461 
   -4797    -3781    -2712    -1864    -1618    -2198    -3237    -4023 
   -4240    -4189    -4118    -3749    -2852    -1985    -2111    -3601 
   -5866    -7889    -9155   -10142   -11388   -12274   -11606    -9284 
   -6702    -5279    -4717    -3351     -276     3570     6370     7045 
    6148     4951     3624     1241    -2423    -6322    -9349   -11204 
  -12030   -12020   -11432   -10356    -8603    -6192    -3632    -1679 
    -934    -1299    -1921    -2007    -1584    -1318    -1706    -2539 
   -3125    -3006    -2332    -1441     -386      680     1028     -105 
   -2623    -5544    -7846    -9268   -10066   -10197    -9325    -7435 
   -4967    -2402      270     3300     6270     8220     8321     5861 
     637    -6241   -12801   -17447   -19474   -18912   -16327   -12602 
   -8577    -4966    -2396    -1054     -721    -1218    -2127    -2648 
   -2355    -1414      -96     1362     2730     3753     4094     3506 
    2052       88    -1992    -4071    -6272    -8714   -11415   -14016 
  -15636   -15434   -13180    -9370    -5070    -1343     1156     2054 
    1475      348     -354     -438     -101      612     1359     1355 
     347    -1201    -3030    -5052    -6749    -7717    -8162    -8237 
   -7919    -7453    -6773    -5177    -2566     -160      594     -758 
   -3502    -6164    -7538    -7838    -8070    -8324    -7888    -6379 
   -3831     -660     2170     3552     2846      343    -2614    -4580 
   -5411    -5994    -6657    -6800    -5803    -3577     -699     1707 
    2655     1921     -121    -2987    -6182    -9091   -11226   -12270 
  -11635    -8954    -5070    -1234     2016     4396     5646     5956 
    5452     3728      602    -3336    -7098    -9546    -9742    -7882 
   -5504    -4255    -4572    -5626    -6535    -7354    -8454    -9246 
   -8484    -5718    -1603     2757     6225     8188     8774     8006 
    5464     1321    -3177    -6744    -9098   -10791   -12155   -12685 
  -11664    -9150    -6177    -3995    -3164    -3479    -4547    -6104 
   -7693    -8465    -7828    -6091    -4035    -2214     -969     -535 
    -846    -1614    -2528    -3262    -3706    -4095    -4455    -4288 
   -3250    -1662     -235      314     -432    -2248    -4382    -6107 
   -7230    -8242    -9851   -12171   -14394   -15373   -14589   -12270 
   -8888    -5003    -1034     2934     6474     8433     7865     4920 
     919    -2221    -3454    -3579    -3958    -4785    -5331    -5193 
   -4827    -5027    -6000    -7246    -8112    -8254    -7985    -8129 
   -9154   -10543   -11236   -10579    -8784    -6635    -4711    -2968 
   -1314      -84      577     1102     1783     2164     1660      303 
   -1521    -3279    -4232    -4177    -3786    -3599    -3458    -3215 
   -3224    -3975    -5667    -7864    -9464    -9808    -9507    -9413 
   -9592    -9733    -9639    -9090    -7732    -5376    -2385      488 
    2546     3387     3038     1766     -384    -3515    -7137    -9887 
  -10629    -9692    -8471    -8078    -8524    -8908    -8509    -7489 
   -6390    -5529    -4901    -4362    -3870    -3413    -2685    -1205 
    1171     3840     5447     4825     2160    -1368    -4693    -7345 
   -9513   -11404   -12308   -11217    -8337    -5161    -3153    -2708 
   -3155    -3551    -3507    -3400    -3992    -5386    -6418    -5771 
   -3477     -800      814      486    -1575    -4142    -6010    -6814 
   -6816    -6349    -5556    -4426    -3116    -2324    -2875    -4720 
   -6823    -8253    -8997    -9482    -9960   -10466   -10532    -9371 
   -7005    -4386    -2210     -481      949     2082     2657     2191 
     890      -92     -226     -366    -1201    -2262    -3160    -4450 
   -6526    -8807   -10514   -11357   -11370   -10655    -9137    -6646 
   -3488     -436     1925     3344     3620     2652      621    -2128 
   -5163    -8015   -10431   -12186   -12725   -11773   -10068    -8671 
   -7814    -6952    -5716    -4271    -2834    -1599    -1000    -1184 
   -1666    -2227    -3438    -5606    -7769    -8482    -7449    -5685 
   -4143    -2849    -1381      319     1702     2228     2113     1765 
     775    -1470    -4527    -7137    -8310    -7991    -7144    -7046 
   -8083    -9540   -10655   -11443   -12561   -14269   -15588   -15184 
  -12815    -9244    -5245    -1312     2110     4507     5465     5107 
    3893     2042     -155    -1842    -2213    -1430     -706    -1466 
   -4063    -7533   -10866   -13675   -15679   -16616   -16302   -14519 
  -11544    -8270    -5365    -2847     -536     1398     2532     2651 
    2021     1518     1959     3052     3888     4179     4288     4415 
    4046     2446     -233    -2835    -4424    -5283    -6218    -7256 
   -7835    -7805    -7646    -8048    -9134   -10109   -10137    -9001 
   -6857    -4211    -1814       95     2009     4284     6483     7799 
    7744     6266     3608      327    -2867    -5657    -8245   -10746 
  -12914   -14350   -14660   -13757   -11956    -9525    -6510    -3163 
    -348      867      288    -1279    -3138    -5101    -6758    -7372 
   -6784    -5672    -4741    -4150    -3585    -2743    -1938    -1783 
   -2188    -2470    -2377    -2104    -1512     -394      727     1036 
     235    -1512    -3766    -5978    -7862    -9293    -9927    -9531 
   -8513    -7671    -7426    -7365    -6645    -5034    -3220    -1828 
    -738      356     1354     1873     1447     -146    -2310    -4158 
   -5607    -6938    -7799    -7679    -6822    -6002    -5842    -6542 
   -7773    -9036   -10224   -11393   -12274   -12244   -10711    -7896 
   -4959    -3031    -2420    -2476    -2217    -1521    -1218    -1855 
   -3061    -3970    -3957    -3110    -1970     -796      633     2430 
    4171     5360     5689     4738     2530       -1    -2091    -3906 
   -5750    -7498    -8959   -10110   -10811   -10689    -9572    -7804 
   -5970    -4612    -4021    -3922    -3674    -3106    -2683    -2596 
   -2310    -1414     -407     -110     -676    -1639    -2519    -3114 
   -3735    -5141    -7675   -10515   -12157   -11601    -8910    -4959 
    -909     2485     5089     6726     6707     4476      573    -3591 
   -6884    -9030   -10279   -10942   -11184   -10895    -9799    -7977 
   -6126    -4828    -3791    -2411     -788      282      160     -897 
   -2039    -2747    -2972    -2709    -1873     -441     1340     2993 
    4202     4845     4617     3264      946    -2049    -5153    -7156 
   -6955    -4580    -1158     1965     4040     4834     4195     2035 
   -1497    -5861   -10230   -13781   -15765   -15610   -13265    -9331 
   -4741     -681     1501     1164    -1103    -4270    -7562   -10225 
  -11590   -11537   -10402    -8488    -5917    -3162    -1197     -549 
    -961    -2003    -3158    -3824    -3849    -3754    -3996    -4398 
   -4792    -5521    -6958    -9041   -11298   -13047   -13498   -12070 
   -8891    -4674     -116     4178     7500     9468    10272     9919 
    8007     4529      -29    -5026    -9398   -12033   -12793   -12483 
  -11855   -11082   -10208    -9432    -8700    -7841    -7205    -7406 
   -8556   -10124   -11301   -11728   -11916   -12179   -11762    -9859 
   -6955    -4687    -4384    -5855    -7815    -9113    -9364    -8731 
   -7375    -5304    -2767     -387     1132     1326      320    -1296 
   -3146    -4989    -6179    -6186    -5337    -4389    -3964    -4371 
   -5349    -6401    -7416    -8518    -9714   -10798   -11175   -10130 
   -7588    -4149     -380     3359     6509     8350     8510     7059 
    4330     1022    -2140    -4962    -7217    -7976    -6600    -3883 
   -1289      242      358     -627    -1805    -2762    -3949    -5799 
   -8264   -10897   -13089   -14533   -15167   -14879   -13769   -12178 
  -10236    -7931    -5530    -3401    -1856    -1419    -2211    -3328 
   -3836    -3749    -3576    -3454    -2934    -1524      562     2527 
    3882     4511     4341     3547     2340      598    -1766    -4460 
   -6985    -8934   -10172   -10625    -9774    -6952    -2522     1937 
    5068     6919     8327     9523     9945     9058     7051     5065 
    4311     4646     4703     3539     1391    -1185    -4122    -7476 
  -10888   -13709   -15536   -16549   -17072   -17153   -16759   -15817 
  -14190   -11848    -9015    -6333    -4431    -3144    -1880     -327 
    1681     3930     5684     6470     6343     5431     3732     1398 
    -939    -2437    -2506    -1107     1145     3600     5968     7717 
    7914     6007     2312    -2369    -7267   -11658   -14847   -16431 
  -16408   -14995   -12680   -10346    -8966    -9122   -10738   -13158 
  -15502   -17047   -17606   -17571   -17175   -15900   -12957    -8072 
   -1827     4378     8842    10524     9672     7466     5003     2602 
     264    -1626    -2584    -2450    -1311      315     1367      975 
    -933    -3889    -7304   -10894   -14845   -18783   -21327   -21580 
  -19796   -16576   -12666    -8911    -5738    -3151    -1146      315 
    1502     2732     4034     4924     4708     3413     2103     1893 
    2967     4581     5719     5725     4350     1596    -2242    -6552 
  -10535   -13540   -15345   -15974   -15483   -14088   -12207   -10324 
   -8793    -7453    -5832    -3974    -2408    -1412     -752       19 
    1078     2321     3674     5118     6649     8421    10643    13090 
   15020    15624    14398    11293     6601      638    -6229   -13309 
  -19910   -25578   -29565   -31039   -30164   -27951   -25053   -21333 
  -16401   -10367    -4159     1086     4855     7335     8949    10173 
   11595    13866    17367    21585    25081    26515    25390    21868 
   16572    10394     4055    -2070    -7434   -11144   -12995   -13859 
  -14457   -14655   -13924   -12006    -9442    -7299    -6284    -6402 
   -7379    -9038   -10991   -12408   -12613   -11685   -10327    -9101 
   -7938    -6740    -5834    -5592    -6124    -7057    -7677    -7798 
   -8044    -8846    -9563    -9107    -7402    -5462    -3863    -2408 
   -1421    -1802    -3856    -7102   -10644   -13403   -14834   -15460 
  -16130   -16801   -16600   -15013   -12597   -10447    -8950    -7461 
   -5440    -3199    -1226      563     2534     4700     6621     7852 
    8465     9194    10657    12388    13431    13576    13040    11547 
    8601     4218    -1194    -7411   -14263   -21059   -26716   -30397 
  -31918   -31762   -30518   -27963   -23194   -15943    -7298      971 
    7472    11778    14387    16155    17575    18600    19104    19229 
   19216    19073    18528    17417    15710    13233    10104     6932 
    4035     1230    -1565    -4256    -6954    -9814   -12625   -14924 
  -16354   -16933   -16951   -16248   -14312   -11380    -8443    -6470 
   -6112    -7304    -9007    -9976    -9656    -8225    -6010    -2945 
    1161     5912    10535    14491    17439    19043    18917    16662 
   12221     6135     -690    -7473   -13828   -19527   -24255   -27727 
  -29712   -29799   -27525   -22952   -17048   -11417    -7271    -4708 
   -3170    -2028     -803      577     1951     3562     5908     8666 
   10653    11022     9544     6274     2001    -1981    -5040    -7061 
   -7634    -6476    -4079    -1238     1701     4875     8490    12511 
   16458    19405    20521    19784    17999    16022    14087    11805 
    8491     3704    -2253    -8407   -13670   -17233   -18560   -17740 
  -15820   -13962   -12466   -10922    -9113    -7503    -6504    -6043 
   -5972    -6183    -6697    -7498    -8011    -7553    -6264    -4912 
   -3971    -3329    -2690    -2082    -1958    -2644    -3825    -4544 
   -3718    -1066     2629     6213     8908    10555    11154    10416 
    8056     4185     -507    -4835    -7852    -9587   -10672   -11516 
  -12104   -12225   -11813   -11197   -10974   -11512   -12358   -12527 
  -11637   -10279    -9128    -7979    -5987    -2681     1698     6338 
   10110    12465    13797    14673    15259    15345    14578    12463 
    8230     1510    -6815   -15060   -21893   -26617   -29132   -30068 
  -29867   -28275   -25564   -22828   -21132   -21037   -22132   -23344 
  -23991   -24132   -24060   -23664   -22569   -20651   -18087   -15133 
  -11880    -8336    -4547     -569     3228     6169     7806     7940 
    6688     4992     3893     3042     1132    -2330    -6466    -9757 
  -10959    -9841    -7315    -4618    -2085      876     4458     7947 
   10595    12135    12375    10967     7785     3119    -2320    -6992 
   -8882    -7378    -3620     1161     5923     9464    11234    11528 
   11044    10493     9903     9132     8644     9001    10564    13270 
   16546    19482    20518    18365    12699     3070   -10208   -25292 
  -40658   -53944   -61633   -62890   -58593   -49514   -37925   -25943 
  -14601    -4550     4090    10418    13829    14848    13316     9036 
    2791    -4494   -12287   -20151   -27530   -34172   -40226   -45550 
  -49440   -51377   -51461   -49883   -46905   -42653   -37070   -31066 
  -25805   -21304   -17435   -14671   -13489   -13791   -15222   -17702 
  -20283   -20990   -20212   -19932   -18530   -15090   -12702   -11375 
   -9947    -9680   -10064    -9988    -8350    -4128      746     4614 
    7630     8896     8081     6159     2854    -2519    -8793   -13680 
  -15959   -16109   -15014   -13388   -12067   -11344   -10505    -9072 
   -7382    -5535    -3384    -1037     1251     3473     6132     9479 
   13524    18198    22481    25128    25687    24486    22568    19864 
   16184    14379    15775    18059    20630    23384    25065    25295 
   23596    19814    14225     6695    -2086   -11074   -19711   -26764 
  -30387   -29698   -24847   -16317    -4898     7749    18827    26260 
   29984    30688    29372    27585    26260    25357    24616    24031 
   23680    22836    20671    17190    12534     7246     2169    -2432 
   -6334    -9418   -12104   -14670   -17051   -18500   -17842   -14767 
   -9160     -822     9327    19537    27876    32606    33229    30795 
   26568    21259    15659    10384     5303       23    -5781   -12416 
  -19499   -25680   -29781   -31209   -29482   -24660   -17531    -8856 
     715    10340    19102    26050    30531    32105    30234    25133 
   17994     9787      874    -8394   -17337   -24883   -29652   -30725 
  -28844   -26172   -24589   -24366   -24342   -23778   -23496   -24703 
  -27829   -32620   -38294   -43909   -48816   -52199   -53251   -51852 
  -47810   -40806   -31976   -23486   -16387   -10780    -6506    -2609 
    1841     6842    11776    15656    17872    18851    19463    20081 
   20097    18218    13211     4401    -7486   -20020   -30697   -38323 
  -42919   -45269   -46081   -45787   -44760   -42484   -37980   -31248 
  -23035   -13963    -4218     5842    15098    22358    27060    29281 
   29947    30592    32059    33966    35718    37097    37595    35776 
   30140    20761     9097    -3347   -15551   -27145   -37589   -45155 
  -48418   -48326   -47137   -45866   -44675   -44346   -44717   -43698 
  -39973   -34028   -26017   -15645    -3713     7666    16181    21040 
   23208    23866    23484    21813    17976    11239     1864    -8998 
  -19671   -28588   -35062   -38762   -39013   -35665   -29321   -20515 
  -10298     -456     7983    14900    19635    21061    18842    13877 
    7903     2472    -1892    -5017    -5988    -3739     1592     8482 
   14795    19171    21735    22907    22366    19796    15717    11273 
    7506     4648     2459     1585     3389     8232    14999    21649 
   26030    27293    26085    23465    20495    17692    14461    10051 
    4520    -1286    -6162    -9526   -11765   -13173   -13419   -12347 
  -10603    -9350    -9543   -11188   -13504   -15741   -17339   -17950 
  -17421   -15682   -12970    -9851    -6587    -3148     -108     1511 
    1180     -957    -4793   -10478   -17723   -25639   -32535   -36711 
  -37888   -36244   -32150   -26537   -19756   -12047    -3995     3784 
   10338    15079    17786    18224    16739    14190    11559     9370 
    7446     5486     3071     -282    -4503    -9199   -14395   -19969 
  -25159   -29683   -33689   -36838   -38622   -38381   -35584   -30860 
  -25845   -22052   -19901   -18685   -17295   -15274   -13384   -12306 
  -11576   -10203    -7005    -1909     3346     7884    11033    10699 
    6901     1418    -4852   -11142   -16501   -19632   -20130   -18397 
  -14433    -9604    -5757    -3360    -2385    -2468    -3373    -5371 
   -8305   -11417   -13804   -14711   -14075   -12399    -9741    -6034 
   -2101     1151     3393     4818     6415     9135    13336    18752 
   24196    28316    30404    30603    29551    27754    25425    22237 
   17800    12432     6625      677    -4832    -9204   -12203   -14057 
  -15241   -16335   -17341   -17483   -16506   -15033   -13280   -10887 
   -7826    -4128      680     6332    11241    13864    13382     9855 
    4162    -2600    -9357   -15282   -19927   -23036   -24847   -26148 
  -27310   -28145   -28729   -29058   -28302   -25703   -21518   -16197 
   -9784    -2284     5922    13574    19018    21235    20072    16294 
   11265     6185     1685    -2074    -5052    -7380    -9444   -11645 
  -14307   -17708   -21808   -25792   -28318   -28498   -26239   -21982 
  -16311    -9707    -2875     3248     7994    10920    11812    11017 
    8936     5892     2581     -791    -5062   -11098   -18770   -26718 
  -33007   -35929   -34451   -28412   -18507    -6222     6562    17889 
   25673    28349    25707    18572     8176    -3902   -15819   -25785 
  -32453   -35102   -33581   -28214   -19786    -9755      141     8867 
   15961    20678    21913    19270    13831     7436     1710    -2570 
   -5455    -7030    -7390    -6969    -6284    -5775    -5621    -5766 
   -6391    -7875   -10286   -13335   -16571   -19251   -20304   -18784 
  -14937   -10537    -7311    -5892    -6147    -7225    -8257    -9685 
  -12356   -15546   -18392   -20952   -22453   -23146   -24546   -25920 
  -26007   -24594   -21788   -18247   -14108   -10057    -7502    -6626 
   -7049    -8311   -10272   -13415   -17636   -22069   -25731   -27641 
  -27231   -24813   -20976   -16073   -10566    -5222     -831     2303 
    4449     5953     7089     8104     9260    11155    13992    16801 
   18437    18324    16447    13353     9711     6091     2903      346 
   -1343    -2315    -3186    -4077    -4923    -5917    -6836    -7143 
   -6621    -5160    -2545     1209     5961    11308    16463    20812 
   23796    24896    24237    22416    19877    16814    13407     9758 
