Origin Time       2016/04/16 01:25:00
Lat.              32.753
Long.             130.762
Depth. (km)       12
Mag.              7.3
Station Code      NGS018
Station Lat.      32.6341
Station Long.     128.6194
Station Height(m) 6
Record Time       2016/04/16 01:25:48
Sampling Freq(Hz) 100Hz
Duration Time(s)  76
Dir.              N-S
Scale Factor      3920(gal)/6182761
Max. Acc. (gal)   2.151
Last Correction   2016/04/16 01:25:50
Memo.             
[...]
   -5410    -5512    -5625    -5757    -5908    -6055    -6176    -6263 
   -6349    -6408    -6335    -6130    -5896    -5710    -5619    -5637 
   -5723    -5827    -5966    -6178    -6393    -6499    -6517    -6528 
   -6533    -6532    -6544    -6509    -6370    -6190    -6069    -6028 
   -6019    -6012    -6020    -6020    -5974    -5931    -5935    -5965 
   -5979    -5928    -5792    -5578    -5340    -5181    -5109    -5040 
   -4945    -4857    -4811    -4798    -4804    -4884    -5054    -5236 
   -5414    -5622    -5833    -5995    -6069    -6033    -5923    -5820 
   -5762    -5701    -5618    -5567    -5578    -5627    -5712    -5832 
   -5940    -6038    -6180    -6321    -6380    -6378    -6338    -6227 
   -6050    -5877    -5769    -5731    -5748    -5798    -5843    -5877 
   -5923    -5971    -5998    -5975    -5906    -5840    -5786    -5717 
   -5644    -5611    -5650    -5714    -5722    -5684    -5674    -5723 
   -5824    -5988    -6197    -6374    -6504    -6645    -6796    -6905 
   -6934    -6870    -6748    -6588    -6372    -6110    -5852    -5624 
   -5441    -5341    -5322    -5286    -5222    -5215    -5255    -5291 
   -5311    -5292    -5277    -5326    -5398    -5415    -5371    -5357 
   -5431    -5542    -5622    -5622    -5547    -5485    -5517    -5665 
   -5891    -6111    -6258    -6309    -6288    -6245    -6206    -6180 
   -6161    -6120    -6022    -5850    -5637    -5474    -5426    -5464 
   -5505    -5527    -5556    -5553    -5504    -5484    -5530    -5613 
   -5676    -5668    -5613    -5544    -5480    -5445    -5426    -5422 
   -5443    -5464    -5487    -5545    -5641    -5729    -5795    -5887 
   -5981    -6013    -6002    -5981    -5940    -5887    -5841    -5794 
   -5713    -5571    -5386    -5214    -5104    -5077    -5144    -5261 
   -5369    -5505    -5698    -5852    -5892    -5833    -5693    -5494 
   -5280    -5100    -5000    -5010    -5137    -5355    -5613    -5874 
   -6098    -6231    -6237    -6153    -6095    -6101    -6097    -6070 
   -6062    -6073    -6089    -6131    -6170    -6106    -5952    -5850 
   -5824    -5806    -5790    -5784    -5775    -5745    -5698    -5679 
   -5707    -5727    -5699    -5627    -5540    -5429    -5287    -5210 
   -5294    -5445    -5514    -5509    -5521    -5559    -5594    -5637 
   -5713    -5802    -5847    -5844    -5833    -5819    -5783    -5720 
   -5636    -5562    -5508    -5460    -5478    -5597    -5728    -5771 
   -5716    -5628    -5533    -5400    -5245    -5142    -5116    -5145 
   -5246    -5426    -5611    -5715    -5730    -5676    -5591    -5525 
   -5495    -5504    -5517    -5503    -5523    -5622    -5742    -5801 
   -5772    -5713    -5696    -5738    -5809    -5876    -5963    -6080 
   -6194    -6318    -6442    -6506    -6482    -6350    -6140    -5939 
   -5771    -5615    -5490    -5448    -5485    -5523    -5552    -5630 
   -5767    -5919    -6019    -6052    -6070    -6098    -6138    -6211 
   -6313    -6409    -6454    -6437    -6398    -6376    -6392    -6421 
   -6431    -6422    -6367    -6244    -6085    -5898    -5676    -5454 
   -5267    -5124    -5017    -4964    -4989    -5055    -5126    -5231 
   -5395    -5571    -5688    -5752    -5797    -5810    -5775    -5729 
   -5738    -5784    -5743    -5616    -5541    -5566    -5619    -5616 
   -5525    -5380    -5210    -5062    -5001    -5020    -5090    -5233 
   -5450    -5707    -5947    -6105    -6154    -6103    -6007    -5963 
   -5998    -6031    -6035    -6047    -6037    -5980    -5946    -5973 
   -6033    -6082    -6092    -6099    -6116    -6097    -6057    -6037 
   -6066    -6171    -6289    -6316    -6216    -6006    -5774    -5619 
   -5541    -5500    -5483    -5482    -5466    -5429    -5439    -5536 
   -5669    -5801    -5911    -5964    -5962    -5961    -6017    -6097 
   -6155    -6200    -6219    -6232    -6287    -6325    -6296    -6263 
   -6256    -6190    -6058    -5949    -5858    -5742    -5665    -5650 
   -5637    -5607    -5582    -5570    -5559    -5551    -5559    -5569 
   -5574    -5610    -5685    -5796    -5936    -6096    -6269    -6407 
   -6483    -6531    -6548    -6518    -6463    -6383    -6274    -6164 
   -6131    -6201    -6313    -6423    -6485    -6463    -6392    -6306 
   -6229    -6170    -6108    -6044    -5988    -5937    -5909    -5904 
   -5931    -6010    -6114    -6168    -6114    -5987    -5887    -5838 
   -5800    -5760    -5741    -5755    -5798    -5877    -5977    -6015 
   -5973    -5930    -5959    -6109    -6358    -6576    -6706    -6786 
   -6827    -6805    -6728    -6615    -6453    -6227    -5944    -5653 
   -5466    -5443    -5516    -5601    -5678    -5745    -5776    -5766 
   -5739    -5659    -5467    -5219    -4990    -4818    -4745    -4751 
   -4788    -4856    -4967    -5079    -5132    -5137    -5125    -5081 
   -5026    -4988    -4940    -4903    -4913    -4928    -4902    -4841 
   -4779    -4723    -4658    -4607    -4585    -4587    -4633    -4734 
   -4868    -5010    -5166    -5364    -5573    -5728    -5788    -5762 
   -5733    -5778    -5886    -6017    -6111    -6107    -6046    -6006 
   -5980    -5924    -5878    -5915    -6028    -6173    -6305    -6397 
   -6469    -6522    -6525    -6466    -6347    -6189    -6020    -5846 
   -5693    -5604    -5589    -5643    -5760    -5928    -6115    -6266 
   -6377    -6492    -6634    -6760    -6809    -6811    -6817    -6777 
   -6642    -6444    -6227    -6010    -5805    -5624    -5472    -5367 
   -5325    -5333    -5389    -5515    -5704    -5906    -6039    -6063 
   -6033    -5984    -5885    -5735    -5584    -5462    -5335    -5180 
   -5049    -4972    -4924    -4907    -4934    -5023    -5195    -5424 
   -5642    -5787    -5849    -5832    -5721    -5559    -5407    -5257 
   -5091    -4877    -4612    -4380    -4258    -4264    -4373    -4527 
   -4702    -4890    -5064    -5214    -5335    -5404    -5383    -5224 
   -4930    -4593    -4337    -4178    -4064    -3985    -3919    -3833 
   -3768    -3772    -3848    -4000    -4260    -4675    -5238    -5868 
   -6487    -7052    -7525    -7842    -7951    -7898    -7777    -7639 
   -7511    -7402    -7308    -7244    -7247    -7326    -7452    -7611 
   -7813    -7989    -8031    -7945    -7790    -7588    -7353    -7132 
   -6971    -6901    -6949    -7094    -7273    -7430    -7504    -7441 
   -7226    -6881    -6469    -6057    -5662    -5310    -5028    -4815 
   -4700    -4739    -4931    -5188    -5430    -5626    -5752    -5803 
   -5829    -5833    -5751    -5557    -5285    -5003    -4762    -4569 
   -4442    -4356    -4223    -3996    -3693    -3349    -2997    -2686 
   -2485    -2415    -2441    -2522    -2634    -2802    -3072    -3449 
   -3915    -4438    -4967    -5418    -5739    -5987    -6229    -6491 
   -6778    -7030    -7179    -7184    -7034    -6818    -6676    -6675 
   -6792    -6967    -7148    -7262    -7236    -7095    -6887    -6636 
   -6416    -6289    -6254    -6309    -6477    -6747    -7045    -7328 
   -7574    -7732    -7794    -7791    -7703    -7491    -7159    -6770 
   -6421    -6167    -6012    -6003    -6172    -6449    -6745    -7023 
   -7258    -7408    -7454    -7438    -7404    -7345    -7242    -7134 
   -7072    -7073    -7112    -7138    -7155    -7219    -7301    -7323 
   -7267    -7191    -7171    -7235    -7338    -7420    -7412    -7280 
   -7045    -6742    -6390    -5979    -5534    -5123    -4778    -4515 
   -4358    -4293    -4323    -4446    -4580    -4679    -4781    -4891 
   -4962    -5017    -5169    -5454    -5774    -6045    -6253    -6389 
   -6433    -6362    -6158    -5829    -5424    -4997    -4571    -4214 
   -3999    -3915    -3968    -4185    -4492    -4785    -5034    -5254 
   -5428    -5473    -5340    -5070    -4729    -4367    -4006    -3681 
   -3440    -3313    -3315    -3431    -3614    -3788    -3866    -3836 
   -3748    -3684    -3752    -4012    -4459    -5054    -5698    -6331 
   -6955    -7525    -7944    -8138    -8090    -7797    -7274    -6610 
   -5931    -5373    -5045    -4956    -5054    -5291    -5598    -5924 
   -6221    -6383    -6335    -6105    -5757    -5357    -4950    -4567 
   -4263    -4082    -3999    -3945    -3866    -3724    -3485    -3211 
   -3021    -2951    -2988    -3185    -3586    -4129    -4738    -5405 
   -6095    -6696    -7157    -7483    -7650    -7633    -7462    -7272 
   -7203    -7237    -7289    -7332    -7353    -7346    -7309    -7211 
   -7014    -6722    -6396    -6086    -5818    -5618    -5513    -5546 
   -5719    -5945    -6136    -6247    -6282    -6272    -6266    -6288 
   -6297    -6251    -6170    -6059    -5902    -5728    -5581    -5469 
   -5381    -5319    -5282    -5237    -5156    -5088    -5144    -5397 
   -5827    -6366    -6927    -7392    -7698    -7853    -7859    -7738 
   -7542    -7316    -7082    -6844    -6627    -6455    -6309    -6171 
   -6026    -5800    -5459    -5118    -4944    -4986    -5170    -5443 
   -5746    -5997    -6176    -6305    -6400    -6497    -6633    -6823 
   -7056    -7261    -7384    -7453    -7511    -7555    -7587    -7646 
   -7727    -7762    -7722    -7618    -7430    -7126    -6737    -6359 
   -6071    -5906    -5855    -5880    -5935    -5958    -5925    -5862 
   -5777    -5689    -5629    -5549    -5382    -5155    -4964    -4838 
   -4691    -4495    -4350    -4315    -4367    -4470    -4594    -4728 
   -4850    -4958    -5100    -5289    -5514    -5784    -6038    -6162 
   -6102    -5889    -5577    -5218    -4903    -4706    -4611    -4556 
   -4491    -4421    -4434    -4568    -4774    -5003    -5232    -5425 
   -5524    -5511    -5432    -5334    -5244    -5191    -5205    -5298 
   -5436    -5592    -5818    -6123    -6394    -6551    -6610    -6597 
   -6530    -6463    -6439    -6456    -6549    -6746    -6982    -7171 
   -7273    -7290    -7250    -7168    -7044    -6843    -6534    -6151 
   -5797    -5605    -5614    -5728    -5867    -6038    -6255    -6491 
   -6691    -6820    -6868    -6831    -6749    -6706    -6754    -6885 
   -7036    -7156    -7239    -7283    -7274    -7229    -7194    -7195 
   -7203    -7186    -7141    -7082    -7064    -7137    -7262    -7333 
   -7243    -6995    -6686    -6386    -6119    -5909    -5813    -5925 
   -6265    -6719    -7137    -7416    -7524    -7475    -7319    -7117 
   -6894    -6706    -6639    -6695    -6820    -6970    -7095    -7169 
   -7191    -7167    -7084    -6896    -6584    -6180    -5756    -5398 
   -5151    -5004    -4953    -5003    -5117    -5239    -5361    -5518 
   -5705    -5889    -6056    -6162    -6159    -6038    -5829    -5617 
   -5473    -5367    -5232    -5064    -4953    -4984    -5161    -5452 
   -5801    -6133    -6396    -6584    -6716    -6771    -6739    -6677 
   -6610    -6497    -6326    -6112    -5880    -5678    -5584    -5641 
   -5792    -5963    -6132    -6284    -6397    -6458    -6494    -6545 
   -6574    -6523    -6390    -6199    -6011    -5908    -5887    -5875 
   -5845    -5831    -5844    -5877    -5966    -6114    -6282    -6470 
   -6679    -6897    -7133    -7393    -7671    -7965    -8271    -8538 
   -8695    -8728    -8694    -8647    -8607    -8552    -8446    -8266 
   -8008    -7721    -7467    -7259    -7051    -6773    -6424    -6077 
   -5803    -5660    -5686    -5845    -6052    -6233    -6351    -6411 
   -6417    -6375    -6284    -6113    -5848    -5548    -5303    -5178 
   -5200    -5367    -5624    -5871    -6033    -6065    -5974    -5865 
   -5834    -5882    -5936    -5935    -5903    -5884    -5878    -5885 
   -5935    -6011    -6015    -5901    -5713    -5444    -5075    -4669 
   -4287    -4007    -3888    -3872    -3883    -3920    -4015    -4167 
   -4315    -4401    -4405    -4317    -4171    -4064    -4087    -4241 
   -4448    -4669    -4923    -5222    -5585    -6010    -6470    -6912 
   -7255    -7441    -7458    -7329    -7117    -6848    -6514    -6156 
   -5804    -5462    -5173    -5013    -5008    -5114    -5298    -5535 
   -5779    -6033    -6315    -6559    -6676    -6632    -6434    -6138 
   -5821    -5570    -5419    -5349    -5360    -5424    -5480    -5500 
   -5455    -5318    -5135    -5026    -5043    -5079    -5052    -4966 
   -4836    -4713    -4636    -4595    -4589    -4617    -4661    -4692 
   -4674    -4618    -4548    -4481    -4458    -4514    -4661    -4862 
   -5025    -5095    -5061    -4927    -4726    -4489    -4242    -4019 
   -3841    -3736    -3719    -3771    -3883    -4036    -4222    -4444 
   -4656    -4783    -4811    -4822    -4882    -4985    -5132    -5337 
   -5568    -5790    -5967    -6040    -5980    -5806    -5555    -5283 
   -5090    -5059    -5162    -5332    -5572    -5882    -6179    -6330 
   -6263    -6049    -5780    -5497    -5258    -5101    -5010    -4952 
   -4939    -5036    -5270    -5604    -5993    -6358    -6597    -6644 
   -6501    -6250    -6003    -5826    -5691    -5546    -5395    -5256 
   -5115    -4974    -4835    -4721    -4663    -4644    -4640    -4663 
   -4721    -4809    -4902    -5001    -5127    -5254    -5378    -5520 
   -5623    -5611    -5480    -5293    -5119    -5009    -5002    -5096 
   -5277    -5534    -5814    -6031    -6137    -6158    -6157    -6138 
   -6073    -6006    -5991    -6027    -6087    -6177    -6341    -6563 
   -6744    -6807    -6719    -6493    -6225    -6030    -5987    -6141 
   -6490    -6986    -7537    -8044    -8467    -8813    -9063    -9182 
   -9189    -9160    -9123    -9032    -8837    -8514    -8126    -7797 
   -7593    -7501    -7452    -7347    -7153    -6937    -6780    -6707 
   -6696    -6685    -6616    -6514    -6446    -6415    -6393    -6358 
   -6265    -6084    -5843    -5574    -5280    -4987    -4739    -4563 
   -4477    -4491    -4606    -4783    -4934    -5030    -5128    -5251 
   -5413    -5637    -5896    -6159    -6383    -6474    -6368    -6069 
   -5691    -5387    -5234    -5251    -5396    -5551    -5626    -5582 
   -5444    -5311    -5239    -5223    -5248    -5301    -5360    -5409 
   -5459    -5532    -5606    -5658    -5704    -5763    -5843    -5927 
   -5995    -6023    -5974    -5868    -5771    -5721    -5721    -5738 
   -5721    -5610    -5358    -5007    -4617    -4192    -3763    -3388 
   -3107    -2958    -2960    -3118    -3435    -3842    -4240    -4612 
   -4963    -5254    -5497    -5778    -6075    -6262    -6302    -6251 
   -6169    -6101    -6063    -6043    -6011    -5943    -5838    -5693 
   -5565    -5538    -5602    -5699    -5809    -5905    -5949    -5932 
   -5902    -5911    -5950    -5991    -6002    -5945    -5806    -5601 
   -5405    -5313    -5356    -5524    -5758    -5975    -6156    -6320 
   -6475    -6610    -6689    -6677    -6537    -6282    -6000    -5763 
   -5629    -5636    -5725    -5789    -5765    -5667    -5550    -5416 
   -5263    -5122    -4999    -4886    -4799    -4770    -4801    -4850 
   -4903    -4980    -5074    -5127    -5064    -4919    -4817    -4815 
   -4912    -5074    -5235    -5378    -5503    -5554    -5480    -5311 
   -5124    -4957    -4788    -4587    -4325    -4011    -3717    -3508 
   -3421    -3463    -3590    -3711    -3757    -3763    -3796    -3859 
   -3981    -4185    -4418    -4646    -4853    -5015    -5137    -5269 
   -5455    -5659    -5780    -5774    -5668    -5538    -5449    -5377 
   -5295    -5232    -5217    -5243    -5277    -5314    -5404    -5556 
   -5717    -5819    -5819    -5767    -5752    -5804    -5915    -6071 
   -6245    -6397    -6528    -6673    -6795    -6834    -6801    -6742 
   -6674    -6598    -6508    -6388    -6245    -6175    -6282    -6535 
   -6814    -7013    -7065    -6970    -6771    -6528    -6306    -6151 
   -6079    -6069    -6109    -6167    -6160    -6075    -5961    -5847 
   -5789    -5843    -5972    -6058    -6013    -5832    -5532    -5133 
   -4720    -4364    -4064    -3821    -3651    -3560    -3527    -3523 
   -3574    -3730    -3971    -4229    -4432    -4564    -4664    -4782 
   -4933    -5075    -5163    -5198    -5212    -5258    -5344    -5427 
   -5498    -5561    -5578    -5527    -5432    -5332    -5253    -5193 
   -5146    -5117    -5108    -5126    -5171    -5238    -5343    -5498 
   -5692    -5917    -6161    -6408    -6642    -6850    -6996    -7017 
   -6884    -6630    -6312    -5997    -5751    -5623    -5626    -5722 
   -5843    -5964    -6114    -6327    -6595    -6902    -7201    -7425 
   -7540    -7519    -7339    -7023    -6599    -6096    -5558    -5042 
   -4619    -4313    -4127    -4109    -4271    -4532    -4803    -5064 
   -5344    -5634    -5893    -6128    -6329    -6428    -6380    -6218 
   -6023    -5853    -5719    -5627    -5598    -5605    -5567    -5458 
   -5322    -5157    -4984    -4894    -4920    -5007    -5071    -5055 
   -4970    -4851    -4719    -4603    -4509    -4444    -4407    -4384 
   -4376    -4370    -4338    -4293    -4253    -4214    -4180    -4170 
   -4181    -4197    -4251    -4374    -4555    -4810    -5142    -5495 
   -5821    -6067    -6178    -6136    -5946    -5645    -5284    -4930 
   -4654    -4470    -4346    -4273    -4263    -4316    -4410    -4498 
   -4533    -4489    -4401    -4291    -4149    -4018    -3965    -4008 
   -4129    -4273    -4382    -4458    -4538    -4646    -4759    -4839 
   -4921    -5049    -5205    -5342    -5433    -5522    -5632    -5715 
   -5757    -5784    -5805    -5795    -5737    -5668    -5612    -5537 
   -5449    -5400    -5391    -5375    -5334    -5284    -5205    -5073 
   -4945    -4879    -4893    -5001    -5170    -5325    -5434    -5517 
   -5590    -5651    -5703    -5714    -5636    -5508    -5417    -5413 
   -5500    -5650    -5813    -5938    -6002    -6029    -6016    -5928 
   -5770    -5577    -5395    -5241    -5080    -4908    -4760    -4635 
   -4537    -4494    -4500    -4512    -4518    -4533    -4553    -4553 
   -4529    -4486    -4416    -4316    -4221    -4193    -4242    -4321 
   -4407    -4510    -4633    -4750    -4832    -4896    -4978    -5118 
   -5348    -5645    -5919    -6072    -6074    -5979    -5858    -5780 
   -5789    -5843    -5878    -5905    -5937    -6001    -6160    -6422 
   -6705    -6937    -7080    -7109    -7037    -6893    -6682    -6423 
   -6171    -5954    -5782    -5668    -5602    -5579    -5609    -5721 
   -5936    -6201    -6428    -6568    -6616    -6574    -6449    -6271 
   -6084    -5931    -5847    -5808    -5791    -5830    -5943    -6132 
   -6380    -6611    -6765    -6831    -6787    -6632    -6412    -6178 
   -5956    -5756    -5642    -5659    -5745    -5852    -5984    -6154 
   -6360    -6574    -6784    -6985    -7159    -7285    -7340    -7318 
   -7235    -7079    -6879    -6672    -6461    -6264    -6088    -5908 
   -5722    -5548    -5433    -5392    -5394    -5439    -5518    -5562 
   -5552    -5533    -5531    -5527    -5494    -5436    -5349    -5236 
   -5129    -5040    -4961    -4896    -4854    -4861    -4922    -5034 
   -5187    -5321    -5389    -5402    -5401    -5433    -5521    -5659 
   -5826    -5985    -6102    -6145    -6096    -5959    -5768    -5615 
   -5579    -5619    -5666    -5715    -5771    -5842    -5937    -6045 
   -6120    -6106    -6004    -5829    -5605    -5394    -5259    -5239 
   -5346    -5551    -5840    -6215    -6631    -6980    -7172    -7222 
