Origin Time       2016/04/16 01:25:00
Lat.              32.753
Long.             130.762
Depth. (km)       12
Mag.              7.3
Station Code      NGS008
Station Lat.      32.9231
Station Long.     130.1843
Station Height(m) 6
Record Time       2016/04/16 01:25:16
Sampling Freq(Hz) 100Hz
Duration Time(s)  163
Dir.              N-S
Scale Factor      3920(gal)/6182761
Max. Acc. (gal)   68.415
Last Correction   2016/04/16 01:25:16
Memo.             
[...]
    9861     9867     9883     9897     9878     9857     9876     9891 
    9874     9857     9886     9914     9877     9863     9883     9868 
    9879     9920     9909     9867     9855     9868     9877     9883 
    9886     9892     9888     9864     9869     9891     9883     9870 
    9870     9871     9887     9896     9874     9874     9900     9892 
    9864     9868     9892     9889     9861     9863     9898     9908 
    9884     9860     9869     9905     9895     9857     9875     9882 
    9853     9878     9900     9870     9871     9895     9886     9874 
    9872     9862     9867     9887     9904     9901     9872     9854 
    9858     9885     9918     9895     9860     9864     9887     9917 
    9902     9849     9841     9877     9902     9888     9869     9887 
    9887     9866     9881     9891     9884     9887     9867     9852 
    9878     9889     9892     9905     9889     9874     9864     9849 
    9883     9928     9905     9841     9837     9898     9906     9864 
    9873     9893     9869     9856     9883     9898     9878     9866 
    9865     9871     9898     9898     9873     9869     9877     9893 
    9906     9884     9851     9856     9887     9891     9873     9882 
    9901     9876     9851     9887     9901     9863     9875     9899 
    9867     9856     9885     9897     9901     9886     9859     9863 
    9875     9892     9907     9873     9854     9881     9882     9884 
    9917     9900     9839     9837     9897     9913     9886     9880 
    9866     9851     9875     9899     9904     9894     9862     9855 
    9882     9901     9894     9871     9872     9875     9863     9892 
    9912     9869     9868     9884     9847     9860     9912     9908 
    9884     9861     9842     9857     9886     9913     9911     9865 
    9857     9894     9891     9875     9889     9902     9906     9881 
    9858     9894     9910     9900     9924     9912     9865     9887 
    9946     9950     9914     9909     9921     9887     9871     9940 
   10012     9985     9889     9829     9818     9888    10050    10117 
    9984     9748     9582     9658     9903    10058    10044     9909 
    9726     9625     9696     9910    10162    10321    10208     9751 
    9334     9434     9955    10384    10328     9896     9529     9430 
    9587    10059    10612    10656    10062     9344     9033     9374 
   10135    10661    10555     9966     9319     9046     9332     9989 
   10462    10363    10016     9713     9196     8580     8738    10292 
   12238    12271     9996     8132     8555     9928    10536    10565 
   10709    10188     8316     7345     9452    12225    12235    10469 
    9804    10182     9722     8419     8354     9972    10495     9181 
    9243    10716     9792     7060     7844    13062    15992    12174 
    6890     5920     7237     8262    10139    12443    12790    10082 
    6332     6388    11279    15092    13911    11145    10317     9713 
    7278     5495     8074    13197    14129     9415     5641     6242 
    8396    11383    15548    16398    10067     2150     2470    10325 
   15339    13681    10579     8219     5201     5232    11559    18044 
   16981     9802     4662     5351     8991    12801    14602    13126 
    9231     4551     3172     7416    13442    16203    13171     7432 
    4601     5041     8890    16121    18549    11216     2687     1359 
    5498    11100    15985    16590    12413     7682     4607     5129 
   11378    18239    18352    11434     2723    -1001     3833    14247 
   22521    19693     7333     -249     1290     5891    14038    20684 
   14874     2258    -2656     1533     9311    18935    22625    12914 
    1603      259     4592    14603    26323    22002     3548    -6400 
   -2665     6619    20451    27752    15892     1268     -305     3474 
   11150    22760    22398     6759    -6004    -6605     2413    18939 
   29299    19142     2007    -2480     3050    11560    21302    20910 
    5336    -6219    -3572     4706    18260    27359    15675     1624 
    4231     8501     9645    15254    15883     8596     4855     8331 
   13861    15066    10190     5145     6443    10711     9848     5972 
    5201     6720    10587    15095    13057     8187     8420     8730 
    6852     9420    13609    10576     4135     5395    13926    19036 
   16113    11997    11276     8861     5452     9525    17002    13081 
    -170    -2414     9584    18740    16167     4520    -2710     4741 
   14363    17422    17442    12530     4781      649     4334    13786 
   17939    12728     5615     2771     4285     9356    17665    23102 
   19273     8684     -275    -1025     4891    12622    18830    18238 
   12130     7029     1519     -819     8205    21501    24668    10840 
   -6378    -6503     4380    16940    29332    24360     5081    -2207 
    1878     5813    11422    15282    13759    11076     7099     2551 
    3209     9379    17737    23237    17803     4036    -4178    -2242 
    4869    16388    24892    16140     1364     -318     3975    12872 
   28711    28760     8846    -3229    -2013     -654     7890    24329 
   25058     6049    -5841      587     7673    12741    20556    15950 
    2724     -719     1768     7135    19249    27559    21422     7317 
   -1926     -967     8189    19373    21055     8499     1943    11928 
   11706     2457    11649    22330    13881      694    -3234     1977 
   10029    20159    23852     6747    -8151     2938    15943    18121 
   18056     9352     1306     4636     8376    11438    13450     9914 
    6229     4427     3186     4285    11054    21164    20126     5705 
   -2071     3647    10900    14522    14140     9515     4263     1731 
    7333    20760    27496    18300     2620    -3554     1457     6555 
   10926    15730    10980     -870    -3925     4844    19364    30249 
   19851    -3943    -8436      386     5618    21562    30909     8466 
   -8686     2940    12022    13723    22125    20642     6241    -1970 
    -782     3982     9382    16497    23720    21624     7030    -7351 
   -8065     -523     8251    17854    15342     2535     1020     8500 
   17060    28520    28736    15043     5958     1079    -5041    -4712 
    4532    22292    34576    17239    -9645    -8275     7685    21942 
   37049    23754   -11590   -16015    -3049     1794    20457    35585 
   21271     1055    -6394    -3194     7609    22659    28148    14269 
    1752    -1729   -10950   -10314    13636    29495    13511    -1923 
    4209     3865     8981    34784    34520     4325    -8983     -937 
   10130    23675    27967    10618    -3437     -694     1904     4124 
    9313     7652     1555     5613    15720    13637     5859     5760 
    7115     8649    11476    10673    11124    14306     9278    -1847 
   -2705     9360    24062    29781    13198    -9599    -5281     8295 
    8605    14816    19558     8875     1304     2647    10989    20068 
   10019    -5260     4734    24166    27689    20538     8111    -1197 
    4866    15106    14835     6665     1801     6329    11664    11671 
    9630     5264     3674    12656    19332     8536    -4751    -1910 
    9396    21041    28441    16190    -3845    -3359     5930    10409 
   19318    21145     6467    -4408    -1307     5434    16307    31813 
   26275    -2679   -10397     4321     5240     9135    24709    18648 
    1172     3149    18553    29272    22632     2373    -5807     3571 
   10987    14683    16322    10717     7952    10634     7968     1314 
   -2253     1540    13882    28153    26088     -780   -16853     4971 
   36882    47836    23515   -14079   -21896   -11141     2431    24225 
   32703    19471     -252    -7104     2784    11691    25281    32322 
    6656   -12332      -26     5081     4587    20567    25405     8122 
    1692    11134    10054     3653    15627    29729    21949     4791 
   -3335    -2134      965     5166    16111    24734    12034    -9584 
  -10734     8997    37775    50394    20617   -11244    -9024     -598 
   11159    25635    17045      -83    -3251     1218     6467    14374 
   22131    17309     1753    -5993     -671     8901    16861    20667 
   18728     9793    -1486     2776    23097    31194    18168     1868 
   -4174    -2987     -579    13035    31536    26296     6462     1120 
    2447     5387    20486    30506    22235     5840   -11278   -17992 
    -874    34987    57671    33306   -15524   -25701    -1068    19336 
   41606    38039    -6807   -27170   -13612     4460    28395    26897 
   -4464   -21254   -12153    14570    40158    38569    16212      665 
    3850     8872     7163    18354    31941    15689   -11460   -12817 
    2650    10703     6776     -989      431    10102    11341     2120 
   -2353     4753    15369    21865    19988     7990    -2715    -5415 
   -5259     5127    23038    24685    13257    11970    16938    13978 
   11018    19424    26321    10766   -16179   -23010    -7700     5787 
    6508     5892    13292    15658     5053     -161     9612    19415 
   19057    14184    10854     5125    -9934   -21393    -6081    22744 
   27440     6803    -6725       41    13752    26323    36034    32731 
   14508    -1233    -1259    10707    26385    35686    26134     5222 
   -4274    -1118     6267    20641    30916    17863    -3363    -5412 
    3837    15064    30545    26160      269    -5773     5954     5696 
    5764    16975    25622    26134    16660     5837     9470    22165 
   33959    43968    44308    28005     2658   -13773    -8965     6564 
   13490     7649    -1971    -2797     8811    23975    34951    37989 
   33727    25069     9909    -2684     3283    19856    25437    11085 
   -9635   -12332     1453    10209    10447    10922    14288    18254 
   22161    21713    11178     3166     8571    17585    23190    26824 
   26933    19143     9345     8784    12203    11745    10991     8511 
    1664    -5298   -12751   -17056    -6259    12737    22670    23334 
   14567     1699     7727    27020    28794    11226    -4802    -9940 
   -9575    -2689    13378    23929    19477    11362     9825    10299 
    7172     7913    13529    10613    -2148   -16022   -23645   -13307 
   10637    21155     8754   -10515   -22019   -14177    17262    52398 
   56965    23827    -6067    -2629    10887    13431     7474    -5659 
  -10290     -237      944    -5928      407    17244    25143    11045 
   -9245   -11176    -1362     6153     9183     6071     3563     6127 
    9453    12932    13255    14561    25505    37207    43831    46802 
   39048    23317     9206    -3624   -13083   -14224   -11063   -15080 
  -28879   -31738    -8476    22300    35730    29135    21610    33269 
   53659    55773    39405    18592    -4294   -19886   -15650    -1145 
    5457      918    -4510    -6648    -6768    10357    50536    78931 
   67688    37096    14597    -1883   -16030   -17080    -6386    -3131 
  -18598   -32684   -18137    12844    32106    37661    35688    25836 
   17242    22161    37262    45370    30525      216   -24396   -37176 
  -30323      695    23703    15707    -3715   -12575     2465    29604 
   35469    24149    21291    25693    25097    23042    28325    33792 
   33930    35400    36851    31892    22117    15264    17774    26456 
   28878    19053     5705    -4372   -11267    -8546     5375    14711 
   13406    14248    13090     2615     2981    18167    26135    21792 
   14977    14017    16524    13626    13143    24889    32440    20987 
    8185     7197     2439    -7415    -6561     3823    15396    13911 
  -10106   -24113     1524    43930    69491    70264    58588    37852 
   14840    21334    46633    43765    14206    -7627   -10235    -5769 
    7532    32965    46689    39427    28578    24664    28323    32899 
   31491    30029    32990    29034    12607      183     8688    33223 
   46511    26916    -3427   -11691   -12966   -24503   -26707   -18347 
  -10336     1506     5667    11632    44299    69288    63811    60048 
   64105    61104    45597    13448   -22827   -39536   -30109   -10061 
   -5496   -23898   -35493   -20222     1143    12089    21703    33288 
   38319    38489    35767    23547     8273     1112     -125      160 
    1187     1408    -5446   -21134   -22567     9958    45575    43971 
   12889   -19595   -36025   -30566    -9529    18824    42328    44929 
   26474    12285    23430    39791    35020    15191    -6011   -19744 
  -17909     2950    36436    62946    72983    74433    68247    54833 
   38107    11993   -21225   -44918   -53430   -49869   -39204   -35020 
  -38008   -25154    20158    79671   111409    99876    69281    37584 
    4952   -11813    -1319     8178      102   -14989   -35753   -49872 
  -38636   -10136    14526    22932    18787     7563   -12227   -28414 
  -17081    25995    64349    58649    28522    21672    36436    36443 
   19558     6360    -7022   -21434   -13357    20311    40183    19026 
   -9461    -5304    16745    28627    26419    10856    -5228    -7288 
   -6456    -2478    11478     9992   -25559   -72936   -88223   -54249 
  -12912    -6361   -23236   -40550   -48472   -37885   -13752     2494 
  -10897   -51491   -74732   -46536    -6411    -3025    -7175    22802 
   63425    68457    24663   -37878   -81421   -92483   -66662   -20882 
    7075     7709    -6268   -14243    12365    59246    73419    40719 
   -1270   -26532   -49445   -70839   -62487   -23322    24560    64315 
   78523    76872    93207   117784   105139    55726    14433    -4238 
  -22171   -42587   -46653   -35073   -22602   -11340     -459    22376 
   73005   116108   102060    50725    15181     6052     1586   -10575 
  -21238   -15469    -5204   -13458   -24950   -13903     9567    24183 
   24419    20031    24378    29454    14389   -23635   -67366   -80682 
  -40522     3820     3193    -1337    18115    28274    23679    22426 
   32480    49553    53628    41710    32145    29242    25461    19574 
   15349    21924    38938    42864    26270    13075    16828    28364 
   35967    37301    35802    32693    29373    29638    37493    45979 
   30476   -13057   -51620   -67289   -66824   -52216   -28286    -4652 
    6734     3691    13007    48503    82973    81996    36656   -20092 
  -44935   -27646    18254    62863    62831    14950   -26610   -24860 
    9044    59772   102092    90251    29738   -14757   -16072    -2930 
    2813    -4189   -33265   -73278   -86756   -61600   -21717    14567 
   33781    22046      196    -2942     3577     7198    10172     8389 
    3842     8213    12659     2677    -4362    18810    71111   112462 
  100617    55260    21746     2088    -5819     2546     8933     4727 
  -10613   -32361   -26819     9251    29740    26927    26796    23323 
    8897     1008    11640    32895    40770    23088    -4108   -24963 
  -35258   -25473     2359    18061    16775    21857    25095    15888 
    6064     2227     8555    21578    30242    27757    15672     6117 
    -132   -11220   -20821   -16919     1194    14835    12434     7281 
    7481    19111    40693    48274    41431    35111    27147    26283 
   41775    61136    67332    47696     5833   -30451   -34409    -5344 
   27903    32009    13380     -725    -9404   -13637    -1355    24744 
   38271    13494   -32930   -61959   -59202   -33976   -13877   -15867 
  -24811   -30528   -26437    -4279    14432    11541    -2827   -17700 
  -21395   -10228     1435     7124    12634    13929     2032   -13480 
  -11142    14485    46620    57746    34783      178   -18859   -26685 
  -36023   -41763   -34929   -14432     9726    21800    24444    28707 
   30988    29429    26474    19002     5283   -13684   -34021   -42663 
  -22841    11782    22150     1431   -25286   -29408       88    32742 
   40320    27111     4458    -6196     7269    28151    44215    53590 
   51262    32403     3697    -6121    14029    43555    71302    76473 
   44782    13749     5455     4753     7759     5562    -8057   -17031 
  -18713   -22567   -21770    -7215    10340    13516     5790    -1209 
  -11548   -26409   -26345     5130    44186    54046    37857    15088 
    3388    15843    38565    51994    48534    34744    28596    31759 
   33519    33097    36305    36983    21011    -3243   -18013   -25645 
  -27840   -20211   -13650   -12064    -4379     5638    16902    36679 
   47522    35800    19954    11467     2538   -10892   -29471   -39769 
  -22500      285     1418      454    11567    25889    39333    39682 
   22902     3557   -13334   -29490   -40035   -37364   -29732   -31159 
  -32954   -27702   -15224     5240    17388    19644    27598    34012 
   26615     9414    -2332    -2186    -3240    -8303    -5292     6586 
   18779    33948    51949    47725    18174    -2965    -3334     3785 
    7209     4665    -3706   -21961   -42058   -41223   -14883     8694 
   14510    13007      394   -16025   -13807     3577    20898    24181 
   13855    12991    26479    31995    23068    18605    20310    10022 
   -3266     3516    24924    42116    43421    27582     6886   -14421 
  -31699   -21657     5000     6456   -11259   -19592   -24422   -20245 
     862     7822      423     2229     1595    -2582      255      711 
   -3992   -10576   -20066   -19466    -2470    14489    26759    32975 
   24514    19290    30686    41131    44746    40631    21730     2344 
   -2494     -382     1089     5159    11629    10237     -555    -1135 
   14531    27026    30156    30712    30377    27941    25846    31500 
   32087    14328    -1572    -6525   -16088   -25674   -11831    14034 
   12269    -2495     5818    21964    32292    35400    26767    22255 
   21206    11257     4473     5005      662    -6874    -1511    21301 
   42822    44387    32841    28205    37231    52038    59818    52143 
   34546    19142    12287    10547     4612    -5263   -13546   -22803 
  -28046   -18926    -3552     6293    11781    12021     4871    -2560 
   -2876     3836    11871    10472    -2840   -10627    -5106     4102 
   15270    18377     4305   -11563   -16660    -9001     1211       11 
   -3200      428     8235    24152    38853    33133    14165     2208 
   -1140    -3081    -5465    -7441    -8297   -13793   -23298   -17816 
    3402    18432    24390    22659     7908    -3306     4667    23418 
   37845    29925      654   -15151      634    29472    51321    52536 
   33412    15577    12166    17253    21259    18983    15318    11862 
    -391   -17134   -18815     6420    45351    61936    41161     9493 
   -3968     4515    20397    33707    34182    11971    -5651     8293 
   31938    40834    35528    28340    29525    32274    38385    56984 
   68961    57677    32657     9008     1515    12599    27095    30029 
   17175     -239    -4140     6155    20358    34708    36965    19998 
    3979    -1348    -3077    -1177     -855     -647     8809    22668 
   32282    30606    23327    24609    27452    24481    23861    28851 
   37646    44186    39571    24093     7372     -972     -684     2668 
    7808    10928     3452    -8270    -8774      293    11020    16371 
   10262     5845     8622     9151    13222    18057    12217     3366 
    1675     6279    10071     6176    -1021    -1422     3260     9180 
   17588    19579    13277    12464    12248     4654     2829     3847 
