Origin Time       2016/04/16 01:25:00
Lat.              32.753
Long.             130.762
Depth. (km)       12
Mag.              7.3
Station Code      NGS006
Station Lat.      32.9327
Station Long.     129.6428
Station Height(m) 24
Record Time       2016/04/16 01:25:25
Sampling Freq(Hz) 100Hz
Duration Time(s)  102
Dir.              E-W
Scale Factor      3920(gal)/6182761
Max. Acc. (gal)   19.149
Last Correction   2016/04/16 01:25:25
Memo.             
[...]
   -7737    -6024    -4134    -2107      376     1521     -989    -5712 
   -8667    -6248    -1357    -2488    -8059    -9392    -6579    -4488 
   -5682    -8506    -8680    -6710    -5772    -5849    -5297    -3563 
   -2200    -3103    -5091    -4745    -2376    -2128    -4325    -6040 
   -7254    -8132    -6766    -3459     -950    -1290    -4372    -7657 
   -7891    -5079    -3621    -6049    -9202    -9107    -5400    -1989 
   -2475    -4737    -5389    -5288    -6589    -8135    -6581    -2482 
    -389    -1988    -4918    -6317    -4875    -2701    -2875    -4721 
   -6361    -7913    -9290    -9747    -8567    -5226    -1731    -1793 
   -5696    -9565   -10103    -8214    -7112    -7272    -6999    -6295 
   -5288    -3068     -233     1058     -253    -2815    -4511    -4327 
   -4162    -7312   -11303   -10501    -6592    -4810    -5692    -7575 
   -9603   -10957   -10850    -9685    -8574    -7312    -5309    -3157 
   -1095      600     -432    -5408   -10740   -11538    -7930    -5209 
   -5511    -6411    -8051   -10438   -10435    -6673    -1626     -268 
   -4834   -10939   -11483    -5229     -440    -3176    -8470    -9497 
   -5208      132     1923     1143     -721    -4707    -7586    -5275 
   -1313    -2067    -7852   -13883   -15172   -10135    -3215      247 
    -628    -4914   -10082   -10919    -5144     1621     2944      -96 
   -4235    -6559    -3271     2280     2891     -660    -4689    -8297 
   -9405    -7257    -4056    -1138      -57    -2342    -5973    -7044 
   -4294    -1198    -1788    -3866    -3307    -1523    -1753    -4155 
   -6555    -6947    -5292    -3657    -3840    -4315    -2790     -511 
    -564    -4128    -8783    -9431    -4724    -1512    -4413    -7778 
   -6890    -4293    -2819    -2333    -1235      263     -933    -6403 
  -11915   -10306    -2732      952    -1547    -4185    -4822    -3167 
       8      944     -245    -2409    -7873   -14668   -15872   -10023 
   -3163     -595    -3602    -9003    -9826    -4390     1222     2708 
    1067    -2263    -6193    -7389    -3787     1400     2826     -632 
   -5641    -8722    -6777    -1378      683    -2304    -7766   -14176 
  -16121    -9589     -857     3578     3605       66    -4216    -5994 
   -6461    -7119    -7171    -6307    -6516   -10077   -13346   -10813 
   -4909    -1313    -1345    -2981    -4073    -4258    -4216    -4621 
   -5597    -5846    -4173    -1735     -875    -2700    -6783   -10897 
  -11306    -7744    -4495    -3478    -3556    -4533    -5447    -4350 
   -1887     -402      -49      284      269     -183    -1180    -5054 
  -12011   -16895   -16072   -12194    -8059    -4597    -3854    -5360 
   -6840    -7065    -4616    -1716    -1660    -2797    -3844    -5406 
   -6051    -4945    -3417    -2838    -4280    -6913    -7088    -3908 
   -2464    -6306   -11555   -12581    -8804    -4279    -3003    -4806 
   -6160    -4825    -3202    -4946    -8224    -8417    -5475    -3117 
   -3726    -6267    -8468    -8975    -7438    -4758    -1958       45 
    -723    -4641    -8038    -7020    -3135    -1506    -2878    -4191 
   -5323    -7087    -7965    -7226    -6617    -7683    -8704    -7492 
   -5166    -3941    -4860    -6660    -6374    -3941    -2537    -3177 
   -3904    -3948    -4194    -5297    -7800   -10685   -10900    -7598 
   -3914    -2766    -4148    -7048   -10014   -10506    -7942    -5534 
   -5889    -8103    -9881    -9386    -7163    -6072    -7077    -7840 
   -6244    -3353    -1676    -1874    -3269    -5417    -7520    -7817 
   -5297    -2358    -3284    -9468   -16569   -17707   -12086    -5574 
   -2035    -1178    -1385    -1109     -966    -2530    -5374    -7575 
   -6918    -3306     -328     -732    -3195    -4980    -4021     -868 
     847     -782    -4591    -8688    -9127    -4278     -369    -2093 
   -6575    -9955    -8806    -3298     -398    -3271    -7322    -8762 
   -7258    -4514    -2229     -357      606      415      219     -910 
   -4821   -10270   -12718    -9811    -6264    -5541    -5345    -5307 
   -5456    -4421    -3174    -2115     -966     -982    -1834    -1486 
      84      713     -831    -3927    -6584    -5576    -1496      110 
   -1031    -2380    -7331   -13918   -13393    -6787    -2366    -2758 
   -5695    -7652    -5295    -1158     -901    -4120    -6701    -6689 
   -5633    -6516    -8341    -7441    -4343    -2766    -3691    -5107 
   -5667    -6036    -7300    -8353    -6944    -4193    -3469    -4998 
   -6050    -4863    -2107     -252    -1970    -7424   -12748   -13107 
   -8801    -5356    -6201    -9524   -11000    -7985    -3730    -2562 
   -2924    -2439    -2009    -2834    -5126    -6515    -3735     1035 
    2307     -939    -6261   -10949   -11708    -9304    -7643    -5945 
   -3593    -3722    -5584    -6092    -4928    -2976    -2030    -3040 
   -3804    -2502     -613     -945    -4514    -8905   -10139    -7804 
   -5481    -4343    -3127    -2681    -3296    -3464    -2619    -1159 
    -373     -819     -953     -649    -2181    -5808    -8162    -6576 
   -3218    -2093    -3352    -4141    -3340    -3043    -5017    -7333 
   -7598    -6899    -7239    -7628    -5658    -2359    -1797    -5470 
  -10117   -10987    -7084    -2813    -2343    -4830    -6631    -5497 
   -2909    -1572    -1464    -1539    -1686    -2004    -3199    -5495 
   -7008    -6591    -6524    -8756   -11746   -13029   -11010    -6438 
   -3234    -3522    -5166    -6037    -5668    -4366    -3548    -3962 
   -5105    -7750   -11859   -13827   -10824    -4960    -1206    -2387 
   -6283    -8223    -6775    -5115    -5755    -7400    -8405    -8306 
   -6805    -5351    -5917    -7848    -8960    -8131    -6936    -7572 
   -8949    -8508    -6400    -5356    -7518   -11560   -13253   -10288 
   -5217    -2229    -3485    -8057   -11839   -11307    -7753    -4864 
   -4913    -7941   -11339   -11981    -8965    -3564      541     -240 
   -4645    -7645    -5988    -2716    -4486   -11043   -14231   -10530 
   -5612    -5468    -9327   -12248   -10924    -6677    -3910    -4143 
   -5142    -5711    -6999    -9605   -10018    -4845     1817     3431 
    -592    -6379    -9142    -6067    -1177     -826    -3768    -5707 
   -5977    -3744      658     4011     4268      291    -6077    -8817 
   -6098    -3445    -5843   -10043    -8994    -3235     1466     2944 
    1922      137     -333     -180    -2072    -4988    -5620    -5960 
  -10450   -16148   -15459    -8691    -3168    -2424    -4911    -7283 
   -6733    -4249    -3463    -4582    -4838    -4837    -6121    -6699 
   -4781    -1546      386     -457    -2634    -3708    -2583     -279 
     109    -2918    -7107    -8966    -6614    -2905    -2175    -4374 
   -7724    -9679    -8267    -6557    -6471    -6176    -6039    -6158 
   -4988    -2839     -959     -729    -3196    -7074    -9273    -8587 
   -7709    -8943   -11158   -12370   -11326    -8638    -6607    -5998 
   -5127    -2319     1318     2857      783    -4576   -10019   -10192 
   -5137    -1314    -1908    -5379   -10483   -13394   -10720    -7259 
   -7885   -10375   -11039    -7995    -2871     -316    -1404    -3034 
   -3949    -4583    -4589    -4466    -4576    -3762    -2190    -1305 
   -1222    -1726    -3312    -5519    -6660    -5582    -2898    -1063 
   -2723    -7526   -11201    -9755    -4755    -1814    -3100    -5298 
   -5224    -3320    -2355    -3958    -6236    -6536    -5168    -4073 
   -3500    -2417    -1361    -1718    -3391    -5350    -5852    -4038 
   -2595    -3577    -4952    -5362    -5620    -5457    -4305    -2988 
   -1945     -301     1588     1694     -301    -2109    -1719      359 
    1958     1379     -550    -1159     -909    -2814    -6787    -9559 
   -7572    -2087      468    -1610    -4883    -7453    -7927    -7472 
   -8720    -8770    -6125    -5043    -5774    -5235    -2960     -364 
    -145    -3368    -7388    -8326    -5362    -2939    -3156    -2227 
      29      -43    -3398    -9033   -12968   -11236    -7829    -7559 
   -7680    -6780    -6998    -7736    -7955    -6730    -4148    -3695 
   -6663    -9813   -10370    -9543   -10236   -12135   -12881   -11610 
   -8598    -4898    -2234    -2087    -4902    -8883   -10340    -7521 
   -3665    -3172    -5504    -6687    -5343    -3291    -2144    -2102 
   -2656    -4091    -7045    -9465    -8265    -4269    -1529    -2460 
   -5231    -5955    -3538    -1800    -4378    -8544    -9407    -7040 
   -4745    -4338    -4599    -3613    -2376    -3000    -4187    -3493 
   -2178    -2412    -2794     -632     4157     8961    10217     6808 
    2328      -43    -1456    -4128    -8011    -9975    -9027    -8547 
   -8686    -7436    -5608    -2904      555     1824      855     -431 
   -2663    -5900    -8343    -9137    -8559    -6912    -4257    -2043 
   -1958    -2762    -2442     -771     1726     4084     3998      437 
   -4020    -7398    -9023    -6775    -2408     -799    -1697    -3679 
   -6037    -5173    -1180     1016     -844    -5400   -10292   -12366 
  -10541    -8120    -5946    -2865    -2721    -7286   -12177   -13642 
  -12019   -11550   -14635   -17997   -17051   -10498    -2474     1880 
    2993     3660     4107     3893     3528     3251     3166     2675 
      47    -4652    -9586   -12175   -10242    -6741    -5853    -6993 
   -9232   -11883   -12462    -9674    -4644    -1173    -2795    -8789 
  -14952   -15658   -10633    -7555   -10192   -13212   -11097    -3999 
    3313     6937     6351     1330    -4846    -7082    -5869    -2656 
   -1179    -6586   -12763   -12012    -6736    -1917     -415    -1138 
    -817     2350     7955    11692     9575     4486     1239      248 
    1189     3080     2062    -4054   -12532   -16986   -13762    -7355 
   -4755    -7110   -11756   -15053   -13183    -9386    -9944   -14032 
  -17488   -17704   -14955   -11355    -6946    -1479     2386     2624 
     712    -1250    -1962    -1114     -168     -893    -3750    -5754 
   -2836     3128     6851     6032      378    -6984   -10024    -7676 
   -2634     1240     -243    -5155    -9720   -10660    -5320    -1163 
   -5234   -12683   -18978   -21773   -18282   -11173    -4250      -71 
   -1553    -7707   -13957   -15375   -11851    -8774    -6899    -3027 
    1541     4312     4412     1657      -57     3963    11098    14145 
    9337     -976   -11238   -17139   -15641    -9006    -6366    -9979 
  -13238   -12213    -6649     -505     -824    -8970   -19758   -24763 
  -18223    -5429     4506     7360     1184    -9848   -15236    -9592 
    2287    11510    15048    14907    12887    13280    15868    14446 
    8212    -1779   -12977   -18494   -15842    -8854    -4324    -4897 
   -7028    -9187   -10167    -8026    -4954    -4312    -8284   -16495 
  -23215   -22559   -16086   -10703   -10674   -14061   -16162   -15155 
  -12267    -8102    -2899     1643     4626     6729     6397     3001 
     -84    -3159    -7528    -7822    -1729     4846     8443    10227 
   10318    11173    14003    10789    -1436   -15091   -25044   -28040 
  -24185   -20070   -18810   -18531   -17185   -11716    -2399     5974 
   10846    11275     6999      687    -6856   -16765   -24442   -23769 
  -16132    -6025     3643     9666    11859    13464    15358    14757 
    7158    -6371   -17712   -20732   -12833      833     7081     2278 
   -6644   -13220   -11284    -4028    -3030    -8471   -13520   -15203 
  -10805    -2822     1296    -1146    -9328   -20165   -25419   -20628 
  -13320    -9120    -4959    -1988    -1642    -1294    -2747    -8047 
  -14987   -19401   -18312   -12656    -5358     -288      903      523 
     139      -29     -320    -2041    -6050   -11338   -14171   -13271 
  -12812   -15185   -19321   -23865   -26582   -26223   -23469   -19623 
  -16333   -13589   -10004    -5511    -1204     1232      838     -238 
      21      660     1709     2122    -3438   -14648   -21964   -20511 
  -14285    -5821     4249    12183    14130     9315     1397    -4154 
   -6564    -5753      902     9525    13031    11587     8340     4593 
     569    -3546    -6241    -5754    -1506     1739    -1958    -9742 
  -16828   -18927   -12942    -6381    -3248      967     3384      686 
   -6533   -17699   -26872   -29375   -26866   -21197   -14196    -8053 
   -2732     3084     9881    16644    18961    13529     3543    -7793 
  -17050   -18306   -12982    -8748    -8130    -6573     -381     8043 
   12782     8401    -2557   -10707   -12605   -10130    -6033    -5746 
   -9098   -11125   -12651   -13711   -11448    -7057    -2356     2990 
    8690    11625     8766     1549    -6924   -14064   -15226    -8260 
     515     4817     3874    -2579    -9622    -8684    -1572     2649 
    1186    -3951   -12560   -18592   -13066    -2947     1989     5375 
    7622     5720     3003      360    -5967   -16301   -25251   -28386 
  -27021   -23587   -18626   -14502   -13598   -14569   -15858   -15399 
  -11287    -6493    -4292    -4453    -6611    -9801   -12830   -17537 
  -24433   -28574   -25674   -17636   -10350    -8975   -12792   -14080 
   -7618     2698    11353    16162    15497     9812     1872    -6688 
  -13911   -17034   -14819    -9538    -5025    -1069     1563      227 
   -2836    -7830   -14335   -13810    -5855      -76      616    -3190 
  -11380   -17033   -12981    -3680      747      301     1310     4195 
    6843     6214     2478     1838     4066     3827     -308    -7797 
  -14427   -13556    -4026     8628    19168    25141    23342    16198 
   10618     6677     2919    -1506    -8900   -15272   -14006    -5455 
    2590     4487     3251     1126    -1624    -3127    -5461    -6728 
   -1004     5607     5110    -1143   -10550   -15728   -10009      274 
    8153    12675    11714     6247     2688     2167      663    -1414 
   -3989    -7874    -8360    -4414    -2099    -2440    -1732     -206 
    2202     6285     7428     2702    -4336   -11167   -17929   -22887 
  -26068   -28331   -24992   -16645   -10689    -8494    -9292   -11018 
   -7781      266     6668     7503     2549    -5439   -10677    -9987 
   -6295    -5055    -8329   -11254    -9236    -3050     4859    10497 
   10376     4880     -420     -631     -726    -5558   -12431   -18933 
  -23183   -23715   -19831   -11902    -4469    -1421    -3061    -6286 
   -5982    -2224     1099     2158      864    -2125    -4453    -1360 
    6564    11064     8772     3109    -2335    -6463    -9481    -7366 
       9     4290     4306     3012    -1975    -7444    -9091   -10294 
  -11350   -10252    -7485    -4230    -3690    -6334    -9818   -12593 
  -13973   -15697   -18296   -20106   -19307   -13691    -5431     -578 
   -1022    -4487    -8656   -10838    -9965   -10014   -14546   -20095 
  -21738   -19136   -13561    -6840    -2179    -1648    -4873    -9544 
  -12328   -10794    -5445      499     4018     3790     -955    -9065 
  -14753   -13711   -10254    -9489    -9645    -9047    -9630   -11202 
  -13145   -16108   -17247   -13670    -6919     -992      588    -1542 
   -3714    -3960    -2790    -2250    -3890    -5560    -4175    -1195 
    -265    -2210    -5895    -9994   -12775   -13884   -13710   -10577 
   -3959     3308     8247     7743     -599   -12375   -19618   -19871 
  -14853    -8715    -4684    -1827    -1729    -5049    -8409   -10457 
  -10377    -8645    -6705    -4518    -2528    -1306    -2090    -4941 
   -6348    -4088     -256     2065     2348      755    -4278   -11445 
  -16113   -16734   -15172   -12904    -9597    -5498    -2299     -138 
    2098     5214     8327     9263     8531     7739     5945     2702 
   -1572    -8035   -14768   -15931   -10092    -2285     3988     8194 
    7672     2187    -3030    -5392    -6988    -6825    -4265    -3628 
   -3791    -2822    -5085   -10288   -14245   -14498   -10587    -5907 
   -3503    -2509     -746      985       37    -3421    -9463   -16395 
  -18332   -17804   -21292   -25087   -26591   -26782   -21932   -12954 
   -5085       22     2248     3782     6981     9127     7384     3423 
   -1901    -7878   -11268   -12021   -11905   -11887   -12420   -11568 
   -9261    -6760    -4020    -2754    -3654    -5487    -7730    -9384 
   -9575    -8135    -4463      422     3346     2786    -1501    -8328 
  -10753    -4176     4536     8506     7527     1085    -7586   -11307 
   -9937    -8338   -11004   -16733   -16753    -9608    -1421     4084 
    4366      644    -4074    -7197    -5727    -2744    -3365    -5619 
   -6662    -8567   -11048   -11159   -10273   -10444   -12021   -15459 
  -18787   -19324   -17607   -15819   -14289   -12249   -10586   -10067 
   -8647    -4364      830     4058     5709     6251     5295     5192 
    5226      819    -5918   -10078   -10880    -9249    -8080    -7851 
   -6504    -6226    -8944   -12603   -14142   -11636    -7294    -4848 
   -4810    -5647    -6325    -7475    -9717   -11277    -9961    -6187 
   -2421     -582     -234     -217     -397      537     4015     7184 
    5286    -1122    -7050   -10978   -12246    -8756    -4463    -2023 
    1180     2397     -113    -3579    -5988    -3441     1396      772 
   -3330    -8026   -13514   -13333    -6982    -3017    -1053     1236 
     350    -1945    -3380    -3936     -754     2673     1503      318 
      61    -2372    -4569    -6817    -9463    -8962    -5524     -866 
    3121     6609    11340    12305     6830      340    -5272    -9495 
   -8952    -5832    -4732    -3293     1922     7650     9105     5538 
     354    -1500    -1324    -3045    -4429    -4158    -4849    -6896 
   -8703    -9376    -8851    -7738    -7267    -7940    -8903    -8838 
   -7414    -5912    -5180    -4454    -3388    -3666    -7276   -13346 
  -18301   -19402   -16429   -10899    -5348    -2111    -1969    -4270 
   -7492    -9133    -7820    -5249    -3311    -2341    -2435    -3415 
   -4674    -5072    -3535    -1632    -2231    -5069    -7456    -6909 
   -3232       19     1080     2482     4562     4281      411    -4385 
   -8328   -10460    -7730    -4166    -5748    -7628    -6880    -6375 
   -5635    -5036    -5728    -7151    -9165   -10892   -11347    -9853 
   -6201    -2277       55      760      501     -628    -3672    -8348 
  -11280   -11671   -13372   -15757   -14780   -11426    -7096    -2962 
   -2901    -6483    -9207    -8186    -3483      509    -1054    -7745 
  -15108   -18020   -15671   -13300   -12986   -12825   -13105   -11147 
   -4685     1392     3636     3221     1062    -1620    -1808      113 
     -98    -2962    -7252    -9901    -6331    -2248    -4567    -7964 
   -8454    -7779    -5803    -4471    -5284    -5349    -3706    -2280 
   -2758    -4937    -7052    -8276    -8840    -9328   -10151   -11182 
  -12281   -12908   -12038    -8919    -3611     2289     6676     8477 
    6662     2918     1976     2777     2365     3244     4769     4730 
    4670     4273     3095     2360     2359     3114     3636     2263 
    -842    -4424    -7398    -8626    -9131   -10741   -10977    -7154 
    -694     6467    11543    10755     4310    -3050    -7858   -10494 
  -11447   -11879   -13609   -14249   -11620    -7972    -5021    -2851 
   -1057      425      420     -690    -1785    -2466     -609     3860 
    6107     3225    -2047    -5638    -7174    -7566    -5789    -4124 
