Origin Time       2016/04/16 01:25:00
Lat.              32.753
Long.             130.762
Depth. (km)       12
Mag.              7.3
Station Code      NGS018
Station Lat.      32.6341
Station Long.     128.6194
Station Height(m) 6
Record Time       2016/04/16 01:25:48
Sampling Freq(Hz) 100Hz
Duration Time(s)  76
Dir.              E-W
Scale Factor      3920(gal)/6182761
Max. Acc. (gal)   1.505
Last Correction   2016/04/16 01:25:50
Memo.             
[...]
   13627    13577    13489    13411    13425    13528    13702    13938 
   14167    14342    14518    14727    14909    14981    14913    14758 
   14564    14345    14122    13901    13701    13591    13602    13730 
   13969    14241    14477    14713    14971    15219    15448    15620 
   15629    15419    15051    14636    14274    14027    13893    13848 
   13846    13831    13773    13680    13637    13712    13828    13906 
   13976    14087    14267    14498    14735    14947    15109    15167 
   15069    14842    14599    14399    14239    14129    14084    14116 
   14224    14369    14509    14633    14751    14864    14979    15099 
   15209    15299    15347    15331    15283    15220    15093    14868 
   14578    14317    14153    14047    13974    13941    13915    13881 
   13852    13856    13922    14036    14189    14363    14505    14578 
   14604    14627    14671    14752    14866    14944    14958    14945 
   14917    14871    14847    14887    14962    15035    15166    15394 
   15610    15712    15707    15610    15416    15141    14863    14681 
   14602    14564    14516    14470    14482    14545    14607    14647 
   14632    14549    14459    14459    14580    14737    14821    14807 
   14728    14663    14662    14667    14611    14516    14392    14224 
   14068    13994    13959    13889    13778    13638    13483    13347 
   13293    13352    13457    13556    13680    13818    13965    14173 
   14412    14579    14644    14640    14637    14709    14861    15038 
   15187    15274    15285    15243    15163    15056    14981    14958 
   14910    14781    14603    14442    14343    14308    14298    14270 
   14237    14260    14342    14445    14538    14556    14457    14274 
   14085    13984    14026    14155    14252    14268    14288    14372 
   14480    14596    14740    14930    15165    15394    15559    15619 
   15542    15350    15101    14831    14567    14345    14184    14053 
   13921    13804    13734    13732    13794    13886    14003    14145 
   14274    14381    14495    14639    14846    15120    15392    15589 
   15686    15656    15494    15263    15038    14860    14746    14672 
   14595    14505    14445    14469    14566    14667    14749    14826 
   14848    14767    14651    14596    14594    14609    14654    14710 
   14711    14665    14671    14790    14958    15086    15190    15296 
   15406    15579    15839    16073    16163    16099    15945    15753 
   15535    15298    15085    14894    14655    14378    14183    14118 
   14162    14300    14477    14627    14752    14876    14987    15095 
   15224    15332    15357    15325    15293    15271    15238    15184 
   15115    15015    14889    14771    14677    14602    14551    14558 
   14651    14752    14761    14689    14620    14598    14611    14597 
   14499    14306    14069    13885    13802    13805    13911    14117 
   14333    14467    14517    14545    14553    14486    14337    14159 
   14030    13984    13995    14014    14002    13976    13972    13942 
   13850    13785    13865    14064    14255    14388    14502    14593 
   14665    14769    14911    15046    15148    15195    15147    15014 
   14832    14611    14397    14250    14166    14135    14127    14076 
   13984    13897    13860    13877    13861    13792    13776    13836 
   13904    13991    14116    14211    14256    14368    14613    14866 
   15040    15206    15411    15597    15728    15808    15793    15670 
   15533    15464    15452    15459    15468    15481    15492    15498 
   15507    15474    15367    15255    15196    15179    15169    15152 
   15136    15111    15074    15071    15124    15187    15213    15211 
   15170    15052    14885    14730    14614    14546    14513    14501 
   14516    14524    14506    14505    14525    14496    14377    14242 
   14191    14184    14132    14027    13908    13819    13758    13708 
   13705    13768    13852    13909    13935    13948    13947    13942 
   13967    14038    14173    14371    14575    14740    14826    14778 
   14601    14354    14129    14023    14049    14158    14311    14495 
   14701    14931    15179    15387    15497    15534    15512    15370 
   15108    14832    14630    14497    14394    14294    14202    14116 
   14019    13947    13917    13848    13707    13575    13488    13422 
   13380    13398    13499    13624    13703    13771    13922    14182 
   14451    14609    14650    14622    14556    14484    14433    14433 
   14505    14612    14674    14660    14633    14638    14655    14661 
   14625    14510    14363    14293    14344    14475    14616    14704 
   14714    14702    14732    14799    14850    14856    14817    14757 
   14689    14617    14511    14328    14111    13921    13740    13575 
   13460    13390    13353    13361    13425    13522    13613    13701 
   13818    13983    14165    14321    14434    14491    14519    14580 
   14670    14739    14745    14666    14537    14400    14267    14167 
   14133    14160    14186    14182    14188    14220    14287    14394 
   14486    14549    14615    14660    14679    14712    14785    14877 
   14906    14867    14869    14952    15045    15113    15196    15354 
   15542    15635    15621    15604    15615    15574    15442    15266 
   15073    14860    14672    14545    14451    14362    14312    14322 
   14361    14385    14356    14279    14232    14268    14349    14403 
   14393    14346    14305    14298    14339    14384    14375    14330 
   14304    14303    14276    14206    14141    14076    13990    13938 
   13943    13940    13881    13810    13811    13903    14042    14170 
   14235    14244    14263    14320    14425    14586    14781    14994 
   15204    15322    15266    15088    14882    14662    14425    14197 
   14003    13883    13849    13888    13984    14093    14195    14315 
   14438    14542    14642    14728    14784    14829    14889    14934 
   14900    14791    14669    14570    14490    14418    14373    14345 
   14299    14262    14283    14376    14539    14713    14797    14741 
   14569    14388    14293    14260    14191    14052    13904    13832 
   13858    13936    14023    14131    14262    14362    14442    14548 
   14624    14602    14535    14502    14485    14416    14337    14315 
   14291    14202    14124    14161    14296    14443    14591    14768 
   14949    15079    15143    15177    15189    15135    15015    14845 
   14629    14402    14200    14046    13955    13924    13967    14082 
   14214    14324    14428    14554    14680    14753    14765    14742 
   14672    14529    14342    14204    14158    14167    14210    14266 
   14304    14351    14432    14481    14410    14247    14095    14007 
   13974    13959    13920    13870    13829    13760    13669    13637 
   13707    13846    14017    14198    14368    14505    14620    14698 
   14686    14586    14471    14367    14220    14040    13928    13972 
   14191    14502    14819    15144    15460    15707    15869    15968 
   16017    16009    15944    15846    15741    15654    15590    15516 
   15438    15400    15417    15494    15621    15726    15741    15669 
   15547    15409    15287    15164    14970    14696    14421    14205 
   14070    14022    14037    14086    14126    14113    14077    14043 
   13951    13792    13681    13712    13850    14027    14236    14469 
   14677    14815    14887    14918    14903    14834    14747    14685 
   14649    14642    14679    14731    14727    14652    14533    14399 
   14298    14247    14228    14251    14320    14431    14583    14733 
   14842    14917    14952    14908    14737    14466    14208    14079 
   14113    14222    14323    14428    14518    14545    14540    14562 
   14599    14608    14581    14535    14468    14397    14348    14328 
   14319    14277    14189    14097    14023    13980    13980    14021 
   14130    14319    14509    14616    14657    14689    14706    14701 
   14721    14766    14793    14792    14778    14760    14714    14635 
   14579    14585    14639    14727    14856    15003    15095    15097 
   15067    15037    14972    14857    14735    14651    14588    14520 
   14477    14487    14547    14645    14750    14825    14858    14842 
   14764    14648    14551    14493    14482    14550    14688    14840 
   14975    15088    15166    15195    15204    15258    15363    15462 
   15515    15512    15452    15358    15252    15126    14968    14775 
   14555    14327    14144    14025    13921    13840    13846    13911 
   13942    13927    13929    13951    13968    14003    14082    14185 
   14268    14319    14412    14580    14731    14792    14770    14702 
   14631    14588    14558    14504    14409    14293    14197    14154 
   14150    14145    14137    14140    14171    14211    14222    14236 
   14281    14316    14331    14351    14379    14419    14486    14584 
   14668    14668    14579    14452    14352    14317    14297    14259 
   14225    14183    14136    14138    14199    14295    14403    14503 
   14610    14764    14954    15088    15120    15122    15108    15007 
   14852    14744    14659    14524    14380    14286    14204    14084 
   13948    13853    13835    13850    13860    13914    14046    14212 
   14362    14487    14586    14644    14676    14698    14688    14663 
   14659    14675    14711    14785    14898    15021    15102    15139 
   15158    15138    15093    15049    14973    14847    14717    14639 
   14635    14678    14724    14741    14733    14726    14745    14763 
   14740    14679    14615    14546    14453    14358    14277    14216 
   14196    14202    14193    14162    14134    14127    14122    14100 
   14080    14107    14201    14343    14505    14694    14878    14984 
   15014    15026    15012    14918    14783    14679    14589    14501 
   14465    14485    14523    14573    14631    14662    14668    14700 
   14744    14742    14693    14620    14523    14425    14390    14446 
   14541    14636    14735    14826    14900    14948    14949    14900 
   14808    14698    14598    14480    14323    14194    14102    13988 
   13883    13852    13862    13855    13847    13850    13867    13935 
   14076    14275    14514    14747    14915    15000    14999    14907 
   14777    14682    14630    14605    14621    14699    14831    14966 
   15037    15047    15038    15016    14962    14842    14666    14502 
   14389    14328    14327    14366    14417    14488    14550    14531 
   14406    14218    14022    13882    13825    13796    13754    13705 
   13685    13781    14010    14261    14450    14580    14681    14789 
   14918    15041    15088    14999    14810    14625    14506    14433 
   14337    14194    14062    13992    13965    13954    13963    13959 
   13912    13879    13902    13944    13993    14053    14103    14161 
   14278    14459    14652    14815    14958    15067    15109    15091 
   15024    14905    14741    14559    14404    14294    14213    14123 
   14007    13897    13816    13773    13794    13873    13970    14066 
   14165    14270    14358    14392    14365    14272    14106    13889 
   13662    13476    13374    13371    13457    13591    13759    13977 
   14188    14317    14359    14334    14244    14119    14038    14057 
   14154    14287    14420    14526    14631    14779    14980    15184 
   15319    15350    15290    15200    15168    15196    15225    15215 
   15145    15038    14933    14826    14729    14693    14706    14683 
   14596    14493    14436    14462    14558    14638    14645    14583 
   14469    14326    14198    14096    13979    13822    13679    13638 
   13731    13917    14125    14270    14312    14312    14352    14411 
   14424    14393    14367    14364    14356    14305    14212    14152 
   14196    14326    14475    14597    14674    14721    14768    14784 
   14743    14686    14644    14599    14531    14427    14315    14242 
   14222    14252    14321    14387    14385    14313    14235    14156 
   14032    13854    13631    13409    13280    13283    13361    13440 
   13488    13524    13583    13688    13843    14015    14151    14243 
   14308    14335    14306    14262    14265    14333    14466    14644 
   14806    14867    14799    14663    14527    14402    14307    14263 
   14270    14308    14338    14337    14334    14374    14498    14709 
   14944    15132    15269    15382    15458    15462    15396    15274 
   15094    14917    14834    14886    15046    15221    15322    15311 
   15199    15055    14931    14826    14787    14868    15033    15199 
   15344    15499    15615    15602    15479    15308    15119    14961 
   14873    14835    14833    14866    14906    14912    14879    14810 
   14693    14539    14392    14324    14365    14488    14688    14937 
   15168    15347    15445    15455    15443    15436    15421    15405 
   15382    15352    15342    15365    15424    15473    15415    15243 
   15071    14968    14892    14788    14637    14458    14299    14193 
   14145    14141    14146    14175    14283    14440    14558    14608 
   14630    14682    14800    14947    15017    14961    14856    14786 
   14741    14694    14650    14623    14596    14553    14509    14477 
   14448    14428    14444    14514    14596    14610    14574    14567 
   14613    14681    14707    14670    14624    14622    14655    14707 
   14795    14892    14930    14906    14844    14677    14348    13909 
   13456    13058    12736    12482    12281    12153    12178    12411 
   12819    13301    13727    14047    14310    14535    14702    14826 
   14931    14975    14949    14942    14995    15055    15063    14974 
   14797    14618    14492    14424    14425    14497    14617    14735 
   14802    14793    14717    14613    14506    14404    14358    14412 
   14548    14738    14950    15128    15219    15211    15105    14914 
   14690    14479    14247    13984    13758    13642    13663    13795 
   14002    14232    14387    14420    14364    14259    14141    14013 
   13871    13782    13805    13934    14149    14431    14742    15046 
   15308    15478    15498    15387    15245    15152    15100    15035 
   14977    15009    15113    15180    15170    15096    14930    14638 
   14280    13950    13672    13466    13384    13415    13473    13498 
   13493    13479    13486    13544    13627    13677    13700    13755 
   13892    14123    14394    14630    14798    14910    14946    14863 
   14700    14530    14391    14337    14377    14444    14517    14636 
   14821    15062    15335    15616    15890    16110    16154    15939 
   15567    15201    14916    14736    14645    14585    14534    14499 
   14480    14492    14530    14566    14599    14653    14734    14831 
   14946    15057    15112    15090    15016    14908    14750    14558 
   14413    14341    14306    14326    14414    14484    14469    14409 
   14388    14426    14480    14501    14468    14372    14215    14029 
   13887    13828    13861    14010    14255    14524    14756    14914 
   14960    14855    14605    14286    14011    13872    13868    13917 
   13989    14131    14371    14655    14882    14989    14987    14938 
   14879    14764    14548    14284    14056    13926    13943    14117 
   14411    14721    14959    15127    15215    15218    15199    15205 
   15213    15187    15113    14973    14737    14400    14038    13797 
   13784    13981    14266    14510    14665    14774    14886    15006 
   15100    15116    15031    14877    14660    14376    14086    13861 
   13741    13720    13735    13740    13755    13826    13974    14178 
   14405    14620    14789    14869    14823    14710    14638    14617 
   14601    14576    14546    14504    14416    14266    14064    13791 
   13455    13142    12941    12903    13012    13223    13527    13895 
   14265    14606    14924    15208    15412    15506    15486    15361 
   15192    15090    15115    15214    15287    15288    15223    15082 
   14863    14616    14413    14281    14195    14169    14218    14278 
   14286    14251    14182    14085    14002    13933    13824    13708 
   13675    13705    13742    13812    13954    14141    14322    14460 
   14542    14518    14352    14126    13946    13848    13840    13938 
   14139    14379    14586    14747    14872    14961    15015    15045 
   15054    15020    14955    14930    14987    15098    15209    15251 
   15196    15104    15034    14964    14840    14655    14438    14272 
   14259    14382    14527    14632    14688    14700    14687    14653 
   14594    14532    14491    14444    14357    14265    14199    14114 
   13986    13864    13803    13812    13886    14046    14243    14384 
   14489    14586    14619    14589    14579    14625    14697    14777 
   14847    14857    14819    14799    14766    14651    14492    14382 
   14334    14286    14219    14145    14040    13945    13967    14125 
   14356    14606    14821    14926    14854    14646    14412    14224 
   14082    13955    13848    13781    13755    13802    13957    14162 
   14354    14537    14760    15067    15422    15734    15932    15991 
   15912    15704    15409    15127    14948    14890    14929    15025 
   15116    15133    15093    15067    15056    14985    14809    14583 
   14394    14263    14192    14203    14272    14342    14414    14523 
   14633    14686    14709    14733    14715    14645    14590    14575 
   14562    14541    14507    14437    14353    14349    14465    14614 
   14695    14697    14681    14697    14767    14873    14940    14932 
   14886    14815    14724    14662    14653    14694    14780    14908 
   15083    15268    15397    15461    15494    15526    15582    15662 
   15743    15784    15763    15679    15515    15307    15136    15026 
   14944    14851    14723    14595    14534    14567    14652    14747 
   14854    14955    15015    15067    15173    15300    15321    15158 
   14885    14637    14477    14367    14219    13984    13712    13505 
   13434    13497    13636    13771    13851    13898    13956    14041 
   14144    14203    14155    14028    13905    13813    13701    13546 
   13411    13345    13341    13377    13412    13414    13387    13383 
   13462    13627    13856    14104    14304    14410    14416    14381 
   14375    14390    14396    14399    14409    14421    14427    14439 
   14452    14418    14329    14244    14223    14279    14371    14485 
   14648    14858    15076    15261    15387    15447    15436    15347 
   15181    14963    14769    14675    14678    14729    14790    14837 
   14852    14834    14826    14850    14864    14843    14812    14771 
   14681    14535    14390    14308    14292    14318    14352    14346 
   14281    14197    14149    14110    14012    13873    13802    13882 
   14124    14487    14868    15130    15228    15230    15193    15131 
   15047    14949    14868    14817    14764    14692    14610    14533 
   14494    14512    14530    14464    14343    14254    14198    14149 
   14106    14085    14161    14401    14782    15233    15639    15874 
   15902    15781    15619    15486    15347    15160    14981    14906 
   14948    15064    15217    15356    15424    15425    15405    15385 
   15341    15265    15212    15234    15302    15372    15432    15456 
