Origin Time       2016/04/16 01:25:00
Lat.              32.753
Long.             130.762
Depth. (km)       12
Mag.              7.3
Station Code      NGS007
Station Lat.      32.9061
Station Long.     129.7802
Station Height(m) 5
Record Time       2016/04/16 01:25:23
Sampling Freq(Hz) 100Hz
Duration Time(s)  107
Dir.              N-S
Scale Factor      3920(gal)/6182761
Max. Acc. (gal)   22.220
Last Correction   2016/04/16 01:25:23
Memo.             
[...]
  -22864   -23053   -23418   -23824   -24198   -23928   -22638   -21427 
  -21533   -22680   -23745   -24075   -23874   -23415   -22818   -22547 
  -22597   -22433   -22276   -22642   -23362   -23837   -23603   -23061 
  -23067   -23450   -23612   -23666   -23558   -23207   -23217   -23529 
  -23395   -22855   -22293   -22256   -23407   -24777   -24847   -24170 
  -23642   -22783   -21426   -20642   -21538   -23470   -24691   -24886 
  -24429   -23201   -22243   -22603   -23193   -23247   -23559   -24159 
  -24230   -23477   -22245   -21297   -21332   -22518   -24114   -24829 
  -24242   -22783   -21359   -21678   -23654   -24577   -24194   -24421 
  -24263   -23038   -22887   -23354   -22546   -21721   -22083   -23232 
  -24487   -24275   -23141   -23527   -23952   -22441   -22002   -23855 
  -24299   -22965   -22987   -23799   -23340   -22395   -21895   -21769 
  -22272   -23063   -23351   -23240   -23283   -23675   -24109   -24174 
  -24034   -23772   -22792   -21335   -20954   -22368   -24003   -23861 
  -22363   -21180   -20932   -21818   -23446   -24458   -24273   -23774 
  -23909   -24566   -25383   -25718   -24151   -21639   -21553   -24089 
  -26085   -25753   -24253   -23567   -23661   -23142   -21954   -21266 
  -21478   -21650   -21592   -22298   -23439   -24006   -24127   -23764 
  -22972   -23127   -24204   -24272   -23677   -24272   -25395   -25109 
  -23238   -21347   -20614   -21014   -22669   -25176   -26667   -26312 
  -25328   -24349   -23039   -22322   -22626   -21805   -19682   -19667 
  -21944   -22539   -21457   -22669   -25907   -27266   -25773   -23949 
  -23662   -23273   -21194   -20112   -22089   -24558   -25494   -25583 
  -24940   -23856   -23594   -23922   -23900   -23138   -21811   -22129 
  -24662   -25350   -23099   -21817   -21763   -20703   -20054   -20970 
  -22693   -25320   -27213   -26379   -24918   -24481   -23206   -21340 
  -21501   -23293   -24673   -25354   -25197   -23773   -21942   -21269 
  -22230   -23167   -22420   -21410   -22502   -24683   -25143   -23899 
  -22726   -22149   -22439   -23632   -24585   -24399   -23493   -23114 
  -23361   -22789   -21656   -21887   -23197   -24026   -24735   -25106 
  -23375   -20882   -20215   -20738   -21609   -22758   -23193   -23102 
  -23351   -23653   -23829   -23704   -23189   -22892   -22723   -23095 
  -24887   -26209   -25869   -26394   -28238   -27769   -23128   -18580 
  -19355   -22478   -22874   -23582   -26447   -26170   -22077   -19622 
  -19967   -20001   -19275   -20540   -24165   -25581   -23050   -22224 
  -24807   -25496   -24408   -24047   -21243   -17899   -20372   -24422 
  -23729   -22784   -25235   -27086   -26296   -24529   -22734   -21925 
  -22612   -23544   -24473   -25184   -23806   -21616   -21786   -23181 
  -24176   -25802   -27039   -26195   -24814   -23969   -22282   -20340 
  -20954   -23203   -22728   -19974   -20098   -23041   -22880   -19308 
  -19071   -23447   -26492   -25822   -24479   -23931   -22637   -21285 
  -22098   -22802   -21342   -22125   -26594   -28730   -26858   -25223 
  -24271   -22088   -20316   -21562   -24826   -26093   -24179   -22276 
  -20782   -18716   -20162   -25138   -26440   -23654   -22227   -22351 
  -21814   -21453   -22982   -25560   -26432   -24144   -19757   -16654 
  -17795   -22490   -27332   -28447   -26230   -25504   -26063   -24227 
  -21917   -21364   -20369   -19313   -21721   -25993   -26282   -23618 
  -24088   -25594   -23843   -23097   -24452   -22593   -19680   -21497 
  -25601   -26129   -22842   -20223   -20742   -22741   -24044   -24201 
  -24379   -25067   -24545   -22561   -21387   -22016   -23508   -23844 
  -21631   -19172   -18997   -19216   -18213   -18113   -20647   -24969 
  -28294   -28995   -29127   -29422   -28577   -27370   -25503   -21954 
  -18372   -15995   -15782   -18997   -22568   -22189   -19719   -20042 
  -24952   -31450   -32780   -27561   -23360   -23019   -22132   -21627 
  -22941   -20749   -16651   -18539   -23296   -24407   -23677   -23299 
  -24519   -27524   -26760   -22327   -22022   -24159   -23300   -22962 
  -23697   -20968   -16947   -15727   -18265   -24824   -30568   -29995 
  -26594   -24464   -22120   -20898   -22295   -23123   -24323   -28370 
  -31243   -30715   -28336   -22497   -14405   -11555   -16502   -22859 
  -25056   -24893   -26425   -27846   -25119   -19718   -15937   -16980 
  -22308   -26190   -25938   -25154   -25428   -24589   -21760   -19351 
  -20486   -24515   -27750   -28735   -29201   -30283   -30450   -28255 
  -24424   -20093   -16935   -16902   -18835   -20150   -21086   -23236 
  -26257   -27259   -24007   -20214   -21810   -25375   -24069   -22350 
  -24367   -24463   -23062   -24269   -23572   -20582   -22000   -25403 
  -24523   -22905   -24615   -26126   -24904   -22120   -19156   -18563 
  -21720   -25267   -25149   -22261   -20902   -22459   -24759   -26824 
  -28238   -27314   -25561   -25916   -24858   -19554   -16237   -18357 
  -22038   -25581   -28088   -27752   -25119   -20929   -16360   -13705 
  -14832   -20628   -26968   -28454   -27249   -26257   -24300   -22963 
  -22759   -20942   -19603   -21260   -23327   -23909   -22271   -19204 
  -19010   -22339   -25791   -28781   -30545   -29215   -26727   -24199 
  -19716   -16781   -20283   -25224   -25084   -23026   -23388   -23869 
  -22508   -21894   -23100   -22937   -19654   -16443   -16762   -19112 
  -20754   -23423   -27472   -28031   -25348   -26303   -31273   -32703 
  -27907   -22583   -20709   -20648   -21812   -23818   -22585   -18720 
  -18259   -20312   -21090   -22880   -24844   -23050   -22466   -26737 
  -28408   -24959   -21743   -20090   -20930   -24598   -26621   -26198 
  -24603   -20144   -16387   -18776   -23683   -24822   -22915   -21789 
  -21515   -21053   -23034   -27253   -28452   -28067   -30758   -31176 
  -23910   -15936   -15205   -18462   -19387   -18851   -20356   -24314 
  -28296   -28329   -24057   -19928   -18799   -20136   -22275   -23210 
  -22737   -22891   -23694   -24197   -25464   -25020   -20103   -16965 
  -20444   -24561   -24688   -23970   -23797   -21969   -20833   -24180 
  -28246   -28615   -28127   -29247   -30122   -27781   -20231   -12703 
  -13523   -19443   -22541   -24565   -27625   -27612   -24191   -21535 
  -21478   -21784   -19598   -17858   -20442   -23233   -23465   -25264 
  -27046   -23593   -18948   -18859   -21644   -24763   -27114   -27595 
  -27167   -26812   -26757   -27126   -25575   -21428   -19400   -20842 
  -20018   -16583   -17687   -22527   -24410   -24260   -24512   -24100 
  -23108   -20023   -15363   -15333   -20300   -25316   -29400   -29995 
  -25508   -22472   -23450   -24479   -26373   -29738   -30257   -27045 
  -22694   -18510   -16965   -20359   -25126   -25531   -21976   -20131 
  -22496   -24261   -21773   -19978   -22400   -24248   -23066   -21987 
  -20885   -18059   -16933   -20544   -25575   -27151   -24120   -19737 
  -18487   -20010   -20604   -20594   -21902   -23045   -23033   -23385 
  -23924   -22658   -21057   -21801   -22657   -22222   -23533   -26785 
  -28914   -28968   -27728   -25744   -24677   -25103   -23467   -18252 
  -13353   -13061   -19538   -29213   -34124   -33513   -31758   -27766 
  -21211   -17058   -16031   -15193   -17092   -23879   -28625   -26866 
  -24704   -25012   -24431   -23820   -23858   -21804   -19223   -19019 
  -19332   -18107   -16964   -18496   -22409   -25947   -28871   -32162 
  -32550   -28627   -25113   -23923   -23586   -23458   -21207   -17778 
  -17796   -19457   -20520   -25068   -31639   -33723   -31231   -25793 
  -18495   -14948   -16797   -18413   -18340   -20148   -24834   -29875 
  -31528   -29063   -26509   -26134   -25798   -23961   -20863   -18137 
  -18451   -20837   -21095   -18797   -17742   -19694   -22683   -25283 
  -27953   -29998   -29504   -26401   -21785   -16559   -14168   -17679 
  -23271   -25073   -23283   -22295   -24590   -27550   -27065   -25344 
  -27045   -28596   -25430   -22125   -21854   -20821   -18734   -18419 
  -18931   -19780   -22854   -26724   -27901   -26899   -26288   -25057 
  -21169   -16678   -15377   -17754   -21105   -23885   -26713   -29776 
  -32062   -31404   -26945   -21523   -17055   -13334   -12776   -15769 
  -17249   -16556   -18495   -23238   -26832   -27573   -26499   -25869 
  -27113   -28725   -28325   -25851   -23377   -23284   -24562   -24112 
  -23778   -25981   -27528   -26501   -24287   -21550   -20265   -21955 
  -23125   -20923   -18231   -17098   -15833   -15419   -18802   -24331 
  -27618   -27614   -26531   -25575   -24254   -21953   -18051   -14453 
  -14877   -18086   -20184   -21643   -22892   -21598   -19326   -18746 
  -18798   -20350   -22468   -20303   -18211   -22427   -27016   -27862 
  -27782   -25720   -22401   -22356   -23659   -21899   -18862   -18245 
  -20541   -23953   -26362   -27657   -28802   -28490   -25496   -22030 
  -20198   -18945   -17384   -17004   -17897   -18081   -18183   -19357 
  -20181   -21435   -24572   -26782   -26188   -24524   -23318   -23377 
  -24213   -24329   -24327   -25386   -26325   -26425   -27349   -29268 
  -29979   -28814   -27248   -26488   -25453   -22845   -20989   -22217 
  -25256   -27956   -28367   -26415   -24299   -21798   -18425   -16807 
  -16617   -15142   -14074   -16274   -21764   -28444   -32107   -31194 
  -28853   -26534   -24154   -22862   -21537   -19605   -20556   -24464 
  -26600   -25989   -24778   -23277   -22254   -23022   -24130   -23967 
  -24048   -25191   -25456   -25177   -26449   -27888   -27150   -24676 
  -21474   -17583   -14003   -12992   -14759   -17529   -20704   -23835 
  -26574   -30168   -34096   -34821   -29949   -21848   -16754   -16671 
  -16811   -16789   -20903   -25874   -26049   -24126   -23814   -24210 
  -25457   -27425   -26703   -22886   -19226   -16926   -15928   -15987 
  -16816   -20404   -27074   -31866   -31339   -27801   -24530   -22726 
  -22190   -22410   -23935   -25894   -23768   -16908   -12108   -13609 
  -19132   -24898   -27092   -24635   -21925   -22901   -25052   -23706 
  -19492   -16791   -17111   -19327   -23806   -30987   -37006   -35931 
  -28643   -23066   -22570   -24188   -26392   -27459   -25482   -23930 
  -25105   -25324   -23323   -20936   -18827   -19542   -23825   -26602 
  -26072   -24353   -19791   -12671    -9079   -12574   -20708   -27302 
  -27432   -24222   -23292   -23659   -23744   -24377   -23718   -21985 
  -22306   -23392   -22804   -21529   -21076   -21243   -19397   -14724 
  -12323   -14661   -15790   -13278   -13858   -20750   -29009   -33837 
  -32994   -26464   -19267   -17382   -19891   -21604   -20515   -17505 
  -14361   -14487   -19306   -25274   -28536   -28245   -25118   -22560 
  -23882   -25396   -23036   -20059   -18142   -15403   -15393   -22353 
  -31032   -32384   -27593   -26104   -29159   -30036   -27725   -24645 
  -20101   -14998   -12647   -14409   -19410   -25256   -28721   -28470 
  -27031   -27725   -29917   -29381   -23344   -14941    -9561    -8750 
  -12383   -19585   -26440   -29626   -28715   -25074   -21863   -20958 
  -20790   -20802   -22668   -24400   -22695   -19818   -18105   -17500 
  -19135   -19970   -17173   -16702   -21333   -24972   -25696   -27101 
  -29015   -29000   -28047   -28415   -29578   -28649   -25137   -23402 
  -25935   -29035   -29182   -26659   -22989   -20133   -18758   -16936 
  -14151   -13326   -16252   -20370   -23410   -26897   -31178   -33751 
  -33392   -30198   -25645   -22586   -20156   -15201    -8858    -4240 
   -3096    -6096   -11913   -20153   -31919   -44243   -51623   -51442 
  -44144   -33458   -24854   -19929   -15886   -10814    -7143    -8190 
  -12707   -18759   -25742   -28362   -23393   -17837   -17766   -20272 
  -20633   -18155   -14967   -13060   -12835   -14069   -17350   -22084 
  -25814   -28544   -32287   -36231   -37837   -37598   -37750   -36533 
  -31049   -22823   -13023    -1258     7701     7231    -2660   -17079 
  -31038   -40556   -44473   -43443   -37415   -28570   -21230   -15858 
   -9997    -4917    -4726    -9722   -15714   -20130   -24981   -30956 
  -34234   -34710   -35822   -33843   -24449   -14066    -9356    -7384 
   -5288    -5532    -8093   -11020   -16145   -24427   -31494   -33493 
  -32817   -32536   -32859   -36393   -43326   -47884   -47635   -43013 
  -34369   -27038   -25427   -25377   -22684   -19878   -18881   -18501 
  -20559   -26077   -30419   -30270   -26491   -21210   -17805   -16769 
  -13876    -8482    -5737    -9109   -17291   -27125   -36217   -42200 
  -43269   -40884   -37513   -34486   -33310   -34171   -33991   -28689 
  -19923   -15093   -15057   -12683    -6003       16      672    -5949 
  -16355   -24050   -28554   -33655   -37955   -37451   -32908   -27314 
  -22133   -18195   -16343   -17232   -19515   -20547   -22094   -27938 
  -34186   -33676   -28080   -24487   -25991   -30557   -31765   -24135 
  -12772    -9946   -19940   -33450   -39133   -36426   -32759   -33116 
  -35642   -34846   -29239   -20496    -7453     6341    10114     1417 
  -12040   -24449   -31722   -29615   -20314   -12654   -12606   -16971 
  -18157   -14252   -12162   -17581   -25692   -30101   -33687   -39380 
  -41114   -35391   -28269   -23385   -17709   -10658    -5592    -4039 
   -4628    -6078    -8732   -12820   -17648   -23907   -31870   -38509 
  -41660   -42419   -42193   -41535   -39909   -36375   -31439   -25525 
  -18733   -14442   -15546   -17435   -14318    -8891    -7212   -10400 
  -17107   -26231   -34563   -38999   -40549   -41052   -39186   -32833 
  -21338    -6543     6128    11868     9766      767   -12145   -23645 
  -28590   -25959   -21878   -21937   -22853   -22279   -24666   -27682 
  -22602   -12535    -8132    -8492    -7648    -9504   -17614   -25026 
  -27068   -27144   -26248   -23753   -22651   -24156   -27504   -32372 
  -36403   -38079   -37082   -32064   -26287   -25462   -27756   -28542 
  -29002   -29675   -27198   -22890   -20923   -19687   -15760   -10785 
   -8426    -8529    -8882   -10705   -16721   -25731   -33769   -38772 
  -40775   -39235   -34128   -27362   -21720   -20423   -23965   -27795 
  -28142   -27344   -28348   -27713   -22556   -17526   -15782   -15891 
  -18303   -21407   -22242   -24626   -30865   -34695   -32118   -26022 
  -21361   -21928   -25478   -27190   -28809   -31902   -31518   -28282 
  -28664   -28974   -21861   -13082   -12682   -21419   -32599   -37717 
  -34099   -27305   -22599   -22283   -27067   -31581   -30178   -27762 
  -31086   -36369   -35794   -27359   -15647    -9043   -12208   -20892 
  -28084   -31385   -33403   -34946   -31369   -22027   -13863   -10616 
   -9786    -9298    -8972   -10334   -17438   -29714   -38575   -39400 
  -35822   -30049   -22661   -18166   -19716   -22909   -21629   -16425 
  -13018   -14708   -18228   -19766   -22537   -28944   -32669   -30492 
  -29273   -31676   -30861   -26686   -27484   -31604   -30878   -28153 
  -29378   -31515   -31464   -29743   -24021   -16052   -14506   -19106 
  -20509   -17826   -18243   -23974   -30366   -33345   -34315   -37469 
  -41973   -41248   -34326   -26404   -17502    -8844    -9515   -20465 
  -30696   -34374   -34605   -34023   -31535   -25553   -16729    -7351 
    -533     1458      371     -762    -3674   -13167   -28804   -40939 
  -39610   -27515   -16938   -15116   -17902   -16743   -12987   -15946 
  -24986   -34335   -43171   -45462   -36894   -27113   -22901   -20446 
  -19230   -20355   -19615   -17088   -17973   -20957   -22188   -23763 
  -29249   -38329   -44317   -39596   -28071   -20044   -17679   -19053 
  -25488   -35018   -41294   -43055   -43070   -40377   -34114   -27027 
  -19878   -13086   -10472   -13428   -18434   -20812   -18651   -16029 
  -18407   -25251   -31573   -32528   -26243   -17056   -12983   -16844 
  -24121   -28830   -26900   -19139   -13433   -15130   -18867   -20119 
  -22358   -25676   -25801   -22948   -19609   -18099   -21523   -29254 
  -34783   -32745   -26655   -24674   -27834   -29877   -27549   -23562 
  -22477   -26921   -33758   -36499   -33144   -27301   -23439   -23063 
  -25319   -30426   -37462   -41030   -36987   -27845   -17863    -9024 
   -5922   -13853   -28060   -39439   -47548   -53050   -51307   -41338 
  -26844   -12833    -5133    -4266    -6145   -10390   -17554   -23472 
  -25328   -25470   -23760   -17315    -9257    -6187    -9509   -14543 
  -16114   -15114   -16233   -20515   -26304   -31992   -35364   -36155 
  -36580   -37410   -37391   -34921   -29208   -21437   -12292    -1480 
    7134     7250    -2699   -18303   -32774   -41456   -43611   -40579 
  -34283   -27225   -21407   -17941   -18873   -23529   -26205   -25339 
  -23930   -20961   -16027   -12414   -11223   -13169   -18997   -25121 
  -28362   -30460   -32794   -33645   -31976   -29032   -26839   -25830 
  -23916   -21489   -21677   -21897   -18457   -15104   -15404   -19787 
  -27871   -35335   -39243   -40123   -36876   -31674   -29564   -29738 
  -28130   -23834   -18850   -16168   -17359   -20253   -21533   -21547 
  -23262   -27255   -29888   -28494   -25953   -24122   -21105   -19336 
  -20957   -19972   -14239   -10912   -13098   -17639   -23214   -30005 
  -36628   -39230   -34120   -24889   -20225   -22212   -25264   -25801 
  -26111   -27692   -26023   -18190    -9740    -6726    -8817   -13198 
  -17893   -22100   -26550   -31549   -35027   -34384   -30279   -27943 
  -31039   -33824   -28499   -18904   -13750   -12826   -12120   -11694 
  -11567   -11219   -12809   -15967   -17877   -20739   -25988   -28447 
  -25894   -23145   -24284   -27714   -28729   -26247   -24508   -25388 
  -25089   -22129   -19690   -19586   -22927   -29829   -35074   -34602 
  -31697   -30806   -32465   -34473   -34569   -32875   -30722   -27811 
  -24541   -24058   -26415   -27141   -25626   -25723   -28111   -30681 
  -32749   -32148   -24846   -13693    -8425   -12575   -19772   -24073 
  -25518   -25740   -25398   -25376   -25713   -24192   -18907   -11969 
   -8153   -10060   -15240   -18157   -17057   -16168   -18016   -19514 
  -18894   -18479   -19005   -19225   -18871   -17797   -16533   -17062 
  -20605   -26530   -33279   -39063   -42379   -42913   -40392   -34434 
  -27787   -22980   -18265   -13827   -11907   -10857   -10542   -15085 
  -23881   -30516   -32282   -33017   -34565   -33010   -27307   -21721 
  -19213   -20169   -22471   -22641   -21166   -20821   -22214   -25351 
  -28172   -26569   -22068   -19810   -19221   -17120   -14519   -14257 
  -16860   -20607   -24094   -27183   -28906   -27263   -22107   -16399 
  -13459   -13730   -16633   -22134   -27634   -29745   -28695   -26616 
  -24555   -21474   -16784   -13451   -13772   -16726   -21243   -25796 
  -28366   -28904   -28769   -29933   -32714   -33251   -28085   -19053 
  -10286    -3428      778    -1056   -10356   -21631   -27805   -27370 
  -24743   -23774   -23167   -22053   -22708   -23666   -21776   -21226 
  -26918   -33595   -34370   -30964   -26932   -22798   -20928   -23845 
  -28074   -27324   -21671   -17864   -19227   -21737   -21606   -20772 
  -22666   -25967   -26619   -24177   -21483   -19476   -17202   -15952 
  -18012   -22858   -29134   -36394   -41933   -41124   -32811   -22062 
  -14920   -10482    -5601    -3634    -6884    -9933    -9845   -11250 
  -16779   -22584   -25520   -26137   -24127   -19991   -18779   -23191 
  -28486   -30236   -29368   -27606   -25221   -21839   -17511   -16051 
