Origin Time       2016/04/16 01:25:00
Lat.              32.753
Long.             130.762
Depth. (km)       12
Mag.              7.3
Station Code      NGS013
Station Lat.      32.5811
Station Long.     129.7596
Station Height(m) 3
Record Time       2016/04/16 01:25:25
Sampling Freq(Hz) 100Hz
Duration Time(s)  100
Dir.              E-W
Scale Factor      3920(gal)/6182761
Max. Acc. (gal)   13.072
Last Correction   2016/04/16 01:25:25
Memo.             
[...]
    3690     3491     3524     3642     3781     3949     3937     3644 
    3434     3582     3803     3835     3802     3763     3626     3458 
    3416     3487     3571     3621     3649     3745     3818     3711 
    3627     3669     3672     3720     3874     3921     3813     3692 
    3613     3602     3731     3874     3878     3743     3403     3021 
    2990     3274     3524     3572     3459     3250     3091     3183 
    3439     3615     3620     3485     3371     3454     3625     3648 
    3600     3729     4020     4239     4274     4086     3626     3303 
    3608     4155     4233     3875     3629     3607     3473     3354 
    3473     3419     3167     3178     3267     3089     2843     2789 
    3021     3588     4046     3701     2965     2771     2932     3258 
    4170     4966     4581     3627     3190     3256     3687     4461 
    4797     4304     3716     3528     3567     3665     3991     4552 
    4629     3887     3108     2900     3086     3278     3569     4205 
    4473     3935     3435     3298     3299     3753     4594     4825 
    4122     3634     3749     3536     3292     3880     4372     3949 
    3516     3488     3310     3151     3378     3608     3668     3721 
    3242     2205     2026     2897     3400     3336     3229     2930 
    2619     2794     3204     3142     2614     2439     2938     3471 
    3384     2684     2087     2303     3133     3726     3636     3296 
    3413     4133     4666     4199     3464     3700     4419     4428 
    4051     4270     4794     4791     4532     4829     5489     5567 
    4951     4288     3727     3324     3546     4212     4542     4336 
    3912     3518     3075     2387     1826     2140     3491     4852 
    4615     2883     1736     2181     3582     4985     5185     4000 
    2784     2308     2120     2303     3583     4979     4500     2721 
    2104     2760     3058     3382     4476     4816     3532     2560 
    3083     3467     3446     4731     6037     4873     3057     3575 
    5292     6057     6419     6749     5870     4510     4745     5642 
    5175     4142     3798     3844     3765     3751     4146     4112 
    3174     2695     3030     2884     2365     2466     2644     2612 
    3324     3980     3202     2680     3838     4485     3569     2854 
    2425     2053     3361     5332     4902     2868     2469     4014 
    5538     6159     5854     4886     3979     3317     3149     4225 
    5511     5166     4143     3970     4159     4362     4044     2490 
    1125     1450     2646     3531     3992     3652     2441     2053 
    3260     4513     5009     5042     3920     1804      932     2018 
    3672     4913     4942     3486     2136     2754     4828     5888 
    4532     2131     1551     3362     4599     3455     1831     1831 
    2990     3298     2010     1139     2340     3954     4008     2733 
    1487     1115     1323     2384     4099     4681     4156     3546 
    2863     3043     4679     6004     5095     3036     2726     4160 
    4757     4108     4036     4217     2931     2018     3523     4382 
    3016     3605     7411     9513     6677     1771     -227     2013 
    5883     7801     5916     2247       81      672     3541     6789 
    7796     5473     2396     1987     3895     5564     5025     2698 
    1647     3023     4615     4585     3633     3110     2674     2406 
    2962     3354     3906     6173     8372     8189     7005     6114 
    4525     2820     2760     3530     3816     4087     4040     3169 
    2866     3593     4381     5450     5883     3759     1129      814 
    1311     1707     4018     6468     4578      536     -311     1185 
    2836     5760     8539     7564     3975     2419     3864     5963 
    8156     9427     7131     3361     2274     2532     2458     3564 
    5382     6287     5924     4269     2156     1329     2768     4392 
    3147      207     -794      962     3114     3798     3643     2705 
     600      197     2774     4113     2983     3407     5023     4333 
    4017     7191     9013     6989     7163    10499    10255     6175 
    4338     5272     4985     3491     3418     4202     3674     2170 
    1657     2124     2088     2523     4411     5102     3439     2308 
    2812     3025     2904     3616     3796     1965     -570    -1450 
     447     3906     5733     4711     3334     1896     -943    -1940 
    1158     4660     5372     3803      944    -2255    -3529    -1664 
    1130     2191     1875      766    -1817    -3450    -1681      460 
      47     -342     1979     3808     1981     -963    -2263     -912 
    3532     7404     5670      550     -526     3450     5956     4310 
    1970     1189     2705     6447     8782     6030      496    -1192 
    2243     4726     3050      555      799     2638     3041     2231 
    2007     2424     2321     1847     2458     3352     2627      479 
   -1005      589     3891     5247     4823     4485     4996     6325 
    6385     4216     2928     5042     8291     9186     8209     7041 
    5632     5376     6808     6625     3711      843       16     1736 
    4731     5846     4621     3958     3993     2634     1581     4277 
    9421    11505     8221     2537    -1659    -1894     1390     6168 
   10290    10955     8604     6355     5312     5185     5471     6052 
    6672     6984     7912     8439     5561      109    -3309    -2383 
     217     2071     3901     4635     2382      -53     1421     5312 
    6695     4465     1623     1026     3220     5182     3420      662 
    2281     6025     6170     3779     3227     5474     8803    10503 
    8595     5104     4540     7312     9220     7899     4485      960 
    -502      729     2542     3396     3728     3529     2014      -41 
     -81     1976     3181     2636     1131     -670     -768     1379 
    3460     4357     4949     5140     3947     2524     2792     4760 
    8545    13105    14051     9540     4486     4852     9467    11257 
    7788     3498     1793     2771     4706     4511      558    -4744 
   -6660    -4112    -1038      -76     -476     -956     -904     -218 
    1291     2614     2403     1859     2081     2535     2766     2241 
    1184      886     2145     4358     5818     5557     4890     5173 
    5087     3671     2628     2726     2682     2631     4036     5213 
    3323      705     1065     3396     4772     3886     1792      614 
    1078     2621     3645     2896     2398     4774     8619    10125 
    7614     2731    -1288    -1966      295     2490     1914     -723 
   -1745        3     1681     2033     2295     2520     2302     2759 
    4451     5302     3791     2005     2058     2601     1969      416 
   -1727    -3103    -1705     1313     2803     1423    -1376    -2708 
    -774     3342     6346     6177     3785     1256      442     1649 
    2760     1678     -743     -836     2973     6259     4984     2184 
    1606     1567      297     -747    -1108    -1399     -202     2503 
    3677     2962     2333     1950     1921     2864     4059     4001 
    2639     2237     4078     6636     8187     7868     5364     1676 
    -714      175     3442     6020     5659     2981      373    -1008 
   -1109      921     5031     8330     8795     7885     6910     6023 
    6719     9289     9773     5794     1195     -348      740     3386 
    6637     8950     9742     9572     8372     6783     7272     9341 
    8602     4170      965     2351     5337     5548     2568    -1315 
   -2878     -278     3037     2345     -673    -1302      178      786 
    1303     3614     6130     6593     4918     2378      853     1784 
    4654     7005     6589     3548      753     1036     3555     5426 
    5722     5411     6015     7967     9177     7759     4702     2285 
    1742     2691     3866     3625     1390     -351     1305     4274 
    3037    -2175    -4601    -1911     1730     3456     3144     1444 
     340     1467     2815     2006     1488     3712     6341     7170 
    6713     5434     3402     1852     2517     4751     6146     5981 
    4510     1514    -1834    -2316     1439     5790     6822     4951 
    2712     2452     4694     7505     8733     7863     6795     7428 
    8187     7087     5086     3965     4565     5448     3943      735 
   -1310    -1498     -569      948     2523     2963     1818     1526 
    3912     7005     7675     4639      507     -408     2283     5468 
    6414     4136      758     -377      696     2615     5651     8321 
    7833     5450     4396     4418     4350     4831     5471     4277 
    1357      -30     1436     3693     5600     6975     7401     7090 
    5897     3164      191      -49     2572     5391     7148     6966 
    4105     1105      806     2293     3041     2307     1764     2948 
    4932     5257     2432    -1571    -2272     1829     6382     6385 
    3537     3227     5476     6328     4989     3920     4756     6544 
    7200     5839     3919     3870     5692     7426     8578     8792 
    7075     4071      841    -1116      795     6099     9669     7502 
    2179     -735     1062     5461     7410     5142     3300     4722 
    6384     6026     5452     5212     3441     2134     3906     5173 
    3366     1690     1526      835     -352     -637     -980    -1696 
    -469     1980     2748     3036     4921     6309     4918     2412 
    1225     2099     4519     6099     5692     5696     7145     7386 
    5406     4326     5619     6643     5991     5196     5200     5327 
    5159     4736     3745     2603     1679      376     -264     1210 
    3204     3776     3340     1928     -374      125     4979     8031 
    5513     2353     1947     2200     2542     3345     2699      785 
     143      701     1346     2660     4752     6785     8419     8733 
    6529     3730     2824     2239     1207     2136     4092     3599 
    1507     1316     2546     1975      402     1291     3316     2437 
    -447    -1887    -1468       10     2446     4476     4052     1545 
    -602     -212     2967     6505     8006     7684     6211     3310 
     565      775     2834     3142     1632     1197     2823     4642 
    4572     2803     1503     1152      487      296     1808     2786 
     533    -2382    -1326     3194     7186     8509     8143     7972 
    7747     5952     3157     1978     3786     7240     9694     9220 
    6453     3751     2345     2269     3477     4983     4526     1509 
   -1193    -1497     -862     -810    -1029     -814     -261       48 
     844     3575     6967     7976     6969     6597     6727     6014 
    4667     3022     1635     2171     5276     8763     9989     8549 
    5569     3021     2508     3208     3232     2167     1069      465 
       7       79     1397     4371     8083     9007     5548     1188 
    -784     -752     -140     1250     3820     6141     7436     8255 
    8274     7862     7749     6668     3769     1341     2236     4910 
    5586     4497     3923     3966     3414     1994     1282     2534 
    4969     7363     9019     8832     5154    -1662    -7339    -7190 
   -1562     4914     8732     9218     7111     4470     3188     2762 
    2243     2318     3398     4977     7478    10733    11819     9273 
    6982     8892    12559    12373     7751     3789     4138     7513 
    9969     8161     2997    -1417    -3507    -4661    -5197    -4024 
   -1602      176      924     1089      378     -334      957     4135 
    6554     6478     4732     2467      484     -699    -1695    -2157 
   -1449    -1474    -3161    -4057    -1859     3184     9185    13812 
   14465    10378     4342       49     -342     2358     4344     2706 
   -2124    -6837    -7056    -1570     5259     7700     5019      905 
   -1116      893     6124    10934    12557    11918    11600    11237 
    8007     2453     -547     2090     7597    11084    10400     5790 
    -207    -2914    -1326      369      108     -358      291     2613 
    6661    10634    10826     5270    -1290    -2086     2357     6132 
    5507     1800     -285     2586     9132    14237    12668     4665 
   -2666    -2489     3319     7036     6713     6867     7772     5996 
    3406     3683     5547     6759     7495     6993     3606     -410 
   -1289     -295     -825    -2561    -1989     3372    10731    14038 
   11400     6674     2977    -1231    -7075   -10394    -6797     1275 
    7067     7011     2664    -2186    -3998    -1960     2504     8907 
   15475    17922    14174     5730    -3581    -9538   -11454   -11089 
   -9268    -6748    -3980     -254     4343     7807     8158     7193 
    8760    12318    14547    14876    13317     8694     2915      -86 
    -196      537     2842     7702    11658    11695    11047    12539 
   13822    13358    12225     9400     2150    -8091   -14382   -10320 
    1097     7240     1463    -7751    -9539    -3283     5007    11091 
   13185    10533     4756     -855    -2947     -352     3928     5899 
    4757     2907     3008     5848    10803    15407    15169     8048 
    -289     -411     9019    18653    19665    12174     2128    -5400 
   -9071    -9581    -6851    -2179       90    -1000    -1035     2199 
    6599    10396    12934    12772     8848     2809    -1279     -678 
    2251     2485     -925    -3472    -1467     3194     5788     4356 
    2629     5911    13066    16953    13293     5668      531     -365 
     127     -310     -619      944     1457    -4091   -13312   -17116 
  -11312     -350     9305    12907     8315       70    -2775     1371 
    4659     2846      763     3213     8536    12615    13720    12382 
   10749    11534    14255    14770    10303     3165     -592     2636 
    8931    10730     5409    -1562    -3267      510     6160    11760 
   14519    11681     5557      459    -2935    -6367    -9132    -8320 
   -4503    -2102    -3130    -4736    -4218    -3364    -4868    -7290 
   -6952    -2568     3488     7288     7006     4493     2477      366 
   -4564    -9763    -7261     4063    14097    14506     7340     -334 
   -2254     2816     9426    11929     9775     5866     2791     1049 
     968     2082     1332    -2481    -5092    -1723     5637    11177 
   13962    16176    17263    15660    11994     8939     9402    12551 
   13089     8732     4040     4542    10994    17663    16874     9251 
    4091     6104    11007    14762    16351    14653    10352     6829 
    6035     5840     3416     -177    -1814      259     4768     6160 
    1203    -4623    -4225     2038     7111     5598     -725    -6292 
   -6713    -2688     -354    -3465    -8923   -12524   -13681   -13706 
  -12401    -7832    -1039     2903     1818    -1547    -4988    -8365 
  -10326    -8031    -1817     3599     4584     1595    -2317    -3525 
   -1663     -263     -361      162      844      307      233     2004 
    3572     4087     6313     9871    10683     9133     8844     8996 
    6743     4640     7982    16171    22321    21518    15788    10269 
    8279    10102    13386    14593    11538     6725     5669     8762 
   10946     9856     6712     2513     -497     1036     5707     7820 
    5237      530    -3037    -2805     1103     5053     6924     8569 
   10957    11399     8979     7837     9938    10343     5283    -1619 
   -5388    -6010    -6283    -7238    -8039    -7909    -6127    -3414 
   -3508    -8017   -11185    -7019      710     3664      570    -4135 
   -7921    -9335    -6332    -1327     -886    -6493   -11500    -9053 
     684    11283    16076    13845     9184     7040     8330    11163 
   13676    14560    12498     7843     3705     2195     2422     3841 
    6647     8864     7978     4300      171    -2071    -1353      922 
    2045     1944     3850     8496    12020    11945     9508     7182 
    7850    12042    15770    14871     9662     3502    -1370    -4355 
   -5031    -4460    -5070    -6618    -4817     2644    10355    10770 
    2972    -6720    -8864      945    15343    21687    16314     7974 
    4215     3001     1454       35    -1125     -977     1781     3991 
     265    -8761   -15419   -14755    -9719    -5053    -3071    -4311 
   -6032    -3955     1254     4597     3625      -85    -3467    -3074 
    2010     7351     8287     5668     1613    -3347    -5767    -2084 
    3904     5307     1682    -2048    -2719     -492     2351     1888 
   -3157    -7795    -5635     3454    12242    12823     5260    -1289 
    1016     8708    12689    10821     8139     7434     6636     5308 
    6123     8440     8366     6057     6185    10200    13111    10344 
    4109      -43       94     2668     5369     6616     4624       -4 
   -2712     -955     1937     2661     2193     2072     2674     4455 
    6344     6350     5380     5636     6190     4832      993    -4099 
   -6905    -5301    -2494    -2571    -4751    -4793     -928     4608 
    8515     7811     2772    -1558    -1471     1321     3442     3485 
    2394     2733     5569     7506     4708     -744    -3147     -427 
    4902     9617    11418     9657     6135     3269     2307     2972 
    3691     4108     5084     4895     1244    -2982    -2462     2775 
    7773     9222     6931     1319    -5594    -8431    -3632     4532 
    9557    11358    12762    12436     8809     6081     8104    12391 
   15715    17015    14611     8640     3926     4364     6402     4877 
    1802     1486     2961     3415     2968     1980     -696    -4344 
   -7073    -9343   -10581    -6466     3138     9907     7962     1805 
   -1576     -932     1787     5481     8623     9473     8876     7574 
    4305      134    -2018    -1670     -504     -490    -2347    -4809 
   -6080    -5389    -3680    -2286     -901      622     1020      649 
    1662     4377     6350     5223     1463    -1982    -2296      460 
    3170     3651     3260     3855     5315     6984     8510     9639 
   10802    12197    12530    10631     7178     3985     2201     1836 
    2975     5275     6628     5082     2228     2205     5794     8858 
    8200     5043     2904     3702     5442     5605     4592     3195 
    1637     1745     5336    10501    13435    13805    14072    15254 
   16408    16005    13005     8016     3669     2245     2760     2356 
     279     -988      623     3767     6074     6787     6778     7958 
   11311    15177    16335    12800     6836     3655     4525     5185 
    3307     2051     3452     4099     1489    -2070    -4161    -4065 
   -1215     3955     8494     8261     3504      554     4025    10189 
   11561     6911     2455     3022     6672     8252     5746     2220 
    1590     3960     6040     5361     2735      931     1693     3702 
    4303     3048     2037     3477     7257    10009     8155     3104 
     417     2632     6388     7442     5422     2974     2260     2949 
    3487     3208     2137      693     -176     -531    -1508    -2226 
    -127     3874     5078     1877    -1007     1212     6871    10709 
   10430     7286     3005      -84      928     5205     7542     4959 
     475    -1022     1797     6113     8267     7031     4233     2622 
    2754     2878     2483     3177     5703     8111     7452     3874 
    1497     3572     8627    12619    13125    10660     7329     4770 
