Origin Time       2016/04/16 01:25:00
Lat.              32.753
Long.             130.762
Depth. (km)       12
Mag.              7.3
Station Code      NGS011
Station Lat.      32.7839
Station Long.     130.2024
Station Height(m) 34
Record Time       2016/04/16 01:25:15
Sampling Freq(Hz) 100Hz
Duration Time(s)  231
Dir.              E-W
Scale Factor      3920(gal)/6182761
Max. Acc. (gal)   61.011
Last Correction   2016/04/16 01:25:16
Memo.             
[...]
    4873     4878     4872     4863     4868     4875     4873     4870 
    4870     4869     4870     4872     4873     4872     4868     4867 
    4871     4874     4872     4868     4868     4871     4875     4873 
    4867     4869     4875     4876     4872     4867     4867     4872 
    4876     4871     4866     4870     4876     4873     4868     4869 
    4871     4871     4875     4875     4870     4869     4871     4870 
    4871     4874     4871     4868     4874     4876     4868     4866 
    4868     4869     4874     4880     4874     4864     4863     4871 
    4876     4879     4877     4866     4862     4872     4880     4874 
    4866     4866     4872     4873     4871     4874     4875     4870 
    4864     4864     4872     4879     4873     4864     4870     4877 
    4875     4870     4869     4869     4871     4874     4872     4868 
    4871     4877     4875     4867     4869     4876     4875     4871 
    4869     4867     4866     4873     4881     4876     4865     4865 
    4872     4875     4872     4869     4873     4875     4869     4866 
    4874     4879     4873     4865     4864     4873     4879     4873 
    4868     4864     4868     4880     4880     4867     4865     4874 
    4876     4870     4870     4875     4873     4867     4869     4875 
    4875     4870     4867     4869     4871     4872     4872     4870 
    4868     4869     4871     4874     4875     4872     4871     4872 
    4873     4870     4866     4865     4870     4875     4871     4864 
    4869     4877     4873     4865     4866     4874     4876     4871 
    4870     4875     4876     4870     4864     4865     4873     4879 
    4874     4867     4870     4874     4870     4866     4866     4867 
    4870     4875     4872     4870     4874     4875     4872     4869 
    4868     4869     4873     4874     4871     4867     4869     4874 
    4875     4869     4866     4871     4876     4872     4868     4871 
    4875     4873     4866     4866     4876     4880     4873     4865 
    4867     4872     4873     4872     4870     4870     4876     4875 
    4866     4864     4872     4877     4870     4865     4869     4874 
    4873     4872     4872     4870     4868     4871     4872     4870 
    4870     4873     4871     4867     4868     4875     4876     4873 
    4869     4869     4873     4875     4869     4865     4868     4873 
    4876     4874     4866     4867     4879     4878     4864     4862 
    4873     4880     4873     4865     4871     4881     4877     4867 
    4866     4872     4875     4871     4867     4869     4876     4878 
    4870     4865     4868     4870     4870     4873     4870     4870 
    4874     4871     4868     4871     4870     4869     4872     4872 
    4867     4867     4871     4874     4869     4863     4867     4874 
    4870     4862     4862     4866     4868     4863     4859     4861 
    4864     4864     4860     4859     4864     4869     4866     4863 
    4864     4866     4866     4862     4861     4868     4872     4867 
    4862     4864     4867     4867     4864     4864     4866     4864 
    4863     4867     4872     4867     4858     4872     4887     4863 
    4829     4841     4862     4840     4819     4846     4884     4893 
    4883     4874     4871     4881     4876     4825     4810     4895 
    4919     4773     4667     4800     4973     4960     4889     4853 
    4770     4800     5033     5060     4744     4712     5116     5117 
    4627     4673     5161     4894     4216     4578     5578     5618 
    4911     4831     5246     5285     5105     4849     4320     4071 
    4382     4507     4343     4558     4634     4023     4204     5651 
    6407     5943     5223     4412     4149     5199     5980     4711 
    3114     3700     5413     5641     4442     3731     3564     3315 
    4233     6261     7101     5959     3995     3045     4204     6126 
    6504     5107     4427     5453     5104     3126     3558     5295 
    4638     4145     5479     5529     5592     7885     8186     4460 
    2175     4601     5866     2024      951     6006     6626      380 
   -1218     4213     7213     5379     5262     8904    10475     7033 
    3627     3728     5316     6975     7776     5851     2074      501 
    3649     7563     7055     5206     6149     7080     5832     4403 
    4641     5719     5196     3172     2715     4851     7294     8676 
    8668     5589     1113     1672     6690     7077     3626     6466 
   10680     3675    -4744      733     8803     5964     3353     8063 
    7581      854     1583     7637     7530     5273     7471     8339 
    5765     6251     7700     2783    -2841      531     7320     7462 
    4439     4986     7199     8161     7512     5894     4824     2013 
   -2658     -211     9453    11407     3364      144     4491     6393 
    6224     9070    10433     5606     -938     -165     8550    11565 
    2845    -1984     5958    12301     7133     1031     3477     7150 
    3218    -3036     -734     9640    15150    10225     3424      818 
    2912     8817    11773     5455    -3967    -3053     9124    16954 
   11312     3349     5585    11554     9000     2892     3975     7472 
    4278    -1071       -7     3378     2427     2579     6828     7026 
    3805     7932    14383     9124     1258     5705    11805     7384 
     365     1083     7606     8352     1108    -1493     3226     6015 
    4483      238    -4299    -2877     4871    10086     9313    10528 
   16226    15132     1251   -13150   -10287     8879    20691    13954 
    6214     7621     5061    -5298    -4735    12038    19354     7217 
    2477    12051     9913    -5579   -12462    -8182    -2361     5319 
   13397    10497     -216      128     9295     8367      404     2947 
   12291    10373     -285     -357    10288    12677     6682     9707 
   17980    13602       79    -4965     -765      113    -1879     1570 
    8190     8919     1327     -729    10969    15705      575    -8963 
    8670    31330    28512     8584    -3106    -3456    -1927      517 
    6011     9178     7192    10254    20560    21068     4304   -14184 
  -16907    -5395     4461     7260     9201     9354     4026     -831 
    1809     7547     8318     3568     -665     5123    20530    27558 
   16327      477    -7324    -7241     1184    13659    17970    15644 
   15458    11703     2793     -838    -1940    -6961    -6063     5303 
   13833    10716     3215     1107     5433    10219     6751    -6035 
  -10190     9179    31299    27636     7832    -4202    -8555   -11951 
   -9310     1567    11570    12402     8847    10059    13443    11183 
    4715     2029     6124    11613    11533     4113    -5858   -10558 
   -5410     7575    20512    25772    23942    18851     9816    -2731 
  -13073   -13105    -1245     9265     8585     8794    17807    17553 
      -3   -11857    -6978     1476     9459    16305    14295     7203 
    3853     1734    -2083    -2907      533     5273    13155    21883 
   20791     9422     -874    -3733     2995    18060    26346    14902 
   -1675    -1771     5426      811    -2700     9040    17697    11433 
    3272     1017      729     2561     6675     5473     3581    13774 
   23354    15528     6646    10711     6136   -13185   -15190     3226 
    7464    -7056   -11979        2     8237     7094    10901    13534 
     880    -8797     -945      174   -12591    -9201     8024     6513 
   -2642    10262    25659    17238     6181    12253    16970     8770 
    4802     9613     6439    -1175     4880    17008    17338    13003 
   16531    15716     -360   -13737    -8215     3718     5343      -10 
    -825     4557     9807     9962     4139    -4196    -6007     4735 
   19430    25429    19670     4575   -10562   -11975     -559     8443 
    5959    -2851    -5062     3801    11180     3847   -11772   -11782 
   11839    30328    20244     1860     2558    13279    11645     2555 
    4190    14413    17851    12181    10748    18302    19578     6307 
   -6512    -4641     8722    19658    14880     -992    -5742     5945 
   11286     1486    -3247     3711     5637     1353     5035    10837 
    4389    -4515    -3566    -1942    -2864      483     1619    -1306 
    3477    15403    22563    18831     7713      316     2133     3836 
     803     5437    17139    14392     -904    -3127     5946     3459 
   -7350    -3885    13195    17405     2414    -5365     3299     9959 
    9236     9483    10655     6342    -3332   -10025   -11850   -12552 
   -9390    -2667     -171     -612     8889    26709    25361    -5936 
  -31515   -21599      175      581   -10255    -7433     2398     1053 
   -3116     9492    33639    42772    23261    -7095   -17588    -1909 
   13223     8596     -445     2219     4486    -4801    -9783     3323 
   20916    25462    16508     2200    -7175    -1264    14130    17767 
    3888   -11206   -11065     4783    18095    16436    11748    13540 
   13842    11053    12049    11221     1458    -5558     -964     4364 
    1169    -7555   -13338   -13366   -12890    -4306    17765    26778 
   10203     -753    10465    22100    18818     6028   -10408   -22767 
  -18828    -1308    12039    13090     7196     2048     3476     6106 
    3086     6290    17049    14045     3381     9303    18562     9220 
   -3165    -4953   -10767   -17877    -5731    13347    14481     7556 
    7386     4966      353     5687    10191    -3061   -18758   -14404 
     288     7908    13365    20260    18388    11688    17350    30116 
   27080     9908     1732     6411    10166     6958    -2156    -8330 
     131    15441    23564    26418    22825     7716    -2345     5975 
   11307     1519     -939     8787    10266     2566     -633      933 
     704     2152     7712     5929    -2684     3751    28539    43304 
   32990    19308    16931    12232      370    -7429   -10607   -16800 
  -20550   -12507     1348    13527    20100    11340    -6764   -11766 
   -1796     4378     -708    -5523    -1958     3088     3666     2966 
    4635     4098    -4882   -14551   -16194   -17804   -23629   -21297 
   -6974     3967     5490    11502    22840    24051    19294    19749 
   15953     6796    10176    23285    24394    15041    10383     4124 
   -9883   -15973   -10522   -12428   -25723   -29826   -13512     7268 
   16206    16236    11777     2580    -1434     8046    18549    18909 
   19831    28443    32243    25107    16004     5263   -11827   -23650 
  -16470     4141    22690    31613    34622    32574    17103    -4286 
   -8866      557     6892    12915    20189    20318    16834    14010 
    3521   -14166   -21313   -13472    -7225    -4583     1869     -106 
  -12541   -10231    12080    26719    21775    14639    10937     1242 
   -7754    -4673     3869     6267     7037    20448    40200    43939 
   35021    32372    26520     1572   -22333   -19262    -1796     5821 
    6145     6792     3048     1145    10554    21950    27410    30250 
   27067    11360    -8466   -15043   -10083   -11620   -19724   -18538 
   -3690    14856    24440    21079    13169     7646      927    -6518 
   -7592    -5686    -5540     -812     8975    14113     8045    -5133 
  -10119     -831     2865   -12768   -26859   -20992    -9991    -5221 
    7792    28796    33540    23580    24042    31087    21241     1055 
   -6896   -11623   -26169   -26962    -6657     1151    -8548    -4333 
   19224    35808    31767    24503    27011    26468    20643    22998 
   26605    17612     6626     5104     1541    -9843   -17271   -16109 
   -3794    22069    36995    19238    -8360   -19956   -17999    -7655 
    8928    25385    31740    17519   -12425   -36592   -41515   -31093 
  -16237    -8816    -8789     -219    19261    30371    23776     6566 
  -13317   -24723   -17621      -45    12094    15793    13288     1160 
  -20086   -36045   -32546   -19036   -11542    -3697    13948    33029 
   40905    32675    16300     4290    -2147    -3292     2451     5248 
   -4214   -19275   -26374   -21364   -11791    -2841     9565    32006 
   60540    74487    59013    25526     1258     3163    14256    10053 
    1961     9266    22392    25596    18867     9065     -232    -9476 
  -16685   -14319     -673    15026    26180    33541    35316    26338 
    7681   -11813   -24197   -27033   -22088   -11983     1251    12305 
   14560     9108     5813    12205    23999    28751    20401    11511 
   14848    17862     9200     4025     9213     9334     1071    -4234 
   -6143   -11138   -14597    -9481    -2010     1520     7611    18061 
   18869     1229   -20291   -27463   -24922   -25485   -27781   -23822 
  -11027     4820    16158    20164    16687    13290    22771    40877 
   45288    31827    24634    33581    38249    27738    17694    16477 
   10659    -6121   -21952   -29417   -33227   -34382   -29020   -20157 
  -14670   -10459      283    12418    12959     3720    -4446    -9463 
  -12161    -7292     4795     8420    -8274   -28571   -32333   -34819 
  -51030   -55313   -27229    11229    35969    50822    64537    73406 
   68619    46841    16222   -11661   -29139   -30755   -21506   -12593 
   -3520     8183    12649     2347   -14638   -27675   -39961   -56326 
  -61655   -40213    -8507     6492     8272    19570    44927    69318 
   85465    96310    94145    65949    21483   -12079   -25181   -24610 
   -8817    21795    47985    51797    38872    20984    -2995   -30159 
  -43836   -35307   -18031    -5650    12224    49416    90538   101101 
   70911    31116    12984    11021     6895     1977     1763    -3578 
  -15699   -16319    -2750     2054   -11132   -25085   -24257   -14917 
  -16902   -32907   -41144   -30031   -13714    -7652    -8041    -2361 
    6148     5881     2260     7570    18426    25333    27316    22771 
    8672    -5767   -10305   -13184   -25845   -39825   -42796   -40446 
  -40025   -37838   -34555   -34698   -35149   -33539   -31465   -25326 
  -12697      514    10431    19671    26802    26424    21708    19495 
   14357    -3012   -25056   -37148   -40725   -43699   -42381   -33261 
  -24521   -20166   -12984    -3511    -1759    -3703     7942    31868 
   43848    35510    26338    28813    36375    43326    47010    42733 
   31819    19927     8446    -2191   -10076   -15642   -21724   -29061 
  -31756   -23972   -11171     -812    10008    22967    30185    25773 
   14249     4251     1156     8949    24365    32854    27059    15504 
    9846    13179    18879    20968    20595    23319    30581    32548 
   22900    12488     8802     1828   -10345   -15320   -17721   -30076 
  -40261   -32988   -16842    -3471     8092    18759    27179    36919 
   45594    39682    18590     1468    -1689     -875    -5310   -11505 
  -13263   -11081    -9644    -9824    -7857    -7198   -14816   -21986 
  -13184     9287    26724    30521    33173    41603    44958    36288 
   19624     3032    -6815    -8920    -2385    11302    20942    16462 
    -517   -18246   -22263   -11076     -671    -2392    -5995     4636 
   27179    45877    51120    40649    21253     8895     6027     -278 
  -11900   -19282   -21866   -27142   -32595   -31318   -28915   -27726 
  -18578    -3898     4774     5715      538   -11532   -22927   -21992 
  -12474    -5250     4016    22471    42642    51853    44577    26981 
   10518     3199    10190    29167    48912    61418    63411    51639 
   30196    10088    -5696   -24279   -46243   -60032   -59375   -51373 
  -40825   -23097     -832    10676     6735      813     2017     5192 
    3976     2156     7380    17219    22186    19601    16641    21050 
   29213    29284    18212     6716     6798    17557    27509    29321 
   22402     9089    -5305   -15514   -18224   -13658    -4796     6631 
   15902    16380    11943    14183    24811    32070    31035    32337 
   37981    35589    24063    15057    10322     1853    -7706    -7193 
    4203    17609    27418    37708    52786    60239    45969    23673 
   17004    24121    26808    19743    12564    13155    19269    22015 
   17705    12734     9524     1559   -10090   -14488   -11185    -9648 
   -7899     -788     2434    -4401   -11921   -14363   -17443   -23106 
  -26212   -28140   -33899   -38839   -37493   -33109   -29304   -25579 
  -20447   -14045    -8288    -6357    -9036    -8633      973    12113 
   15305    11913     7454     2221    -3572    -3424     4219     9838 
    5940    -2789    -5560       39     7667    13263    14575    12221 
   15439    27021    33948    30508    25859    22757    15613     6209 
    3364     9811    17490    18717    16986    18333    19971    18750 
   20028    27408    34671    37755    41292    44476    39065    23207 
    1690   -17354   -25244   -25211   -26703   -26150   -15785    -1170 
    7738    10131     9287     3930    -6004   -10703    -3087     5950 
    3720    -3992    -5006    -1501    -3335    -8465   -10850   -16411 
  -28240   -36885   -37684   -33088   -21709    -5746     4221     4371 
    2842     6537    15150    25427    33526    37076    36088    30475 
   23820    23735    27433    24348    17044    17652    26502    29147 
   18291     4941    -2037    -3608     1325    11145    18437    21243 
   23406    25398    24724    22984    22629    18850     6221    -9366 
  -16125   -12535    -6971    -1616     8797    24240    36048    36726 
   29348    19764     8364    -3629   -14405   -24062   -31150   -32447 
  -23025    -4358    10964    16486    17423    15603     9424     3667 
    5027    11044    12856     8898     7235    12937    19828    20747 
   18906    19599    22056    26233    34138    41493    42437    40153 
   36201    23051     2504   -12071   -16699   -16892   -15938   -17172 
  -23009   -28008   -26177   -21482   -18966   -16630   -14273   -12728 
   -5620    11370    29940    37106    29650    17049     8759     4656 
      37    -8961   -20994   -28405   -28864   -29690   -33372   -32015 
  -23181   -16640   -18861   -25888   -32186   -35066   -35010   -34791 
  -33804   -27393   -16553   -10578   -12208   -10485     1789    15274 
   19730    20133    24122    27804    24330    13153      369    -4549 
    1886    11417    11707     1299    -7658    -6010     2784    11702 
   17927    21811    23645    23545    25080    30076    29376    17320 
    5440      924    -4092   -10253    -8862    -3229    -1798      386 
    6260     7037     1758    -1300      434     4167     9141    14117 
   13415     6840     3665     8796    17086    19540    11935     1767 
    -452     5626    12845    14268     7197    -2841    -5721     1467 
   12779    21711    24671    22946    21785    20848    12367    -4132 
  -15232   -11268     -308     2984    -5798   -17270   -19578   -11363 
    1726    15134    22681    19059     8536     1351     2340     7647 
   11405    11554     9601     8014     7526     6350     1387    -7497 
  -14091   -12768    -4533     7443    19011    24392    21987    16691 
   14978    18150    20369    16670     9360     1805    -4639    -6084 
   -3176    -3926    -7056    -2138     9341    16272    18226    21222 
   22588    18487    12220     5977    -1340    -7612    -9365    -8660 
  -10375   -12512    -8741    -1861     -514    -3085    -1197     4522 
    8354    12475    18792    19975    12760     5014     5182    13277 
