Origin Time       2016/04/16 01:25:00
Lat.              32.753
Long.             130.762
Depth. (km)       12
Mag.              7.3
Station Code      NGS019
Station Lat.      32.9002
Station Long.     129.9582
Station Height(m) 2
Record Time       2016/04/16 01:25:19
Sampling Freq(Hz) 100Hz
Duration Time(s)  254
Dir.              N-S
Scale Factor      3920(gal)/6182761
Max. Acc. (gal)   109.444
Last Correction   2016/04/16 01:25:19
Memo.             
[...]
  -24838   -24914   -24892   -24762   -24581   -24462   -24480   -24584 
  -24635   -24520   -24315   -24254   -24448   -24774   -24998   -24866 
  -24293   -23640   -23426   -23749   -24242   -24568   -24778   -25048 
  -25429   -25848   -25882   -25054   -23656   -22549   -22233   -22523 
  -23072   -23939   -25241   -26577   -27363   -27375   -26745   -25765 
  -24602   -23413   -22841   -23311   -24233   -24987   -25412   -25176 
  -24192   -23004   -22012   -21343   -21190   -21659   -22755   -24266 
  -25636   -26358   -26470   -26403   -26103   -25109   -23729   -22909 
  -22981   -23715   -25163   -27104   -28538   -28450   -26645   -24139 
  -22245   -21250   -21086   -22141   -24191   -26078   -27238   -27915 
  -27809   -26452   -24426   -22493   -20725   -19514   -19726   -21363 
  -23526   -25332   -25939   -25034   -23530   -22343   -21480   -21088 
  -21786   -23833   -26486   -28259   -28572   -28343   -28334   -28321 
  -27776   -26512   -25315   -25272   -26052   -26813   -27405   -26934 
  -24635   -21956   -20590   -20563   -21432   -22719   -23345   -22959 
  -22756   -23603   -24999   -25690   -24855   -23408   -22904   -23827 
  -25912   -28122   -29174   -29187   -28617   -27140   -25154   -23517 
  -22197   -21395   -22239   -24744   -27130   -28214   -28243   -27420 
  -25545   -22793   -20191   -19009   -19424   -20719   -22602   -24418 
  -24865   -24098   -22869   -21042   -19363   -18703   -18725   -19680 
  -21973   -24930   -27738   -30054   -32147   -33845   -33953   -31920 
  -28720   -26168   -25373   -25864   -26659   -27049   -26698   -25638 
  -24055   -22126   -19751   -17590   -17018   -17894   -19426   -21441 
  -23093   -23841   -24097   -24007   -23410   -21588   -19003   -18437 
  -21005   -24938   -28029   -28879   -28380   -28284   -28423   -28535 
  -29219   -29733   -29401   -29644   -30910   -31536   -30775   -28681 
  -25376   -21793   -18689   -16965   -17267   -18190   -18597   -18316 
  -16983   -16655   -19564   -23167   -23998   -22682   -21740   -22092 
  -23940   -27858   -31494   -30696   -26336   -22828   -22028   -23152 
  -25169   -28493   -33012   -36465   -38603   -40097   -38824   -34089 
  -28090   -22681   -19705   -20250   -22493   -24042   -24618   -24067 
  -21365   -17561   -15278   -14675   -14329   -14915   -17648   -21659 
  -25161   -26316   -25210   -24359   -23713   -21220   -17961   -15872 
  -14904   -15470   -19168   -26100   -32844   -35310   -33609   -30992 
  -29854   -30078   -30208   -30321   -30730   -29676   -26384   -22643 
  -20127   -18832   -18185   -18029   -18027   -17708   -16982   -16979 
  -19523   -23512   -25440   -24703   -24273   -26506   -30478   -33446 
  -34123   -33427   -32353   -30826   -29706   -29931   -28864   -25027 
  -22103   -22041   -22852   -23319   -23612   -23797   -23652   -23302 
  -23254   -23785   -24452   -23401   -19853   -17604   -20226   -25250 
  -29597   -33788   -37010   -35995   -29186   -19213   -11151    -7555 
   -8130   -12802   -20049   -26339   -29565   -30211   -30875   -33262 
  -35967   -37050   -35297   -31539   -28681   -26994   -25123   -23974 
  -23641   -22600   -20748   -19240   -18977   -18304   -16147   -16096 
  -19078   -21519   -22460   -22338   -21654   -21952   -23517   -26198 
  -29968   -34079   -37465   -38048   -35024   -30503   -26427   -24048 
  -23991   -25030   -25804   -25610   -24324   -23447   -24014   -24570 
  -24017   -23475   -23282   -22546   -22249   -23626   -25035   -24091 
  -20456   -14547    -7095    -1593    -2800   -11159   -21163   -27559 
  -30327   -30405   -27380   -22744   -18368   -15070   -14789   -19378 
  -28296   -38489   -46686   -51186   -50654   -46468   -42635   -39108 
  -34208   -30217   -28806   -29236   -31090   -32234   -29689   -23335 
  -15361    -8743    -5159    -3374    -1607    -1612    -6807   -15080 
  -21119   -24209   -25802   -25300   -23299   -23368   -27051   -31047 
  -32485   -32250   -31143   -29167   -27216   -24519   -21114   -21603 
  -27498   -34500   -40535   -44612   -43143   -34747   -22777   -14616 
  -15637   -21038   -23816   -24397   -24038   -22399   -22000   -23621 
  -22796   -16090    -5117     5450    10228     6502    -3794   -16686 
  -28687   -37537   -43008   -45285   -42967   -36577   -29251   -23127 
  -21646   -27068   -34434   -38233   -37840   -34781   -32408   -32442 
  -32774   -32016   -29505   -24954   -20775   -19864   -23230   -28966 
  -32232   -29332   -22018   -15396   -11497    -9169    -7372    -5271 
   -4576    -8699   -16905   -25200   -29963   -28448   -22770   -19986 
  -22433   -26022   -28702   -31651   -34900   -37750   -40589   -43292 
  -43799   -40370   -34704   -30534   -29228   -29909   -31456   -30979 
  -26089   -19164   -13325    -9481    -9225   -11670   -11990    -9764 
   -9695   -12785   -15904   -17944   -20470   -24617   -29652   -34937 
  -40226   -41887   -36958   -28619   -20452   -14897   -14855   -18616 
  -22196   -25191   -29109   -34651   -39718   -41338   -39089   -33088 
  -24265   -16057   -12381   -15689   -23970   -31171   -33095   -29088 
  -20920   -12837    -8241    -6555    -5606    -4785    -6058   -12375 
  -22955   -32955   -39096   -40848   -37188   -28393   -19046   -13452 
  -12820   -17809   -26208   -33759   -39180   -41972   -40648   -34246 
  -23980   -15870   -16064   -22930   -30992   -38317   -44074   -46567 
  -45629   -41539   -34091   -23562   -12958    -7674    -9131   -16048 
  -27798   -37978   -38515   -30099   -18047    -6036     4250    11294 
   11383     3268    -8140   -18848   -27629   -31407   -29302   -24435 
  -19649   -18778   -23587   -29492   -34703   -42087   -49271   -53514 
  -56490   -56082   -49193   -37752   -24842   -13415    -5711    -1376 
     772      941    -1673    -6255   -10049   -13266   -16537   -18146 
  -20368   -26182   -32781   -37083   -38806   -38754   -38187   -37504 
  -36918   -35925   -32548   -27407   -24062   -24044   -27134   -33563 
  -40651   -44823   -47564   -49325   -46605   -40712   -34889   -28201 
  -21754   -18087   -15747   -13619   -12816   -13011   -13027   -12832 
  -11174    -5350     2338     5816     4066    -1430   -10062   -17361 
  -20146   -20979   -20828   -18829   -15918   -13933   -15442   -20720 
  -28435   -39077   -49646   -54585   -53854   -50344   -45332   -38511 
  -29426   -20417   -14769   -14265   -18321   -22827   -26777   -32638 
  -36976   -35442   -30162   -24524   -20419   -18134   -16103   -15021 
  -17578   -23212   -28685   -31943   -32826   -31386   -27569   -23752 
  -24060   -28607   -32306   -32481   -31240   -28898   -25080   -21657 
  -18618   -15021   -11617    -9259    -8542    -9702   -12012   -13912 
  -13623   -10722    -7177    -5020    -5213    -9274   -17251   -26400 
  -34162   -39810   -43744   -46289   -47090   -45497   -42216   -39078 
  -36666   -35274   -35504   -36554   -36680   -33807   -28040   -24043 
  -25079   -28649   -31997   -34419   -34176   -29815   -22686   -16357 
  -14243   -15172   -13389    -7445    -2905    -2973    -6020   -11157 
  -16919   -19788   -18742   -16262   -15344   -16651   -17960   -18676 
  -21599   -28649   -37632   -43011   -42930   -42065   -42512   -40847 
  -35260   -28114   -22681   -19236   -15693   -12517   -12479   -15162 
  -16567   -14773   -12607   -13028   -15854   -20819   -27560   -33996 
  -38892   -41256   -39856   -35120   -26495   -14426    -4738    -2067 
   -5323   -11683   -18482   -24798   -31591   -37446   -40023   -40719 
  -41157   -40041   -37570   -36588   -38336   -41161   -42144   -40276 
  -37721   -35191   -31992   -29078   -24461   -15586    -7256    -3790 
   -1282     2772     4829     2619    -2796    -8491   -11551   -13511 
  -17789   -23264   -26927   -28564   -29265   -30199   -31379   -30511 
  -27551   -24922   -22784   -21796   -24357   -30373   -36791   -39559 
  -38622   -39003   -41635   -42837   -42842   -43824   -45134   -45282 
  -43547   -39596   -33619   -27917   -25037   -23637   -21484   -17453 
   -9649      786     9520    13827    12360     6241     -848    -6788 
  -10323   -11583   -13579   -17442   -21682   -25513   -28106   -28590 
  -28365   -30137   -34554   -39049   -40739   -40500   -40700   -39852 
  -35394   -29283   -25754   -25464   -25596   -25361   -25916   -25918 
  -23859   -21220   -19714   -19122   -18186   -16226   -13644   -11363 
  -11161   -15420   -23603   -30699   -32365   -28709   -22745   -19139 
  -20929   -25443   -28646   -30894   -34342   -39313   -44700   -49251 
  -51690   -50428   -45819   -41141   -38445   -36028   -30966   -23201 
  -16956   -15333   -15949   -15983   -14756   -10386    -3053     2022 
    1360    -3107    -8625   -14249   -19977   -25465   -29612   -31677 
  -31989   -31586   -30177   -26671   -23168   -21595   -20247   -20031 
  -23459   -28120   -30721   -30307   -26033   -18251    -9036    -1490 
     819    -3504   -11976   -19792   -23670   -23985   -22385   -18774 
  -12575    -5293     1189     5190     3856    -3864   -16132   -30326 
  -42564   -49131   -49839   -47509   -44814   -42776   -41440   -40523 
  -39472   -36974   -32961   -30600   -30276   -26821   -18359    -9764 
   -4895    -3365    -5028    -9108   -12462   -14974   -18222   -19823 
  -18023   -14869   -11050    -7146    -7861   -15182   -24106   -30722 
  -34779   -36036   -35901   -37265   -41020   -45797   -49052   -49488 
  -48951   -48502   -47410   -47545   -49743   -50848   -48945   -44022 
  -37891   -33152   -28284   -20760   -11548    -3369      756     -298 
   -4375    -8630   -11784   -13721   -14236   -13220   -10996    -7162 
   -2022     2459     5987     8694     8222     3930    -1590    -6856 
  -11313   -14440   -17750   -22994   -30120   -37526   -43361   -48021 
  -52493   -56274   -58571   -57764   -53275   -48929   -48181   -49814 
  -52423   -56033   -59471   -60780   -58967   -54520   -47354   -36773 
  -24288   -12387    -1653     8719    17440    21295    20787    19216 
   16955    13034     7564     -337   -11060   -21060   -25771   -24800 
  -21528   -19216   -19250   -20653   -20150   -17966   -19715   -27315 
  -36864   -44546   -49007   -50980   -50517   -46783   -40168   -34162 
  -34448   -40817   -47921   -54744   -63246   -70306   -67601   -53440 
  -34912   -15448     4220    21251    34728    42366    41927    37558 
   32100    25142    19403    15375     9959     3777    -1440    -8063 
  -18232   -28996   -37438   -47358   -60460   -72092   -83927   -96392 
 -101419   -98730   -92447   -83386   -74094   -65248   -55305   -43259 
  -29860   -19462   -15531   -16617   -19086   -21359   -23431   -24565 
  -24158   -22600   -19755   -12964    -1778     7918    13449    17345 
   18365    16963    16898    16315    15688    21514    32375    41726 
   48722    51852    48134    40404    31327    19801     6876    -4527 
  -12786   -16875   -15211   -11093   -13030   -21385   -33131   -51886 
  -73464   -89144  -100361  -108676  -111378  -107804   -98462   -84162 
  -66549   -48733   -35158   -28288   -26568   -26039   -24811   -24408 
  -23307   -16716    -4343    10029    22372    29492    31797    30824 
   25363    15931     5371    -5698   -17245   -28898   -39570   -46041 
  -48811   -51695   -54736   -56613   -55572   -48323   -37326   -30969 
  -31890   -36592   -44848   -57303   -69277   -74902   -74590   -71888 
  -66016   -56932   -47051   -34833   -19888    -6371     2278     5836 
    9034    15809    24833    37128    52529    64465    72366    81046 
   89275    94777    95827    89542    76539    54899    25054    -2823 
  -26896   -52057   -74417   -90816  -103794  -112158  -111329  -104825 
 -100291   -96588   -93304   -93754   -94332   -91772   -87151   -83749 
  -87037   -91503   -88356   -83228   -79707   -73655   -64540   -53218 
  -43801   -39916   -36965   -31503   -26470   -23105   -19651   -17665 
  -18200   -15123    -4408     9049    19954    26770    29239    28691 
   28071    29788    30749    26232    19966    13878     5063    -2147 
   -4288    -2796      555     1926    -1747    -9514   -14850   -13474 
   -7547     2413    15515    27806    33246    30679    32550    42193 
   47483    48363    45538    32058    12487    -7347   -26962   -42841 
  -54014   -63650   -72826   -80286   -85517   -88021   -89340   -92451 
  -95157   -95322   -96926  -103229  -112419  -120466  -125850  -130620 
 -134687  -134904  -128774  -112002   -83115   -53363   -33543   -17396 
    1802    17507    26609    32665    36597    41435    49181    57583 
   67097    76898    83402    88870    96981   104529   108378   108732 
  103693    89185    61552    24981    -9400   -38018   -63200   -84050 
 -102938  -124207  -142376  -148847  -144788  -137555  -130625  -125985 
 -127850  -133444  -136700  -131153  -112478   -94850   -86864   -82466 
  -84550   -84409   -73969   -63286   -46597   -20598      531    15826 
   26690    25328    11179    -9192   -27635   -38386   -43771   -46550 
  -44717   -41349   -40934   -38684   -32500   -27495   -22101   -13422 
   -5405     3803    21382    44943    67975    88175   103622   113009 
  113546   104612    95562    92813    90560    83006    70441    53559 
   32573     8948   -16452   -43604   -71178   -94297  -109882  -121121 
 -128838  -131271  -129852  -126249  -124065  -126702  -129045  -125237 
 -118789  -114410  -110604  -105953  -101424   -95007   -84770   -73980 
  -67428   -66271   -66425   -64390   -60591   -52374   -34915    -8978 
   20165    48017    73213    95235   111997   124072   134067   140973 
  145323   148151   144685   134371   122810   111664    97949    75665 
   42131     4723   -29600   -62068   -92582  -117968  -136648  -142471 
 -129690  -107046   -86670   -70603   -63565   -74023   -92223  -102081 
 -114384  -140810  -161228  -164705  -165056  -159773  -141236  -117992 
  -95478   -76438   -60698   -40535   -14790    13907    45699    77468 
  104808   126478   141804   147821   142411   127176   105837    82827 
   61994    46022    35298    27228    20914    16777    11439     1747 
  -11440   -27240   -46089   -66629   -84339   -92919   -87637   -71851 
  -56981   -49802   -49409   -56210   -68294   -78545   -86280   -96944 
 -111249  -127654  -143540  -152016  -149303  -135072  -110058   -82789 
  -62834   -50013   -40142   -30882   -20232    -8538      196     3998 
    4480     3297     2592     3516     2026    -4905   -11997   -16052 
  -17326   -11744    -2956     4986    18396    33961    45242    57613 
   73124    84741    88033    81478    62195    35810    12153    -6721 
  -20184   -27524   -30126   -29474   -28285   -29753   -35644   -46550 
  -61636   -78018   -93193  -104611  -107594  -102400   -94489   -85172 
  -76832   -74057   -72780   -67436   -59470   -50648   -40388   -27765 
  -14136    -3159     4304     9249    11620    11586     8201      979 
   -8935   -23333   -43438   -63238   -74812   -76393   -70003   -57441 
  -42313   -28002   -16025    -8776    -5942    -5808   -10854   -20963 
  -29830   -32084   -26995   -19006   -14168   -13721   -17171   -26314 
  -39727   -52045   -58770   -58962   -57860   -59985   -61840   -61612 
  -61311   -58621   -53597   -50271   -48416   -46960   -45157   -41036 
  -35510   -29494   -22911   -17713   -13350    -8922    -8091   -11653 
  -15491   -16529   -14040   -10334    -8729   -10199   -14452   -20045 
  -25299   -30933   -38163   -46010   -52260   -55484   -55592   -53156 
  -48472   -41105   -31698   -22490   -14353    -7160    -1327     3303 
    6059     5370     1897    -3089    -9629   -14264   -11072    -1196 
   10677    23747    33914    35533    30330    20699     5779   -14146 
  -36907   -55985   -65531   -69148   -69531   -62066   -48436   -36004 
  -26714   -20343   -18741   -23702   -34226   -45557   -52180   -51159 
  -42962   -30370   -17513    -8346    -4887    -8232   -17958   -29195 
  -36016   -38608   -41605   -46778   -52421   -56451   -56828   -53147 
  -48034   -44033   -42083   -42506   -43754   -43204   -39750   -33393 
  -25519   -19320   -15171    -9352     -920     7750    16718    25714 
   31260    33258    35010    35826    35563    37477    39034    36135 
   30514    23634    16272    10114     4226    -3595   -14774   -28764 
  -41234   -49485   -56609   -63907   -69726   -75595   -80936   -82037 
  -78874   -71465   -59738   -48351   -41827   -41365   -47139   -57660 
  -68638   -75575   -76749   -72256   -63531   -53896   -46313   -42411 
  -42599   -45493   -48973   -51063   -50166   -45175   -35277   -20614 
   -2670    16982    37224    55777    69405    76439    77907    75670 
   69508    60441    52562    46244    38951    30026    19479     8782 
     659    -3297    -4074    -5827   -12373   -24000   -38690   -53773 
  -67215   -78328   -87061   -93985   -98817   -99835   -96406   -88792 
  -77532   -64743   -55533   -54873   -60365   -65014   -65075   -62059 
  -61251   -65114   -70763   -75798   -78739   -76928   -70852   -63219 
  -53252   -41086   -30478   -22892   -18193   -17513   -20893   -26803 
  -31530   -30543   -24868   -18835   -13436    -9654    -9696   -10619 
   -7075      676     9099    15856    19571    19962    16899    10810 
    5125     3251     4599     6959     9280    10669    10535    11625 
   17767    27423    36469    41978    39416    26583     7943    -9251 
  -21975   -33126   -42554   -47912   -52055   -55973   -57877   -59674 
  -62710   -66374   -70385   -72672   -70795   -65184   -59189   -56329 
  -57483   -61733   -67050   -70829   -72773   -74893   -77911   -79042 
  -75339   -67376   -55680   -39852   -22565    -8183     -562    -1779 
   -9429   -18226   -23508   -22908   -16849    -6369     7264    21197 
   32067    36458    33701    27403    20497    15280    13200    11139 
    7391     4945     5291     7584    10650    11780     7532    -2973 
  -17523   -32712   -45452   -54341   -57332   -52067   -43752   -40463 
  -43097   -50310   -60745   -70842   -78265   -81900   -80716   -75264 
  -67168   -57365   -46364   -35687   -27671   -24578   -26881   -31320 
  -34008   -34580   -34010   -32100   -29343   -27526   -27464   -28228 
  -27654   -23395   -15841    -8132    -2932     -653      560     3112 
    8592    15005    16479    12248     4956    -7308   -20895   -27546 
  -28406   -28028   -27499   -27913   -29915   -31051   -28037   -21124 
  -12596    -5403    -2630    -4643    -9081   -13266   -16530   -19519 
  -23002   -27825   -32809   -35865   -36773   -34808   -28805   -20622 
  -13020    -6910    -2151     2017     6314    10715    12698     9517 
    2510    -8799   -23424   -32770   -35955   -38768   -39417   -36337 
  -32321   -29316   -29701   -35122   -44583   -56033   -66406   -73134 
  -75757   -74527   -70409   -64944   -59160   -53176   -46589   -39910 
  -33600   -26675   -19591   -15070   -14170   -15088   -14826   -11441 
   -7234    -6060    -7266    -8452    -9764   -11739   -14869   -19015 
  -21488   -20038   -14859    -7642    -1315     2032     2288     -135 
   -4017    -6455    -5023    -1194     1101      430    -1766    -3645 
   -3772    -2302    -1531    -3901    -9646   -16500   -21154   -21801 
  -20013   -18823   -20705   -26272   -32829   -37936   -41106   -41600 
  -40600   -41420   -45761   -52470   -58146   -59534   -55765   -48437 
  -41180   -37253   -36940   -38139   -38254   -36476   -34042   -31339 
  -27952   -24433   -20818   -16188   -10315    -4320       12     2574 
