Origin Time       2016/04/16 01:25:00
Lat.              32.753
Long.             130.762
Depth. (km)       12
Mag.              7.3
Station Code      NGS023
Station Lat.      33.7502
Station Long.     129.6899
Station Height(m) 30
Record Time       2016/04/16 01:25:30
Sampling Freq(Hz) 100Hz
Duration Time(s)  144
Dir.              N-S
Scale Factor      3920(gal)/6182761
Max. Acc. (gal)   28.200
Last Correction   2016/04/16 01:25:30
Memo.             
[...]
    2254     2453     1846     -452    -3733    -6571    -8232    -8583 
   -7513    -5396    -3028     -801      891     1836     2790     4078 
    4381     2479     -814    -3918    -6608    -9293   -11400   -11768 
  -10234    -7892    -5570    -3061      103     3814     7198     9003 
    8489     6050     2285    -2509    -7130    -9987   -10740    -9956 
   -8363    -6258    -3408     -441     1173      966      -75     -532 
     -32      449      452      627     1021      951      140    -1494 
   -3865    -6309    -8201    -8845    -7311    -4085     -968     1171 
    2666     3803     4108     2964      940     -512     -466      780 
    2077     2432     1569     -168    -2406    -5387    -9017   -11836 
  -12631   -11603    -9152    -5965    -3296    -1232     1188     3871 
    5688     5896     4685     2868      992     -802    -2222    -3304 
   -4406    -5182    -5224    -5045    -4995    -4309    -2091     1233 
    4033     5370     5924     6513     6688     5338     2099    -2052 
   -5491    -7495    -8584    -8888    -7748    -5419    -3342    -2431 
   -2402    -2560    -2271    -1132      570     2086     3083     3668 
    3802     3394     2464      659    -2317    -5562    -7615    -7948 
   -6974    -5012    -1957     1705     4496     5340     4533     2735 
      80    -2825    -4843    -5984    -6891    -7231    -6278    -4148 
   -2076    -1376    -1892    -2346    -1997    -1034       30      855 
    1636     2530     2693     1305     -909    -2737    -3936    -4784 
   -5468    -5871    -5277    -3216     -601     1200     1912     2024 
    1906     1884     2021     1830      755    -1305    -3839    -6185 
   -7936    -8722    -8276    -6356    -2932      725     2615     2351 
    1273      349     -605    -1888    -2900    -2668    -1579    -1354 
   -2544    -3729    -3660    -2611    -1531     -878     -692     -908 
   -1051     -723     -177      400      875      542     -685    -1587 
   -1927    -3106    -5117    -6246    -6034    -4946    -2653      635 
    3568     5258     5581     4548     2374     -500    -3813    -7449 
  -10541   -11727   -10792    -8214    -3801     1803     6338     8092 
    6834     3433     -573    -4262    -7547   -10054   -11162   -10771 
   -9157    -6792    -4326    -1400     2938     7403     9166     7387 
    3664      173    -1842    -2572    -2807    -2937    -2900    -2815 
   -3114    -3508    -2739     -351     2310     3526     2849     1162 
    -607    -2393    -4331    -5933    -6443    -5808    -4795    -4018 
   -3537    -3280    -3139    -3016    -3205    -4035    -5056    -5372 
   -4563    -2972    -1191      565     2381     4301     6158     7255 
    6553     3636     -906    -6218   -11340   -14460   -13801    -9658 
   -4270      588     4862     8558    10637    10129     7150     3188 
    -129    -2799    -5573    -7831    -7984    -5922    -3545    -2493 
   -2565    -2659    -2273    -1801    -1787    -1945    -1145     1165 
    3720     4836     4514     3539     2151      603     -918    -2621 
   -4398    -5648    -5965    -5444    -4518    -3794    -3515    -3199 
   -2296     -984     -141      -59      176     1028     1758     1719 
     993      -33    -1258    -3083    -5712    -8328    -9510    -8520 
   -5883    -2772       62     2216     2972     2181      648     -998 
   -2417    -3180    -2919    -1445      883     2895     3136     1299 
   -1394    -4175    -7274    -9934   -10665    -9112    -5708    -1147 
    3163     5949     6902     6092     3812      993    -1334    -3121 
   -5023    -7007    -8021    -7481    -6316    -5329    -3858    -1518 
     564     1333     1308     1755     2859     3599     3271     2247 
    1294      568     -398    -1560    -2082    -1827    -1857    -2767 
   -4025    -4969    -5226    -4767    -3979    -3106    -1812       23 
    1537     2062     1991     1590      737     -255    -1078    -1975 
   -3072    -4144    -5218    -6208    -6549    -5952    -4511    -2536 
    -575     1115     2510     3600     4438     4710     4013     2319 
    -309    -3323    -5506    -6066    -4889    -2199      895     2943 
    3644     3451     2493      986     -510    -1786    -2923    -3437 
   -2509     -551      749      885     1051     1680     1941     1370 
      47    -1643    -2954    -3877    -5030    -5928    -5435    -3692 
   -1963    -1024     -551      108     1091     2288     3719     5299 
    6702     7130     5633     2355    -1489    -4701    -6566    -7003 
   -6600    -6083    -5711    -5616    -5954    -6028    -4881    -2732 
    -242     2287     4378     5336     4625     2440     -137    -2299 
   -3965    -4914    -5088    -5235    -5646    -5550    -4641    -3530 
   -2486    -1391     -688     -775    -1209    -1609    -1940    -1812 
   -1010       26     1083     2092     2019       -7    -3024    -5421 
   -6467    -6347    -5597    -4187    -1951      353     2049     3205 
    3682     3024     1078    -1512    -3593    -4537    -4537    -4281 
   -4244    -4186    -4061    -4404    -5051    -4931    -3810    -2646 
   -1859    -1176    -1147    -2647    -5062    -6635    -6619    -5881 
   -5095    -3671    -1092     2007     4528     5590     5061     3796 
    2055     -964    -5058    -8476    -9572    -8306    -6091    -4007 
   -2170     -695      147      318      -51     -735    -1474    -1921 
   -1519     -178     1138     1560     1332      954      511     -209 
   -1574    -3438    -5031    -6021    -6764    -7258    -6756    -4774 
   -1662     1782     4879     7365     8668     7821     4731      329 
   -4028    -7191    -8908    -9411    -8613    -6229    -2656      778 
    2930     3662     3460     2754     1588      177     -916    -1502 
   -1518    -1115    -1467    -3119    -4856    -5627    -5129    -3403 
   -1421       -6     1322     3066     4638     4837     3029      -88 
   -3012    -4840    -5967    -7019    -7738    -7403    -5774    -3428 
   -1453     -556     -194      509     1285     1489     1132      552 
     213      -45    -1150    -3031    -4681    -5607    -5653    -5144 
   -4751    -4132    -2631     -739      746     1607     1784     1363 
     785      341       35      -23      111      152     -135    -1243 
   -3349    -5512    -6548    -6032    -4684    -3821    -3225    -1371 
    1404     3176     3538     3504     3457     3052     2112      736 
    -844    -2161    -2869    -3476    -4795    -6538    -7526    -6921 
   -4942    -2898    -1801    -1217     -255     1327     3066     4091 
    3963     3181     2115      200    -2800    -5779    -7455    -7619 
   -6836    -5534    -3599     -852     2235     4658     5787     5782 
    5086     3755     1329    -2125    -5057    -5814    -4445    -2176 
    -170     1117     1949     2328     1821      466    -1297    -2862 
   -3402    -2954    -2703    -3091    -3315    -2771    -1549     -513 
   -1034    -3155    -5098    -5539    -4739    -3427    -1906     -220 
    1252     1697      832     -356     -819     -943    -1859    -3819 
   -5822    -6756    -6383    -4978    -2914     -589     1630     3031 
    2993     1866      518     -289     -406     -648    -1689    -3196 
   -4505    -5013    -4254    -2570    -1123     -512     -517    -1316 
   -3048    -4772    -5265    -4102    -1913      124     1545     2790 
    3754     3618     2390      792     -852    -2220    -3055    -3684 
   -4104    -3761    -2406     -202     2218     3644     3422     2315 
    1128     -296    -1776    -2517    -2583    -2893    -3815    -4798 
   -5244    -5265    -5301    -5156    -4322    -3000    -1774     -939 
    -575     -528     -654     -860     -682     -151     -137     -760 
   -1309    -1477    -1483    -1672    -1948    -1770    -1258    -1309 
   -2383    -4190    -5973    -6774    -6324    -5170    -3659    -1888 
    -244      765     1005      974     1131     1267     1031      116 
   -1640    -3504    -4450    -4475    -4305    -4355    -4419    -4001 
   -2940    -1615     -379      600     1021      719     -223    -1707 
   -3355    -4627    -5318    -5522    -5469    -5246    -4762    -4152 
   -3387    -2116     -521      583      566     -331    -1386    -2530 
   -3924    -4965    -4972    -3996    -2636    -1608    -1269    -1480 
   -2025    -2834    -3800    -4831    -5896    -6743    -6922    -5922 
   -3508     -379     2126     3258     3293     2678     1232    -1294 
   -4361    -6855    -7851    -7106    -5066    -2387      498     3137 
    4929     5595     5184     3890     2149      237    -1704    -3328 
   -4531    -5342    -5742    -6008    -5901    -4572    -2107      615 
    3217     5494     6727     6223     4089     1255    -1311    -3330 
   -4943    -6012    -6187    -5518    -4500    -3502    -2450    -1088 
     567     2127     3311     4220     4804     4644     3719     2421 
     780    -1200    -2953    -3824    -3776    -3615    -4289    -5657 
   -6496    -5716    -3223       44     3011     5208     6159     5345 
    3092      214    -2640    -4942    -6600    -7811    -8310    -7781 
   -6464    -4601    -2292      -88     1475     2533     3261     3359 
    2538      872    -1257    -3436    -5694    -8167   -10139   -10281 
   -7973    -4242    -1242     -128       47      722     2187     3883 
    5283     6251     6914     7061     5888     3057     -354    -2839 
   -4072    -4869    -5981    -7270    -7691    -6535    -4548    -2893 
   -1843    -1277    -1195    -1389    -1487    -1440    -1568    -2180 
   -3272    -4313    -4674    -4249    -3040     -963     1492     3346 
    3967     3647     3129     2791     2600     2249     1388      -81 
   -2223    -4952    -7712    -9766   -10446    -9294    -6499    -2946 
     405     3153     5357     6685     6363     4292     1203    -2129 
   -5117    -7322    -8259    -7386    -4906    -1930      390     1467 
    1562     1483     1680     1721      903     -649    -2278    -3911 
   -5839    -7937    -9696   -10762   -11235   -11074    -9742    -7069 
   -3682     -235     2851     5093     6386     6955     6496     4693 
    2061     -772    -3529    -5919    -7618    -8330    -7806    -5995 
   -3286     -643     1021     1606     1717     2239     3479     4594 
    4653     3585     1828     -380    -3217    -6339    -8731    -9926 
  -10042    -9259    -7719    -5365    -2332      773     3088     3773 
    2815      924    -1488    -4086    -6078    -6708    -5967    -4706 
   -3871    -3405    -2745    -2463    -3291    -4207    -4022    -3218 
   -2728    -2578    -2102     -895      517     1358     1770     2567 
    3638     3849     3116     2620     2495     1618     -507    -3225 
   -5361    -5933    -5043    -3550    -1493     1545     4871     7369 
    8452     7892     6140     3864     1554      122       25      389 
     461      559     1017     1539     1730     1527     1340     1459 
    1096     -712    -3512    -6066    -7778    -8669    -8488    -6649 
   -3028     1806     6798    10676    12802    13417    12857    11109 
    7893     3366    -1374    -5294    -8233   -10726   -13347   -15605 
  -16359   -14938   -11011    -4878     2286     9003    14070    17060 
   17748    16243    13571     9975     5116      108    -3704    -5976 
   -6638    -6024    -4408    -1448     1974     3777     3530     2460 
    1557     1173     1204     1697     3074     5216     7247     8293 
    7905     6093     3254      105    -2511    -3999    -3874    -1836 
    1202     3754     5272     5353     3512        0    -4853   -10349 
  -14815   -16979   -16658   -14202   -10499    -6717    -3125      871 
    5142     8703    10710    10957    10114     8640     6173     2787 
   -1098    -5211    -8651   -10609   -11512   -11479    -9197    -4138 
    2178     7925    11986    13866    13831    12217     8722     3455 
   -2557    -8535   -13590   -16308   -16098   -13323    -9034    -4810 
   -1447      825     1496     1022      835     1091      604     -722 
   -1440     -788      445      879     -770    -4316    -7958   -10539 
  -12111   -12957   -13003   -11655    -9008    -6222    -4013    -2339 
    -738     1743     5133     7781     8343     7073     5416     4514 
    3610     1494    -1341    -3918    -6076    -7827    -9153    -9952 
   -9899    -8864    -6878    -3946       20     5198    10850    15311 
   17565    17423    15217    11814     7666     2573    -3147    -8146 
  -10912   -10911    -8858    -5736    -1706     3289     8188    11571 
   12976    12725    11445     9308     6244     3026      169    -2707 
   -5634    -8462   -11010   -12719   -13386   -12660    -9595    -4755 
    -328     2283     2947     2130      265    -2505    -5648    -8571 
  -11332   -14224   -17298   -19676   -19803   -17361   -13864   -10729 
   -7611    -3630      688     3734     4543     4117     3793     2916 
     540    -2881    -6205    -8133    -8291    -7701    -7553    -8515 
  -10615   -13186   -15535   -17548   -19410   -21287   -23123   -24045 
  -23154   -20821   -17844   -14660   -11427    -8170    -5531    -4638 
   -6079    -9232   -12410   -14346   -15019   -14777   -13559   -11190 
   -8265    -6165    -5709    -5936    -5227    -3927    -3530    -3784 
   -3308    -1408     1731     4970     6512     4894      181    -5796 
  -10991   -14355   -15616   -15111   -13530   -11177    -8015    -4327 
    -516     3509     7973    12625    17050    20488    21605    19578 
   14641     7729       44    -7513   -14446   -20061   -23087   -22371 
  -17233    -7678     4274    15483    24941    33576    40486    42881 
   39920    32978    23808    14063     4622    -3550    -8579   -10103 
  -10081    -9425    -7816    -6724    -7007    -7132    -7109    -7925 
   -8344    -7173    -4782    -1022     3569     6395     6167     3927 
    1245     -269     -416     -387     -613     -704     -372      -36 
    -670    -2515    -4399    -5118    -5058    -4732    -3461     -796 
    3395     8825    13959    17592    19592    19637    17129    11785 
    4110    -4158   -10915   -15088   -16353   -14573   -10444    -5455 
    -792     2891     4988     5248     4149     2296     -346    -4501 
  -10344   -16257   -19837   -20103   -18069   -15321   -12615   -10029 
   -7816    -6877    -7914    -9370    -8217    -3390     3805    11506 
   17674    20546    19778    16119    10453     3699    -3201    -9661 
  -15319   -18971   -19514   -17949   -15342   -11273    -6119     -894 
    3812     7523    10664    13383    15206    16605    17701    18135 
   17585    15212    11141     6378     1429    -3503    -7665    -9117 
   -6360       57     8391    16718    23885    29463    32684    32606 
   28568    20861    11264     1648    -6730   -12670   -15377   -14547 
  -10526    -4852      941     5740     7976     7695     6683     4946 
    1922    -1616    -5520    -9592   -12433   -12891   -10455    -5859 
   -1033     3437     7841    11147    12618    12478    10636     7503 
    3591    -1410    -7272   -12750   -16036   -15313   -10430    -3439 
    3247     8725    12783    13918    10577     3600    -4260   -10590 
  -14696   -16263   -14353    -9064    -1747     5821    10982    10986 
    5182    -4545   -15709   -26267   -34720   -40662   -43593   -42164 
  -35968   -26859   -18009   -11405    -7478    -6029    -5890    -6623 
   -9486   -14928   -21376   -26048   -26674   -23044   -16202    -7452 
    1310     8016    10780     9107     5476     2156     -938    -3342 
   -4575    -5392    -5065    -2375     1431     4866     7324     7126 
    3715    -1305    -7065   -12350   -15454   -16302   -14777   -11177 
   -7088    -2455     2935     7264    10364    13294    14649    13151 
    9367     3667    -2801    -8407   -12651   -14621   -14299   -13081 
  -10836    -7074    -1843     4091     8075     8347     5380      110 
   -6310   -12342   -16379   -16928   -13036    -5371     3954    12813 
   19760    24202    25530    22470    15169     6114    -2676    -9985 
  -14762   -17790   -18764   -15341    -8906    -3326      300     2741 
    4582     5962     6743     6734     5755     3990     1878     -916 
   -5059    -9756   -13724   -16191   -16035   -13473   -10347    -7457 
   -4159      -26     3556     4898     4363     2633     -258    -3631 
   -6994    -9878   -10264    -7527    -4403    -2695    -2287    -3872 
   -7322   -10608   -12450   -13219   -13148   -11465    -8014    -4246 
   -1761    -1338    -2939    -5731    -8892   -12021   -14509   -15710 
  -15331   -12936    -8241    -2164     3351     6785     8490     9954 
   11521    12711    13206    11857     7654     1623    -4625   -10372 
  -14821   -16950   -16333   -13164    -8318    -3092     1497     5016 
    7635     9591    10888    11668    12177    11968     9923     6455 
    3564     1395    -1242    -3905    -5878    -7507    -9055   -10538 
  -11885   -12809   -12926   -11798    -8961    -4112     2024     7722 
   11876    14101    14277    13208    11849    10138     8054     6142 
    4394     2540      890     -271    -1100    -1784    -2060    -1429 
      48     2026     4629     7874    10869    12293    11441     8369 
    3443    -2363    -7730   -12199   -15947   -18840   -20534   -20767 
  -19350   -16310   -11593    -4947     2679     9201    13235    14276 
   13207    11672     9250     5202      891    -2459    -4952    -7017 
   -8222    -7882    -6567    -4483    -1210     2460     5183     5580 
    2767    -2637    -9051   -14179   -16356   -15847   -12780    -6819 
     749     7621    12124    13455    11951     8674     4116    -1288 
   -6316    -9581   -10173    -8356    -5366    -2348     -112     1237 
    1958     1532     -815    -5006    -9850   -13686   -15833   -16557 
  -15809   -13313    -9106    -3515     2538     7513    10386    11038 
    9418     5811     1047    -4105    -8592   -11177   -11253    -9615 
   -8397    -8438    -8444    -7659    -6322    -4811    -3874    -3645 
   -3390    -3307    -4060    -5149    -5576    -4698    -2695     -332 
    2167     4232     4785     3741      977    -3849    -9473   -14326 
  -18170   -20820   -21678   -20705   -18363   -14845   -10419    -6260 
   -3503    -2228    -2097    -2861    -4612    -7620   -11506   -15426 
  -18835   -21562   -23343   -23435   -21712   -19314   -16973   -14858 
  -13355   -12031   -10181    -7941    -5505    -3193    -2027    -2838 
   -5128    -7593    -9347    -9880    -8927    -6942    -4766    -2690 
    -486     1445     1846      271    -2017    -3684    -4442    -4308 
   -3245    -1125     1891     4845     6753     7038     5597     2909 
    -793    -5441   -10183   -13346   -13365   -10190    -5234      234 
    5673    10528    13751    14441    12619     8924     3993    -1856 
   -8121   -13433   -16530   -17218   -15659   -11913    -6466     -272 
    5987    11806    16114    17790    16683    13505     8996     3750 
   -1765    -7261   -11719   -13708   -13057   -10526    -6641    -1599 
    4338    10568    16410    21175    24292    25896    26046    23909 
   19120    12399     4898    -1827    -6305    -7943    -7087    -4470 
    -845     2958     6152     7969     8293     8037     7802     7590 
    7289     6645     5552     3695      997    -1526    -2862    -2735 
   -1382      588     2841     5528     8355    10453    11320    10722 
    8697     6191     4134     2429      582    -1384    -2811    -3399 
