Origin Time       2016/04/16 01:25:00
Lat.              32.753
Long.             130.762
Depth. (km)       12
Mag.              7.3
Station Code      NGS002
Station Lat.      33.3444
Station Long.     129.7054
Station Height(m) 2
Record Time       2016/04/16 01:25:27
Sampling Freq(Hz) 100Hz
Duration Time(s)  142
Dir.              E-W
Scale Factor      3920(gal)/6182761
Max. Acc. (gal)   41.917
Last Correction   2016/04/16 01:25:28
Memo.             
[...]
    6942     4629     2411      572     -490     -534      441     2127 
    4033     5957     7608     8505     8655     8108     6960     6008 
    5614     5601     6407     7918     9133     9961    10824    11409 
   11451    11227    10928    10658    10372     9769     8906     8029 
    6863     5023     2960     1830     1975     2618     3210     3447 
    3171     3386     5343     8662    12091    14893    16637    16985 
   15620    12599     9165     6942     6558     7612     9231    10775 
   12100    13032    13266    12801    12135    11906    12161    12311 
   11805    10298     7702     4683     2477     1637     1775     2850 
    4957     7147     8451     8829     8286     7034     5917     5114 
    4201     3780     4527     5602     5921     5657     5833     6959 
    8499    10094    11967    13754    14713    14361    12440     9565 
    6949     5301     4680     4655     4717     4775     5432     7425 
   10411    13546    16227    17679    17655    16758    15670    14843 
   14078    12908    11455     9925     8313     6896     6063     5729 
    4991     3217     1127     -601    -2093    -3177    -3324    -2251 
    -256     1872     3580     4657     5051     5178     5642     6437 
    6867     6650     6526     7156     8327     9218     9233     8796 
    8509     8324     8017     7477     7005     6938     6984     7004 
    7271     7934     9269    11247    12992    13838    14028    14131 
   14475    14936    15151    14793    13692    11975     9976     8240 
    7518     8200     9879    11610    12593    12812    12628    11689 
    9419     6317     3314      820     -915    -1695    -1655    -1242 
    -598      930     3711     6859     9372    11393    13578    15934 
   17733    18371    18020    16863    14517    11031     7333     4420 
    2626     1624     1077     1122     2020     3528     5034     6323 
    7610     9014    10587    12415    14317    15637    15726    14934 
   14095    13047    11415     9927     9654    10854    12884    15114 
   17386    19253    19736    18319    15690    13067    11069     9515 
    7697     4925     1199    -2837    -6267    -7980    -7219    -4596 
   -1510     1564     4803     7701     9453     9981     9714     8867 
    7361     5161     2600      231    -1494    -2295    -1955     -206 
    2744     6172     9636    12959    15927    17931    18570    18505 
   17937    16312    14174    12743    12477    12798    12957    13135 
   13801    14732    15301    15189    14668    14038    13377    13030 
   13135    12997    12135    11024    10104     9242     8177     6828 
    5497     4346     2891      779    -1760    -4293    -6374    -7905 
   -9104    -9826    -9727    -8751    -6840    -3927     -321     3111 
    5563     7142     8267     9386    11248    13695    15659    16542 
   16285    15320    14419    14104    14478    14998    15256    15607 
   16103    16377    16270    15837    15467    15369    15261    15018 
   14728    14641    14990    14971    13416    10569     7341     4325 
    2425     2182     2937     3977     5075     6139     7488     9552 
   11958    13735    14257    13528    11743     8942     5642     3150 
    2055     1623     1434     1886     3160     4926     6501     7527 
    8541    10014    11837    13905    15772    16226    14518    11745 
    9763     9352    10310    11743    12442    12073    10985     9653 
    8990     9568    10888    12038    12311    11437     9619     7158 
    4325     1543    -1056    -3425    -4607    -3919    -2252     -970 
    -776    -1157     -977      -28     1276     2714     4034     5018 
    5686     6497     7830     9327    10584    11646    12816    14166 
   15309    16141    16618    16319    15089    13093    10778     8773 
    7278     6084     4810     3116      898    -1805    -4461    -6052 
   -6095    -4766    -2349      420     2836     5294     8383    11924 
   15306    17867    18939    17665    14131    10091     6872     4569 
    3106     2148     1665     2338     4365     7474    11395    15222 
   17579    17774    16355    14236    11497     7827     3414    -1330 
   -5763    -9031   -10982   -11888   -11388    -8942    -4617     1181 
    8044    15328    21705    26071    28978    31108    31842    31455 
   31395    31622    30657    27648    23386    19670    17592    17004 
   17298    17738    17289    15112    11552     7921     5152     3201 
    1745      684     -252    -1264    -2115    -2674    -3112    -3792 
   -4857    -5545    -5038    -3260     -486     2534     5023     6979 
    9010    12059    16243    20355    23753    26561    28227    27807 
   24805    19831    14427     9629     5579     1979    -1469    -4453 
   -6404    -7046    -6528    -5467    -4197    -2679     -727     2025 
    4899     6740     7511     6958     4733     1881     -488    -1793 
   -1638      -46     2867     6678    10922    15364    19160    21294 
   21486    20548    19960    20063    19546    16872    11776     5457 
    -882    -6598   -11020   -13668   -14309   -12989   -10313    -6910 
   -3018     1565     7206    13715    20263    25602    28948    30687 
   30742    28648    25392    22091    19298    17517    16348    15561 
   15479    15813    16436    17365    18536    20141    21768    23110 
   24355    24714    22743    18012    11821     5767      575    -3317 
   -6259    -8718   -10017    -9954    -8824    -6328    -2845      627 
    3742     6829    10575    14985    18700    20415    19887    17394 
   13922    10901     8878     8335     9632    11672    14023    17201 
   19942    20648    19451    17127    14598    12136     8832     4646 
     221    -4814   -10337   -15179   -18083   -17597   -13552    -7440 
    -598     5458     9287    11576    14244    17914    21581    24115 
   25245    24932    22975    19586    15775    13003    11933    11858 
   12124    12743    13344    13215    12158    10676     9476     8622 
    7505     5576     2844      163    -1251    -1186     -635     -484 
   -1049    -2269    -3479    -3686    -2282      740     5205    10871 
   16611    20988    24079    26786    28903    29470    28059    25065 
   21524    18540    16514    15351    15177    16352    19220    23620 
   28063    30416    29863    27081    22537    16127     8218      -69 
   -7426   -13245   -17534   -19693   -18966   -15705   -10899    -5461 
    -178     4538     8838    12798    15622    16038    13276     7705 
     986    -4427    -6881    -6748    -4952    -1734     2514     7268 
   12069    16149    18824    19944    20068    20021    20206    20526 
   20337    19355    18559    18643    18747    17850    16250    14672 
   12678     9358     4761     -434    -5924   -11888   -18091   -23562 
  -27482   -29883   -30950   -30122   -26870   -21482   -14277    -5535 
    3463    10555    14293    15033    13907    11382     7677     3585 
     135    -1473     -323     3197     8705    16085    23738    29985 
   34499    37627    39785    40124    37299    31511    23569    14181 
    4673    -3229    -8183    -9891    -8699    -4804     1136     7513 
   12704    16246    19015    21347    22218    21602    20435    18694 
   16522    14865    14942    18673    26669    36965    47797    58311 
   66886    71860    73314    72590    70578    67325    62367    55098 
   45460    34487    24005    15281     8663     4212     1449     -335 
   -1668    -3114    -4463    -5231    -6015    -7525    -9987   -13230 
  -16304   -18663   -20689   -22232   -22408   -20716   -17316   -12535 
   -6809     -862     4623     9224    12476    14068    14149    12782 
   10442     8345     7022     6754     7846     9523    11036    11914 
   11681    10659     8967     6091     1651    -3864    -8967   -12534 
  -13833   -12760   -10683    -8691    -7527    -8569   -11833   -15811 
  -19124   -20427   -19154   -15977   -11549    -6731    -2660      167 
    1393     1012      225      539     2298     4529     6413     7825 
    8357     7720     6498     5853     6971     9931    13464    16257 
   17356    16061    12483     7472     2080    -3091    -7926   -11789 
  -13980   -14605   -13808   -12005    -9950    -7521    -4516    -1715 
     339     2267     5152     9159    13001    15309    15949    15342 
   13759    11754     9684     7066     3530     -694    -5599   -11309 
  -17148   -21830   -24532   -25357   -24772   -23160   -21118   -19365 
  -18397   -18179   -17753   -16540   -15305   -14369   -13174   -11582 
   -9566    -6704    -2319     3724    10065    15578    20965    26732 
   31980    35887    38546    39958    39530    37161    33277    28999 
   26094    24357    22286    19655    16563    13573    11824    11277 
   11792    13858    16738    19183    21025    21844    21028    19367 
   17556    15804    15219    16061    17505    19346    21282    23186 
   25137    25808    24033    20849    18148    17405    19023    21586 
   22914    21680    17964    13075     8371     4385     1430      -34 
     535     3660     8807    14154    18495    21950    24476    25589 
   25057    22884    19378    14821     9338     3984      381     -696 
     944     4871    10255    17165    25159    32296    37203    39415 
   38594    34934    29332    23272    18428    15661    14163    12782 
   12020    12995    16180    21513    27796    33375    37486    39821 
   39894    37663    34448    31637    29128    26509    23653    20000 
   14974     8380      482    -8084   -16913   -25564   -33183   -39156 
  -43641   -47368   -50597   -52811   -53389   -51861   -48559   -44587 
  -41255   -40279   -42252   -45443   -47472   -46492   -41655   -33515 
  -23246   -12292    -1986     7754    17858    28228    37451    44139 
   47966    48971    47264    43849    39724    35259    31277    28512 
   26848    26221    26771    28163    29864    31775    33337    33225 
   31022    27130    21731    15153     7767       84    -6800   -11804 
  -14330   -14464   -13031   -11007    -9213    -8194    -7720    -6907 
   -5307    -3463    -1977     -993    -1011    -2586    -5271    -7799 
   -8798    -8103    -7102    -6466    -5309    -2893      842     5361 
    9675    13388    16935    20565    23653    25192    24545    21788 
   18228    15167    12564    10463     9301     9830    13343    19381 
   26011    31972    36186    38413    39283    38700    37082    35482 
   33563    30433    25786    19681    13471     9392     7990     8067 
    8743     9190     8287     6171     3728     1111    -1933    -5657 
   -9514   -12703   -15995   -20248   -24999   -29409   -32144   -31928 
  -28615   -22889   -16078    -9901    -5695    -3679    -2755    -1627 
      80     2097     4247     6468     7854     7641     7489     9021 
   11528    14432    18221    23878    31476    38981    44628    47772 
   48030    45209    38414    28132    17437     8624     2757      142 
    -268      623     2281     4541     7286     9333    10384    10799 
    9930     8073     5769     2165    -3060    -9431   -16047   -21249 
  -24092   -24114   -21397   -18228   -16650   -16682   -17625   -18563 
  -19041   -18143   -14879   -10505    -6586    -3724    -2462    -2397 
   -2631    -2522    -1923    -1729    -2336    -3274    -4715    -6828 
   -9140   -10989   -11290    -9551    -6377    -2107     2841     7552 
   11062    12219    10679     7664     5173     4446     4638     4037 
    2451     1377     2133     4701     8387    12570    16826    20651 
   23457    25360    27069    29024    31070    32758    33702    33379 
   31789    30054    29306    30109    32467    35778    39620    43924 
   48194    51428    52852    52490    50669    47451    43009    37733 
   31810    25318    18383    11206     4365     -964    -3515    -2900 
     -75     3222     5592     6351     5235     2502    -1250    -5492 
   -9660   -13437   -17089   -20521   -23033   -24581   -24924   -22733 
  -18115   -12586    -6442      451     7183    12384    14825    14252 
   12225     9411     4223    -2954   -10515   -18290   -24772   -28576 
  -29401   -26199   -20442   -14494    -8094    -1878     2844     6296 
    9083    11817    14266    16067    17731    19308    21091    23214 
   25117    27699    31733    36859    43089    49142    53685    57276 
   59711    60320    59645    57655    53642    47440    38961    29224 
   20565    13865     8627     4664     1204    -2653    -6785   -11192 
  -15698   -19658   -23320   -27091   -30972   -34908   -38208   -40153 
  -40628   -39753   -37943   -35600   -32762   -29090   -24033   -17584 
  -10165    -2276     4995    10896    16057    20868    25005    29434 
   34775    39335    42034    42344    39271    33535    25935    17477 
   11068     7338     4910     3816     3754     4347     6177     8984 
   11894    14712    17682    20500    22124    21688    18592    12833 
    5573    -1668    -7488   -11002   -12664   -13837   -15417   -17430 
  -19364   -20214   -19759   -18962   -18052   -16630   -14938   -13519 
  -12300   -10575    -8488    -6967    -6175    -6147    -6750    -6961 
   -6367    -5121    -3014     -472     1741     3845     6482     9742 
   13353    17524    23287    30761    38331    45057    50745    54787 
   57981    61518    64563    66171    66513    66128    65606    64835 
   63321    60577    55952    49305    41173    32687    24856    17549 
   10672     4772     -249    -4941    -9306   -13056   -15976   -17844 
  -19118   -21130   -24358   -28217   -32347   -36282   -39745   -43429 
  -47737   -52147   -55859   -57909   -57561   -54307   -47319   -37323 
  -28732   -23235   -11559     9503    22346    25118    37458    49936 
   49799    53893    60122    57526    56843    57608    54411    53766 
   55184    55942    57576    58986    58176    54396    49815    45568 
   40894    38034    37007    35686    33444    28194    19425     8954 
   -1944   -10859   -16666   -20449   -21887   -21516   -21090   -20344 
  -19070   -17515   -15071   -12120    -9517    -7642    -7201    -8959 
  -13064   -18331   -22707   -24544   -23235   -19571   -14492    -8148 
    -838     6735    13500    18186    20193    20263    19913    19866 
   20433    21645    22082    21537    21283    21033    20885    21381 
   22048    23331    25277    26548    26856    27124    27215    26257 
   24792    22308    17201    11064     5533       -7    -4691    -7954 
  -10765   -12629   -13384   -13913   -13625   -11821    -8494    -3805 
    1411     6026     8148     6979     4376     1104    -2798    -6121 
   -8696   -10159    -9505    -7458    -4999    -2100     1160     4536 
    8236    12950    18903    25338    31331    36080    39080    40681 
   41578    41945    41392    40022    38424    36352    33935    31818 
   29252    25644    21536    17476    13900    10084     4954     -994 
   -7230   -13361   -18600   -23085   -26578   -28005   -27346   -25317 
  -22429   -18533   -13160    -6625      266     6451    10870    13597 
   15726    18527    22674    27930    33819    39294    43111    44918 
   44181    40905    36486    31934    28188    25441    22384    19075 
   16158    13357    10858     8281     5348     3115     1613      105 
   -1853    -4883    -8621   -12379   -16039   -18849   -20543   -21981 
  -23212   -23793   -24134   -24931   -26315   -27275   -26455   -23148 
  -17292   -10142    -3405     2206     7041    12151    17703    22678 
   26414    28971    30728    31931    32808    33841    35090    36425 
   37954    39143    39541    39675    39633    38928    37385    34766 
   30939    26097    20525    14761     9179     4015     -193    -3175 
   -5014    -5964    -6574    -7228    -8111    -9223    -9995    -9967 
   -9427    -8642    -7623    -6511    -5545    -5533    -7137    -9711 
  -12266   -14059   -14752   -14375   -12542    -9375    -6101    -3736 
   -2375    -1108     1148     4723     9454    14562    19016    22557 
   25266    27089    28384    29662    31031    32531    33855    33948 
   31822    27631    23051    19924    18633    18918    20718    23465 
   26327    28862    30880    32185    32454    31568    29766    27275 
   24177    20656    17268    14573    12661    11359    10675    10808 
   11550    12206    12240    11636    10745     9930     9627     9902 
   10148    10046     9610     8584     7008     5350     3920     2759 
    1782     1181     1345     2093     2778     3009     2889     2944 
    3496     3909     3218      979    -2636    -6567    -9078    -8871 
   -5590      546     8590    17004    24554    30278    33718    35020 
   34344    32402    30116    27649    25012    22370    20068    18546 
   17844    18116    19935    23597    28233    32013    34105    34725 
   33317    29413    23985    18274    13267    10098     8926     8527 
    7723     5844     2533    -1555    -5002    -7032    -7678    -7337 
   -6600    -6004    -6235    -7525    -9263   -10814   -11311   -10117 
   -7780    -5233    -3234    -2551    -3457    -5498    -8484   -12257 
  -15571   -17647   -19036   -20017   -20945   -22067   -22251   -20577 
  -16737   -10371    -2355     5721    12522    17039    19473    20658 
   21077    21027    20313    18492    15888    13579    12357    12182 
   12716    13756    15170    16804    18564    20549    22696    24389 
   24746    23240    20294    17104    14585    12726    10996     8829 
    6199     4077     3259     3126     2578     1333     -158    -1488 
   -2660    -3667    -4249    -4246    -3935    -3889    -4286    -4332 
   -3119     -857     1558     3299     3988     4236     4887     5796 
    5962     4644     2548     1535     2921     6544    11037    14845 
   17199    18164    18397    18962    20774    23876    27288    30037 
   31970    33219    33689    33212    31811    30008    28604    28067 
   28362    29011    29409    29006    27360    24921    23058    22803 
   24179    26225    27553    27039    24082    18863    12169     4901 
   -2341    -9276   -15456   -20430   -24150   -26931   -29078   -30269 
  -30136   -29128   -28202   -28130   -28934   -30175   -31692   -33556 
  -35621   -37098   -36737   -33450   -26899   -18064    -8317     1439 
   10133    16961    21911    25083    26818    27492    26531    23671 
   20024    16276    12867    10884    10438    11271    13613    16788 
   19788    21778    21916    20198    16454    10520     3857    -2071 
   -6726    -9796   -11437   -11950   -11492    -9858    -6669    -1881 
    4270    10694    16102    20328    23630    26093    27767    28738 
   29067    28616    27458    25753    23426    20599    17678    15482 
   14482    14147    14135    13722    11317     6669      555    -6333 
  -12628   -17768   -22495   -26532   -29123   -30580   -31100   -30384 
  -28513   -25503   -21672   -17938   -14431   -10859    -7428    -4513 
   -2781    -2404    -2541    -2363    -1303      631     2870     5118 
    7279     9467    11942    14685    17639    20598    22976    24285 
   24626    24622    24791    25079    25434    26220    27452    28973 
   31119    33896    36755    39059    40059    39790    39208    38778 
   38487    38026    36529    33633    29532    24476    19276    14871 
   11726     9865     8920     8426     7742     6097     3364      118 
   -2963    -5424    -7339    -9303   -11593   -13492   -14174   -13493 
  -11578    -8847    -6067    -3744    -1967     -630      628     2168 
