Origin Time       2016/04/16 01:25:00
Lat.              32.753
Long.             130.762
Depth. (km)       12
Mag.              7.3
Station Code      NGS003
Station Lat.      33.2016
Station Long.     129.4128
Station Height(m) 22
Record Time       2016/04/16 01:25:29
Sampling Freq(Hz) 100Hz
Duration Time(s)  121
Dir.              E-W
Scale Factor      3920(gal)/6182761
Max. Acc. (gal)   77.623
Last Correction   2016/04/16 01:25:29
Memo.             
[...]
    3000     5858     7251     7336     5456     1089    -4803   -10823 
  -16314   -20203   -21168   -19758   -17763   -15701   -12634    -7850 
   -2400     1228     1873     1087      763      906      466     -869 
   -2511    -4078    -5735    -7769   -10203   -12370   -13098   -11815 
   -9077    -6022    -3785    -3047    -3509    -3955    -3311    -1620 
     112      688     -551    -3163    -5933    -8043    -9736   -11940 
  -14929   -17156   -16708   -13718    -9617    -5375    -1885      265 
    1699     2833     2553     -440    -5751   -11128   -14517   -15847 
  -15796   -14581   -12768   -10772    -7960    -4112     -389     2131 
    3628     4629     4749     3496     1678      498     -115    -1240 
   -3504    -6354    -8783   -10389   -11278   -11540   -11432   -11373 
  -11239   -10315    -8447    -6757    -6526    -7479    -8045    -7328 
   -5893    -4926    -5134    -6100    -6878    -6863    -5702    -3503 
   -1068      928     2175     2371     2078     2536     3110     1202 
   -3880    -9581   -13595   -16000   -17809   -19752   -21716   -22144 
  -19522   -14479    -8904    -3926      -34     2103     2281     1533 
    1157     1204      890      244     -159     -733    -2507    -5744 
   -9937   -14434   -18461   -20831   -20603   -18536   -16504   -15216 
  -14139   -12848   -10662    -6437     -613     4052     5748     5954 
    6769     8114     8816     8280     6446     3503     -173    -4326 
   -9030   -14214   -19039   -22033   -22133   -19913   -17206   -14961 
  -12356    -8329    -2897     2940     7541     9430     8819     7353 
    5556     2265    -2850    -8351   -12752   -15468   -16590   -16798 
  -16692   -15982   -14189   -11308    -6876     -514     5987    10099 
   11735    11994    10567     7019     2330    -2652    -8095   -13499 
  -17281   -18892   -19377   -19586   -19649   -19815   -20233   -20117 
  -17888   -12499    -4551     4073    11573    17289    21407    23619 
   22762    18405    11877     4485    -4091   -14052   -23692   -30837 
  -34627   -35238   -33267   -29350   -23614   -16214    -8207     -892 
    5355    11048    16266    20003    21700    21872    20133    15151 
    7145    -1949   -10736   -19061   -26467   -31346   -32560   -30761 
  -27254   -22605   -16665    -9673    -3042     1905     5184     7160 
    7848     7459     6174     3845      809    -1988    -4302    -6793 
   -9511   -11755   -13488   -15255   -17155   -18844   -19606   -18273 
  -14155    -8236    -2918       90     1689     3974     7041     9255 
    9899     8985     6139     1848    -2395    -6023    -9421   -12397 
  -14195   -14487   -13606   -12319   -11398   -10980   -10739   -10651 
  -10444    -9032    -6091    -2946     -868       50      414      975 
    1534      245    -4203   -10316   -15520   -18770   -20355   -21174 
  -22223   -23071   -21700   -16894    -9795    -2842     2515     6802 
   10605    12714    11747     8434     4698     1030    -3570    -8943 
  -13069   -14478   -13684   -12074   -10382    -8602    -6836    -5360 
   -4363    -4162    -4672    -5106    -4960    -4230    -3107    -2325 
   -2384    -2706    -3014    -4152    -6722   -10270   -13781   -15954 
  -15639   -13097   -10028    -7373    -4504    -1318     1000     1997 
    2639     3068     1721    -2090    -7047   -11958   -16364   -19218 
  -19580   -18234   -16765   -15251   -12037    -6298      -13     4200 
    6256     7473     7989     6877     3218    -2687    -8478   -11832 
  -12905   -12910   -11749    -8688    -3942     1192     4688     4706 
    1108    -4604   -10720   -15792   -18781   -19933   -20443   -20657 
  -19673   -16749   -12201    -7058    -2119     2277     5436     6633 
    6424     5851     4654     1797    -2861    -8134   -12235   -14202 
  -14757   -15029   -15193   -14894   -13502   -10204    -5513    -1346 
    1444     3401     4474     4229     2986      788    -3089    -8117 
  -12095   -13986   -14936   -15728   -15634   -14208   -12044    -9665 
   -7009    -4135    -1860    -1027    -1343    -2007    -2671    -3201 
   -4074    -6145    -8751   -10210   -10357   -10445   -11186   -12279 
  -13155   -13319   -12432   -10697    -8551    -5962    -3057     -763 
     369      978     1747     2208     1218    -1430    -4281    -5787 
   -6019    -6074    -6976    -9279   -12058   -13208   -12161   -10454 
   -9307    -8451    -6772    -3566      338     3344     4627     4147 
    2216     -462    -3112    -5227    -6598    -7436    -8102    -8485 
   -8378    -8399    -9488   -11509   -13428   -14508   -14439   -13469 
  -12500   -11730   -10287    -7839    -4762    -1053     2991     5918 
    6598     5435     3213      152    -3437    -6712    -8770    -9216 
   -8527    -7789    -7876    -9138   -11175   -12670   -12714   -11799 
  -10534    -8672    -5913    -2456     1125     3608     3754     2107 
     459     -936    -3478    -7683   -12340   -15674   -16595   -15396 
  -13237   -10917    -8707    -6633    -4538    -2595    -1385    -1059 
   -1174    -1440    -2260    -4264    -6885    -8388    -8405    -8567 
   -9474    -9636    -8472    -7758    -9054   -11298   -12048   -10532 
   -8154    -6240    -4899    -3933    -3211    -2312    -1176     -755 
   -1638    -2700    -2734    -2602    -3971    -6529    -8155    -7627 
   -5445    -2458      270      966    -1335    -5247    -8349    -9520 
   -9351    -9100    -9690   -10727   -10588    -8540    -5757    -3488 
   -1986    -1285    -1247    -1326    -1301    -1429    -1938    -3075 
   -4844    -6570    -7543    -7476    -6532    -5831    -6412    -7447 
   -7893    -8618   -10289   -11507   -11203   -10359    -9841    -8900 
   -7152    -5855    -5672    -5078    -2956     -918     -560     -707 
      99     1273     2022     2385     2023      569    -1607    -4292 
   -7521   -10846   -13744   -15905   -16883   -16335   -14505   -11957 
   -8660    -4119      896     4173     4534     2958      946    -1015 
   -3471    -6814   -10182   -12538   -14108   -15182   -14811   -12097 
   -7513    -2317     2149     4750     5441     5152     4247     2391 
    -462    -4073    -7991   -11465   -14203   -16427   -17614   -16762 
  -14240   -11583    -9525    -8026    -7385    -7428    -6917    -5179 
   -2934    -1184     -436     -732    -1682    -2594    -2838    -2413 
   -2104    -2654    -3920    -5430    -6957    -7715    -7012    -5751 
   -4697    -3053     -773      575       60    -1982    -5327    -9810 
  -14262   -17201   -18325   -18362   -17957   -17139   -15609   -13303 
  -10166    -6083    -1908     1083     3207     5534     7405     6900 
    3402    -1623    -6202    -9357   -11163   -12322   -13580   -14705 
  -14590   -12631    -9228    -5325    -2117     -600     -814    -1654 
   -1832    -1263     -826     -934    -1712    -3580    -6075    -7864 
   -8850    -9962   -10907   -10672    -9742    -9213    -8576    -6728 
   -4238    -2637    -2214    -2071    -1791    -1762    -2237    -2857 
   -3159    -3617    -5332    -8112   -10439   -11550   -11494   -10207 
   -8737    -9192   -11645   -13491   -12845   -10489    -8107    -6341 
   -4737    -2788     -971     -477    -1739    -3779    -5168    -5464 
   -5274    -5123    -5441    -6606    -7390    -5480    -1199     1710 
     573    -2987    -5937    -8165   -11518   -15883   -19115   -20053 
  -19223   -17119   -13463    -8074    -1711     4126     7958     9006 
    7600     4906     1753    -2071    -6788   -11360   -14485   -16434 
  -18302   -19900   -19873   -17570   -13706    -9266    -4512      457 
    4728     7461     9200    10579    10601     7984     3237    -1928 
   -6318    -9977   -13643   -17220   -19114   -17954   -14643   -11533 
   -9453    -7217    -4110     -788     1988     3844     4612     4377 
    3161      756    -2644    -6361   -10201   -14306   -17964   -19876 
  -19361   -16881   -13541    -9623    -4456     1408     5855     7907 
    8346     7275     3980     -832    -5476    -9351   -12573   -14983 
  -16711   -18066   -18593   -17516   -14530    -9774    -4026     1159 
    4478     6107     7029     7053     4793       44    -5203    -8775 
  -10343   -10861   -10745    -9470    -6572    -2456     1511     3936 
    4230     2062    -2353    -7395   -11663   -15090   -17102   -16524 
  -13963   -11312    -9062    -6265    -2569      967     2791     2121 
    -633    -4310    -7528    -9347   -10118   -10952   -11998   -12410 
  -11731   -10217    -8442    -7013    -6209    -5867    -5639    -5367 
   -5386    -6169    -7270    -7222    -5067    -1390     2296     4535 
    4574     2772      311    -1965    -4234    -6573    -7927    -7724 
   -7485    -8722   -10486   -11013   -10069    -8294    -6494    -6039 
   -7659    -9903   -10464    -8831    -6502    -4677    -3087    -1387 
     169     1880     4277     6231     5474     1118    -5641   -12751 
  -18150   -20399   -19923   -18735   -17626   -15348   -11826    -9372 
   -9218    -9337    -7169    -3016      747     3053     4787     6409 
    7344     7464     6822     4803     1455    -1963    -4817    -7593 
  -10551   -13618   -16750   -19323   -20392   -20082   -19408   -18364 
  -15717   -11098    -5925    -2027      -57      457       59     -837 
   -1809    -3035    -5195    -8085   -10277   -10826   -10787   -11901 
  -13512   -12440    -6795     1530     8746    12367    12416    10569 
    8282     5521     1713    -2773    -7382   -12465   -18022   -22995 
  -26813   -29478   -30066   -27405   -21872   -15059    -8288    -2089 
    3653     9290    14258    16401    14099     8783     3360    -1166 
   -5821   -11320   -16733   -20417   -21970   -22181   -20899   -17276 
  -11940    -6341    -1172     2883     4931     5146     4541     3366 
    1086    -2111    -5296    -8077   -10431   -11952   -12292   -11421 
   -9428    -6831    -4197    -1456     1508     4433     7021     8575 
    8113     5719     2701      178    -1940    -4893    -9801   -16098 
  -21600   -24025   -22520   -18261   -13020    -7511    -2280     1394 
    3049     3508     2702     -852    -7291   -14190   -19405   -23046 
  -25382   -25280   -21774   -15151    -6314     3403    12135    18279 
   21315    21696    20178    17114    12199     5882      432    -2438 
   -3468    -3673    -3363    -3730    -5661    -8042    -9942   -12186 
  -15167   -17667   -18916   -19506   -19607   -18469   -15980   -13211 
  -11722   -12637   -15525   -18194   -18433   -16154   -12804    -8831 
   -3605     2758     9415    15660    20338    21492    18047    11297 
    3452    -4381   -11767   -17963   -22461   -25388   -26478   -24542 
  -19063   -11629    -4561     1228     5845     8646     8423     5166 
     -39    -6707   -14684   -22292   -26824   -27203   -24254   -18577 
  -10400    -1151     6986    13322    18565    22135    22252    18743 
   12620     3584    -8788   -22110   -32332   -37646   -39108   -37465 
  -31979   -22691   -11017     1694    13910    23548    29293    31199 
   29820    25263    17170     6254    -5040   -14435   -20859   -23753 
  -23270   -20061   -14000    -5135     4211    10457    11780     8930 
    3576    -2517    -7225    -9350    -9571    -8911    -7634    -5933 
   -4693    -5256    -7994   -11570   -14387   -16001   -16345   -14732 
  -10666    -4475     3484    12839    21984    28177    28952    23302 
   12389    -1259   -15671   -29929   -42853   -51950   -54230   -47883 
  -33195   -12475    10652    31669    45636    49009    41885    27640 
    9393   -12253   -36310   -57934   -71268   -73871   -65644   -47777 
  -24619    -1655    18161    33121    41138    40902    32713    19081 
    3715   -10757   -22258   -28736   -29553   -24963   -15777    -4768 
    4346     9153     8633     2774    -6918   -17530   -26110   -30541 
  -29301   -21844    -9690     3923    15933    24745    30037    31766 
   29549    23075    12596     -622   -13938   -24572   -31080   -32666 
  -28389   -18651    -5984     6779    17054    22068    20772    14620 
    5600    -4878   -15641   -25116   -31246   -32330   -27912   -19472 
  -10054    -2340     2713     4982     3787    -1247    -8872   -17163 
  -24112   -26986   -23483   -14010    -1837     9413    18058    23437 
   24369    20392    12626     2417    -8382   -16476   -20060   -20959 
  -21200   -20335   -16822    -9982    -1684     4413     6879     7937 
   10451    14849    18535    18354    13961     8125     3842     1103 
   -3327   -12154   -24544   -37662   -49404   -58243   -62082   -59545 
  -51781   -41266   -29291   -15884    -1671    11384    21192    27025 
   29087    26936    20051     9745    -1777   -13780   -26127   -37111 
  -43960   -45084   -41540   -35898   -29471   -21977   -13944    -7367 
   -3644    -2420    -2217    -1061     2323     6978    10649    12431 
   12781    11674     8986     5165     -225    -8447   -18674   -26907 
  -29459   -26801   -22189   -16878    -9151     1872    14218    25289 
   33971    40050    42975    41696    35225    23641     8619    -7993 
  -25612   -43387   -58649   -68710   -72423   -69565   -60592   -46373 
  -27871    -7148    12212    27010    36553    42510    46402    47031 
   41510    29400    13800    -2228   -17602   -31165   -41088   -46938 
  -49269   -46882   -37426   -21497    -3763    11268    22982    32987 
   41047    44909    43004    34238    17060    -7915   -36226   -62415 
  -82619   -93657   -92058   -76054   -47918   -13117    22173    52768 
   75290    87583    87701    74233    47278     8904   -35894   -78602 
 -110621  -127605  -128362  -112198   -80901   -41055     -685    34799 
   62042    79276    86374    81908    64115    36676     6980   -20647 
  -44267   -61848   -73036   -77959   -75510   -66027   -51582   -33454 
  -12128    10746    31714    47731    57081    58598    52328    39182 
   21403     3206   -12855   -26852   -38141   -46118   -51422   -53759 
  -52629   -47867   -38269   -24708   -10774     1210    10161    15519 
   17661    16912    14492    12397    11011    10759    12699    14491 
   12458     6580    -1135    -8607   -13771   -15400   -13418    -9424 
   -5490    -2190      657     3650     7985    13845    19813    23616 
   22844    16977     8008    -2216   -12885   -22184   -26616   -23053 
  -11843     3066    17604    29914    40232    48454    51955    47420 
   33864    14112    -6325   -23271   -36131   -45379   -49572   -46556 
  -36330   -21150    -3689    12994    24296    27331    24789    20583 
   14706     6238    -3193   -11184   -16233   -17188   -13246    -4909 
    5107    12779    15919    15191    11828     6721      637    -7382 
  -19254   -33594   -45953   -53343   -55604   -53820   -48997   -40992 
  -28557   -12228     3761    15094    21268    23718    22676    17840 
    9812     -507   -12164   -23138   -30105   -30488   -25188   -17971 
  -12070    -8740    -7963    -8741    -9251    -8432    -7405    -7415 
   -7283    -5722    -4371    -5639    -9897   -16396   -23688   -28940 
  -30006   -27364   -21922   -12450     2553    20698    35615    42139 
   39784    30603    16264    -2132   -22955   -42927   -57832   -65346 
  -66045   -61281   -51472   -36427   -16034     8750    34285    54146 
   62576    59464    49817    37155    20825       82   -22662   -43282 
  -58978   -69165   -74108   -73279   -65559   -51213   -32620   -12853 
    5741    21167    30569    31752    25880    16184     5570    -3133 
   -7979    -9629    -9909    -9455    -8052    -5583    -1915     2541 
    5832     5535     1129    -6020   -14212   -21120   -24106   -22536 
  -17960   -11762    -4016     4680    11983    16128    17364    16460 
   14012    10513     5885      240    -5053    -8230    -8746    -8054 
   -8088    -9076   -10516   -12566   -14815   -16344   -17480   -19031 
  -19597   -15942    -7373     2563    10309    15202    17783    18029 
   15519    10482     3899    -3523   -11205   -17919   -22719   -26101 
  -29095   -31374   -31238   -28094   -22900   -15392    -3908    11666 
   28016    39738    43117    37772    24999     7142   -11880   -28300 
  -40981   -50588   -56657   -56911   -49479   -35015   -17404    -2424 
    6395     9847     9061     3166    -6865   -17017   -24470   -29307 
  -31956   -31818   -28414   -22007   -13694    -6346    -3761    -6727 
  -10853   -10520    -4889     2133     7527    12204    17784    22923 
   24756    21211    11094    -4380   -20771   -34020   -42945   -47002 
  -44676   -35082   -19759    -2376    13490    25764    32861    32820 
   25136    12129    -2745   -16712   -28353   -37109   -41895   -41910 
  -38283   -32400   -24216   -14118    -4152     3516     8269    11267 
   13993    16830    19013    18713    14118     5619    -4949   -16553 
  -28197   -37830   -43464   -44582   -42446   -38369   -31336   -19615 
   -4784     9170    20131    28040    32681    34346    34268    32314 
   27154    18947     9363     -219    -9077   -16557   -22182   -26009 
  -28448   -29854   -29575   -25834   -18354    -9940    -3645     -197 
     867      470      510     1987     3252     2159    -1310    -5844 
  -10728   -15640   -20051   -23714   -26177   -26079   -22470   -16061 
   -8303     -292     6723    11045    11867     9900     6162     1195 
   -4297    -9371   -14115   -19264   -24209   -27447   -28518   -27993 
  -26707   -25151   -22662   -17916   -10392     -990     8259    15466 
   20380    23721    25021    22895    16921     7560    -4440   -17253 
  -27727   -33236   -33543   -30234   -25028   -19133   -13104    -6356 
    2339    12632    20997    23291    19336    12525     5146    -3156 
  -12333   -20059   -24168   -24664   -21780   -15226    -6709      710 
    6380    12098    18174    21438    18390     8882    -4211   -17077 
  -26992   -33833   -38570   -40080   -35746   -24894    -9870     5911 
   20100    30908    35728    32361    20889     3856   -14425   -29704 
  -39871   -44970   -45263   -39909   -28741   -13881     2262    18122 
   31798    41796    48058    50722    49315    43661    34161    20826 
    4021   -13962   -30699   -45233   -56558   -62835   -62249   -54934 
  -43524   -30144   -15084     1046    16379    28443    34880    34706 
   28524    17315     2248   -14661   -30021   -39609   -42002   -40550 
  -38599   -35750   -30679   -23846   -16270    -8098      245     7354 
   12223    14699    14921    12623     7058     -875    -7867   -11637 
  -13416   -15754   -19460   -23264   -25098   -23611   -18849   -11794 
   -3832     4337    12680    20147    24753    25060    21413    15502 
    8008     -582    -7538   -10583   -11019   -11402   -12890   -14887 
  -15130   -12223    -8556    -8362   -13403   -21836   -30592   -37999 
  -43590   -46158   -43834   -35887   -22993    -6522    11540    28788 
   42777    51653    54586    50999    39866    20744    -4141   -29790 
  -51114   -64881   -69881   -67154   -58679   -45319   -27748    -7465 
   14029    34547    49933    55679    50867    39304    25391    10633 
   -4527   -18681   -30191   -37408   -39506   -38270   -36493   -34382 
  -29970   -22652   -14060    -5532     3034    11209    17367    20252 
   19418    14904     7717     -162    -7675   -15492   -23787   -30886 
  -34887   -35552   -33420   -28489   -21422   -13427    -4400     6009 
   15710    21119    21480    19419    16802    13431     8666     2102 
   -5540   -12614   -18574   -23432   -25963   -25243   -21942   -16688 
