Origin Time       2016/04/16 01:25:00
Lat.              32.753
Long.             130.762
Depth. (km)       12
Mag.              7.3
Station Code      NGS022
Station Lat.      34.2029
Station Long.     129.2868
Station Height(m) 5
Record Time       2016/04/16 01:25:42
Sampling Freq(Hz) 100Hz
Duration Time(s)  106
Dir.              N-S
Scale Factor      3920(gal)/6182761
Max. Acc. (gal)   11.069
Last Correction   2016/04/16 01:25:43
Memo.             
[...]
    9103     8579     8222     8184     8226     8184     8127     8088 
    8132     8389     8806     9206     9511     9535     9158     8676 
    8427     8567     9077     9676    10121    10344    10259     9876 
    9369     8862     8322     7733     7329     7343     7532     7591 
    7610     7712     7842     8069     8602     9266     9556     9337 
    8878     8364     7700     6939     6562     6769     7145     7462 
    7960     8667     9261     9670    10045    10374    10522    10415 
   10123     9971    10221    10564    10541    10216     9882     9621 
    9370     9048     8800     8872     9135     9288     9247     9015 
    8626     8232     8028     8123     8414     8607     8560     8463 
    8492     8569     8687     9067     9637    10038    10169    10135 
   10009     9853     9724     9726     9896    10041    10011     9933 
    9863     9703     9482     9278     9043     8602     7856     7040 
    6508     6405     6812     7763     8915     9759    10171    10334 
   10360    10276    10107     9852     9465     8811     7904     6986 
    6198     5688     5695     6146     6781     7547     8403     9125 
    9481     9510     9520     9673     9893    10066     9981     9485 
    8771     8138     7774     7707     7744     7834     8144     8546 
    8816     9166     9811    10491    10826    10682    10236     9770 
    9343     8928     8657     8561     8450     8309     8307     8477 
    8769     9094     9301     9331     9181     8943     8864     8989 
    9155     9347     9603     9945    10323    10510    10460    10454 
   10592    10587    10327    10199    10404    10562    10316     9758 
    9169     8645     8162     7829     7754     7849     8132     8700 
    9333     9734     9912    10037    10169    10247    10222    10076 
    9814     9466     8955     8301     7917     8160     8734     9095 
    9146     9096     9034     8906     8774     8730     8638     8432 
    8243     8021     7688     7441     7479     7759     8156     8615 
    9023     9198     9206     9257     9353     9440     9585     9747 
    9831     9895    10012    10186    10378    10520    10685    10871 
   10840    10595    10255     9637     8580     7275     6104     5195 
    4536     4487     5244     6405     7645     8815     9712    10302 
   10629    10673    10442    10034     9669     9435     9149     8728 
    8247     7792     7568     7648     7817     7935     8023     8170 
    8405     8556     8648     8995     9545     9930    10071    10076 
    9921     9552     8994     8387     7969     7870     8030     8345 
    8728     9148     9628    10048    10334    10646    10996    11161 
   10917    10243     9382     8554     7898     7504     7208     6828 
    6536     6626     7119     7849     8692     9437     9786     9823 
    9915    10124    10270    10217    10020    10013    10283    10465 
   10447    10430    10405    10256    10061     9995    10117    10242 
   10091     9674     9346     9304     9341     9279     9106     8722 
    8120     7396     6556     5766     5293     5191     5467     6208 
    7340     8501     9363     9960    10514    11136    11833    12508 
   12944    12966    12598    11902    10739     9030     7165     5684 
    4752     4280     4295     4932     6077     7367     8618     9789 
   10751    11405    11721    11705    11412    10890    10232     9581 
    9023     8676     8749     9321    10170    10831    11011    10836 
   10443     9777     8913     8146     7663     7297     6815     6273 
    5844     5548     5399     5535     5999     6694     7583     8683 
    9810    10616    11044    11238    11209    11044    10832    10449 
    9832     9128     8430     7739     7192     6890     6728     6627 
    6625     6859     7445     8260     9062     9670     9938     9943 
    9869     9639     9135     8526     8080     7890     7847     7873 
    7941     7917     7741     7632     7868     8425     9061     9649 
   10161    10492    10603    10542    10322    10106    10122    10309 
   10430    10278     9777     9021     8148     7441     7146     7097 
    7055     6993     7006     7265     7842     8692     9759    10789 
   11375    11371    10971    10381     9680     9034     8686     8660 
    8739     8736     8643     8567     8667     8961     9202     9136 
    8760     8219     7574     6945     6697     7055     7913     8995 
    9929    10479    10597    10356    10141    10235    10358    10241 
   10013     9760     9360     8852     8433     8025     7432     6769 
    6311     6272     6764     7689     8702     9408     9730     9897 
   10095    10292    10307    10080     9698     9216     8643     7973 
    7319     6938     6975     7379     7934     8295     8362     8343 
    8371     8482     8666     8773     8710     8597     8552     8585 
    8689     8863     9044     9117     9140     9332     9625     9763 
    9794     9894    10021    10078    10022     9808     9609     9726 
   10045    10207    10032     9423     8552     7915     7783     8029 
    8392     8696     8931     9104     9196     9190     9108     9180 
    9585    10015    10174    10255    10455    10678    10780    10739 
   10554    10137     9523     8942     8596     8469     8318     8063 
    7950     8130     8482     8899     9467    10186    10721    10763 
   10387     9888     9517     9307     9109     8946     8961     9094 
    9187     9229     9205     8998     8610     8196     7909     7776 
    7626     7425     7394     7563     7875     8383     8988     9543 
   10081    10611    11039    11282    11249    10972    10549     9865 
    8980     8273     7790     7376     7186     7223     7170     7013 
    7093     7602     8372     9199    10057    10805    11117    10775 
    9873     8800     7931     7409     7280     7492     7754     7878 
    8111     8669     9310     9720     9868     9804     9515     9030 
    8529     8284     8386     8679     9006     9287     9491     9604 
    9678     9861    10230    10659    10886    10690    10088     9297 
    8487     7716     7191     7235     7915     8930     9838    10401 
   10662    10725    10679    10586    10416     9998     9260     8452 
    7760     7062     6448     6219     6333     6619     7098     7746 
    8500     9236     9634     9506     9111     8872     8929     9134 
    9280     9205     8935     8638     8443     8334     8117     7696 
    7278     7166     7521     8221     8925     9343     9383     9236 
    9250     9552     9914     9998     9612     8846     8020     7438 
    7185     7122     7141     7410     8081     9031    10026    10831 
   11350    11612    11563    11153    10588    10087     9563     8907 
    8296     7929     7772     7813     8149     8676     9181     9537 
    9687     9707     9613     9286     8848     8597     8507     8367 
    8193     8084     8049     8178     8565     9153     9883    10546 
   10811    10686    10322     9742     8986     8064     7131     6591 
    6621     7056     7732     8534     9215     9558     9771    10214 
   10706    10848    10643    10196     9493     8580     7510     6412 
    5594     5227     5225     5590     6313     7156     7998     8761 
    9290     9729    10233    10677    10983    11106    10998    10694 
   10171     9482     8875     8549     8547     8767     9024     9176 
    9114     8980     9100     9440     9662     9539     9009     8215 
    7479     7010     6874     7155     7790     8518     9104     9362 
    9253     8960     8694     8519     8392     8431     8755     9068 
    9044     8743     8362     7998     7760     7823     8230     8765 
    9151     9357     9553     9678     9489     8978     8345     7755 
    7355     7322     7748     8502     9204     9524     9497     9357 
    9253     9163     8993     8734     8501     8512     8926     9548 
    9966     9951     9604     9245     9091     9057     8979     8852 
    8748     8697     8730     8894     9095     9276     9558     9929 
   10284    10564    10629    10456    10175     9811     9314     8677 
    7988     7484     7340     7540     7978     8589     9495    10706 
   11800    12314    12058    11177    10148     9364     8903     8638 
    8307     7793     7272     6968     6918     7009     7299     7961 
    8762     9304     9506     9386     9064     8817     8767     8831 
    8819     8618     8380     8289     8366     8538     8722     8880 
    8936     8760     8429     8152     7964     7921     8232     8791 
    9194     9306     9284     9290     9509     9996    10469    10694 
   10784    10836    10730    10349     9707     8913     8091     7374 
    6912     6727     6685     6713     6877     7275     7965     8761 
    9297     9454     9347     9157     9100     9188     9288     9321 
    9229     9029     8815     8699     8727     8822     8988     9295 
    9627     9824     9901    10003    10137    10048     9675     9276 
    8937     8538     8117     7869     7894     8092     8322     8512 
    8629     8655     8596     8601     8833     9162     9359     9430 
    9546     9827    10204    10457    10406    10145     9979    10163 
   10622    10863    10478     9642     8811     8282     8106     8236 
    8646     9148     9356     9182     8909     8701     8483     8285 
    8306     8604     9019     9430     9824    10127    10264    10314 
   10410    10615    10978    11442    11639    11185    10288     9570 
    9270     9210     9247     9237     9002     8590     8326     8446 
    8844     9324     9701     9824     9720     9382     8771     8074 
    7521     7180     7094     7282     7719     8389     9153     9805 
   10344    10967    11624    11892    11671    11346    11105    10858 
   10547    10086     9380     8575     7985     7675     7414     7120 
    7074     7497     8167     8715     8955     8903     8853     9066 
    9350     9397     9244     9073     8851     8386     7840     7687 
    7934     8204     8432     8748     9132     9469     9621     9415 
    8859     8269     7990     8100     8385     8603     8699     8628 
    8385     8095     7852     7722     7810     8154     8680     9221 
    9532     9489     9317     9259     9251     9099     8698     8312 
    8353     8719     9142     9724    10448    10937    10775     9801 
    8328     6908     5973     5766     6213     6925     7601     8161 
    8494     8438     8037     7672     7640     7834     8112     8488 
    8927     9263     9391     9515     9811    10176    10572    10980 
   11280    11363    11166    10782    10340     9844     9342     8858 
    8245     7411     6546     5976     5909     6338     7029     7733 
    8265     8492     8476     8280     7897     7516     7329     7188 
    7010     7046     7273     7447     7669     7974     8110     8176 
    8531     9080     9453     9608     9664     9594     9317     8902 
    8614     8610     8807     9188     9828    10576    11092    11081 
   10569    10001     9760     9854    10150    10497    10722    10850 
   11295    12380    13784    14886    15270    14785    13516    11723 
    9887     8554     7879     7610     7421     7148     6924     7075 
    7760     8683     9501    10231    10899    11426    11795    11874 
   11455    10528     9326     8255     7617     7317     7061     6828 
    6887     7410     8356     9459    10271    10556    10257     9294 
    7928     6689     5871     5457     5264     5085     4836     4648 
    4744     5320     6617     8677    11100    13486    15601    17114 
   17752    17377    15975    13852    11410     8911     6547     4367 
    2456     1073      379      498     1696     4198     7874    11962 
   15550    18118    19344    19126    17757    15673    13189    10454 
    7633     5092     3319     2682     3104     4036     4975     5785 
    6525     7252     7920     8431     8785     8954     8838     8645 
    8708     8808     8596     8288     8204     8259     8274     8212 
    8078     7899     7674     7406     7150     6791     6175     5557 
    5441     6054     7268     8621     9433     9446     8981     8593 
    8775     9444    10019    10080     9469     8289     6978     6026 
    5788     6231     6863     7161     6863     6238     5923     6261 
    7258     8630     9883    10591    10479     9645     8507     7614 
    7614     8769    10542    12026    12772    12898    12680    12575 
   13033    14019    15103    15809    15756    14949    13935    13282 
   13118    13334    13833    14387    14534    14034    13071    11953 
   10940    10136     9573     9217     8786     8081     7352     6941 
    6886     7186     7894     8763     9545    10418    11593    12903 
   13946    14406    14192    13594    13181    13151    13251    13095 
   12277    10727     8602     5956     3175     1027      -11       59 
    1034     2708     4791     6631     7652     7966     7904     7694 
    7489     7033     6040     4885     4130     3918     4135     4441 
    4282     3470     2534     2253     2962     4333     5750     7024 
    8498    10273    11924    12981    13185    12430    10948     9287 
    7810     6522     5162     3281      784    -1671    -3082    -2882 
   -1281     1154     3866     6263     7905     8773     9214     9727 
   10375    10699    10555    10080     9118     7617     5899     4113 
    2251      824      495     1274     2741     4449     6253     8402 
   11073    14221    17589    20706    23261    25241    26384    25948 
   23460    19297    14478    10136     6767     4285     2779     2331 
    2563     3156     4187     5727     7805    10394    13032    15186 
   16709    17628    18123    18481    18852    19137    18957    18081 
   16701    15164    13856    12800    11518     9769     7920     6696 
    6683     7886     9815    11885    13649    14746    15036    14606 
   13469    11903    10650    10115     9957     9945    10608    12381 
   14763    16980    18691    19605    19429    18368    16902    15197 
   13120    10690     8288     6211     4543     3517     3321     3754 
    4424     5257     6459     7763     8678     9596    11042    12523 
   13292    12884    11022     8228     5552     3399     1741      936 
    1359     2998     5561     8294    10396    11857    12884    13117 
   12228    10370     7740     4553     1378     -873    -1486     -720 
     529     1907     3710     6067     8595    10673    12119    13555 
   15405    17092    18005    18104    17515    16264    14226    11680 
    9311     7187     4963     2681      806     -126     -230      -79 
     356     1465     3206     5463     8313    11365    13682    14579 
   14141    13140    12306    11722    11176    10775    10702    10675 
   10312     9657     8843     7886     7063     6826     7244     8076 
    9233    10434    10985    10782    10381    10265    10872    12066 
   13214    14095    14533    14340    13626    12375    10587     8269 
    5213     1828     -630    -1399     -827      502     2281     4156 
    5795     7196     8371     9217     9863    10353    10614    11093 
   12190    13545    14785    15974    17060    17771    18065    17989 
   17237    15624    13619    11864    10507     9147     7400     5232 
    2560     -607    -3542    -5077    -4626    -2778     -404     2305 
    5193     7930    10621    13342    15568    16678    16532    15232 
   12826     9661     6432     3690     1611      253     -271      -20 
     762     1795     2711     3195     3190     2960     2991     3523 
    4365     5412     6711     8215     9857    11319    11976    11498 
   10238     8871     7621     6286     4885     3653     2656     1885 
    1829     3229     5830     8313     9707    10048     9731     8954 
    7893     7025     6956     7638     8035     7235     5503     3750 
    2714     2947     4737     7731    10973    13428    14509    14461 
   14053    13508    12176     9645     6722     4723     4285     5355 
    7449     9708    11386    12311    12914    13727    14715    15220 
   14711    13313    11371     9298     7731     6939     6541     5976 
    4996     4037     3750     4311     5789     8127    10561    12197 
   12778    12337    10907     8785     6484     4233     1893     -371 
   -1780    -1518      672     4297     8399    11981    14305    15354 
   15732    15991    16398    16921    17183    16621    14959    12365 
    9125     5909     3533     2081     1254      750      335      191 
     664     2092     4592     7621    10545    12993    14557    15092 
   14687    13426    11780    10208     8628     6940     5115     3113 
    1453      918     1722     3548     5955     8602    11108    12952 
   13765    13423    12045    10135     8335     6783     5157     3425 
    1838      811     1078     2658     4591     6516     8782    11050 
   12635    13666    14531    14999    14716    13690    11931     9302 
    6189     3701     2579     2662     3572     5046     6967     9217 
   11258    12582    13437    14474    15842    16822    16663    15508 
   13758    11502     9179     7472     6416     5426     4024     2540 
    1779     1915     2662     4068     6280     9155    12303    15228 
   17390    18154    17431    15835    13624    10777     7779     5414 
    3999     3360     3481     3990     4156     4390     5489     7154 
    9072    11457    13924    15644    16246    15743    14086    11164 
    7347     3647      856    -1005    -2056    -2210    -1530     -209 
    1562     3541     5533     7323     8806    10335    11929    12651 
   12079    11220    11035    11387    11921    12607    13098    12741 
   11227     8710     5687     3191     2575     4169     6839     9052 
    9785     9376     9106     9409     9921    10506    10911    10631 
    9930     9580     9333     8519     7366     6503     6472     7298 
    8310     9274    10516    11926    12898    13029    12472    11631 
   10874    10274     9471     8346     7359     6928     7012     7173 
    7127     7153     7549     8204     8987     9941    11010    12062 
   12870    12983    12309    11344    10466     9835     9649     9891 
   10149     9968     9437     9125     9198     9211     8953     8654 
    8287     7602     6846     6619     7089     7979     9150    10648 
   12247    13475    13973    13468    11970     9960     8050     6864 
    6713     7104     7341     7315     7242     7302     7742     8773 
   10246    11526    12084    12149    12190    12210    12106    11789 
   10888     9417     8053     7177     6692     6659     7262     8324 
    9519    10922    12576    13994    14646    14450    13717    12769 
   11787    10815     9661     8187     6478     4774     3681     3748 
    4754     6130     7593     9168    10871    12248    12871    12881 
   12374    11473    10782    10830    11588    12495    12888    12572 
   11833    10949    10152     9970    10485    10724     9952     8433 
    6635     4894     3802     3960     5102     6225     6744     6734 
    6411     6206     6497     7045     7580     8145     8759     9476 
   10101    10291    10270    10182     9674     8875     8145     7389 
    6709     6547     6967     7495     7642     7607     8098     9090 
    9617     9114     8030     7102     6809     7164     7763     8258 
