Origin Time       2016/04/16 01:25:00
Lat.              32.753
Long.             130.762
Depth. (km)       12
Mag.              7.3
Station Code      NGS009
Station Lat.      32.8456
Station Long.     130.0218
Station Height(m) 23
Record Time       2016/04/16 01:25:18
Sampling Freq(Hz) 100Hz
Duration Time(s)  234
Dir.              N-S
Scale Factor      3920(gal)/6182761
Max. Acc. (gal)   95.598
Last Correction   2016/04/16 01:25:18
Memo.             
[...]
   -9451    -9453    -9453    -9451    -9451    -9452    -9453    -9453 
   -9452    -9451    -9451    -9449    -9448    -9446    -9446    -9449 
   -9450    -9449    -9451    -9451    -9451    -9452    -9451    -9450 
   -9450    -9448    -9448    -9453    -9452    -9448    -9447    -9445 
   -9442    -9442    -9444    -9444    -9442    -9442    -9441    -9438 
   -9439    -9442    -9442    -9439    -9438    -9438    -9435    -9433 
   -9432    -9423    -9405    -9392    -9391    -9405    -9434    -9463 
   -9467    -9433    -9371    -9322    -9335    -9431    -9581    -9702 
   -9717    -9633    -9510    -9417    -9442    -9640    -9950   -10199 
  -10251   -10109    -9870    -9648    -9530    -9503    -9479    -9329 
   -8996    -8694    -8735    -9119    -9568    -9782    -9560    -8928 
   -8252    -8048    -8422    -8876    -8958    -8691    -8318    -8185 
   -8740   -10060   -11511   -12275   -12117   -11363   -10389    -9453 
   -9017    -9516   -10373   -10360    -9284    -7930    -6836    -6318 
   -6763    -8159    -9882   -11151   -11696   -11738   -11507   -11215 
  -10734    -9479    -7762    -6938    -7420    -8428    -9647   -10809 
  -10512    -8446    -6982    -7570    -8832    -9715   -10636   -11710 
  -12221   -11399    -9571    -8004    -7427    -7761    -8558    -9315 
  -10078   -10986   -11443   -11200   -11030   -11021   -10235    -8703 
   -7638    -7545    -7618    -7360    -7526    -8638   -10021   -10945 
  -11319   -11040    -9740    -7726    -6422    -6982    -8897   -10622 
  -11429   -11609   -11002    -9598    -8706    -9037    -9884   -10828 
  -11477   -11300   -10951   -11041   -10836   -10013    -9151    -8234 
   -7214    -6910    -7690    -8853    -9656    -9797    -9489    -9349 
   -9579    -9797    -9911   -10090    -9977    -9359    -9073    -9721 
  -10440   -10360    -9940    -9836    -9941   -10052   -10130    -9913 
   -9464    -9523   -10195   -10537    -9927    -8505    -6940    -6293 
   -6837    -7454    -7242    -6777    -7033    -7983    -8933    -9880 
  -11403   -12882   -13226   -13185   -13634   -13787   -13274   -12226 
  -10040    -7429    -6318    -6666    -7461    -8913   -10563   -10679 
   -8820    -6478    -5353    -5708    -6584    -7846   -10125   -12389 
  -12766   -11695   -10538    -8539    -5789    -5717    -9445   -13108 
  -14232   -14392   -15017   -15336   -14078   -11522    -8777    -5832 
   -3318    -3551    -6616    -9547   -10449    -9883    -9181    -8735 
   -7672    -6054    -5727    -7786   -10643   -11756   -11382   -11405 
  -11412   -11164   -11919   -12143    -9841    -6978    -5340    -4247 
   -4239    -6681   -10429   -12628   -11912    -9383    -7362    -7819 
  -10541   -12980   -13350   -12303   -11182   -10962   -11615   -11896 
  -12055   -13292   -13174    -9402    -6440    -8454   -11380   -10517 
   -7714    -6380    -6634    -6993    -7272    -7876    -7554    -5861 
   -5187    -6230    -6891    -6887    -7661    -9620   -12542   -15400 
  -16423   -15648   -14197   -11897    -9026    -7030    -6533    -7433 
   -9498   -11614   -12046   -10748    -9573    -8297    -5098    -1942 
   -2666    -6365    -8598    -8162    -8237   -10948   -14163   -14501 
  -12677   -12729   -14351   -12870    -8045    -4469    -4153    -5867 
   -9408   -14229   -16697   -14263    -9141    -5025    -3444    -3522 
   -4025    -5319    -7752   -11132   -16073   -20982   -21990   -18927 
  -15117   -12004    -8997    -6681    -7024   -10395   -14049   -15239 
  -13615    -9525    -4270    -1080    -1208    -2137    -2404    -4175 
   -8868   -13220   -13731   -12403   -12365   -12713   -12130   -11326 
  -10703    -9775    -8672    -8392    -9214   -10718   -13021   -15355 
  -15631   -13274    -9752    -6204    -2735      -88     -208    -3277 
   -6491    -8469   -10393   -12393   -14410   -17092   -18240   -14529 
   -7528    -2526    -2214    -5171    -9046   -12204   -14515   -17694 
  -20522   -17954   -10906    -6746    -7170    -8337    -9117    -9012 
   -6884    -5082    -6246    -9264   -11609   -11448    -9238    -7342 
   -6225    -5241    -5592    -7459    -8766    -9869   -13478   -18191 
  -19309   -16507   -11717    -4470     2231     3136     -796    -6571 
  -12820   -15684   -13292    -9233    -6233    -5480    -8590   -13854 
  -17824   -19909   -19868   -16369   -10359    -5530    -4300    -5190 
   -6602    -9415   -13364   -16518   -17065   -14033    -9269    -4488 
     909     3450    -2999   -14968   -20266   -15124    -8178    -4050 
    1333     7087     6010    -3218   -14743   -23787   -29478   -30958 
  -25650   -14667    -3837     3677     7736     7202     2256    -5434 
  -14459   -20898   -20088   -13406    -7514    -6201    -7047    -7510 
   -9561   -14988   -20202   -20273   -16775   -15422   -16292   -14552 
   -9408    -4829    -2961    -1727      441     1319    -1180    -6023 
  -11354   -15542   -17141   -16498   -14971   -12585    -9218    -6503 
   -6295    -7661    -6992    -3720    -2976    -7675   -13141   -13809 
  -10639    -9388   -11661   -12279   -10499   -13101   -19753   -20685 
  -13238    -5790    -4429    -6891    -9266   -11186   -12618   -11311 
   -7823    -6518    -7493    -6116    -1653     1639      514    -3619 
   -6800    -8746   -12736   -18262   -20660   -18716   -16765   -17298 
  -17076   -14375   -12879   -14853   -17294   -16194   -11240    -6186 
   -3958    -2517      154      453    -4504   -10384   -12115   -10401 
   -8511    -8651   -10950   -13246   -14217   -14666   -14929   -14684 
  -13399   -10781    -8597    -8262    -7787    -5217    -1510     2089 
    5066     5598     2113    -4221   -11459   -17182   -17903   -14740 
  -13574   -14927   -15111   -15439   -16813   -15839   -13064   -10181 
   -5238      595     4572     7247     7577     3624    -1856    -5520 
   -8787   -13759   -18710   -20520   -18129   -13562   -11027   -12662 
  -16601   -20951   -24730   -25413   -21161   -14077    -8248    -5136 
   -2548      761     2163     -407    -4630    -6980    -6090    -3516 
   -3288    -6463    -9256   -10297   -10896   -10136    -8383    -8628 
  -12219   -18446   -23988   -23730   -17091    -8557    -1186     4381 
    6640     4391     -398    -3938    -5418    -8688   -15059   -18681 
  -15977   -11661    -9692    -8614    -8053   -10635   -17234   -24517 
  -27437   -24142   -16645    -7144     1877     5926     2018    -7123 
  -14864   -16501   -12585    -7085    -2978     -206      320    -3449 
   -7883    -8791    -9866   -13795   -16924   -17879   -18795   -19607 
  -18374   -15075   -11766    -8783    -4727     -679     1081      764 
    -814    -3947    -8608   -13822   -17622   -18725   -18063   -15623 
  -10876    -7871    -9728   -11701   -10258    -8844    -9062    -8282 
   -5952    -5242    -9011   -14664   -16759   -15097   -12923   -10887 
   -8393    -4927     -587     1550    -1600    -8184   -13071   -13620 
  -11867   -10117    -7515    -3281      326       73    -4929   -12253 
  -18797   -23060   -23402   -18805   -12346    -7849    -5676    -5654 
   -7985   -10835   -12301   -13326   -15347   -15695   -10868    -3829 
     565     1945     -365    -7145   -13750   -15601   -14813   -15480 
  -17859   -19692   -18896   -15177   -11232    -9244    -7909    -6866 
   -8080   -10703   -11881   -11303    -9450    -5650    -1074      760 
    -996    -2324     -704     -364    -6206   -15054   -18973   -16330 
  -12635   -10919    -9045    -5139      155     3980     3278    -1397 
   -6847   -10428   -10700    -8263    -5995    -6505    -9681   -14213 
  -19274   -22757   -22387   -18062   -10576    -2434     2445     3626 
    2798     -871    -6388    -8872    -8002    -8301   -10025   -10467 
  -10353   -11165   -12050   -13273   -16968   -23026   -28537   -31195 
  -29882   -23633   -14477    -8232    -7479    -8249    -7459    -6892 
   -7133    -5702    -2589     -176      661     -579    -4552    -9980 
  -14323   -16507   -17910   -18252   -14074    -6952    -4554    -8829 
  -13308   -12792    -8289    -3417      -95      821    -2025    -7171 
  -10568   -11817   -11941    -8991    -4886    -5520    -9412   -10357 
   -9194    -9881   -10695    -8393    -4001     -835     -555    -2140 
   -4496    -7338    -9296    -9659    -9957    -9956    -6408     1087 
    7811     9680     6275    -1761   -12220   -20469   -24555   -26337 
  -26167   -23197   -18327   -13745   -12747   -15888   -17365   -12783 
   -4965     2573     7690     6768      199    -6406   -11469   -17926 
  -24797   -27982   -26858   -23562   -19957   -17501   -16382   -16279 
  -17238   -17078   -12687    -4271     5588    13736    17004    14866 
    9084      358   -10716   -21105   -26899   -26524   -21435   -14413 
   -8544    -6984   -10562   -16513   -21990   -25371   -24253   -17984 
  -10157    -3711     2201     7348     9388     8293     5334     1275 
   -2187    -4218    -5901    -7182    -7321    -8074   -11733   -16777 
  -18357   -13306    -3539     6863    15259    19851    19915    17419 
   15148    13162    10386     8125     6615     2723    -4362   -11748 
  -17207   -20441   -23578   -28913   -33699   -34350   -32193   -27668 
  -18978    -8898    -2467     -689    -1749    -4136    -7192   -10750 
  -14458   -17880   -20367   -20064   -15566    -8168       11     7859 
   14705    19787    21422    18549    13527     9262     5073    -1007 
   -8331   -14904   -20986   -26935   -29667   -27604   -23137   -16892 
   -8635    -1547     1741     2524     1563    -3998   -15613   -28988 
  -38461   -42644   -43305   -40847   -34542   -27001   -21830   -17833 
  -12945    -8895    -7044    -6925    -8823   -11875   -13559   -13051 
  -10368    -4704     2582     7833     9007     6392     1568    -3464 
   -7488    -9582   -10314   -13441   -19781   -22792   -18343   -11178 
   -5622     -435     5043     8420     7926     3825    -3467   -12287 
  -18767   -22595   -28278   -37171   -45183   -47866   -44089   -37124 
  -31656   -28863   -27069   -25976   -26274   -25944   -21325   -12340 
   -1849    10185    24700    37580    44074    44919    42419    36777 
   28338    17950     6385    -3911    -9849   -10918    -9721   -10062 
  -13767   -19870   -27444   -35506   -41310   -42512   -39250   -33491 
  -27151   -21036   -16215   -13287    -9283     -442    11833    22751 
   30278    35546    39725    42673    43233    40515    33870    23064 
   10802       14   -10771   -23214   -35387   -44377   -48133   -47316 
  -45094   -41706   -34595   -25564   -19730   -18001   -17662   -17066 
  -15411   -13012   -12353   -14193   -16177   -18067   -22821   -30996 
  -38435   -41431   -42579   -47606   -56100   -61819   -62452   -60862 
  -56424   -44158   -23972    -1140    22719    47426    66402    73453 
   71798    67501    61836    55874    53147    54443    57427    60628 
   63618    64052    56743    39482    17196    -4184   -22265   -35259 
  -41073   -39390   -32978   -27113   -25557   -27878   -32063   -35794 
  -35523   -29671   -20514   -10536     -965     6311     8941     6721 
    2013    -3736   -11418   -20964   -29468   -33838   -34160   -33157 
  -32643   -32472   -31751   -29428   -24398   -15311    -2242    12103 
   24806    33590    37107    36820    34332    29246    22600    15321 
    4820    -9305   -23109   -35658   -49144   -62910   -74034   -80562 
  -82882   -83129   -81969   -78709   -74717   -71172   -64908   -51538 
  -29822     -775    32351    62920    84660    95897    99792   101924 
  105122   108049   109339   107627   101385    91434    78281    60937 
   39100    12225   -19215   -52311   -83784  -109825  -126780  -134895 
 -137917  -138204  -134908  -127624  -117450  -103142   -83669   -64056 
  -50944   -45845   -46329   -49366   -52128   -51406   -44623   -32087 
  -16279      517    16322    28615    35740    38834    40288    40330 
   37429    31889    25197    17227     8226      -36    -6727   -11808 
  -14413   -14183   -12394    -9971    -7488    -6695    -7459    -5801 
    1093    10524    17823    22044    24649    26521    29891    36618 
   44579    52117    61010    71237    79652    85860    92521    99256 
  103174   103996   103027    98387    84765    59112    23776   -17416 
  -60798   -99790  -126694  -138820  -139410  -133529  -124832  -113559 
  -98975   -84314   -74192   -69645   -67883   -64829   -59991   -56352 
  -55326   -56733   -60527   -65760   -69873   -69015   -60606   -46274 
  -29031    -9873     9885    28048    44119    58403    69664    75716 
   75478    69364    57985    42759    28399    20432    19143    20697 
   22703    24114    23229    19924    16799    15700    15376    13141 
    7059    -3078   -15107   -25207   -31222   -33778   -33470   -31716 
  -33008   -40600   -52324   -62948   -68351   -67519   -62599   -58488 
  -60007   -67229   -76094   -83153   -87729   -89751   -87239   -79675 
  -70282   -60072   -45034   -21776     7694    36819    58487    68745 
   67554    57513    42970    27182     9593    -9884   -27485   -41645 
  -56328   -73788   -90599  -103885  -114089  -121078  -124020  -122489 
 -115187   -99736   -71773   -27466    28568    83073   122443   138917 
  134448   119358   103806    92398    84912    79452    78115    84347 
   93321    95885    87547    67629    39485    10259   -16872   -43954 
  -70660   -94284  -113500  -126450  -131106  -126854  -113497   -92507 
  -67513   -41866   -17018     7074    29364    46791    57858    63862 
   65530    62397    54180    39841    18412    -9171   -41448   -76024 
 -108592  -136078  -155385  -160241  -146167  -113946   -67552   -15461 
   31342    67726    94113   109783   115584   116684   112746    98835 
   78617    54552    21905   -13296   -43414   -71340   -92749  -101405 
 -102768  -100352   -91219   -73953   -50698   -26916    -7217     7156 
   16273    21449    26659    35578    46050    53329    54875    49664 
   38275    21613     3006   -11213   -18521   -20531   -19217   -15737 
  -10124    -3184     3830    10352    14671    14468     8870    -2084 
  -17394   -34406   -51015   -66194   -75964   -75656   -67444   -57642 
  -50005   -46057   -45419   -44543   -38624   -26517   -12738    -1142 
    9553    20051    27111    28540    25102    17430     6681    -3595 
   -9610    -9630    -4811     2047     8824    13659    14924    12742 
    8242     2827    -1233    -2516    -2546    -3699    -5828    -7130 
   -7465    -8190    -9955   -12733   -15343   -15612   -12662    -6560 
    1498     7493     7926     2581    -7690   -20674   -32344   -40724 
  -45877   -45416   -36437   -21637    -7602     2080     7241     7953 
    6624     7650    10804    12426    12830    15201    19708    23214 
   22660    16648     5321   -10147   -27269   -41027   -46507   -43410 
  -34729   -22925   -10789    -4212    -7753   -16776   -21981   -21456 
  -20167   -19960   -17467   -10182      360    10449    16426    14956 
    3779   -15573   -38280   -59237   -73985   -81184   -82618   -78621 
  -69355   -57261   -43350   -26439    -7561     9610    22797    31034 
   32996    29485    23154    15544     6628    -5025   -19373   -32696 
  -42591   -50526   -56069   -54807   -44352   -27568    -9380     5484 
   13161    13111     9322     7478     9339    11356    10558     7083 
    1988    -2656    -4377    -2759      245     3082     5717     7242 
    7025     6903     7499     6559     2884    -3051   -10782   -17826 
  -20408   -19429   -20415   -26311   -34986   -43282   -49286   -50775 
  -44973   -31962   -17027    -6767    -2553     -534     1726     3191 
    3364     2273    -1033    -6250   -12589   -20076   -26973   -30455 
  -29663   -26335   -24785   -28790   -36277   -41647   -42867   -40884 
  -35368   -26296   -16814   -11592   -13218   -20089   -26869   -28002 
  -22486   -13828    -4539     5317    13971    18549    19421    18979 
   17901    15800    13236     9708     2507    -8775   -20373   -28723 
  -33225   -35667   -38316   -40502   -39152   -34159   -28017   -20318 
   -8725     5460    16955    21502    19101    13201     8359     7067 
    7513     5453     -622    -8034   -15052   -23562   -35466   -50085 
  -64307   -73629   -74698   -67472   -54753   -39651   -24315   -10708 
     360     9732    17335    21587    22428    22613    23804    23520 
   18517     8371    -4345   -15113   -20654   -21107   -17452    -9841 
     275    10104    18386    25850    31952    33488    28100    16199 
     201   -14948   -24767   -30099   -35212   -42410   -49998   -54352 
  -54304   -51837   -47453   -39738   -30186   -23064   -20529   -20913 
  -20830   -16979    -7822     4949    18077    28554    34475    36242 
   33915    25132    10021    -6044   -17823   -24648   -28145   -29159 
  -28352   -26663   -24135   -20523   -16774   -14175   -12838   -11770 
   -9298    -3689     5279    15691    25069    31831    34841    32424 
   23048     7420   -11040   -28225   -41020   -47770   -49086   -47418 
  -44628   -41144   -36354   -28980   -19132    -8622     1760    12793 
   24617    35821    44374    48411    47258    41813    33324    23136 
   12193      -12   -13982   -28203   -39003   -43203   -40890   -34198 
  -26149   -20646   -19430   -20052   -18856   -14433    -7739    -1324 
    1761      863    -2038    -5618   -10128   -15818   -22233   -28515 
  -33936   -38521   -43278   -48854   -53621   -54565   -50599   -43043 
  -33086   -21596   -10305     -968     5342     7715     5296    -1732 
  -11079   -18694   -20857   -16235    -6131     6034    15987    20852 
   20185    15919    11794    10391    10395     8925     5157     -354 
   -6591   -11361   -13298   -13860   -15539   -19211   -23595   -27054 
  -28773   -27569   -22360   -14922    -9338    -7316    -6047    -2143 
    4476    11900    18888    24719    27639    26234    22244    18407 
   14868    10903     7001     3807     1724      296    -3021   -10326 
  -19734   -26889   -28771   -25004   -17073    -7805    -1359    -1213 
   -7722   -19003   -32750   -45950   -54685   -56497   -52193   -43668 
  -32686   -22063   -13849    -8173    -5127    -3380      677     8397 
   16783    21152    18204     8698    -3111   -12669   -16326   -12546 
   -3823     5450    12994    18177    20299    20270    20208    20162 
   19073    16915    12859     5987    -1496    -7495   -14252   -24348 
  -36069   -45311   -49148   -47626   -43954   -42247   -43717   -45986 
  -46783   -45377   -40322   -30093   -16147    -2367     8613    15683 
   17190    13761    10081     8878     8468     7578     6803     6691 
    7446     8601     8402     5444      810    -3332    -6422    -8924 
  -11017   -13183   -16221   -19861   -22235   -21455   -17658   -12730 
   -7834    -2255     4206     9407    11619    11831    11938    12862 
   14163    14231    11744     6859      541    -6984   -16440   -27256 
  -36501   -41441   -41348   -36375   -27202   -15924    -5585      866 
    1498    -2991    -8870   -12383   -13388   -14008   -14494   -13594 
  -11193    -8147    -5445    -3704    -2428     -820     1126     3318 
    5823     7608     6951     4015     1010     -247      807     3927 
    7807    10131     9410     6711     4011     1262    -2707    -6773 
   -8250    -7054    -5754    -6227    -8802   -13075   -17965   -22116 
  -24536   -24724   -22771   -19552   -16573   -14595   -12538    -9063 
   -4019     3058    13427    25902    35624    37735    30438    15441 
