Origin Time       2016/04/16 01:25:00
Lat.              32.753
Long.             130.762
Depth. (km)       12
Mag.              7.3
Station Code      NGS006
Station Lat.      32.9327
Station Long.     129.6428
Station Height(m) 24
Record Time       2016/04/16 01:25:25
Sampling Freq(Hz) 100Hz
Duration Time(s)  102
Dir.              N-S
Scale Factor      3920(gal)/6182761
Max. Acc. (gal)   20.924
Last Correction   2016/04/16 01:25:25
Memo.             
[...]
   -2912    -3075    -4701    -6971    -7010    -4693    -2539    -1685 
   -1944    -3140    -4141    -3881    -3117    -2594    -2117    -2168 
   -2937    -3318    -2876    -2214    -1806    -2023    -2670    -2799 
   -2330    -2256    -2600    -2563    -2663    -3890    -5728    -6822 
   -6043    -3428    -1180    -1453    -3270    -4236    -4128    -4041 
   -3357    -1006     1421     1023    -2776    -6665    -6373    -2754 
    -638    -1100    -1724    -1990    -2606    -3470    -4466    -5237 
   -4959    -3694    -2431    -1897    -2235    -3084    -3552    -2681 
    -567     1325     1482     -518    -3589    -4945    -2517     1498 
    2379    -1339    -6527    -9597    -9092    -5500    -1611     -705 
   -2945    -6251    -8577    -7330    -1326     5405     6584     1379 
   -4873    -7159    -4559     -184     1313     -828    -3175    -3987 
   -4239    -4529    -5071    -6279    -7372    -6332    -2701      863 
    1349    -1014    -3122    -2498      566     3442     2937    -1465 
   -6221    -7576    -5341    -1866      186    -1529    -7024   -11718 
  -10324    -3652     1887     1523    -3213    -6841    -5508     -244 
    4572     5971     4236      699    -2780    -4395    -4886    -5739 
   -6009    -5089    -4794    -5031    -3571    -2448    -5220    -8518 
   -6890    -1335     3810     5510     2391    -4054    -9577   -10050 
   -4483     3279     6236      611    -8904   -13717   -10226    -1724 
    4939     4658    -1001    -6331    -7658    -4718      316     3818 
    2829    -2906    -9655   -11362    -5590     2556     5215      802 
   -5243    -8141    -6857    -2336     2035     2104    -2391    -7517 
   -8337    -2775     4673     6330      724    -5983    -8441    -6517 
   -2614     -231    -2033    -6270    -8887    -8563    -6472    -3592 
    -833      188    -1436    -3888    -3460      543     3703     2915 
     322    -1433    -1736    -1282    -1997    -4158    -5320    -4244 
   -2275     -980    -1595    -4406    -6354    -4120       76     1638 
     -22    -2846    -5476    -6212    -3145     1978     3868      297 
   -4377    -4469       88     4198     3773    -1411    -8337   -11182 
   -6328     1494     3587    -2362    -9942   -11676    -6471      892 
    4962     3479    -1928    -7597    -9662    -5410     2723     6191 
     545    -7208    -8539    -3507     2774     5094      527    -7879 
  -13027   -10693    -2806     3924     3510    -3008    -9051   -10111 
   -6702    -1067     4222     5011     -759    -8458   -11459    -8465 
   -2955     1093     1321    -1874    -4988    -4714    -2698    -3420 
   -7083    -9322    -7314    -3429    -1964    -2322    -1233     -705 
   -3643    -5822    -2141     4304     6031      456    -7892   -12150 
   -9354    -2702     2541     3151    -1218    -7378   -10926   -10447 
   -6602     -303     4891     3717    -3527    -9505    -8575    -2590 
    2410     2232    -2298    -7708   -11375   -11265    -6196     2117 
    8703     7613    -1691   -10886   -10954    -1517     9161    10949 
    1686   -10161   -15085   -10934    -2343     3801     3241    -2930 
   -9408   -10884    -6380       92     2671    -1224    -7223    -8179 
   -2728     3894     5771      786    -7007   -10492    -7512    -1428 
    4244     6015     1115    -7365   -12157    -9881    -3076     3631 
    6580     4400    -1959    -8899   -10894    -6038      489     2528 
    -211    -3772    -5570    -6308    -7111    -7078    -5343    -3133 
   -1062     1771     3968     2922     -911    -5198    -7050    -4077 
    1064     2434    -1352    -6581    -9858    -9978    -6989    -2610 
     246      348    -1073    -2386    -2834    -2696    -2616    -1808 
    1371     5856     7738     4731    -1810    -9007   -13992   -14296 
   -9257    -1945     1541    -1933    -8348   -11509    -8564     -506 
    7406     8931     3882    -2373    -5279    -3887     -604     1071 
     139    -2112    -4847    -6912    -5531      154     5706     5675 
     332    -5488    -7950    -6003    -1196     2668     2287    -2267 
   -7934   -11784   -13209   -11547    -5710      838     2290    -1449 
   -5054    -4226      -98     2425     1330     -769    -1570    -1593 
   -2089    -2845    -3366    -4722    -6679    -6120    -2463       37 
   -1439    -4727    -6936    -7395    -6201    -3889    -1729     -519 
    -540    -1432    -1303      756     2609     2723     2011      426 
   -2896    -6145    -6587    -4507    -2280    -1628    -2920    -4914 
   -5338    -3456     -831     1021     1337      -33    -1873    -3302 
   -4523    -4718    -3580    -3219    -4502    -5432    -5098    -4690 
   -4707    -4279    -2561     -193     1125      695     -964    -2717 
   -3409    -3334    -3469    -3830    -3957    -3688    -4063    -6080 
   -7459    -5598    -2382     -454      957     2529     2015    -1689 
   -5089    -4299     -167     3112     2523     -932    -3741    -4298 
   -3259     -493     3305     4152      183    -4678    -7768   -10564 
  -12119    -9472    -4233     -988    -1102    -2405    -2791    -1955 
    -740      359     1387     1540      -59    -2099    -2864    -3306 
   -5027    -6816    -6415    -4654    -3877    -3460    -1987    -1197 
   -2836    -5535    -7330    -7239    -4695     -971      562    -1912 
   -6397    -8818    -6529    -1452     2037     2784     2245       64 
   -4344    -7872    -6389     -551     4816     5953     2524    -2660 
   -5713    -5094    -2564    -1395    -2861    -4496    -4926    -6299 
   -8274    -6718     -404     5852     5649    -1051    -6911    -6601 
   -1723     3378     4799     1104    -4829    -8412    -7847    -4661 
    -505     3231     3626     -529    -6109    -9143    -7577    -2709 
     283    -2068    -6580    -7875    -4914     -963      988     1213 
    1658     2604     2302      224    -1411    -1525    -2387    -5063 
   -7017    -6171    -3630    -1895    -1896    -2563    -2958    -2487 
    -702      417    -2133    -7005    -9604    -8472    -5614    -2985 
   -2139    -3525    -5554    -6828    -7105    -6218    -4132    -1328 
     795      598    -1554    -2886    -1318     1281     1348     -852 
   -2428    -2823    -2729    -2168    -2175    -3990    -6872    -8650 
   -7339    -2992     2122     5564     5258      388    -5720    -7699 
   -4996    -2286    -2602    -4619    -6607    -8460    -9733    -8781 
   -4712      212     2147      320    -2772    -4574    -3526     -395 
    1236     -560    -3262    -3675    -1534     1105     2158     1162 
   -1446    -5287    -7806    -5304      453     3331     1315    -2982 
   -7141    -9268    -7390    -2080     2270     2579      990      -89 
   -1260    -2885    -3839    -2946    -1280    -2159    -5439    -6538 
   -4131    -1936    -2196    -3390    -3570    -1963     1225     3817 
    2803    -1532    -5171    -4666     -583     2733     1941    -1098 
   -3106    -3793    -3195     -694     1919     2047      -58    -2516 
   -4148    -4077    -2043     -286    -1644    -4938    -6067    -3487 
     160     1368     -154    -1778    -1975    -1337     -902    -1742 
   -4011    -5951    -6214    -5383    -3397       35     1966     -723 
   -5354    -5608      334     6511     5824    -1334    -8124    -9829 
   -7271    -2641     2172     3435     -927    -6629    -8345    -5900 
   -1711     1177     -491    -5671    -9250    -8013    -2765     2229 
    2136    -2775    -7356    -7982    -5112     -643     2984     2270 
   -3384    -8339    -6471      572     4863     1451    -6583   -11194 
   -7427      640     5066     2807    -4148   -11425   -13954   -10385 
   -4546     -926    -1254    -4829    -8778    -8513    -2571     3644 
    3959     -572    -3965    -3062      -44      870    -2374    -7876 
  -11352    -9756    -4059     1340     2635     -361    -4937    -7400 
   -5790    -2010      791     1431      134    -2087    -3752    -4209 
   -3840    -3418    -3505    -4289    -5386    -5583    -4818    -4270 
   -2797     1066     4304     2900    -2358    -7236    -8504    -5767 
   -1414      901     -971    -5879    -9441    -7473    -1231     3814 
    4557     2271     -245     -995      316     1858     1268    -1396 
   -4318    -6304    -7000    -7166    -6950    -4407     -146     1870 
     830     -745    -1791    -2342    -1910     -903     -744    -1762 
   -3346    -4939    -4815    -1891      818     -414    -4886    -8855 
   -9707    -6906    -1270     4155     5774     3551      122    -2600 
   -3582    -2385     -420     -168    -2383    -5412    -6462    -3859 
     168     1474     -359    -1914    -1103      838     2203     2477 
    1142    -1860    -4944    -6309    -5694    -4452    -4506    -6395 
   -8509    -8855    -6571    -2529      219    -1240    -5256    -6052 
   -1394     3317     2488    -2808    -8033    -9887    -8011    -5003 
   -3201    -2684    -3122    -4256    -4807    -3100      812     4174 
    3816     -837    -6605    -8610    -5821    -2332    -1685    -4002 
   -7778   -10859   -11147    -8038    -3274      -55      -94    -1801 
   -2271     -636     1113     1270      589     -563    -3217    -6751 
   -8813    -7610    -3421      795     1985       62    -2861    -4455 
   -3515    -1216     -365    -2120    -4537    -5603    -5674    -5530 
   -5158    -5321    -6282    -6331    -5120    -4115    -3235    -1872 
    -218     1914     3765     3995     3266     2040     -772    -4367 
   -5574    -2310     2722     3197    -2269    -7966   -10036    -8867 
   -4993     -541     1047     -166    -1776    -3692    -6501    -8114 
   -7148    -5896    -5904    -5457    -3239     -215     1043    -1731 
   -6194    -6725    -2553     1212     1313     -672    -2972    -5359 
   -6552    -5476    -3474    -1905    -1115    -1701    -2786    -2069 
    -174     -251    -2853    -5668    -7116    -7004    -5226    -2306 
     122     1532     3604     7569    11580    11487     5255    -3551 
   -9497   -11536   -11685   -10066    -6625    -4299    -4619    -4223 
    -493     4408     7286     5837    -1258   -10765   -16129   -14463 
   -8085    -1467     1155     -910    -4305    -5646    -3297     2485 
    7710     6581    -1267    -8341    -7824    -1401     5108     8926 
    9717     7374     3199     -220    -1184      317     2911     4545 
    3520     -316    -4329    -5126    -2737     -179      221    -1325 
   -2279     -858     1420     3244     5781     7751     5092    -1187 
   -4764    -2797     1772     4938     4335     1007     -753     1026 
    3664     4259     2118    -1892    -5429    -5817    -3189    -1358 
   -3205    -6870    -8808    -7732    -4314     -501      575    -2543 
   -7294   -10042    -9896    -8476    -7405    -6924    -7141    -9113 
  -12902   -16063   -16001   -12947    -8528    -2432     5448    11137 
   10706     6105     1646    -1562    -4001    -5801    -8162   -11875 
  -15595   -17796   -17631   -14452    -8394    -1026     4184     3914 
    -639    -4607    -5384    -4986    -6956   -11924   -16899   -18697 
  -16296   -11195    -6608    -5137    -6845    -8896    -8178    -4704 
    -312     2929     2285    -2117    -5354    -3152     3027     7207 
    5709     1582     -465      714     4434     8858    10652     8594 
    4767     1108    -1979    -4083    -4956    -6034    -8553   -11133 
  -12315   -12464   -11747   -10067    -7705    -4087      980     5178 
    6075     4954     5552     9176    12679    11240     3424    -6303 
  -10719    -5847     5257    14464    15304     8142     -856    -4735 
    -480     7998    11841     5697    -6646   -16347   -16935    -8466 
    3179    10420     9129     2177    -3787    -5063    -2528      -10 
   -2116   -10016   -19028   -21865   -14450      237    13399    17914 
   14805    10418     9499    11484    11765     6886    -2611   -13161 
  -19309   -16499    -4920     9681    18915    18137    11158     4723 
     663    -1654    -1834    -1238    -2666    -6737   -11057   -12482 
  -11017    -9502    -8543    -5493      645     6519     8666     6904 
    1809    -5789   -12938   -17237   -18728   -17168   -12260    -6191 
   -2015     -864    -1452    -1092     1891     6908    12347    16224 
   15987     9519    -3024   -17877   -28590   -30331   -23868   -14461 
   -7415    -4422    -3271     -854     4606    12769    19574    18687 
    7929    -6739   -15978   -16195   -11545    -7651    -7215    -9386 
  -10506    -7547    -1114     5680     9946    10047     5762    -1135 
   -6732    -6785    -1999      456    -4420   -14028   -23171   -27836 
  -25913   -19230   -12968   -10406    -9058    -5767    -3917    -7858 
  -13510   -14080   -10148    -6242    -3305      181     3735     5486 
    4953     1437    -5620   -12130   -13154    -9670    -6314    -6387 
   -9432   -12205   -12623   -11257    -9189    -6035    -1696     1057 
   -1059    -7424   -13664   -15724   -12371    -6353    -3433    -5590 
   -8534    -9016    -7493    -3863     2040     7652    10523    11696 
   12945    13470    12284    10863    10910    11415     9315     2607 
   -6714   -12309    -8980      940    10633    15817    15363     9742 
    1914    -2960    -1704     3653     8195     7634     1095    -7195 
  -11599   -10125    -4807      997     5555     8735    10317    10909 
   12137    13864    14162    13221    13737    16066    17125    14989 
   10754     5651      547    -2091    -1100      759     1018      963 
    3489     9024    14632    16815    14075     8254     3136      160 
   -3037    -9340   -19097   -29507   -35712   -35024   -29561   -22346 
  -14537    -7566    -3776    -3985    -7157   -12319   -17492   -19036 
  -15921   -11067    -8100   -10455   -18411   -25386   -24752   -17145 
   -7151       92     -240    -8455   -17873   -20255   -14429    -6236 
    -659      191    -4373   -11200   -15723   -17522   -17489   -14396 
   -9206    -7294   -12695   -22620   -30146   -30931   -25597   -17846 
  -11668    -8641    -7239    -5353    -2522      286     1723     1738 
    1076    -1536    -7354   -13252   -14231    -9654    -4254    -2614 
   -4371    -6433    -7189    -6033    -1634     5774    11767    12164 
    8654     4577     -468    -6702   -11060   -11169    -8620    -7389 
   -9308   -12096   -13195   -12237    -9148    -4884    -2286    -2398 
   -3801    -5552    -7045    -6784    -3101     3647     9071     8404 
    3880     2597     6480    11144    13550    14378    13731    11110 
    9033     9469     9869     8443     6605     4026     -543    -4293 
   -2985     3497    11761    18467    21543    19793    13866     7281 
    4347     6424    10080     9985     4946     -677    -2385      129 
    4354     7121     5235    -1754    -9402   -12703   -10674    -4514 
    3071     6845     4551     1034     2641    10076    17946    20385 
   15438     4685    -7204   -14017   -13348    -8375    -3307    -1319 
   -4830   -11710   -15238   -11665    -3663     3486     5719     1605 
   -6522   -12770   -12755    -8071    -2955      470     2227     2833 
    2877     4235     8541    12570    11155     4846    -2503    -9317 
  -13955   -14468   -12652   -10876    -7470    -1362     4842     9264 
   11774    12207    10514     6671     1654    -2284    -4763    -8379 
  -14955   -22435   -27041   -27542   -25422   -22156   -19202   -18006 
  -17424   -14883   -10568    -7258    -7605   -12503   -19488   -23356 
  -20609   -13128    -6333    -4125    -6900   -11473   -11814    -5417 
    2779     6838     5252     -122    -6106   -10435   -12564   -12189 
   -9550    -6548    -4999    -5450    -8406   -13014   -15330   -12331 
   -5763      307     3306     2723    -1196    -6599    -9290    -7486 
   -4750    -4664    -7558   -13198   -19780   -21411   -13700     -920 
    7589     6858    -1743   -13943   -23515   -25301   -19438    -9696 
    -752     3469     2323    -1812    -5850    -8452   -10061    -9984 
   -7794    -5642    -5282    -6755    -9326   -10012    -4877     4684 
   11413    10535     3704    -4552    -9160    -6146     3867    14753 
   19741    17520    11163     2908    -5234   -10134   -10375    -6479 
    -533     3191     2116    -1590    -3622    -1077     5591    11904 
   12284     5666    -3977   -11786   -14515   -11942    -6700    -2335 
    -973    -1431    -1552     -589     2266     6338     7749     4105 
   -1767    -5064    -3479     2091     8571    12285    11255     5756 
   -1979    -8089   -10226    -9406    -7589    -5808    -4019    -1777 
     622     2195     2555     2014      535    -1020     -822      232 
   -1072    -5206    -9263   -10711    -8758    -3455     4306    11204 
   11986     5287    -3694    -8184    -5400      851     3138    -1459 
   -8470   -12895   -13701   -10953    -5315      306     2754     1088 
   -3634    -9454   -13858   -15552   -15580   -14585   -12003    -8104 
   -3975    -1013     -979    -4712    -9905   -11806    -8210    -2136 
    1551     1179     -608     -522     2430     7013    10612    10795 
    6321    -2451   -12596   -19325   -19251   -13661    -7211    -3083 
   -1610    -1574    -1403    -1049    -1537    -2720    -3127    -2167 
   -1777    -3631    -6446    -8433    -8806    -6912    -3342     -216 
     893      239     -724    -1256    -2312    -5278   -10053   -14833 
  -18170   -19351   -16895   -10857    -5025    -2435    -1678      -47 
    2950     5704     5904     2227    -4405   -11353   -15545   -15018 
  -11254    -8293    -7329    -5311     -288     5952    10877    13191 
   12096     7340      751    -4186    -5877    -5917    -6188    -7248 
   -9300   -11941   -12617    -8169     -114     5011     3926      481 
    -965      251     2581     3280     1202    -1901    -5335    -9656 
  -12765   -12389   -10579   -10607   -12442   -13733   -12688    -8790 
   -2659     2864     4822     4189     2930      300    -3517    -5598 
   -4831    -3694    -4060    -5303    -7051    -9452   -11325   -11524 
   -9792    -5856    -1476     -502    -4039    -9304   -13086   -14189 
  -14006   -14172   -14338   -14292   -14270   -12543    -7824    -2499 
    -132    -1094    -2548    -2314     -506     1870     3338     2458 
    -435    -4034    -7978   -11307   -12190   -10893    -9788   -10295 
  -10676    -7893    -1965     3962     7463     8426     7325     4090 
    -832    -5607    -7723    -6407    -4170    -4025    -6207    -8984 
  -10565   -10316    -9512    -9354    -9307    -8657    -7410    -5833 
   -3764     -173     4434     6403     3125    -3127    -7553    -7694 
   -5531    -4303    -4129    -2614     1154     4911     6634     7376 
    7894     6913     4395     1645     -450    -1014     -285     -396 
   -2281    -3579    -1859     1253     2129      386    -1135      -80 
    3420     6919     7841     5940     3138     1449     1197     1136 
     546      569     2836     7064    10888    12294    10694     6078 
    -280    -5278    -6744    -5322    -2336     1418     4589     6381 
    7676     9324    10742    10163     6493     1041    -4013    -7389 
   -8925    -9613    -9536    -7089    -2792      111      831     1759 
    3535     4581     4092     2168     -357    -1698    -1143     -377 
    -691     -822      430     2598     4589     4840     2853      439 
    -931    -2258    -5152    -9003   -11557   -11654    -9512    -5753 
   -1804      929     2905     4976     6192     5723     4885     4544 
