Origin Time       2016/04/16 01:25:00
Lat.              32.753
Long.             130.762
Depth. (km)       12
Mag.              7.3
Station Code      NGS017
Station Lat.      32.6658
Station Long.     128.8433
Station Height(m) 127
Record Time       2016/04/16 01:25:39
Sampling Freq(Hz) 100Hz
Duration Time(s)  114
Dir.              E-W
Scale Factor      3920(gal)/6182761
Max. Acc. (gal)   4.338
Last Correction   2016/04/16 01:25:39
Memo.             
[...]
    7606     7744     7917     8044     8021     7771     7318     6792 
    6363     6132     6108     6250     6502     6763     6916     6930 
    6863     6777     6696     6584     6457     6432     6549     6685 
    6737     6743     6772     6839     6929     7004     7000     6865 
    6614     6370     6296     6447     6746     7053     7238     7268 
    7209     7164     7208     7359     7611     7947     8265     8403 
    8276     7940     7569     7343     7379     7688     8118     8432 
    8530     8528     8612     8877     9292     9708     9952    10015 
   10069    10231    10429    10542    10516    10315     9902     9328 
    8754     8407     8436     8750     9047     9059     8790     8439 
    8122     7807     7454     7094     6827     6755     6888     7137 
    7385     7503     7412     7200     7093     7246     7646     8176 
    8743     9271     9611     9627     9377     9102     9055     9324 
    9786    10245    10551    10593    10302     9705     9004     8549 
    8543     8802     8938     8739     8331     8016     7974     8125 
    8217     8046     7642     7199     6896     6812     6952     7269 
    7632     7893     8034     8132     8227     8308     8335     8242 
    8016     7763     7589     7483     7370     7229     7119     7109 
    7212     7428     7707     7876     7763     7370     6851     6410 
    6190     6188     6294     6379     6367     6292     6287     6463 
    6763     7007     7124     7252     7565     8067     8596     8953 
    9008     8748     8242     7644     7151     6937     7112     7634 
    8219     8545     8515     8239     7886     7599     7460     7455 
    7476     7423     7327     7343     7561     7869     8092     8147 
    8054     7880     7688     7540     7493     7535     7574     7530 
    7405     7267     7207     7286     7465     7633     7706     7652 
    7524     7449     7505     7675     7889     8026     7939     7586 
    7116     6794     6819     7208     7804     8348     8666     8774 
    8785     8747     8580     8151     7446     6694     6242     6227 
    6492     6789     7014     7252     7622     8060     8365     8430 
    8332     8203     8103     8030     8015     8092     8186     8176 
    8011     7739     7518     7551     7946     8630     9366     9880 
   10002     9678     8972     8143     7552     7443     7809     8381 
    8768     8723     8275     7671     7209     7075     7277     7700 
    8121     8303     8203     7979     7863     8043     8520     9055 
    9323     9151     8621     7999     7533     7259     7042     6810 
    6611     6482     6469     6660     7048     7495     7846     8035 
    8166     8403     8700     8817     8608     8186     7841     7817 
    8135     8570     8792     8617     8116     7535     7197     7322 
    7841     8459     8813     8666     8101     7456     7034     6918 
    7013     7186     7313     7300     7195     7144     7186     7221 
    7151     6963     6708     6522     6576     6900     7285     7444 
    7313     7121     7119     7361     7734     8112     8438     8666 
    8757     8740     8687     8635     8618     8694     8899     9237 
    9650     9994    10102     9921     9550     9134     8772     8562 
    8589     8813     9051     9144     9090     8958     8797     8619 
    8407     8171     7934     7703     7555     7634     7952     8348 
    8628     8611     8178     7453     6756     6375     6439     6866 
    7432     7892     8068     7939     7653     7373     7182     7104 
    7133     7203     7192     7049     6864     6776     6856     7064 
    7283     7442     7576     7771     8097     8567     9100     9564 
    9861     9961     9879     9628     9210     8719     8357     8243 
    8270     8222     8002     7681     7381     7201     7227     7466 
    7842     8232     8508     8618     8622     8604     8587     8558 
    8506     8424     8330     8246     8174     8154     8246     8437 
    8622     8662     8525     8310     8139     8117     8301     8600 
    8792     8682     8238     7591     6912     6373     6115     6192 
    6549     7048     7506     7767     7776     7583     7354     7331 
    7660     8306     9054     9545     9530     9098     8572     8275 
    8392     8933     9702    10336    10539    10277     9738     9210 
    8901     8800     8743     8618     8431     8217     7986     7745 
    7547     7479     7612     7949     8351     8611     8660     8579 
    8484     8488     8614     8745     8764     8623     8314     7928 
    7622     7466     7426     7388     7226     6998     6910     7027 
    7230     7352     7275     7028     6797     6758     6958     7290 
    7623     7917     8159     8288     8256     8088     7862     7635 
    7427     7275     7209     7231     7363     7578     7687     7506 
    7102     6722     6586     6782     7231     7703     7955     7858 
    7445     6907     6539     6547     6875     7228     7341     7189 
    6950     6843     6974     7262     7561     7785     7917     7987 
    8027     8052     8078     8113     8183     8333     8551     8797 
    9060     9315     9489     9533     9520     9655    10092    10705 
   11136    11097    10563     9798     9213     9093     9399     9817 
   10016     9885     9513     9053     8669     8493     8542     8721 
    8882     8878     8654     8266     7816     7421     7133     6940 
    6859     6885     6908     6831     6662     6458     6271     6128 
    6033     6036     6186     6418     6619     6741     6817     6926 
    7113     7385     7728     8068     8307     8438     8549     8779 
    9240     9850    10386    10673    10645    10392    10097     9861 
    9678     9458     9092     8608     8178     7951     7939     8018 
    8024     7892     7689     7522     7522     7822     8404     9057 
    9507     9604     9420     9149     8913     8733     8627     8615 
    8653     8624     8380     7832     7057     6271     5668     5303 
    5073     4861     4670     4547     4527     4660     4970     5406 
    5884     6330     6672     6862     6915     6899     6921     7101 
    7474     7936     8334     8599     8746     8799     8764     8662 
    8577     8628     8814     8932     8744     8228     7570     6965 
    6516     6259     6236     6501     6994     7499     7796     7808 
    7604     7307     6997     6719     6520     6442     6478     6521 
    6415     6144     5845     5688     5781     6128     6624     7118 
    7471     7603     7529     7324     7101     6994     7076     7318 
    7669     8099     8540     8871     8979     8827     8556     8427 
    8570     8866     9112     9156     8955     8595     8269     8160 
    8299     8584     8900     9141     9216     9119     8925     8745 
    8702     8827     8944     8836     8493     8090     7809     7765 
    8017     8517     9067     9399     9301     8722     7891     7200 
    6901     7001     7321     7611     7694     7512     7127     6717 
    6506     6617     6969     7321     7443     7231     6796     6467 
    6511     6908     7454     7924     8192     8238     8059     7707 
    7372     7281     7501     7836     7991     7893     7732     7749 
    8113     8829     9685    10408    10820    10868    10624    10255 
   10001    10066    10445    10945    11332    11396    11066    10499 
    9927     9530     9417     9535     9682     9612     9158     8386 
    7552     6868     6449     6283     6239     6261     6267     6129 
    5900     5652     5428     5413     5683     6087     6447     6624 
    6640     6680     6837     7110     7509     7945     8293     8556 
    8797     9066     9365     9647     9899    10085    10076     9803 
    9318     8758     8283     7941     7655     7336     6910     6377 
    5890     5652     5759     6175     6746     7267     7575     7617 
    7497     7428     7537     7766     7972     8017     7851     7557 
    7268     7076     6970     6803     6427     5840     5180     4670 
    4526     4811     5360     5871     6111     6008     5666     5333 
    5237     5436     5829     6234     6515     6663     6708     6660 
    6575     6584     6800     7266     7974     8834     9653    10207 
   10378    10245    10028     9904     9913    10011    10142    10253 
   10307    10292    10203    10045     9855     9694     9618     9680 
    9856     9941     9641     8840     7702     6529     5592     5065 
    5031     5448     6091     6649     6890     6764     6424     6125 
    6069     6316     6784     7348     7947     8583     9288    10065 
   10841    11518    12006    12217    12131    11838    11470    11105 
   10749    10341     9782     9076     8353     7749     7367     7247 
    7356     7599     7834     7975     8036     7997     7871     7783 
    7829     8007     8208     8258     8109     7883     7734     7728 
    7813     7970     8204     8385     8408     8383     8449     8600 
    8672     8455     7885     7071     6206     5554     5367     5656 
    6190     6682     6927     6938     6892     6937     7173     7668 
    8360     9104     9732    10059    10016     9757     9529     9505 
    9721    10090    10432    10519    10242     9756     9313     9056 
    8987     8981     8861     8571     8201     7883     7728     7750 
    7830     7785     7477     6946     6405     6001     5740     5641 
    5784     6228     6900     7592     8124     8431     8551     8593 
    8643     8698     8709     8628     8392     7950     7350     6777 
    6404     6244     6208     6193     6091     5846     5456     4976 
    4586     4480     4694     5143     5716     6305     6838     7308 
    7773     8269     8755     9207     9637    10021    10348    10657 
   10917    11000    10834    10495    10114     9746     9401     9092 
    8782     8387     7891     7406     7120     7139     7394     7727 
    8004     8138     8083     7867     7564     7251     7019     6978 
    7174     7511     7807     7936     7880     7655     7291     6861 
    6465     6200     6125     6215     6353     6425     6433     6474 
    6619     6859     7153     7481     7838     8196     8448     8466 
    8208     7734     7163     6605     6133     5768     5457     5116 
    4731     4365     4112     4056     4202     4500     4929     5482 
    6103     6704     7246     7730     8148     8461     8655     8761 
    8832     8883     8888     8826     8746     8708     8696     8620 
    8414     8152     8012     8105     8351     8504     8345     7859 
    7201     6603     6334     6575     7305     8317     9356    10249 
   10964    11537    11972    12252    12410    12519    12619    12655 
   12528    12194    11678    11024    10278     9496     8752     8160 
    7821     7727     7721     7613     7348     7048     6864     6833 
    6885     6916     6845     6614     6187     5617     5086     4802 
    4841     5100     5378     5561     5686     5861     6100     6255 
    6189     5969     5823     5940     6357     6968     7564     7893 
    7792     7274     6513     5818     5472     5535     5844     6171 
    6397     6577     6783     6999     7176     7302     7378     7380 
    7324     7298     7368     7604     8037     8527     8838     8833 
    8511     7972     7366     6811     6381     6149     6146     6353 
    6730     7195     7719     8347     9003     9480     9657     9586 
    9423     9330     9408     9671    10044    10425    10763    11028 
   11178    11224    11209    11124    10935    10676    10458    10338 
   10237    10071     9875     9763     9826    10039    10246    10242 
    9886     9192     8375     7737     7451     7484     7686     7928 
    8102     8115     7968     7800     7806     8096     8637     9289 
    9881    10319    10608    10779    10847    10845    10852    10933 
   11054    11120    11050    10834    10545    10284    10079     9869 
    9602     9277     8926     8589     8267     7942     7624     7346 
    7123     6907     6606     6212     5809     5510     5409     5496 
    5614     5651     5607     5447     5117     4657     4179     3827 
    3712     3813     4024     4253     4466     4681     4872     4997 
    5126     5346     5648     5955     6120     6000     5604     5116 
    4805     4855     5280     5971     6752     7448     7938     8147 
    8074     7807     7484     7201     6967     6751     6547     6374 
    6234     6098     5937     5736     5454     5060     4572     4046 
    3618     3495     3823     4578     5588     6613     7465     8116 
    8655     9173     9736    10358    11043    11828    12669    13431 
   13979    14171    13981    13582    13139    12752    12516    12485 
   12627    12828    12958    12960    12807    12499    12115    11764 
   11518    11393    11345    11322    11295    11249    11156    10944 
   10582    10166     9796     9439     9021     8575     8175     7873 
    7751     7840     8004     8010     7717     7159     6459     5799 
    5401     5407     5769     6295     6746     6979     7044     7127 
    7392     7872     8476     9049     9446     9642     9729     9796 
    9882    10020    10186    10263    10132     9808     9453     9197 
    9007     8772     8423     7993     7604     7382     7384     7554 
    7740     7774     7575     7192     6771     6466     6322     6257 
    6174     6000     5677     5156     4422     3575     2771     2083 
    1544     1205     1122     1320     1751     2280     2756     3106 
    3400     3784     4359     5155     6107     7075     7861     8237 
    8109     7630     7111     6867     7049     7558     8164     8645 
    8834     8674     8255     7737     7257     6868     6537     6222 
    5968     5853     5938     6249     6732     7313     7973     8677 
    9327     9815    10104    10274    10453    10677    10963    11364 
   11875    12423    12902    13162    13104    12790    12372    11954 
   11563    11191    10821    10420     9988     9576     9239     9004 
    8827     8634     8455     8450     8749     9324    10055    10772 
   11283    11511    11523    11439    11366    11293    11111    10755 
   10248     9677     9168     8796     8541     8338     8144     7914 
    7628     7323     7050     6841     6677     6461     6134     5710 
    5213     4702     4265     3960     3838     3936     4220     4605 
    5038     5483     5890     6218     6467     6701     7029     7470 
    7910     8247     8441     8497     8457     8317     8038     7650 
    7206     6764     6396     6119     5897     5704     5549     5470 
    5470     5557     5740     5940     6093     6208     6229     6155 
    6067     6002     6075     6340     6629     6908     7222     7492 
    7764     8050     8234     8393     8606     8834     9179     9618 
    9900     9929     9724     9311     8838     8451     8256     8334 
    8597     8888     9067     8997     8719     8322     7854     7512 
    7450     7612     7911     8201     8302     8240     8220     8387 
    8727     9158     9620    10029    10255    10219     9959     9585 
    9207     8937     8846     8885     8936     8910     8767     8518 
    8183     7751     7203     6517     5721     4952     4342     3905 
    3618     3506     3602     3904     4398     5082     5922     6853 
    7811     8717     9473    10027    10389    10614    10801    11045 
   11384    11815    12282    12667    12904    13010    12959    12673 
   12180    11628    11190    10960    10835    10585    10063     9307 
    8471     7762     7372     7330     7501     7714     7822     7748 
    7556     7396     7387     7593     8011     8476     8781     8896 
    8831     8577     8289     8166     8280     8598     8955     9193 
    9329     9408     9453     9498     9496     9330     8933     8414 
    8034     7939     8061     8288     8515     8661     8686     8561 
    8310     7981     7587     7201     6968     6935     7033     7208 
    7386     7489     7524     7555     7632     7776     7965     8169 
    8380     8612     8864     9058     9127     9103     9036     8906 
    8649     8257     7869     7652     7553     7416     7230     7043 
    6885     6802     6759     6738     6829     7057     7365     7670 
    7871     7992     8162     8405     8630     8750     8769     8785 
    8832     8843     8795     8721     8626     8506     8395     8350 
    8358     8320     8148     7806     7323     6849     6568     6515 
    6564     6536     6315     5955     5611     5409     5403     5579 
    5820     5937     5799     5487     5250     5264     5537     6002 
    6531     6976     7290     7555     7890     8332     8833     9290 
    9580     9660     9573     9386     9191     9063     9019     9031 
    9024     8926     8758     8610     8527     8440     8228     7836 
    7305     6727     6230     5933     5895     6071     6320     6491 
    6497     6357     6207     6214     6487     7037     7787     8570 
    9184     9508     9550     9462     9468     9722    10217    10812 
   11286    11463    11321    11008    10764    10755    10958    11211 
   11306    11118    10698    10235     9927     9882    10063    10322 
   10499    10478    10210     9755     9282     8953     8784     8667 
    8520     8324     8107     7936     7862     7872     7912     7935 
    7946     7967     7995     7994     7959     7938     7985     8114 
    8277     8392     8414     8374     8331     8319     8354     8447 
    8567     8619     8527     8275     7917     7591     7415     7371 
    7343     7241     7050     6826     6663     6623     6704     6825 
    6892     6882     6820     6735     6653     6619     6704     6964 
    7355     7733     7938     7902     7664     7315     6962     6740 
    6761     6986     7263     7480     7643     7852     8139     8397 
    8502     8402     8193     8052     7964     7760     7393     6985 
    6747     6846     7243     7748     8191     8495     8680     8804 
    8942     9150     9439     9743     9952     9992     9869     9630 
    9371     9196     9139     9164     9216     9251     9253     9206 
    9124     9056     8999     8830     8428     7840     7229     6752 
    6524     6571     6784     6995     7070     6964     6753     6556 
    6426     6395     6474     6633     6854     7088     7248     7342 
    7456     7647     7903     8156     8320     8326     8188     8001 
    7855     7785     7768     7827     7986     8151     8238     8249 
    8181     8086     8063     8151     8332     8538     8625     8491 
    8147     7716     7384     7224     7188     7248     7388     7609 
    7947     8380     8809     9137     9315     9357     9320     9243 
    9155     9083     9011     8923     8812     8659     8467     8233 
    7937     7576     7188     6793     6387     5992     5668     5514 
    5580     5803     6105     6453     6820     7183     7568     8013 
    8509     8985     9351     9586     9793    10051    10324    10548 
   10658    10622    10494    10354    10262    10242    10231    10180 
   10067     9835     9459     8945     8337     7772     7384     7206 
    7201     7263     7255     7113     6874     6631     6486     6481 
    6569     6682     6756     6741     6673     6586     6457     6262 
