Origin Time       2016/04/16 01:25:00
Lat.              32.753
Long.             130.762
Depth. (km)       12
Mag.              7.3
Station Code      NGS004
Station Lat.      33.1808
Station Long.     129.7177
Station Height(m) 23
Record Time       2016/04/16 01:25:26
Sampling Freq(Hz) 100Hz
Duration Time(s)  112
Dir.              N-S
Scale Factor      3920(gal)/6182761
Max. Acc. (gal)   20.331
Last Correction   2016/04/16 01:25:26
Memo.             
[...]
    6336     6447     7500     8454     8672     8549     8429     8414 
    8361     7629     6147     4693     4034     4671     6500     9135 
   11773    12587    10918     8365     6268     4850     4093     3879 
    4185     5285     7366     9554    10140     8853     7332     6927 
    7491     8022     7887     7331     6690     6296     6876     8393 
    9555     9122     6922     4216     2827     3538     5484     6868 
    7126     7306     7700     8034     8715     9569     9727     8519 
    5771     3135     2863     4584     6461     7683     8313     8814 
    9382     9731     9874     9861     9241     7738     6376     6679 
    7980     8265     7391     6322     5635     5658     6075     6814 
    8144     9247     9604     9755     9537     8922     8911     9521 
    9739     9176     8248     7745     7920     8268     8447     8530 
    8669     8461     7704     7541     8419     9203     9205     8411 
    7330     7107     7863     8459     8316     7643     6984     6850 
    6410     4919     3886     4621     6674     9123    10593    10306 
    8851     6829     5290     5769     8338    11228    12083    10295 
    7643     5321     3404     2655     3408     4733     5615     5831 
    6068     6519     6680     7195     8556     9175     8002     6327 
    5750     6845     9020    10712    10533     8268     5531     4516 
    5234     6243     6818     6685     6103     5775     5481     5004 
    5343     6543     7262     7288     7530     8688    10398    11077 
   10344     9485     8928     8476     8552     9939    13040    15999 
   15611    11594     6500     2495      739     1524     4303     8184 
   11777    13587    13321    11854    10011     8440     7793     8143 
    9166    10377    10963    10811    10576     9928     8020     5605 
    4280     4689     6269     7409     7325     7638     9673    11852 
   11970    10337     8679     7569     6901     7206     8493     8914 
    7174     5182     5025     5995     6943     7791     8612     9258 
    9124     8143     7220     6139     4164     2680     3773     7366 
   11227    12844    11903    10233     8487     6046     3705     2811 
    3650     5513     6816     6683     5681     4640     4819     7105 
   10137    11932    11963    10257     7203     4324     3360     4562 
    6472     7758     8148     7484     5743     3729     2601     2516 
    2699     3330     5163     7380     8520     8670     8306     7149 
    6141     6734     8173     9193     9830    10114     9467     7781 
    6620     6964     6856     5231     3894     4200     6382     9572 
   11286    10338     8257     7176     8147    10071    11222    11698 
   11678    10494     8690     6961     5191     4263     5114     7348 
   10424    13392    14819    14383    12608    10166     8326     7900 
    7964     7364     6080     4712     4476     5990     7680     8220 
    8247     8256     8001     7327     6634     7003     8171     8048 
    6072     3885     2857     3501     5833     8975    11103    10974 
    9230     6923     4493     2733     2497     4001     6743     9220 
    9987     8979     6805     4116     2052     1713     3362     6074 
    8038     8934    10434    12599    13469    12402    10159     7499 
    5050     3342     3339     5183     7291     8753     9580     9358 
    7785     4882     1835     1204     4164     8958    12417    12681 
   10645     7985     5208     2573     1058     1724     4225     6955 
    9237    11012    11565    11237    11365    11802    11226     8676 
    4545     1530     2099     5176     8365    10380    10211     8195 
    6540     6744     8328     9453     9036     8326     8528     9473 
   10992    12410    12772    12455    12139    11352     9541     7509 
    6677     7168     7737     7444     6590     6061     5994     5887 
    5887     6092     5777     5119     5557     8011    11691    14194 
   13806    10921     7108     4754     5285     7414     9414    10492 
    9831     7819     6135     5267     4971     5031     4252     2348 
    1042     1726     4576     8488    11044    10735     8199     4856 
    2557     2824     4769     6230     6060     4333     2809     3615 
    6259     8486     8952     7909     7015     7681     9408    11146 
   12182    11240     8162     4993     3046     2327     3310     5524 
    7443     8879    10063    10548    10069     8298     5608     3382 
    2147     2152     3972     6703     8924    10485    11147    10682 
   10224    10468    10886    11382    11348     9701     7506     6414 
    6584     8216    10561    11788    11922    11834    11917    12387 
   11991     9697     6870     5317     5814     8163    11169    13042 
   12302     9060     5068     2348     2094     4102     7038     9525 
   11027    11705    11525    10025     7030     3406      522     -629 
     849     4822     9177    11791    11955    10012     7300     5702 
    6051     7190     7622     7258     6884     7138     8005     9213 
   10433    10716     9471     7120     4170     1831     2109     5241 
    8872    10471     9580     8051     7378     6801     5818     4979 
    4365     4770     7064     9900    11618    11872    10521     8262 
    6507     5442     4551     4054     4849     7412    10178    10722 
    9149     7011     4193     1088      449     3825     9431    13799 
   14767    13601    12070     9670     6592     4127     2120      789 
    1721     5574    11072    15036    15124    12418     8216     3268 
     816     3352     9055    14319    16155    14415    12191    10974 
    9572     7898     6802     6155     5350     4767     6237    10109 
   13136    12614     9845     7184     5491     5246     6661     9064 
   11312    12252    12026    11813    11351     9834     8560     9416 
   11602    12611    11794    10114     8126     6482     5822     6218 
    7557     8536     7751     6386     6038     6454     7166     7684 
    7354     6723     6911     7923     8860     8979     7844     5926 
    4969     5468     5726     4818     3435     2368     2090     2954 
    5426     9104    11556    10728     7714     5023     4193     5760 
    8688    10572    10241     8300     5675     3703     3683     5489 
    7732     8931     8823     8190     7546     7354     7893     8769 
    9717    10126     9019     6931     5345     4959     5697     6797 
    8110    10290    11901    11269     9827     9043     9091    10268 
   11945    13243    13906    13324    11332     8720     6349     4906 
    4599     5480     8317    13207    17786    19085    16655    12547 
    8941     6655     5738     6212     7587     8737     8971     9116 
   10176    10766     9011     6190     5097     6718     9563    10675 
    8711     5836     4461     4952     7334    10566    11938    10707 
    8662     7370     7708     9374    10559     9949     7730     5157 
    3933     4413     5354     6287     7848    10261    13130    15454 
   15954    13951     9485     4079      991     2284     6384     9644 
    9766     7597     5727     5519     6308     7348     8272     8153 
    7138     6898     8246    10832    13332    13757    11791     8786 
    5805     3779     3511     4781     6586     7954     8956    10217 
   10915    10058     8848     8746     9042     8154     6182     4830 
    4791     5191     5717     6742     7470     6558     4412     2969 
    3625     6396    10269    13478    14159    11629     7161     3418 
    2610     5204     9818    13493    14437    13723    11740     7637 
    3009      436      306     2133     5862    10767    14894    16234 
   14704    12198     9906     7850     6849     7262     7566     7093 
    6892     7153     7279     7378     7460     7051     5951     4663 
    4626     6742    10018    12695    13208    11093     7848     5273 
    4046     3858     3687     3503     4479     6393     7637     7144 
    5212     3499     3276     4544     6941     9056     9143     7759 
    6823     6840     6888     6253     5428     5525     6640     7794 
    8994    11097    12734    11428     8287     6429     6084     5776 
    5324     5350     6071     6621     6087     5429     5571     5845 
    6901    10051    13874    16301    16930    15761    13294    10650 
    8170     5541     2796      907     1117     2867     4724     6795 
    8771     9055     8116     8133     9339    10191    10198    10124 
   10188     9927     9031     7761     6733     5787     4588     4183 
    5814     9348    13143    15037    14777    13640    11797     9459 
    7915     7310     6979     6547     5398     4340     5088     7065 
    8593     8714     7498     7143     8853    10646    11652    12403 
   11804     9084     5568     3583     4482     6821     8185     7895 
    6465     4916     4438     5310     6736     8085     9259     9645 
    9146     8835     8425     6781     4584     3284     3305     3901 
    4050     3892     4246     5045     5495     5239     4850     4707 
    4191     3352     3599     5892     9385    11656    11272     9504 
    8045     7756     8904    10058     9782     8844     8334     8326 
    8191     6802     4269     2354     2130     3321     5251     6920 
    7404     6941     6550     6724     7147     6936     5690     4928 
    6068     7656     7780     6855     5996     5440     5004     4692 
    4621     4273     3098     2076     2983     6476    11387    15225 
   16049    14470    12540    10964     9395     8096     7457     7308 
    7397     8080    10213    13434    15706    15775    14085    11034 
    6531     1526    -1186      466     4841     9078    12216    13162 
   10336     5197     2272     4633    10601    15640    17030    15136 
   11237     7045     5192     7236    11475    14250    13765    11591 
    9905     9229     9189     9429     9963    10486     9799     8093 
    6902     6310     6139     6332     5584     3980     3144     3536 
    5673    10042    15264    19563    21215    18860    14251    10231 
    7301     5731     5576     5370     5288     6681     8745     9870 
    8848     5298     1509      258     2056     6759    12933    16459 
   14639     9085     3397      957     2912     6719     9150     9212 
    7151     4368     2951     3153     4084     5107     5273     4727 
    5100     7003     9415    11121    11808    11439     9531     6833 
    5034     4162     3874     5093     8335    13064    17802    19791 
   16420     8112     -432    -4026    -1868     3731    10406    14981 
   14280     9070     4143     3587     7079    11104    13519    14619 
   14416    13216    12261    11130     8867     6022     2888     -116 
   -1396     -129     3307     7987    12223    14737    15922    16981 
   18528    19981    19861    17576    14487    11563     8469     6374 
    7045     9755    12604    14078    13467    12008    11214    10854 
   10003     7945     5227     3452     2357     1386     2511     6661 
   12019    15940    15131     8654      308    -5261    -5774    -1642 
    4454     9719    12771    13628    13448    13273    12799    10590 
    5742     -426    -4980    -5600    -2494     2154     7014    11618 
   15110    17028    16826    14127    10029     5928     3255     3211 
    4532     4229      777    -4245    -7152    -5576       84     8517 
   17555    23716    24845    21606    15694     8644     2713      661 
    3042     7713    12363    15373    15974    14436    10847     5965 
    1984      409     2588     9575    18235    22358    18075     6527 
   -6470   -14274   -13982    -6206     6375    18607    25873    28134 
   27728    25371    20420    13285     6609     3131     3333     6599 
   11939    16839    17904    13569     6076       89     -317     6267 
   17122    27229    33413    34088    27829    16082     3512    -6028 
  -11065   -11787    -9622    -5703    -1102     1737     1845     1418 
    1553      630    -1664    -2549      456     6391    12557    17476 
   19666    16850     9460     1120    -5065    -7985    -8179    -6611 
   -3216     1826     7223    11401    11823     6200    -4182   -15018 
  -21893   -21978   -15198    -4185     7172    14785    15804    11176 
    5687     4099     7459    12623    15285    13808    10014     7150 
    7722    12214    18212    21000    17058     7551    -2274    -7436 
   -6428     -588     7167    13287    15303    12976     8679     5873 
    5620     6271     6796     7520     8710    11252    15883    20397 
   20988    16542    10362     7317     9041    13310    17048    18340 
   17803    18025    20129    22404    23047    22377    21275    19581 
   17376    15518    13928    11533     9169    10042    15124    21109 
   24158    22947    18764    14136    11019    10558    12997    16721 
   19591    20947    21057    20462    20032    20048    19829    18765 
   16918    15496    16689    20651    24016    23103    17103     8434 
    1144    -1009     3668    13549    24063    29813    27582    17241 
    1213   -14730   -23728   -23380   -16641    -8201    -1999      616 
    1871     4831     9596    13012    12157     7481     2205     -307 
    1405     6724    13784    18911    19257    17416    17665    20391 
   23272    22666    15785     4076    -8393   -17445   -20077   -17597 
  -14008   -10693    -7120    -3122     1354     4634     3146    -4607 
  -15201   -22094   -20976   -13360    -5059    -1867    -5025   -11223 
  -17184   -20193   -17391   -10023    -4233    -5322   -12969   -21373 
  -24349   -19820    -8869     4737    13921    13295     3924    -7876 
  -14748   -13556    -6519     1884     7605    10269    12948    17035 
   21030    23345    22916    19372    13919     8607     6065     8783 
   15529    21786    24543    23025    18029    12455     8875     7796 
    8465     8974     8438     8551    10356    13172    15118    12758 
    5484    -2862    -9154   -11547    -8636    -2386     3786     9195 
   14507    18909    20509    18798    15109    10026     3381    -2894 
   -5721    -4088     1212     8732    16265    21507    22251    17242 
    8631      515    -4355    -3867     3477    16047    28884    36131 
   34731    26787    16618     7084      439     -665     5313    16464 
   27095    31590    27613    16547     3668    -5058    -7655    -5743 
   -1967     1559     5377    11665    19749    25742    25707    18023 
    6050    -2831    -3894     1921    10805    18248    21696    22074 
   20521    17042    12464     8039     4374     1210    -2884    -8231 
  -12549   -13623    -9571      691    12924    19833    18235    10226 
     997    -4447    -4687     -976     4787     9700    11196     9317 
    5492      888    -3248    -5865    -6442    -4785    -1267     4040 
   11678    20152    24999    22277    11885    -1818   -11927   -13550 
   -6992     3535    12476    15778    13592     8825     3958      225 
   -2456    -4061    -3408     -347     3983     8740    11923    10256 
    3172    -5909   -12427   -12569    -4708     8774    22427    30999 
   31603    23959    10427    -3960   -13637   -15958   -11912    -3535 
    7183    16719    21448    21242    18248    13447     6829     -849 
   -7209    -9252    -5910     1598    11136    20367    27358    29677 
   24438    12488       64    -5858    -1961    10354    24997    34183 
   34629    29139    22299    16744    12041     7374     4173     3986 
    7701    16005    26100    31902    30075    22826    15612    13240 
   15473    17370    15667    11875     9366     9881    11995    12918 
   11151     6863     1707    -1787    -1724     1461     4762     5707 
    4080     -319    -7137   -13156   -14510    -9929    -1579     6675 
   12555    14813    12267     6831     2860     3260     7837    12490 
   12660     8910     5345     5106     8948    14669    18913    19834 
   16941    11561     6826     4757     5358     7247     8023     6964 
    6027     6677     8242     8854     7053     3773     1680     2604 
    6366    10120    10168     5864     -553    -6297    -8827    -7433 
   -3614      914     4536     6366     7313     7962     7766     6955 
    6500     6810     7028     5979     4593     5210     7789     9925 
   10332     9477     7972     6071     4404     4711     8399    13544 
   15513    12534     8506     8042    11654    16710    19833    18853 
   13944     6955     1001     -938      901     3676     5546     6561 
    7516     8244     6853     2800    -1607    -4428    -5588    -6068 
   -6427    -5342    -2328      296     1232     1267       87    -3345 
   -8107   -10733    -7628      689     9380    14069    13402     8318 
    1713    -2566    -2748     -486     2007     4045     5405     6192 
    7268     9439    11909    11947     8864     6282     6987     9844 
   12365    12218     8918     5363     4881     7212     8705     6866 
    3449     1694     2386     3932     4653     4018     2891     2883 
    4909     8352    10615     8691     2914    -2778    -4199      326 
    8164    13347    11577     4284    -3362    -7166    -5822    -1478 
    1598     1614      454      170      839      932     -619    -2404 
   -1763     1839     6261     9571    11461    12226    12427    13000 
   14774    17255    17950    15271    11485     9688    10233    12176 
   14445    15602    15545    15388    15219    14440    12734    10605 
   10748    15693    23600    29758    30549    25405    17456    10949 
    8102     9747    15018    20079    21747    20489    17971    15567 
   14249    13320    11980    11377    13066    16949    20278    19491 
   14599     9156     5709     3757     1799       58      176     2332 
    4933     7151     8891     8875     5682      244    -4480    -6691 
   -7123    -6530    -4738    -2386     -836    -1012    -2842    -5318 
   -7382    -7604    -4022     2869     9035    11282    10047     7001 
    3406      541     -954    -1227     -437     1240     3412     5656 
    8085    11066    14330    16839    16456    11500     3994    -1612 
   -2544      973     6982    13275    17245    16534    11683     6448 
    4769     7363    11050    12302    10694     8252     7188     8558 
   11669    14823    16763    16563    13633     9492     7450     9010 
   11919    12815    10894     7915     6072     6755     9288    10629 
    8261     2841    -2571    -4230      326     9619    18771    23194 
   21157    14615     7733     3769     3509     5569     8160    10454 
   12256    14287    17154    19581    19911    17675    13780    10031 
    6969     4104     1900      921     1301     2859     3803     2406 
    -185    -1860    -2031     -770     2101     6157     9646    10515 
    8661     6456     5651     5088     3502     1796      784      210 
     245     1530     4752    10319    16584    19649    17227    11168 
    5358     3035     4895     8750    12298    14606    15110    14025 
   12226     9612     5751     1739       10     2567     9036    16691 
   22479    24240    21275    14672     6348    -1790    -7469    -8242 
   -3152     6092    15746    21537    20810    14566     7107     2782 
    2742     5277     8575    12141    16270    20460    22908    22797 
   21044    18031    14211    11738    11967    14049    16602    18182 
   18129    17337    16491    15349    13790    11884     9828     8282 
    7789     8362    10009    12113    13189    12883    11550     8772 
