Origin Time       2016/04/16 01:25:00
Lat.              32.753
Long.             130.762
Depth. (km)       12
Mag.              7.3
Station Code      NGS011
Station Lat.      32.7839
Station Long.     130.2024
Station Height(m) 34
Record Time       2016/04/16 01:25:15
Sampling Freq(Hz) 100Hz
Duration Time(s)  231
Dir.              N-S
Scale Factor      3920(gal)/6182761
Max. Acc. (gal)   53.855
Last Correction   2016/04/16 01:25:16
Memo.             
[...]
   -2346    -2340    -2344    -2349    -2351    -2349    -2347    -2346 
   -2347    -2348    -2350    -2349    -2347    -2345    -2347    -2350 
   -2349    -2345    -2344    -2348    -2350    -2346    -2346    -2349 
   -2349    -2345    -2345    -2350    -2352    -2346    -2342    -2345 
   -2351    -2353    -2347    -2339    -2341    -2350    -2355    -2353 
   -2347    -2343    -2347    -2350    -2346    -2344    -2349    -2352 
   -2349    -2343    -2343    -2350    -2350    -2343    -2342    -2345 
   -2350    -2353    -2350    -2347    -2344    -2342    -2344    -2350 
   -2352    -2348    -2342    -2344    -2348    -2348    -2347    -2346 
   -2348    -2349    -2345    -2343    -2348    -2349    -2346    -2349 
   -2352    -2346    -2340    -2343    -2352    -2358    -2354    -2343 
   -2334    -2340    -2354    -2360    -2352    -2341    -2338    -2344 
   -2353    -2355    -2351    -2345    -2339    -2340    -2350    -2357 
   -2355    -2349    -2340    -2338    -2347    -2356    -2358    -2351 
   -2341    -2339    -2348    -2354    -2351    -2344    -2342    -2346 
   -2349    -2348    -2354    -2358    -2348    -2337    -2341    -2350 
   -2354    -2353    -2347    -2341    -2340    -2349    -2359    -2356 
   -2344    -2339    -2340    -2347    -2357    -2358    -2349    -2340 
   -2339    -2348    -2358    -2353    -2346    -2344    -2341    -2344 
   -2352    -2356    -2353    -2346    -2340    -2344    -2354    -2356 
   -2350    -2344    -2341    -2341    -2346    -2351    -2351    -2350 
   -2344    -2339    -2345    -2356    -2355    -2346    -2341    -2346 
   -2353    -2353    -2349    -2347    -2347    -2346    -2345    -2348 
   -2350    -2347    -2344    -2346    -2349    -2349    -2349    -2351 
   -2351    -2349    -2347    -2345    -2347    -2350    -2350    -2347 
   -2345    -2345    -2345    -2348    -2353    -2354    -2349    -2344 
   -2343    -2348    -2354    -2351    -2346    -2347    -2350    -2349 
   -2345    -2344    -2351    -2353    -2348    -2346    -2348    -2348 
   -2346    -2345    -2349    -2352    -2349    -2348    -2348    -2348 
   -2349    -2351    -2346    -2340    -2344    -2351    -2350    -2345 
   -2344    -2347    -2349    -2347    -2348    -2347    -2346    -2347 
   -2349    -2349    -2349    -2349    -2349    -2349    -2345    -2341 
   -2347    -2356    -2352    -2341    -2343    -2350    -2347    -2343 
   -2347    -2351    -2351    -2349    -2346    -2346    -2349    -2349 
   -2346    -2346    -2350    -2350    -2346    -2343    -2345    -2348 
   -2350    -2349    -2345    -2345    -2351    -2354    -2350    -2344 
   -2343    -2348    -2351    -2350    -2346    -2343    -2345    -2349 
   -2350    -2346    -2345    -2347    -2347    -2348    -2351    -2349 
   -2345    -2344    -2344    -2347    -2354    -2354    -2345    -2338 
   -2344    -2352    -2350    -2346    -2348    -2348    -2346    -2344 
   -2345    -2350    -2353    -2349    -2342    -2342    -2348    -2350 
   -2348    -2345    -2345    -2347    -2351    -2350    -2347    -2344 
   -2345    -2347    -2347    -2347    -2351    -2351    -2344    -2339 
   -2345    -2354    -2354    -2348    -2344    -2345    -2346    -2348 
   -2350    -2350    -2346    -2345    -2349    -2348    -2344    -2345 
   -2351    -2349    -2341    -2342    -2353    -2358    -2352    -2348 
   -2351    -2356    -2355    -2347    -2340    -2346    -2357    -2358 
   -2350    -2348    -2343    -2324    -2330    -2378    -2413    -2396 
   -2356    -2333    -2339    -2356    -2345    -2304    -2298    -2359 
   -2411    -2372    -2286    -2268    -2336    -2407    -2450    -2489 
   -2463    -2341    -2215    -2150    -2218    -2456    -2615    -2455 
   -2199    -2172    -2272    -2206    -2111    -2448    -2986    -2858 
   -2317    -2516    -2900    -2005     -919    -1513    -2768    -3150 
   -2948    -2276    -1327    -1442    -2849    -3917    -3661    -2614 
   -1431     -991    -2275    -3953    -3551    -1416      304      274 
   -2059    -4981    -4928    -2136     -626    -1748    -3321    -3491 
   -2799    -2483    -1998    -1307    -1780    -2898    -3178    -2231 
    -452      206    -1978    -4448    -3521    -1878    -3626    -4591 
   -1127      667    -2884    -5547    -3891    -2559    -2471       78 
    2092    -1127    -4964    -4323    -3150    -3792    -1186     3039 
     198    -7338    -9476    -5170     -358     1501      408    -1943 
   -3419    -3376    -2145      -76      882     -968    -3673    -3970 
   -2375    -2924    -5300    -4275     -555      -42    -3473    -6839 
   -6943    -3407     1189     3122      783    -3578    -6117    -4954 
   -2180    -1588    -3220    -5255    -6726    -3855     2543     2518 
   -3660    -3203     2491      882    -3486     -862     -644    -7931 
   -9097    -3196    -3179    -5612     -127     5365     -358    -8080 
   -6055    -1839    -1975     -511      702    -3202    -3821     1698 
    1470    -5747    -8507    -5189     -339     4958     3694    -6744 
  -12385    -7646    -1382     3684     4429    -4187   -11405    -4309 
    7256     7092    -1480    -8608   -13157   -11676    -1600     6401 
    3868    -2662    -5702    -5545    -3756    -1857    -3287    -5594 
    -728     7455     6596    -1536    -8041   -12579   -12296    -3574 
    4333     4719     3515     1591    -5609   -11673    -7639     1338 
    3966     -320    -2132     -176    -2889    -8977    -9646    -4828 
     -96     1532     -626    -5303    -9521   -11268    -7913     2577 
   11728     8372    -3304   -10885   -10559    -8026    -6657    -2327 
    4786     7738     5488      -52   -10747   -19536   -12447     5480 
   13564     6631    -3332    -8876   -10439   -11066   -13171   -11447 
    -418    12278    13364      480   -12497   -11540    -1594     3895 
    1674    -4065    -7352    -5625    -5089    -6216      835    10674 
    4883   -10680    -9933     3377      249   -12284    -5776     7183 
     906   -12188   -11488    -3546      366     4385    10358     7480 
   -8956   -23175   -17502     1641    14460    13731     4965    -4594 
   -8000    -2777     1581    -3100    -6334      -66     4113    -1051 
   -8359   -11333    -9373    -2854     7167    10936     -372   -16577 
  -22493   -14706     2271    16925    16400     1479   -12759   -16462 
  -14612   -10336     -704     9071    11480     6735    -3547   -15739 
  -21553   -17720    -6107    10511    20735    12868    -7082   -23047 
  -24737   -13270      959    10192    12082     4650    -7372   -12780 
   -6855     2190     3823    -1966    -9218   -10573    -1598     7355 
    2463    -9851   -12648    -5811      370     4342     1575   -11374 
  -17035    -7283     -496    -2724    -1452     5896     8934     1776 
   -7701   -11760   -12276    -8961    -1334     3254     2187     2492 
    5083     1068    -7849    -6100     4863     6238      846     3990 
    5777    -7241   -23065   -27200   -19703    -5612     9793    19372 
   15677     2752    -4944    -5394    -7821   -12674   -12467    -5491 
    2415     8200     7579    -4237   -14528   -11666    -3945     4252 
   10281     3583   -10700   -16874   -13374    -5458     3815     8901 
    8895     7652     -219   -15094   -19848   -10067    -2253    -2193 
     322     5566     1248    -9948   -12565    -5383     2850     5549 
   -1004   -12112   -16463    -7909     2228      755      -72     6047 
   -1952   -21315   -23899   -10971    -1126     7378    15055     7894 
   -7038    -8439    -3854    -7641    -9600    -5673    -9421   -18893 
  -13736     6202    10953    -8688   -18410    -3492     4224    -5941 
   -7196     1950      674    -4030    -2117    -6941   -13243    -3774 
    7699     6614     5887     9790     1435   -17097   -19080    -3682 
    -158   -10379    -7902     6828     8677    -2814    -6461    -3989 
  -10966   -14266     3449    18135     5028   -13418   -14595   -14466 
  -21526   -16362     3409    15207    11522     4699    -2528   -14113 
  -17430    -4112     9364    14868    20196    18711      869   -18278 
  -17588    -3270     6836    16045    26394    18927    -4751   -15546 
  -10105    -6634     -893    13225    14787    -4989   -17685   -10586 
   -6791    -8653      238     7270     -609    -5153     2705     4385 
   -6300   -10568     -712     8349     6530    -2899   -17495   -30140 
  -24961    -5487     5023     4818     6904     2981   -12397   -16867 
   -2688     6480     2879     -635    -3754    -4694     2705     2421 
  -10819    -9175    10006    13837    -1796    -8415    -2218    -3169 
   -9580    -6155     6502    14690     3672   -19795   -25234    -4685 
   14113    12460    -1612   -13287   -12591    -4097    -2968    -4848 
    7085    20159     7619   -20005   -28333   -13818     -946     4019 
   10895    12284    -2552   -20406   -24165   -14711      919    11312 
    5761    -3946    -4107    -1881    -1226     3178     6535    -1562 
  -14008   -11202     3952     9437      170   -11283   -17265   -19942 
  -14227     8768    27524    15371    -5778    -6909    -1036    -1672 
    1350     6762     2491    -6743   -13030   -16495   -11904     -130 
    6837     7492     5450    -3122   -15785   -21299   -16190    -7429 
    -833      231    -3685    -6544   -12959   -25082   -21124     3444 
   15316    -1374   -20303   -19361    -8410    -2744    -2624      442 
    6725     4889      616     7507     8694    -4952    -6118     7560 
    8777     4168    14058    22062     9557    -8594   -14468   -10517 
   -7412   -11789   -13645      484     8721   -11518   -28564   -16090 
   -3332    -7519    -4840     8172    10012     4302     4522     1225 
   -6156     1360    17098    16527     3299    -6633   -15771   -25483 
  -19589     5440    23226    19118    11526     8502    -2974   -15775 
  -12161     -199     7206    12172    10477    -2578   -11702    -7927 
   -4194    -1801     7216     9166    -1325    -1937     5598    -2071 
  -15643   -14065    -4449     1614     7539     8495    -5255   -16507 
   -4256    16602    22551    16119    10060     7862     8905    11524 
    9013     1003     -564     7831    13841    10825     7109     6730 
    2270    -6862   -12191   -10541    -7635   -10304   -16597   -20156 
  -19690   -16556   -13218   -10709    -7390    -4875    -2716     1969 
    1821    -8549   -15372    -8705    -3223    -7767    -7585    -1603 
   -4654   -11395   -12544   -14959   -16817    -8406     2621     5136 
    6081    10796    11812     9581    10077     7321    -2981    -6248 
    6920    17089     8931     1584    11607    18950     9114     6015 
   18198    15501    -8055   -23691   -24464   -24046   -19143    -4505 
    7622    11807    14148    11385      770    -8429   -10050    -8347 
  -10266   -13890    -9934     -750     1865    -1483     -104     6873 
    9746     7832     9975    12041     7878     7745     8173    -5464 
  -15941    -4820     4924    -2956    -5026     5924     -957   -27913 
  -34968   -17230    -5602     1206    13391    12485    -5013   -15810 
  -12572    -5828     3037    13752    12874    -2711   -15122   -14299 
   -8421    -4152     2688    11573     9477     -258     4818    19217 
   14907    -4929   -12123    -4248    -4458   -12975   -11089    -6088 
   -8501    -4673     5032     5866      864    -3903   -12197   -25283 
  -36624   -35922   -22394    -8890    -5268   -10100   -17359   -19501 
  -11877      998     9869    11088     9565     7348      986    -2302 
    5965    16523    20969    22787    19816     6978    -1127    14787 
   36167    33683    21352    21679    23153    12624       99    -4175 
   -1889     4135    10868    14500    15171    13621     6396   -10028 
  -25242   -19474     2434    12247     3284    -6206    -9787   -11022 
   -1308    18340    23885    13420    11425    15543     7699    -1794 
    4538    19090    27457    27145    16060    -3953   -19700   -26799 
  -29259   -22571    -8339     -940    -4589    -9572    -8785    -4253 
    -450     3820     8650     8456     5297     8923    17877    18869 
   12298    10628     7897    -2443    -4008     6214    10122     4567 
   -1516    -6451   -10710    -9662     2544    19010    21718    12360 
    9504    11096     6033     3226    10247    15610    11028     5790 
   13549    31586    38960    24026     1740    -9991   -12924   -13369 
   -7868     2280     8121     8473     4817    -4194    -9241      817 
   16766    22040    15356     4061    -6011    -8514    -2181     4508 
    6041     7924    12641    10657    -3251   -16044   -14433    -9598 
  -15328   -17802    -8898    -5509   -10427   -12131    -7994      841 
    4368    -9752   -31694   -43503   -44050   -38222   -22883    -3703 
     -35    -7668    -3528     6544     7524     8476    11411     2917 
  -12472   -16733    -8495    -3248    -7537    -9572    -4773    -5990 
  -14890   -18377   -16545   -19456   -25829   -28788   -26588   -21348 
  -19873   -25428   -29079   -24954   -20611   -23180   -28424   -24535 
   -8177     8001    12689     7564     1683    -1353   -10304   -24364 
  -27278   -22855   -32283   -52544   -60775   -50525   -34480   -23188 
  -20343   -25971   -34534   -43693   -53461   -51927   -33530   -15723 
   -8862    -4726      218     5182     9183     2797   -14777   -24110 
  -17884   -15114   -22389   -24904   -23442   -27360   -27549   -17948 
   -6801     5408    19205    24545    20752    20255    27690    33646 
   29819    24099    28590    39909    46251    43111    38408    44116 
   60697    76608    82598    81581    78520    68617    54067    50232 
   58719    65056    63288    57721    48914    33803    17268     8523 
    3811    -2992    -3960    -2836   -18707   -42773   -46974   -31949 
  -17361    -5653     9743    19674    15037    10457    16155    17758 
   10404     3034    -5027   -11547    -9717    -3576    -1043    -6206 
  -18983   -39846   -67406   -85689   -81311   -64125   -46846   -27193 
   -1171    23093    34786    35026    30145    22359    13014     2813 
   -5664    -9678   -18636   -39571   -56605   -54987   -43957   -35624 
  -29545   -31538   -48886   -64076   -61645   -52814   -42365   -24743 
   -8378    -3175    -4553    -3171     1092     2157     1428     2153 
    -349    -4291    -1966     1130    -1595    -3723    -1638        2 
     394     3535    10036    16066    18265    16334    11819     6976 
    6454    11642    13852     8151     -390   -14476   -36137   -46713 
  -33608   -16530   -17579   -27969   -27761   -18662    -9696     1067 
   10041    11909    13842    21421    29030    28573    22352    19056 
   15103     3166    -8940   -11537    -7634    -5147   -10595   -23642 
  -34271   -37785   -40214   -40294   -27984    -6113     6243    -1621 
  -14699   -13511    -3846    -1329    -4347    -5181    -5311    -9475 
  -18424   -25845   -22433    -9415      297    -2512   -12894   -20441 
  -26372   -33349   -31576   -22936   -25844   -39661   -43849   -32491 
  -17990   -10050   -10450   -12944    -5173    11593    23125    30449 
   40117    40744    27248    15681    12419     5744    -4792    -8524 
   -7312    -4040     5275    10925     -359   -22294   -41001   -51003 
  -52597   -47844   -40898   -34366   -25002   -14081   -10606   -11633 
   -6404      419    -1901    -9807   -10372    -2192    -1223   -13638 
  -23145   -21290   -18480   -18907   -15561    -8926    -4406     4112 
   20864    36432    48038    58076    59018    48959    37139    25776 
   11670     1971     4297     7486       44    -6904     -876    10763 
   17122    19390    19432    14057     8802    11844    17367    16518 
    7490    -7615   -18583   -14882    -1003    12008    21256    26060 
   19686     2988    -6938     -799     8836     8677    -1074   -11176 
  -13029   -10607   -13619   -20305   -23170   -23213   -24097   -20929 
   -8904     6531    18321    21738    12520    -3295   -12651   -13614 
  -10907    -2334    11097    17445    12570     9909    17988    26381 
   26849    25753    26091    20355     3764   -18181   -32851   -32325 
  -21693    -9194     1068     4701     1314    -2305    -2807    -5571 
  -13092   -17104   -12437    -4058     2822     3591    -2740    -8418 
   -6876      910    11378    20748    23977    21367    21429    26085 
   28888    28272    23792    13314      872    -6903    -8029    -5220 
   -1482     1036    -1376    -5582    -4196    -3153    -9611   -15192 
  -15352   -19698   -30539   -40831   -51366   -61033   -59232   -46240 
  -35466   -30535   -22803   -14842   -18646   -28883   -32873   -31506 
  -26097   -16256   -10829   -15501   -22910   -22947   -13827     -398 
   14847    27965    30153    23391    20160    21882    22238    24146 
   28950    26867    15671     5486      -11    -6549   -14306   -18403 
  -21044   -22605   -16928    -6091     4151    13188    17355    12707 
    5755     4391     4227    -1039    -9044   -16453   -20795   -20973 
  -22896   -29649   -33831   -32161   -30132   -28868   -27133   -28101 
  -30314   -28464   -24346   -20317   -12633    -3897    -4173   -10650 
   -9735    -1725     1813    -1786    -5431    -2844     4271    10232 
   15222    19227    15408     4619    -2952    -6432   -11306   -16848 
  -21182   -23688   -22014   -17670   -17502   -21390   -20407   -15440 
  -14847   -16078   -17257   -24512   -32152   -28385   -19855   -20210 
  -24772   -24685   -24819   -23662   -13153    -2962    -2800    -2251 
    5385    10541     8233     7559    14484    23919    31828    34237 
   26172    16436    17518    24653    27893    28812    33496    39987 
   41163    37458    33118    25321    12909     2036    -5442   -11246 
  -11715    -6268    -1442     1544     5413     8620     8843     5048 
    -878    -4486    -4931    -5006    -9218   -19070   -26888   -26706 
  -23156   -21003   -20448   -20356   -19124   -18872   -20543   -17004 
   -7793    -2788    -4059    -8191   -13066   -11492    -1860     3700 
   -1851   -11327   -17965   -22316   -23688   -20662   -17384   -14845 
   -9087    -4556    -8229   -14193   -12770    -7186    -5352    -4723 
   -3049    -5625    -8294    -2532     5065     6192     4593     3763 
    2773     3213     7317    12814    16320    18182    17915    12960 
    5987     3226     4173     4022     4204     6612     8686    11684 
   16388    18089    16196    16689    21414    19846     3479   -14917 
  -18787   -12564    -7990    -5214    -3051    -6985   -15999   -20843 
  -17366    -6931     6841    13650     5335   -10648   -20760   -19227 
   -8185     3417     5824      254    -3989    -3789    -1796     1690 
    5164     6564     8986    11998     7764    -3423   -10812    -9793 
   -2847     6095     8123      742    -4737    -2804     1239     5769 
   10501    10528     2963    -9742   -21632   -27104   -26166   -23343 
  -22361   -23129   -24108   -25121   -24875   -23857   -26354   -30993 
  -32467   -32517   -34741   -37019   -36198   -32851   -30401   -30154 
  -29561   -27361   -23579   -17994   -14159   -15583   -19957   -23108 
  -21891   -16224   -10905    -8702    -7874    -8241    -9770   -10264 
   -8736    -5346     -780     2851     5323     9901    16098    17081 
   11238     5766     3747     1043    -4687   -10901   -11759    -5605 
     511     4668    14126    27311    34549    35843    36271    34059 
   28497    25040    24851    22694    17070    12019    10721    13819 
