Origin Time       2016/04/16 01:25:00
Lat.              32.753
Long.             130.762
Depth. (km)       12
Mag.              7.3
Station Code      NGS008
Station Lat.      32.9231
Station Long.     130.1843
Station Height(m) 6
Record Time       2016/04/16 01:25:16
Sampling Freq(Hz) 100Hz
Duration Time(s)  163
Dir.              E-W
Scale Factor      3920(gal)/6182761
Max. Acc. (gal)   53.836
Last Correction   2016/04/16 01:25:16
Memo.             
[...]
   -5906    -5917    -5905    -5900    -5911    -5898    -5879    -5898 
   -5923    -5917    -5902    -5897    -5891    -5887    -5909    -5936 
   -5919    -5876    -5870    -5900    -5923    -5926    -5912    -5887 
   -5882    -5903    -5919    -5909    -5893    -5895    -5902    -5896 
   -5899    -5924    -5929    -5891    -5870    -5894    -5923    -5929 
   -5913    -5887    -5869    -5885    -5928    -5943    -5902    -5869 
   -5891    -5919    -5909    -5901    -5914    -5909    -5888    -5894 
   -5911    -5901    -5895    -5922    -5927    -5884    -5864    -5903 
   -5933    -5919    -5899    -5889    -5886    -5900    -5922    -5926 
   -5897    -5879    -5899    -5907    -5897    -5917    -5926    -5890 
   -5876    -5902    -5913    -5905    -5910    -5914    -5890    -5870 
   -5894    -5938    -5939    -5889    -5870    -5906    -5916    -5903 
   -5907    -5898    -5885    -5901    -5917    -5909    -5901    -5904 
   -5902    -5895    -5902    -5914    -5906    -5895    -5903    -5906 
   -5891    -5891    -5917    -5933    -5910    -5879    -5887    -5907 
   -5906    -5909    -5921    -5903    -5886    -5908    -5914    -5885 
   -5883    -5919    -5931    -5899    -5881    -5897    -5906    -5910 
   -5917    -5906    -5887    -5890    -5909    -5917    -5907    -5897 
   -5900    -5903    -5900    -5905    -5912    -5902    -5889    -5903 
   -5917    -5907    -5901    -5908    -5899    -5887    -5907    -5932 
   -5912    -5873    -5875    -5910    -5929    -5923    -5902    -5874 
   -5873    -5915    -5950    -5924    -5873    -5871    -5911    -5925 
   -5901    -5890    -5904    -5910    -5908    -5905    -5888    -5884 
   -5916    -5927    -5897    -5893    -5916    -5902    -5883    -5909 
   -5931    -5904    -5871    -5890    -5925    -5919    -5900    -5898 
   -5896    -5894    -5905    -5916    -5914    -5904    -5882    -5880 
   -5921    -5939    -5906    -5880    -5879    -5899    -5929    -5925 
   -5890    -5883    -5905    -5908    -5898    -5916    -5925    -5890 
   -5881    -5909    -5907    -5902    -5923    -5910    -5874    -5886 
   -5925    -5921    -5888    -5900    -5931    -5897    -5868    -5921 
   -5949    -5910    -5893    -5911    -5926    -5932    -5932    -5931 
   -5932    -5935    -5950    -5957    -5951    -5967    -5991    -5989 
   -5988    -6003    -6028    -6023    -5960    -5971    -6090    -6110 
   -5989    -5934    -6016    -6089    -6073    -6040    -5982    -5859 
   -5816    -5917    -5959    -5864    -5772    -5757    -5809    -5924 
   -6041    -6066    -6035    -5993    -5855    -5710    -5845    -6217 
   -6377    -6082    -5632    -5454    -5616    -5872    -6029    -6123 
   -6146    -5944    -5641    -5616    -5951    -6295    -6253    -5901 
   -5728    -5890    -6100    -6147    -5969    -5613    -5245    -4972 
   -4947    -5319    -5802    -5925    -5804    -5956    -6281    -6189 
   -5974    -6363    -6839    -6624    -6230    -6154    -5883    -5274 
   -5081    -5853    -7143    -7483    -6041    -4567    -5255    -7206 
   -7670    -6122    -4849    -5163    -5901    -6166    -5664    -4436 
   -4095    -5108    -5999    -6478    -6677    -6342    -5599    -4970 
   -5745    -7647    -8207    -6550    -4140    -2972    -4092    -6809 
   -9236    -8929    -5788    -3988    -5993    -7907    -6574    -5297 
   -6969    -8828    -7648    -3982     -931    -1854    -6482    -9921 
   -8940    -5530    -3090    -3735    -7120    -9513    -8696    -6601 
   -4035    -1740    -3621    -8993   -10811    -6664    -1730    -1796 
   -7367   -12616   -12115    -6769    -2176    -2667    -5132    -5173 
   -5096    -6470    -7327    -6713    -4173    -2546    -5552    -9997 
  -10954    -7955    -2869      305    -1977    -6753    -8184    -7197 
   -7768    -7546    -4826    -4378    -6975    -8056    -6931    -5684 
   -4414    -3037    -3576    -6523    -8509    -7787    -5535    -2704 
   -1961    -5246    -8876    -9684    -8526    -4724      687     2036 
   -2266    -7901   -10111    -7273    -3245    -1653    -2382    -6270 
  -11811   -13394    -8767    -1047     3163    -1519   -10996   -14753 
   -9503    -2473     -679    -4774   -10946   -13350   -10318    -4844 
    1016     3973      237    -8733   -15853   -13541    -3091     4921 
    3329    -4659   -11445   -12477    -7757    -1625      -66    -4753 
  -11226   -13820   -10993    -3451     5329     6566    -2239   -12372 
  -16268   -12850    -5742    -1770    -5461   -11807   -11839    -6706 
   -1899     1857     1462    -4944   -10904   -11994   -10022    -6025 
   -2779    -4395    -8174    -8713    -5010     -560     -145    -3227 
   -5336    -5692    -7751   -11452   -10267    -4774    -3600    -5862 
   -6222    -7170    -9906    -9976    -6903    -4221    -3444    -6102 
   -8890    -4122     2407     -214    -7669   -11655   -11196    -8081 
   -5051    -5329    -8445    -8653    -5135    -3892    -3499     -695 
   -1089    -5616    -8357    -7645    -3544      329    -3374   -10713 
  -11535    -7541    -4972    -4800    -6142    -6238    -3969    -2498 
   -4661   -10431   -12784    -6066     1673     3523     -414   -11434 
  -19991   -14616    -4037      707    -1467   -10142   -16458   -10549 
   -1079    -1607    -8143    -7851    -1517       66    -2464    -2671 
   -3293    -5829    -6510    -6005    -5140    -3530    -5493   -11991 
  -15823   -11795    -3670     -648    -6942   -13880   -10451     -596 
    4882     3299    -4300   -14031   -16670    -8241     2756     4505 
   -3788   -10457    -8450    -5846    -7416    -4824     1652      304 
  -10280   -18680   -15756    -5151     3736     5310    -2580   -10963 
   -9600    -8927   -16318   -18067    -9488    -2128    -2907   -10631 
  -17757   -12522     5122    16112     6783    -8408   -10595    -4849 
     809     5350    -1517   -14823   -13250    -3808    -4896   -10511 
  -10276    -6953    -6411    -7136    -4097     -854    -2085    -3331 
   -3604    -7036   -10933   -10290    -4875      889     1618     -812 
   -1853    -4039    -8516    -9422    -6020    -4435    -5012    -4740 
   -5826    -7493    -4587     -168    -2203   -10510   -17086   -14806 
   -5563     1712     2553    -2319    -7563    -2963     8676    12339 
    3791   -11288   -23306   -20525    -3502    10880     5997   -13022 
  -22332   -13935    -3631     -983    -4173   -12222   -16841    -9676 
   -1929    -6474   -14693    -8892    10028    17692     1163   -21022 
  -26330   -12128     5528     7142    -8242   -20202   -11761     7828 
   13403    -1672   -16400   -15163    -9019   -12377   -20096   -18583 
   -6000     5151     4851    -2191    -8342   -12649   -11244     -152 
    8745     2212   -11356   -18902   -15654        1    13306     5578 
  -15131   -26558   -17739      703     6702    -3043   -15046   -21701 
  -15639     1911    10885     5884     3236    10821    19193     9988 
  -18351   -36816   -23826     2189     8616    -9333   -26852   -23553 
   -6823     4657     6468     3106    -1194    -1335    -2000    -8441 
  -10175    -3836    -1056    -6057    -9721    -1454     9471     5847 
   -3629    -6726   -11213   -16997   -14584    -8157    -2984     3796 
    6910     1403    -2977    -4110   -13273   -22525   -14859      893 
    8616     4818    -5599   -11474   -10268    -6633    -3344    -6457 
  -10953    -6855    -5276   -12005    -9915      903      565    -9368 
  -10816    -4773    -8323   -20127   -20391    -9908    -5595    -4561 
    -769    -1256      -37     6852     -492   -20624   -24069    -9003 
    2148     1191    -3261    -2532    -2264    -9487   -17446   -18115 
   -8759     3418     2877    -8813   -13830    -4486    10487    14659 
     225   -20349   -27047   -16799    -5110    -1584    -3683    -9631 
  -14269    -7028     7137     5782   -15000   -32102   -30469   -12798 
    9411    16193     1162   -15807   -15320     1086    14040     7861 
   -5910    -6063     3795     3526   -11403   -25643   -27799   -18479 
   -1268     8994    -4890   -27459   -26744    -4567    12277    14738 
    8687    -3379   -12314   -10067    -6957    -6204      222     -138 
  -14696   -18908    -1981    14076    13561      866   -13902   -19596 
  -12874    -7521   -13303   -20702   -22674   -22362   -19950   -13095 
   -3823      -29    -3201    -2414     4717     5340    -7722   -21975 
  -17396     2964    14713     7891    -8400   -19923   -11836     9116 
   13356    -5508   -20914   -16831    -6322    -5333    -7534     -373 
    7390     1001   -12935   -14428     2301    17510    12327    -4505 
  -12688    -3955    11214    12423    -4561   -23863   -29392   -18093 
   -3467     4585    10716    10327    -1883    -8752    -4940    -7139 
  -11619   -10244   -13965   -16486    -6878    -3427   -12108    -9677 
    9952    24645    14100   -14537   -33233   -29793   -15474    -1163 
    6708     2331   -11752   -20927   -13594      850     8877     9078 
   -1567   -15284    -9473    10765    16172    -1133   -23316   -30993 
  -24991   -17061    -4609     8780     6047    -7053   -11789    -3573 
   11051    16845     6997    -9142   -21432   -19507    -7788    -6813 
  -13182    -6173     9516    11779     -494   -10265   -13542   -13958 
   -7808     1975     4693    -2780   -12325   -13352    -8526    -7459 
   -6846    -4743    -8221    -9861     -745     6764     1900    -9786 
  -19609   -21104   -11872    -2677    -8409   -21095   -19406     -503 
   19827    21411    -2199   -28475   -27854    -4395     9801     4097 
   -5003    -8236    -5751     -725     1974     5534     9925     4352 
   -8401   -11714    -6335    -4246    -5180    -7060   -11121   -15324 
  -18801   -19052   -12165    -1056     4272    -3370   -14116   -12353 
     -19    11137     9564    -9511   -24374   -13988     3257     5936 
   -1603    -9514   -11560   -10647   -12137   -12420    -7824     3889 
   12903     1801   -16401   -17714    -6646     3189     3433    -6275 
   -9794     -782     5669     2081    -7922   -17149   -13877     -954 
    3981    -3828   -15090   -18997    -6040    16821    22664     2297 
  -16751   -11985      770    -2567   -18712   -31635   -33218   -19893 
    -614     4846    -1048     3112    17172    21113    11790     7293 
   11446     6753    -6818   -12587   -12626   -14880   -15728   -17329 
  -20735   -16396    -7192    -7754   -15498   -10611     7481    11208 
   -7419   -21842   -16830    -5736    -6480   -20436   -30282   -24508 
  -11396     2027    13820    15331     7366      813    -4536    -6879 
    -533    -2086   -22510   -35367   -21947     -312     7986     -221 
  -11044   -11855   -12368   -21249   -24158   -10812     6911    12164 
    2954    -7705    -7382     4476    13689     3885   -15560   -16901 
    1131    12286     5142    -7552   -13193   -13767   -18211   -24871 
  -25210   -20835   -16650   -13221    -9957    -1993    12361    23999 
   20707     4266    -4656      386     3560      378    -5527   -11095 
   -7825    -3040   -12643   -29271   -35674   -24872    -4866     4791 
    2816     4492     9078    14400    23517    20517     -987   -16306 
  -16193   -16239   -20281   -25237   -30802   -28599   -16419    -5271 
    1433     6369     3766    -7997   -12552     1364    15236     7897 
  -11405   -21390   -14970    -1038     6139     2360    -7404   -16529 
  -17391    -8189     5503    13207     6306    -5192    -4245     1245 
   -7544   -22021   -24797   -20137   -11869    -2474    -4682    -8344 
    9626    35328    34637     4740   -21006   -16525     2667     8103 
    3396     2837     1004    -1141     6867    16707    14076     2370 
   -5865    -7397    -6232    -1055     6350     1458   -20189   -35742 
  -26808    -7135     -283   -12694   -30003   -32478   -18253    -2821 
    -935   -14290   -29991   -35107   -29101   -18483    -8200     2179 
   14057    20600    13998     1491    -2152     6703    22580    37902 
   40160    22897      966    -4862     7367    20513    15634    -6326 
  -25561   -29682   -19505     -791    13575    10480    -9931   -29328 
  -25495    -4128     4023   -11044   -27857   -30454   -22035    -6620 
   12153    22315    19173    15031    17842    21564    18854    10504 
    7755    15666    20770    10514   -12716   -33485   -36378   -27615 
  -23962   -27840   -30181   -21765    -6797    -2080    -9949   -19205 
  -26882   -28750   -16593     2303    10296     4562     1935     8929 
   10067     -717   -15938   -31039   -38250   -34386   -29071   -27273 
  -26054   -23448   -18335   -14577   -18739   -25940   -23687   -10203 
    6307    19856    23945    11882    -8680   -22123   -27425   -33213 
  -38836   -41740   -44257   -33333     2309    34841    38888    27541 
   12455    -7306   -25100   -30272   -19814    -3852     2591    -7020 
  -20690   -18545    -1486    10427     5402    -5837   -10824   -17959 
  -32012   -42409   -43274   -27712     5571    31303    28314    12332 
    2828    -6926   -20880   -26709   -22157   -20442   -30463   -41524 
  -36436   -14587    14595    34091    27010    13725    21386    28107 
   12669    -3052    -1596     5717     5176    -2109    -6914    -3962 
    2363     1665    -8926   -20821   -27647   -32640   -37427   -32977 
  -10995    13289     8253   -22453   -36595   -19837      984     5513 
   -4308   -22760   -39497   -28980    14706    50533    44111    12370 
  -14029   -28415   -35166   -35671   -34692   -39036   -40728   -18581 
   26103    61345    65985    45629    13054   -19736   -44245   -61863 
  -79137   -90817   -82757   -58573   -33497   -11707     7307    20447 
   18951     1966    -8148    -5315   -18484   -46955   -47944    -9130 
   36209    52945    29722    -6020   -14840     -148     6815    -7011 
  -25542   -21206      499    11354    17525    38122    57526    42084 
   -6182   -38814   -39699   -46009   -58380   -45087   -15071     8557 
   27539    42936    42844    19969   -15655   -36334   -24068    -1445 
     665   -11158   -14348    -1843    16173    22288    13830     1507 
   -9692   -15684   -14685    -9689     5179    24016    21885     -849 
  -17662   -18610   -20101   -29935   -31087   -21372   -18609   -26541 
  -34895   -31828   -16185     7589    33783    35469     7685    -1409 
   22343    36003    27767    21247    19100    14107     9409    10106 
   20723    31096    26372    18445    17713     8232   -14226   -31789 
  -31300   -10212    18015    24798      687   -24570   -20545    -2450 
   -1477   -13922   -22733   -24243   -19571   -14739   -12195    -7756 
   -4799    -6961   -14316   -25726   -28414   -12341     9964    15699 
   -5575   -34272   -33906      700    32518    28017    -6205   -28861 
  -11609    20218    27941    15206     5140     1689    -1284    -1083 
    5774    14612    18638     3675   -32826   -49147   -11043    45249 
   60179    22891   -30706   -60632   -53778   -29211   -18790   -34270 
  -58674   -69408   -57151   -28929      213    15106     7825    -9996 
  -15609    -1912    15288    21426    20080    18056    14989     6623 
   -4809    -4993     6301    10323       94   -17447   -30444   -27081 
  -14508   -12009   -18945   -22072   -21922   -18954    -7195     3688 
     981    -8224   -11448   -10319   -12673   -13520    -6056     1765 
    5112     5703    -1962   -14259   -10795    15815    40331    35003 
   10773    -3551    -2328     3500     2662    -9615   -27523   -39458 
  -33806   -15760    -5315    -3196     -110    -4334   -18173   -26124 
  -19196    -6026    -4637   -17089   -23870   -16099    -3570     4828 
    5651      -28    -4038    -2254    -6290   -21289   -29200   -24936 
  -28027   -36099   -28614   -15079   -18384   -32873   -36320   -22989 
   -9365    -7869   -10397    -6925     4359    19408    21186      426 
  -21849   -30462   -36282   -42280   -42268   -39240   -35155   -31044 
  -28675   -18197     5381    23805    23478    13500     2588    -5507 
   -3027     7971    14450     9977     -679    -9025    -9603    -3874 
   -5191   -20163   -26625    -9378    10932    14120     5935      699 
    3422     7055      354   -17395   -34790   -41556   -30372     1384 
   40467    63643    56725    26322    -2901   -13583   -16221   -25927 
  -37890   -43629   -40716   -26574    -7905     2299     3254     1995 
   -3536   -22119   -46916   -53045   -33099    -7941     4556     5122 
    6383    14381    18008    11896     5205     2294     2423     7033 
   14169    18580    22067    32430    45983    46899    27868    -4024 
  -33384   -41405   -23524      856    10536     4269    -5268    -8349 
   -3677     5022    10580     6782    -5264   -18251   -24322   -24083 
  -25922   -26138   -15134    -4617    -7742   -14274   -14600   -12668 
  -10799    -8279   -10432   -22412   -34108   -30721   -14998    -1580 
    1154    -3155    -6062    -1436    12816    26566    23066     5961 
   -5103    -6575    -6676    -4872    -3549   -11440   -24703   -33839 
  -35828   -27622   -13921    -9525   -17325   -26082   -27517   -21280 
  -13314   -12002   -22476   -40236   -50151   -45633   -36434   -29745 
  -25545   -17593     3965    31073    42404    31179     7671    -8540 
   -2353    13710    12449   -11057   -40553   -58952   -53241   -22609 
   13812    28762    13955    -6628    -2982    25023    43099    21693 
  -22543   -53549   -58442   -40210   -12971      868    -5633   -19448 
  -23540   -13612    -3190     -652     3482    12635    18339    18915 
   17416    12690     4428    -1883    -2309    -6361   -25457   -46561 
  -47793   -35763   -27444   -21313   -16686   -16547   -10930     3538 
    9901    -4324   -24462   -27250   -17435   -13739   -14186   -10503 
   -9281   -17195   -25281   -23917   -16919    -6326     7272    12578 
    5976     -145     3308    10331     7719    -3977   -11337    -9270 
   -2509     1785    -2103   -10051   -10168    -1294     1653    -8070 
  -19885   -26892   -28899   -28163   -31116   -32455   -23029   -15329 
  -21156   -26265   -15841    -2355    -4048    -9684       21    15474 
   18974    14193    13049    14862    12141     5244    -2541   -11348 
  -18232   -19112   -14623    -7333      285     5416     4086    -6231 
  -17655   -19476   -17572   -21346   -24379   -20480   -14247    -8620 
    1571    20468    35519    28768     7427    -4155     1755    10822 
    6636   -12807   -32273   -32324   -13607     -379    -9328   -27791 
  -32510   -22480   -18033   -25268   -28466   -20271    -8909      119 
    7431    10683     6963     2425     4837     9437     8302     4257 
     695    -4015    -4288     4376    11029     6100    -1980    -1519 
    3129     4881     9840    19598    26211    26462    19304     6877 
   -3541    -9344   -12882   -18260   -26796   -31381   -26639   -17432 
  -14061   -21234   -28559   -25648   -19378   -16895   -11645      371 
   12709    20093    21115    14151     2018    -4762    -1148      519 
   -9984   -20321   -16497    -4375     5048     9534     9443     5481 
     353    -6092   -12991   -13850    -9353    -6936    -5279    -2710 
   -4539    -9585   -12386   -13385   -13637    -9932    -2195     3472 
    7904    16489    21124    11794    -3853   -11360    -6081     4793 
   10079     6595       13    -4477    -3507     4057    11504     9106 
   -2396    -8768      -81    13421    16126     7325    -2290    -4587 
   -2145    -2224    -5502    -8849   -11034    -8247     2180    11926 
