Origin Time       2016/04/16 01:25:00
Lat.              32.753
Long.             130.762
Depth. (km)       12
Mag.              7.3
Station Code      NGS010
Station Lat.      32.7353
Station Long.     129.8763
Station Height(m) 77
Record Time       2016/04/16 01:25:20
Sampling Freq(Hz) 100Hz
Duration Time(s)  300
Dir.              E-W
Scale Factor      3920(gal)/6182761
Max. Acc. (gal)   92.991
Last Correction   2016/04/16 01:25:20
Memo.             
[...]
   11493    10680     9901    10036    10683    11667    12745    12691 
   11151     9273     7839     7320     8375    10507    12488    13840 
   14020    12707    11183    10267     9015     7461     7115     8112 
    9369    10584    11635    12239    12682    12943    12523    11482 
    9933     7886     6373     6621     8446    10750    12281    12334 
   11635    11270    11501    12061    12526    12768    12404    10711 
    8397     7166     7461     8666    10669    13608    16289    16217 
   12407     7488     4993     5817     8751    11846    12921    11312 
    9026     8408     9286    10263    11191    12825    15155    16538 
   15061    10802     6229     3989     4210     6160     9936    13530 
   14544    14190    13895    12826    11134    10803    11963    12046 
    9624     5340     1423     1920     7791    14714    18926    19519 
   16449    11504     8125     7298     7125     6650     5775     4849 
    6609    12254    17460    17577    13099     7720     5076     7600 
   13605    16974    13460     5302     -649      692     7930    15890 
   19932    18154    13135     9324     8190     8532     9001     8118 
    6394     7129     9236     7335     2741     3285    11734    21838 
   26106    22929    15125     6165    -1121    -3838      491     9326 
   15833    17331    16601    15342    12071     6503     2369     3236 
    8072    12913    14264    11383     7675     7438    11270    17386 
   21951    19061     9170       35    -4003    -2945     3219    13062 
   23006    27435    21921     9566     -182     -701     4927    10453 
   16058    20746    16933     5691     1944    12391    23152    21413 
   12448     5647     2349     1979     7082    17675    25707    23786 
   14246     3697    -1414     1966     9117    15350    19743    18680 
   12415     9019    10697    12806    14092    13438     9529     6256 
    4784     2564     4018    11928    17931    17652    17023    17771 
   14390     6639     2587     6144    11569    14158    14649    11631 
    4631     2153     9301    16247    14119     8380     5579     3527 
    3445     9926    15010     9776     3132     5672    14541    21532 
   18675     5793    -3872     -934     8477    18017    26426    25993 
   13200     3259     6266    10448     9329    11644    17033    13724 
    1269    -6242    -1616     9519    20587    26028    22301    11389 
   -1941   -10841    -7789     8010    26060    32258    24147    11903 
    3818     2209     8724    19181    21949    13345     2794     -359 
    4654    11277    15192    19403    22799    16896     2845    -2111 
   10073    24310    28713    24563    12356    -3157   -11176    -7482 
    1847     8013    10911    15552    20807    22827    18968    10153 
    2063    -4147    -9910   -10339    -2880     7518    19627    34501 
   42337    32119    10552    -5753   -10477    -6941     5045    23516 
   34562    28559    12940    -1819    -9136    -2780    14674    28698 
   26413     8781   -12937   -26074   -19675     6173    37173    57992 
   57621    32316    -5181   -31651   -32757   -13490     7906    19563 
   26280    31543    29346    22682    21662    25080    25034    17807 
    3094   -12910   -19571   -14193      769    24101    46823    52200 
   32932     2440   -14846   -11951    -7855    -9298     -837    13939 
   20518    24299    28494    27422    25685    23711    11929    -4893 
  -13555   -15454   -11651     7221    35111    50825    42349    11727 
  -20530   -26901    -6701    21999    49331    62368    45206     8410 
  -18048   -22476   -11676     7216    22047    20852     5859   -10006 
  -12598      375    16957    28405    34515    34509    24649     4615 
  -14396   -20886   -16190    -1825    18348    28303    23564    16469 
    9652     -403    -5368     3319    18897    28992    32217    33355 
   27587     7393   -17382   -23567    -1555    28015    33888    15134 
   -1810    -5165     1985    16754    27715    24527     7116   -16985 
  -28026   -14046     8775    21901    27616    32737    34371    26153 
    9117    -6082   -15462   -22211   -19070     1474    33167    58455 
   57210    26970   -12010   -32020   -18967    10861    30657    31896 
   20162     5131      404    12604    25034    19447     4127    -9960 
  -18448   -10552     6600    14413    18007    22343    17185    10119 
   13591    16236    10307     6242     9220    13490     9475    -7081 
  -19021    -4053    26899    44704    41477    27269    16190    17474 
   25354    24655     3970   -26835   -40184   -25626     2806    29355 
   41496    30518     9534     5420    20908    38443    46093    30366 
  -10489   -42379   -37394    -6770    29700    53968    47862    19459 
    2354     8589    12957     1058   -12285   -14757    -5913     8132 
   15677    12910     9354    10937    16579    23779    22232     9920 
    3369     2917    -3908    -3047    10119     5631   -11448    -2729 
   24788    39843    42411    35468     7993   -26493   -35605   -10383 
   35540    73076    62208     2340   -54293   -66223   -35102    17041 
   66459    87548    64958    17704   -19086   -30757   -20431      587 
   15921    20393    16488      151   -17529    -9357    20085    39455 
   44043    43766    29389     1482   -20267   -28607   -23711    -8932 
    1740     5583    14177    30166    46040    54490    47798    24611 
    1143   -10916   -16416    -9263    13023    25490    16830     8024 
   15184    31863    43572    42491    26384    -1306   -29287   -50291 
  -56229   -32701    14519    57139    72934    57803    24103    -8338 
  -25097   -19143     6746    32552    39412    31153    17832      -40 
  -19868   -29123   -22489    -9600     8931    38262    62364    62569 
   41241     6347   -28962   -40354   -23077      811    19559    32591 
   25322    -4492   -23528    -9092    23340    49354    55058    43640 
   29106    14114     -530    -3479     3414     4384    -2797    -6670 
   -2563     6603    22795    38894    32507     7317    -4688     3497 
   19327    40733    51017    24129   -26991   -60157   -51620    -8922 
   42406    73551    67597    30499    -9614   -24658   -13702     2376 
    5722    -2942   -11087    -8685    13411    46435    58950    41620 
   14340    -6045   -13970    -9831     4437    18291    18411    13811 
   19721    31487    38412    33521    12928   -17687   -41621   -42286 
  -20508    10503    39139    51090    34939    -3341   -41094   -51498 
  -24775    21413    57104    60495    29786   -15031   -41864   -29348 
    9154    41287    51286    39284    16219      884    -2040      803 
    5250     7408     6844     5797     8140    18396    30118    30631 
   20889    12585     2096   -19712   -33024   -21777    -6679     2313 
   15724    24471    20022    15889    16512    16581    18394    16999 
    6724    -2902    -2941     6852    17447    15708     7423     7205 
   11795    15490    17829    11881     3400     8548    20318    21212 
    8860   -12704   -31250   -24732     6397    34510    39980    24257 
    7465     7479    14445    19441    28005    30391    18930     3891 
  -14246   -32987   -33049   -14406     8286    39106    68635    63310 
   27827     2921      267     4855    11988    14714    -4334   -33162 
  -33623     -267    38358    58009    47713    16637    -7134    -3831 
   17197    29487    24550    17475    12550     3987     3414    16117 
   22801    16194    11171    13681    13824     7005     2991    10713 
   20466    14905    -4014   -16960   -11934     3739    16691    24614 
   31255    34814    29148    13066    -4943   -14930   -12994      396 
   17743    26608    25618    20660    10368     -289     1965    14056 
   19138    11049      842      703     6921     9663    12007    19606 
   22732    13653     7171    14684    22703    19438    11580     7162 
    6061     9794    19460    24729    20720    18312    20565    18765 
   11349     3906    -1549    -3577     1315     7618     4652    -3418 
   -3621     4933    17119    30463    35205    20182    -8161   -28190 
  -25759    -6840    15676    33909    39065    25850     5415    -5523 
   -4055    -1834    -5098      147    19339    30024    18406    -1463 
   -9005     2520    19722    27967    26945    14384   -12477   -30996 
  -13693    25991    49432    42212    20430     4709      120    -2202 
   -3237     3243     8721     6094     6796    13019    12110     3031 
   -2802     2093    16418    33825    41392    26219    -3459   -24060 
  -23484    -5854    17607    35590    40323    31666    17683     -336 
  -19839   -15082    21987    50898    42589    16644     -521    -8737 
  -17687   -23317   -15945     4262    28475    41625    34007    14287 
   -3626   -16177   -24592   -24700   -10178    15543    35769    35130 
   22674    22705    37402    49777    53670    47882    24760   -12402 
  -42215   -48788   -37987   -19978     2430    22354    32679    35964 
   36748    33110    19567    -2967   -21762   -21714    -2565    22330 
   43598    56321    52271    31078     9740     1101    -3484    -7908 
    -429    15188    22667    25815    36209    41146    24658     2328 
   -5480    -4831    -5547    -5699    -4765    -2056     6850    17555 
   21688    21929    20274    11439    -1139   -11673   -22442   -28510 
  -19786      701    21823    38607    48434    43592    23355     2817 
   -3511     2485     9727     9960    -1958   -22495   -34615   -23791 
    5023    32306    47038    54003    54412    42006    18624     -711 
   -2241     8788    19866    27324    27548    19061     8540    -3468 
  -21856   -37065   -34548   -18978    -2298    10540    14002     7522 
     573      525     5753    11012    14524    18260    21398    18901 
   14280    19198    33205    47730    57272    52080    30292     6057 
  -12664   -23250   -17700    -2205     3901    -1449    -5236    -4944 
   -6805    -6895     2898    17109    25028    25734    20212     1012 
  -29245   -42851   -25085     5026    39322    79768   100988    89619 
   71526    56338    26864   -12994   -39491   -42849   -29479    -8240 
   11835    24643    30759    30735    25606    19827    13765     6351 
     874    -1269       -9     2896    -3994   -23794   -36026   -26564 
   -7344     9564    24088    28443    15634      867     2541    19444 
   36288    42662    37893    19963    -1482    -1081    25634    55527 
   72049    74670    60653    29579     -640   -15493   -25755   -39924 
  -42819   -25978    -4717     9627    16892    12471    -4111   -19694 
  -17311    11094    52207    77504    70867    42895    16181     -585 
  -12427   -18986   -18941   -18487   -17782   -10292     -951     -658 
   -7825   -14380   -15040    -6517     5253    10131    12069    19117 
   26820    31685    35128    31109    18075     7401     6449    11256 
   15231    15945    11707     3151     1420    15355    36286    46634 
   36445    10341   -19388   -37748   -31549    -2666    36160    70515 
   78856    49889     1933   -38988   -56945   -38448    10315    46739 
   42813    18304    -3854   -14988   -14480   -15806   -21788   -23239 
  -20153    -8782    15528    45556    70963    80835    68569    39694 
    6934   -17992   -33120   -45194   -50183   -34100    -4754     9775 
    1365   -11037   -11359     2028    18609    17643    -5470   -25311 
  -18397    14503    58272    93292   102745    82953    44212     3839 
  -21709   -24540    -8226    14969    33164    43402    48374    46642 
   32677     9491    -9973   -15496    -3195    18193    28539    27303 
   27743    16429   -18483   -48092   -46218   -22710      675    11986 
   18267    28861    34080    26399    18049    20160    17404   -11178 
  -50478   -72891   -73000   -55284   -32508   -14777    11122    46449 
   63371    51645    29637    17623    27510    61866   108221   137823 
  131692    94362    39197   -12222   -38652   -41235   -35572   -31225 
  -32681   -42065   -57792   -70683   -57849   -12140    44200    96562 
  135585   143123   120389    86493    45871    -5745   -48425   -52712 
  -37755   -50560   -81002   -83688   -50745      508    49412    68573 
   37759   -31849   -88717   -84333   -21730    56690   115470   147463 
  152970   134701   103185    63232    20211   -17441   -48730   -76585 
 -102778  -117229  -104941   -65053    -3268    64826   107734   100962 
   50933    -6982   -50938   -79863   -72729   -21527    27471    36257 
   24555    21190    18812     8696    10208    33429    58756    60681 
   32923    -6549   -38790   -47377   -19655    21931    43208    44565 
   36193    14378    -7616    -2939    20683    39596    59188    81445 
   83770    65203    47575    25180   -14687   -45110   -40223   -16858 
   -3850   -13590   -40469   -67331   -81718   -77051   -47138     1082 
   46155    66523    56351    35101    28624    40899    51967    43253 
   15861   -20482   -57382   -81825   -76176   -33718    31265    88810 
  111079    97795    65160    21457   -20492   -47422   -58864   -47904 
   -6016    48077    78047    69322    38846     6472    -8982    13379 
   56975    68176    27506   -28524   -61320   -55008   -11141    42416 
   70709    67821    51969    36427    21533     5482    -6769   -14091 
  -29219   -43866   -27912    10295    41519    66880    81811    62428 
   20893    -4790   -10494   -17033   -28154   -34764   -37283   -36764 
  -24187     6078    49184    87703    93381    49212   -22650   -69224 
  -63970   -18763    51098   117160   139733    95603    -8459  -111356 
 -136293   -83108   -15279    28897    59926    84790    78513    33012 
  -20188   -50050   -51674   -42506   -33396   -16965     9687    35165 
   41335    25062     9749    14948    30325    40580    43583    36216 
   21083     8285     2638     8328    25361    38567    32884    13766 
  -15629   -61803  -103059  -106278   -68425    -7284    53715    92301 
  100112    85971    62554    36550    16474    10703    13655    13242 
    6279    -8547   -32760   -48568   -32025     5446    29969    38439 
   43382    28427    -3381    -9050     5236    -9976   -46011   -50837 
   -9675    55608   115340   138728   114808    57881    -4432   -45114 
  -70289   -88922   -75389   -32099     4714    28993    52304    64440 
   44642     2288   -27842   -27849    -3729    21484    31772    40974 
   59390    76410    82996    77125    54750     6200   -60530  -107239 
 -106196   -65763   -11971    31811    60760    79992    77103    37362 
  -22600   -64460   -62047   -27327      -13     4830    10320    27466 
   36115    21891     2162     3142    21434    24820      174   -15260 
    2879    21790    23399    34279    70088   105507   103916    64309 
   16565   -18679   -39683   -41854   -25708   -14549   -15506   -11466 
   -1524    11812    32274    42032    20707   -20359   -59029   -80026 
  -60725     4295    74611   108340   105672    79225    23656   -54460 
 -110191  -101603   -44616    12320    49936    68321    65277    56095 
   52062    39170    18652    11716    15698    10454    -5289   -21211 
  -34752   -44137   -43202   -22609    23239    72789    91946    75730 
   38072    -3673   -27248   -28006   -15877     7794    32457    31962 
    6512    -7986     4882    13631    -6640   -30981   -32636   -24889 
  -18967    -3191    20399    40983    55381    51159    19139   -19645 
  -33134   -24848   -22878   -24257    -6983    22929    43416    54008 
   70561    87542    78065    31953   -30706   -73745   -73381   -43009 
   -7357    32278    71783    83085    55375    17529    -2563    -3193 
    8622    19591    14437     -264    -7383    -4642    -1186    -4336 
   -9941    -9656    -2651     6954    13382    14095     6810    -7644 
  -12415     1268    19600    32643    36925    25987     2896   -13660 
  -11200     -477     7048    18321    35983    45747    39687    22063 
   -1755   -22988   -34489   -34705   -22110     2578    36652    73481 
   97051    90059    46863   -16165   -63343   -72416   -56856   -35140 
   -5052    32098    58695    60557    36192     -778   -28060   -36754 
  -30503   -13286    11279    42833    72485    82185    73197    61212 
   44312     6865   -38960   -55634   -44026   -34092   -25161    -8561 
    3155     9473    31284    60948    62400    38509    20526    14851 
   13920    10913     1324    -7014    -3270    14070    37479    55842 
   61563    46694     9817   -33133   -64261   -72472   -57756   -33629 
   -6413    20390    31359    23258    10912     3313     4590    17625 
   28671    19231    -3393   -15249    -7401    12306    40060    70376 
   81901    66191    40146    10992   -25076   -55326   -57689   -25634 
   19237    42430    38343    26451    11820      857    10201    28124 
   30147    19052     8116     4289    12206    22523    18902     6409 
     158    -1787    -6902   -10318    -2937    14660    35607    56543 
   73796    77851    58871    25264     5724     9242    14541     9150 
   -3822   -19910   -29617   -24973   -11827    -6085   -16412   -30810 
  -30374    -8827    28550    65882    84008    78563    51035      -24 
  -59258   -89688   -66910   -19482     7578    18480    28842    24959 
   10355    12113    32250    48441    50341    43706    31655    13659 
   -6810   -19415   -13472     2278     9044     7245     9264    16719 
   22472    31111    52534    75469    80518    62505    24877   -22048 
  -60434   -75420   -62646   -28368    13157    43576    48395    27906 
    1845    -4737     9594    24287    32640    39045    33117     9174 
  -18422   -32239   -21423     5630    25738    29298    21009     8266 
   -1257    -5615    -2698    12906    29457    22623    -5498   -24403 
  -19462    -4836     9616    24628    34450    36222    34039    28206 
   20975    16917    13360     9660    12289    17781    14832     2902 
  -12988   -27758   -31142   -20019    -1913    21705    51726    75540 
   77633    59084    30062     -540   -17801    -9138    15233    32730 
   38095    38891    31214    12363    -7331   -22060   -29450   -26638 
  -13561    10957    40889    63685    69858    55509    28801     2368 
  -16221   -18754    -6525      704    -6953   -15117   -12435    -2439 
    8717    23053    45206    66367    75913    75781    63511    24463 
  -37432   -82778   -83079   -52950   -16631    17761    45991    59530 
   55439    36771     6762   -22166   -30994   -15398    11925    32446 
   32988    17461    -4575   -24089   -29171   -22143    -9506    15698 
   50256    70169    61407    39343    19834    -2336   -25767   -33143 
  -23191   -12255    -7682    -9823   -15402    -6520    24760    53327 
   57379    45680    30961     9856   -18638   -35130   -19578    17822 
   43368    41987    34458    40466    49532    42510    20076    -8234 
  -36256   -49818   -39430   -13783    14936    41269    62528    67981 
   49799    19439    -8180   -26931   -35408   -29559    -6005    20929 
   36576    44830    45707    33694    17764    12486    14448     9494 
   -1430    -8764   -12181   -12184    -4597     6383    12006    10900 
    -163   -22524   -38183   -25417     9428    40357    56346    60008 
   50309    28896      204   -31232   -48967   -37454    -7089    21540 
   41628    50691    41561    16827    -2795    -2318     3399    -2674 
   -6117     8011    25589    35233    44233    52674    50807    35759 
   13639    -6685   -16856   -12027     1155    10052    11408    10863 
