Origin Time       2016/04/16 01:25:00
Lat.              32.753
Long.             130.762
Depth. (km)       12
Mag.              7.3
Station Code      NGS017
Station Lat.      32.6658
Station Long.     128.8433
Station Height(m) 127
Record Time       2016/04/16 01:25:39
Sampling Freq(Hz) 100Hz
Duration Time(s)  114
Dir.              N-S
Scale Factor      3920(gal)/6182761
Max. Acc. (gal)   5.030
Last Correction   2016/04/16 01:25:39
Memo.             
[...]
    4669     4945     5189     5293     5207     4968     4739     4655 
    4642     4528     4233     3813     3453     3334     3412     3489 
    3428     3186     2797     2405     2184     2208     2403     2673 
    3063     3652     4378     5103     5697     6057     6215     6294 
    6378     6538     6820     7174     7511     7741     7814     7793 
    7795     7884     8005     8028     7887     7618     7261     6851 
    6491     6338     6468     6772     7010     6987     6658     6088 
    5422     4906     4757     4954     5261     5466     5454     5150 
    4609     4077     3782     3775     4001     4334     4638     4835 
    4851     4670     4425     4231     4107     4079     4207     4494 
    4853     5209     5524     5722     5786     5814     5902     6161 
    6672     7282     7714     7845     7691     7300     6736     6091 
    5503     5103     4945     5010     5171     5229     5137     5038 
    5046     5172     5404     5713     6011     6205     6296     6377 
    6513     6707     6930     7089     7067     6894     6789     6897 
    7115     7238     7157     6931     6699     6567     6559     6579 
    6442     6027     5396     4736     4233     3983     3954     4047 
    4148     4151     4063     4016     4094     4264     4449     4584 
    4626     4546     4325     4003     3766     3840     4273     4890 
    5473     5894     6100     6168     6307     6650     7096     7408 
    7435     7236     6984     6846     6907     7063     7113     6991 
    6795     6646     6573     6504     6387     6265     6214     6238 
    6212     5977     5510     4915     4325     3879     3719     3922 
    4385     4834     5065     5127     5158     5190     5200     5207 
    5219     5193     5073     4820     4444     4028     3675     3469 
    3443     3553     3698     3734     3572     3323     3238     3445 
    3875     4400     4968     5572     6128     6508     6639     6564 
    6463     6515     6716     6922     6976     6797     6427     5998 
    5663     5563     5732     5994     6115     5999     5725     5496 
    5493     5736     6116     6461     6638     6637     6460     6102 
    5640     5163     4737     4479     4467     4665     4972     5256 
    5403     5344     5073     4716     4528     4718     5281     5960 
    6412     6409     5890     5043     4276     3898     3946     4296 
    4708     4939     4948     4839     4680     4509     4397     4442 
    4685     5068     5490     5844     6042     6080     6034     5927 
    5727     5448     5145     4843     4595     4511     4629     4872 
    5138     5322     5327     5165     4974     4930     5174     5714 
    6383     6955     7277     7331     7191     6966     6786     6768 
    6939     7252     7628     7904     7856     7403     6750     6180 
    5781     5513     5369     5296     5128     4794     4437     4220 
    4181     4280     4433     4501     4388     4135     3878     3748 
    3791     3980     4224     4388     4455     4573     4871     5313 
    5744     6055     6264     6407     6462     6391     6215     6017 
    5832     5637     5445     5320     5352     5589     5957     6283 
    6406     6297     6139     6165     6393     6642     6717     6528 
    6141     5700     5313     5032     4852     4714     4596     4571 
    4676     4813     4861     4820     4817     4924     5023     4967 
    4770     4583     4563     4771     5118     5474     5744     5825 
    5710     5601     5768     6305     7047     7698     8003     7882 
    7470     6987     6549     6157     5784     5408     5048     4795 
    4715     4734     4643     4280     3770     3470     3582     3988 
    4427     4705     4829     4954     5207     5608     6082     6512 
    6768     6767     6585     6441     6486     6655     6779     6730 
    6492     6149     5829     5640     5628     5754     5904     5972 
    5930     5829     5742     5691     5630     5550     5535     5652 
    5880     6070     5987     5526     4859     4303     4097     4309 
    4836     5455     5979     6337     6515     6554     6564     6677 
    6997     7536     8118     8470     8466     8184     7758     7311 
    6934     6622     6326     6071     5946     5975     6064     6121 
    6166     6256     6396     6554     6672     6675     6543     6301 
    5982     5636     5278     4889     4576     4529     4736     4967 
    4998     4758     4399     4162     4157     4391     4796     5153 
    5241     5025     4661     4366     4256     4278     4280     4144 
    3913     3749     3774     3942     4078     4072     3996     3970 
    4012     4061     4102     4177     4322     4536     4791     5043 
    5237     5358     5447     5553     5694     5844     5948     5979 
    6001     6135     6415     6698     6802     6701     6534     6488 
    6670     7043     7472     7791     7862     7669     7314     6916 
    6626     6564     6580     6356     5784     5079     4602     4584 
    4949     5421     5726     5698     5380     4994     4750     4744 
    4930     5135     5210     5115     4883     4636     4558     4705 
    4938     5079     5053     4916     4867     5071     5412     5636 
    5675     5651     5702     5880     6095     6182     6066     5794 
    5504     5368     5516     5920     6327     6408     6048     5385 
    4668     4143     3987     4234     4744     5282     5650     5745 
    5536     5083     4568     4194     4069     4257     4802     5571 
    6214     6454     6290     5923     5683     5837     6345     6917 
    7244     7163     6742     6187     5644     5198     4969     5040 
    5326     5620     5773     5780     5629     5252     4737     4326 
    4172     4302     4681     5161     5523     5643     5544     5343 
    5207     5286     5579     5924     6154     6229     6235     6258 
    6305     6384     6502     6600     6556     6313     5994     5820 
    5899     6194     6607     6969     7088     6928     6566     6061 
    5501     5063     4929     5147     5621     6171     6588     6751 
    6686     6493     6308     6237     6238     6178     5956     5565 
    5077     4603     4288     4240     4419     4750     5224     5744 
    6105     6209     6098     5850     5614     5523     5546     5595 
    5603     5516     5344     5143     4963     4802     4654     4634 
    4921     5500     6139     6601     6774     6682     6453     6208 
    5982     5815     5724     5640     5498     5266     4947     4645 
    4551     4801     5306     5790     6040     6026     5851     5686 
    5666     5773     5892     5968     5975     5836     5484     4929 
    4277     3765     3630     3940     4586     5336     5876     5972 
    5662     5219     4993     5247     5912     6660     7189     7297 
    6943     6367     5904     5764     5966     6365     6831     7295 
    7630     7715     7530     7190     6987     7167     7625     8033 
    8121     7750     6987     6153     5593     5467     5767     6341 
    6918     7245     7260     7069     6806     6582     6456     6371 
    6230     6063     5947     5828     5585     5154     4593     4139 
    4063     4429     5100     5791     6180     6157     5855     5447 
    5063     4808     4760     4883     4987     4909     4668     4345 
    3961     3506     3022     2635     2470     2614     3109     3834 
    4472     4702     4413     3774     3162     2944     3226     3778 
    4218     4275     3936     3444     3134     3200     3611     4153 
    4559     4651     4430     4105     3934     3992     4187     4398 
    4592     4863     5280     5752     6079     6138     6017     5942 
    6088     6503     7075     7538     7613     7233     6609     6106 
    5982     6168     6381     6401     6136     5626     5074     4699 
    4578     4655     4805     4926     4957     4830     4535     4167 
    3858     3745     3924     4331     4803     5193     5361     5261 
    4971     4638     4498     4759     5370     6062     6551     6669 
    6481     6218     6119     6361     6922     7546     7981     8084 
    7777     7140     6412     5876     5685     5719     5770     5807 
    5883     6069     6452     6970     7428     7688     7754     7815 
    8066     8451     8753     8794     8489     7933     7363     6965 
    6835     6953     7150     7238     7094     6662     6047     5465 
    5048     4849     4842     4897     4871     4722     4500     4286 
    4153     4179     4422     4866     5369     5723     5819     5722 
    5607     5595     5662     5704     5612     5311     4829     4331 
    3986     3828     3843     4051     4404     4797     5162     5454 
    5666     5854     6087     6453     7002     7613     8058     8170 
    7934     7457     6879     6289     5752     5337     5074     4919 
    4781     4562     4226     3848     3564     3465     3519     3654 
    3810     3852     3601     2998     2212     1565     1296     1423 
    1840     2413     2970     3331     3423     3308     3162     3179 
    3423     3818     4241     4588     4788     4802     4635     4310 
    3888     3528     3425     3660     4135     4671     5165     5616 
    6054     6458     6775     7006     7210     7450     7732     7989 
    8157     8198     8140     8127     8310     8713     9273     9875 
   10350    10594    10669    10687    10684    10652    10568    10393 
   10105     9726     9319     8960     8756     8823     9130     9446 
    9508     9188     8594     7987     7574     7410     7377     7248 
    6896     6323     5553     4703     3972     3479     3240     3158 
    3049     2852     2645     2493     2494     2728     3081     3312 
    3225     2809     2293     1964     1947     2158     2406     2541 
    2456     2123     1681     1297     1010      834      770      740 
     607      243     -340     -963    -1412    -1481    -1056     -263 
     657     1565     2455     3375     4297     5120     5798     6396 
    6982     7536     8014     8332     8347     8090     7809     7740 
    7957     8351     8703     8820     8659     8338     8061     8037 
    8322     8746     9073     9121     8870     8449     8032     7802 
    7710     7546     7261     6860     6373     5984     5861     6026 
    6365     6698     6903     6919     6792     6685     6707     6843 
    6962     6891     6606     6250     6032     6111     6464     6894 
    7187     7308     7458     7843     8445     9084     9569     9793 
    9782     9665     9585     9598     9594     9345     8715     7766 
    6668     5636     4818     4175     3561     2889     2136     1335 
     617      136      -60      -36       96      233      380      630 
    1000     1407     1726     1845     1811     1831     2045     2418 
    2795     3051     3236     3495     3892     4373     4831     5192 
    5426     5507     5433     5247     4999     4691     4330     4007 
    3866     4009     4415     4920     5328     5498     5325     4760 
    3876     2884     2056     1563     1412     1554     1934     2475 
    3056     3494     3622     3407     2982     2571     2358     2461 
    2953     3745     4620     5418     6001     6261     6333     6499 
    6875     7383     7893     8297     8549     8718     8891     9040 
    9140     9250     9380     9489     9571     9611     9509     9204 
    8836     8587     8519     8613     8703     8588     8341     8111 
    7940     7936     8181     8582     8994     9285     9425     9528 
    9673     9825     9977    10085     9960     9523     8908     8268 
    7759     7522     7531     7690     7983     8387     8749     8857 
    8659     8251     7765     7410     7324     7366     7296     7027 
    6565     6004     5577     5435     5473     5517     5486     5384 
    5266     5183     5196     5337     5518     5713     6027     6435 
    6748     6863     6792     6606     6443     6434     6585     6745 
    6783     6718     6577     6354     6094     5839     5589     5279 
    4839     4333     3925     3728     3756     3925     4087     4125 
    4025     3868     3710     3501     3225     2945     2652     2296 
    1925     1656     1574     1651     1801     1990     2191     2365 
    2549     2826     3209     3589     3878     4134     4475     4972 
    5627     6359     7000     7364     7413     7331     7321     7412 
    7457     7284     6832     6124     5249     4393     3696     3132 
    2667     2363     2253     2279     2372     2483     2638     2938 
    3424     4039     4695     5348     6031     6784     7526     8089 
    8403     8490     8347     7913     7159     6199     5256     4481 
    3876     3421     3135     2983     2858     2698     2524     2387 
    2350     2495     2848     3339     3871     4349     4713     5009 
    5377     5902     6551     7208     7737     8074     8283     8471 
    8663     8814     8894     8922     8921     8875     8786     8694 
    8614     8548     8495     8437     8389     8367     8305     8102 
    7739     7257     6694     6092     5508     5057     4871     4909 
    4940     4773     4385     3904     3527     3346     3292     3281 
    3311     3437     3700     4102     4621     5216     5815     6375 
    6908     7384     7704     7749     7458     6833     5912     4836 
    3810     2939     2283     1890     1686     1505     1226      836 
     394      -35     -385     -605     -675     -598     -450     -368 
    -409     -594    -1000    -1580    -2111    -2388    -2298    -1840 
   -1177     -535      -91       27     -159     -421     -474     -124 
     651     1670     2690     3567     4270     4816     5159     5221 
    5053     4828     4726     4851     5192     5659     6168     6621 
    6911     7009     6967     6845     6699     6660     6904     7460 
    8172     8853     9354     9542     9404     9086     8750     8510 
    8403     8330     8159     7805     7286     6776     6445     6363 
    6589     7100     7713     8226     8529     8629     8573     8383 
    8157     8066     8130     8179     8031     7626     7052     6453 
    5926     5571     5433     5420     5426     5416     5422     5538 
    5799     6048     6057     5723     5138     4512     4033     3786 
    3791     3996     4258     4442     4513     4510     4502     4519 
    4576     4756     5139     5699     6338     6904     7292     7605 
    8059     8747     9596    10425    11030    11245    10958    10176 
    9117     8109     7340     6769     6261     5689     4903     3822 
    2535     1224       81     -714    -1090    -1142    -1045     -975 
   -1042    -1233    -1487    -1718    -1802    -1678    -1384     -957 
    -448       19      350      592      865     1240     1716     2192 
    2488     2518     2393     2283     2292     2461     2793     3256 
    3797     4337     4776     5040     5077     4899     4634     4469 
    4520     4796     5215     5647     5996     6243     6443     6735 
    7230     7873     8481     8916     9149     9229     9229     9221 
    9227     9193     9079     8920     8727     8468     8166     7851 
    7497     7144     6875     6652     6328     5811     5173     4577 
    4142     3939     3969     4150     4462     4908     5324     5604 
    5808     5887     5753     5528     5429     5590     5978     6421 
    6716     6671     6240     5604     5044     4763     4766     4871 
    4926     4921     4895     4893     4954     5082     5272     5477 
    5578     5467     5153     4776     4488     4332     4287     4313 
    4325     4231     4035     3827     3668     3586     3611     3726 
    3925     4308     4970     5882     6915     7903     8729     9353 
    9742     9865     9805     9715     9679     9726     9874    10072 
   10215    10171     9815     9097     8106     7049     6191     5791 
    5962     6575     7338     7973     8353     8501     8513     8514 
    8606     8797     9042     9297     9525     9688     9759     9700 
    9449     8994     8398     7701     6898     6036     5263     4714 
    4393     4233     4127     3916     3540     3153     2955     3051 
    3431     3963     4475     4870     5135     5287     5339     5328 
    5272     5129     4867     4527     4200     3981     3884     3841 
    3761     3581     3326     3103     3011     3077     3262     3491 
    3726     4028     4498     5171     5922     6515     6806     6858 
    6840     6889     7049     7302     7562     7671     7568     7391 
    7318     7400     7543     7609     7554     7449     7395     7502 
    7857     8405     8967     9374     9525     9416     9132     8810 
    8630     8683     8900     9161     9383     9538     9625     9612 
    9463     9249     9090     9002     8884     8634     8184     7492 
    6606     5730     5099     4828     4885     5145     5462     5719 
    5815     5691     5395     5071     4830     4681     4583     4449 
    4170     3729     3274     2945     2742     2657     2682     2743 
    2796     2827     2816     2843     3059     3503     4083     4654 
    5059     5191     5053     4770     4521     4413     4406     4363 
    4175     3809     3260     2551     1796     1124      625      393 
     378      341      221      164      227      352      458      539 
     671      892     1240     1673     2091     2490     2838     3113 
    3399     3812     4443     5177     5814     6284     6511     6500 
    6292     5872     5407     5072     4889     4946     5218     5500 
    5642     5597     5423     5236     5184     5404     5863     6450 
    7076     7612     8020     8366     8701     9104     9620    10199 
   10770    11241    11493    11475    11254    10968    10741    10605 
   10468    10220     9850     9404     8921     8426     7905     7352 
    6815     6329     5924     5613     5292     4852     4352     3914 
    3623     3510     3527     3579     3563     3422     3256     3224 
    3344     3504     3649     3809     3952     3990     3944     3899 
    3847     3748     3626     3499     3382     3322     3315     3290 
    3195     2984     2646     2297     2119     2246     2714     3456 
    4372     5321     6088     6610     7030     7409     7748     8064 
    8305     8507     8769     9001     9088     9065     9033     9007 
    8855     8521     8134     7820     7678     7793     8079     8341 
    8405     8115     7452     6481     5270     4034     3023     2384 
    2215     2538     3211     3943     4481     4779     4965     5217 
    5629     6156     6676     7084     7332     7379     7214     6922 
    6613     6372     6258     6251     6248     6141     5941     5772 
    5744     5882     6190     6593     6862     6803     6462     6065 
    5845     5812     5829     5870     5980     6145     6249     6191 
    6089     6169     6526     7109     7752     8258     8557     8688 
    8697     8617     8486     8397     8405     8418     8320     8108 
    7920     7930     8117     8296     8342     8255     8079     7875 
    7723     7669     7643     7496     7157     6724     6371     6208 
    6194     6205     6131     5912     5566     5174     4781     4397 
    4085     3914     3887     3986     4174     4386     4546     4616 
    4647     4729     4885     5097     5371     5684     5983     6231 
