Origin Time       2016/04/16 01:25:00
Lat.              32.753
Long.             130.762
Depth. (km)       12
Mag.              7.3
Station Code      NGS012
Station Lat.      32.7884
Station Long.     130.3463
Station Height(m) 99
Record Time       2016/04/16 01:25:14
Sampling Freq(Hz) 100Hz
Duration Time(s)  243
Dir.              E-W
Scale Factor      3920(gal)/6182761
Max. Acc. (gal)   71.195
Last Correction   2016/04/16 01:25:14
Memo.             
[...]
   15844    15879    15855    15828    15879    15896    15814    15838 
   15916    15850    15811    15891    15885    15823    15855    15891 
   15859    15834    15860    15884    15848    15826    15890    15892 
   15814    15852    15902    15832    15833    15911    15863    15800 
   15893    15908    15786    15852    15941    15808    15814    15950 
   15837    15779    15945    15884    15762    15900    15918    15778 
   15858    15932    15815    15830    15914    15849    15811    15890 
   15897    15819    15846    15889    15854    15855    15862    15848 
   15857    15867    15867    15858    15847    15873    15879    15824 
   15862    15910    15828    15830    15904    15849    15814    15890 
   15895    15827    15838    15890    15861    15834    15882    15871 
   15821    15866    15896    15843    15842    15882    15858    15832 
   15870    15896    15853    15818    15858    15894    15857    15833 
   15884    15881    15816    15862    15905    15839    15840    15891 
   15861    15821    15869    15891    15830    15847    15900    15842 
   15832    15907    15849    15814    15907    15870    15812    15872 
   15887    15835    15838    15903    15861    15794    15899    15911 
   15777    15856    15939    15795    15817    15954    15849    15776 
   15911    15896    15788    15878    15911    15808    15856    15902 
   15817    15846    15917    15844    15815    15886    15879    15840 
   15853    15879    15863    15831    15861    15889    15850    15838 
   15886    15872    15818    15865    15892    15829    15855    15897 
   15828    15833    15904    15858    15815    15885    15894    15809 
   15849    15925    15832    15807    15917    15883    15795    15869 
   15912    15821    15828    15905    15869    15818    15882    15902 
   15810    15835    15909    15851    15837    15890    15864    15832 
   15854    15883    15869    15833    15866    15872    15813    15871 
   15920    15826    15818    15899    15876    15816    15866    15905 
   15826    15826    15913    15852    15807    15925    15881    15772 
   15891    15918    15799    15845    15924    15841    15799    15902 
   15896    15797    15868    15926    15816    15816    15914    15865 
   15811    15892    15902    15802    15842    15924    15833    15809 
   15919    15871    15791    15888    15906    15809    15846    15903 
   15847    15831    15882    15885    15843    15838    15873    15867 
   15836    15874    15882    15811    15856    15922    15830    15810 
   15913    15875    15802    15873    15896    15836    15860    15883 
   15836    15848    15896    15854    15825    15878    15869    15842 
   15868    15868    15867    15852    15835    15894    15868    15798 
   15898    15909    15795    15859    15912    15823    15844    15903 
   15829    15826    15922    15856    15776    15902    15936    15787 
   15817    15933    15850    15813    15908    15871    15808    15874 
   15905    15833    15818    15894    15874    15806    15883    15910 
   15808    15849    15919    15836    15817    15899    15897    15815 
   15832    15902    15853    15838    15892    15849    15836    15892 
   15867    15815    15859    15914    15843    15813    15903    15871 
   15807    15894    15900    15793    15843    15932    15843    15800 
   15913    15896    15788    15867    15924    15813    15830    15916 
   15859    15814    15865    15895    15859    15832    15869    15886 
   15839    15847    15888    15847    15834    15880    15859    15848 
   15874    15853    15857    15882    15846    15829    15880    15888 
   15835    15837    15880    15878    15833    15848    15905    15847 
   15794    15901    15922    15789    15836    15940    15818    15807 
   15950    15859    15776    15914    15893    15771    15876    15939 
   15801    15816    15935    15850    15791    15916    15890    15775 
   15870    15936    15820    15812    15923    15884    15786    15865 
   15931    15824    15806    15922    15869    15778    15903    15927 
   15776    15844    15950    15819    15801    15925    15877    15810 
   15865    15880    15845    15848    15883    15872    15829    15862 
   15887    15841    15855    15877    15841    15850    15879    15860 
   15840    15873    15885    15829    15838    15902    15862    15820 
   15882    15883    15817    15858    15911    15848    15820    15884 
   15877    15828    15857    15890    15852    15838    15883    15867 
   15822    15874    15891    15829    15851    15898    15862    15827 
   15865    15878    15830    15863    15905    15829    15832    15918 
   15856    15801    15899    15891    15794    15857    15925    15828 
   15800    15899    15864    15790    15872    15883    15785    15836 
   15898    15801    15786    15857    15811    15802    15909    15918 
   15855    15866    15838    15712    15724    15919    15996    15925 
   15921    15881    15772    15897    16094    15983    15846    15872 
   15761    15778    16149    16043    15631    15970    16051    15245 
   15464    16556    16137    15099    15686    16402    15630    15224 
   15851    15831    15601    15886    15407    15046    16220    16541 
   15465    16013    16991    15607    14501    15632    16431    16365 
   16654    16232    15294    15668    16466    16207    15958    16323 
   15727    14574    15270    16708    16722    16381    15887    14759 
   14603    15113    15162    16006    16910    15984    14948    15323 
   15912    16160    16082    16033    16590    16189    14453    14563 
   16908    17809    16276    15018    15114    14910    14742    16310 
   17361    16126    15480    15950    15265    14713    16105    17134 
   15765    14153    14454    15769    16824    16373    14849    15242 
   16189    15016    14752    16370    16110    13656    13979    18153 
   18201    13467    14296    17902    15642    14451    17556    17536 
   16083    16858    17051    16709    16302    15642    17184    18829 
   17716    16702    15936    14763    15413    16631    17674    18217 
   15557    13671    15551    15399    14237    16229    16664    14752 
   14947    16730    18352    18122    15708    14609    14716    14114 
   15348    16374    13529    13756    17689    16273    14708    17762 
   16616    13644    16077    17956    16458    15824    15167    14072 
   16199    20203    19577    15313    15146    17830    16937    14157 
   14848    17504    16451    13826    15038    17091    16694    16886 
   17081    14964    16191    20351    17624    12567    15039    18577 
   17768    15668    12876    14317    19602    17535    14126    20245 
   22114    14343    15890    23753    20284    15911    17674    14094 
   12623    18276    15575    11711    22251    27306    14808     9488 
   18124    20143    13307    11880    17371    20715    17152     9676 
    9325    16973    14915     8093    14973    18143    11662    19895 
   26788    13815    11404    22500    18173     8233    11903    17719 
   15453    13783    19922    24841    18000    10404    13661    14959 
   12242    19239    23116    15659    17480    23178    14821     8304 
   13442    16073    12863    10953    16557    24453    18725     7583 
   10219    17395    16175    11586     9956    11626    13907    17356 
   24158    25183    15595    13018    19265    16778    14453    19265 
   14383     7917    17716    25779    19445    15246    15139    12140 
   12827    14755    12349    16273    24125    17803     8186    14388 
   20904    13774     8196    16560    26758    21757    10053     8694 
   12427    13835    15011    14783    15116    18221    19800    19384 
   17928    15388    15678    14687     9806    14550    26208    25418 
   16653    15335    19472    22402    23532    21048    16110    17816 
   23885    20154    15036    24744    29696    12454     -713     5874 
   11730    10367    13439    21852    27861    25262    16313    10395 
   12965    19797    24138    22788    14306     8133    14582    19061 
   12763    15676    27575    24587    12866    15111    22825    18945 
   15030    17575    11169     1352     4675    13827    19796    23573 
   21995    17230    19565    26171    24001    15647    11882     8731 
    3025     3368     9268    13878    15926    13785     9334     9608 
   14823    17435    17925    22129    22897    18684    22583    25719 
   15266    11512    20548    17281     4119     9376    26889    25625 
   17431    27533    29669    12003    11970    28755    27028    14167 
   12786    12004     6774    13832    25057    22148    19546    24334 
   18367    13529    24415    23622     9025    10304    17878    16892 
   20287    22828    17665    16421    18137    18667    18309    16127 
   16280    18959    23490    27682    22809    13076     8825     6777 
    4576     6714    10517    12064    14407    21003    28584    26503 
   19931    26888    33809    17636     -492     6134    16026     5234 
   -5285     3423    15768    18359    15893    18401    25834    19685 
    1066    -1122    14694    26367    29367    29227    30035    37322 
   43651    35571    22218    18622    21042    19955    16108    22280 
   33325    21332    -1697       52     8129     -424     -374     9850 
    8456    10114    19908    20044    22969    31564    17009    -5784 
    8165    36732    29642    15093    29893    30621     -832   -10626 
    5333     1428    -9125     3392    12236     5238     8678    19413 
   22244    24918    30492    33013    30545    23564    18949    22216 
   23377    15767    10766    12512    15226    17833    13586     2583 
     914     4659     -441     6513    33090    37762    20580    24466 
   39679    41061    38755    33191    21380    14855    12782    12798 
   15364    11250     3475     4247    12160    15238     6894     7878 
   27426    28268    14123    29691    49440    33870    18219    28355 
   29091    13057    17402    28376    12675      354     7896     8098 
    6167    14278    14396     3828     5306    16466    14498    11828 
   23268    24070     9917    11929    27524    29331    29027    39257 
   32696    10125     3398     6691     3076    -2129    -9121   -16607 
   -8170    10785    13317     6960    16018    32845    37485    26220 
   13942    15129    22499    14169    -4142    -6577    -7664   -13198 
    5534    22749     8864     8465    33627    33786    17923    25292 
   33831    24200    11373     5618     9633    13829    12830    13537 
   11062     2975      314     2759     5677    12833    11531    -5915 
   -9211     8370     8682   -10292   -11225     9535    25563    30430 
   32931    33008    31222    32693    34217    34437    38012    32894 
   13517     9482    32249    46115    32250    20595    26367    24464 
   14057    20085    33963    30814    16838    10903     7059    -3590 
   -9186    -5791    -1386     5856    21592    36747    24813    -9579 
  -11643    24154    33184    13255    17752    31221    15422    -4878 
   -2455     2013    -5336    -4777     1946    -3069     -934    23133 
   43062    46322    53344    66052    62323    43605    30563    32002 
   44405    52675    46424    41475    48379    43962    22226    15294 
   25516    25949    21395    27127    24966      838   -13627     2123 
   14994     4130    -4030     5142     7844    -5541   -11528      754 
   11371     3831    -2267    16222    37076    31727    20702    31548 
   43630    36450    30617    38254    51061    63040    59622    38843 
   29727    39286    35392    14024     6324    11126     2551   -12367 
   -6743     7689    -4516   -26285   -18353     2841     9855    12713 
   21814    28861    26493    16867     9235     9458     5503    -6621 
  -10586    -9738   -14525   -18930   -22770   -24825   -12959    18133 
   46485    43258    23794    22591    36257    38293    30839    38061 
   49725    46847    40271    32287    21351    17121    15644    10585 
    7419    12913    22882    23175    15883    12470     8775    10534 
   27035    29853     2619   -12708    -1271    -7858   -29557   -22601 
   -1950     6446    17834    31144    26386    10801     4240     2498 
   -5504   -10412    -6963   -13358   -25956    -4530    40100    49566 
   32242    30089    33898    25089     5741   -14557   -15340     3181 
   10845     3677     6887    23935    31599    20977    13530    23526 
   37823    39668    30915    30905    44126    49657    44363    49832 
   60690    51625    32568    24558    22591    25008    31616    27070 
   12268     5041    10029    22857    41993    60458    63949    58240 
   65112    72718    59466    41186    28856    11629     -828     3181 
    -639   -23214   -30625   -17075   -18021   -34083   -31259    -5686 
    9247     4604    10769    31131    34403    15090    -3157    -9435 
  -13281   -20084   -26200   -30917   -32596   -30737   -31439   -29888 
  -12898     9614    20701    30357    48088    60591    59105    50004 
   39019    32982    36846    40738    41591    41527    28669    14775 
   23841    31478    13904     9285    40225    59842    37889    16331 
   33841    51495    26247    -1461    12467    41874    54547    60087 
   73247    84464    73496    37356     4014    -7553    -8471     -417 
   17371    24857    10150    -3884     7207    18254    -1038   -26571 
  -27648   -16326   -14349    -9197    21335    64520    85454    70998 
   45093    25679    -1774   -37339   -52298   -43407   -46800   -77247 
  -96431   -84109   -73529   -67752   -36754     -970      273   -16521 
   -9081    14865    18421    10485    13648    12071    -6766   -29847 
  -48288   -48808   -17401    12498     8688     6437    36778    80818 
  107758   104551    93141    84128    53262     8536   -14015   -11440 
  -14857   -43867   -69976   -58682   -23481     4829    20720    30985 
   29798    14753     1559       70    -2560   -17988   -26655    -6796 
   28107    45538    35356    27593    28249     5710   -20955   -12842 
    8117     5442    -5663    13323    48507    64054    76425   101507 
  110449    87625    62993    61589    57324    39055    49439    80164 
   66553    17366    -4493     1470     4499    12353    19572    -3329 
  -33115   -29544   -14892   -14418     -223    35128    48704    30211 
   15312    16362    18715    13143     2818     4681    26090    51052 
   73144    95105   100258    73494    32639    12349    14830    13624 
   11093    19017    19002     7413     7206    13791     2457   -16206 
  -16235   -11165   -24369   -34455   -10781    12595    -9925   -37453 
  -35123   -45764   -73257   -71439   -43912   -25907   -13473     -242 
  -15453   -43474   -31574     5864    16464     4851    16896    48261 
   62868    67216    72513    66672    45450    22507    15525    13965 
   -2712   -22663   -24701   -18574   -24174   -21228     8544    31995 
   38071    55405    72312    58186    33725    26149    18351      363 
  -14429   -27301   -41204   -49571   -56103   -64533   -56786   -24716 
   -1347    -2871    -6228    -9285   -11870    18294    76566   100742 
   72859    42039    26028    11096     9322    19155    20307    22994 
   33217    25707      667   -11054    -4447     4556    16709    30684 
   24230     4004     7126    23356    18789     3931     -445     3301 
    2763    -3877     1093    21682    37730    38790    26615     2461 
  -18668   -16025    -5580   -20379   -51022   -65062   -55868   -43047 
  -34848   -12201    21257    37510    34973    28100    36916    69511 
   92604    83462    61119    51032    64160    75473    56644    36907 
   45266    49399    21829   -14920   -32368   -25107    -6379     3564 
    5148    17965    42574    62398    71497    76002    84460    91733 
   80550    55560    43095    48752    49680    37666    38247    64769 
   87536    77693    49099    23723    -3937   -29637   -29019   -10470 
   -3838    -2249    10810    18380    14278    17187    24100    21260 
   14074     8659    -2935   -18244   -18207     1738    28942    44378 
   32388    10239     7240     4242   -27814   -51933   -34156   -15609 
  -26401   -34828   -15941    12217    25634    27614    28924    21359 
    1862   -11044   -13658   -18767   -16177     7064    34779    55427 
   77337    86380    60660    29285    29204    39010    29385    18570 
   27738    36625    24934    14195    28980    53283    47936     3896 
  -30236   -23890   -16311   -21955    -3257    33256    41103    20768 
    4660    -8739   -31109   -47217   -43882   -35738   -40006   -43150 
  -27866    -8625    -1349     1171     6341     8920     4165      236 
    8454    26616    47384    65157    72929    77987    86217    71518 
   29008     2354     1947    -2246   -11736   -13070    -5266     6387 
    8806    12034    40869    73129    81941    85646    93088    95656 
   92077    74932    47796    28164    14822    -2460   -15965   -12481 
    1923    15526    29451    41680    49318    58614    64238    56012 
   43019    34636    24804    11320      675    -1150    13528    41765 
   61475    58498    40164    17042    -7543   -28992   -38054   -36784 
  -38742   -40331   -24699     -819    10835    14393    16600    12160 
   -3982   -27077   -35640   -27912   -27419   -31513   -29421   -33637 
  -47635   -56828   -53962   -39779   -15076     9654    28707    51386 
   68257    63617    52674    57468    76175    87092    76739    58322 
   47561    45021    51771    65691    74392    78891    83299    78710 
   72190    76731    85451    86525    77245    66511    56824    38832 
   20090    16223    16906     5973    -6295   -10409   -17555   -33317 
  -52288   -66134   -61956   -37305   -13306    -8726   -10264      100 
   12021    11085     2717     -760     5690    16465    22035    24627 
   31713    33271    21055    11679     8295    -5787   -16545    -3140 
   14182    14129    10294    15386    15275     5741     7115    20560 
   30325    32592    20706    -9177   -39418   -50468   -37718   -16021 
   -7974   -12387   -13315    -8863    -4122     -834     5090    18561 
   28289    25490    27126    40719    47937    45787    54202    71457 
   69547    43380    14592    -1034     2681    12672     7144    -6034 
  -12015   -16337   -18294   -10124     2776     9358    11124    19192 
   28390    26876    25834    29486    20340     8401    16695    27547 
   19355     9426    10968     6238   -10656   -20952   -17748    -9649 
   -3318    -1616       79     9803    26088    40052    48886    58319 
   66136    60749    41154    19479     8786     7867     -927   -22962 
  -39798   -38663   -26417   -13104    -2630    10148    31796    49374 
   48566    45819    60253    78331    79460    69366    64549    64438 
   57795    46305    42887    49284    53338    44402    27040    18602 
   19317     8442   -10954   -10869     6842    11287      -11    -1754 
    7213     9524    11082    22635    27427    13654        6     -834 
   -2352   -11976   -11304    10873    34537    48035    60552    63331 
   54353    56953    65849    59813    44798    27042     3040   -16694 
  -18440   -14501   -23189   -30984   -23052   -10547       15    14247 
   30919    39393    38461    43158    54511    55992    43904    30365 
   25609    24947    15765    -1880   -14051   -12131     -347    19024 
   44330    59282    57107    55861    58178    49828    33237    13115 
