Origin Time       2016/04/16 01:25:00
Lat.              32.753
Long.             130.762
Depth. (km)       12
Mag.              7.3
Station Code      NGS016
Station Lat.      32.8880
Station Long.     129.0211
Station Height(m) 4
Record Time       2016/04/16 01:25:36
Sampling Freq(Hz) 100Hz
Duration Time(s)  100
Dir.              E-W
Scale Factor      3920(gal)/6182761
Max. Acc. (gal)   8.290
Last Correction   2016/04/16 01:25:36
Memo.             
[...]
    6430     4446     2641     1921     2387     3418     4435     5145 
    5266     4843     4362     4053     3932     4287     5134     5732 
    5330     4256     3612     3794     4270     4518     4366     4087 
    4270     4885     5126     4731     4369     4382     4472     4458 
    4230     3672     3174     3317     3931     4378     4746     5564 
    6663     7400     7222     5716     3162      768     -250      336 
    1555     2124     1829     1519     1688     2041     2411     3016 
    3909     4920     5911     6668     6854     6511     6234     6256 
    6056     5197     3878     2750     2457     3027     3858     4476 
    4952     5471     5847     5727     5061     4106     3146     2335 
    1721     1279     1196     2095     4147     6078     6196     4503 
    2845     2704     3708     4752     5529     6195     6416     5697 
    4182     2506     1259      866     1327     2084     2734     3444 
    4361     5338     6163     6776     7446     8349     9069     9107 
    8407     7028     5005     2825     1428     1399     2408     3568 
    4114     3841     3138     2664     2731     2965     3018     3180 
    3745     4468     5041     5418     5592     5696     5997     6211 
    5643     4203     2631     1852     2272     3582     5125     6278 
    6812     6888     6527     5734     4894     4251     3670     3190 
    3008     3131     3341     3291     2951     2969     3978     5669 
    7132     7857     7984     7970     8212     8466     8004     6886 
    6034     5859     5888     5504     4628     4011     4381     5173 
    5124     3967     2544     1552      963      707     1214     2663 
    4242     5038     5099     4865     4445     4019     4060     4889 
    6314     7485     7470     6321     5003     4263     3980     3660 
    3402     3792     4763     5600     6017     6279     6397     6000 
    5190     4673     4909     5876     7264     8422     8773     8297 
    7269     5845     4140     2668     2314     3360     4841     5497 
    5088     4278     3571     2990     2614     2793     3784     5322 
    6704     7400     7405     7013     6509     5944     5175     4423 
    4358     5125     5986     6383     6472     6523     6445     5879 
    4843     3946     3435     2930     2398     2302     2948     4283 
    5935     7310     7968     8017     7785     7261     6457     5783 
    5444     5160     4733     4330     4135     4189     4543     5258 
    6311     7521     8532     8969     8514     7091     5167     3277 
    1552      351      527     2377     4925     6686     6882     5735 
    4120     3150     3454     4645     5910     6830     7108     6343 
    4629     2622     1111      767     1746     3540     5204     5706 
    4905     3927     3801     4437     5153     5584     5970     6374 
    6176     5091     3846     3359     3948     5225     6389     6765 
    6233     5215     4146     3175     2532     2573     3281     4365 
    5579     6516     6812     6537     5903     5134     4524     4108 
    3696     3242     2886     2912     3477     4068     3944     3358 
    3464     4735     6286     6988     6593     5645     4757     4114 
    3531     2924     2585     3002     4242     5633     6506     6863 
    6864     6268     5072     4258     4845     6555     8193     8778 
    7957     5990     3723     2011      915      186      167     1133 
    2403     3029     2826     2402     2517     3402     4665     5876 
    6832     7314     7159     6532     5864     5626     6081     6995 
    7697     7649     6847     5496     3647     1672      398      180 
     753     1996     3729     5220     5983     6433     7018     7535 
    7664     7377     6676     5503     4055     2942     2720     3298 
    4116     4839     5476     5972     6148     5887     5381     5145 
    5444     6122     6966     7442     6668     4500     2081      803 
    1049     2319     4038     5600     6404     6433     6166     5853 
    5446     4989     4663     4584     4665     4684     4669     4999 
    5795     6508     6398     5292     3857     2990     2969     3413 
    3830     4039     4136     4230     4396     4518     4255     3593 
    2933     2498     2279     2333     2730     3466     4519     5765 
    6927     7699     7817     7114     5718     4246     3435     3401 
    3780     4331     4850     5081     5130     5327     5573     5534 
    5293     5028     4596     4103     3865     3598     2927     2296 
    2426     3657     5830     8046     9132     8574     6901     5373 
    5002     5807     6871     6908     5316     2660      167     -840 
      27     1623     2715     3388     4266     5244     5864     6146 
    6266     6348     6664     6969     6476     5076     3586     2813 
    2803     2963     2941     2947     3008     2807     2482     2641 
    3473     4642     5933     7316     8552     9138     8598     6922 
    4805     3188     2433     2229     2336     2862     3880     5167 
    6111     6186     5721     5499     5764     6059     5806     4953 
    4012     3612     4015     4729     4971     4599     4091     3910 
    4122     4454     4820     5340     5902     6418     6918     7210 
    7244     7136     6682     5866     5203     4999     5104     5205 
    5067     4946     5288     5675     5101     3403     1499      403 
     668     2338     4693     6363     6548     5870     5293     4949 
    4707     4869     5678     6866     7911     8344     7920     6801 
    5582     4849     4624     4511     4293     4088     4020     4074 
    4274     4487     4300     3847     4058     5298     6713     7319 
    6954     6121     5181     4106     3056     2414     2248     2476 
    3243     4536     5709     6162     6263     6633     7038     6776 
    5651     4315     3620     3693     3936     3925     3849     3807 
    3446     2684     2043     2274     3732     5684     6846     6695 
    5660     4545     3999     3928     3665     3002     2566     3024 
    4244     5360     5613     4928     3670     2297     1396     1333 
    1762     2219     2877     4118     5903     7762     9044     9290 
    8629     7703     7101     6801     6249     5182     4018     3206 
    2684     2318     2442     3435     4858     5786     5993     5926 
    5645     4850     3812     3155     2982     3027     3328     4284 
    6048     8091     9555     9833     8863     7273     5946     5209 
    4904     4955     5218     5365     5366     5398     5293     4791 
    3946     2918     1974     1563     1752     2073     2150     2078 
    2209     2726     3482     4192     4584     4657     4843     5582 
    6895     8471     9852    10546    10287     9126     7178     4759 
    2602     1382     1289     1910     2422     2491     2536     2901 
    3545     4312     5120     6044     6957     7393     7167     6508 
    5611     4765     4442     4738     5353     6153     7143     8029 
    8303     7883     7135     6104     4606     2881     1452      813 
    1202     2234     3198     3613     3414     2988     2791     2921 
    3284     3750     4254     4988     5987     6838     7241     7202 
    6807     6296     5717     4911     4203     4020     4146     4195 
    4282     4822     5794     6641     6951     6480     4947     2852 
    1656     2281     4152     6057     7240     7499     7007     6161 
    5197     4198     3490     3333     3561     3915     4125     3939 
    3588     3748     4849     6626     8303     9005     8055     5478 
    2366       52    -1021    -1114     -357     1327     3713     6095 
    7703     8085     7196     5513     4020     3603     4276     5375 
    6500     7606     8447     8732     8617     8470     8241     7595 
    6450     4946     3385     2167     1362      967     1413     2929 
    4848     6096     6095     5119     3908     3083     2864     3039 
    3290     3471     3520     3616     4154     5105     5938     6239 
    5896     5016     4136     3978     4665     5546     5885     5439 
    4587     4068     4272     4878     5302     5226     4924     4936 
    5055     4503     3284     2178     1672     1852     2922     4960 
    7310     8862     9076     8358     7430     6746     6379     5963 
    5083     4031     3411     2997     2243     1606     1987     3131 
    3757     3232     2195     1521     1536     2149     3229     4753 
    6401     7579     8042     7700     6404     4361     2072      370 
     393     2396     5092     6846     7123     6587     6108     5932 
    5657     4901     3844     2824     1901     1096      509      426 
    1342     3177     5072     6410     7148     7254     6617     5449 
    4229     3281     2820     3027     3744     4610     5523     6468 
    7089     6961     6273     5615     5046     4232     3320     2907 
    3328     4318     5336     5941     5895     5378     4893     4742 
    4848     4818     4317     3623     3223     3098     3102     3451 
    4360     5724     7126     7823     7241     5820     4565     3744 
    2934     2075     1585     1772     2572     3554     4368     5227 
    6313     7331     8106     8634     8729     8312     7381     5708 
    3401     1452      964     2045     3879     5465     6143     6135 
    6241     6577     6369     5157     3547     2353     1535      776 
     463     1182     2759     4472     5799     6535     6548     5812 
    4607     3532     3009     2981     3444     4492     5770     6802 
    7404     7472     7034     6458     6203     6437     6950     7222 
    6751     5645     4516     3808     3620     3859     4369     5156 
    6197     7047     7229     6752     5789     4484     3216     2436 
    2283     2591     3167     3962     4798     5347     5695     6211 
    6773     6798     6100     5249     4837     4721     4494     4330 
    4692     5513     6172     6037     4923     3311     2183     2387 
    3811     5408     6349     6786     7319     8037     8231     7176 
    4994     2516      749      346     1034     2019     3070     4373 
    5613     6149     5861     5228     4767     4648     4890     5573 
    6547     7415     7871     7705     6873     5699     4668     4144 
    4290     5012     5848     6100     5295     3662     2015     1101 
    1187     2135     3509     4665     5012     4462     3606     3088 
    3092     3563     4191     4562     4702     4850     5072     5467 
    6262     7492     8616     8751     7514     5503     3820     3021 
    2946     3425     4283     5105     5580     5560     5017     4331 
    4046     4259     4673     4970     4965     4773     4664     4689 
    4885     5400     5964     6089     5933     6102     6795     7685 
    8323     8377     7718     6346     4428     2538     1370     1116 
    1490     2248     3361     4663     5727     6389     6932     7611 
    8451     9351    10036    10089     9221     7442     5052     2668 
    1007      406      718     1642     2829     3839     4487     5013 
    5612     6049     5909     5219     4404     3634     2942     2650 
    2956     3664     4588     5674     6658     7082     6789     6035 
    5045     3858     2628     1615      933      628      800     1381 
    2041     2593     3299     4334     5400     6317     7156     7745 
    7838     7385     6451     5263     4230     3785     4000     4411 
    4794     5451     6249     6519     5959     4895     3946     3585 
    3899     4765     5939     7074     7886     8252     8221     7884 
    7277     6385     5150     3666     2431     2113     2987     4808 
    6916     8311     8236     6660     4009     1034    -1237    -2046 
   -1243      851     3604     6213     7886     8055     6704     4659 
    3148     2724     2985     3451     4037     4636     5073     5517 
    6180     6768     6885     6472     5696     4822     4026     3288 
    2500     1522      436     -286     -226      743     2539     4684 
    6399     7215     7185     6354     4404     1387    -1509    -2811 
   -2117       13     2879     5852     8487    10599    11961    12236 
   11242     8940     5472     1407    -2423    -5393    -7191    -7605 
   -6681    -5002    -3248    -1737     -449      903     2548     4424 
    6330     7894     8721     8828     8588     8385     8461     8789 
    8989     8706     8121     7730     7731     7783     7284     5944 
    4168     2777     2137     1922     2013     2823     4373     5950 
    7093     8144     9355    10141     9640     7652     4864     2345 
     700     -322    -1166    -1645    -1027     1016     3688     5747 
    6743     7092     7215     7174     6975     6720     6391     5841 
    5152     4602     4175     3567     2786     2339     2612     3370 
    4102     4512     4737     5356     6944     9463    12111    13765 
   13706    11960     9127     6049     3437     1699      977     1095 
    1563     1836     1475      269    -1543    -3143    -3371    -1477 
    2222     6627    10604    13236    13605    11069     6163      723 
   -3160    -4112    -1773     2929     7813    10823    11297     9642 
    6861     4469     3646     4370     5729     6687     6761     6406 
    6227     6126     5986     6156     6804     7849     9215    10340 
   10143     8143     5121     2131     -511    -2790    -4452    -5135 
   -4546    -2776     -274     2723     6272    10204    13869    16419 
   17355    16724    14724    11510     7361     2615    -2267    -6346 
   -8348    -7236    -2867     3470     9486    13344    14644    13868 
   11607     8703     5977     3652     1588     -317    -1786    -2149 
    -996     1420     4291     6681     8140     8697     8420     7485 
    6350     5468     5163     5540     6153     6306     5598     3933 
    1644     -464    -1587    -1479     -530      882     2694     4774 
    6904     8787     9945    10249    10132     9931     9632     9142 
    8306     7020     5657     4777     4266     3439     2092      827 
     545     1689     3460     4410     3985     2710     1561     1358 
    2138     3454     5047     6758     8233     8825     7870     5466 
    2587      290     -847     -743      296     1672     2670     2897 
    2665     2763     3746     5453     7294     8840     9705     9247 
    7204     4049      443    -2845    -4914    -5214    -3625     -617 
    2550     4854     6440     7946     9648    11396    12740    13315 
   13207    12509    11023     8736     5824     2511     -481    -2069 
   -1722      149     2689     5333     7902     9929    10582     9659 
    7870     6090     4843     4156     3803     3708     3962     4681 
    5747     6693     7215     7504     7711     7580     6890     5768 
    4425     2917     1288     -172    -1074    -1398    -1346     -882 
      25     1297     2986     4840     6092     6272     5672     5010 
    5026     6029     7622     9140    10131    10272     9303     7177 
    4291     1539     -202     -471      684     2522     3986     4640 
    4793     4775     4545     4061     3598     3431     3500     3656 
    3894     4212     4538     4728     4708     4631     4618     4540 
    4397     4589     5380     6340     6708     6117     4817     3537 
    3137     3813     4750     5089     4861     4715     5057     5470 
    5129     3836     2199      958      559     1180     2783     4813 
    6233     6476     5970     5513     5504     5854     6276     6542 
    6487     5789     4089     1484    -1374    -3620    -4575    -4068 
   -2513     -634     1041     2339     3174     3591     3967     4689 
    5998     8189    11053    13489    14414    13459    10988     7882 
    4794     1956     -295    -1575    -1729     -797      944     2934 
    4455     5073     5009     4746     4503     4279     4036     3778 
    3614     3613     3656     3744     4255     5391     6636     7199 
    6784     5652     4189     2675     1303      331      -26      188 
     967     2210     3035     2706     1850     1459     1748     2475 
    3250     3653     3618     3522     3781     4533     5788     7662 
   10091    12469    13843    13429    11289     8476     6018     4264 
    3347     3358     4122     5243     6085     5921     4539     2553 
    1095     1033     2168     3386     3757     3269     2586     2451 
    3244     4638     5728     5924     5567     5337     5394     5285 
    4371     2419       -2    -2001    -3048    -2910    -1508      922 
    3778     6235     7643     7927     7553     7215     7401     8165 
    9342    10501    10902    10163     8661     7205     6516     6493 
    6283     5572     5043     5453     6812     8337     9150     9009 
    8090     6563     4660     2686     1006       28      -54      759 
    2288     4002     5381     6290     6724     6710     6436     6240 
    6394     6767     7031     7127     7004     6403     5198     3443 
    1433      -29     -168     1030     2987     5171     7370     9324 
   10380     9932     7964     5056     2091     -161    -1325    -1390 
    -660      557     2334     4802     7667    10452    12798    14317 
   14626    13653    11728     9403     7363     6218     5988     6117 
    6084     5682     5025     4357     3805     3675     4457     6096 
    7900     9009     8866     7687     6099     4506     3273     2802 
    3245     4605     6625     8429     9090     8339     6580     4859 
    4155     4374     4854     5248     5401     5118     4230     2875 
    1629      967     1032     1785     2899     3914     4440     4192 
    3467     3055     3128     3019     2224     1034      199      140 
     687     1406     1821     1623      873     -140     -977    -1178 
    -506     1218     4048     7376    10092    11181    10104     7211 
    3824     1581     1403     2909     4913     6426     7102     7141 
    6958     6846     6845     6737     6289     5669     5262     5177 
    5344     5678     5900     5691     4951     3840     2794     2158 
    1914     2099     2930     4438     6304     7851     8483     8205 
    7356     6441     6037     6123     6149     5852     5338     4814 
    4500     4536     4981     5640     6020     5824     5235     4681 
    4276     3560     2188      492     -854    -1300     -757      487 
    2243     4370     6476     8216     9511    10042     9315     7508 
    5480     3927     2907     2202     1979     2503     3505     4451 
    5057     5512     6242     7214     8001     8266     7647     5936 
    3571     1323     -283     -946     -472     1088     3272     5283 
    6566     7176     7497     7888     8396     8651     8280     7317 
    6069     4761     3458     2361     1823     1997     2660     3264 
    3349     2989     2553     2254     2260     2648     3025     2856 
    2157     1472     1416     2326     4071     6208     8234     9802 
   10852    11304    10953     9852     8309     6792     5879     5824 
    6462     7326     7574     6602     4598     2225      366     -266 
     248     1127     1594     1611     1915     3052     4876     7002 
    9001    10301    10520     9733     8156     6056     3996     2524 
    1758     1491     1401     1153      607       73       51      696 
    1769     2914     3850     4447     4711     4829     5003     5184 
    5183     4835     4145     3558     3703     4676     5907     6751 
