Origin Time       2016/04/16 01:25:00
Lat.              32.753
Long.             130.762
Depth. (km)       12
Mag.              7.3
Station Code      NGS005
Station Lat.      33.0371
Station Long.     129.9171
Station Height(m) 3
Record Time       2016/04/16 01:25:20
Sampling Freq(Hz) 100Hz
Duration Time(s)  130
Dir.              E-W
Scale Factor      3920(gal)/6182761
Max. Acc. (gal)   45.338
Last Correction   2016/04/16 01:25:20
Memo.             
[...]
   27280    27835    28739    29336    29435    29816    30461    30188 
   28409    26003    24136    23225    23857    26565    29632    30407 
   28872    26986    25955    25819    25911    25215    23451    22115 
   23325    26784    30102    32316    33458    32681    30045    26830 
   23970    22347    22638    24764    28058    31241    33390    34022 
   31945    27162    22410    20310    21292    23969    26116    26866 
   26888    26338    25813    26857    29042    30385    29703    26192 
   20585    16463    17217    23073    31260    37993    40381    36901 
   29150    22699    21856    25433    29317    30394    29077    28304 
   28896    29628    30225    29549    26233    22853    22693    24990 
   27554    28936    27503    23751    22002    25428    31588    35307 
   34010    29782    26722    26248    26746    27383    28181    27488 
   24869    23458    24599    25646    25510    26039    27155    26511 
   24574    24073    24646    25057    27107    30419    31731    32487 
   35288    35857    30893    25650    24538    24810    23988    23637 
   24635    26146    28552    31459    31374    27078    22450    19985 
   18343    17071    17665    21522    28735    36483    40140    38140 
   33288    28323    23529    19481    18185    20024    23288    27424 
   32846    38180    40332    36332    26689    17271    13636    15479 
   19549    23599    26547    28700    31377    34309    34790    31334 
   27274    26543    27108    25294    22307    21094    23568    30203 
   36859    37699    32840    27499    25014    25072    26824    28784 
   28277    26249    26591    28416    28895    29915    32445    32979 
   29658    23955    18573    16958    20460    26277    30946    33874 
   35557    35051    31230    24853    19084    17407    20598    27105 
   33879    36822    34865    31345    28891    26797    23959    21602 
   21962    24813    28269    31991    34938    34104    28925    22186 
   17468    17671    23207    31010    35739    34762    31423    28753 
   26390    25369    25673    24423    22308    22155    23956    27597 
   32811    36119    34408    29170    24717    23906    25638    26916 
   26554    25054    23676    24403    27534    31124    33623    33707 
   30184    24605    20272    18725    19330    21161    24344    28945 
   33175    34826    33410    29770    25523    22491    21080    20540 
   21871    27692    36588    42099    40508    33460    23367    13263 
    7429     8363    15795    26563    35696    40306    39953    34851 
   26706    18444    12238    10334    16797    31659    44135    44377 
   38729    37681    38340    33845    26307    20378    17353    18352 
   22902    27536    32042    38828    43881    39227    24486     9255 
    3644     8427    18365    30513    41207    44718    41356    36936 
   33921    30571    26482    22708    18569    14515    15179    23864 
   36741    45224    44071    36196    26591    17911    13878    15993 
   21650    29072    34634    34629    33152    34766    35507    30149 
   21352    16689    19344    26231    32515    34541    32905    30720 
   27857    24574    24260    26279    27123    27250    27701    27298 
   26542    27256    29029    29050    25004    19501    19361    25572 
   30109    27851    22397    19023    20350    25409    29157    27722 
   23753    22093    22840    24186    27113    31364    34046    33903 
   30030    21926    15313    18412    29964    39014    37733    28131 
   16537     9048    10577    20282    30678    36062    38175    39977 
   38175    30113    22450    21694    24708    26928    28972    31259 
   31401    28313    24082    21377    21134    23190    26717    29311 
   28777    26302    25589    29009    34832    37306    31639    21240 
   15968    20157    28239    33843    35141    32318    27588    24831 
   25750    28180    28209    24566    19826    16712    16341    18894 
   23293    26966    27763    27633    31075    38265    44616    44974 
   35905    20334     8242     7849    19130    34687    44567    43987 
   36295    26354    17141    13480    17241    22202    24057    24484 
   23852    23814    28453    34513    34299    28723    24949    25533 
   28072    29321    26711    21379    17678    17918    21918    29265 
   38391    44992    43585    33808    23310    19765    22089    23554 
   22742    25237    32513    38217    38131    33654    25349    14418 
    7413     9279    17357    26517    33586    36637    35135    32028 
   31003    31654    33255    36407    36809    30294    22540    21152 
   24843    29714    35807    40971    40821    35959    28676    20495 
   16702    19993    24701    27603    32753    41114    47521    47125 
   38378    25111    15381    12929    15310    21173    30698    40377 
   44190    40221    33090    27384    22775    18062    13318     9400 
    9535    15783    24976    32596    36912    38507    37931    34036 
   26552    19746    18630    21500    22371    20629    21116    25807 
   32390    38455    41117    36981    26913    16539    11580    15038 
   25385    36598    42416    40332    32552    24682    21955    24382 
   26794    25337    20977    17070    17161    22329    28996    33320 
   34906    33553    29825    26451    22513    16652    14521    18889 
   23655    26238    30212    35048    36992    36659    34952    28105 
   16832    10208    12003    15885    18719    23739    31036    38359 
   44652    46048    39368    28133    16942     8052     5379    11643 
   24252    38608    49214    50306    41745    29761    21094    18928 
   21149    22835    23200    25768    29872    30678    28361    26716 
   25577    22559    18009    15182    16304    19940    24220    28643 
   31855    32744    31788    29272    26319    25810    27677    28364 
   28709    32946    38133    37457    31881    27499    26767    28560 
   31654    34395    35007    34832    35657    34272    28541    24096 
   25457    28355    27976    26596    27956    30239    29010    23895 
   19278    19421    24446    30468    32725    30582    28318    27598 
   24899    20185    18925    22594    27179    30816    33268    32602 
   29562    27648    26423    22403    15882    11163    11102    15678 
   23356    29904    31300    29164    26865    24130    21458    22262 
   26058    28883    30968    34324    37909    41304    45209    47548 
   44468    34990    23898    17592    17729    22545    29272    33224 
   32491    30972    30288    27552    23248    20165    17330    13659 
   13166    19763    29902    37758    43037    45815    42422    32332 
   20798    13474    12687    17092    23173    27368    27627    24904 
   22989    24783    28341    28697    24511    20079    19494    22146 
   25415    28730    33041    37029    36682    31387    26634    26318 
   27532    27248    27353    28873    29432    30197    35193    41100 
   40107    31930    22101    15557    15818    21235    25736    26606 
   25649    25276    26371    27879    27992    25391    21085    19131 
   22097    27228    30616    32668    35111    35504    31062    25283 
   23853    26784    30256    32604    33810    32933    29728    25715 
   22480    20604    19649    20047    24519    33613    41924    43433 
   37763    29312    23098    21171    21947    23866    27826    33629 
   37665    37249    33299    27815    22605    20031    21472    24552 
   25170    22165    17795    16499    21677    30262    35517    34773 
   28958    19856    12411    12161    17734    23436    27767    32640 
   37456    38334    32501    22238    13680    12069    17998    27926 
   37509    43092    43866    42667    40092    33944    26119    20657 
   17784    15700    13589    13188    18542    28981    36922    37793 
   33693    27647    22807    22267    25689    30523    34878    37228 
   35927    30724    24480    20701    19545    18687    16778    15723 
   18453    23128    25071    23850    22115    21042    20327    19983 
   20700    22328    24431    26898    27540    25291    24582    28653 
   33813    34969    31758    28411    28260    29933    31318    31536 
   29370    26241    25579    27436    30263    34230    37236    34843 
   27867    22426    21465    22369    22486    21680    19719    17323 
   18246    22841    25108    23028    21888    24424    28585    32964 
   36454    36362    31431    24607    20461    21446    27565    35985 
   41180    40107    35582    31630    28881    26761    26257    27690 
   29302    29831    29661    29816    30866    31732    30576    27138 
   23492    21907    21279    19362    18600    22151    26860    28847 
   29455    29594    27089    21993    17349    15462    16922    21569 
   28734    36288    40762    40569    37744    34378    30089    24961 
   20876    18354    16750    16792    18596    20771    22240    21987 
   20756    21093    22559    23188    24304    27590    31066    31401 
   28275    25533    26789    30605    33020    32870    31444    28991 
   24831    20668    20403    24510    28502    29201    26919    22532 
   18749    20210    28768    41559    51780    51322    38340    21788 
   13493    16313    24198    31281    34876    34675    34032    35335 
   35353    31097    24086    16841    12004    12840    18981    26297 
   33754    42380    48166    45913    36679    25317    16233    12629 
   14620    19216    24046    27881    29042    28088    27357    25613 
   21285    18119    19289    22768    26221    28611    29414    31349 
   37002    42812    44666    44093    41744    34416    23852    17427 
   18187    23796    32055    38998    38554    30103    19400    12405 
   12269    17684    24600    31304    37492    40845    39827    36408 
   32087    26498    21662    19836    20403    23695    28719    29889 
   25328    20084    17722    18360    22392    28208    32451    35332 
   37910    38358    36871    36209    36510    35809    32538    25439 
   15469     7759     7206    13423    22267    28346    27804    22507 
   16878    12446    10757    14769    23966    34549    43497    48093 
   45715    37056    26075    17191    14180    18228    26100    32699 
   34749    31822    25139    16573    10066     9906    15167    21485 
   27398    33836    40164    43832    43389    40786    39275    40146 
   42777    45948    48893    51469    52487    49663    43399    37638 
   34616    33683    34932    38147    40998    40626    35141    25476 
   15592     9542     9242    13860    20686    26901    30037    28804 
   24550    19605    14809     9815     4955     2781     5925    14147 
   25350    35215    37724    31322    21753    17736    23232    33181 
   40103    41365    38104    32669    26434    20783    19304    21251 
   20325    15903    14040    18570    28246    38003    42369    39826 
   33236    26906    23378    23085    25211    28040    31895    38712 
   46574    50081    45334    33821    23018    19379    23327    33537 
   47930    60267    64622    62261    57618    51696    45311    41911 
   41745    40918    39526    41836    48050    53995    56766    56109 
   52891    47857    40325    28677    13934     1216    -4314     -791 
   11100    28053    43516    50815    48652    41649    33730    26054 
   20769    18385    15580    12058    12684    19076    25700    26005 
   18119     4773    -9733   -21736   -28135   -27349   -20590   -10199 
    1326    11481    19264    24842    29024    32754    35148    36570 
   40607    47170    52029    54017    54158    51236    44024    35820 
   31342    29647    26700    21562    14809     8002     6153    12288 
   21514    27359    29501    29984    29144    29034    31704    34394 
   34520    34586    37312    40530    39763    35395    31633    28512 
   24683    22620    23401    24309    22486    15642     3118   -10230 
  -15980    -8815    10564    33894    49972    55675    53860    45528 
   33994    26068    24754    27549    31448    35749    38904    38213 
   33374    25575    17013    10809     7590     6653    10145    19661 
   29298    31212    27824    27032    30561    37266    46428    52405 
   47965    33314    16004     4065      869     5636    16127    28834 
   38284    39404    31672    19027     6771      238     1428     6496 
   11590    16987    22751    27203    30373    33445    35369    33973 
   29964    27268    28843    33306    36692    35598    27706    13160 
   -3671   -16591   -21660   -18365    -7813     8862    29224    47685 
   58439    60043    54534    45419    37453    34075    35707    41275 
   48358    52942    52688    49514    46380    43217    39009    35747 
   35858    37314    36202    32159    26660    20736    16985    17979 
   24399    35479    45909    46760    34213    14126    -2522    -8058 
   -2589     9303    22311    30864    32050    27355    18849     8047 
   -1287    -4922    -1128    10163    26086    41056    51382    55458 
   52687    44867    34302    22734    13422     9373    10291    13888 
   18158    21747    22938    20975    18512    18142    19258    20874 
   22932    24430    23802    21717    19041    14754    11512    13824 
   19473    24420    29235    33642    35218    33462    29078    22530 
   13892     3805    -4091    -3847     8279    29370    50093    61889 
   63416    59177    56253    60205    69105    75437    73932    65842 
   57739    55658    61199    72164    83930    91270    90768    82354 
   68489    52088    35677    20809     6519    -8526   -22214   -32720 
  -40705   -44253   -40386   -29694   -14464     2538    16452    22675 
   22178    20638    21826    26246    34565    46140    56257    60212 
   57664    51289    44551    40010    37209    34598    32938    33139 
   33503    31266    25959    19883    13652     7259     4682     7870 
   13620    20376    27241    32156    36403    40938    41882    35877 
   23366     6225   -12070   -24755   -24880   -11938     6690    22028 
   27944    22299    10732     3559     4969    12171    22297    33279 
   42782    50076    53840    50877    42684    34869    30091    28856 
   30249    31289    30869    30424    31206    33350    35953    38091 
   38607    35886    31394    29630    32251    37572    43591    46915 
   44719    38590    31002    22220    12873     4898      325     -643 
   -1137    -5113   -12875   -19144   -17364    -6876     7852    22267 
   31249    30000    20064     9611     6129    11796    24279    37470 
   43549    39582    29808    19408    10463     2982    -3879    -9670 
  -12815   -13312   -10685    -2945     8149    17150    21725    23167 
   22616    21668    21192    18834    13262     6294     -235    -3269 
    1644    15217    31999    43349    43239    32470    17957     7942 
    6706    13494    25456    38977    50103    57524    62463    65217 
   65157    61464    53883    44985    38311    34700    32593    28915 
   20363     7617    -3977   -10296   -12549   -14269   -16758   -19351 
  -20010   -14501    -1245    15022    29157    39654    45500    46280 
   44693    43226    41612    40618    42200    45133    47443    50336 
   53816    55165    54619    54562    55393    57335    60108    61153 
   59777    58673    59351    60128    58912    56040    53525    52227 
   51275    50473    50896    51905    50736    45650    36879    25741 
   15105     8470     7758    12649    19850    25332    28281    28781 
   26188    23135    24321    30995    40842    50077    54865    53010 
   43635    28574    13322     2534    -1848      834     9198    19629 
   27285    28572    24795    20829    20488    24344    28476    27689 
   22559    17587    14370    12586    13284    18811    30114    42362 
   48827    48871    44586    36340    26441    19474    18163    22824 
   32737    45371    56774    63633    64241    58978    49602    39026 
   31291    28826    30898    33599    30958    20925     7899    -4007 
  -14188   -21416   -23333   -18743    -7280     9031    24776    35363 
   38921    35304    27844    21893    20174    23634    32219    41863 
   46964    45998    40649    32348    23131    15030     6792    -1478 
   -4839    -1996     3342     9765    16162    19619    19614    18242 
   17424    17797    20250    25912    32409    36917    40609    41619 
   34584    21397     9479     3348     4389    10938    18178    22028 
   21998    19889    17625    18157    23356    30079    35615    40926 
   45054    47217    50804    57243    62528    61453    51452    34713 
   17384     5701     3423    10405    21693    30874    34800    33260 
   28045    22909    19826    19096    22637    30564    39147    45591 
   49450    49875    46835    42493    37608    31555    26104    22793 
   20109    18086    18815    20795    20855    20285    22068    25233 
   27499    28890    29641    29343    27868    26547    28951    36806 
   47598    58025    65013    65931    61361    53717    44787    37484 
   34194    33315    32687    32328    31042    26666    20217    15252 
   13743    15038    18774    24909    30590    31698    26752    18116 
   10312     6122     5971     9352    12894    11950     6742     1781 
    -358     -136     2646     9081    18026    25934    29983    30170 
   28577    27426    27769    29530    32173    34203    33041    27708 
   20875    16382    15173    15462    16216    17544    18920    20168 
   22169    25411    29869    34584    37360    37829    36752    33212 
   28197    24490    22155    20696    20638    21722    23937    27256 
   30405    31357    28061    21655    16155    12636    10784    13078 
   20276    28438    33465    34172    31804    28928    26757    23750 
   18543    12766    10018    13090    22444    35438    46419    50647 
   48320    42855    37718    35349    35747    36494    35248    31511 
   27085    25150    27463    32355    35990    35108    29461    22517 
   18291    17928    20062    22501    23667    23718    24064    25363 
   26182    25203    24081    24969    27318    29705    31310    30578 
   25698    17400     9995     8160    13848    26075    40333    50568 
   53922    51262    45476    40753    40156    43274    47380    49948 
   49772    47511    44891    42330    39576    37651    37148    37077 
   36320    34070    29849    24271    19423    17455    17899    18479 
   18668    18949    18774    18190    17878    17344    15604    13080 
   12031    13658    15656    15218    12049     8030     6764    10776 
   17665    22214    21507    16710    11940    11415    16242    24032 
   31276    35429    35879    33748    30393    26536    22929    20559 
   19877    20790    22665    23748    22248    18586    15080    12920 
   11737    11992    14159    16616    17198    15527    13149    12588 
   15849    22237    28306    30982    29896    26966    24835    25442 
   28860    33071    35650    35415    32285    27088    21770    18693 
   19476    23440    27370    28805    27569    23837    18475    14053 
   12797    14796    19070    24393    28582    29654    27911    25242 
   23884    25942    31407    37468    41384    42636    42299    41056 
   38530    35639    34438    34052    32214    29793    28069    25908 
   23019    20868    20306    21800    25858    31062    34614    36120 
   37147    37724    37643    38338    40313    42273    42989    41687 
   38243    33714    29501    26128    23545    21506    19322    17684 
