Origin Time       2016/04/16 01:25:00
Lat.              32.753
Long.             130.762
Depth. (km)       12
Mag.              7.3
Station Code      NGS022
Station Lat.      34.2029
Station Long.     129.2868
Station Height(m) 5
Record Time       2016/04/16 01:25:42
Sampling Freq(Hz) 100Hz
Duration Time(s)  106
Dir.              E-W
Scale Factor      3920(gal)/6182761
Max. Acc. (gal)   11.012
Last Correction   2016/04/16 01:25:43
Memo.             
[...]
    6128     6462     6611     6859     7011     6833     6528     6186 
    5630     4874     4058     3401     3292     3765     4455     5212 
    6011     6700     7142     7265     7232     7327     7439     7208 
    6672     6247     6107     6005     5676     5033     4144     3313 
    2948     3183     3755     4387     5007     5540     5918     6185 
    6359     6388     6160     5545     4640     3743     3115     2884 
    3016     3381     3842     4325     4802     5257     5784     6399 
    6758     6698     6559     6470     6284     6186     6334     6364 
    5942     5266     4558     3771     3022     2598     2618     2993 
    3538     4054     4463     4968     5659     6261     6766     7281 
    7450     7137     6616     5943     5320     5040     4877     4624 
    4415     4354     4517     4797     4830     4591     4534     4834 
    5193     5538     5954     6140     5844     5258     4564     3874 
    3385     3161     3209     3538     3913     4140     4433     5067 
    5923     6656     7095     7249     7140     6749     6184     5814 
    5798     5899     6042     6252     6370     6303     6041     5543 
    4918     4405     4068     3847     3841     4087     4446     4787 
    4926     4792     4561     4371     4366     4816     5706     6520 
    6862     6932     7005     7124     7375     7659     7564     6983 
    6274     5783     5496     5170     4825     4623     4336     3747 
    3136     2866     3034     3409     3691     4029     4619     5179 
    5558     5961     6437     6909     7239     7174     6708     6088 
    5414     4768     4306     3961     3572     3192     2948     2992 
    3498     4427     5545     6547     7179     7447     7454     7270 
    7012     6725     6429     6274     6256     6182     6122     6276 
    6548     6778     6892     6697     6096     5305     4551     4016 
    4012     4551     5139     5473     5657     5786     5951     6157 
    6147     5814     5321     4714     4077     3716     3721     3890 
    4086     4217     4194     4159     4298     4455     4378     4239 
    4433     4988     5667     6415     7216     7815     7934     7622 
    7162     6700     6127     5256     4124     3117     2567     2435 
    2657     3236     3917     4439     4845     5225     5744     6624 
    7625     8291     8630     8813     8736     8242     7418     6538 
    5793     5218     4747     4281     3860     3619     3568     3656 
    3854     4071     4186     4230     4280     4245     4180     4393 
    4925     5559     6215     6866     7455     7879     7957     7765 
    7658     7694     7548     6977     5995     4856     3940     3383 
    3039     2940     3236     3675     3971     4330     4872     5420 
    6072     7032     8055     8628     8549     8020     7351     6782 
    6321     5750     5041     4390     3829     3389     3370     3869 
    4516     5005     5337     5528     5619     5737     5875     5970 
    6097     6268     6333     6286     6351     6556     6564     6075 
    5183     4226     3448     2938     2723     2756     2903     3054 
    3170     3273     3513     3958     4415     4845     5405     6019 
    6594     7264     8015     8653     9105     9265     9004     8412 
    7555     6397     5162     4226     3721     3530     3502     3657 
    4217     5144     6001     6531     6737     6643     6421     6193 
    5774     5098     4327     3580     3084     3052     3359     3869 
    4576     5326     5964     6530     7058     7447     7540     7315 
    6902     6265     5322     4350     3594     3031     2852     3181 
    3688     4272     5074     5796     6046     5823     5360     5057 
    5135     5374     5596     5845     6042     6091     6091     6072 
    5875     5416     4823     4322     4010     3841     3808     3923 
    4217     4802     5613     6355     6838     6976     6708     6228 
    5836     5593     5449     5337     5155     4916     4609     4105 
    3584     3476     3784     4182     4605     5069     5523     6001 
    6411     6690     7045     7445     7542     7279     6870     6295 
    5386     4336     3533     3069     2885     2960     3288     4031 
    5119     5974     6318     6353     6102     5578     4957     4386 
    4022     3877     3861     4062     4562     5298     6116     6852 
    7387     7516     7147     6489     5680     4786     4048     3576 
    3253     3075     3149     3422     3780     4248     4843     5509 
    6134     6521     6680     6832     6983     7062     7119     7116 
    6999     6813     6546     6085     5370     4608     4128     3930 
    3818     3704     3556     3456     3557     3917     4584     5596 
    6765     7662     8008     7901     7574     7232     6999     6806 
    6495     5960     5260     4600     3940     3103     2382     2175 
    2352     2699     3300     4240     5471     6833     7996     8640 
    8733     8449     7879     7038     6113     5359     4823     4491 
    4436     4563     4724     4970     5305     5608     5953     6417 
    6776     6889     6790     6489     6052     5432     4572     3753 
    3270     3163     3381     3762     4184     4803     5623     6269 
    6485     6396     6227     6111     6059     5939     5635     5172 
    4689     4408     4466     4719     4981     5305     5805     6362 
    6723     6795     6687     6464     6138     5837     5630     5441 
    5320     5392     5573     5733     5829     5701     5287     4878 
    4618     4358     4181     4362     4960     5789     6564     7041 
    7082     6679     6113     5835     5903     5912     5612     5184 
    4899     4700     4354     4003     3960     4229     4684     5146 
    5424     5592     5702     5550     5156     4758     4442     4329 
    4575     5126     5827     6473     6950     7356     7592     7350 
    6708     5982     5211     4457     3995     3928     4137     4392 
    4412     4216     4148     4424     4961     5571     6110     6394 
    6226     5752     5383     5287     5381     5556     5664     5641 
    5503     5259     5104     5213     5291     4967     4338     3735 
    3355     3278     3538     4029     4566     5054     5459     5709 
    5813     6020     6483     6989     7379     7581     7286     6412 
    5453     4882     4627     4352     3988     3700     3603     3754 
    4177     4875     5739     6467     6776     6587     6035     5343 
    4666     4200     4110     4238     4378     4514     4622     4753 
    5071     5517     5904     6185     6341     6352     6335     6448 
    6734     7058     7114     6723     6144     5671     5197     4664 
    4380     4515     4800     4827     4492     4149     4194     4589 
    5029     5384     5698     5965     6203     6497     6831     7066 
    7035     6666     6110     5555     4939     4314     4062     4203 
    4323     4343     4499     4914     5554     6320     7097     7719 
    7981     7771     7163     6292     5178     3920     2835     2189 
    2109     2576     3337     4238     5330     6427     7235     7767 
    8087     8087     7706     7121     6584     6178     5791     5246 
    4616     4315     4525     4926     5187     5177     4959     4708 
    4379     3977     3809     4044     4572     5130     5496     5732 
    5933     6061     6159     6307     6513     6751     6902     6857 
    6580     6107     5656     5370     5237     5333     5576     5749 
    5854     5937     5981     6075     6328     6638     6734     6526 
    6290     6278     6329     6228     6181     6387     6556     6327 
    5722     5029     4489     4105     3905     4117     4688     5241 
    5643     5983     6195     6141     5879     5679     5733     5940 
    6121     6176     6041     5695     5267     5047     5098     5141 
    5069     5035     5087     5223     5525     5923     6201     6266 
    6143     5891     5616     5420     5301     5148     4956     4864 
    4888     4962     5171     5641     6290     6830     7049     7003 
    6785     6406     6013     5785     5750     5843     5865     5571 
    4995     4468     4207     4154     4265     4534     4860     5157 
    5338     5441     5708     6098     6240     6012     5587     5162 
    4854     4657     4602     4858     5400     5906     6284     6831 
    7541     7892     7706     7349     6904     6185     5353     4724 
    4406     4289     4232     4290     4510     4754     5089     5595 
    5918     5898     5774     5499     5010     4638     4573     4629 
    4606     4528     4600     4976     5600     6326     7095     7791 
    8154     8177     8115     7988     7700     7321     6873     6353 
    5896     5476     4863     4093     3342     2657     2231     2262 
    2596     3030     3516     4004     4542     5316     6351     7436 
    8311     8714     8578     8129     7486     6691     5998     5531 
    5097     4477     3637     2918     2753     3156     3839     4363 
    4332     3897     3527     3312     3147     3167     3508     4030 
    4490     4712     4665     4559     4765     5404     6208     6857 
    7252     7494     7641     7567     7176     6543     5755     4801 
    3766     2988     2695     2720     2890     3317     4052     4855 
    5500     5971     6359     6826     7449     8024     8301     8249 
    7922     7271     6234     4937     3657     2686     2139     1910 
    2129     3169     4961     7046     9032    10563    11455    11790 
   11596    10914    10038     9158     8050     6618     5219     3948 
    2605     1425      788      820     1551     2739     3997     5171 
    6156     6761     6920     6664     5993     5037     4102     3326 
    2671     2304     2397     2833     3459     4178     4831     5299 
    5623     5965     6419     6799     6779     6280     5456     4499 
    3745     3680     4403     5467     6483     7270     7593     7368 
    6722     5828     4962     4237     3503     2760     2302     2459 
    3188     3994     4489     4804     5152     5368     5296     5184 
    5317     5717     6377     7372     8646     9947    11061    11978 
   12771    13270    13186    12643    12020    11313    10247     8824 
    7356     6124     5245     4750     4661     4895     5141     5141 
    4910     4459     3816     3305     3239     3548     3995     4447 
    5003     5839     6864     7796     8438     8766     8834     8585 
    7886     6772     5471     4172     3020     2205     1773     1653 
    1747     1826     1775     1677     1564     1369      998      576 
     496      991     2071     3592     5145     6322     7126     7865 
    8753     9668    10154     9851     9039     8353     7984     7765 
    7709     7905     8207     8337     8031     7142     5875     4713 
    4004     3707     3585     3561     3660     3826     4103     4647 
    5424     6287     7334     8679     9984    10802    10987    10431 
    9108     7422     5847     4485     3280     2138      848     -557 
   -1785    -2813    -3618    -3771    -3039    -1748     -266     1362 
    3210     5190     7102     8761     9946    10452    10240     9405 
    8170     6864     5642     4526     3574     2695     1645      352 
    -988    -2063    -2496    -2074    -1123     -100      903     1907 
    2878     3736     4389     4943     5574     6275     6897     7271 
    7409     7369     7091     6846     7008     7290     7193     6645 
    5898     5392     5345     5565     5968     6452     6682     6681 
    6620     6481     6633     7435     8622     9946    11285    12366 
   13178    13953    14643    15024    15213    15402    15246    14417 
   13264    12248    11478    10753     9650     8108     6578     5338 
    4377     3648     3041     2682     2911     3671     4737     6107 
    7657     9100    10257    11042    11369    11046     9927     8195 
    6208     4253     2464      846     -516    -1491    -2258    -3231 
   -4568    -6047    -7378    -8367    -8855    -8540    -6986    -4238 
   -1126     1656     4155     6461     8282     9339     9501     8781 
    7612     6522     5523     4413     3073     1338     -858    -3411 
   -6104    -8446    -9837   -10047    -9291    -7999    -6430    -4459 
   -2083      441     3118     5945     8578    10589    11522    11123 
    9719     7908     6035     4269     2936     2378     2612     3365 
    4262     4925     5215     5238     5160     5231     5547     5744 
    5491     5099     5216     6148     7880    10500    14059    17891 
   20658    21588    20968    19145    16377    13439    10872     8381 
    5693     3050     1115      630     1549     3153     5032     7047 
    8753     9573     9512     9215     9192     9490     9911    10223 
   10530    11075    11715    12106    11952    11043     9434     7396 
    5367     3840     3034     2874     3272     4143     5329     6865 
    8882    10983    12513    13174    12838    11557     9690     7599 
    5641     4181     3376     3370     4286     5846     7487     8753 
    9367     9375     9061     8512     7902     7835     8549     9238 
    8986     8129     7689     7819     8173     8844     9650    10111 
   10331    10514    10517    10233     9590     8566     7130     5175 
    2835      402    -1781    -3063    -2975    -1915     -722      275 
    1204     1810     1532      420     -764    -1447    -1679    -1471 
    -454     1695     5136     9560    13956    17640    20627    22542 
   22750    21231    18207    13993     9356     4872      691    -2838 
   -5493    -7349    -7814    -6146    -3072     -173     1970     3849 
    5885     7767     9022     9996    11506    13742    16109    17793 
   18215    17296    15286    12383     8781     4933     1521     -903 
   -2225    -2732    -2845    -2661    -1836      -42     2539     5158 
    7109     8117     8075     7059     5239     3036     1568     1312 
    1285     1123     1623     3079     5253     7812     9966    11046 
   11212    10862     9896     7939     5097     2360      961     1292 
    2674     4260     5947     7916     9799    11197    12066    12153 
   11230     9762     8393     7354     6741     6391     5862     5372 
    5515     6020     6233     6175     6078     5699     4800     3638 
    2795     2805     3443     3671     2967     1777      590     -307 
    -728     -725     -290      755     2435     4483     6519     8370 
   10055    11412    11922    11015     8725     5751     2671     -471 
   -3592    -5965    -6821    -6273    -4991    -3446    -1987     -994 
    -402      257     1098     1823     2396     3121     4110     5305 
    6663     7689     7538     6074     3823      982    -2168    -4660 
   -5760    -5632    -4900    -4076    -3169    -1965     -556      828 
    2116     3401     4683     5829     7106     8753    10152    10516 
    9643     7807     5505     3049      827     -277      117     1380 
    2992     4815     6485     7805     9279    11209    12790    13283 
   13244    13335    13169    12171    10557     8877     7155     5257 
    3372     1680      109    -1556    -3097    -3854    -3685    -3010 
   -2157    -1087      599     3008     5436     7232     8511     9663 
   10909    12069    12589    12124    10501     7426     3222    -1023 
   -4610    -7488    -9618   -10732   -10487    -8871    -6496    -4142 
   -1868      609     2956     4754     5914     6103     5369     4760 
    5004     5753     6743     8192     9788    10647    10631    10438 
   10130     9191     7677     5756     3475     1155    -1030    -2784 
   -3315    -2090      598     3740     6413     8483    10126    11369 
   12138    12113    10903     8655     6053     3785     2369     1868 
    1700     1555     1501     1003     -151     -962    -1042    -1283 
   -1966    -2434    -2264    -1176      928     3177     4688     5792 
    6798     7321     7428     7275     6531     5610     5406     5868 
    6562     7371     8019     7870     6659     5249     4614     4569 
    4601     4522     4074     3347     2775     2304     1763     1375 
    1264     1497     2213     3385     5112     7544    10419    13170 
   15077    15653    15089    13764    11740     9028     5820     2537 
    -238    -2116    -3055    -3025    -2053     -542     1214     3417 
    5975     8391    10673    12722    13746    13603    12696    10989 
    9091     7984     7041     5300     3570     2632     1799      745 
     144      632     2460     4971     7029     8657    10567    12641 
   14343    15523    16082    15734    14499    12721    10321     7117 
    3751     1053     -713    -1438    -1092      224     2523     5658 
    9140    12335    14331    14529    13294    11101     8450     6429 
    5595     5429     5524     6025     6989     8171     9188     9791 
   10076     9917     8700     6495     4403     3059     2063     1222 
     989     1310     1493     1222      545     -273     -662     -459 
      39      787     1733     2650     3567     4439     4931     4933 
    4852     5172     5649     5735     5615     5642     5659     5473 
    5173     5142     5798     6944     7924     8445     8699     8840 
    8420     6628     3600      548    -1646    -2652    -2245     -672 
    1588     4284     7068     9556    11613    13306    14729    15633 
   15541    14444    12880    11430    10248     8901     6957     4640 
    2389      423     -980    -1668    -1882    -1730    -1110     -151 
    1088     2674     4269     5419     6230     7140     8210     9158 
   10005    10885    11531    11631    11122     9977     8196     5917 
    3458     1456      482      311      471     1099     2301     3714 
    5102     6409     7516     8240     8340     7722     6551     5095 
    3814     3216     3381     4108     5519     7749    10117    11750 
   12501    12424    11538    10159     8509     6501     4186     1941 
     223     -668     -768     -574     -678    -1162    -1714    -2055 
   -2018    -1646    -1069     -302      588     1733     3575     5951 
    8059     9342     9536     8612     6982     5062     2924      861 
    -473     -977    -1117     -914     -217      715     1849     3199 
    4287     4949     5494     6036     6572     7009     7012     6281 
    4817     2980     1177     -491    -1814    -2318    -1880     -903 
      10      627     1356     2529     3762     4587     5232     6020 
    6735     7203     7494     7570     7416     7093     6541     5700 
    4723     3722     2630     1626     1028      800      764     1030 
    1856     3217     4705     5917     6635     6814     6795     6970 
    7222     7293     7104     6605     5948     5471     5409     5968 
    7074     8110     8709     9112     9330     8990     7957     6318 
    4135     1756     -168    -1310    -1698    -1237      135     2042 
    3878     5277     6078     6163     5724     5247     5148     5618 
    6489     7361     7898     7737     6540     4402     2041      223 
   -1196    -2777    -4240    -4858    -4377    -2891     -606     2048 
    4480     6344     7606     8315     8614     8479     7823     6986 
    6225     5241     3863     2444     1209      -13    -1140    -1815 
   -2048    -1928    -1064      852     3569     6742    10044    12849 
   14535    15072    14930    14351    13105    11151     8968     7012 
