Origin Time       2016/04/16 01:25:00
Lat.              32.753
Long.             130.762
Depth. (km)       12
Mag.              7.3
Station Code      NGS023
Station Lat.      33.7502
Station Long.     129.6899
Station Height(m) 30
Record Time       2016/04/16 01:25:30
Sampling Freq(Hz) 100Hz
Duration Time(s)  144
Dir.              E-W
Scale Factor      3920(gal)/6182761
Max. Acc. (gal)   19.179
Last Correction   2016/04/16 01:25:30
Memo.             
[...]
   -3759    -2297    -1515    -1580    -2205    -2617    -2343    -1779 
   -1291    -1083    -1963    -4116    -6183    -6793    -5870    -4236 
   -2638    -1584    -1656    -2995    -4564    -5165    -4909    -4373 
   -3699    -3252    -3115    -2792    -2376    -2263    -2120    -1542 
    -820     -301     -275    -1385    -3423    -5297    -6843    -8351 
   -9358    -9129    -7119    -3728     -735      598      732      436 
    -212    -1616    -4341    -8178   -11707   -13683   -13741   -11617 
   -7275    -1618     3454     5945     5318     2805      -40    -2587 
   -4613    -5331    -4351    -2861    -2357    -3250    -5287    -7829 
   -9964   -11038   -10838    -9559    -7379    -4412    -1441      322 
     655      672      976      680     -780    -2613    -3866    -4511 
   -5256    -6224    -6666    -6681    -7238    -8209    -8636    -8496 
   -8258    -7605    -6257    -4476    -1992     1423     4403     4793 
    2082    -1909    -5077    -7021    -8536    -9872   -10522   -10082 
   -8357    -5745    -3203    -1046      807     1585      271    -2683 
   -5423    -6671    -6508    -5406    -3779    -2072     -750     -414 
   -1510    -3787    -6273    -8037    -8863    -8733    -7560    -5592 
   -3324    -1475     -717     -906    -1478    -2327    -3455    -4216 
   -4012    -3626    -4130    -4952    -5125    -4955    -4918    -5075 
   -5689    -6461    -6515    -6031    -5846    -5772    -5272    -4649 
   -4361    -4491    -5065    -6002    -6959    -7448    -7136    -6120 
   -4778    -3280    -1521      294     1512     1592      168    -2728 
   -6137    -9117   -11206   -11450    -9646    -7372    -5466    -3503 
   -2115    -2301    -3412    -3948    -3334    -2390    -2369    -3465 
   -5056    -6788    -8138    -8273    -7087    -5204    -3194    -1204 
     675     1704     1143     -475    -2222    -4246    -6747    -8835 
   -9787   -10181   -10789   -11003    -9462    -6037    -2135      797 
    2513     3424     3151     1337    -1105    -3403    -5659    -7846 
   -9666   -10782   -11009   -10537    -9647    -8442    -6870    -4814 
   -2229      502     2476     3104     2746     2075     1141     -523 
   -2912    -5173    -6544    -7467    -8868   -10470   -11345   -11490 
  -11200    -9795    -6308    -1430     2746     5104     5827     5203 
    3519     1207    -1181    -3352    -5754    -8820   -12015   -14156 
  -14299   -12307    -8926    -5243    -1968      283      532    -1337 
   -4013    -6243    -7315    -6875    -5568    -4520    -3939    -3212 
   -1907     -244      987     1142      565      238      162     -893 
   -3482    -6849   -10032   -12116   -12306   -10666    -7980    -4890 
   -1875      486     1763     1927     1521     1193      824     -139 
   -1855    -4146    -6758    -8967    -9584    -8650    -7669    -7000 
   -5711    -3832    -2080     -720       52      -46     -935    -2197 
   -3397    -4481    -5901    -7567    -8276    -7365    -5654    -4105 
   -2979    -2150    -1435     -923     -932    -1576    -2684    -3800 
   -4375    -4550    -5053    -6092    -7063    -7012    -5583    -3758 
   -2736    -2833    -3808    -5022    -5661    -5370    -4682    -4620 
   -5467    -6355    -6363    -5565    -4840    -5003    -5980    -6782 
   -6720    -6225    -5897    -5530    -4541    -2761     -902     -285 
   -1237    -2463    -2971    -3251    -3929    -4705    -5251    -5883 
   -6639    -6754    -5618    -3569    -1659     -912    -1480    -2560 
   -3616    -5085    -7103    -8731    -9108    -8213    -6584    -5001 
   -4060    -3773    -3717    -3543    -3385    -3583    -4127    -4817 
   -5431    -5755    -5814    -5517    -4706    -3569    -2182     -796 
    -277    -1096    -2820    -4464    -5358    -6079    -7266    -8238 
   -8237    -7403    -6080    -4456    -2733    -1307     -467      136 
     832     1059        5    -2121    -4353    -6256    -7932    -9227 
   -9404    -7848    -5323    -3266    -2086    -1543    -1699    -2408 
   -3040    -3543    -4678    -6340    -7107    -6386    -5312    -4960 
   -5185    -5244    -4822    -4252    -3898    -4034    -4682    -5143 
   -4833    -3956    -2891    -1826     -645      714     1425      247 
   -2972    -6870    -9863   -11459   -12065   -11992   -11072    -9198 
   -6607    -3726    -1360       51     1154     2068     1886      422 
   -1808    -4412    -6887    -8886   -10261   -10423    -9059    -7031 
   -5219    -3685    -2437    -1578    -1047     -895    -1162    -1666 
   -2088    -2272    -2607    -3473    -4693    -6051    -7248    -7661 
   -7364    -7247    -7586    -7898    -7906    -7600    -6869    -5476 
   -3450    -1447     -243      -94     -831    -2021    -3189    -4363 
   -5673    -6493    -6438    -6348    -6774    -6963    -6459    -5872 
   -5606    -5442    -5006    -4102    -3452    -3868    -4724    -5193 
   -5193    -4522    -3280    -2018    -1052     -930    -2071    -3968 
   -5954    -7342    -7347    -6211    -4936    -3892    -2882    -1699 
    -169     1253     1496      277    -1710    -3801    -5461    -6393 
   -6836    -6979    -6673    -5838    -4548    -3196    -2511    -2726 
   -3372    -3845    -3592    -2809    -2520    -3000    -3522    -3696 
   -3916    -4596    -5303    -5405    -5111    -4777    -4435    -4323 
   -4480    -4438    -4091    -3969    -4502    -5527    -6358    -6244 
   -5030    -3392    -2245    -1944    -2231    -2645    -2638    -2084 
   -1649    -1830    -2657    -4217    -6164    -7879    -8983    -8880 
   -7458    -5575    -3798    -2383    -1929    -2603    -3702    -4243 
   -3643    -2403    -1928    -2974    -4668    -5720    -5868    -5503 
   -4758    -3434    -1860    -1131    -1509    -2135    -2790    -3810 
   -5041    -6015    -6337    -6262    -6628    -7406    -7630    -6939 
   -5645    -3916    -2142     -971     -519     -420     -468     -927 
   -1930    -2816    -3143    -3370    -3869    -4682    -5514    -5568 
   -4794    -3960    -3176    -2237    -1236     -121      892     1344 
    1149       48    -2180    -4824    -6868    -7813    -7872    -7779 
   -7699    -6960    -5434    -3835    -2434     -915      643     1727 
    2044     1680      722     -856    -2784    -4511    -5692    -6188 
   -5995    -5422    -4753    -3920    -2928    -2076    -1608    -1352 
    -865     -284     -410    -1686    -3872    -6497    -8980   -10671 
  -11273   -11036   -10345    -9286    -7832    -6384    -5416    -4803 
   -4248    -3778    -3370    -2882    -2444    -2311    -2614    -3402 
   -4493    -5568    -6532    -7308    -7613    -7498    -7313    -6982 
   -6331    -5405    -4230    -3286    -3099    -3345    -3795    -4635 
   -5550    -6136    -6375    -6312    -5961    -5334    -4665    -4313 
   -4296    -4468    -4767    -5081    -5425    -5871    -6388    -7099 
   -7841    -7937    -7461    -7070    -6660    -5871    -4541    -2460 
     -68     1852     3053     3277     2427      962    -1122    -4008 
   -6912    -8920    -9935   -10135    -9675    -8850    -7915    -7024 
   -6243    -5494    -4680    -3756    -2825    -2247    -2360    -3326 
   -4894    -6237    -7010    -7478    -7309    -6078    -4094    -1693 
     803     2510     2727     2024     1654     2052     2436     1930 
     654     -900    -2933    -5687    -8366    -9765    -9538    -8177 
   -6495    -5429    -5277    -5435    -5226    -4271    -2422      118 
    2770     4691     4953     3255      639    -1468    -2777    -3691 
   -4424    -5290    -6718    -8649   -10451   -11437   -11362   -10637 
   -9983    -9304    -7735    -5249    -2622      -59     2615     4942 
    6082     5774     4171     1437    -1824    -5000    -8092   -11112 
  -13753   -15388   -15084   -12769    -9675    -6696    -3938    -1722 
    -220      896     1744     2169     1827      118    -2884    -6082 
   -8347    -9135    -8525    -6911    -4753    -2585     -668      927 
    2058     2988     4068     4837     4606     3476     2079      930 
      95     -717    -1799    -3414    -5599    -8050   -10797   -14011 
  -16904   -18251   -17658   -15370   -11697    -7224    -3031       36 
    2309     4515     6391     7296     7214     6497     5473     4148 
    2267     -152    -2894    -5633    -7747    -8851    -9245    -9170 
   -8274    -6646    -5261    -4774    -5078    -5826    -6654    -7109 
   -6625    -5282    -3896    -2621     -978     1190     3842     6325 
    7441     6798     4750     1893     -924    -3681    -7166   -11101 
  -14151   -15354   -14287   -11380    -8061    -4997    -1687     1591 
    3518     3381     1839      118    -1318    -3171    -6135    -9415 
  -11375   -11652   -11307   -11060   -10519    -9157    -7438    -6510 
   -6770    -6885    -5156    -1841     1488     3764     4312     2925 
     111    -3697    -8060   -12015   -14821   -16244   -16049   -14245 
  -11236    -7266    -2625     1850     5395     7684     8200     6738 
    4161     1153    -2331    -5569    -7081    -6323    -4296    -2740 
   -2852    -4581    -7141    -9952   -12612   -14108   -13600   -11277 
   -7077    -1164     4602     8526    10503    10616     8853     5764 
    1774    -2965    -7785   -11935   -15149   -17068   -17221   -15622 
  -12518    -8219    -3460      880     3846     4157     1724    -1676 
   -4447    -6072    -6693    -7067    -7896    -9293   -11091   -13145 
  -14925   -15625   -15384   -14485   -12161    -8055    -2930     1939 
    5437     7591     8940     9352     8588     7110     5954     6015 
    7254     8573     8715     7052     3442    -1548    -6731   -11318 
  -14550   -15422   -14078   -11646    -8947    -6416    -4027    -1580 
     290     1030     1298     1328      538     -884    -2400    -3822 
   -4974    -6115    -7847   -10179   -12283   -12921   -11299    -7707 
   -3117     1429     5009     6930     7059     6086     4924     3612 
    1282    -2393    -6566   -10235   -12756   -13965   -14315   -14161 
  -13565   -12636   -11490   -10199    -8566    -6629    -5005    -3752 
   -2697    -2311    -2677    -3474    -4874    -7182   -10155   -12444 
  -12207    -9081    -4469      326     4834     8165     8918     6646 
    2345    -2360    -6424    -9577   -11175   -10353    -7420    -3419 
     914     4775     7490     9050     9380     7940     4303    -1127 
   -7164   -12722   -16980   -19149   -18574   -14941    -8985    -2418 
    3613     8816    12069    11802     8096     2071    -5231   -12115 
  -17109   -20431   -22394   -22054   -18942   -13961    -8443    -3687 
    -420     1632     2840     3069     2442     1298     -423    -2464 
   -4053    -4767    -4877    -5397    -7092    -8814    -8182    -4114 
    2301     9116    14469    16827    16105    13623    10034     5230 
    -230    -5781   -11496   -17195   -22252   -25689   -25957   -22243 
  -15869    -8912    -2601     2373     5826     7892     8004     5693 
    1967    -2032    -6117    -9521   -10805    -9763    -7624    -6006 
   -6140    -7860    -9867   -11596   -13207   -14514   -15565   -16279 
  -15807   -14094   -11825    -8919    -5440    -2520     -986     -484 
    -577    -1247    -2141    -2192     -313     3066     5737     5962 
    4377     2750     1431     -266    -2010    -2805    -2501    -2114 
   -2763    -4285    -5932    -7707   -10073   -13460   -17851   -22264 
  -24814   -23652   -18612   -11413    -4093     1952     5894     7598 
    8375     9765    10753     9248     5594     1152    -4262   -10640 
  -15956   -18127   -17353   -15055   -11549    -6372      126     6604 
   11339    13442    13253    10689     5704      561    -2399    -3601 
   -3977    -3446    -1793     1362     5742     9860    12539    13299 
   11399     6532     -122    -7097   -13784   -19858   -24570   -27046 
  -27279   -25644   -21621   -15120    -7825    -1161     4294     7131 
    6670     3582    -2273   -10168   -17274   -21570   -22527   -19928 
  -14671    -8958    -4553    -2445    -3395    -6710   -10198   -12185 
  -12285   -11474   -11314   -12066   -12726   -12826   -13249   -14809 
  -17007   -19045   -20270   -20295   -19564   -17842   -13930    -7702 
     -35     7995    15065    19929    21668    19800    14479     7114 
    -244    -7110   -13534   -18008   -19160   -16738   -10952    -2906 
    6074    14962    21998    25367    24615    20067    12534     3886 
   -4371   -11870   -17610   -20701   -21541   -19971   -15842   -10419 
   -4707      744     5014     7577     8224     6508     2127    -4246 
  -11443   -18559   -23457   -23664   -19202   -11838    -3849     2925 
    7976    10801    11264    10632     9344     6362     1256    -5231 
  -11426   -15082   -14534    -9426    -1035     7945    15179    20154 
   22851    22567    19238    13730     6976     -337    -7868   -14329 
  -18004   -19047   -18110   -15083   -10422    -4984      511     5320 
    8987    11493    13184    14299    14474    13356    10567     5285 
   -1812    -8429   -13186   -15084   -13517    -9389    -3233     3979 
    9364    11595    11534     9129     4267    -1435    -6762   -11606 
  -15481   -18695   -21993   -24585   -25377   -23737   -19320   -13104 
   -6952    -1750     2811     6382     7695     6217     2489    -2108 
   -6686   -11733   -16459   -19209   -20229   -19809   -17815   -14465 
   -9114    -2304     4015     8317     8833     5650     -241    -9973 
  -21808   -30287   -33096   -31039   -24269   -13531    -1221    10227 
   18752    22675    21061    14051     3366    -8836   -20383   -29035 
  -33899   -34443   -30386   -22704   -12600    -2074     6315    10894 
   10999     7293     1515    -4435    -9618   -13536   -15974   -17680 
  -17484   -13516    -7106      106     7812    14790    18448    17207 
   12042     4719    -3117   -10988   -18994   -25296   -28283   -27561 
  -23029   -15522    -5683     4955    13260    17610    18441    16765 
   13046     7339      821    -5534   -11698   -16941   -20811   -23159 
  -24038   -24261   -22535   -17399    -9882     -205    10299    17720 
   20844    21657    20775    17713    13623     8700     2603    -2980 
   -7917   -12966   -17138   -19296   -18787   -16310   -12463    -6300 
    1869    10180    16598    19342    18249    14348     8001     -667 
  -10317   -18520   -23536   -25754   -26007   -23723   -18577   -11217 
   -2586     5224    10537    13533    14196    12999    11134     7482 
     661    -8061   -17054   -24968   -29996   -31346   -29156   -23557 
  -15523    -7083     -424     3086     4097     4175     3198      431 
   -3581    -7797   -11206   -13566   -15577   -17602   -19569   -20931 
  -20893   -19567   -17250   -13746    -9692    -6055    -2345     1941 
    5536     6455     3496    -2451    -9109   -15031   -19226   -20980 
  -20566   -18424   -15482   -13148   -11672   -10420    -8833    -6388 
   -3100      269     2758     3636     3155     2123      437    -2559 
   -7024   -12009   -15857   -18092   -18962   -18021   -15525   -12297 
   -8643    -5570    -3774    -1799     2164     7919    13613    17699 
   19302    17812    14082     9488     4095    -1401    -5584    -8795 
  -11621   -13082   -12403   -10330    -7075    -1667     4995    11112 
   16287    19496    19733    17191    11672     3800    -4139    -9855 
  -12224   -11878    -9869    -6912    -4176    -2421    -1664    -1837 
   -3462    -6808   -10213   -12819   -14878   -14520   -10740    -5114 
     754     5308     8108     9820     9949     8298     5569     1430 
   -4666   -12374   -20502   -26968   -30250   -30425   -27709   -21943 
  -13785    -4332     5291    13610    19363    21042    17356     8864 
   -2232   -12761   -20385   -24442   -24466   -21109   -16316   -11101 
   -6046    -2065      529     1740     1150    -1521    -4935    -6817 
   -6953    -6577    -6111    -5938    -6819    -9094   -11985   -14257 
  -15598   -15371   -12834    -8876    -4771    -1302     1085     2253 
    1984      641     -431     -355      323      541     -860    -4447 
   -9533   -15682   -21939   -25432   -24303   -19107   -11281    -2707 
    5134    11343    14742    15196    13581     9869     3873    -3703 
  -11509   -17916   -21728   -23077   -23294   -22740   -20809   -18055 
  -15040   -11462    -7268    -2709     1072     2670     2198      442 
   -1928    -4275    -6472    -8360    -9754   -10910   -11769   -11847 
  -10986    -9959    -9880   -11172   -13755   -16556   -18064   -18314 
  -17827   -16265   -13463    -9982    -6778    -4600    -3569    -3665 
   -5278    -8778   -13513   -17903   -20642   -21344   -20544   -18746 
  -15710   -11910    -8610    -6402    -5490    -5716    -6669    -8490 
  -11109   -13567   -14753   -14372   -12999   -10945    -8243    -5582 
   -3659    -2518    -2401    -3836    -6441    -8984   -10353    -9986 
   -8259    -5650    -2104     1545     4068     5548     6392     6663 
    6943     7684     8227     7653     5785     3115      725     -294 
     -34      344       40     -545     -730     -733    -1116    -1655 
   -1384      153     2215     3831     4424     3675     1831     -124 
    -935      164     2944     6172     8574     9909    10358     9853 
    8547     6888     5460     4731     4688     5030     5491     6129 
    7365     9415    11821    13544    13735    12253     9425     5942 
    2581     -408    -3330    -6539    -9620   -11502   -11682   -10347 
   -7739    -4038      708     5939     9927    11164     9853     7020 
    3203    -1322    -5910    -9704   -12331   -14124   -15647   -17136 
  -18055   -17275   -14326   -10173    -5748     -864     4008     7396 
    8999     9260     7586     3267    -3043    -9817   -15711   -19830 
  -21874   -21983   -20248   -17354   -14527   -11823    -8555    -5141 
   -2573    -1105     -724    -1643    -3529    -5558    -7083    -7530 
   -6702    -5303    -4184    -3449    -3038    -3310    -4504    -6543 
   -8972   -10956   -12253   -12929   -12391   -10729    -9044    -7544 
   -5952    -4701    -3963    -3280    -2553    -1990    -1207      350 
    2271     3784     4832     5639     6275     6721     6966     7205 
    7378     6985     5921     4084      628    -4434    -9281   -12280 
  -13149   -12034    -9064    -4702      321     5421    10182    14112 
   16706    17583    16290    12566     7084     1090    -4556    -9373 
  -13011   -15267   -15723   -14079   -10936    -7213    -3522     -575 
     781      470     -649    -2180    -4274    -6353    -7737    -8548 
   -8949    -8793    -8240    -7631    -6996    -6664    -7405    -9242 
  -11073   -11598   -10492    -8490    -6494    -5035    -4239    -4184 
   -4911    -6228    -8284   -11074   -13447   -14384   -13990   -12351 
   -9365    -5767    -2768     -941     -409    -1453    -4254    -8603 
  -13846   -19041   -23544   -26604   -26990   -24405   -20132   -15686 
  -11581    -7721    -4648    -3479    -4588    -6907    -8607    -8578 
   -7108    -5080    -2904     -495     2073     4156     4800     3407 
    -113    -5089    -9864   -13226   -15294   -16165   -15403   -13120 
  -10073    -6788    -3440     -287     2400     4465     5540     5235 
    3802     2035      663      -75     -622    -1329    -1870    -2140 
   -2457    -2918    -3715    -5351    -7914   -10593   -12103   -11545 
   -9219    -6502    -4031     -966     2959     6655     9172    10186 
    9725     8343     7065     6732     7375     8507     9629     9928 
