Origin Time       2016/04/16 01:25:00
Lat.              32.753
Long.             130.762
Depth. (km)       12
Mag.              7.3
Station Code      NGS014
Station Lat.      32.6106
Station Long.     130.1849
Station Height(m) 3
Record Time       2016/04/16 01:25:16
Sampling Freq(Hz) 100Hz
Duration Time(s)  237
Dir.              N-S
Scale Factor      3920(gal)/6182761
Max. Acc. (gal)   171.270
Last Correction   2016/04/16 01:25:16
Memo.             
[...]
   -6177    -6176    -6176    -6176    -6175    -6174    -6181    -6191 
   -6190    -6183    -6179    -6179    -6177    -6173    -6170    -6169 
   -6173    -6180    -6185    -6187    -6182    -6174    -6174    -6176 
   -6170    -6166    -6170    -6174    -6180    -6187    -6190    -6190 
   -6187    -6180    -6174    -6176    -6179    -6175    -6168    -6170 
   -6179    -6181    -6174    -6173    -6179    -6182    -6184    -6182 
   -6174    -6167    -6171    -6182    -6191    -6190    -6180    -6176 
   -6180    -6179    -6171    -6166    -6172    -6181    -6182    -6181 
   -6180    -6181    -6181    -6178    -6177    -6180    -6181    -6176 
   -6170    -6172    -6177    -6179    -6180    -6182    -6183    -6182 
   -6179    -6180    -6182    -6177    -6176    -6180    -6177    -6170 
   -6167    -6168    -6175    -6182    -6186    -6191    -6186    -6172 
   -6170    -6176    -6173    -6173    -6178    -6177    -6174    -6176 
   -6182    -6184    -6182    -6181    -6182    -6180    -6179    -6175 
   -6174    -6179    -6182    -6181    -6180    -6180    -6180    -6178 
   -6173    -6171    -6171    -6170    -6173    -6179    -6180    -6177 
   -6177    -6181    -6184    -6183    -6185    -6185    -6177    -6170 
   -6170    -6171    -6173    -6176    -6179    -6182    -6182    -6177 
   -6173    -6175    -6178    -6181    -6182    -6179    -6179    -6182 
   -6180    -6178    -6179    -6176    -6178    -6185    -6183    -6175 
   -6169    -6170    -6177    -6179    -6171    -6168    -6176    -6185 
   -6188    -6183    -6178    -6177    -6173    -6169    -6172    -6177 
   -6183    -6186    -6183    -6176    -6173    -6173    -6176    -6180 
   -6182    -6182    -6182    -6178    -6177    -6179    -6179    -6183 
   -6182    -6171    -6166    -6167    -6172    -6178    -6180    -6179 
   -6182    -6182    -6179    -6176    -6175    -6176    -6178    -6179 
   -6179    -6176    -6174    -6178    -6187    -6187    -6180    -6177 
   -6178    -6180    -6183    -6177    -6169    -6172    -6180    -6182 
   -6178    -6174    -6173    -6175    -6179    -6181    -6178    -6175 
   -6179    -6182    -6185    -6183    -6176    -6175    -6177    -6177 
   -6178    -6177    -6174    -6170    -6166    -6168    -6173    -6174 
   -6175    -6178    -6178    -6172    -6167    -6166    -6162    -6157 
   -6163    -6170    -6171    -6170    -6167    -6163    -6159    -6161 
   -6164    -6171    -6187    -6206    -6222    -6207    -6155    -6169 
   -6248    -6259    -6222    -6220    -6259    -6305    -6230    -6087 
   -6178    -6392    -6323    -6219    -6517    -6838    -6657    -6124 
   -5750    -5797    -5824    -5634    -5971    -6743    -6958    -6486 
   -5684    -5220    -5685    -6176    -6114    -6553    -7217    -6478 
   -4976    -4420    -4356    -4242    -5052    -7191    -9435    -9588 
   -7487    -5648    -4834    -4051    -3875    -5351    -7505    -8293 
   -7762    -7469    -7416    -6419    -4635    -4186    -5703    -6714 
   -5716    -4271    -4747    -7008    -7917    -6688    -6517    -7923 
   -8133    -7353    -6985    -5762    -4171    -5011    -7235    -8103 
   -8905   -10035    -8684    -6399    -6049    -5259    -3257    -2958 
   -4517    -6192    -7341    -7234    -5665    -4504    -5137    -5824 
   -4756    -3939    -5429    -6858    -5749    -3325    -2102    -3130 
   -5491    -7868    -8843    -7427    -5326    -4374    -3879    -3427 
   -3578    -4388    -5449    -6394    -8124   -10856   -11154    -7793 
   -5665    -6588    -6328    -4505    -5597    -9110    -9797    -7455 
   -6323    -7173    -7626    -6503    -5068    -5741    -8012    -8194 
   -6728    -8098   -10935    -9775    -6549    -6848    -8377    -6365 
   -2771    -1748    -3738    -6118    -7409    -7763    -5743    -2131 
    -648    -1300    -2556    -5586    -9536    -9890    -5855    -2443 
   -2883    -5271    -6589    -6618    -7172    -8095    -7669    -5557 
   -2636     -631     -572    -2081    -6520   -13528   -16736   -13157 
   -7056    -1784     -304    -4412    -8908    -9491    -9845   -12781 
  -13661    -9649    -6271    -5141    -1539     1766     -406    -6225 
  -13544   -18820   -15384    -5489     -349    -4027    -8394    -6931 
   -5286   -10039   -14612    -9676    -2030    -3696    -9237    -8401 
   -5296    -5972    -7428    -5204     -494     1690     1218     2737 
    4559     -781   -11312   -14115    -6513     -523     -256     1081 
    3046      972     -373     3833     5510    -3325   -13267   -12130 
   -6992    -7245    -8415    -8203    -7835    -7649   -12819   -20901 
  -20831   -15018   -13972   -12418    -3085      495    -8308   -11416 
   -2047     3320    -5380   -17765   -18661    -8032     1337      290 
   -8367   -13864   -11047    -5939    -3309     -503     1561    -2239 
   -7567    -6692    -5498   -11679   -15797    -7950     1419      641 
   -3816    -4839    -6310   -10499   -14298   -14393    -9225    -2934 
   -1167      354     6894     8159    -4048   -14732   -10382    -2046 
   -2131    -6373    -8234    -5226     2798     9166     8684     2924 
   -5819   -12059   -13555   -17151   -22245   -19968   -10819    -3691 
   -2609    -4084    -8089   -17154   -23444   -19678   -10738    -2341 
    1812     1619     2258    -1543   -15644   -24675   -17972    -6670 
    2019     8617    10410     7853     1997   -10628   -26768   -34594 
  -27721   -10443     6563    12715     6542    -5656   -18595   -27643 
  -27836   -19912   -11261    -4333     6127    15382    11047    -3078 
  -10972    -8632    -8918   -18042   -20723    -9290     -451    -1911 
   -2805      573     2175     -456     -555     7870    16561    16175 
   10395     3615    -7292   -23999   -35432   -28229   -14488   -14497 
  -15895     -178    14654     7081    -7343    -9203    -9352   -17435 
  -21087   -12187     4445    18664    18082     5859    -1440    -4459 
  -13112   -16448    -4001     6829     3544     -225     5348    15068 
   19891    12473    -5668   -22122   -20443    -1574     7462    -9759 
  -33031   -36925   -29280   -31854   -40392   -40854   -35598   -27898 
  -14181     2972    12412     8950     2284     2182     5610     4265 
     -91     5567    20413    22370     6472    -7480   -16884   -28625 
  -30878   -22882   -20241   -19796    -8795     7558    12469     3315 
   -4385    -4901    -7703   -13109   -12618    -4090     5821     6711 
    -607    -3435     -945    -4122   -12290   -14048    -5921     4281 
    8427     5144    -1450    -1842    12272    27967    23516     8267 
    3042     1706    -1913      961     6671     6838     3830    -4866 
  -22987   -38872   -41043   -35087   -29455   -25960   -27674   -34211 
  -38394   -37976   -33805   -25420   -19094   -16123    -6174     6859 
    9755     4877    -2786   -13429   -21290   -21606   -15673    -2280 
   15835    25614    22251    13814      575   -21044   -37266   -33477 
  -19094    -9164    -7014   -10255   -10956    -3953     2747     4513 
    9067    15395    12293    -1244   -15738   -20868   -12362     5450 
   25349    38232    37091    26042    11600    -5364   -19746   -25591 
  -24027   -15524    -4704    -1909    -7710   -15418   -17343    -9882 
   -3052     -710     6727    14606    11434     -421   -14864   -27947 
  -37395   -44539   -46496   -33773    -7071    13250    13780     7297 
    2286   -12977   -37817   -50544   -38825   -12424    10492    18027 
   11598     5833    11346    16152     6475    -7124   -10865    -6543 
    2600    13903    19347    13312     -410    -8401     -140    15449 
   19917     9454    -6851   -24137   -38804   -41468   -28844    -9033 
    7758    15195    16007    18652    22357    19658    13056    10122 
    8413     4238     4265     9192     8082     3412     6266     9014 
   -1245   -22982   -47617   -63618   -62476   -48110   -30766   -17268 
   -8478    -6425   -15112   -26694   -31580   -32542   -27346   -13834 
   -5911    -6583    -1619     8352    14223    19328    23471    16001 
    -622   -10674   -14979   -24532   -31242   -28600   -28843   -28659 
  -14110     3326    10627    13787    13449     9794    10053     8643 
   -2155   -13410   -15183    -8327     3360    14189    17426    14518 
    9796     1271    -9269   -12557    -6462    -1284    -5942   -13907 
  -13218    -6535    -5536   -14174   -25425   -30733   -31966   -31979 
  -24285    -9430     3189    14259    27583    32377    16700   -10063 
  -28067   -34513   -38989   -41069   -36800   -31977   -34373   -41370 
  -40094   -28173   -18968   -15133    -7766      980     5563    11797 
   20438    19958     9611    -1148   -11220   -15068     -878    21222 
   32188    35238    35501    24568     5612    -8936   -18935   -21895 
   -5791    21531    36319    36600    33680    25334    11310     1814 
   -2027    -4969    -6109    -5404    -2325     6098    15116    15844 
   10139     8358    12327    12749     3215   -14286   -31519   -38198 
  -32063   -19399    -7920    -4390    -8452   -14967   -23462   -30611 
  -30278   -26398   -25094   -24366   -21526   -19969   -25129   -34673 
  -40529   -39659   -33257   -25297   -21898   -20923   -15333    -6824 
    1605    12681    23422    24697    14795     1338    -9974   -18806 
  -22688   -18758   -11306    -6570    -4640    -2963     -450     4825 
   10392     7838     1472     6690    21092    28921    25847    15676 
    3420    -3308    -3236    -2346     -859     3133     3630    -1401 
   -6394   -13000   -25277   -37929   -44600   -42588   -26195     3786 
   29538    33431    15613   -11514   -34754   -43985   -35149   -14409 
    5090    12764     7667    -7731   -30477   -45217   -40294   -29637 
  -23400   -11233     7228    18975    17892     3888   -12734   -14012 
   -5176    -4682    -4775     8053    22583    27911    27207    20002 
    7395     -326      388     4462     9208    12085    11857    11345 
    7770    -3596   -17116   -26017   -33124   -41036   -42684   -31405 
  -11292    10864    29030    33796    24912    14324     4458   -10582 
  -21794   -13424    11691    37304    50329    43478    21875     1417 
  -12302   -23007   -25794   -18043    -9604    -4111      806    -1989 
  -15681   -28186   -28024   -16290    -2910     3852     3592    -2276 
  -16210   -35605   -48936   -55065   -64478   -71054   -59772   -40433 
  -32425   -32938   -32979   -36746   -46832   -55816   -57705   -55172 
  -53681   -52826   -46652   -30257    -8927     2091    -3120   -12101 
  -11668    -1126    13746    28885    43224    55411    61496    58615 
   50018    41630    35101    29724    24417    17330    13067    18274 
   28561    38895    53623    71357    80297    75143    61014    42101 
   22216    10121     7256      403   -18270   -43566   -72439   -99150 
 -110896  -105150   -89669   -71398   -53663   -32372    -7237     4876 
   -9146   -35567   -51739   -54051   -52757   -52673   -52210   -49419 
  -40812   -25021    -8470      267    -1422    -8156   -10811    -4820 
    7066    19933    33310    50578    70541    89042   106656   118856 
  113483    90137    60466    32998    13189     3491    -1047    -1921 
    5780    14595    10832    -5733   -29606   -51855   -59157   -53703 
  -52081   -59689   -67227   -67461   -59544   -42123   -16045     8372 
   15251    -2145   -33377   -63842   -86984   -96800   -87212   -64135 
  -41747   -26044    -9472    14774    38737    50619    50534    47118 
   44070    36006    21628     8948     5285    12000    21512    21526 
    9652    -3829   -10437   -12543   -15470   -18021   -15329   -10308 
  -12009   -18254   -15911     1314    25145    39159    34987    18492 
   -2923   -21719   -27229   -23003   -27119   -46985   -76842  -106877 
 -121870  -113170   -89860   -68324   -56461   -47366   -32516   -15635 
   -9391   -25370   -58447   -86805   -97567   -97284   -96932   -99049 
  -95821   -75384   -31372    31969    97834   143538   158792   153059 
  142290   134230   125679   108772    84676    70475    77624    96815 
  115503   127047   129152   123677   108838    84165    54090    15976 
  -31050   -71133   -89859   -89465   -73171   -45699   -23229   -13872 
  -15647   -32767   -62510   -90377  -105711  -107017  -102578  -100417 
  -98761   -95941   -97151  -108108  -128442  -151078  -163633  -152149 
 -111399   -50971     8769    45371    49756    35284    22765    24155 
   37733    49045    49867    47423    47116    45109    36719    27550 
   28695    38793    50555    64915    83694   102775   114219   109444 
   83720    38882   -12836   -50055   -60590   -51169   -32900   -14569 
   -5651    -7857   -13359   -17468   -20523   -20460   -16745   -14363 
  -13960   -11922   -12819   -23109   -38067   -47123   -46468   -39672 
  -25459    -2186    17775    21312     8991    -9795   -23360   -29302 
  -35913   -45394   -46508   -23708    23389    69338    85160    65498 
   25828   -12434   -33349   -37289   -37110   -40384   -45302   -49064 
  -50343   -51773   -57124   -61638   -59194   -51838   -45095   -45928 
  -58637   -79571  -101727  -115882  -109841   -75807   -20134    35273 
   73915   100966   121094   123047   101465    68483    39885    23649 
   18226    19510    26367    35703    44278    52934    58952    60770 
   62121    58439    47450    36747    23804     2944   -18241   -24887 
   -9087    16820    32866    39750    53042    71277    77011    64948 
   41865    14068    -9600   -23007   -30335   -35866   -37516   -33499 
  -26777   -24245   -30295   -43220   -61925   -87303  -118837  -154788 
 -188076  -211912  -232184  -254720  -272081  -276357  -266977  -242507 
 -195728  -123955   -41229    32004    86337   123179   147721   162869 
  163084   142683   112531    94022    94485   104135   113548   115219 
  102812    82435    68455    68868    79122    89204    96761   100683 
   94113    80535    71164    62791    49959    44032    48971    45909 
   19590   -25618   -73103  -107842  -128258  -137429  -135411  -130212 
 -132513  -141425  -154374  -171174  -182880  -182627  -173195  -155285 
 -128799   -94724   -54827   -14610    24980    63271    90005    97687 
   87957    65760    39765    19506     8162     4302    10463    30499 
   60205    91133   115079   123296   113317    91212    64161    38723 
   21018     8729    -8343   -34708   -67568   -98444  -109352   -88998 
  -48318    -9439    10554    11489     5138    -2658   -10822   -16200 
  -15577    -7673     4333    15731    24230    28340    25523    13242 
   -7422   -30035   -41930   -31795    -3134    28739    47940    47297 
   38448    40059    51882    59386    53813    35869    16209     6699 
    5881     6460     5870     2253    -5381   -13327   -18139   -20737 
  -22461   -25096   -31236   -37645   -38571   -34231   -28020   -22985 
  -18833    -8715    13190    40991    58018    50665    19558   -24716 
  -69592  -106138  -134449  -156914  -165899  -149955  -110253   -61380 
  -18296    11209    24467    23088    13695     1551   -13143   -27591 
  -34417   -28879   -12577     8956    30271    45071    48655    44019 
   35719    23171     6465   -11001   -24198   -23228     -239    35800 
   64391    76161    77907    74073    64173    53533    45252    35266 
   21228     3736   -15354   -33971   -53946   -77010   -97968  -107443 
  -97091   -67138   -28891     6878    34259    47882    47473    39134 
   28648    20371    16271    12571     3936    -9683   -22939   -31522 
  -37142   -43712   -51180   -55160   -48579   -26169     6773    36155 
   53059    58715    55972    41812    14042   -14923   -28305   -25474 
  -15222    -6343    -6748   -17722   -36850   -58729   -74066   -81196 
  -83631   -77045   -56386   -27212     2505    29399    47790    52132 
   43566    24467    -1969   -27434   -43343   -43665   -25865      673 
   17368    14407    -3763   -28837   -51836   -61601   -53693   -33029 
   -5808    22383    48755    72225    86163    85802    76622    64696 
   50965    34202    11878   -14726   -40382   -62064   -77176   -84268 
  -84449   -75788   -57271   -34366   -11385    10568    29289    45010 
   57427    58645    42118    10998   -25361   -54208   -68585   -75112 
  -82054   -91234  -103966  -119203  -130708  -134587  -131446  -121435 
 -105139   -85280   -65590   -50683   -41679   -33109   -19913    -3169 
   12537    21812    20525    10675    -1151   -12970   -26969   -39945 
  -41977   -24527    11512    56237    99586   136398   164542   181656 
  184124   172874   154898   135376   117962   106364    98375    89383 
   79730    71771    65050    59001    58145    65625    75719    83014 
   86223    80290    60891    32516     4648   -16176   -30321   -43093 
  -60292   -82977  -105471  -122017  -132547  -138630  -140003  -137468 
 -131698  -121015  -106733   -94967   -89378   -87400   -86433   -87666 
  -90026   -89830   -87542   -85685   -82374   -74369   -65095   -59822 
  -56231   -49401   -37988   -24018   -12806    -8296    -8665    -8935 
   -4452     7114    23668    42250    67168   102500   134632   145202 
  136982   123507   110752   100123    90289    75745    51219    19719 
   -7178   -20396   -18793    -6166    13560    37413    58682    70217 
   72053    67909    59362    46827    32986    21542    11538      404 
   -9199   -13233   -10033     1770    20486    36465    37556    20525 
   -9090   -44227   -77679  -105050  -126956  -142751  -149504  -147282 
 -138779  -127169  -115729  -106967  -101535   -97984   -93693   -85540 
  -71731   -54315   -38318   -28133   -24119   -23869   -26796   -31667 
  -32437   -25884   -18130   -16315   -19312   -21044   -18308   -10896 
    1497    17363    32890    47280    63438    82618   102129   116589 
  123392   126272   127937   126456   121893   114974   101995    82572 
   65219    56704    54744    53515    47600    33897    15380    -2308 
  -17638   -30463   -38194   -41644   -46620   -54116   -58586   -58427 
  -56892   -53990   -47957   -39908   -30612   -20012   -11457    -8678 
  -10594   -13658   -16004   -18478   -23737   -33352   -44594   -52450 
  -53620   -44929   -26139    -5409     7375     6388    -6949   -20469 
  -25843   -27682   -29967   -32384   -35344   -38058   -39384   -39525 
  -38680   -36340   -31475   -24965   -19041   -14345   -12901   -17196 
  -23006   -22300   -13787    -5249    -4472   -10942   -17717   -19172 
  -18007   -21875   -33907   -52112   -68935   -73389   -63810   -48243 
  -32178   -15222     4591    26167    45547    60337    69328    70180 
   62060    47353    30387    16059     7631     5939    10106    18832 
   31168    44962    58170    70534    79500    80675    74413    63864 
   48004    24604    -2770   -27287   -45569   -56997   -61831   -65873 
  -77218   -94607  -109519  -117169  -119682  -121899  -124295  -123048 
 -115360   -98857   -74422   -51109   -37590   -32409   -28442   -21008 
  -10991    -3808    -3271    -6882    -8582    -4080     7402    25053 
   45836    63681    75112    81224    82531    79231    72447    61976 
   50395    44334    45012    46736    46584    47209    51544    58206 
   63011    63528    56642    38121    10212   -18075   -39430   -52737 
  -61234   -68384   -73275   -72783   -68104   -62181   -55954   -50095 
  -43620   -34840   -24500   -13010    -1881     3130    -1339   -12832 
  -27526   -41477   -50253   -50732   -43485   -32388   -18912     -762 
   20643    38372    46208    42071    27921     9462    -5750   -14216 
