Origin Time       2016/04/16 01:25:00
Lat.              32.753
Long.             130.762
Depth. (km)       12
Mag.              7.3
Station Code      NGS010
Station Lat.      32.7353
Station Long.     129.8763
Station Height(m) 77
Record Time       2016/04/16 01:25:20
Sampling Freq(Hz) 100Hz
Duration Time(s)  300
Dir.              N-S
Scale Factor      3920(gal)/6182761
Max. Acc. (gal)   113.989
Last Correction   2016/04/16 01:25:20
Memo.             
[...]
    2435     2440     2440     2437     2436     2438     2439     2440 
    2436     2429     2432     2436     2437     2440     2442     2440 
    2438     2433     2434     2439     2438     2435     2434     2436 
    2447     2448     2436     2432     2431     2426     2431     2445 
    2446     2438     2439     2438     2431     2436     2444     2436 
    2431     2434     2434     2436     2442     2443     2440     2437 
    2433     2432     2433     2433     2438     2441     2439     2440 
    2439     2435     2436     2439     2438     2436     2435     2434 
    2436     2439     2440     2438     2438     2436     2433     2438 
    2441     2440     2438     2435     2435     2437     2436     2438 
    2440     2439     2443     2439     2427     2435     2445     2436 
    2431     2438     2439     2436     2442     2441     2432     2430 
    2431     2432     2440     2444     2439     2434     2434     2437 
    2438     2437     2440     2437     2428     2428     2437     2442 
    2441     2434     2425     2424     2428     2425     2423     2430 
    2428     2417     2417     2419     2417     2424     2438     2444 
    2436     2426     2424     2428     2428     2423     2407     2385 
    2382     2401     2430     2474     2515     2531     2525     2493 
    2439     2407     2427     2483     2526     2500     2411     2312 
    2253     2271     2364     2501     2645     2699     2602     2451 
    2374     2373     2387     2403     2455     2522     2508     2370 
    2146     1884     1752     2008     2600     3120     3273     3058 
    2649     2267     2036     2002     2153     2310     2393     2593 
    2809     2547     1845     1423     1664     2314     3067     3634 
    3616     2942     2020     1512     1980     3102     3738     3441 
    2903     2674     2635     2475     1830      734       44      467 
    1652     2852     3646     3745     3227     2928     3266     3508 
    3121     2369     1474      795     1054     2225     3453     4136 
    3903     2574      919      171      631     1881     3351     3957 
    3207     2219     2006     2327     2732     3078     3111     2651 
    1879      993      366      554     1460     2550     3680     4762 
    5357     5029     3647     1752      735     1074     1198      406 
      -7      257      537     1575     4031     6240     6415     5008 
    3188     1359     -269    -1226    -1020      616     3026     4776 
    5510     5603     4613     2697     1344     1310     1813     2119 
    1947      746     -579      273     2942     5224     6606     6326 
    3139     -778    -1377     1299     3620     4630     5509     4742 
    1028    -2799    -3649    -2120       74     3198     7089     9196 
    8105     5260     2425      438     -535     -392     1186     3507 
    4451     2965      577    -1163    -1442     1236     6340     9793 
    8458     3427    -2160    -5408    -3930     1345     5669     6726 
    6428     5557     3155      529     -285     -184     -198      940 
    3114     3764     2031      180      492     3212     7364    10673 
   10318     6517     1386    -4703    -9577    -8357    -1365     5631 
    9704    11659    11350     7027     -960    -7389    -6550      370 
    6787     9112     8043     3509    -3213    -6290    -2453     4659 
    9826    10204     6266     1579    -1440    -3969    -5640    -2888 
    4044    10058    11545     8122     1931    -2891    -3889    -1603 
    2649     6195     5610     1505    -1265    -1003    -1250    -1247 
    4389    12450    13144     5140    -3683    -7106    -5879    -2412 
    4044    10528     9515     1903    -3127    -1613     3438     7540 
    6828     1877    -2994    -4999    -3281      926     5456    10350 
   13579    10318     3102     -851    -2179    -4254    -4458     -352 
    5371     8043     6832     6975     9115     6899     2186     1601 
    2397     -654    -6659   -12255   -13152    -4490    10724    20085 
   18804    13775     5671    -8569   -18714   -13956    -2115     5132 
    8911    12414    11733     3943    -4804    -5920    -1608      448 
    1885     6776    10197     9644     8958     5007    -3811    -8815 
   -7829    -5273    -1123     2394     2987     6050    12921    15057 
    9994     5205     1545    -5078    -9825    -7957    -2885     3160 
    8300     7970     3802     1523     1676     3797     8974    13509 
   10367     -625    -9964    -9836    -1962     8300    17564    22596 
   19093     6203   -10638   -21941   -20435    -9161     2956    11766 
   16282    16093    14312    14036    12490     5477    -4652   -13584 
  -19439   -16752    -4125     7104     9724    10115    10949     5230 
   -5690    -9914    -4313     2442     5150     7564    11916    13848 
    9139     -793    -6511    -2140     1803      284     3233     5276 
   -3469    -9261    -3454     2531     4022     6093     8935     6733 
   -1219    -5329      315     9403    13015     8906     1791    -2343 
    -193     7374    13164    10199     3092      -70    -1471    -4798 
   -7171    -5841     -482     7370    13146    13016     7496     -413 
   -7324    -8718    -1691     7158     8318     6500    11111    15492 
    8124    -5706   -11657    -9389    -9236    -9545    -1939     8502 
   11230     8055     7071     7791     6173     4488     5066     3969 
   -2771   -11744   -15890   -13145    -3601    13402    28234    29000 
   19597     5495   -13122   -27463   -26419    -8861    14294    26253 
   20763     7078    -2689    -2547     6604    16417    14542    -1696 
  -20006   -27331   -19746    -1627    16331    25699    27471    22238 
    5115   -15757   -19137    -2602    12181    10125     -929    -6274 
   -5776    -7020    -3869    12410    28440    27921    19016    12838 
     263   -24175   -39987   -28111    -2072    12985    15217    17781 
   21471    14759    -2593   -13081    -7738     1381     3797     2205 
    2273     5615     7264     6417    10587    14897     6430   -10468 
  -18398    -9854     4667    12649    12243     6346       34     -856 
    2864     3792    -2452    -9028    -7063      274     3503      333 
   -2272     2064    10584    14879    12546     5984    -6648   -17939 
  -14693    -4108     2316     7997    16492    25254    27615    19918 
   10637     5703    -3058   -18079   -26064   -19073    -4778     7239 
   15621    21401    19213     6152    -8711   -17332   -18886   -10378 
    4857    14970    20731    26538    23542     7702   -11328   -19270 
   -8108    10260    15288     5094    -7455   -14838   -13281     -261 
   17213    25811    17565    -1307   -12882    -9779    -6153    -9287 
   -4142    11928    16743     6335     1651     6566     9091     9616 
   14105    17496    12627     -150   -21542   -43948   -45065   -22939 
     175    18333    36128    46370    44263    26941    -5711   -32836 
  -34814   -19048      473    18606    24891     7003   -20447   -25407 
   -3069    23471    37393    34347    15434    -8720   -26581   -31775 
  -15491    18320    42664    37566    12210   -13664   -28872   -26585 
   -9508     8602    21653    23082     3155   -23188   -32937   -23652 
     -35    27510    41204    36404    19913    -3742   -24900   -27468 
   -9175     9996    15731    16608    17097    11734     6679     9783 
   16937    19628    10790    -6180   -16664   -15665    -8974     4117 
   18876    19312     5466    -8846   -18846   -22433   -14502     5409 
   28056    37539    27228     5000   -15234   -21214   -14150    -6772 
   -3587      585     4648     4946     5520    10479    17117    15081 
    -928   -17014   -20594   -14785    -1915    16472    26704    13912 
  -12257   -25800   -23609   -20691   -13206     7296    23493    21203 
   14787    12754     7658     1685      447     3691     8228     7643 
     194   -11197   -23338   -27530   -12468    20134    50387    58236 
   37288    -3366   -39014   -50702   -39844   -12082    22069    41822 
   37600    20882     5362    -7815   -19984   -21662    -4867    17229 
   23754    13379     1466    -1418    -1284    -6768   -10108    -4514 
     642      784      722      696      262     4900    15537    21703 
   21085    19342     9695    -6711   -13119    -8155    -3839    -2995 
    1775    12453    18531    16097    13451    10254      151   -13457 
  -23522   -23022    -5739    19249    33816    32121    14934   -15960 
  -44745   -48666   -23285    13459    42711    55885    46136    14514 
  -19579   -34292   -24374    -2353    13031    15541    12351     5998 
   -1359    -1253     3786     5982     9183    13934    10369    -1021 
   -5475        9     1775     -793     4845    15402    16144     2852 
  -15470   -22297    -9465     9663    20265    25349    30389    27157 
    7834   -14715   -22990   -18891    -9576     3433    12737    12427 
    9283     9866    10115     4532    -3198    -6030    -6759   -10317 
   -9966    -2822      692      196     4918     8921     4912     3994 
   12235    17265    11099      -81    -6981    -4137     3927     7808 
    9202    10466     3133   -11591   -17435    -8063     2753     4937 
    5577     7810     7366     6587     8853    11166     6470    -2744 
   -4964    -3608    -5184      979    18054    29506    23779     9064 
   -2591   -10178   -13691   -10795    -7249    -8333    -6130     4458 
   11817     6488    -3688    -6407     -965     4192     5815     8241 
    9869     3159    -7379    -6842     7146    18843    15716     4507 
   -3768    -8624   -10461    -7172     -902     3859     6210     7888 
    7088     4235     4491     4496    -2008    -9493    -8295     -358 
    -165    -9676   -10851      144     8939    12114    15321    14119 
    -959   -22337   -29439   -16757      112     8553    15766    25397 
   23805     9950    -1436    -5273    -3725     3799    16757    27769 
   25707    12298     -688   -12174   -23120   -25561   -16392    -1277 
   13267    22250    23570    19295    14032    11435    10268     6074 
   -3199   -12383   -12283    -4742      642     5395    14867    22174 
   17883     6080    -2910    -6289    -6193    -7806   -15515   -19970 
  -11389      501     7978    18344    28371    25076    11937     1302 
   -5949   -15536   -26071   -25270    -7973    11025    21382    28572 
   31096    21390     6607    -3335   -10096   -10203       69     8024 
    3180    -9295   -17274   -11570     3757    20009    34265    35170 
   11598   -20920   -37368   -31890   -13344     8725    27111    31860 
   19904     5124    -3630    -8403    -4869     6770    14128     7815 
   -7990   -17249   -12678    -4233      164     1622     3676     8570 
   16000    22126    20297    12260     7241     4702    -1546    -8962 
   -7626     6207    18645    16320     8275     5234      -16   -11402 
  -17279   -12679    -6710    -3045     2239     8030    12457    18110 
   22512    18534     5041   -13174   -27488   -28158   -13354    10524 
   35576    51985    49218    30743    13524      313   -17336   -31395 
  -30618   -22291   -14689     -867    20956    34088    30003    17838 
    3617   -11207   -24458   -30146   -18354     4377    16178     9385 
   -5670   -15694   -13066      124    18299    34841    36458    16896 
  -10942   -30882   -35142   -22947    -3537     9358    11832     9658 
    5781     -750    -4092     3930    18579    24096    13844       17 
   -8687   -17409   -21784   -11012     7492    18080    22115    28353 
   29072    15964    -1197   -12791   -15020    -4139    12055    17989 
   10500     -444    -6492    -6903    -4077     1474    11050    23016 
   30649    25865     8242   -11673   -25361   -30853   -21773     5059 
   33432    40522    23466    -2041   -24152   -36232   -28646    -5085 
   14120    21007    20924    10716   -11055   -29787   -31386   -20984 
  -12169    -5899     2675    11560    19571    26281    24936    11448 
   -5005   -11571    -9759    -8881    -8085    -2540     3877     3133 
   -3178    -5950    -8027   -16705   -20190    -6150     9639     7633 
    -585     6928    24774    30520    19280     4630    -5517   -13900 
  -18122    -7087    16875    33478    36140    36733    36351    25963 
    5811   -16522   -32959   -38310   -29446     -696    41445    70504 
   69187    44742    10021   -25314   -47411   -42304   -15789     8066 
   18969    25232    32809    41542    43472    26350    -7682   -41500 
  -59198   -54838   -33442    -5302    17366    22654    13663     6863 
    7665     9667     8809     5020    -3189   -22344   -45399   -47375 
  -24660     2339    26491    48814    61388    61147    50026    23702 
  -12888   -39674   -47122   -42271   -31094   -14159     6144    21035 
   24152    21665    23777    29443    23647      843   -20954   -30656 
  -37593   -43602   -36151   -11619    17539    39673    50567    46706 
   27049    -1280   -27446   -44991   -45762   -18757    26409    53081 
   36432    -3434   -31079   -40812   -43657   -36359   -11029    22703 
   43846    42672    25528     2993   -13366   -13286      566    12730 
   16524    23454    33919    31518    20912    21445    30413    29880 
   10507   -24438   -58960   -68793   -46009    -8004    27100    47408 
   41122    15508     -351     5457    17929    33297    51525    47849 
   11919   -30430   -51742   -36267    11650    61493    84310    69760 
   32274     5775    -3464    -9694    -1853    15852    11455   -14130 
  -34826   -38294   -25636    -4322    24443    61341    82107    58448 
   -3271   -81486  -152619  -177349  -135188   -48943    51227   133256 
  160807   129093    60060   -21252   -84482  -102051   -69734   -23689 
   -6214   -11483   -19195   -34615   -54509   -55455   -20099    41165 
   89879    94672    52268   -16348   -76750  -101841   -78096   -26546 
    5463    15523    27133    35482    40640    45396    39743    34115 
   36621    20981   -23010   -57801   -52572   -24388    -1914    15108 
   37842    60164    70454    62638    27063   -31203   -76317   -77939 
  -44226    -5455    25004    54545    81018    94273    90811    70228 
   38978     7763   -24029   -62209   -93790   -94603   -56088     8181 
   67784    97611    93165    61942    20018   -20756   -54714   -61326 
  -31509    -1184    -4797   -31828   -61206   -79109   -61713    -6412 
   50837    80603    79976    59663    33747     6729   -23417   -50791 
  -56590   -28922     1516     -422   -10361     5099    34430    56250 
   58015    32772    -7817   -41554   -59021   -61007   -45128   -12456 
   22233    40568    40848    33728    23513     9436    -9136   -24920 
  -23326    -7627     7292    20593    34910    48835    61150    58212 
   25856   -22711   -63516   -77827   -48738    14410    78325   116651 
  107324    48151   -25175   -79822  -106545  -101424   -70513   -23039 
   40820   106351   146914   151958   126662    79245    13655   -57780 
 -110440  -127484  -105436   -57658    -6839    32306    54587    64500 
   62110    44388    21626    -1983   -28344   -47153   -50380   -39166 
  -20318    -1880    21038    51421    69569    51516    -4665   -70935 
 -112574  -119565   -99342   -52970    19800    90098   114553    86425 
   24761   -50156  -105272  -108925   -66107   -18062    12183    36970 
   51152    38472    15063      436   -11048   -22316   -20293    -2996 
    7245    -5991   -31676   -48628   -45157   -25230    -2255    14574 
   23316    18446    -7970   -40821   -48200   -26260     3658    28641 
   41896    34965     3930   -35879   -46979   -16726    22441    44987 
   48885    39026    27530    12805   -11494   -20246     2823    22383 
    7212   -19374   -24242    -8889    14654    43557    67239    67151 
   45433    23123     6288    -9892   -17867    -8216    14964    40676 
   60151    62627    37709    -7285   -50215   -67619   -40532    20654 
   79221   110851    97113    31397   -47233   -92739   -93357   -56333 
    2671    61275    94380    90986    63044    25435   -10645   -33127 
  -34623   -20837    -6029     6108    16024    14970     5794     7262 
   20116    22625     8611    -9693   -32384   -59704   -77542   -77436 
  -56955   -27889   -17486   -18654     -421    31306    51772    52291 
   30507   -12026   -65341  -111105  -127903  -105846   -49129    26929 
   97424   133102   107826    31737   -44218   -85954   -84891   -38376 
   26496    71913    88864    80994    57035    41285    45601    45992 
   21657    -9253   -21338   -15913    -4366    10806    25569    28914 
   18166     3674    -9843   -25788   -34769   -26075   -11432    -1700 
    9456    18843    11546    -8491   -15479     2040    19390    12936 
   -7889   -30252   -53196   -68445   -61469   -27336    13890    35027 
   38791    39717    35685    21508    -1968   -27605   -39774   -33426 
  -21582    -8657     7394    16268    17216    27461    48650    57300 
   42316    24507    16161     -706   -30472   -43848   -24578    -5149 
  -19136   -43228   -48094   -45326   -33073     4962    50940    76173 
   66794    23174   -30394   -66569   -77453   -61527   -26227    13685 
   53599    84482    92338    79125    51277    10497   -35109   -71482 
  -82071   -54203    -1345    45020    64667    46715     3313   -24477 
  -21811   -10431     1863    17099    24210    17352     1682    -9753 
   -2958    13734    20064    13747     9401    16418    27769    31842 
   25988    17893    13829     9946     6504     6901     -607   -21923 
  -38217   -37638   -27512   -11885     7159    22648    30832    33035 
   31460    27964    27109    28382    18444    -8951   -40146   -60231 
  -65705   -61030   -51692   -35051    -5936    31148    63951    74280 
   49124     4214   -32120   -58311   -80467   -76268   -32083    16825 
   36172    39717    40321    24397     3642     2112     6080    -4929 
  -21385   -24609   -14457     -897    21623    56114    74115    50238 
    2607   -38383   -62983   -55850   -12503    22196    19644     5839 
    -989    -2192     5219    17192    23807    24087    21094     9520 
  -18652   -52144   -59598   -26854    19547    46729    52627    47315 
   30854     8921    -4174    -3305     3797     2446   -11101   -21464 
  -23107   -27689   -33575   -27111   -15231   -17937   -27744   -22330 
   -5308    12043    33281    52397    49714    15738   -37906   -81935 
  -88854   -55114    -3920    39883    69953    78022    54020    14772 
  -17344   -39391   -46059   -30768    -6057    14346    30579    43162 
   52979    62051    62377    44398     7838   -41607   -86380   -98939 
  -71035   -21521    31725    75072    89514    69462    32129      393 
  -17615   -29108   -34559   -27795   -17236   -16344   -20978   -17863 
   -4656    12497    30449    41957    34988    14298    -2387    -9835 
  -13352   -13664    -8762     2549    19949    34623    36087    24386 
    6365   -11987   -27348   -32382   -22947   -11901    -7094     2956 
   21689    36350    41863    44488    38502     8452   -35397   -61946 
  -60634   -40259    -8339    23064    36802    28175    12484     7818 
   12600    12209     3784    -4303    -9280   -12354    -9587     -330 
    1698   -13941   -34375   -39760   -24631     4294    35647    55264 
   51997    31091    11758     3287      824     4211    13998    15437 
   -4121   -30018   -34714   -11019    22723    50381    70151    71381 
   40644    -8488   -51852   -71549   -51391    -3186    33469    42406 
