Origin Time       2016/04/16 01:25:00
Lat.              32.753
Long.             130.762
Depth. (km)       12
Mag.              7.3
Station Code      NGS007
Station Lat.      32.9061
Station Long.     129.7802
Station Height(m) 5
Record Time       2016/04/16 01:25:23
Sampling Freq(Hz) 100Hz
Duration Time(s)  107
Dir.              E-W
Scale Factor      3920(gal)/6182761
Max. Acc. (gal)   32.793
Last Correction   2016/04/16 01:25:23
Memo.             
[...]
    3742     3769     3749     3694     3637     3570     3487     3411 
    3345     3284     3255     3281     3337     3392     3425     3422 
    3387     3322     3259     3257     3329     3405     3381     3249 
    3130     3142     3292     3500     3670     3746     3725     3601 
    3375     3110     2927     2947     3147     3362     3491     3531 
    3511     3509     3559     3580     3524     3433     3310     3132 
    2988     2983     3059     3090     3124     3301     3582     3838 
    3942     3773     3466     3250     3079     2912     2835     2881 
    3095     3372     3593     3902     4125     3879     3464     3281 
    3248     3246     3130     2881     2735     2669     2729     3281 
    4100     4418     4122     3765     3638     3537     3252     3000 
    3021     3070     3057     3165     3222     3199     3365     3611 
    3755     3720     3328     2924     3012     3240     3297     3437 
    3530     3365     3155     3171     3549     3971     3981     3733 
    3525     3405     3485     3804     4216     4525     4451     4010 
    3670     3651     3893     4352     4636     4343     3891     3848 
    4013     4274     4863     5193     4691     3877     3158     2643 
    2555     2620     2712     3044     3237     3006     2761     2809 
    3041     3257     3299     3112     2688     2066     1806     2282 
    2742     2838     3238     4143     5081     5355     4771     4100 
    3667     3035     2666     3171     3333     2248     1599     2688 
    4355     5161     4904     4339     4023     3539     2728     2113 
    1894     2202     2953     3448     3477     3480     3506     3230 
    2933     3232     3592     3126     2466     2559     2919     2725 
    2295     2446     3342     4407     4938     5074     5377     5237 
    4045     2859     2427     2245     2033     2103     3149     4843 
    5444     4890     4412     3655     2656     2764     4024     5535 
    6467     5608     3087     1081      847     1789     3197     4376 
    4711     4194     3197     2770     3503     4006     3354     2660 
    2512     2566     2758     2690     2541     3219     4168     4397 
    4000     3160     2667     3441     4813     5669     5353     4511 
    5091     6233     5473     4186     4213     4575     4440     2963 
     582     -126      164     -195      786     2754     2957     2823 
    4175     5162     4524     3103     1756      655     -332     -718 
     217     1995     3060     2788     2843     4407     5332     4413 
    4049     4398     3280     1708     1213     1243     1828     2383 
    1729     1732     4415     8251    10892    10455     6375     1462 
    -654      895     3232     3409     3138     4111     4788     5508 
    7174     8292     7529     4440      772      -37     1128      723 
      -4     1857     4748     6232     6837     7115     6593     5643 
    3967     1545      943     1747      748       -1     2018     4434 
    6292     7777     8488     9483     9307     6726     5052     5034 
    4030     1597     -690    -1527    -1264     -308     1978     4971 
    6975     7382     6637     5218     3237      746     -586      682 
    2116     2390     3585     5009     4918     4498     4459     3640 
    2360     2690     4721     6406     6086     4096     2837     2954 
    3088     3637     4461     3882     2476     1512     1206     2524 
    4928     6529     7337     7014     5025     3037     1849      510 
    -445      355     1870     2730     3910     5319     5858     5693 
    4503     3323     3681     3402     1913     1568     1140     -521 
    -512     1905     4175     5939     7773     8349     7968     7285 
    5103     3915     5440     4992     2302     2131     3185     2212 
     218     -891      623     3878     5174     4734     4499     3960 
    4030     5588     6610     6149     5484     4702     3223     1983 
    1272      205     -482      753     4022     7053     7294     6309 
    6363     6477     5587     2552    -1330    -1721     -692    -2218 
   -2830       22     4554     8971    10939     9814     6566     2081 
     -37     2383     4762     3013     -231    -1340    -1358    -2039 
   -1326     2135     5719     7444     8344     9261     9393     8546 
    7069     5080     4026     5067     6233     4585     1368      310 
     728      504      898     2358     3531     3597     2446     2367 
    4433     4948     3194     1878      175    -1864    -1709      842 
    4612     7461     7704     6844     5854     5454     7849     9689 
    6860     3385      750    -3649    -6283    -4598    -1532     1916 
    4657     4932     5806     8538     9718     9662     8411     3174 
   -3469    -6951    -5913     -990     3904     5034     3255     1976 
    3647     6737     7735     7051     6684     4477     -365    -3657 
   -3594    -1700        9      -92      197     2794     5147     5794 
    5899     6878     8509     8121     5967     5426     6283     6356 
    6095     6439     5854     3538     2037     2063     1835     2119 
    3543     4319     5138     7518     7339     2373      695     5600 
    7545     4147     2337      586    -4379    -8267    -8789    -6584 
   -2166     2575     7098    10528    11491    11320     9538     5620 
    2512     -744    -5324    -5555     -789     3032     4681     3918 
    2060     4158     8184     9304     9233     9366     7500     4339 
    3053     3037     3247     3318     1489     1378     5050     6180 
    4864     5136     3397      536     1197     1075    -1033     -363 
     534     -372    -1105    -4555    -9261    -6117     4807    12531 
   13155    12138     9641     4078      462     1458     4225     4569 
    1454      905     5905     9953     9367     7513     5811     5242 
    7117     6291     2322     2644     4889     3570     2284     2236 
     413     -404     2529     5158     5432     5078     3014     -505 
    -888     2366     4851     6512     8534     8456     7057     5745 
    2007    -1663      997     6676     7419     5990     8418    10175 
    6091     2313     4777     6984     4376     4068     6661     4918 
     798     -515      905     4736     8150     7856     8056    10933 
   10821     6409     2093      658     1558     1067     -586     1415 
    3899     1956      997     3414     3728     1809     1924     5040 
    8211     8590     6478     3654     3202     4990     2525    -3694 
   -4363     -583    -1008    -2942      606     6877     9584     7683 
    4707     4038     4464     1893    -1752     -242     3621     2860 
     -48     1005     5408     7654     6771     7469     8650     5756 
    1972      465      -56     2273     7410    11071    12048     9468 
    3273    -1868    -4166    -5054    -4009    -1315     1932     3724 
    2767     2252     4063     7326    10463     8876     4007     4177 
    8262     9502     8284     5108    -1939    -8696   -10104    -6696 
    -139     6231     8779     8368     6473     5076     6800     8553 
    6597     3169      464     -653      857     2436     2426     2566 
    2130     1534     2294     2041     1568     3115     3707     2653 
    2215     2088     1576       60    -1550     1022     6582     7258 
    2833      237     1185     2147      179    -2414    -1163     1645 
    2345     3435     5198     3648      714     2820     9162    11837 
    8593     4035      567      358     3889     5391     3905     4158 
    5030     2686    -2362    -4857     -660     5115     5578     4103 
    5275     4981     1731      898     2534     3278     3971     4079 
    2901     4772     9289     8126     -232    -6698    -5949    -2226 
     455     2394     4554     8150    10659     7396     2365      607 
    -727      -92     6053    10691     8110     4258     4352     6331 
    8615    11522    12683     9657     5159     3442     3811     2830 
    -231    -3009    -3064     -715     2437     6914    12077    13721 
   10765     6312     1247    -3494    -3006     2325     3712     1284 
    3316     4759    -1382    -5303    -1499     1401     1474     3022 
    4601     4606     3934     2272       87     -844     -492        7 
    1356     4320     7533     9649    10518    11026    12033    12537 
   10542     6199     2365     1549     3688     5641     4858     3720 
    4383     4242      848    -3696    -4852    -2066     1251     4043 
    5798     3999       46    -1366     -542     -598    -1273    -2567 
   -4211    -2461     2082     4425     4354     3977     4393     6606 
    7985     5909     3028     1036     -639     -126     4533    11357 
   14559    11418     6992     5918     6730     7353     8180     8807 
    6869     2056    -2977    -6353    -6754    -3675     -773    -1347 
   -2036      983     4482     4880     5674     9962    12983     9855 
    4434     2879     2751     -636    -2101     3482     9359     8448 
    2519    -2994    -3400      155     1465      379     1491     3774 
    5469     9624    15327    17322    15666    12850     8615     3755 
    -252    -2596    -2530    -2091    -2300      114     4920     7997 
    9055     9900    10547     9790     5859      182    -2801    -2012 
     614     2723     2397     1385     2512     4576     4368     1110 
   -2138    -2073      400     1257    -1107    -3402    -3324    -2799 
   -2354     1404     9780    16297    14786     8877     3634       14 
    -696     1184     3574     5103     4674     4282     7633    12234 
   13368    12618    10618     5765     1901      422    -1488    -2072 
    -367      985     1529     1645     1790     1856     -555    -3682 
   -3466    -2136    -1531     -313     -548    -3171    -5505    -6553 
   -5809    -2706       45      738     2521     5612     4901      189 
   -2185      566     3886     3257     1069     2686     7328     9041 
    6630     4484     4212     4799     7073     8444     4227    -2163 
   -4775    -2106     5390    12963    15771    15123    12835    10631 
   11361    10613     2926    -4609    -4845    -1957     -781    -1345 
   -1054     1050      603    -3571    -5239    -1604     1491    -2093 
   -8032    -6442     1441     6637     7876     7961     6294     4358 
    4537     3084    -1715    -3806     -978     3583     8370    11119 
   11083    10557     8532     5747     6186     5994      483    -4482 
   -4483    -3834    -4690    -4264    -1380     3770    10313    13334 
    9908     5911     6155     6703     4070      926     -158      140 
     680     1894     5620    10152     9091     2830     -413      474 
    1111     1342      864     -647     -327     1887     2778     1487 
     183     -300    -2203    -3530      437     5308     5955     7043 
   10385    11647    10276     6414      -29    -2948     1063     5508 
    6824     7786     7875     6492     6736     8423     8271     5683 
    1614    -2640    -4242    -3127    -3171    -4436    -3353     -752 
      30       11     2044     4468     4434     3901     4781     5804 
    7294     8811     7318     4337     4368     6096     5620     4133 
    4971     8347    11739    12351    10665     8246     2843    -4378 
   -6769    -4305    -1863     -182     1209     2492     3928     4543 
    5428     7629     9048    10317    12795    12809     8482     3078 
    -118     1438     6965    10245     8022     3924     1305       52 
    -788    -1153       16     3444     8191    11712    12416    10937 
    9094     9433    10955     9659     7154     5341      992    -3093 
   -2189     -802    -2891    -6598    -9641    -9619    -6944    -4964 
   -3770    -2154    -1969    -3214    -1030     5598    10044     9779 
    9548    10042     9711    10614    10408     5292     -362    -2541 
   -3535    -4968    -6044    -5506    -2641      852     3446     6203 
    8832    10321    11882    12315    10118     9875    12477    10957 
    5951     4548     5892     5652     2375    -2918    -5022    -2298 
     464     1584      963    -2936    -7573    -8072    -3853     2245 
    8422    13481    17816    23038    24968    19350    12994    12581 
   11914     5538     -325     -961      736     2174     3309     5271 
    7436     7770     8181    10954    13643    13495    10029     4049 
   -1497    -3694    -4133    -6178    -9449   -12619   -15068   -14847 
  -12649   -10507    -7066    -1836     4561    12048    17188    16632 
   11715     6552     5055     5557     4750     5921     8868     7291 
    3949     5902    12232    19063    23204    20958    10364    -5223 
  -17305   -22242   -23997   -23295   -17510    -7449     2495     9024 
   15443    23073    25419    22562    18787     8912    -8787   -24075 
  -29639   -24636   -11870      571     9310    16264    18335    15635 
   14901    17473    20180    20069    14918     9121     7423     5769 
    2589     2531     6356    11064    14385    17196    20499    19597 
   11051     -604   -10265   -16305   -17144   -13025    -8238    -6263 
   -6680    -7189    -5608    -1486     4464     9890    10973     8402 
    5278      953    -4250    -7767    -8459    -5412      718     7677 
   15323    23233    28894    31167    29827    23613    11681    -2626 
  -10340    -7468     -898     5259    10639    10256     5942     5027 
    6110     7228     9827    11529    10625     7360      534    -7573 
  -10405    -6476    -2928    -4484    -5265     -470     4898     8627 
   14351    19328    19488    18077    17878    18240    18163    15305 
    7684    -5805   -24584   -41582   -48319   -43395   -29688   -10705 
    9807    27196    34862    31544    23591    12807    -2992   -18625 
  -28266   -32198   -27017   -11142     4368    12246    18105    25753 
   31537    31410    26833    21693    15435     6206    -3361    -8530 
   -7705    -3918     -812     2006     7798    16534    24156    28803 
   29896    25371    16296     6336    -2383   -10054   -19276   -28885 
  -32375   -30187   -29540   -29999   -24086    -9481     7592    20419 
   28524    33712    35725    33280    24599    10533    -3703   -15824 
  -25691   -25394   -10549     6365    15102    19987    23302    21654 
   17316    14590    13303    11806     8454     3269    -2362    -8771 
  -13871   -12103    -2745     7363    12149    14278    17595    16284 
    6402    -2742    -4764    -7051   -13118   -14897   -11465   -10637 
   -9636      443    16789    29340    33958    32062    25683    17165 
    6273    -7553   -16440   -13993    -6995    -3017    -3096    -6368 
   -8160    -2618     8415    16279    16454    13244    10447     5365 
   -4475   -15866   -22814   -22609   -17319    -8804     3223    16965 
   27284    30951    29605    25570    19973    14885    11539     7952 
    1545    -7457   -16344   -23015   -28579   -33108   -32300   -26140 
  -20316   -15820    -9745    -1321     8732    18413    25234    27728 
   25585    21456    18542    16210    13220    10619     8796     7527 
    8599    11835    12573    10364    11016    15967    21089    23275 
   20686    12695      350   -13812   -24864   -29932   -29503   -22659 
  -10302     2152     9583    10101     6374     2406    -1504    -6011 
  -10118   -11341    -5722     6394    18212    24378    25006    23490 
   22510    18720     8326    -3283   -10228   -14328   -16989   -15983 
   -9738     -225     7623    11199    11014     7786     3751     1596 
     519     -742      461     4513     4322    -4122   -14283   -21433 
  -26552   -24087    -8896    11383    27090    35367    37225    34130 
   25427    13011     3762      430    -2020    -7269   -11250    -9184 
   -4028      119     5748    13691    19135    19711    16743    11907 
    5160    -5874   -18981   -25256   -22245   -18499   -17445   -11715 
     856    12725    18890    19140    13403     4959      378      428 
    1456     5960    15426    20293    15438     9425     7016     3655 
   -1100    -2557     -208     2706     5940     9150     6507    -3275 
  -10949   -11595    -9742    -6971    -3392    -2357    -2113      358 
    2458     4471     9451    16163    20897    19237    10891     4364 
    5420     6225    -1942   -13705   -19224   -15057     -374    18822 
   30207    29634    21486     9641    -5680   -22944   -32943   -30549 
  -22949   -15784    -8241      359     8429    13480    16777    20094 
   19084    10930     1235    -2222     1028     2685     -400      413 
    8284    13799    12427    10414     9695     6227     2010      899 
     807      292      671     1273     2876     6126     4740    -2478 
   -5403    -1146     2682     2392    -1495    -7801   -10799    -6210 
    1799     8646    11352     6447    -1637    -3628     1051     5322 
    6340     6981     7245     6650     8782    13840    17697    17166 
   10870     1629    -6420   -12888   -17007   -17190   -14102    -8050 
     104     7790    14199    19683    25150    31835    35009    27764 
   13668     1242    -6491    -7681    -2411     1859     -970    -6627 
   -6521     2703    15895    22231    16555     6279    -1164    -7872 
  -16156   -21244   -18441   -10069      510    10596    14546    12714 
   11418    10438     5040    -5499   -16483   -22054   -19594    -9218 
    4121    12485    15369    16262    13659     6999     -495    -6762 
   -9997    -8532    -4367    -1916    -2407     -620     9212    23557 
   32341    32626    30242    25945    15006     1794    -4471    -4209 
   -2945    -3410    -5748    -6831    -5620    -4982    -3875    -1024 
    1680     4325     4815     1059    -2404    -3094    -1947     1874 
    5789     7567    10373    14106    15837    16578    16758    13658 
    6029    -2873    -6258    -1803     4813     9837    14375    16038 
   10149     -806    -6775    -2035     7975    16162    19221    15659 
   11020    11603    13781    14892    16848    16189    10568     3979 
   -2774   -10505   -15250   -14762    -9383      387     8396    10219 
   11105    13223    10556     1130    -8304   -10846    -8791    -9792 
  -13196   -10886    -1784     8171    17441    26696    31732    28952 
   20785    12242     6104      587    -6970   -13546   -14726   -13916 
  -14793   -12473    -4954     2302     8311    15797    21177    18825 
   10703     2751    -1844    -2617    -3094    -6360    -7908    -4359 
    -727     -943    -1492     2362     7613     6381     -726    -4238 
     226     8108    15137    20192    20592    14946     7398     2551 
    1712     4341     8126    10152    10263    10320    10264     8292 
    5637     7140    12175    12525     5947    -1610    -8261   -14608 
  -17182   -14977   -11511    -8785    -9184   -14357   -18189   -15369 
   -9954    -4385     2953     8345     8205     6408     7263     9184 
    8861     7531     7972     7390     1463    -5862    -6520    -1085 
    4389     9595    15891    19336    14998     3872    -5420    -5976 
   -1899      474     3412     9843    13888    10140     2815    -2477 
   -6084    -9224   -10146   -10447   -14922   -19352   -14800    -3019 
    8148    15849    21651    25999    25729    19460    11398     5867 
    2881      686     -459        9      281      -65      655     1297 
     302       73     2598     6795    11945    17372    20282    18090 
   11654     5226     3188     4505     1808    -8061   -17260   -18527 
  -14419    -8243      864    10363    14906    14125    12597    12894 
