Origin Time       2016/04/16 01:25:00
Lat.              32.753
Long.             130.762
Depth. (km)       12
Mag.              7.3
Station Code      NGS016
Station Lat.      32.8880
Station Long.     129.0211
Station Height(m) 4
Record Time       2016/04/16 01:25:36
Sampling Freq(Hz) 100Hz
Duration Time(s)  100
Dir.              N-S
Scale Factor      3920(gal)/6182761
Max. Acc. (gal)   9.399
Last Correction   2016/04/16 01:25:36
Memo.             
[...]
   -4963    -4176    -3794    -3528    -3000    -2212    -1736    -2169 
   -3409    -4766    -5698    -6167    -6429    -6535    -6153    -5125 
   -3925    -3225    -3237    -3677    -4220    -4726    -5043    -5010 
   -4691    -4214    -3592    -3012    -2955    -3681    -4839    -5842 
   -6231    -5670    -4478    -3848    -4535    -5920    -6967    -7308 
   -7063    -6336    -5334    -4451    -3837    -3373    -3197    -3695 
   -4769    -5694    -5987    -5744    -5101    -4127    -3035    -2200 
   -2103    -2987    -4491    -5811    -6393    -6401    -6340    -6482 
   -6770    -6857    -6320    -5114    -3655    -2398    -1584    -1392 
   -1820    -2486    -2968    -3152    -3262    -3777    -4897    -6139 
   -6833    -6585    -5308    -3515    -2206    -2041    -3064    -4961 
   -7080    -8550    -8840    -7988    -6453    -4983    -4031    -3286 
   -2385    -1632    -1636    -2637    -4307    -6101    -7558    -8286 
   -8110    -7194    -5812    -4359    -3294    -2771    -2645    -2797 
   -3181    -3797    -4768    -6058    -7176    -7584    -7276    -6583 
   -5718    -4857    -4262    -4112    -4391    -4932    -5525    -5998 
   -6064    -5354    -4099    -3209    -3167    -3609    -4026    -4187 
   -4081    -3791    -3437    -3180    -3122    -3364    -4143    -5455 
   -6639    -6822    -5860    -4563    -3874    -3957    -4242    -4354 
   -4503    -4793    -4986    -5122    -5475    -5959    -6249    -6142 
   -5480    -4229    -2793    -1820    -1555    -1758    -2351    -3486 
   -5068    -6684    -7874    -8341    -7857    -6246    -3859    -1776 
   -1064    -1854    -3405    -4981    -6208    -6897    -7026    -6680 
   -5881    -4678    -3410    -2668    -2680    -2941    -2769    -2129 
   -1683    -2073    -3472    -5541    -7517    -8732    -8977    -8228 
   -6567    -4418    -2509    -1571    -1997    -3535    -5353    -6686 
   -7224    -6914    -5956    -4937    -4299    -3849    -3233    -2484 
   -1758    -1114     -846    -1450    -3052    -5200    -7149    -8217 
   -8035    -6730    -4991    -3714    -3416    -4041    -5170    -6222 
   -6737    -6702    -6425    -6103    -5829    -5840    -6170    -6220 
   -5430    -4140    -3169    -2889    -3021    -3086    -2988    -3004 
   -3273    -3738    -4433    -5253    -5753    -5701    -5231    -4356 
   -3235    -2488    -2631    -3759    -5586    -7460    -8627    -8699 
   -7925    -6967    -6242    -5549    -4559    -3466    -2691    -2276 
   -2091    -2147    -2496    -3220    -4345    -5505    -6160    -6282 
   -6243    -6053    -5589    -5194    -5202    -5297    -4909    -4122 
   -3720    -4171    -5146    -6057    -6422    -6097    -5648    -5841 
   -6534    -6821    -6159    -4712    -3016    -1725    -1259    -1669 
   -2789    -4172    -5283    -5953    -6308    -6400    -6114    -5378 
   -4353    -3314    -2474    -2029    -2134    -2800    -3883    -5132 
   -6310    -7302    -7985    -8137    -7606    -6457    -5053    -3950 
   -3470    -3494    -3776    -4198    -4803    -5695    -6593    -6888 
   -6496    -5888    -5305    -4693    -4109    -3788    -3855    -4155 
   -4489    -4675    -4536    -4096    -3556    -3208    -3448    -4382 
   -5441    -5841    -5439    -4728    -4237    -4199    -4448    -4718 
   -5019    -5422    -5787    -5854    -5505    -4835    -3903    -2903 
   -2439    -2892    -3861    -4690    -5106    -5264    -5532    -6051 
   -6457    -6301    -5571    -4640    -3926    -3608    -3649    -3965 
   -4343    -4570    -4658    -4607    -4390    -4164    -4061    -4051 
   -4183    -4648    -5514    -6601    -7502    -7635    -6680    -5001 
   -3421    -2629    -2776    -3578    -4667    -5688    -6323    -6556 
   -6612    -6571    -6413    -6217    -6022    -5821    -5687    -5533 
   -4995    -3856    -2533    -1802    -1949    -2622    -3561    -4823 
   -6276    -7309    -7278    -6052    -4017    -1987     -889    -1016 
   -1904    -3004    -4029    -4861    -5471    -5855    -6117    -6549 
   -7154    -7331    -6648    -5446    -4308    -3504    -3026    -2776 
   -2759    -3119    -3867    -4701    -5269    -5541    -5814    -6194 
   -6324    -5949    -5279    -4592    -4073    -3867    -3911    -4018 
   -4141    -4356    -4684    -5117    -5717    -6379    -6731    -6521 
   -5777    -4677    -3468    -2467    -2108    -2704    -4050    -5482 
   -6432    -6856    -6950    -6762    -6319    -5754    -5248    -4914 
   -4806    -4980    -5282    -5308    -4798    -3848    -2837    -2241 
   -2370    -3305    -4822    -6234    -6741    -6162    -5080    -4230 
   -3923    -3940    -3964    -4022    -4288    -4688    -5116    -5596 
   -6012    -6151    -6048    -5799    -5275    -4466    -3784    -3706 
   -4241    -4990    -5726    -6444    -6760    -6192    -5021    -3927 
   -3215    -2896    -2995    -3569    -4559    -5663    -6504    -6845 
   -6643    -6113    -5671    -5518    -5340    -4682    -3525    -2383 
   -1822    -1955    -2578    -3470    -4426    -5320    -6094    -6594 
   -6666    -6221    -5169    -3738    -2619    -2241    -2400    -2734 
   -2907    -2785    -2805    -3525    -4952    -6574    -7743    -8131 
   -7838    -7121    -6209    -5248    -4253    -3236    -2490    -2600 
   -3918    -6058    -8079    -9139    -8916    -7656    -6018    -4589 
   -3418    -2301    -1337     -776     -781    -1656    -3537    -5696 
   -7053    -7330    -6945    -6220    -5293    -4304    -3443    -3103 
   -3568    -4484    -5232    -5597    -5756    -5993    -6357    -6514 
   -6176    -5433    -4630    -4091    -3872    -3804    -3792    -3855 
   -3910    -3814    -3649    -3719    -4128    -4621    -4952    -5116 
   -5249    -5470    -5638    -5354    -4569    -3797    -3463    -3517 
   -3748    -4058    -4534    -5365    -6514    -7486    -7602    -6610 
   -4943    -3303    -2232    -2017    -2661    -3888    -5152    -5866 
   -5856    -5425    -5001    -4857    -5073    -5640    -6341    -6695 
   -6307    -5118    -3383    -1687     -787    -1171    -2686    -4549 
   -5890    -6400    -6319    -6025    -5938    -6295    -6787    -6901 
   -6485    -5777    -5149    -4713    -4375    -4262    -4515    -5018 
   -5616    -5974    -5524    -4213    -2783    -1876    -1561    -1711 
   -2205    -2903    -3663    -4368    -4997    -5399    -5257    -4611 
   -3996    -3906    -4356    -5036    -5697    -6136    -6068    -5387 
   -4466    -4004    -4346    -5100    -5659    -5922    -6208    -6477 
   -6180    -5123    -3827    -2979    -3002    -3832    -4837    -5426 
   -5661    -5853    -6021    -6021    -5752    -5292    -4981    -4995 
   -5123    -5279    -5611    -5989    -6041    -5644    -4974    -4231 
   -3513    -2941    -2744    -3010    -3650    -4710    -6131    -7306 
   -7582    -6981    -5889    -4429    -2847    -1947    -2262    -3268 
   -4028    -4282    -4516    -5045    -5516    -5548    -5360    -5388 
   -5591    -5598    -5313    -4900    -4492    -4118    -3774    -3568 
   -3591    -3793    -4174    -4780    -5502    -6079    -6279    -6098 
   -5732    -5308    -4860    -4446    -4058    -3678    -3424    -3439 
   -3705    -4154    -4954    -6207    -7502    -8262    -8208    -7487 
   -6490    -5377    -4121    -3000    -2498    -2795    -3628    -4674 
   -5775    -6667    -6922    -6285    -5000    -3740    -3077    -3196 
   -3960    -5061    -6127    -6535    -5669    -3765    -2042    -1628 
   -2533    -3887    -4822    -4978    -4625    -4401    -4768    -5638 
   -6388    -6481    -5966    -5052    -3859    -2807    -2454    -2882 
   -3577    -4009    -4091    -4098    -4375    -5042    -5909    -6718 
   -7244    -7226    -6443    -5017    -3507    -2464    -2073    -2331 
   -3061    -3777    -4128    -4347    -4779    -5340    -5770    -5917 
   -5820    -5726    -5730    -5696    -5669    -5757    -5655    -4931 
   -3733    -2750    -2511    -3062    -4205    -5607    -6671    -6890 
   -6258    -5052    -3614    -2480    -2148    -2666    -3600    -4332 
   -4638    -4821    -5199    -5899    -6882    -7842    -8328    -7979 
   -6757    -4996    -3125    -1635    -1189    -2129    -3943    -5714 
   -6914    -7503    -7595    -7210    -6331    -5059    -3520    -1893 
    -651     -394    -1234    -2571    -3884    -5283    -6811    -8087 
   -8915    -9318    -8951    -7458    -5345    -3502    -2230    -1558 
   -1685    -2578    -3767    -4833    -5679    -6116    -5788    -4862 
   -3989    -3490    -3280    -3206    -3125    -3054    -3178    -3486 
   -3819    -4134    -4295    -4160    -3991    -4214    -5063    -6364 
   -7318    -7198    -6183    -4923    -3871    -3298    -3256    -3424 
   -3536    -3752    -4254    -4930    -5528    -5802    -5712    -5507 
   -5461    -5732    -6353    -7101    -7445    -7020    -6063    -5211 
   -5101    -5834    -6727    -6912    -6121    -4945    -4165    -3981 
   -4275    -5008    -5821    -5960    -5142    -3894    -2854    -2237 
   -2007    -2157    -2695    -3417    -3931    -4105    -4225    -4553 
   -5069    -5721    -6481    -7147    -7504    -7440    -6946    -6281 
   -5726    -5176    -4325    -3200    -2347    -2408    -3519    -5158 
   -6536    -7159    -7020    -6180    -4547    -2347     -454      191 
    -457    -1577    -2437    -2915    -3262    -3780    -4700    -5879 
   -6675    -6556    -5784    -5128    -4919    -4806    -4286    -3156 
   -1838    -1165    -1669    -3300    -5440    -7043    -7490    -6983 
   -5824    -4257    -2781    -1754    -1245    -1458    -2549    -4051 
   -5261    -6040    -6624    -6971    -6771    -5940    -4803    -3715 
   -2810    -2238    -2165    -2357    -2465    -2701    -3467    -4504 
   -5145    -5198    -5075    -5224    -5658    -6069    -6332    -6620 
   -7042    -7400    -7406    -6919    -6011    -5065    -4480    -4313 
   -4502    -5069    -5973    -7022    -7829    -7869    -6990    -5832 
   -5212    -5107    -4890    -4382    -3866    -3434    -2979    -2529 
   -2245    -2308    -2861    -3901    -5214    -6345    -6806    -6521 
   -5784    -4902    -4027    -3138    -2316    -1901    -2211    -3290 
   -4928    -6672    -7933    -8343    -7875    -6867    -6122    -6232 
   -6719    -6578    -5401    -3536    -1630     -393     -359    -1443 
   -2870    -3860    -4289    -4481    -4523    -4274    -3848    -3427 
   -2914    -2328    -2073    -2284    -2487    -2361    -2121    -1974 
   -1883    -1807    -1919    -2520    -3653    -4988    -6112    -6844 
   -7291    -7537    -7507    -7223    -6722    -5906    -4883    -4077 
   -3775    -3969    -4786    -6352    -8269    -9896   -10724   -10423 
   -9064    -7072    -4887    -2826    -1022      461     1320     1142 
       4    -1488    -2865    -4093    -5255    -6285    -7043    -7588 
   -8215    -9011    -9665    -9720    -8920    -7499    -6042    -4970 
   -4394    -4434    -5166    -6382    -7787    -8971    -9217    -8107 
   -6128    -4081    -2436    -1450    -1092    -1052    -1356    -2336 
   -3984    -5882    -7395    -7957    -7577    -6711    -5701    -4745 
   -4053    -3710    -3588    -3452    -3064    -2395    -1571     -638 
     100        2    -1094    -2666    -3991    -4354    -3344    -1322 
     829     2407     3158     3098     2243      459    -2122    -4687 
   -6363    -6876    -6341    -5141    -3959    -3302    -3013    -2675 
   -2304    -2220    -2615    -3398    -4351    -5386    -6269    -6372 
   -5254    -3260    -1231       43      -30    -1622    -4156    -6597 
   -8109    -8328    -7415    -5956    -4494    -3271    -2438    -2169 
   -2490    -3247    -4272    -5486    -6874    -8408   -10073   -11753 
  -13005   -13350   -12723   -11407    -9800    -8318    -7084    -5795 
   -4209    -2597    -1533    -1275    -1588    -2196    -3096    -4331 
   -5605    -6419    -6568    -6213    -5583    -4933    -4562    -4551 
   -4753    -4984    -5075    -5050    -5126    -5406    -5812    -6342 
   -7150    -8199    -9049    -9187    -8335    -6529    -4021    -1055 
    1953     4252     5210     4614     2654     -109    -2978    -5379 
   -6924    -7468    -7161    -6246    -4836    -3138    -1594     -709 
    -908    -2260    -4342    -6476    -7895    -8035    -6919    -5127 
   -3482    -2644    -2843    -3906    -5317    -6381    -6618    -6036 
   -4849    -3345    -2166    -1858    -2350    -3336    -4431    -5087 
   -4991    -4289    -3381    -2650    -2335    -2630    -3723    -5509 
   -7396    -8786    -9593    -9969    -9948    -9494    -8526    -7133 
   -5775    -4994    -5158    -6360    -8209    -9989   -11165   -11596 
  -11439   -11046   -10829   -10963   -11120   -10727    -9551    -7714 
   -5442    -3301    -2057    -1984    -2957    -4770    -6859    -8606 
   -9954   -11085   -11966   -12344   -11726    -9705    -6504    -2895 
     236     2199     2721     1825     -201    -2689    -5037    -6966 
   -8226    -8641    -8255    -7232    -5812    -4390    -3511    -3533 
   -4288    -5130    -5330    -4728    -3973    -3769    -4078    -4322 
   -3987    -2865    -1000     1337     3460     4352     3372      754 
   -2759    -6508   -10019   -12718   -13924   -13349   -11352    -8546 
   -5405    -2193      921     3517     4833     4502     2976      805 
   -1847    -4863    -7885   -10532   -12695   -14242   -14800   -13960 
  -11446    -7560    -3224      711     3541     4520     3445      817 
   -2672    -6123    -8542    -9602    -9777    -9687    -9539    -8988 
   -7383    -4219      295     5003     8391     9363     7524     3104 
   -3040    -9520   -14972   -18473   -19592   -18468   -15380   -10706 
   -5895    -2636    -1283    -1643    -3520    -6057    -8147    -8950 
   -8127    -6176    -3938    -2024     -839     -461     -682    -1251 
   -1889    -2494    -3316    -4590    -6160    -7526    -8182    -7809 
   -6357    -4364    -2666    -1495     -560      252      719      444 
    -841    -2998    -5638    -8334   -10529   -11521   -10862    -8650 
   -5246    -1150     2741     5316     5750     3848      181    -4148 
   -8024   -10737   -12031   -12040   -11109    -9461    -7194    -4561 
   -2037       -6     1494     2603     3371     3616     3031     1413 
   -1188    -4113    -6253    -7030    -6662    -5650    -4583    -3827 
   -3317    -3071    -3308    -4068    -5195    -6574    -8053    -9118 
   -9366    -8963    -7972    -6332    -4565    -3439    -3292    -3899 
   -4587    -4774    -4321    -3322    -2013     -725      313     1042 
    1488     1536      864     -837    -3470    -6379    -8808   -10204 
  -10248    -9167    -7638    -6184    -4897    -3672    -2532    -1556 
    -716     -141      -47     -340     -747    -1173    -1708    -2330 
   -2899    -3401    -3846    -4073    -3754    -2494     -287     2105 
    3626     3732     2525      528    -1486    -2989    -3949    -4574 
   -5245    -6220    -7100    -7039    -5560    -2974       31     2655 
    3855     2978      387    -2717    -4852    -5488    -5390    -5242 
   -5089    -4849    -4275    -3134    -1926    -1603    -2359    -3483 
   -4265    -4453    -4296    -4317    -4735    -5319    -5704    -5614 
   -4818    -3115     -791     1073     1437      217    -2007    -4464 
   -6232    -6791    -6389    -5606    -5067    -5262    -6140    -7145 
   -7713    -7745    -7747    -8389    -9717   -10805   -10690    -9388 
   -7488    -5629    -4486    -4460    -5499    -7266    -9102   -10154 
  -10040    -9133    -8055    -7401    -7571    -8273    -9038    -9987 
  -11094   -11731   -11488   -10324    -8289    -5899    -4069    -3300 
   -3484    -4281    -5305    -6409    -7738    -9137   -10116   -10485 
  -10184    -8960    -6956    -4755    -2746    -1225     -502     -536 
   -1206    -2594    -4538    -6576    -8374    -9614    -9794    -8758 
   -7015    -5235    -3912    -3374    -3679    -4586    -5599    -6348 
   -7114    -8200    -9179    -9527    -9263    -8668    -7991    -7321 
   -6644    -6087    -5941    -6295    -6834    -7239    -7423    -7315 
   -6805    -5919    -4919    -4130    -3749    -3877    -4399    -4915 
   -5095    -4920    -4536    -3998    -3272    -2460    -1605     -387 
    1343     3045     3808     2843       69    -3460    -6251    -7450 
   -7036    -5671    -4524    -4482    -5444    -6646    -7396    -7444 
   -7024    -6705    -7007    -8205   -10198   -12302   -13722   -14113 
  -13439   -11908   -10019    -8315    -7043    -6086    -5306    -4905 
   -5219    -6162    -7383    -8818   -10343   -11327   -11225   -10127 
   -8420    -6597    -5311    -4929    -5301    -6067    -6964    -7971 
   -9015    -9585    -9271    -8278    -6858    -5114    -3439    -2344 
   -2112    -2892    -4499    -6202    -7373    -7919    -7873    -7542 
   -7691    -8769   -10530   -12426   -13802   -14126   -13242   -11157 
   -8018    -4471    -1468      387     1058      936      523      -97 
   -1171    -2572    -3807    -4540    -4745    -4705    -4873    -5494 
   -6521    -7783    -9048   -10023   -10475   -10451   -10289   -10203 
   -9957    -9174    -7828    -6221    -4631    -3305    -2660    -3066 
   -4381    -5816    -6437    -5922    -4737    -3590    -2973    -3030 
   -3429    -3614    -3367    -2838    -2337    -2476    -3858    -6366 
   -9128   -11162   -11866   -11295   -10040    -8671    -7529    -6725 
   -5998    -5060    -3985    -3078    -2654    -2873    -3664    -4637 
   -5170    -4978    -4410    -4086    -4394    -5166    -5758    -5661 
   -4822    -3510    -2372    -2289    -3719    -6296    -9004   -10755 
  -11151   -10561    -9525    -8431    -7346    -5974    -4099    -2045 
    -451      328      327     -305    -1329    -2364    -3154    -3809 
   -4498    -5132    -5588    -5745    -5378    -4590    -3908    -3704 
   -4039    -4864    -5917    -6704    -6953    -6866    -6597    -5987 
   -4864    -3188    -1113     1153     3419     5078     5314     3988 
    1690     -757    -2546    -3320    -3344    -3004    -2542    -2135 
   -1938    -2177    -3089    -4740    -6897    -9067   -10735   -11579 
  -11526   -10695    -9237    -7550    -6330    -5674    -4921    -3766 
   -2565    -1842    -2040    -3154    -4582    -5643    -6000    -5757 
   -5466    -5620    -5994    -6106    -6051    -6215    -6751    -7649 
   -8704    -9501    -9662    -8984    -7650    -6243    -5224    -4703 
   -4696    -5039    -5271    -5212    -5085    -4906    -4555    -4169 
   -3857    -3597    -3390    -3115    -2678    -2251    -2036    -2216 
   -3067    -4673    -6692    -8474    -9334    -8947    -7538    -5592 
   -3691    -2440    -2077    -2439    -3202    -3892    -4140    -4025 
   -3896    -3983    -4373    -5013    -5720    -6302    -6432    -5854 
   -4840    -3961    -3608    -3726    -3696    -2931    -1613     -515 
    -287    -1148    -3098    -5835    -8465    -9926    -9821    -8589 
   -6916    -5251    -3727    -2256     -767      511     1061      570 
    -799    -2568    -4191    -5447    -6417    -6937    -6683    -5653 
   -4147    -2532    -1084       92      810      654     -653    -3008 
   -5972    -8814   -10878   -11943   -12066   -11520   -10666    -9424 
   -7453    -4985    -2802    -1525    -1310    -1926    -2891    -3762 
   -4443    -5047    -5569    -5790    -5581    -5206    -4988    -4881 
   -4621    -3932    -2555     -642     1025     1700     1234     -110 
   -1851    -3470    -4745    -5634    -6013    -5952    -5824    -5816 
