Origin Time       2016/04/16 01:25:00
Lat.              32.753
Long.             130.762
Depth. (km)       12
Mag.              7.3
Station Code      NGS013
Station Lat.      32.5811
Station Long.     129.7596
Station Height(m) 3
Record Time       2016/04/16 01:25:25
Sampling Freq(Hz) 100Hz
Duration Time(s)  100
Dir.              N-S
Scale Factor      3920(gal)/6182761
Max. Acc. (gal)   17.044
Last Correction   2016/04/16 01:25:25
Memo.             
[...]
    5408     5725     6052     5823     5536     5958     6410     6054 
    5535     5530     5718     5969     6207     5742     4876     4964 
    5830     6150     5894     5703     5502     5346     5540     5601 
    5088     4623     4821     5326     5442     5233     5396     5984 
    6388     6371     6182     6076     5958     5662     5465     5607 
    5868     6199     6550     6294     5298     4536     4734     5667 
    6630     6935     6557     5975     5542     5533     5912     6272 
    6452     6375     6140     6234     6436     6047     5350     5262 
    6114     7084     6887     5555     4428     4417     5450     6629 
    6881     6323     5801     5284     4580     4383     5047     6153 
    7136     7130     5739     4017     3500     4490     5631     5750 
    5578     5899     5838     5386     5745     6247     5907     5765 
    6134     5656     4431     4309     5514     6180     5866     5589 
    5018     4188     4609     5704     5427     4385     4767     6546 
    7801     7836     7139     5823     4594     4654     5659     6028 
    5510     5662     6789     6974     5768     4966     5041     5339 
    6192     6922     5918     4415     4737     5975     6310     6355 
    6561     5966     5317     5899     6616     6500     6263     6123 
    5628     4984     4820     5263     5720     5626     5204     4956 
    5214     6109     6860     6526     5728     5537     5498     4854 
    4018     3570     3918     5227     6541     6572     5531     4873 
    4767     4238     4060     5426     6920     6805     5737     4819 
    4537     5524     7089     7723     7199     5856     4838     5305 
    5968     5742     5591     5460     4686     4165     4982     7117 
    8903     8221     5793     4069     4240     6133     7708     7014 
    5368     4453     3700     3548     5392     7754     8598     8042 
    6185     4017     3594     4731     5963     6708     6887     6411 
    5119     3981     4547     5703     5115     4062     4928     6073 
    5693     5973     7973     9119     8247     6272     3803     2252 
    3011     5300     7520     9260    10304     9139     5473     2368 
    2917     5943     7477     6429     4655     3568     3939     5203 
    6249     6768     5498     2576     1594     3970     6979     8706 
    8667     6499     4918     7213    10741    10884     7839     4721 
    3750     5069     7171     8067     6719     4839     4359     4328 
    4386     5325     5942     5587     4724     2924     1882     3489 
    5180     5139     5321     6422     7211     7062     6428     6082 
    5704     5047     5025     5402     5544     6143     6353     5075 
    4728     6332     7315     7880     9259     8772     5609     3770 
    4889     6170     5723     4542     3870     3664     3947     4888 
    5493     5311     5391     5985     6515     7091     7813     7331 
    4220      857     1448     5136     7626     7716     6610     5277 
    5229     7052     7626     4581     1909     3640     7013     8520 
    8553     7550     5615     4364     4364     4110     2999     2450 
    3458     4629     3905     1976     1893     4498     7155     7191 
    4050      238      238     4973    10135    11927    10074     6227 
    3520     4637     7865     8742     6285     3895     4492     7819 
   11186    11351     7812     4224     3702     4769     5379     5565 
    4699     2775     2078     3507     4637     3247      722      224 
    2659     6324     9473    11187    10780     8405     5211     2874 
    3769     8176    11284     9232     5429     4419     5635     6699 
    6352     4296     2364     3318     6266     7422     5752     3173 
    1123      947     3338     5863     7010     8645    10377    10201 
    8862     7009     4447     3053     4595     7563     9506    10029 
    9689     9443    10557    12313    12787    11109     8029     6039 
    6046     6141     5873     6184     6840     7977     9650     9545 
    6435     3564     3938     5758     5433     2322    -1049    -2511 
   -1655     1495     5635     8191     7548     3814      154      946 
    5551     9193     9674     8166     5496     2003     -566      -97 
    3571     7666     8856     6880     4263     3913     6398     8487 
    7061     3395     1052     1643     4245     6855     7859     7619 
    7516     8067     8929     8276     4955     2165     3266     6311 
    7388     6168     5565     7176     9241     9442     7465     5312 
    5814     8228     8636     7221     7554     9467    10630     9984 
    6846     3020     1947     3287     4345     4444     4570     5467 
    6308     5234     2467      980     2319     4234     4471     3783 
    3149     1974      931     1935     3658     2880      982     1542 
    3735     5214     5961     6235     6157     6328     6651     6207 
    4875     4390     6003     8236     9209     8700     7249     5820 
    5608     6594     7459     7686     8109     8886     8953     7675 
    5621     3892     3049     2843     2750     2685     3424     4877 
    5370     4366     3184     3389     4933     5786     5381     5114 
    5462     6842     9506    11269     9714     5334     1138      369 
    2861     5340     6342     6082     4357     2408     2112     3487 
    5610     7805     9556    10227     9441     8144     7379     6339 
    4805     4548     5316     4811     3398     3532     5500     7059 
    6783     5710     5330     6121     8178    10881    12384    11479 
    9087     6890     5801     5757     6079     6309     6794     8687 
   12158    14590    13504     9788     6015     4384     5974     9202 
   10505     9035     7494     6922     6110     5020     4460     5079 
    6935     8744     9153     7919     5680     3928     3460     3247 
    3369     4878     5649     3994     3256     5172     6014     3616 
     351     -994      187     2082     2633     2256     2727     4883 
    7902     9927     9961     8848     8142     8584     9928    10965 
    9850     6759     4221     3165     2758     3448     5891     8788 
   10422    10717    10197     8678     6358     4301     3069     2459 
    2528     3122     3410     3800     5768     8291     8045     4227 
     497      931     5322     9955    11304     8308     3890     2567 
    5041     8282     9170     6752     3599     3145     5400     7833 
    8059     5194     1586     1079     4046     7357     8237     5734 
    1261    -1262      695     4620     6157     4316     1517       12 
     -75      699     2330     4241     5087     4501     3714     4016 
    5686     8029     9302     8088     5094     2521     2300     4369 
    6415     6516     5105     4307     6108    10005    13041    13050 
   10287     6621     4954     6795     9555     9724     7903     7246 
    8273     8910     8642     8387     8019     7684     8479    10120 
   10804     9936     9103     9133     8526     6572     4854     4508 
    4942     6050     7990     8441     5977     3524     3212     3971 
    5104     6640     7789     7573     6634     6477     6606     5414 
    3181     2042     3412     5910     6927     5749     3864     3191 
    4036     5036     5604     5995     5951     5764     5728     4798 
    2839     1571     2246     4652     7207     7692     5670     3381 
    3315     5771     8555     8590     5371     2178     1670     2944 
    4527     6150     7391     8189     8955     8831     7151     5308 
    4240     3407     2921     2763     2318     2656     4764     6536 
    5717     3762     3373     3941     3362     1944     1630     3955 
    7979     9832     8106     6602     8034    10473    11219     9658 
    7498     7180     8768    10155     9740     7303     4344     3299 
    4568     6042     5881     4346     3620     5100     6710     5919 
    4361     5519     8989    10831     8850     4776     2549     4599 
    8676    10960    10661     8605     5432     2778     3016     6402 
    9826    10454     8747     6551     5008     4824     6387     8768 
   10106     9403     7467     6207     5496     3443     1290     1044 
    1122     1159     3631     7700     9152     7109     5190     5216 
    5175     4364     4000     3339     1700     1405     4219     8819 
   12347    11829     7280     2942     1824     2563     3390     4667 
    6520     7668     7111     5086     3383     4192     7213     9653 
    9513     7733     6202     4749     2870     2235     3867     5697 
    5896     5686     6332     6757     5839     3789     1791     1591 
    3141     4311     4230     3605     3213     4162     6222     7224 
    6770     6185     5439     4816     5608     6562     5272     2941 
    2386     3610     5179     6222     5706     3933     3678     6124 
    8478     8564     7890     8465    10471    12242    11095     7246 
    4790     5925     8040     7941     5768     4142     4632     5344 
    3896     1776     1489     2495     3680     5071     6073     6242 
    6018     5338     4073     2730     2355     3945     6458     7551 
    6789     5727     5826     7405     9615    11053    10953    10143 
    9613     8630     6980     6038     5585     4868     5296     7562 
    9376     7880     2995    -1849    -2971     -139     4161     7356 
    7981     6868     5910     5402     5379     6831     9115     9564 
    7536     5280     4136     4277     6485    10447    13276    11835 
    7117     3818     3695     4002     3049     2018     2152     3703 
    6231     9059    11833    13215    11234     6846     3501     3298 
    5518     6799     4395      707      243     2743     4364     4203 
    4952     7889    11042    12356    12102    11619    11042     8688 
    3360    -2056    -2789     1315     5946     7521     5619     2837 
    2217     3841     5183     4236     1600     -129      708     2644 
    2965     1800     2455     6934    12591    14091     9015      982 
   -3907    -2460     3667     9389    10730     8934     8123     9881 
   12787    14766    14324    12055     9755     8044     7147     7104 
    6859     5811     4379     2922     1504     -176    -1818    -2204 
   -1084      453      885     -824    -3112    -3165    -1482     -192 
    1444     4910     9484    13553    15456    13818     8874     2691 
   -1790    -2949    -2290    -1598       70     3269     6277     8414 
   10306    11347    10538     8325     6396     6577     9492    13619 
   15899    14231    10016     6927     7002     9530    12132    12481 
   10957     9870     9896     9837     8573     6059     3982     4557 
    7569    10311    10318     7788     5985     7084     8716     7854 
    4939     2304      975      254      504     3972    10622    15544 
   14576    10155     6623     4935     5340     7927    10739    11855 
   11291    10575    11286    13260    14800    14815    13576    11456 
    8865     6787     5675     5035     4284     3244     2472     2556 
    3161     3582     2946      451    -2678    -3618    -1522     1990 
    4738     5007     3206     1536     1180     1565     1065    -1617 
   -4845    -4611      -97     3840     2540    -2587    -7136   -10283 
  -12997   -13213    -9178    -2863     2490     4477     2851      208 
    -327     1608     3656     4486     5589     8311    11549    13726 
   14522    13717    11389     8943     6849     3662     -408    -2522 
   -1752     -746    -1063    -1756    -2660    -3184    -1018     4081 
    9465    12729    13827    14397    14509    13078    11458    11588 
   12750    13486    13130    10264     4127    -2067    -3920     -827 
    4976    10908    14112    12246     6615     3161     5766    10622 
   12209    10729    10024    11714    14033    14963    13827    10971 
    8369     8294    10243    11627    10306     5135    -2525    -7762 
   -7394    -5447    -7993   -14236   -17586   -13574    -3965     5821 
   12536    16516    17266    13791     9452     9203    13773    19930 
   22611    18922    12357     8510     8212     8693     8068     5859 
    2137    -1707    -3379    -2187      -83      764      489      796 
    3311     8684    15576    20554    19685    11828     1265    -5433 
   -5991    -2849     1721     6725    10734    11424     6842     -932 
   -5841    -4524      388     4490     5578     3435     -174     -555 
    6061    16055    20913    17635    11352     8349    11017    17044 
   21700    21859    17441    11343     7758     7995     9500     9423 
    8525    10554    15622    17695    11729      129    -9051   -10277 
   -5413     1450     8365    12772    10989     3015    -5084    -7189 
   -3252     4181    13978    23341    27017    22202    12073     4172 
    3331     6333     6635     2659     -662     2372    11837    21590 
   24381    18772    10354     4576     1994      305    -2443    -5813 
   -8365   -10314   -12103   -11771    -7186     -600     2416     -999 
   -7482    -9819    -3623     7461    15527    16751    11236       21 
  -11670   -16698   -12904    -2551     8636    12537     6399    -3510 
   -8402    -5310      995     4246     3477     2119     1480     -878 
   -4931    -6380    -3495      248     1597      881      333     1629 
    4223     6293     7543     8909    10703    12857    15089    15848 
   12472     4606    -2653    -2538     5912    16126    19824    14968 
    7744     5288     8198    11504    11452    10514    13716    20330 
   24204    21938    16085    11663    11319    12202     9991     6394 
    7616    16044    26855    32610    30133    22588    16146    14527 
   15609    14799    11035     7313     6337     6923     5357      219 
   -5572    -7668    -4596     1174     5780     6718     3844    -1122 
   -5832    -8908   -10616   -11708   -11556    -7850     -544     6128 
    9129     9026     7333     6582     8271    10301    10865    10531 
    9142     5758     2092     2262     7356    13745    18586    22202 
   24308    22678    15803     5643    -2751    -6157    -5527    -3194 
   -1644    -1798     -659     3911     7784     5235    -3170   -10939 
  -12681    -8463    -2519      505     -823    -3693    -4355    -3130 
   -4034    -8251   -12058   -12537   -11597   -13085   -17066   -18963 
  -16112   -11410    -7622    -3429     2424     7104     6440     1537 
   -1199     1598     6545     8629     6518     3001     1592     3732 
    8411    12937    15437    16635    18243    20737    22481    20270 
   12110     1225    -4316      542    11107    17564    16306    13219 
   14331    17539    16891    11073     4873     4047     8323    10697 
    7437     4191     6757    12248    14396    11803     7433     4388 
    4400     7298    10878    13209    14758    16677    18802    20192 
   19192    15171    11681    13235    19361    25002    25195    19129 
   10614     3736    -1129    -6177   -12342   -17667   -19926   -18454 
  -12547    -2876     5452     6500      969    -3520    -1976     2844 
    7369    11253    14153    15427    14659    10572     2673    -5468 
   -7172     -505     8152    12448    12359    10899    10631    13013 
   16464    16683    12552     8058     6274     5964     4456      848 
   -3210    -4730    -2093     3041     7426     9596    10272    10039 
    9117     8441     8487     8904     9027     7414     4584     4435 
    8222    11661    10960     6338     -289    -5958    -7945    -7163 
   -5899    -3662      425     4149     3909    -1326    -8498   -12213 
   -8265     1911    10450    10858     6007     3899     7132    11580 
   13622    13694    12912    10467     6713     5108     6985     8398 
    6160     2324      604     2405     6029     8173     7280     5121 
    4729     7221    10225     9770     5589     2113     1928     3464 
    5054     5558     4071     2204     2597     5330     8708    10904 
   10090     6505     3226     2533     3747     5087     5870     6816 
    7927     7729     6696     7845    11464    13840    12833    10509 
    9628    11060    14236    16856    15879    11803     8380     6781 
    5300     3432     1424     -810    -2318    -1903      615     4933 
    9688    12926    15220    18622    21739    20646    14469     6507 
     898     -152     2538     5426     4529     -837    -6544    -7325 
   -1647     7720    15901    18270    13701     6380     2125     2555 
    4995     6973     8186     9069     8813     6303     3663     4968 
   10558    16218    17469    13211     6395     1575     1429     4872 
    8078     8047     4943      464    -4260    -7416    -6020      527 
    8297    11806     9169     4096     2039     4806     9631    12858 
   12995    10949     9251     9612    10858    10812     8713     5352 
    2400     1322     2139     3249     3195     2269      941    -1018 
   -1959      785     6543    11476    12416     9592     6436     6090 
    8441    10593     9700     6313     3683     2460       39    -4225 
   -8041    -9892   -10565   -11622   -12842   -11735    -6818      154 
    6476    10607    11921    11047     9547     8535     8607     9079 
    7348     1975    -4367    -6917    -3679     2248     5756     5009 
    2893     3413     7516    12449    14336    11591     6443     2952 
    3261     5734     6991     5452     2530      738     1126     2585 
    3001     1730      926     2163     3834     4856     6962    11206 
   16273    20166    21063    18636    15168    13209    12636    11714 
   10077     8855     8838     9355     8623     5783     1851    -1459 
   -2998    -2812    -1458      835     3462     5363     6561     7948 
    9474    10625    11354    11527    11637    12600    13159    10808 
    6026     1939      427     1659     4924     8358    10174     9361 
    5626      889    -1429       -3     3789     8114    11248    11921 
   10701     9205     7979     6593     5402     5786     7555     7862 
    5312     2409     1215      770      729     2491     5218     5415 
    2165     -801     -142     2517     2986      -31    -3473    -3434 
     607     5407     7451     5962     3051     1636     2958     5955 
    8268     7973     5666     3766     3084     2768     3459     6752 
   11461    13564    10138     2364    -4403    -4547     2053     9882 
   13508    11764     7528     5072     6786    10641    12014     8962 
    3046    -2763    -4686    -1386     3355     4840     2457    -1187 
   -3591    -3619    -1705      695     2869     5170     7712    10147 
   11890    11771     9133     5459     3518     5130     9304    11879 
    9084     2355    -2860    -2784     2201     8872    13965    16149 
   14825    10345     6521     7487    12136    15890    16007    12855 
    8461     5039     3676     3700     3634     3188     3411     4748 
    6868     9709    12749    14659    14792    13479    11337     9818 
   10824    14253    17303    17291    14462    11419    10383    11333 
   12467    12343    11122     9696     8675     8278     8244     7459 
    4640      363    -3126    -4680    -4879    -4538    -4164    -4046 
   -4290    -4789    -4955    -4051    -2291     -862     -349      -72 
     615     1135      275    -2157    -5002    -6962    -7227    -5716 
   -3491    -1787     -393     1571     3516     3740     2252     1614 
    3415     5608     5566     3838     3046     4430     6453     6929 
    6056     5564     5472     4392     2421     1800     4581     9713 
