Origin Time       2016/04/16 01:25:00
Lat.              32.753
Long.             130.762
Depth. (km)       12
Mag.              7.3
Station Code      OIT002
Station Lat.      33.5685
Station Long.     131.2678
Station Height(m) 9
Record Time       2016/04/16 01:25:23
Sampling Freq(Hz) 100Hz
Duration Time(s)  186
Dir.              N-S
Scale Factor      7845(gal)/8223790
Max. Acc. (gal)   90.521
Last Correction   2016/04/16 01:25:23
Memo.             
[...]
     702      777     1282     2182     2844     2851     2528     2238 
    1975     1745     1583     1582     1725     1686     1618     2142 
    3022     3453     3365     3213     3156     3010     2647     2203 
    1787     1393     1220     1637     2632     3544     3804     3474 
    2849     2335     2193     2133     1944     1846     1922     2012 
    1984     1842     1803     2076     2404     2451     2486     2552 
    2034     1221     1071     1414     1718     2161     2708     3026 
    3325     3738     3728     3096     2484     2386     2669     2928 
    2766     2187     1661     1408     1382     1781     2207     1772 
     980      855     1067     1256     1668     1988     1892     1626 
    1471     1640     2034     1854      707     -238      -23      741 
    1428     1773     1625     1769     2772     3717     3928     3877 
    3723     3099     2304     1856     1525     1102     1034     1895 
    3592     4766     4395     3566     3485     3728     3766     3523 
    2720     1397      402      602     1746     2546     2211     1606 
    1964     2688     2538     1917     1409      724      491     1547 
    2863     2964     2083     1421     1486     1923     2304     2552 
    2570     2200     1640     1150      845      773      911     1136 
    1254     1385     1429     1143     1156     1497     1378     1323 
    1996     2733     2706     1806      928      913     1332     1771 
    2448     2813     2371     2282     3229     3893     3987     4806 
    5676     4951     3615     3172     2857     1856      884     1074 
    2292     2808     2502     3348     5003     5522     4891     3613 
    1993     1332     2018     2772     3160     3445     3171     2451 
    2111     2274     2539     2650     2860     3028     2200      702 
    -521    -1750    -2617    -2046     -279     1752     3335     4027 
    3885     3630     4407     5895     6003     4731     4527     5421 
    5440     4819     4803     5148     4954     4750     6374     8298 
    6455     2087     -157      210     1043     1584     1798     1667 
    2018     3615     5462     6057     4985     2736     1053      854 
     162    -1452    -1790    -1417    -1648     -760     1786     4135 
    5493     5836     5321     5398     6536     6173     3311     1277 
    2066     4356     6925     7859     5968     3813     2725     1615 
    1316     1000    -1813    -4878    -4203      724     6848     9652 
    8853     7938     7515     6905     6251     4170      803    -1849 
   -3680    -3562      -58     3861     5703     6602     6409     4703 
    3329     2609      464    -3315    -4962    -1133     5420     8870 
    7465     4445     2565      926     -537    -1281    -4444    -9231 
   -9724    -7452    -6975    -4915     1313     6639     8694    11608 
   14439    11422     4205    -2121    -6011    -6763    -6235    -5552 
   -1941     3655     8290    11146     9760     3406    -2833    -4608 
   -4437    -5298    -5138    -4386    -5601    -6885    -6947    -5721 
    -614     7378    13350    15873    15830    13269     8385     2567 
    -149     3001     8046     7348    -1057    -9157   -12201   -14759 
  -14928    -7294     2957     8901     9732     6739     1610    -4576 
   -8259    -3065     8949    15759    11488     5593     5960     3095 
   -6436    -7977     -869     3279     8414    17743    20174    11260 
    -750    -6990    -5189    -1225     -535      583     5632    10308 
   11473     8815     2492    -2039     -518     4602     9733     9073 
   -1098   -12571   -14465    -8653    -2455     6451    17470    18265 
    9132     1023    -5544    -9085    -5954     -274     6133    12441 
   14692    13007     8094     1491    -1277    -1282    -1991      862 
    6150     8378    10524    11761     5915    -3551    -9126    -9143 
   -5981      156    11620    23886    26538    17442     5787    -1112 
   -3474    -2569    -1705    -5101   -10615   -12449    -6631     3480 
    7429     3319     1888     8441    16642    22072    23468    16611 
    5468     -730    -3188    -3576    -3005    -7982   -10544      545 
   12919    15649    15068    13595     9992     7175     5042     1256 
   -2825    -4085    -2385     -286      823     1514     2258      471 
   -5887    -9738    -3967     3689     2752    -3778    -8924   -12344 
  -13147    -6089     6644    13697    12158     7177     -564    -7912 
   -9834    -8259    -5664    -3276    -1201     4510    13063    16649 
   12236     4550    -2079    -5015     -438     7106     5837    -1259 
    -513     7342    12054    11156     6905     3051     6170    16664 
   26912    28868    17655     -685   -11712    -9814     -560     8276 
   12750    13386     9220      715    -6711   -12205   -18377   -19996 
  -10034     4550    10372     7009      -11    -8125   -11619   -10465 
  -11322   -12112    -7215     -457    -2880   -16252   -23774   -14049 
    3369    17431    23082    17994     8044     3065     7013    12181 
    7447    -1725    -2469     3435     9778    15310    15334     8424 
    4538    10430    18126    18017    11956     6035     1514    -2590 
   -5397    -5541    -4202    -2111     3782    11196    11356     6561 
    7038    13215    17574    11674    -1981    -7923    -5073    -6679 
  -11254    -8838     -877     6490    11759    13081     9968     8098 
    8391     6786     4865     2234    -2613    -5084    -5474    -4152 
    4827    16943    22504    20826    13300     3939     -479     -337 
    -252    -1075      199     6251    13636    16144    14712    13630 
   12614    10546     7491     3873      380    -3526    -4482     1358 
    8193    11020    12711    14359    15025    14068     9576     1402 
   -8606   -16965   -20490   -21768   -21838   -16560    -7712      398 
    6323     6594      939    -6293   -11691   -12988   -11735    -9748 
   -4025     4657     9768     9236     6812     5356     5864     9490 
   13405    11751     5379    -1224    -7123    -9907    -8673    -8615 
   -9510    -6529    -3184    -4914   -10500   -15500   -14539    -6990 
    1436     8060    14197    18544    18527    16538    17049    17123 
   11039     2551     -890    -1674    -5734    -8464    -3103     6864 
   16600    24476    26299    19273     5741    -6817   -11455   -14461 
  -21631   -22203   -12795    -3970       72     -800    -2781     1193 
    6246     7391    11284    16268    12930     5443     3230     2515 
   -2377    -5259     -981     4541     5957     5377     3576     -984 
   -4036    -2544     -579      799     1781    -1016    -5464    -7803 
  -11766   -17294   -15946    -6335     4326    12105    15255    12193 
    6975     5367     7479    10100    11171    10656     9541     8297 
    7198     6423     5485     4953     5686     6378     6952     9413 
   10962     5640    -3734    -5918     1216     6164     5036     6146 
    8872     6633     2633      -89    -4359    -7862    -7960    -7696 
   -6436    -4102    -5216    -6481    -3746    -3339    -7738    -9256 
   -3936     2678     4885     3202    -1395    -8414   -12225    -8715 
   -2060     1517     -634    -4804    -4725    -1215     1873     3685 
    3554     3273     5090     7330     8428     7153     3753     2088 
    3277     4236     2896      882      577     -364    -3906    -6270 
   -5348    -3265     -672     3634     8989    11296     5709    -6148 
  -15912   -20001   -21108   -19581   -15048    -9774    -6511    -5846 
   -5158    -2612     1715     7023    10268    10269     9470     9142 
    7816     3406    -1444    -2234    -1451    -1934     -734     1308 
   -1800    -9175   -11385    -4945     2492     6249     8483     7896 
    3407     -322    -1985    -4703    -8217   -10208    -9594    -6519 
   -2943      212     4225     7969     8733     7125     6238     6416 
    4535     1759     2994     6160     6378     4162     -155    -5850 
   -9856   -13332   -16634   -14953    -7423     1345     6525     5900 
     573    -6073    -8957    -7353    -5829    -3989      954     5940 
    7797     7431     5537     1904     -912     1051     6465     9991 
   10658    10814    10281     8205     5842     5143     5773     5027 
    3284     2438       63    -3636    -4391    -2671     1070     6679 
    7807     4284     3343     4901     6498     7885     6691     2385 
   -2947    -6347    -6841    -7785    -9136    -6994    -1020     5786 
    9246     7631     3572      765     2439     7781    10285     7009 
    3350     3420     5798     8692     8565     3165    -1680    -1798 
   -1378    -3423    -5867    -6644    -5375    -2064     2195     5412 
    5999     3869     2312     4284     8217    11067    11369     9497 
    6154     2982     3279     5809     6210     5698     6006     3940 
   -1244    -5559    -5944    -3437    -1217      338     2529     3878 
    3376     1992    -1680    -8043   -12895   -14319   -13907   -11589 
   -8006    -4920    -1748     1887     5027     7153     7877     7693 
    8047     9381     9463     4729    -4306   -12040   -13805   -10193 
   -4920      982     7469    10783    10121     9404     8181     3532 
   -3261    -9301   -12999   -14010   -13032   -10184    -5313     -216 
    3798     7547    11418    16168    21031    21482    17377    14150 
   13574    12522     7967     1763    -1769    -3316    -4005     -966 
    4900     9097    10326     9904     8834     5107    -3880   -12607 
  -12005    -4918    -1823    -4527    -7565    -7585    -4457      434 
    5630     9157    10031    11068    12052     8243     1008    -4610 
   -8853   -12876   -13782    -9142    -1316     4885     6276     4588 
    4797     7392     9290     8872     5089     1289     2957     7283 
   10123    13660    16653    16050    14736    12756     6847       39 
   -4540    -8093    -8903    -4406     3142     8922    10307     9537 
   10235    13709    18667    20956    18658    13891     7075     -319 
   -4359    -5950    -6912    -4309     1682     6535     8561     7558 
    2837    -3585    -8077    -9421    -8662    -7619    -8934   -12827 
  -15972   -16449   -14561   -11487    -8364    -4710    -1244     1246 
    3678     3982      419    -4779    -9130    -9262    -3661     3084 
    6562     6852     5406     3464     1062    -3119    -6605    -3816 
    3523     9040    12555    14823    13413     9038     5456     6852 
   13617    19695    20634    17489    13826    12213     9855     4712 
    1949     5466    11476    13172     8838     4145     4055     7373 
   10550    12571    15206    18075    18431    16380    14169    11659 
    7283     3136     2166     2675     2995     3336     2265     -715 
   -3851    -6003    -6015    -2307     2463     4077     3241      938 
   -1560    -1166     -857    -3677    -5050    -2914    -1397    -2363 
   -3719    -5431    -6825    -3226     2814     3769     2590     5273 
    9679    11971    11969    12556    15502    18146    19302    20906 
   21340    18026    12972     8251     3770      332     -903      850 
    4152     4828     2427      556      178       60      526     2121 
    4916     9539    13709    13454     9767     6312     4336     3287 
    3303     3735      845    -4785    -8135   -10071   -12218   -12478 
  -12005   -12363   -11727    -8691    -3539     1599     3368     1412 
     418     4626    12420    19113    21972    22002    21749    22107 
   23221    24291    23530    22662    24001    25344    23895    18777 
   12498     9259     8276     8213    10513    13023    13392    12903 
   12739    13405    14589    15842    17311    17779    16756    16229 
   16378    15169    12775    11245    12683    18351    25366    28671 
   27491    23295    15753     6885      870    -2064    -3262    -2473 
   -2226    -6396   -13946   -21886   -28306   -28925   -22603   -15331 
   -9219    -1575     5089     6771     4932     2498      626     -685 
   -3940   -10335   -16244   -20853   -26763   -31309   -30357   -25458 
  -19472   -11503     -633     9202    14216    16409    19236    22511 
   23645    22963    23356    23741    20802    14661     8286     5597 
    8797    15367    19114    15705     6779    -3508   -12984   -21009 
  -25150   -22447   -16735   -12783    -8849    -8014   -16394   -28811 
  -34966   -31687   -22608   -11178      -41     4837      905    -6759 
  -13960   -19769   -23170   -23966   -24763   -29062   -35233   -37936 
  -38362   -41229   -41970   -32630   -15709       65     9382    10840 
    5579    -3231   -11874   -16845   -15033    -6196     5481    16177 
   25675    33584    38080    38580    37303    39156    46109    54302 
   61125    65770    65651    61493    56031    47336    34160    21775 
   14427     9687     6138     5287     2606    -7458   -19047   -23329 
  -21986   -21138   -22666   -25234   -26296   -25272   -23922   -23059 
  -22673   -20437   -13733    -6493    -4525    -8808   -17664   -26671 
  -29312   -22708   -11450    -4356    -3505    -3009     -448     2818 
    6450    10212    14756    19407    23290    29787    41154    55109 
   68550    79022    84036    82259    76927    71152    61638    46508 
   30809    18139     5915    -7176   -15913   -16167    -9502      820 
    8978     8444    -2295   -20692   -41187   -56890   -64497   -65469 
  -63786   -63086   -64659   -67545   -70306   -72706   -74675   -75870 
  -77129   -76280   -68076   -55179   -44446   -35008   -24803   -14696 
   -3600     8868    22326    36832    51185    65453    79590    90499 
   96083    97050    93414    86275    82070    83305    80824    68349 
   52505    43934    44313    42117    31634    22817    19213    13036 
    3032    -4116    -4970    -1975     2174     4731     1297    -8387 
  -19102   -25888   -26962   -24413   -21477   -18157   -14388   -13514 
  -17976   -25705   -31943   -33845   -31942   -26800   -19612   -15021 
  -17914   -27811   -37588   -40740   -38225   -32929   -26489   -23423 
  -24294   -19583    -3420    16060    31139    45871    63856    78896 
   82912    76069    67487    66501    73241    78605    75539    64516 
   47364    27145     7504   -11670   -27579   -32648   -26485   -19627 
  -21118   -28957   -38321   -49144   -57591   -54916   -40737   -22921 
   -9008    -5811   -13810   -24320   -30597   -32900   -34234   -36117 
  -34886   -25748   -11167     2215     9371     6774    -1691    -6259 
   -2893     7036    17251    19153    15299    13317    11673     9483 
   12630    23093    35784    42753    38978    27087    13216      940 
   -9046   -16806   -23287   -30068   -34071   -29878   -20738   -13657 
   -8314    -3480    -1216    -1452    -3176    -6457   -11307   -16104 
  -17880   -17012   -15498   -13095   -10454    -8776    -9324   -14740 
  -23697   -30102   -30504   -26862   -23822   -22644   -18073    -8797 
   -1561     1696     1628    -5206   -14725   -18080   -14403    -6747 
    2484    11385    17806    19106    18562    23912    35564    47345 
   54831    55497    49673    43200    41334    42469    41608    38431 
   38016    40826    40613    33751    19778      681   -15147   -23033 
  -27589   -28857   -23908   -18056   -16147   -16544   -17305   -18490 
  -21807   -26001   -27602   -28686   -28998   -21497    -6347     9216 
   22774    35861    46838    51733    49316    39208    21598     1709 
  -14100   -22713   -22682   -15601    -6192     1995     9089    18118 
   28705    33279    26639    13045    -1152   -14193   -26693   -38639 
  -48466   -53199   -51902   -46259   -36779   -24930   -14601    -7592 
   -4614    -6241    -8147    -5374     -696     1136     1170     1447 
     298    -3048    -4727    -2822    -2313    -6893   -14095   -20007 
  -19585    -9941     1810     7586    10686    16964    26817    39100 
   50043    55147    55537    52232    41968    24973     6863    -5973 
  -10320   -10920   -16324   -27033   -34307   -30013   -14827     3420 
   18261    26947    29523    29066    26316    19863    12580     7778 
    4892     2654       59    -3192    -5418    -6386    -9568   -15043 
  -17431   -16218   -15238   -15379   -17383   -20656   -21385   -17483 
  -10558    -6447    -9139   -14241   -16987   -15709    -7974     3874 
   14320    23511    32498    38161    36675    27194    14912     4453 
   -5316   -12455   -15708   -21289   -29126   -32292   -32051   -32456 
  -30877   -26617   -24318   -26584   -31936   -34887   -31068   -24420 
  -19029   -10428     5614    24096    36612    42421    48250    57612 
   68056    77441    84680    89283    92959    92765    80011    55572 
   30835    11673    -1000    -4194     -217     1683    -1208    -1725 
    1852      691   -10031   -25681   -40621   -52370   -60538   -65178 
  -65624   -61334   -53793   -45374   -36479   -27831   -22248   -18836 
  -13340    -6782    -1109     7815    20088    28412    29489    27175 
   27527    32409    36931    37654    36771    35742    33345    27702 
   18611    11280     9971     9482     4078    -3339    -8988   -14558 
  -22164   -30967   -37012   -34218   -22168    -7330     6448    18246 
   27027    34281    41154    44994    43395    37558    29322    20452 
   15944    16750    14458     6455     1300     1695     1873     1005 
    1386      726    -1275    -1848    -3821   -10987   -22362   -37335 
  -54803   -70023   -79550   -83540   -80916   -69962   -53866   -38569 
  -27314   -20390   -16019    -8490     7526    26966    40331    46107 
   45925    41058    35214    27154    13008    -1645   -10501   -16868 
  -23287   -26923   -27959   -29802   -31205   -27062   -17695    -8035 
    -733     2629     2808     4388     8791    13405    16652    18139 
   18519    18145    15213     9485     5017     5497     8537    10026 
   11060    13572    16808    20191    22558    22975    24136    28082 
   31654    33210    34497    32244    23075    12644     7753     9040 
   14652    21375    24541    22750    18079    12091     6502     1154 
   -7597   -19037   -27849   -32476   -32899   -28386   -23267   -22250 
  -20773   -13120    -2759     6617    15662    20881    20150    19394 
   20128    18438    16817    16093    11187     5046     4252     7225 
    9147     6316     -629    -4441    -1151     5356     9371     7599 
    3465     2509     2934     2199     3519     9101    17699    26971 
   34526    39583    42199    43857    46437    47434    45135    42525 
   39413    33760    28354    24734    19175    12309     8640     4332 
   -4769   -13839   -22145   -32189   -39883   -44500   -49424   -52645 
  -53491   -53740   -50751   -43725   -35252   -24295    -9001     6226 
   13705    14586    16104    15499     9251     6146     8194     9320 
   13617    19718    19600    18928    17776     7906    -1271      425 
    4588     4531     5698     5244    -2420    -4163     3530     9791 
   17018    21436    18574    17421    15282    15059    25466    30565 
   26086    27639    32138    34623    38512    39442    31376    18738 
   15526    16402    10500    10906     8742    -6844    -9765    -5462 
  -14910   -18619   -12748   -18931   -28061   -18198    -4238    -7015 
   -8853    -1399    -4086    -9853    -6370   -10897   -23978   -26433 
  -24738   -30117   -31889   -24972   -18874   -17247   -14473   -10299 
   -7863    -3411    -2278   -11032   -13030    -1710     2153    -2344 
    4912    17402    18526    17496    21973    22474    14047     1802 
