Origin Time       2016/04/16 01:25:00
Lat.              32.753
Long.             130.762
Depth. (km)       12
Mag.              7.3
Station Code      OIT014
Station Lat.      33.0656
Station Long.     131.8589
Station Height(m) 8
Record Time       2016/04/16 01:25:25
Sampling Freq(Hz) 100Hz
Duration Time(s)  132
Dir.              E-W
Scale Factor      7845(gal)/8223790
Max. Acc. (gal)   66.633
Last Correction   2016/04/16 01:25:25
Memo.             
[...]
   15048    15194    15075    14844    15255    17031    18716    18311 
   16955    16679    16920    17497    20270    24243    25324    23313 
   21818    20929    18283    16085    17925    20952    20550    18169 
   15912    12717    10953    14212    19298    21679    22531    23206 
   21401    16949    13725    13313    13314    12812    12764    11959 
    9598     8477     9882    11461    12715    14731    15772    13871 
   10446     8070     7634     8575    10486    13687    18218    22910 
   26339    28553    30356    31777    33014    34348    34396    31973 
   28366    24922    21161    17544    17389    22363    28098    30052 
   30481    32648    33641    29647    23319    20418    20679    18608 
   13737    10096     7038     2243    -1215     -372     2299     5113 
   10678    19110    25046    25107    22902    22954    24382    24259 
   22175    18746    14242    10200     8326     7546     6276     5948 
    8198    11649    14467    16761    18400    18193    16521    14898 
   13038     9682     5478     2849     2794     3570     3615     4190 
    8257    15889    22323    24349    23747    21610    18209    16497 
   18104    21444    24440    24838    21786    17707    15426    13934 
   10278     6258     6156     8330     9054    10092    14056    18605 
   19931    18632    18497    19468    19006    19367    22974    25882 
   25173    23641    22218    18602    14613    14874    18681    20758 
   19386    18230    19569    20401    17905    13875    10574     8650 
   10234    16375    23097    26249    26503    25695    23730    21402 
   19881    17668    13926    11585    12663    14558    15017    15843 
   17977    19383    19609    20163    20773    19275    15454    12511 
   11492     8846     4029     2006     5714    12511    17814    20116 
   22612    27886    32634    32737    30148    27507    21559    10384 
    -203    -4353    -2952       62     2243     4330     8808    14939 
   19850    23836    27376    27099    21554    15915    14636    15977 
   18273    21922    24915    25350    25015    25938    26917    25299 
   21055    17004    15130    15427    17413    19982    20700    18050 
   14288    12951    14284    16168    17281    17554    17730    18031 
   17528    16492    16119    15333    12811    10254     9135     8330 
    8000    10392    15106    18728    19793    19935    19660    17914 
   17031    19395    20673    18183    17142    18906    18285    15495 
   16101    20744    24318    24560    23934    22535    19411    17851 
   18667    17034    12181     9084     8532     5935     1517      733 
    3176     4000     5381    12914    22518    24478    20737    21501 
   24503    20301    13319    14197    20844    24386    23583    20996 
   15431     8426     6212     9180    11373    10762     9810     9049 
    8363    10102    14624    17424    15949    14805    17288    18829 
   16687    14806    15152    15680    14887    12775    10585     9254 
    8889    10759    15282    19018    18717    16681    17838    22531 
   25848    24572    21293    19936    20844    22330    24074    25926 
   25143    19831    13678    12081    15257    18981    20420    19911 
   17855    13343     7416     4758     7609    11956    14388    16005 
   18115    20382    21924    22599    23116    22627    20499    19792 
   22835    26875    28194    26249    22373    17806    13242     8911 
    5922     6142     8317     8915     8286     8704     9644    11061 
   13479    14462    12568    10631    11136    12496    13224    16302 
   22581    26748    27865    30321    31509    25978    17961    14543 
   13470     9553     5422     5293     6446     5713     4619     5228 
    8665    13871    17705    20336    22762    21633    15655     9196 
    5942     7326    13768    21468    25671    28001    30785    30276 
   25532    22589    22662    20233    15654    15037    18643    21173 
   20337    18183    15788    12148     9274    10284    13068    14503 
   15082    15264    14219    11973    10570    11851    13084    10295 
    4719      637      140     2163     5575     9817    12120    10949 
    9490    10670    14034    17493    19576    21216    23126    23598 
   22736    22731    22404    19666    17429    19219    22740    24078 
   23989    24381    23425    20434    19029    20337    20787    18289 
   15111    14305    14667    13001    10759    11199    13298    14420 
   13921    12208    10355    10093    11745    13327    13259    12434 
   12136    12125    12421    14245    17447    19399    18252    16220 
   16524    17851    17234    15761    15445    15462    15206    15546 
   16376    16729    16661    17193    18388    19083    18721    17265 
   14596    11330     8182     6115     7103    11645    17251    20758 
   20875    18554    15263    12256    10781    10773    11398    12756 
   15021    18173    22158    24813    23317    19337    17493    18495 
   19230    19248    20866    22033    18608    13903    13772    16388 
   16995    15754    15142    14926    13652    12438    13350    15873 
   17504    16659    15549    17994    21821    21199    17356    15492 
   15450    15043    15142    16714    17971    17678    18372    21163 
   22219    19811    16769    13990    10644     8604     9109     9907 
   10114    11518    14102    16656    19522    22363    23380    22416 
   21378    21163    20803    20372    21173    22069    20371    16324 
   12719    11356    11911    12857    12584    10656     8417     7288 
    7377     8372     9946    11782    14265    17047    18249    18102 
   19257    21563    22783    23634    25648    27585    28259    28181 
   27430    25605    23068    21142    20884    21562    21970    22048 
   22210    22566    22150    20015    17551    16274    14922    12086 
    8394     4818     2378     2169     3653     6289    10828    15272 
   15492    12194    10069    10511    12357    16249    21736    25465 
   26258    26315    26520    25674    23656    21772    20891    20606 
   19877    18666    18085    19020    22142    26717    29065    26897 
   22607    18668    15232    12895    12062    11488    10940    11881 
   14571    17061    17049    14584    12297    11620    11668    12722 
   15716    18684    19122    18576    19915    22354    23584    23157 
   21254    18598    17176    17420    17112    15079    13259    13637 
   15865    19219    23426    27255    29301    29177    27689    26102 
   24665    23604    23576    23658    22315    19697    16923    15111 
   15159    16668    17982    17761    15920    13598    12290    12631 
   13562    13154    11812    11549    11703    11762    14501    19720 
   22845    22511    21760    21978    21118    18832    18114    19576 
   20305    19280    18369    18275    17940    18034    19930    21829 
   21924    21460    20799    19094    17707    18165    19337    19273 
   17909    16783    16309    15513    14512    14062    13878    13513 
   13339    13942    14975    15253    14736    14887    16133    17007 
   16600    15417    13841    12622    13169    15173    16209    15003 
   13228    12833    13682    14782    15762    16406    16100    15228 
   15591    17244    18096    18079    19170    21134    21682    20621 
   19896    19701    18823    17983    18135    18239    17351    15817 
   14905    15392    16094    16291    17177    18798    19768    19616 
   18601    17221    15854    13875    11479    10755    12357    14374 
   15457    15475    14517    14161    15394    15631    14113    14200 
   15340    13194     9162     8899    12310    14291    13641    13340 
   13860    12854    10594    10265    12596    14353    13030    10517 
    9915    11180    13109    15194    16205    16044    16632    18828 
   21840    24491    25312    23472    19915    15951    12383    11200 
   13971    17733    17972    15380    13396    11921    10093     9382 
    9709     9460     8905     8895     9112     8862     8326     9092 
   11681    13967    14689    14901    14878    14399    15161    18295 
   20956    20143    18423    19371    20305    17964    15718    16553 
   17061    15241    14678    16190    15835    13743    13687    14800 
   14176    13331    14789    17255    17778    15387    11630     9136 
    8931     9412     9020     8191     8532    10552    12245    12366 
   13093    15545    16903    15603    14411    15412    16691    16025 
   13879    11754    10130     9288    10322    12775    14003    13165 
   12221    12452    12872    12581    12676    13899    14895    14810 
   14095    13035    12460    13594    15842    17281    17451    17328 
   17107    16598    16692    17813    18701    18297    16931    15498 
   14644    14702    16096    18671    20947    21729    21006    18760 
   15488    12665    10650     8711     7396     7515     8390     9362 
   10636    12541    15051    17321    18463    18492    17971    17587 
   17289    16426    15422    15175    15122    14353    13964    15502 
   17859    19446    21427    24822    27527    27236    24351    20457 
   16814    15020    15903    17616    17556    15407    12772    10725 
    9324     8851     9192     9393     9266     9460    10735    13795 
   18445    23630    28143    30456    29295    25606    22665    22065 
   21882    20914    20051    18917    16819    15168    14910    14692 
   13308    11541    10848    11516    12847    14446    16725    20218 
   24139    26977    28694    29200    26977    22898    19804    17363 
   13895    10768     9783     9244     6525     2536      417     1372 
    3951     6667     9379    11503    12175    13108    16406    20317 
   22931    26206    30595    31689    26487    17847    10678     6868 
    6192     9699    17066    23247    24298    22804    22145    20823 
   17543    15649    17363    20256    22308    24266    26889    29342 
   30092    28333    24127    18252    11488     4047    -2555    -5891 
   -6004    -4560    -2246      310     2338     4162     6023     6866 
    6050     5066     5979     9024    13506    19090    24493    28020 
   29563    29458    27168    23010    19425    18566    19874    21969 
   24582    26997    27768    26635    24895    23796    22904    21074 
   18061    13437     6744     -683    -6654    -9904   -10061    -7067 
   -1528     4514     9136    12465    14396    14095    14025    17219 
   21277    22693    22738    23415    23012    19811    16162    14921 
   15041    14436    13350    12699    13540    17419    23882    30157 
   34312    36405    36679    34653    31168    29145    29347    28729 
   25259    19831    13749     8201     4535     3615     5433     8723 
   11518    12502    11767    11186    12588    14638    14955    14243 
   14008    13660    12594    10760     7722     3998     1579     2323 
    6427    12706    19684    26034    31178    34543    34858    31753 
   26122    20012    16771    17905    21111    23157    22574    20004 
   17651    18095    22474    29343    35483    37912    35199    27877 
   19121    13015    10292     9085     9877    14049    19361    23145 
   25563    26003    23495    20240    18077    16029    14571    15599 
   17838    17817    14787    11614    10812    11514    11342    10729 
   12425    16336    19433    20317    20278    21548    25168    29515 
   32335    32989    30859    25064    17579    12042     9254     8270 
    9374    12131    14422    15530    16478    17463    17566    16416 
   14654    13111    12995    15165    17768    17859    15176    12024 
   10673    10767    10103     7865     4386      585     -909     2263 
    9753    18195    23510    25300    25708    24877    23201    23301 
   25999    30396    36690    44165    50533    54409    55166    52948 
   49504    45314    38051    27036    15718     7342     1129    -4779 
   -9147   -10170    -9441    -9209    -8426    -4521     2683    10741 
   17243    20425    19082    14083     8175     4781     6797    13371 
   20209    24900    27460    26592    20938    12577     5370      801 
   -2675    -6610   -10307   -12483   -13359   -14096   -15460   -16626 
  -15878   -12541    -6247     3597    15807    27487    36745    44100 
   50565    55129    56133    54108    51472    50530    52373    56492 
   60848    63352    63035    59707    54095    47857    42642    39355 
   37508    35883    33856    30677    25224    17294     7900     -778 
   -6230    -7931    -7881    -8637   -11218   -14056   -13914    -9178 
   -2359     2405     3393     1634     -125     1142     6266    13608 
   21307    28665    35067    38800    38306    33739    26847    20007 
   15043    12191    10791    10764    11937    13053    12060     7392 
    1021    -2455     -587     6470    16185    24143    28857    32051 
   34195    35581    38206    42495    46237    48027    48690    49034 
   48159    44790    38789    30915    22420    14296     6042    -3588 
  -14141   -23107   -27561   -25358   -16661    -4526     7102    16008 
   22833    28779    33497    37153    40082    40050    35384    29239 
   26974    29902    33787    34250    29565    19037     4847    -7311 
  -13174   -12402    -6498     2386    11583    18418    20775    18306 
   12980     7862     5011     3585     1993     1237     3040     7376 
   12870    17405    19681    20328    20278    19789    19178    19060 
   20633    25543    33995    43931    52386    56404    53833    45006 
   33405    23804    18134    13836     7641    -1347   -11724   -20317 
  -24779   -26261   -28069   -32620   -39842   -47659   -53241   -53484 
  -46298   -33025   -18285    -6042     4143    15862    31182    48857 
   65634    78077    84697    85473    79899    68646    55108    41967 
   28981    16837     7874      692    -8892   -20973   -31434   -36516 
  -34839   -27876   -18686   -10395    -5069    -1514     2629     7530 
   13254    19878    25394    28072    28498    27988    27823    30098 
   36941    47915    59783    69560    76005    78514    76794    70822 
   60359    45752    29733    17004    10368     8698     9012     8199 
    4828      457    -2338    -1692     2701     8237    12093    14860 
   18004    20494    20318    17248    12426     5976    -2524   -12062 
  -20849   -27604   -31363   -31432   -28142   -23256   -19072   -15456 
   -9325      992    13718    25527    33534    37119    38164    39173 
   40952    41715    39549    34848    28950    22569    15957     8985 
    1992    -3287    -3960     1692    10316    15303    14135     8958 
    1445    -6917   -12591   -12116    -4386     9220    24493    35841 
   41055    42666    43081    41517    37430    33056    29785    27368 
   27529    31656    37409    41354    40872    34697    24997    15587 
    8109     2940      425     -259     -783    -2718    -6427    -9359 
   -8062    -3464      299     2669     5821     9305    10983    10639 
   10852    14482    21455    29517    36923    41986    41388    33259 
   21563    12560     8205     6876     7843    11743    18333    25231 
   28405    25158    17177     7778    -2305   -12357   -19338   -22027 
  -22091   -19731   -13946    -6327     -610      715    -1255    -2999 
   -2276      286     3321     6902    11148    15403    20565    27924 
   35541    39955    40066    36626    29972    20949    12928     9648 
   10937    13101    13413    12837    14559    20086    27444    33461 
   36369    36262    34422    32227    30060    27429    23966    19646 
   15082    11857    10030     6246    -2299   -13868   -24339   -30653 
  -31745   -28036   -20029    -8097     6195    20468    32503    40154 
   42409    40378    35667    28367    18644     9621     5066     4699 
    4650     2435    -1371    -5775    -9248    -9514    -6377    -1705 
    3213     8186    12433    14666    14845    14007    13158    13015 
   14685    19314    25961    31926    35549    36805    35851    33097 
   30069    28069    27031    25952    22890    16845    10065     5680 
    5004     8268    14392    20329    23426    24116    25382    28823 
   31851    30624    24711    17375    13016    14204    19789    26075 
   29092    27218    22381    16379     9553     4602     5202    11728 
   21456    29282    30766    27286    23510    21321    19758    16906 
   11241     4236     -131      681     5737    12070    17698    22331 
   25990    27959    27187    24587    22522    21385    20147    18615 
   16330    11801     5194     -492    -2874    -2910    -2988    -4334 
   -6562    -7657    -5169     1156     8881    15277    19504    22227 
   24557    27581    30996    33045    32773    30597    27338    23888 
   20372    16438    13135    12137    13844    17471    21390    24567 
   27984    31839    33863    33308    32312    32272    32590    32173 
   30680    28455    25570    22783    21860    22589    22783    21701 
   19808    17248    14581    12900    13506    17159    23114    29924 
   35353    36967    35280    32408    28583    24221    21392    21358 
   23487    26184    28178    28892    28054    26779    27415    30190 
   33014    35708    40285    45966    48134    43775    35468    28668 
   25701    24337    22071    18596    14106     8784     4723     4885 
    8753    12229    13275    14090    16598    19858    22977    25986 
   27045    24036    18909    15238    13016    10486     8160     7510 
    8602     9691     8572     6417     7148    10589    12943    14200 
   16753    19955    22597    25338    28013    29384    29945    30869 
   30222    24807    15473     7020     3446     4843     8803    13597 
   19314    26173    32080    34886    35403    34281    31617    29678 
   29027    26466    21363    17896    19009    23059    26022    25015 
   21366    19084    18874    17552    13763     9782     8352     9011 
    8652     7179     7859    11998    16799    18800    18982    19253 
   17343    13181    11138    12742    16348    20800    26354    33388 
   38557    38341    35671    34439    34177    33630    32536    32270 
   34414    36247    34838    31511    27018    21982    19465    20062 
   20839    19963    18578    18405    18133    15276    11302     9065 
    7373     4513     2191      868    -1059    -1687     1289     5213 
    7230     8064     9913    13483    17292    20790    22692    20108 
   15859    15026    16092    17242    20582    24402    24567    23072 
   24170    26125    25536    24417    24957    23715    18488    12711 
    8367     4349     1669     2191     5475     9254    11418    12657 
   13986    12376     6212     1547     4187    10844    15961    19286 
   21316    20997    19634    18701    16713    13825    11735     8816 
    5590     6820    11334    12085     7649     4167     5755    10370 
   15642    20792    23593    22442    19344    16937    15165    11566 
    5432     1719     4133     8340     9887    10336    12046    13728 
   12097     7561     5653     9333    15461    20340    22709    23566 
   24070    22222    18061    16762    18846    18295    12656     6732 
    5869     7422     5753     3437     4866     6770     6042     5648 
    7557     9532     9733     9404    11221    15447    19198    20682 
   20788    20429    19804    19232    19252    20073    20428    19249 
   17583    16591    16255    15117    11711     8317     7530     6999 
    4746     3850     6822    11084    13119    13410    13855    12715 
