Origin Time       2016/04/16 01:25:00
Lat.              32.753
Long.             130.762
Depth. (km)       12
Mag.              7.3
Station Code      OIT015
Station Lat.      32.9722
Station Long.     131.3970
Station Height(m) 260
Record Time       2016/04/16 01:25:17
Sampling Freq(Hz) 100Hz
Duration Time(s)  190
Dir.              N-S
Scale Factor      7845(gal)/8223790
Max. Acc. (gal)   153.219
Last Correction   2016/04/16 01:25:17
Memo.             
[...]
   -8991    -8988    -8988    -8988    -8991    -8995    -8992    -8985 
   -8985    -8989    -8991    -8991    -8995    -8996    -8991    -8985 
   -8982    -8984    -8992    -8997    -8992    -8988    -8988    -8986 
   -8989    -8996    -8991    -8982    -8992    -8996    -8991    -8993 
   -8995    -8992    -8989    -8984    -8985    -8992    -8991    -8993 
   -8995    -8986    -8989    -8989    -8984    -8989    -8992    -8988 
   -8992    -8996    -8991    -8985    -8985    -8989    -8995    -8996 
   -8996    -8996    -8989    -8980    -8985    -8993    -8992    -8991 
   -8991    -8989    -8988    -8985    -8984    -8992    -8993    -8986 
   -8989    -8993    -8988    -8985    -8988    -8988    -8989    -8993 
   -8995    -8993    -8991    -8989    -8986    -8989    -8989    -8986 
   -8991    -8996    -8996    -8988    -8985    -8988    -8986    -8984 
   -8993    -8995    -8985    -8984    -8989    -8991    -8989    -8989 
   -8991    -8991    -8988    -8988    -8993    -8991    -8982    -8984 
   -8993    -8997    -8995    -8991    -8989    -8989    -8982    -8978 
   -8992    -9000    -8995    -8989    -8988    -8989    -8989    -8986 
   -8988    -8991    -8988    -8989    -8995    -8993    -8986    -8984 
   -8985    -8989    -8992    -8991    -8991    -8986    -8985    -8991 
   -8992    -8988    -8988    -8991    -8995    -8995    -8989    -8985 
   -8989    -8989    -8986    -8989    -8992    -8993    -8993    -8993 
   -8993    -8988    -8981    -8986    -8992    -8992    -8992    -8985 
   -8984    -8995    -8995    -8986    -8989    -8991    -8986    -8985 
   -8992    -8993    -8988    -8986    -8992    -8992    -8988    -8989 
   -8991    -8988    -8991    -8992    -8991    -8986    -8985    -8988 
   -8991    -8996    -8993    -8982    -8984    -8995    -8992    -8989 
   -8995    -8991    -8984    -8989    -8993    -8991    -8989    -8991 
   -8993    -8992    -8988    -8989    -8995    -8996    -8988    -8984 
   -8988    -8993    -8992    -8989    -8992    -8995    -8989    -8988 
   -8993    -8992    -8984    -8982    -8986    -8992    -8995    -8995 
   -8989    -8985    -8985    -8991    -8995    -8995    -8993    -8989 
   -8989    -8991    -8986    -8989    -8996    -8992    -8986    -8989 
   -8991    -8992    -8996    -8995    -8995    -8993    -8991    -8989 
   -8991    -8996    -9001    -9001    -8996    -8993    -8996    -8997 
   -8999    -8997    -8989    -8986    -8997    -9008    -9008    -9007 
   -9009    -9007    -8996    -8989    -8988    -8984    -8988    -9000 
   -9012    -9019    -9023    -9026    -9023    -9008    -8989    -8985 
   -8991    -8999    -9015    -9034    -9034    -9001    -8958    -8935 
   -8942    -8955    -8966    -8992    -9028    -9059    -9073    -9040 
   -8955    -8893    -8914    -8954    -8915    -8838    -8876    -9038 
   -9153    -9101    -8977    -8955    -9047    -9063    -8954    -8883 
   -8891    -8892    -8918    -8958    -8926    -8959    -9173    -9306 
   -9213    -9038    -8835    -8691    -8746    -8800    -8745    -8927 
   -9312    -9424    -9294    -9262    -9269    -9188    -9175    -9194 
   -8919    -8506    -8446    -8768    -9239    -9657    -9769    -9516 
   -8993    -8375    -7969    -7863    -7959    -8374    -9135    -9902 
  -10253   -10080    -9517    -8685    -7929    -7649    -7717    -7974 
   -8517    -9205   -10006   -10806   -10876    -9965    -8731    -7811 
   -7530    -7900    -8637    -9420   -10018   -10185    -9691    -8664 
   -7576    -7145    -7964    -9454   -10384   -10440    -9882    -8757 
   -7657    -7524    -8301    -9174    -9634    -9769    -9917    -9964 
   -9618    -8985    -8421    -8191    -8175    -8496    -9386   -10129 
  -10158    -9899    -9718    -9710    -9369    -8071    -7146    -8095 
   -9433    -9477    -8926    -8765    -9428   -10489   -10446    -9171 
   -7900    -7493    -8340    -9317    -9194    -8818    -8892    -9173 
   -9732   -10055    -9377    -8267    -7933    -8583    -9327    -9539 
   -9350    -9140    -9394    -9753    -9301    -8410    -7838    -7585 
   -7912    -9078   -10237   -10139    -9004    -8363    -8715    -8976 
   -8658    -8730    -9373    -9553    -9158    -8918    -9327   -10098 
   -9882    -8486    -7652    -8006    -8553    -8985    -9832   -10937 
  -11160   -10455    -9957    -9166    -7496    -6716    -8149   -10466 
  -11254    -9996    -8543    -8630    -9918    -9787    -7487    -6178 
   -6646    -7105    -8459   -10863   -12322   -12577   -11580    -9175 
   -7160    -6482    -6463    -7484    -9544   -10922   -11070   -10921 
  -10227    -8461    -6917    -7028    -8186    -9454   -10589   -10403 
   -9548   -10416   -11450   -10567    -9485    -9151    -9022    -9081 
   -8965    -9081    -9702    -9563    -9348   -10282   -10033    -6979 
   -4284    -5687    -9794   -12239   -12117   -11105    -9988    -9198 
   -8492    -7388    -7020    -7749    -8283    -9919   -13505   -14790 
  -12117    -9069    -7172    -6616    -7327    -7465    -7655    -9364 
  -10616   -10002    -8449    -6814    -5957    -6446    -7987    -9626 
   -9115    -6732    -6949   -10428   -13782   -15196   -13216    -8667 
   -4966    -3292    -4068    -8037   -13693   -17610   -16992   -12735 
   -8259    -5034    -2710    -1956    -4282    -9674   -15117   -16357 
  -12441    -7183    -4656    -5575    -8748   -12779   -14196   -10187 
   -5842    -6925    -9767   -10192    -9977   -10434   -11086   -11936 
  -11974    -9655    -6573    -6330    -9628   -13770   -15168   -11706 
   -5575    -2691    -5667    -9610   -10245   -10012   -11024   -11758 
  -11098    -8473    -4496    -2330    -4487    -9404   -12969   -13400 
  -11577    -8507    -6431    -7111    -9104   -10611   -10795    -9774 
   -8961    -8661    -8812   -10289   -12193   -12571   -11086    -8679 
   -6663    -6006    -6937    -9236   -11792   -12278   -10389    -8510 
   -7333    -7443    -9679   -11265   -11187   -11288   -10871    -9817 
   -9466    -9470    -8431    -6235    -5798    -8910   -12432   -13481 
  -12762   -11367   -10072   -10065   -11125   -10484    -5343      -47 
   -3565   -13425   -19074   -19701   -18563   -13578    -5437      387 
     792    -2346    -5459    -8734   -14486   -18917   -15465    -7267 
   -3071    -4199    -5699    -4194    -1480    -2338    -8542   -16809 
  -22248   -23175   -20763   -15261    -7935    -1512     2512     2102 
   -4344   -15047   -25165   -29170   -25525   -16964    -7638     -936 
    2308     1606    -2860    -9532   -18149   -25706   -25182   -15889 
   -5351     2101     5705     1971    -7654   -15387   -19834   -23799 
  -23329   -15059    -5809    -2732    -6840   -16668   -24281   -22773 
  -15901    -5981     3580     3472    -3604    -8113    -9144    -7196 
   -4215    -5845    -9724    -9239    -6615    -5313    -4363    -6914 
  -12486    -9379     2772     7515      557    -8543   -14926   -15313 
   -9130    -3149    -1609    -2884    -1300     4882     7017     4175 
    1038    -7619   -15215   -10770    -6720   -10210   -12383   -13701 
  -15685   -17247   -21177   -20169    -9499    -2079    -3105    -7586 
  -12256    -7990     -275    -8622   -21045   -15749    -8476   -16721 
  -21358    -3734    15136     9983    -7479   -20722   -31842   -35252 
  -23028    -7217     1535     4360    -1348    -8586   -11250   -22840 
  -36481   -28904    -2636    22518    22923    -2506   -22632   -26052 
  -27475   -28278   -16330     7416    18594     4617   -12044   -14285 
  -13914   -22036   -30948   -26913    -9390     9936    24201    25475 
    7044   -17933   -34711   -38739   -28198   -15823   -14330    -9310 
    9996    22665    13274    -6890   -24842   -37274   -42022   -31499 
   -7227    11635    21226    30717    23433    -8700   -35914   -42391 
  -34661   -13321    15368    37675    36813     5217   -26094   -25575 
  -13375   -15330   -19761   -15721   -10574    -7901    -6493    -5347 
   -6906   -14319   -19461   -15437   -11128   -14189   -18569   -18058 
  -12630      877    16623    15961      -75   -17116   -29759   -28694 
  -12148     5324    12519     8735     7107    15138    15970    -2000 
  -25205   -36300   -32680   -19071      596    16394    12942    -6252 
  -15978   -17929   -30592   -38092   -31766   -27272   -15761    10350 
   27564    15934   -14775   -32050   -26504   -21749   -18067    -4530 
    4889     8533    13643     6705   -14181   -31438   -37254   -29079 
   -4453    18793    16329    -3208   -17482   -24611   -27128   -16964 
    7414    19611     1903   -12367     3096    24741    23206    -6972 
  -43325   -57241   -43970   -15028     7693    11851     9512     3551 
  -11538   -32845   -54468   -63162   -52145   -26126    12487    48840 
   53771    27284    -1988   -28845   -51595   -48072   -21246     5719 
   24575    33462    25759     5833   -10748   -28050   -46502   -45037 
  -27072    -9119     8876    24349    29177    15581   -14723   -35951 
  -30836   -17138    -8671     1971    12144    10010     5760    10255 
    5713    -9979   -21041   -31145   -38543   -38514   -30109    -3674 
   27224    39219    29069      -37   -33647   -53040   -58571   -54445 
  -31295     5532    29104    33351    21166   -18179   -58725   -62183 
  -41928   -15007     6143      606   -13863   -17636   -10806     4459 
    8029     8005    18954    10193   -19703   -35422   -30605   -17727 
   -5594    -3627   -12382   -24428   -37119   -34222   -10247    -1012 
   -5231     7608     7192   -20578   -33604   -31085   -27055    -2731 
   34017    55351    48778    10535   -30885   -45624   -43935   -29525 
    1254    27488    22234   -10752   -34175   -37180   -32115   -18594 
   -8542      502    19407    22050      -83   -18624   -17008    -4689 
   -3569   -13950   -13775    -1039     3459    -3365      832    14052 
    7468   -14882   -34744   -52387   -54544   -32112      -99    27962 
   30618    -2798   -31834   -32179   -38757   -54326   -44825   -16055 
   15206    45770    45364   -10951   -71008   -67386   -17790    22188 
   35478    33905    19863    -9682   -30915   -30859   -34020   -42288 
  -40728   -34186   -15913    11280    10602   -18804   -36578   -37188 
  -34169   -17720     7311    17760     8371    -6620    -6613     3892 
    6546    11751    19063     5499    -6330     6585     2998   -21567 
  -23750   -18628   -26010   -22462    -7383    -7723   -31228   -37269 
    3199    33372    12561    -3805     4735    -7535   -28281   -22845 
   -9778    -3457     4985    21416    39561    38816    19101      110 
  -18893   -40325   -48049   -37351   -18038     7273    27087    16470 
  -21305   -50390   -52938   -43276   -31772   -21344   -17489   -11418 
    3451    13255     9637    -4017   -20181   -23171   -12939    -9505 
  -17134   -19261    -4788    10936    13659     9224    -2688   -14949 
  -18921   -19184   -14307   -20134   -45303   -54572   -38123   -23499 
  -14419    -4675     -359    -6266   -15286   -13081    -6760    -4125 
    7307    19325    14702     3956      251    -6003   -17508   -17891 
   -7462     3713    11291     6039   -11666   -29956   -37392   -28212 
   -9984     3141     3244    -4885   -15653   -27760   -29709   -17825 
   -3581     7979     9911     -266    -9544   -13321   -19072   -26230 
  -20596    -3330     1930    -5864   -11863   -18439   -23680   -19908 
  -16937   -23915   -28938   -22346   -16677   -18540   -15431   -10779 
  -14651    -9549     6951     5358   -10314   -10104     -263    -4220 
  -14187    -8364     2121    -4739   -11838    -1402     2168   -17473 
  -33110   -26497   -18342   -15223    -3001     6913       98   -12029 
  -20687   -31626   -38348   -28873   -14964    -4530     6876    13057 
   13009     4554   -10646   -13903    -6088      -21     1873    -2998 
   -9360    -9126    -3838      760     3568     3161   -13796   -41199 
  -48077   -34834   -24653   -16799    -5498     -909    -7646   -16908 
  -24737   -37405   -48242   -40309   -21942   -13755   -12114    -5793 
   -3816   -12117   -16065   -11569    -9319   -12225   -19489   -31098 
  -38618   -29385    -8464     5541     7624     -144   -10535    -3557 
   10922     3121    -7782     6513    30024    47864    62410    74390 
   82822    82212    76550    75742    71493    59918    54367    54824 
   51057    41551    21317   -12756   -47252   -70339   -81081   -79940 
  -69568   -60867   -61890   -62683   -56954   -53442   -49333   -35475 
  -17286     1210    27565    55113    65372    65438    76378    95014 
  105241   105919    97442    75851    55333    45285    34780    22669 
   11628    -5190   -30925   -57892   -73867   -77595   -82341   -97247 
 -108244   -95867   -66714   -38024   -10918    13705    24900    25748 
   27851    34047    52664    86738   113896   116319   106621    98548 
   87007    69574    54376    49634    55891    60534    49742    25558 
   -2123   -24711   -34237   -34850   -37925   -44986   -54907   -68512 
  -85075   -96557   -83826   -47540   -13278      996   -17780   -56840 
  -71555   -53477   -25726     4522    29841    40045    35810    19585 
    1810     3565    25656    44635    44092    24730     1456   -13230 
  -22420   -27793   -27742   -20054    -2226    11869    12613     8129 
  -10592   -49086   -79213   -85662   -77442   -60164   -47394   -50703 
  -60116   -57912   -31392     5412    26474    36292    42768    36401 
   24752    29538    47382    62001    83212   111142   110972    74337 
   34407     9699    -6023   -12995   -15398   -29062   -56716   -84955 
  -94306   -84766   -82989   -95519  -106879  -121790  -150241  -169607 
 -150620  -112939   -97748   -97657   -84897   -64386   -51634   -53133 
  -58432   -49011   -29882    -6295    24052    42145    35951    23074 
   21934    23777    11831    -1162    -2397    -2706     2408    20070 
   27700     7973   -28752   -60250   -65591   -42871   -11554     4881 
   -2907   -17377   -19693   -12166     6085    30763    34032     7515 
  -18873   -21015    -4930    15520    37091    58075    72756    77673 
   63904    21184   -27383   -42813   -30258   -22540   -26002   -23899 
  -15473   -21656   -42654   -56295   -60890   -67929   -74371   -69888 
  -51991   -31723   -25186   -32593   -38935   -37555   -34736   -35860 
  -38364   -40644   -46985   -46900   -25554     2119    17280    23179 
   21517     6644   -13675   -19357    -2783    21670    35329    36096 
   30974    19284     4045    -3840    -1092     3547    -3176   -16437 
  -13678     8278    36671    61690    63375    32481    -4116   -18357 
   -9981     5309    13702    15591    10663    -8334   -25473   -22736 
  -12726    -5917     -927     1688     9644    19353     8743   -20911 
  -48663   -62537   -53716   -24823    -2232    -9543   -38034   -62791 
  -72851   -70931   -62247   -48319   -35016   -36984   -53002   -61106 
  -50353   -33612   -26063   -29423   -41810   -55831   -52366   -31878 
  -16600    -8553      666     5046     2349    -8934   -35255   -55638 
  -38684     9999    62725    93208    83713    42939     1013   -16786 
   -4769    25741    53225    63805    66483    73876    86485    89379 
   64347    27063     7295     3794     5647    11115    16339    20164 
   18598     5800   -11053   -31364   -56335   -72482   -80339   -83241 
  -68613   -37465    -6408    13756    24911    22003    -9297   -45758 
  -49631   -34628   -20251     6334    31918    31758    21725    21689 
   31149    39274    31433     9003   -15566   -30144   -28387   -15900 
    3650    21433    21809     7668   -14910   -41851   -47849   -23873 
    5235    25713    30951    16360    -2944   -19300   -33119   -32097 
  -18438    -7481     1301     4715    -2107    -2625      947   -15105 
  -39793   -52911   -62698   -66588   -53727   -40859   -38819   -32877 
  -22512   -21307   -27872   -35498   -47424   -65997   -81847   -80069 
  -56397   -26339    -4706     8922     7701   -13265   -29425   -24043 
  -16752   -17412    -9819     4608    10469    14002    20683    13192 
  -10191   -26697   -32452   -39866   -42566   -30586   -19921   -26094 
  -36948   -41639   -44790   -45917   -41264   -32969   -22543   -13747 
  -17236   -31397   -39804   -36660   -24394    -6831     3672      423 
  -10567   -18108   -12457     1440    10666    10381     1363   -12330 
  -26806   -42601   -55715   -54722   -36275   -14230    -3388    -4762 
  -16159   -37250   -57245   -62830   -58739   -54251   -45617   -34570 
  -31612   -37226   -45226   -49593   -45747   -32242    -8866    15916 
   26563    14588   -13502   -36605   -45027   -51119   -56466   -47367 
  -25745    -9433    -2808     2933     3423   -11785   -34615   -50225 
  -54500   -43106   -19317    -3134     1742     8718    15411    12004 
   -2327   -18472   -21003    -7738    10419    27160    38716    45162 
   51655    56064    50117    33021    13513      945     3199    18567 
   29693    28953    23068    10932    -6561   -20869   -30412   -34900 
  -31816   -23496   -11191     2875     6531    -4429   -14601   -18227 
  -27144   -39182   -41192   -34265   -24938   -12984    -1147      523 
  -12611   -31369   -43875   -48170   -46773   -39248   -26950   -14227 
   -5185     2362    12793    13747    -3697   -22384   -30106   -29092 
  -19039    -2816    12050    19005    15195     7398      665   -13251 
  -33647   -41131   -27842    -7645    10706    27616    30319     7931 
  -22165   -36794   -33339   -18808     2420    20684    25822    22369 
   21963    28486    31230    18492      -94   -10604   -14615   -13710 
   -6021     2704     4095     -758    -5656   -11368   -17446   -19440 
  -17064    -6921    10049    22475    23868    11408    -9849   -22577 
  -18609    -3451    12361    19395    21088    20368    10809     2142 
    6064     6720    -5386   -11673    -3315     2416    -3736    -5822 
    6272    21103    28429    26057    10033   -15282   -29801   -23264 
  -10372    -4248    -2956    -5420   -10705   -11693    -8433    -9977 
  -15403   -14635    -7244    -2609    -7903   -19984   -26850   -23942 
  -18327   -11240    -1100     4699     6212    11134    13370     7663 
    5393     9647    10667     8854    10206    16150    23410    22015 
    9855    -2862   -12806   -20170   -19084   -11389    -4438     2041 
    6616     4708     -184    -3383    -8290   -15138   -14042    -5505 
   -4537   -12847   -16785   -11450    -6633   -10072   -15047   -13953 
   -8332     3834    22590    30727    15115   -11476   -27976   -25972 
  -10727     7356    19908    21794    13640     2976    -3499    -6023 
   -5655     -305     8152    12995     8657    -3353   -12609   -13806 
  -13900   -15691   -14841   -14168   -16388   -13289    -3723     1453 
    -122    -6427   -20767   -36880   -40502   -30553   -18615   -11521 
   -6100     -710     -621    -6322   -11950   -14432    -9273     6833 
   20683    17664     6300    -1539    -6278    -5602       93     1904 
   -2149    -6737    -9178   -11105   -17586   -28914   -36013   -34766 
  -29119   -20302   -10130    -3041    -3349   -14419   -31283   -42260 
  -40114   -27473   -14445    -9915   -16561   -28633   -33886   -27074 
  -16097   -12725   -19781   -28016   -30388   -26932   -16938    -4521 
    3838     8148     6212    -3622   -12187   -10763     -977    10287 
   17268    18150    13849     7327     4276     6066     6006     1499 
   -3763    -9714   -14242   -10930    -1979     3303      761    -5879 
