Origin Time       2016/04/16 01:25:00
Lat.              32.753
Long.             130.762
Depth. (km)       12
Mag.              7.3
Station Code      OIT018
Station Lat.      32.7972
Station Long.     131.9251
Station Height(m) 10
Record Time       2016/04/16 01:25:24
Sampling Freq(Hz) 100Hz
Duration Time(s)  107
Dir.              N-S
Scale Factor      7845(gal)/8223790
Max. Acc. (gal)   37.961
Last Correction   2016/04/16 01:25:25
Memo.             
[...]
   -3315    -3034    -2274    -1368     -974    -1162    -1246    -1011 
   -1210    -1705    -1503    -1239    -1657    -2359    -3280    -3780 
   -2898    -1038      585     1074      664      112     -437     -987 
   -1487    -2417    -3880    -4772    -4472    -3646    -2944    -2184 
   -1150     -496     -109      549      337    -1032    -2093    -2492 
   -2786    -2663    -1310      360      133    -1499    -1796     -558 
     637     1468     1131     -787    -2494    -3049    -2639    -1799 
   -1594    -1572    -1582    -2639    -3653    -3245    -1825      -60 
     784     -176    -1291    -1347    -1212    -1057    -1112    -1644 
   -1998    -2791    -3646    -2484     -303      391     -418    -1535 
   -2316    -2569    -2359    -1973    -1825    -1859    -1872    -2664 
   -4180    -4530    -3196    -1707    -1230    -1163     -602        5 
     486     1312     2029     1826      909      241     -144    -1553 
   -4118    -5424    -3901    -1065     1133     1868     1228      392 
     321       54    -1667    -3866    -5235    -5896    -5830    -4444 
   -1722      677     1075      702     1642     2758     1830     -395 
   -1998    -2139     -913      -10    -1189    -3568    -5124    -5123 
   -3815    -2486    -2469    -3429    -4735    -5408    -4548    -3041 
   -1663    -1364    -2498    -2636     -973      493     1074      932 
     259      510     1995     2940     2745     1971     1084      425 
    -176     -544     -811    -1806    -3256    -3688    -2400    -1101 
   -1216    -1755    -1745    -1075     -344       36      805     1710 
    1189     -749    -2330    -3144    -4166    -5186    -5595    -4834 
   -2363     -152     -496    -2581    -5192    -6739    -4679     -564 
     857    -1736    -5011    -5778    -4535    -2556    -1007    -1973 
   -3877    -3150    -1229    -1179    -2353    -2934    -2350     -824 
    1026     2089     1302      141     1248     3925     5130     3855 
    1895      -47    -2286    -3218    -2875    -3191    -3612    -3330 
   -3225    -3242    -2168     -129     1086      884      357     -128 
   -1286    -3156    -4352    -3245      187     2849     1354    -2045 
   -2725    -1333     -456     -330    -1350    -3574    -5494    -5278 
   -3472    -3899    -6453    -6480    -3689     -850      344    -1383 
   -4772    -6399    -4174      530     3242     1718    -1570    -3504 
   -2388     1282     4124     3890     1912     -498    -2601    -3107 
   -2652    -2523    -2169     -922      756     1246      194     -672 
    -789     -392      321      122    -1715    -4213    -5726    -5706 
   -4668    -2863    -1117     -641    -1123     -980      741     2718 
    3316     2915      599    -4355    -7901    -7115    -3820     -864 
    -450    -2039    -3750    -4619    -3520    -1763    -1401    -1719 
   -2529    -2964    -1383       13    -1059    -3149    -3562     -922 
    2343     2816     1123     -417    -1183    -1749    -2255    -2849 
   -4302    -5599    -5427    -4442    -3358    -3136    -3982    -3944 
   -1854      824     2660     3842     4283     4307     4243     3674 
    2971      525    -4837   -10142   -12523    -9636    -2016     3716 
    3555      109    -2664    -1822     1127     1804      -64    -2643 
   -4930    -5448    -3844    -1493      473     1764     1906     1081 
     454     -643    -2782    -4602    -6394    -8245    -7825    -4745 
   -1128     1706     2677     1039     -781     -824     -583     -791 
   -1090     -799      434      997      503     -741    -2961    -4495 
   -3873    -1188     1572     1626     -461    -2744    -4498    -4741 
   -3424    -1661     -496    -1593    -4240    -4495    -1844     1279 
    3555     3530     2331     1852      -16    -3501    -5551    -5220 
   -3924    -3627    -4128    -4120    -3242     -363     2227      180 
   -4095    -5964    -4611    -1692     -912    -3163    -4560    -2964 
     224     2621     2520      643     -767     -560      672     1012 
    -521    -1658     -403     1273      928     -518    -1057    -1112 
   -1790    -2635    -3573    -4289    -3358    -1610    -1556    -3291 
   -3920    -1795      585     1420     1535      783     -660    -1333 
   -1104    -1518    -2704    -2651    -1701    -1502     -885      434 
     370    -1078    -2705    -4419    -5555    -5175    -3496    -2030 
   -1732    -1107     -413    -1532    -2887    -3443    -4291    -4665 
   -4393    -4295    -3026     -274     1297      997      212     -542 
       1     2215     3169      927    -2533    -5090    -5927    -3986 
    -691      741      328     -383    -1277    -2274    -3303    -4077 
   -3557    -1878     -216      872     1598     2196     1945      441 
   -1060    -1003       16      136      -70     -294    -1891    -3561 
   -4023    -4222    -4072    -3462    -3673    -4271    -3308    -1193 
     641      992     -457    -1632    -2347    -2911    -1755    -1030 
   -2427    -2920    -1752     -137     2030     3213     2034      128 
    -388      221     -529    -2803    -4615    -5205    -3183      228 
    1031      672     1543     1506      540       14    -1394    -3480 
   -4117    -3433    -2482    -1298     -386     -460    -1982    -4360 
   -4997    -3435    -1810     -654     -504    -2347    -5154    -7006 
   -6336    -4083    -3207    -3890    -4874    -5112    -3241     -934 
    -673     -962      202     1439     1113      -32    -1077    -1556 
   -1232     -882    -1459    -2702    -3119    -1925      464     2824 
    2963     1047      -90      -64     -532    -1525    -2512    -3037 
   -2344    -1086      -58     1115     2157     2496     2083     1125 
     298     -745    -2755    -4180    -4263    -4571    -4680    -3653 
   -2567    -1803     -872      743     2797     2876      588    -1513 
   -2997    -4332    -5401    -6562    -7668    -7901    -6065    -2882 
    -743      105      766     1328     1178      614       75     -704 
    -405      874      151    -2137    -3160    -2146      743     3796 
    4029     1402     -810     -816     -325     -648    -1535    -3335 
   -5181    -5196    -3599    -1779     -831    -1179    -1912    -1356 
     475      827    -1636    -4820    -6563    -6833    -6681    -5940 
   -4314    -2304       10     2303     4118     5005     4329     2107 
   -1038    -4003    -5493    -5136    -4301    -4464    -4796    -3592 
   -1192     1102     3127     3847     2111     -187    -1377    -1815 
   -1695    -1671    -1975    -1691    -1156    -1321    -2073    -1944 
     109     2172     2587     1830      141    -1456    -1629     -943 
    -787    -1864    -3584    -4421    -3547    -1445      693     1331 
     517     -110     -467     -737      -93      568     -645    -3192 
   -4128    -2255     -202     -270    -1494    -1547       91     1178 
     517     -529    -1424    -2810    -3838    -3283    -2490    -2297 
   -1845    -1854    -1705     -244      560     -117    -1239    -1744 
   -1138     -727     -776     -565     -715    -1263    -1408    -1121 
    -949    -1539    -2747    -2840    -1363     -236     -321     -730 
    -521      388      924     -383    -2839    -3450    -2204    -2039 
   -3150    -3993    -4212    -4013    -3812    -3334    -2319    -1447 
    -762     -383    -1105    -2717    -3653    -2980    -1680     -579 
    -140     -976    -1677     -603      965     1447      778     -931 
   -2635    -3492    -4245    -4912    -4718    -2928     -369      238 
    -710     -804     -646    -1132    -1237     -493      -58     -741 
   -2025    -3495    -4502    -4088    -2964    -2619    -2629    -1632 
    -438     -326     -373     -324    -1071    -1975    -2354    -2829 
   -3615    -3762    -2802    -1768    -1781    -2592    -2809    -1813 
    -765     -938    -2288    -3086    -1387     1179     1478      112 
   -1016    -1381     -664      386      819      727      -13     -600 
     191     1300     1410       99    -2293    -3582    -3457    -3447 
   -3164    -2358    -1404     -537      492     2759     4467     3300 
    1287      623      456     -677    -2428    -3326    -3169    -3252 
   -3965    -3728    -2567    -2600    -3033    -2251    -1582    -1096 
    -144     -560    -2577    -4639    -5881    -5319    -4078    -4550 
   -5864    -5771    -3878    -1000      939      237    -1575    -1784 
   -1084    -1566    -2292    -1734    -1291    -2262    -3284    -3229 
   -2413    -1093      355      889     -616    -3213    -4399    -3904 
   -3002    -2033    -1044       65     1582     3044     3399     2278 
    1223     1024      126    -1495    -3261    -5347    -5836    -3839 
   -1449      -86      -99    -1381    -2583    -2239     -680      367 
      52    -1746    -4718    -6704    -6571    -5617    -4461    -3461 
   -3025    -2471    -1339      -52      603      837     1948     3245 
    2953     1717      984     1243     2253     2430      843    -1019 
   -2300    -2974    -2101     -561     -241     -981    -1715    -1632 
   -1350    -2293    -4298    -6174    -7069    -7227    -7614    -7955 
   -7253    -5923    -4787    -3813    -3090    -2144     -816     -508 
   -1217    -1921    -1825      473     3568     3859     1147    -2023 
   -3418    -2230       93     1878     2802     2924     2411     1425 
     529      -49    -1244    -2702    -2898    -2163    -1746    -1791 
   -1443      197     1460      571     -483     -929    -1864    -2536 
   -2999    -3813    -4286    -3996    -3171    -2751    -3079    -3373 
   -3249    -2334     -595      845      997      120     -932    -1505 
   -1462    -1255     -861     -866    -2297    -3497    -3358    -2874 
   -1591       93      365     -637    -2230    -3939    -4040    -2084 
    -780    -1698    -2447    -1431     -197      795     1729     1074 
    -553     -479      661     1213     1674     1275      129      409 
    1138      403    -1826    -4654    -6438    -6889    -6218    -4417 
   -3223    -3666    -4765    -5767    -6293    -6515    -7015    -7340 
   -6891    -6097    -5651    -5795    -5782    -4876    -3573    -1846 
     812     3306     4213     4200     4656     4396     2178     -379 
   -2390    -3816    -3874    -3082    -2327    -1922    -2625    -4263 
   -4965    -3746    -1412      743     1273      325     -864    -2277 
   -2893    -1864     -993    -1008    -1395    -2155    -2852    -3492 
   -4118    -4553    -5502    -6708    -6652    -5368    -4334    -4140 
   -4114    -3148    -1000     1181     2533     2934     2107       36 
   -2182    -2875    -2471    -3231    -5541    -7643    -7342    -4402 
   -1216      823     2201     3501     4581     4421     2652      560 
    -268       79      186     -873    -2737    -3550    -2336     -506 
    1044     2278     2810     2779     2269     1144     -394    -2289 
   -4166    -5208    -5305    -5377    -6193    -6924    -5584    -1656 
    2559     4276     2474    -2255    -8160   -13343   -16312   -15966 
  -13574   -12000   -11207    -9175    -6327    -3942    -1480     1386 
    3979     5597     6052     5984     5757     5194     3673      916 
    -846      745     4661     8714    11535    11830     9221     4927 
    1026    -1765    -5609   -10833   -13886   -13724   -12942   -12795 
  -12997   -13463   -13618   -12945   -12159   -11419    -9687    -7515 
   -6274    -5082    -2569      751     3726     5464     5296     3191 
    -301    -4460    -8904   -13278   -16491   -17178   -14490    -9657 
   -5682    -3965    -3549    -2008     2087     6370     7936     6219 
    2373    -1345    -3983    -6315    -8289    -8253    -5228     -198 
    4994     8476    10012    10716    11318    12343    13058    11286 
    6076     -730    -6378    -9219    -8814    -6706    -5942    -8048 
  -11681   -14746   -16417   -16984   -18031   -20714   -22740   -21914 
  -19769   -17621   -14793   -11195    -7597    -5177    -4330    -3936 
   -3677    -4067    -5044    -6254    -7200    -8629   -11601   -14125 
  -13779   -11245    -7657    -3743     -915      706     2184     3358 
    3578     4174     6897    11101    15429    19094    21181    21170 
   19560    17343    14650    10620     4753    -2058    -8160   -12934 
  -16915   -19678   -20131   -19009   -17334   -14886   -11977    -9437 
   -7707    -6323    -3651     1799     9717    17308    20727    18258 
   11889     5840     3153     2933     1771    -1868    -6380    -8876 
   -6974    -1314     4486     7604     7114     3821      413    -2254 
   -5599    -8507    -9562   -10546   -11638   -11146    -9678    -7823 
   -4546      722     6042     8314     8510    10187    13085    14401 
   13555    10916     6831     3828     3445     4209     5263     6733 
    8286     9979    12694    15525    14677     8837     2261     -612 
      85     1379      224    -4733   -11219   -15348   -16236   -15882 
  -14979   -11988    -7807    -6990   -11232   -15889   -14983    -7942 
      59     4650     6444     8561    12928    18922    23958    25517 
   23267    19021    14813    11161     6640      370    -5536    -8510 
   -9360   -11603   -17194   -23410   -24795   -19534   -12236    -8171 
   -7730    -7596    -5209    -2370    -2523    -4774    -5281    -2627 
     897     2342     2242     3142     5468     7905     8784     7592 
    5566     3403     1395     -442    -3585    -8205   -12082   -13825 
  -14298   -15522   -18527   -21620   -21635   -17659   -12623   -10361 
  -10268    -6798     2794    14823    24410    29538    31668    33538 
   36148    38300    37454    32478    24934    17377    11789     8431 
    6675     5078     1260    -4823    -9649   -10872   -10602   -11665 
  -14845   -18793   -19867   -16430   -11749    -9842   -11477   -14509 
  -16552   -17134   -17084   -16665   -14773   -10121    -4460     -212 
    5057    13070    19538    20908    17922    12341     5243    -2355 
   -8896   -13918   -18430   -22928   -27418   -31406   -33862   -34574 
  -32529   -25797   -16275    -8781    -4862    -1655     4305    12897 
   20969    26757    29768    28131    20688    11164     5679     5024 
    4972     2994      -76    -1039     2951     8974    11493    10315 
    7801     3812    -2039    -7939   -10737    -8812    -3931      -62 
     702      792     2340     3491     2847     1637      849     -819 
   -5289   -10917   -14908   -17583   -19935   -22333   -24106   -23600 
  -21060   -17675   -14121   -11022    -7836    -3686     1665     8676 
   16731    23598    26973    25555    20569    14634     9424     5899 
    2357    -3078    -7311    -8120    -6863    -3916     -870     -526 
   -2830    -6041    -8549    -9350    -8384    -6126    -4984    -7862 
  -13238   -17339   -18226   -14901    -7898      407     7236     9973 
    9790    11866    17938    23984    24439    17463     8500     3962 
    3464     4148     6262     9139     9489     7172     4544     2323 
    1752     3373     3109    -2882   -12282   -19777   -22887   -22577 
  -20387   -16267    -9298     -661     6222     9391     9648     7663 
    3464    -1336    -5186    -7789    -8097    -6297    -4653    -4009 
   -4513    -6336    -7113    -4406      266     3778     4517     2612 
     214    -1042    -2315    -3690    -3314     -978     2891     7890 
   11573    12702    13621    15180    14925    11335     5329     -881 
   -4576    -4510    -2511    -1551    -2474    -3315    -2792    -2263 
   -2365    -1903      271     4905    11003    15140    14972    11643 
    7138     2748    -1129    -6058   -11608   -13365    -9863    -4955 
   -1352     2079     6355    10527    13440    14724    14609    12737 
    8406     2506    -2844    -6369    -8133    -8063    -6548    -5552 
   -5570    -5533    -5675    -5730    -4602    -2926    -1210     1359 
    4514     6609     5476      783    -3670    -3595      575     3788 
    2064    -2802    -6242    -6872    -6581    -7005    -8947   -11962 
  -13612   -11786    -7447    -3998    -2704    -1590     -105      436 
    -108     -503      284     1424     1556     1582     3123     5935 
    9117    12394    14737    14736    12556     9111     5109     1806 
     834     2654     5416     6704     6952     8341    10206    10423 
    9302     8424     8803    10377    11620    10500     6417     1197 
   -1902     -800     2400     3962     4017     4171     4107     2925 
     199    -1748     -238     2380     2381      105    -1668    -1660 
    -715        9     -151     -626    -1397    -4738    -9844   -12252 
  -11140    -9601    -9219    -7438    -1850     4419     7060     5825 
    2740      297      220     2006     3950     4799     3700      853 
    -959      591     4426     8385    10035     8309     5432     2820 
      68    -1831    -2300    -2628    -3140    -2914    -2396    -2371 
   -1582      811     3569     5478     5925     4806     2250    -1179 
   -3873    -4956    -4598    -2965    -1333     -992    -1660    -3265 
   -5954    -8463    -9502    -9865   -11153   -13169   -14085   -11988 
   -6265      190     2952     2209     1795     3735     7754    11002 
   10489     7674     5317     3559     1516     -522    -2121    -4230 
   -6516    -6755    -3955      850     4852     5455     3761     2286 
     951     -648    -1435    -1090     -291      352     -259    -2224 
   -3511    -3630    -3542    -2241     -311     -540    -1498     -222 
    1547     1209     -207     -248     1638     3639     3489      853 
   -2390    -4955    -6812    -6947    -5328    -4392    -4811    -5105 
   -4797    -3316    -1092     -849    -2754    -4896    -7668   -10895 
  -12302   -11484    -9880    -7987    -6108    -4820    -3381    -1327 
    -378    -1318    -2359    -2627    -3046    -4240    -5975    -6386 
   -3478      854     2837     1980      564      392     1030      962 
    -194    -2362    -4723    -4729    -1779     1192     2856     5275 
    9053    11731    10899     6200      459    -2353    -1818    -1177 
   -3025    -6174    -7673    -6417    -3449    -1194    -1387    -3196 
   -4918    -5767    -6709    -9863   -14521   -17004   -16036   -13572 
  -11560   -10438    -9381    -8334    -8220    -8607    -8603    -8125 
   -7186    -6744    -8077   -10158   -10423    -8166    -5354    -3719 
   -3443    -3634    -3211    -2705    -2222    -1366    -1961    -4594 
   -7835   -11071   -13612   -15287   -16128   -15201   -12849   -10839 
  -10987   -13150   -13413    -9910    -6307    -5281    -5958    -6161 
   -4205    -1888    -2047    -4151    -6169    -6274    -3701    -1133 
   -1611    -3835    -5698    -7561    -8772    -7789    -5563    -4320 
   -5067    -6872    -7704    -7102    -6677    -7049    -7277    -6997 
   -6758    -7634   -10044   -12684   -14494   -15981   -17371   -18058 
  -18131   -18512   -19080   -17780   -13898   -10287    -9506   -10828 
  -11619   -10362    -8297    -6548    -4980    -4669    -6122    -7685 
   -8572    -9551   -11304   -13252   -13560   -11889    -9855    -8166 
   -6686    -5532    -4411    -2822    -1246     -855    -1215     -808 
     -35      398     1070     1554     1285     1143     1792     2826 
    2836     1038     -912    -1780    -2246    -2463    -2357    -2000 
    -796      373     -211    -1273     -896     -101        8       -8 
     116       67     -762    -2856    -4904    -5324    -4545    -3747 
   -4099    -5837    -6848    -5435    -3257    -2763    -3943    -5292 
