Origin Time       2016/04/16 01:25:00
Lat.              32.753
Long.             130.762
Depth. (km)       12
Mag.              7.3
Station Code      OIT001
Station Lat.      33.6783
Station Long.     131.5936
Station Height(m) 12
Record Time       2016/04/16 01:25:29
Sampling Freq(Hz) 100Hz
Duration Time(s)  208
Dir.              E-W
Scale Factor      7845(gal)/8223790
Max. Acc. (gal)   35.200
Last Correction   2016/04/16 01:25:30
Memo.             
[...]
   11935    12403    12141    10890     8815     6566     4668     3268 
    2408     2023     1952     2149     2533     2840     2886     2641 
    2091     1383      820      673     1256     2727     4828     7165 
    9185    10141     9860     8932     7924     7160     6890     6910 
    6558     5422     3707     2181     1757     2577     3928     5277 
    6539     7651     8573     9251     9516     9240     8390     6914 
    4845     2660     1144      702     1289     2604     4021     4911 
    4923     4017     2504      780     -757    -1657    -1725     -928 
    1013     4064     7299     9822    11551    12617    12865    11988 
    9724     6571     3851     2370     2004     2430     3250     4114 
    4899     5427     5644     5822     6069     6035     5337     4212 
    3566     4033     5313     6727     7792     8382     8683     8860 
    8982     9054     8640     7207     4918     2506      710     -282 
    -953    -1490    -1332     -251     1086     2124     2893     3329 
    3317     3397     4492     6779     9175    10343     9977     8796 
    7639     6889     6616     6841     7406     7933     8172     8284 
    8537     8974     9495     9741     9259     8144     7148     7213 
    8735    11110    13312    14511    13977    11435     7491     3321 
      83    -1609    -1777     -854      411     1364     1800     1787 
    1672     1954     2775     3815     4603     4946     5188     5710 
    6285     6426     6186     6008     5887     5568     5131     4824 
    4962     5991     7942    10017    11280    11418    10710     9779 
    9212     9018     8833     8472     7870     6984     5872     4669 
    3634     2940     2448     1956     1391      892      819     1479 
    2899     4772     6601     8064     9011     9388     9504     9666 
    9598     9067     8600     8916    10106    11583    12610    12845 
   12332    11105     9180     6721     4017     1468     -472    -1394 
   -1112       65     1553     3088     4748     6504     8047     9018 
    9493    10007    10817    11643    12172    12213    11646    10754 
   10017     9454     8826     8198     7840     7848     8097     8390 
    8681     9159     9979    11024    12050    12903    13629    14391 
   14952    14862    14200    13518    13301    13570    13718    13154 
   11998    10737     9633     8803     8310     7977     7515     7096 
    7354     8464     9713    10413    10558    10335     9752     8938 
    8280     7973     7723     7269     6675     6016     5213     4200 
    2955     1521      205     -502     -328      483     1379     1972 
    2068     1668     1112      864     1296     2631     4916     7881 
   10953    13662    15601    16189    15149    12946    10494     8810 
    8428     8847     9127     8862     8124     7049     5764     4332 
    2914     1980     1960     2771     3942     4956     5431     5448 
    5466     5655     5714     5325     4669     4228     4050     3740 
    3157     2565     2110     1768     1657     1768     1849     1764 
    1544     1395     1737     2701     3823     4704     5464     6338 
    7348     8154     8322     8067     8040     8515     9398    10362 
   10887    10816    10478    10219    10168    10154     9957     9725 
    9624     9576     9460     9101     8486     7804     6995     6089 
    5485     5489     6156     7079     7461     7047     6264     5464 
    4814     4402     4058     3381     2162      656     -730    -1803 
   -2565    -3169    -3658    -3838    -3828    -4016    -4464    -5124 
   -5973    -6689    -6813    -6266    -5328    -4168    -2775    -1256 
     423     2682     5656     8737    10976    11797    11484    10766 
   10169    10068    10547    11340    12271    13242    14173    15125 
   15772    15322    13558    11087     8363     5557     3184     1809 
    1525     2116     3049     3550     3361     2841     2328     1992 
    1836     1732     1829     2331     2956     3273     3213     2949 
    2614     2324     2319     2720     3343     3958     4313     4245 
    3932     3555     3063     2420     1765     1502     2025     3013 
    3580     3188     1971      368    -1165    -2158    -2219    -1418 
    -407       95       67      202     1016     2442     4306     6219 
    7603     8391     8923     9477    10420    11902    13640    15255 
   16332    16410    15319    13370    11105     9045     7551     6706 
    6204     5463     4325     3388     3306     4275     6066     7955 
    8965     8355     5961     2558     -502    -2370    -3025    -2744 
   -1836     -591      785     2083     3192     4143     4914     5540 
    6069     6513     7071     7813     8387     8418     7651     5952 
    3591     1198     -566    -1308    -1107     -194     1387     3416 
    5354     6698     7121     6669     5872     5231     5000     5539 
    6934     8556     9837    10966    12247    13408    13910    13733 
   13279    12606    11356     9346     6917     4706     3079     2157 
    2068     2625     3379     4195     5217     6451     7560     8139 
    8275     8283     8177     8114     8490     9144     9212     7983 
    5524     2655      284    -1340    -2394    -2683    -1791      207 
    2648     4677     5756     5902     5418     4488     3277     2146 
    1372      901      711      895     1204     1258     1136     1320 
    2034     2882     3379     3549     3770     4468     5880     7647 
    8958     9370     8846     7292     5206     4121     5151     7798 
   10764    13073    14234    14185    13261    11790     9891     7727 
    5491     3237     1067     -909    -2739    -4286    -5078    -4598 
   -2619      542     3986     6858     9082    10889    12060    12330 
   11762    10470     8754     7318     6666     6646     6867     7121 
    7378     7531     7346     6775     6053     5460     5211     5431 
    6060     6934     8020     9331    10536    11009    10432     9090 
    7352     5240     2678     -120    -2535    -3852    -3805    -2525 
    -230     2597     5211     7044     8025     8456     8421     7580 
    5915     4017     2367      986     -117     -522      490     3268 
    7182    10972    13705    14982    14527    12291     8916     5501 
    2663      241    -1838    -3299    -4136    -4502    -4248    -3117 
   -1005     1912     4920     6870     6899     4918     1641    -1579 
   -3763    -4945    -5421    -5301    -4661    -3566    -2278    -1236 
    -579      -35      664     1247      895     -819    -3241    -5204 
   -5892    -5086    -2943       93     3172     5228     5664     4698 
    3036     1575     1102     1656     2616     3682     4865     5933 
    6732     7319     7581     7348     6754     6212     5972     5965 
    6186     6747     7530     8255     8779     9150     9491     9796 
    9942     9877     9585     8976     8098     7481     7770     8810 
    9514     8976     7346     5393     3597     1919      128    -1779 
   -3461    -4672    -5661    -6825    -8266    -9729   -10557    -9933 
   -7627    -4496    -1998     -918     -688     -103     1493     3793 
    5891     7028     7238     7013     6501     5610     4498     3632 
    3427     3910     4841     5960     7111     8131     8884     9587 
   10466    11291    11757    11659    10567     7958     3828     -900 
   -4689    -6462    -6278    -4920    -3132    -1225      595     1968 
    2758     3164     3311     3307     3474     4085     5194     6879 
    9259    12424    16251    20005    22563    23182    21586    17977 
   13475     9804     8160     8810    11445    15327    19473    23037 
   25564    27085    27870    28111    27857    26940    25389    23881 
   23017    22724    22720    22952    23568    24424    24853    24522 
   23943    23726    23881    23889    23295    22258    21455    21460 
   22310    23625    24711    24772    23566    21486    19028    16645 
   15074    15183    17167    20227    23145    25049    25737    25524 
   24818    23811    22504    20911    19047    16935    14877    13224 
   11983    11092    10679    10885    11367    11190     9757     7357 
    4530     1615    -1133    -3427    -5007    -5652    -5270    -4213 
   -3211    -2795    -3064    -3983    -5557    -7776   -10347   -12321 
  -12683   -11365    -8989    -6384    -4341    -2986    -2046    -1657 
   -2185    -3642    -5404    -6543    -6716    -6305    -5769    -5246 
   -4845    -4841    -5456    -6833    -8858   -11210   -13775   -16182 
  -17672   -18063   -17594   -16244   -14115   -11705    -9614    -7950 
   -6153    -3984    -1988     -724     -167      230     1065     2926 
    6293    10362    13450    15086    15403    13882    10818     7416 
    4573     3048     2886     3109     3361     3931     4379     4390 
    4369     4082     3099     2224     2463     3639     4831     5208 
    4603     3734     3429     3859     4746     5942     7275     8279 
    8761     9231    10111    10893    10867    10030     8787     7507 
    6535     6354     7020     7761     8047     7990     7811     7657 
    6768     4286     1896     1938     3778     5421     6336     7307 
    9069    11165    12356    12063    10702     9113     8078     7716 
    7561     7730     8428     9225    10728    14129    18650    22416 
   24537    24988    24262    23114    21764    19755    16661    12819 
    8981     5710     3936     4522     6866     9580    11780    12345 
   10329     6853     3724     1351     -144     -760    -1151    -1305 
   -1007    -1559    -4496    -9331   -14179   -18014   -20683   -21554 
  -19858   -16225   -12577   -10004    -8171    -7114    -7940   -10953 
  -14378   -16276   -16121   -14150   -10952    -7245    -3875    -1494 
     378     2471     4504     5826     6274     6255     6197     6016 
    5563     5212     5467     6326     7545     9182    11549    14771 
   18292    21020    22183    21585    19549    17136    15445    14875 
   15523    16780    17307    16777    16171    15838    15021    13543 
   12312    12182    13197    14577    15822    17257    18593    19259 
   19759    19992    18754    16017    12687     9494     7311     6781 
    7882     9919    11885    13099    13251    12702    12159    11465 
   10326     9652    10558    12978    16036    18544    19471    19198 
   19302    20476    22318    24609    27016    28879    29953    30150 
   29270    27535    25654    24044    22578    21203    20063    19053 
   18229    18318    19268    19761    19542    19325    18918    17825 
   16229    14932    14628    14955    14689    12556     8221     2469 
   -4293   -12002   -19261   -24123   -25952   -25419   -23875   -22677 
  -22333   -22292   -21627   -19568   -15703   -10775    -6081    -2069 
    1062     3121     4016     3582     2134     -440    -4413    -8571 
  -11481   -12772   -13100   -13347   -13240   -12303   -11481   -12143 
  -14323   -17201   -20227   -22572   -22663   -19178   -12494    -4615 
    2170     6690     9420    11059    11827    12483    13565    14280 
   13975    13765    15091    17907    21925    26643    30125    31402 
   31380    30314    28518    27106    26134    25523    25525    25061 
   23043    20162    17508    15398    14277    14220    14166    13656 
   12822    11394     9728     8579     8012     7580     7022     6548 
    5746     3738     1386      461     1449     3892     6728     8226 
    7634     6050     4036     1399    -1144    -3468    -6141    -8904 
  -11202   -12564   -12661   -11848   -10812    -9504    -7716    -6137 
   -5400    -5549    -6141    -6207    -5374    -3762    -1440      862 
    2555     3682     4329     5329     7398     9768    11956    14211 
   15637    15229    13671    12048    10779    10196    10320    10727 
   11070    11168    10885    10035     8699     7376     6219     4762 
    3217     2824     4062     6353     8980    11605    14550    17136 
   17382    14874    11502     8842     6913     5957     6558     8148 
   10411    13167    14818    14744    13458    10336     5493      588 
   -2922    -4256    -4113    -3726    -2818     -899     2280     6881 
   11292    14106    16114    17460    17367    16209    14733    13346 
   12291    11523    10947    10177     8688     6723     5188     4617 
    4223     2889      572    -2413    -5649    -7889    -7782    -5089 
   -1116     2155     4051     5252     5543     4347     2749     1694 
     857      492      966     1582     1611      922     -139     -924 
   -1254    -1374    -1007      471     3046     6070     8762    10216 
    9987     8604     6669     4672     3288     2691     2863     3724 
    4649     5589     7179     9462    11997    14389    16401    17992 
   19060    19252    18275    16641    15628    16106    18000    20773 
   23620    25510    25539    23502    20024    16060    12602    10230 
    8533     6943     5931     6004     6119     4868     2269     -662 
   -2712    -3449    -4349    -6554    -9003   -10901   -12343   -12779 
  -11661    -9310    -6810    -4606    -1923     1332     4199     6084 
    6594     5368     3380     1902      322    -2144    -4726    -6482 
   -7249    -7357    -7052    -6378    -6419    -8199    -9837    -8876 
   -5848    -2039     2444     7283    11886    15437    17043    17555 
   18701    20764    23464    26496    28895    30020    29751    28181 
   26113    24559    23953    23986    24400    25415    26611    27342 
   28027    29138    30350    31232    31611    31554    31467    31868 
   32998    34817    37107    39482    41465    42614    42218    39680 
   36131    33265    30630    27540    25281    24763    25085    25186 
   24405    22609    20865    19928    19315    18708    17716    15661 
   12691     9209     5545     2697     1192      799     1842     3836 
    5015     4723     3461     1695     -186    -2416    -6092   -11105 
  -15175   -16664   -15780   -13228   -10494    -9278    -9672   -11061 
  -13246   -15522   -16968   -17339   -16632   -14472   -10936    -7480 
   -5175    -3916    -4016    -5567    -7338    -8349    -8804    -8762 
   -7947    -6768    -5890    -5585    -6022    -7040    -8262    -9749 
  -11204   -11388   -10156    -8950    -8410    -7998    -7261    -5841 
   -3574     -718     2309     4837     6370     7173     7555     7129 
    5360     2847     1098      305     -544    -1036       72     2415 
    4572     5435     4491     2620     1310      791     1190     3157 
    5385     5875     5360     4974     4405     4356     5501     6210 
    4321     -349    -5665    -9309   -10481    -9458    -7573    -6336 
   -5734    -5441    -6008    -7584    -9359   -10227    -9987    -9693 
   -9825    -9728    -9096    -8262    -7639    -7414    -6782    -4841 
   -2614    -2010    -2960    -3253    -1667       63      -25    -1124 
   -1404    -1067    -1185    -1420    -1206     -986    -1260    -1522 
    -386     2486     5556     7700     8757     8051     5513     2276 
    -789    -3059    -4352    -5213    -5940    -5962    -3728     1501 
    7817    12553    14732    14669    12898    10520     8738     7492 
    6185     5317     6148     9273    14106    19178    22420    21926 
   17714    11757     5636      820     -652     1559     5753     9729 
   11970    13132    14901    17309    19379    20983    22005    21220 
   18473    15651    14103    13748    14084    14488    14925    15982 
   17302    17732    17077    16000    15390    16024    16972    16180 
   13169     8966     4615     1008     -972    -1090      -56     1602 
    3353     3284     -357    -6178   -10839   -12816   -12559   -11514 
  -11345   -11685   -11313   -10693   -10862   -12260   -14666   -16984 
  -17527   -15140   -11119    -8218    -6721    -5054    -4375    -7273 
  -12521   -15985   -15553   -12834   -10539    -9100    -6988    -3483 
     368     3019     4093     4467     4738     5135     6868    10836 
   15834    20174    22835    23544    24075    26195    28260    27544 
   24121    21297    22388    26555    30777    34514    38074    39958 
   38742    34996    30626    27160    25466    26160    28557    30424 
   30092    27872    25207    23539    23330    23445    23120    22635 
   21153    18083    14787    12241    10547    10741    13482    16258 
   15330    10739     5815     2177     -735    -2543    -2430    -1418 
   -1582    -3782    -6859    -9193   -10080    -9228    -7227    -5409 
   -4241    -3906    -4650    -5753    -6440    -6941    -7838    -9575 
  -11866   -13053   -12206   -10993   -10845   -11253   -12237   -14246 
  -16622   -18928   -20768   -20748   -18372   -15542   -14330   -14683 
  -16121   -18369   -19375   -17774   -15867   -15826   -16267   -15496 
  -14613   -14778   -14706   -13192   -10953    -9250    -8367    -7280 
   -5151    -3071    -2751    -3582    -3040     -683      693     -913 
   -4263    -7048    -7951    -6667    -3738     -403     1895     1833 
   -1297    -6601   -11592   -14187   -14513   -13917   -12712   -10319 
   -7223    -5112    -4467    -3904    -2710    -1344      618     3499 
    5767     6083     4843     3009     1863     2763     5481     8384 
   10438    11541    11075     7848     2392    -2538    -4610    -3276 
     985     6686    11583    14445    15807    16579    16951    16542 
   15106    13105    11287     9873     8592     7685     7523     7611 
    7700     8091     8667     9061     8991     8588     8610     9535 
   11021    12829    15171    17759    19568    19546    17400    13892 
   10253     7069     4641     4136     6185     9771    13969    18192 
   20861    19801    14338     6772      820    -1548     -738     1984 
    4761     5857     5852     6118     6176     5458     4941     5830 
    7981     9782     9691     7654     4947     2922     1856     1127 
     699     1179     2070     2403     2625     3965     7076    10854 
   12596    11302     8576     5329     1264    -2409    -3415    -1431 
    1591     3723     4737     5902     7885     9609     9734     8158 
    5640     2516     -800    -2584    -1559     1334     4554     7442 
    9837    11493    11886    10941     8972     6081     3438     2902 
    4388     6147     7160     7888     9043    10138    10224     9675 
    9274     8915     8519     8471     9208    10744    11803    11140 
    9482     7987     6786     6037     5860     5853     6226     7987 
   11261    14473    15815    15010    12946    10805    10079    11399 
   13647    15465    16162    15483    13879    11867     9508     7349 
    6380     6952     8667    10469    11334    11524    11572    11141 
   10555    10895    12105    13124    13350    12896    12210    11937 
   12683    14580    16877    18570    19433    19588    19450    19773 
   20337    20143    19039    17797    16704    15110    12725    10282 
    8700     8618    10282    12815    14735    15739    16166    15499 
   13716    12366    12024    11214     9522     8244     7862     7973 
    8033     7408     6168     5252     5405     6349     7306     7874 
    7940     7364     6156     5081     5247     6708     8594    10395 
   11979    12665    11753     9988     8980     9552    11333    13223 
   14191    14095    13456    12321    10524     9067     9221    10735 
   12713    14908    17139    18747    18867    17394    15441    14307 
   14339    14790    14601    13150    10643     8055     6432     6691 
