Origin Time       2016/04/16 01:25:00
Lat.              32.753
Long.             130.762
Depth. (km)       12
Mag.              7.3
Station Code      OIT010
Station Lat.      33.2317
Station Long.     131.5934
Station Height(m) 7
Record Time       2016/04/16 01:25:25
Sampling Freq(Hz) 100Hz
Duration Time(s)  300
Dir.              N-S
Scale Factor      7845(gal)/8223790
Max. Acc. (gal)   118.229
Last Correction   2016/04/16 01:25:25
Memo.             
[...]
   24599    27834    29952    30545    30433    29783    27927    24792 
   21643    20054    20488    22315    24301    25753    26994    27664 
   27306    26869    26809    26784    27402    28965    30461    31075 
   30638    29158    27021    25034    23552    22052    20206    18458 
   17369    17112    17651    19224    22131    25971    29552    31615 
   31896    31430    31199    31364    31820    32007    31081    29054 
   26684    24849    24097    24173    24852    26576    29377    32601 
   35676    38238    39868    39807    37670    34622    32278    31179 
   31062    31511    32186    32378    31027    28113    24776    21876 
   19905    19476    20929    23838    26824    28968    30981    33205 
   34821    35329    34339    31750    28422    25255    23390    23870 
   25880    28488    32131    36251    38672    37566    33193    28098 
   25051    25158    27843    31856    35937    38920    40261    40139 
   39012    37430    35662    33582    31037    27889    24448    21775 
   20429    20223    21385    23801    26337    28038    28825    29204 
   29679    30562    32108    34200    36390    38010    38418    37758 
   36576    35337    34553    34112    33265    31226    27616    23356 
   19699    16774    14972    14952    16246    17964    19168    19103 
   17697    15209    12548    10746     9725     9180     9445    10814 
   12919    15201    17733    20973    24702    27584    28521    27799 
   26193    24588    23923    24304    25734    28453    31143    32173 
   31993    31199    29531    27872    27245    26874    26119    26241 
   28237    31420    34950    38371    41072    42838    43908    43927 
   42117    38789    35355    32998    32361    32865    32749    31480 
   29997    28799    28071    28251    29211    30029    30213    29905 
   29035    27724    26387    25041    24027    24070    24902    25631 
   25934    26049    26453    27422    28455    28950    29241    29948 
   31070    32260    33477    34921    36373    37328    37743    37970 
   37948    37246    36238    35672    35519    35981    37621    40188 
   43036    45495    47067    48038    48586    48285    47112    45654 
   44655    44544    44972    45121    44128    41775    39063    37085 
   35866    35127    35074    35596    35706    34555    32406    30283 
   28802    27765    26927    26295    25812    25188    24233    23363 
   23020    23232    24143    25780    27612    28984    29538    29610 
   30213    31958    34135    35629    36227    36250    35931    35602 
   35649    36204    36923    37552    38441    39514    39870    39172 
   38307    38160    38364    37862    36066    33388    31193    30459 
   30878    31870    33084    34304    35537    36609    37377    37806 
   37392    35819    33496    30667    27459    24422    22110    20804 
   20580    21280    22401    23155    23575    24906    27712    31193 
   34711    37809    39594    40050    40370    41359    42641    43229 
   42973    42591    41925    40117    37188    34082    31819    30773 
   30908    32282    34462    36610    38267    38997    38165    35889 
   33331    31502    30828    31692    33887    36549    39333    42120 
   44128    44755    44273    43201    41950    40501    38327    35286 
   32000    29293    27325    25462    23384    21347    19269    16819 
   13730     9876     5806     2326     -162    -1364    -1275      -32 
    2424     5476     7967     9190     9169     8823     9113    10201 
   11908    13701    15045    16163    17633    20019    23360    27179 
   31513    36518    41844    47082    51513    54280    55031    53507 
   49391    42937    35523    29145    24474    20386    16024    11514 
    6910     2334    -1757    -5393    -9111   -13346   -18310   -23475 
  -27504   -29427   -28777   -24490   -15090    -1347    12378    22497 
   29697    34936    37026    36131    33879    30935    27980    25933 
   24420    22478    19712    15919    11092     5917     1722     -116 
     767     3816     9038    16687    25716    34149    40466    44212 
   45542    44500    40825    34345    26179    19071    14995    13571 
   13851    15299    17012    18230    19184    20517    22557    25070 
   27058    27930    28464    29548    31869    35964    40883    44928 
   47700    49666    50598    49540    45628    38935    31288    25103 
   21028    18742    18530    19909    21170    21560    21726    22064 
   22940    24984    27522    29223    30204    31491    33641    36688 
   40338    44015    47128    49707    52312    54719    55537    53505 
   48536    41874    35608    31079    28232    27332    29257    33762 
   39361    44367    47707    49258    49341    48374    47109    46365 
   46196    45983    45306    43795    41095    37362    33296    29857 
   26919    23440    19647    16599    14670    13733    13417    13745 
   15716    19758    24459    28209    30152    29349    25629    20507 
   15873    12733    11466    12502    16035    21616    28193    34267 
   38352    39491    37527    32829    26311    19496    13336     8017 
    4063     2092     2220     4248     7600    10986    13047    13605 
   13184    11975    10261     8520     7245     7194     9080    12771 
   17057    20808    24059    27621    32136    36964    40505    42039 
   42024    41187    40035    39075    38934    39428    39734    39401 
   38232    36752    35908    35260    34242    33571    33124    31827 
   29879    28485    27793    26469    23978    21605    20295    19660 
   18787    17003    14601    12471    10897     9242     6698     3388 
     295    -1625    -2278    -2625    -3667    -5408    -7022    -7652 
   -6782    -4113      477     6727    13875    21014    27575    33256 
   37756    40784    42006    41650    40840    40405    40707    42311 
   45278    48930    52466    54976    55175    51543    43740    33856 
   24692    17369    11939     8958     8522     9400    10535    11237 
   10423     7333     1992    -4549   -10374   -14281   -16430   -17073 
  -15476   -10708    -2905     6805    16451    23846    28124    29610 
   28852    26585    23317    19442    16565    16722    20301    26446 
   34054    41781    48444    52922    53933    51158    45231    36595 
   25999    14755     4039    -5074   -11538   -14314   -13068    -9421 
   -6093    -4495    -4368    -5377    -7156    -8752    -9358    -8295 
   -4791     1413     9918    19430    28052    34735    39511    42412 
   43065    41191    37085    31747    26505    22243    19419    18468 
   19367    21397    23672    25509    26153    25141    23224    21643 
   20884    20606    20108    18990    16803    12900     7626     2053 
   -3114    -7248    -9470    -9265    -7156    -3920      175     4526 
    8248    11191    13617    15179    15479    15140    15028    15662 
   17532    20332    23186    25814    27895    28317    26374    23126 
   20614    19353    18350    17404    17055    17250    17212    16246 
   14412    12278    10854    10692    11029    11452    12409    14077 
   16576    19641    22604    25647    29334    33659    38456    43398 
   47956    51741    54144    54139    51171    45258    36803    27773 
   20763    16067    12393     9447     7723     7288     7480     7317 
    6578     6199     7307    10420    15294    21174    27324    33384 
   39091    43968    47788    50718    52627    53300    53212    52718 
   51282    49196    47960    47553    47011    46579    45593    42174 
   36377    30195    25118    20919    17298    14689    12690    11213 
   10278     8590     6353     4824     3585     1780     -873    -3717 
   -6219    -8937   -10930   -10224    -6686    -1111     5686    12332 
   18342    24478    30195    34392    37862    41061    43488    46005 
   49365    52922    55867    57673    58201    57510    55803    53358 
   50193    47409    47025    49073    51791    54054    55591    56030 
   54895    52257    48539    44390    40999    38750    36544    33612 
   30514    28468    28108    28760    29274    29077    28398    27510 
   26401    25154    23327    20817    18627    17043    15665    14156 
   12108    10018     8100     5202     1026    -3558    -7928   -11985 
  -15763   -18131   -17220   -12509    -4827     4203    12726    20312 
   27349    33258    38024    42840    47952    52818    57195    61028 
   64415    66631    66306    63161    57619    50471    42808    34426 
   24784    14665     5186    -2374    -6917    -8891    -9074    -6744 
   -1649     4553    10662    15792    18488    19375    19781    19018 
   17061    14916    12892    11817    12584    14499    16603    18828 
   20679    22280    25292    30172    36161    42795    48874    52917 
   54648    54565    53200    51182    48748    45296    40674    35522 
   30208    24953    19897    15569    13027    12271    12883    14918 
   17930    21579    25277    27544    28355    29000    29220    28150 
   26593    25289    23369    20282    16132    10722     4557    -1398 
   -6848   -11593   -14742   -14885   -11499    -4828     5643    18877 
   31591    42757    52429    58486    60898    62707    63848    61561 
   56373    51216    47606    45836    45150    44606    44771    45111 
   43704    41584    40036    37007    31287    24201    17571    13005 
   11448    11457     8404      328    -7348    -8309    -4909    -4992 
   -7600    -7307    -7777    -8431    -3526     -598    -3854    -3499 
    2282     8841    18607    29874    33161    31041    32063    32734 
   33511    38616    41002    38037    35263    34827    36204    37316 
   38410    38249    34257    33993    41277    48388    51381    50780 
   48820    47700    46892    46290    46138    45535    41596    35756 
   35059    39687    43768    42412    34348    25416    21811    23020 
   25026    23982    17008     8198     8111    14106    17135    21589 
   25770    25209    30576    41602    47453    50522    55379    60226 
   64257    67353    67493    67741    72769    75702    71832    68013 
   66976    65658    62789    59475    55112    49400    47071    45576 
   39341    35615    34989    27778    20632    24124    30100    31479 
   33087    33018    28717    27823    30200    28910    24749    19854 
   16461    16511    17716    20669    22423    17598    14943    20449 
   26843    32416    37179    36694    31608    25637    22353    24695 
   30549    36674    41887    45409    49369    54338    57927    60777 
   63167    65052    66931    67330    67666    66166    56139    43276 
   39318    41825    42236    39964    35972    28501    22370    24227 
   30234    34354    37426    37791    28729    17454    17595    19641 
   13730     9767     9694     9086    10397    14806    20328    21497 
   19294    22999    30042    33916    37021    36949    32729    31707 
   32904    30998    27915    27429    30429    32570    29756    25097 
   21051    14808     6148     -453    -2631    -2088     -562     2265 
    5387     6426     8641    15442    23534    30906    36409    39675 
   45242    51928    54961    56424    57032    56722    59197    62903 
   64574    65674    65726    64755    66046    66505    61809    56403 
   53117    50341    47927    42849    33667    24343    17996    15338 
   13441    12571    17182    22108    21930    21039    17921     7951 
   -2196    -6374    -7817    -8159    -7812    -9163    -9925    -5981 
    3649    14354    18746    17898    16225    13153     8533     3755 
    1046      999     1337     3341     8860    16124    24925    33921 
   39717    45184    52787    56076    53273    50176    48008    48517 
   52585    53163    50482    49936    49191    48880    50117    49246 
   47339    45354    43578    44621    45445    42723    37346    30129 
   25292    25496    26724    26411    25229    23852    21433    16714 
   10635     3557    -2982    -6039    -7844   -10388   -10996    -8673 
   -5516    -3950    -1205     6945    15534    20304    23676    25795 
   26667    25574    22855    23360    26329    29143    30114    26190 
   25122    28899    24578    16388    16347    17248    12649     8991 
    6716     1674     -444     -152    -4472    -3983     5374    11141 
   10381     7173     5046     6488    11581    23376    35334    38130 
   41018    47763    50269    53287    59814    60839    56201    54171 
   54472    49168    38821    31226    25717    22511    30662    46107 
   51310    43551    32842    21801    11611     5031    -2717   -11340 
  -10365     -715     8031    14210    14162     6035     2033     6937 
    9360     2070    -9031   -12125    -3765    11395    30323    44212 
   44471    38727    36462    35291    29609    18663     8688     8451 
   21015    40383    53206    50338    38614    28125    19111    12310 
    7188    -4792   -23407   -35617   -32274   -16791    -1796     4776 
    7333    12216    18817    25393    34350    44180    50191    56010 
   65026    69339    63439    51648    37107    23202    17169    20389 
   29690    44608    63138    79245    86957    83872    71840    53896 
   32869    13919     2141    -1178     3440    13794    27125    43263 
   61051    74791    74938    57322    32713    13001       89    -2015 
   10156    27534    39089    40937    32763    16752    -4918   -27368 
  -39984   -35586   -14246    17367    43513    53856    59362    70730 
   77596    71670    61156    53708    50207    47831    40544    24648 
    6941     4371    22459    43599    51466    42784    17953   -11113 
  -22582    -6802    28476    68894   105660   135434   150403   149218 
  140416   120414    84639    51621    41314    50662    64289    69850 
   61418    40093    15449     -665    -7244   -13554   -24722   -39901 
  -60496   -83976   -97147   -89814   -66673   -37737    -5036    30051 
   54109    55514    38954    10782   -27012   -60760   -69654   -50049 
  -14936    25123    62514    90184   108715   121667   129621   131903 
  128841   124912   119290    98158    54648     4978   -25259   -29065 
  -21510    -6871    18972    39217    37710    19125    -4592   -18384 
  -11117    12015    33994    44971    50430    54546    50400    33997 
   13066    -1183    -5225    -4591    -2327     4274    12089    12136 
    2677    -6064    -4383     5655    17551    27448    32761    32911 
   25501     5231   -21303   -33256   -22320    -1740    17081    32493 
   46543    62319    73503    71852    63363    56855    56717    66314 
   81472    93368    96394    89220    77818    68476    58824    47758 
   39152    33127    30634    36964    51610    67794    80314    83274 
   72755    56319    43221    32628    21844    13178     7674     1988 
   -2280    -2286    -3836    -4986     5063    24300    40980    43877 
   28895     4490   -19219   -36583   -45266   -48257   -45478   -30653 
   -3114    27623    49353    59476    66906    76788    86900    96643 
  103601   103156    94181    76400    53006    33528    24922    23043 
   16468     3186    -8598   -16681   -20688   -16012    -5155     2964 
    3906      -49    -2390     1169     6623     8226     9471    18033 
   31275    40633    43731    39371    27071    11875    -3704   -19633 
  -33844   -46591   -54911   -51788   -37852   -14833    19630    57199 
   83312    97015   105993   111289   111483   107420    96142    73992 
   42209    11226    -4077    -6708    -8337    -4699     8523    27205 
   47937    59796    53439    36439    17945     1532    -5864    -2315 
    2718     3489     4857    10835    20019    30601    40540    45598 
   45103    43491    40394    34200    30167    29036    25980    22802 
   23888    29933    37702    41103    38939    35063    32128    31017 
   29327    23895    15418     6571        9    -4199    -8743   -12987 
  -12291    -4499     8156    21547    31194    34884    33586    29943 
   27679    29313    33737    38908    46453    58681    71818    78482 
   75247    64835    53577    45787    37509    21012     -862   -15753 
  -20542   -22491   -21870   -12712     4360    23932    42816    59420 
   71324    75060    68837    58012    50198    42136    25714     4608 
   -9161   -10567    -6088    -5049   -10196   -15574   -12378       70 
   14046    26539    41697    60150    77684    91827   100435    99192 
   85766    62397    35851    15228     3770    -4461   -12845   -17902 
  -20636   -24050   -25039   -21055   -13606    -4797     4230    13745 
   22474    25961    20499     7889    -3511    -5881    -1194     4513 
   12756    25802    38739    47129    48847    40926    23700     2802 
  -13437   -20232   -21118   -19570   -12437     1011    14539    22920 
   27915    35194    46305    57645    67166    75173    79948    79417 
   76098    74213    71910    64396    54103    47440    45585    45862 
   44977    39857    30846    21573    14179     7952     1530    -5613 
  -12017   -16036   -17427   -15982   -14161   -15006   -15658   -13138 
   -9207    -4668     1294     8483    18430    33392    48936    58382 
   63046    66073    66776    64501    57319    43908    28001    15800 
   11562    12650    12348     8494     1876    -6237   -11402   -10427 
   -7423    -7939   -10145    -9733    -7245    -3746     1714     8155 
   13005    15194    15782    15826    14251    10863     8113     7211 
    7464     7670     7030     7290     9497    11541    12968    14481 
   14539    12591    11566    15572    24954    35912    47175    59728 
   72229    83037    90633    92345    85895    69333    43630    18411 
    4734     1248      464     2076     8645    19344    32459    44398 
   50035    48941    44246    38487    35382    36482    37723    35776 
   30770    23568    16934    14683    16517    18052    16839    14187 
   12604    13578    14960    12434     4618    -5760   -14407   -18562 
  -18381   -15426   -11161    -7493    -6168    -6273    -6143    -6716 
   -8437    -9971   -11241   -11769   -10833   -10633   -12515   -15373 
  -19187   -23099   -24129   -21450   -17015   -11562    -4868     1771 
    7272    10667    11141    11904    16695    25011    36058    49168 
   60821    69322    76559    82313    85133    85066    81731    75825 
   68936    59942    46784    30260    14446     3969     -120    -1520 
   -4471    -9256   -14202   -18628   -20996   -20204   -17388   -11937 
   -2079    10665    22532    30353    33277    32688    30198    27379 
   26183    27854    31253    34126    36140    37249    35787    30164 
   20308     8648    -1435    -8865   -13740   -14407    -9624    -1279 
    8365    17749    25254    31260    36213    38754    39139    39075 
   38357    35453    31132    28227    27932    29770    32653    35095 
   36736    37910    38754    39299    38608    35773    31602    27228 
   22653    17987    14802    14432    15920    17178    16715    13913 
    9802     6859     6492     8842    14245    22258    31764    42365 
   53964    65373    74595    80786    83982    84037    81341    76303 
   68677    58828    49199    43564    43366    46259    49524    52321 
   54441    55321    54762    53414    52039    51371    53200    58726 
   65620    70000    70079    66393    60548    54041    47166    39907 
   33705    30011    28421    27999    28165    28088    26572    23201 
   19381    16957    15936    15380    15472    16699    19095    22854 
   27765    32888    37467    41817    46361    50194    52340    52643 
