Origin Time       2016/04/16 01:25:00
Lat.              32.753
Long.             130.762
Depth. (km)       12
Mag.              7.3
Station Code      OIT005
Station Lat.      33.4549
Station Long.     131.1142
Station Height(m) 113
Record Time       2016/04/16 01:25:20
Sampling Freq(Hz) 100Hz
Duration Time(s)  300
Dir.              E-W
Scale Factor      7845(gal)/8223790
Max. Acc. (gal)   101.848
Last Correction   2016/04/16 01:25:20
Memo.             
[...]
     845      845      842      838      841      842      842      841 
     841      841      842      843      843      845      843      838 
     837      838      842      845      841      842      843      841 
     841      842      843      845      842      842      843      845 
     846      842      835      838      841      843      846      845 
     841      838      838      841      843      845      845      843 
     842      841      838      838      838      843      847      845 
     841      838      841      841      841      843      845      843 
     843      838      837      842      845      845      842      838 
     838      841      845      843      838      838      838      842 
     843      841      842      845      842      838      838      841 
     842      842      845      847      843      835      835      841 
     846      846      841      837      841      841      841      838 
     841      845      845      843      843      841      841      843 
     845      842      841      841      842      842      841      841 
     842      842      843      843      838      838      842      843 
     838      837      838      842      842      842      843      842 
     841      841      841      838      843      842      838      841 
     841      838      838      842      842      842      843      842 
     838      838      843      845      843      842      838      838 
     838      842      845      842      838      842      843      843 
     843      843      845      843      838      838      842      842 
     843      845      843      841      838      843      843      841 
     843      846      841      838      842      843      845      845 
     842      842      845      841      838      838      842      845 
     846      842      837      838      841      843      843      841 
     841      843      842      841      841      841      842      842 
     841      843      842      838      838      841      842      845 
     843      838      838      842      842      842      843      838 
     838      843      843      838      841      843      843      842 
     838      838      838      838      843      846      843      841 
     841      842      842      842      845      843      842      843 
     841      842      842      838      841      843      843      841 
     838      842      843      842      842      838      841      845 
     846      845      841      841      845      843      842      838 
     841      843      843      841      841      838      838      842 
     845      842      841      842      841      841      842      838 
     838      843      842      842      841      838      841      843 
     842      841      845      842      838      842      841      838 
     842      842      845      845      842      838      838      841 
     842      845      845      841      838      841      841      842 
     843      841      842      842      842      842      841      841 
     842      841      842      841      841      845      845      841 
     838      838      838      843      845      843      842      842 
     842      838      838      842      843      842      842      842 
     841      841      841      842      841      842      845      846 
     845      842      838      838      843      843      843      838 
     837      838      842      842      841      842      843      843 
     841      838      842      842      841      843      842      838 
     838      841      842      842      843      841      838      841 
     841      841      842      843      842      838      838      842 
     846      843      838      838      841      841      843      843 
     843      843      841      838      838      838      841      838 
     841      845      843      841      841      838      838      843 
     845      842      841      841      838      838      838      842 
     843      838      841      842      842      838      838      841 
     841      842      845      843      841      841      841      841 
     838      838      843      845      842      838      841      838 
     838      843      847      842      838      841      841      838 
     838      838      841      841      841      841      838      838 
     841      842      841      838      842      842      841      841 
     841      841      842      843      842      841      841      841 
     837      837      842      842      841      841      842      838 
     838      841      842      842      842      841      838      838 
     838      841      845      843      842      841      838      841 
     843      846      842      838      843      843      838      838 
     841      838      841      843      845      841      841      845 
     843      838      841      843      842      842      842      841 
     838      843      845      843      843      843      842      842 
     842      842      842      841      842      843      842      841 
     838      838      841      842      838      838      842      842 
     841      843      841      838      841      842      843      846 
     843      838      841      845      843      842      843      842 
     841      843      845      845      843      838      838      838 
     843      843      842      842      841      838      842      841 
     842      845      842      838      838      841      841      843 
     843      842      841      841      843      843      841      842 
     843      842      843      845      838      838      842      842 
     842      841      841      841      841      841      845      845 
     842      843      842      838      841      841      841      842 
     841      838      838      842      843      842      841      841 
     841      841      838      841      845      842      841      842 
     841      838      843      843      841      842      842      841 
     842      842      841      841      842      842      842      841 
     838      838      841      841      841      842      842      842 
     843      841      838      841      842      842      843      842 
     841      842      842      841      841      841      838      838 
     842      845      842      841      842      842      841      842 
     843      842      841      842      841      841      842      842 
     838      838      841      838      838      842      841      838 
     841      841      842      845      845      841      838      842 
     842      838      838      841      838      841      842      838 
     841      841      838      838      843      845      842      841 
     841      838      842      841      841      842      838      841 
     845      842      838      838      841      841      841      842 
     842      841      842      841      838      838      838      843 
     845      842      841      842      838      838      841      845 
     845      845      843      841      841      845      843      843 
     845      842      838      841      842      843      843      842 
     842      842      842      843      843      841      838      842 
     842      842      847      842      838      842      843      841 
     841      842      843      842      841      842      841      838 
     843      847      845      838      838      845      845      843 
     842      845      843      841      841      841      841      843 
     845      842      841      838      842      845      842      841 
     842      843      843      845      845      841      841      845 
     846      843      841      841      842      841      838      841 
     842      843      842      841      841      841      841      838 
     838      843      845      841      838      837      841      843 
     845      843      838      841      842      838      838      843 
     843      843      843      842      841      841      842      843 
     842      842      841      842      843      838      838      842 
     842      842      843      843      843      841      841      841 
     841      842      843      842      841      841      838      838 
     841      842      843      843      838      838      838      843 
     843      841      842      843      845      843      838      835 
     837      842      847      847      841      837      835      835 
     843      847      843      843      845      841      838      838 
     838      845      847      843      838      838      838      842 
     845      845      843      842      841      841      843      843 
     838      838      841      845      846      845      842      838 
     838      841      841      842      842      845      845      841 
     835      835      841      847      845      838      838      838 
     838      842      843      846      847      842      838      837 
     837      842      843      842      845      846      843      838 
     837      838      842      846      846      845      841      838 
     838      838      841      843      843      843      845      842 
     841      842      843      842      838      841      847      845 
     834      832      842      847      842      841      846      846 
     838      838      838      841      841      845      849      849 
     841      838      843      838      837      843      846      843 
     841      842      845      841      837      841      845      842 
     838      835      831      830      826      815      807      799 
     791      785      777      769      769      772      772      773 
     777      787      810      841      864      877      886      889 
     884      857      805      749      723      750      831      946 
    1065     1159     1224     1252     1223     1089      838      537 
     340      383      645      955     1133     1128     1038     1011 
    1102     1252     1368     1386     1232      828      189     -410 
    -496      153     1202     1962     1952     1297      602      376 
     627      966     1065      843      351     -248     -627     -486 
     279     1625     3262     4471     4507     3268     1213     -986 
   -2548    -2843    -1960     -657      355      938     1262     1270 
     990      907     1408     2357     3078     2677     1170     -510 
   -1761    -2072     -548     2501     4846     4450     1590    -1490 
   -2779    -2160     -897     -217     -288      -21     1539     3650 
    4949     5395     5537     5043     3387      591    -3017    -6272 
   -7378    -5643    -1952     1859     4240     5081     4876     3662 
    1857      734      947     1603     1760     1348      220    -1672 
   -3223    -3002     -719     2701     5572     6293     4468     1092 
   -2203    -4341    -4841    -3414     -750     2272     5371     7059 
    5729     2651      102    -1243    -1167      278     2161     3599 
    3343      525    -3048    -4687    -3218     1270     6836    10218 
    9478     4191    -4958   -13736   -15511    -8139     3156    10615 
   10736     6504     2671      702      -95      459     2334     3970 
    4618     3696    -1375    -9526   -13441    -9246    -1287     5023 
    8380     9981     9815     6231      236    -4268    -5286    -3115 
    1221     5251     6361     4063      168    -2848    -4087    -3523 
    -758     3303     5904     5009     1922     -767    -2882    -4148 
   -2471     1699     5344     6729     5135      706    -4059    -5891 
   -3159     3250     9398    10580     6264      -72    -5656    -8479 
   -6878    -2412     2455     7226    10052     7825     1208    -5144 
   -7277    -4715      668     5908     7496     4322     -814    -4507 
   -5339    -3943    -1314     2185     4581     4327     4135     5805 
    6231     2759    -2664    -5849    -4445      513     5356     6079 
    2214    -2895    -6174    -6743    -4752     -490     4784     8608 
    8742     4935      186    -1742     -167     2679     3861     2247 
    -283    -1147     -406     -919    -3082    -2814     1235     5917 
    8889     8307     3824    -1408    -5208    -6732    -5150    -2442 
    -400     1706     3206     3734     5440     8395    10088     8861 
    4276    -2551    -9452   -14045   -12507    -2816    10347    19846 
   21955    15876     3954    -8564   -17231   -19460   -14035    -2581 
    9493    15309    11304     -117   -10702   -11237    -1404     9983 
   15542    14756    10926     5285    -3592   -13027   -14921    -6319 
    4685    10781    13150    12221     6408    -1154    -7034   -11105 
  -11709    -5702     4352     9865     7924     3852     -307    -5131 
   -4884     3719    12079    13471    11214     5711    -5648   -15560 
  -13856    -2494    10191    18790    18607     9131    -2602    -9551 
   -9355    -4502     -436     -156    -3693    -9049    -9904    -3563 
    2176     4225    10000    17793    16491     4494   -11396   -22963 
  -19252     2902    28915    40370    31731     9147   -15741   -31973 
  -35673   -24102     6169    41902    57316    41547     3184   -37255 
  -56218   -45036   -10990    27514    42286    21073   -19153   -51205 
  -51344   -18642    22684    55607    71641    63366    40504    17491 
   -6970   -39237   -70768   -81727   -65812   -30743    17123    65036 
   85438    60193    12498   -12650    -1852    19425    23005    -2629 
  -50291   -93177   -99916   -57223    17541    83299   107608    90285 
   48672     1829   -26434   -28021   -22688   -19890   -18154   -32076 
  -55876   -51167    -8002    36956    51131    38877    17334    -8052 
  -26534   -23390    -2043    24151    35880    25145    11651    -5459 
  -31414   -23943    26863    62730    46379   -10247   -66999   -78351 
  -43440     4356    47860    65967    37355    -4683   -19372   -21018 
  -25111   -19336    -4525     7041    14381    11669   -10810   -27525 
   -6883    25645    38207    42811    38599     8741   -29797   -51970 
  -54125   -36201    -5637    19052    36451    48396    34746    -2708 
  -24489   -13215     7593    16398     8726   -13936   -31469   -19870 
    4936    15132    17834    29856    47532    46620    10019   -40846 
  -75018   -76204   -36315    21224    52879    45472    19415    -1302 
  -10238   -12838    -4843    17021    33477    26707     3928   -21440 
  -40841   -41685   -17610    11850    22658    20618    16705     7033 
    -600      522    -3442   -17003   -26161   -18122     5196    19036 
    7851      125    16875    28867    18123     7836    11422    19240 
   15786    -6732   -30314   -34398   -20552     4774    33100    46915 
   32648    -3277   -38766   -54453   -42585   -13290    13433    26488 
   23198    11877     6644     3491    -7652   -17865   -13398     3867 
   18335    18465     9587     1645    -2475    -1016     2565     -214 
   -6843   -10361    -6392     7906    13725    -7223   -27234   -17702 
    1107     8760    14458    24417    30700    23766     7616    -8681 
  -30588   -52859   -46784    -3815    42021    54611    38348    15167 
  -12264   -39449   -41111    -6100    35487    46404    24201   -11917 
  -40289   -42376   -19457    17857    51970    51308    18338    -8950 
  -18208   -21195   -23917   -22009   -12548    -7302    -7586      738 
   12441    17351    21894    28811    30865    19639    -5983   -30434 
  -29099     4060    35280    28270    -2646   -21492   -19934    -9244 
    -774     -310    -5390   -11635   -19168   -18399     3572    27059 
   30867    27679    11788   -27864   -47800   -19963    15796    32985 
   39555    24792   -12638   -35537   -26989    -8222    14646    39761 
   39812    10767   -23741   -50970   -52193   -21363    11137    25234 
   23025    11508     3946     -278    -6465     -693    12958    12839 
    4791     -869    -7160    -8733    -6297    -5602     1019    11884 
   12023    -2461   -20785   -28418   -19716     3087    29698    42418 
   38929    25404      244   -24158   -33258   -32738   -22752    -1783 
   15525    25814    34425    29023     3308   -21934   -26806   -15215 
    4858    31166    45368    30049    -5852   -44757   -64061   -49603 
  -18611    12299    40288    55684    51773    25785   -18245   -52219 
  -50016   -16289    23383    44151    41669    22586    -7600   -28597 
  -20605     3958    17988    14619     7902     6689     1522   -15395 
  -31014   -33165   -25519    -7029    20040    37872    35978    18146 
   -5084   -18570   -13135     2597     8182    -2411   -13659   -15160 
  -10793    -3663     4603    10578    13979    12897     5008    -1995 
   -3916    -5625     1236    21911    31268    12713   -13047   -23534 
  -17250    -4139     6589    12155    10300       78    -9270    -7929 
   -3343    -5217    -3129     9463    18859    15788     3307    -8461 
   -7827     2492     9553     9961     8411     2374   -10982   -17984 
  -10161     -128     7017    10926     -444   -19492   -22789   -12208 
     425    11673    12725     3997    -2555    -6039    -4537     7264 
   19804    21141    10467    -4353   -12140   -10345    -4733     3765 
   13123    13606     7454     4920      182   -12843   -22852   -18771 
   -5653     1482    -3627    -8811      319    18165    27702    22855 
    7734   -10102   -22404   -25493   -17653    -1760     9644     9375 
    4105       83    -2497    -2319      530     -600    -6985    -9027 
   -4977    -1919      616     2193    -4806   -14586    -9617     6523 
   15543    18235    21259    22342    22266    14678    -5798   -24856 
  -32103   -27842   -11365     8526    17995    16602    12264     2903 
  -13846   -22145   -14716    -4294     7747    18397    11840    -5138 
  -16310   -23233   -21813    -1456    26183    37427    31392    18486 
   -4171   -28081   -35402   -27418    -9796     7211     8870     5339 
   10844    14358     5000    -7838   -13539   -16183   -14854    -1956 
    9933     7327    -1753   -10110   -11322     4770    26275    32908 
   29937    24302     7750   -11784   -19761   -21134   -14318     4256 
   12650     2586    -3447     1985     7824    11904    15661    12021 
   -4036   -21789   -25342   -14466    -4294    -5190    -8660    -3127 
    2463    -1035     1290    14031    16845     5948    -3148    -7894 
  -14976   -18949   -10955     2679    10613     7190    -8397   -25745 
  -30204   -15099    12596    30676    28069    16833     5845    -2111 
   -3472    -1507      108      847     1192     4490     6114    -1026 
   -7665    -4735     2943    11919    17334     8947    -7951   -16136 
  -15989   -16430   -10459     5281    18293    21352    13562     -936 
   -6451     4626    20725    24413     5332   -23970   -35916   -22404 
    1107    20015    28173    21986     3680   -15291   -24471   -22617 
  -12291     2509    15591    23211    19624     -792   -24975   -30961 
  -17915     -542    12898    16525     7203    -2042    -1914    -2817 
   -9304   -12305    -3794    15678    31000    27858    11736    -5908 
  -18924   -20210    -7645     7963    12483     3658    -6153    -5513 
    1232     3962     4303     8035     9664     2755    -7377   -11674 
   -5301     8235    18013    15762     2747   -10230   -13959    -9788 
   -1270     9115    14867     8653    -9391   -26099   -26524   -13139 
