Origin Time       2016/04/16 01:25:00
Lat.              32.753
Long.             130.762
Depth. (km)       12
Mag.              7.3
Station Code      OIT004
Station Lat.      33.5666
Station Long.     131.7378
Station Height(m) 7
Record Time       2016/04/16 01:25:29
Sampling Freq(Hz) 100Hz
Duration Time(s)  135
Dir.              E-W
Scale Factor      7845(gal)/8223790
Max. Acc. (gal)   25.410
Last Correction   2016/04/16 01:25:30
Memo.             
[...]
   -2941    -3844    -3971    -3592    -2872    -1699     -149     1256 
    2101     2439     2269     1356      -45    -1269    -2307    -3391 
   -3646    -2096      434     2235     2731     2315     1479      762 
     633     1089     1566     1451      687     -383    -1460    -2357 
   -2936    -3187    -3271    -3522    -4352    -5719    -6817    -6987 
   -6346    -5259    -4276    -3847    -3442    -2569    -2039    -2300 
   -2335    -1642    -1088    -1200    -1620    -2134    -2604    -2454 
   -1588     -738     -360     -376     -537     -596     -749    -1416 
   -2394    -3059    -3226    -3121    -2721    -1669       83     1911 
    3348     4504     5044     4131     1878     -654    -2891    -4737 
   -5944    -6619    -6982    -6521    -5100    -3736    -2829    -1594 
     183     1996     3522     4243     3543     1582     -989    -3728 
   -5838    -6052    -4278    -1998     -456      118       32     -197 
    -390     -947    -2023    -3064    -3731    -4517    -5798    -7059 
   -7557    -7230    -6191    -4353    -2608    -2335    -3200    -3870 
   -4112    -4017    -2997    -1196       27       75     -383     -966 
   -1568    -1447     -329      625      508     -189     -900    -1522 
   -1613     -751      379      417    -1092    -3454    -5844    -7763 
   -9077    -9562    -8586    -6141    -3325    -1426    -1201    -2551 
   -4842    -7480    -9505    -9760    -8271    -6245    -4571    -3353 
   -2573    -2199    -2016    -1894    -1738    -1368    -1098    -1624 
   -2762    -3549    -3738    -3973    -4629    -5360    -5562    -5077 
   -4415    -3738    -2501     -890     -128     -629    -1509    -2289 
   -3145    -3811    -4164    -4681    -5362    -5732    -5667    -5309 
   -4781    -4135    -3410    -2754    -2315    -2154    -2107    -1675 
    -776     -124       70      591     1899     3336     4020     3828 
    2860      986    -1312    -3078    -4133    -4989    -5702    -5996 
   -6079    -6003    -5412    -4660    -4588    -5370    -6596    -7715 
   -8244    -8033    -7376    -6754    -6432    -6477    -6799    -7150 
   -7439    -7723    -7921    -7726    -6863    -5424    -3742    -2235 
   -1348    -1237    -1597    -1883    -1859    -1530     -646      882 
    2505     3555     3708     2941     1780      903      108    -1175 
   -2774    -4453    -6304    -7700    -7848    -7366    -7426    -8081 
   -8865    -9591    -9832    -9189    -8222    -7723    -7685    -7871 
   -8255    -8221    -6907    -4544    -2095     -133     1050     1204 
     583      -91     -449     -656     -741     -448       65       89 
    -646    -1354    -1104     -256     -101    -1113    -2803    -4426 
   -4939    -3828    -1952     -471      218      153     -467    -1282 
   -2205    -3229    -4063    -4758    -5617    -6138    -5501    -4104 
   -3022    -2380    -1779    -1297     -892      -79     1065     1688 
    1297      257     -702    -1159    -1337    -1597    -2022    -2698 
   -3508    -3793    -2978    -1332      124      540       17     -765 
   -1613    -2811    -4190    -5216    -5641    -5373    -4461    -3431 
   -3007    -3407    -3875    -3458    -2405    -1566     -785      378 
    1382     1526      866     -174    -1229    -2114    -2887    -3666 
   -4382    -4922    -5433    -5971    -6058    -5244    -3672    -1814 
    -149      741      292    -1364    -3334    -4774    -5412    -5368 
   -5101    -5169    -5443    -5223    -4329    -3235    -2511    -2381 
   -2497    -2575    -2841    -3245    -3153    -2187     -784      365 
     994     1039      395     -741    -1838    -2712    -3728    -4852 
   -5321    -4737    -3279    -1210      715     1474      846     -804 
   -3257    -5985    -8051    -8981    -8970    -8414    -7777    -7348 
   -6818    -5737    -4215    -2700    -1609    -1290    -1823    -3053 
   -4504    -5212    -4577    -3060    -1479     -289      307      112 
    -949    -2660    -4710    -6743    -8181    -8645    -8247    -6978 
   -4752    -2081      278     1692     1767      820     -473    -1717 
   -2740    -3527    -3873    -3603    -3227    -3230    -3404    -3762 
   -4922    -6841    -8401    -9112    -9670   -10318   -10488    -9748 
   -8056    -5737    -3430    -1714     -980    -1634    -3778    -6781 
   -9865   -12521   -14265   -14910   -14546   -13169   -11087    -9024 
   -7200    -5417    -3986    -3415    -3700    -4552    -5613    -6356 
   -6446    -6143    -5779    -5162    -4145    -3138    -2732    -3173 
   -4136    -5096    -5674    -5544    -4656    -3391    -2442    -2648 
   -4095    -5656    -6421    -6858    -7596    -8148    -7727    -6365 
   -4681    -3249    -2346    -1895    -1605    -1294    -1059    -1148 
   -1818    -3153    -4841    -6525    -8090    -9202    -9394    -8703 
   -7539    -6419    -6095    -6995    -8757   -10902   -13136   -14762 
  -14912   -13491   -11272    -9107    -7426    -6342    -5810    -5605 
   -5490    -5751    -6828    -8156    -8841    -9063    -9184    -8885 
   -8387    -8390    -8560    -8004    -6705    -5229    -4078    -3782 
   -4263    -4567    -4318    -3839    -3013    -1863     -985     -784 
   -1491    -3240    -5200    -5935    -4980    -2674      675     4047 
    5944     6058     5150     3742     2084      604     -491    -1201 
   -1142     -236      916     2006     3191     4708     6516     8298 
   10280    12668    14504    15188    15318    14982    13913    12729 
   12216    12776    14635    17089    18489    17880    15585    12241 
    8928     7236     7522     8743    10045    10679     9200     4282 
   -3310   -11105   -17343   -21138   -22215   -21361   -19257   -16229 
  -13090   -10326    -7635    -4791    -2241    -1036    -1640    -3419 
   -5763    -7663    -7599    -5919    -4000    -1741      595     1740 
    1640     1058      573      882     2300     4114     5476     6755 
    8861    11713    14529    16883    18391    18530    17659    16405 
   14638    12675    11101     9847     9000     8446     7291     4614 
     224    -4895    -9745   -14396   -18434   -20351   -19955   -18955 
  -18516   -18829   -19634   -19437   -17496   -15178   -12710    -9576 
   -7435    -7369    -8257    -9281   -10247   -10655    -9811    -8113 
   -6786    -5413    -3276    -1467     -980    -1177     -238     2018 
    2930     1819      643    -1539    -6642   -11514   -12808   -12985 
  -12567    -7803     -598     4190     7682    11780    13495    11342 
    8540     6184     2833      369      184     -706    -2227     -895 
    1067      965     2882     8013    11685    12193    11410    10709 
   10010     8780     7184     6231     7200     9186     9390     7495 
    5130     2609     -268    -3281    -5764    -7146    -8762   -11149 
  -11557    -9153    -7018    -6795    -6616    -5374    -4893    -7006 
  -11535   -15790   -17354   -17031   -15277   -11650    -7230    -3183 
    -526     -372    -2721    -4899    -4294    -3156    -3476    -2911 
    -861      436      653     1192     1745      980      166      943 
      95    -3948    -5000    -2118    -1740    -2133     1290     4567 
    3970     1979      367    -2602    -7186   -10407   -10751   -11167 
  -14534   -18717   -20671   -20740   -19442   -16791   -14825   -14655 
  -13867   -10968    -7553    -4649    -2253    -1363    -1658      157 
    4140     6199     6840     7857     6837     4823     5115     6702 
    7769     8117     7662     6389     5273     4162     1534     -411 
     726     1026    -2357    -5481    -6404    -8095   -10493   -11057 
  -11372   -12926   -11199    -5366    -1815    -1375      -40     1499 
    1391     2234     4499     2951     -918       47     3338     3261 
    1885     1930     1209    -1815    -3555    -1252     2230     4515 
    6538     8229     8961     9539    10602    11356     9906     6103 
    1822    -2606    -7450   -11152   -12394   -12198   -11736   -11171 
  -11450   -12023   -11813   -11974   -10455    -5460    -1760    -2084 
   -3694    -3727    -1437      996     1378      -68    -1368     -903 
   -1260    -3913    -4560    -2949    -3013    -2586     1777     6772 
    8645     8800     8908     9278     9771     8477     5944     5179 
    6874    10000    10878     6907     1956    -1104    -4048    -7113 
   -8762    -8910    -8371    -7759    -8313   -10740   -11638    -8437 
   -6639   -10104   -13983   -15627   -17419   -18593   -16205   -12044 
   -8584    -4468    -1316     -102     3487     9035    12464    13654 
   14149    14909    13979     9780     6358     4918     2538      693 
    1416     2948     4199     6174     8451     9136     8379     8343 
    9289     9290     7923     5709     2944      661     -612    -1796 
   -4422    -7037    -6354    -4418    -4816    -5753    -5077    -4261 
   -5155    -8244   -11820   -11923    -8382    -6374    -7839    -9906 
  -10716   -10031    -7888    -5161    -3612    -4217    -6355    -8522 
   -8604    -5996    -2535      977     4909     8128    10423    11904 
   10580     8215     8177     7915     5616     4163     4722     6323 
    8668     9946     7974     5031     4091     3284      484    -1933 
   -2810    -5618   -10477   -13913   -15595   -14940   -12004   -10619 
  -10162    -7623    -5287    -4167    -1987      448      868      599 
    1790     2079      -54     -278     3092     5557     5475     5131 
    3707      329    -1918    -2262    -2461    -1417     1286     2307 
     954     1293     4020     5013     3415     1502     -670    -3520 
   -6588    -9892   -12409   -13201   -13564   -14315   -14912   -15480 
  -16043   -15961   -16075   -17764   -19379   -18905   -17613   -16198 
  -13666   -10683    -7717    -4430    -2474    -2069      120     4878 
    8756    10788    13558    15673    14126    11929    11394    10467 
    9501     9266     8189     6574     6998     9984    12603    13433 
   14430    15758    15352    13640    12926    12796    11676     9804 
    7452     5304     3553      781    -1437    -1282    -1891    -5084 
   -8290    -9937   -10852   -11911   -12943   -13477   -13559   -13076 
  -11583    -8648    -4546    -1354     -240      642     2046     2801 
    2863     2126      583      252     1649     1169    -3086    -7435 
   -9624   -11538   -12128    -9266    -6060    -5382    -5124    -4078 
   -4495    -5917    -5499    -4163    -3303    -2413    -2304    -2178 
    -112     2238     2721     2085     1586      851      248     1194 
    2120     1723     2015     2578     1598      625     1798     4338 
    5790     6300     7827     9513     8783     5080     1301      251 
     468     -566    -2933    -5250    -6339    -6353    -5589    -3322 
     972     5459     6355     3365      795      604      469     -731 
    -633     2019     4137     3812     4178     7229    10180     9738 
    6196     3071     1534     -762    -2955    -2473    -2006    -5169 
   -9355   -10794   -11988   -15113   -15585   -11190    -5861    -1641 
    2039     4406     4635     4739     6219     5911     3010     1381 
    1325     1201     1703     3028     4444     5302     3897     -885 
   -5445    -4914    -1210      442      519     2170     3960     2829 
     -64    -1686    -2191    -3100    -3923    -4897    -7346    -9558 
   -9347    -8437    -9683   -12750   -14500   -13497   -11334    -9859 
   -9254    -8044    -6373    -5181    -2990     -193      553    -1279 
   -4876    -8837   -11349   -11265    -9566    -9049    -9811   -10563 
  -12110   -13848   -14404   -14014   -12286    -9246    -6929    -6505 
   -6080    -4737    -5023    -6806    -7576    -8361   -10157   -11820 
  -13227   -12490    -6670      955     3554      174    -4214    -6801 
   -8631    -8637    -5096     -735     1888     4109     5518     2749 
   -3570    -8198    -8766    -9081   -11917   -13100    -9082    -2736 
    2107     3661     1806    -1482    -4306    -5671    -3755     2135 
    7408     6284      499    -4402    -8598   -15209   -21793   -22199 
  -15400    -5948     1366     2748    -2023    -8607   -14224   -19629 
  -24397   -25065   -20308   -13090    -5023     2824     6972     6145 
    2584    -1048    -3265    -3844    -2575      579     4151     5745 
    3478    -1864    -6829    -9697   -11206   -12415   -14304   -14810 
  -11203    -7069    -7371   -10031   -10278    -7481    -3615    -1170 
   -1058     -572     1127     1412     -164    -1475     -807      361 
   -1408    -5606    -8370    -7499    -3618     -103      423     -619 
   -2586    -7121   -12977   -16063   -14089    -8781    -3861    -1023 
    1031     2990     3113     1065      -20     1780     3977     3316 
    -741    -6841   -13451   -19479   -23398   -22937   -17929   -12947 
  -13019   -16060   -16159   -14255   -14323   -13691   -10303    -7719 
   -6574    -4768    -2578      400     5541    10644    12456    10805 
    6280      -52    -5517    -8382    -8622    -6508    -2532     1795 
    4657     4869     1317    -4862    -9140    -9337    -7541    -5194 
   -2786     -492     3357     8260     9653     4986    -3607   -11232 
  -12785    -7929    -1968     -333    -4673   -11886   -16791   -17928 
  -16748   -13270    -8193    -3697     -464     1472     1996     1150 
   -1780    -6540    -9832    -8172    -3198      704     3013     4873 
    4988     2299    -2295    -7408   -11422   -13946   -16753   -19957 
  -20927   -18727   -15546   -13298   -11923   -11688   -13201   -15396 
  -17180   -17605   -14531    -8414    -2558     2852     9460    16506 
   22129    24097    21473    15819     8033    -1193    -9424   -13729 
  -12576    -7716    -1638     4642     7472     3060    -4795    -9246 
   -8966    -6096    -2882    -2195    -4421    -6280    -6195    -5630 
   -5611    -5953    -6608    -8592   -12402   -16132   -17842   -17497 
  -16299   -16151   -17216   -17891   -17278   -14052    -8055    -2471 
      27     -951    -4573    -9034   -12429   -13535   -12145    -7862 
    -691     5861     7874     6968     7183     7196     3511     -526 
    1093     7557    13197    15182    14590    11850     7468     4830 
    5637     7144     6766     3937    -1745    -8654   -12132   -10110 
   -6214    -4167    -3402    -2571    -2727    -4726    -7993   -11183 
  -11377    -8117    -5193    -4526    -5252    -7052   -10720   -16474 
  -22119   -24428   -21849   -16519   -11658    -7414    -3715    -1811 
   -1729    -3262    -6191    -8692    -9232    -8819    -8970    -8803 
   -7435    -6457    -6621    -6416    -5332    -4827    -5991    -7987 
   -9297   -10030   -11329   -12147    -9883    -4811      388     4074 
    5556     4617     1798    -1786    -4455    -5220    -4904    -4834 
   -5148    -4722    -2945     -243     4041     9705    13320    12760 
    8984     3863      526     1104     4220     7469     9817    10882 
   10164     7931     5005     1393    -3373    -9127   -14747   -18333 
  -18017   -14265   -10353    -7992    -5441    -2004      314     1208 
    3048     5768     5902     2484    -1062    -1561      553     2725 
    3439     2951     2319     2272     1521    -2243    -8299   -13027 
  -14447   -12969   -10041    -7298    -4525    -1074     1526     1723 
     -97    -2594    -4556    -5036    -3582    -1393     -561    -1065 
    -947      376     1362      892     -144    -1223    -3670    -6791 
   -7140    -4276     -999     1119     1547     -399    -4048    -6516 
   -5667    -2729       47     1431     1169      587      990     1297 
      13    -2448    -5169    -7071    -7290    -7132    -7920    -8775 
   -9016    -9725   -11861   -13520   -12339    -9845    -8324    -7335 
   -5640    -2933     -612      237      876     2215     3079     1841 
    -610    -1362     -784    -2319    -6292    -9288   -10030   -10686 
  -11578   -10648    -7331    -2331     3748     9414    12380    12359 
   11084     9215     6976     5108     3338     1123    -1449    -3468 
   -3365    -1544     -329     -101      139     -344    -2049    -3204 
   -2254      246     2408     3198     3339     3173     2255     1591 
    2921     5724     7333     6250     3547     1173      522     1478 
    2178     1117    -1324    -3478    -3721    -2015      388     2224 
    2154     -402    -3622    -5367    -6551    -7996    -7377    -4599 
   -3060    -3499    -4363    -5644    -7420    -8668    -9051    -8873 
   -7500    -4591    -1387     1405     3508     3083     -414    -3919 
   -5147    -5421    -5823    -5297    -3339     -591     1755     1894 
    -351    -3032    -4741    -5273    -5166    -5200    -5027    -4048 
   -2822    -1588     -286      225     -556    -1977    -2839    -2367 
    -842      691      730     -842    -1776     -788      945     2467 
    3477     3292     2477     2563     3046     2669     2205     2147 
    1194     -604    -1833    -2747    -3615    -2829     -234     2062 
    3287     3688     2853     1225     -317    -2153    -4591    -6266 
   -6053    -5321    -4932    -3850    -2400    -1219      221     1556 
    2047     1714      915       94     -405     -152     1155     3202 
    5096     5834     5393     4176     1872     -711    -1196      985 
    3782     5142     4210     1470    -1165    -1958     -535     2805 
    6564     8486     8618     8526     8031     6475     4261     1424 
   -1845    -3910    -4068    -3871    -3975    -3522    -2389    -1414 
   -1576    -3115    -5528    -7723    -8464    -7642    -5831    -3815 
   -2188     -824      -40      238      724     1119     1146      957 
     442     -585    -1900    -1973      287     3573     5671     5382 
    3146      670     -633    -1251    -2342    -2965    -1566      766 
    2169     2587     2301     1156     -700    -2856    -4756    -6424 
   -8523   -10812   -12132   -11784    -9796    -6881    -4348    -3478 
   -5090    -8321   -10161    -8497    -4445     -403     2188     3235 
    2941      977    -1480    -2170    -1744    -2207    -3208    -3778 
   -4122    -4183    -3153    -1155      162     -388    -1923    -3156 
   -4322    -5485    -5634    -4698    -3323    -1549      355     1475 
    1522      630    -1648    -4685    -6430    -6443    -5661    -3775 
   -1102       99     -121      675     2188     2907     3689     4675 
    4359     3075     1981      946      448     1512     3465     5169 
    6597     7510     7362     6280     4132      872    -1836    -2505 
   -1923     -876      955     2452     1661    -1113    -4375    -7191 
   -8484    -7852    -6130    -3717     -440     3121     5831     7442 
    8332     8278     7361     6397     5406     3852     1880      -47 
   -1804    -2901    -2323     -480      484     -685    -3334    -6166 
   -8176    -9024    -9283   -10120   -11994   -14084   -15472   -15647 
  -14349   -12344   -11304   -11665   -12091   -11834   -11234   -10357 
   -9346    -8506    -7539    -6095    -4068    -1570      475      815 
    -468    -1624     -993     1088     2636     2702     2756     3850 
    5047     5995     7169     7882     7194     5254     2573     -387 
   -2739    -3856    -4403    -5294    -6143    -5931    -4831    -4120 
   -4380    -5019    -5551    -6088    -6481    -6741    -7584    -8526 
   -7979    -6231    -4818    -3852    -2886    -2111    -1290       22 
    1142      908     -757    -2698    -3785    -3962    -3805    -3472 
   -2593    -1243     -337     -283     -591    -1371    -2820    -3815 
