Origin Time       2016/04/16 01:25:00
Lat.              32.753
Long.             130.762
Depth. (km)       12
Mag.              7.3
Station Code      OIT013
Station Lat.      33.0726
Station Long.     131.5934
Station Height(m) 82
Record Time       2016/04/16 01:25:22
Sampling Freq(Hz) 100Hz
Duration Time(s)  108
Dir.              E-W
Scale Factor      7845(gal)/8223790
Max. Acc. (gal)   86.260
Last Correction   2016/04/16 01:25:22
Memo.             
[...]
   19650    11237    -1007    -7080    -4965    -4191    -9104   -13382 
  -13117    -9142    -1448     7410    11688    10092     6077     1780 
     275     5898    14825    17500    11858     3416    -2436    -3593 
   -2124      -32     4182    10562    14312     9433    -2624   -11060 
   -8587     3418    21288    37473    42114    32066    10816   -13413 
  -26609   -18252     5933    27631    32832    19338    -7203   -31931 
  -33767    -7732    24183    37525    26874      -72   -29358   -42480 
  -29532    -2621    16017    17494     8928      572    -4035    -6026 
   -4914    -2421    -1115     4521    20872    40246    45046    28264 
    1979   -16059   -17053    -1262    23557    38836    28625    -1205 
  -29465   -38697   -25124     2636    29990    42263    33408     9749 
  -15788   -28082   -17004    10659    33969    37195    21089    -2362 
  -19633   -23745   -17197    -8017    -1769     2168     3385      511 
   -1152      342    -3192   -13090   -16587    -5333    11863    20372 
   14270    -1410   -16407   -21651   -12548     4965    15375    10879 
   -1864   -13041   -16633   -11286    -1414     6272     9798    11765 
   14987    19430    19954    13621     5713     1634      182    -2328 
   -4336    -1667     3927     7200     5198    -1340    -7442    -6821 
    1618    10956    12668     4008   -10948   -23492   -25933   -16398 
     432    13810    14659     4517    -7765   -13324    -8132     4241 
   15622    17748     7291    -9543   -21124   -19678    -5216    14609 
   26982    22260     2485   -18546   -25902   -15323     6365    26684 
   34114    24574     1224   -24482   -35595   -27249   -10986     3256 
   12264    10434    -4880   -23585   -31588   -23178    -2239    19998 
   30024    21362      646   -16328   -18481    -9522    -1105     -340 
   -6505   -13572   -14698    -6658     8356    21602    22407     9013 
   -8730   -18544   -15302    -3544     6579     7996     1614    -7153 
  -11615    -6613     5605    14885    12328    -1378   -17759   -26559 
  -22106    -7531     8926    19172    17661     5431    -9088   -17706 
  -18951   -15672   -10511    -5776    -3572    -2586     1601    10648 
   20405    23943    18648    10125     5298     5634     9562    15048 
   18588    15809     6427    -4355   -11620   -12703    -6439     3473 
    9061     7391     3651     1290     -935    -1559     2682     9269 
   11726     7743      718    -2635     2609    12486    17432    12872 
    2600    -5595    -4795     7627    25745    35341    25483     1185 
  -19673   -22808    -8522    13050    30984    35033    20553    -2366 
  -16860   -16398    -6509     4438    11168    11757     9427    12931 
   24120    31163    24436     7722    -9894   -20632   -19195    -6376 
    8883    14135     5390    -9660   -22843   -28347   -20610    -2326 
   14103    18304    11114     2208    -1302     -901     -440       83 
    2182     3984     3109     2266     5244    10328    12325     9714 
    5501     1051    -2779    -2393     2123     5424     4779     2019 
   -1190    -4943    -8401    -7692     1372    16279    27865    30643 
   26366    16094     -164   -13886   -12640     3589    22438    32186 
   28159    13431    -1713    -5817     4425    21008    30731    26542 
   14292     4905     1270      190     1543     4699     4807      741 
   -2601    -3071    -3915    -6073    -5562    -1078     2057     -877 
   -7840   -13474   -13294    -5698     5556    15350    21655    21524 
   12997     1741    -4739    -5223    -1999     3161     7350     7082 
    3661     3141     8638    16794    23043    24079    17204     5062 
   -4737    -7233    -2163     7458    16388    19415    14405     5528 
     633     1971     4401     3642     -510    -7700   -17223   -25915 
  -29104   -23780   -10401     7449    22408    25521    16159     5525 
    3121     6967    11668    15700    17072    10547    -4467   -18196 
  -21543   -16468    -6705     7457    18675    16092     1039   -15427 
  -25938   -28016   -18814      338    19056    26374    20031     7703 
     380      322     2868     7816    14692    15496     5915    -5649 
   -9120    -4088     4291    11280    11429     1528   -12006   -17232 
   -9267     7106    23515    30439    20916     -758   -18652   -17396 
    3996    29309    39245    28116     5517   -13085   -16638    -4054 
   16336    31116    30893    17786     1050   -11379   -14764    -7393 
    8527    27176    39256    36051    18046    -4750   -21608   -26001 
  -16472     1675    18026    23475    17014     6285    -1050    -2901 
     460     6555     9926     8275     5004     2589     -270    -4307 
   -8837   -13771   -17968   -16606    -5632    10230    21050    21979 
   15171     5984     -634    -1050     5634    13841    16079    11686 
    4851    -1321    -4486    -2539     4225    13868    23838    29766 
   27876    17859     2767   -10022   -12287    -2481    12267    20773 
   17398     6944    -2373    -6512    -6207    -3931    -1011     1672 
    2579     1591      918     3079     7809    10717     7576     -207 
   -7110    -9830    -8537    -3469     4580    10948     9802     2512 
   -2802    -1024     6266    14258    18509    16456     7607    -3709 
   -8113    -1401     9660    17157    18315    12644     1729    -9930 
  -15060    -8655     4255    13639    14752     8637     -834    -8317 
  -10191    -8270    -5620     -105     9705    17717    16592     6594 
   -5313   -12560   -12066    -3965     8147    16580    13189     -912 
  -14389   -16895    -8502     2303     9302    11261     7358    -2397 
  -14669   -22864   -21602   -10392     6004    18562    20407    12480 
     378   -10893   -16430   -11364     2836    15506    15751     4557 
   -8237   -16688   -19562   -15948    -6382     5448    12448     9171 
   -1566   -11542   -14953    -9968     3086    18081    24575    19481 
    8490    -2505    -8127    -3669     6658    10979     4422    -5952 
  -10474    -5373     6536    17934    19245     8064    -6898   -16646 
  -16803    -6840     6980    14918    11821      170   -11951   -15646 
   -8440     5281    19770    26902    20783     6808    -4816    -8638 
   -3681     7452    18312    21465    13606      -23    -8884    -7799 
   -1663     1026    -2026    -6072    -7126    -3311     6204    16059 
   16560     5058   -10754   -21961   -24641   -17508    -2285    12459 
   15630     4739   -11229   -20869   -18527    -5940     9582    18526 
   15075     3524    -5583    -6232      606    10303    17251    17112 
    8274    -5262   -13452    -8251     7153    19928    20191    10273 
    -301    -5817    -6100    -1038     8159    15267    13879     5425 
   -2200    -4666    -3599    -2089    -1823    -1254     1433     5872 
    9618     8726     3726     -710    -2974    -2967      -67     4266 
    7776     8772     7033     5267     6295     9316    10189     6633 
    1345    -2424    -3210      253     7214    13478    14116     7302 
   -3021   -10214   -10187    -2114    10801    20972    20692     9120 
   -4720    -9467    -2636     7333    11562     9262     3149    -4641 
   -9344    -5055     6145    12800     8340     -854    -5009      569 
   12783    20595    14905     -838   -14690   -16642    -3352    19398 
   36726    35108    14939   -10589   -24962   -17793     5702    27108 
   31438    18975     1327   -10453   -10920     -903    10424    14168 
   10478     4040     1556     6436    11753     9734     2350    -3558 
   -5220    -2255     6421    15731    16546     7010    -6359   -13880 
   -9150     6006    22094    26950    16965     1733    -8394    -9968 
   -2431     8071     9620     1463    -5740    -7207    -4533      734 
    5687     7614     5779     2293      538      880     3177     5228 
    3295     3304    10503    16572    17257    16146    11529     1980 
   -8077   -10507    -1655     8579    12231    12653     7357    -7203 
  -18252   -12680     3902    17744    21581    17661    10994     1917 
   -7836   -10899    -3805     7414    13779    11429     5298     1954 
   -1838    -7573    -6323     2520     9140     9131     6582     6651 
    5629    -1871    -8920    -8505    -2752     7192    17566    18813 
    8251    -7793   -17670   -10062     8430    21856    28074    26434 
   11377   -10503   -23079   -18000    -1807    13055    19718    17130 
    7333    -4619   -11560    -8279      994     4525      -85    -3083 
    -417     3924     6852     6664     5375     4311    -1003    -9624 
  -11481    -4126     1505      877    -1993    -7832   -13647   -10790 
    1463    11723     8854    -3037   -11294    -9894    -2658     5016 
   10037     7875      184    -4009    -1060     5071     9269    10281 
    8257     1815    -4102      492     9882     7115    -3626    -5360 
    1740     7685     9047     7167     3932     2034     2675     5413 
    7101      758   -10686   -14446    -8151      939     9236    12773 
    4827   -10712   -20574   -15934    -1165     7064     1015   -10012 
  -14269    -7330     1763     3307     2635     4509     2037    -5327 
   -6897    -1628     1109    -1306    -3355    -2139    -2011    -1848 
    3191     6259     3275     1144      233    -3882    -7720    -6014 
    -480     3978     2016    -6231   -11091    -7330      276     4533 
    2523     -417    -1034    -2792    -4232    -1216     2098     1980 
    1620      112    -1069     3697     5159    -6124   -18393   -15579 
    2628    19368    19805     8655    -2397    -9661   -14146   -12793 
    -780    13648    15880     5125    -8276   -13166    -6577     3690 
   10748    10069    -2837   -20109   -22418    -4396    17177    26838 
   22013     5255   -13502   -17167    -2085    16015    25389    23880 
    8565   -14211   -24636   -12788     7252    16024     9074    -3380 
   -8135    -2100     7685    13451    11554     3040    -6330    -7592 
    -392     7643    14979    17409     6663    -9063   -12239    -2886 
    5883     9678     8224      783    -4256       65     8861    14859 
   15025     9703      795    -7226    -6766     3785    13103     9293 
   -4661   -15250   -12645      822    12240    12334     5783      117 
   -3767    -3041     6673    19127    18651     1154   -13728   -10174 
    1534     5455     1606      -79     2693     7152    11881     7838 
   -8858   -21027   -13392     5692    18921    17174     -654   -23481 
  -29115    -8355    21433    36779    28709     6523   -14189   -28663 
  -30715   -12501    10635    17412     7123    -5294    -5771     2070 
    6386     5027     1915     2052     7952    16227    17906     7030 
   -6956   -14142   -16005    -8995    11272    34661    39919    15820 
  -16205   -27967   -17481     6250    30960    40383    31023    12694 
   -5360   -17605   -15942     5387    33454    46207    37438    13005 
  -17548   -33373   -19483     7127    21393    22855    17955     4618 
   -8996   -11503    -9798   -10816    -7369     4266    14886    11746 
   -3252   -13691   -12403    -3092     9774    16831    10504    -5401 
  -17621   -11935     9521    26923    27193    13821    -3338   -11935 
   -6380     3800     8826     7703     1714    -3397    -2492     1787 
   10018    20326    21805    13883     5185      722     2263     6704 
   10755    13188    11101     5863     3565     5548     8279     6718 
   -5533   -23322   -30119   -19939     -550    15326    19476    12845 
    1229    -5638    -1632    10238    22789    28399    20286    -2277 
  -24846   -28887   -11630    11713    20146    11311     1553    -3140 
   -6754    -4243     8923    20224    14947     1698     -229     9150 
   19107    26523    29072    22130     6068    -7769    -5178     9065 
   16854    15506    14146    11500     4819     1356     7117    16087 
   12991     -835    -7781    -5773    -1867     -425    -4270    -8509 
   -9043    -4928     5665    19124    28343    29013    21051     7685 
   -6956   -19683   -24875   -13971     9748    26199    19703    -3096 
  -22049   -26545   -19017     -211    28220    45384    25197   -16540 
  -32111    -7858    26063    40782    34572    18426    -6092   -29790 
  -29687    -5841    19233    28264    15228    -7732   -21467   -24787 
  -23006   -10187    14597    33181    26813     -741   -26239   -31095 
  -18252     1053    21558    31399    17123   -11137   -29120   -26316 
  -11396     6079    24804    34560    23310     1328   -13713   -19240 
  -18530    -6575    16592    34720    36140    26376    15290     4981 
   -6951   -14948   -12604    -6176      207     9420    15007    11616 
    3192    -8527   -16733    -9193    12781    30492    27936    11916 
   -1421    -6620    -3561     6574    18426    24075    18041     3469 
   -9494   -14777   -14207    -6328    12999    33081    32949     8910 
  -20298   -34676   -24879     3288    29652    39779    33886    17350 
    1163    -5271    -7246   -13136   -18843   -15147    -2918    10470 
   19727    18906     7820    -6760   -19826   -18462    10906    46328 
   45504     4600   -39594   -55192   -37318     3780    50992    71158 
   40579   -14724   -46899   -40184   -10362    22415    42448    39448 
   13127   -21468   -37937   -22368    10863    35460    32208     4752 
  -18229   -23512   -21212   -10974     3798     8181     5583    10589 
   21346    22968    10673    -4556   -13009   -11014     7441    35187 
   44415    21454   -19106   -54390   -62684   -35687     9752    43742 
   40690     2172   -31845   -27924     3177    32784    38731    11217 
  -35957   -69255   -55925     5138    71442    93214    56554    -6848 
  -52753   -63007   -39924     6069    52662    68816    35815   -20277 
  -50522   -38582     -351    37995    46278    12680   -29061   -34190 
   -8649    14572    28208    33419    14801   -23548   -39600   -15388 
   18851    32601    17609   -11867   -29855   -23080     1551    24938 
   30674    16672    -6666   -22454   -15475    11102    32709    36371 
   33670    24066    -2775   -25921   -16077    17367    42310    44350 
   30459     6484   -20005   -27585    -5246    29197    45179    28572 
   -1135   -15738   -11140    -1132     6382    12663    15120     9907 
     230    -9794   -16330    -9625    11674    25820    19291     8182 
    1378   -11206   -26407   -25490    -1290    27476    33477    10459 
  -23413   -42244   -31729     -807    27938    36587    23982     1815 
  -17541   -24221   -13637     7049    20592    16969     4927    -3736 
   -8773   -12916   -11360      -55    11109    10806     5310     5694 
    9526    10621     8286     -332   -14506   -21600   -12175     8900 
   29286    34491    16623   -12309   -30431   -28678   -11720    11344 
   25726    17459    -3169   -11168    -3109     7969    12912     7747 
   -4344   -15305   -18323   -10983     3750    17494    19429     9695 
     364    -4372    -7734    -7017    -2392      812     2150     2540 
    2857     5427     9379    12204    12538     7605     -298     -737 
    5957     7111     1086    -2102      506     3049     4689     9648 
   14878    13143     5189    -4020   -13683   -20236   -16806    -4476 
    7863    13436    14967    15075     7894    -6670   -19325   -20827 
   -6516    15668    26481    16255    -2475   -13382   -11095     1642 
   13003    16402    15753     9460      982     -460     1282     1628 
    2405     1783     1584     8013    17204    16672     2948   -13784 
  -20368   -10210    11126    29702    32656    15456   -14173   -38624 
  -37793    -6288    32177    45698    28561    -1084   -23210   -27075 
  -15730     1414    17509    25947    22617    11315    -1425   -13003 
  -19765   -13000     7227    22630    20730    10308    -3125   -19684 
  -26133   -10781    18014    38612    36826    17597    -7776   -27267 
  -27679    -7628    19997    36016    25795    -4233   -27816   -25392 
   -3295    17787    23562    12426    -4634   -10913    -2172     9522 
   13247     6270    -9744   -23718   -19438     3500    25988    29495 
   13680    -5994   -17424   -16980    -3708    13890    22153    15066 
   -2688   -15741   -11685     4887    18192    17031     4868    -7652 
  -10767     -804    11458    13076     5784     -969    -2335      556 
    6345    13564    14944     6183    -4059    -7194    -4514     1574 
    8769    11179     6941     1154    -1554    -1282      -36     1826 
    4808     7754     7780     5212     2038    -1915    -3855    -1887 
     450     -318    -4260    -4918     3605    14381    14613     2188 
  -10781   -12498    -5135     2810     8330    10114     6872     3030 
    2263     2188     2124     2705      287    -6303    -8891    -1156 
    8707    10844     7857     2772    -6594   -15106   -13046      450 
   16263    22073    11396    -8089   -19855   -16098    -2045    12496 
   16875     7630    -5922   -13564   -13012    -5240     6019    13211 
   13459     8175    -2092    -9355    -5602     1652     4106     4302 
    3632     -711    -7944   -11799    -8039      183     7619    10345 
    7855     4989     4114     3188     2224      765    -2616    -4237 
     739     9614    14679    12136     3535    -6833   -11265    -4814 
    6556    13863    13336     4804    -5683    -9300    -4441     4021 
    9702     8226     1282    -4788    -6855    -4364     4792    15173 
   15871     5887    -6656   -12926    -7515     6323    16599    16295 
    9660       62    -8202    -5417     7773    18914    19105     8932 
   -3339    -8957    -5566     3993    13664    15084     6729    -1348 
   -1744     3154    10139    16233    16707     9876     -378    -7007 
   -5999      344     7982    13212    12174     4824    -2980    -4479 
    -305     3889     7523    10739     9130     3268       21     1360 
    3586     4923     4704     2265      344     1807     6004    10828 
   13165     9558      467    -8982   -12116    -3784    12055    21651 
   17072     4172    -6497    -9018    -3207     8494    19183    19052 
    7236    -6708   -12833    -6527     7411    17864    17945     6866 
   -8352   -13427    -3038    13366    22697    17379      985   -14512 
  -17801    -6471    10503    20459    16609     2490   -11214   -13967 
   -2957    12155    18127    11646      764    -4885    -3761      612 
    5717     7939     5073     1310     2180     7245    10149     6188 
   -1235    -4592     -526     8567    17402    19149    10274    -3570 
  -11703    -8826     1903    14143    19827    13030     -977   -10085 
   -7319     3987    14004    14991     5521    -6635    -9601    -1486 
    9329    15097    14025     8355     1572    -1757      873     6739 
    9963     7003     1372     -403     3264     8698    10712     6115 
   -2386    -6836    -2463     6392    12417    13204     9038     -796 
  -11237   -10227     2789    13197    13139     6205    -2775    -8101 
   -6016      402     6178     8815     5956     -749    -2948     1711 
    6670     8533     7318     2409    -3384    -4614     -234     5351 
    7543     4869    -1386    -7192    -6393     2781    13167    16079 
    9648    -1917   -11078   -11344    -2631     9332    16000    12241 
    1655    -7774    -9425    -1695     9632    14609     8035    -3546 
   -9444    -7690    -2447     3327     6540     4599     -761    -3586 
     198     5908     6162     1575    -2694    -4023     -912     6235 
   11367     8371    -1069    -9388    -9798    -1115    10697    16359 
