Origin Time       2016/04/16 01:25:00
Lat.              32.753
Long.             130.762
Depth. (km)       12
Mag.              7.3
Station Code      OIT013
Station Lat.      33.0726
Station Long.     131.5934
Station Height(m) 82
Record Time       2016/04/16 01:25:22
Sampling Freq(Hz) 100Hz
Duration Time(s)  108
Dir.              N-S
Scale Factor      7845(gal)/8223790
Max. Acc. (gal)   71.930
Last Correction   2016/04/16 01:25:22
Memo.             
[...]
    -695     -687     -697     -720     -743     -746     -720     -679 
    -656     -676     -723     -765     -773     -734     -664     -610 
    -625     -702     -778     -783     -714     -626     -581     -608 
    -695     -785     -803     -722     -610     -566     -629     -750 
    -857     -877     -776     -599     -492     -579     -796     -951 
    -942     -796     -607     -506     -584     -772     -909     -884 
    -726     -598     -595     -685     -816     -884     -773     -553 
    -430     -537     -792     -977     -953     -769     -571     -519 
    -693     -970    -1107     -951     -618     -411     -504     -807 
   -1097    -1159     -912     -513     -259     -341     -679     -987 
   -1039     -841     -569     -423     -486     -654     -764     -747 
    -634     -519     -558     -778     -942     -850     -664     -621 
    -734     -861     -861     -761     -719     -760     -822     -866 
    -754     -436     -232     -457     -967    -1320    -1220     -799 
    -406     -255     -415     -772    -1009     -895     -492     -133 
    -159     -568    -1043    -1289    -1139     -646     -203     -214 
    -688    -1250    -1455    -1188     -765     -545     -584     -746 
    -895     -874     -654     -510     -741    -1219    -1431    -1105 
    -510      -60      -79     -737    -1628    -1899    -1219      -71 
     735      598     -441    -1655    -2270    -1973     -945      129 
     449     -105     -980    -1656    -1822    -1456     -949     -653 
    -572     -579     -498     -344     -490     -970    -1355    -1401 
   -1000     -238      263      -52    -1038    -2087    -2508    -1837 
    -353      903     1017      -31    -1393    -2018    -1541     -446 
     522      741      -49    -1328    -2135    -2142    -1787    -1391 
    -896     -383     -191     -454     -903    -1320    -1657    -1606 
    -888      103      557       79     -970    -1842    -1944    -1279 
    -491     -171     -361     -834    -1301    -1468    -1337    -1086 
    -669        8      673      599     -712    -2544    -3535    -2984 
   -1242      472     1005      159    -1443    -2601    -2432    -1324 
    -144      425      -32     -970    -1399    -1096     -341      106 
    -598    -2000    -2802    -2419    -1071      550     1624     1506 
     -83    -2448    -3990    -3530    -1362      913     1804      886 
   -1178    -2817    -2851    -1777     -866     -689     -832     -634 
    -120      117     -171     -805    -1645    -2181    -1783     -606 
     730     1296      476     -986    -2245    -3099    -3055    -1921 
    -429      650      820     -112    -1599    -2735    -2895    -1876 
    -274      745      514     -700    -1996    -2532    -2211    -1334 
    -422     -317    -1011    -1567    -1503     -719      364      432 
    -760    -1838    -2128    -1817     -864      202      363     -518 
   -1564    -1917    -1490     -708     -163     -438    -1572    -2928 
   -3383    -2081      266     1753     1181     -853    -2619    -2740 
   -1281       -4     -473    -1993    -2756    -1706      560     1850 
     587    -2450    -4943    -5047    -2716      900     4098     4622 
    1194    -4326    -7969    -7662    -4372      157     3959     4928 
    2646    -1370    -5255    -7188    -5717    -1175     3991     6189 
    3321    -2636    -7665    -8923    -5922    -1170     2057     2579 
     842    -1798    -3604    -3740    -2540     -897      157     -126 
   -1293    -1800    -1127     -122      388     -230    -1732    -2461 
   -1640     -396      105       98      117     -537    -2101    -3127 
   -2702    -1552     -845     -675     -523     -843    -1807    -1676 
     379     1509     -513    -3476    -4861    -4488    -2724       39 
    3038     3954      170    -5849    -8139    -5209      357     6356 
    9360     6258     -781    -6744    -7592    -2608     3295     5908 
    5530     1498    -5219    -8926    -6227      556     6129     6462 
    1676    -5130    -9373    -7650    -1250     4860     6214     2295 
   -3546    -7115    -6416    -2844      784     2394     1786     1314 
    2313     2712      508    -4025    -7643    -5914      564     6631 
    9445     8062     1107    -8291   -12820    -9583    -1738     6192 
   10131     7705      283    -8718   -15959   -16599    -8078     3748 
   11453    13201     8669      195    -5510    -6065    -3294     2201 
    7048     6246     -157    -6741    -8857    -7962    -6205    -2409 
    2192     3696     1100    -2255    -2612       41     3505     6186 
    5605     -518    -8160    -9768    -5551    -1606      515     1819 
    1185    -1190    -2431    -1039      295    -1609    -4893    -4700 
    -762     2367     3817     5611     5147      125    -5559    -7543 
   -5850    -2905       -2     3469     7028     6685     -193    -8810 
  -11658    -6304     3605    11156    11321     3913    -6628   -11900 
   -6879     3281     9861     9336     3842    -2001    -4464    -2039 
    3526     6180     1425    -6442    -8203    -1389     6708     8808 
    3025    -8274   -16583   -12467     2369    15315    15772     3851 
  -10876   -17015   -11519      792    14261    20641    13510    -2860 
  -17470   -19965    -8887     6642    17327    16398     2481   -12017 
  -14229    -6546     4220    12880    11117     -781   -10854   -13390 
  -10042    -1059     8540    10108     3103    -6450   -12667   -11280 
   -2351     8712    13903     8932    -1034    -6951    -4795     2120 
    5841     2785    -3030    -6100    -2664     4869     8619     6465 
    1447    -5984   -11349    -6413     4954    10125     5613    -3690 
  -11928   -11809    -2173     6829     8382     4716    -1574    -4550 
     909     6741     3821    -2721    -4456    -1907     1599     4095 
    2212    -3912    -8351    -7495    -3624     1275     6696     8977 
    6451     2045    -3951   -10284   -11569    -5702     5923    16703 
   14192    -3613   -22044   -26981   -17298      129    14978    14165 
   -3040   -17772   -15140      916    17032    20629     9694    -6224 
  -17456   -18378    -7180     9213    18526    15858     5074    -7677 
  -14866   -12789    -4349     6015    11670     7862    -1815   -11578 
  -16387   -11843     -795     9662    15368    12372      987    -9265 
  -12073    -8887       11    10712    14148     9256      950    -7487 
  -10351    -4865     2785     8527    12869    11277     1046   -11190 
  -19268   -18085    -2451    19117    28568    19276    -2340   -24443 
  -32312   -19053     6295    25805    24694     3595   -22211   -36219 
  -28375    -2385    24159    34198    22470      178   -15261   -18407 
  -11813     1638    12614    10655    -2116   -14254   -18146   -14166 
   -6777     -148     4288     6259     4237      753     2177     4730 
     720    -4039    -3550    -2150    -1111     1435     4999     7506 
    2759    -8861   -14197    -5971     7709    15025    12654     3809 
   -7169   -12254    -7230      232      467    -6960   -13065    -9310 
    2840    13474    14255     4218   -11885   -22454   -17616    -1711 
   15608    25446    19878     1495   -18617   -27430   -17727     1554 
   16083    18802     7742   -10084   -19353   -15326    -6500     3267 
   11006    10110     3754    -2011    -6654    -9086   -10368    -9629 
   -3935     1459     4024     8988    13660     8267    -7354   -19946 
  -20511   -12027     2178    16537    21188    13306    -1344   -13036 
  -15118   -11136    -5310     5506    19646    23554     7732   -16592 
  -30538   -27749    -8947    18689    35818    28310     1065   -26689 
  -34596   -20798      332    17687    22659     9366   -11529   -21227 
  -14470       97    10829    10574     2357    -6382   -10547    -5910 
    3098     4243    -3603   -10758   -11603    -4695     8572    18692 
   14197    -4274   -21483   -20964    -2301    18732    26300    14598 
   -8769   -26850   -26744    -6764    19600    29053    13127   -12575 
  -27799   -25726   -11292     8253    22409    20016     2562   -15512 
  -22014   -16451    -4423     8743    15898    10895    -4059   -17760 
  -17806    -5304     6602    11325     9431     1394    -7776   -10197 
   -4851     1242     2960     3815     6457     5859     1344    -2797 
   -7885   -13004   -12422    -6453      859     6288     6178      699 
   -5953    -9690    -6415     1615     5351     3373       78    -4162 
   -8068    -9347    -7669    -2340     3852     6592     5683      418 
   -7477   -10285    -5915     1856    10878    13740     3916    -9679 
  -16286   -15187    -7076     3931     9339     7848     3127    -3357 
   -9414   -12328   -10882    -5892      596     7244    10220     5381 
   -4310   -10365    -6961     2358     9794    11234     4310    -8424 
  -15182    -8228     3090     4768    -3634   -12993   -15107    -6828 
    5778    12561     8887    -1498    -7917    -4985     1107     4719 
    3461    -3519    -9366    -6673     2154     9666    10673     3470 
  -10033   -20988   -18044    -1618    16209    23183    12718    -8754 
  -25278   -25980    -9332    13517    23862    14558    -5193   -20154 
  -20370    -7196    10077    19048    10953    -6423   -15753   -13452 
   -4088     9239    16344    10436    -4036   -18322   -19495    -4880 
   11138    18025    13934     -383   -14976   -17834   -10917    -3086 
    1151      565    -1036      827     2026    -1259    -3782    -1856 
    1844     4977     5802     2357    -1877       32     5863     7106 
    3609     -156    -3176    -4561    -3561     -203     5347     9263 
    8002     4063     -118    -5135    -8241    -4916     2107     5120 
    1703    -5081   -10428    -8866      152    10574    14030     6346 
   -6786   -18036   -23253   -16497      672    15279    17494     8430 
   -3970   -12424   -14162    -8372     2833    11499    12195     6354 
   -3160   -10121    -9744    -4699     3541    12783    14926     6571 
   -7319   -18465   -19157   -11389    -2666     6743    13763     9655 
   -1626    -9687   -12451    -8460     1644     9738    11502     7624 
     112    -4718    -4535    -2871     -697      889     1339     2937 
    3921      737    -4602    -8187    -8978    -6392     -382     5815 
    7913     3339    -6334   -13705   -11637    -1254     9034    11437 
    4440    -7183   -15624   -15079    -5019     8669    16345    13527 
    4444    -4136    -8627    -7728     -615     8338    10563     4091 
   -4818   -10300   -10015    -4340     2160     5144     5290     3981 
     561    -3899    -6423    -7038    -5178     1273     7268     7839 
    4059    -3963   -12060   -12191    -2654    11356    20023    15341 
    -294   -16833   -24374   -18241     -544    18889    25064    13446 
   -4066   -15604   -15886    -4082     9603    11403     1242   -11491 
  -18295   -15121    -7184    -1649      892     1495     1548     2656 
    3194     1024    -2602    -4538    -2358     4353    11516    12421 
    5513    -4626   -11689   -10220     -348    10183    12741     6663 
    -625    -3202     -164     7213    12363     7541    -3801   -10700 
   -7973     1301    10416    14331    11970     4008    -5042    -6014 
    3065    12498    14623     8737    -2367    -9429    -4518     8043 
   18369    20187    13454     3869    -2362    -2270     4360    13023 
   16704    13822     6812     -496    -1723     4777    13594    18874 
   15873     4820    -4681    -3963     3991    10432     9780     3199 
   -1420     2770    14613    26488    29320    20470     7919     1930 
    4895    12935    22292    28645    26738    16945     5703     -626 
    2417    14328    26855    31159    25812    15873     8364     8064 
   13089    16175    13093     5962     -754    -2008     4529    14080 
   19919    18658    10841     2910     1993     8316    17383    24599 
   26966    24166    18816    14581    12891    11597     8372     5036 
    4838     6640     5474    -1448   -11504   -19970   -23090   -18504 
   -6957     5795    12482    11246     3106   -10253   -19538   -15599 
   -1794    13783    24274    21261     3086   -18262   -28212   -19993 
    2524    23950    30198    20603     1811   -16548   -21849    -9562 
    9559    21517    20521     8336    -6687   -13593    -7805     5660 
   16147    15716     6223    -3669    -6257     1075    13413    20777 
   17767     6404    -8487   -18235   -14922    -2130     9042     9454 
   -3747   -22670   -32697   -26023    -9027     3950     3001    -9445 
  -23043   -31449   -33477   -28359   -20281   -16771   -18102   -20309 
  -23278   -28166   -33990   -36337   -32007   -25299   -20386   -16368 
  -13867   -14377   -16217   -17064   -16289   -14331   -12155    -9675 
   -6979    -8210   -15751   -22767   -20802    -9069     6856    18743 
   18752     5020   -14113   -26262   -26126   -17635    -8756    -4571 
   -4633    -7450   -10758   -10787    -8545    -9058   -12278   -12249 
   -5071     6721    15534    12916    -2442   -21720   -32190   -26701 
  -10987     3136     9124     5239    -4003    -8770    -7248    -7392 
  -12622   -16733   -13915    -5805     2705     7931     9275     9660 
   11229    13007    14364    17313    22530    26434    24883    15329 
    1192    -6916    -3586     8010    21782    27476    19672     7863 
    3666     8965    18990    22866    11722    -7520   -21455   -24760 
  -16723      463    19853    33351    31174    10821    -9922   -12082 
    3327    23997    35559    26140    -3283   -33404   -38121   -10143 
   30751    57946    54372    15993   -39880   -76117   -66536   -20550 
   30299    57561    49833    16702   -19936   -38227   -27675      417 
   24036    32482    28181    20187    18215    21290    20605    14850 
    7581     -761    -6389    -5233    -1147      486    -5105   -19040 
  -29226   -23287    -6372     7221     5443   -15691   -41631   -49173 
  -31471      890    28853    29705    -2597   -42279   -55817   -37131 
   -6252    16715    23591    14894    -1630   -12533    -7604    10071 
   25483    26136    10706   -14176   -33697   -31590    -8509    17915 
   30343    21114    -3994   -28881   -42624   -44477   -35298   -19238 
   -5329     3119     9135    13312    15228    15330    11623     4792 
     940     2523     7245    10119     3343   -10875   -19993   -19148 
  -11057     1012    10319    10396     2177    -7574   -11973    -7180 
    6443    20860    21925     4838   -18133   -32277   -31652   -20081 
   -9414    -6282    -5790    -3497       71     3387     3982     1163 
   -1540     -419     4793    11523    15811    14679     9362     3150 
   -1624    -2519     -106     1327      912     2124     7106    14885 
   21534    19553     6602    -6546    -8004     3501    20252    30356 
   25863     9255    -9081   -20695   -23322   -15288     3157    22362 
   27405    14040    -6782   -23009   -29604   -26732   -19036   -12672 
  -10276   -10015    -9713    -7847    -3923    -1715    -3434    -5872 
   -8012   -10722   -11437    -7831    -1485     4583     7105     3186 
   -5220   -10984    -9487    -3262     2511     4187      -11    -6862 
   -9329    -4594     2811     4766    -2405   -13645   -20613   -19500 
  -14254   -11210   -12060   -13898   -12094    -4572     4808     8802 
    4645    -2224    -6619    -8328    -7007    -2355     2673     3331 
   -2697   -13088   -20939   -18684    -7352     4989    11300     6103 
   -8094   -19040   -17649    -4588    10230    12816    -1247   -21690 
  -34840   -32077   -12376    10828    17787     3808   -19438   -35478 
  -32039   -11072    11223    16357    -2045   -29776   -43725   -31666 
    -121    28617    32830     9406   -24875   -45355   -38099    -9987 
   19322    29415    12475   -16059   -32040   -26314    -4884    17832 
   24354     9533   -14988   -33276   -35383   -20752     2477    20054 
   19440     -581   -27494   -41813   -34187   -13101     7646    17459 
   10955    -6903   -22422   -24691   -14642      352    13656    17810 
    9109    -6840   -20005   -22056   -12708    -1397     3874     3234 
   -1304    -7835   -11627    -9209    -3470      -22    -1799    -8102 
  -14790   -18318   -18485   -14035    -4861     2539     3148     -400 
   -4673    -7442    -6389    -2859    -1247    -3937    -7626    -5242 
    5568    18843    25878    18989    -3684   -28618   -36117   -22374 
    2272    24287    29070    13765    -6093   -14260    -6971     8414 
   17990    11932    -5848   -22913   -28088   -17853     -719    11288 
   13888     7229    -6741   -19051   -19093    -8360     3014     9840 
   11153     6006    -2236    -6393    -4317     -171     2974     4838 
    4550      760    -4237    -6353    -6332    -5829    -1760     7912 
   17760    18954     9649    -4342   -17460   -25119   -23367   -13122 
    -279     6952     1707   -14612   -31268   -38211   -32890   -19292 
   -7466    -6652   -17211   -32287   -40162   -33659   -20051    -8773 
   -2579    -4078   -11599   -17379   -18484   -17004   -13016    -5279 
    5040    12880    11750    -1026   -20097   -32105   -25375    -2556 
   20957    31803    28031    15307     2532     -392     8467    20679 
   27814    26681    18427     6301    -7007   -16236   -14720    -2890 
   12418    22734    18802    -1668   -26716   -39144   -31237    -9140 
   13770    26516    24952    11743    -4818   -14470   -12151    -1737 
    9620    15054     9612    -2714   -12573   -14454    -6527     6316 
   12536     5973    -8683   -21501   -24416   -15109      954    11373 
    8032    -5676   -21226   -29515   -25435   -12560      696     6184 
    1060    -8356   -12510    -7317     4540    16767    22581    18747 
    8972      214    -3017     1395    10821    17659    18720    15653 
    8371    -1667    -9915   -13134   -10800    -4537     3483    10201 
   11943     9837     8688     9617     9613     5092    -3484    -9424 
   -7275     1701    13509    23097    24587    18447    12577    11429 
   12568    12043     7917     4008     6358    14728    24077    27325 
   18608     3619    -4423    -1340     7040    14729    17928    12664 
    -278   -10928    -9864     2181    17095    25577    22731    11487 
    -564    -6404    -3769     1840     3284      437    -2061     -808 
    3307     7056     8727     6006    -1914    -9266   -11481   -10844 
   -9452    -6079      351     8845    15603    15490     7753    -2133 
   -7076    -2349     9815    18928    15832     2153   -11562   -15113 
   -6042    10458    25772    32140    28052    18839     8198    -2949 
   -9517    -6216     5907    20042    26238    18586     1748   -12695 
  -16246    -8436     6019    20714    28741    24996    11160    -3572 
  -10177    -7160     1618    11493    15167     7835    -3496    -7979 
   -3385     4951    10751    10935     6203      263    -3280    -4877 
   -6596    -9532   -13450   -13771    -6577     4538    13844    17439 
   11921    -1687   -15115   -19507   -13420    -2627     5232     6227 
    1864    -3277    -3962     1291     7884    10012     5420    -3312 
  -10945   -13537    -8856     1634    10431    11105     3793    -6675 
  -12988   -11350    -3136     8078    14778    11322     1398    -7442 
   -9155    -1354    10336    15981    11280     1026    -5505    -3572 
    4045    12827    18023    14987     5483    -3177    -5013     1136 
    8725    11610    11866     9575     3218    -2581    -4793    -4270 
