Origin Time       2016/04/16 01:25:00
Lat.              32.753
Long.             130.762
Depth. (km)       12
Mag.              7.3
Station Code      OIT012
Station Lat.      33.0664
Station Long.     131.3734
Station Height(m) 461
Record Time       2016/04/16 01:25:18
Sampling Freq(Hz) 100Hz
Duration Time(s)  188
Dir.              N-S
Scale Factor      7845(gal)/8223790
Max. Acc. (gal)   94.104
Last Correction   2016/04/16 01:25:18
Memo.             
[...]
    8622     8637     8661     8660     8648     8655     8657     8641 
    8637     8649     8649     8644     8654     8657     8645     8642 
    8650     8653     8650     8650     8654     8648     8641     8645 
    8653     8658     8652     8644     8649     8648     8641     8653 
    8658     8642     8642     8660     8654     8642     8652     8654 
    8644     8644     8652     8652     8649     8657     8658     8644 
    8644     8653     8648     8640     8645     8654     8653     8645 
    8648     8654     8650     8644     8644     8653     8657     8646 
    8638     8645     8654     8655     8652     8646     8641     8640 
    8654     8660     8650     8652     8658     8642     8631     8655 
    8669     8646     8640     8655     8654     8640     8646     8662 
    8654     8637     8646     8657     8646     8642     8652     8655 
    8652     8646     8649     8653     8649     8644     8646     8650 
    8654     8653     8650     8650     8648     8648     8650     8645 
    8649     8654     8650     8657     8652     8637     8648     8655 
    8646     8648     8658     8655     8642     8642     8652     8655 
    8650     8649     8645     8642     8655     8657     8645     8652 
    8664     8655     8640     8641     8646     8646     8652     8650 
    8658     8667     8645     8631     8650     8654     8635     8645 
    8667     8653     8642     8652     8644     8648     8662     8650 
    8638     8644     8648     8652     8655     8653     8650     8648 
    8645     8641     8649     8661     8653     8646     8650     8648 
    8644     8646     8653     8660     8649     8640     8649     8654 
    8652     8648     8646     8649     8652     8650     8650     8649 
    8650     8649     8648     8649     8655     8653     8641     8645 
    8652     8648     8650     8654     8645     8642     8648     8644 
    8638     8641     8642     8638     8642     8646     8640     8634 
    8635     8634     8629     8627     8629     8626     8625     8625 
    8614     8610     8617     8622     8621     8633     8642     8635 
    8627     8615     8595     8591     8615     8646     8657     8648 
    8649     8664     8645     8584     8564     8622     8681     8688 
    8677     8655     8608     8569     8553     8559     8596     8658 
    8707     8715     8676     8600     8520     8437     8414     8565 
    8731     8726     8696     8765     8769     8556     8266     8186 
    8401     8735     8954     9019     9023     8916     8626     8290 
    8089     8097     8338     8770     9277     9562     9418     9084 
    8727     8290     7946     7898     8128     8591     9170     9590 
    9690     9520     9121     8513     7836     7482     7857     8608 
    8937     9054     9625    10120     9570     8248     7360     7453 
    8089     8699     8976     9034     9261     9522     9202     8228 
    7361     7474     8579     9568     9440     8529     7923     8163 
    8662     8630     8436     8710     9167     9397     9166     8383 
    7651     7739     8513     9038     8787     8411     8490     8590 
    8523     8896     9414     9150     8721     9023     9059     7986 
    6928     7065     8365    10150    10998    10131     8791     7858 
    7074     6524     6257     6841     9150    11661    12012    10446 
    8406     6629     5817     6192     7056     8456    10465    11450 
   10632     9063     7369     6343     6824     8033     8995     9644 
    9801     9351     8915     8721     8176     7632     8050     8743 
    8567     8082     8244     8843     9180     9069     8974     8968 
    8319     7240     7074     7840     8434     9004    10120    10967 
   10478     8756     6817     6015     6910     8379     9312    10193 
   11029    10571     8939     7449     6597     6642     7865     9616 
   10542    10017     8972     8595     8507     7697     6859     7063 
    7132     6629     7524     9541    10288     9745     8988     7950 
    7088     7028     6979     6713     7512     9298    10218     9529 
    8363     8075     8556     8309     7076     6505     7311     8550 
    9738    10712    10284     8505     7546     7688     7462     7380 
    8464     9421     8904     8344     8746     8209     6556     6523 
    8635    10185     9359     7955     8097     8487     7987     8013 
    8789     8945     8556     8687     9026     8739     8252     8050 
    7969     7897     7769     7766     7875     7969     8964    10982 
   11558     9216     6162     5035     5896     7213     7747     8205 
    9802    10856     9624     7578     6154     5649     6177     7484 
    9202     9910     8716     7091     6639     7782     8961     8332 
    7591     8633     9482     8444     7152     7056     7570     8446 
    9709     9628     7651     6237     5996     5814     6463     7803 
    8929    10720    12557    12024     9077     6161     4731     4666 
    5968     7744     9126    11117    12760    11599     9221     8141 
    6835     4406     3821     6231     9562    12259    12904    11651 
   10230     7614     3550     1667     3649     7406    10570    12445 
   13423    12715     9532     5360     2143     1518     4248     8163 
   10466    10848    10585    10076     8671     7294     7028     6782 
    7250     9544    10052     7075     5401     7446     9909    10588 
   10349     9062     6696     5975     7446     8148     7732     8451 
   10579    12498    12596     9537     4572     2508     5174     8827 
   10358     9575     8592     9645     9571     5366     1431     1215 
    3627     7647    10250     8579     6219     7889    10137     7376 
    2718      411     -750      712     6444    11356    11700    10041 
    8291     5254     1553     -504     -479     2482     9499    17980 
   23699    22492    13953     5792     2209    -1021    -2511     3073 
   12248    17336    17280    15963    13809     8567     2161     -645 
    3776    13832    19091    12921     1629    -6373    -4928     5888 
   15441    16826    15082    16157    15296     5189    -6613    -8364 
   -1174     8775    18878    26407    25543    16771    10215     9506 
    9933    10127     9551     7226     7006    11696    18075    23755 
   25474    16452     2157    -1144     6208     9342     7214     8789 
   13425    17524    17132     5560   -10399   -14297    -1771    17027 
   28270    26925    15545     -588    -9162    -6714    -6894   -11090 
   -3520    19573    39861    36351    12124    -9366   -13382    -7447 
   -3184     7350    24638    23396     5895     5929    25303    32341 
   14677    -2315     2490    10851     1680   -14052   -15893    -2266 
   11830    21043    30586    33151    21803     7815      -91    -6870 
  -13009   -14492   -11105     2776    29566    53454    52920    27780 
    3232    -8464   -14833   -14358    -9016    -2737    15438    39064 
   41116    17270    -7693    -9084     9568    22534    20191    11826 
    4060     2641     5363     2018    -2795     4889    26462    45391 
   38194     4515   -23762   -26978   -17024     -793    22157    39896 
   44664    38063    17925   -10399   -27638   -21527     2053    26179 
   36447    32671    19498     2115    -7399    -7442    -6237    -1071 
    7597    13129    14581     8226     3433    12009    16313    12865 
   18280    22504    18027    13432     4757    -6631    -9784    -6843 
   -5053     -635    13003    25860    26021    19977    10146    -4904 
  -14380   -12328     4868    33116    43812    28123     7761   -10354 
  -19799   -11242    -1000     6134    25431    42473    31016    -1977 
  -28703   -29299    -1903    34430    54534    48589    19473   -12665 
  -22588   -18928   -13406    10438    45918    60635    49262    22211 
  -13460   -33731   -21779     5551    30434    42291    32842    15942 
    5930      209     2538    12064    20371    30693    33727    13672 
  -11133   -16223    -7566     1553     9211    14395    13267     5746 
   -3831    -9364    -7504    -3333      257     9038    17474    12862 
    -436   -11592   -14268    -3861    12054    17309     8775     1557 
    4220     4810    -1541    -3844     1891    11780    21375    22820 
   10921    -3631    -4822     1391     2096     5286    17230    24250 
   15012    -2282   -10619    -9192    -6465     7349    32687    40756 
   28188    18328     8199    -8208   -17145   -12310     5174    26773 
   39478    38236    17193   -13166   -27526   -22362    -6065    14638 
   31529    40462    37601    24977    11062    -2704   -12413    -9482 
    6592    30682    45875    34614     7142   -10424    -3912     6925 
    -375     1225    23139    29594    20806    12760    -7983   -31301 
  -23222    18836    60039    64092    29774   -11422   -30872   -27610 
  -20586   -16686    -2736    28379    61242    63086    22771   -24633 
  -45777   -36151    -4286    23704    25447    13197    10643    17676 
   15105     1282    -4985     -383     9412    22129    19186    -7333 
  -26144   -13139    13184    26538    29219    31897    26986    11946 
   -1256   -12035   -19715   -13568     7781    41054    67585    55777 
   19192    -4851   -16644   -21038   -14696    -7947     3242    29110 
   51790    47320    18804    -7586   -13959    -8307    -6525    -8769 
   -6143     1084    10593    19639    17977     5217    -5817    -6705 
    2983    16097    21513    16677     8305     -981   -10106   -13208 
  -13825   -12286     5661    30195    37845    30308    15801     7250 
   13032    11746    -1773    -2882    11830    23062    16812      287 
   -7030    -3832      282    10752    28931    33592    16114     -999 
   -4558    -4646    -8174   -14708   -15599      124    20866    28911 
   22611     2160   -18058   -12363     6675     9900     8328    15184 
   16043    10021     5881     2010      699     7107    20768    32833 
   34404    24279     2351   -19406   -20385    -3901     9913    11669 
    5590     5336    15796    26136    31252    30241    22337    15750 
   10376    -3307   -17014   -14301     3123    22184    30507    22518 
   10469     6975     2151    -8553    -9400      -54     4839     3565 
   -3150   -16243   -23893   -15946     1929    19337    26416    20618 
   14428    13363     8477     2130     1031    -3127   -11523    -8198 
    4305     5108     -292     6516    19360    24992    19967     5630 
  -12151   -19080    -1007    21270    12964    -9371   -10393     3613 
    9053     1516    -3693     4552    15021    17365    17783    14188 
   -2617   -20047   -18527    -5815      279     2641     7547    11902 
   13813     9666     3136     2822     4773     6465     7398     3067 
   -2713    -6723    -6264     2121     7936     4606    -1329    -3701 
    3445    12378     9601     3901     7333    17119    24921    21563 
    9406     -421    -7595   -13891   -11414     3348    17350    17759 
   15438    21173    22206    12152      265    -7786   -11179   -12089 
  -11242    -6701     1863    14918    26563    26597    17672     6839 
   -7464   -20416   -22369   -17602   -15218   -12062     2120    25752 
   38423    23421    -6123   -18931    -7453     4727     3273    -3573 
   -6115    -4131    -3474     1000    16062    26986    25461    19865 
   11331     4189     2146    -1329     -997    12515    32529    41859 
   30057     7248   -10129   -10839     6277    20871    23356    30789 
   42628    44200    38610    29917    15750     1954     2586    23395 
   43700    47711    51329    61067    62954    52062    34854    23247 
   24069    31027    37308    41428    44474    48138    46998    35079 
   22470    25475    39640    45543    42133    43015    47055    40481 
   20108     4005    10200    31534    51849    63688    59037    39059 
   19687     6228     -315     9292    29367    46059    55260    54525 
   48870    45289    40918    39255    41527    35145    21915    16291 
   17389    17840    23384    41716    63352    73730    74256    74182 
   71871    61898    53268    54778    56443    48632    37859    32857 
   33442    41075    60064    78162    79124    71250    66622    57981 
   40562    24148    15172    12384    16098    24271    34798    51406 
   66240    65025    54033    44236    37596    37215    32725     7881 
  -25344   -40362   -31226   -12491     3990    18380    30252    32547 
   21344    -2436   -34724   -58159   -55224   -36282   -19957    -9347 
   -7697   -14898   -19012   -16760   -16328   -21686   -27472   -23275 
   -8827     1703     2177      299    -1667    -2107     1428    -3842 
  -16017    -6732    22383    37845    32120    25061    25336    25906 
   20696    11939     9618    19055    30245    28181    10598    -8899 
  -18678   -20356   -18740   -17064   -15641    -9783    -3802    -9988 
  -23080   -26677   -20981   -13320    -1788    10697    13975     5491 
  -10640   -27588   -35063   -27037   -13428   -12476   -24000   -31276 
  -28422   -25255   -32320   -45346   -49430   -41837   -35151   -37752 
  -41566   -33446   -14608     3928    16189    18046     8750    -2304 
  -11059   -23342   -35727   -38009   -29739   -16031     1123    18295 
   30086    31529    19944     4391    -3453    -5888    -5884     1334 
   15916    32225    46413    59976    76006    90309    91200    70661 
   34017    -4860   -33458   -41955   -30479   -12841     1744    15118 
   30474    48157    55709    36107    -2770   -29608   -22511     3825 
   16449     7577    -8644   -18179   -11600     7315    30172    55340 
   75757    79644    55671     -310   -61329   -90001   -83139   -59427 
  -35534   -18534      -21    17551    19152    19093    34399    46586 
   44443    37440    24753     3551   -17150   -23114    -4430    32175 
   66356    81684    72752    47008    25054    22766    32606    37365 
   34031    29218    19395    -3890   -26983   -23938     3067    31101 
   48015    49604    36140    14413    -8253   -21239   -16794    -2894 
    4889     4398     5454     6652     1634    -5539   -10971   -12150 
   -6531     1414     6060     8577    12537    14269    10516     9051 
   11071     4423   -13396   -27886   -27224   -16726    -4622     9979 
   24375    31209    29542    23436    16286    10696    11445    16321 
   14623     9636     9579     3717   -15190   -32071   -30631   -11904 
   10350    23496    21836     7225    -8583   -15305   -18186   -22713 
  -21276   -12679    -6990    -8122   -15932   -28620   -35351   -27720 
  -10470     8319    22395    25384    16700     2521    -8032    -8222 
   -9012   -24470   -40197   -37027   -18605     4044    19005    19352 
   14638    12683     4774   -13265   -27367   -25637   -12351     -498 
      32    -4510    -4934    -4706    -1753     6413    11503    15512 
   23024    28911    34655    41187    39158    26276    15599    17988 
   23776    19807    11994     7931     4228    -1075    -7119   -12329 
  -12008    -1339    17806    32715    31836    19217     6926      776 
   -1533    -5296   -11160   -10944       32    16410    34545    43819 
   24275   -14806   -39108   -44543   -50535   -52519   -34311    -7551 
    3712     2709     4693     8985    13682    17285     9745   -10520 
  -30690   -35330   -18677     8715    31541    42233    39405    24286 
    1120   -20293   -28044   -16472    12283    47160    70240    75224 
   68968    50310    21018      244    -2662     2299     5522     1320 
  -10222   -19611   -21049   -17459    -8550     6694    19674    21806 
   15698     6866    -5282   -18736   -23052   -15322    -4464     5485 
   15236    21404    21825    20374    21054    19862    10994      333 
   -2559     1138     3476     1059     1718    11461    19259    14883 
    3358    -9028   -17205   -15329    -8560    -5443    -6313   -10843 
  -15192   -13652   -10828   -12183   -12052    -2490    12031    18303 
   10331    -8592   -30067   -44115   -45050   -33419   -16758    -1759 
   12614    22135    19265     9786      993    -7345   -11531    -9899 
   -8276    -9146   -11360   -12181    -5991     6496    17092    20254 
   12881    -3420   -17351   -22528   -22545   -15542    -2111     5375 
    3021    -1219    -4251    -8533   -14974   -18324   -13996    -8772 
   -6534     1023    14755    26060    30335    26566    18596     9223 
   -5055   -17687   -16903    -5711     7284    16436    16429    10399 
    8218    10960    10069     3232    -1575     -940     -334    -3959 
   -9347    -9913    -2184     9936    17577    15157     5497    -5085 
  -10118    -9763   -13115   -19589   -17698    -6619     4446    11253 
   16737    20464    14594      182    -9699    -9594    -4810     -513 
    2964     8581    15400    18110    14179     6885     3693     6658 
    7439     -463   -12005   -16995   -12129    -2536     5994    10075 
    8877     5842     4051     2623     4615    13211    19341    13714 
    -630   -16559   -27673   -29050   -18630     2669    25847    38199 
   37285    28741    16540     5162      545     4066    13517    24371 
   29092    26191    22966    25093    32282    41150    46148    42384 
   31783    19531     7028    -2625    -2168    10118    26662    36499 
   31607    13938    -4000   -11712    -9967    -6401    -3608     3403 
   12638    16162    14644     9308     -619    -5643      603     7132 
    2990    -9427   -22473   -31198   -31783   -19484     1891    18009 
   22527    19916    12852     5891     6192    14187    26391    38695 
   44999    41620    30786    18558     7061    -3890    -6358     5040 
   21686    32294    32521    28510    28946    29197    21712    11842 
    7662     8010     6201     2249     1999     5454    11553    20572 
   28224    32418    33157    28551    18697     2674   -15477   -21136 
   -9833     7136    21099    28455    28686    25091    20590    19143 
   19886    13755     2219     -144    11047    24017    28714    29176 
   31176    29406    21134    11488     1811    -5836    -7292    -3068 
    6278    18956    27858    27021    18168    10503    12046    20051 
   26183    28945    28510    23588    23734    35179    46850    51065 
   49115    42573    32962    19905     7519     3765     9801    22168 
   34203    39272    36818    27807    16228     9124     9535    18158 
   29177    31217    23918    16791    16760    22904    27272    28602 
   29848    22589     4912    -7387    -5902     2648    11732    19321 
   22337    19134    12895     3906    -6574   -10230    -7681    -7025 
   -8035    -9583   -10142    -3025    12233    27811    34258    28023 
   13586    -5270   -20834   -22175   -12081     -156     8764    14206 
   22419    33272    36828    33528    30225    27398    24579    20723 
   13512     4594     1528    11708    29538    42535    47048    43021 
   30195    15271     9714    15249    19826    18729    17959    16563 
   11179     3208    -5034    -9860    -6158     5776    15076    16012 
   16833    18645    13489     3240    -4289    -6205    -4733    -6542 
  -13795   -16194    -7218     5228    16433    26239    27911    21821 
   14062     1933   -11187   -15820   -13872   -10351    -5401     2249 
   10658    13320    10845    10274    12240    14002    14453    13667 
   12043     7334      849     -493     3738     9437    16401    22415 
   24632    26200    26983    22277    15804    13159    11884    10870 
   12829    18839    26364    28667    24116    17429    10095     6847 
