Origin Time       2016/04/16 01:25:00
Lat.              32.753
Long.             130.762
Depth. (km)       12
Mag.              7.3
Station Code      OIT014
Station Lat.      33.0656
Station Long.     131.8589
Station Height(m) 8
Record Time       2016/04/16 01:25:25
Sampling Freq(Hz) 100Hz
Duration Time(s)  132
Dir.              N-S
Scale Factor      7845(gal)/8223790
Max. Acc. (gal)   84.569
Last Correction   2016/04/16 01:25:25
Memo.             
[...]
  -24696   -24514   -25018   -24359   -21073   -17594   -16267   -16147 
  -15508   -14393   -13837   -14347   -15392   -15790   -15321   -15408 
  -16580   -17115   -16189   -15295   -15192   -14678   -13185   -12371 
  -13683   -15330   -14947   -14212   -16011   -18967   -20216   -20692 
  -22056   -22302   -20148   -18330   -18014   -16942   -15287   -16187 
  -20480   -25780   -29852   -32086   -32371   -31050   -28795   -25070 
  -20073   -16972   -17844   -20665   -22813   -23849   -23299   -19996 
  -15434   -12822   -12911   -14308   -15483   -15982   -17131   -20463 
  -25184   -27851   -26804   -24838   -23556   -21000   -17923   -18185 
  -22036   -25671   -26615   -25200   -22404   -19329   -17023   -15396 
  -14214   -14571   -16791   -18804   -19850   -21397   -22176   -19494 
  -14925   -11762   -10544   -11403   -15766   -22549   -27121   -27179 
  -25068   -22470   -18809   -15250   -14258   -15727   -17998   -20667 
  -23220   -24073   -22858   -20903   -19431   -18825   -18619   -18177 
  -18133   -19934   -23275   -25222   -23531   -19302   -15009   -12420 
  -12075   -13219   -15083   -17392   -19685   -21587   -22924   -23322 
  -22878   -22743   -23615   -24495   -24047   -21915   -18964   -16511 
  -14872   -14233   -15759   -19430   -22353   -22130   -20957   -22009 
  -23565   -21795   -17242   -14629   -16340   -19219   -19684   -18634 
  -18258   -17427   -15340   -15169   -18326   -21772   -23886   -25807 
  -27606   -28433   -28339   -26991   -24031   -21286   -20416   -20360 
  -19989   -19583   -19268   -19498   -20891   -21857   -20536   -18242 
  -17165   -17320   -17988   -19728   -22697   -25023   -24715   -21479 
  -17043   -13631   -11504   -10319   -10849   -12843   -14804   -16384 
  -18285   -20534   -21887   -21028   -18806   -17815   -18766   -19826 
  -20170   -20074   -18708   -16464   -15751   -16980   -18513   -20314 
  -23346   -26181   -26792   -26434   -26391   -25386   -23685   -22748 
  -21577   -18438   -14534   -13339   -14898   -15604   -15417   -16595 
  -17930   -18103   -18769   -20804   -22589   -22898   -21944   -19175 
  -14324   -10523   -11180   -14220   -15286   -15399   -17268   -18014 
  -15512   -13940   -15812   -17825   -17706   -18450   -22860   -27924 
  -29779   -29536   -28526   -25688   -22666   -21679   -20736   -19371 
  -20721   -23868   -24845   -23755   -22736   -21562   -19468   -18127 
  -20043   -23238   -22752   -19429   -18277   -19255   -19530   -20011 
  -22383   -24592   -23434   -19870   -18418   -20430   -22495   -22266 
  -21065   -20368   -19444   -17602   -15971   -16047   -18350   -21420 
  -22415   -21178   -20117   -19658   -19633   -21190   -23149   -23024 
  -21101   -18956   -17656   -17776   -18177   -17265   -15919   -15920 
  -16918   -17716   -18324   -19017   -18958   -17170   -14964   -15336 
  -18281   -21201   -24007   -27102   -27814   -24791   -20718   -18424 
  -18544   -20362   -22719   -24700   -25447   -23603   -19106   -15165 
  -14558   -15566   -16050   -17077   -19024   -19963   -19386   -18750 
  -18127   -16780   -16314   -17339   -16997   -15677   -16926   -18937 
  -18209   -17321   -19299   -21520   -21533   -22179   -24950   -26234 
  -25551   -26169   -27711   -28599   -28699   -26526   -21641   -16540 
  -12923    -9837    -6913    -6853   -11371   -17467   -20934   -21427 
  -22032   -23893   -24752   -23600   -22042   -20702   -19068   -18493 
  -19843   -20079   -17076   -13792   -13625   -16104   -19296   -22140 
  -23215   -21833   -20007   -19302   -18536   -16819   -14925   -13822 
  -14939   -19061   -24127   -27630   -29097   -28252   -24908   -21393 
  -20640   -21543   -21330   -21057   -21764   -20837   -18273   -17501 
  -18856   -20459   -22015   -23382   -23445   -21937   -20137   -19537 
  -20494   -21813   -22376   -22944   -23182   -20733   -16906   -14991 
  -13408   -10174    -8523   -10566   -12924   -13139   -13055   -13667 
  -13625   -13316   -14455   -17142   -20764   -24372   -25872   -24557 
  -22489   -22029   -24231   -28204   -31428   -32751   -33431   -34323 
  -34661   -34059   -33408   -32375   -28482   -21524   -15152   -12059 
  -11979   -13905   -16682   -18777   -19210   -18588   -18384   -18897 
  -19030   -18099   -16457   -14863   -13929   -13756   -13838   -13853 
  -14315   -15506   -17182   -19865   -23364   -25105   -23633   -21087 
  -19553   -19045   -19449   -20277   -20386   -19866   -19629   -19764 
  -19680   -18936   -17554   -15585   -14010   -14782   -17118   -18176 
  -18490   -20074   -21622   -22204   -23801   -26033   -25786   -22535 
  -18792   -17096   -18235   -20668   -22011   -22233   -22937   -22779 
  -19990   -18107   -20679   -24680   -25621   -24181   -22928   -21220 
  -19102   -18960   -19624   -18580   -17626   -18607   -19669   -19122 
  -17537   -15776   -14373   -14184   -15579   -17424   -18360   -18578 
  -18731   -18434   -17772   -18252   -20047   -21068   -20694   -20281 
  -20008   -19900   -20811   -22122   -22623   -22310   -21444   -20664 
  -20819   -21460   -21552   -21659   -23028   -24340   -23398   -20984 
  -18488   -16056   -14856   -15645   -17058   -17950   -18486   -18871 
  -18866   -18966   -20204   -21829   -22187   -21627   -21311   -20733 
  -18949   -16440   -14071   -12229   -11399   -11729   -12921   -15153 
  -18177   -20282   -20646   -20700   -21209   -21064   -19577   -17752 
  -17015   -17559   -18936   -20794   -22380   -23291   -22874   -20653 
  -19246   -20568   -21934   -21844   -22046   -22701   -22893   -23053 
  -23768   -24918   -25694   -25486   -24973   -24804   -24602   -23765 
  -21544   -17344   -12229    -8527    -6812    -6066    -6826    -9913 
  -13768   -16244   -17324   -18774   -21088   -22812   -23508   -23882 
  -24119   -24239   -24216   -23875   -22766   -20521   -17813   -15357 
  -13603   -13761   -16401   -20119   -23145   -24887   -25097   -23587 
  -21986   -22532   -24178   -24101   -21859   -18886   -16774   -16104 
  -15718   -14964   -14696   -15284   -16002   -16047   -15906   -16622 
  -17594   -18009   -18760   -20008   -19990   -18489   -17342   -16773 
  -16073   -16208   -17663   -18774   -18364   -17676   -17972   -18354 
  -18769   -20871   -23971   -25933   -27106   -28810   -29999   -28513 
  -24988   -22229   -20542   -18497   -17145   -17668   -18368   -18550 
  -19523   -20714   -20830   -20529   -20318   -19327   -17296   -15110 
  -13371   -11979   -11132   -11469   -12845   -14272   -15168   -15515 
  -15327   -14913   -14935   -15698   -16764   -17545   -18164   -19090 
  -20228   -20827   -20513   -20181   -20584   -21082   -21099   -20742 
  -20094   -19620   -19832   -20574   -22002   -23905   -24722   -24133 
  -23337   -22264   -20286   -17829   -15311   -12550   -10192   -10079 
  -12550   -15990   -19602   -23089   -25624   -27305   -28355   -27826 
  -25394   -22027   -18697   -16484   -16332   -17855   -19623   -20483 
  -20829   -21740   -22287   -20992   -19140   -19017   -20943   -23468 
  -25099   -25281   -24093   -22636   -22239   -22443   -22523   -22363 
  -20549   -17038   -15601   -17608   -18597   -16424   -14820   -15445 
  -15909   -16163   -18045   -20583   -21447   -20169   -18139   -17067 
  -16935   -16774   -17298   -19687   -23290   -26345   -28163   -29813 
  -31552   -32188   -31380   -29115   -25543   -22194   -20146   -19008 
  -17829   -15896   -14226   -13821   -13165   -11803   -11947   -13805 
  -15483   -17003   -18913   -20038   -19878   -19302   -18449   -17400 
  -17388   -19178   -21589   -22580   -21982   -21721   -22300   -22512 
  -23024   -25149   -27043   -25551   -21246   -18550   -19059   -19345 
  -18334   -18796   -20653   -21558   -22092   -24015   -25770   -24723 
  -22006   -19899   -17919   -15961   -15664   -17077   -18793   -20159 
  -20997   -21247   -20970   -19928   -18346   -17069   -16166   -15496 
  -15447   -15632   -15820   -17323   -20510   -23634   -25203   -25229 
  -24281   -22386   -20254   -19730   -20810   -22026   -23145   -23912 
  -23438   -21585   -19236   -18104   -19187   -20821   -20177   -17587 
  -16464   -17887   -20000   -22134   -24640   -26954   -28421   -29455 
  -30835   -32197   -32617   -32009   -30689   -28827   -26082   -21789 
  -16710   -12866   -11070   -10689   -11055   -11422   -11195   -11009 
  -11437   -11678   -11850   -13386   -16062   -18273   -19388   -19853 
  -20154   -20016   -19284   -18972   -19715   -21001   -22748   -25150 
  -27417   -28726   -29180   -28956   -28102   -27174   -26632   -25922 
  -24605   -23888   -24668   -25470   -24852   -23396   -21784   -19971 
  -18715   -18867   -19353   -18645   -16663   -13740   -10390    -7756 
   -6539    -6363    -6710    -7487    -7992    -7084    -5544    -5616 
   -8077   -12120   -16474   -19927   -22675   -25840   -28880   -30073 
  -29419   -28317   -26987   -25058   -23159   -21759   -20447   -18883 
  -17058   -15441   -15160   -16443   -17770   -17933   -17267   -16857 
  -17508   -18732   -19325   -18909   -18023   -17254   -15982   -13479 
  -11430   -11372   -11801   -11379   -10671    -9954    -8677    -6564 
   -4900    -5630    -8290   -11246   -14827   -19315   -23197   -25654 
  -27534   -28899   -28433   -26626   -26200   -27390   -27234   -25438 
  -24921   -25625   -24916   -22523   -19080   -14092    -7963    -2718 
    -504    -1339    -2832    -3345    -3365    -3407    -3106    -2484 
   -2046    -1954    -2675    -4774    -7349    -9302   -11117   -12919 
  -13859   -15018   -18418   -23005   -26461   -28794   -30586   -31591 
  -32131   -32753   -33698   -35051   -36116   -36124   -35222   -34184 
  -34028   -34690   -34666   -33232   -30780   -27329   -23315   -20239 
  -18937   -18634   -18310   -17910   -17485   -16362   -13967   -10574 
   -7180    -4629    -2988    -2076    -1557    -1012     -691    -1200 
   -2852    -5842    -9987   -14620   -19415   -24069   -27407   -28626 
  -28606   -28918   -30202   -31885   -33450   -35136   -36868   -37840 
  -38111   -38582   -38720   -37277   -35263   -35105   -36960   -38391 
  -37937   -35891   -31945   -26249   -20819   -16491   -12074    -7678 
   -4629    -2529     -275      767    -1767    -7157   -12603   -16637 
  -18391   -17027   -13440    -9289    -5329    -2552    -2563    -4882 
   -6608    -7272   -10446   -18289   -28709   -38755   -46962   -52362 
  -54290   -53183   -49638   -43808   -37137   -31911   -28431   -24884 
  -19352   -11119     -986     9524    19230    27388    32942    34272 
   30149    21163    10296      811    -6764   -13069   -17523   -20649 
  -24231   -27760   -29172   -28166   -26356   -25130   -25031   -27004 
  -31414   -36964   -42491   -46542   -46464   -42214   -37840   -36042 
  -35263   -33589   -31314   -29346   -28476   -29239   -31233   -33332 
  -33979   -32506   -29910   -26113   -19457   -10192     -754     6984 
   12029    14090    15016    17008    19381    20217    18789    15106 
    9701     3099    -5100   -14625   -23141   -28270   -29327   -27067 
  -23677   -21887   -23109   -26407   -29660   -32329   -35193   -38225 
  -41229   -44288   -46674   -47100   -45067   -41270   -36262   -30056 
  -23598   -18285   -14980   -14462   -16653   -20613   -25886   -31828 
  -36934   -39777   -39595   -36069   -29462   -22095   -18284   -19710 
  -23407   -26917   -29689   -29431   -24057   -14866    -4949     2438 
    5047     2590    -4148   -13072   -19985   -21027   -15867    -7167 
    2033     9150    12332    11273     7438     3295      -28    -3507 
   -8141   -13915   -19766   -24495   -28333   -31884   -34512   -35148 
  -34219   -34339   -37330   -41771   -45747   -48868   -51329   -53569 
  -55309   -55401   -53530   -49307   -41334   -30665   -21624   -16421 
  -13122    -9859    -6596    -3300       11     2787     5238     8542 
   13302    18193    20495    18893    15093    11878    10212     8575 
    4676    -2336   -10860   -18465   -24301   -28293   -29247   -25799 
  -18512   -10419    -5310    -4994    -8476   -13495   -18717   -24622 
  -31943   -39653   -45360   -47228   -45254   -41543   -39044   -39399 
  -42213   -45635   -47547   -47986   -49256   -51898   -53379   -51656 
  -46823   -39505   -31233   -25682   -25539   -29351   -33822   -36869 
  -38076   -38056   -36769   -32524   -24075   -12919    -1881     7354 
   13792    16510    15850    12953     8618     4183     1274     -135 
   -1382    -3213    -5562    -8596   -12989   -18559   -23140   -24354 
  -22445   -19823   -18766   -20443   -24517   -29538   -35236   -42832 
  -51942   -59991   -65462   -69121   -71640   -71767   -68190   -61573 
  -52486   -40705   -29045   -22199   -20506   -21358   -24403   -29390 
  -33762   -35807   -35480   -32333   -26196   -19061   -14099   -12145 
  -10837    -8179    -4630    -1624     -510    -2068    -5744   -10813 
  -17581   -25952   -34295   -40386   -42712   -41170   -36829   -30667 
  -23143   -15403    -9659    -7869    -9927   -13058   -14469   -13838 
  -11888    -8949    -5856    -3909    -3836    -5817   -10129   -16992 
  -25170   -32054   -36537   -39632   -41635   -41222   -37714   -32614 
  -28904   -28984   -32670   -37775   -42780   -47401   -51174   -53534 
  -54554   -53723   -48583   -37592   -23568   -11074    -2311     2583 
    4071     3591     3662     5694     9113    13139    16291    16336 
   12982     7492     1287    -4310    -9013   -12403   -13043    -9896 
   -2744     8187    21647    34566    44413    51857    57742    60414 
   58532    52938    45447    37498    28757    17346     2606   -14760 
  -34330   -54405   -72193   -86337   -96488  -103025  -107030  -108442 
 -107157  -104762  -101648   -95492   -84774   -70704   -55097   -39573 
  -26555   -18173   -15014   -16741   -21876   -27341   -30407   -30424 
  -28511   -26832   -26627   -27143   -26958   -24509   -19576   -13548 
   -6250     3029    13045    21927    27608    28999    27426    24306 
   19970    14886     9880     6133     5092     7321    11280    14562 
   16089    14898     8887    -2451   -17134   -33185   -49535   -65128 
  -78144   -86281   -88629   -86213   -80454   -72831   -64214   -53064 
  -36660   -15097     7431    25938    36901    37930    29137    13718 
   -3712   -18127   -26626   -30446   -31657   -30542   -27822   -25840 
  -26434   -29532   -34115   -39251   -44459   -50025   -56216   -62000 
  -65199   -64226   -59524   -52725   -44385   -34051   -23164   -15424 
  -12734   -13382   -15315   -18229   -21170   -20983   -16223   -10400 
   -7701    -8411   -10702   -13286   -16046   -20016   -25610   -31423 
  -35328   -35355   -31002   -24372   -17736   -10995    -3302     4698 
   11200    14904    15507    13261     9294     5142     1048    -4780 
  -15010   -29484   -43390   -52004   -55247   -55479   -54395   -53580 
  -54365   -56237   -57593   -56917   -52533   -45030   -38504   -35228 
  -33296   -30950   -27658   -22627   -15970    -8758    -1786     3898 
    7099     7902     7403     6678     7254    10301    15052    20139 
   24618    27349    27371    23637    15341     3861    -7715   -17161 
  -25093   -33955   -43623   -50922   -53962   -53611   -51714   -49601 
  -47763   -46105   -44111   -42260   -42807   -46642   -50210   -48377 
  -39505   -25602   -10196     2272     7821     5842      252    -4648 
   -8251   -10947   -11815   -10774    -8780    -6160    -2991       87 
    2523     4036     4013     1890    -2378    -8700   -17128   -27499 
  -37721   -43559   -42576   -35733   -25162   -13726    -4058     2876 
    6498     6340     3225    -1451    -7206   -14675   -24209   -34271 
  -42363   -47823   -51449   -52263   -48505   -41517   -35369   -33350 
  -35214   -37287   -36683   -33905   -30836   -28679   -26576   -22214 
  -14796    -5479     3774    10667    13900    13732    11061     6876 
    1819    -3383    -7180    -8338    -6517    -1949     3369     6925 
    9024    11180    12827    12241     7969     -718   -12502   -24556 
  -35266   -44405   -51035   -53979   -53296   -49185   -41588   -31810 
  -22887   -18193   -19720   -26640   -34564   -37764   -34983   -30613 
  -28864   -30335   -32797   -33505   -31608   -27484   -22261   -17730 
  -14337   -11726   -10458   -11731   -15380   -17875   -15487    -8329 
    1281    10994    18376    20806    16826     8143    -1443    -8765 
  -12637   -14050   -14665   -15610   -17832   -21736   -26789   -32185 
  -37234   -41133   -43394   -44493   -45237   -46241   -47817   -49121 
  -48594   -45538   -40196   -33405   -26705   -21645   -18998   -18252 
  -17084   -13169    -6748      514     6569     8614     6292     2656 
    -372    -2613    -3379    -3194    -3888    -5458    -6669    -7657 
   -9763   -13909   -19116   -23035   -24580   -24400   -23607   -23103 
  -23126   -23531   -23556   -21278   -15962   -10459    -8883   -12168 
  -18211   -25037   -31045   -34996   -37226   -38410   -38951   -39235 
  -38260   -35564   -33308   -32783   -32509   -30627   -26442   -20623 
  -14733    -9971    -6990    -6282    -7063    -7819    -8857   -10839 
  -12399   -12594   -12171   -11584   -11765   -14334   -18176   -20780 
  -22948   -26072   -28518   -29550   -30736   -32648   -34939   -36683 
  -35542   -30882   -25766   -23224   -23483   -25104   -26516   -26932 
  -26427   -24792   -21447   -18009   -17851   -20108   -19853   -16217 
  -12185    -8159    -3863    -1336    -1664    -3603    -5428    -6442 
   -7761   -10816   -14663   -16742   -17212   -19373   -24062   -28250 
  -29830   -29863   -30253   -30287   -27423   -23036   -21548   -22928 
  -23689   -23242   -23093   -23018   -21891   -20871   -21756   -23206 
  -23330   -22225   -19855   -15774    -9888    -4002    -1525    -2168 
   -3041    -4525    -7492    -9697    -9641    -8698    -8494    -9977 
  -13474   -18104   -22130   -24128   -24636   -25277   -25933   -25975 
  -26242   -26165   -23875   -20995   -20312   -20895   -21377   -22561 
  -24630   -26639   -28088   -28973   -28931   -27085   -24493   -23398 
  -22025   -17994   -13602   -10015    -5769    -2790    -3987    -8201 
  -12187   -14011   -14227   -14712   -15811   -16287   -16321   -17559 
  -19831   -21223   -20791   -18420   -15616   -16081   -19758   -22866 
  -25452   -28138   -28696   -28494   -30472   -31959   -28999   -24273 
  -23838   -26700   -26377   -22270   -17724   -12503    -6436    -2467 
   -3561    -8332   -11475   -12000   -13514   -16440   -18675   -18571 
  -16233   -15763   -18378   -18520   -15974   -16829   -20385   -21593 
  -20718   -20825   -23124   -26793   -29451   -30314   -32162   -35559 
  -36363   -33812   -32154   -31950   -29053   -22832   -18721   -19660 
  -20965   -19437   -19066   -22029   -23984   -21904   -18720   -17959 
  -18841   -19560   -19872   -19102   -17535   -16040   -13558   -10674 
   -9275    -8193    -6893    -7600   -10867   -14759   -17132   -17950 
  -19318   -21074   -20738   -18594   -17486   -18123   -17891   -15525 
  -13856   -15006   -16857   -17637   -19692   -24672   -29899   -32283 
  -31405   -29092   -27324   -26167   -24595   -22565   -21533   -22333 
  -23795   -25111   -25658   -23566   -19862   -18546   -20124   -21875 
  -22239   -21354   -20386   -19724   -18616   -17760   -18009   -18825 
  -19811   -19552   -17698   -17433   -18445   -17034   -15645   -17793 
  -20470   -22526   -26784   -32374   -36678   -38357   -35807   -30007 
  -25096   -23404   -23552   -23301   -22484   -21560   -19892   -18832 
