Origin Time       2016/04/16 01:25:00
Lat.              32.753
Long.             130.762
Depth. (km)       12
Mag.              7.3
Station Code      OIT005
Station Lat.      33.4549
Station Long.     131.1142
Station Height(m) 113
Record Time       2016/04/16 01:25:20
Sampling Freq(Hz) 100Hz
Duration Time(s)  300
Dir.              N-S
Scale Factor      7845(gal)/8223790
Max. Acc. (gal)   171.322
Last Correction   2016/04/16 01:25:20
Memo.             
[...]
  -10790   -10794   -10798   -10798   -10795   -10800   -10802   -10797 
  -10788   -10791   -10801   -10804   -10798   -10793   -10794   -10798 
  -10798   -10794   -10793   -10800   -10802   -10795   -10793   -10797 
  -10802   -10797   -10788   -10795   -10805   -10801   -10790   -10785 
  -10790   -10797   -10798   -10797   -10794   -10794   -10797   -10795 
  -10793   -10797   -10801   -10795   -10788   -10793   -10801   -10804 
  -10794   -10785   -10791   -10801   -10800   -10794   -10790   -10794 
  -10801   -10801   -10797   -10794   -10795   -10794   -10793   -10795 
  -10804   -10804   -10793   -10785   -10793   -10802   -10800   -10793 
  -10793   -10798   -10798   -10794   -10794   -10802   -10802   -10793 
  -10787   -10791   -10801   -10805   -10800   -10793   -10794   -10800 
  -10795   -10788   -10794   -10801   -10802   -10798   -10791   -10794 
  -10800   -10795   -10790   -10795   -10804   -10802   -10790   -10786 
  -10793   -10802   -10801   -10794   -10793   -10800   -10801   -10793 
  -10787   -10793   -10801   -10801   -10794   -10793   -10797   -10797 
  -10791   -10793   -10800   -10804   -10801   -10790   -10788   -10801 
  -10805   -10794   -10791   -10797   -10800   -10797   -10793   -10795 
  -10804   -10804   -10794   -10787   -10794   -10802   -10798   -10788 
  -10793   -10802   -10804   -10795   -10787   -10793   -10802   -10798 
  -10791   -10794   -10800   -10797   -10793   -10790   -10795   -10802 
  -10798   -10791   -10793   -10795   -10795   -10795   -10795   -10800 
  -10800   -10793   -10788   -10793   -10802   -10806   -10797   -10788 
  -10791   -10798   -10800   -10795   -10794   -10798   -10798   -10793 
  -10790   -10794   -10801   -10797   -10790   -10794   -10801   -10801 
  -10794   -10788   -10794   -10802   -10801   -10790   -10790   -10802 
  -10806   -10795   -10788   -10794   -10798   -10795   -10795   -10798 
  -10800   -10800   -10793   -10788   -10798   -10804   -10801   -10794 
  -10793   -10800   -10800   -10793   -10791   -10794   -10800   -10798 
  -10791   -10794   -10802   -10802   -10794   -10787   -10795   -10800 
  -10794   -10791   -10793   -10798   -10801   -10795   -10793   -10798 
  -10802   -10798   -10791   -10791   -10798   -10801   -10794   -10790 
  -10797   -10800   -10797   -10793   -10794   -10800   -10804   -10797 
  -10791   -10797   -10801   -10797   -10793   -10794   -10798   -10797 
  -10793   -10793   -10797   -10800   -10797   -10793   -10795   -10802 
  -10801   -10793   -10790   -10794   -10800   -10798   -10793   -10793 
  -10800   -10801   -10797   -10794   -10795   -10798   -10795   -10793 
  -10795   -10800   -10798   -10790   -10788   -10798   -10805   -10800 
  -10790   -10793   -10802   -10801   -10793   -10788   -10795   -10801 
  -10800   -10794   -10791   -10798   -10801   -10791   -10787   -10797 
  -10804   -10798   -10795   -10797   -10800   -10797   -10788   -10790 
  -10801   -10804   -10795   -10790   -10791   -10798   -10801   -10794 
  -10793   -10798   -10801   -10795   -10788   -10794   -10802   -10801 
  -10793   -10790   -10797   -10804   -10797   -10790   -10795   -10804 
  -10801   -10791   -10788   -10798   -10805   -10798   -10791   -10797 
  -10801   -10795   -10790   -10791   -10798   -10802   -10800   -10794 
  -10794   -10800   -10800   -10793   -10794   -10800   -10801   -10797 
  -10793   -10795   -10800   -10800   -10794   -10793   -10801   -10804 
  -10795   -10788   -10791   -10801   -10804   -10797   -10793   -10797 
  -10798   -10791   -10788   -10798   -10804   -10801   -10793   -10787 
  -10794   -10802   -10801   -10794   -10795   -10801   -10801   -10791 
  -10791   -10798   -10801   -10797   -10794   -10797   -10801   -10797 
  -10788   -10791   -10802   -10804   -10794   -10790   -10793   -10800 
  -10800   -10791   -10791   -10801   -10802   -10793   -10791   -10798 
  -10801   -10797   -10791   -10793   -10800   -10800   -10788   -10786 
  -10798   -10806   -10804   -10791   -10788   -10797   -10801   -10797 
  -10794   -10797   -10802   -10801   -10793   -10795   -10802   -10800 
  -10793   -10790   -10797   -10804   -10801   -10793   -10793   -10798 
  -10801   -10797   -10791   -10798   -10805   -10793   -10787   -10797 
  -10802   -10801   -10794   -10791   -10800   -10804   -10797   -10791 
  -10793   -10800   -10800   -10797   -10794   -10798   -10801   -10794 
  -10788   -10798   -10805   -10800   -10788   -10787   -10798   -10806 
  -10800   -10790   -10795   -10802   -10798   -10791   -10794   -10801 
  -10802   -10795   -10793   -10795   -10800   -10798   -10791   -10790 
  -10800   -10804   -10795   -10791   -10798   -10801   -10795   -10791 
  -10793   -10798   -10802   -10795   -10791   -10795   -10802   -10802 
  -10795   -10794   -10800   -10801   -10797   -10793   -10793   -10801 
  -10800   -10791   -10791   -10798   -10800   -10795   -10793   -10793 
  -10797   -10795   -10791   -10793   -10798   -10800   -10797   -10793 
  -10793   -10800   -10801   -10790   -10790   -10802   -10804   -10793 
  -10790   -10800   -10802   -10797   -10793   -10794   -10801   -10804 
  -10798   -10793   -10795   -10800   -10797   -10790   -10794   -10804 
  -10801   -10793   -10793   -10797   -10801   -10795   -10790   -10793 
  -10798   -10800   -10795   -10791   -10797   -10802   -10798   -10790 
  -10788   -10797   -10804   -10795   -10790   -10795   -10800   -10798 
  -10791   -10791   -10801   -10804   -10793   -10787   -10797   -10802 
  -10798   -10793   -10790   -10795   -10801   -10795   -10790   -10797 
  -10802   -10797   -10787   -10791   -10800   -10800   -10794   -10793 
  -10798   -10801   -10794   -10791   -10794   -10798   -10800   -10794 
  -10788   -10797   -10805   -10800   -10790   -10791   -10798   -10798 
  -10795   -10793   -10794   -10800   -10797   -10790   -10794   -10801 
  -10802   -10795   -10790   -10794   -10798   -10797   -10793   -10793 
  -10798   -10797   -10791   -10794   -10800   -10802   -10800   -10791 
  -10790   -10795   -10801   -10795   -10791   -10797   -10800   -10794 
  -10791   -10791   -10795   -10800   -10794   -10791   -10795   -10801 
  -10801   -10793   -10791   -10801   -10802   -10793   -10787   -10797 
  -10805   -10798   -10790   -10793   -10798   -10798   -10797   -10794 
  -10797   -10801   -10797   -10788   -10791   -10802   -10801   -10791 
  -10788   -10795   -10802   -10801   -10791   -10790   -10794   -10798 
  -10795   -10793   -10798   -10802   -10795   -10787   -10790   -10797 
  -10801   -10797   -10793   -10795   -10801   -10800   -10791   -10791 
  -10801   -10802   -10793   -10791   -10798   -10800   -10797   -10791 
  -10791   -10798   -10801   -10793   -10793   -10798   -10801   -10797 
  -10787   -10790   -10802   -10802   -10794   -10793   -10794   -10795 
  -10798   -10794   -10793   -10798   -10798   -10791   -10790   -10797 
  -10804   -10801   -10791   -10790   -10797   -10800   -10794   -10793 
  -10797   -10801   -10798   -10790   -10793   -10798   -10800   -10797 
  -10793   -10797   -10802   -10797   -10790   -10795   -10802   -10802 
  -10795   -10788   -10791   -10798   -10798   -10794   -10795   -10798 
  -10797   -10794   -10791   -10795   -10802   -10797   -10788   -10790 
  -10800   -10802   -10797   -10791   -10794   -10798   -10797   -10793 
  -10795   -10801   -10800   -10791   -10791   -10798   -10801   -10795 
  -10791   -10795   -10800   -10800   -10795   -10791   -10795   -10801 
  -10797   -10794   -10795   -10798   -10801   -10795   -10791   -10798 
  -10802   -10795   -10790   -10793   -10797   -10797   -10795   -10794 
  -10798   -10802   -10795   -10788   -10793   -10800   -10802   -10797 
  -10790   -10795   -10801   -10794   -10787   -10793   -10801   -10797 
  -10790   -10791   -10798   -10798   -10793   -10790   -10794   -10800 
  -10800   -10793   -10788   -10795   -10805   -10801   -10790   -10791 
  -10800   -10800   -10793   -10791   -10797   -10800   -10798   -10794 
  -10793   -10800   -10802   -10794   -10788   -10798   -10804   -10797 
  -10790   -10795   -10802   -10800   -10791   -10788   -10795   -10801 
  -10798   -10791   -10791   -10800   -10801   -10793   -10788   -10795 
  -10804   -10801   -10793   -10791   -10797   -10797   -10788   -10793 
  -10802   -10802   -10793   -10787   -10790   -10800   -10804   -10795 
  -10791   -10798   -10804   -10797   -10786   -10787   -10800   -10802 
  -10794   -10790   -10791   -10798   -10797   -10790   -10793   -10802 
  -10802   -10793   -10788   -10797   -10801   -10797   -10794   -10795 
  -10797   -10797   -10791   -10790   -10798   -10804   -10800   -10788 
  -10793   -10801   -10800   -10791   -10788   -10795   -10804   -10800 
  -10794   -10793   -10795   -10798   -10795   -10794   -10800   -10798 
  -10793   -10790   -10793   -10801   -10804   -10794   -10790   -10794 
  -10797   -10795   -10794   -10795   -10800   -10800   -10790   -10785 
  -10798   -10808   -10802   -10791   -10788   -10794   -10801   -10800 
  -10795   -10795   -10800   -10798   -10791   -10793   -10800   -10797 
  -10793   -10793   -10800   -10802   -10797   -10786   -10787   -10801 
  -10805   -10793   -10787   -10794   -10795   -10794   -10797   -10797 
  -10800   -10801   -10791   -10787   -10794   -10801   -10798   -10797 
  -10801   -10801   -10790   -10787   -10790   -10798   -10806   -10802 
  -10791   -10790   -10795   -10795   -10793   -10795   -10802   -10805 
  -10794   -10782   -10787   -10804   -10809   -10805   -10801   -10801 
  -10801   -10802   -10806   -10820   -10837   -10844   -10840   -10844 
  -10859   -10870   -10883   -10901   -10910   -10902   -10891   -10889 
  -10879   -10874   -10872   -10851   -10829   -10829   -10817   -10794 
  -10790   -10793   -10790   -10791   -10802   -10813   -10802   -10759 
  -10693   -10623   -10555   -10488   -10422   -10401   -10489   -10732 
  -11110   -11492   -11669   -11491   -10987   -10368    -9902    -9811 
  -10131   -10689   -11173   -11288   -10978   -10523   -10351   -10697 
  -11356   -11765   -11504   -10689    -9790    -9255    -9343   -10029 
  -11048   -11940   -12154   -11483   -10404    -9714    -9856   -10623 
  -11421   -11715   -11348   -10519    -9429    -8201    -7311    -7601 
   -9471   -12465   -15456   -16972   -15985   -12857    -9428    -7670 
   -8073    -9647   -11026   -11438   -11330   -11520   -11682   -11168 
  -10640   -11126   -11928   -11344    -9332    -7576    -7234    -8093 
   -9690   -11956   -14222   -15064   -13861   -11402    -8978    -7545 
   -7406    -8329    -9975   -12005   -13864   -14613   -13478   -11199 
   -9867   -10862   -13591   -15812   -15255   -11267    -5248     -801 
   -1907    -8553   -15662   -17941   -14628    -9111    -5782    -7357 
  -12737   -17015   -15801   -10477    -6335    -5352    -5904    -7288 
   -9319   -11118   -12256   -12992   -13909   -15333   -16843   -17182 
  -14710    -9066    -2836    -1069    -6727   -15966   -21116   -18257 
   -9815    -1628     1015    -3447   -11433   -17018   -16903   -11492 
   -3924      278    -2708   -11060   -19873   -24954   -24206   -18262 
  -10042    -3940    -3298    -6711    -9841   -10594   -10142   -10876 
  -13562   -15479   -13321    -8009    -4310    -5597   -11101   -17334 
  -19734   -15233    -5637     3029     4877    -1671   -12764   -22172 
  -24956   -19890   -10995    -4677    -4442    -9614   -16259   -19032 
  -15407    -7515     -592      121    -5809   -14173   -20721   -22283 
  -18682   -14272   -11983   -10646    -9436    -7572    -3535     -225 
   -3607   -13224   -20586   -18234    -7321     3889     7700     1980 
  -10050   -21672   -26512   -22736   -13833    -6161    -4733    -9331 
  -14500   -15464   -12926   -10477   -11217   -15857   -20958   -22184 
  -18320   -10312     -493     6285     5563    -1846   -11287   -17701 
  -17116   -10390    -2988     -139    -4276   -12924   -19923   -20892 
  -15684    -8109    -4580    -9628   -20417   -27638   -25034   -14960 
   -3832     1937    -1024    -9246   -16027   -17572   -14146   -10174 
  -10864   -15354   -17253   -11569      660    11313    10658    -1907 
  -16549   -23881   -21473   -12478    -3827    -1540    -5533   -11914 
  -17377   -18968   -15364   -10257    -9067   -12803   -17788   -19086 
  -14674    -7740    -3173    -3863   -10851   -19799   -21115   -12656 
   -2718     2835     4433     3013    -1308    -7240   -12833   -17540 
  -20587   -19741   -14855    -8408    -2300      909    -2393   -10504 
  -16544   -17115   -13558    -8467    -6228   -10580   -18554   -22234 
  -17554    -7396     1422     2373    -4781   -13954   -19222   -18073 
  -12388    -6255    -3235    -5922   -10710   -10050    -5016    -2073 
   -2281    -5597   -12463   -17598   -16201   -10930    -5358     -926 
    -731    -5717   -11904   -16428   -17709   -13617    -7307    -6777 
  -14755   -23406   -22586   -12394    -2199      -64    -8206   -23711 
  -37570   -37048   -17668    10486    32815    39175    25957    -1409 
  -30564   -49526   -51845   -35787    -1440    41418    65967    49218 
   -2088   -59057   -91924   -81259   -31438    28231    67455    65982 
   18052   -50287   -96483   -98254   -62046   -12225    26083    33520 
     453   -47405   -62171   -28768    30979    85860   103774    68894 
   -1907   -72311  -109753   -98826   -49608     7884    47137    55707 
   39796    24603    19170     8638    -9806   -33436   -63965   -86311 
  -85837   -69155   -43930   -18312    -8549   -12617    -7959    14357 
   40217    48798    32702     9174     4149    20056    29274    13200 
  -22017   -72735  -124085  -138690   -98185   -12071    94220   168798 
  162264    76239   -48620  -157747  -189577  -134543   -52550    21107 
   75591    68269     4321   -41316   -29429    18697    53741    36232 
  -20586   -83990  -128139  -118266   -47721    48223   124328   134551 
   57570   -68459  -164313  -167590   -74306    59672   154452   153814 
   64936   -40869  -106760  -119257   -67933    14597    65835    64462 
   15075   -48645   -82607   -86031   -71860   -43478   -10415    16981 
   30676    24142     -418   -27805   -35386   -15731    11666    26474 
   26962    16393    -4626   -19003    -1591    29713    31033     3607 
  -22763   -39388   -47644   -48686   -50485   -56258   -54025   -33848 
   -5394    18793    32934    24422   -10034   -42142   -46386   -33134 
  -13630    16050    44370    55428    48509    25681    -9582   -46134 
  -64652   -54033   -28440    -2520    20564    25245     2664   -22684 
  -29495   -26360   -25342   -25141   -22670   -19819   -12924     5448 
   25897    30136    14175   -11388   -26203   -21848   -19820   -31968 
  -37477   -22145     3965    22272    20578     4063   -16794   -37516 
  -45598   -27882     1117    11701     -402   -16100   -25957   -29285 
  -21720    -4558    15330    31307    38260    34100    12685   -27553 
  -68199   -83986   -64077   -21844    14827    27777    14926   -13154 
  -31500   -22924    -2486     5628     1665    -2782   -10528   -22893 
  -26236   -20286   -22542   -30832   -24452    -6897     3303    12468 
   27503    30588     9764   -27954   -64920   -80585   -67902   -32606 
   10181    31661    17265    -9637   -21541   -13462    11013    36771 
   40614    18370   -16275   -42498   -45269   -36686   -30195   -13436 
   13285    26356    20831     6929   -12664   -32838   -44773   -43748 
  -29863   -10872     3874     7954    -2528   -19570   -30588   -30434 
  -14817    11233    30973    36279    24711    -6558   -45117   -68864 
  -69160   -46487    -3118    36590    37272    -2211   -51651   -82659 
  -77292   -29771    40383    88245    82513    36381   -15346   -46936 
  -48132   -27390    -6894    -2409   -15140   -36086   -48374   -33722 
   11080    56848    63191    23989   -36547   -96018  -130783  -109804 
  -30370    59031    99414    68296    -7865   -73900   -92180   -57838 
   12499    76844    91403    48625   -23315   -81683   -96793   -68485 
  -16067    34141    55896    36899    -3569   -30053   -35019   -35802 
  -35139   -24329    -8114     2840     8167    12116    13259     6031 
   -8550   -19263   -19670   -12749    -3655    -2126   -11663   -22847 
  -27986   -23604   -11940    -4048    -5942   -13751   -17552    -4594 
   19761    32587    24036    -3009   -42209   -74914   -78108   -44073 
    8005    46661    58353    42480     5980   -20603   -17683    -8118 
  -14265   -32487   -50309   -54634   -41586   -18528     5227    18461 
   13927    -1815   -12943   -12104    -8279    -9616   -13957   -17786 
  -19145   -17868   -15519   -10234      673    11813    14176     4332 
  -12888   -22061   -14145    -4710    -9543   -22102   -29052   -22852 
   -4391    13011    14692    -1449   -25095   -39449   -34333   -16752 
   -2101      999    -5660   -15048   -17959    -9324     2739     6648 
     487   -11294   -22343   -32223   -41916   -37131    -9609    21012 
   32799    21342    -6702   -39090   -59381   -52650   -17268    24007 
   33578     2849   -30993   -35937   -15507    14116    34420    28235 
   -1278   -34100   -57038   -63817   -46394    -9882    22520    31498 
   13248   -22108   -52357   -57000   -34489     -454    23047    18573 
   -9332   -34372   -37233   -24331   -11288    -4166    -5864   -16648 
  -25513   -20426    -4880     2041    -8595   -20286   -21193   -19218 
  -18524   -15946   -10990    -5208     -607     3869     6268    -2617 
  -22762   -40160   -41661   -23693     2863    16849    10258    -6474 
  -26142   -41319   -34804    -7778    12565    12376     2546    -9652 
  -23468   -30335   -28903   -30056   -31291   -20664    -1412    14262 
   17830     4126   -20040   -34820   -31856   -24127   -19652   -12850 
   -5219    -1333      307    -2435    -9767   -17366   -21374   -11952 
    8155    15549     4692   -11080   -26617   -35068   -30450   -23502 
  -24004   -27556   -28206   -23895   -14165    -4943    -3792    -7950 
  -11929   -15268   -17147   -15326    -8182     -430     1435      526 
    1109     3357     7408     6218    -7430   -23479   -30422   -32956 
  -33374   -30781   -35172   -43683   -38195   -18775     1966    15876 
   15257     -676   -22081   -36568   -34720   -18037    -1204     2808 
   -3948   -12573   -20256   -24024   -16538    -1965     4426    -1906 
  -14384   -27225   -32759   -24727    -7680     6006     5103    -9132 
  -26015   -40594   -49005   -44788   -30206   -12290     5221    14148 
    4537   -19272   -42880   -54268   -43846   -13406    16056    21864 
    1165   -26901   -39815   -32262   -15637    -4232    -4619   -15115 
  -29251   -34674   -23238    -4769     7696    15427    19180    12409 
    -305    -8496   -13760   -19105   -19966   -15965   -13896   -19070 
  -28051   -31664   -27055   -18021    -9080    -6184    -9490    -9475 
   -3069     -526    -9347   -23769   -33308   -33500   -23534    -3435 
   17570    22806     6559   -17918   -32746   -32854   -23093   -10443 
   -6490   -14307   -20664   -18041    -9661      493     3639    -4459 
  -13761   -16726   -14067    -5475     4122     2417   -14165   -35002 
  -46912   -42206   -20039    10187    29053    24170      792   -29851 
  -50037   -41269   -10064    19595    31513    22736    -1525   -30859 
  -45341   -33077    -6880    17825    28911    14710   -13262   -28947 
  -23562    -8945    -2093    -7500   -16829   -24381   -27822   -20197 
    -932    11618     2874   -19008   -41231   -51780   -37764    -7068 
