Origin Time       2016/04/16 01:25:00
Lat.              32.753
Long.             130.762
Depth. (km)       12
Mag.              7.3
Station Code      OIT007
Station Lat.      33.4169
Station Long.     131.6142
Station Height(m) 22
Record Time       2016/04/16 01:25:27
Sampling Freq(Hz) 100Hz
Duration Time(s)  161
Dir.              E-W
Scale Factor      7845(gal)/8223790
Max. Acc. (gal)   42.461
Last Correction   2016/04/16 01:25:27
Memo.             
[...]
   -3300    -3458    -3528    -3330    -2587    -1445     -172     1023 
    1776     1841     1485     1039      457     -344    -1259    -2106 
   -2612    -2816    -3353    -4602    -6060    -7118    -7789    -8322 
   -8579    -8162    -7055    -5701    -4364    -2982    -1625     -702 
    -623    -1444    -2806    -4166    -5147    -5676    -5764    -5368 
   -4314    -2602     -973     -218     -253     -687    -1248    -1509 
   -1336    -1094     -949     -788     -645     -689    -1120    -1934 
   -2758    -3276    -3607    -3932    -4185    -4252    -4200    -4314 
   -4657    -4893    -5004    -5235    -5459    -5445    -5221    -4748 
   -3762    -2126     -176     1537     2646     3009     2548     1252 
    -566    -2446    -4282    -6129    -7792    -9062    -9791    -9886 
   -9570    -9076    -8220    -6754    -4781    -2659     -789      388 
     746      920     1597     2484     2822     2370     1452      573 
    -144    -1015    -1966    -2697    -3296    -3879    -4342    -4556 
   -4275    -3489    -2655    -2083    -1713    -1459    -1119     -380 
     545      980      681        5     -662    -1273    -1993    -2876 
   -3809    -4731    -5629    -6482    -7160    -7543    -7811    -8120 
   -8283    -8122    -7661    -6970    -6129    -5235    -4276    -3059 
   -1544     -259      135     -265     -880    -1487    -2155    -2835 
   -3288    -3137    -2297    -1170     -144      460      266     -639 
   -1721    -2625    -3361    -3955    -4213    -3958    -3296    -2501 
   -1713     -954     -422     -249     -212     -125      -72     -136 
    -272     -480     -749     -936    -1107    -1624    -2515    -3265 
   -3462    -3300    -3107    -2764    -2098    -1312     -672     -186 
     121      -56     -776    -1487    -1775    -1742    -1464     -911 
    -268      148      170       37      137      292       16     -650 
   -1248    -1557    -1761    -1982    -2033    -1875    -1745    -1675 
   -1398     -818     -202      365      981     1301     1017      440 
      63       21       41     -133     -360     -471     -649     -918 
   -1015    -1047    -1260    -1370    -1111     -819     -661     -322 
     225      661      776      558       22     -827    -1813    -2631 
   -3109    -3172    -2889    -2558    -2447    -2636    -2956    -3073 
   -2929    -2724    -2650    -2782    -2967    -3168    -3609    -4247 
   -4801    -5228    -5563    -5779    -5899    -5793    -5135    -3912 
   -2552    -1433     -646     -112      164      156      193      573 
     922      861      695      783      922      664      -59     -957 
   -1917    -2803    -3317    -3527    -3659    -3636    -3420    -3150 
   -3037    -3416    -4320    -5082    -5125    -4684    -4189    -3692 
   -3231    -2871    -2386    -1614     -792     -272     -174     -286 
    -259     -152     -314     -738    -1138    -1312    -1221     -922 
    -395      221      508      433      430      650      929     1252 
    1602     1880     2199     2608     2870     2896     2805     2605 
    2188     1456      557      -32       70      622     1077     1312 
    1501     1602     1517     1334     1121      707       -9     -751 
   -1196    -1379    -1580    -2014    -2610    -3157    -3528    -3692 
   -3786    -4088    -4650    -5228    -5644    -5899    -5962    -5791 
   -5389    -4733    -3899    -3048    -2166    -1174      -97      885 
    1567     2053     2613     3175     3588     3991     4398     4468 
    3971     2967     1544     -121    -1541    -2276    -2347    -2074 
   -1632     -874      217     1135     1386     1021      294     -616 
   -1466    -2031    -2304    -2319    -2115    -1922    -2025    -2432 
   -2928    -3342    -3634    -3821    -3892    -3755    -3383    -2986 
   -2852    -3033    -3354    -3591    -3627    -3528    -3423    -3407 
   -3412    -3137    -2407    -1459     -631     -125      -22      -62 
     222      753     1017      907      668      425      148     -307 
   -1075    -2081    -3132    -3991    -4523    -4776    -4841    -4800 
   -4722    -4621    -4560    -4680    -4949    -5047    -4839    -4487 
   -3967    -3260    -2669    -2304    -2077    -2065    -2172    -2273 
   -2617    -3314    -3920    -4023    -3812    -3693    -3719    -3861 
   -4209    -4685    -5127    -5374    -5275    -4999    -4699    -4156 
   -3412    -2979    -3005    -2953    -2374    -1495     -656      302 
    1393     2126     2205     1721      766     -583    -2144    -3666 
   -4823    -5460    -5922    -6492    -6919    -7030    -6966    -6891 
   -6897    -6847    -6609    -6420    -6407    -6258    -6002    -6046 
   -6297    -6426    -6448    -6500    -6736    -7150    -7514    -7785 
   -8010    -8082    -7958    -7808    -7862    -8068    -8179    -8263 
   -8565    -9046    -9417    -9321    -8700    -7969    -7403    -6863 
   -6322    -5922    -5564    -5111    -4691    -4380    -4043    -3539 
   -2814    -2101    -1833    -2050    -2428    -2933    -3591    -3956 
   -3763    -3391    -3142    -2974    -2902    -3096    -3732    -4819 
   -6026    -6855    -7076    -6848    -6372    -5698    -4963    -4611 
   -5005    -5914    -6772    -7304    -7627    -7919    -8229    -8529 
   -8784    -8995    -9063    -8903    -8583    -8232    -8098    -8245 
   -8195    -7568    -6534    -5429    -4437    -3661    -3279    -3373 
   -3750    -4133    -4384    -4556    -4691    -4654    -4445    -4327 
   -4472    -4831    -5310    -5864    -6505    -7113    -7472    -7545 
   -7479    -7531    -7916    -8533    -9198    -9944   -10735   -11388 
  -11855   -12226   -12518   -12677   -12680   -12475   -12077   -11608 
  -11039   -10172    -8958    -7628    -6469    -5489    -4610    -3973 
   -3573    -3153    -2517    -1792    -1337    -1202    -1065     -935 
   -1138    -1556    -1773    -1830    -1863    -1629    -1055     -351 
     248      368     -218    -1250    -2401    -3597    -4695    -5474 
   -5940    -6219    -6435    -6782    -7377    -7981    -8293    -8280 
   -8000    -7580    -7203    -6886    -6632    -6621    -6960    -7441 
   -7788    -7928    -7935    -7925    -7947    -7938    -7992    -8274 
   -8685    -8950    -9011    -9071    -9240    -9408    -9524    -9686 
   -9927   -10149   -10346   -10716   -11214   -11403   -10994   -10207 
   -9481    -8907    -8059    -6605    -4806    -3194    -2006    -1060 
     -81     1113     2513     3775     4625     5240     5730     5869 
    5717     5656     5699     5548     5128     4496     3665     2729 
    1791      943      468      535      837      788      -47    -1617 
   -3440    -5178    -6841    -8453    -9725   -10339   -10465   -10536 
  -10646   -10598   -10335    -9842    -9022    -8007    -7107    -6322 
   -5537    -4851    -4243    -3527    -2880    -2721    -3078    -3746 
   -4774    -6130    -7402    -8251    -8630    -8567    -8139    -7561 
   -7067    -6897    -7153    -7548    -7649    -7419    -7177    -7134 
   -7241    -7330    -7245    -7001    -6710    -6241    -5363    -4207 
   -3188    -2517    -2146    -2066    -2168    -2022    -1405     -556 
     325     1062     1317     1008      298     -704    -1707    -2467 
   -3126    -3613    -3538    -2949    -2308    -1829    -1614    -1830 
   -2292    -2560    -2450    -2018    -1452    -1000     -669     -422 
    -506     -976    -1402    -1470    -1297    -1113    -1024     -947 
    -715     -266      333      970     1552     2062     2469     2641 
    2469     2029     1566     1304     1341     1632     1996     2316 
    2640     3053     3542     3924     4016     3866     3609     3279 
    2992     2982     3230     3505     3723     3916     4085     4228 
    4365     4476     4398     4035     3696     3721     3925     3870 
    3419     2771     2220     1915     1711     1425     1132      953 
     835      642       31    -1291    -3057    -4747    -6103    -7083 
   -7761    -8248    -8525    -8390    -7715    -6628    -5157    -3095 
    -464     2439     5485     8599    11416    13555    15024    16071 
   16958    17884    18828    19557    19963    20137    20113    19885 
   19534    19039    18273    17290    16383    15691    14991    14133 
   13301    12741    12553    12525    12313    11947    11580    11078 
   10339     9477     8563     7418     5938     4419     3115     1861 
     460     -959    -2077    -2666    -2851    -2982    -3215    -3376 
   -3397    -3527    -3659    -3504    -3258    -3019    -2542    -1710 
    -526      749     1691     2259     2721     3223     3655     3767 
    3473     2816     1729      359     -976    -2297    -3742    -5173 
   -6504    -7846    -9170   -10426   -11778   -13193   -14251   -14638 
  -14397   -13686   -12488   -10766    -8811    -6890    -4966    -3240 
   -2211    -1988    -2088    -2065    -1895    -1792    -1966    -2396 
   -2844    -3276    -3898    -4583    -4923    -4970    -5208    -5875 
   -6716    -7400    -7958    -8479    -8677    -8486    -8237    -7889 
   -7319    -6725    -6266    -6080    -5880    -5328    -5071    -5636 
   -6361    -6833    -7736    -9374   -10909   -11584   -11570   -11483 
  -11747   -12379   -13215   -14073   -14280   -13265   -12035   -11901 
  -11934   -10227    -6898    -3663    -1638     -689      565     3462 
    6741     7426     4685      881    -1252    -1436    -1348    -2026 
   -3532    -5528    -6061    -3931    -2018    -2640    -3630    -3327 
   -3159    -3581    -3577    -3645    -4266    -4302    -3109     -359 
    3581     5211     2299    -1117     -770      884     -487    -3380 
   -4284    -4804    -6713    -6886    -4423    -3258    -4495    -5167 
   -3750    -1609     -506     -805    -1644    -1972    -1579    -1456 
   -2598    -4017    -3510     -934     1464     1408    -1347    -3820 
   -2843      496     2947     4163     5671     7447     8032     5354 
    -506    -5211    -5872    -5211    -6473    -9119   -10272    -8309 
   -4866    -2430    -1181       76     1374     2504     4307     6408 
    7870     9436    12376    17500    23458    27090    27359    25477 
   23206    21828    20034    16235    12542    11682    12209    10933 
    8279     6928     6689     5985     5404     5714     6782     8800 
   11618    14644    17477    19256    19191    18110    17217    16451 
   15741    15936    17084    17620    17212    17666    19336    20237 
   19197    17609    16705    15631    14415    13795    13213    12509 
   11739    10563     9524    10332    12969    13649    10949     9074 
   10272    11229     8707     3429    -1729    -3581    -1618     -171 
   -1031    -1085     -706    -2667    -5791    -7373    -8463   -11622 
  -14886   -15318   -13532   -10876    -9512   -11406   -14810   -17067 
  -18273   -19180   -19345   -20093   -21856   -19961   -13822    -9302 
   -7689    -6492    -5475    -4800    -3366    -1576    -1343    -1111 
    1170     3078     2563     -413    -5491    -9661    -9953    -8710 
   -9846   -13443   -17481   -19464   -17752   -13219    -8789    -8133 
  -11379   -14142   -13458   -11071    -9501    -9301   -10897   -11585 
   -7473    -3154    -4738    -8992   -11038   -11502   -12060   -12276 
  -10982    -7398    -3854    -4152    -6451    -6184    -3194      -87 
    2342     5232     7919     8754     8526     8964     9641     8324 
    5856     6137     9281    11817    12580    12760    11708     8257 
    4679     3591     5566    10099    14324    15356    12911     8329 
    4487     2479    -1193    -7786   -12718   -13960   -13999   -14596 
  -15801   -15070   -11178    -6815    -3057     -706    -1055    -1902 
   -2019    -2851    -4421    -7470   -13625   -20375   -24273   -26566 
  -29127   -30963   -30572   -28109   -24722   -20407   -15034    -8047 
     261     5344     5468     4266     2967     1464       -1    -2747 
   -6312    -8892   -11097   -13192   -13224   -11731   -10600    -8621 
   -5136     -382     6147    11330    12155    11977    13899    15206 
   12253     4541    -5425   -13787   -19228   -23733   -28088   -32061 
  -37393   -43432   -46399   -45543   -41499   -34469   -26233   -16961 
   -6755      387     2038      409    -1413    -1846    -3929   -11302 
  -18999   -20795   -19001   -17695   -16969   -15637   -13274   -10242 
   -8226    -8738    -9409    -7003    -2286     2978     7979    11144 
   11902    11180     8623     3959      167      390     2525     2267 
     311       25      990     1354     1491     1109    -1390    -5748 
  -11009   -15560   -15255    -9508    -3009     2243     7122    11171 
   13957    16189    17687    17741    17830    18274    15434     8830 
    2369    -3300    -8984   -13676   -18199   -22665   -24499   -23535 
  -21600   -19278   -17003   -15657   -15087   -13402    -9624    -6157 
   -4895    -3942     -945     3631     7045     6698     2478    -2442 
   -4965    -5536    -4468     -766     2573     2944     3769     5512 
    3943     -460    -5221    -9470   -11476   -12540   -14958   -15454 
  -11892    -8560    -8617   -10482   -13041   -16503   -18759   -17215 
  -12239    -6563    -1946     2251     5908     8370     9440     8000 
    4426      190    -3964    -6957    -9127   -13380   -21011   -27062 
  -26427   -23107   -23765   -28225   -31828   -31002   -26138   -20823 
  -19526   -23984   -29724   -32112   -32216   -30804   -25446   -16335 
   -7499    -1579     2222     6512    13555    22050    29482    35919 
   40292    40887    39056    36020    31140    22823    10075    -5603 
  -21978   -35716   -43704   -47001   -47174   -43429   -35694   -26596 
  -19035   -12239    -5319     -101     3240     4982     4044     1960 
     364    -2781    -7650   -10949   -12518   -14937   -17389   -16752 
  -12116    -4507     4258    11299    15568    19909    25521    28987 
   27896    23198    16694    10743     7221     5698     4205      787 
   -4956   -11674   -17824   -22403   -24467   -23344   -20321   -17672 
  -15734   -13190    -9144    -5046    -3187    -1725     3612    12226 
   19006    20807    18357    13517     7847     3067     -256    -3034 
   -4784    -4348    -2045      970     2835     2567      675    -2088 
   -3937    -3582    -1113     2438     4054     2296    -1301    -5135 
   -7246    -7061    -5859    -4414    -4156    -5537    -7086    -8264 
   -8029    -5402    -1776     1757     5011     6905     6061     2303 
   -2355    -4852    -4278    -2139      430     3407     6112     7103 
    6577     5819     5217     4901     5090     6349     8603     9833 
    8802     6432     3703      287    -4923   -11414   -17007   -20757 
  -22603   -22437   -21647   -22011   -22860   -22661   -22319   -22991 
  -23923   -25010   -26136   -26005   -24625   -23585   -24198   -25347 
  -24517   -21541   -18341   -16609   -16166   -15516   -13833   -10385 
   -5174     -668      417     -876     -804     1333     3314     5121 
    8311    12305    15669    18787    21670    22727    21984    20826 
   19816    18928    17466    15761    15261    15169    13791    11157 
    8075     5339     2940       71    -3604    -7346    -9591    -9671 
   -8586    -7258    -6245    -6069    -6493    -7607   -10034   -13004 
  -15067   -16102   -16829   -16945   -15577   -13132   -10569    -8496 
   -7480    -7177    -6131    -3807    -1204     1863     6423    11090 
   14343    16569    17739    17798    17432    16895    16062    15074 
   13991    12432    10554     8861     7354     5991     4833     4183 
    4112     4036     3534     1791    -2578    -9661   -17281   -22716 
  -25324   -26073   -26118   -26504   -26838   -26032   -23996   -20328 
  -15072   -10064    -5637     -160     5675     9067     9369     8226 
    6868     6143     6141     5521     4120     2830     1323     -635 
   -2057    -2359    -2238    -2180    -2180    -1899     -722       94 
    -733    -1599    -1433    -1462    -2378    -3311    -3730    -4074 
   -3681    -2130    -1571    -3026    -5313    -8384   -11956   -15031 
  -18115   -20738   -20993   -18947   -15782   -12187    -9252    -7798 
   -7485    -7433    -7175    -7217    -7780    -8224    -8596    -9309 
   -9865    -9702    -9190    -9223   -10079   -10956   -10696    -8698 
   -5474    -2207      562     3002     4939     5583     4581     2652 
     726     -167      199      544      171    -1235    -3673    -5617 
   -6377    -6716    -6812    -5790    -3497    -1630    -1034     -888 
    -400      660     1479     1898     2991     4699     6259     6781 
    4908     1073    -2808    -6234    -9369   -11978   -13919   -14750 
  -14499   -13613   -11989    -9799    -7690    -6624    -6534    -5629 
   -3481    -1501     -566     -722    -1426    -1985    -2223    -2540 
   -3708    -6188    -8787    -9139    -7514    -6960    -8139    -8957 
   -8777    -8727    -8681    -7535    -6289    -7010    -9208   -10287 
   -9267    -7786    -7094    -6583    -5242    -3447    -2695    -2972 
   -3202    -3481    -4351    -5398    -5513    -4765    -3929    -2852 
   -2169    -2720    -3250    -2755    -2574    -3766    -4746    -3983 
   -2413    -1263     -683     -182      569     1044     1071      974 
     903     1150     1084      -13    -1312    -1946    -2031    -2269 
   -2748    -2776    -2608    -3157    -4471    -5590    -5829    -5841 
   -6266    -6604    -6644    -6741    -6500    -5335    -3227     -365 
    2290     3670     4502     5687     6118     5466     5634     7015 
    8094     8395     8167     7619     7458     7974     8469     8324 
    7411     5946     4614     3693     2727     1791     1368     1332 
    1445     1718     1748     1020     -405    -2056    -3346    -3854 
   -3612    -3090    -2289     -757     1196     2783     3835     4340 
    3260      739     -349      649     1351     1404     2149     3942 
    6026     7015     6222     4626     3325     2052      738      159 
      64     -440    -1480    -2782    -4271    -5925    -7477    -8784 
   -9855   -10395   -10006    -7940    -3825      681     3700     5377 
    6409     6581     5489     3562     1556       87     -207      105 
      -5     -259     -303     -176       28     -117     -423     -209 
     471      882      838     1224     2475     3946     4793     4418 
    3073     1362     -450    -1894    -2766    -2994    -2227     -972 
    -143       70     -341    -1258    -2107    -2667    -3207    -3487 
   -3092    -2308    -1521     -562      476      672       63     -126 
     275      727     1016     1206     1676     2037     1224     -370 
   -1023     -493     -225     -394     -171       59      -21      137 
     352      160     -116     -558    -1574    -2828    -3901    -4679 
   -5332    -6050    -6639    -7099    -7408    -7472    -7487    -7356 
   -6984    -6119    -4517    -3144    -2486    -1904    -1524    -1674 
   -2081    -2285    -1781     -544      498      434     -144     -471 
   -1242    -2720    -3786    -4082    -4399    -4773    -4700    -4396 
   -3944    -3348    -3281    -3719    -3906    -3646    -3188    -2758 
   -2083     -915      174      710      618       51        5      951 
    1580     1042      274      -22     -283     -553     -152      928 
    2144     3508     4795     5278     5111     4992     5254     6061 
    7034     7400     7214     6928     6276     5128     4040     3136 
    1869      212    -1035    -1468    -1260     -318     1143     2349 
