Origin Time       2016/04/16 01:25:00
Lat.              32.753
Long.             130.762
Depth. (km)       12
Mag.              7.3
Station Code      OIT017
Station Lat.      32.8578
Station Long.     131.6587
Station Height(m) 250
Record Time       2016/04/16 01:25:22
Sampling Freq(Hz) 100Hz
Duration Time(s)  97
Dir.              E-W
Scale Factor      7845(gal)/8223790
Max. Acc. (gal)   27.097
Last Correction   2016/04/16 01:25:22
Memo.             
[...]
   -8082    -4955    -9320   -13446   -10374    -6775    -8052    -7763 
   -5575    -9229   -14823   -13932    -8476    -6249   -13011   -20780 
  -15553    -5525    -6008   -10419   -11011   -11975   -13645   -13524 
  -10273    -6092    -7728   -11225    -8368    -6069   -10882   -16355 
  -14926    -6508    -2231   -10108   -17285   -11547    -3932    -7913 
  -16054   -14067    -6705    -8604   -14229    -9529    -4445   -11265 
  -14714    -5863    -4029   -15187   -19384   -11689    -7264    -8638 
   -8212    -7966    -9329    -8262    -7288    -9340   -12247   -14328 
  -12108    -7642   -10972   -17004   -10539    -1259   -10625   -27735 
  -25895   -10500    -4326    -8699   -11612    -9324    -8991   -16202 
  -21689   -16702    -9887    -9366   -10993    -9931    -6006    -4758 
  -10293   -13559    -8576    -5112    -9023   -15252   -17658   -13633 
   -8314    -8703   -12939   -15300   -14430    -9801    -3897    -6806 
  -18193   -22968   -16121    -5584    -1759    -8356   -13030    -9875 
   -9221   -10365    -7302    -5790    -9073   -11921   -10897   -10876 
  -14866   -13678    -8772   -11954   -13008    -6238   -10405   -20391 
  -13856      -25      965    -7263   -10604    -8818   -13498   -23471 
  -22446    -7707     1255    -8687   -20595   -11109     5540    -1888 
  -21190   -20023    -8375   -10141   -14427    -6997    -2234   -14113 
  -27359   -18580       49    -3488   -21466   -23423   -10196     -955 
   -5189   -16526   -17890    -8542    -5123   -10449   -13316    -9073 
   -3638    -5169   -12806   -15619    -8617    -1034     -822    -4363 
   -7032    -9251   -12698   -16569   -15036    -7449    -5745   -14025 
  -18364   -11394    -2493     -263    -5054    -9661    -6356    -2010 
   -6168   -12198   -10185    -2546    -2393   -13855   -19786   -11265 
   -3234    -5433   -11786   -12343    -3704     -772   -13105   -17902 
   -3562     2157   -12218   -18508    -3396     9720     2144   -16835 
  -23201    -5177    10694    -3073   -18809    -6609     5499    -5379 
  -12464    -1328     4294    -4658   -10374    -6632    -4072    -7366 
  -12482   -14948   -10192    -1336    -1552   -14427   -25688   -18234 
    3626    11577    -5737   -23404   -17184     2600     3096   -18261 
  -22977    -2098     6366   -10338   -23554   -14809     2984     4190 
  -14083   -23251   -13151    -7378   -12258   -13782   -10243    -7550 
  -11576   -18859   -13824     1308     7411    -2430   -20784   -28510 
  -13162     4748      313   -17691   -21594    -5321     3939    -8028 
  -18335   -13019    -3373     1692      -56    -6093   -10250   -13606 
  -15730    -7365     9266    14648    -2828   -22005   -14916    -1502 
  -11229   -19197    -4595     8762     6392    -7705   -19259    -5400 
   13902     1464   -16514    -9377    -3271   -11611   -15005    -7082 
    1583    -4754   -19136   -15006    -1969    -2370    -5181    -5772 
  -12016   -15268    -9841     -376     3376    -9012   -20437   -10401 
    -473   -13228   -32158   -32432   -13917    -2111   -10265   -15601 
   -9235   -14192   -28355   -29820   -22447   -12853      710     3141 
  -10153   -15354    -4652     1133    -9310   -18805    -8063     7758 
    -589   -22111   -20691     2488     9643   -14762   -38074   -27425 
   -1899     2015   -11749   -20274   -19037   -10145     1273     -622 
  -15271   -17356    -4675    -5632   -18435   -15804    -4691    -2775 
   -5003   -10678   -19132   -19033   -10729    -3407    -3144   -10003 
  -13551   -13262   -20070   -22867   -11047    -5063   -13633   -17999 
   -9020     3315     1746   -15610   -21712    -3962     4642   -15048 
  -27081    -8515     6899    -4810   -18480   -12526     -461      472 
   -8510   -16972   -17127    -9757    -3879    -8298   -18057   -16602 
   -3789       83    -8294   -11653    -8086    -7317   -10021   -13342 
  -13466   -13855   -21748   -23834   -10812    -1779    -5293    -9703 
  -11819   -12128    -7689      557     6065    -1173   -13070   -10029 
   -2334    -4066    -3265     -298    -2143     -167     2620    -2015 
   -9688   -17637   -18709    -6170     1047   -11564   -20304    -9273 
   -2396   -11354   -13174    -4618   -10551   -27081   -27351   -14291 
   -6413    -5930   -11587   -18697   -15160    -5784    -7442   -16946 
  -17834   -10334    -8316   -13521   -15097    -8056    -1043   -10369 
  -28356   -21217     3935     4186   -13799   -14314    -4426    -9243 
  -24710   -25579    -5640     4669    -9026   -15846    -4387    -4314 
  -21627   -25258    -4618    11088      194   -16027    -9764      804 
  -11547   -22594   -10137     -392    -5159    -8513   -10507   -12958 
   -8540    -1509    -1416    -7403   -11163    -8762    -5139    -5907 
  -11689   -15202   -10260   -10003   -19395   -15259      918      807 
  -10304   -10168    -5420    -9159   -15217   -14793    -7848    -1723 
   -6353   -15589   -13352    -4934    -4437    -9490   -17325   -24764 
  -17586       78     3838    -6386   -11547   -13853   -20281   -18855 
   -6006     2251    -6052   -18732   -12163     3064    -2327   -15419 
  -10883    -1246    -6361   -21244   -22027    -1451     4909   -17810 
  -21583     7395    12444   -18186   -32999   -19766    -7111    -5346 
  -11954   -19190   -14079    -6258   -12542   -19433   -15171   -14264 
  -16723    -9528    -3715    -9740   -16529   -18152   -15259   -10733 
  -11381   -10913    -7848   -11989   -12852    -6409    -5564    -3052 
   -1665   -17406   -28364   -17500    -8349   -11298   -16606   -16441 
   -5876       75   -11107   -17296    -4135     5564    -6848   -25620 
  -25077    -7307     3330    -1632    -9661   -11533    -8467    -7230 
  -12395   -17470   -14050    -8174    -8295   -11043   -14014   -13352 
   -3838      224   -11446   -18800   -10002    -4159   -10879   -11859 
    -360     3009   -10752   -22272   -15439      303     2203   -13172 
  -19795    -8303    -3754   -12749   -15151    -8496    -6034    -8943 
  -11583   -13513   -13933   -12586   -10388    -6462    -6728   -13192 
  -13925    -7209    -4635    -8477   -11832   -13837   -16009   -10629 
   -1802    -9166   -22840   -17193    -5519    -9618   -17529   -15327 
   -7122    -2964    -9501   -17259   -16507   -13314   -12873   -16677 
  -20390   -14450    -5239    -6642   -14875   -15233    -7056    -4893 
   -8901    -6027    -1949    -8914   -17158   -10920     1318    -4190 
  -22621   -22123    -2924     1277   -14358   -20333    -8540    -5746 
  -18592   -17693    -2778    -3994   -13832   -12784   -13707   -18245 
  -13923    -7565    -2894     -531   -10818   -21667   -12707     1668 
    1116    -8473   -14072   -11268    -8040   -14160   -16888    -3893 
    3618    -6355   -14014   -14330   -12610    -4114    -1655   -12870 
  -13794    -3484    -7541   -19238   -15988    -5656    -6840   -14334 
  -14731   -10658    -9267    -9347    -7867    -7962   -14494   -20028 
  -12046     2004     2254   -11739   -19178    -9907    -1852    -9409 
  -17032   -11503    -3692    -4468    -9989    -9360    -4511    -9058 
  -15682    -9684    -4347   -10247   -11307    -2142      -81    -9216 
  -13266    -8247    -6448   -11391   -16474   -15992    -7981    -1429 
   -8677   -19530   -15885    -6546    -7713   -16005   -18304    -9544 
   -5390   -14747   -16783    -5564     -519    -5868   -11688   -10739 
   -7037   -11993   -17340   -10531    -4972    -8461    -9979    -6864 
   -2400    -2205    -9377   -11276    -3990    -1680    -6609    -8401 
   -5570    -7191   -13081    -9474     -398    -4137   -12170    -9707 
   -7550   -10920   -11117   -10503   -11165    -8700    -9875   -15010 
  -11581    -6339    -8637    -9683   -11223   -16641   -14955    -9659 
  -10897   -13980   -15165   -10928    -4546   -11354   -19727    -9795 
     386    -3577    -8348    -9467   -10774    -9818    -6361    -2428 
   -1136    -5104    -8916    -8900    -9194   -11988   -13872    -7393 
    2496    -1755   -14420   -14262    -4256      112    -2627    -4900 
   -4066    -4450    -7781   -11088   -10253    -1912     6517     4148 
   -3145    -8301   -14203   -14407    -6673    -4692    -9428   -10263 
   -6952    -5046    -7992   -10625    -4720     -897    -8499   -10484 
   -2403    -2866    -9904    -8244    -2594    -4468    -9178    -6417 
    -734    -4824   -15217   -13304     1102     3395   -10628   -13763 
   -1761     -475    -9347    -8060    -1863    -2659    -6870   -11124 
  -11821    -7225    -9229   -18492   -15739    -4212    -5189   -14245 
  -14848    -7434     -934    -1845   -10160   -14891    -8932    -4563 
   -7678    -4646      834    -8201   -21074   -18053    -7403    -8208 
  -18297   -19527    -8141     -895    -6068   -10278    -2624     5304 
   -3052   -19700   -21662    -6698     4291    -1414   -12796   -12398 
   -1460      301   -12645   -16083    -1613      340   -14932   -16413 
   -9162   -13435   -15025    -8626    -8094    -9934    -8029    -6833 
   -9513   -13856    -9598     2884     3863    -7751   -12078    -8746 
   -7543    -6848    -8490   -12692   -10272    -4876    -8673   -17574 
  -20258   -13697    -2282     1395    -7685   -13085    -5567     -807 
   -8876   -16627   -11411      201     2934    -7134   -15800   -12015 
   -5899    -5136     -676     4425    -2934   -11254    -5869     -121 
   -5373   -14222   -19518   -18898   -14755   -11438    -8846    -8168 
  -11202   -14905   -16096   -13441    -9485    -9610   -11875   -10554 
   -6646    -4936    -6758    -6252    -2469    -8166   -21128   -20954 
  -11084    -9117   -12545   -13502   -12772   -12735   -13278   -12486 
  -12996   -17216   -20656   -21814   -22187   -19970   -18127   -19450 
  -15886    -7803    -8259   -15296   -18127   -17801   -16726   -13857 
  -10940    -8739    -5953    -4691    -9526   -16796   -17605   -11491 
   -3804     -929    -6133   -13466   -15561   -10918    -5456    -8997 
  -16822   -13672    -5659    -8414   -14226   -12086    -7877    -8500 
  -14146   -16190    -7867    -2083    -6529    -7184    -1605    -2218 
   -8413   -10193    -6378    -6112   -12039   -12159    -3685    -1946 
  -11032   -18238   -19916   -18962   -11319    -2778    -6381   -13111 
   -8311    -3861   -14420   -25045   -14719     5304     9501     -328 
   -7302    -9288    -8837    -7314    -9251    -8515    -1282    -1409 
  -10461   -13860   -10162    -7643    -9262   -13536   -15287   -10814 
   -6714    -8193    -9383    -9084   -11676   -16170   -19550   -16074 
   -5539    -3489   -15815   -23334   -13683     -864      310    -4706 
   -5601    -5590   -10662   -14790   -13043   -11067   -10440    -7619 
   -4553    -5283    -7704    -5196    -1047    -3865    -8761   -12097 
  -18022   -21108   -18455   -15016    -9942    -7091   -12129   -13923 
   -5864     -847    -2857    -5221    -8351   -10415    -9292    -9251 
   -7188     1013     5363    -1825   -11531   -12713    -7288    -6403 
  -12633   -14173    -8431    -7392   -11645   -12486   -11959   -15552 
  -18143   -11257    -1098    -3438   -15070   -16497    -6285     -310 
   -1198     -962    -1721    -6960   -10702   -11105   -12139   -10127 
   -3835    -2801    -6735    -7508    -8932   -11276    -5977      125 
   -2693    -8962   -16937   -25577   -23854   -14156   -10381   -10369 
   -7851    -8733   -13405   -15696   -17041   -16379   -10011    -6315 
   -8683    -7190    -4256    -4401     2367     9629      897   -11122 
  -11677    -9335    -5494      967      561    -1125     3721     2461 
   -6907    -8324    -1637     1638      457    -4807   -14432   -20073 
  -18230   -16665   -17675   -15520   -11253   -12723   -17504   -15763 
  -11871   -15445   -17937    -7378     7581     7545   -11080   -26563 
  -19296    -1609     3832     -479      373     4237     1535    -2667 
    -278     2486    -4747   -17725   -19988    -6583     7091     6683 
    -845      978     9470     7389    -6115   -15121   -12295    -7520 
  -11665   -18106   -14760    -8233    -9813   -15712   -21412   -27260 
  -29304   -26117   -20919   -15259   -12845   -16220   -19130   -16171 
  -11529    -9917    -9817   -10237   -10131    -5084     -276    -6241 
  -17103   -21643   -20073   -15908   -12969   -13606   -14008    -8845 
    1433     5763    -2759   -11195   -10289   -10273   -14238   -12604 
   -7588    -7651    -9742    -8235    -6035    -8779   -12560    -9678 
   -6836   -10982   -11654    -6389    -8111   -16424   -21204   -21909 
  -22698   -26724   -29849   -22947   -13838   -18112   -29056   -29501 
  -20052   -14247   -16326   -17232   -10127    -3299    -9294   -22888 
  -28898   -24055   -14199    -5073    -1850    -6547   -15091   -18229 
  -10253     -263     -696    -7809   -12552   -14094   -11485    -5497 
   -6782   -18827   -25770   -19624   -13454   -16960   -27201   -33795 
  -26262    -9876      -36      -22      785     8707    14827    11257 
    3470    -3150    -6181    -2853      372    -3487    -7065    -5206 
   -7858   -18891   -22975    -8226    10242     7588   -13325   -27600 
  -27282   -23549   -22477   -22408   -20275   -16852   -18800   -26302 
  -30751   -27702   -18813    -9937    -7560    -9517   -12318   -17161 
  -18171   -10150    -2188    -2879    -7522    -9115    -9617   -12131 
  -13365   -12129    -9026    -2667      -29    -8764   -18609   -17783 
  -12293    -6975      546     2199    -5435   -10662   -10322    -8587 
   -5313    -3010    -2178      503     2111    -1244    -6917   -11277 
  -14377   -16833   -17140   -16846   -20090   -22696   -18681   -15700 
  -21874   -31915   -38109   -34479   -20601    -8996    -8007    -9954 
   -6656      -13     1431    -6393   -13423    -8962     -912    -3399 
  -13333   -16009    -8172     -978    -1031    -4943    -9691   -14269 
  -19079   -22983   -20270   -13666   -13389   -17717   -20785   -24156 
  -24332   -17736   -11067    -7692    -8604   -18438   -29029   -27378 
  -21420   -23888   -27788   -24209   -20233   -21092   -19850   -14526 
  -11639   -13446   -16954   -19371   -20159   -20698   -21960   -23224 
  -22081   -18527   -18306   -23022   -23774   -16254    -9826   -11484 
  -15720   -17263   -17003   -14304   -11291   -14230   -19967   -21397 
  -18986   -14539   -12787   -18450   -23796   -22185   -20279   -22262 
  -24075   -23288   -19835   -15064   -12488   -10467    -3321     6613 
   11006     6308    -3156    -8910    -7599    -4479    -3628    -3427 
   -3449    -5000    -6099    -3946     -535    -2856   -12675   -17030 
   -8698    -5049   -15643   -22983   -17976   -12039   -12721   -17689 
  -21625   -20075   -13988    -7865    -5319    -7329   -10875   -11828 
  -11002   -13813   -19399   -19608   -14077    -9942    -9559   -10679 
  -10967   -10714   -12198   -14218   -12869    -7959    -5297    -8716 
  -11421    -7564    -4722   -10870   -21577   -29506   -32587   -28301 
  -15583    -2690      201    -5649   -10215    -7963     -934     3865 
   -2810   -17467   -21843   -11032     -792    -1183    -7148   -10158 
   -8746   -10142   -15763   -18003   -14404    -7523    -2154    -3676 
   -8050    -6912    -1420      905    -2182    -6165    -6181    -1127 
    4144     4271     1802      849     1358     2160      668    -2867 
   -3859    -1637      139     -923    -3335    -1683     5485    10247 
    6426    -1632    -5967    -4261    -1548    -1528    -1150      953 
    1968     2297     4189     6370     6210     3790     2185     2620 
    1864    -1723    -6331    -9112    -6704    -1969    -1809    -4758 
   -5802    -5140    -3377     -307      394    -4344    -9013    -7761 
   -5791    -9081   -13733   -13352    -6829      -27      413    -2677 
   -3742    -4384    -5535    -5917    -7612    -8637    -2893     6178 
    7708     1310    -1447     2139     1228    -5355    -4649     4914 
    8421       25    -8141    -6030     1200     3391     -403    -3018 
    -932     1148     -873    -3947    -4017    -1282      680     -218 
    -881     -963    -3026    -3126      826     3562     3346     1570 
   -1601    -2590     1098     4710     5613     7156     8655     6961 
    4341     3518     4922     7634     5834    -2066    -6378    -3288 
     116     1723     3194     2891     1715     2290     4008     5575 
    6399     5752     3699     1902     1301     -519    -4131    -5746 
   -5005    -4625    -4411    -4776    -7944   -11628   -11927   -11264 
  -12421   -12405   -11076   -14072   -22049   -27251   -24482   -18045 
  -14467   -15511   -18430   -18643   -14802   -10963   -11435   -13582 
  -12162   -10741   -14127   -17046   -15410   -14574   -17004   -16510 
  -11295    -8792   -11433   -12186    -9718   -10238   -12347   -11284 
  -10443   -11557   -11769   -11152    -7481    -1193     -896    -6035 
   -9243   -12383   -15369   -13495   -11113   -13099   -14922   -12290 
   -9366   -11176   -11610    -5371    -2381    -8171   -11925    -7600 
   -3279    -5107    -8293    -7113    -4615    -7117   -13049   -14866 
  -11433    -9594   -13054   -17292   -17415   -14435   -11187   -10318 
  -13193   -15037   -11934    -8970   -10666   -12985   -12193   -13085 
  -19286   -23206   -17451    -7902    -6139   -13392   -18249   -13513 
   -7889   -11214   -18381   -18843   -12388    -7551    -9370   -12758 
  -10918    -7473    -8633   -11200   -11492   -11751   -12699   -13664 
  -15661   -17398   -15774   -11661    -9806   -12228   -16046   -18782 
  -19560   -17305   -14620   -16028   -19302   -19789   -17841   -13674 
   -8869    -9535   -15611   -20075   -20437   -19507   -19296   -18947 
  -17293   -16275   -17189   -17177   -15844   -15219   -12561    -7832 
   -8715   -15276   -17329   -12873   -10983   -15678   -19427   -16572 
  -13176   -15067   -17915   -16289   -12745   -12614   -15086   -15720 
  -13662   -12082   -13578   -16216   -16652   -15246   -15090   -18010 
  -21510   -21550   -19176   -18135   -18418   -18758   -18218   -15187 
  -11695   -11149   -12484   -12982   -12718   -15016   -19652   -20029 
  -14779   -10752   -11530   -14485   -16922   -17845   -17509   -17867 
  -18119   -15412   -13070   -14508   -15398   -13900   -13360   -13454 
  -13057   -13902   -14948   -14489   -15348   -17394   -16694   -15603 
  -16058   -13907   -11455   -13377   -15194   -14258   -13934   -13999 
  -13721   -14659   -15589   -15718   -16231   -14625    -9900    -7978 
  -10312   -11823   -12880   -14493   -12958   -10022   -10242   -11762 
  -11137    -9508   -10724   -14432   -15480   -12858   -10559    -9913 
   -9585    -9429   -10346   -14138   -19229   -19400   -14362    -9837 
   -9200   -12781   -16375   -15682   -13216   -12345   -11965   -10162 
   -8027    -8404   -10968   -10773    -6135    -3253    -5022    -6021 
   -4584    -4088    -4338    -4207    -4314    -4186    -3750    -4648 
   -7777   -10544    -9011    -5235    -5082    -6929    -5375    -2390 
   -2416    -5190    -7673    -6897    -3312    -2101    -6681   -10069 
   -4243     3366     2278    -3469    -5741    -3883    -2220    -3951 
   -5678    -4209    -4683    -9026   -11369    -9813    -6443    -3939 
   -4087    -2967     -522    -3495    -8139    -5958    -2308    -4754 
   -7767    -5393    -2995    -4932    -6689    -5892    -4407    -2731 
   -3418    -6569    -5692    -1842    -2705    -6172    -7122    -7378 
   -8172    -8546    -8191    -6851    -6076    -6662    -6566    -6119 
   -7101    -8116    -8046    -6997    -4835    -3608    -3943    -4159 
