Origin Time       2016/04/16 01:25:00
Lat.              32.753
Long.             130.762
Depth. (km)       12
Mag.              7.3
Station Code      OIT003
Station Lat.      33.5575
Station Long.     131.4461
Station Height(m) 9
Record Time       2016/04/16 01:25:26
Sampling Freq(Hz) 100Hz
Duration Time(s)  192
Dir.              N-S
Scale Factor      7845(gal)/8223790
Max. Acc. (gal)   72.489
Last Correction   2016/04/16 01:25:26
Memo.             
[...]
     615     -488      602     3078     5525     8023    10837    12019 
    8862     1987    -4746    -7998    -7481    -5316    -2976     -372 
    2396     5277     8189     9575     8635     6826     4774     1937 
    -738    -1652     -791      619     1966     3998     6474     6760 
    3694     -198    -2999    -5729    -8239    -7915    -4422     -741 
    1204     1755     1035     -986    -2589    -1746      202     -249 
   -2890    -3232      573     5293     8372    10301    10856     8626 
    4602     1721      723       54    -1097    -1764     -645     1656 
    3368     4055     3815     2304      684     1190     3121     3472 
    1942      201    -1915    -4490    -5358    -3472     -741     1580 
    4850     9344    12131    11878    11218    10983     8604     3877 
     -60    -1705    -2457    -2913    -1987       14     1634     3252 
    5633     7231     6507     4334     2486     1895     2070     1721 
     542     -903    -2390    -3574    -4291    -5174    -6214    -7087 
   -8542   -10446   -10914    -8851    -5017    -1431      202      722 
    1755     2338     1192     -259     -305      407      229     -696 
    -812      731     4436     9189    11190     9532     7796     7168 
    4918     -230    -5748    -8603    -8529    -6789    -4986    -4650 
   -4642    -2430     1547     4888     6775     7870     8090     6851 
    5387     5383     5898     5186     3724     3127     3861     4753 
    4175     1946     -691    -2575    -2867    -1804    -1023    -1102 
    -635     1699     4696     5162     2740      814     1408     3366 
    4241     2662      259     -500      341     1563     2562     2301 
     599     -203     1202     3563     6478     9804    11808    12023 
   12148    13185    14191    13154     9294     4487     1206     -174 
   -1244    -2593    -2249      704     3824     5324     5387     3225 
    -697    -3601    -5732    -9425   -13019   -12644    -8210    -3107 
     538     2654     3276     2915     2551     2791     4087     5815 
    6558     7041     8826    10777    11334    11415    11793    10832 
    7655     5046     5242     5742     4118     2235     1671     1524 
    1367     1296     1578     2745     3707     2470     -584    -3122 
   -3882    -2920     -905     1161     3241     5499     7677     9730 
   10717     9400     6330     3317     1830     2154     3908     5992 
    5823     2820      639     1262     2693     3634     3705     2745 
    2166     2535     2708     2501     2673     3667     5144     5923 
    5529     4155     1617     -981    -1520      568     4298     7519 
    8286     7446     6643     5547     4152     3748     3770     2323 
     400      681     2986     5146     6181     6605     6974     6804 
    5958     5409     5159     4155     2492     1582     1664     1298 
     496      245     -230    -1017     -403     1636     3821     6030 
    7917     8326     7406     6394     6088     6355     5524     2724 
     830     1903     3165     2685     3005     5359     6546     4575 
    1939      907     1162     2497     4266     4236     1765     -486 
    -159     1579     2862     3880     4461     3906     2578      575 
   -1297    -1059      600     1115      986     2319     4567     6010 
    6120     4600     1476    -1726    -3109    -2574    -1269      602 
    3056     4950     5448     5159     4795     4137     2656     -112 
   -3754    -6106    -5906    -4598    -3188     -849     2169     3384 
    1368    -1402    -1547      475     1695     1154      199      317 
    1982     3825     4017     3161     2899     2991     2988     3785 
    5186     5971     6411     6694     5278     1713    -1813    -2627 
    -419     2203     3734     6115    10164    12839    11982     9648 
    8210     7053     5283     3740     2578      479    -2606    -4955 
   -4896    -2034     1281     1998     1286     2177     4552     7639 
   12141    17320    21043    22793    23259    22162    18898    14253 
   10121     7736     6588     5632     4741     4171     3685     2994 
    2867     4483     7238     8510     5578    -1328    -8118   -11327 
  -11186    -8950    -5089     -793     2338     4587     7025     9104 
    9691     8845     7299     5452     3755     2282      368    -1857 
   -4136    -7119    -9783    -9254    -5192     -583     2505     4641 
    7250    11055    14820    15631    11384     3323    -4548    -9609 
  -12182   -13277   -14008   -14831   -13474    -7723       86     5709 
    8372    10444    12046     8309    -4263   -20808   -32076   -32948 
  -24972   -12914    -1572     5811    10366    15533    19899    18273 
    8920    -5317   -18975   -26481   -27568   -25608   -20425   -11152 
   -1566     3090      451    -7577   -16451   -22253   -22432   -16826 
   -8702      220    12128    25331    32644    31594    27460    25820 
   26622    25181    19398    11176      217   -12815   -21752   -23449 
  -20040   -10754     5283    22333    32903    34129    27677    16992 
    5861     -905    -1175      572      900     2697     5015     1196 
   -6995    -8957     -970     8761    11970    10260     8276     4742 
    -711    -1655     4945    12352    14628    13686    12286    10577 
    7870     1833    -6214    -8863    -3477     4602    11695    18341 
   23311    21525     9346    -8441   -20391   -21265   -18881   -22716 
  -30347   -32555   -27868   -21411   -14177    -5356     2403     8050 
   12024    11762     7527     4171     1861    -4158   -14149   -21517 
  -20821   -14033    -4529     8503    23534    34942    40564    40238 
   30928    13435    -2691    -8270    -4533     -301    -2114   -10161 
  -18380   -18087    -7171     9085    24081    32656    35533    35482 
   28216    10996    -7834   -19272   -23761   -24838   -20730   -10238 
    -881     -324    -3983    -2351     3064     4317     1663     1271 
    5694    11970    14789    11848     6284     2312     1017     2043 
    4405     4972     1506    -4683   -11618   -18315   -22281   -19236 
   -8129     5080    11826     9774     4723     2273      954    -3246 
   -9362   -12895   -12816   -11799    -9651    -5169    -1005     3397 
   12885    26077    36802    42021    40478    31158    16621     3277 
   -3898    -5433    -3946     -334     4860    11124    17572    21778 
   22264    19218    13393     7906     5952     4874     -514    -9243 
  -15040   -13329    -3906     9225    19102    21039    17248    10928 
     603   -11894   -18932   -17756   -13061    -7668     1431    15269 
   29087    37794    38769    32657    24040    17558    13009     6955 
    -556    -5402    -4989      176     7696    14261    17793    17598 
   13640     7581     2072    -2115    -6252    -9909   -10791    -9904 
  -10187   -11062   -11321   -12021   -12865   -12254   -10331    -7264 
   -2609     1097      394    -2677    -3438    -1781     -526     -519 
    -909    -1651    -3615    -7396   -12538   -15813   -13082    -5610 
    1080     4286     4792     4348     4604     5127     3846     -135 
   -5460    -9458   -11257   -12945   -16005   -19161   -19932   -17228 
  -13314   -12368   -15741   -20711   -24308   -25837   -26129   -25754 
  -23940   -19481   -12599    -5860    -2098     -649     1015     2095 
     -47    -4492    -7111    -5722    -2124      584      382    -1560 
    -588     4881     9682     8672     2490    -4496    -8549    -8104 
   -3746      693     1142     -746      324     5917    12950    18273 
   20603    19373    14821     9092     4866     3365     5161     9790 
   15653    22297    28769    32935    34018    32027    28138    24754 
   22619    21131    19057    13817     4698    -4768   -10887   -13143 
  -12082    -7380      530     9074    15250    17120    14010     8302 
    4122     2050     -241    -3312    -6150    -7626    -6947    -6158 
   -8872   -14411   -18264   -18929   -20191   -25209   -30339   -28426 
  -18009    -5370     3489     9011    13672    16056    12957     4641 
   -4491   -10080   -10929    -7897    -2632     2138     4251     3619 
    1447     -643    -2555    -5782   -10719   -16721   -22243   -24327 
  -20447   -10629      784     8021    10659    13208    18486    24503 
   27942    28811    28167    23684    13697     2546    -5036   -10791 
  -17126   -19820   -14407    -4438     3184     6558     8496     9763 
    7857     4363     4356     7781    11348    16008    23778    30728 
   31336    25944    17880     8127    -4533   -19813   -34087   -43164 
  -44420   -38003   -26707   -12285     3899    17618    26084    30715 
   30585    22555     9439    -2130    -9946   -16812   -24621   -30604 
  -31623   -27785   -20299   -12623    -9795   -10559    -8417    -3086 
   -1016    -5047   -12474   -20239   -25367   -24671   -18758   -11630 
   -5879    -2061     1541     7488    14905    21752    26919    29059 
   28748    28040    28138    29205    30168    29409    25671    18962 
   11908     9252    13765    21262    24641    23313    21875    22678 
   24393    24267    20806    14979     9062     5200     3532     1520 
   -3395   -10378   -15434   -17201   -19148   -22600   -24673   -23280 
  -18651   -13375   -10284    -9254    -8151    -3964     3982     9882 
    7431     -442    -6076    -9732   -15352   -19824   -21860   -25809 
  -29027   -25567   -16035    -3572     6296     8592     9859    16794 
   21159    16154     6635    -2058    -5894    -6386   -12744   -22114 
  -21147   -12785    -9961   -11032    -6648      676     2209     -681 
    -190     7688    20545    25790    12254    -8519   -13032     2860 
   21384    28219    21825     9180     3230     6289     8818     7601 
    1370   -12591   -26952   -30200   -21949   -10496    -3694    -7835 
  -18041   -20527   -16769   -15206   -12452   -10631   -19499   -33813 
  -39708   -35985   -30642   -26165   -21521   -21095   -28394   -38063 
  -42155   -37038   -25670   -16682   -13101    -8520    -3134    -1746 
    1854    10739    16889    17829    15857    13597    14254    14638 
   11443     7986     3569    -4178    -5602     2817     4413    -6353 
  -18148   -24538   -18314      911    15898    16071     9352     6918 
    8257     6787    10170    23947    27953    12569     -152     1830 
    7148     8110     7349     8345    11067    13124    11932    12236 
   23409    36836    37169    30419    25937    22492    21354    19923 
   10288    -3618   -10426    -9038    -8618   -10952    -5699     6274 
   10959     9209    10854    13316    13543    13441     7978    -6222 
  -20216   -25197   -21080   -11227    -2137     3728     9864    11650 
    9593    14750    19209    10085    -3098   -11826   -17667   -16463 
   -8158    -3504    -8135   -18351   -27139   -26418   -16180    -5541 
     -99    -1255    -9876   -22469   -31257   -30284   -24664   -23938 
  -24372   -17915    -7789    -2085    -2697    -3461     -733     1869 
    3813     8657    14513    14932     8739     -683   -10617   -14571 
   -9031    -2469       52     1991     2273     -464    -1898     1907 
    9948    16132    18794    21296    18949    10385     7437    11689 
   11419     5189     2053     5016     7994     6242     3775     8472 
   17004    14693     3144      751     8372    11465     5850    -2652 
   -8391    -9186    -5348      500     3780     4500     6583     8658 
    7106     4761     5211     5055     1163    -2404      189     9514 
   18555    20661    20499    23095    22025    14079     6083     3154 
    5420    10893    14998    12592     5929     3044     5927    11615 
   17153    16425     5791    -7006   -11410    -7723       10    11495 
   16799     6416    -5231    -5584    -4852    -6693    -4453    -3669 
   -8046    -6625     2081     6632     6883     6933     2706    -3790 
   -8199   -12279   -10091     2875     8205    -5899   -15140    -3157 
   11455    14801     9440     -873   -10108   -14839   -13837    -3037 
   12448    17725    11329     8560    12511    11457     6596     7693 
   11630     8696     2489     4870    12793    17234    18935    18540 
   18330    20333    18002    13914    16015    14080     3176       67 
    6134     6382     5271     7897      969   -11087   -11838    -7284 
   -1755     9433    15759    11762     7558     7271     8545     5896 
   -3642    -8492    -1471     6304     7553     4637     2119     6247 
   11094     3947    -7711    -8040      681     9146    15611    17506 
    9941    -3420   -11937   -11549    -6833    -3735    -6613   -10449 
   -5705     2778     5502     2388    -2115    -2493    -1387    -4423 
   -7728    -9682   -12177   -15880   -21462   -20547   -12043   -10836 
  -13321    -3855     9859    16551    23888    33336    30647    12441 
   -5892   -10739    -5441    -3352    -5995    -1059    14047    25683 
   22499    14370    19286    30497    29652    17868     6835     3041 
    7123    15161    18657    10369    -4256    -9968     -631    13815 
   25803    34125    28102    10080     7186    22072    27958    20841 
   19006    23421    19761     5373    -9232   -15630   -16857   -19737 
  -21285   -15202    -1524    16908    32656    30690     5725   -20623 
  -22056    -5597    -3844   -27992   -54387   -59269   -43094   -17868 
    8467    26329    29802    24987    16672    12650    22231    29617 
   10161   -25807   -40139   -20200     7188    23310    34803    44964 
   48621    44232    32530    10771   -21960   -52267   -63024   -55057 
  -43181   -40776   -49428   -56633   -48315   -23820     1129    10193 
   12656    30843    54573    50782    20119     6663    38646    77535 
   63308     1003   -43421   -29034    15206    45063    54954    51133 
   36711    23085    15111    11909     5467   -11840   -21192    -9877 
    3111     3611     5355    22967    33875    13390   -18143   -40490 
  -57755   -65245   -57897   -37640    -7103    14189    14111    15896 
   32022    39468    26441     5458   -12664   -21614   -23548   -25497 
  -24082   -19240   -17486   -13223     2236    23799    41249    55946 
   70815    69979    42294     4440   -24466   -38036   -42672   -53187 
  -62829   -48948   -17825     1749     4243     7261    14925    19431 
   21292    18843     5925    -9609   -14905   -12769    -9690    -6346 
   -4433      730    10623    10341    -3932   -16320   -22731   -31638 
  -36116   -24568    -8418    -2971    -4662    -6802    -7805    -3010 
   10662    23777    20378     -265   -20245   -24706   -14077    -2316 
   -6158   -19349   -16035     5518    20588    19695    14189    10937 
    9497    14640    26952    31407    21293    13022    15310    14255 
    3559    -3544     -762     4973     8996     3723   -11011    -9428 
   16756    32840    20237     1206    -2758     9522    24606    27154 
   15938      646    -6790    -1286     7366     9724     5875    -1945 
   -2960    14712    40259    51945    40470    11739    -9235    -2698 
   10504     3169   -13128   -10854    15882    44855    51553    41615 
   32906    21074    -2786   -25478   -28223   -16991   -14080   -22482 
  -22759    -5617    12096    13631     2367   -11101   -15862    -4472 
   14052    17775      341   -15090    -7803    16235    36772    34064 
   10542    -7572    -9244    -1979    12495    25768    26638    20650 
   13954    10835    12498     4149   -14802   -25995   -27371   -24509 
  -16090    -1397    14912    24059    26987    30607    29947    17010 
    1699      415     1684   -11304   -21996   -12100    12721    32115 
   27811    11793     5968     5325    -1350   -11229   -17917   -22223 
  -28521   -29039   -12653    10409    22203    23829    21467    11421 
   -4192   -21055   -39301   -47444   -37054   -18279     2546    21366 
   26308    24294    34456    47036    40112    18110    -1781   -15552 
  -26167   -30071   -24651   -15264    -8668    -3627     9491    25718 
   26838    14800      766   -14572   -25768   -28296   -29165   -31440 
  -30015   -20750    -5112     8004    13375    17536    20985    17448 
   11874     8294     2802     -773     4584    14412    17529    13065 
   10812    12598    11086     9273    14848    18289     8595    -6693 
  -16588   -17111   -11576    -9909    -9884      989    12305     5356 
   -7622    -9315    -6755    -6439    -3964      665     2050    -3032 
   -9813    -9936    -6080    -9662   -17606   -13560     2505    11754 
    4533    -5335    -6188   -11381   -26170   -30226   -18586    -8652 
   -4145      591      700    -2377    -1563     -869    -2008    -2878 
   -6219   -10856   -12532   -11105    -9653    -7565    -1341     4653 
    7241    12307    18719    18817    13252     8588     7253     4901 
    -702    -3105    -1337    -5418   -14261   -13743    -1761     9562 
   13882    15769    17594    14916     7506     3461     7813    13757 
   12838     8054     5636     3361    -2922    -8929    -6866     1051 
    5483     4266     1138    -1872    -2232     -992    -5017    -9844 
   -5946    -1977    -4534    -3925      827     2889     1982      413 
    1094     1779    -1387    -3878    -5181    -7345    -5205    -2381 
   -5227    -3975     6207    11842     7736     5962    10034    10945 
   10594    17096    26026    29313    24945    15412     9354    10791 
   10408     3738    -1073     1182    10107    21924    26620    20584 
   14713    16335    19629    19558    15490     6307    -4187    -9243 
   -8895    -8459    -9552   -10039   -10620   -11433   -10131    -8426 
   -9617   -12619   -12507    -7586    -3786    -4795    -7740   -10504 
  -12772   -14098   -13722   -12503   -12764   -12811    -9456    -5706 
   -4828    -2334     2752     1908    -6381   -11323    -5764     1991 
     457    -5562    -7175    -7805    -9379    -7377    -3316    -1310 
     151      787    -3646    -9683   -11269   -12569   -17474   -20463 
  -15669    -3438    10022    15568     9847      259    -5946    -6103 
     410     3508    -3017    -5088     3542    10702    11307    10619 
   11263     9767     2867    -4183    -4279     -317     -618    -5086 
   -5564    -2162    -3335    -9722   -14405   -13228    -7835    -2528 
    1819     8154    15606    18621    16938    14661    11156     6817 
    6264     7659     3593    -5524   -10193    -5949      796     4112 
    5707     8229     8881     3786    -2898    -3883    -2174    -3917 
   -6658    -7056    -5714    -3899    -2785    -2019    -1934    -3431 
   -3612       43     4677     5906     3965     3315     5314     7071 
    7461     7592     8600    11952    16764    17776    11207     2173 
    -186     5441    13895    18787    14472     5944     4627     8959 
    7778     -504    -6176    -2903     4642     8561     7553     5610 
    3797     1665     1958     4095     3746     2520     3832     5158 
    5204     4464      502    -3951    -3987    -1876     1105     5493 
    7717     6143     1331    -6160   -11736   -11188    -5788     1613 
    8943    13806    14804    11816     3753    -6912   -12052    -8953 
   -3981    -2725    -3277    -2158    -2813    -6070    -4189     2963 
    7017     5537      144    -7091   -12957   -17618   -20875   -19626 
  -15786   -12811    -8769    -2438     2995     4943     4989     7111 
   10654     8847     1706    -1949    -1051    -1092    -1169       27 
    -166     -360     1968     3797     2636     1351     2317     4584 
    7611    11173    13470    12299     7843     5420     7681     7449 
