Origin Time       2016/04/16 01:25:00
Lat.              32.753
Long.             130.762
Depth. (km)       12
Mag.              7.3
Station Code      OIT009
Station Lat.      33.2569
Station Long.     131.3439
Station Height(m) 458
Record Time       2016/04/16 01:25:22
Sampling Freq(Hz) 100Hz
Duration Time(s)  300
Dir.              N-S
Scale Factor      7845(gal)/8223790
Max. Acc. (gal)   527.803
Last Correction   2016/04/16 01:25:22
Memo.             
[...]
  -24742   -24013   -22386   -20904   -19662   -18667   -18127   -17761 
  -16886   -14912   -12280    -9994    -8139    -6311    -4202    -1738 
     486     1894     3002     4831     7609    11103    14820    17776 
   20088    21874    21863    20386    19098    17975    15673    11349 
    5633     -229    -5562   -10081   -13401   -15203   -15804   -15664 
  -14932   -13968   -13352   -13598   -14743   -16185   -17417   -18524 
  -19835   -21169   -21774   -21227   -19862   -18678   -18809   -20061 
  -20814   -20038   -18025   -15210   -11875    -8799    -6775    -5491 
   -4159    -3011    -2559    -2651    -3160    -3470    -2791    -1767 
    -822      842     3464     6731    10058    12669    14786    16969 
   18736    19195    18335    17123    16619    17253    18623    19996 
   21118    21902    22075    21938    21897    21312    19457    17093 
   15932    16015    15446    13380    10800     8792     7074     4299 
     735    -2196    -4888    -8271   -11777   -14481   -16538   -18873 
  -21351   -22400   -21693   -20995   -21209   -21427   -21497   -22165 
  -23063   -23510   -23337   -22356   -21220   -20144   -17359   -12654 
   -8274    -4677     -532     4363     9126    12703    14490    14949 
   14704    13608    11712    10353    11060    13356    15168    15622 
   15357    14733    13732    12318     9899     6768     5391     7114 
    9953    11608    11790    11217    10652    10663    11392    12555 
   13737    15172    17388    20028    22211    23317    23392    23399 
   23934    24102    22779    20025    16528    12642     8490     4411 
    1451      618     1290     2138     2648     2342      625    -2170 
   -5069    -7599    -9963   -12278   -14104   -14841   -14997   -15984 
  -17479   -17757   -16885   -16223   -15915   -15030   -13517   -12563 
  -12503   -12276   -11169    -9381    -7333    -4796    -1227     2798 
    5810     6951     7056     7863     9396    10176    10316    11217 
   12730    13760    14089    14187    14828    15888    16104    15664 
   15570    15133    13636    11805    10590    10219     9516     7393 
    5084     4256     4436     4068     2792     1937     2609     3740 
    3550     1972      224     -769    -1601    -3566    -6103    -7565 
   -7852    -7812    -7963    -8723   -10030   -11159   -11695   -11672 
  -11099    -9806    -7277    -3321     1282     5167     7076     7207 
    7425     8446     9054     8993     8999     8981     9101     9693 
    9499     7115     3450      407    -1359    -1825    -1016      884 
    4099     8348    12162    14590    16067    16814    16094    14019 
   11696     9605     8540     9919    13483    17497    20935    23784 
   26080    27639    28263    27688    26001    23895    21924    20472 
   19554    18474    17478    17118    16332    15213    15147    14875 
   12810    10349     9153     9319    10378    11558    11865    11385 
   11497    12276    12028    10552     9551     9621     9755     8962 
    6763     3434     -190    -3497    -6065    -7654    -8359    -8391 
   -7996    -7264    -6540    -6525    -7300    -8298    -9425   -11020 
  -12937   -14872   -16497   -17031   -16306   -14995   -13257   -10875 
   -8590    -7804    -9077   -11908   -15333   -17956   -18284   -15946 
  -12191    -8869    -7025    -6110    -5926    -8260   -12787   -16102 
  -17486   -18727   -20177   -21531   -22844   -24667   -27043   -28678 
  -29076   -28547   -27530   -26287   -23179   -16596    -7627      638 
    5683     7599     7593     5864     2238    -2563    -6870    -8459 
   -6174    -1599     3111     7458    11550    15769    19803    22050 
   22646    23060    23035    21794    19880    18611    18423    18353 
   17232    14575    11168     8160     5476     3095     2369     3832 
    5579     5929     5541     5130     4321     3684     4220     6034 
    9337    13591    16945    18824    19840    19784    18355    16302 
   15331    16402    18025    18462    18512    19410    19858    18160 
   14746    10671     6556     2882       31    -1907    -3578    -5772 
   -8349   -10120   -10473   -10168    -9443    -8106    -6929    -6196 
   -5493    -4700    -2978      183     3778     8127    14698    22705 
   30067    36223    42561    49592    54946    57461    58638    58928 
   57730    55069    51544    47495    42900    38686    36258    36267 
   37980    39302    39333    38249    34464    26145    14588     4109 
   -3561   -10509   -16428   -19967   -22023   -23134   -23333   -23647 
  -25282   -27664   -29542   -31675   -34852   -38043   -40705   -42464 
  -41786   -38587   -34851   -31856   -29295   -26505   -23630   -20779 
  -16590   -11638    -9067    -7470    -3634     -573    -1409    -3306 
   -3284    -2091     -325     2532     5065     6454     7852     8761 
    7238     3817     2085     2636     3253     4880     8005    10717 
   13301    16791    20038    21620    22655    24251    24819    23753 
   20281    13213     6822     3682      399    -2531    -3450    -3472 
   -1703      638     -174    -3997    -8576   -13095   -17829   -22698 
  -25983   -26677   -26767   -27626   -28818   -30311   -31016   -29729 
  -27427   -24175   -18777   -11927    -4627     2967    10832    19040 
   25540    27472    25386    21875    17717    12669     9126     9367 
   11803    15676    21163    25006    25111    23620    22072    19693 
   16283    12927    10334     8730     7330     4852     2377     1547 
    1667     1752     2207     3248     4170     4415     3194      118 
   -3029    -5142    -7059    -8941   -11070   -13516   -14804   -14574 
  -14102   -14274   -15513   -17767   -20036   -21612   -22885   -23874 
  -23971   -22788   -20426   -17767   -15488   -13527   -11770   -10156 
   -9043    -8968   -10114   -12711   -16713   -21513   -26505   -31234 
  -35145   -38036   -40702   -43812   -46994   -49916   -52265   -53370 
  -53426   -53399   -53639   -54025   -54994   -57372   -61227   -65985 
  -71336   -76688   -80856   -82818   -81919   -77881   -70618   -60729 
  -50121   -40495   -32220   -25699   -21459   -18585   -15435   -11589 
   -8618    -7273    -5004    -1048     2814     7223    11550    14323 
   17691    21829    24591    26264    27788    29249    29954    29570 
   29222    29520    29775    28696    25605    22547    21332    20498 
   19438    18692    17529    16089    14179    10354     4923    -1582 
   -9234   -15391   -18978   -22388   -24740   -25138   -25786   -26734 
  -26836   -26014   -25278   -25933   -27391   -28768   -29974   -30568 
  -30565   -29920   -27935   -24402   -19515   -14076    -9583    -6285 
   -3001     1000     5672    10859    16318    21612    26515    31070 
   35112    38245    40344    41646    42155    41569    39973    37635 
   34331    30127    26368    24181    22888    21433    19919    18759 
   17695    16004    12930     8533     3971      128    -3175    -6666 
  -10537   -14153   -17259   -20270   -23580   -27325   -31014   -33995 
  -36547   -38584   -37963   -34445   -31387   -29415   -27044   -25581 
  -25420   -25137   -25297   -26912   -28918   -29596   -28482   -25416 
  -20142   -13969    -8648    -4410     -940     1275     1402     -263 
   -2424    -3991    -4321    -3480    -2224    -1196    -1156    -2786 
   -5487    -8772   -13629   -20131   -26356   -31198   -35571   -39762 
  -42537   -43850   -44722   -44879   -43860   -42313   -40819   -39190 
  -37241   -35187   -33137   -31514   -30766   -30422   -30190   -30159 
  -29744   -27976   -24239   -18458   -10831    -2116     6473    14863 
   23755    32626    39852    44693    48571    52686    55907    57597 
   58768    59113    56613    52249    50379    49077    44180    41022 
   40235    36207    32795    31153    27518    24311    22229    18561 
   14027    10170     5713     1223     -815    -1732    -3542    -4689 
   -4055    -3595    -4032    -4637    -6313    -8787   -10201   -10550 
  -10833   -11302   -11396   -10029    -7020    -3221      855     4837 
    8313    11515    14350    15896    16013    15805    16382    17675 
   18843    19726    20773    22314    23566    22608    19322    15992 
   13585    11067     7782     4012     1048     -139    -1119    -3613 
   -6689    -8739    -9929   -11364   -13188   -14833   -15655   -15279 
  -14712   -14767   -14561   -13451   -11701    -9209    -5454     -905 
    2906     5113     5840     5917     6547     7964     9194    10566 
   14512    20885    25972    28633    31274    34780    37349    37360 
   34861    31194    29042    30474    34060    36512    36247    34230 
   32413    31275    29042    24079    17703    13527    13036    13659 
   12930    11115     9142     7271     4429     -866    -7474   -12791 
  -16121   -18206   -19290   -19768   -21379   -25142   -29729   -32881 
  -33836   -35168   -39221   -43864   -45646   -43614   -39247   -34503 
  -29916   -24849   -18347   -11300    -6035    -2209      958     1968 
     916     1543     6960    13452    14669    12279    12086    14477 
   17275    18720    16771    12973    10459     9290     9533    10724 
   10281     7433     4008     2984     5294     7136     4131    -2654 
   -6508    -3721      750       56    -3673    -1644     3538     5564 
    8477     8708     2120    -2974    -3603    -3522    -4793    -6006 
   -5116    -4584    -7348   -12417   -16258   -16811   -15070   -13950 
  -15213   -15503   -12174    -7589    -3076      170     -180    -1371 
     334     2435     1961      756     1939     5765     9510    11850 
   13917    14338    12317    12862    18370    24580    28518    29219 
   26055    24537    31333    39645    38192    30172    26241    29376 
   33974    35068    35054    36509    36612    34240    32147    32312 
   35040    38318    38323    36551    40323    49793    55313    53327 
   49353    44743    37524    25799     8814    -5328   -11485   -14342 
  -13740    -7719    -1746    -2485    -6484    -7225    -6691    -3690 
     652    -1702    -3107     4819    12363    12559     8926     7298 
    4774   -10451   -34794   -50863   -49790   -33302   -13356    -2043 
     341     -668     2155    15061    23994     5390   -17852   -12600 
    5852    20937    18534    -6624   -19143    -9147     6658    14246 
   -5410    -7696    44899    80171    52502    12486     1881    -9840 
  -51213   -56571     5142    29397   -29164   -57360     3497    51744 
   23222   -18588   -21494   -10139   -14516      831    56764    68611 
     722   -32368    27510    86213    54284   -64567  -137417   -33427 
  100815    80951     7645   -16889    -7619    46785    80366    11514 
  -71163   -57954    33678   123083    86300   -48776   -26904   104211 
   38434   -65421    18611    25708   -54167    53546   150344    45157 
  -16204    66112   138165   111098    -2130   -42090    87507   142728 
   38361    -7940   -47463  -104332     1094   131583   101144   -42132 
 -165796   -64515   153307   169053    95721   101542    59675   -12750 
   16590    99480   113753    63418    45076    85020    95238    15776 
   -9321   117551   174059    35175   -62382    31434   120869    48617 
  -24706    25513    74020    39645   -28134   -85342  -113170   -88743 
   -9036    68118    71906   -32742  -138713  -100994   -39741   -54318 
  -37218   -51764  -161666  -185213   -92743   -60278   -78538   -44226 
  -15295   -26536   -14764    36412   116086   155013   101533    89471 
  156496   124002    41382    89345   161439   167292   201746   220594 
  131031    12730   -33273    -4391    29413   -38732  -191242  -291550 
 -325435  -330261  -251691  -125580   -62386   -35776    -3163    11854 
   39114    80905    92670    95272   110519   129782   175362   241265 
  242713   139283     8946  -103880  -229487  -316732  -297259  -232683 
 -211947  -255532  -319223  -334870  -327750  -352028  -385929  -427092 
 -462042  -440338  -403320  -410108  -418618  -389657  -349929  -309780 
 -252475  -186166  -115294   -25843    68686   152721   223722   239554 
  183978   149805   185035   171531    60859    -9130    22721    74278 
   68585      911   -43060   -27645   -42241  -121923  -169485  -111456 
  -33490   -19666    21600   121339   167139   181333   209742   185645 
  163626   210976   238065   210891   195855   214207   235864   242563 
  247167   245362   216945   186374   162641   107374    45088    42264 
   78621    86879    67527    53158    33480    -2890   -25467   -11888 
   14937    37659    79278   141671   178486   167725   130696    86420 
   51329    31557     -657   -70802  -173113  -288210  -376746  -394325 
 -350217  -290902  -257818  -288612  -347005  -342904  -316684  -370353 
 -465743  -517390  -529672  -525700  -471410  -364736  -249342  -112507 
   10693    38557    32498    78884   136326   155440   160903   180963 
  199868   202886   196387   185101   173962   182466   238018   330493 
  391205   355540   244608   136721    80381    96156   170826   229797 
  221706   193324   206972   238473   241566   235554   261796   329513 
  390328   380874   311686   225650   137546    67645    18561   -29710 
  -58139   -62560   -82389  -115499  -132806  -134604  -132989  -135649 
 -153571  -195054  -246161  -284823  -310757  -333626  -345998  -326979 
 -273249  -203947  -132526   -69562   -39997   -53820   -73525   -71039 
  -82615  -125134  -155135  -162573  -166534  -158643  -139653  -117717 
  -86151   -46207   -12367    -5664   -15997    -6162    20453    42738 
   64725    92273   126264   167714   222061   298632   387887   466815 
  526155   553582   511438   391841   280863   259969   261981   180102 
   50436   -21606   -14436    21917    54635    85109   109919   109012 
   78282    52861    62344    86004    95430    98064   101403    96314 
   88969    85298    76743    62789    44710    19818   -12434   -52905 
  -98930  -144030  -178931  -199004  -214617  -232363  -245304  -251457 
 -254360  -250179  -224758  -175359  -122377   -74723   -31171    -5221 
    3496     9726    15214    18123    16865    17004    24858    22873 
    3559   -16395   -30742   -34599   -26636   -23615   -32354   -41245 
  -40760   -32868   -26989   -27147   -24556   -11313     1084     4768 
   17058    34854    24574   -19766   -72841  -101150   -83574   -52292 
  -49477   -63124   -70004   -71972   -73034   -72466   -72659   -76350 
  -81711   -85016   -86417   -84061   -70086   -44080   -16073     1046 
   -2123   -15206   -16205    -7981    -7383    -9471    -6883    -3917 
    -764    -7855   -35797   -62992   -67703   -62568   -59777   -49526 
  -35577   -36263   -43074   -32184   -10949     -535     6505    15615 
   16339    18198    28672    37806    44794    54130    66415    80144 
   92662    98379    90286    75784    67111    55641    35738    25961 
   31288    37287    45025    59746    74216    80616    75826    67406 
   63335    58743    56633    61549    60615    51189    43124    34514 
   24235    19317    19809    18530    10438    -2531   -13513   -20861 
  -27175   -28520   -23109   -19275   -19681   -20498   -22778   -25431 
  -26021   -27729   -32556   -39259   -46201   -51637   -55518   -60304 
  -67466   -71462   -63080   -42768   -21338    -3866    12303    24883 
   34092    47367    61716    68998    69525    64928    58676    57119 
   61117    64623    61168    53523    49970    47502    36416    20256 
    9613     5572     5661     9178    11784    10407     9261    11890 
   14350    13848    13134    11322     6421      747    -5636   -13332 
  -19410   -22724   -24848   -25249   -21980   -16019   -11322    -8957 
   -3962     5737    14736    21447    29110    34874    34596    29836 
   21161    10303     4820     5570     6880    10667    18751    26072 
   31155    34929    35410    33858    35392    41285    47937    53314 
   59175    64793    66712    66654    68046    69090    67823    64881 
   59609    52232    45858    39206    29817    22231    17851    13576 
    8272      575    -5452    -6126    -6974    -8893    -7188    -3349 
     909     6512    12120    17041    20097    20286    20788    23085 
   24970    24059    18143     8175    -3140   -13035   -16421   -13915 
  -13082   -16809   -22454   -28213   -33594   -36867   -37326   -37125 
  -37380   -37625   -38604   -41172   -44425   -46658   -46943   -45781 
  -44720   -44888   -46199   -47169   -44949   -39544   -34361   -29829 
  -25335   -22234   -19241   -14040    -7739    -2669     1563     6376 
    9787    10525    11225    11445     7082    -2652   -13479   -20588 
  -24098   -26688   -29600   -34002   -38361   -39474   -40552   -45900 
  -52263   -56209   -57245   -53800   -48150   -43696   -37736   -27673 
  -14901    -1844     9679    19051    25965    31171    35005    35432 
   33264    32269    32240    30692    29115    30751    34129    34939 
   31905    26111    18153     8926     2752     4457     9429     9038 
    6407     8460    12660    15253    16317    14480     8014     -826 
   -8603   -16154   -23826   -28566   -32182   -38657   -44069   -43094 
  -39154   -38002   -38535   -37380   -35799   -34522   -29875   -22775 
  -20210   -22692   -23716   -21516   -20487   -23228   -27518   -29112 
  -23438   -12244    -3987    -1050    -1622    -3781    -2874     -747 
   -1912    -3086    -1802      326     3013     6052     7815     6496 
    2675    -1769    -7796   -16073   -24538   -31267   -35101   -36104 
  -34308   -29501   -22670   -14222    -5629     1803     9786    16322 
   17216    13648     8553     3115    -3102   -10764   -18083   -22948 
  -24202   -20074   -11326    -1798     7069    15736    23340    29412 
   34024    36467    38492    41580    41743    39498    39829    41262 
   42561    45480    50606    57294    61105    62109    66073    70706 
   72747    75867    80102    84665    91752    97742    96483    84827 
   67133    56038    51344    43586    35050    24879     8738    -6619 
  -17336   -25413   -29882   -31868   -35190   -40550   -45616   -48516 
  -49068   -50025   -53701   -56713   -58826   -63528   -66526   -65839 
  -65072   -60500   -50182   -40441   -34855   -31980   -29000   -24502 
  -19780   -17192   -17347   -18902   -21204   -22099   -18787   -13314 
   -8918    -5837    -3523     -287     7221    18860    29056    35432 
   41709    48205    51084    49162    43372    36189    29590    21695 
   13178     7496     3334    -1540    -5223    -3946     1582     5387 
    7781    12478    16152    15346    11010     7627     6806     3427 
    -942    -2579    -5937   -10588   -14003   -20217   -28593   -34105 
  -36479   -37166   -35812   -32301   -28309   -26049   -25483   -25272 
  -25871   -27650   -29512   -32022   -35845   -38740   -40113   -41615 
  -42219   -41370   -40756   -39761   -37339   -34913   -33312   -32367 
  -31926   -29789   -25229   -20999   -16989   -11977    -6760      -81 
    7927    13767    17750    21181    21892    21573    24108    28001 
   30190    30595    32255    36625    40298    42900    45246    42511 
   36938    34894    31568    25284    20164    14165     8764     5468 
     272    -3712    -3291    -3608    -6772    -9987   -12631   -15951 
  -20476   -25909   -30553   -32942   -35125   -38167   -39949   -41237 
  -42417   -40848   -37644   -34717   -31041   -26522   -21097   -15452 
  -10825    -5204     2011     8083    12923    19222    27506    34638 
   37805    36829    32590    28036    26222    25694    25050    25674 
