Origin Time       2016/04/16 01:25:00
Lat.              32.753
Long.             130.762
Depth. (km)       12
Mag.              7.3
Station Code      OIT017
Station Lat.      32.8578
Station Long.     131.6587
Station Height(m) 250
Record Time       2016/04/16 01:25:22
Sampling Freq(Hz) 100Hz
Duration Time(s)  97
Dir.              N-S
Scale Factor      7845(gal)/8223790
Max. Acc. (gal)   34.152
Last Correction   2016/04/16 01:25:22
Memo.             
[...]
   10929    12906    11755     9298     9418    10291    10053    10407 
   11859    12787    12591    11759    10818    11488    13560    13367 
   10995     9580     9748    11723    13483    11719     9397    10150 
   11204    10795    10862    11524    12229    12486    11090    10104 
   11519    12360    11049    10396    11745    12399    10361     8370 
    8835    10053    10813    11556    12357    13172    13898    14359 
   13932    12383    10600     9810    11286    13340    12162     9147 
    9273    12361    13277    10199     7591     9155    12170    12237 
   10881    12059    13351    11269     9109     9803    11389    12066 
   11523    10559    10716    11477    11358    11137    11194     9787 
    8849    11766    14516    13321    12672    14467    13923     9702 
    6616     8449    12278    12208     9215     9599    12653    12418 
    9682     9505    12027    13250    11304     8996     9516    12059 
   13624    12895    11080    10017    10779    12367    12854    12312 
   10210     7707     9968    14719    14920    11885    10034    10295 
   10675    10014    10777    12439    12063    10555     9388     9563 
   11804    13362    12117    10547    10384    10318     9722     9954 
   13166    17730    18102    13971    10949    11250    11307     9346 
    8734    10636    11838    10424     8537     9510    12283    12930 
   11013    10027    11603    12746    12436    13329    14523    13559 
   12001    10744     8996     7997     7758     8351    11531    14692 
   13954    11245    11595    14931    15290    11183     7249     7107 
    9940    11094    10060    10395    11593    12421    13131    13313 
   13608    13254    10849     9562    11529    13213    12642    11869 
   11794    12187    12911    11875     9258     8976    10728    11060 
    9795     9232    10164     9989     7969     8264    13459    18914 
   17134    10135     7381     9590    10521    10180    12305    15572 
   15400     9989     3503     3589    11253    16875    12631     5984 
    8880    15938    15215     9973     8787    12143    14783    11920 
    7378     8675    13030    12865    10309    10598    10320     7056 
    6627    11080    15070    16428    15453    11527    10245    15288 
   18886    15804     9846     6997    10004    13575    11678     7699 
    8494    12884    12710     7034     4426     8222    13467    15989 
   14732    10960     9780    13771    15549    11003     8929    13144 
   14733     9234     5440    10543    16382    12895     4602     2465 
    8472    14135    13631    12463    15688    17023    10790     4437 
    7020    13397    13371     9208     9829    14831    15066     8024 
    4203    10636    18717    18493    13548    10990     9709     9310 
   10767    11371    14686    21240    19620    10091     5590     8553 
   12765    13208     8592     6652    11817    13312     8707     9516 
   14852    15650    12147     9693    11180    12334     8356     5312 
    9468    16509    19853    17061    11149     7442     6232     6427 
    9667    12584     9948     7172    11379    17258    18033    15502 
   12947    10681     6658     2986     6129    11916    12028    11543 
   14848    15661    12525     9549     7618     7964    11448    13660 
   11499     9753    13570    19292    18781    11026     4417     5350 
   10816    14679    13884    10960    12548    17297    15616     8385 
    6053     9549    12059    12324    11655    11518    14775    16964 
   13647     9251     5374     3742     7950    12421    11804     9408 
    8548     9946    12903    13711    12395    13275    12622     8087 
    9360    16275    15503     7666     6168    12337    15846    12368 
    7699     9850    15912    14100     7096     8073    13066    10972 
    7163     9379    13736    16225    16355    14520    14341    16316 
   15091    10528     8538    10195    11944    11152     8858    10427 
   15993    17635    12249     6569     8124    14925    17103    12039 
    8910    12162    16160    16582    13261    10003    10685    12633 
   12788    11009     9131    10996    13196     9954     6868    10092 
   15356    16762    14025    10894    10627    12333    13090    12646 
   12186    11277    10465    10767     9146     4577     4757    13105 
   18291    12704     6214     7254    10327     9687     7777     8646 
   11496    12505    10624     8284     9304    13747    15445    13234 
   12469    13066    13161    13159    10933     8490    10558    11561 
    6872     6088    15086    23014    18036     5773     3179    12301 
   16594     9765     4646     8182    12062    10790     8827    10563 
   14127    14176    12403    14939    17111    14191    12303    13129 
   12708    10728     8599     8167    10426    11994     8929     5730 
    9431    14500    12663     9779    11790    12947    10162     7632 
    7537     8371     9775    12307    13359    12541    12532    11508 
    8997     8543    10875    15531    18640    13984     6431     5530 
    8880    10423    12174    15102    14585    11493     9879     9944 
   12768    16005    13929     8922     8190    13061    15908    10804 
    5776     8337    10972     8575     8843    13799    14311    10315 
   11335    17084    19399    13902     5864     6388    12555    12297 
    9101    11267    15267    17086    16135    11431     8945    13382 
   15259    11142    12077    16998    15445     9456     4479     2882 
    8441    15338    14481    10698    11168    14646    16719    14407 
   11067    10978    11776    12596    14940    14501     9953     8706 
   12252    13460    10860     9031     9396    10957    12100    10926 
    9339    10211    12521    13819    13633    13683    13401    10037 
    5838     5732    10026    15302    16279    11240     8404    12762 
   16529    14631    11272     9616     8454     7860     9975    13640 
   16270    16348    13113    10890    12282    11569     8131     8199 
   10677    10658     8738     7391     8530    11942    12799    10156 
   11422    16765    15619     8565     6091     7969     9089     8959 
    8383     9337    11452    11765    10010     9601    12957    14589 
   10712     7482     8203    11375    15303    15344    11718    11062 
   12973    12326    10426    10285    11458    12415    12647    13185 
   12895    11547    11952    12849    12241    11739    13062    15049 
   13402     9803     9775    11512    13898    16401    13081     6685 
    6478    10987    13045    11703    11838    15336    16052    11047 
    6407     5406     6555     9229    11781    13302    14014    12402 
   10535    11214    11173     9845    10091     9768     8118     9225 
   11979    11716    11437    14597    15356    11346     7852     7894 
   13663    20405    17428    10004     9521    12017    12201    11819 
   11388    11014     9634     7612     9626    14350    14986    11562 
   10949    15052    17950    16946    12533     5953     4746    11638 
   17632    17632    14249     9694     6416     6601     9117    11264 
   12179    13200    13516    12224    12205    13730    14581    14601 
   13392    11873    11268    10212     9036    10045    13308    13801 
    8843     6126     8356     8306     6964    10029    14532    15215 
   13109    12195    13703    15311    13786    11373    13189    16245 
   15554    12758    11006    11364    11385    10319    11128    11084 
    7797     6073     8248    12461    15721    15364    13775    14381 
   15419    14688    12177     8459     6531     8756    11807    10675 
    7291     7466     9979    12163    15861    17485    13100     9589 
   10609    10153     8746    12950    18732    15901     8903     8205 
   10913    12811    12857     8772     6635    10559    13358    11950 
    9437     8281     9895    11462    12158    15337    16546    12171 
    9462    10956    11800    11491    11078     8791     5541     3589 
    2656     5281    11129    12676    10759    12808    15923    13871 
    9771     6841     4603     7786    15191    15546     9771     8618 
   12756    15596    13563     9140     7013     8672    12600    14764 
   12841    10347     9300     8051     8679    12472    15083    15815 
   17953    19656    17464    12552     7601     4630     5001     7827 
   10077     9278     7103     6906     8060     8239     7530     8376 
   11996    14998    14875    13706    12772    11572    10864    11641 
   13733    15241    13059     9304     9625    11148     8347     5223 
    6097     7761     9157    12337    14662    14935    15408    15025 
   13914    14175    13699    10230     6662     6010     7157     7966 
    5580     1070     2435     7766     6755     3345     6438    12122 
   13621    12463    13651    15560    12283     5302     2172     5123 
    7622     5803     6072    11689    15083    10563     4781     7689 
   14714    13821     7456     6394    10998    14207    11762     6735 
    6635     9406     7596     5066     6490     9050    11909    13689 
   12637    12815    16028    17498    15392    11908     6589     1470 
    1499     4380     6389     9312    12475    12816    11650    10922 
   10329    10836    12536    14060    15392    16322    16340    14318 
    9639     7177    12000    19161    19715    14875    12884    14778 
   14463     9328     4255     4455     6416     5096     4676     7506 
    7574     4869     4769     6744     8571     9757     9614     8758 
    7272     3754     -710    -2068      967     3717     4040     6825 
   12268    13879    10412     6284     5049     6301     5414     2759 
    4200     6092     2930     1039     4630     8984     9886     7685 
    5722     4560     2976     2172     1686      340       97     2158 
    4909     6748     6771     4375     1138     -355     -148     1209 
    4619     9153    11947    12252    11313     8652     5109     4317 
    5017     4617     5097     6814     8949    10879    10214     8623 
   10897    15493    16463    11583     4228     1999     7723    13467 
   14067    15507    22452    29238    28152    21124    16972    19191 
   22566    21178    16731    14844    15184    14594    13917    14651 
   15529    13922    11133    11904    15202    17207    18624    19876 
   19622    16949    12480    11039    16788    26620    33112    33235 
   31217    29234    23943    17104    14874    16291    17342    17579 
   16005    13693    14341    16414    16237    15601    17670    19726 
   19364    19727    19475    15109    10184     7799     7113     8494 
   12976    17652    16872    11881    10187    13838    18188    20368 
   21863    23094    22229    18918    15539    16155    21309    25203 
   22893    18048    17586    19380    17761    14823    14268    15884 
   15696    10543     7924    15631    27018    31850    27207    15935 
    6916     7722    12581    12772    11449    13182    15411    16282 
   16903    18031    18728    16579    11333     5864     2187      810 
    2428     6385    10409    12958    13539    12174     9747     8048 
    8243     7693     1771    -7890   -12915    -8795      -32     6943 
    9931     8928     4548    -1156    -4214     -212     9703    18326 
   21625    20949    15414     3847    -6957    -9949    -6658     -238 
    5096     3082    -3168    -5290    -4575    -5603    -6382    -4785 
   -1387     3510     6033     3114      480     2016     3581     3839 
    2895    -1884    -5689    -1884     5755    14690    26187    32629 
   28343    21332    19350    22067    25544    24700    21016    22322 
   28651    32818    32904    30287    25398    21813    20985    18087 
   12237     8440     8338    10200    13605    17268    17656    15229 
   15206    17181    15616    10255     4040     -456      382     5005 
    5694     -157    -5116    -2007     5158     7832     5320     3271 
    4758     6242     4793     6083    14910    23322    20193     9140 
    3487     4784     2849    -6270   -14283   -10466     3678    14739 
   14443     8237     6659    10791    11900     8966    10116    14203 
   13089     8502     7954    11091    11454     7568     5321     8615 
   13636    14021     8604     2673     -693    -3411    -3588      544 
    2613     -819    -5221    -7416    -6277    -2442      572     1960 
    4576    10504    16735    17564    14062    12383    13763    14746 
   13362    11022    11713    16699    20101    19608    22270    29817 
   33905    29677    21976    17675    17202    15001     7882     1046 
    3277    16660    32800    41207    39987    33795    26202    18856 
   12046     5152     1270     7037    21358    33255    35652    30025 
   21872    17390    17666    20344    24013    24405    18488    11368 
    9953    15900    24649    29864    30442    28317    23241    14823 
    6531     4212     9648    19543    27635    28090    23699    20768 
   18297    15178    15367    19620    22654    19179     9221    -2511 
   -8337    -1071    14913    25502    26325    25332    27290    28161 
   21982     9825     1738     4973    12293    11006      932    -6864 
   -6916    -4212    -1557     3910     9555     9945     7005     5732 
    8581    13980    16765    15693    15257    17698    20104    17933 
   11924    10987    20127    32089    37182    33326    26279    22203 
   21875    23882    25261    23085    21195    23815    26670    25150 
   21347    17605    14073    12831    14076    14438    13711    15068 
   21496    32293    39060    34747    24865    19313    19801    19495 
   12044    -1498   -16117   -24432   -19620    -6571     2257      977 
   -7919   -16117   -16932   -12614    -5101     6311    13909     9505 
   -2041    -8617    -3041     9035    15110    11580     4954     2597 
    6880    12640    12877     8121     5691     9267    13894    14447 
   11931     7902     3438     3064     7190     9884     9788     8812 
    7756    10978    19342    23504    19292    16447    21693    28104 
   27795    21978    15396    11190    10728    12322    13312    13329 
   13219    15828    22711    26993    22429    15010    13081    14908 
   15511    17400    23201    27143    24714    18424    10544     1111 
   -7056    -7830     -387     7295     9636     9317     9984    12387 
   14531    13703    13096    17101    22469    25361    25110    20879 
   15569    14270    16213    17061    16395    15037    11870     7960 
    5886     7623    14143    20754    20424    14508    10103    10632 
   15213    20375    22638    20779    13824     3584    -3252    -2906 
    2226     8230    10956    10035    10758    14503    18835    23758 
   25909    21849    17941    21325    28471    30218    23591    15211 
   12541    15457    17852    16641    15974    18080    18727    16711 
   16846    21075    24664    23545    19502    15341    11411     8319 
    8533    14179    22650    27765    27433    24790    22697    21366 
   19444    15816    12248    13018    18679    22874    18960     9629 
    5078     8849    13983    15506    15698    16823    18130    17135 
   11641     4530       -5    -1514      265     3129     2848     1205 
    2924     7375     8929     4500    -1179     -444     7701    15790 
   18436    18632    18806    16814    11225     3098    -2451     -533 
    5381     8259     6469     4199     6093    11229    14341    12928 
    9657     8272     9355    10905    11975    13294    15611    18696 
   20034    17200    12043     8604     7925     7493     5697     3951 
    3630     4587     7025     9913     9979     7709     7570    10666 
   14154    15144    13263    11299    11488    11974     9896     6711 
    4903     3060     1120     2018     4091     3026      311      324 
    2640     2527    -1750    -4243     -193     4939     6031     7337 
   11685    13761    10566     7350     7854     9420    10098     9370 
    5742     1205       36     1852     2548      612     -861     1610 
    6879    10238     9285     6257     4854     5999     7414     7094 
    5100     2930     1939     2349     4133     6259     6727     5119 
    2857     1732     2326     4066     6126     7125     7824    10384 
   12487    11232     8526     6126     3615      990    -1024     -800 
    1800     3920     4194     3451     1472    -1337    -3006    -2910 
   -2478    -2633    -2330     -406     2848     5809     6689     6208 
    6548     7111     6373     5171     4182     2616      330    -1755 
   -3033    -2818     -272     2074      936     -789     1053     4109 
    4109     1463     -216     1250     4010     4571     3669     4796 
    7155     7607     6085     4814     6339    10968    15595    17674 
   17574    16241    14211    12627    12449    13019    12954    12290 
   11994    11826    11919    13170    14386    15665    18881    21024 
   19025    15811    13509    11635    10514     9575     8314     7652 
    8058     9603    10948    10102     7946     6821     7443     8652 
    9348     8928     7056     5940     6735     7003     6960     8113 
    9116    10061    12009    13138    12708    13122    13918    12931 
   12233    13073    13308    12960    12474    10547     8121     7940 
    9639    10511    10667    11484    11790    11406    12789    15564 
   16339    14806    13379    12588    11816    10963    10335    10770 
   11993    13177    14341    13516     9448     6562     8276    11742 
   14006    14916    14550    13439    12214    10088     7892     9288 
   13678    15070    11151     5904     4336     7878    13479    17344 
   18929    19356    18686    17389    15786    12771     9448     8803 
   10687    12630    13960    15394    16977    18607    19766    19117 
   16897    15020    14312    14690    16056    17289    16926    15344 
   13755    12378    12409    15201    18724    19797    17652    14757 
   14100    15256    16421    17047    17199    17294    16814    15115 
   14361    16511    18840    18091    16258    16992    18837    17612 
   13509    10192     9879    11479    12087    11746    12726    15218 
   17980    19083    17727    15894    15176    15298    15384    15438 
   15935    16167    15882    14932    13026    12961    16243    19002 
   19016    18773    19294    18775    17257    16048    15492    16513 
   17829    16173    13813    14812    17018    16849    14624    12646 
   12240    12733    13231    13761    14033    13478    13659    16669 
   19400    17421    13338    12204    13925    15003    13864    13228 
   14898    15777    14227    12633    11973    11130    10239    10397 
   10986    10940    11729    14459    15504    11647     7492     8202 
   11317    13267    13861    13630    12880    12050    12205    14058 
   16534    17231    15012    12147    11573    12629    12104     9804 
    9204    11290    14064    16233    16337    14467    12908    11256 
    8787     8054    10216    12594    12213     9968     9645    11762 
   12756    11607    11271    12930    14411    14262    13684    13794 
   14122    13911    12552    11387    11886    11400     9217    10069 
   14828    18347    18069    15749    12866    10438     9913    11551 
   13284    12596    10249     8361     6805     5248     4646     6447 
   10079    11746    10227     8795     9375    10849    11298    10361 
   10093    11052    11321    10854    10227     8688     7569     8517 
   10172    10557     8942     7136     7950    10149    10365     8779 
