Origin Time       2016/04/16 01:25:00
Lat.              32.753
Long.             130.762
Depth. (km)       12
Mag.              7.3
Station Code      OIT016
Station Lat.      32.9747
Station Long.     131.9028
Station Height(m) 1
Record Time       2016/04/16 01:25:25
Sampling Freq(Hz) 100Hz
Duration Time(s)  203
Dir.              N-S
Scale Factor      7845(gal)/8223790
Max. Acc. (gal)   134.063
Last Correction   2016/04/16 01:25:26
Memo.             
[...]
   -9321    -5759    -3677    -4094    -6120    -7707    -7763    -6420 
   -4284    -2519    -2022    -2421    -3087    -3670    -3519    -2435 
    -934      533     1632     2205     2047     1024      -23     -421 
   -1035    -2805    -5344    -7674    -9250   -10241   -11055   -11699 
  -11958   -11762   -11419   -11311   -11512   -12231   -13339   -13960 
  -14052   -14615   -15998   -17149   -16803   -15333   -13919   -12746 
  -11844   -11510   -11261   -10752   -10654   -11495   -13740   -17864 
  -22761   -26550   -28255   -27418   -24532   -20780   -16946   -14104 
  -12977   -13022   -13563   -13838   -13313   -12251   -10643    -9104 
   -9043   -10282   -11894   -13565   -14571   -14412   -13458   -11797 
   -9337    -6646    -4271    -2223     -471     1260     2965     3511 
    2465      630    -1934    -5306    -8880   -11962   -13405   -12799 
  -11038    -8388    -5260    -2882    -1086      491      679     -797 
   -2511    -3187    -2477     -853      900     1952     1767     1385 
    2163     2795     1576     -238    -1564    -3597    -6723    -9821 
  -11785   -11646    -9576    -7353    -6110    -5602    -6176    -8823 
  -12943   -16352   -17648   -17014   -15452   -14172   -13802   -13995 
  -14713   -16718   -19622   -22391   -25038   -26916   -27237   -27137 
  -26963   -25550   -23600   -23168   -24559   -25834   -25093   -22762 
  -20286   -18239   -17331   -18085   -19387   -19700   -18215   -14546 
   -9352    -4514    -1050     1732     3975     4923     4797     4338 
    3915     4025     4989     6460     8141    10168    11986    12221 
   10430     7258     3437       31    -1877    -2189    -1910    -2571 
   -4241    -5225    -5260    -5286    -4912    -4446    -5235    -6073 
   -5206    -4059    -3842    -3357    -2971    -4843    -8586   -11647 
  -13178   -14467   -16236   -17413   -17780   -18781   -19990   -20054 
  -19855   -20093   -19577   -17307   -14154   -12414   -12518   -12908 
  -14328   -18611   -24050   -27966   -30516   -31754   -30515   -27201 
  -23603   -21193   -19672   -18056   -16946   -16425   -15572   -14889 
  -15142   -15985   -16195   -14164   -10073    -6450    -4625    -2959 
    -792      116      116     1171     2708     3433     3230     1557 
   -2123    -6110    -7850    -7769    -7468    -6647    -5424    -4665 
   -4326    -4302    -4704    -5644    -6947    -7830    -8124    -8410 
   -8278    -6876    -5117    -4433    -4637    -5408    -6916    -8208 
   -8052    -6480    -3838       60     4326     6620     6741     6507 
    5711     3738     1517     -892    -4314    -8577   -12271   -14230 
  -15206   -16652   -18500   -19704   -19911   -19904   -20598   -21497 
  -21504   -20893   -20652   -20902   -20765   -19986   -20024   -21011 
  -21257   -21124   -21246   -20548   -19469   -19080   -18341   -15799 
  -11890    -7812    -3530      449     2690     3932     5628     6427 
    4765     2058      -35    -1564    -2447    -2509    -2130    -1868 
   -2751    -5296    -8270    -9761    -9258    -7614    -5328    -2895 
   -1350     -811     -712    -1062    -1960    -3179    -4517    -5664 
   -6169    -6363    -7125    -8281    -8962    -9267   -10670   -13959 
  -17362   -19561   -21651   -23735   -24603   -24726   -25346   -25893 
  -25182   -23672   -22202   -20045   -16705   -13849   -12417   -11225 
  -10386   -10860   -11711   -12091   -12366   -11982   -10238    -8278 
   -7396    -7663    -8761    -9729    -9532    -8125    -5479    -1837 
    1520     3623     4510     4600     3924     1838    -1856    -5961 
   -8927   -10586   -11739   -12429   -12218   -11389   -11125   -12490 
  -14823   -16932   -18257   -17351   -14179   -11811   -11500   -11180 
   -9552    -6975    -3738     -616      614     -621    -3126    -5911 
   -8733   -11533   -13815   -14780   -14424   -13413   -12519   -12260 
  -11928   -10849   -10397   -11718   -13786   -15946   -18238   -19498 
  -19317   -18769   -18171   -17581   -16808   -14293    -9562    -4318 
     217     3719     5732     6177     5020     1956    -2128    -5212 
   -6305    -6500    -7068    -7496    -7080    -6292    -5350    -4143 
   -3330    -3800    -5427    -7377    -9177   -11164   -14062   -17116 
  -18153   -16857   -15499   -15241   -14638   -13205   -12221   -11778 
  -11808   -12938   -14045   -13834   -13721   -15082   -16822   -17631 
  -17242   -15692   -13486   -11416    -9621    -7614    -5343    -3175 
   -1313        4      689      372    -1705    -5093    -8625   -12039 
  -15156   -17161   -18013   -18881   -20200   -20856   -20044   -18239 
  -16086   -13763   -11175    -8278    -5235    -2390     -338      218 
    -808    -2303    -3083    -3234    -3146    -2728    -2295    -2423 
   -2951    -3963    -5834    -7053    -6115    -4347    -3306    -2959 
   -3649    -5670    -7573    -8669   -10157   -11980   -13266   -14277 
  -14689   -13500   -11500   -10535   -10592   -10735   -11468   -12911 
  -13767   -13761   -13247   -11718    -9865    -9391    -9771    -9281 
   -7844    -6120    -4176    -2218    -1210    -2057    -4192    -6450 
   -8727   -10835   -11898   -11765   -10901    -9899    -9497   -10114 
  -11658   -13768   -16033   -17718   -18268   -18198   -17848   -16661 
  -14723   -12985   -11769   -10905   -10500   -10174    -9852   -10362 
  -11292   -11479   -10875    -9726    -8148    -6411    -5175    -4911 
   -4612    -3730    -3697    -5136    -6404    -6134    -5474    -5505 
   -4938    -3612    -3180    -3788    -4765    -5589    -5575    -5031 
   -4540    -4131    -4395    -5915    -8172    -9899    -9913    -8487 
   -7507    -8082    -9131    -9693   -10616   -12835   -15990   -18863 
  -20768   -22181   -23444   -24167   -24063   -23588   -23604   -24059 
  -24089   -23288   -21384   -18108   -14246   -10731    -7315    -3947 
   -1359      498     1973     3034     4299     5825     6453     5931 
    5277     5401     6057     6601     7429     8586     9409    10299 
   11362    11342     9844     7630     4834     1379    -1838    -3932 
   -5202    -6367    -8087   -11244   -15650   -19818   -23163   -26009 
  -28282   -30144   -31790   -32564   -31947   -30250   -27888   -25220 
  -22411   -19456   -17078   -16113   -15773   -14624   -12748   -10983 
   -9530    -8385    -7622    -7364    -7452    -7227    -6759    -6624 
   -6781    -7323    -8476    -9877   -10814   -10696    -9950    -9425 
   -8908    -8007    -6860    -5540    -3982    -2338    -1306    -1354 
   -1875    -2465    -3514    -4685    -5066    -4519    -3520    -2925 
   -3565    -4812    -5235    -4722    -3994    -3157    -2128    -1417 
   -1568    -2155    -2601    -2970    -3353    -4094    -5185    -5940 
   -6656    -7801    -9124   -10905   -13306   -16112   -19597   -23492 
  -26615   -27946   -27410   -26207   -25294   -24217   -22816   -21497 
  -19666   -17041   -14796   -13304   -11704   -10076    -9324    -9590 
  -10343   -11279   -12395   -13528   -14017   -13281   -12046   -11731 
  -12653   -13591   -13238   -12127   -11662   -12017   -12712   -13513 
  -14044   -13959   -13545   -12873   -11211    -8787    -6886    -5503 
   -3331     -202     2413     4185     5802     6594     6356     5899 
    5109     4079     3194     2258     1582     1556     1982     2926 
    4279     5167     5024     3778     1345    -1549    -3928    -5746 
   -6883    -7538    -8753   -10324   -11300   -11749   -11946   -12025 
  -12067   -12140   -12540   -12993   -13165   -13344   -13251   -12640 
  -12248   -12186   -12106   -12640   -14243   -16615   -19438   -22262 
  -24787   -27006   -28582   -28977   -27893   -25593   -23124   -21398 
  -20004   -17990   -15705   -14079   -12834   -11303    -9596    -8561 
   -8822    -9729   -10791   -12058   -12560   -11699   -10268    -9020 
   -7931    -6701    -5668    -5016    -4293    -3685    -3447    -3559 
   -4531    -6592    -9413   -12750   -16098   -18397   -18941   -18625 
  -18769   -18752   -17575   -16328   -15817   -15025   -13778   -12478 
  -10416    -7717    -5371    -3369    -1614     -234     1000     2546 
    4756     6628     6876     6358     5805     4074      823    -2936 
   -6567    -9791   -12405   -14719   -17096   -19225   -20672   -21543 
  -21891   -21479   -20521   -19504   -17960   -14910   -10881    -7156 
   -3696     -346     1844     2126      820    -1470    -4069    -5996 
   -6417    -5337    -3186     -535     1668     2898     3549     4303 
    5379     6285     6754     7011     6477     4029     -545    -6782 
  -13652   -19569   -24283   -28543   -31999   -34553   -36972   -38623 
  -38304   -36305   -32937   -27557   -20632   -14257    -9680    -6809 
   -6031    -7446   -10080   -13506   -17533   -21324   -24327   -26284 
  -27017   -26731   -25483   -23472   -21551   -20001   -18412   -16860 
  -15447   -13757   -11529    -9115    -6952    -4932    -2984    -1618 
    -793      330     1840     2980     3136     2123      746      106 
     244      816     1312      987      206     -606    -2079    -3925 
   -5355    -6509    -6853    -5653    -4071    -3815    -4852    -6164 
   -7838   -10525   -14331   -19168   -23885   -26921   -28564   -29247 
  -28161   -25585   -22640   -19183   -15101   -11450    -8235    -4261 
     217     4043     7155     9944    12231    13910    15325    16283 
   16303    15560    13992    11295     7378     2207    -3029    -6655 
   -8482    -8706    -7396    -5622    -4973    -6345    -9555   -14465 
  -21620   -30322   -38246   -43629   -45800   -44773   -40775   -33893 
  -25492   -18334   -13576   -10085    -7360    -6203    -6494    -7230 
   -7892    -7871    -6687    -4730    -2053     1587     5782     9965 
   13387    15680    17356    18104    17104    14806    11605     6768 
     118    -7399   -14813   -21257   -26474   -31060   -34462   -35086 
  -33099   -30068   -25952   -19545   -11632    -4587      139     2354 
    2389      627    -1966    -3682    -3651    -2317      -91     2704 
    5128     6718     8158     9327     9049     7053     3361    -2533 
  -10131   -17988   -24925   -29910   -32366   -32618   -30970   -27338 
  -22338   -17560   -13948   -10702    -6640    -1729     3704     9911 
   16579    22823    28227    32624    36124    38630    39143    37116 
   33043    27154    19643    11439     3364    -4415   -11901   -19174 
  -26585   -34376   -42623   -51422   -60446   -68727   -74812   -77643 
  -77249   -74542   -70480   -64989   -57861   -50187   -43583   -38522 
  -33628   -27352   -20106   -12850    -5042     3476    11335    17961 
   23762    28761    33060    36784    39333    39457    36111    29112 
   18343     4190   -10733   -23674   -34290   -43033   -49464   -52841 
  -53443   -52542   -50545   -47011   -42051   -35627   -27521   -18453 
   -8919     1270    11765    21775    29835    34614    37332    39812 
   41746    42650    42966    42612    41069    37801    32321    24802 
   16157     6940    -3142   -13842   -24377   -34815   -45161   -54349 
  -61449   -66146   -68187   -68160   -67096   -64629   -60335   -55668 
  -52612   -51208   -49523   -46558   -41935   -33565   -20876    -6771 
    5671    15674    24067    29960    30766    26176    18022     7518 
   -4629   -16969   -27826   -36941   -45339   -53014   -58990   -62941 
  -64484   -62887   -57834   -49231   -37762   -25135   -12622     -728 
    9734    17814    23525    27518    30478    33177    36027    39326 
   43278    47449    51453    55325    58935    61600    62741    62201 
   59447    54095    46641    38230    29502    19643     7820    -5950 
  -20815   -34658   -45048   -51336   -54603   -54745   -50657   -42457 
  -31117   -18472    -7033     3473    15573    28807    41311    52387 
   60912    66995    71626    74638    75976    75659    73295    68242 
   59960    49680    39957    31357    21787     9678    -4661   -20255 
  -36008   -50849   -63807   -74108   -81608   -86418   -89178   -91674 
  -94193   -95781   -97151   -98131   -97991   -97842   -97243   -94961 
  -91447   -86116   -77797   -67238   -57015   -49036   -42530   -36213 
  -29578   -21752   -12332    -2508     6465    14258    20592    25658 
   29995    33471    35170    33939    29594    24266    20218    15822 
    8187    -2403   -13861   -23889   -30572   -34069   -35228   -33696 
  -29990   -24804   -16814    -5493     7699    21250    33447    42668 
   48273    50093    48398    43784    36721    27908    17996     7217 
   -3458   -12360   -18470   -20988   -19684   -15603   -10060    -4810 
    -980     2030     4263     4401     1560    -3186    -8569   -15060 
  -22445   -29705   -37193   -45260   -53372   -60913   -66895   -70395 
  -72107   -73526   -74892   -75537   -74644   -71065   -64210   -55436 
  -47707   -42715   -39426   -36648   -34484   -32571   -30157   -27279 
  -23248   -16972    -9196    -1489     4895     8449     8058     3350 
   -5773   -18077   -30828   -41122   -47227   -50147   -51748   -52348 
  -52917   -54778   -56739   -57384   -56585   -52759   -44423   -32691 
  -19222    -6297     3414     9794    14150    17621    21458    25890 
   30088    33228    34994    35395    34754    34106    34352    35874 
   39280    45091    52864    61539    70174    77765    83523    87234 
   88697    87957    86328    85324    85194    85820    86938    88021 
   88377    86184    79839    68334    50548    29505    12110      697 
   -7713   -14499   -19338   -23272   -27029   -30181   -32123   -32228 
  -31819   -34666   -42086   -51518   -62009   -74186   -86903   -99790 
 -112810  -124488  -134484  -142603  -147777  -149960  -149598  -146812 
 -142064  -135940  -128424  -119354  -108091   -93847   -77761   -61722 
  -46992   -34122   -22285   -11395    -2712     3073     4994     2064 
   -4766   -12685   -18242   -20143   -19890   -17911   -13159    -6574 
    -298     5373    10536    15041    19743    24636    30022    36929 
   44605    52158    59077    64134    66467    65673    60770    51495 
   39225    25234    10939    -2215   -13437   -22167   -28738   -32886 
  -33232   -29084   -19990    -6535     8436    21948    33426    43294 
   50751    55599    58303    57970    54562    49327    41967    32394 
   22072    12465     5186      513    -2866    -5329    -6527    -5908 
   -3033     1243     5795    10254    14007    16806    19341    21458 
   22597    22743    21169    17031    10662     2636    -6762   -16758 
  -26335   -34982   -42863   -50321   -57237   -63648   -69423   -74387 
  -79196   -83189   -85159   -85752   -85263   -83408   -80153   -74325 
  -64760   -50984   -32711   -12353     5433    18833    29147    36606 
   39884    37897    30276    18585     7122     -105    -2543    -1833 
     606     4380     9301    14590    19483    23422    26423    28678 
   29604    28745    26647    24111    21174    18246    15102    10494 
    4666    -2488   -11173   -20116   -28204   -34364   -37515   -36999 
  -32741   -24436   -11994     1660    11888    17447    21149    24366 
   26284    26724    25126    21203    15493     8390     -417   -10484 
  -19739   -28630   -37353   -43699   -47930   -50323   -50633   -49503 
  -46661   -42672   -39187   -36880   -35329   -34321   -33875   -34122 
  -34931   -35054   -33696   -30356   -24036   -14222    -1225    12772 
   24493    31961    35484    37754    40059    39873    36128    29695 
   20649    11391     3489    -4706   -12291   -17817   -21762   -23953 
  -24516   -23377   -20638   -18328   -17894   -19305   -21933   -24829 
  -27843   -31325   -35392   -39870   -43522   -44896   -43677   -39677 
  -33630   -27691   -23037   -19955   -18137   -17609   -19593   -23711 
  -28690   -33813   -37987   -41208   -44423   -47891   -51216   -53518 
  -54440   -54399   -52902   -49508   -44672   -37868   -29416   -21352 
  -14742    -9043    -3395     1840     6881    12529    17725    22326 
   27131    30971    33669    36558    38857    40517    43000    45511 
   47101    47865    47444    45748    43056    39333    34811    30161 
   25777    21789    17311    11661     5630     -319    -5362    -9342 
  -13697   -17953   -21257   -24248   -26867   -29116   -31062   -32367 
  -33739   -35236   -36094   -36139   -34642   -32124   -30302   -28823 
  -27522   -27326   -27858   -28628   -29115   -28572   -27472   -26185 
  -24640   -23500   -23418   -24592   -26755   -29327   -32470   -36346 
  -40506   -44821   -48716   -51567   -53781   -55129   -55189   -54959 
  -55262   -55611   -55189   -54207   -53565   -52791   -50495   -45470 
  -36867   -25841   -15310    -6880     -120     5711    10763    14623 
   17428    20151    22962    25828    29408    33354    36296    37546 
   38005    39108    41115    43792    46456    48108    48856    48762 
   47888    47175    46773    46095    44913    43000    40293    36990 
   32886    27886    22399    16822    12108     8907     6544     4660 
    3364     2560     2046     1067    -1175    -4747    -9071   -13620 
  -17712   -20721   -23117   -25456   -28016   -31432   -35802   -40392 
  -44513   -47544   -48659   -47709   -45427   -42741   -40694   -39959 
  -39949   -39937   -40296   -40813   -40644   -40219   -40027   -39775 
  -39733   -40306   -40936   -41202   -41242   -40775   -39731   -38043 
  -35438   -32526   -29554   -26199   -23214   -21361   -20441   -20403 
  -20763   -20432   -19180   -17031   -14284   -11778    -9818    -8284 
   -6667    -4575    -1996     1227     4830     8098    10785    13247 
   15747    18164    20110    21118    21095    20227    18489    15893 
   13262    11400     9922     8517     7557     6836     6134     5472 
    4356     2855     1213     -741    -2690    -4691    -6984    -9197 
  -11132   -12698   -13857   -15005   -16534   -18416   -20029   -21011 
  -21950   -23184   -24509   -25672   -26635   -27737   -28895   -30213 
  -32081   -34002   -35831   -37729   -39650   -41746   -43062   -43393 
  -44028   -44512   -44180   -43410   -42237   -41087   -39744   -37598 
  -35313   -33066   -30385   -27608   -25397   -24241   -24190   -24354 
  -23749   -22234   -19618   -15631   -10651    -5313     -581     2922 
    5904     8834    11049    12883    15433    18411    21613    25249 
   28374    30385    31518    32047    32161    31293    29783    28857 
   27986    26716    25292    22632    18473    14226    10666     7977 
    6409     5705     5169     4236     2978     1601     -230    -2651 
   -5448    -7855    -9305   -10307   -10646   -10747   -12363   -14917 
  -16938   -19071   -21726   -24463   -27838   -31841   -35100   -37004 
  -37843   -38248   -38894   -39336   -38740   -36918   -33547   -29220 
  -25801   -23639   -22029   -21189   -21041   -20814   -19948   -18360 
  -15959   -12367    -8302    -5248    -2810      508     4349     7573 
   10137    12010    13240    14361    15500    16731    18022    18966 
   19515    19479    18384    16370    14254    12927    12125    11273 
   11165    12147    13198    13884    14466    15057    15147    13608 
   10797     8224     5706     2632     -603    -3574    -5917    -7848 
   -9840   -11394   -12241   -13092   -13973   -14126   -13571   -12924 
  -12424   -12043   -11780   -12029   -13344   -15469   -17618   -19464 
  -21466   -23834   -26021   -27997   -29856   -31438   -32895   -33829 
  -33715   -32983   -31808   -29216   -25072   -20663   -16456   -12785 
  -10393    -8860    -7484    -5738    -3206     -708     1092     2629 
