Origin Time       2016/04/16 01:25:00
Lat.              32.753
Long.             130.762
Depth. (km)       12
Mag.              7.3
Station Code      OIT003
Station Lat.      33.5575
Station Long.     131.4461
Station Height(m) 9
Record Time       2016/04/16 01:25:26
Sampling Freq(Hz) 100Hz
Duration Time(s)  192
Dir.              E-W
Scale Factor      7845(gal)/8223790
Max. Acc. (gal)   105.064
Last Correction   2016/04/16 01:25:26
Memo.             
[...]
    7506    11001    12699     9973     3732     -915     -336     2979 
    5252     7256     9779    10075     7650     5697     4962     3049 
     -91    -1147     1648     6219     9582    10226     7902     3888 
    1252     1992     4168     4915     4554     4947     6654     8708 
    9109     6597     2743     1237     3987     8193     9927     9013 
    7377     5875     4720     4735     6363     7858     6902     3685 
     683      827     5502    12330    15816    12344     4646     -731 
    -560     2702     5740     8019     9366     9076     8001     6893 
    4915     2100      464     2273     7456    12744    14569    12382 
    8190     4171     2012     2293     3487     4107     4783     6755 
    9208     8542     3388    -1220     -225     4152     6243     4649 
    2623     2967     5107     6516     5390     2272       35      837 
    3754     6810     9137    11437    15031    19018    19913    15843 
    9868     6905     7797     9705    11214    13215    15348    15267 
   12609    10119     8789     6727     4129     3213     3352     2569 
    2353     5125     9136    10597     8789     5842     3507     2485 
    2799     3407     2905      683    -2461    -4233    -2727     1190 
    4502     4891     2875     1248     1872     3669     4769     5166 
    6203     8509    10449     9151     4841     1779     2118     2934 
    1887      445     -199     -544      410     4280     9709    13332 
   13497    10675     5813      537    -3403    -5344    -4322       23 
    5063     7979     8918     9744    11430    13340    14473    13242 
    8494     2809      599     3154     7641    10368    10839    10833 
   10230     7261     2502       98     3090     8548    11541    12438 
   14227    15955    15103    12587    10972    10054     7148     2064 
   -1305      197     4997     8691     9462     9666    10606    10341 
    8770     8005     7188     4603     2228     1799     1675     1165 
    2224     5402     8025     8349     8606    11095    14716    16872 
   15936    12614     9258     6793     4446     2455     2143     3705 
    5714     6579     5852     4603     4310     5281     7119     9201 
   10443    10624    10222     9022     7354     6832     7789     7978 
    6460     5923     7555     8302     6168     3275     2454     4237 
    7125     9070     9339     8895     8215     6871     5756     6224 
    7765     9355    10694    11443    11921    12960    13392    10766 
    5702     1927     1005      616     -924    -2326    -2253     -291 
    4021     9416    12592    12201    10797    11124    12934    14469 
   14494    13144    11500    10516    11230    13707    16033    16637 
   14783     9776     3522      577     2860     7836    12731    16437 
   18300    18694    18752    18708    17544    13648     7958     4864 
    6010     8102     8814     9020     9586     9693     8446     6474 
    4322     1414    -1641    -2829     -938     3487     7425     7106 
    2832    -1067    -1692      245     3186     6465     9202    10994 
   13041    14916    13656     9084     5611     6561     9996    12046 
   12181    12480    13806    16299    19997    22958    23263    21575 
   19103    16128    12881    10324     9051     7859     6212     5960 
    7627     9126     9880    11496    13440    13115    10358     7333 
    5093     2677    -1092    -4575    -3974     1594     8275    11441 
   10848    10407    11659    11639     8372     3653      163    -1328 
    -892     2218     6789     9032     7950     6843     8340    10783 
   11125     9790     9578    11202    12796    12860    11419     9086 
    6774     5503     5699     6980     8700    10658    12723    14262 
   14397    12803    10081     6751     2952      -95     -540     1387 
    3284     4289     6211     9207    10984    11214    10667     8456 
    5158     2909     1567      271     -128      693     1371     1518 
    2498     4289     5219     5066     5031     5571     5572     3511 
    -110    -3024    -4059    -3707    -2365       18     2772     4737 
    5940     7277     8598     8594     6073     1258    -3577    -6000 
   -6340    -6818    -7585    -6301    -2011     4148    11206    17756 
   21415    21060    17833    13302     7950     2490    -1192    -1726 
     679     3974     4365      -82    -5524    -5775      194     6959 
    8421     3986    -1088    -2323    -1375    -2704    -6870   -10010 
   -9165    -5787    -3280    -2640    -2257    -1111      217     1237 
    2121     3373     5877     9504    12048    11430     8051     4827 
    5571    10771    15210    13639     6980      463    -2226    -1780 
     360     6153    16351    26069    29685    25389    15606     6058 
    1237      954     2623     4144     4120     2922     3369     6068 
    7534     6980     7580     9036     7256     1869    -2062     -518 
    5344    12580    19109    21406    16470     7804     2559     2266 
    1560    -3240    -7831    -5983      843     5945     8172    14095 
   26393    36637    36148    27079    16708     7958      544    -4652 
   -7263    -9013   -10458    -8874    -2428     4083     4564     2478 
    5123    11024    14045    12934    10444     9265    10497    13005 
   14477    13279     9343     5354     5219     7670     6076     -568 
   -4764    -2700     1464     4467     6392     5355     -207    -4525 
     -79    11034    20696    25474    24985    15885    -1300   -16460 
  -21123   -16163    -4946     9360    19604    19731    13821     9899 
    6643    -3519   -17793   -21685    -8360    13327    30615    36431 
   31793    22821    13703     5694     -615    -6592   -14968   -25999 
  -35021   -36277   -30225   -21708   -11939     1636    19784    37224 
   45410    42010    31283    17895     7032     1780    -1677    -8615 
  -16376   -17680   -12891    -8532    -6130    -1244    10887    29277 
   44750    47648    36787    18234    -1422   -16875   -22636   -18237 
  -10944    -5914    -2184      900     3002     4911     7770    11608 
   13886    11923     7333     4646     3959      562    -5105    -5852 
    1852    13185    21460    24648    24400    21744    15830     7288 
     306    -1740     -548      886     3983    11276    20467    26784 
   27846    24128    18125    13657    11817     7894    -1252   -10108 
  -12112    -7565       29     7754    12636    12120     5584    -5151 
  -15159   -17242    -9942    -2139     -939    -1431     4649    16132 
   23548    22878    21614    25629    28537    22343    11506     7541 
   11632    12195     2862    -8687   -13396   -10503    -4120     1794 
    5343     6301     5356     2891    -1467    -5684    -6571    -5514 
   -4806    -1418     7036    15265    16923    13983    12834    14666 
   15302    11630     4341    -3451    -7871    -7514    -5452    -4776 
   -6186   -10029   -14793   -17463   -16590   -13238   -11369   -13252 
  -15044   -12908    -8205    -3256      433      225    -4644   -10909 
  -15583   -19645   -25236   -29751   -26831   -16316    -6619    -2301 
     715     4388     6247     7246     9540    10948     9166     5040 
     757      282     6458    15574    22141    26366    30497    33183 
   32111    28351    25776    26629    28970    30549    32306    35499 
   39432    42668    43999    43151    40936    39410    41582    47860 
   54085    55841    52552    46616    41292    38934    38885    37655 
   32827    26349    22076    20440    17932    13224    11029    15325 
   22376    25898    23984    17987    10161     3439     -206    -1472 
   -1698     -629     1501     2512     1201     -490      156     3349 
    7982    13224    16190    13266     6141     1158      310     -977 
   -4068    -3977     1483     8125    11777    13697    17583    21706 
   20493    13852     6351     -513    -8758   -18384   -25034   -25777 
  -23630   -21543   -17899   -11907    -7006    -6871   -11322   -16116 
  -16575   -11460    -2893     5800    12451    16695    18369    17225 
   13011     5679    -2508    -8155   -10909   -12399   -11180    -3634 
    9969    24871    35980    40198    37968    32053    23730    13564 
    4302    -1088    -3827    -7091    -9799    -9275    -5603     1060 
    9868    17339    20756    20331    17806    13405     5674    -4035 
  -11236   -13429   -11766    -7682     -224    11350    23512    30443 
   28848    19449     6592    -4200   -10770   -14654   -16320   -13980 
   -7634      207     7589    13934    19218    23113    25261    25690 
   23710    20256    18702    18721    16474    11975    10158    14400 
   20773    21762    14932     5235      288     2151     4395     1098 
   -4479    -4122     4750    16086    22145    19931    11605     1786 
   -4648    -3495     4215    10269     8989     4274     2899     5634 
    8098     7488     4172      754      395      557    -5579   -17545 
  -27063   -30350   -29620   -24115   -13501    -5491    -5067    -4315 
    1919     4704    -2170   -12434   -17852   -15709    -9813    -5787 
   -4114    -2967    -3636    -7657   -13019   -16912   -19588   -21694 
  -20561   -13791    -3576     6041    13185    19195    26322    32421 
   32729    26902    19990    18658    24841    33781    39764    41173 
   41559    44311    46062    40649    27989    15579    11722    17537 
   25942    29799    29187    28270    28853    30010    29770    26133 
   20609    17154    15611    12532     6770     1973     3661    11655 
   19666    22168    20443    21932    28082    31684    28960    20711 
    9261       14    -4831   -10106   -18455   -23826   -19214    -6297 
    7163    15404    16298     9208    -1260    -5155    -1351      434 
   -3685   -10454   -17012   -19426   -17517   -16668   -16931   -13281 
   -5158     2401     3423    -1321    -3429      997     5663     7060 
   12568    22658    25482    21358    21178    24757    27874    31456 
   35046    39033    46789    55178    53041    38292    26535    27569 
   30663    27522    22054    16573    12295    12112    15959    21052 
   21880    12009    -3663    -7522     5238    18162    18484     9322 
    3693    10547    21643    27103    27346    18149     -803   -10164 
    3068    22852    26314    12943    -1798    -9804    -9911    -2546 
    3962      457   -11155   -18472   -11188     4236    13059    10519 
     712   -10416   -18191   -20898   -17905   -13397   -15053   -21304 
  -25058   -23626   -17058    -9709    -4793    -1255    -4723   -16357 
  -23184   -19731    -9926     4704    15917    14848     9989    13184 
   18987    16237     8536     7196     9035     5787     6092    15495 
   20892    14941     5641     4090    12086    18620    16393    10714 
   10185    17429    25227    28366    31121    33836    34426    34809 
   31255    22168    15998    17525    23329    27692    28490    28240 
   27781    25639    22777    22473    23684    20653    13837    11036 
   15569    20858    19705    14663    10193     5753     2328    -1547 
  -10870   -20299   -19695   -13724   -11904    -7539     5914    15291 
   10361     1594     -820    -2944    -9265   -10153    -4851    -7614 
  -18261   -22635   -18361   -12638    -8760    -7500   -10534   -16198 
  -18436   -17404   -20223   -26283   -29994   -31612   -30159   -22856 
  -11969     -874     6775     9003     6241    -3528   -14315   -11075 
    6070    17556    13477     7723     9256     7905     1934     1645 
    5599     5283     3213     7279    16279    21095    17922    12066 
    7356     4288     4500     7618    11005     9960     2498    -1790 
    5098    14374    15698    14315    17653    19148    13007     7257 
    8007    10891    13131    18120    25582    28903    26746    22438 
   16641    14443    18771    21347    17963    15263    20960    30859 
   30852    21371    15974    16497    16213    15348    18458    22640 
   18993     9556     6431    11354    14808    11242     4182      515 
    1062      849     -473      -64      330    -3580   -11994   -18025 
  -18318   -17834   -16098    -8225     3173     9177     5524     1173 
    4456     9189     8177     2370    -4477    -9096   -11693   -12789 
  -10154    -5868    -4230    -2097     3242     5510     5007    10678 
   15236     7538       39     2513     3503    -3686   -10112    -5532 
    9242    22391    23267    15533     8212      767    -5628    -6407 
   -5007    -5256    -7257    -6820     -148     4922     3993     3474 
    4533     5805     8545    11955    13748    10660     4739     7944 
   22788    30400    20822    10516    10635    12231     9670     6919 
    5894     8093    13351    14484    11745    15475    24077    23421 
    9363    -2062     2284    11053    13582    14432    11881     6332 
    8356    13960    13867    10902     3092    -7611    -7202     5049 
   19184    27530    26695    23695    22441    19438    16131    14273 
   13718    13138    10666     8847    10085    15427    24066    28256 
   22939    12865     4718     4772    11368     9551    -1649    -4437 
    1539     3694       49    -9641   -21801   -24058   -12421     5954 
   21941    26312    16518     -680   -16737   -24984   -23697   -15380 
   -3969     2023    -1553    -5336     2139    21859    39810    38456 
   22079    14047    20887    22607     8459    -7969   -15714   -17450 
  -16013   -10947    -8330   -14602   -19631   -12209     6454    35808 
   68773    86996    80160    55657    31552    14837    -4413   -26715 
  -38514   -37205   -36524   -42307   -35217     4611    64139   108668 
  116667    95837    66177    33561    -2517   -32004   -46751   -55443 
  -68715   -76817   -66291   -39600    -4554    26449    42874    53239 
   67751    71585    47906    14283    -7096   -21825   -30176   -18751 
    2416     3487   -19180   -29749    -4320    29984    35236    12669 
   -8067   -10263    -9717   -22036   -22777    15568    63213    64663 
   20626    -9775     6751    36366    32842    -2496   -29428   -25840 
  -12781   -15620   -28019   -25654     3565    45832    61587    28367 
   -7892     1899    27441    22036    -7993   -28017   -18030     3013 
    5960    -9995   -30168   -36761   -15128    28094    67841    78970 
   56932    28964    21197    22507     3730   -42012   -84221   -88002 
  -58519   -22516     8280    29108    39213    49983    59699    46448 
   11759   -13572   -13998    -2501      -55   -11597   -22015   -24884 
  -27733   -25899   -12294     3048    10594    13636    18769    25605 
   28826    31855    36189    29077    11592     3483     4135    -6975 
  -26465   -28786   -11646     5675    12745     4714   -10839    -4036 
   29906    51399    43887    32073    26535    22661    22509    21305 
   12660     -594   -13773   -17531    -3970    17049    27695    22075 
   12883    14967    19120    10562     -715    -2007      746      711 
    4585    18230    29736    24979     6304   -15302   -30204   -38407 
  -49486   -61835   -59849   -41484   -26068   -25327   -21124     6469 
   38056    45117    38823    37458    31715    13640    -8430   -27623 
  -40797   -39267   -22404    -7805      252    17464    38118    36711 
   10195   -20441   -41598   -52471   -48965   -27475     -413    11668 
    9879    15527    29581    34900    24706    -4880   -40932   -48847 
  -27275    -4324    15951    40146    64023    84424    93324    79624 
   42337    -7673   -42055   -40842   -22142    -4003    20642    48325 
   62910    65641    62738    50367    31430     9776   -14199   -24575 
  -10102    18902    48293    63027    61142    53335    32876    -5169 
  -40855   -56563   -52640   -37817   -18235     4207    20629    24476 
   29980    47614    57828    42924    19974     9188     1541   -14608 
  -29547   -29033   -17228   -12101   -17292   -20807   -16305    -5998 
    2835     3461    -5803   -23642   -37110   -26709      889    13528 
     572   -17614   -30090   -42508   -52267   -54179   -54194   -51622 
  -31753    10449    55755    75235    60858    29983     2664    -8769 
   -9771   -19525   -37667   -45084   -31874    -1090    30724    44856 
   46018    46074    38257    18959      621   -10072   -14062   -13058 
  -11523    -4572     9441    10237    -5840   -13878    -4183    14280 
   30424    33276    27130    22851    14264    -4248   -20456   -22545 
  -12233     2735    13383    12403     7130    14554    33193    43753 
   38445    26541    17747    12779     6957     3812    10806    20231 
   24092    29472    34981    28507    11364    -5100   -13905   -16431 
  -20213   -24692   -20314    -7756     4638    18000    36213    50029 
   47077    31889    17386     7215     -440    -5884    -8085    -5798 
   -1372      770     3083    11067    19307    21563    23148    21722 
    8195    -8073   -11533    -5541    -2918    -3507     1258     6647 
    4873     3442     5977     7130    10281    15214    14376    12225 
   14253    12738     3254    -5247    -6160    -5732    -6831    -3149 
    3899     7246     7091    10372    18508    18434     4845    -6847 
   -9111    -9445    -9136    -1405    14106    26666    27814    22296 
   21766    28065    29296    22331    18580    19743    18449    18126 
   23917    26491    16698     2899    -2091     2450    10010    15500 
   18711    21009    18295     8710     1405     5737    15469    13757 
    1425    -4669    -4433    -6754    -9431    -8592    -2120     6733 
    8194     2241    -2150    -1574      197      548     3754    11646 
   18355    21743    22698    18615    12004     8559     5448    -1968 
  -10525   -13448    -8344      681     8220    11051     9035     7684 
   12071    15546    10129     3317     1779    -1524    -6948    -6934 
   -3893    -2010     3970    15658    21682    14235     3105      106 
    3249     6126     8087    10489    12144    10719     7269     6604 
   10218    12499    10362     9667    12644    12730     7473     2570 
    3572     7909     7555      811    -5834    -4777     4985    15245 
   19622    19549    16946    11145     4094      982    -1281    -9872 
  -19272   -20830   -13879     -398    15614    29292    35418    31166 
   23010    17552    12283     4966      679     2614     4371     2126 
    1209     3958     7794    10311    10717    14346    25446    34585 
   32320    25976    23425    20664    15708    11614     7292     -850 
   -8883    -6939     2204     6361     6157     8687    11612     9497 
    5255     4980     6486     5960     4496     2540     1637     2170 
      54    -3908    -5031    -3786    -1815     2786     9283    12897 
   14067    16417    16721    11869     6814     4657     3109     3819 
    9423    14477    11888     4284     1669     6723    10239     8194 
    9173    16503    20375    14038     3581    -3099    -5535    -4737 
   -1518      278     1512     6731    12677    14413    14574    17044 
   20579    19962    12634     4892     4228     7098     5663     2074 
    2731     4079      869      206     6350     8822     3218     -913 
    1466     3987      618    -3831    -1530     4357     4907      791 
     837     3906      187    -6673    -4872     2330     2841    -2357 
   -1692     4926     6460     2577     1340     2896     3932     5341 
    8037    11315    14308    13054     5998     2890     8629    11759 
    7466     4482     5671     7429     7803     6052     4047     4162 
    6678    11762    17109    18841    16488    11410     5910     2570 
