Origin Time       2016/04/16 01:25:00
Lat.              32.753
Long.             130.762
Depth. (km)       12
Mag.              7.3
Station Code      OIT002
Station Lat.      33.5685
Station Long.     131.2678
Station Height(m) 9
Record Time       2016/04/16 01:25:23
Sampling Freq(Hz) 100Hz
Duration Time(s)  186
Dir.              E-W
Scale Factor      7845(gal)/8223790
Max. Acc. (gal)   68.922
Last Correction   2016/04/16 01:25:23
Memo.             
[...]
    9383     9386     9383     9377     9375     9374     9373     9390 
    9416     9410     9381     9354     9342     9360     9402     9441 
    9468     9474     9448     9412     9393     9413     9463     9499 
    9499     9475     9450     9441     9454     9472     9491     9520 
    9560     9580     9563     9536     9522     9510     9512     9533 
    9535     9509     9478     9441     9443     9516     9606     9680 
    9732     9705     9606     9524     9456     9371     9344     9424 
    9553     9643     9647     9575     9483     9421     9398     9408 
    9439     9408     9244     9092     9175     9402     9526     9589 
    9616     9390     9013     8865     8947     9077     9252     9416 
    9418     9282     9151     9173     9398     9603     9532     9256 
    8949     8700     8741     9126     9462     9543     9585     9691 
    9749     9752     9778     9688     9348     9043     8992     9053 
    9207     9435     9570     9622     9674     9730     9795     9768 
    9587     9423     9378     9404     9504     9606     9562     9429 
    9393     9529     9686     9680     9620     9558     9322     8993 
    8876     9050     9300     9459     9594     9699     9618     9394 
    9244     9224     9246     9293     9381     9416     9269     8996 
    8819     8965     9413     9782     9876     9960    10192    10436 
   10575    10447     9972     9504     9439     9695     9992    10035 
    9659     9250     9232     9375     9491     9637     9545     9292 
    9574    10245    10416    10026     9406     8581     8044     8210 
    8444     8411     8676     9139     9170     9086     9317     9483 
    9456     9371     9080     8746     8640     8665     8822     9049 
    9084     9140     9466     9580     9321     9301     9616     9892 
   10069     9963     9594     9610     9828     9418     8816     8662 
    8503     8505     9439    10575    10704    10280    10268    10687 
   11074    10839     9806     8715     8225     8248     8411     8404 
    8364     8576     8860     9189     9942    10820    11047    10692 
   10185     9409     8668     8692     9123     9189     9173     9666 
   10519    11237    11479    11038    10119     9136     8483     8523 
    8775     8467     8120     8451     9217    10180    11226    11701 
   11190    10166     8856     7155     5744     5273     5748     6872 
    7564     7299     7411     8545     9586    10299    11232    11695 
   11317    11253    11858    11937    10783     9378     9104     9761 
   10285    10638    11276    11963    12163    11684    10797    10392 
   10839    11026    10372     9582     8968     8487     8117     7595 
    7114     7411     8527     9572    10177    10578    10246     8964 
    8081     8302     8408     7946     8144     9157     9814     9684 
    9120     9051    10176    11600    12505    12941    12306    10537 
    9019     8579     8939     9483     9942    10824    11982    12459 
   12842    13721    13598    12006    10200     8982     9159    10478 
   10994    10331     9933    10288    10447     9400     7936     7998 
    9238     9586     9286     9788     9759     7928     7211     9240 
   10689    10341    10530    11033    10833    11159    11738    11152 
   10172     9819     9972    10488    11113    11587    11469    10103 
    8154     7321     8348    10320    11767    11819    10192     8467 
    9201    11084    10903     9397     8687     8091     6095     3534 
    3232     5971     9219    11065    11464    10675     9976    10659 
   11738    11870    10791     8835     8125     9888    11939    13228 
   13682    11857     9869    10260     9761     7708     8214     9244 
    6178     3323     6178    10285    11130    12042    13868    13921 
   13332    12445     9763     6374     3267     1135     1244     2509 
    2403     1057     1159     3661     8428    14702    17810    16147 
   14698    14602    13540    13057    13242     9499     1854    -2209 
      60     2798     3904     7716    15485    22844    23920    19199 
   16639    17284    14261     8367     5059     2380    -3312    -7504 
   -4535     1942     6281     9235    12586    15537    16100    13558 
   10606     8418     5016     2033     2427     4431     6083     8144 
   12137    19446    25924    23653    14192     6777     3974     2496 
    3218     8135    13167    15403    17482    18562    15132     7858 
     319    -2034     2184     6721     9301    12328    13027    10154 
    7695     5285     2843     5709    12334    16729    20166    22805 
   19296     8891    -1729    -5961    -2394     7903    19504    23155 
   18324    11527     4550    -1818    -2860     4396    16050    25427 
   31957    35992    30754    16580     4560    -3499   -11145   -13651 
   -8932     -263    10656    18307    18798    18578    21537    22815 
   20209    15939    11543     8424     6737     5081     2868       71 
   -1661      -91     3595     8451    15603    22711    26222    25247 
   18744     7051    -5468   -13493   -13637    -5263     8615    21787 
   29575    31351    27785    20934    12209     1799    -4012      -31 
    8164    16047    22054    20841    13940     8889     6232     4603 
    4212     1729    -2322     -877     7018    13263    11944     7408 
    7038    10034    13571    18115    20883    20040    17027     9859 
    -684    -6097    -2782     2269     5244     8761    12105    15315 
   19701    20302    14354     6165    -1094    -5266    -3117     3763 
    9687    13824    17670    19013    18544    17219     9510    -3515 
  -11639   -10382    -1243    12177    22002    22974    19344    17293 
   16297    14316    13390    14258    14727    14347    13821    13740 
   14953    15031    10216     3392     -491    -2646    -4391    -2328 
    4661    11060    12208    10764    10238    10982    12661    11152 
    4248     -333     1242     2581     1698      486    -3703    -9736 
   -9252      -18    10287    17329    23769    29158    28896    21890 
   12901     6825     2918      333     3574    12409    17824    16708 
   14334    12916    13351    16518    19356    20727    22021    22485 
   20677    15718     9491     5709     4905     5101     5394     6799 
    9394    12275    15464    16675    15203    15698    17836    16938 
   13617    10077     7781     7578     5490     -828    -6436    -7152 
   -2234     8291    19597    23654    19951    14199     8459     4271 
    3366     1259    -3426    -4261      631     7792    15192    20702 
   21514    16960    10339     7650     9587    10216     9255    11884 
   17336    22393    26817    29602    29832    27679    22072    13740 
    6141      842    -2590    -4684    -5938    -6916    -7638    -5711 
      49     6181    10795    14370    14998    12240     8905     6720 
    6062     7726    11469    14216    14828    15670    14949    10543 
    6531     4282     1625      421     2505     6108     8919     8793 
    5793     4307     6434     7819     6328     5417     5505     4003 
    3192     5940     9506    12236    15550    17852    15975     9795 
    3422      881     -225    -2362     -263     8257    15102    16071 
   17761    23213    25890    22887    19757    19180    18098    15911 
   14130    11398     6804     1846    -2176    -2030     3230     6430 
    6635    10696    12505     5976     2290     5439     7281     9460 
   15840    19824    17814    16190    16445    12526     5232      711 
    1563     8040    15287    14831     7925     3497     2328     -627 
   -4710    -6579    -6269    -5590    -5626    -4831     -418     6162 
   10864    13147    13879    12796    10631     8454     7454     8619 
   10230    11888    16729    22482    22662    19184    18634    19970 
   18318    15099    14046    12152     6741     4112     7921    11750 
   12478    13562    14215    11907     8105     4449     1703     -263 
   -2959    -4368      156     8193    12787    13686    13127    10201 
    5551     -143    -6656    -9877    -6505      535     6351     9971 
   12992    14411    12294     9004     7530     6089     3767     3068 
    3358     3854     7225    12177    14617    15522    18287    21986 
   22365    18571    13836    11229    12480    16478    19143    18227 
   16895    18989    21817    20609    16317    12312    10492    12519 
   16908    18015    14031     8934     4440     -535    -5239    -8530 
   -9933    -9722    -8904    -6172    -1127     2457     2749     2030 
    3577     8078    11566    11777    10338     6397     -451    -5460 
   -4928     -976     2540     5115     8479    12503    15429    16303 
   15294    12820     8991     4419     1159      861     2362     3651 
    5208     8108    10970    12645    13690    12815     9466     7149 
    7198     7573     8583    10882    13089    14528    14416    12822 
   11846    11109     9163     6041     1429    -1979     -402     4896 
   11352    17967    22704    22894    18962    14968    12117     7877 
    2261    -2667    -4850    -2853     1503     5182     7203     8073 
    9470    12370    14445    12933     8742     4923     3065     3264 
    5656     9485    12808    14870    16042    15195    11337     6517 
    3179     2218     3519     5791     7964     9744    11141    10836 
    7755     6404     9530    12210    12031    11678    14455    20862 
   25343    24798    23224    22034    18831    15338    16212    18937 
   16704    12383    11504     9911     5698     3902     4213     4297 
    5193     4806     2747     2974     3163     -182    -3115    -3358 
   -2890    -1395      804     1310     1308     1402     -754    -1077 
    4386     9151     9015     8761    10875    12307    11934    11857 
   12345    12599    13478    15194    16120    14727    12436    12565 
   13994    13549    13773    16468    17204    14581    11157     6810 
    1856    -1603    -2878     -568     6733    15564    21166    24237 
   26468    25816    21976    17365    12916     8758     5250     2997 
    2137     1975     2542     3368     3190     2747     3510     4467 
    3798     2875     4139     5859     4799     2170     1483     2641 
    2697     1863     3781     8424    11950    13960    15033    12723 
    7992     5039     4584     5082     5186     4200     2878     2134 
    2961     5312     6678     6898     8756    12367    16171    18600 
   17043    12923    12004    14952    18003    20309    21330    20200 
   19421    20445    21266    21093    20403    18161    13872    10611 
   11213    13316    13498    11701    10000    11356    14539    13839 
    8857     3125    -2246    -4446    -1972     -283    -1790    -1447 
    1306     2546     4176     7083     5529      -85    -3096    -2532 
   -1150    -1084    -3105    -3434      949     6762    12066    19373 
   27446    31067    28696    23338    18377    14204     9018     3765 
     869      -55      529     3416     7510    10168    10625    11678 
   15047    17247    16744    16582    16517    15577    15840    16459 
   15606    14868    14369    12229    10592    12746    16058    17007 
   16987    17248    16825    15681    14004    11584     9621     8537 
    5906     1445    -1894    -3430    -4317    -4360    -2835      199 
    3817     7025     9219    10477    11097    10660    10029    10636 
   11356    11994    13608    14647    15529    18458    21066    21091 
   19931    17772    13528     9132     9337    13981    16553    15774 
   16241    17761    17286    15045    12418     9274     5649     3846 
    4965     6928     8326     8494     6998     6019     7808    10582 
   11578    10881     8719     5778     4780     5817     6956     8471 
    9996     9050     6319     5663     6988     8203    10397    13617 
   16382    18484    19006    17651    15431    12727    10967    11180 
   11511    11202    12839    17574    21845    22819    21855    18731 
   12267     6444     5589     8328    10651     9520     5242     1611 
     -89    -2396    -4880    -4610    -2278     -540      433     1726 
    2513     1622     1155     3447     5977     5960     6181     8823 
   11313    12221    12235    12387    13565    14278    13005    10004 
    5896     2247      133     -961    -1891    -3030    -2772      338 
    4017     6242     8937    13022    15446    14566    13435    14604 
   16227    16190    15815    16340    14833     9371     4340     2623 
     436    -4946   -11994   -19419   -26559   -31189   -32287   -32301 
  -32112   -30326   -27830   -24686   -19819   -16659   -18081   -20837 
  -21824   -21296   -19203   -14693    -8050    -1791     2001     5684 
   11669    17173    19375    18631    14529     7388      513    -3258 
   -2493     2381     9686    19097    28089    32157    30975    27055 
   22655    20493    22974    29097    35340    42283    52895    63887 
   69485    69853    67420    62194    55048    47954    41254    35672 
   31144    25089    18247    13817    10978     8411     7458     6821 
    2277    -5749   -11587   -11398    -4415     7603    20210    30406 
   35571    32731    25598    20486    16600    12964    14341    20595 
   25417    28467    32983    36045    33347    26928    21405    17876 
   15651    13971    10257     4333     1482     6157    17748    31413 
   41434    47286    51594    52502    46546    35309    23598    14831 
   11422    14877    22576    30823    37249    36030    24649    12316 
    6683     5067     5548     7248     3156    -9964   -26276   -40883 
  -52213   -59622   -62826   -59312   -48220   -34572   -23805   -17539 
  -15095   -15236   -16621   -17695   -16981   -13560    -8664    -6270 
   -7815    -8193    -2084     9012    19365    24902    24827    18883 
    6525    -8665   -20891   -29228   -33983   -32567   -24973   -14301 
   -2505     8546    16411    22346    28213    28310    19561    11138 
    7979     4151    -2355    -8094   -10862    -9336    -4228     1104 
    2428    -2430    -9964   -14655   -13059    -3433    11053    24098 
   33999    42019    45742    41709    32387    21309     5159   -15510 
  -30413   -35838   -33609   -20345     1098    20985    36003    47034 
   54907    61064    63882    59367    49023    37885    26860    19078 
   22204    35257    47625    53146    54930    56436    54733    46215 
   33184    19604     7844     -103    -6376   -13421   -16339   -11630 
   -4099      538     2818     8457    17585    22277    19129    13269 
    9675     7481     4831     5445    11493    15604    12455     7391 
    3723    -1873    -6859    -4768      -47    -2644   -11572   -19931 
  -24914   -22594   -11592    -1264     1073    -1520    -5466   -10270 
  -16664   -24127   -27924   -24189   -13801      427    14932    23716 
   22574    18623    19652    18644     9868     1360    -1102    -1946 
   -4040    -4687    -4334    -3951    -1549     -518    -4500    -9424 
  -12669   -16833   -21192   -22198   -21445   -20565   -17031   -13946 
  -15183   -15147   -11472   -10161   -12647   -16340   -20208   -20555 
  -13572    -2814     5617    12131    20696    30069    34506    33014 
   30974    30230    28359    27756    29567    28370    24706    23784 
   24745    26357    30400    36861    43425    46678    45542    42624 
   39075    34405    31143    31144    32544    35805    42280    49835 
   55591    52942    35333     9220   -11812   -21529   -21797   -16085 
   -8318    -4054    -2521     3295    12310    18455    19988    13811 
    1193    -7755   -11059   -13528   -14381   -14875   -16383   -12937 
   -2151    12852    31710    52116    66077    69029    65129    59389 
   53304    49543    50450    53720    55737    55840    53956    47758 
   37625    29043    23592    16294     6647      198    -1726    -1674 
    -664     -382    -2986    -7136    -8653    -4511     5084    16486 
   25482    33596    44109    52120    50332    39573    27240    18349 
   10701     1982    -5877   -12376   -18056   -22909   -29172   -36053 
  -38495   -37956   -39964   -43306   -45828   -49032   -50499   -46581 
  -38904   -31013   -24437   -15552    -1552    10875    18463    27070 
   36219    41860    46381    52364    59209    65646    70505    73811 
   74773    70222    59553    45401    28665    10567    -5200   -16803 
  -25353   -30545   -28586   -18584    -6970     -152     3087     8334 
   15519    20098    23490    29442    36855    43355    47044    47530 
   45833    41415    36504    33233    25817    11110    -5620   -19280 
  -25126   -21161   -12781    -5179      403     3017     2385    -1189 
   -8286   -19022   -29845   -35151   -35719   -37107   -37928   -30898 
  -15951    -3283     3092    11256    22168    30634    38580    43637 
   41283    36250    30904    26823    29902    35738    35911    32571 
   30462    31101    33241    34209    35355    37431    36466    32679 
   28931    21610     8267    -6295   -19187   -30688   -39332   -46110 
  -53092   -56582   -53581   -46326   -35737   -22477    -8520     7531 
   27041    46001    58390    61514    56635    46599    33413    18229 
    4896    -1975    -3308    -1836     2241     6446     7302     7132 
   10358    16063    20768    24381    27893    29010    25200    16501 
    2986   -13587   -27664   -35981   -40155   -40560   -36875   -32259 
  -26624   -16074    -3910     4831    12457    19472    22991    25810 
   30935    32859    27567    20862    16987    15103    17813    25772 
   33147    37249    38874    36381    30048    23128    15865     6930 
    -746    -2767      106     4588    10372    17049    21855    24156 
   23106    15353     3792    -4116    -8357   -13651   -20097   -25231 
  -28615   -30782   -31761   -29624   -22909   -14113    -4727     5975 
   16444    24721    31185    37701    43549    45031    42965    42059 
   42955    42978    39420    32169    26558    26013    26453    25018 
   24493    26581    29524    31206    30824    30935    34209    36564 
   33547    28381    24704    22295    21078    19506    15186    10426 
    8766     8611     7485     7924    12275    18135    24560    31644 
   33916    28486    20237    11098      885    -6139    -7619    -4320 
    2733    10147    15392    18607    19692    19106    18889    21617 
   26758    30034    30713    32420    35796    39031    42735    47268 
   49499    47015    41199    34611    30037    30045    32648    32680 
   29806    27087    23287    15090     2911   -10771   -23499   -32077 
  -36013   -39104   -42714   -45316   -48169   -51044   -51692   -52880 
  -55809   -55683   -50502   -40818   -29173   -21492   -16929   -10524 
   -4132      359     4626     9005    13416    16714    18372    21841 
   28980    37079    42754    44223    42581    39749    35128    27672 
   17610     5645    -5468   -11996   -13806   -12579    -7630      411 
    7589    13088    18895    24081    29004    34412    35077    30445 
   28039    27378    22296    15385    12094    10706     7986     3160 
   -4945   -14629   -22206   -28645   -34657   -36078   -31683   -25139 
  -18774   -13849   -11446    -9450    -5793    -1093     5759    15938 
   25556    30942    34609    38699    39908    36779    32063    27074 
   23804    26111    32718    39186    45558    53431    61609    68315 
   72230    71618    64702    51750    35523    17960      810   -11844 
  -18443   -22898   -27151   -27263   -22154   -18505   -19192   -16614 
