Origin Time       2016/04/16 01:25:00
Lat.              32.753
Long.             130.762
Depth. (km)       12
Mag.              7.3
Station Code      OIT008
Station Lat.      33.2555
Station Long.     131.0203
Station Height(m) 200
Record Time       2016/04/16 01:25:17
Sampling Freq(Hz) 100Hz
Duration Time(s)  234
Dir.              N-S
Scale Factor      7845(gal)/8223790
Max. Acc. (gal)   75.292
Last Correction   2016/04/16 01:25:16
Memo.             
[...]
   15007    14997    15001    15010    15009    15003    15003    15007 
   15009    15005    15009    15013    15005    14997    15003    15012 
   15009    15005    15002    15006    15013    15006    15003    15013 
   15009    15001    15002    15006    15009    15005    15001    15009 
   15012    15002    15002    15006    15005    15003    15002    15001 
   15002    14993    14982    14974    14964    14952    14941    14926 
   14910    14894    14877    14863    14858    14852    14855    14881 
   14916    14937    14952    14970    14994    15020    15037    15039 
   15021    14993    14982    15005    15051    15125    15221    15299 
   15329    15314    15276    15210    15097    14979    14943    15012 
   15093    15114    15120    15151    15171    15151    15173    15325 
   15475    15406    15144    14910    14757    14589    14501    14675 
   14988    15113    14897    14473    14162    14250    14652    14995 
   15206    15422    15442    15117    14763    14708    14948    15272 
   15287    14813    14354    14419    14943    15507    15618    15454 
   15799    16420    16285    15453    14727    14463    14454    14196 
   13903    14243    15049    15700    15975    16043    15881    15272 
   14473    14241    14662    15020    15159    14821    13979    13984 
   14863    15107    14654    14565    15206    15603    14913    14335 
   15082    15773    15122    14397    14692    15239    14993    14250 
   14189    14886    15781    16012    15253    15418    16345    15465 
   13576    13063    13944    14997    15853    16124    15155    14562 
   14997    14592    14080    15029    16128    15781    14986    15026 
   14980    14634    14636    14993    15480    15039    13898    13495 
   14145    15546    16175    15688    15912    16124    15229    14403 
   13612    13670    15784    16780    14994    14357    16140    16906 
   15588    14054    13933    15698    16965    15977    14827    14445 
   14719    15809    15138    12349    11426    13675    16129    16100 
   15079    15209    14825    13402    13343    14864    15988    16332 
   16201    15645    16047    16869    16488    16298    16178    14515 
   13061    13724    15900    18046    17356    13356    11975    15422 
   16532    13755    13482    15148    15040    15180    15618    14569 
   14771    16642    16434    14307    12812    12393    13396    15147 
   15488    14708    15078    16618    16575    15519    16378    16410 
   14624    15726    17906    16060    12486    12287    15426    17674 
   16578    13517    12390    13682    13263    12035    12750    13744 
   15429    18289    17740    12966    11848    15893    16889    14150 
   12640    13717    16168    16335    15340    17888    20065    17178 
   14578    15190    14305    12459    13602    16758    18257    16431 
   14783    15059    15076    16816    19921    18337    13192    10692 
   10588    10860    11595    11862    13474    17984    20761    18692 
   15716    16829    20596    21282    18430    16614    16603    15117 
   10779     6153     6412    11765    15079    14894    16464    20104 
   22844    23560    20981    16140    13960    12546     6744     3915 
    9958    16909    19233    19633    21509    23944    22790    19044 
   17248    16909    15979    15277    14780    13705    13405    14608 
   15068    14071    13676    14511    16584    19226    20410    18667 
   12264     5684     7209    13470    15890    14179    14812    20371 
   22685    17587    14454    18611    20810    16180    15793    21408 
   18405     7754     6573    16742    25974    28782    27259    25936 
   25627    20862    14331    13045    11904     7122     7264    15091 
   21768    23935    23568    20745    19379    20823    19002    11592 
    1367    -6771    -5725     3978    13448    21057    31909    42647 
   42435    30875    20308    14508     5907    -4897    -6885     6274 
   26095    38504    42778    44535    38611    23770    15194    21363 
   29660    26967    15165     3392    -3079    -9013   -16892   -15757 
   -1324    17208    32729    40405    38708    32721    27602    20841 
    4579   -14941   -21419   -11059     7362    20673    31000    48563 
   56425    45832    45516    61639    66387    45473     8762   -18800 
  -30622   -37593   -24590     9306    28691    31108    39556    41971 
   21587     3172     6200     6393    -9656   -19082   -14210    -6436 
    2782    10743    22752    42491    44730    31236    35067    46535 
   40942    32948    33408    20753    -2288    -4307    11641    22326 
   22429    12268    -4120   -12645    -4410     7788    13163    15584 
    6779    -7334    -4553    -1428    -9690     1468    36855    64554 
   68071    51375    23346    -2474   -20598   -33682   -25280    12460 
   45253    53318    59815    75748    79087    44394   -15087   -38260 
   -8267     5769   -26932   -49630   -28312     6743    22608    17784 
   15263    29689    43573    39037    22262     8078     5016     7493 
   10773    22218    33596    27415    10423    -3213    -5468     9721 
   33570    53067    59883    41524      733   -34844   -40298   -18941 
    3677    15292    29061    49527    58152    42579    13716    -5339 
     382    20356    31170    27253    22117    24675    27055    17255 
    2593     2745    16708    22731    13773    10038    19299    22457 
   18351    19766    21768    19381    12077      353    -3577     -256 
   -6531    -9937    13311    42372    46087    30157    13161     8371 
   17879    23792    15989    11425    14839     3991   -16267    -9391 
   28003    55505    52501    42815    38539    24349      456   -13635 
  -10678   -10791   -24066   -24270     3321    31418    33201    20532 
   15265    19735    27905    24968     4433    -5051    13428    27500 
   18593    13300    25687    41769    49557    43800    27575    13647 
    6521    -2177    -9948    -3762    11213    18355    16872    10818 
    2015     4348    18742    23072    10312    -3747    -3715     8278 
   14204     7029     3176    12263    24082    29767    29128    31830 
   42996    46129    31584    17994    15414     9104     2915    11516 
   22613    24902    20713    12456     8434    10569    11287     9428 
   10087    13628    13697    12110    12935     9967     3199     -903 
    -756     4313    11755    15365    14963    13952    13663    20547 
   32414    30375    17999    16694    20607    16015     7393     3133 
    6629    13946    25193    39873    41914    33211    31993    28204 
   12198     4680    12325    14347     5964     1858     4305     5501 
    6984    16129    25780    23903    18652    13510     3435     1013 
    7789    13475    18870    20208    18077    15970    11412    10913 
   17392    27342    34140    27186    11425    -2110    -9768   -11062 
   -9155    -2144    11686    25812    31753    22431     8085     8932 
   17698    18160    15433    12561    13180    23924    28181    18539 
   12382    12356    13238    14264    13106    17119    26300    24957 
   17355    21384    28425    19233     9530    21442    31275    16193 
   -4351   -10168     -984    12696    21567    25705    22134     9377 
   -1431    -1483     5707    16294    31774    43816    36354    11635 
   -4814     2988    18186    26042    32247    35151    34797    33254 
   20038     5537     9702    20429    24042    28499    35937    33453 
   16556      815    -4025    -7302   -11754    -7603     4149     8883 
    3232     5308    25317    46377    45771    22966     6016    14283 
   26761    20648     9891    15052    25820    21468     8870    10164 
   22661    23255    11356     9336    21022    29320    24414    10419 
   -3589   -12206   -13647    -6679     8047    21095    17659     4669 
    2847    11254    19862    29736    37227    32274    21267    19249 
   26901    33739    28706    13927      103    -9139    -5748    11454 
   25748    33417    37631    31600    19577    11723     7834     9683 
   16788    17192    11331     9682    11731    14257     8576    -7793 
  -16606   -11988    -4681     2182     9355    14872    19408    26415 
   31024    29417    26503    19695     8016      168      314     7339 
   16511    22192    23689    21550    18782    18890    17366    15002 
   18913    23468    21802    16502     8922    -4540   -21539   -24235 
   -3775    21298    30057    26793    31457    40014    35091    25674 
   23263    23174    21060    16645    19681    29943    27099    13973 
   12529    23359    32131    34426    34379    27627    15379    10535 
   10420     8016     8230    11711    15202    15906     7863    -3793 
   -3071     9180    18173    18846    15318    14850    23148    36441 
   45624    45095    33462    12623    -7020   -12122    -8583    -8371 
   -4032     5813    13555    23346    30871    29902    30308    32734 
   25185     8487     1055    12926    24078    16899     6282     5552 
    8108    10504    12394    12348    13603    14395    11601    13464 
   26014    38348    35861    21213     9387     9555    18655    22415 
   14505     7105     3640    -4437   -11041    -2033    19037    31594 
   30142    34420    45999    40822    22468    16918    19350     8513 
  -11175   -22006   -22079   -19143   -14253    -9437    -5298     6856 
   23496    32447    35970    43160    58610    69978    60335    43960 
   40127    39579    35037    32958    32638    31556    30295    23377 
   14308    16017    22661    20337     9026    -2239    -4571    -1220 
     747     4783    13537    21413    21763    14512     2644   -12775 
  -24305   -19120     2393    21519    27180    28815    28429    13413 
  -15911   -41743   -49056   -43642   -41906   -40733   -30126   -16121 
   -5400     -583    -3026    -7480    -8997    -7192     -599    12571 
   26489    32559    28810    15234    -5019   -21970   -29529   -25780 
  -10492     5146     8999     2228    -2998     2285     5736     -784 
   -1761     5034     1969   -15807   -28682   -21327   -17199   -34746 
  -44185   -28949   -11034    -1382     5793    18133    34781    43765 
   43857    36448    14937   -13131   -27118   -17446     2695    18958 
   31004    32807    21892    10457     3484     1402     5128     4700 
   -4448    -5686     7765    19345    26609    41071    57385    59502 
   45894    33474    28894    27025    29829    31691    30311    34966 
   37870    27824    10597    -3361    -8579    -5713     3125    13770 
   24787    36363    38277    26276    11734     3978     6460    19948 
   37856    53107    68405    80353    78765    66357    49167    34172 
   30022    31820    29918    22145    15342    19292    32629    42917 
   37370    20506    11875    16067    18700    11180     4707    12471 
   31241    50517    60616    58477    48428    34132    22485    19560 
   21321    22180    22272    24418    27992    28192    24861    24568 
   29546    32694    29227    23829    20075    12571      600    -1858 
    4710       83    -8699    -1917     8176     8301     3208    -4276 
   -5189     6906    17558    17018    13953    13644    11051     4473 
     773     3624     9433    17740    28620    34674    31935    24765 
   15264     4980    -3426    -9288   -11326   -12920   -18852   -27329 
  -34933   -33825   -18856    -1104     9282    14531    16771    15591 
   14057    18625    30001    38992    38884    29290    10982    -9034 
  -21970   -26743   -23477   -12178      966     7072     2584    -3866 
   -2346     -484    -3105     4962    26063    42161    45347    38182 
   23118     9738     5896     9155    20977    35577    35514    22497 
    8306     -967     2582    11507    11886    12927    24784    35372 
   32969    20879     7419     2098     9562    21490    29538    36813 
   42774    39661    29727    20625    14943    12879    11006     4149 
   -6786   -13838   -15919   -20885   -24848   -20148   -16634   -23689 
  -30723   -22378    -3608     7261     7548     3165    -4426    -5752 
    4783    16108    20092    22746    30499    40537    44767    31224 
    4476    -9348    -7628    -5097     1343     9591    11138    11573 
   12513    10609    12846    23074    34462    44702    55810    61071 
   58521    59409    62536    57280    45473    31985    19309    12765 
   15201    20503    19718    13703     6073    -5190   -15040   -14535 
   -6959     4639    21635    29450    15051    -7719   -21247   -24856 
  -21255    -6006    18198    35147    37130    33712    32447    27896 
   17784    13576    17243    19969    26738    39047    45364    44633 
   36738    15132   -11576   -25672   -24611   -16330    -3840    10629 
   19596    13178    -8451   -25020   -22796   -14547    -9847    -2358 
    9440    21386    32360    43433    55439    61931    55534    41950 
   29361    17239     1405   -16895   -28672   -31783   -31282   -24304 
   -7538     8708    10870     4393     5490    11857    13242    15219 
   21250    23522    19909    11164      550    -2467     1279    -1132 
  -10980   -15896   -20418   -35964   -47475   -40772   -25809   -13363 
   -1918    11881    21511    20837    13940    11349    19008    24611 
   21444    19136    13662     3440     2050     7827    12831    18557 
   24590    27554    22435    11595     7272     9984    12214    16648 
   22947    21998    14802     8991     3708    -1239     -823     4637 
   12546    22087    29191    28252    17205     4383     4492    16114 
   25708    33205    40976    39815    29100    19608    16730    22623 
   39120    61221    81454    93933    89301    68315    53222    53044 
   46970    28350    12969     5348     4104    10303    17319    18985 
   17508    20351    29964    36493    33647    26809    21402    19970 
   22059    26935    36448    47243    54427    55366    45608    31290 
   23120    17811    14368    18320    23404    22091    19438    22497 
   31525    44644    59728    70849    74934    75352    72850    67881 
   65064    62656    52060    35131    26516    29295    31680    32317 
   37548    43285    39424    25236    12131     6552     6609    11075 
   16669    22971    31383    35571    33686    33565    35387    33166 
   30951    34564    39903    43222    46457    49011    44190    28902 
   11179      183    -2778     -666     5752    15639    22964    24425 
   22505    19348    15742    10343     5519     6417    10440    12985 
   10773     1915    -5636    -3646     4553    12307    15876    12829 
    3217    -8181   -14719   -12868    -3549     7214    11824     7938 
   -1667   -10940   -14260   -13045    -8982     3346    24371    42862 
   49844    49752    49257    45100    37897    34495    30743    21455 
   10957     3484     1980     3601    -1532   -13532   -21039   -18600 
   -9788     2818    15844    22257    21487    19882    19523    17934 
   17041    20198    23090    21686    18477    14150     7029      114 
     299     6952    10381     8664     8918    13018    18222    22046 
   22133    18100    12649    11241    16791    25115    29997    28760 
   23141    15627     6610     -857    -2485    -2469    -7689   -13095 
  -10324    -2408     3954     7211     8532    10249    14426    18531 
   18805    18346    18982    15743     6562    -7378   -21940   -32309 
  -38254   -39216   -36637   -32572   -24813   -13676    -3842    -1127 
   -3726    -3419    -1463    -1690      419     5556     7882     6886 
    6574     6347     3103    -2546    -8371   -13373   -15885   -12373 
   -3812     2659     4060     1763    -3171    -7771    -9609    -7863 
   -1668     7886    16431    20656    24840    32000    33204    22207 
    8649     4739     7433     5027     -965    -3001    -6061   -13392 
  -18982   -20830   -17332    -5271     9539    17929    20054    20202 
   20128    21369    22596    21857    20441    18200    16762    18100 
   17648    12564     5019    -3338   -11340   -17132   -17424   -11145 
   -2077     5621    11021    16507    21747    23344    24344    27031 
   25776    22045    22914    27448    32934    36864    35907    34361 
   33914    28350    22083    21378    17429     7414     2578     4490 
    6161     8307    10984    10461     8471     7650     9539    14810 
   19693    21748    21602    17948     9517     1779     3499    11866 
   15905    15608    17076    17952    15867    13612    13030    17007 
   22958    23379    21093    19975    16359    11643    11149    14384 
   16972    17491    16239    11630     4683      337     2365    10675 
   23402    34462    34477    27623    25212    23850    18077    14047 
   16231    18709    16909    15407    15508    12317     7311     6320 
    9049    11605    13961    18227    21539    18563    11503     6338 
    3223     1084     2323     7526    14370    22022    28745    31349 
   31363    28865    19874     7433    -3068    -8888    -6309     2698 
   13560    24035    27634    22744    18137    16551    14671    14589 
   16636    17656    19170    22000    24559    26300    25521    24321 
   26056    27777    27432    24849    18918    12436     7619     3223 
    2068     7526    14315    17400    20079    21837    18825    15195 
   13905    12800    12411    13020    15206    20139    23450    22264 
   21246    23213    25069    25229    25807    27839    30793    32800 
   31023    26536    24079    25816    29513    32599    35101    36078 
   33037    28825    27031    23488    17629    16009    18237    19127 
   18409    18643    19711    18835    15221    10501     7340     8212 
   12505    17645    20595    19658    18023    17771    14640     9059 
    7159     7677     7663     9572    12436    12750    10775     8885 
    8927    10064     9575     6901     5115     5595     6000     7134 
   10107    13144    18277    24167    23831    19010    15476    12583 
    9127     6694     7438    11006    14234    15379    14652    14152 
   16534    21521    27750    33048    33555    28757    22685    18999 
   18528    19789    21675    24907    27770    26273    21990    21347 
   26331    32205    33118    27691    19309    11770     7515     7630 
   10512    13686    15523    14993    12555    10064    10748    16001 
   22270    26414    26569    21938    16969    14459    12289    11002 
   13691    18709    19336    15893    15796    19229    20972    20694 
   21664    23849    24815    24775    25034    25200    24783    25577 
   28436    30397    29404    28237    29749    30275    26365    21878 
   20043    19132    17563    15763    14142    14569    18079    20900 
   22781    26487    29342    28667    24885    20128    16703    15363 
   18131    23269    25446    25759    26819    27002    25579    23905 
   23071    22898    22291    20910    20359    21679    21460    16402 
   10991    10563    12330    13297    15020    17217    18812    20262 
   20576    19519    19502    20367    18947    16713    18684    24653 
   31257    36641    38556    36134    31191    26046    22594    20231 
   17304    14439    12058     9460     7296     6556     7001     8645 
   11815    15322    17447    17574    15698    12353    10335    12276 
   14598    12680     9891    11168    14635    16229    15996    16258 
   16869    15469    11772     8027     5130     3009     3348     6648 
   10786    13872    14505    12094     7726     2795    -2053    -5331 
   -4993    -1876     2045     5404     6623     5746     3709     1506 
