Origin Time       2016/04/16 01:25:00
Lat.              32.753
Long.             130.762
Depth. (km)       12
Mag.              7.3
Station Code      OIT012
Station Lat.      33.0664
Station Long.     131.3734
Station Height(m) 461
Record Time       2016/04/16 01:25:18
Sampling Freq(Hz) 100Hz
Duration Time(s)  188
Dir.              E-W
Scale Factor      7845(gal)/8223790
Max. Acc. (gal)   98.115
Last Correction   2016/04/16 01:25:18
Memo.             
[...]
  -11900   -11884   -11878   -11894   -11898   -11890   -11896   -11900 
  -11890   -11893   -11898   -11889   -11889   -11894   -11888   -11885 
  -11898   -11907   -11894   -11884   -11893   -11898   -11884   -11884 
  -11904   -11900   -11880   -11890   -11907   -11892   -11878   -11897 
  -11907   -11889   -11884   -11896   -11894   -11885   -11886   -11901 
  -11901   -11890   -11894   -11897   -11886   -11886   -11894   -11897 
  -11896   -11892   -11894   -11900   -11888   -11885   -11902   -11901 
  -11884   -11884   -11898   -11904   -11888   -11884   -11900   -11898 
  -11888   -11890   -11896   -11893   -11893   -11894   -11889   -11886 
  -11894   -11897   -11889   -11889   -11898   -11901   -11889   -11881 
  -11892   -11893   -11881   -11894   -11909   -11890   -11880   -11900 
  -11907   -11881   -11874   -11904   -11909   -11881   -11888   -11896 
  -11889   -11896   -11897   -11889   -11893   -11901   -11889   -11885 
  -11898   -11893   -11888   -11902   -11901   -11886   -11886   -11894 
  -11890   -11884   -11893   -11911   -11904   -11886   -11880   -11881 
  -11889   -11897   -11889   -11897   -11917   -11896   -11867   -11888 
  -11904   -11890   -11886   -11898   -11898   -11894   -11889   -11881 
  -11886   -11890   -11902   -11904   -11878   -11886   -11911   -11888 
  -11874   -11898   -11904   -11886   -11881   -11900   -11904   -11889 
  -11878   -11888   -11901   -11897   -11897   -11904   -11889   -11885 
  -11896   -11888   -11890   -11904   -11900   -11894   -11896   -11892 
  -11893   -11892   -11889   -11894   -11898   -11893   -11892   -11894 
  -11894   -11893   -11893   -11892   -11890   -11893   -11896   -11896 
  -11892   -11892   -11897   -11893   -11888   -11893   -11893   -11890 
  -11893   -11894   -11894   -11900   -11898   -11893   -11896   -11904 
  -11902   -11896   -11901   -11912   -11914   -11912   -11909   -11909 
  -11912   -11912   -11914   -11925   -11925   -11920   -11937   -11955 
  -11947   -11940   -11947   -11939   -11913   -11900   -11896   -11888 
  -11897   -11934   -11959   -11952   -11934   -11940   -11943   -11890 
  -11813   -11780   -11790   -11827   -11889   -11971   -12031   -12040 
  -12001   -11908   -11777   -11682   -11668   -11739   -11893   -12083 
  -12266   -12333   -12205   -11985   -11816   -11641   -11441   -11472 
  -11866   -12321   -12507   -12492   -12444   -12254   -11824   -11384 
  -11198   -11269   -11581   -12118   -12638   -12830   -12629   -12150 
  -11585   -11175   -10995   -11037   -11462   -12136   -12534   -12568 
  -12461   -12067   -11365   -10882   -10966   -11349   -11794   -12363 
  -12776   -12548   -11961   -11620   -11275   -10574   -10401   -11477 
  -12793   -13204   -12904   -12533   -12197   -11614   -10828   -10359 
  -10530   -11356   -12669   -13671   -13635   -12935   -12226   -11533 
  -10858   -10550   -10839   -11692   -12898   -13794   -13672   -12799 
  -11846   -10918   -10332   -10644   -11431   -11919   -12320   -12987 
  -13120   -12136   -11206   -11160   -11122   -11105   -12075   -13049 
  -12631   -11992   -12305   -12204   -10867    -9992   -10613   -11693 
  -12469   -12861   -12505   -11838   -12070   -13014   -13234   -12388 
  -11535   -11237   -11119   -11237   -11875   -12609   -13165   -13540 
  -13166   -12004   -10994   -10413   -10052   -10531   -12144   -13745 
  -14354   -13965   -12752   -11144    -9647    -8607    -8696   -10315 
  -12685   -14419   -14823   -14378   -13230   -10918    -8842    -9212 
  -11207   -12604   -13612   -14840   -14544   -11902    -9528    -9336 
  -10049   -10845   -12496   -14261   -14658   -14127   -13390   -12100 
  -10652   -10162   -10578   -11157   -11853   -12522   -12658   -12700 
  -13088   -12858   -11770   -11308   -11576   -10984    -9957   -10550 
  -12395   -13302   -13172   -13516   -13822   -12231    -9661    -9022 
  -10390   -11834   -13220   -14785   -15333   -14450   -13027   -11403 
   -9784    -9533   -11425   -13694   -14376   -14077   -13907   -13170 
  -11747   -11300   -11745   -11408   -11237   -12919   -14650   -14054 
  -12433   -12074   -12287   -11755   -11392   -11939   -12193   -11512 
  -11593   -13375   -14287   -12694   -11209   -11527   -11757   -11198 
  -11732   -13258   -13563   -13446   -14708   -14588   -10990    -7944 
   -8474   -10226   -11346   -12748   -14370   -14442   -12850   -11838 
  -12085   -11827   -10714   -10600   -12395   -14415   -14403   -12772 
  -12168   -13003   -12787   -11180   -10725   -11857   -12685   -13093 
  -14040   -14790   -14384   -13066   -11448   -10517   -10729   -11298 
  -12318   -14477   -16355   -15556   -12695   -11406   -12760   -13687 
  -13022   -12734   -12613   -11362   -10613   -11433   -11708   -10724 
  -10940   -13254   -15364   -15730   -14775   -13177   -11668   -10569 
   -9502    -8702    -9234   -11234   -13581   -15353   -15758   -13990 
  -11053    -9343    -9535   -10747   -12617   -14422   -14943   -14536 
  -14033   -13082   -11622   -10669   -11385   -13605   -15381   -15627 
  -15109   -14202   -12603   -10238    -7963    -8120   -11319   -14740 
  -17038   -18837   -18615   -15188   -10200    -5680    -3785    -6353 
  -12105   -17501   -20000   -18783   -14910   -10897    -7867    -5429 
   -4901    -8347   -14323   -18728   -19944   -19421   -17150   -11782 
   -6353    -5656    -7584    -8257   -10666   -16216   -19026   -17098 
  -14493   -11843    -9200    -9992   -12518   -11161    -7977    -9057 
  -13069   -15472   -17390   -19498   -17690   -13356   -12420   -13235 
  -12283   -12576   -15168   -16486   -16168   -16314   -15962   -13497 
  -11696   -12804   -12884   -10963   -12812   -18073   -20144   -18970 
  -18516   -17400   -12567    -6569    -4878    -7398    -8424    -7581 
  -10303   -14327   -12495    -7295    -5235    -5491    -6367   -11514 
  -22140   -30129   -25694   -11560     -164     3630     3289     -924 
   -9198   -16157   -19618   -25683   -33936   -32702   -19519    -6490 
   -3192    -8447   -14372   -16279   -16931   -16680   -11695    -4509 
   -1459    -1921    -3244    -9255   -21075   -30349   -31509   -24362 
   -4523    23893    40435    35323    18550     -838   -18817   -32127 
  -39893   -37462   -18316    10524    29833    26661     5395   -19693 
  -39943   -49887   -44500   -29884   -10635    12691    22875    12344 
   -2280   -21378   -49731   -60064   -35457    -4581     4683     2839 
    5474     -868   -24916   -41048   -34381   -23519   -17267    -4126 
   16348    25096     6671   -24597   -35824   -23453   -20818   -33852 
  -22669    15862    31052    12707     2477     7342    -4099   -29165 
  -33639   -16256    -6462   -11599   -18110   -23815   -27700   -19057 
   -3188     3883     4554     4303    -4284   -21219   -32390   -31477 
  -26015   -14319     7410    20295    11577    -3280   -13170   -25402 
  -43470   -50728   -27345    10489    25199    15797     4162    -7767 
  -19097   -21042   -14728    -4027     9443    20457    17165    -6835 
  -32001   -37201   -27972    -9412    18396    33048    18021    -8060 
  -28548   -44780   -49833   -35101    -8839    11246    14143     6682 
   -2442   -19627   -39660   -41052   -27939   -20240   -13356      369 
   10048     7938    -4041   -20366   -36513   -48324   -44159   -23062 
    -890    13626    14757    -1486   -22950   -36736   -39032   -27985 
   -9401     4406     5352    -6392   -23070   -33956   -33092   -25292 
  -14851     2232    15346    10270     1935    -1962   -15438   -24129 
  -12667    -7931   -18886   -19566   -12368   -16004   -20981   -12841 
     249     4398     3601     3789   -11105   -43239   -58336   -45427 
  -30693   -16097     7210    16431     3983    -5454   -10322   -22408 
  -29596   -21556    -7219      212    -6585   -15165    -9721    -2447 
   -2157     2074     3260    -4407    -5490    -3615   -11236   -18469 
  -20237   -23530   -23819   -13081     3844    12876     9336     6257 
    4414   -13189   -36463   -38190   -25762   -21026   -19609   -14544 
  -15036   -20062   -17524    -8993    -3890    -4060    -6606   -11291 
  -21789   -33509   -35024   -29874   -25964   -17518    -6355    -5209 
   -9369    -4307     3447     -987    -9401   -10380   -17913   -35233 
  -32656    -5533     9957    10180    23461    31052     2070   -31008 
  -35270   -28837   -20432      519    22597    26446    13180    -1310 
  -10849   -20785   -25081   -16534    -5891    -1602      622      237 
   -5891   -10771    -9602    -6979    -3187      811    -3659   -11487 
   -6813     4572     4207    -8410   -17383   -13022    -7352   -11934 
  -17689   -24067   -34800   -29106    -3022    13339     8382    -2943 
   -6948    -4710   -10192   -20784   -21004   -15410    -6720    10282 
   14804    -4496   -16587    -8179    -4190   -12039   -20509   -30191 
  -33790   -16177     6732     5296   -12476   -17855   -12977   -16845 
  -23453   -20607   -15338    -7302     8379     9053   -17165   -38975 
  -38650   -34654   -31734   -13558    12853    13905   -15518   -38304 
  -34043   -21554   -13518     3113    26644    26322    -1471   -23426 
  -34588   -46288   -37038    -4355    14655    17676    25384    17799 
  -21301   -58121   -63701   -50984   -33905    -4947    26558    31371 
   13502     -776   -13142   -28355   -32613   -26430   -18249    -4614 
   11090    18651    15587     1535   -19609   -35195   -40522   -40540 
  -31438    -9297    17202    33231    21242   -13219   -35160   -36375 
  -37149   -33761   -14777     6593    12009    -1258   -19822   -31004 
  -37796   -38743   -22391     2177    13520     7954    -7798   -25203 
  -34288   -35449   -32409   -23125   -10976     2582    17213    11561 
  -22104   -45392   -36236   -17830    -1308    14253    10096   -15279 
  -34391   -35322   -24121    -8137     2556     2743    -7816   -23997 
  -32242   -31131   -29608   -23811   -13845   -14200   -23784   -23422 
   -7952     6898     6625   -10781   -37233   -54112   -46460   -25112 
  -10407    -3871    -2162    -9660   -21316   -28310   -32610   -34011 
  -29505   -23816   -18549   -10216    -5756   -12949   -21593   -22283 
  -22748   -25528   -19187    -3369     1902   -10037   -18219   -16344 
  -19164   -20588    -6782     4275    -9374   -31340   -36055   -27760 
  -18967    -9603    -2354    -4842   -15951   -26672   -31518   -30284 
  -17201     6733    15916    -1287   -18378   -20059   -20962   -25536 
  -19855    -2535     7793      612    -9043    -8658   -12429   -28192 
  -37261   -29064   -15229    -8919   -11628   -15835   -19576   -26170 
  -26279   -12059     -463    -4916   -14445   -21127   -25018   -22761 
  -16885    -9873    -1367      288    -7056   -14501   -20611   -27368 
  -31723   -28152   -12981     5080    12140     5034   -12858   -31483 
  -38835   -37667   -31887   -14025    11769    23868    14381     2153 
   -2374   -10597   -20247   -18509   -10125     -834    13443    25485 
   19098    -2724   -20440   -28765   -31060   -20232      517    10909 
    5193    -2366    -5220    -8411   -10567    -7789    -2739     -311 
   -6211   -18011   -22011   -16127   -11192    -3931    14469    29012 
   18354    -5182   -10268     1074     1804    -8139   -10698    -3141 
    9032    17859    16660    11021     6600     3387     7437    21028 
   30393    24779    13895     9209     8490    11663    21024    26631 
   22698    18088    16460    13036     8631    10746    18501    18605 
    8976     1864    -2322   -10055   -12556      712    19394    24221 
   13464      522   -12187   -30136   -41204   -34854   -24112   -14690 
   -2119     2959    -5987   -20785   -37633   -56818   -75118   -82864 
  -69919   -44925   -28021   -22852   -25724   -40544   -56843   -54341 
  -37309   -25431   -25392   -29924   -31382   -32178   -35985   -38400 
  -36624   -28541   -15097   -11353   -21107   -24478   -14110    -6590 
  -15550   -30747   -32563   -26697   -29528   -28545    -9502     3177 
  -12098   -32139   -35311   -33394   -30731   -17375    -2273     3333 
   10251    19539     9589   -19583   -39491   -39896   -33937   -24463 
   -6697    11896    19652    14764     3852    -8640   -22925   -34065 
  -37805   -41080   -45232   -38871   -21909   -12029   -20669   -38955 
  -50504   -49270   -42765   -42689   -53360   -69729   -82363   -80451 
  -62642   -43132   -33623   -34051   -43162   -58066   -72814   -83874 
  -86853   -79273   -67881   -62249   -66830   -77292   -82985   -78464 
  -65788   -48533   -31738   -19172   -11469   -12991   -26180   -39476 
  -42079   -40972   -44524   -47640   -48109   -53919   -63274   -61533 
  -44061   -23484   -10019    -1850      -14   -10459   -31132   -53935 
  -68265   -60727   -28246    14914    49766    64069    58495    43931 
   25466     2357   -17633   -24470   -16730     2308    24956    41450 
   49870    52780    51325    46762    36213    17200    -1224    -7470 
    -901    11982    27175    43559    54348    48875    32279    24497 
   26893    20965     8149    10197    28680    43907    47040    44054 
   42620    45998    46912    36836    23488    18692    16212     1451 
  -25375   -45350   -40045   -16163     3221     9050     5703    -1609 
   -6389    -6238    -4183    -5043   -13899   -25085   -25447   -14192 
   -3703    -2695    -4483     -120     4958     4718     2706     -287 
   -6777   -11874    -7541     6984    28966    51031    57973    48373 
   33335    11244   -13689   -19804    -1933    23688    44599    60798 
   74852    77139    61626    43796    31661    12538   -16960   -37893 
  -30287     2413    38786    66638    86784    90961    66178    22864 
  -10341   -16062     -804    17582    34024    51599    60266    52295 
   36587    20480     8046     8054    19522    26890    20758     7435 
   -4457   -11765    -7094    17118    43302    44435    26549    11870 
    7402    12798    20468    23456    32184    45291    37984     5161 
  -30820   -52366   -57700   -53792   -47935   -39410   -23327    -9693 
  -18227   -41422   -50492   -44589   -42925   -39062   -19664    -3757 
  -13298   -35851   -51349   -61595   -71799   -74677   -67478   -60961 
  -63346   -72744   -84160   -92034   -91696   -86170   -86724   -96518 
 -104010  -105204  -106991  -105297   -93297   -77066   -63420   -54969 
  -56758   -71450   -91670  -101175   -89793   -67480   -50274   -41678 
  -39688   -41161   -38975   -31523   -21722   -10944    -8021   -19456 
  -31862   -32134   -24993   -19348   -22934   -38769   -56026   -64735 
  -67363   -66148   -57155   -35935    -7160    13397    16461     6180 
  -11508   -27544   -29411   -20191   -17034   -24722   -35548   -47326 
  -62043   -75860   -77058   -59242   -34678   -18219   -11866   -15882 
  -29948   -46237   -59232   -67994   -66381   -48649   -21543     -423 
    7499     4657   -12915   -44116   -64095   -55139   -36417   -30578 
  -28719   -16033      492     6728       72    -9690   -16545   -25687 
  -35139   -34396   -24279   -15763   -10810    -1111     8915     6759 
    2778     9695    11475    -1485   -11982   -13311   -15758   -15562 
    1034    28061    44676    42471    26029    -1069   -31692   -47618 
  -36139    -8649    13281    19901     9761   -13216   -30906   -26264 
   -5344    16552    31450    31752    13300   -13386   -31908   -37632 
  -34099   -15105    21887    53404    58819    44635    18602   -12879 
  -29011   -20515    -2636    12703    23163    24452    17979    15183 
   21124    27745    31178    35060    31529     9799   -18315   -32826 
  -31202   -20409    -3365    17641    35446    42184    35410    19064 
    3156    -5111    -6126     6147    36722    65861    70378    54625 
   33762    16050     8626    12846    20148    20775    13022     7881 
   13063    18468    16220    13460    16123    21693    24529    20509 
   11778     3960     1588     8873    24673    40423    48999    45747 
   27993     5826    -4480    -2639     -149    -1672    -3748    -2160 
    2343     6559    12641    21400    25722    21606    11481    -2909 
  -17861   -26774   -27972   -23541   -12136     6463    24848    33258 
   28470    16891     5884    -3672    -8658    -4090     5810    15056 
   21855    21652    11718    -4665   -21787   -30434   -25853   -14782 
   -4375      229    -6076   -16421   -18146   -12009    -5547    -1368 
     306     1822     6292    11217    11713     7857     4182     3289 
    1305    -6091   -14885   -17647   -13062    -5547      581     3904 
    1476   -10995   -27687   -36220   -35607   -31440   -21523    -4502 
    8476     7106      265      881     2848    -3032   -10874   -14964 
  -19730   -25852   -25650   -19259   -16406   -18249   -19495   -21681 
  -25482   -27276   -31818   -45446   -58838   -58368   -45852   -30577 
  -13740     4828    16622    13699    -1413   -20503   -37462   -49253 
  -52971   -46059   -29160    -8280     4745     -900   -22341   -43475 
  -52983   -50909   -39515   -24970   -17587   -18605   -22056   -27292 
  -35877   -43419   -43414   -36522   -29849   -28467   -33525   -44193 
  -53919   -51742   -37021   -22626   -16430   -14026   -13478   -21685 
  -38866   -52574   -56093   -53804   -47340   -36848   -28993   -29215 
  -34256   -39658   -45192   -48459   -45060   -35731   -24506   -15880 
  -14840   -21647   -29870   -32886   -29891   -25509   -22774   -20293 
  -18540   -18306   -15287    -9845    -9364   -14376   -19485   -20717 
  -15726    -8484    -5166    -5320    -6556    -8239    -9823   -11685 
  -14663   -17112   -15944   -12721   -10729    -7801    -1679     5259 
    9219     7217     -317   -10323   -19712   -24098   -20277   -11142 
   -5575    -9763   -17268   -20395   -24456   -30937   -28603   -17703 
  -12348   -15566   -20537   -26700   -36058   -45114   -45759   -34376 
  -20286   -12949   -10471   -12116   -20507   -29778   -32143   -30366 
  -28706   -22669   -10642      238     5987     6768     3532     2199 
    5809     8483     7411     5286     2606    -2220   -12043   -25246 
  -32832   -30534   -20661    -4978    12538    25721    28152    16285 
   -1285   -10392    -7342     2878    14115    21940    25318    23226 
   16071    10184    10624    14250    13571     4413    -9153   -20231 
  -26411   -25548   -14551     2835    18095    26466    25259    11369 
   -8775   -18995   -14251    -4638     2442     4734    -1016   -13363 
  -23829   -26049   -21432   -14986   -11236   -12677   -17149   -20316 
  -20590   -19753   -20607   -21147   -17429   -14172   -17186   -22401 
  -24898   -24999   -24314   -24575   -26160   -29158   -34364   -38836 
  -37174   -27380   -14585   -10238   -19029   -30321   -32772   -28104 
  -23996   -22852   -23634   -26393   -28011   -25602   -25208   -31212 
  -35120   -30295   -25128   -26941   -30030   -32019   -38651   -49315 
  -58001   -60628   -54996   -43749   -33470   -27562   -26044   -28602 
  -33775   -38950   -40482   -35074   -25701   -20834   -23406   -27433 
  -29323   -32530   -35830   -32865   -26059   -22021   -19672   -17875 
  -19195   -21427   -21878   -23575   -27708   -29070   -23836   -16931 
  -14206   -13674   -14426   -20876   -30746   -34601   -29759   -22848 
  -18886   -15900   -12363   -12403   -17334   -20938   -20206   -18365 
  -15639   -11627   -10081   -12820   -16742   -16923   -12349    -7234 
   -4665    -7140   -15869   -23017   -21663   -16494   -10758    -4200 
   -2862    -8361   -13211   -14156   -11831    -5053     3450     7064 
