Origin Time       2016/04/16 01:25:00
Lat.              32.753
Long.             130.762
Depth. (km)       12
Mag.              7.3
Station Code      OIT015
Station Lat.      32.9722
Station Long.     131.3970
Station Height(m) 260
Record Time       2016/04/16 01:25:17
Sampling Freq(Hz) 100Hz
Duration Time(s)  190
Dir.              E-W
Scale Factor      7845(gal)/8223790
Max. Acc. (gal)   76.633
Last Correction   2016/04/16 01:25:17
Memo.             
[...]
   -6438    -6435    -6435    -6436    -6432    -6431    -6432    -6436 
   -6443    -6442    -6435    -6436    -6439    -6435    -6434    -6435 
   -6435    -6443    -6447    -6442    -6434    -6431    -6432    -6434 
   -6431    -6431    -6438    -6442    -6439    -6436    -6436    -6435 
   -6434    -6435    -6436    -6442    -6438    -6427    -6431    -6443 
   -6444    -6440    -6439    -6436    -6432    -6432    -6434    -6432 
   -6436    -6442    -6443    -6440    -6436    -6435    -6434    -6430 
   -6432    -6439    -6440    -6436    -6436    -6436    -6436    -6438 
   -6436    -6434    -6431    -6431    -6438    -6446    -6444    -6435 
   -6431    -6434    -6436    -6436    -6436    -6435    -6436    -6440 
   -6440    -6438    -6436    -6435    -6432    -6434    -6439    -6442 
   -6436    -6434    -6442    -6443    -6434    -6434    -6434    -6430 
   -6436    -6442    -6436    -6432    -6435    -6439    -6438    -6435 
   -6436    -6436    -6427    -6427    -6440    -6442    -6430    -6431 
   -6442    -6446    -6442    -6435    -6431    -6432    -6434    -6439 
   -6439    -6435    -6434    -6439    -6439    -6438    -6438    -6434 
   -6427    -6431    -6438    -6439    -6436    -6438    -6440    -6436 
   -6431    -6432    -6436    -6436    -6439    -6439    -6436    -6436 
   -6440    -6440    -6435    -6434    -6436    -6439    -6438    -6435 
   -6434    -6434    -6435    -6440    -6446    -6440    -6432    -6430 
   -6432    -6431    -6435    -6444    -6446    -6439    -6440    -6443 
   -6440    -6439    -6440    -6440    -6440    -6447    -6454    -6453 
   -6450    -6451    -6451    -6450    -6451    -6451    -6447    -6453 
   -6458    -6459    -6467    -6474    -6470    -6471    -6471    -6459 
   -6448    -6447    -6457    -6473    -6484    -6488    -6482    -6475 
   -6473    -6465    -6460    -6465    -6473    -6478    -6477    -6471 
   -6470    -6474    -6469    -6439    -6416    -6421    -6439    -6451 
   -6469    -6501    -6535    -6539    -6486    -6397    -6353    -6399 
   -6473    -6469    -6389    -6372    -6500    -6640    -6624    -6512 
   -6498    -6613    -6627    -6403    -6205    -6322    -6548    -6569 
   -6504    -6552    -6660    -6744    -6701    -6469    -6304    -6311 
   -6207    -6041    -6089    -6176    -6237    -6564    -6913    -6836 
   -6644    -6648    -6439    -5940    -5746    -5918    -6043    -6154 
   -6361    -6539    -6714    -6822    -6585    -6089    -5672    -5409 
   -5285    -5503    -6154    -6899    -7387    -7508    -7213    -6564 
   -5798    -5209    -5043    -5313    -5890    -6632    -7148    -7127 
   -6921    -6948    -7017    -6799    -6354    -5994    -5931    -6076 
   -6226    -6416    -6711    -6918    -7126    -7500    -7423    -6704 
   -6281    -6327    -6123    -5757    -5768    -6103    -6397    -6527 
   -6980    -8032    -8626    -7933    -6895    -6322    -5663    -4823 
   -4862    -6106    -7595    -8588    -8961    -8658    -7662    -6330 
   -5745    -6370    -6552    -5395    -5076    -6517    -7261    -6490 
   -6280    -7218    -7730    -6763    -5120    -4687    -5552    -5760 
   -5143    -5333    -6589    -7824    -7869    -6805    -6044    -5652 
   -5112    -5409    -6589    -7337    -7410    -7306    -7219    -7187 
   -6987    -6486    -6257    -6335    -5853    -5243    -5741    -6983 
   -7723    -7578    -7023    -6544    -6022    -5260    -4887    -5528 
   -6534    -6918    -6864    -7130    -7830    -8052    -6521    -4379 
   -5093    -8247    -9404    -8166    -7553    -7438    -6777    -6625 
   -6859    -6594    -6427    -6462    -6615    -7603    -8563    -7892 
   -6211    -5260    -5040    -4383    -4301    -6583    -8954    -8406 
   -6872    -7102    -8317    -8556    -7036    -5452    -6011    -7053 
   -6421    -6292    -7867    -8711    -8742    -9262    -8538    -5972 
   -4302    -4963    -6808    -8652    -9821    -9725    -8394    -6579 
   -5193    -4677    -4865    -5590    -7121    -8823    -9123    -8066 
   -6320    -3954    -2844    -4641    -7330    -8019    -6863    -6183 
   -6632    -7484    -8893   -10319   -10378    -8384    -4688    -2311 
   -3970    -6382    -5922    -5717    -8056    -9387    -8163    -6184 
   -4375    -3541    -3152    -2700    -4799    -8877    -9894    -7311 
   -4946    -4483    -5325    -6426    -8070   -10848   -11956    -9815 
   -7191    -5169    -3723    -4245    -6408    -8980   -10778    -9801 
   -7533    -8083    -9927    -8922    -6899    -7141    -7924    -6724 
   -4625    -3978    -5354    -8225   -11499   -12680   -10584    -7495 
   -5356    -3416    -2184    -3948    -7557   -10054   -11232   -11202 
   -9530    -6924    -4530    -3874    -6027    -9479   -11115   -10376 
   -9223    -7657    -5092    -4178    -6658    -9018    -8189    -6754 
   -6538    -4831    -2506    -3937    -7028    -6881    -4841    -3924 
   -3865    -4095    -3820    -2313    -2837    -8078   -12989   -11696 
   -6767    -4180    -5169    -7541    -9666   -10971   -11152   -10153 
   -8449    -6883    -6956    -9234   -11651   -12114   -10584    -9088 
   -9402    -9653    -7677    -5130    -4656    -5831    -5683    -4757 
   -6990   -11032   -11682    -8549    -4945    -2991    -3100    -3944 
   -4286    -5179    -7542   -10832   -13339   -12617    -9724    -8865 
   -9664    -8596    -7010    -6619    -5738    -6412   -10392   -12760 
  -11450   -10663   -11414   -10519    -6947    -2647     -311    -1468 
   -4456    -7543   -11944   -15762   -13224    -4762     1908     1719 
   -2995    -6974   -10006   -17101   -26163   -26316   -16768   -10021 
   -9996    -8428    -3767    -3393   -10349   -18634   -20263   -16281 
  -14492   -16312   -16974   -14133    -8891    -4514    -4351    -6531 
   -6579    -6021    -9180   -13204   -11970    -8497    -8503    -8001 
   -4003     -542      533    -2401   -10058   -15014   -11141    -4880 
   -3592    -3539    -2424    -3369    -4700    -6651    -7951      251 
   12177    12947     7273     5077     5008     6693     7072     1155 
   -1225     6353    11233     9512     9809     9927     7307     8522 
    9659     4240     1065     1854    -2000    -5749    -4116    -2709 
   -3036    -2088        4    -1190    -6840    -9405    -9190   -13826 
  -16783   -13090   -10592    -7307    -2604    -6486   -12096    -9576 
   -6151    -1019     7042     4677    -6901   -15045   -18840   -20698 
  -25535   -29257   -10250    20853    20233   -12187   -30902   -18470 
   -4380   -11221   -22810   -17842     -999     5748   -13038   -35394 
  -21243    12452    15523    -4619   -11503    -4105     -708    -9603 
  -19279   -15921    -9549   -12577   -14438    -5787    -1598    -9767 
   -9337     2685     2039   -10945   -17750   -11782     4558     9180 
  -13332   -27886    -9153    13324    14472    -1660   -17352   -17933 
  -13747   -11504      853    14679    11566    -2043   -16213   -29243 
  -31912   -21637   -11592   -11021   -14092    -8280     2940     3565 
      89     6276     8623    -2301   -14762   -24470   -28370   -21052 
  -11311    -1926    13745    24692    21888    15236     4666   -13211 
  -25451   -24513   -14341    -1713     4153     1190    -4398    -6952 
   -7777    -9667    -7614    -1143     3078     5090     6941     6440 
   -2037   -17585   -21411    -6586     2781    -5589   -12735    -5231 
    5926     7378     3835     9120    18176    10358    -8293   -15101 
  -13032   -12711   -12401    -9675    -4159      332    -3866   -15923 
  -21055   -11801    -4966   -12785   -21511   -21201   -21357   -26442 
  -25301   -10362     4074     2498    -4268    -3350     4727    15583 
   12251    -6388    -9995     4383     3334   -16545   -18800     3246 
   13509    -3885   -28840   -34989   -14298    13597    19105     -261 
  -13748   -15228   -25143   -32697   -26287   -19061   -10133      827 
    -483    -8816    -6698     1787     1601    -7777   -20078   -27444 
  -15101    11214    22075    11145     -221    -3372    -4429     1337 
    9065     -633   -15715   -16883   -15152   -16294   -15226   -16856 
  -20322   -13537    -4803   -11383   -15172    -4240      -20     -822 
    7302    15036    16757    10864   -10814   -32292   -26439    -7344 
    1341    15099    32503    24004     1706   -12822   -24449   -25648 
  -16915   -15809   -16430    -3376    13104     9952    -7951   -17219 
  -17397   -19899   -20260   -14255   -14694   -18334   -10107    -4604 
   -6110     3396     5643   -13435   -19970   -12690   -18936   -19562 
   -7138    -1622     6941    18534    14265    -7528   -32092   -34414 
  -17956   -17830   -34537   -32109    -6010    11628     4446   -10976 
   -7321    10162    13532     3397   -18485   -44983   -37913    -8225 
    2853    11213    29500    31920    20875    20891    25659    20981 
   13078     7789     7959     5541   -13903   -29300    -9733    17425 
    6185   -19688   -21998    -8214    17128    26487    -1300    -8257 
   15923     1993   -47877   -67224   -35934     4401    11925    -1799 
    3543    24976    24013    -3407   -25122   -15901    10396    11136 
  -13796   -20653    -3510     5190    -4537   -15067   -16825    -9944 
    3098       81   -22438   -27012   -14473   -22140   -36306   -25295 
  -12964   -20185   -20547   -11831   -21531   -38966   -30769    -5915 
    1637    -2669    -3383   -16044   -34615   -32036   -20668   -20869 
  -18900    -5625     6758    13007    15660     9898     -194     4781 
   18084     5931   -27141   -38331   -28656   -33158   -38643   -22511 
  -12918   -18832    -2061    24804    13882    -4137     7765    11729 
   -8505   -23404   -18365    -4074     5142    14137    18229    -3287 
  -25868   -12204     5009    -6777   -12734    -2052    -2782   -10689 
  -17201   -27502   -31769   -20324    -2340     -164   -16046   -17258 
    4623    13208      237    -1560     5363    -6801   -23793   -30650 
  -42292   -50422   -39390   -19207      992    17145    18458     1865 
  -15957   -23584   -23098   -14131   -13945   -36354   -51082   -28628 
   11724    30192    21184     5838    -3790    -7200   -14729   -25415 
  -21655    -8052    -2239    -5848   -13436   -13678     2837    21597 
   20352      326   -14688   -13991    -9454     -399    14565    15341 
     560    -4702    -4590   -20299   -30690   -20429   -14042   -10397 
    3912    12216     4691    -4278    -6990   -12320   -19967   -22630 
  -21445   -12884     1462     9784     7708      989     1842     5327 
   -2351   -10539    -9009    -8785   -22797   -38684   -32424   -16966 
  -13691   -13802   -11404   -11179    -9342    -7997   -26932   -54268 
  -43059    -9679    -5854    -8938     9589    15182     1129       71 
    -649   -19167   -23494    -3974     2394   -13446   -20507   -11344 
  -13105   -23553   -17633   -11361   -19338   -14879    -1868   -12744 
  -26068    -9868     6361     3001     5119    12783     9662     4399 
    3962    -1826    -6960     7177    26055    27079    15769    -2174 
  -21510   -28231   -21666   -14638   -11445   -10037   -13468   -14041 
   -8584   -13163   -19120   -14115   -16880   -20903    -5448     5292 
   -4824    -9024    -3316    -5189    -3994     6662     5486    -6851 
   -5462      978    -9656   -15616     6914    29992    22873     7149 
    8297    11457     9753    12449     8114    -1759     9293    29400 
   23653     7327     7118     6860    -3064   -11136   -22640   -34106 
  -22249    -1760    -7987   -27544   -32240   -23932   -13865   -12155 
  -15741   -14378    -6156    10300    17131     2643      608    21984 
   30015    14196    -2085    -6184    -1971     1622    -4700   -18341 
  -22401   -14392   -11090   -18524   -25585   -20864   -13135   -16075 
  -19251   -16235   -13574    -7785    -1624     -765     5267    17995 
   20358    12567    10575    13493    16141    17653    12198     5475 
    2398   -12310   -36537   -44265   -36505   -31564   -25671   -18909 
  -24997   -35752   -34890   -27801   -17456     5660    35426    53595 
   58054    56592    43082    21404    17050    26377    21934     4170 
   -7191    -1763    12167    13555      949     -818    16044    30099 
   26778    15187     7982     6252     9432    12488     5405    -3855 
   -2393     6669    19843    28686    16406   -14146   -45284   -65075 
  -65932   -55574   -54400   -61730   -57377   -41442   -33027   -29616 
  -14118     6021     9450    -7353   -28530   -32082   -14374     -637 
   -1830     6300    29359    40764    35114    29790    31044    40560 
   55600    55625    34831    17977    16434    21398    28887    36875 
   37539    19330   -13864   -41694   -53080   -49103   -37065   -27499 
  -26306   -24579    -9339     1491   -13409   -27108   -10566    17930 
   29515    21494    18454    36198    51089    47845    36699    18303 
    2976     8376    22657    21716     9035     5927     8655     1885 
  -11006   -24791   -34428   -34141   -34075   -42893   -47085   -32487 
   -4422    21382    32533    28493    17398     5663    -6201   -19854 
  -26333   -16777    -9198   -22064   -35928   -29767   -20032   -24607 
  -36998   -48134   -54872   -53443   -38230   -12581    15770    45898 
   59150    40756    21317    22223    19190      340    -9082    -1922 
     461      974    10783    15979    10612     7614    10825     7527 
   -3708    -5413    -6110   -27913   -47699   -40682   -26439   -13890 
    1405     4349    -2019    -1642    -5266   -17442   -21443   -17644 
  -16259   -15361   -16785   -22177   -23431   -20879   -21735   -33162 
  -60890   -86770   -84518   -64285   -48523   -35468   -28935   -40655 
  -50086   -32952    -2706    15249     8306   -16806   -39235   -43730 
  -25867      346    17774    32811    50472    60138    51205    27121 
    8372     1104    -1163     6936    22383    32182    31433    23129 
   18777    24783    28995    18829    -3790   -29326   -45424   -47571 
  -46607   -44988   -33079   -18202   -15905   -26407   -35432   -22069 
    9458    20185    -4441   -30747   -34445   -24310    -7766    13261 
   31899    42874    38299    12866   -20804   -39599   -35584   -26608 
  -26519   -23907   -12020    -4102    -7327   -12309    -2516    21853 
   28548     1517   -27693   -36038   -36776   -35739   -21694     3511 
   25324    31369    16189   -11562   -36481   -54078   -59312   -43171 
  -17300     -386     3188    -3355    -5845     5422    19565    29617 
   34669    27664    15873    15932    22627    18645     8440    13659 
   28649    29910    24135    19471     8692     3246     7600     4382 
  -14215   -36568   -41184   -31862   -31959   -32278   -15579     3064 
   11813    14473     6342    -9995   -25042   -40448   -47227   -32206 
   -6652    10514    12883      230   -21883   -33523   -24301   -13254 
   -9219    -5086   -11823   -26551   -27951   -23492   -18945    -1651 
   20083    31442    25258       76   -22528   -25720   -19847   -10376 
   -3165   -12793   -26606   -27955   -31815   -44370   -48401   -39937 
  -29208   -17015    -4806     3280    23461    58043    71996    51439 
   23808    14688    18459    12854    -2706    -7799     3406    14021 
   11419    -1360   -15242   -14566      909     1321   -22481   -37099 
  -26021   -15805   -24301   -33936   -27834   -13759    -6151    -7769 
  -13120   -17612   -21328   -26526   -32254   -29207   -11626     3488 
    2006    -7677   -19700   -27384   -21425    -9985      680    13548 
   20043    16320     9799     -571   -12513   -16406   -14017   -12625 
  -14145   -17547   -21595   -28895   -41494   -49863   -45254   -35877 
  -30955   -32611   -45405   -65317   -76084   -69110   -52697   -40512 
  -31560   -19079   -15310   -29663   -48096   -57137   -54814   -45929 
  -40254   -39031   -33968   -25670   -21924   -23963   -30427   -36224 
  -28906    -8417     6795     6320     2357     5190     3418    -6910 
   -6550    12282    32402    38994    32306    15901     1329     3407 
   12869    15951    16086    14461    12294     7712    -4128    -7067 
    5863    15084    18387    21018    10794    -8526   -20336   -29309 
  -36043   -27425   -15327   -14314   -11761    -6527   -13306   -29091 
  -38911   -36482   -31217   -34879   -43386   -44861   -37326   -25933 
  -12614    -7314   -20124   -31148   -24393   -16845   -14281    -8257 
   -3780    -1479     5900    12016     7767     2880     6416     9111 
    7558     7920     9602    14044    25168    33647    28467    20748 
   20861    19074    17258    21764    19178     7555     3033     4847 
     935    -5813    -8644    -8340    -5999    -3950    -1194     2008 
   -5263   -20196   -22936   -14389   -10762    -9552    -2338     3850 
    4140     4777     4918     1626     2161     7638    14501    24093 
   26134    12707    -1039    -4981    -4557    -4140    -9256   -19889 
  -22114   -11729    -6789   -16089   -25199   -26434   -22936   -14786 
   -5859      835     6389     7808     1135   -10760   -15624    -6979 
    7103    22611    40537    48736    36818    19608    13802    15746 
   21926    35037    46525    43229    28081    13786     2327    -7213 
   -7195     1687     6764     4939     4255     3550    -4553   -11647 
   -5490     4256     3484    -1902    -3168    -2798    -1776      118 
    -275    -2249     -834     5428    10156     8519     5834     6731 
    7789     9580    14562    11321    -6420   -21702   -22072   -12182 
    -922    -2134   -16025   -19350   -10208   -11789   -21718   -21424 
  -11138     1084     4282   -10066   -24710   -22339   -14318    -9741 
   -5054    -4803   -11111   -12326    -3740     2721     -378    -5661 
   -4490     3352    11353    11605     3634    -2616    -2523    -4792 
  -12155   -13694    -3485     8662     9308    -1182   -12442   -20127 
  -24405   -25377   -28443   -38400   -49018   -52335   -50251   -44882 
  -32138   -14369    -3681    -5980   -14932   -23573   -26771   -20984 
  -14148   -17231   -23576   -21204   -17265   -17599    -9987     1883 
    -164   -10444   -14170   -13261   -12098   -10566   -10397    -8714 
   -1452     3817     1102    -2010      363     4012     -156   -12737 
  -18338    -8197     5784     9049     2126     -685     7931    18760 
   24244    25714    25309    27615    34776    39943    39114    35610 
   31158    24887    18538    13798     5769    -5331    -9702    -9366 
  -11863   -11241    -7302    -9949   -15356   -16359   -17432   -19608 
  -19955   -20822   -23753   -26732   -28414   -28510   -24486   -18507 
  -20371   -28332   -31035   -27547   -23329   -22100   -22769   -19562 
  -12499    -8622   -11928   -17041   -16345   -13479   -14071   -11963 
   -4301     -340    -4275   -11796   -20227   -23815   -20209   -22188 
  -32249   -33685   -23521   -15977   -17545   -21528   -22175   -21211 
  -18409   -11934    -6131    -7005   -12985   -14943   -11572   -11674 
  -14995   -16803   -18949   -19869   -19323   -21960   -23461   -15815 
    -414    11815    11203     3137     -810      557     2245     2060 
    1961     5159    11450    17127    20117    19229    11400     -537 
   -9798   -17757   -24116   -20817   -12910   -15703   -27441   -33868 
  -30520   -24502   -24020   -29142   -32741   -31884   -30126   -29704 
  -29619   -28108   -24896   -21207   -18133   -17581   -18334   -16639 
  -15766   -18077   -17149   -12164    -8114    -2474     5648     8274 
    5886     6961     9486     7701     2416    -5629   -16259   -25313 
