Origin Time       2016/04/16 01:25:00
Lat.              32.753
Long.             130.762
Depth. (km)       12
Mag.              7.3
Station Code      OIT011
Station Lat.      33.2461
Station Long.     131.8811
Station Height(m) 7
Record Time       2016/04/16 01:25:27
Sampling Freq(Hz) 100Hz
Duration Time(s)  127
Dir.              N-S
Scale Factor      7845(gal)/8223790
Max. Acc. (gal)   48.923
Last Correction   2016/04/16 01:25:27
Memo.             
[...]
  -26307   -28582   -31338   -34511   -37389   -39357   -40338   -40421 
  -40072   -39984   -40149   -40008   -39249   -37917   -36329   -34866 
  -33693   -32731   -31687   -30518   -29907   -30531   -32022   -33340 
  -33879   -33810   -33600   -33624   -34032   -34501   -34592   -34646 
  -35380   -36794   -38435   -39814   -40297   -39726   -38545   -36957 
  -35162   -33867   -33570   -34074   -34697   -34684   -33804   -32341 
  -30562   -28780   -27369   -26526   -26601   -28070   -30959   -34711 
  -38502   -41608   -43170   -42323   -39442   -35834   -32039   -28052 
  -24348   -21649   -20514   -20976   -22333   -23980   -26138   -29161 
  -32664   -35824   -38267   -40230   -41817   -42866   -43286   -42696 
  -40845   -38522   -36713   -35711   -35671   -36629   -37975   -38994 
  -39627   -39852   -39066   -36985   -34387   -32384   -31356   -30565 
  -29150   -27480   -26695   -27006   -27457   -27421   -27322   -27897 
  -29627   -32347   -35255   -37937   -40246   -41489   -41153   -39219 
  -35550   -30815   -27087   -25477   -24833   -24173   -23726   -23739 
  -24541   -26281   -28359   -30161   -31704   -33854   -37397   -41616 
  -45172   -47308   -47677   -46585   -44790   -42330   -38961   -35235 
  -31669   -28321   -25681   -24339   -23890   -23498   -22937   -22123 
  -20962   -20220   -20750   -22222   -23776   -24927   -25843   -27259 
  -29768   -32979   -35703   -37353   -38503   -39834   -41758   -44773 
  -48878   -52953   -55324   -55058   -52725   -49635   -46866   -44875 
  -43002   -40167   -36447   -32664   -29451   -27480   -26817   -26287 
  -24845   -22782   -21255   -20953   -21332   -21610   -21857   -22607 
  -24277   -27054   -30588   -34202   -37712   -41075   -43441   -44437 
  -45424   -47507   -50017   -52018   -53397   -54171   -54157   -53319 
  -51448   -47791   -41948   -34952   -28711   -24273   -21288   -19008 
  -17018   -15309   -14084   -13389   -13185   -13909   -15888   -18519 
  -20846   -22429   -23566   -25118   -27631   -30670   -33575   -36223 
  -38457   -39992   -41284   -43062   -44928   -45983   -45927   -44743 
  -43143   -42488   -42880   -43166   -42750   -41700   -39946   -37578 
  -34866   -31943   -29373   -27689   -26628   -26208   -26889   -28312 
  -29660   -30600   -31217   -31658   -32027   -32497   -33189   -34053 
  -34929   -35564   -35775   -35753   -36104   -37184   -38519   -39376 
  -39379   -38410   -36649   -34308   -31271   -27745   -24379   -21783 
  -20742   -21612   -23737   -26304   -28811   -31093   -33681   -37172 
  -41099   -44275   -45732   -44967   -42491   -40374   -40591   -42819 
  -45234   -46689   -47151   -47054   -46658   -45906   -44790   -43336 
  -41770   -40482   -39033   -36656   -33571   -30271   -26820   -23413 
  -20468   -18123   -16236   -15088   -15191   -16202   -17435   -18937 
  -21146   -24356   -28667   -33543   -37768   -40315   -41149   -41219 
  -41829   -43588   -45748   -46998   -46935   -46098   -44680   -42063 
  -37972   -33702   -31055   -30069   -29322   -28178   -26898   -25505 
  -24430   -24703   -26396   -28278   -29184   -29107   -28732   -28231 
  -27557   -27108   -27066   -27213   -27214   -26608   -25736   -25600 
  -26075   -26374   -26700   -27627   -28742   -29450   -30411   -32398 
  -34803   -36906   -39024   -41917   -45902   -50099   -52747   -52926 
  -51555   -50518   -50950   -51977   -51678   -49465   -46053   -42034 
  -38070   -35002   -32952   -31145   -29134   -27572   -27066   -27283 
  -27461   -26365   -22982   -18324   -14551   -12542   -12032   -13032 
  -15768   -19796   -24443   -29600   -34962   -39652   -43432   -47032 
  -50893   -54346   -56295   -56354   -55151   -53651   -52153   -49989 
  -46712   -42854   -39071   -35471   -31888   -28432   -25579   -23349 
  -21130   -18905   -17336   -16524   -16150   -16345   -17567   -20251 
  -24344   -28933   -33180   -37189   -41292   -45377   -49377   -53238 
  -56066   -56754   -55490   -53427   -51278   -49027   -46546   -43947 
  -41187   -37681   -33124   -28262   -23965   -20545   -18241   -17130 
  -16794   -16731   -16809   -17340   -18657   -20559   -22558   -24420 
  -26170   -28065   -30495   -33517   -36840   -40065   -42809   -44950 
  -46535   -47479   -47889   -48269   -48876   -49265   -48718   -47089 
  -44757   -42028   -39640   -38534   -38064   -36809   -34569   -31695 
  -28524   -25834   -24088   -23008   -22302   -21941   -22094   -22923 
  -24216   -25552   -26580   -26995   -27081   -27984   -30364   -33470 
  -36452   -39189   -41463   -43094   -44521   -46056   -47317   -47687 
  -46565   -43858   -40564   -37791   -35461   -32819   -29470   -25736 
  -22874   -22134   -23253   -25182   -27240   -28676   -29128   -29039 
  -28534   -27611   -27202   -28367   -30933   -34001   -37278   -40768 
  -43854   -46178   -48127   -49177   -48009   -44942   -41882   -40200 
  -39787   -39131   -36933   -34025   -31765   -29650   -26606   -23067 
  -20375   -19349   -19896   -21442   -23265   -24823   -26147   -27718 
  -29986   -33077   -36610   -39672   -41477   -42298   -43027   -43978 
  -44982   -46056   -47135   -47784   -47515   -46032   -43648   -41206 
  -39024   -36659   -33646   -30314   -27653   -25901   -24459   -23134 
  -22075   -21447   -21722   -23129   -25011   -26736   -28617   -30869 
  -33018   -35175   -38047   -41526   -44740   -46810   -47017   -45526 
  -43876   -43393   -43675   -43740   -43286   -41855   -38718   -34627 
  -31784   -31044   -30892   -29959   -28648   -27556   -26391   -25229 
  -24984   -25972   -27562   -29085   -30252   -31197   -32216   -33282 
  -34115   -34479   -34357   -33969   -33328   -32247   -31050   -30411 
  -30666   -31677   -33045   -34560   -36292   -38106   -39653   -40764 
  -41514   -42153   -42865   -43302   -42734   -41218   -39667   -38132 
  -35910   -33336   -31120   -29114   -27318   -26150   -25401   -24475 
  -23298   -22488   -22627   -23309   -23716   -23966   -24700   -25994 
  -27570   -29479   -31610   -33411   -34676   -35592   -36585   -38253 
  -40093   -40581   -39424   -38007   -37615   -38140   -38507   -38175 
  -37578   -36871   -35737   -34523   -33853   -33624   -33331   -32784 
  -32246   -31765   -30863   -29475   -28054   -26744   -25918   -26271 
  -27500   -28522   -29088   -30055   -31980   -34129   -35365   -35617 
  -35734   -36248   -37029   -37686   -37848   -37419   -36362   -34723 
  -33327   -33274   -34479   -35410   -34773   -33201   -32278   -32408 
  -32663   -32170   -31040   -29749   -28408   -27415   -27508   -28466 
  -29425   -30370   -31818   -33681   -35390   -36467   -36637   -36088 
  -35745   -36282   -37336   -38299   -38952   -39118   -38593   -37423 
  -35824   -34214   -32975   -31830   -30456   -29297   -28577   -27702 
  -26284   -24591   -23174   -22516   -22743   -23666   -25034   -26636 
  -28237   -29559   -30719   -32080   -33322   -33678   -33069   -32186 
  -31800   -32240   -33388   -35118   -37231   -39185   -40404   -40728 
  -40332   -39468   -38558   -37999   -37781   -37694   -37370   -36136 
  -34022   -32324   -32017   -32582   -33103   -33355   -33330   -32834 
  -31833   -30581   -29495   -28873   -28725   -28952   -29222   -29151 
  -29178   -29970   -31314   -32510   -32926   -32574   -32381   -32890 
  -33548   -33764   -33778   -34150   -34836   -35584   -36543   -37692 
  -38581   -38831   -38449   -37805   -37241   -36684   -35664   -33741 
  -31267   -29092   -27561   -26654   -26457   -26867   -27387   -27722 
  -28367   -29666   -30879   -31256   -31086   -31287   -32410   -33936 
  -35109   -36294   -38263   -40595   -42299   -43474   -44763   -45810 
  -45841   -44798   -43016   -40783   -38234   -35378   -32413   -29713 
  -27622   -26377   -25834   -25555   -25180   -24517   -23835   -23861 
  -24803   -26226   -27988   -30079   -32246   -34398   -36653   -39017 
  -41184   -42687   -43266   -43069   -42800   -43158   -43818   -43815 
  -42587   -40271   -37511   -34858   -32547   -30689   -29050   -27456 
  -26424   -26235   -26325   -26408   -26770   -27488   -28648   -30465 
  -32649   -34574   -35900   -36653   -37061   -37297   -37474   -37756 
  -38178   -38596   -38871   -39052   -39271   -39407   -39114   -38169 
  -36888   -35970   -35642   -35656   -35937   -36305   -36470   -36802 
  -37825   -39109   -39780   -39629   -38917   -37889   -37142   -37316 
  -38009   -38084   -36976   -35037   -32962   -31212   -29732   -28206 
  -26550   -24879   -23373   -22262   -21683   -21789   -22647   -24032 
  -26030   -28998   -32463   -35603   -38383   -41073   -43796   -46807 
  -50106   -53034   -54656   -54414   -52463   -49531   -46398   -43190 
  -39383   -35109   -31687   -29844   -28663   -27225   -25686   -24304 
  -22967   -21837   -21073   -20725   -21458   -23681   -26495   -29089 
  -31687   -34435   -36860   -38507   -39349   -39833   -40586   -41611 
  -42292   -42409   -42253   -41858   -40741   -38530   -35837   -33821 
  -32722   -31800   -30659   -29812   -29805   -30522   -31761   -33451 
  -35059   -35845   -35692   -35077   -34523   -34318   -34426   -34581 
  -34682   -34820   -34742   -33943   -32564   -31328   -30543   -30060 
  -29668   -29045   -28190   -27764   -28246   -29454   -31077   -33111 
  -35602   -38043   -39715   -40516   -40645   -40281   -39768   -39282 
  -38782   -38198   -37324   -36292   -35754   -36136   -37218   -38322 
  -38711   -38088   -36838   -35496   -34117   -32695   -31546   -30851 
  -30495   -30246   -29905   -29670   -29809   -30221   -30892   -31859 
  -32806   -33471   -34149   -35322   -36877   -38178   -38809   -38641 
  -37759   -36778   -36259   -35954   -35276   -33917   -31859   -29650 
  -28151   -27659   -28102   -29268   -30515   -31469   -32351   -33156 
  -33586   -33685   -34091   -35441   -37365   -38853   -39678   -40522 
  -41615   -42210   -41663   -40041   -37833   -35661   -33722   -31887 
  -30422   -29497   -28437   -26721   -25197   -24856   -25252   -25510 
  -25598   -25964   -26838   -28039   -29401   -31062   -32995   -34707 
  -35878   -36969   -38645   -40969   -43243   -44343   -43698   -41669 
  -38767   -35421   -32498   -30746   -29759   -28744   -27781   -27410 
  -27636   -27908   -27768   -27314   -26771   -26050   -25033   -23970 
  -23562   -24437   -26254   -27954   -29231   -30465   -31321   -31453 
  -31622   -32337   -33088   -33632   -34017   -33870   -33232   -32552 
  -31475   -29614   -27908   -27270   -27133   -26747   -26401   -26573 
  -27275   -28453   -29905   -31002   -31429   -31733   -32266   -32626 
  -32688   -32871   -33208   -33286   -32983   -32466   -31696   -30597 
  -29505   -29054   -29563   -30628   -31376   -31244   -30526   -29926 
  -29604   -29153   -28394   -27595   -27018   -26867   -27177   -27531 
  -27761   -28347   -29367   -30190   -30372   -30060   -29558   -29100 
  -29145   -29938   -30738   -30804   -30578   -30716   -31280   -32127 
  -32728   -32589   -32208   -32113   -31742   -30584   -29127   -27940 
  -27180   -27094   -27675   -28179   -28128   -27981   -28382   -29479 
  -30867   -31869   -32247   -32371   -32624   -33336   -34781   -36763 
  -39005   -41420   -43830   -46351   -49256   -51921   -53370   -53585 
  -53057   -52119   -51256   -50657   -49743   -48046   -45648   -42803 
  -40030   -37732   -35654   -33689   -32189   -31004   -29547   -27734 
  -25863   -24058   -22388   -21115   -20565   -20854   -21659   -22728 
  -24316   -26493   -28791   -30955   -33315   -36264   -39703   -42832 
  -44624   -44655   -43367   -41777   -40849   -40450   -39213   -36184 
  -31834   -27195   -23207   -20588   -19035   -17558   -15962   -14893 
  -14937   -16390   -19365   -23647   -28572   -33696   -39271   -45466 
  -51714   -56982   -60508   -62204   -62117   -60115   -56415   -51363 
  -44861   -37088   -29097   -22114   -17044   -14142   -12576   -11181 
   -9481    -7684    -6219    -5671    -6805    -9886   -14202   -18777 
  -23058   -27206   -32192   -38932   -47025   -54949   -61352   -65632 
  -67845   -68565   -68527   -68161   -66926   -63652   -58360   -52196 
  -45661   -38792   -31714   -24271   -16540    -9061    -2181     3850 
    8509    11232    11514     8955     3898    -2809   -10894   -20351 
  -30638   -40767   -49474   -55632   -58980   -60011   -59278   -57076 
  -53437   -48471   -42736   -36960   -31712   -27288   -23514   -19986 
  -16667   -13971   -12233   -11472   -11587   -12494   -14384   -17686 
  -22353   -27518   -32171   -35903   -38689   -40625   -41956   -42595 
  -42188   -40933   -39507   -38379   -37474   -36643   -36167   -36054 
  -35618   -34703   -34094   -34469   -35828   -37570   -38614   -38106 
  -36241   -34106   -32505   -31428   -30960   -31549   -33416   -36853 
  -42059   -47981   -53064   -56975   -60022   -62204   -63810   -64835 
  -63749   -58437   -47915   -33528   -19198    -8133      139     6577 
   10030    10052     7384     1975    -5935   -14647   -22229   -28231 
  -33722   -39145   -43632   -46737   -49145   -51861   -55490   -59890 
  -64241   -67512   -69070   -69097   -68199   -66904   -65341   -62880 
  -58853   -53168   -45517   -35795   -25425   -16684   -11074    -8556 
   -7879    -7889    -8281    -9468   -11826   -14688   -17024   -18625 
  -19652   -20394   -21736   -24813   -29991   -36018   -40814   -43343 
  -44019   -43757   -42643   -39437   -33470   -26180   -19349   -13489 
   -8830    -5973    -4904    -4673    -4132    -2763    -1359    -1599 
   -4719   -10990   -19777   -30001   -40594   -50033   -57106   -62560 
  -67886   -73109   -77310   -80106   -81913   -83284   -84393   -85178 
  -84990   -82690   -77922   -71167   -63127   -54969   -47673   -41119 
  -35002   -29597   -25051   -21224   -18295   -16533   -16035   -17136 
  -20042   -24070   -28233   -32135   -35919   -39657   -43097   -45863 
  -47470   -47544   -46489   -45272   -44496   -44207   -44115   -43929 
  -44001   -44991   -46241   -46016   -43530   -39210   -33806   -28410 
  -23878   -20146   -17003   -14854   -14169   -14886   -16444   -18013 
  -19205   -20499   -22318   -24564   -26956   -28760   -29423   -30013 
  -32384   -37157   -43357   -49252   -53441   -55671   -56608   -57283 
  -58567   -60195   -60793   -59216   -55040   -48714   -42018   -36703 
  -32825   -29512   -26086   -22405   -19273   -17599   -17371   -18488 
  -21020   -23974   -25794   -26138   -25591   -24595   -23502   -22399 
  -20965   -19356   -18771   -20911   -26244   -33124   -39577   -44701 
  -48257   -50660   -52982   -56164   -60190   -63614   -64552   -62556 
  -58914   -55267   -52130   -48566   -43437   -36734   -29462   -22951 
  -18268   -15238   -12533    -9602    -7207    -6126    -6711    -8733 
  -11163   -12970   -13714   -13680   -13772   -14965   -17921   -22638 
  -28448   -34566   -40154   -44506   -47834   -50841   -53655   -56145 
  -58407   -60459   -61920   -62186   -61091   -59184   -57106   -54814 
  -51727   -47744   -43340   -38778   -34083   -29520   -25613   -22495 
  -19615   -16536   -13441   -10648    -7967    -4999    -2177     -764 
   -1802    -5400   -10328   -14976   -19560   -25606   -33057   -40467 
  -47139   -52378   -54923   -55279   -55584   -56805   -58450   -59333 
  -57901   -53842   -48556   -43482   -38867   -34172   -29662   -26690 
  -26119   -27649   -30180   -32556   -34589   -37022   -40142   -42808 
  -43896   -44043   -44483   -45380   -46209   -46703   -47225   -48416 
  -50371   -52415   -53674   -54098   -54122   -52986   -49808   -45604 
  -41607   -37991   -34713   -30886   -25272   -18291   -11187    -4492 
    1005     3721     2409    -3354   -12991   -24221   -33974   -41083 
  -47089   -53457   -59512   -63891   -66135   -66768   -66584   -65516 
  -63246   -60531   -58248   -56227   -53586   -49386   -43492   -37114 
  -31673   -27661   -25222   -24769   -26397   -29535   -33471   -37559 
  -40680   -41924   -42059   -42473   -43468   -45278   -48180   -51278 
  -53582   -55057   -56000   -56593   -56578   -55232   -51891   -46395 
  -39210   -31540   -24922   -20075   -17015   -15444   -14227   -13072 
  -13586   -17067   -23168   -30102   -35828   -39775   -42279   -43680 
  -44543   -44903   -44093   -41948   -39106   -36886   -36385   -36539 
  -35607   -34345   -34071   -33581   -31140   -26993   -22173   -17655 
  -14709   -13606   -13228   -12977   -13352   -15165   -18454   -21774 
  -24162   -26703   -30043   -33038   -34989   -36270   -37511   -40151 
  -45191   -51177   -55848   -58122   -57946   -56151   -54661   -54877 
  -55436   -54461   -51945   -47812   -43054   -40294   -39110   -37214 
  -34778   -32206   -29070   -26304   -24823   -24196   -24183   -24702 
  -25667   -27826   -30528   -31552   -31534   -32836   -34817   -35656 
  -35378   -33767   -30501   -28200   -28347   -27792   -26131   -26678 
  -28043   -27383   -26867   -28883   -33204   -38705   -42549   -42001 
  -38446   -36440   -38341   -41837   -43768   -43573   -41736   -39236 
  -38373   -39660   -40765   -39710   -35405   -28717   -23615   -22424 
  -23422   -24239   -23711   -23031   -24960   -29236   -33107   -36504 
  -40875   -45088   -47137   -46299   -42639   -38873   -39266   -42747 
  -43575   -40257   -36045   -32671   -30689   -30979   -32186   -32209 
  -31594   -31610   -31797   -31560   -32039   -34890   -39903   -44887 
  -47510   -46303   -42230   -39636   -40864   -42260   -40057   -35833 
  -33350   -33322   -33875   -33802   -33122   -32587   -32104   -30100 
  -26665   -23588   -21983   -21983   -22241   -21749   -20606   -17489 
  -13356   -12881   -16461   -20146   -22900   -25614   -27986   -30918 
  -35583   -39934   -42484   -45416   -49482   -52450   -54120   -56444 
  -59066   -59744   -58016   -54796   -50013   -43204   -35263   -28488 
  -24332   -21365   -17768   -13778    -9787    -6180    -4271    -3611 
   -2351    -1495    -3078    -6184    -9634   -14404   -20834   -27340 
  -33313   -39498   -44667   -47590   -50060   -52481   -52706   -50645 
  -47858   -45385   -44363   -44691   -43906   -41284   -39089   -37261 
  -34077   -30118   -25817   -21417   -19021   -18906   -18195   -15963 
  -14632   -15472   -18019   -21427   -23207   -22343   -21409   -21829 
  -23033   -25208   -28115   -31041   -34896   -40057   -45230   -50964 
  -57585   -62028   -63541   -64706   -64540   -60166   -52869   -44949 
  -36504   -29188   -24591   -20228   -14841   -10628    -8004    -6307 
   -5831    -5873    -6382    -8899   -12654   -15303   -17064   -19205 
  -21865   -25920   -31981   -37795   -41386   -43316   -43916   -43563 
  -43302   -42890   -42074   -41490   -40767   -39147   -36717   -33122 
  -27558   -21141   -16378   -13626   -11693   -10686   -10220    -8497 
   -6145    -5984    -8245   -10752   -12749   -15202   -18692   -22755 
  -26568   -29528   -31982   -34897   -38217   -40976   -42110   -41389 
  -40513   -40300   -39110   -36551   -34089   -32559   -31935   -31792 
  -31965   -32683   -33724   -34646   -35046   -34499   -33268   -32375 
  -31950   -30177   -26423   -23292   -22492   -22705   -22646   -22576 
  -23026   -23781   -25105   -27700   -30399   -32150   -33937   -35276 
  -35060   -35333   -37539   -39870   -41418   -43063   -44990   -46764 
  -48301   -49311   -49036   -47318   -44699   -41878   -39204   -35802 
  -31438   -28029   -26372   -25166   -23862   -22620   -21871   -22586 
  -23822   -22898   -19824   -17784   -18686   -21925   -26823   -32281 
