Origin Time       2016/04/16 01:25:00
Lat.              32.753
Long.             130.762
Depth. (km)       12
Mag.              7.3
Station Code      OIT006
Station Lat.      33.4244
Station Long.     131.3148
Station Height(m) 88
Record Time       2016/04/16 01:25:23
Sampling Freq(Hz) 100Hz
Duration Time(s)  190
Dir.              N-S
Scale Factor      7845(gal)/8223790
Max. Acc. (gal)   172.533
Last Correction   2016/04/16 01:25:23
Memo.             
[...]
  -12067   -15606   -14962   -10731    -5818    -6978   -14913   -21482 
  -21676   -17228   -11803    -9518   -10824   -11867   -11122    -8313 
   -3422    -2154    -8453   -16266   -19627   -17902   -12683    -9876 
  -12263   -13934   -12603   -11403   -11084   -12396   -14619   -14401 
  -12590   -11655   -10413    -8391    -8073    -9736    -8808    -4781 
   -5458   -11688   -15321   -15450   -13701    -8688    -6085    -9490 
  -12735   -14353   -17200   -18076   -13721    -7898    -6400    -9439 
  -12218   -10444    -3620     1769    -1594    -9324   -12993   -12923 
  -11460    -9603   -10393   -12001    -8945    -5111    -8340   -15477 
  -18627   -16062   -10335    -6898    -9984   -14625   -13150    -6928 
   -2338    -3194   -10651   -20002   -21424   -13767    -6878    -5194 
   -6292   -10881   -15519   -11720    -3454    -3237   -10613   -15820 
  -16954   -16826   -15057   -12954   -13182   -14386   -16237   -20294 
  -22759   -19955   -14735   -11381   -13819   -22233   -28136   -24343 
  -16089   -12808   -14311   -15064   -14790   -14710   -13892   -12997 
  -12671   -12105   -12328   -14580   -16563   -16017   -14829   -14380 
  -13139   -11792   -11249   -10092   -10103   -12363   -11900    -7560 
   -5494    -7931   -10658   -12206   -15094   -18758   -19438   -14593 
   -6804    -5277   -14319   -23955   -22921   -12105     -940     1939 
   -4260   -13003   -18065   -16514    -8652    -2745    -7338   -14503 
  -12429    -6797    -6750    -9636   -11541   -11429    -7113     -719 
     889    -2474    -3846    -3064    -6161   -13142   -20606   -25705 
  -24155   -17905   -15619   -18403   -18958   -14769   -10322    -9850 
  -13605   -17443   -18108   -17799   -18009   -17639   -18396   -20511 
  -20433   -19515   -20403   -18152   -12258   -11222   -14297   -13043 
   -8166    -4828    -4043    -6173   -10382   -13012   -12904   -12873 
  -13914   -13844   -12756   -13485   -15059   -12082    -3943     1320 
   -1431    -6241    -5787    -1452      -63    -4105    -8652   -10199 
  -10470   -10354   -11005   -14393   -16223   -11121    -3920    -3458 
   -9763   -15488   -16817   -16403   -15371   -12815   -12289   -15268 
  -17172   -17343   -17722   -17111   -17872   -23202   -26755   -22042 
  -14809   -13068   -15981   -18209   -15271    -6616      448    -2062 
   -9548   -11121    -6474    -3368    -4355    -6480    -8860   -11039 
   -9161    -3817    -2411    -7226   -13585   -18304   -18598   -11742 
   -3774    -3928    -9462   -11955    -9121    -2357     2863     1780 
     492     4989    11645    16998    18854    15014    10436     9252 
    6069     -469    -4729    -8646   -14825   -16335   -12858   -12833 
  -14647   -12002    -7464    -3466     2121     6417     5431     3011 
    3180     3628     2280      383    -1300    -3121    -4133    -3175 
   -2031    -3005    -5169    -6729    -6895    -5263    -1136     5834 
    9996     4360    -5202    -9003    -7550    -2455     4055     3589 
   -5589   -15886   -22428   -24626   -23400   -20032   -14770   -10496 
  -11352   -14049   -13570   -13811   -17463   -18585   -14920    -7916 
    3983    14666    15664    14195    17975    19190    12395     3311 
   -4480   -11453   -17257   -23311   -28970   -25975    -8880    12839 
   22474    15367     4088     1385     6540    11067     7076    -5093 
  -14526   -16008   -15531   -15873   -17693   -23066   -27008   -22505 
   -9931     5356    15354    14361     7842     6280     8447     3404 
  -10381   -23745   -34379   -45914   -55988   -64608   -75612   -84011 
  -84916   -80619   -70405   -54223   -39632   -33270   -29971   -18798 
   -1695    10296    14249    13109    13576    24219    37578    35719 
   21525    15076    21135    26536    21095     4197   -17324   -32919 
  -38010   -35914   -30770   -26576   -27118   -28602   -23955   -15109 
   -5807     1281    -1502   -10227    -9892      869    15742    29289 
   29678    13918    -2867    -6985     2238    14430    16975    10092 
    5005     6214     7446     3969    -2111    -8186   -12388   -12340 
  -10449   -13796   -25286   -40128   -52502   -61803   -68375   -68922 
  -61854   -48787   -31387   -16160   -13113   -22050   -31777   -35043 
  -32460   -25640   -18002   -15399   -18904   -24097   -29224   -37453 
  -49974   -61946   -67024   -63277   -52253   -34628   -15589    -5919 
   -4757      907    14600    29173    39644    42898    39020    37360 
   46009    60081    71200    75568    69775    54895    39754    29544 
   22557    16314     6016    -9211   -17744   -11091     2508    10656 
    9682     5765     8460    18029    22600    11003   -14809   -42136 
  -58612   -58094   -45777   -35232   -30227   -24634   -18117   -13560 
  -13713   -22781   -34898   -33754   -14501     5871     7561    -8239 
  -23483   -26298   -19460   -10996    -4722    -1148    -2959    -8914 
   -9108     -544     6906     7597     3935    -4106   -14740   -21203 
  -24939   -32397   -39162   -38655   -34759   -32648   -30769   -26215 
  -21280   -21950   -26526   -24186   -14504    -9641   -13508   -20834 
  -24579   -14879     7611    24548    23156    13586    10611    11934 
   11160    14585    25921    34181    30109    18550     9325     7717 
   14640    24279    24518    12641      824    -3321    -5779   -11321 
  -16433   -20005   -25601   -30379   -28039   -23492   -25960   -31968 
  -34014   -33714   -35012   -40436   -51831   -62851   -61592   -47602 
  -33993   -29038   -29887   -30820   -25295   -13486    -7666   -14076 
  -21679   -18295    -5579     6278    10777     7501     2944     8413 
   20592    21532    10891     4591     5115     6918     9807    10164 
    4727    -2154    -8337   -13737   -15974   -17890   -24325   -33431 
  -39582   -37783   -29234   -24792   -32104   -42307   -43313   -37388 
  -32185   -30072   -30763   -31473   -30454   -29795   -28629   -24823 
  -22079   -22821   -22358   -18886   -14970    -8430      765     5206 
    2844    -1085    -4407    -9013   -15094   -21139   -29581   -40205 
  -44452   -41666   -40058   -39895   -39434   -39758   -35286   -23552 
  -13408    -9431    -8401   -10057   -14156   -14391    -6385     3026 
    5844     5055     4916     5424     8721    13751    15053    11253 
    3103    -9236   -22954   -32698   -33150   -24830   -17705   -18858 
  -20881   -14674    -3445     3982     3335    -2120    -6034    -6723 
   -6384    -7827   -13471   -21936   -30921   -40478   -46847   -44748 
  -37119   -31693   -33336   -41037   -46286   -41712   -30852   -22427 
  -19832   -17917    -8824     7357    20023    18544     3484   -15318 
  -27577   -28251   -21527   -16043   -13598   -12062   -13986   -19456 
  -21501   -18713   -16721   -14546    -8110    -1831     -324      257 
    2527     5452    12479    23225    27128    20240    11323     5948 
    2269     1202     3465     1722    -6574   -11105    -7114    -1246 
    3776     8182     6824     -225    -2608     1904     2147    -7283 
  -21894   -37517   -48621   -49499   -43278   -38626   -40331   -46344 
  -49643   -44231   -30786   -16276    -9142   -11461   -15804   -14334 
   -6478     2473     4594    -3034   -13189   -16237    -9625      205 
    3824    -1300    -9688   -16852   -22549   -25894   -26418   -26854 
  -26838   -21468   -10778     -896     3962     3327       86     -303 
    1755      -83    -6033   -12128   -19300   -28761   -39167   -49584 
  -55617   -51603   -39973   -27972   -19345   -15574   -18021   -23905 
  -25591   -19693   -10077      284     8830    11439     9919     9562 
    9921     7862     4635     3496     3534     1522    -3673   -11811 
  -19708   -22360   -20865   -21043   -25317   -31348   -34179   -30870 
  -24281   -18553   -15507   -16626   -19992   -19701   -14979   -11696 
  -14046   -20131   -24462   -24902   -24354   -25093   -26815   -27332 
  -24279   -19531   -16505   -13389    -7555    -2841    -3632    -8569 
  -15191   -19757   -17250   -11376   -10293   -13833   -18084   -20163 
  -16297    -7723    -1235      837      622    -2794    -9726   -15815 
  -19211   -22257   -26870   -33302   -36593   -30835   -21432   -17209 
  -17131   -19853   -26002   -27511   -20074   -13188   -12124   -12283 
  -10679    -6847    -2725    -3786   -10908   -16926   -16780   -14959 
  -17470   -22754   -26944   -29234   -28011   -22107   -16106   -15630 
  -19541   -23445   -25986   -25868   -21498   -17275   -18567   -22168 
  -24219   -27382   -29384   -22627    -9938    -2126    -3959   -12626 
  -20491   -18751    -8972    -5027   -13498   -24683   -30063   -30310 
  -28247   -29429   -34723   -34117   -24719   -13836    -4922    -1036 
   -1825     -481      662    -2155    -2092      133    -3415   -10343 
  -14862   -16092   -14264   -11624   -12486   -16492   -17138   -12850 
   -9732    -9891   -12366   -16848   -18686   -16359   -14041   -10917 
   -4055     5686    14831    18480    16071    11747     8487     8916 
   12604    11286     1528    -6802    -8510    -7086    -1069     5873 
    5093     2798     5466     6675     5467     4428     -309    -7056 
   -8010    -3346     -432    -3615   -10755   -14655    -9722    -1007 
     558    -6771   -13944   -16931   -20964   -21568   -12891    -9867 
  -14827    -8517     1120    -1917    -4806    -3132   -10185   -21088 
  -20704   -14677   -17107   -21250   -23338   -34765   -42178   -34321 
  -32664   -39571   -41013   -37443   -27008   -14214    -9309    -9443 
  -13365   -21278   -22675   -11492     1822     3430    -6453   -18705 
  -24845   -16895    -1949     3003      139    -2091    -2201     5931 
   16852    16629     7827     -496    -1431     5551     9405     3402 
   -7111   -11539    -9837   -14728   -23930   -27880   -32736   -35854 
  -27095   -19695   -21959   -16546    -8743   -20717   -30740   -15579 
   -5945   -10991    -1139     6297   -11708   -23661   -19607   -22859 
  -26265   -19643   -18652   -24206   -20312   -13294   -16852   -19784 
  -13475   -10049   -13336   -14216    -8619    -2340    -4826   -12125 
  -12468    -8653    -5229     -253      101    -8950   -22740   -29327 
  -14349     9224    10787    -6711   -17127   -12951    -4989     1641 
   11470    14331     2312     3426    18886      953   -33588   -24817 
     513     -395     -382     9104    -3601   -27391   -21300     2440 
   14382    30932    37164     -724   -31413   -17725    -4093     6420 
   30987    25679   -15564   -32637   -18137    -6068      738     2007 
    9286    28055    16121   -10169     -585    20548    36271    41898 
   24981    14056     3377   -25894   -26206     -927    -7542   -21878 
  -23252   -45291   -51810   -13204     1417   -33147   -43702     -346 
   17162   -13968   -10941    -5784   -49453   -38472    11761    -9568 
  -27684    -2467   -24823   -51637   -11524    10408   -21196   -13063 
   21560    -9880   -45338   -19545   -22307   -36401    31866    64759 
  -25141   -78173   -29436    -8259   -25007     -240    27299     8746 
  -29181   -38195     1104    23908     6384     1219   -14430   -36096 
   -1314    25768   -13325   -35352   -21000   -17343     2899    16297 
  -18072   -34066   -30547   -43976   -12835    21612   -22920   -30495 
   15657   -27801   -61904     3978     1594   -48510    -5918    19039 
  -33058   -33570    20070    21034   -30813   -46473   -20715   -19678 
  -10276    25532    15768     -977    18399    -2316   -47179   -40786 
  -12434     1799     6469     -367    -7321   -15961   -39653   -48486 
  -23345    -4719    -8538     4105    17498   -21236   -46903    16078 
   65851    16052   -42691   -46287   -36732   -15537    33971    50191 
    8317   -14686   -17067   -55532   -64813   -10045    15348     3917 
   -7758   -34434   -31873    -2446    -5633     4814    23934   -18513 
  -47127    -8236    13914     9243    16584    -2018   -46739   -57847 
  -32211    -6199     -391   -13028   -13491    -8904   -39738   -45623 
   13146    20578   -28443   -18632    -7812   -49221   -36764     4218 
  -33704   -67672   -14330    30001     1942   -34261   -34820   -16842 
   -3507   -11493   -21016    -3723     7200     3336    20158    16704 
  -20964   -29355   -38622   -60123    -4463    69435    44057   -13146 
  -30061   -35642   -14624    35077    36153    -2110    12852    57954 
   58008    25258   -35212  -115155  -119754   -23461    73388   103605 
   57392   -35587   -79825   -15653    73507    46857   -74784  -134887 
 -118827  -108892  -103724  -103773   -91914    11065   147588   140899 
   -9784  -141042  -182696  -136676    13185   148473   114426    18239 
    9267    10508   -21327   -19188   -24376   -79682  -112945  -100997 
  -74740   -23357    41582    92697   133250   131803    60257   -37073 
 -119700  -162789  -132996   -45928    44610    76071    11375   -69597 
  -60007    -3248    28072    46390    21798   -41640   -46360    14813 
   89595   130713    84372    -4729   -78921  -163942  -190489   -63340 
   61372    42682    31828    85719    98813    98658    77940   -32246 
 -139423  -133033   -53387    -3211    -3559    -4379   -21057   -85351 
 -148076  -146925   -80281   -31282   -42765   -37520     -224    34902 
  104476   152408    71255   -40829   -46057    -8267    15556    77431 
  109381    11088  -116915  -145258   -92311   -22218    35326    54209 
   -1467   -93293  -104352   -20632    46743    75332   119846   119064 
   26982   -56354  -100719  -142210  -115523   -10206    34985   -28351 
  -67559   -17821    41110    51628   -11396  -108665  -107175    17223 
  143881   169515    93162    21277      999   -31051   -58919   -48805 
  -46645   -26839    40489    54892   -18229   -48940    21702    87669 
   91488    65403   -17161  -135757  -173985  -127894   -54103    48922 
  121409    97224    13711   -82217  -145993  -120353   -23279    55827 
   67286    38703    -6088   -44082   -28247      810   -23657   -44828 
  -18068    -1320   -11838   -17463   -16598    -1821    15646   -14501 
  -66441   -72520   -39370    23199    99380    91899   -23683  -117260 
  -98242    -4139    81398    89455    24599   -46410   -74834   -45932 
   14742    52548    50491    33158     8352   -35478   -82792  -102956 
  -89363   -50517    -8382    14932    30033    42455    26676   -14708 
  -39675   -30658   -11321    -5308   -12465   -11502    11851    31067 
   14732   -24991   -60737   -80072   -79224   -55925   -12444    26414 
   33272    19959     6488   -16109   -43861   -47228   -29155   -16879 
  -11178   -10996   -20298   -13629    15076    27418    13483    -3896 
  -15379   -26588   -40257   -35613    -2624    19893     6103   -10249 
   -7207   -22215   -60291   -62950   -36705   -37254   -32994     4248 
   12530   -12644   -14536    -3956    -7998   -16974   -24062   -24926 
  -21693   -22199   -13560     8851    10995   -21841   -52558   -48744 
  -15059    13679    12982     1470   -12179   -31491   -24268    15647 
   34338    12719    -3665     4923    19099    41864    58465    17699 
  -58995   -81170   -37041     3250    11052    -7072   -46353   -58518 
  -10559    44109    49761     5451   -50970   -63182   -26613    13248 
   36657    29450   -18226   -66440   -76357   -50128   -10263     8614 
   -5418   -23438   -18196     2994    15160    15072     3951   -29974 
  -54589   -21473    28755    23453   -15854   -37108   -46287   -47676 
  -25181     6798    13190    -8298   -17936    -3709      221   -15341 
  -31455   -42971   -41088   -14469    13311    13597    -4710   -21297 
  -26416   -19537    -8222     2582     4374   -11974   -33372   -36726 
  -14224    19535    35168    19657    -5825   -20831   -25961   -14993 
    7638    12534     4962    13576    25839    20927    13495    13297 
    1395   -21853   -31183   -20798     2015    20552     8532   -26939 
  -53769   -56833   -36933    -8519     3844    -8927   -32236   -48539 
  -46427   -24363    -6880   -15061   -34060   -44599   -40200   -25955 
  -15115    -8914    -9926   -21934   -28107   -23291   -19553   -12312 
   -2076    -1672    -9979   -22434   -27658   -11462     5674    -1742 
  -21315   -33413   -32142   -18044    -2910    -1154   -14403   -32188 
  -40342   -35700   -28104   -22195   -16421   -15664   -24044   -35737 
  -39842   -26665      230    18678    12680    -7146   -23704   -30395 
  -20807     1220    15051    12209    -1822   -23534   -41224   -39901 
  -22177    -5490    -4419   -15417   -19003    -8467     2470     6091 
    1642    -9563   -13258    -3643     4869     4294    -2323    -8770 
  -11327   -16337   -23571   -22168   -11691      118     8387     6547 
  -10543   -28524   -25463   -11715   -13757   -27093   -33563   -29261 
  -11179    11813    13387    -7352   -28486   -40294   -33976    -9864 
    9815    16922    14661      217   -15692   -18534    -7240     4800 
    1178    -5765     -496      546    -5481    -3207    -4585   -22005 
  -35826   -28898   -10701     4372    11884    10972     2267    -9194 
  -12575    -3423     4527     2042    -4087   -11383   -11272     8066 
   20547      943   -22630   -26106   -22848   -23961   -25666   -21459 
  -13717    -5107     8929    16605     3449   -12791   -10241     1576 
    2674    -4579    -3775      895    -5268   -11034    -5972    -5297 
   -6168     6332    13436     4063      610     4936     -830   -14593 
  -21752   -20593   -21656   -25587   -27076   -25235   -17508   -10131 
   -7756    -4376    -6080    -8955     3365    11246    -2627    -8841 
    7473    22551    22547    13829      823   -13055   -15223    -4190 
     410    -6635    -9309    -6201   -11472   -22449   -20837    -8496 
   -5570   -11543   -14068   -16868   -21509   -22059   -22693   -27076 
  -24757    -9225     2047    -8364   -30742   -43475   -36528   -20272 
   -8068    -2239    -8023   -21343   -22029   -14315   -18688   -25128 
  -20457   -22021   -37914   -47796   -37976   -18072    -2130     4327 
   -5760   -29382   -37446   -17486     2949     3250    -8863   -19136 
  -19966   -11360     1615     8437      957   -13370   -22061   -22951 
  -17467    -8019    -4129   -10787   -21891   -30496   -30167   -24629 
  -25879   -29124   -28058   -28206   -24321   -14998   -12122   -12236 
   -7952    -7562   -10779    -5830     3218     4765     2278     3472 
    5381      880    -6060    -3767     3010     1601    -1665    -1856 
   -8464   -13956    -5664     2668     3083     8197    12436     1737 
  -12420   -15724   -11034    -3528     -946    -8895   -16309   -13909 
   -7578    -6030   -15894   -29527   -29954   -21377   -14172    -5551 
   -2548   -13019   -25346   -27942   -18391    -5282    -6760   -20189 
  -27005   -26775   -25859   -20911   -12482   -10164   -16267   -20379 
  -19426   -20017   -19520   -12201    -3514      814     2616     2027 
   -1671    -6875   -11438    -8149     3928     9968     3859    -4298 
  -10514   -15060   -13366    -6926    -5119   -10944   -14287    -9822 
   -7198    -8739    -7344    -5964    -9921   -15124   -16883   -15504 
  -12451   -10827   -15246   -23988   -27714   -22839   -14272    -3122 
    5891      776   -14233   -23409   -23895   -18797    -9174    -5055 
  -17024   -31199   -26593   -12579    -6952    -6095    -6782   -12455 
  -18156   -16660    -6531     1927    -1011    -3562    -1271    -8602 
  -16031   -10242   -11350   -24440   -25374   -14727   -11529   -13944 
  -14845   -19872   -25431   -18495    -4457     1436    -2516   -10640 
