Origin Time       2016/04/16 01:25:00
Lat.              32.753
Long.             130.762
Depth. (km)       12
Mag.              7.3
Station Code      OIT009
Station Lat.      33.2569
Station Long.     131.3439
Station Height(m) 458
Record Time       2016/04/16 01:25:22
Sampling Freq(Hz) 100Hz
Duration Time(s)  300
Dir.              E-W
Scale Factor      7845(gal)/8223790
Max. Acc. (gal)   716.839
Last Correction   2016/04/16 01:25:22
Memo.             
[...]
    2155     5167     6917     8549    10967    13689    16081    18840 
   22381    25636    27693    29281    32031    36385    40608    43303 
   44659    44014    41553    39159    36433    32564    28402    24119 
   19619    14754     9499     5105     2434      841     -472    -1958 
   -3994    -6716    -9806   -12505   -14245   -15201   -15939   -16769 
  -17516   -17921   -18164   -18916   -20186   -20584   -19359   -17493 
  -15588   -13224   -10705    -8874    -7636    -6736    -6326    -6148 
   -5826    -5062    -3339     -479     2879     5563     6974     7530 
    7492     6862     5945     5020     4510     4839     5459     5510 
    5224     5085     4612     3165      704    -2366    -5009    -6008 
   -5377    -4379    -3981    -3912    -3353    -2135     -589     1085 
    2855     4645     5772     5652     5472     6670     8515     9676 
   10011     9718     8779     7014     4275      961    -2182    -4353 
   -4861    -3861    -2354    -1382    -1814    -3932    -6968    -9876 
  -12006   -13020   -12888   -11819   -10566   -10111   -10199   -10049 
   -9847    -9493    -8070    -5231    -1513     1795     3464     3643 
    3029     1640     -484    -2474    -3368    -3373    -3353    -3886 
   -5339    -7160    -7763    -6690    -5231    -4230    -3329    -2212 
    -823      652     1614     2232     3202     4063     4261     4253 
    4170     3761     3507     4378     6891    10785    15422    19977 
   23521    25775    27087    27417    26018    22542    18291    14960 
   12650    10667     9333     9432    10347    10686    10250     9729 
    9215     7527     3217    -3316   -10066   -15932   -21427   -26974 
  -32148   -36225   -38369   -38327   -37133   -36225   -36389   -37004 
  -37153   -37577   -38608   -39251   -39883   -41257   -42778   -42894 
  -39831   -33628   -26535   -20339   -14535    -8387    -2675     2608 
    8224    13981    19853    25901    31525    35854    38611    40694 
   42622    44593    47487    50622    52093    51320    47961    41862 
   34897    29326    25366    22304    19558    16237    11827     6465 
     294    -6417   -13082   -19257   -25003   -30497   -35641   -40014 
  -42495   -41725   -38836   -37243   -37247   -37095   -38171   -40371 
  -41011   -40954   -41513   -42214   -43335   -43498   -40160   -33755 
  -26998   -21429   -17027   -13879   -12190   -11530   -11130   -10528 
   -9289    -7404    -5748    -4612    -3456    -2371    -1752    -1173 
     -17     1593     3159     4407     5830     8638    13062    17729 
   21574    24480    25662    24090    20611    16779    13015     9896 
    8154     6905     5109     3365     2056      608     -886    -1900 
   -2265    -1890     -972     -216       41      -56     -873    -2828 
   -5437    -8243   -11493   -15049   -17772   -18640   -17658   -15261 
  -12109    -9128    -6515    -3909    -1107     2144     5111     6797 
    7492     6197     2208    -1506    -3226    -3734    -2427     1240 
    6367    11114    13664    14189    13772    12573    10755     8676 
    5921     2370     -727    -2161    -2000    -1263    -1070    -2169 
   -4868    -8557   -11840   -13610   -13281   -10679    -6832    -3568 
   -1615     -454      472     1441     2428     3336     4415     5817 
    7272     8929    11338    14138    16483    18504    20599    22327 
   22848    21668    19399    17455    16375    15772    15368    14837 
   13925    12695    10557     7157     3839     1517     -413    -2214 
   -3807    -5744    -8156   -10235   -11418   -11676   -11387   -11161 
  -10933   -10276    -9094    -6906    -3109     1637     6003     9196 
   10598    10150     9024     8129     7180     5680     3549     1115 
   -1290    -3634    -5585    -6547    -6898    -7938    -9841   -11453 
  -12460   -13200   -13246   -12279   -10994   -10566   -11237   -12056 
  -12510   -12451   -11452    -9729    -7851    -6075    -4792    -4326 
   -3781    -1921      329     1605     2681     4140     5263     5913 
    6527     7106     7539     7943     7786     6389     4330     2037 
    -945    -4357    -7657   -10747   -13238   -14662   -15003   -14490 
  -13510   -12571   -12031   -11932   -12171   -12816   -13809   -14470 
  -14130   -12649   -10700    -9855   -10705   -12352   -14255   -16339 
  -18053   -18351   -16797   -14413   -12694   -12452   -13444   -14972 
  -16845   -19071   -21051   -21567   -19677   -15169    -8413    -1062 
    4610     7998     9336     8262     5792     3736     2272     1979 
    4215     8652    14235    20352    26073    29770    29319    23419 
   12825      313   -10292   -16591   -19284   -19144   -14998    -7766 
   -1412     1854     2344      391    -3161    -6721    -9497   -11068 
  -10727    -8540    -4873      334     6498    12820    19376    26331 
   32830    37349    40743    44780    46588    44356    41598    39437 
   37201    36112    36414    37436    38456    38719    37714    34873 
   30370    25223    20001    14623     9137     3572    -2014    -6447 
   -8395    -7869    -5386    -1718     1786     4483     6677     8128 
    8039     6566     5123     4851     5891     8284    12272    17509 
   22584    25724    26002    23679    19908    16594    15303    15882 
   17782    21286    25770    29485    31017    29222    23186    13328 
    2089    -7636   -14662   -19549   -23548   -26453   -25967   -22904 
  -21330   -20727   -18895   -17008   -14997   -12505   -10755   -10316 
  -11421   -13258   -14206   -13327   -11084    -8506    -5686    -2558 
    1884     8372    14882    20139    24200    25672    23789    19240 
   12750     5679     -201    -4644    -9101   -13837   -17392   -20085 
  -23499   -27113   -29299   -29619   -29219   -29951   -32379   -35567 
  -38713   -41828   -45142   -48498   -51432   -53218   -53408   -52698 
  -51646   -49820   -47366   -44529   -40217   -34840   -30987   -27961 
  -22323   -14787    -8721    -3919     1336     6554    11470    16958 
   22939    28992    35189    40527    43355    43864    43459    42924 
   43083    44275    45157    44300    40950    34761    26631    17703 
    8791     1047    -6219   -15304   -26118   -36823   -46745   -55287 
  -60829   -62488   -60845   -56369   -49067   -39907   -30483   -22582 
  -18848   -20434   -25304   -31085   -36468   -40030   -40494   -37601 
  -32275   -25818   -19191   -13402    -8525    -3750     1028     5934 
   10837    15215    19423    23558    27965    33453    39032    43798 
   47883    51220    54334    56893    57869    57136    55053    52533 
   50132    48362    48027    48838    50359    51196    48196    39336 
   24370     5489   -13281   -30596   -46971   -61364   -71767   -77284 
  -78366   -74436   -66213   -59227   -56469   -55054   -55044   -58417 
  -63196   -66654   -67202   -65186   -61680   -56041   -48162   -38450 
  -27380   -15489    -2922     9548    22422    35935    47819    56835 
   61713    60301    54865    50241    47958    48921    54994    64720 
   74285    81502    85770    86400    84500    82804    81097    78351 
   75303    72436    69851    66302    60338    52776    44253    33979 
   22825    12286     1896    -7688   -15080   -21049   -25528   -27225 
  -26835   -26045   -25373   -25699   -28541   -32516   -35367   -37544 
  -37949   -34075   -26168   -15684    -5495     1294     4953     6382 
    6006     5827     7665    11881    17706    23128    26801    29666 
   33211    37257    40791    43783    46376    48421    50036    51154 
   52469    55398    58818    59697    57314    52490    45522    38020 
   31949    27035    23272    21844    22370    23703    25340    27060 
   28537    28444    25911    21667    16302    10412     5277     1652 
    -784    -2671    -4333    -5915    -7894   -11070   -15192   -18823 
  -21351   -22906   -22970   -21304   -18384   -14361    -9544    -4661 
     -29     3832     6781    10156    14643    19638    24441    28343 
   31371    33928    36143    38287    40455    42747    45218    47378 
   48486    47875    45176    39950    31976    22177    11977     2597 
   -5201   -11503   -16714   -21161   -25016   -28154   -31159   -37365 
  -48420   -56803   -59252   -65681   -74402   -75972   -77338   -81957 
  -83079   -82146   -82163   -81788   -80554   -79448   -78213   -75579 
  -72315   -68643   -63154   -55563   -46961   -39303   -33066   -27211 
  -21683   -16168   -10458    -5142      773     8467    17200    25459 
   31943    36281    38387    37933    35646    31996    26686    21448 
   18665    18441    19228    19805    20177    19703    17124    12429 
    5620    -3068   -11832   -18989   -24420   -28768   -31742   -33027 
  -34489   -37736   -41497   -44139   -45578   -45879   -44936   -43062 
  -40645   -38119   -35860   -33712   -31301   -28559   -25502   -22234 
  -19149   -16744   -16011   -17564   -20467   -23855   -27535   -30562 
  -31453   -29236   -24162   -17795   -11886    -7253    -3871    -1520 
      43     1275     2817     5312     9031    13718    19656    27282 
   33905    36796    39741    45461    50341    54731    61001    66432 
   69788    71671    70448    66028    61222    57901    54784    50402 
   46068    42776    39407    35056    29523    23085    16424    10129 
    4045    -2594    -9682   -16654   -23522   -30183   -36275   -41215 
  -43767   -42788   -38839   -32745   -23974   -14062    -6258     -697 
    3784     7033     9624    12314    14589    16652    19283    22038 
   24646    27676    31297    35259    39108    42734    46678    50899 
   54677    57688    59489    59498    57918    54675    49486    43860 
   39020    34649    30859    27243    24023    22464    21660    20821 
   20200    18813    16395    13792    10860     7414     4477     1572 
   -2241    -5335    -8070   -11914   -15708   -19404   -23276   -25871 
  -26515   -26099   -25454   -24325   -22990   -22261   -22009   -22245 
  -23114   -23706   -23194   -21492   -18401   -14373   -10473    -6512 
   -2097     1682     3973     5356     6910     9120    11848    15309 
   19515    23710    27881    32213    35748    37828    38184    36742 
   34627    32516    30268    28684    28769    30593    33103    34778 
   35262    35064    34464    33617    31926    28900    25949    24250 
   22600    19127    14108    10039     7777     5549     2296    -1247 
   -3984    -6471   -10037   -13751   -16572   -19646   -23094   -25173 
  -25111   -23611   -21208   -17869   -14246   -11354    -8884    -6795 
   -6643    -7987    -8667    -9031   -10270   -11843   -12775   -12270 
   -9996    -7026    -5767    -7461    -9828   -10403   -10112    -9954 
   -9486    -9232    -9238    -9163   -10554   -13695   -16024   -16376 
  -16386   -17589   -19796   -20825   -17906   -12448    -9612   -10678 
  -12629   -14273   -16213   -17973   -18422   -17049   -14708   -13004 
  -11630    -8467    -3951     -970      348     1230     1100     1026 
    2579     3681     2851     1771      546    -2494    -6507   -10459 
  -16468   -22558   -22842   -21145   -21965   -19332   -16213   -20233 
  -25034   -26616   -30177   -36082   -38740   -35760   -32038   -31766 
  -34230   -37589   -40959   -45022   -48334   -47751   -43733   -39274 
  -36690   -36250   -36246   -34947   -34350   -37987   -42249   -42102 
  -40713   -39753   -35317   -27949   -20258   -12641    -8185    -7766 
   -7693    -7474    -6460    -2303     1979     3265     3943     5525 
    6554     5532     1949    -2980    -7442    -9147    -6909    -4479 
   -4450    -3510    -1244    -1113    -1884     -546     1360     1810 
    2673     6582    11638    13144    11250    10057    11662    14593 
   13806     9030     6647     5589     3492     5266     8090     7271 
    7978    11863    15490    20035    27533    37160    48451    60204 
   70429    80026    87465    88661    86092    82962    77101    68469 
   59258    49639    41762    41507    50585    63174    74405    81531 
   79886    69353    55088    40073    24835    10366    -1242   -10308 
  -17502   -21293   -26007   -32105   -29758   -25128   -33732   -48447 
  -54391   -49189   -39318   -32906   -26612   -19350   -22356   -22667 
    -993    14654     3711    -9246   -14723   -12132    -2918    -3316 
    5867    37342    63751    84545    96800    92233    93448    96843 
   86053    61782    31078    24899    44888    58402    68797    80739 
   80690    70637    61042    66100    63514    17061   -35907   -48623 
  -37550   -54882  -105429  -111578   -68500   -65843  -104576   -89027 
  -20293   -28869  -106898  -115771   -61619    -9522   -12471  -127822 
 -200576  -109539   -56141  -106743  -106527   -65989   -67258   -80523 
  -67397   -87386  -141648  -103572     1393    31217    -8820   -23116 
   -1016    28367   108357   168069   100390    45490    63562    20893 
  -39939   -55140  -115249  -147360   -28815    64971     7553    11237 
  174742   289215   257895   195540   180064   169514    92341     4293 
   29486   119512    82972   -48703   -64760   -33865   -79529   -92678 
  -66722   -87034  -108036   -83849   -90499  -185504  -249726  -169395 
  -96271  -153617  -150277   -84393  -179610  -295297  -226866   -60555 
   86630   128131    89081   115032   189209   196150   161546   150296 
  154812   144822   127704   157786   214045   230027   240000   293804 
  370271   396617   350244   329973   366114   395633   425887   460944 
  494392   543789   548419   486468   426818   299276    32147  -147645 
 -104237   -96851  -183417  -139279   -61338  -129340  -256572  -374313 
 -497400  -636688  -753101  -752454  -648076  -488050  -242943    34832 
  181249    63990  -227337  -391671  -354736  -364860  -466684  -476259 
 -429513  -436869  -448811  -464217  -527669  -621020  -700866  -688224 
 -603024  -604712  -696400  -687186  -500627  -276647  -190601  -228970 
 -208570   -78578    33784   101501   179496   235422   254380   263374 
  254047   252564   284844   326382   375941   428546   456347   462481 
  454901   426556   394403   390523   407305   389040   293819   155201 
   62581    52347    69224    90373   157566   237316   216776    91939 
    5689    20883    80553   169202   241998   248702   265721   315512 
  319825   280444   250049   238100   233266   236976   233736   192746 
  144477   151062   173169   121045    44601    36580    32159   -33427 
  -89233   -99985  -111562  -136192  -154728  -144266   -98907   -65014 
  -73958   -93658  -104126  -111752   -97669   -62838   -44205   -41841 
  -41627   -46880   -43995   -32315   -40925   -91558  -181346  -268307 
 -309387  -326705  -384064  -508894  -636533  -631617  -415407   -90991 
  133443   174197    97414     7846    12201    77148    85553    82790 
  118142   140705   155729   157480   110151    22673   -77780  -144373 
 -152601  -120486   -65136   -31868   -45231   -43617    -4152    20416 
   24293    36821    53532    73040   113938   162585   195408   220842 
  220067   148834    17460  -120750  -218795  -249115  -220013  -167509 
 -129061  -133284  -145008  -109842   -79438   -91513   -86952   -48039 
    4689    38368    11535   -25764   -22432   -23182   -33269   -20641 
   -4185     2091     5283    13404    39928    74216    91633    90801 
   89974   106327   133360   150880   154228   149536   143090   143866 
  155108   169676   183352   192163   185645   174363   182682   202279 
  216807   231741   241674   229972   187435   113896    36622    13244 
   60007   101811    91081    81913   107485   129498   121810   107543 
  106238   104203    94063    80393    72135    85580   115992   136471 
  131919   113290    82478    12112   -79984  -117787   -96704   -76647 
  -54175   -17641     1372    -2681   -25286   -54827   -67709   -65113 
  -55135   -67365  -118968  -159714  -173357  -196612  -223091  -239477 
 -264798  -298192  -325533  -346715  -357422  -353273  -338369  -313407 
 -278968  -240023  -199438  -161553  -136799  -128483  -125433  -119340 
 -112611  -100480   -70954   -33390   -11896    -9753   -17294   -28235 
  -33407   -31959   -31993   -34206   -39482   -46911   -44613   -33187 
  -23263   -11091     3534    11466    15036    25266    46900    67046 
   70742    69901    80766    97059   114169   131784   145538   164686 
  193168   215088   216589   171636    55977   -70387  -106320   -66381 
  -36377   -23625    -5923     3358     1554     1202     2673    -6262 
  -19565   -21585   -23121   -20985     7635    50114    70810    62505 
   55363    62403    65712    72635    92519   103142    98294    84322 
   52208    -4645   -73121  -111667   -99137   -79362   -75613   -55633 
  -28267   -24547   -27361   -21413   -15550   -12951   -10255    -5918 
   -4413    -5113    -7777   -17046   -25705   -28057   -30445   -36273 
  -41101   -36945   -20027      368    13905    32659    62178    73618 
   59929    49589    47946    41698    27704     9911    -4903   -17355 
  -28377   -34889   -42619   -50969   -53639   -54309   -52604   -44482 
  -31865   -14478     5535    17649    18245    14011    10212    11011 
   17801    27128    40429    56517    63320    58286    51320    47074 
   46611    49564    51522    51902    53620    57597    65523    76836 
   85357    83814    62957    17131   -34264   -55957   -47742   -43046 
  -46387   -38591   -25002   -15782    -5623     6554    17275    23938 
   24264    17902     5756    -5940   -11037   -11704   -11041    -9130 
   -6774    -5258    -5046    -5516    -6685   -10118   -15095   -17315 
  -14929   -12210   -11804   -10818    -7959    -2644     6860    17965 
   27210    34692    39422    41108    42988    42572    33685    18631 
    3522    -7885   -14442   -18442   -18542   -10936     -854     4293 
    8023    15271    22474    27422    31388    32169    28089    19434 
    6382    -7346   -16753   -20648   -23377   -31422   -42354   -48656 
  -51178   -54143   -58418   -62877   -65125   -65808   -67270   -67719 
  -65862   -64885   -64817   -60839   -54434   -52455   -52627   -48887 
  -42414   -32238   -20409   -15822   -14785   -11677    -9180    -4460 
     182    -2144    -4473     2786    14351    18605    16833    17901 
   21720    27876    38070    46176    49098    50994    54220    58492 
   61906    63325    62883    61531    60863    59994    58126    57767 
   60735    63640    63128    62471    63208    62059    59890    59459 
   59286    56204    48533    34375    14014    -5332   -17374   -23321 
  -27985   -34873   -42840   -51436   -59711   -62668   -63135   -64662 
  -61217   -51719   -38156   -18382     1498    12461    18990    25477 
   27081    26334    28836    31714    29992    21805    10336    -2270 
  -16414   -27963   -35600   -42125   -46730   -48837   -47621   -41921 
  -35328   -29420   -22400   -16777   -14844   -14723   -16799   -23665 
  -33461   -42858   -51980   -59528   -64948   -71845   -79420   -84462 
  -86339   -82547   -72793   -59508   -42724   -25213   -12334    -6164 
   -6747   -10791   -11892    -9509    -7749    -6524    -4982    -5339 
   -7118    -6909    -5239    -4471    -2862      715     4433     9016 
   15786    21311    23958    28671    36096    43335    51646    56413 
   51970    47094    50749    61569    74748    79355    68423    46275 
   20034     3431      295    -1873    -3459    -4568   -13088   -23256 
  -29693   -37007   -47790   -60686   -72158   -81387   -89421   -95334 
  -98093   -96016   -89063   -79978   -70077   -60778   -53981   -49087 
