Origin Time       2016/04/16 01:25:00
Lat.              32.753
Long.             130.762
Depth. (km)       12
Mag.              7.3
Station Code      OIT006
Station Lat.      33.4244
Station Long.     131.3148
Station Height(m) 88
Record Time       2016/04/16 01:25:23
Sampling Freq(Hz) 100Hz
Duration Time(s)  190
Dir.              E-W
Scale Factor      7845(gal)/8223790
Max. Acc. (gal)   148.695
Last Correction   2016/04/16 01:25:23
Memo.             
[...]
    4355    -1327     -356      120     -271     2246     4418     3666 
    2664     1505      765     4431     9458     7685     2839     4083 
    5078    -1744    -7159    -4163     2482     6494     3164    -4299 
   -6174    -1026     4401     6308     6594     8177     9385     6224 
    1251     1572     6189     5988    -1101    -5238     -110     6178 
    5125     1606     2442     4795     4156     1806      -40    -2795 
   -7586   -11044    -8102      646     6743     4467    -1026    -1620 
    3936    10193    11358     6785      676    -3685    -6417    -6598 
   -2316     2357      660    -4675    -6237    -4596    -2523      974 
    4320     3912      540     -658     3530     8607     7578     1668 
   -2982    -4710    -4023     -737     3481     5825     4140      438 
     565     3825     2500    -4703    -9826    -6751     1530     6509 
    3420    -3557    -7892    -8872    -7920    -4573     -958     -206 
    -997    -1651    -1334     2034     6230     6485     3180       51 
      91     2355     2482     1053     2273     4008     2057    -1448 
   -1690     3113     8206     6697     2091     2876     6813     6789 
    2952      -86     -340     1046     2558     2481      427     -692 
    1429     4931     5441     1642     -972     2207     6062     4147 
   -1377    -5308    -3757     3662    10222    11703    11587    11913 
   12201    11947    11010    11095    11138     8454     5337     4258 
    4299     4595     4139     3080     3653     5552     5792     4324 
    3755     3615     1710     -819    -1652     -974     -493    -1502 
   -2849     -584     5493     8893     6509     2964     1657     1306 
     864      895     1112       31    -2458    -3068     1132     6762 
    7550     2664    -2342     -909     7503    14277    10017    -2312 
   -9657    -4742     7338    15013    10638    -2089   -12811   -13167 
   -2397     9596    11705     5795     2016     3879     7036     6214 
     850    -2212     1544     6828     7857     3666    -3312    -6815 
   -3396     2228     3595      109    -3595    -4017     -715     5220 
    9690     8060      351    -8063    -8421     1729    11473    11206 
    5324     1475     -183    -2363    -3492     -862     3011     3719 
     726    -3176    -5443    -6435    -6442    -3102     3330     7759 
    7195     4858     4001     3859     4455     6347     5914      530 
   -4784    -4054     1094     6274    11061    15186    15614    11614 
    7082     6112     8532    10030     8139     5983     5845     4792 
    1197    -1124     1026     6173    10809    10976     6975     4217 
    3033      932      764     3893     7832     9987     7573     2380 
     623     4233     8806     9063     4345     -361      442     5410 
    8159     7799     7892     7827     5869     2681     -442      733 
    8253    13733     9525     1007    -2822     -884     2374     4642 
    7226    10235    11928    11227     8101     5320     6902    11831 
   13721     8982     2679     1457     4159     5460     4442     4810 
    7034     6718     2794    -1752    -3354     1665    10808    15673 
   12661     5368     -913    -2651     1721     9934    14617    10914 
    3580     1888     9057    19074    23183    17352     6351       13 
    1826     6569     9659     9804     5221    -2922    -8245    -6038 
    2887    14262    22262    22283    15315     7472     2431     -598 
   -2338    -3312    -4436    -6808   -11067   -13853   -11335    -5640 
   -2617    -7553   -19380   -28926   -29319   -21496   -10918    -3811 
   -1334    -1212    -1796     1107     9398    17647    21374    21141 
   19233    17599    16502    15813    15449    15325    17541    20197 
   14677     1318    -7673    -6272      854     5861     3321    -3819 
   -8082    -6731    -2625     -413    -1007     -970     1031     3218 
    4772     6042     7257     9568    14281    19298    21505    21735 
   20707    15731     6285    -2168    -3200     1015     3136     3650 
    6615     9343     7815     4176     3156     5397     6955     2246 
  -10093   -21882   -24007   -17864    -8946     2259    15465    26464 
   30349    25218    15796     9251     7969    10810    12897     8899 
    1535    -3229    -2695     4617    16183    24770    27255    26476 
   24441    22497    20811    15286     5494    -2999    -6979    -5640 
   -1749    -3045    -9679   -12694   -10600   -10127   -13320   -15545 
  -11840    -1024    14469    30222    42346    50008    54234    55440 
   53504    50518    50241    51502    48220    37096    20055     3144 
   -6943   -10096   -10208    -7992    -6326   -11411   -23120   -33511 
  -35415   -32300   -33643   -39368   -41514   -35858   -24704   -15206 
  -11416    -8758    -3001     2309     2551     2887    12212    26100 
   33073    30522    22720    17716    23434    37458    49985    55996 
   55763    48834    38071    31148    29593    28548    25213    19083 
   12387     8510     7406     6169      -36   -12887   -26279   -35143 
  -40555   -43197   -41000   -33501   -24120   -15801   -10338    -7851 
      79    18131    34238    39879    41531    42741    37002    21003 
    2484    -7087    -1908    13190    23440    16656    -2370   -17177 
  -19967   -15692   -10411   -10458   -20606   -35259   -45131   -46959 
  -41436   -32490   -24732   -16857    -5603     6551    13547    10500 
   -3206   -21546   -34871   -38006   -34271   -29145   -24008   -17577 
   -9418    -2219     2725     9277    18790    27005    29874    25252 
   13475    -1132   -11140   -11308    -6781    -6972    -9069    -3696 
    6534    11286     6465    -5432   -15919   -13242     3206    19476 
   24050    19003    11626     4966      808     2617     9846    14558 
   10675     2041    -5576   -10748   -13198   -12980    -9162    -1898 
    3215      940    -7402   -14783   -14122    -7824    -5201    -9293 
  -16152   -21816   -24894   -26989   -26547   -17957    -5814    -1651 
   -4410    -5967    -5124    -3694    -3407    -5306    -5190      353 
    6392     6396     -980   -10332   -12866    -8020    -2081     3828 
   11611    20151    26335    28161    25361    17867    10585    10781 
   15087    15631    12143     6687     2519     5593    15442    23264 
   21396    12136     7693    15577    28081    33549    28152    15490 
    4248      344       91    -2401    -5623    -4063     1696     6682 
   11365    18825    26580    30218    28208    20961    12569     9089 
   12015    17724    20563    17591    11622     6405     3863     3755 
    1856    -3279    -6255    -3261     4567    13143    15086     5481 
  -10466   -21849   -23098   -15916    -4529     3894     2243    -5158 
   -5698     4824    20115    31904    34992    32063    31411    35317 
   37860    36101    33053    29988    26430    22053    14476     3316 
   -7789   -15526   -17134   -11580    -3330     1277       68    -4785 
   -8707    -7378      552    11988    20510    24098    26242    26334 
   22234    17155    13825    10415     4207    -4148   -10679   -12243 
   -9288    -6259    -8437   -15183   -18628   -13565    -3569     6214 
   12541    11830     4044    -4531    -6290      -36     8213    12120 
    9806     6481    11173    25367    40559    47738    44359    32553 
   14650    -5387   -20309   -25401   -23542   -20710   -17788   -12977 
   -8121    -2290     8408    17581    16639    10858     6474      -60 
  -10407   -21174   -29322   -32571   -31801   -31009   -31456   -29312 
  -20220    -6169     4374     4707    -5325   -21918   -37515   -43432 
  -39175   -29384   -14690     2891    16895    24219    27900    32911 
   39571    43789    45843    47345    44560    37172    28128    16387 
    5119      670      926     -884    -7782   -17026   -22161   -18543 
   -6458     6006     6312    -5914   -18323   -25158   -26487   -17990 
    -654    15495    25042    27012    17467     -137   -12781   -13491 
   -3925     8878    14874    12503     8953    10624    19661    30145 
   34271    33312    30115    22009     7685    -9271   -22399   -27295 
  -26122   -24793   -27496   -32044   -31193   -21678    -6771     8586 
   19884    25763    29690    35264    41588    44396    41916    36786 
   31226    26208    23410    23449    25512    28225    29199    26616 
   22034    19137    20040    23920    25548    18380     4680    -5660 
   -8653    -8861    -9680   -10206   -10295   -10944   -11002    -7736 
    -475     7813    13693    14843    10627     6664    10327    19853 
   27804    29968    25483    16476     8266     4399     3778     4126 
    3240    -2174   -11569   -17213   -13115    -3067     3697     1939 
   -5140   -11016   -12356    -9304    -3676     2640     7666     9728 
   10104    11207    13200    14354    13105    11358    11772    11847 
    9414     7931    10351    15465    18948    16690    11114     8830 
   12618    19569    23296    19597    10646     2025    -2165    -2970 
   -4390    -7538   -11010   -11961    -7453      157     5460     6137 
    3473     2343     7038    14100    17087    16542    17255    20488 
   23719    24915    25840    28436    30036    28439    25396    21087 
   13938     5950      669    -1428    -1498     -672      103     2740 
    9555    16351    17463    15245    14931    17454    22185    26484 
   24225    14578     5352     2169     4041     6945     5046    -3100 
  -11947   -16058   -12737    -3817     3643     5017     1217    -4606 
   -8657    -9697    -9837    -8872    -3580     4637     9312     8222 
    4915     1844     -796    -4088   -10228   -16098   -14891    -8019 
   -1891      987     1466     2654     5080     6029     6463     8104 
   10216    12460    12521     8469     5769     9998    16474    19052 
   19099    18396    16761    14493    10453     6420     6772     9915 
   11233     9198     4976     1821     1908     5410    11462    16501 
   17987    16249    11052     3908    -1479    -4213    -6274    -9346 
  -13477   -17552   -20054   -18858   -13228    -6381    -2100        4 
    1676     2855     5135     9593    12089     9490     4062     -754 
   -1416     3117     6600     4507    -1382   -10719   -18414   -15761 
   -6794    -1447     -473    -1433    -5337   -12602   -16471    -8395 
    2695     4804     5864     7614     3492     4905    17230    26073 
   25251    21502    22626    27390    28617    27839    23517    13059 
    8692    12942    13744     9008     5755     8860    15561    21963 
   26736    24939    19334    19083    20618    20042    21459    23292 
   24598    25928    22368    13747     6508     6382    10466     8849 
    1719    -4768    -9256    -6601     3954    12268    12891     7398 
    2871     8398    20129    24165    16592     7749     3902     2027 
    2544     6178     7888     5606     5481     9991     9532     3916 
    5535     8583     3310      861     2988    -1217    -6054    -7616 
  -11561   -11032    -2500     4649     7356    10156    13238    12152 
    8803     9596    14613    16021     7079    -2677     3051    18265 
   21927    13080     8203    10326    11198    10172     9644     4518 
   -6214    -4455    12532    11666    -8306    -9798     2253      486 
   -3755      -52    -2983   -13455   -17929    -6577     8812     1888 
  -13331   -12718   -11674    -7395    14485    27156    16163     4506 
    -758    -5749    -1790     5652    -3134   -13757    -6447    -2671 
  -19700   -30854   -10902    16318    20765     9940    -3609   -14218 
   -7681    15716    28348    19481     5552   -10039   -23112   -22704 
  -14698    -5474    -5792   -15696    -7812    11156     9321    -6370 
   -6880     7453    14493    18671    11824   -14897   -12089    17994 
   20088     4436    -4305    -6421     1804    14199    21728    17400 
    2153    -2866     -973    -7765    -4133    12907    24278    31622 
   38680    32539    -3789   -39835   -30200   -10748   -14760    -7628 
   10162    -6720   -42404   -17915    34950    16758   -10868    14578 
   21072   -10091   -32094   -17988    11537    13400     -513   -13635 
  -29787   -24807    -6547   -12753   -16205     7078     5424   -26281 
  -35320   -15190    -1482   -17216   -23606     4976    24089    20583 
   14673      266   -26385   -23537    22102    23751   -22168   -19932 
    -530    -8177    -1964     4635       91    -5362   -19840    -5185 
   21945     2648   -15018      561    15826    32598    38353     9494 
  -23136   -31249   -32289   -32073    -5471    34135    27392   -20486 
  -39123   -15533    14237    26530    14185    -3593    -7669     -292 
   11384    14848    15412    38313    59636    38188     4486    -7474 
   -5228    13629    31428    18177    -7294   -16603   -11985     2781 
   28397    41446    19411   -10868   -22115   -19892    -2552    14810 
    3596   -24821   -41269   -35010   -11335    19438    31301     9879 
   -4843      433     -233     3757    -2826   -36023   -45455   -28624 
  -13693    16180    28377    -6945   -23550    -2022     6523     8235 
   22044    33887    31384     6643   -15749   -12647     -525    11772 
   12765    -1613     -892    13325    19489    22164     5212   -26045 
  -27630   -13182    -1314    15460    19936    31275    52358    37125 
   22597    58014    92393    86786    69522    42549   -22593   -83614 
  -76219   -32240    -3582   -11772   -75543  -128563   -91963   -16903 
   27615    41854    35989    25312    41365    79980    89639    44734 
  -19877   -52898   -65388   -92442   -94031   -58810   -14053    75485 
  159742   144418    96934    76204    29305   -19106      745    38959 
   24325    -2316   -12109   -45126   -79851   -91083  -108210   -87805 
   -8167    48564    91422   147785   113248     7844    -7221    39168 
   34025    12614     9294     -314     -765    -1364   -51543  -124457 
 -135257   -62175    43463   124914   143810    86590   -22657  -119475 
 -127820   -55040    13846    47980    43186   -21026   -63574    -1019 
   63205    39337    -2012    -9787    21775    68739    53867   -10788 
  -52103   -62476   -54075   -47559   -44817    -1028    72118    96434 
   41559   -37503   -77229   -70665   -32096    23296    50565    26269 
    6138    22369    22291    11970    53612   106578    99098    46373 
  -11245   -59228   -82347   -42097    37851    35384   -59158  -121562 
 -126358   -76349    51765   131249    63663   -48836  -118525  -112349 
   -5121   119114   139409    48440   -61842  -119587  -117190   -45854 
   61623   112601    98501    67709    -3767  -112000  -146188   -66745 
   29868    69133    37638   -45307  -105019   -82748    -2998    73267 
  100565    75019    23242   -34823   -79925   -80662   -24718    47024 
   69542    26368   -38897   -66992   -19920    63521    96132    73024 
   41428    11068     5656    37899    62629    44849    -8444   -33561 
    7541    35676    23392    35737    56259    35067   -15450   -57510 
  -52423    -4418    27556    23611     8298   -18176   -24288    21189 
   41689    -7608   -55929   -75629   -81926   -30040    81089   145656 
  120557    66060     2106   -57314   -40192    47704   102902    77024 
    1358   -72469   -88905   -40467     4855     3987    -6389     1796 
   11392    17197    28914    29613    10860     5584     6124   -24992 
  -41247     9140    65996    65500    34522    12880    10841    28840 
   40196    20017    -6392   -11892    -6166     3965    18372    19641 
     270   -23918   -42489   -45774   -23103     4791     8969     4600 
   17961    30518    27616    26433     9880   -29829   -38300    -5408 
   18009    16431     6458    -4885   -17747   -24713   -18517    -8260 
    1667    13514    12079   -11708   -32036   -18357     4314   -11812 
  -40849   -40807   -31391   -14122    24560    47088    31040     4122 
  -10010   -13679   -19778   -25442   -19831    -7064     6637    18586 
   27476    32490    25038    13020    12256     4387   -11812    -1208 
   26025    32440    21204    10335     7717    18461    27471    11520 
  -17869   -28640    -8428    26136    41032    17563   -23345   -39800 
  -11601    38670    68944    58968    27564      460   -18912   -28355 
  -25709   -17550     2389    25740    18948    -9815   -19849    -3168 
   21432    29482     7993   -18500   -24555   -18486    -7160     8340 
   14516     5130    -6188    -2361     6436     -519   -10091   -11728 
  -17010   -11605    14652    36814    40810    30950    20810    20730 
   18520    17645    33639    43245    24085     3457     5710    17859 
   29187    26619    -1767   -27014   -24636    -4282    22077    31297 
   14588     3951     9629    15315    21204    21712    12208     6760 
   10943    22509    34132    34223    21641    -1752   -24858   -28903 
  -13435     7778    19252    14215     1908    -9208   -16900   -15506 
    -233    22003    32432    23944    11728     4302    -1606     1264 
   15329    25006    23998    16833     4482    -4332     -693     9302 
   15107    11653     3385    -1606    -3877    -6999   -11294   -14068 
   -8878     2304     6081    -2983   -14862   -18535   -10308     8735 
   29513    38226    26852      920   -18079   -13582     7504    27283 
   31043    12039   -19761   -37641   -24970     4591    26823    26789 
    2126   -29131   -43850   -40714   -29620   -18181   -13609   -16420 
  -21640   -20385    -6399     9656    14667     9043      587    -3015 
   -1169     3662    12853    23990    27654    22319    16243    10260 
    7145    13159    19552    19749    12839    -3334   -18076   -25083 
  -26153   -19872   -13960    -9898    -3096    -2358    -8101    -9917 
   -5134     3680    10604    11128     7126     3782     3445     4500 
    7357     8368     2362    -4263    -8290   -13983   -14677    -7206 
   -1759      649     2331      662    -2076    -8097   -13979    -6972 
    5749     9679     3794    -7364   -13270    -4806    11267    19356 
   19700    19959    12160     -693    -7543   -13359   -15846   -15012 
  -18218   -13959     3735    17288    15190     9439    12166    19150 
   24634    20953    10220    14438    32829    38265    21320    -4855 
  -19703   -11832     4013     8071     5389     5219     5262     7774 
    6427    -9374   -23487   -17672      996    14724    14011     6878 
    -985   -13190   -21818   -18638    -6446     8264    11836    -1665 
  -16382   -14037     5699    21058    14395      182    -3065     1159 
    6666     8733     4036     3601    12488    19889    21821    19132 
   15785    17786    16137     4658    -3990      232    15242    26936 
   17915    -6482   -23020   -20092    -4893     7149     7623    -1017 
  -13555   -21552   -19367   -10573     2373    13532    11936     3036 
   -1387      -47    11958    30003    34106    27014    22331    11327 
   -7732   -14304     -947    15714    21537    16906     6829     -178 
    5117    20200    30380    24425    14268    19639    30806    28418 
   20857    21055    25034    25660    16287      -35    -6191     2166 
   11480    13219    10403     7938     3888    -5543   -15692   -16135 
   -3534    11348    14427      814   -20580   -29262   -17184     -353 
    5854     1701    -1244     5192    14854    21964    22310     9208 
   -5877    -4162    10002    18986    16464     7921     -672    -4071 
    1595    12734    18607    12791     4527     3707     6123     8762 
   11419    10562     8248     6531     4730     6092    12368    21311 
