Origin Time       2016/04/16 01:25:00
Lat.              32.753
Long.             130.762
Depth. (km)       12
Mag.              7.3
Station Code      OIT008
Station Lat.      33.2555
Station Long.     131.0203
Station Height(m) 200
Record Time       2016/04/16 01:25:17
Sampling Freq(Hz) 100Hz
Duration Time(s)  234
Dir.              E-W
Scale Factor      7845(gal)/8223790
Max. Acc. (gal)   81.060
Last Correction   2016/04/16 01:25:16
Memo.             
[...]
      18       20       16       20       22       17       17       20 
      21       17       11       21       27       13       10       27 
      25       11       14       22       21       18       17       20 
      22       20       14       14       21       23       17       16 
      21       22       17       16       20       21       18       16 
      18       18       11       16       25       25       20       14 
      17       27       20       11       20       20       13       18 
      18       22       23       14       20       29       17       11 
      18       18       17       17       16       21       27       18 
      11       20       20       13       14       17       21       21 
      14       16       23       16       10       20       22       20 
      22       22       21       23       17       16       21       18 
      14       14       20       27       17        9       23       28 
      18       13       16       22       20       11       16       20 
      18       17       17       23       23       20       20       20 
      18       16       13       20       25       17       14       23 
      20        9       16       23       20       14       16       23 
      27       16       13       21       21       17       14       17 
      23       21       17       21       18       18       18       14 
      20       22       16       18       20       17       16       14 
      21       27       20       18       22       21       18       17 
      21       23       20       17       18       20       18       11 
      14       29       23       13       20       23       16       10 
      14       21       18       11       20       28       21       14 
      14       17       22       18       11       17       23       20 
      14       18       25       21       14       18       21       18 
      16       17       21       20       16       18       21       17 
      11       14       28       27       17       18       21       18 
      18       17       21       25       18       16       22       21 
      18       14       11       22       22       14       17       21 
      18       17       20       23       22       17       17       21 
      18       20       21       13       14       22       20       20 
      22       13       13       23       17       16       23       21 
      18       20       18       20       17       18       21       18 
      21       22       14       16       22       20       11       16 
      28       23       18       23       21       16       14       18 
      27       22       14       16       18       22       25       17 
      14       21       21       14       17       22       18       14 
      20       25       22       16       17       23       21       16 
      17       23       22       17       16       17       18       18 
      17       21       23       17       14       20       22       17 
      17       23       25       18       16       17       22       25 
      18       16       25       25       14       14       20       21 
      22       21       21       23       20       17       17       17 
      20       18       20       27       22       14       18       21 
      16       13       17       27       25       11       16       29 
      25       13       14       22       27       22       18       22 
      21       14       13       18       22       18       17       23 
      21       16       14       16       25       27       14       14 
      22       21       14       14       21       23       17       16 
      22       23       17       13       20       23       18       17 
      20       22       18       13       21       23       14       17 
      25       27       20        8       13       27       20       14 
      23       25       18       13       14       21       23       16 
      13       22       22       21       20       16       18       21 
      17       20       21       20       21       21       17       17 
      18       22       27       20        9       17       29       21 
      11       18       25       23       17       17       21       20 
      14       17       22       20       16       20       21       18 
      21       18       16       27       22        9       20       28 
      17       14       21       18       11       18       28       25 
      14       14       22       23       18       20       17       18 
      22       18       20       22       20       20       11       11 
      28       23       13       20       18       16       17       17 
      25       25       11       13       20       16       16       22 
      22       18       17       20       21       20       18       17 
      20       25       18        9       14       22       20       13 
      17       20       11        8       13       13        4       -5 
      -8       -5      -20      -32      -29      -40      -49      -51 
     -59      -60      -52      -54      -49      -32      -17      -10 
      -8       11       60      102       95       62       36       54 
     126      167      101       -2      -35       14       82      151 
     205      163       82       82       95       36       11       99 
     220      291      261       83      -95      -11      297      445 
     301      184      120     -210     -579     -548     -236       65 
     193       -8     -379     -531     -311       83      266      147 
      99      415      838      743      124     -141      184      396 
     162     -137     -195     -359     -789     -711      178      633 
      98     -255     -137      184      823      643     -506     -718 
     167      767      781      225     -418     -128      189     -295 
    -553     -827    -1356     -978     -230     -342     -735     -757 
    -700      -25     1449     1518     -256     -851      271      824 
     430     -370     -764      515     1551      259    -1059     -996 
    -949     -912     -120      646      892     1741     1982      118 
    -387     1102      943       25     -251     -924     -986     -246 
    -259     -418       90      598     1023      706     -801    -1385 
    -604      -93      608     1024     -133     -576      834     1734 
    1063     -661    -1247      916     2292      136    -2365    -2107 
      91     2126     2636     1352     -692    -1470      419     2296 
     719    -1047     -241     -400    -1408     -661     -382    -1065 
    -360     -135    -1701     -978     2053     2492      654     -757 
   -1680    -1146     1865     4063     1121    -3203    -2116     1614 
    2242       79    -2559    -3160      336     4305     2415    -1998 
   -1179     1323      496     -715    -1107     -441     1092      -10 
   -1819      159     2882     2477      212    -1652    -1686     -700 
    -734     -355      699     -319    -1167      676     2282     2236 
     826    -1486    -1509     1344     3414     2540     -885    -3557 
   -1507     1944      803    -1393      -85      969      963     1660 
    -390    -3440    -1039     2338      230    -1655     -588    -1011 
    -927      758     1170      664     -274      920     4054     1803 
   -3086    -2857    -2219    -1921     3302     6444     2315    -2461 
   -3456    -1171     1219      966       59      731     2448     2903 
     708     -935      868     3284     1956    -2215    -2984      584 
     940    -2745    -2740      818     1559       40      178     1096 
     766       86      410     2201     4102     3045     -553    -2559 
   -1822     -257      818     -533    -2882    -1264     1394     1039 
    1370     2478     3040     3811     2261      653     2224     3153 
    3373     4835     3276    -1362    -1233     4799     7695     3160 
   -4035    -8800    -6640     1543     5238     1092    -2797    -2878 
   -1075     1695     4538     4140     -303    -2263     1489     5671 
    5139     -920    -7545    -7001     1464     8428     4947    -5601 
  -10118    -2324     6320     5671     3530     6006     8019     7125 
    5533     2937    -4392   -11963    -6851     7859    15056    10358 
    -631    -9497    -6732     -843    -2790    -1680     4587     3993 
    1208     1898     1383     4248     8070     2525    -3655    -5231 
   -6340    -1410     2377    -4807    -9458    -4140     3793    14002 
   23164    18310     1462    -7155    -2669     2066     5842     9019 
    3898      540    10350    14823     2695    -4168     1294     -356 
   -7226    -5863    -5721   -13487   -17886   -10181     5806    13127 
    3735    -3885     2123     9861    16524    18477    -3789   -27754 
  -13153    11851    11824     3982      517    -1714    -8800   -23404 
  -17265    11674    27814    38921    44794    13281   -23095   -19753 
   -9243   -20628   -23873    -6512     4673     7939     9703    -1934 
   -8939     1252     3924     5050    10573    -1725   -14917    -7410 
    8064    21041    18571    -7863   -31988   -17370    19668    28784 
    8833   -16286   -31172   -19322    -3419    -2465     2882     6664 
   -1896   -13554   -18112    -3109    15774    15859    15105    25481 
   28705    19654    10590     4376    -1466    -8707   -24568   -34393 
  -11877    19217     9956   -30315   -35275    12640    41674    17354 
   -8517   -10616    -1096    18252    17582   -20501   -36601     4379 
   42167    25096    -8075    -5759      834   -21766   -25824     3842 
   17925    12688     7425    -2150   -11889   -21196   -26496    -4522 
   33480    45720    29968    12259    -4592   -22281   -20150    -5350 
   -9312    -9945    13909    16027   -18625   -28262    13871    44910 
   20097   -15807   -14265     5196     3176    -8743     -675     7808 
   -1328    -3960     4114     9977    14170     8220    -1605    -4314 
  -18031   -27152    -7011    11157    15305    16621     2955    -9322 
   -2508    -3547   -10118     1431    10656     6654     2774    -9238 
  -20209   -10376      182    -3437    -8533    -3928    11689    16671 
    -114    -8691    -2485    -3348    -1904     7886    10631    10052 
   13613    22044    28575     9634   -23213   -28709   -13819    -5705 
   -9873   -28161   -35380    -8052    19002    17896     6786    -4511 
  -10493     1436     8190   -10327   -13721    15052    26786     8748 
   -1530     1371    -5988   -25965   -34523   -21732    -7152     1362 
    5719     1582    -4618    -9549    -7389     5896    12027    13288 
   20092    19129    16205    18927    11838     1143     -346    -3981 
   -8113    -1410     3207    -3813    -4441     7548     9456    -2975 
  -14709   -24252   -25421    -9032    12883    19850    13038    13690 
   14650    -6948   -29007   -22790    -2810     9678    13119    11884 
   10481    14364    17791     9297     1381     9211    12236    -3615 
  -12792    -4360     1408    -2592   -11286   -14965    -5825    -1590 
   -1914    15651    30221    21023     8932     1443    -9505   -17460 
  -12671     4920    24112    32363    25363       51   -36823   -54079 
  -37126   -19622   -22874   -21748    -1814    11024     1159      372 
   22316    34008    32404    27727     7903    -5883     4107     1876 
  -24364   -37477   -28798   -22771   -18820    -7260      685      945 
    -495    -4544    -9863   -10930    -3703     9616    15873     8660 
    2416     8579    24470    41652    41220    24416    15620     5533 
  -14723   -18570    -7003    -2921    -9062   -18786   -18947    -9340 
   -8951   -13954    -7555     5254    15414    15581    -2891   -19984 
  -15568   -17703   -35008   -26461     9676    35171    29535    -4207 
  -29758   -19048     3041    16056    23824    21705    14022    13188 
   13595     7510      934    -1139     1514     5219     2652     2764 
    8703     1896    -7269    -2444     1071     1775     5810     6399 
    5876     3280    -9752   -24209   -24607   -15632    -7092     4530 
   15912    17536    14449    14215    16694    17344     6299   -12781 
  -16027     1534    14404     8460    -2440    -1310     8321     8066 
   -3032    -8043    -6427    -9288    -8464     5864    11762    -5652 
  -16326     -958    18580    25294    19222      727   -22850   -30829 
  -13089     2408    -8781   -18520    -4668     5664     6875    17983 
   15724    -9895   -22782   -24657   -33911   -29987    -5783    14531 
   13942     4240     7284     9771     -743       37     7163    -5409 
  -19141   -12136     3511    17583    20490     2785    -9948    -1285 
    2647    -3028    -6642   -12178   -10184     1023     5011     6349 
    5468    -7411   -13522    -5202     1340    12239    21571     9370 
   -3196     1560     7896     9497     5370    -5247   -14085   -17508 
  -12665    -3422    -2554    -7901   -12383   -16151   -15657    -6656 
    8316    19431    20256    14046     9629    15839    21878    10600 
   -4839    -8961   -12104   -21332   -30869   -35459   -31056   -14033 
    8586    18472    13915     5120    -7360   -15815   -14667   -10655 
   -4889     3194    12761    13069    -1975    -8937    -4069    -8600 
  -14293   -10878   -12313   -21273   -22874   -14654   -11962   -17528 
  -17563   -10351    -2007     9460    20833    22363    14631     3634 
   -5113    -8010   -10478   -10147    -4511    -9850   -19784   -15780 
  -13548   -17281    -9705     -994    -3292    -9707   -19638   -29982 
  -34864   -41536   -48675   -45516   -36888   -30025   -26234   -34716 
  -54946   -68956   -74239   -80462   -84703   -84955   -76747   -50855 
  -25309   -18536   -15619   -11455   -21502   -41882   -52062   -50614 
  -56646   -70394   -67833   -42747   -17766    -9497    -8692    -3188 
    4831     6678    -6351   -20613    -8214    16201    22449    25477 
   40860    54135    60596    61974    52235    37400    23792    11661 
   17140    36652    37071    20876     6500    -8155    -7753     5598 
   -3327   -18480    -7122     7447     9100     7538     1316     3861 
   23459    34461    26599    12954     2994     4236    12352    13882 
    4033   -11340    -9919    19778    41386    24717    -3295    -8058 
   14559    43146    47291    36069    39808    42620    26761    11770 
    6463    13973    34639    45179    45902    55948    54380    25404 
   -1336   -14385   -27616   -28181    -1660    36838    67271    76705 
   67581    55075    37280     8907   -16081   -25714   -17799    -2490 
   -1397   -14349   -17941    -8482    -4966    -7798    -5629   -10058 
  -22512   -22538   -20837   -32169   -34700   -25020   -22995   -24690 
  -19935   -11105    -1382    10768    25492    29500    17305     9470 
   16633    25041    25505    22593    26118    34954    34508    27450 
   21436     8437      346     3897    -4865   -20785   -21609   -10891 
    3049    12577    15068    18748    26036    29880    19140    -9088 
  -44281   -65657   -54305   -27862   -14980    -7005     5873    12830 
   11399     8896     6502     1649     3431    15873    21438    17888 
   17810    10162    -9001   -16977   -11079    -4710     1679     6091 
    3496    -6285   -20333   -34342   -44996   -44335   -35298   -30140 
  -19086     3839    21573    24007    10675    -8920   -17081   -16460 
  -24370   -39366   -47159   -42340   -21902     8299    22231     8818 
  -11772   -22688   -23463   -16872    -5902     3923     8536     9340 
    8966     5325    -4720   -12484    -4391    12722    21786    23296 
   23400    16433     3352     -618     8062    18774    27710    32328 
   27328    20356    18480    14963     9711     3811    -6872   -12602 
   -6582    -1748   -10254   -26393   -33480   -30740   -24700    -6528 
   12081     3842   -15773   -20520   -21319   -27953   -27326   -12093 
    7750    22819    35760    43694    37543    24733    17309    16879 
   22990    28979    28970    27395    20313      997   -19535   -25867 
  -15419     -441     6050     4765    -2053   -13913   -24694   -30289 
  -23164    -3433     5146     -838     2988    16903    26138    26005 
   15433     7499    17443    27361    11214   -17694   -31256   -24217 
   -7234     2633     4456     9143     3117   -15681   -22531   -21547 
  -23248   -11160    14535    32190    31372    13926   -10106   -23481 
  -17003    -5016    -6014   -12827    -5424    19089    39912    34946 
    7951   -16275   -22349   -17332   -11950    -5140     8781    25979 
   37720    44485    39690    10476   -22617   -28894   -18427    -7592 
    8708    22349    17809     -662   -19302   -31896   -37139   -26277 
   -3908    10296    22261    35156    23053   -12748   -40698   -46940 
  -35247   -14964     5136    26453    47405    59011    60359    48069 
   20067     1904    10854    24209    27567    30558    32093    26794 
   20989    14958     1395   -12846   -16421   -15900   -23947   -41202 
  -60504   -75420   -78979   -63478   -27449    18060    51243    58217 
   46364    27915     8865    -5599   -11900    -8712    -1435       -4 
     105     7680    11958     4712    -3469    -9741   -22693   -37332 
  -39380   -29397   -14399     4704    15255     3877   -14638   -18387 
   -6076    10068    17340    11039     -202    -1929     6970    12523 
    9259     6489     8812     7017    -6293   -19623   -18630    -9917 
   -8424   -16113   -20416    -6763    23450    52834    69950    78339 
   78872    65133    41832    20317     2546   -12704   -22685   -20787 
  -10179   -10326   -19449   -17626   -12789   -14559   -12069    -7072 
   -8332    -9283     -881     8977     7539      492    -1413    -1927 
   -7491   -14164   -17559   -16788    -5718     9362     7990    -2384 
    3377    21786    35845    41975    42572    39480    30828    14828 
     176    -3353      812     5201     7974     6689     2835     3535 
    6460    10222    23036    38915    44351    43371    41197    31729 
   16017     -148   -15538   -20185    -8642     1806     2917     6154 
   12988    18526    23814    27437    28151    27299    22967    15453 
    8309    -1661   -15336   -21628   -14532    -1493     6102     3947 
    1628     7900    17153    21868    22154    20852    19499    17836 
   14293     9733     8850    10362     7411     1551    -3099    -8645 
  -11735    -3330     8460     2663   -11067    -6085     5200     3358 
    1004     3302      598    -7557   -16949   -22518   -20163   -10083 
    2471     7491     2292    -4866    -7318    -4107      824      353 
   -5821   -10474   -10315    -8341    -9563   -13275   -11047    -5895 
  -12789   -26569   -26489   -13555    -3646     -858     -311     4784 
   14346    21143    26284    28270    18812     4583    -2887       94 
   16367    35865    40319    33509    29986    26568    19256    16835 
   18918    15537     7928     4140     1287    -6621    -9499     2860 
   17597    17112     4200    -5273    -5198    -4599    -9613    -9977 
    4548    22029    28729    29193    22452     3595   -16879   -32066 
  -43584   -45473   -34169   -17911    -6782    -4974    -8480    -8122 
    -889     6919    10640    10650    10149    13518    17460    14670 
    7555     3831     3558     -537    -9705   -18756   -28918   -36768 
  -31217   -19893   -15291   -10349    -1256     5200     5321     -353 
   -5776    -9585   -15905   -19022   -17132   -21546   -29560   -23909 
   -7813    -1933    -8301   -14307   -18061   -20241   -16696   -10131 
