Origin Time       2016/04/16 01:25:00
Lat.              32.753
Long.             130.762
Depth. (km)       12
Mag.              7.3
Station Code      OIT007
Station Lat.      33.4169
Station Long.     131.6142
Station Height(m) 22
Record Time       2016/04/16 01:25:27
Sampling Freq(Hz) 100Hz
Duration Time(s)  161
Dir.              N-S
Scale Factor      7845(gal)/8223790
Max. Acc. (gal)   50.053
Last Correction   2016/04/16 01:25:27
Memo.             
[...]
  -12942   -11604   -10243    -8819    -7406    -6511    -6261    -6091 
   -5688    -5244    -4897    -4696    -4669    -4648    -4522    -4440 
   -4452    -4441    -4268    -3831    -3254    -2868    -2833    -3037 
   -3311    -3638    -4098    -4648    -5227    -5863    -6536    -7426 
   -8779   -10370   -11844   -13166   -14327   -14902   -14420   -13247 
  -12048   -10694    -9070    -7804    -7229    -7071    -7175    -7418 
   -7663    -7973    -8102    -7666    -6956    -6496    -6234    -5871 
   -5490    -5483    -5964    -6617    -7188    -7569    -7495    -6867 
   -6041    -5256    -4360    -3404    -2774    -2540    -2420    -2201 
   -1965    -2060    -2616    -3276    -3615    -3561    -3461    -3555 
   -3541    -3284    -3250    -3711    -4440    -5364    -6660    -7998 
   -8681    -8652    -8496    -8618    -9034    -9628   -10208   -10633 
  -10885   -11014   -11044   -10874   -10459    -9942    -9436    -8903 
   -8270    -7541    -6798    -6170    -5840    -5926    -6444    -7371 
   -8297    -8692    -8872    -9167    -8908    -7836    -6737    -6097 
   -5844    -5868    -6085    -6546    -7277    -8024    -8542    -9034 
   -9900   -10960   -11654   -11797   -11430   -10578    -9405    -8032 
   -6447    -4828    -3655    -3257    -3380    -3447    -3230    -3076 
   -3434    -4448    -5954    -7519    -8746    -9516    -9690    -9289 
   -8780    -8418    -8136    -8029    -8025    -7952    -7940    -7874 
   -7519    -7074    -6556    -5778    -5000    -4414    -3763    -3013 
   -2326    -1676    -1042     -614     -683    -1197    -1819    -2567 
   -3541    -4409    -5005    -5539    -5961    -6157    -6396    -6833 
   -7217    -7392    -7593    -7920    -7935    -7523    -7276    -7344 
   -7319    -7041    -6489    -5671    -4748    -3942    -3369    -2936 
   -2647    -2694    -2872    -2882    -2970    -3449    -4159    -4743 
   -5289    -6246    -7481    -8376    -8934    -9516    -9911    -9662 
   -8881    -8114    -7632    -7384    -7378    -7588    -7962    -8385 
   -8500    -8162    -7619    -7069    -6435    -5617    -4870    -4498 
   -4374    -4351    -4610    -5147    -5636    -6048    -6577    -6990 
   -6949    -6671    -6427    -6115    -5699    -5254    -4783    -4388 
   -4178    -4071    -3943    -3811    -3927    -4422    -4977    -5416 
   -5846    -6103    -6093    -6157    -6482    -7034    -7712    -8081 
   -7817    -7326    -6997    -6535    -5821    -5324    -5169    -4997 
   -4726    -4710    -5223    -5923    -6254    -6308    -6363    -6334 
   -6274    -6332    -6393    -6462    -6825    -7496    -8105    -8527 
   -8914    -9180    -9244    -9212    -8981    -8367    -7601    -7021 
   -6558    -6026    -5552    -5297    -5169    -4982    -4572    -4028 
   -3680    -3504    -3271    -3223    -3738    -4722    -5795    -6602 
   -7084    -7472    -7827    -7985    -7867    -7476    -6918    -6465 
   -6234    -6102    -5938    -5611    -5105    -4723    -4633    -4483 
   -4101    -3815    -3680    -3433    -3117    -2862    -2593    -2512 
   -2857    -3348    -3828    -4564    -5491    -6326    -6836    -6677 
   -5956    -5356    -5112    -4881    -4635    -4606    -4718    -4881 
   -5233    -5686    -5948    -5968    -5948    -6129    -6566    -6955 
   -6912    -6432    -5757    -4916    -3824    -2600    -1462     -531 
     112      259     -349    -1651    -3179    -4496    -5521    -6417 
   -7202    -7649    -7553    -7017    -6521    -6416    -6397    -6037 
   -5406    -4839    -4364    -3767    -3136    -2682    -2305    -2000 
   -2098    -2678    -3443    -4279    -5301    -6455    -7588    -8739 
   -9826   -10527   -10679   -10350    -9705    -8999    -8352    -7677 
   -7005    -6593    -6465    -6358    -6151    -5929    -5791    -5793 
   -5817    -5660    -5463    -5576    -5961    -6216    -6129    -5915 
   -5923    -6093    -6143    -6232    -6632    -7053    -7222    -7357 
   -7570    -7672    -7519    -7160    -6874    -6853    -6886    -6698 
   -6290    -5818    -5454    -5402    -5888    -6918    -8086    -8957 
   -9521    -9991   -10357   -10513   -10558   -10667   -10829   -10797 
  -10465   -10131   -10068   -10138   -10152   -10119   -10046    -9867 
   -9590    -9293    -9049    -8916    -8955    -9209    -9713   -10374 
  -10751   -10461    -9894    -9589    -9103    -8002    -7080    -6978 
   -7140    -7084    -6968    -6851    -6613    -6242    -5763    -5220 
   -4768    -4598    -4598    -4479    -4433    -4887    -5718    -6544 
   -7330    -8239    -9193    -9923   -10455   -10986   -11400   -11605 
  -11846   -12220   -12480   -12444   -12066   -11373   -10597    -9880 
   -9219    -8797    -8579    -8237    -7784    -7466    -7348    -7381 
   -7506    -7586    -7514    -7361    -7188    -6951    -6711    -6504 
   -6231    -5987    -5958    -6200    -6743    -7504    -8168    -8748 
   -9714   -10976   -11828   -12150   -12424   -12756   -12883   -12783 
  -12591   -12221   -11639   -10940   -10027    -8995    -8213    -7650 
   -7059    -6536    -6251    -6141    -6048    -5875    -5689    -5703 
   -5964    -6334    -6696    -6835    -6663    -6585    -6855    -7233 
   -7666    -8301    -9008    -9598   -10092   -10426   -10339    -9795 
   -9163    -8583    -7817    -7036    -6640    -6419    -6031    -5736 
   -5913    -6508    -7271    -8014    -8664    -9234    -9594    -9634 
   -9609    -9640    -9397    -8827    -8375    -8170    -7923    -7565 
   -7130    -6470    -5688    -5103    -4687    -4218    -3699    -3256 
   -2878    -2543    -2435    -2565    -2667    -2813    -3222    -3732 
   -4261    -4796    -5038    -4950    -4822    -4745    -4645    -4510 
   -4522    -4765    -5040    -5489    -6346    -7334    -8260    -9212 
  -10050   -10577   -10754   -10639   -10354   -10037    -9837    -9837 
   -9961   -10077   -10157   -10289   -10561   -10848   -10878   -10521 
   -9953    -9393    -8753    -7871    -6961    -6201    -5327    -4310 
   -3561    -3078    -2496    -1829    -1246     -730     -351     -167 
    -106     -232     -598     -815     -531      -62      216      344 
     175     -423    -1112    -1638    -1989    -2107    -1982    -1675 
   -1314    -1053     -918     -859     -888    -1017    -1063     -810 
    -448     -373     -760    -1537    -2497    -3593    -4965    -6370 
   -7337    -7935    -8490    -8972    -9350    -9742   -10079   -10228 
  -10349   -10643   -11037   -11442   -11996   -12621   -13072   -13325 
  -13313   -12943   -12287   -11230    -9684    -7867    -5868    -3655 
   -1389      751     2755     4598     6133     7375     8520     9436 
    9911    10219    10597    10864    10870    10628    10121     9294 
    8290     7391     6544     5637     4873     4322     3835     3353 
    2751     1813      576     -654    -1752    -2870    -4067    -5359 
   -6720    -7789    -8311    -8588    -8920    -9155    -9242    -9463 
   -9875   -10343   -10935   -11541   -11807   -11684   -11402   -11133 
  -10989   -11053   -11326   -11735   -12187   -12569   -12811   -13005 
  -13304   -13645   -13872   -14052   -14280   -14438   -14331   -13795 
  -12810   -11628   -10508    -9445    -8457    -7645    -6951    -6359 
   -6031    -5960    -5948    -5950    -5973    -5915    -5807    -5751 
   -5601    -5314    -5138    -5044    -4741    -4195    -3559    -2960 
   -2493    -2151    -2025    -2305    -2844    -3364    -3916    -4572 
   -5305    -6346    -7871    -9629   -11379   -13111   -14780   -16371 
  -17988   -19586   -20956   -21972   -22566   -22570   -21864   -20621 
  -19313   -18189   -16931   -15402   -14096   -13285   -12657   -12071 
  -11623   -11236   -10885   -10636   -10266    -9559    -8706    -7913 
   -7184    -6579    -6226    -6115    -6189    -6511    -7092    -7609 
   -7719    -7530    -7389    -7510    -8007    -8787    -9535   -10181 
  -10859   -11483   -11855   -11874   -11573   -11157   -10868   -10720 
  -10544   -10370   -10444   -10771   -11057   -11245   -11669   -12540 
  -13647   -14688   -15480   -15946   -16081   -15826   -15075   -13846 
  -12337   -10719    -9038    -7366    -5857    -4625    -3692    -3086 
   -3037    -3717    -4899    -6335    -8131   -10226   -12027   -13185 
  -14119   -15117   -15939   -16648   -17575   -18679   -19695   -20457 
  -20819   -20736   -20466   -20227   -19782   -18989   -18179   -17473 
  -16613   -15525   -14469   -13591   -12622   -11622   -11137   -11071 
  -11025   -11192   -11651   -12160   -12627   -13065   -13394   -13401 
  -13157   -13095   -13281   -13432   -13606   -14135   -15113   -16308 
  -17409   -18284   -18941   -19449   -19903   -20035   -19537   -18812 
  -18314   -17917   -17537   -17296   -17207   -17275   -17458   -17509 
  -17259   -16788   -16090   -14898   -13038   -10535    -7600    -4723 
   -2143      479     3017     4820     6080     7296     8182     8479 
    8395     8215     8144     8163     8225     8707     9896    11221 
   12021    12349    12359    12012    11411    10959    10972    11219 
   11454    11877    12719    13770    14538    15171    16067    16615 
   16100    14700    12688    10380     8155     5942     3969     2586 
    1119     -874    -2497    -3376    -4279    -5476    -6509    -7007 
   -6886    -6519    -6496    -6716    -6465    -5817    -5451    -5428 
   -5613    -5972    -6077    -5771    -5070    -3762    -2598    -2118 
    -834     1972     4758     6222     6427     6588     7056     6146 
    4660     5485     6531     4824     3932     5883     5787     2361 
     394     1090     1132    -1147    -3566    -3765    -3044    -2754 
   -1880     -888     -855     -795      166     1206     1582     2018 
    2913     3249     2944     2600     1549      367      658      999 
    -634    -3349    -5310    -5786    -6376    -8619   -10058    -9034 
   -8816   -11223   -13347   -12559   -10413   -10390   -11937   -11099 
   -7089    -2872    -1060    -1003      606     3719     4560     3504 
    3550     2983    -1132    -7639   -14046   -19410   -23904   -27966 
  -31159   -31793   -29143   -25600   -23128   -20068   -15518   -11331 
   -8924    -7931    -7141    -7099    -8199    -8454    -9081   -12388 
  -15228   -15383   -15472   -16753   -18261   -19777   -21139   -22019 
  -23193   -25664   -28431   -29563   -29004   -27411   -25100   -23014 
  -21618   -20233   -18023   -15025   -12241   -10288    -8818    -7010 
   -5209    -5347    -7655    -9728   -10212   -11164   -15067   -20039 
  -22123   -21641   -21953   -23843   -25524   -25843   -24437   -21780 
  -20560   -21957   -22616   -21598   -22337   -24432   -24915   -23895 
  -22149   -20029   -18160   -16306   -14278   -13479   -15385   -18670 
  -21165   -22905   -24324   -24825   -23766   -22455   -23249   -25772 
  -28416   -30233   -30400   -29224   -25917   -20362   -16312   -13740 
   -8833    -4282    -4784    -6847    -5857    -4652    -5402    -4718 
   -1925     -448     -117     2121     4556     4414     4050     4395 
    3840     3219     2809     1692     -695    -5689   -11651   -14783 
  -16826   -20124   -21976   -22669   -24020   -23754   -21728   -20132 
  -18928   -17745   -16621   -15360   -14991   -16124   -16409   -15199 
  -15492   -17429   -18042   -17575   -19661   -23531   -24061   -21514 
  -19337   -16811   -12290    -7439    -5009    -3856    -1606     -251 
   -1914    -4162    -4548    -5341    -7344    -6343    -2598     -598 
     174     2355     5275     7456     9468    12043    14083    14665 
   14488    14152    11678     6031     1386     -287    -1822    -2469 
    -459     1320     1036      731      963     -889    -5756    -9653 
   -9699    -9038    -8715    -6123    -3515    -2633     -564     2731 
    5494     7902    10694    13824    15043    13277    11283    10173 
    8117     5826     4854     3387      301    -2880    -6114   -11614 
  -19037   -23668   -23662   -21370   -17265   -12233    -8449    -5637 
   -3319    -2057    -2220    -4854   -10436   -17234   -23842   -30356 
  -35270   -36769   -35221   -30169   -23172   -19279   -17744   -14949 
  -13193   -13560   -13288   -12490   -12039   -10746    -8108    -5076 
   -3581    -4220    -4441    -3770    -5096    -8444   -11807   -14624 
  -17242   -20964   -25542   -28019   -27521   -26438   -26030   -25092 
  -22972   -21088   -20494   -18850   -13855    -8451    -5031     -731 
    5121     9104     9960     8792     6249     2940     -556    -3950 
   -6542    -8085    -8610    -7777    -6069    -3631     -351     2272 
    3979     6027     8182    10471    13146    14990    13726     6916 
   -2830   -10091   -16707   -25604   -33355   -38838   -43375   -44605 
  -41801   -37862   -33258   -26968   -20713   -16443   -12679    -7655 
   -3796    -3296    -3836    -4041    -5287    -7990   -10625   -10458 
   -7928    -6230    -4982    -2964    -1055     1096     3592     5259 
    6068     6377     6702     7564     6874     2906    -2052    -6621 
  -10929   -12761   -12727   -13849   -13416    -9591    -7114    -6790 
   -5409    -3319     -402     4162     9263    14624    18885    20398 
   19668    16911    13467    10170     5900     1991     -999    -4969 
   -8980   -10940   -11913   -13096   -11983    -7939    -5151    -5393 
   -6670    -7312    -7761    -9899   -12869   -13625   -11959   -10334 
  -11373   -15493   -20096   -23882   -28129   -33118   -38337   -42105 
  -41450   -38199   -37720   -39347   -38078   -33821   -29797   -24908 
  -17481   -11840   -10055    -7712    -4565    -3489    -3306    -2841 
   -1204     3573    11543    21591    31354    38700    43845    45513 
   42070    34175    22715    10615     1312    -5833   -12264   -17154 
  -19944   -21651   -22230   -20877   -19288   -18337   -16089   -13142 
  -12198   -13077   -13082   -11126    -8756    -5737       -1     6926 
   11635    13595    13139    10143     5471     -571    -7318   -12950 
  -17382   -20106   -19674   -16695   -11537    -4978     -125     1686 
    2102     2635     3514     4955     7145     8688     7742     4575 
    1069    -2026    -5275    -9004   -12583   -14089   -12806   -10176 
   -6276    -1445     1019      400     -112     -499    -2571    -4874 
   -6837    -9005    -9610    -8073    -5787    -4369    -5205    -7348 
   -9161    -9472    -5998     1278     8660    13471    16629    20148 
   23618    25625    26931    29072    31935    34109    35171    34466 
   29763    22202    14835     7140     -886    -7430   -12567   -16209 
  -17111   -15515   -12926    -9788    -5356      -47     4645     8529 
   11245    11233     8965     6062     2559     -153      734     4726 
    9005    12213    14113    15072    15741    15564    14581    14466 
   15596    17702    21095    24665    26875    27418    26149    22342 
   16340    10228     4099    -3456   -11181   -17243   -21836   -26083 
  -29289   -30092   -31463   -35448   -38307   -38746   -38998   -38464 
  -35873   -32624   -30144   -27977   -25571   -23157   -20644   -17690 
  -14014    -9232    -3753     1401     6087    10143    12989    14628 
   13927    10747     8571     8240     7738     8044     8926     8175 
    7302     7859     8245     7753     7422     7773     7993     7400 
    6844     7295     8365     8843     7983     6471     5359     4483 
    3352     2000       70    -3038    -6442    -8384    -9428   -10951 
  -11685   -10423    -8295    -6633    -5239    -3083     -206     3013 
    6579     9497    10497     9709     8264     6571     4531     2592 
     635    -1981    -5182    -8147   -10349   -12613   -15238   -16869 
  -16826   -15356   -12729    -9652    -7034    -5478    -5040    -5323 
   -6088    -7649    -9853   -11794   -13828   -16177   -17076   -16652 
  -16228   -14494   -11462    -9347    -7736    -5732    -4509    -4207 
   -4347    -5454    -7034    -8617   -11504   -15668   -19460   -22495 
  -24781   -25647   -24954   -23947   -23359   -21927   -19824   -18721 
  -18211   -17382   -15985   -14002   -12383   -10802    -8141    -5877 
   -5319    -5181    -4860    -5101    -5557    -5327    -4743    -4803 
   -5584    -6246    -6677    -7465    -8421    -9412   -10740   -12249 
  -14165   -16627   -19109   -21752   -24704   -27438   -29954   -32328 
  -33627   -33106   -31706   -30522   -29362   -28274   -27326   -25643 
  -23139   -20557   -17884   -14825   -12046   -10351    -9232    -7985 
   -6932    -6146    -4513    -1954     -298      699     2447     3511 
    2889     1750       -4    -3225    -6728    -9120   -11203   -12991 
  -12600   -10542    -9456    -9556    -9004    -7803    -7699    -8550 
   -8375    -7115    -5923    -4676    -3642    -3355    -3446    -3909 
   -4595    -5089    -5476    -5599    -5533    -5590    -5526    -5428 
   -5800    -6454    -6985    -7630    -8089    -7356    -6076    -6091 
   -7334    -8687   -10740   -13771   -15645   -15404   -14808   -14878 
  -14690   -13188   -10952    -9737    -9691    -9147    -8021    -7755 
   -7663    -6574    -5301    -3576    -1282     -677    -1930    -2991 
   -3496    -4563    -6952    -9549   -10940   -11699   -12486   -13062 
  -13181   -12783   -12406   -12316   -11989   -11122    -9682    -7871 
   -6594    -6115    -5100    -4003    -5215    -7877    -9644   -10434 
  -10705   -11164   -11955   -12144   -12042   -11867   -11009    -9925 
   -8657    -6658    -4735    -3523    -2130      -25     1779     2825 
    4158     5478     5640     5517     5582     4716     3057     1201 
    -872    -2724    -4610    -7091    -9454   -11554   -13819   -15764 
  -17369   -18935   -20259   -21498   -22850   -24364   -25820   -26553 
  -26836   -27542   -28256   -27966   -26658   -24922   -23009   -20702 
  -18184   -16364   -15419   -14359   -12584   -10361    -7786    -4877 
   -2290     -289     1534     3118     4355     5514     6153     5505 
    4306     3464     2107      -60    -2255    -4625    -7055    -8883 
  -10161   -10984   -11422   -12008   -12702   -12594   -11892   -11646 
  -11458   -11097   -11302   -11480   -11183   -11219   -11379   -10878 
   -9780    -8673    -8293    -8545    -8388    -7560    -6963    -7044 
   -7429    -8066    -9103   -10362   -11264   -11587   -12563   -14233 
  -14905   -14855   -14763   -14116   -13246   -11928    -9265    -6048 
   -3424    -1313      476     1440     1556     1985     2930     3325 
    3360     4101     5697     7642     9275    10112    10179     9486 
    7813     5636     3782     1971     -178    -1985    -3279    -4467 
   -5385    -5945    -6366    -7007    -7746    -7340    -5998    -5085 
   -4114    -3323    -4152    -5714    -6814    -7812    -8631    -9194 
  -10134   -11037   -10929   -10250    -9614    -8691    -7578    -6820 
   -6254    -5468    -4743    -4486    -4598    -4689    -4151    -3092 
   -2619    -3125    -3809    -4074    -4498    -5498    -6243    -6345 
   -6097    -5514    -5062    -5067    -5275    -5803    -6774    -8017 
   -9292   -10085   -10087    -9913   -10157   -10112    -9594    -9784 
  -10631   -11101   -11253   -11209   -10719   -10154    -9558    -8156 
   -5998    -4359    -3828    -3459    -2745    -2543    -2739    -2065 
    -849     -211     -101     -236     -519     -963    -1965    -3563 
   -5387    -7353    -9609   -12190   -14473   -16071   -17671   -18779 
  -18436   -18006   -18364   -18355   -17967   -17891   -17626   -16814 
  -15917   -15155   -14241   -13050   -11909   -10801    -9269    -7570 
