Origin Time       2016/04/16 01:25:00
Lat.              32.753
Long.             130.762
Depth. (km)       12
Mag.              7.3
Station Code      OIT011
Station Lat.      33.2461
Station Long.     131.8811
Station Height(m) 7
Record Time       2016/04/16 01:25:27
Sampling Freq(Hz) 100Hz
Duration Time(s)  127
Dir.              E-W
Scale Factor      7845(gal)/8223790
Max. Acc. (gal)   46.630
Last Correction   2016/04/16 01:25:27
Memo.             
[...]
   37949    37072    36512    35295    32270    27901    23264    19367 
   17211    16394    15407    13802    12016    10484    10062    11389 
   13783    15714    16289    16339    17386    19476    21651    24084 
   27745    32710    37847    41837    44686    47527    50403    51991 
   51652    49557    45559    39927    33999    28845    24463    20669 
   17575    15187    13502    13007    13994    15298    15068    13041 
   10764     9683    10017    11221    12548    13359    13815    15426 
   19741    25948    31309    34557    36904    39607    42642    45281 
   46489    45905    43978    40315    34674    29413    27108    26867 
   25898    23175    20029    18149    17779    17907    17750    17076 
   15619    13617    12145    11662    11306    10405     9410     9359 
   11088    14285    17705    20800    24208    28528    33153    36963 
   39403    40366    40359    40153    39876    39433    38199    34904 
   30009    25790    23160    21074    18623    15943    13892    13660 
   15704    18893    21475    22644    22929    23535    25020    26383 
   26507    25859    25180    24611    24807    26111    27547    28327 
   28611    28880    29578    30369    30362    29659    28575    26728 
   24682    23828    24236    24788    24934    24911    24935    25172 
   25740    26496    27157    26981    25384    23436    22504    22187 
   21779    21942    23584    26491    29371    30915    31252    31658 
   32295    32363    32162    32067    31344    29643    27247    24747 
   23233    22565    21051    18308    15893    14855    14929    15592 
   16405    17192    18037    18706    19084    19742    20914    22115 
   23109    23973    24746    25559    26339    26998    27947    29280 
   30241    30639    31330    32606    33624    33338    31522    29276 
   27909    27357    26538    24704    22129    19990    19318    20019 
   21230    22175    22597    22484    21809    21016    20576    20120 
   19627    20023    21131    21425    20687    20289    20822    22014 
   23988    26596    29150    31083    31410    29810    28661    30071 
   32549    33712    32989    30946    29046    28863    29948    30740 
   30806    29897    27352    23892    21315    20119    18924    16486 
   13726    12509    12884    13563    14265    15585    17551    19718 
   21809    23912    26208    28177    29068    29230    29710    30956 
   32281    32579    32011    31715    31681    31141    29952    28258 
   26646    26179    26881    27730    28013    27252    25435    23746 
   23210    23396    23539    23287    21843    18848    16436    17199 
   20174    22102    22095    21883    22655    24417    27012    29894 
   32081    33053    32857    31835    31036    31377    32132    31988 
   30993    30289    30573    30831    29353    26631    25002    25181 
   25704    25151    23337    21149    19457    18076    16484    14906 
   13875    13351    13208    14119    16869    20956    24208    24854 
   24409    25779    28745    30851    31275    31013    31148    32246 
   34028    35613    36602    36925    36298    34904    33381    32038 
   30974    29924    27938    24675    20903    17400    14894    13697 
   13177    13265    14597    16740    18698    20336    22204    24555 
   26701    28134    29450    31070    32710    34109    35077    35853 
   37243    39484    41646    42673    42460    41455    39864    37337 
   33563    29448    26091    22897    19315    16538    15518    15921 
   17219    18906    20544    21972    23102    23986    24703    24976 
   24983    25509    26246    26343    26744    28586    30793    32397 
   34099    36085    37601    38249    37856    36479    34767    33261 
   31945    30559    28804    26819    25407    25115    25648    26611 
   27591    27544    26092    24640    24223    24042    23043    21192 
   19394    18886    19996    21980    24220    26526    28800    31064 
   33265    35077    36269    36930    37092    36537    35117    32902 
   30092    27197    25177    24304    23259    21207    19259    18585 
   19024    19737    20225    20787    21848    23040    23727    24277 
   25506    27214    28683    29789    30623    31000    30848    30499 
   30366    30576    31104    32042    33064    33157    32239    31625 
   31649    31112    29393    26956    24358    21783    19105    16669 
   15631    16348    17604    18574    20005    22465    25122    27105 
   28590    30040    31394    32131    31795    30375    28401    26931 
   26908    27888    28402    28193    28421    29315    29899    29994 
   30082    29772    28505    26873    25868    25394    24478    22898 
   21240    19554    17940    17450    18566    20260    21327    21365 
   21011    21573    23373    25355    26855    28023    28931    29597 
   29832    29111    27645    26559    26191    25647    24526    23323 
   22442    22368    23495    25137    26246    26644    26523    25983 
   25461    25373    25370    24914    24175    23890    24443    25239 
   25517    25493    25616    25658    25482    25470    25785    25733 
   24436    22297    20709    20078    19808    19622    19537    19607 
   20132    21447    23557    25756    27186    28247    29768    31264 
   32077    32512    32705    32358    31561    30781    30406    30373 
   30049    29059    27920    26870    25231    22885    20522    18509 
   17055    16289    15700    14805    13724    12819    12429    12603 
   13158    14047    15282    16945    19209    21903    24441    26392 
   27810    29002    30241    31650    32899    33269    32622    31780 
   31534    32058    33077    33874    33905    33380    32439    30786 
   28521    25987    22918    18912    14351    10315     7870     7387 
    8391    10172    12313    14733    17521    20636    23654    26056 
   27523    28039    27982    27761    27540    27450    27190    26284 
   25602    26377    28057    29764    31646    33315    33876    33411 
   32597    31954    31569    30723    28827    26441    24387    23010 
   22439    22351    22025    21357    20877    21060    22076    23287 
   23747    23538    23282    23016    22783    23086    23851    24383 
   24273    23402    22222    21902    22782    23734    23836    23485 
   23630    24628    26106    27965    30393    32792    34403    35079 
   34686    33319    31684    30358    29307    28158    26674    24987 
   23388    22199    21787    22181    22655    22279    20925    19226 
   17791    16679    15579    14434    13631    13838    15704    19053 
   22596    25290    27654    30420    33170    35492    37247    37835 
   37089    35515    33696    32470    32128    31772    30622    28818 
   27197    26634    26804    26635    25839    24646    23380    22492 
   22092    22094    22522    23194    23739    23908    23820    23832 
   24148    24981    26381    27449    27183    26100    25515    25952 
   27114    28281    28825    28602    27653    26288    25358    25367 
   25546    25042    24547    25095    26347    27529    28436    28970 
   29158    29412    29829    29975    29859    29933    30156    30118 
   29612    28821    28078    27133    25415    23504    22790    23375 
   23934    23490    22474    22040    22419    22802    22654    21860 
   20444    19161    19002    19742    20422    20823    21311    22153 
   23468    25126    26981    28958    30413    30634    30019    29686 
   30294    31411    31977    31680    31067    30445    29988    30187 
   31087    31785    31396    29988    27966    25740    24125    23290 
   22049    19878    17747    16154    14708    13431    12590    12116 
   12043    12474    13042    13504    14311    15761    17559    19573 
   21828    23838    25204    26285    27390    28572    30078    31753 
   33069    34117    35360    36686    37454    37143    36040    34928 
   33836    31978    28987    25263    21436    18338    16586    15614 
   14481    13215    12370    12393    13552    15614    17917    20144 
   22322    23980    24430    23924    23344    23236    23815    24861 
   25745    26403    27395    28665    29664    30423    30977    31037 
   30936    30844    29847    27615    25039    22685    20910    20317 
   20421    20191    19878    19936    20094    20584    21567    22434 
   23256    24528    25783    26445    26453    25717    24767    24630 
   25093    25146    24741    24262    23755    23722    24902    27008 
   28923    29941    30275    30584    30989    30921    30354    29729 
   28613    26543    24493    23811    24547    25539    26034    26761 
   28692    31452    33845    35060    34908    33581    31337    28474 
   25624    23448    21910    20441    18639    16488    14513    13609 
   14041    15321    17163    19406    21605    23386    24282    23832 
   22796    22586    23166    23241    22176    20567    19442    19533 
   20979    23247    25683    27967    29774    31102    32644    34454 
   35364    34350    31382    27392    23610    20374    17388    14831 
   13153    12417    12721    14283    16530    18289    18885    18684 
   19059    20814    22833    24055    25321    27635    31004    35232 
   39714    43680    47078    49763    50957    50519    49416    47983 
   45416    41481    36660    31511    26792    22597    18489    14936 
   12436    10551     9038     7973     7111     6520     6741     7969 
    9938    12212    14291    15962    17523    19688    23201    27950 
   32547    35834    38246    40656    42849    44037    44092    43560 
   42795    41458    38944    35330    31306    27352    23811    21018 
   18909    17265    16177    15649    15529    16209    18387    22140 
   26392    29376    30447    30856    31779    32894    33319    32520 
   30218    26505    22554    20283    20344    21060    20425    18523 
   17138    17707    20227    23835    27436    29663    29855    29023 
   28691    29432    30762    31641    31801    32495    34427    36358 
   37165    37088    36273    34663    33046    31724    29949    28040 
   26620    24579    21307    17802    14480    11257     8135     4799 
    1584     -464     -981     -342     1221     4093     9032    16128 
   24363    32355    39131    44798    50338    56242    61357    63780 
   63193    61171    58922    55845    50845    44334    37804    32177 
   27796    25019    23724    22775    20869    17902    14917    12772 
   11292     9819     8492     8014     8305     8803     9610    11388 
   14740    19549    24448    27907    30152    32575    35329    37395 
   38507    39166    39480    38823    36362    32128    27108    22275 
   18316    15560    13578    11504     9042     7013     6427     7589 
   10268    13485    16109    18169    20187    22061    23491    24409 
   24793    24740    24583    24783    25849    27602    28633    27919 
   26406    25809    26400    26910    26146    24133    21960    20756 
   20748    21394    22381    24092    26989    31207    36618    42500 
   47738    51834    54911    57307    59476    61253    61839    61140 
   59741    57854    55293    51827    47417    42419    37220    31592 
   24921    17138     9051     1767    -4028    -8303   -11529   -14345 
  -16826   -18069   -16972   -13177    -7365    -1256     3859     8683 
   14555    21933    30649    39791    47725    53468    57751    62094 
   66676    69903    70440    68480    65202    61975    59196    55688 
   50372    43618    35934    27588    20085    14864    11175     7474 
    3180    -1337    -5225    -7951    -9493    -9850    -8820    -5961 
   -1327     3827     7854    10453    13219    17741    23763    29987 
   35436    39586    42610    45524    48915    52263    54741    55890 
   55746    54955    54588    54723    54152    51899    47868    42687 
   37449    33315    30808    29307    27828    26117    24595    23534 
   22782    22072    21288    20252    18611    16741    15628    15360 
   15348    15350    15111    14268    13250    13027    13770    14904 
   15936    16637    17334    18705    20709    22488    23387    23379 
   22617    21423    20576    20690    21528    22493    23247    23986 
   24922    25513    25481    25431    25335    24511    23402    23155 
   24027    25431    26559    27167    28206    30045    31360    31377 
   30223    27712    24853    23653    24268    25205    25317    24320 
   22800    21597    20997    21018    21212    20208    17388    14658 
   14311    15949    17694    18936    20752    24336    29223    34140 
   39027    44010    47881    49608    50186    51509    53512    53995 
   51958    49273    47817    46468    42970    37874    33921    31922 
   30013    27094    24133    21755    19453    16776    13649    10806 
    9108     7960     6841     7136     9459    11611    12108    12819 
   16344    22526    28620    32960    36416    39715    42304    43977 
   45179    45809    45252    43035    38838    32637    25353    18659 
   13406     9310     6044     3744     3153     4477     6795     9736 
   13281    15905    16260    15480    15192    15801    17018    18262 
   19855    22885    26950    30613    33610    36551    39879    43109 
   44346    42279    37760    32338    27345    23103    18131    11685 
    5464     2173     3376     7808    12455    15419    17899    21759 
   25292    26149    25967    27409    29901    32219    35371    39829 
   44876    50386    55694    59661    62217    64054    65653    66397 
   64683    59895    53433    46526    38585    30040    22755    16287 
    9117     1117    -6903   -13516   -18318   -21681   -23132   -22343 
  -19913   -17015   -13892   -10106    -6447    -2488     4475    14095 
   22268    27507    32170    37901    44506    50928    56552    62041 
   65360    63580    59562    57609    57694    57084    53542    48122 
   43474    39112    32975    26546    22626    20182    16738    13027 
   11137    10724    10187     9144     7306     4745     4251     7295 
   10377    10381     8594     8614    12916    19467    23492    24749 
   27519    32223    35534    37867    41470    44240    43210    39845 
   36428    33598    32373    32017    30352    27599    24916    22987 
   22943    23683    22326    20578    22473    25628    25386    23425 
   23172    24093    24329    23002    22114    25182    29610    30098 
   29436    32826    37944    39885    38119    35187    33096    30631 
   25564    20092    17413    15982    13582    11257    11376    14288 
   16114    13624    10752    14234    22923    27776    25570    23304 
   25853    30261    32980    34295    35725    37555    38804    39156 
   39442    39654    39992    40533    39810    38082    36135    33326 
   31341    31125    29879    27985    27321    24648    18682    12981 
    8710     6034     5746     5811     4434     3336     4494     7088 
    9834    13497    17433    19193    19634    20632    20997    21316 
   23550    25065    23642    21748    21539    23496    27407    30708 
   31534    32011    33295    33853    32975    30703    28495    28460 
   30059    31016    29812    27613    26885    25906    22455    19660 
   19167    18677    16794    12295     6021     3038     5182     8407 
   10114    10273     9864    11577    15772    20210    24237    27395 
   28181    27180    27301    29350    31509    32923    33609    33922 
   35459    38697    42025    44670    46357    45900    44107    42601 
   39563    33923    28656    24876    20966    16602    12097     8567 
    8444    11271    13636    15742    20139    25245    28478    30172 
   30022    27153    23795    21918    20073    18733    20348    23433 
   26295    30631    36173    40532    43302    44482    43842    43162 
   43637    43216    40078    35113    30020    25909    23292    21840 
   20480    19176    18905    19484    20552    21536    20391    16968 
   13983    13346    14378    15199    14832    14057    14609    16600 
   18524    20268    22452    24394    25172    24775    23602    22596 
   23062    24910    26790    27498    26800    26055    26203    26631 
   27954    31504    35051    34943    32109    30422    31342    33573 
   34807    32949    28919    26117    24896    23005    21246    22252 
   25008    26657    27534    28957    30849    33124    34007    31648 
   29027    29261    29485    26420    21678    17841    16032    17471 
   21591    24922    25983    26636    27522    28005    28179    28048 
   28174    29011    28759    27156    26882    27677    27774    28128 
   29604    31792    33943    34793    34338    34649    36444    38117 
   38578    36620    31377    25861    22681    19876    16652    14453 
   12812    11344    10987    12052    14615    18516    22572    25741 
   28067    28910    27675    26730    27854    29489    30063    29133 
   27874    27877    27807    27091    28656    32962    37573    41314 
   42925    42677    42735    41214    36109    31174    28637    26275 
   23715    21921    19614    16357    14604    15641    18183    20509 
   21169    20652    20613    20763    21151    22848    24205    23261 
   21222    19635    19620    21847    23826    23067    21841    24050 
   29149    32679    32616    31299    31257    32857    35218    36765 
   37018    36834    35715    33396    30835    28181    25986    24048 
   20340    15680    13346    13230    12694    10990     9544    10547 
   14469    18384    19921    20459    21907    24426    27616    30180 
   30605    30122    31036    32987    34261    34348    34172    34690 
   34965    33893    32413    31306    30007    27874    24865    21604 
   19122    18096    17617    16799    16557    17004    16754    15565 
   15519    18711    23370    25671    25400    25822    28094    29952 
   30481    30905    31724    32840    33421    33107    33509    33951 
   32324    30295    29478    28945    27488    23544    18513    17069 
   19332    21207    22015    22316    20340    17482    18378    23338 
   28009    30080    30520    29879    28416    26312    23342    21471 
   22187    23160    22929    22929    24552    27111    28571    29340 
   30086    27793    22825    20846    21946    21509    20038    20900 
   24867    29736    31413    28977    27137    29770    35014    38434 
   38402    36670    34402    31212    28123    27082    28009    28502 
   26072    21717    19205    19685    21069    21496    20371    18198 
   16055    13968    12028    12663    17701    24331    27807    27912 
   28147    29272    29016    26606    24707    25710    28161    30890 
   34512    37373    37677    36489    35274    34295    33073    30515 
   25293    18364    14343    15453    17402    16880    16451    18651 
   22345    25535    26709    26134    27787    32909    35302    32049 
   28659    28242    28506    28300    27044    23760    21447    22777 
   24256    23707    22590    19383    13736    10554    11327    12677 
   15250    21369    27207    28054    26863    28818    32598    35356 
   37889    39880    39879    38067    35247    33427    33966    35440 
   36701    36995    34551    30322    28078    27610    25049    20541 
   17278    14574     9362     2386    -2589    -3306     -289     3773 
    7069    10863    16308    22576    28092    31174    31893    32436 
   34068    36396    39480    42851    44452    43848    42414    40973 
   40518    41546    42601    42537    41478    39255    35310    29115 
