Origin Time       2016/04/16 01:25:00
Lat.              32.753
Long.             130.762
Depth. (km)       12
Mag.              7.3
Station Code      OIT010
Station Lat.      33.2317
Station Long.     131.5934
Station Height(m) 7
Record Time       2016/04/16 01:25:25
Sampling Freq(Hz) 100Hz
Duration Time(s)  300
Dir.              E-W
Scale Factor      7845(gal)/8223790
Max. Acc. (gal)   99.600
Last Correction   2016/04/16 01:25:25
Memo.             
[...]
   11349     9134     6177     2991      317    -1426    -2608    -3469 
   -3503    -2257     -351      926     1267     1445     1490      687 
    -572     -792      943     4116     7376     9859    11580    12586 
   12537    11168     8634     5443     2238     -483    -2745    -4951 
   -7106    -9012   -11049   -13394   -15512   -17032   -17651   -16872 
  -14810   -12060    -8837    -5019     -934     2340     4066     4581 
    4393     3838     3357     3122     3298     4305     6093     8278 
   10362    11303    10331     7983     5541     3932     3106     2538 
    2305     2871     3916     4675     5242     6049     6794     7099 
    7230     7561     8048     8487     8750     8607     8141     7821 
    7591     7015     6227     5792     6058     6867     7780     8590 
    9416    10350    11362    12552    13849    14496    13819    11913 
    9059     5587     2160     -760    -3496    -6709   -10369   -13887 
  -17154   -20459   -23900   -27437   -30604   -32489   -32674   -31522 
  -29400   -26163   -21502   -15855   -10339    -5841    -3153    -2920 
   -4545    -6547    -8009    -8957    -9801   -10428   -10021    -8248 
   -5981    -4502    -4727    -6736    -9652   -12637   -15657   -18684 
  -21130   -22385   -22198   -20803   -18836   -16659   -14303   -12055 
  -10319    -9300    -9166    -9948   -10891   -10939   -10116    -9177 
   -8588    -8887   -10524   -13288   -16467   -19086   -20468   -20852 
  -20981   -21605   -23170   -25247   -26698   -26874   -25805   -23202 
  -18983   -14292   -10473    -8135    -7375    -7744    -8388    -8579 
   -8303    -8232    -8846   -10114   -11480   -12019   -11549   -10798 
  -10068    -9397    -9556   -11246   -14505   -19170   -24597   -29721 
  -33725   -36255   -37663   -38654   -39224   -38638   -36494   -33353 
  -30161   -27425   -25208   -23299   -21458   -20007   -19313   -19302 
  -20252   -22523   -25670   -28682   -30557   -30885   -29814   -27450 
  -23788   -18829   -12796    -6435     -641     3990     6955     7935 
    7111     4596      187    -5645   -11323   -15072   -15849   -13562 
   -8935    -3014     3140     8129    10602    10214     7480     3338 
   -1224    -5944   -11129   -16538   -21195   -24564   -27043   -28748 
  -29116   -28057   -26161   -24144   -22781   -22422   -22588   -22580 
  -21996   -20845   -19305   -17458   -15565   -14137   -13667   -14153 
  -14382   -13030   -10180    -6403    -2153     1676     4202     5040 
    4405     2896      866    -1948    -6511   -13459   -21721   -29687 
  -36551   -41451   -43591   -43092   -40539   -36705   -32629   -28588 
  -23507   -16909   -10503    -6269    -4823    -6350   -10996   -18111 
  -25775   -31377   -33693   -33897   -33858   -34398   -35226   -35924 
  -36675   -37220   -36205   -32456   -25672   -16877    -8506    -2121 
    2531     5532     6521     5823     4237     2569     1147     -186 
   -1264    -1728    -1206      978     4611     7940     9408     8748 
    6465     3511     1005     -506    -1354    -2199    -3554    -5567 
   -7892   -10088   -12104   -14137   -16424   -19103   -21992   -24802 
  -27086   -28080   -27556   -26279   -25419   -26034   -28173   -30663 
  -32602   -33804   -33955   -33116   -32300   -32630   -34657   -38237 
  -42541   -46731   -50588   -53697   -54680   -52037   -45297   -35553 
  -25080   -15734    -7900    -1534     2590     3681     2204     -411 
   -2731    -4118    -5085    -6399    -7996    -9506   -11455   -14958 
  -20364   -27091   -34325   -41372   -47903   -54000   -59605   -64168 
  -67397   -69545   -70452   -69480   -66083   -59958   -51241   -40802 
  -29894   -19150    -8812      336     7619    12920    16382    18692 
   20175    19974    17698    14149    10199     6724     4774     5255 
    8714    14506    20653    25092    26347    23275    14936     2165 
  -10791   -19306   -22945   -23669   -21720   -17216   -11681    -5988 
   -1067     1246      514    -2162    -5726    -9159   -11276   -11167 
   -8680    -4271     1539     8205    14810    20073    22977    23334 
   21865    19820    18022    16820    16727    18042    20745    24721 
   29304    33368    35698    35413    32472    27322    20710    13772 
    7344     1564    -3424    -6889    -8483    -9193   -10084   -11286 
  -12957   -15319   -17786   -19483   -19830   -18289   -14642    -9293 
   -2866     4399    12482    20875    29110    37461    45760    52686 
   57069    58769    58043    54712    49056    43233    39718    38908 
   39655    40859    41565    40288    35839    28421    18881     8303 
   -1995   -11011   -17786   -21641   -23155   -23649   -24152   -25088 
  -26306   -27480   -28201   -27365   -23545   -16563    -7977      240 
    7110    12625    16908    20394    23989    27873    31232    33679 
   35441    36366    36423    36666    38048    40290    42893    45704 
   48250    49734    49581    47464    43373    37997    32370    27144 
   22362    17701    12870     7963     3416     -639    -4626    -8510 
  -11610   -13773   -15678   -18094   -21180   -24455   -27484   -30052 
  -31757   -31770   -29002   -23045   -15010    -7362    -2523     -918 
   -1171    -1946    -2571    -2836    -2853    -2461    -1015     1971 
    6249    10419    12609    12564    11757    11062    10127     8272 
    4884      332    -3627    -5630    -5656    -4326    -2666    -1545 
    -767      178      974     1236     1757     3624     6832    10675 
   14316    17021    18645    19240    18557    16240    12055     6350 
      32    -5988   -10935   -14149   -15178   -14187   -12170    -9880 
   -7406    -5193    -3774    -3175    -3307    -4024    -5128    -6420 
   -7375    -7689    -7670    -7248    -6052    -4592    -3657    -3312 
   -3747    -5601    -9063   -13759   -18885   -23319   -26392   -27783 
  -27226   -25309   -23134   -21290   -19849   -17829   -13251    -5202 
    5138    15326    23190    28057    30071    29324    25898    19985 
   13062     7796     5831     6828     8926    10324    10547     9860 
    8775     7281     4360     -351    -6264   -12838   -19122   -24428 
  -28891   -31730   -31361   -27051   -19086    -9188     -160     6463 
   10864    12775    11431     7784     4421     3180     4278     7530 
   12857    19491    26298    32513    37627    41399    43495    43355 
   41049    37485    33890    31070    28678    26181    24048    22590 
   21073    18762    15558    11541     6917     2204    -2296    -6635 
  -10525   -13377   -15654   -19268   -25011   -31268   -36733   -41431 
  -44973   -46592   -45982   -43482   -40421   -38607   -39070   -41420 
  -44394   -47039   -48853   -49439   -48574   -45786   -40309   -32225 
  -22659   -12621    -2693     6259    13194    17452    18744    17713 
   16124    15257    15229    15720    15844    14681    12434     9320 
    4392    -2671   -10708   -18630   -25685   -31167   -35135   -37507 
  -37517   -35602   -33324   -31483   -30235   -29851   -30113   -30175 
  -29511   -28023   -25952   -24067   -22750   -21725   -20922   -20279 
  -20082   -21577   -24740   -27764   -29909   -31012   -30294   -27317 
  -21489   -13127    -4742     1613     5643     6990     5273     1644 
   -2257    -5927    -8866   -10881   -12865   -14936   -17064   -20096 
  -23731   -26732   -28838   -30665   -32269   -33296   -34666   -37135 
  -39239   -39422   -37409   -33042   -26825   -20011   -12739    -4696 
    3237    10260    16120    20355    23391    26225    28914    30910 
   31534    30927    29868    27129    20779    11133    -1252   -15438 
  -27935   -37089   -44761   -50766   -53113   -52239   -49769   -46280 
  -41893   -36547   -30491   -26006   -25597   -28236   -31841   -36333 
  -40273   -40238   -36285   -31368   -25640   -18648   -12476    -8137 
   -5063    -3458    -5027    -9312    -9628    -3543     2084     4734 
    7711    12413    18763    25932    31820    34514    35337    36309 
   37239    39262    39868    34257    27144    23288    18999    13686 
   11381    11893    10467     7264     6192     4013    -1726    -7774 
  -14581   -22488   -29007   -33042   -33698   -31796   -31858   -37030 
  -42180   -40757   -36556   -35509   -35537   -33982   -32321   -29590 
  -22761   -14689   -10458    -9666    -8210    -3866     -824    -2025 
   -4376    -9516   -18031   -23542   -24456   -23225   -21563   -18769 
  -12749    -6115     -391     4602     6679     8148    12063    17856 
   25066    30931    33008    34489    37351    35969    28156    21504 
   17729    13089    10513     8595     3019     -733    -1308    -4496 
   -7927    -9499   -14195   -18171   -14589   -11709   -16837   -23063 
  -25338   -25843   -27243   -30223   -32787   -35121   -38219   -38568 
  -36094   -35506   -37577   -39820   -38593   -32933   -28104   -26030 
  -23155   -20787   -22840   -29448   -36911   -38272   -32638   -27691 
  -25714   -23089   -19413   -16572   -16421   -18588   -20914   -23981 
  -28193   -31354   -33497   -35743   -36825   -35108   -29606   -21950 
  -18432   -20725   -22547   -22797   -25307   -30456   -34676   -31729 
  -24491   -22913   -23961   -18851    -9992    -3497     2397    10314 
   14943    15414    17240    15927     5864    -8606   -22817   -31638 
  -33241   -33762   -33550   -31684   -33586   -35958   -31823   -24233 
  -17377   -10147    -2952     -866    -3909    -6853   -13213   -25003 
  -31797   -32731   -35654   -34777   -27513   -26736   -34596   -40049 
  -40159   -38558   -36394   -35317   -38880   -45083   -46126   -41793 
  -38227   -34969   -29650   -22518   -12843    -3883     1047     6354 
   13533    18644    22403    24425    20304    12353     6110     1023 
   -5128   -11376   -16104   -19692   -22234   -22172   -21543   -23988 
  -27016   -28350   -32328   -39911   -45970   -49704   -51370   -47216 
  -38730   -32395   -30843   -31336   -31139   -32791   -36512   -37458 
  -37651   -40049   -39021   -33093   -25682   -14084     1053    10727 
   11914     9273     5409     2030     3267    10087    16965    19935 
   20665    17801     9134     -157    -7920   -16613   -21752   -20607 
  -19167   -21957   -25596   -22948   -15525   -10459    -8137    -9598 
  -16166   -22050   -24733   -23816   -17007    -9084    -2848     6956 
   18728    25254    26832    28488    31525    33959    33721    28312 
   16575     2555    -8364   -15206   -20190   -23880   -22077   -14506 
   -9082    -7306    -4908    -4326    -7711   -10773    -8861     -702 
   11091    22014    29781    36786    42604    40494    31522    21616 
    9324    -2324    -5135    -1964    -1389    -1881     2779    10639 
   17369    19649    14669     8144     4850     1468    -3770   -11797 
  -20629   -26893   -31612   -30030   -22458   -24383   -37698   -49845 
  -58699   -64909   -66916   -67698   -64131   -50171   -33134   -22665 
  -14153    -1028    10263    15229    22655    33474    36169    29870 
   25229    26877    29349    28231    26045    25200    28008    35851 
   42409    44523    46199    45129    39186    33509    27056    12989 
   -6442   -19993   -23953   -24435   -21230   -14623   -15596   -27463 
  -42111   -52482   -54467   -50091   -44423   -36142   -22365    -7743 
     858     1181    -6582   -18566   -29728   -38489   -44298   -50421 
  -58437   -60185   -51517   -37432   -19743     4793    34921    60057 
   74235    81352    78236    61169    39757    24922    20364    21361 
   21849    26130    36729    45053    42319    24673    -1680   -20860 
  -25620   -23859   -23593   -23741   -21184   -15523    -3709    14305 
   25852    21227    11503    12523    24665    41476    58800    69124 
   64998    47386    23152    -1273   -21752   -33741   -33276   -21685 
   -4963     9348    19920    34838    53254    60620    52898    39274 
   24802     9363    -8113   -25542   -33373   -25748    -9244     7207 
   17694    17131     4533   -16649   -39529   -55270   -59705   -48705 
  -17127    17982    25617     8012    -8229   -17385   -21927   -12846 
   10293    34290    44783    36339    20607    15619    25639    40250 
   51231    59455    63877    60158    51098    42654    33431    22472 
   18427    23697    25361    18181    10118      256   -15205   -26192 
  -22943    -6990    13853    28071    31190    29865    24841     8318 
  -17455   -40698   -56620   -63828   -56253   -36643   -22358   -23384 
  -30395   -35425   -41744   -45050   -34889   -13652    10521    34230 
   50706    52174    42047    28447    11805    -6085   -17271   -26966 
  -47530   -69616   -78300   -77774   -71138   -51086   -17034    18215 
   36128    32381    21263    17057    24541    37270    44864    44917 
   38724    29408    24606    27669    34414    37936    32566    20688 
   11213     5074    -5285   -17304   -20389   -17682   -19917   -26773 
  -31981   -29112   -14879      309     6424    12673    24934    29097 
   16537    -5931   -33644   -62992   -84774   -94903   -96099   -89309 
  -77151   -66185   -59562   -56755   -55983   -52394   -41277   -21227 
    5271    30545    47135    51603    41939    22002     4360    -1059 
    4380    14561    24270    28548    25474    17296     5630   -11317 
  -33139   -52685   -64786   -71969   -76573   -79197   -81675   -82059 
  -76025   -63351   -49805   -46479   -54972   -62054   -63624   -65286 
  -61879   -47389   -26339    -3021    22096    45447    61564    71448 
   77097    73633    59903    41839    25361    14239     6276     -340 
     -70     8270    19357    29954    34861    24867    -4291   -43390 
  -75780   -97320  -111578  -109024   -85152   -54571   -27816   -12163 
  -11820   -12452    -7700    -9713   -19350   -30296   -41723   -51032 
  -54383   -48446   -33565   -17132    -7217    -8094   -19840   -37164 
  -53110   -67626   -83072   -94171   -97136   -92912   -79510   -58990 
  -37675   -19461    -6637     2776     9909    10986     5381    -4969 
  -15259   -16852    -8977     1891    13826    26784    38083    46504 
   52201    55141    55694    52618    46057    39799    33724    25058 
   15865     6843    -5348   -19537   -30138   -33253   -29231   -22010 
  -15134   -10075    -7005    -5324    -6308   -12568   -23188   -34484 
  -44452   -53373   -62749   -73009   -79969   -78744   -71656   -63481 
  -53777   -43191   -34962   -27454   -17539    -7784    -4994   -11011 
  -19051   -23807   -25031   -23502   -22125   -21813   -18601   -10084 
    2650    16856    28305    33181    31090    24283    13710     1028 
   -9637   -17770   -25470   -31513   -34387   -34082   -30638   -27228 
  -28017   -33265   -41489   -49698   -50950   -38238   -11354    18966 
   38115    44891    48470    47186    33720    11333   -12623   -30865 
  -36761   -32583   -23681   -11977    -1701     4153     8606    13745 
   17064    14906     5783    -7210   -19129   -30103   -42080   -52182 
  -58957   -64012   -65020   -60475   -54553   -50085   -45400   -39499 
  -33798   -29338   -27099   -27843   -29660   -29176   -24247   -15284 
   -4414     6421    15785    23739    31222    36575    36973    33018 
   28634    27238    28441    29447    29120    27872    26626    26794 
   27201    24468    17810     9383      997    -7180   -13707   -15847 
  -14488   -10407      684    19433    38367    52142    62606    70243 
   71301    66372    59594    52895    47860    44683    42369    41567 
   41470    39198    31633    16611    -3454   -23529   -41634   -57723 
  -70468   -77897   -77700   -66852   -45378   -19569     2376    17739 
   29720    39104    42228    38782    30142    14632    -5778   -23878 
  -35787   -43060   -46406   -43725   -34537   -21151    -6713     6515 
   18454    29656    39144    44613    44193    37679    26230    11961 
   -1918   -12137   -18343   -21313   -19403   -13559    -9090    -9262 
  -14274   -23317   -34608   -45877   -56191   -66881   -76891   -81886 
  -80566   -72265   -54828   -33588   -17818    -7743     -422      653 
   -6089   -14673   -20152   -22006   -19430   -11699     -442    11963 
   24574    38439    52832    63265    67543    66923    62908    58422 
   54527    47841    36304    22829    12746     8700     8854    10305 
   11547    11435     7844     -772   -13178   -26025   -36170   -42019 
  -41983   -34508   -22029   -10438    -3778    -1501     -888    -2084 
   -6227   -10263   -10293    -5848     1852    11072    19180    23719 
   23936    21385    18196    14561     9089     1240    -6610   -10844 
  -10996    -9641    -9633   -12336   -16140   -19516   -23905   -30390 
  -37997   -45152   -50107   -51324   -47502   -38381   -26994   -18651 
  -14580   -10118    -3396     1935     5057     8259    11376    13672 
   16301    20474    26291    33097    39371    43123    43256    39368 
   32313    25182    20591    18540    17883    18100    19201    20243 
   19187    14581     7283      178    -4955    -8595   -11039   -12395 
  -13954   -17093   -21534   -25185   -26712   -27413   -28944   -31807 
  -35478   -38345   -39433   -38616   -35653   -30970   -24638   -16260 
   -7689    -2250    -1065    -2533    -5259    -8806   -11813   -12245 
   -8542     -652     8283    13988    14982    12206     6893      144 
   -6578   -11975   -16227   -20083   -23475   -26530   -30296   -35299 
  -40163   -43363   -45430   -47089   -47721   -46908   -45115   -43195 
  -41879   -41122   -40425   -39673   -39175   -38958   -38458   -37747 
  -37324   -36231   -33520   -29974   -26383   -22887   -19426   -15584 
  -11125    -6544    -2949     -719     1441     4652     8440    11928 
   14597    15929    15539    13448    10273     7506     5937     4079 
     369    -4968   -11125   -16846   -20595   -22102   -21282   -17371 
  -11581    -6651    -4067    -5209   -11595   -22603   -35752   -48787 
  -61218   -73333   -83821   -90911   -94599   -95069   -91675   -84883 
  -76264   -67652   -60804   -55769   -51368   -46781   -41388   -34206 
  -23990   -11250     1642    13555    25255    37246    48213    56964 
   64215    70433    75359    79219    81931    83160    82829    80654 
   76208    69492    60808    50279    38245    25149    11210    -2695 
  -14855   -23852   -30072   -35082   -38858   -40474   -40123   -37720 
  -32545   -25222   -17697   -11163    -5371     -313     2974     4200 
    4623     4962     4787     3686      702    -4980   -11940   -18360 
  -24664   -31669   -38600   -44944   -50950   -55838   -58935   -60791 
  -61770   -61902   -61110   -59151   -56344   -53782   -52525   -52186 
  -51113   -48226   -43182   -36290   -29332   -24443   -22059   -21069 
  -20461   -19996   -19680   -19052   -17374   -14643   -11327    -7673 
   -4276    -1713      225     1779     3210     5239     8480    13267 
   19538    26713    33877    39460    42175    42387    40949    38399 
   35760    34048    33777    35301    38210    41304    43595    44558 
   44115    42430    39378    34639    28667    22954    18584    15622 
   13882    12846    11452     8977     5983     3418     1323     -669 
   -2682    -5098    -8163   -10959   -12579   -13193   -13005   -12283 
  -11516   -10473    -8719    -6601    -5000    -4140    -2953     -801 
    1368     2296     1424     -645    -2751    -4475    -5790    -6797 
   -7938    -8811    -8257    -6096    -3073      139     3199     5737 
    7175     7515     7365     7069     6523     5368     3780     2633 
    2493     3307     4900     7497    11074    14481    16614    17221 
