Origin Time       2016/04/16 01:25:00
Lat.              32.753
Long.             130.762
Depth. (km)       12
Mag.              7.3
Station Code      OIT001
Station Lat.      33.6783
Station Long.     131.5936
Station Height(m) 12
Record Time       2016/04/16 01:25:29
Sampling Freq(Hz) 100Hz
Duration Time(s)  208
Dir.              N-S
Scale Factor      7845(gal)/8223790
Max. Acc. (gal)   43.541
Last Correction   2016/04/16 01:25:30
Memo.             
[...]
   -6551    -6794    -6654    -5996    -4935    -3704    -2620    -1927 
   -1547    -1431    -1875    -2983    -4295    -5270    -5714    -5670 
   -5351    -5107    -5093    -5101    -4865    -4338    -3592    -2824 
   -2554    -3307    -4918    -6671    -8062    -8899    -9078    -8634 
   -7688    -6556    -5580    -4710    -3939    -3592    -3812    -4437 
   -5184    -5726    -5872    -5601    -5049    -4409    -3798    -3431 
   -3649    -4488    -5721    -7176    -8571    -9409    -9460    -9103 
   -8854    -8712    -8398    -7943    -7647    -7735    -8137    -8510 
   -8515    -7996    -7030    -5985    -5259    -5093    -5632    -6826 
   -8371    -9818   -10820   -11334   -11531   -11533   -11389   -11156 
  -10978   -11002   -11013   -10636    -9886    -8854    -7456    -5818 
   -4190    -2608    -1200     -355     -373    -1267    -2656    -3928 
   -4837    -5535    -5805    -5201    -4020    -2994    -2420    -2336 
   -2857    -3954    -5397    -7018    -8638    -9853   -10239    -9815 
   -9134    -8854    -9225    -9840   -10008    -9458    -8444    -7560 
   -7415    -8048    -8932    -9563    -9562    -8543    -6629    -4598 
   -3229    -2782    -2990    -3354    -3572    -3754    -4251    -5171 
   -6200    -6998    -7562    -8046    -8586    -9319   -10238   -11055 
  -11566   -11776   -11433   -10389    -9054    -7712    -6288    -4872 
   -3670    -2776    -2257    -2070    -1996    -1868    -1740    -1699 
   -1636    -1467    -1518    -2191    -3438    -4869    -5953    -6318 
   -6164    -5956    -5837    -5876    -6266    -6860    -7222    -7084 
   -6323    -5020    -3726    -3036    -2944    -3046    -3176    -3407 
   -3678    -3898    -4109    -4371    -4795    -5409    -5823    -5567 
   -4772    -3983    -3454    -2997    -2444    -1973    -1794    -1919 
   -2386    -3175    -4122    -5201    -6512    -8052    -9675   -10983 
  -11455   -10968    -9822    -8224    -6330    -4668    -3797    -3819 
   -4610    -6014    -7523    -8338    -8210    -7723    -7507    -7844 
   -8837   -10350   -11892   -12766   -12592   -11672   -10565    -9535 
   -8581    -7636    -6563    -5329    -4094    -3079    -2500    -2336 
   -2257    -2088    -1840    -1302     -280     1063     2436     3526 
    4074     4209     4228     4153     3993     4040     4463     5107 
    5760     6246     6454     6408     6053     5246     4045     2523 
     518    -1962    -4371    -5805    -5687    -4380    -2712    -1183 
    -109      194     -241    -1062    -1960    -2698    -3084    -3109 
   -2855    -2342    -1768    -1535    -1780    -2390    -3429    -4887 
   -6318    -7233    -7603    -7688    -7707    -7774    -7830    -7548 
   -6609    -5044    -3149    -1274       11       87    -1043    -2587 
   -3484    -3067    -1476      627     2565     3693     3585     2326 
     382    -1605    -3042    -3724    -3873    -3781    -3581    -3365 
   -3213    -3099    -2930    -2791    -3026    -3863    -5162    -6709 
   -8347    -9847   -10952   -11367   -10922    -9842    -8575    -7596 
   -7284    -7489    -7533    -6910    -5748    -4521    -3468    -2520 
   -1572     -581      295      818     1055     1201     1159      695 
    -313    -1757    -3268    -4471    -5370    -6095    -6444    -6142 
   -5266    -3987    -2265     -244     1248     1132     -735    -3134 
   -4525    -4183    -2336       93     1825     1885       75    -3052 
   -6214    -8035    -8043    -6615    -4510    -2627    -1437     -630 
     417     2034     4105     6058     7064     6577     4734     2151 
    -324    -1695    -1121     1235     3965     5606     5699     4428 
    2037     -823    -3087    -4205    -4572    -4854    -5390    -6234 
   -7253    -7929    -7676    -6535    -5155    -4210    -4017    -4459 
   -5179    -5872    -6356    -6635    -6782    -6711    -6361    -5957 
   -5810    -6033    -6504    -6826    -6446    -5181    -3433    -1838 
    -774      -54      777     1880     2983     3838     4617     5599 
    6777     8027     9335    10777    12455    14211    15630    16510 
   16934    17038    16869    16308    15344    14143    12646    10558 
    7843     4936     2386      450     -899    -1759    -2266    -2806 
   -4044    -6366    -9243   -11736   -13479   -14662   -15473   -16058 
  -16600   -17362   -18663   -20484   -22215   -23145   -22966   -21768 
  -20048   -18468   -17255   -16312   -15788   -16058   -17294   -19437 
  -22307   -25412   -27982   -29475   -29593   -28069   -25130   -21654 
  -18281   -14922   -11265    -7207    -2983      761     3165     3634 
    2270      -23    -1930    -2596    -2052     -741      877     2396 
    3449     3611     2744     1382      206     -398     -386     -263 
    -888    -2648    -5013    -7040    -8070    -7742    -6019    -3431 
    -916      388     -614    -4082    -8665   -12587   -15040   -16000 
  -15385   -13277   -10436    -7777    -5796    -4716    -4583    -5286 
   -6747    -8896   -11431   -14011   -16592   -18940   -20504   -21169 
  -21250   -20919   -20243   -19454   -18879   -18711   -18855   -19026 
  -18963   -18468   -17296   -15287   -12710   -10199    -8391    -7665 
   -8174    -9864   -12316   -14823   -16862   -18453   -19724   -20468 
  -20614   -20584   -20702   -20784   -20537   -19823   -18507   -16491 
  -13547    -9373    -4243     1092     5998     9946    12642    14142 
   14650    14575    14551    15132    16656    19024    21640    23847 
   25195    25196    23364    19849    15628    11726     8683     6768 
    6115     6264     6060     4795     2594     -230    -3121    -5420 
   -7083    -8572   -10295   -12167   -13543   -13926   -13406   -12181 
  -10278    -8063    -6706    -7186    -9194   -12461   -17150   -22094 
  -25830   -28291   -29168   -27367   -22991   -17727   -13247   -10142 
   -8132    -6952    -6804    -7508    -8205    -8571    -8712    -7865 
   -5598    -3235    -1733     -692     -279    -1236    -3562    -6550 
   -9436   -11468   -11983   -11003    -8970    -6154    -2851      457 
    3148     4918     6328     7960     9647    11213    12636    13463 
   13257    12086    10546     9759    10404    11832    13003    13483 
   13498    13703    14621    16521    19446    22485    24324    24891 
   24979    25039    25470    26515    27523    27823    27184    24966 
   20977    16190    11470     7176     3523      553    -1549    -2516 
   -2471    -1892    -1102      -36     1090     1420      634     -727 
   -2828    -6409   -10986   -15464   -19359   -21729   -21732   -20348 
  -18883   -17755   -17464   -18252   -19649   -21100   -22207   -22862 
  -22819   -21570   -19580   -18427   -19075   -21087   -23499   -25295 
  -25496   -24054   -22026   -19998   -17413   -13976   -10057    -5782 
   -1198     3221     6480     7685     7427     7132     7121     6839 
    6103     5044     3611     2141     1408     1204      826      476 
    -106    -2196    -5875    -9679   -12472   -14204   -15061   -14832 
  -13262   -10388    -6631    -2774      423     2338     2475     1039 
    -962    -2972    -5275    -7523    -8569    -8286    -7717    -7557 
   -7742    -7871    -7638    -7273    -7052    -7233    -8397   -10098 
  -11173   -11759   -12640   -13880   -15427   -17481   -19345   -19492 
  -17563   -14473   -10945    -7869    -6444    -6754    -8031    -9971 
  -12145   -14030   -16305   -19388   -22079   -23704   -24784   -25247 
  -24887   -24653   -25456   -27037   -29097   -31688   -34125   -35360 
  -35081   -33399   -30294   -26499   -23731   -22292   -20911   -19650 
  -19419   -20352   -22277   -24451   -26032   -26851   -26860   -26289 
  -25380   -24142   -23122   -22555   -21828   -20918   -20486   -20657 
  -20880   -20553   -19606   -18686   -18256   -17801   -16912   -15843 
  -14764   -14162   -14763   -16629   -19132   -21211   -22681   -24213 
  -25172   -24779   -23746   -22524   -20719   -18384   -16441   -15604 
  -15371   -14804   -13637   -12236   -10788    -9292    -8077    -7399 
   -6824    -5780    -4695    -4506    -5238    -6239    -6785    -6261 
   -4703    -2640     -476     1136     1424     1107     1514     2218 
    3103     5788    10242    14886    19431    23626    26477    28009 
   28759    28559    27679    27314    27800    28563    29181    28813 
   26881    24105    21384    19469    18891    19056    18729    17512 
   16428    16336    17014    18474    20561    22357    23669    24979 
   26144    26622    26090    24163    21192    19087    18771    19020 
   19082    18928    18195    16803    14940    12592     9876     6930 
    3572      299    -1684    -2249    -1849     -687      576     1237 
    1093      274     -953    -2714    -4914    -6951    -9184   -12274 
  -15672   -18855   -22019   -25154   -28254   -31461   -34551   -37135 
  -38803   -39320   -39414   -39911   -40257   -39810   -38861   -37377 
  -35162   -32495   -29317   -25215   -20143   -15005   -11596   -10300 
   -9599    -8915    -8738    -8830    -8884    -9189    -8957    -6774 
   -3433     -207     3130     5587     6004     5339     4135     2519 
    1421     1262     2272     4044     4972     4455     2613     -437 
   -2928    -3672    -4116    -5097    -6026    -7105    -8757   -10378 
  -11331   -12143   -13451   -14612   -14854   -14411   -13773   -13076 
  -12590   -13396   -15927   -18577   -20108   -20983   -21379   -20695 
  -19010   -17331   -16233   -15777   -16071   -16421   -15433   -12325 
   -8117    -5009    -3339    -1917     -864     -550     -341       65 
     461      855     1474     2297     2944     3388     4044     4827 
    5192     5134     5157     5093     4692     4814     5844     6906 
    7551     7982     8397     8883     9269     9375     9063     8222 
    6987     5628     4567     3948     3202     1780     -229    -2007 
   -2806    -2911    -2592    -1684     -535      464     1242     1750 
    2173     2377     1972     1209      415     -785    -2559    -4253 
   -5840    -8070   -10164   -10889   -10712   -10164    -9826   -11165 
  -14085   -16779   -18196   -18665   -19036   -19726   -20629   -21038 
  -19720   -16722   -13929   -12784   -13005   -13757   -14395   -14488 
  -14512   -15545   -17725   -19993   -21409   -21987   -22211   -22188 
  -21564   -20486   -19290   -17393   -14866   -13008   -11971   -10874 
   -9266    -7315    -5798    -4595    -2629     -202     1800     3402 
    4326     3835     1845     -627    -2344    -3206    -3861    -4511 
   -4955    -5213    -5634    -6164    -6130    -5243    -3970    -2830 
   -2046    -1725    -1800    -1815    -1100      390     1864     2701 
    2844     2587     2496     2944     4017     5445     6284     6010 
    5395     4976     4314     3528     3331     3987     5652     8001 
    9917    11013    11651    11859    11799    11439    10265     8922 
    8749     9420     9578     8711     7326     6386     6430     6863 
    6968     7225     7924     8270     8255     8197     7435     5927 
    4463     3492     3520     4428     4534     2621     -244    -2243 
   -2929    -2654    -1930    -1937    -3038    -4197    -5067    -6073 
   -6921    -7294    -8014    -9755   -11809   -13501   -15075   -16459 
  -16865   -15721   -13073    -9544    -5852    -2049     1412     3176 
    3284     3372     4344     5981     7638     8621     8473     7245 
    5748     5042     5529     6801     7874     7987     7728     8121 
    8579     7929     6340     4268     1426    -2123    -5169    -6102 
   -4804    -2695     -302     2552     4521     4393     3439     2764 
    1336     -958    -2361    -2297    -1703     -965     -271     -500 
   -1807    -3268    -4491    -5778    -7333    -8764    -8837    -7071 
   -5057    -3667    -1444     1792     4213     5606     6535     5953 
    3685     1509      427      152      238      -95    -1420    -3369 
   -5798    -8860   -11708   -13117   -13278   -13684   -14719   -15228 
  -14813   -13794   -12201   -10401    -8241    -5112    -2397    -2068 
   -3878    -6642    -9289   -10760   -10980   -10849   -11304   -12144 
  -11670    -8610    -3415     2695     8406    12060    12465    10153 
    7252     6340     8540    12439    15422    15768    14172    12596 
   11296     9639     8114     6381     3530      822     -341     -212 
     702     1464     1107      236      387     2327     5088     6107 
    3453    -1857    -7242   -11247   -13016   -11261    -6394    -2169 
   -2374    -6609   -11635   -14823   -14542   -10377    -4079     1048 
    2163     -626    -4752    -8360   -10423   -10052    -7940    -5470 
   -3199    -1459     -122     1156     1910     1632      758     1000 
    3797     7697    10401    11446    11045     9549     7177     4122 
    2057     2582     4360     4496     2116    -1270    -4166    -6021 
   -6732    -7010    -8297   -11044   -14040   -15570   -14542   -11873 
  -10463   -11961   -14713   -16491   -17544   -18812   -19305   -17883 
  -15341   -12750    -9796    -6756    -5481    -6326    -8152   -10870 
  -13709   -14993   -15093   -15117   -14712   -13223   -10928    -9410 
  -10384   -13273   -15522   -15403   -13124    -9728    -6407    -4248 
   -3508    -3459    -3051    -1877     -314     1140     1552     -180 
   -3707    -6982    -8333    -8334    -8359    -8271    -7429    -6200 
   -5086    -3473     -711     1993     2871     1952      430    -1015 
   -1887    -1760    -1836    -3823    -7824   -13244   -18558   -21405 
  -21768   -22107   -24575   -29451   -35283   -40954   -46102   -49509 
  -50120   -48737   -46602   -44296   -42595   -41517   -39865   -37839 
  -36707   -35765   -33165   -28657   -24055   -21694   -22253   -24536 
  -26808   -27849   -27184   -24356   -19627   -14692   -10514    -6678 
   -3473    -1939    -1713    -1588    -1572    -1649     -294     3435 
    8044    11350    12951    13748    14199    14103    13427    13019 
   14229    17087    19899    21350    21470    20683    19333    17770 
   16201    14651    13510    13255    13513    14065    15556    17922 
   20139    21467    21806    21531    21062    20691    20665    20939 
   20879    19269    15697    11736     9112     8070     8046     8411 
    8919     9464     9555     9090     8648     8290     7371     5995 
    5320     5861     6733     6859     6088     4646     2181    -1174 
   -4158    -6259    -7778    -8182    -7203    -5937    -5406    -5744 
   -6667    -7652    -8371    -9265   -11151   -14104   -16880   -17991 
  -17223   -15361   -12580    -8476    -3738       64     1919     1302 
   -1641    -5166    -7276    -7913    -7940    -7321    -6304    -6118 
   -6781    -6794    -5572    -3879    -2427    -1574    -1405    -1642 
   -2160    -3258    -4625    -4969    -3929    -2312     -288     1679 
    2134      750    -1293    -2887    -3865    -4781    -5705    -5779 
   -4522    -2937    -2398    -2806    -3038    -2844    -2937    -3670 
   -4791    -5930    -6559    -6285    -5741    -6186    -7913   -10455 
  -13500   -16059   -17014   -16370   -14104   -10292    -6431    -3824 
   -2084     -972    -1584    -4055    -6552    -8060    -8993    -9061 
   -7863    -6424    -5806    -5721    -5725    -6158    -7298    -8762 
  -10073   -11236   -12188   -12653   -13027   -13926   -15153   -16065 
  -16397   -16875   -18530   -21061   -23218   -24171   -23571   -21366 
  -18222   -15647   -14596   -14347   -13765   -12625   -11411   -10597 
  -10204   -10044    -9659    -8486    -6808    -5314    -4005    -2501 
    -604     1426     3042     4255     5228     5408     4860     4700 
    4923     4405     3078     1767      750       58       22      545 
    1044     1151      737      109      171     1517     3395     4431 
    4258     3295     1871      168    -1864    -4162    -6197    -7182 
   -6382    -4014    -1352      537     1128      126    -2249    -5470 
   -9120   -12610   -15318   -16998   -17736   -17883   -17849   -17720 
  -17370   -16931   -17157   -18825   -21439   -23531   -24929   -26883 
  -29257   -30250   -28871   -25628   -21829   -18885   -17174   -15622 
  -13595   -12185   -12393   -13682   -14661   -14542   -13941   -13684 
  -13631   -13463   -13255   -12997   -12530   -11996   -11678   -11210 
   -9860    -8007    -7222    -8371   -10770   -13409   -15731   -17325 
  -17874   -17347   -15988   -14060   -11921   -10176    -8748    -7040 
   -5652    -5493    -5744    -5164    -4104    -3289    -2257     -599 
    1252     2990     4024     3576     2114      598     -573     -808 
     259     2043     3731     4715     5017     5304     5578     5013 
    3346     1264     -353     -896     -342      743     2030     3427 
    4576     5310     5787     6033     5803     4830     3438     2467 
    1961      976     -908    -3254    -5481    -6871    -7041    -6426 
   -5479    -4387    -3423    -2569    -1703    -1247    -1576    -2220 
   -2293    -1244      743     2628     3627     3948     3661     2829 
    2141     1810     1490     1128     1039     1575     2551     3414 
    3905     3978     3786     3793     4066     3809     2405      294 
   -1783    -3481    -4715    -5375    -5164    -3906    -2180     -899 
    -464    -1051    -2704    -4706    -6115    -6723    -6772    -6257 
   -4865    -2521      421     3138     4727     5250     5383     5162 
    4429     3458     2289      772     -654    -1308    -1024       44 
    1640     3186     4431     5519     5815     4623     2705     1197 
     336        8     -237    -1391    -3592    -5499    -5917    -4985 
   -3677    -2832    -2755    -3427    -4599    -5829    -7083    -8347 
   -9038    -9310   -10019   -11271   -12671   -13942   -14688   -14141 
  -12013    -9329    -7357    -6540    -6862    -8111    -9857   -11519 
  -12540   -12699   -12268   -11627   -10694    -9433    -8407    -7877 
   -7504    -7312    -7476    -7676    -7651    -7447    -7160    -6944 
   -6582    -5748    -4982    -4904    -4869    -3820    -1755      379 
    1721     2208     2496     3152     4187     5273     6212     7195 
    8215     8811     8808     8421     7754     6993     6459     6115 
    5621     4806     3878     2992     1972      862      233      702 
    2191     3844     4912     5198     4730     3570     2019      872 
     835     1629     2517     3279     4021     4637     4797     4233 
    3190     2079      932      -39     -444     -483     -653    -1128 
   -1636    -1764    -1594    -1677    -2281    -3073    -3731    -4270 
   -4666    -4851    -5000    -5377    -5989    -6647    -7465    -8575 
   -9725   -10686   -11283   -11492   -11527   -11434   -11421   -11913 
  -12874   -13954   -15117   -16533   -18076   -19457   -20504   -20873 
  -20250   -18870   -17737   -18076   -19589   -20502   -19928   -18237 
  -15882   -13500   -11716   -10438    -9244    -8006    -6883    -6041 
   -5501    -5119    -4654    -3989    -3346    -3044    -3284    -4345 
   -6122    -7761    -8421    -7967    -7064    -6662    -7105    -7893 
   -8316    -8064    -7373    -6840    -6822    -7052    -7307    -7618 
   -7799    -7735    -7466    -7083    -6802    -6737    -6871    -7184 
   -7581    -7942    -8100    -7811    -7078    -6091    -4969    -4133 
   -4023    -4344    -4600    -4773    -4974    -5074    -4968    -4666 
   -4306    -4236    -4490    -4573    -4175    -3435    -2614    -1934 
   -1451     -992     -656     -954    -2104    -3677    -5023    -5779 
