Origin Time       2016/04/16 01:25:00
Lat.              32.753
Long.             130.762
Depth. (km)       12
Mag.              7.3
Station Code      OIT016
Station Lat.      32.9747
Station Long.     131.9028
Station Height(m) 1
Record Time       2016/04/16 01:25:25
Sampling Freq(Hz) 100Hz
Duration Time(s)  203
Dir.              E-W
Scale Factor      7845(gal)/8223790
Max. Acc. (gal)   119.211
Last Correction   2016/04/16 01:25:26
Memo.             
[...]
   23724    24995    26361    27568    29058    31016    32803    33928 
   33885    32020    28094    22449    16019     9765     4360      228 
   -3326    -7353   -11757   -16328   -20871   -23978   -23878   -20092 
  -14465   -10354    -9613   -11529   -14719   -18179   -20560   -20877 
  -20143   -19931   -20529   -21922   -23911   -25262   -24665   -22053 
  -18399   -14755   -11885   -10102    -9116    -8743    -9802   -13265 
  -18196   -22057   -23565   -23238   -21243   -17394   -12862    -9806 
   -9342   -10478   -11275   -10547    -8272    -5493    -3396    -2030 
    -767      691     2671     5904    10651    15901    20723    25297 
   29178    30881    29961    27494    24988    23318    22354    21617 
   20159    16934    11977     6320     2038     1237     3472     6403 
    8776    10948    13232    14839    14538    11726     7425     4490 
    4374     4814     3859     2876     3595     5420     6076     4739 
    3906     5892     9481    11426     9271     3449    -2693    -5995 
   -6524    -6623    -7252    -7681    -7924    -9267   -13212   -19051 
  -23634   -25145   -23552   -19238   -14073   -10088    -7357    -4679 
   -1035     3042     6554     9734    12484    13880    13431    11207 
    8047     4764     1576     -681    -1016      517     3173     5856 
    7566     7954     7030     4928     1694    -2732    -7885   -12453 
  -15102   -15981   -16453   -16626   -15561   -13787   -12314   -10227 
   -5638     1537     8673    13178    15371    16785    17413    16405 
   13676    10080     6527     2982     -692    -3288    -3341    -1264 
     830     1004    -1390    -5422    -9140   -11450   -13100   -15053 
  -16796   -17130   -16128   -15056   -14301   -13209   -11709   -10257 
   -8787    -6552    -2874     1845     6558    11002    15577    19548 
   21115    20281    19147    18797    18227    16190    12744     8588 
    4399     1532     1016     1582     1163      125      453     1822 
    1934     1074     2155     6130    11002    14457    15036    12414 
    7576     2114    -2535    -5555    -6354    -4178       39     3317 
    4155     3908     4062     4297     3762     3046     3129     3485 
    3480     3307     2609      869    -1093    -1595     -180     1413 
    1089    -1780    -6871   -13752   -21764   -29234   -33953   -35437 
  -34852   -32231   -26385   -17720    -9252    -3794     -643     2589 
    6392    10840    16302    20490    19834    13524     4468    -3123 
   -8519   -13748   -17848   -18808   -17990   -16748   -14374   -10625 
   -5445     1588     9883    17759    23417    26491    28729    31560 
   33928    33974    31423    26991    20767    12964     5266      -47 
   -2251    -2160     -153     3348     6813     9620    12158    13281 
   11574     8177     5660     4847     3727      456    -4024    -8841 
  -15078   -22862   -30175   -34890   -36252   -34439   -29809   -23769 
  -19044   -17288   -17188   -16104   -12835    -7570     -324     8375 
   16480    22079    24294    22781    19018    16200    15545    15263 
   14031    12372    10358     7060     2204    -3480    -8457   -11067 
  -10976    -9104    -6817    -4820    -2444     -225     -626    -3500 
   -5489    -5387    -5266    -6224    -7614    -9571   -11927   -13262 
  -13336   -12352    -9489    -5017       68     6124    13227    19573 
   23622    25763    26147    23373    17050     9352     2886    -1457 
   -4067    -5314    -5694    -6512    -8896   -12191   -14598   -15036 
  -13213    -8800    -2457     3045     5341     4745     1836    -3470 
   -9518   -14276   -17608   -19777   -21165   -22697   -23920   -23114 
  -19746   -14458    -7373     1232     9030    13371    14790    15539 
   16294    17251    18301    17416    13393     8380     5211     4468 
    5175     7101    10121    12239    11599     9131     6736     4800 
    2497     -631    -4074    -6893    -8397    -8939    -9134    -8330 
   -6212    -4418    -4787    -7627   -11645   -14987   -16786   -16908 
  -14968   -10910    -5358      792     5767     7750     7546     7188 
    7056     7396     8579     9180     8337     7997     9614    11395 
   10551     6628     1763    -1470    -2471    -3132    -4861    -6698 
   -8162   -10612   -14643   -18921   -21832   -22855   -21847   -18619 
  -14269   -10628    -8526    -7655    -6673    -4334    -1080     2068 
    5294     9209    13161    16020    18030    19984    21895    23475 
   24309    24213    23911    24115    24707    25348    25452    23700 
   18945    11834     4869       23    -3438    -7132   -10948   -14485 
  -17779   -20068   -20763   -19834   -17192   -13314    -9540    -7690 
   -8604   -11007   -13238   -14284   -13134    -9501    -4422      531 
    4031     5314     4303     1849     -859    -3118    -4340    -4896 
   -6307    -8610   -10671   -12429   -13729   -13771   -12831   -11765 
  -10350    -7765    -3990      289     4421     7851    10536    12881 
   15056    17304    19579    20722    20120    18891    17749    16264 
   15005    15326    16883    18065    18199    17224    14584     9837 
    3342    -3213    -7122    -7728    -7152    -6228    -4393    -3102 
   -3744    -4657    -3658     -618     3308     6878     9001     9093 
    7553     5294     2957      847    -1109    -3213    -5208    -5913 
   -4322    -1190     1588     2806     2058     -337    -3142    -5589 
   -8050   -10632   -12518   -13306   -13950   -14863   -14958   -14008 
  -13036   -12162   -10328    -6775    -2475      600     2187     3422 
    4646     5478     5683     5834     6917     8486     9444    10149 
   11045    11399    11323    12514    15348    17726    18146    17150 
   15187    12133     8561     5401     3244     2407     2693     3469 
    4132     4383     4283     3748     2714     1956     2511     4662 
    8087    12141    15925    18681    20186    20563    19880    18229 
   15826    12892     9764     6644     3244      -62    -2011    -2397 
   -2172    -1884    -1333      -20     1935     3404     3492     2556 
    1239     -885    -4228    -7751   -10640   -13123   -14939   -15516 
  -14762   -13385   -12860   -13637   -14212   -12667    -8766    -4513 
   -1653     -124      -87    -2308    -5896    -8467    -8698    -7033 
   -4476    -2355    -1715    -1992    -2133    -2575    -4297    -6502 
   -7153    -6003    -4544    -2821       14     3226     5740     7395 
    8252     8598     8941     9801    11219    12268    12291    11539 
   10162     7992     5317     3577     4079     5718     6413     6469 
    7943    11317    15016    18164    21273    24077    25312    24159 
   20621    15786    11534     8843     7055     5225     3554     2489 
    1351     -569    -2953    -5215    -6724    -7431    -8746   -11342 
  -13697   -14642   -14623   -14424   -14544   -14916   -14928   -14399 
  -13803   -13431   -12910   -11754   -10237    -9382    -9705   -10212 
   -9331    -6775    -3670    -1015     1242     3210     4068     3476 
    2146      137    -2926    -6231    -8236    -8716    -9008    -9612 
   -9744    -9182    -8321    -7439    -6509    -5030    -2605      311 
    2754     4305     5316     5887     5529     3848     1356     -510 
    -866     -234      641     1634     2621     3277     3179     1753 
    -811    -3500    -5798    -7434    -7796    -6577    -3899     -592 
    2141     4064     5202     4968     3326     1316      255      395 
     421     -672    -2505    -4436    -5798    -6084    -5694    -4833 
   -2889       76     2685     3558     3163     2994     3459     4568 
    6323     7858     8607     8795     8595     7993     6901     5309 
    3022     -114    -3348    -5468    -5779    -4460    -2196      564 
    3426     5617     6057     3939      -86    -4182    -7123    -8765 
   -9350    -9351    -9309    -9521    -9985   -10601   -11330   -11723 
  -10971    -9034    -6679    -4552    -2986    -2138    -1919    -2088 
   -2701    -4093    -5948    -7547    -8752    -9643   -10121    -9895 
   -8480    -5958    -3167     -804      805     1584     1583      602 
   -1512    -4369    -7083    -8581    -8710    -8446    -8094    -7319 
   -7134    -8646   -10759   -11978   -12630   -13123   -12498   -10451 
   -8168    -6427    -4861    -2832     -216     2609     5387     8063 
   10831    14052    17267    19499    20470    20379    19720    19037 
   17959    16081    13971    12217    11091    10611    10358    10073 
    9490     8110     6100     4469     3975     4008     3338     1752 
    -487    -2945    -4125    -2884      306     4565     8977    12330 
   13594    12248     8718     4212     -573    -5740   -11194   -16213 
  -19703   -20711   -19188   -16077   -12303    -8398    -4976    -2353 
    -487      661     1707     3252     4834     5877     6107     4989 
    2355    -1192    -4912    -8530   -12297   -16081   -19246   -21483 
  -22330   -20723   -15861    -8093      639     7666    11792    13693 
   13801    11940     8714     4768      353    -3581    -6462    -8829 
  -10632   -11318   -11558   -13008   -16309   -20193   -23237   -24931 
  -24907   -23519   -21762   -19618   -16681   -13066    -8795    -3947 
    1381     7419    13888    19807    24245    26863    28451    30408 
   33448    37118    39723    39027    33477    22920     9639    -2419 
  -11920   -20908   -29172   -33448   -33066   -29705   -23247   -13162 
   -1975     6097     9863    11184    11188    10824    12125    15552 
   19761    24325    29586    35338    41250    46998    51726    54606 
   55686    55448    54125    51880    48940    45188    39987    32513 
   22504    10854    -1127   -13297   -26561   -40882   -54137   -63441 
  -67829   -69202   -69423   -68176   -65070   -60555   -54923   -48343 
  -40547   -31615   -23388   -17721   -14434   -12182    -9702    -6002 
    -552     6502    14389    21978    28667    35158    42079    47710 
   48655    43063    32360    19890     7642    -5143   -19150   -33241 
  -46242   -57349   -65740   -71509   -74690   -74048   -68638   -58649 
  -44911   -28922   -12345     3596    17937    29977    39417    46022 
   49916    51848    52440    51876    50784    50579    52394    56506 
   61886    66357    68472    67355    61867    52114    40279    29026 
   19279    10044      106   -10929   -22577   -32957   -39330   -40073 
  -35044   -24927   -12312    -1937     3500     5525     5633     3542 
    -230    -4379    -8002   -10458   -11446   -10994    -9915    -9788 
  -11300   -13869   -16802   -19691   -22017   -23561   -25151   -28029 
  -33570   -43386   -57348   -71933   -83134   -90425   -95276   -96932 
  -93093   -83323   -67624   -45612   -20875      -41    14924    27519 
   39270    48539    55023    59142    60540    59272    55896    52186 
   51644    56025    63131    69981    75429    78838    78742    74027 
   64717    52331    40023    30465    23922    19010    14937    11959 
    9999     8245     5853     2729     -329    -2012     -464     5082 
   12376    18555    23294    27942    32934    37226    39442    37517 
   29438    16812     4031    -6508   -14597   -19877   -22713   -25286 
  -29424   -35220   -42627   -51423   -60609   -69333   -76472   -80304 
  -79386   -72783   -60183   -42790   -23731    -6539     7198    18002 
   26515    33233    38961    43642    46229    45550    40784    32244 
   21012     8163    -4260   -13733   -19838   -24536   -29673   -35706 
  -42637   -49821   -56033   -60621   -62660   -60810   -54440   -42894 
  -26149    -6979    10879    26623    41334    54390    63967    68740 
   69086    67494    65566    63498    61608    59898    58147    55394 
   51262    46850    42857    39889    38314    38123    38893    38341 
   34066    25034    11381    -5124   -21654   -35434   -45162   -51197 
  -54449   -56188   -57653   -59373   -61045   -61164   -58189   -51717 
  -40780   -24386    -4117    16066    31595    41239    48193    53986 
   56874    55270    47997    35546    22013    11450     3084    -5802 
  -15318   -25259   -36798   -49610   -61658   -70953   -76250   -77872 
  -75897   -69303   -59482   -50521   -44007   -37250   -28391   -19172 
  -12148    -7908    -4734    -1017     3003     7526    14235    24354 
   38379    55204    72592    89726   105240   116233   121498   122019 
  118966   112500   102386    89731    76287    61638    44301    24918 
    5833   -11331   -26487   -39683   -50909   -60936   -69731   -75803 
  -78225   -76936   -72638   -67278   -61722   -55151   -47841   -41283 
  -36541   -33465   -30634   -26600   -20906   -13983    -7001     -935 
    4742    10590    15456    18037    18099    16529    15620    17679 
   22894    29604    36494    43255    49740    55815    61114    64670 
   65400    62595    56211    46993    35746    22411     6120   -12195 
  -28726   -40909   -48767   -52621   -53527   -52968   -51617   -50248 
  -49688   -50614   -53816   -58399   -61618   -61616   -58672   -54233 
  -49619   -45345   -41141   -36853   -33403   -32233   -33943   -37426 
  -40529   -41319   -39116   -34276   -27082   -17898    -7203     4271 
   15348    25674    35752    45481    53581    58804    61214    61422 
   59892    57350    54657    52763    52320    53242    55089    57215 
   59252    61040    62085    62132    60255    54081    42681    29058 
   18523    13251    10508     8371     7874     9506    11900    13428 
   13497    12035     9375     6214     2899     -190    -2704    -4757 
   -6460    -8247   -10832   -15044   -22692   -34973   -50403   -66235 
  -80879   -94429  -106729  -116438  -122534  -124748  -122274  -113576 
  -98284   -78100   -57399   -42314   -33854   -27810   -24001   -23966 
  -25552   -27515   -29604   -30492   -29783   -27741   -24093   -18566 
  -11924    -4684     3281    11340    19672    29880    42876    57677 
   71868    83204    91280    97580   103415   108411   111341   111485 
  108475   102042    92099    78852    64218    51036    40198    31174 
   23714    17470    11682     6056     1250    -1534    -1467     1233 
    5954    12074    17841    20837    20632    18158    12978     5116 
   -3667   -11920   -19071   -25767   -32967   -40806   -49385   -58698 
  -68251   -77465   -85654   -92021   -96126   -97282   -94342   -87259 
  -77681   -67893   -58777   -50037   -41980   -34609   -26997   -19103 
  -12132    -6571    -1837     2764     7165    10092    11184    11677 
   12303    13300    14443    14251    11348     5817     -847    -6592 
  -10346   -12742   -14149   -13508   -10162    -4363     3111    11164 
   18392    23454    26580    29162    32154    35274    37922    39529 
   39205    37002    33845    30658    27861    25882    24991    24520 
   24706    26158    28912    32999    37427    41057    43649    45000 
   43609    36795    23000     4993   -10582   -21304   -30883   -40350 
  -47549   -53037   -57530   -60061   -61034   -60968   -60253   -59513 
  -57720   -54190   -48821   -41782   -35297   -30834   -27739   -24702 
  -20785   -16140   -11311    -6853    -1908     5040    14224    24684 
   34100    40254    41528    37505    29720    19827     8085    -6677 
  -23782   -39219   -50256   -57888   -63393   -66712   -68138   -68470 
  -67697   -64146   -56265   -44138   -28799   -13100     -767     7221 
   12534    17184    22354    28313    34990    41814    48446    54934 
   60827    65712    69191    70762    70551    69169    66397    61452 
   54383    45874    36602    26454    15552     5902     -627    -5063 
   -9585   -13752   -16048   -16524   -14955   -10866    -4888     2367 
   10233    17559    23695    28304    31136    32398    31702    28321 
   23598    19897    17458    14882    11932     9277     6393     3022 
     -95    -3419    -7977   -13753   -20175   -26242   -31055   -34797 
  -37620   -39756   -41663   -43166   -44261   -45493   -47291   -49299 
  -50801   -51069   -49847   -47497   -43891   -39043   -32640   -24254 
  -14995    -6110     1296     6097     8025     7340     5436     3709 
    1379    -2350    -6876   -11794   -16437   -20196   -23367   -25573 
  -26191   -25185   -22522   -18563   -13687    -8163    -2801     2160 
    7295    12788    18636    24818    31313    38350    45767    52754 
   58143    60974    61179    59576    57231    55113    53959    53985 
   55310    57808    60799    63485    65003    64816    62586    58359 
   52493    44717    35301    25583    16411     8418     2311    -2444 
   -6972   -11410   -15574   -19228   -21517   -22296   -22777   -24069 
  -26080   -27876   -29137   -30210   -31206   -31770   -30950   -28869 
  -26731   -24449   -21381   -17424   -12888    -8505    -5049    -3106 
   -2492    -2293    -2121    -2494    -3620    -5184    -7080    -9134 
  -11329   -13875   -16463   -18617   -20032   -20379   -19614   -17982 
  -15246   -11098    -6142     -974     4233     9147    13876    18524 
   22265    24618    25938    26603    27210    28107    28981    29390 
   29114    28381    27483    27045    27503    27953    27696    26777 
   24865    21906    18578    15657    13838    13220    12742    11600 
    9918     7719     5258     3314     2463     2759     3736     4837 
    5995     7258     8494     9506     9522     8225     6412     4780 
    3645     2917     2727     3231     3605     3175     2336     1810 
    1966     2578     3330     4388     5931     8168    11001    13347 
   14235    13314    10972     8453     6875     6716     7817     9379 
   10345    10133     8802     6795     4747     2733      155    -3319 
   -7361   -10906   -12675   -12324   -10296    -6952    -2706     1975 
    6546    10314    12611    12910    11834    10921    11070    12294 
   14122    16078    17998    19845    21527    23143    24826    25971 
   26176    25967    25262    23639    21307    18619    16492    15537 
   14733    12984    10246     7109     4401     2936     2930     3782 
    4882     5906     6635     6993     6815     5562     2733    -1093 
   -4351    -5896    -6247    -6808    -8144   -10320   -13223   -16246 
  -19246   -22063   -24173   -25736   -26839   -27666   -28611   -28939 
  -28138   -26557   -24429   -22429   -21130   -20263   -19440   -18235 
  -16649   -15322   -14503   -14358   -15371   -17408   -19534   -21006 
  -21843   -22038   -21390   -19657   -16285   -11722    -7906    -5975 
   -5458    -5686    -6160    -6552    -7113    -8004    -8877    -9310 
   -8860    -7506    -5634    -3083      148     3271     5968     8267 
    9999    11391    12316    12272    11639    10976    10180     8907 
    7369     6517     6477     6444     6328     6408     6475     6091 
    5158     4203     3518     2811     1935      344    -2577    -5910 
   -8391   -10319   -12658   -15437   -18075   -20447   -22659   -24660 
  -26126   -26593   -26227   -25432   -24096   -22081   -19651   -17448 
  -16147   -15607   -15176   -14601   -13910   -13236   -12594   -11898 
  -11113   -10458   -10758   -12376   -14693   -16997   -18972   -20727 
  -22474   -24012   -24972   -25308   -24888   -23417   -21043   -18199 
  -15269   -12892   -11589   -11171   -10924   -10250    -9123    -7778 
   -6356    -4757    -2926    -1163       52      411      237     -174 
    -949    -2093    -3526    -4880    -5868    -6772    -7804    -8803 
   -9074    -7950    -6160    -4715    -3771    -3805    -5024    -6617 
   -7769    -7771    -6609    -5605    -5524    -5788    -5933    -5436 
