Origin Time       2016/04/16 01:25:00
Lat.              32.753
Long.             130.762
Depth. (km)       12
Mag.              7.3
Station Code      OIT004
Station Lat.      33.5666
Station Long.     131.7378
Station Height(m) 7
Record Time       2016/04/16 01:25:29
Sampling Freq(Hz) 100Hz
Duration Time(s)  135
Dir.              N-S
Scale Factor      7845(gal)/8223790
Max. Acc. (gal)   29.475
Last Correction   2016/04/16 01:25:30
Memo.             
[...]
   -2479    -3150    -3728    -3630    -2806    -2377    -3218    -4783 
   -6223    -7268    -7950    -8253    -8164    -7902    -7657    -7589 
   -8144    -9409   -10582   -10871   -10187    -8926    -7651    -6743 
   -6185    -5871    -5914    -6278    -6431    -6070    -5455    -4494 
   -2675     -126     2137     3310     3649     3858     4052     4116 
    4344     4699     4687     4045     2744     1140     -245    -1551 
   -3252    -5455    -7782    -9505   -10181    -9969    -9215    -8137 
   -6802    -5629    -5304    -5940    -7326    -9161   -10632   -11072 
  -10588    -9509    -8052    -6392    -4660    -2997    -1907    -2098 
   -3261    -4072    -3960    -3454    -2735    -1464      174     1707 
    2956     3592     3025     1246     -853    -2478    -3658    -4846 
   -6277    -7811    -9441   -11315   -13047   -13643   -12424   -10017 
   -7674    -6079    -5522    -5756    -5840    -5202    -3998    -2809 
   -2095    -1593    -1178    -1228    -1462    -1227     -645     -522 
   -1391    -2771    -3719    -3763    -3094    -2423    -2257    -2493 
   -2965    -3507    -3819    -3973    -4572    -6038    -7974    -9431 
   -9873    -9586    -8887    -7903    -7022    -6508    -6403    -6727 
   -7356    -8172    -8862    -8804    -7780    -6058    -4068    -2505 
   -1795    -1579    -1404    -1143     -658      432     2435     4642 
    5490     4283     1768    -1230    -4225    -6309    -7078    -7292 
   -7500    -7661    -7931    -8505    -9185    -9478    -9248    -8907 
   -8665    -8307    -7823    -7510    -7249    -6615    -5602    -4387 
   -3275    -2856    -3336    -4140    -4413    -3861    -3044    -2570 
   -2540    -2795    -3061    -3041    -2667    -2187    -2004    -2519 
   -3861    -5589    -6993    -7526    -6781    -5077    -3788    -4029 
   -5580    -7678    -9879   -11801   -12888   -12636   -10987    -8218 
   -4878    -2230    -1092     -970    -1390    -2115    -2602    -2628 
   -2342    -2000    -2174    -3222    -4743    -6057    -6926    -7580 
   -8141    -8711    -9603   -10658   -11107   -10481    -9097    -7834 
   -7387    -7538    -7534    -7089    -6489    -5931    -5189    -4041 
   -3044    -3088    -4036    -4895    -5251    -5367    -5427    -5533 
   -5872    -6334    -6609    -6906    -7546    -8078    -7982    -7396 
   -6625    -5996    -5935    -6374    -6858    -7433    -8257    -9045 
   -9622    -9946    -9736    -9067    -8658    -8807    -8652    -7283 
   -5136    -3349    -2361    -2188    -2913    -4002    -4486    -4180 
   -3697    -3586    -3932    -4522    -5027    -5060    -4618    -4360 
   -5003    -6340    -7198    -6944    -6092    -5151    -4530    -4816 
   -6027    -7661    -9335   -10832   -11815   -11753   -10640    -9240 
   -7996    -6786    -5656    -4988    -5250    -6453    -8148   -10088 
  -12060   -13505   -13883   -13154   -11693    -9811    -7923    -6578 
   -5895    -5497    -4847    -3754    -2666    -2068    -1971    -2347 
   -3215    -3847    -3546    -3099    -3715    -5314    -6685    -7177 
   -7468    -7832    -7915    -8089    -8607    -9236   -10230   -11503 
  -12159   -11878   -11181   -10592   -10432   -10679   -10910   -10652 
   -9795    -8851    -8187    -7438    -6411    -5308    -3909    -1733 
     935     3067     4093     4199     3709     2774     1408     -197 
   -1867    -3650    -5297    -6637    -7981    -9301   -10100    -9976 
   -9100    -8291    -8280    -9202   -10629   -11738   -12069   -11836 
  -11465   -11448   -12172   -13259   -13745   -13313   -12426   -11502 
  -10585    -9491    -8289    -7173    -6049    -4861    -3649    -2640 
   -2353    -2843    -3588    -4124    -4175    -3735    -3207    -2860 
   -2589    -2571    -3364    -5105    -7290    -9428   -11206   -12182 
  -12240   -11956   -11817   -11727   -11569   -11346   -10849   -10133 
   -9751    -9846    -9999   -10017    -9678    -8533    -6898    -5786 
   -5494    -5355    -5053    -5204    -6197    -7404    -8193    -8592 
   -8267    -6513    -3844    -2025    -2110    -3369    -4618    -5540 
   -6174    -6460    -6551    -6652    -6659    -6548    -6711    -7385 
   -8309    -8850    -8387    -7188    -6142    -5505    -5027    -4901 
   -5389    -5796    -5166    -3703    -2374    -1630    -1267    -1155 
   -1571    -2870    -5007    -7236    -8815    -9664    -9852    -9640 
   -9826   -10708   -11557   -11755   -11550   -11377   -11253   -11195 
  -11341   -11564   -11674   -11799   -12322   -13243   -13772   -13275 
  -12067   -10835    -9861    -9130    -8648    -7966    -6255    -3645 
   -1089      843     1890     2188     2328     2392     2192     1849 
    1459     1151      874      144    -1252    -3053    -4891    -6330 
   -7186    -7657    -7734    -7268    -6458    -5601    -4874    -4515 
   -4446    -4090    -3372    -3075    -3807    -5290    -6717    -7534 
   -7685    -7307    -6702    -6216    -5898    -5861    -6482    -7458 
   -7646    -6470    -4482    -2442     -881     -131      -39     -191 
    -415     -868    -1690    -2415    -2427    -2066    -2137    -2847 
   -3910    -4911    -5710    -6606    -7673    -8527    -8797    -8533 
   -8060    -7461    -7002    -7213    -7789    -7906    -7366    -6469 
   -5414    -4220    -3203    -3051    -3989    -5486    -6932    -8109 
   -8945    -9092    -8372    -7171    -5730    -4121    -2828    -2192 
   -2138    -2639    -3385    -3844    -4041    -4336    -4804    -5161 
   -5073    -4854    -4866    -4648    -3879    -2740    -1516     -589 
     224     1479     3044     4325     4870     4688     4200     3623 
    2791     1780     1321     1787     2378     2323     1792     1142 
     245     -963    -2053    -2866    -3867    -5244    -6536    -7335 
   -7515    -7099    -6399    -5549    -4271    -2435     -180     2107 
    3959     5240     5827     5336     3530      575    -2691    -4818 
   -4783    -2979     -773     1109     2802     4051     4321     3534 
    1991      480     -305     -838    -2243    -4834    -7647    -9437 
   -9863    -9261    -7969    -6392    -5053    -4433    -4963    -6678 
   -8895   -10706   -11583   -11497   -10820    -9913    -8668    -6903 
   -4884    -2932    -1019      993     2621     2791     1181    -1387 
   -4033    -6346    -8006    -8293    -6447    -2682     1954     6666 
   11014    14222    15637    15913    15996    15587    14022    11269 
    7799     4225      808    -2362    -5131    -7335    -8388    -8020 
   -7230    -6912    -7252    -8278    -9147    -9189    -8997    -8929 
   -8737    -7978    -5964    -2974     -429      831     1012      826 
    1032     1386     1098      174    -1352    -3450    -5346    -6651 
   -7468    -7542    -7126    -7001    -7264    -7597    -7836    -7797 
   -7570    -7747    -8953   -10987   -12888   -14246   -15190   -15587 
  -15446   -14785   -13565   -12499   -12091   -12079   -12595   -13799 
  -15341   -16820   -17980   -18750   -19261   -19602   -19295   -18071 
  -16222   -13721   -11399   -10692   -11545   -13532   -16004   -17189 
  -16699   -15770   -14804   -13896   -13089   -12127   -11524   -11650 
  -12237   -13194   -14142   -15124   -16761   -18186   -18141   -16977 
  -15331   -13574   -11820    -9651    -7295    -5216    -3254    -1385 
     372     2205     3504     3117     1337    -1151    -4637    -8494 
  -11920   -14562   -15249   -13837   -11396    -8603    -6363    -5206 
   -4723    -4681    -5012    -5651    -7273   -10550   -14945   -19506 
  -22974   -23907   -22738   -21058   -19529   -18503   -17609   -16020 
  -14391   -13047   -11670   -11056   -10571    -8718    -5516    -1408 
    1780     3241     4752     5530     4479     3794     5381     9058 
   12978    16246    19340    21130    20758    19167    17270    14129 
    8718     3377      -68    -2579    -4324    -4953    -5190    -5513 
   -5568    -6210    -8699   -12154   -15103   -18666   -24159   -28184 
  -28669   -28395   -27220   -24700   -22835   -21211   -19927   -19541 
  -18612   -17142   -15972   -15736   -16839   -17311   -16278   -15512 
  -14482   -12291   -10480    -9612    -8988    -7534    -4835    -1729 
    1242     2266      383    -2408    -4994    -7167    -9761   -13138 
  -14007   -10400    -5638    -3321    -1563      868      966     -984 
   -3303    -4949    -4598    -3707    -3005    -2794    -3800    -3022 
     738     3789     6207    10791    14125    13320    11368     9738 
    7488     3289     -423     -230     -500    -3045    -3232    -1927 
   -2232    -2617    -1209      -40    -1781    -4881    -7213   -10521 
  -15377   -18380   -18186   -16811   -15299   -14129   -14045   -13977 
  -11637    -7153    -2859      623     3102     4017     4367     4560 
    5093     6214     6936     8510    10593    11663    13020    13203 
   11200     9464     8375     7091     4969     2361     -292    -4005 
   -7778   -10716   -13836   -15489   -14959   -14558   -15296   -17513 
  -20491   -23413   -24813   -23302   -22902   -24131   -21620   -15804 
  -11171    -8783    -5768    -2096      553     4502     7115     4490 
    2597     5125     7708     7624     5805     4305     2806    -1013 
   -5476    -8715   -12853   -17131   -18686   -17793   -16243   -15873 
  -17293   -18381   -16816   -14543   -13736   -11495    -6747    -2081 
    1305     3380     5541     7267     6704     4850      569    -5900 
  -10158   -11574   -10805    -8631    -7038    -5811    -6519    -9556 
  -11939   -13952   -14908   -14435   -16669   -21061   -23167   -23913 
  -25879   -26082   -22843   -20349   -19774   -19283   -17363   -12923 
   -9769   -10146   -10770   -10848    -9804    -7444    -7659   -10280 
  -11521   -12069   -12897   -12297   -10324    -7530    -3568      637 
    3592     4729     4148     2659     1894     1143       25      313 
     -47     -702      861      321    -2651    -3932    -6035   -10346 
  -13590   -13911   -12621   -12444   -11416    -8623    -8066    -7697 
   -5060    -3990    -5746    -8725   -11470   -12694   -13217   -12556 
   -9629    -7434    -6188    -3615    -1956    -2471    -2830    -1183 
    2150     6130    10593    14921    17757    17471    15148    13728 
   12401    10007     8052     7002     4916     1178    -1188    -1894 
   -3965    -7447   -10975   -14559   -18975   -22966   -23269   -20000 
  -16501   -15282   -16649   -20011   -24236   -27249   -27926   -25570 
  -20887   -15665   -10914    -8789    -7646    -4217    -1960    -2727 
   -3177    -3314    -5008    -7322    -8398    -6917    -4626    -4752 
   -5377    -5216    -6698    -7655    -6340    -5308    -4718    -5686 
   -8847   -10561   -11497   -13072   -12989   -12557   -12837   -12341 
  -10844    -8275    -5648    -3144     -648    -1202    -5058    -8549 
  -10362   -11107   -10503    -8397    -5975    -3896    -3111    -5587 
   -8986    -9147    -7754    -8032    -9566   -11695   -14679   -18214 
  -21153   -21714   -19541   -16320   -14139   -14014   -14496   -13421 
  -11199    -9617    -9111    -9243    -9441    -9558    -9596    -8391 
   -6795    -7542    -9729   -11426   -13057   -14457   -15597   -17338 
  -17941   -16301   -14369   -12073    -9470    -7160    -3696     -864 
     -64      872     1395      313    -1133    -1923    -2747    -3730 
   -3642    -2461     -707      280     -261     -746    -1107    -1759 
   -2253    -2863    -3400    -4691    -7368    -9386   -10719   -12897 
  -14965   -16204   -17090   -18538   -20996   -22561   -22640   -22900 
  -22639   -21357   -20574   -19480   -17190   -15053   -14046   -14496 
  -15025   -14443   -13871   -12861   -10743    -9340    -9809   -11277 
  -12310   -12441   -11878   -11381   -12188   -14042   -16328   -18488 
  -19950   -21199   -20974   -19242   -19113   -19822   -17977   -12225 
   -4260     1658     5347     8543     9305     8513     8433     8007 
    6465     3653      719    -1532    -4499    -8073   -11041   -12280 
  -12044   -11782   -11659   -12879   -15160   -16170   -17311   -18724 
  -17481   -15145   -15527   -18355   -20902   -22046   -22172   -20807 
  -16571   -10210    -4978    -2527    -1911    -1275      503     1143 
   -1899    -6195    -8155    -7821    -6616    -5514    -5540    -6902 
   -7905    -6246    -2600      479     3190     5977     6795     4916 
    2111      621      332     -987    -2307    -2282    -3726    -6494 
   -7608    -7252    -5876    -3736    -2681    -4213    -7911   -10702 
  -11288   -11943   -12618   -11610    -8819    -4332      670     4266 
    6524     7954     7229     2550    -4679   -10081   -12617   -14804 
  -16530   -15724   -13269   -10905    -8182    -6647    -7992    -9238 
   -8970    -9275   -10018   -10041    -8815    -6453    -5294    -5856 
   -6289    -6777    -7372    -7695    -7649    -5971    -2281     2162 
    5428     7753    10773    13134    13705    12259     7770     2119 
   -1719    -3034    -2617    -1622      515     3765     4901     2721 
    -118    -2397    -6091   -11959   -17003   -19414   -19588   -16370 
  -11337    -8182    -6774    -8056   -13952   -21276   -24962   -23284 
  -20067   -18728   -16988   -13936   -10971    -7553    -4866    -4608 
   -4588    -3612    -2870    -1826     -421     1507     4533     5979 
    4626     2543      131    -2427    -4247    -5375    -6546    -8214 
   -8461    -6327    -4243    -2886    -1807    -2338    -5667   -12077 
  -20281   -27376   -30677   -30222   -27395   -20657   -10179    -1399 
    2056     2284     2702     2685     -629    -6427    -9378    -5622 
    2303    10519    18057    23427    24999    23228    19167    15203 
   13890    14296    15565    18820    22681    23935    21791    18120 
   13903     9073     5043     2770     1975      928    -2843    -8311 
  -12024   -12642   -13356   -17084   -21940   -26561   -29833   -29733 
  -27378   -22685   -13954    -4870    -1021    -3790   -10902   -15584 
  -11604    -1968     6666    11927    14284    15007    14212    10696 
    4901    -1445    -6536    -8213    -5109      961     4923     5972 
    8654    12993    15167    13425     8923     5984     6346     6169 
    4048     3013     3315     2204     -369    -2331    -3505    -5123 
   -7728   -11337   -14511   -14993   -13517   -12448   -10983    -6228 
    1341     8059    11979    12078     7238     -276    -5957    -7258 
   -4938    -2015    -1271    -3375    -6239    -7198    -6534    -5421 
   -3742    -2300    -1871    -1722    -1161     -172      109     -841 
   -1640    -2457    -3600    -2905     -958     -986    -2978    -4506 
   -3835    -1468     -209    -1526    -4031    -5405    -3905    -1378 
   -1277    -2648    -3355    -2874      225     5664    11330    15880 
   17004    12865     6006     1251     -571    -3095    -7820   -12368 
  -15114   -15543   -13521   -10963    -8483    -4731    -1956    -2236 
   -1728     1772     4590     4495     2863     1636     1714     1902 
    1553      754    -1594    -3385    -2292    -1302    -1223     -137 
     564     -259    -1310     -349     2830     4972     5585     6540 
    6274     3107    -2133    -7353    -8796    -4938     -425      -13 
   -2970    -6885   -10405   -12448   -12164    -8581    -2475     2552 
    4117     1603    -4471    -9960   -11419    -9643    -6818    -5868 
   -7069    -7111    -4495     -957      446    -1035    -3316    -5464 
   -7654    -9981   -12611   -14447   -13436    -9751    -6525    -5416 
   -5297    -6359    -9965   -14108   -14712   -11288    -5699      587 
    5439     7739     7852     6043     3223     1830     4527     9373 
   10071     4650    -2428    -6193    -5977    -5057    -3874     -359 
    3469     3445    -1702    -8311   -12017   -12577   -10864    -8437 
   -7187    -5860    -3576    -3010    -6102   -10478   -13184   -14222 
  -14189   -13258   -11034    -7311    -4044    -2570    -2034     -811 
    2163     4808     4660     3100     2601     4027     6997    10214 
   12272    12175     9062     2997    -3670    -8198   -10704   -12687 
  -13867   -13339   -11246    -7393    -2322     1444     2808     2427 
    -199    -5266   -10301   -12611   -12050    -9695    -6809    -5347 
   -6376    -8352    -9841   -12166   -14852   -14739   -12927   -12638 
  -13560   -14339   -13691   -11448   -10694   -12941   -15606   -16965 
  -17400   -17764   -19287   -21170   -20274   -15866   -11005    -8761 
   -9099   -10251   -11754   -12382    -9871    -4996     -309     2027 
     696    -2856    -6102    -8356   -10245   -12880   -16699   -20360 
  -22833   -23982   -22911   -18968   -13136    -8090    -6172    -6897 
   -8579    -9898    -9929    -9652   -10239   -10118    -7809    -4540 
   -1945     -950    -2031    -4423    -7180   -10107   -12700   -13778 
  -11955    -7515    -3262    -1267     -633       78      625      922 
    1355      787    -1714    -5853   -11178   -15965   -18300   -18468 
  -17813   -16937   -15986   -14991   -13626   -12695   -13232   -13501 
  -12240   -11268   -11458   -11564   -10662    -9596    -9601   -10170 
  -10654   -10400    -8839    -7422    -6675    -6216    -7177    -9333 
  -11003   -11198   -10255    -9275    -7622    -4687    -2258    -1254 
    -823     -707     -491      503      787     -935    -3071    -4340 
   -4648    -4688    -6053    -8297    -9648    -9899   -10130   -11562 
  -14197   -16966   -19044   -19568   -17217   -12379    -7902    -5656 
   -5861    -8854   -14400   -20641   -24213   -23483   -20695   -18125 
  -16044   -14455   -13402   -12835   -12584   -12789   -13755   -14068 
  -12097    -8934    -6211    -3501     -495     1479     1786      943 
   -1282    -4918    -8172    -9335    -9111    -8934    -8374    -6940 
   -5956    -5474    -3676     -919      692      329    -1204    -2133 
   -1505      220     2158     3060     2223      504     -618     -535 
     259      442    -1405    -4596    -7207    -9001   -10062   -10263 
  -10282   -10187   -10640   -12980   -15643   -16420   -15843   -14810 
  -13872   -13747   -13923   -13184   -11110    -8911    -8218    -8912 
   -9921   -10300    -8989    -5603    -1230     2043     2323     -880 
   -5902   -10039   -12063   -12673   -12033    -8812    -3304     1383 
    3481     4347     4876     4360     2839      788    -1752    -3784 
   -3403     -423     2972     5827     8205     8237     5815     3210 
     873    -1162    -2509    -3231    -3299    -3272    -3198    -2390 
   -1023     -324    -1992    -5718    -9109   -10681   -10489    -9244 
   -7333    -5717    -5960    -7474    -8896   -10466   -12439   -13956 
  -13720   -11126    -6841    -2569     -272     -486    -2251    -5186 
   -9065   -12028   -12550   -11797   -11072    -9742    -7954    -6809 
   -6205    -6081    -6646    -7744    -9405   -11223   -12406   -12537 
  -11682    -9794    -6905    -3738    -1035      176     -456    -1856 
   -3929    -6673    -9234   -11304   -12421   -12765   -12776   -11954 
  -10990   -11009   -11384   -11029   -10222    -9925    -9710    -8245 
   -5567    -3159    -2049    -2230    -3489    -5232    -6644    -7680 
   -8490    -8424    -7115    -5503    -4212    -3180    -2839    -2994 
   -2925    -2991    -3657    -4533    -5429    -6335    -6718    -6490 
   -6388    -6339    -5189    -2898    -1096     -751    -1595    -2899 
   -3640    -3844    -3978    -3563    -3168    -3692    -4298    -4575 
   -5131    -5826    -5644    -3883    -1819    -1152    -1070     -131 
