Origin Time       2016/04/16 01:25:00
Lat.              32.753
Long.             130.762
Depth. (km)       12
Mag.              7.3
Station Code      OIT018
Station Lat.      32.7972
Station Long.     131.9251
Station Height(m) 10
Record Time       2016/04/16 01:25:24
Sampling Freq(Hz) 100Hz
Duration Time(s)  107
Dir.              E-W
Scale Factor      7845(gal)/8223790
Max. Acc. (gal)   25.713
Last Correction   2016/04/16 01:25:25
Memo.             
[...]
  -10482    -9558    -9198    -8266    -6959    -6186    -5418    -3677 
   -1881    -1367    -1719    -2466    -3217    -3391    -3138    -2556 
   -2093    -2432    -2899    -2654    -2158    -1487     -136      864 
     587     -297    -1665    -4252    -7840   -10741   -11479   -10582 
   -9694    -9137    -7855    -5332    -2543    -1579    -3211    -5335 
   -5703    -4850    -5001    -6388    -6593    -3789      853     4021 
    4091     2130    -1262    -5633    -8999   -10450   -11038   -11462 
  -11913   -11504    -8937    -5987    -4958    -5493    -6569    -6258 
   -2929     1435     4090     4950     5038     5044     4621     2736 
    -627    -4521    -7456    -9178   -10644   -11327   -12266   -15016 
  -16748   -15500   -12519    -8891    -5834    -3755    -1873      249 
    2794     4641     3937     1995     1133      615     -618    -3265 
   -7812   -12044   -13321   -11620    -8711    -5894    -3780    -3287 
   -3595    -2457     -101     1312      858     -409     -488     1067 
    1441    -1255    -4203    -5198    -5887    -7137    -7954    -7665 
   -6519    -5688    -5363    -4199    -1799      406      916      421 
    1104     3549     6426     7685     5714     1691     -650      913 
    3792     3518      178    -2965    -4772    -5240    -4945    -5887 
   -7865    -8454    -7041    -5103    -4351    -4383    -3780    -3106 
   -2259      409     3923     5595     4974     3152      935    -1081 
   -3276    -7113   -12571   -16467   -15654   -12185    -9788    -7080 
   -2438     1564     3461     3375      352    -3820    -4476    -1602 
    -730    -4989   -11934   -17555   -19422   -18381   -17227   -15572 
  -11723    -7005    -3393    -1930    -1356     1074     4860     7898 
    8849     6037       72    -5443    -8934   -12044   -14134   -13030 
  -11137   -11268   -11032    -7711    -2706      810     2102     2064 
     218    -2523    -3763    -3684    -4693    -7530    -9950   -11506 
  -13070   -13288   -12528   -11934   -10022    -6976    -5521    -5827 
   -5880    -5793    -6079    -5256    -2941     -279     1867     2556 
    2805     5186     8333     8259     4568      496    -1410    -1930 
   -2667    -3187    -3537    -5308    -9656   -15253   -17458   -14467 
  -10678    -8695    -6224    -2597     -110     1487     4675     7318 
    5734     3248     3563     3846     1350    -4754   -13066   -17516 
  -15363   -10681    -6723    -4059    -2477     -672     1582     2359 
     804     -920     -488      459       76      176       -5    -3068 
   -6791    -8118    -7897    -8114    -9614   -13041   -17455   -18724 
  -14523    -7793    -1794     1618     1244     -256     -259     -654 
   -3100    -6933   -10768   -12538   -10079    -4467     -627     -365 
    -942    -1285    -1760    -1611    -1431    -2701    -3092     -753 
    -131    -3057    -5208    -5996    -7852    -9657    -9643    -8954 
   -9089    -9725   -10222    -9369    -6855    -5590    -6693    -8221 
   -9413    -9730    -8029    -4927    -2351     -326     1912     2504 
    -307    -3886    -4483    -2936    -2303    -3488    -5840    -8385 
  -10099    -8464    -2658     2011     2096      336     -907     -727 
     125     -796    -2841    -3105    -1228     1133     2924     3015 
     514    -2374    -3827    -5985    -8769    -9366    -8691    -9300 
  -11156   -12513   -11661    -8352    -4611    -2365     -849      386 
     272     -629    -1405    -2276    -2802    -2785    -3225    -3774 
   -3052    -1622     -737    -1026    -3203    -6642    -9499   -11055 
  -11843   -11979   -10164    -5805    -1622     -355    -1306    -3231 
   -5205    -6210    -7531    -9954    -9784    -3904     3591     6039 
    3757     2091     2204     1308    -1915    -6578    -9413    -8584 
   -6601    -4773    -2999    -2043     -818     1552     2932     1104 
   -3180    -7427    -9846    -9466    -7453    -6886    -7234    -5305 
   -2187     -862    -1613    -3569    -4576    -3607    -3912    -6790 
   -8517    -6947    -3978    -2106    -2309    -4283    -7183    -8899 
   -7461    -4922    -4623    -6112    -7256    -7821    -7666    -6073 
   -4776    -5652    -7064    -6062    -2583       -8      -44    -1904 
   -5076    -7824    -8486    -7785    -6976    -6174    -5459    -5256 
   -4897    -4669    -4868    -3458    -1391    -1796    -3816    -5144 
   -5698    -6157    -6744    -7898    -9146    -8408    -5552    -3206 
   -3505    -6547    -9516    -9327    -6829    -4162    -2500    -2918 
   -4093    -3866    -3221    -3580    -4571    -5675    -6130    -4795 
   -2340    -1428    -2506    -3315    -3489    -3697    -3896    -5390 
   -8170    -9598    -9196    -8444    -6347    -1715     2920     5053 
    4395     1409    -1725    -3372    -4347    -5551    -7639   -10365 
  -11842   -10929    -8608    -6409    -4495    -2269     -131      880 
     -47    -3046    -6439    -8295    -9486   -10845   -10829    -9981 
  -10118    -9671    -6713    -3076    -1348    -1081    -1656    -3699 
   -6693   -10203   -13054   -12880   -10725    -8581    -5489    -2573 
   -2041    -1910    -1394    -2790    -5710    -8529   -11136   -12536 
  -11175    -8469    -6728    -4797    -1949     -261      -54     -537 
   -1900    -3947    -6127    -7665    -8360    -8781    -9300    -9609 
   -8040    -4629    -2062    -1453    -2222    -3497    -4194    -3551 
   -2664    -3940    -5992    -6338    -7156    -9617   -11816   -13423 
  -13666   -11091    -7477    -5503    -5493    -6019    -4473     -364 
    2511     1819    -1139    -4835    -7014    -6520    -5557    -5513 
   -5440    -4223    -1524      943     1242     -274    -2863    -5845 
   -7903    -8706    -9066    -9242    -8699    -7079    -4158     -783 
     282    -1807    -3796    -4062    -4468    -5439    -6108    -6232 
   -6148    -7206    -9786   -11111    -8476    -4314    -2305    -1790 
   -1325    -1124    -1806    -3589    -5140    -5273    -4612    -4071 
   -4348    -5703    -6818    -6868    -6833    -6583    -5946    -5944 
   -5001    -1440     1721     1645     -600    -3369    -5605    -6704 
   -6644    -5551    -4691    -5117    -6038    -6500    -6282    -5881 
   -5321    -4584    -4874    -5653    -5428    -5032    -5292    -5960 
   -7597    -9969   -10563    -8576    -6053    -4190    -3310    -3510 
   -4180    -4305    -3369    -3372    -5024    -5559    -5179    -5112 
   -3492    -1710    -3323    -6564    -7670    -6747    -6320    -7817 
   -9726    -9944    -8710    -7254    -6589    -6772    -6490    -5366 
   -4936    -5335    -4442    -2617    -2277    -2894    -2485    -1115 
    -117     -421    -1991    -3748    -4405    -4571    -5441    -5260 
   -2679       20      468    -1486    -3802    -4905    -5877    -7439 
   -8444    -7886    -6370    -4982    -4147    -4386    -4814    -3790 
   -2388    -1734     -675      552      847     1003      899     -666 
   -2366    -2801    -3265    -4515    -5451    -4719    -2527    -1143 
   -1273    -1749    -2655    -3734    -3946    -3684    -4052    -5144 
   -6038    -6097    -5286    -4375    -4414    -4405    -3071    -2047 
   -2907    -4611    -5436    -4406    -2556    -2288    -3634    -4407 
   -4012    -3865    -4502    -4720    -3964    -3336    -3203    -2739 
   -2165    -1876    -1927    -3268    -5000    -5113    -4727    -4888 
   -4137    -2022       52     1009     1034      379    -1059    -3294 
   -5718    -6471    -5121    -3485    -2584    -3048    -4469    -5134 
   -5332    -5296    -4266    -3223    -2104      110     1740     1345 
    -259    -2951    -5286    -4309    -1679     -731     -934    -1267 
   -1332     -340      442     -479    -1580    -1566    -1150     -683 
    -614    -1545    -2548    -2801    -2816    -2717    -2439    -2355 
   -2701    -3534    -4205    -3623    -1768     -506    -1324    -2841 
   -3936    -5394    -6539    -6056    -4658    -3138    -1900    -2064 
   -3006    -2787    -2135    -2945    -4140    -4113    -4063    -4514 
   -4526    -4873    -5655    -5425    -4590    -4087    -4236    -5892 
   -8037    -7931    -5109    -1547      726     1129      549     -357 
   -1587    -2124    -1213    -1318    -4422    -7588    -7869    -6235 
   -4383    -3265    -3068    -2428     -831      -49    -1023    -2964 
   -5085    -5976    -4652    -3094    -3051    -3391    -3464    -3645 
   -3329    -2570    -3314    -5348    -5583    -4294    -3809    -3732 
   -3789    -3721    -2446    -1296    -1636    -2625    -3615    -3971 
   -3538    -3780    -5560    -7956    -9008    -7527    -5539    -4947 
   -4140    -2508    -1883    -2737    -3776    -4101    -3990    -3899 
   -4920    -7888   -10409   -10717   -10281    -8814    -5991    -4009 
   -2650    -1578    -3338    -6843    -8239    -7952    -8002    -8097 
   -7250    -4820    -2033    -1421    -2872    -3984    -4347    -5409 
   -6841    -7508    -7102    -5599    -4129    -3464    -2955    -2398 
   -2163    -2654    -3792    -4619    -4342    -2970    -1539    -1908 
   -4307    -6744    -8510   -10006   -10453   -10135   -10035    -9659 
   -9051    -8644    -8170    -7888    -7955    -8063    -8208    -8579 
   -8874    -7685    -5298    -4452    -5204    -5259    -4382    -3719 
   -3561    -2820    -1247     -679    -2023    -3943    -4604    -3998 
   -3893    -4847    -5926    -6759    -7373    -7632    -8387    -9864 
   -9938    -8529    -7584    -5891    -2874    -1391    -1757    -2212 
   -3022    -4720    -6731    -7865    -7736    -7781    -8869   -10062 
  -10521   -10648   -11001   -10829    -9791    -9188    -8972    -7753 
   -5568    -3358    -2004    -2313    -4411    -7018    -8158    -7690 
   -7528    -8664    -9672    -8756    -6247    -3751    -2555    -3144 
   -4666    -5753    -5572    -4641    -4228    -3991    -3477    -3650 
   -3942    -2589     -792    -1202    -2928    -3788    -3387    -1424 
     758      257    -2898    -6006    -7547    -8436    -9587    -9853 
   -8505    -7137    -6670    -6092    -5472    -5302    -4583    -4270 
   -6044    -7719    -7809    -8397    -9821   -10431   -10254    -9823 
   -8893    -7649    -6250    -4502    -2384     -225      313    -1890 
   -4591    -5551    -5949    -6930    -7242    -5734    -2911     -598 
     230      395     -166    -1702    -3044    -4147    -6073    -8707 
  -11140   -12345   -11663    -9562    -6295    -2263      278      147 
   -1104    -1887    -2003    -2596    -4252    -5958    -7527    -9558 
  -11261   -11376    -9995    -7888    -5617    -4031    -3057    -1327 
     234    -1278    -5422    -8698    -9612    -9504    -9784    -9879 
   -7875    -4248    -2150    -2405    -2921    -2895    -3253    -3797 
   -3069    -1175      546     1672     1995     1421      340    -1017 
   -2803    -5252    -7576    -8657    -8961    -9177    -8787    -7641 
   -6313    -4747    -2621     -140     1675     1502     -741    -4087 
   -7064    -7956    -7209    -7110    -8203    -9386   -10357   -11265 
  -11067    -8734    -5077    -1810     -283     -832    -3204    -6852 
   -9983   -10768    -9355    -7453    -6813    -7902    -9215    -8426 
   -5166    -1520      679     1382      953     -302    -1459    -1962 
   -1868    -1452    -1649    -2338    -2126    -1489    -1665    -1668 
    -731      171      783     1374     1439      122    -2452    -4333 
   -4576    -4997    -6999    -9390   -10088    -8746    -6805    -5872 
   -6381    -6731    -5367    -3566    -3747    -6457   -10223   -13204 
  -14197   -13339   -12486   -13016   -14079   -14004   -12329   -10211 
   -8673    -7453    -5454    -2192      893     2632     4303     6744 
    8230     7911     6488     3719      749     -148      328      182 
     -58      799      697    -2539    -6825    -9796   -11429   -11221 
   -8833    -5456    -1728     2104     4656     5671     5422     2008 
   -4800   -12409   -19233   -24036   -25708   -24579   -21250   -15735 
   -8012      369     7064    11157    12436    11421     9609     6894 
    2195    -2690    -4923    -4608    -3078    -1410    -1316    -2489 
   -2610    -2516    -4243    -6520    -8073    -9464   -10258    -9092 
   -6558    -5262    -6148    -6955    -5162    -1539      -62    -3299 
   -8688   -11820   -11376    -8336    -3905      122     1842     1119 
     274     1861     5727     9424    11028    10160     6999     1692 
   -5478   -12673   -16480   -16480   -16229   -17645   -19395   -20102 
  -19920   -19651   -18497   -14895    -9791    -5111    -1991    -1676 
   -2956    -2862    -1918    -3044    -7060   -11898   -14871   -15777 
  -16750   -17413   -14004    -5733     3898    10991    13301    12713 
   11846     9100     3611    -2529    -8035   -12384   -14875   -14642 
  -12091    -9668    -8965    -9602   -10377    -9985    -8020    -4930 
   -1085     2745     4692     4059     2964     3322     4649     5344 
    4563     2663      472    -1286    -2736    -4351    -6016    -7723 
   -9556   -11971   -15703   -19105   -18696   -13940    -8845    -6212 
   -3601     1161     6382     9933    11728    12819    13471    13402 
   13189    13841    14166    10821     4008    -1140     -776     3492 
    7731    11065    13423    11904     6322      851    -3392    -8611 
  -14195   -17473   -17896   -16696   -14611   -11998   -10377   -10577 
  -10967   -10876   -10444    -8073    -3576     2128     8910    13440 
   11885     6583     1644    -2142    -4445    -4811    -5049    -7380 
  -10952   -13342   -13796   -12313    -8962    -4828    -1520      136 
    1074     1260    -1975    -9205   -18031   -26424   -31540   -30040 
  -21975   -10403     1632    11464    16096    14681    10804     7584 
    3596    -1620    -4554    -4552    -5194    -6359    -5328    -3581 
   -3200    -3676    -4650    -5042    -4232    -3996    -4483    -4321 
   -3724    -3496    -4176    -5679    -7141    -7730    -7236    -7203 
   -9188   -11545   -12611   -12803   -11203    -7711    -4860    -3129 
   -1127     1341     3472     4293     3199     -193    -4671    -7528 
   -7126    -3034     2083     3563     2134     2097     3639     5335 
    7155     7005     3573    -1030    -5653    -9586   -11516   -12132 
  -12534   -12945   -13718   -14280   -12679    -7614     -886     3055 
    2328     -220    -2601    -5691    -8959   -10257    -8955    -6874 
   -6615    -7947    -7331    -3210     1331     3478     3842     2806 
    -322    -3844    -5158    -5593    -7978    -9629    -6396     -415 
    4806     8865    11641    12475    10085     4549     -440    -2269 
   -3576    -7086   -11037   -13869   -15792   -15515   -14197   -15996 
  -20410   -22553   -19971   -14385    -8490    -3716      -95     3473 
    6411     5607      292    -6313   -10771   -11811   -10037    -6972 
   -3738     -696     1749     3298     3422     1325    -1938    -4132 
   -5516    -8642   -13574   -16506   -15326   -12783   -11662   -10979 
   -9077    -6048    -2313      896     1723      120    -3260    -7338 
   -9825   -11024   -13640   -17564   -19842   -18659   -15381   -12160 
   -8480    -3786    -1071    -2594    -5780    -7330    -7708    -9057 
  -11462   -13167   -12827   -10536    -7321    -4535    -3674    -5223 
   -6878    -5309    -1316     1609     2990     3227     2098     1895 
    3364     3457     1632      -29     -963    -1069     -726    -2338 
   -6825   -10319    -9818    -8437    -9344   -11400   -13479   -14728 
  -12741    -7711    -2907      321     2614     4109     4302     2821 
     -81    -3130    -4675    -4963    -4787    -3049     -608     -835 
   -3256    -5135    -7662   -11427   -13443   -13918   -14476   -13103 
   -9864    -8684   -11003   -14346   -16100   -15438   -13269   -11831 
  -12024   -13286   -15205   -15896   -13953   -10812    -8608    -8279 
   -8484    -8421    -9788   -11372   -10261    -8509    -8621    -8953 
   -8181    -7460    -7897    -8404    -7079    -3728      571     4167 
    5834     5919     4318       21    -5336    -7569    -5580    -2396 
       9     1362      463    -3204    -7928   -11410   -11934    -9269 
   -5606    -3317    -2431    -2492    -3250    -3352    -2554    -1954 
   -1737    -1923    -2590    -3492    -4213    -3820    -2560    -2006 
   -2166    -2802    -5483    -9634   -11638   -10497    -8856    -8316 
   -8118    -8418   -10797   -14735   -17512   -17392   -15001   -12132 
   -9119    -4980       16     4178     5960     4739      623    -4595 
   -7619    -7392    -5687    -4334    -4526    -6372    -8472    -9207 
   -8284    -6551    -4752    -4143    -5051    -4587    -1308     1748 
    1696    -1081    -4554    -7283    -8436    -7685    -5539    -2494 
     418     1786     1647      679    -1294    -4039    -5848    -5437 
   -4001    -3620    -4322    -5005    -5637    -6316    -6716    -6972 
   -7356    -7771    -7809    -8023    -9404   -10596   -10304    -9639 
   -8078    -4518    -1829    -2276    -3451    -3314    -2911    -3661 
   -5719    -8047    -9552   -10138    -9865    -8319    -5798    -3547 
   -2458    -2798    -3632    -3330    -2691    -4087    -6868    -8343 
   -8139    -7127    -5360    -3956    -4671    -7169    -9024    -8688 
   -8241   -10511   -14401   -16494   -15039   -10891    -6504    -4175 
   -4444    -5543    -5128    -3294    -2214    -2852    -4245    -5346 
   -5680    -5157    -4212    -3051    -1401      178     1364     3102 
    4429     3360      850    -1900    -4920    -7387    -8814    -9119 
   -8510    -7896    -6679    -4032    -1885    -2404    -4487    -5431 
   -5162    -5543    -6056    -5070    -3173    -1464     -378     -224 
     -89      884     2049     3068     3048      764    -1881    -2496 
   -1841    -1854    -3743    -6810    -9034    -9833    -9655    -8768 
   -7689    -6451    -4788    -3048    -1773    -1382    -1663    -1711 
   -1243     -946    -1598    -3639    -6320    -7805    -7780    -7635 
   -7353    -5699    -3036     -838     -144    -1602    -4491    -6878 
   -7630    -6246    -2806      704     1763      201    -1556    -1687 
   -1703    -3727    -6073    -6393    -6011    -6281    -6597    -6639 
   -6417    -5787    -4321    -1915     1102     4310     5891     4845 
    3327     2295      488    -1495    -2674    -3631    -4549    -4855 
   -3958    -2486    -1783    -1221     -143      403      847     2336 
    4072     5078     5247     5004     4756     3869     2305     1533 
    2107     2848     2879     3064     4220     6019     7951     8851 
    8299     7898     8005     7079     4488      938    -2230    -3762 
   -3717    -2756     -900     1239     2721     3566     3458     2047 
     110    -1595    -2212     -800     1528     2539     2381     2797 
    3620     3624     2787     1405      -91    -1039    -1466    -1524 
   -1004      -72      356     -429    -2047    -3701    -4783    -4748 
   -4041    -4212    -5478    -6119    -5131    -3530    -2674    -2571 
   -2652    -2569    -2041    -1652    -2307    -3577    -4334    -4263 
   -4118    -4602    -5472    -6089    -5968    -4973    -3289    -1435 
    -540    -1053    -2102    -3554    -5570    -7302    -8679   -10274 
  -11470   -11415   -10075    -7847    -5827    -5491    -6642    -7194 
   -6389    -5429    -4738    -4149    -3653    -2282     -284       45 
   -1192    -1796    -1405     -660       94        9    -1637    -4155 
   -6423    -7753    -7464    -6259    -5733    -6228    -7234    -7701 
