Origin Time       2016/04/16 01:25:00
Lat.              32.753
Long.             130.762
Depth. (km)       12
Mag.              7.3
Station Code      OKY003
Station Lat.      35.1737
Station Long.     134.3386
Station Height(m) 323
Record Time       2016/04/16 01:27:11
Sampling Freq(Hz) 100Hz
Duration Time(s)  60
Dir.              E-W
Scale Factor      7845(gal)/8223790
Max. Acc. (gal)   1.594
Last Correction   2016/04/16 01:27:12
Memo.             
[...]
     292      301      303      297      282      263      248      236 
     225      218      211      205      195      187      182      180 
     180      183      189      194      191      183      171      162 
     162      171      187      210      233      246      252      257 
     261      266      276      288      301      303      301      301 
     303      311      326      344      363      370      369      365 
     357      344      330      319      305      286      272      263 
     253      244      240      237      228      209      191      174 
     162      160      166      172      182      187      184      178 
     164      152      141      131      122      106       85       65 
      51       44       47       54       63       78       90       99 
     108      117      129      139      148      160      167      172 
     178      178      176      180      186      191      198      207 
     222      241      259      283      310      330      340      344 
     342      338      336      342      360      378      382      375 
     365      349      325      305      291      279      275      275 
     271      263      259      249      238      237      244      248 
     255      259      253      245      241      236      229      230 
     236      241      257      279      294      307      322      328 
     330      336      337      336      332      328      322      313 
     303      299      297      294      298      302      307      322 
     341      359      370      378      378      368      359      346 
     329      313      297      284      276      274      275      275 
     270      259      243      228      217      209      209      221 
     240      256      263      266      266      266      266      271 
     284      295      295      294      288      278      268      263 
     261      261      256      249      246      241      245      257 
     268      275      280      278      272      271      278      288 
     302      313      317      313      303      295      286      274 
     270      271      272      266      259      244      214      182 
     156      135      117      120      135      141      140      139 
     131      122      120      125      141      164      187      207 
     222      230      238      243      245      255      263      274 
     289      309      329      356      379      398      414      425 
     436      444      448      450      451      444      434      429 
     417      407      407      411      417      429      441      444 
     441      437      427      418      414      414      414      414 
     415      417      415      413      414      418      417      418 
     418      410      398      383      370      369      379      392 
     413      430      444      446      440      430      417      400 
     391      392      392      392      394      394      392      394 
     392      387      383      378      370      372      369      363 
     364      365      365      369      378      388      400      409 
     407      395      373      348      326      309      294      286 
     280      276      275      279      287      295      305      314 
     314      307      311      324      344      378      411      432 
     442      449      453      453      456      464      480      498 
     511      521      532      538      530      521      513      500 
     491      486      472      451      433      417      406      405 
     413      423      429      423      410      392      378      367 
     359      357      359      357      359      357      344      328 
     311      289      263      240      222      211      203      195 
     191      184      172      163      164      176      199      230 
     266      302      337      367      391      415      437      460 
     487      510      532      546      545      540      538      537 
     538      542      540      535      531      526      522      523 
     525      526      526      531      540      545      540      532 
     525      518      517      523      532      552      571      576 
     573      573      562      545      532      522      504      483 
     464      449      441      444      454      471      488      500 
     511      518      514      502      481      450      417      386 
     349      315      292      276      265      261      263      263 
     252      244      241      234      225      224      224      222 
     225      237      249      263      274      271      261      245 
     220      195      172      156      157      163      168      180 
     186      180      174      166      152      139      128      118 
     114      116      128      147      168      191      211      232 
     251      268      283      299      319      338      351      367 
     383      395      407      425      436      438      438      430 
     414      394      370      346      321      301      287      274 
     266      263      253      238      222      205      187      172 
     164      162      168      178      194      203      205      199 
     183      159      136      114       97       90       89       93 
     102      112      125      139      149      157      157      151 
     143      133      121      112      114      125      139      156 
     180      203      221      238      252      259      271      275 
     274      275      279      288      309      332      351      365 
     376      386      387      383      379      372      361      355 
     349      341      338      338      334      329      321      313 
     314      324      340      365      391      409      419      432 
     444      456      469      483      491      495      496      495 
     488      484      480      467      449      432      415      406 
     403      403      406      407      400      386      367      346 
     328      309      288      265      238      203      164      129 
     103       83       72       72       75       78       79       79 
      81       82       81       82       90       98      109      125 
     136      148      160      164      164      168      175      183 
     193      199      197      194      199      201      202      220 
     241      259      274      283      283      276      274      278 
     284      289      292      284      265      240      216      197 
     183      178      193      209      220      224      224      212 
     197      187      183      180      187      201      209      212 
     217      217      210      202      206      222      241      263 
     288      309      318      319      317      309      299      298 
     297      287      274      261      256      255      259      270 
     279      284      289      289      284      286      287      280 
     274      265      249      232      224      222      225      240 
     259      280      301      325      348      368      382      388 
     390      380      361      340      322      313      310      318 
     333      342      348      352      349      336      325      322 
     321      318      318      317      313      309      307      313 
     321      325      328      332      337      351      364      375 
     387      395      398      399      390      376      363      344 
     330      330      346      368      388      402      399      386 
     363      338      317      298      279      266      257      246 
     243      251      265      286      311      332      346      357 
     356      349      340      326      309      295      283      268 
     256      251      246      246      252      253      251      255 
     261      274      295      325      352      379      402      418 
     430      438      449      463      476      492      506      518 
     522      521      522      526      530      538      544      537 
     522      504      486      472      464      460      454      446 
     434      414      394      382      373      369      367      363 
     356      346      340      340      344      357      373      390 
     405      425      444      459      475      490      499      508 
     514      519      526      531      540      553      565      583 
     607      633      660      691      723      750      772      783 
     783      783      781      774      777      784      781      780 
     778      766      750      737      727      728      737      746 
     756      757      747      734      723      712      706      702 
     692      677      661      641      616      598      581      565 
     553      540      526      519      504      480      460      440 
     411      391      378      357      337      317      295      279 
     271      272      279      284      287      282      263      246 
     237      229      232      248      263      280      298      317 
     332      344      361      373      372      368      361      341 
     321      313      305      303      319      341      359      372 
     378      372      352      318      283      256      230      214 
     202      187      178      175      167      163      167      176 
     187      201      216      230      251      279      310      342 
     369      386      402      414      415      418      430      448 
     469      493      513      521      531      537      538      542 
     549      552      552      550      545      533      518      503 
     490      479      471      464      460      456      450      445 
     441      434      423      407      382      355      332      315 
     307      315      334      359      394      429      451      471 
     486      491      495      506      515      522      535      544 
     542      546      546      538      533      531      523      517 
     510      496      479      454      422      387      353      321 
     299      286      272      265      263      257      251      246 
     245      255      266      278      283      275      259      245 
     229      220      218      216      210      197      174      159 
     151      151      163      180      194      207      212      210 
     203      198      201      206      207      209      207      202 
     198      193      193      201      211      222      229      234 
     236      229      228      238      251      270      297      324 
     346      368      388      414      448      484      525      572 
     612      641      658      665      666      672      685      704 
     733      760      774      784      785      778      773      772 
     769      765      758      746      730      712      699      691 
     684      681      687      695      699      699      691      670 
     643      612      573      537      502      463      421      380 
     334      292      263      234      203      176      153      136 
     122      118      121      122      118      116      112      112 
     128      147      168      197      221      236      251      263 
     271      283      303      317      326      332      325      306 
     284      259      229      197      167      141      112       85 
      63       47       25        8       -8      -32      -63      -93 
    -125     -160     -191     -218     -234     -236     -229     -217 
    -201     -182     -166     -149     -126      -99      -70      -35 
       1       27       39       39       31       22       16        9 
       8        9        5        1        4        8       16       32 
      47       58       67       71       75       87      101      112 
     125      144      164      186      211      233      249      259 
     256      243      221      193      167      148      125       99 
      79       63       49       39       29       17        0      -11 
     -14      -16      -11       -1       13       23       29       35 
      45       59       79      106      135      155      172      187 
     194      193      189      178      167      157      147      137 
     128      118      109      102       91       74       54       31 
       1      -21      -37      -47      -47      -35      -17       -1 
      14       28       35       32       23        2      -23      -49 
     -74      -91     -101     -105     -102      -91      -78      -62 
     -35       -1       28       58       89      112      125      133 
     136      137      148      168      194      228      261      289 
     311      330      342      356      378      407      437      468 
     499      530      557      576      589      603      608      610 
     608      596      568      532      498      460      418      382 
     356      340      326      317      307      287      259      229 
     193      162      155      167      186      218      261      301 
     340      388      440      496      564      637      711      792 
     874      954     1030     1101     1170     1243     1318     1390 
    1457     1521     1571     1606     1637     1668     1702     1736 
    1772     1811     1844     1867     1885     1895     1899     1908 
    1915     1915     1919     1919     1911     1903     1895     1888 
    1892     1902     1912     1925     1938     1952     1966     1980 
    1985     1979     1971     1953     1930     1908     1883     1854 
    1826     1792     1755     1723     1705     1694     1692     1707 
    1726     1744     1760     1767     1763     1753     1741     1725 
    1703     1687     1675     1663     1648     1628     1606     1591 
    1563     1521     1480     1439     1387     1334     1285     1235 
    1190     1162     1136     1116     1104     1093     1080     1069 
    1059     1053     1051     1044     1034     1020     1003      981 
     955      926      900      872      837      796      747      695 
     648      594      535      486      440      387      340      292 
     234      183      148      118       93       75       59       49 
      40       25        9        5       10        9        9       16 
       9       -9      -32      -62      -94     -120     -143     -168 
    -193     -217     -243     -266     -292     -318     -341     -361 
    -376     -386     -391     -392     -396     -410     -429     -445 
    -463     -484     -503     -517     -535     -561     -577     -594 
    -608     -607     -591     -575     -548     -518     -498     -481 
    -464     -450     -432     -414     -400     -388     -382     -383 
    -398     -409     -414     -411     -403     -396     -390     -380 
    -382     -390     -391     -390     -378     -359     -338     -311 
    -283     -274     -271     -259     -249     -245     -234     -220 
    -210     -205     -209     -225     -252     -280     -310     -341 
    -364     -379     -390     -396     -395     -392     -392     -387 
    -382     -379     -375     -368     -364     -352     -334     -328 
    -324     -319     -322     -325     -321     -317     -306     -291 
    -287     -280     -265     -259     -259     -243     -218     -211 
    -210     -203     -203     -209     -209     -207     -203     -195 
    -184     -171     -157     -140     -112      -74      -36        0 
      44       90      126      162      201      232      261      298 
     319      325      334      344      344      352      375      396 
     417      444      475      502      530      561      602      650 
     688      711      749      783      785      799      832      855 
     876      903      913      912      900      864      838      835 
     830      835      873      915      936      949      961      961 
     950      942      938      929      915      900      885      862 
     842      838      847      845      834      834      832      819 
     807      804      803      803      804      793      776      764 
     749      726      702      666      623      579      538      508 
     493      483      477      472      460      449      448      453 
     461      473      488      504      522      540      553      557 
     562      569      564      553      545      530      503      472 
     453      440      421      410      415      413      391      373 
     363      340      301      248      189      133       82       32 
     -11      -56      -99     -135     -178     -241     -299     -329 
    -359     -402     -438     -461     -476     -480     -476     -463 
    -430     -386     -338     -289     -259     -249     -238     -230 
    -229     -218     -194     -172     -155     -147     -157     -171 
    -182     -205     -238     -266     -289     -314     -332     -349 
    -373     -399     -417     -425     -442     -460     -461     -467 
    -492     -515     -526     -533     -533     -526     -514     -490 
    -454     -425     -402     -365     -332     -310     -286     -263 
    -253     -252     -255     -266     -289     -321     -352     -383 
    -415     -449     -484     -518     -553     -598     -646     -692 
    -731     -765     -804     -838     -859     -882     -908     -932 
    -949     -951     -946     -938     -923     -901     -893     -900 
    -896     -882     -870     -842     -792     -739     -677     -606 
    -544     -492     -433     -382     -353     -334     -324     -324 
    -325     -332     -342     -342     -341     -349     -356     -357 
    -361     -375     -388     -398     -415     -442     -471     -498 
    -519     -540     -565     -585     -602     -621     -629     -623 
    -627     -630     -614     -600     -611     -616     -607     -614 
    -634     -641     -633     -634     -648     -658     -668     -683 
    -696     -702     -708     -710     -708     -714     -724     -734 
    -743     -764     -792     -815     -838     -866     -884     -892 
    -900     -899     -885     -869     -853     -828     -803     -780 
    -761     -739     -722     -723     -728     -726     -715     -695 
    -654     -600     -540     -476     -419     -379     -346     -311 
    -272     -230     -184     -140      -97      -56      -35      -27 
     -21      -17      -11      -10      -11       -5        1       -1 
       9       35       54       70      103      147      186      221 
     251      278      294      289      274      255      225      194 
     174      155      122       97       72       28      -31      -93 
    -153     -209     -263     -313     -344     -359     -379     -394 
    -392     -383     -368     -355     -341     -324     -310     -311 
    -319     -319     -319     -325     -313     -287     -263     -228 
    -172     -110      -56       -2       54       97      124      135 
     129      125      126      124      124      128      129      137 
     155      182      217      249      274      295      306      307 
     303      299      299      303      301      289      271      249 
     229      199      171      160      149      128      116      112 
     101       72       44       18      -10      -39      -54      -64 
     -60      -36      -16       -5       10       36       70       99 
