Origin Time       2016/04/16 01:25:00
Lat.              32.753
Long.             130.762
Depth. (km)       12
Mag.              7.3
Station Code      OKY006
Station Lat.      35.0684
Station Long.     134.0050
Station Height(m) 98
Record Time       2016/04/16 01:26:59
Sampling Freq(Hz) 100Hz
Duration Time(s)  64
Dir.              E-W
Scale Factor      7845(gal)/8223790
Max. Acc. (gal)   2.158
Last Correction   2016/04/16 01:27:00
Memo.             
[...]
   -6319    -6328    -6369    -6427    -6490    -6547    -6574    -6578 
   -6571    -6563    -6567    -6583    -6613    -6648    -6677    -6701 
   -6723    -6744    -6768    -6779    -6764    -6728    -6673    -6610 
   -6555    -6516    -6489    -6467    -6446    -6420    -6400    -6388 
   -6388    -6394    -6400    -6405    -6419    -6427    -6426    -6413 
   -6389    -6346    -6296    -6258    -6238    -6237    -6255    -6285 
   -6322    -6361    -6405    -6457    -6509    -6559    -6598    -6617 
   -6620    -6613    -6588    -6551    -6516    -6480    -6447    -6416 
   -6386    -6354    -6315    -6274    -6243    -6228    -6224    -6223 
   -6223    -6228    -6238    -6246    -6246    -6245    -6252    -6268 
   -6289    -6311    -6322    -6320    -6312    -6307    -6309    -6320 
   -6336    -6355    -6361    -6350    -6331    -6304    -6276    -6257 
   -6231    -6185    -6126    -6060    -5999    -5953    -5921    -5895 
   -5876    -5868    -5872    -5899    -5953    -6026    -6110    -6185 
   -6247    -6308    -6366    -6419    -6462    -6494    -6505    -6496 
   -6485    -6480    -6485    -6508    -6538    -6574    -6617    -6656 
   -6690    -6721    -6735    -6724    -6690    -6635    -6571    -6500 
   -6434    -6385    -6356    -6351    -6370    -6412    -6463    -6525 
   -6590    -6648    -6693    -6725    -6737    -6729    -6700    -6651 
   -6592    -6536    -6497    -6477    -6465    -6457    -6455    -6457 
   -6458    -6462    -6462    -6454    -6436    -6415    -6396    -6385 
   -6377    -6365    -6345    -6319    -6295    -6282    -6295    -6328 
   -6373    -6417    -6457    -6488    -6516    -6540    -6561    -6579 
   -6589    -6586    -6579    -6569    -6551    -6525    -6497    -6463 
   -6426    -6388    -6347    -6311    -6290    -6281    -6284    -6303 
   -6328    -6343    -6349    -6339    -6307    -6258    -6203    -6133 
   -6049    -5962    -5875    -5796    -5741    -5713    -5705    -5725 
   -5771    -5833    -5907    -5989    -6083    -6181    -6278    -6361 
   -6421    -6451    -6454    -6432    -6389    -6342    -6303    -6276 
   -6265    -6272    -6289    -6312    -6346    -6380    -6404    -6417 
   -6416    -6405    -6393    -6384    -6380    -6380    -6378    -6366 
   -6343    -6311    -6268    -6226    -6195    -6180    -6178    -6189 
   -6211    -6237    -6268    -6303    -6334    -6358    -6363    -6347 
   -6322    -6299    -6277    -6264    -6261    -6264    -6270    -6284 
   -6303    -6326    -6343    -6351    -6355    -6356    -6356    -6361 
   -6374    -6389    -6412    -6431    -6434    -6427    -6413    -6389 
   -6363    -6342    -6318    -6290    -6272    -6268    -6278    -6313 
   -6365    -6419    -6473    -6520    -6558    -6588    -6620    -6658 
   -6691    -6701    -6682    -6640    -6588    -6542    -6511    -6478 
   -6436    -6376    -6304    -6237    -6185    -6161    -6162    -6177 
   -6197    -6211    -6210    -6204    -6197    -6195    -6196    -6193 
   -6186    -6183    -6181    -6185    -6199    -6219    -6254    -6307 
   -6365    -6427    -6494    -6552    -6596    -6623    -6640    -6644 
   -6633    -6615    -6586    -6546    -6505    -6465    -6434    -6427 
   -6436    -6453    -6475    -6497    -6512    -6528    -6548    -6571 
   -6594    -6615    -6629    -6635    -6627    -6616    -6598    -6569 
   -6534    -6498    -6465    -6436    -6424    -6432    -6442    -6447 
   -6457    -6469    -6484    -6497    -6502    -6502    -6509    -6524 
   -6542    -6562    -6578    -6573    -6552    -6524    -6496    -6475 
   -6465    -6454    -6434    -6400    -6363    -6336    -6323    -6331 
   -6351    -6372    -6384    -6378    -6361    -6350    -6351    -6361 
   -6367    -6376    -6385    -6388    -6386    -6393    -6404    -6412 
   -6419    -6416    -6408    -6399    -6393    -6397    -6408    -6421 
   -6432    -6440    -6446    -6454    -6462    -6462    -6444    -6417 
   -6382    -6349    -6330    -6318    -6307    -6296    -6276    -6249 
   -6214    -6178    -6153    -6147    -6162    -6193    -6231    -6276 
   -6322    -6366    -6421    -6490    -6563    -6632    -6686    -6720 
   -6731    -6714    -6673    -6615    -6546    -6480    -6424    -6381 
   -6353    -6347    -6361    -6377    -6386    -6389    -6393    -6397 
   -6404    -6412    -6412    -6415    -6426    -6432    -6439    -6450 
   -6459    -6467    -6478    -6490    -6498    -6505    -6515    -6524 
   -6534    -6554    -6581    -6612    -6650    -6686    -6714    -6737 
   -6750    -6739    -6716    -6687    -6655    -6619    -6583    -6551 
   -6523    -6500    -6484    -6478    -6488    -6505    -6525    -6548 
   -6563    -6558    -6534    -6498    -6457    -6412    -6381    -6378 
   -6409    -6467    -6540    -6608    -6670    -6721    -6758    -6790 
   -6829    -6860    -6870    -6863    -6839    -6799    -6759    -6723 
   -6681    -6627    -6564    -6501    -6446    -6424    -6435    -6465 
   -6512    -6559    -6592    -6606    -6608    -6601    -6590    -6574 
   -6556    -6542    -6528    -6520    -6512    -6502    -6498    -6497 
   -6501    -6521    -6556    -6592    -6624    -6647    -6656    -6663 
   -6669    -6667    -6663    -6652    -6625    -6593    -6564    -6534 
   -6497    -6451    -6403    -6361    -6338    -6328    -6330    -6345 
   -6366    -6382    -6396    -6416    -6440    -6469    -6501    -6525 
   -6529    -6520    -6496    -6451    -6401    -6354    -6311    -6281 
   -6262    -6250    -6243    -6246    -6264    -6295    -6323    -6350 
   -6358    -6345    -6316    -6285    -6264    -6255    -6264    -6282 
   -6308    -6334    -6355    -6365    -6366    -6366    -6361    -6354 
   -6335    -6296    -6245    -6191    -6141    -6107    -6088    -6075 
   -6064    -6061    -6061    -6061    -6065    -6062    -6042    -6008 
   -5964    -5919    -5887    -5868    -5853    -5844    -5841    -5844 
   -5856    -5879    -5906    -5934    -5965    -5995    -6011    -6014 
   -6002    -5976    -5935    -5883    -5827    -5769    -5705    -5636 
   -5576    -5529    -5495    -5475    -5463    -5448    -5431    -5409 
   -5383    -5368    -5382    -5418    -5470    -5526    -5580    -5632 
   -5679    -5721    -5756    -5784    -5813    -5838    -5854    -5871 
   -5890    -5911    -5933    -5958    -5985    -6011    -6042    -6083 
   -6124    -6161    -6193    -6210    -6211    -6207    -6199    -6185 
   -6177    -6183    -6203    -6234    -6278    -6335    -6388    -6421 
   -6431    -6403    -6338    -6257    -6169    -6070    -5972    -5876 
   -5772    -5668    -5575    -5479    -5385    -5304    -5239    -5194 
   -5166    -5147    -5136    -5136    -5151    -5182    -5229    -5298 
   -5381    -5467    -5559    -5653    -5748    -5838    -5917    -5976 
   -6008    -6008    -5987    -5954    -5917    -5886    -5861    -5841 
   -5827    -5817    -5802    -5778    -5745    -5706    -5653    -5584 
   -5508    -5443    -5398    -5377    -5377    -5404    -5443    -5503 
   -5589    -5687    -5798    -5922    -6046    -6165    -6282    -6386 
   -6469    -6531    -6579    -6615    -6648    -6685    -6718    -6750 
   -6782    -6815    -6841    -6856    -6858    -6832    -6790    -6750 
   -6714    -6691    -6687    -6691    -6704    -6727    -6756    -6799 
   -6852    -6901    -6936    -6945    -6926    -6889    -6843    -6801 
   -6766    -6744    -6736    -6748    -6777    -6828    -6916    -7028 
   -7155    -7292    -7420    -7530    -7619    -7685    -7727    -7743 
   -7727    -7681    -7609    -7518    -7422    -7338    -7279    -7244 
   -7219    -7198    -7176    -7141    -7096    -7059    -7026    -6997 
   -6979    -6968    -6957    -6957    -6964    -6968    -6971    -6974 
   -6974    -6970    -6960    -6952    -6951    -6947    -6947    -6952 
   -6963    -6980    -7001    -7013    -7023    -7032    -7023    -7003 
   -6983    -6959    -6921    -6878    -6836    -6794    -6747    -6698 
   -6652    -6608    -6569    -6546    -6531    -6536    -6567    -6615 
   -6685    -6781    -6886    -7001    -7115    -7217    -7296    -7352 
   -7373    -7358    -7306    -7222    -7122    -7020    -6910    -6801 
   -6685    -6562    -6446    -6347    -6276    -6241    -6243    -6276 
   -6331    -6405    -6488    -6571    -6639    -6677    -6673    -6616 
   -6515    -6384    -6242    -6108    -5991    -5881    -5780    -5687 
   -5599    -5516    -5441    -5364    -5279    -5190    -5112    -5057 
   -5032    -5038    -5071    -5117    -5164    -5220    -5282    -5336 
   -5382    -5429    -5475    -5519    -5572    -5633    -5701    -5778 
   -5864    -5962    -6069    -6181    -6296    -6412    -6527    -6643 
   -6758    -6860    -6947    -7025    -7091    -7152    -7213    -7260 
   -7287    -7288    -7260    -7209    -7146    -7087    -7032    -6980 
   -6928    -6862    -6777    -6682    -6588    -6505    -6444    -6405 
   -6388    -6388    -6399    -6430    -6478    -6531    -6592    -6673 
   -6767    -6878    -7001    -7121    -7225    -7302    -7352    -7368 
   -7352    -7310    -7236    -7132    -7003    -6856    -6696    -6538 
   -6389    -6258    -6150    -6064    -5998    -5945    -5906    -5880 
   -5859    -5838    -5823    -5805    -5771    -5732    -5692    -5645 
   -5593    -5540    -5486    -5429    -5377    -5337    -5309    -5290 
   -5283    -5286    -5300    -5328    -5367    -5421    -5487    -5551 
   -5602    -5641    -5665    -5678    -5689    -5706    -5729    -5757 
   -5786    -5809    -5825    -5834    -5848    -5873    -5908    -5938 
   -5961    -5980    -5996    -6015    -6048    -6091    -6141    -6196 
   -6252    -6307    -6355    -6400    -6442    -6475    -6512    -6548 
   -6575    -6593    -6602    -6600    -6592    -6585    -6577    -6573 
   -6577    -6583    -6594    -6612    -6625    -6621    -6604    -6579 
   -6550    -6524    -6504    -6486    -6477    -6475    -6477    -6481 
   -6492    -6500    -6494    -6471    -6421    -6345    -6250    -6141 
   -6022    -5906    -5792    -5678    -5575    -5501    -5451    -5428 
   -5437    -5464    -5491    -5514    -5521    -5506    -5476    -5448 
   -5436    -5448    -5491    -5556    -5630    -5714    -5800    -5881 
   -5954    -6016    -6050    -6052    -6038    -6014    -5985    -5960 
   -5933    -5900    -5864    -5825    -5796    -5780    -5772    -5768 
   -5760    -5749    -5742    -5737    -5742    -5760    -5775    -5790 
   -5813    -5830    -5842    -5857    -5867    -5868    -5861    -5852 
   -5841    -5833    -5827    -5822    -5819    -5819    -5811    -5796 
   -5782    -5765    -5737    -5689    -5629    -5559    -5481    -5406 
   -5350    -5314    -5312    -5339    -5377    -5424    -5475    -5522 
   -5560    -5584    -5590    -5571    -5522    -5455    -5377    -5292 
   -5206    -5124    -5043    -4961    -4889    -4833    -4793    -4781 
   -4796    -4838    -4905    -4994    -5097    -5197    -5289    -5367 
   -5418    -5445    -5448    -5428    -5394    -5359    -5332    -5320 
   -5324    -5337    -5360    -5386    -5408    -5422    -5433    -5439 
   -5436    -5429    -5433    -5454    -5501    -5578    -5683    -5806 
   -5938    -6068    -6189    -6296    -6392    -6475    -6543    -6592 
   -6617    -6620    -6605    -6588    -6569    -6551    -6536    -6525 
   -6511    -6492    -6467    -6448    -6447    -6460    -6492    -6543 
   -6604    -6669    -6741    -6820    -6891    -6951    -6995    -7023 
   -7040    -7052    -7059    -7056    -7056    -7064    -7089    -7125 
   -7179    -7244    -7292    -7317    -7317    -7285    -7234    -7183 
   -7140    -7107    -7078    -7056    -7047    -7044    -7048    -7065 
   -7099    -7145    -7194    -7234    -7264    -7275    -7264    -7236 
   -7190    -7132    -7069    -7011    -6967    -6937    -6925    -6919 
   -6914    -6906    -6895    -6872    -6836    -6793    -6741    -6686 
   -6635    -6583    -6528    -6470    -6405    -6330    -6258    -6204 
   -6148    -6084    -6015    -5935    -5857    -5793    -5749    -5717 
   -5694    -5676    -5670    -5676    -5707    -5765    -5844    -5934 
   -6030    -6119    -6207    -6301    -6403    -6509    -6631    -6767 
   -6907    -7053    -7195    -7321    -7427    -7510    -7564    -7600 
   -7624    -7645    -7657    -7643    -7607    -7542    -7442    -7325 
   -7213    -7111    -7026    -6956    -6895    -6836    -6770    -6700 
   -6632    -6566    -6505    -6467    -6453    -6458    -6490    -6548 
   -6610    -6678    -6744    -6802    -6856    -6910    -6967    -7020 
   -7064    -7101    -7123    -7136    -7152    -7173    -7194    -7210 
   -7222    -7222    -7211    -7194    -7175    -7155    -7132    -7106 
   -7079    -7044    -6999    -6945    -6890    -6844    -6817    -6821 
   -6848    -6889    -6937    -6990    -7041    -7099    -7180    -7284 
   -7408    -7543    -7657    -7738    -7773    -7763    -7711    -7632 
   -7545    -7447    -7348    -7254    -7168    -7092    -7037    -6997 
   -6963    -6941    -6933    -6939    -6955    -6979    -7014    -7055 
   -7092    -7125    -7153    -7182    -7202    -7209    -7198    -7176 
   -7145    -7113    -7084    -7055    -7028    -7002    -6975    -6952 
   -6937    -6912    -6878    -6841    -6801    -6760    -6733    -6717 
   -6709    -6706    -6706    -6711    -6732    -6763    -6802    -6848 
   -6902    -6963    -7034    -7109    -7183    -7258    -7335    -7414 
   -7507    -7619    -7749    -7896    -8052    -8210    -8359    -8480 
   -8564    -8619    -8649    -8658    -8664    -8667    -8667    -8672 
   -8673    -8671    -8671    -8662    -8646    -8615    -8567    -8502 
   -8404    -8283    -8147    -7998    -7851    -7720    -7608    -7519 
   -7462    -7437    -7441    -7474    -7534    -7614    -7704    -7792 
   -7865    -7916    -7938    -7931    -7901    -7844    -7767    -7670 
   -7553    -7431    -7315    -7207    -7127    -7087    -7075    -7087 
   -7122    -7168    -7211    -7254    -7296    -7331    -7352    -7354 
   -7344    -7322    -7300    -7291    -7298    -7327    -7373    -7419 
   -7458    -7485    -7499    -7510    -7533    -7557    -7577    -7589 
   -7574    -7519    -7435    -7335    -7218    -7086    -6956    -6837 
   -6728    -6640    -6582    -6555    -6561    -6575    -6586    -6598 
   -6608    -6608    -6610    -6621    -6635    -6658    -6687    -6716 
   -6748    -6786    -6808    -6806    -6791    -6752    -6716    -6713 
   -6739    -6794    -6893    -7006    -7109    -7203    -7287    -7349 
   -7396    -7430    -7447    -7450    -7442    -7426    -7411    -7395 
   -7375    -7349    -7312    -7261    -7200    -7145    -7103    -7076 
   -7071    -7086    -7107    -7132    -7156    -7168    -7176    -7188 
   -7198    -7211    -7229    -7240    -7245    -7246    -7246    -7245 
   -7231    -7210    -7179    -7127    -7056    -6966    -6860    -6758 
   -6669    -6590    -6516    -6455    -6405    -6355    -6308    -6273 
   -6254    -6245    -6250    -6268    -6288    -6311    -6347    -6389 
   -6432    -6465    -6474    -6457    -6415    -6355    -6295    -6237 
   -6180    -6129    -6084    -6049    -6031    -6043    -6102    -6207 
   -6347    -6512    -6693    -6876    -7052    -7200    -7310    -7385 
   -7423    -7430    -7420    -7404    -7388    -7381    -7377    -7378 
   -7393    -7425    -7472    -7537    -7614    -7695    -7781    -7863 
   -7933    -7997    -8050    -8086    -8106    -8121    -8132    -8139 
   -8149    -8167    -8191    -8220    -8240    -8251    -8256    -8253 
   -8243    -8224    -8201    -8177    -8160    -8136    -8101    -8048 
   -7977    -7897    -7813    -7736    -7668    -7604    -7551    -7512 
   -7484    -7466    -7466    -7479    -7499    -7515    -7520    -7519 
   -7514    -7496    -7465    -7418    -7346    -7256    -7145    -7028 
   -6916    -6815    -6728    -6651    -6582    -6525    -6481    -6444 
   -6427    -6424    -6427    -6440    -6457    -6467    -6474    -6477 
   -6469    -6442    -6393    -6323    -6241    -6150    -6058    -5967 
   -5881    -5806    -5732    -5665    -5611    -5568    -5537    -5514 
   -5499    -5495    -5501    -5514    -5537    -5559    -5579    -5609 
   -5647    -5697    -5769    -5854    -5944    -6031    -6114    -6184 
   -6239    -6274    -6285    -6272    -6224    -6145    -6042    -5923 
   -5806    -5694    -5584    -5478    -5379    -5296    -5238    -5201 
   -5186    -5198    -5228    -5262    -5301    -5343    -5383    -5431 
   -5485    -5539    -5589    -5636    -5682    -5724    -5763    -5798 
   -5826    -5841    -5852    -5863    -5873    -5884    -5895    -5914 
   -5945    -5987    -6043    -6115    -6186    -6235    -6254    -6238 
   -6189    -6122    -6039    -5957    -5894    -5849    -5827    -5822 
   -5819    -5821    -5825    -5810    -5783    -5752    -5714    -5679 
   -5651    -5629    -5611    -5593    -5578    -5574    -5580    -5589 
   -5594    -5590    -5574    -5536    -5479    -5409    -5346    -5302 
   -5283    -5293    -5321    -5362    -5410    -5448    -5478    -5506 
   -5524    -5536    -5549    -5555    -5556    -5562    -5578    -5610 
   -5652    -5706    -5767    -5826    -5886    -5944    -5996    -6041 
   -6076    -6107    -6141    -6180    -6231    -6285    -6330    -6349 
   -6338    -6305    -6261    -6212    -6168    -6129    -6091    -6065 
   -6056    -6050    -6042    -6029    -6006    -5981    -5957    -5937 
   -5918    -5917    -5931    -5950    -5981    -6031    -6087    -6143 
   -6207    -6265    -6308    -6332    -6334    -6320    -6292    -6258 
   -6230    -6195    -6153    -6118    -6077    -6033    -6003    -5995 
   -6008    -6049    -6114    -6192    -6272    -6349    -6416    -6454 
   -6458    -6434    -6392    -6336    -6277    -6227    -6193    -6177 
   -6178    -6176    -6158    -6139    -6120    -6095    -6075    -6060 
   -6039    -6023    -6018    -6014    -6012    -6022    -6035    -6054 
   -6085    -6112    -6127    -6141    -6150    -6143    -6118    -6075 
   -6016    -5950    -5880    -5817    -5759    -5707    -5668    -5653 
   -5659    -5668    -5688    -5726    -5763    -5798    -5838    -5880 
   -5922    -5968    -6019    -6056    -6073    -6075    -6056    -6023 
   -5975    -5913    -5852    -5791    -5730    -5676    -5623    -5576 
   -5539    -5505    -5476    -5448    -5421    -5390    -5355    -5319 
   -5294    -5282    -5287    -5310    -5335    -5350    -5358    -5352 
   -5331    -5300    -5256    -5194    -5124    -5059    -5001    -4958 
   -4931    -4918    -4918    -4930    -4943    -4959    -4984    -5024 
   -5080    -5142    -5198    -5248    -5282    -5305    -5333    -5364 
   -5390    -5425    -5471    -5517    -5571    -5643    -5726    -5823 
   -5934    -6031    -6102    -6148    -6166    -6154    -6129    -6089 
   -6042    -5998    -5956    -5921    -5904    -5904    -5906    -5910 
   -5910    -5898    -5868    -5821    -5763    -5706    -5643    -5574 
   -5516    -5468    -5431    -5412    -5408    -5412    -5424    -5433 
   -5429    -5409    -5381    -5344    -5301    -5255    -5205    -5155 
   -5109    -5076    -5062    -5063    -5077    -5107    -5147    -5196 
   -5256    -5328    -5405    -5475    -5539    -5584    -5603    -5602 
   -5589    -5560    -5513    -5456    -5395    -5327    -5258    -5193 
   -5131    -5076    -5027    -4988    -4963    -4955    -4970    -5009 
   -5074    -5155    -5246    -5335    -5414    -5485    -5539    -5568 
