Origin Time       2016/04/16 01:25:00
Lat.              32.753
Long.             130.762
Depth. (km)       12
Mag.              7.3
Station Code      OKY014
Station Lat.      34.4462
Station Long.     133.7876
Station Height(m) 49
Record Time       2016/04/16 01:26:43
Sampling Freq(Hz) 100Hz
Duration Time(s)  61
Dir.              N-S
Scale Factor      7845(gal)/8223790
Max. Acc. (gal)   3.247
Last Correction   2016/04/16 01:26:44
Memo.             
[...]
    7226     7292     7393     7512     7635     7747     7846     7938 
    8031     8117     8177     8202     8185     8127     8035     7923 
    7813     7723     7657     7614     7605     7627     7652     7674 
    7711     7770     7843     7915     7969     7990     7977     7944 
    7915     7902     7924     7986     8068     8139     8163     8124 
    8048     7969     7909     7894     7950     8071     8236     8395 
    8494     8523     8499     8428     8314     8197     8111     8071 
    8058     8054     8040     8016     7985     7967     7966     7966 
    7969     7985     8009     8035     8048     8058     8078     8095 
    8068     7989     7873     7754     7655     7581     7527     7496 
    7506     7565     7657     7755     7823     7846     7838     7825 
    7821     7836     7865     7892     7902     7888     7840     7781 
    7730     7690     7668     7651     7638     7639     7677     7749 
    7830     7908     7979     8044     8100     8124     8114     8081 
    8035     8007     8019     8064     8132     8191     8218     8214 
    8193     8155     8111     8093     8133     8236     8374     8519 
    8625     8650     8595     8487     8370     8266     8174     8098 
    8060     8066     8098     8152     8217     8275     8326     8363 
    8360     8299     8181     8043     7940     7913     7966     8064 
    8181     8301     8401     8456     8437     8367     8289     8237 
    8230     8274     8355     8446     8515     8540     8522     8457 
    8343     8190     8048     7959     7929     7952     8019     8105 
    8187     8241     8259     8244     8199     8116     7992     7847 
    7717     7630     7597     7639     7759     7931     8129     8295 
    8385     8408     8383     8332     8271     8203     8143     8111 
    8117     8139     8158     8174     8212     8276     8352     8418 
    8464     8474     8433     8329     8182     8014     7839     7681 
    7561     7479     7439     7441     7491     7599     7747     7892 
    8004     8070     8091     8071     8004     7881     7730     7576 
    7441     7342     7290     7280     7307     7356     7408     7456 
    7491     7507     7493     7454     7399     7353     7354     7402 
    7449     7454     7425     7376     7340     7352     7411     7500 
    7608     7715     7813     7909     7981     8004     7978     7928 
    7886     7869     7875     7901     7931     7940     7913     7863 
    7809     7758     7716     7689     7682     7690     7703     7716 
    7727     7736     7761     7813     7894     8009     8133     8228 
    8253     8191     8073     7955     7862     7794     7744     7712 
    7723     7793     7894     7992     8066     8116     8149     8176 
    8197     8203     8195     8205     8267     8380     8505     8600 
    8630     8572     8424     8215     7969     7735     7560     7470 
    7472     7550     7684     7843     8016     8193     8363     8500 
    8579     8572     8494     8383     8270     8174     8106     8056 
    8027     8033     8060     8071     8056     8013     7962     7963 
    8044     8176     8332     8474     8581     8658     8707     8727 
    8739     8748     8733     8673     8579     8482     8407     8352 
    8297     8228     8154     8077     8009     7966     7955     7971 
    8014     8111     8259     8403     8494     8510     8446     8318 
    8155     7987     7844     7711     7574     7484     7480     7553 
    7673     7796     7896     7973     8014     7994     7915     7799 
    7678     7589     7550     7545     7555     7586     7634     7673 
    7685     7666     7638     7623     7608     7586     7578     7588 
    7608     7643     7685     7719     7755     7798     7847     7906 
    7974     8040     8113     8205     8313     8406     8447     8417 
    8311     8151     7974     7805     7663     7574     7557     7608 
    7716     7840     7942     8013     8048     8027     7938     7789 
    7627     7501     7434     7400     7384     7406     7477     7580 
    7677     7727     7722     7692     7662     7645     7635     7609 
    7560     7504     7446     7377     7319     7295     7314     7368 
    7437     7514     7601     7685     7740     7765     7755     7720 
    7678     7635     7584     7531     7489     7458     7426     7399 
    7399     7434     7489     7541     7578     7605     7628     7659 
    7701     7746     7780     7796     7799     7803     7813     7839 
    7879     7917     7938     7950     7960     7960     7938     7879 
    7794     7717     7677     7695     7770     7873     7978     8071 
    8137     8152     8097     7978     7821     7673     7562     7477 
    7406     7353     7322     7317     7337     7365     7398     7439 
    7489     7551     7618     7657     7650     7597     7518     7426 
    7323     7218     7123     7028     6910     6789     6702     6666 
    6662     6670     6687     6737     6826     6952     7086     7194 
    7261     7298     7310     7300     7281     7272     7288     7339 
    7434     7558     7672     7740     7747     7707     7663     7657 
    7708     7820     7962     8095     8202     8263     8268     8237 
    8209     8202     8224     8281     8359     8426     8486     8537 
    8596     8676     8746     8781     8772     8702     8584     8459 
    8340     8248     8210     8226     8279     8340     8383     8397 
    8391     8383     8375     8368     8352     8311     8247     8155 
    8039     7925     7859     7852     7897     7990     8106     8201 
    8248     8248     8220     8193     8151     8064     7944     7815 
    7703     7641     7635     7663     7716     7789     7869     7938 
    7998     8047     8059     8023     7952     7863     7755     7626 
    7489     7377     7314     7307     7358     7454     7569     7685 
    7793     7881     7955     8023     8085     8152     8208     8221 
    8176     8081     7956     7836     7735     7657     7618     7622 
    7672     7754     7860     7979     8089     8186     8262     8295 
    8276     8208     8109     8019     7952     7892     7825     7742 
    7638     7524     7411     7310     7246     7248     7300     7377 
    7458     7528     7588     7651     7736     7847     7974     8113 
    8248     8345     8365     8290     8144     7973     7807     7665 
    7560     7487     7442     7443     7512     7666     7884     8131 
    8361     8520     8567     8496     8347     8171     8004     7857 
    7738     7657     7623     7619     7631     7673     7758     7877 
    8013     8139     8221     8241     8201     8118     8023     7933 
    7865     7821     7794     7766     7713     7635     7569     7545 
    7566     7618     7669     7697     7699     7669     7609     7547 
    7484     7419     7368     7335     7312     7312     7333     7358 
    7392     7438     7488     7539     7589     7636     7688     7746 
    7821     7939     8101     8276     8426     8519     8552     8548 
    8537     8525     8515     8517     8540     8565     8579     8581 
    8561     8522     8467     8383     8267     8120     7963     7844 
    7816     7890     8033     8215     8424     8626     8777     8861 
    8877     8843     8775     8667     8527     8379     8232     8104 
    8009     7951     7947     7998     8082     8168     8244     8307 
    8357     8410     8477     8549     8612     8658     8688     8714 
    8741     8765     8789     8807     8802     8772     8708     8596 
    8451     8298     8166     8085     8051     8037     8040     8054 
    8078     8124     8181     8233     8278     8307     8302     8251 
    8154     8020     7863     7734     7657     7636     7674     7759 
    7850     7931     7993     8028     8047     8070     8105     8154 
    8202     8232     8222     8182     8131     8078     8025     7973 
    7929     7908     7915     7948     7998     8051     8091     8121 
    8139     8143     8122     8089     8059     8039     8024     8013 
    8000     7993     8005     8020     8005     7946     7835     7684 
    7515     7345     7175     7010     6871     6786     6770     6809 
    6863     6917     6983     7063     7160     7277     7389     7470 
    7506     7484     7425     7349     7263     7182     7127     7107 
    7130     7203     7314     7439     7558     7659     7730     7766 
    7765     7727     7652     7565     7492     7456     7458     7512 
    7634     7807     8005     8208     8395     8546     8629     8635 
    8579     8463     8311     8168     8071     8046     8105     8251 
    8464     8702     8908     9059     9136     9142     9096     9011 
    8895     8757     8608     8459     8310     8159     8013     7903 
    7854     7869     7921     7955     7946     7906     7848     7771 
    7669     7542     7392     7240     7102     6972     6863     6793 
    6752     6735     6747     6772     6781     6759     6693     6578 
    6440     6305     6191     6118     6093     6088     6087     6102 
    6133     6161     6181     6177     6134     6061     5973     5887 
    5817     5763     5717     5678     5656     5682     5759     5880 
    6012     6147     6280     6374     6400     6349     6237     6124 
    6056     6034     6056     6106     6165     6224     6288     6353 
    6412     6474     6569     6710     6880     7052     7192     7281 
    7319     7330     7325     7302     7281     7267     7241     7206 
    7182     7188     7236     7327     7447     7573     7696     7805 
    7879     7901     7860     7784     7723     7692     7674     7646 
    7591     7512     7426     7342     7280     7261     7277     7311 
    7349     7389     7435     7481     7522     7539     7515     7452 
    7357     7253     7169     7125     7127     7177     7263     7362 
    7446     7488     7496     7484     7469     7468     7482     7499 
    7508     7508     7497     7503     7553     7652     7785     7921 
    8020     8063     8050     7983     7896     7827     7780     7731 
    7682     7632     7569     7489     7404     7317     7250     7233 
    7261     7334     7446     7573     7699     7798     7842     7827 
    7774     7696     7612     7545     7504     7497     7542     7636 
    7756     7888     8009     8101     8160     8179     8158     8116 
    8052     7960     7874     7812     7753     7689     7628     7565 
    7503     7457     7430     7423     7435     7453     7472     7497 
    7515     7534     7573     7646     7753     7889     8035     8160 
    8263     8336     8374     8387     8375     8332     8272     8215 
    8175     8195     8295     8464     8688     8926     9147     9351 
    9518     9626     9660     9622     9522     9381     9216     9050 
    8904     8785     8691     8623     8614     8683     8797     8920 
    9027     9094     9117     9111     9073     9004     8901     8773 
    8660     8587     8550     8550     8577     8619     8677     8742 
    8800     8841     8854     8823     8748     8652     8559     8490 
    8473     8520     8644     8843     9104     9401     9691     9929 
   10085    10161    10166    10130    10075     9994     9880     9747 
    9594     9417     9239     9082     8942     8827     8770     8772 
    8808     8842     8814     8704     8529     8310     8090     7896 
    7726     7572     7427     7291     7164     7041     6924     6820 
    6732     6659     6597     6543     6493     6447     6400     6353 
    6297     6235     6169     6100     6046     6022     6027     6062 
    6127     6200     6251     6269     6259     6242     6226     6211 
    6192     6146     6065     5977     5914     5890     5898     5910 
    5906     5881     5819     5721     5626     5575     5583     5676 
    5867     6130     6427     6705     6880     6925     6872     6770 
    6673     6623     6620     6669     6772     6907     7047     7172 
    7252     7264     7217     7130     7045     7020     7083     7221 
    7422     7650     7847     7969     7998     7925     7778     7618 
    7514     7515     7638     7852     8125     8417     8664     8818 
    8860     8806     8699     8579     8461     8356     8275     8220 
    8182     8152     8114     8055     7973     7875     7780     7697 
    7645     7641     7712     7869     8078     8276     8406     8434 
    8348     8155     7873     7551     7267     7055     6912     6824 
    6774     6751     6763     6812     6898     7032     7202     7385 
    7573     7761     7940     8085     8177     8215     8187     8097 
    7969     7835     7735     7701     7743     7850     7997     8144 
    8275     8382     8459     8519     8590     8677     8781     8889 
    8968     8976     8899     8745     8546     8351     8190     8070 
    7996     7974     7998     8055     8133     8217     8297     8363 
    8411     8444     8473     8505     8540     8567     8594     8625 
    8653     8669     8642     8550     8424     8313     8259     8272 
    8328     8397     8460     8494     8487     8451     8401     8349 
    8324     8352     8431     8546     8654     8719     8750     8742 
    8676     8560     8417     8262     8106     7940     7756     7574 
    7426     7319     7254     7209     7138     7017     6860     6694 
    6546     6442     6388     6374     6396     6421     6413     6366 
    6274     6129     5953     5768     5563     5344     5125     4920 
    4750     4626     4537     4499     4526     4603     4715     4851 
    4981     5071     5104     5086     5054     5046     5063     5096 
    5127     5144     5140     5123     5108     5116     5189     5351 
    5584     5868     6154     6393     6575     6691     6747     6786 
    6860     6985     7159     7360     7565     7747     7892     7983 
    8000     7946     7843     7726     7618     7515     7429     7387 
    7402     7480     7632     7836     8037     8198     8286     8294 
    8237     8141     8032     7948     7909     7905     7931     7981 
    8023     8051     8082     8133     8221     8359     8537     8721 
    8874     8969     9027     9080     9127     9143     9111     9045 
    8955     8829     8664     8487     8334     8236     8193     8166 
    8120     8059     8006     7989     8014     8058     8104     8158 
    8235     8349     8499     8660     8807     8905     8927     8877 
    8766     8621     8479     8380     8336     8337     8371     8431 
    8513     8607     8712     8818     8918     9016     9104     9175 
    9229     9256     9252     9223     9185     9167     9186     9238 
    9309     9381     9435     9470     9499     9520     9521     9512 
    9501     9501     9502     9486     9454     9413     9363     9312 
    9278     9270     9288     9332     9401     9487     9575     9641 
    9659     9609     9508     9388     9283     9225     9228     9275 
    9340     9408     9451     9448     9398     9305     9184     9070 
    8993     8970     8989     9012     9009     8978     8918     8827 
    8721     8610     8497     8403     8344     8319     8332     8390 
    8492     8625     8746     8808     8802     8754     8685     8614 
    8569     8557     8564     8591     8634     8676     8691     8655 
    8571     8464     8375     8337     8375     8482     8623     8766 
    8900     9013     9089     9117     9100     9069     9076     9147 
    9278     9439     9594     9718     9814     9882     9915     9919 
    9909     9899     9902     9907     9903     9909     9948    10018 
   10116    10230    10334    10419    10474    10488    10459    10396 
   10312    10235    10187    10164    10169    10192    10204    10196 
   10179    10169    10170    10177    10180    10161    10104    10011 
    9900     9784     9675     9583     9540     9563     9637     9713 
    9759     9760     9714     9628     9514     9388     9269     9163 
    9080     9035     9043     9101     9198     9327     9454     9540 
    9566     9521     9406     9258     9127     9045     9018     9035 
    9067     9094     9109     9113     9111     9117     9151     9213 
    9296     9379     9436     9474     9491     9478     9436     9366 
    9265     9147     9023     8895     8787     8729     8737     8811 
    8934     9077     9209     9312     9366     9360     9327     9285 
    9231     9165     9092     9023     8981     8964     8954     8920 
    8827     8660     8437     8195     7958     7767     7663     7655 
    7731     7851     7967     8047     8093     8106     8095     8077 
    8075     8101     8158     8226     8268     8294     8330     8371 
    8406     8437     8460     8479     8513     8563     8627     8707 
    8812     8959     9143     9328     9463     9512     9481     9396 
    9300     9229     9212     9261     9362     9497     9643     9765 
    9852     9917     9963     9988     9999     9998     9991     9989 
    9991     9991     9984     9973     9957     9926     9876     9815 
    9763     9736     9737     9768     9826     9902     9965     9983 
    9937     9837     9711     9582     9451     9322     9209     9128 
    9109     9170     9300     9470     9641     9787     9883     9891 
    9795     9621     9412     9208     9057     8986     8999     9073 
    9174     9261     9306     9302     9243     9147     9043     8954 
    8905     8900     8926     8957     8959     8942     8914     8869 
    8800     8712     8621     8553     8530     8542     8563     8583 
    8603     8623     8634     8599     8500     8367     8228     8091 
    7979     7894     7832     7812     7832     7869     7909     7931 
    7911     7850     7778     7719     7700     7735     7807     7881 
    7919     7890     7789     7635     7443     7234     7038     6876 
    6755     6685     6666     6689     6747     6820     6876     6916 
    6932     6907     6839     6748     6654     6573     6529     6525 
    6538     6555     6564     6564     6563     6575     6615     6683 
    6770     6859     6933     6975     6976     6948     6909     6886 
    6898     6949     7037     7144     7268     7399     7508     7573 
    7586     7555     7510     7470     7441     7433     7433     7427 
    7408     7361     7295     7249     7238     7264     7334     7408 
    7460     7493     7520     7558     7616     7685     7754     7811 
    7839     7836     7827     7854     7950     8136     8388     8648 
    8854     8972     8980     8880     8706     8513     8349     8256 
    8252     8348     8543     8803     9069     9305     9489     9598 
    9625     9559     9413     9229     9049     8889     8766     8680 
    8618     8563     8500     8424     8343     8272     8233     8230 
    8256     8305     8360     8395     8397     8337     8205     8025 
    7834     7651     7500     7408     7391     7450     7568     7707 
    7832     7920     7948     7898     7761     7547     7291     7056 
    6898     6832     6856     6948     7065     7184     7268     7295 
    7275     7223     7153     7091     7048     7015     7001     7002 
    7005     7007     7021     7045     7076     7105     7117     7113 
    7107     7110     7126     7169     7236     7315     7381     7411 
    7381     7294     7167     7022     6883     6766     6675     6609 
