Origin Time       2016/04/16 01:25:00
Lat.              32.753
Long.             130.762
Depth. (km)       12
Mag.              7.3
Station Code      OKY006
Station Lat.      35.0684
Station Long.     134.0050
Station Height(m) 98
Record Time       2016/04/16 01:26:59
Sampling Freq(Hz) 100Hz
Duration Time(s)  64
Dir.              N-S
Scale Factor      7845(gal)/8223790
Max. Acc. (gal)   2.360
Last Correction   2016/04/16 01:27:00
Memo.             
[...]
   -2466    -2451    -2439    -2421    -2400    -2385    -2374    -2363 
   -2358    -2357    -2355    -2355    -2359    -2370    -2394    -2432 
   -2479    -2536    -2598    -2659    -2721    -2779    -2825    -2866 
   -2899    -2925    -2940    -2940    -2922    -2889    -2835    -2766 
   -2698    -2640    -2590    -2552    -2527    -2505    -2496    -2497 
   -2508    -2527    -2550    -2562    -2567    -2571    -2575    -2584 
   -2597    -2606    -2612    -2610    -2597    -2570    -2536    -2497 
   -2457    -2420    -2392    -2376    -2367    -2367    -2373    -2374 
   -2370    -2355    -2332    -2309    -2292    -2285    -2288    -2299 
   -2312    -2327    -2343    -2361    -2381    -2408    -2444    -2479 
   -2509    -2532    -2542    -2532    -2508    -2479    -2442    -2401 
   -2357    -2311    -2265    -2224    -2193    -2172    -2158    -2151 
   -2154    -2168    -2189    -2223    -2266    -2311    -2361    -2411 
   -2459    -2497    -2520    -2525    -2517    -2501    -2488    -2485 
   -2502    -2535    -2573    -2613    -2651    -2681    -2709    -2743 
   -2770    -2781    -2778    -2759    -2727    -2687    -2654    -2627 
   -2605    -2584    -2558    -2520    -2473    -2420    -2380    -2366 
   -2377    -2404    -2439    -2473    -2498    -2524    -2554    -2582 
   -2601    -2600    -2575    -2536    -2498    -2473    -2465    -2473 
   -2485    -2494    -2498    -2496    -2493    -2498    -2517    -2550 
   -2578    -2589    -2586    -2569    -2546    -2540    -2540    -2542 
   -2546    -2546    -2536    -2520    -2506    -2493    -2485    -2486 
   -2493    -2498    -2506    -2511    -2511    -2515    -2521    -2524 
   -2516    -2489    -2447    -2400    -2354    -2317    -2295    -2284 
   -2289    -2315    -2361    -2411    -2465    -2525    -2590    -2659 
   -2737    -2820    -2899    -2961    -3002    -3022    -3022    -3007 
   -2984    -2948    -2898    -2840    -2774    -2698    -2621    -2550 
   -2494    -2461    -2458    -2485    -2525    -2565    -2598    -2625 
   -2650    -2673    -2700    -2731    -2758    -2785    -2805    -2818 
   -2825    -2830    -2836    -2835    -2818    -2781    -2717    -2639 
   -2560    -2492    -2436    -2394    -2370    -2359    -2354    -2357 
   -2366    -2381    -2400    -2417    -2428    -2434    -2431    -2424 
   -2419    -2416    -2420    -2427    -2431    -2448    -2489    -2546 
   -2620    -2701    -2778    -2843    -2893    -2925    -2944    -2951 
   -2947    -2932    -2907    -2868    -2817    -2759    -2702    -2647 
   -2590    -2528    -2463    -2400    -2343    -2299    -2276    -2281 
   -2312    -2355    -2398    -2432    -2455    -2473    -2488    -2498 
   -2509    -2515    -2509    -2486    -2452    -2412    -2374    -2343 
   -2316    -2301    -2296    -2290    -2290    -2290    -2289    -2296 
   -2312    -2332    -2358    -2396    -2440    -2490    -2546    -2604 
   -2658    -2700    -2725    -2732    -2728    -2725    -2725    -2721 
   -2706    -2679    -2644    -2601    -2555    -2508    -2465    -2432 
   -2420    -2425    -2427    -2420    -2408    -2382    -2346    -2309 
   -2273    -2241    -2215    -2201    -2205    -2230    -2277    -2349 
   -2431    -2519    -2606    -2688    -2762    -2821    -2863    -2882 
   -2875    -2848    -2811    -2768    -2725    -2691    -2671    -2660 
   -2660    -2674    -2697    -2732    -2781    -2832    -2875    -2902 
   -2907    -2890    -2855    -2813    -2774    -2733    -2690    -2643 
   -2593    -2543    -2501    -2469    -2447    -2428    -2411    -2398 
   -2393    -2394    -2412    -2436    -2469    -2512    -2565    -2623 
   -2673    -2718    -2766    -2817    -2872    -2922    -2970    -3015 
   -3055    -3083    -3105    -3113    -3109    -3100    -3086    -3069 
   -3061    -3059    -3065    -3080    -3090    -3100    -3107    -3106 
   -3095    -3073    -3044    -3011    -2982    -2956    -2941    -2933 
   -2924    -2901    -2859    -2802    -2737    -2666    -2600    -2542 
   -2490    -2448    -2416    -2386    -2362    -2350    -2354    -2380 
   -2424    -2471    -2515    -2550    -2578    -2608    -2639    -2667 
   -2687    -2698    -2700    -2694    -2681    -2664    -2650    -2641 
   -2633    -2616    -2596    -2575    -2558    -2548    -2554    -2569 
   -2590    -2613    -2635    -2658    -2679    -2698    -2705    -2698 
   -2679    -2647    -2609    -2582    -2574    -2579    -2593    -2606 
   -2623    -2646    -2671    -2688    -2693    -2685    -2668    -2650 
   -2629    -2614    -2602    -2589    -2575    -2565    -2555    -2554 
   -2565    -2584    -2613    -2647    -2678    -2698    -2705    -2686 
   -2644    -2589    -2531    -2485    -2452    -2428    -2409    -2396 
   -2390    -2400    -2425    -2463    -2505    -2546    -2581    -2612 
   -2643    -2674    -2701    -2728    -2752    -2766    -2771    -2759 
   -2731    -2694    -2655    -2617    -2596    -2589    -2590    -2600 
   -2619    -2640    -2663    -2686    -2709    -2729    -2751    -2768 
   -2776    -2775    -2763    -2743    -2713    -2675    -2632    -2597 
   -2571    -2556    -2556    -2567    -2586    -2610    -2633    -2658 
   -2671    -2666    -2651    -2627    -2602    -2587    -2578    -2569 
   -2555    -2529    -2489    -2446    -2404    -2374    -2366    -2378 
   -2413    -2465    -2515    -2559    -2601    -2643    -2682    -2714 
   -2735    -2740    -2736    -2724    -2713    -2695    -2669    -2646 
   -2623    -2601    -2582    -2563    -2538    -2504    -2467    -2432 
   -2401    -2373    -2349    -2330    -2316    -2300    -2278    -2258 
   -2249    -2247    -2255    -2272    -2285    -2296    -2307    -2316 
   -2327    -2338    -2350    -2354    -2344    -2335    -2336    -2351 
   -2377    -2416    -2465    -2506    -2536    -2546    -2533    -2505 
   -2470    -2432    -2390    -2353    -2326    -2311    -2315    -2334 
   -2362    -2397    -2430    -2458    -2484    -2508    -2527    -2539 
   -2544    -2542    -2532    -2517    -2498    -2479    -2465    -2459 
   -2470    -2492    -2511    -2525    -2536    -2536    -2529    -2533 
   -2551    -2579    -2614    -2654    -2698    -2747    -2795    -2830 
   -2848    -2841    -2814    -2785    -2762    -2740    -2718    -2683 
   -2628    -2558    -2492    -2442    -2412    -2392    -2370    -2347 
   -2326    -2309    -2309    -2327    -2355    -2386    -2419    -2455 
   -2504    -2565    -2629    -2697    -2763    -2813    -2843    -2856 
   -2859    -2860    -2868    -2884    -2899    -2898    -2878    -2847 
   -2806    -2759    -2709    -2650    -2583    -2521    -2469    -2438 
   -2430    -2435    -2448    -2469    -2488    -2506    -2535    -2578 
   -2632    -2686    -2736    -2776    -2794    -2783    -2745    -2685 
   -2616    -2550    -2488    -2431    -2390    -2361    -2338    -2332 
   -2336    -2355    -2388    -2430    -2475    -2513    -2535    -2535 
   -2520    -2494    -2461    -2430    -2403    -2371    -2335    -2296 
   -2254    -2224    -2212    -2214    -2227    -2255    -2290    -2326 
   -2371    -2425    -2479    -2536    -2592    -2635    -2671    -2697 
   -2708    -2698    -2658    -2587    -2498    -2401    -2313    -2251 
   -2215    -2205    -2211    -2222    -2235    -2246    -2245    -2232 
   -2215    -2199    -2189    -2192    -2201    -2224    -2261    -2309 
   -2365    -2417    -2455    -2479    -2492    -2488    -2475    -2461 
   -2440    -2415    -2384    -2350    -2316    -2290    -2269    -2247 
   -2232    -2224    -2236    -2274    -2336    -2420    -2506    -2581 
   -2639    -2677    -2691    -2690    -2682    -2663    -2631    -2581 
   -2513    -2435    -2351    -2267    -2196    -2154    -2135    -2128 
   -2124    -2116    -2097    -2072    -2056    -2052    -2058    -2072 
   -2089    -2102    -2121    -2154    -2201    -2257    -2319    -2385 
   -2448    -2504    -2551    -2594    -2640    -2688    -2740    -2789 
   -2825    -2852    -2872    -2880    -2880    -2875    -2868    -2851 
   -2818    -2779    -2737    -2686    -2635    -2592    -2556    -2532 
   -2524    -2525    -2538    -2558    -2574    -2584    -2586    -2575 
   -2560    -2550    -2539    -2533    -2533    -2533    -2535    -2538 
   -2538    -2531    -2523    -2515    -2500    -2477    -2448    -2413 
   -2377    -2347    -2328    -2328    -2344    -2371    -2407    -2444 
   -2486    -2529    -2567    -2600    -2628    -2654    -2677    -2697 
   -2721    -2754    -2797    -2844    -2896    -2959    -3029    -3100 
   -3167    -3222    -3257    -3273    -3277    -3264    -3242    -3226 
   -3215    -3207    -3207    -3211    -3221    -3238    -3265    -3306 
   -3357    -3412    -3458    -3488    -3499    -3491    -3462    -3422 
   -3379    -3334    -3289    -3244    -3203    -3176    -3164    -3165 
   -3180    -3194    -3199    -3194    -3175    -3138    -3100    -3067 
   -3032    -2998    -2963    -2915    -2862    -2809    -2754    -2704 
   -2667    -2644    -2635    -2636    -2640    -2636    -2636    -2639 
   -2636    -2636    -2647    -2660    -2675    -2687    -2697    -2702 
   -2700    -2693    -2690    -2694    -2708    -2729    -2751    -2783 
   -2829    -2884    -2951    -3021    -3088    -3144    -3186    -3215 
   -3246    -3283    -3327    -3381    -3440    -3504    -3574    -3645 
   -3717    -3792    -3867    -3940    -3998    -4033    -4045    -4040 
   -4021    -4000    -3984    -3986    -4000    -4017    -4040    -4063 
   -4079    -4098    -4129    -4168    -4205    -4233    -4251    -4255 
   -4248    -4243    -4251    -4271    -4289    -4301    -4299    -4293 
   -4279    -4255    -4232    -4220    -4209    -4186    -4158    -4122 
   -4074    -4017    -3964    -3919    -3877    -3831    -3790    -3755 
   -3721    -3686    -3653    -3623    -3596    -3573    -3547    -3520 
   -3478    -3420    -3346    -3267    -3194    -3142    -3114    -3105 
   -3109    -3114    -3109    -3088    -3053    -3002    -2934    -2852 
   -2758    -2654    -2546    -2447    -2363    -2297    -2238    -2174 
   -2104    -2026    -1946    -1868    -1796    -1734    -1671    -1606 
   -1544    -1490    -1440    -1405    -1386    -1375    -1368    -1368 
   -1367    -1364    -1368    -1377    -1378    -1370    -1347    -1316 
   -1273    -1221    -1178    -1139    -1096    -1057    -1026    -1000 
    -986     -980     -978     -974     -967     -958     -949     -935 
    -922     -911     -901     -893     -889     -890     -903     -924 
    -954     -984    -1016    -1058    -1100    -1144    -1205    -1279 
   -1351    -1426    -1505    -1578    -1645    -1707    -1759    -1796 
   -1823    -1841    -1848    -1852    -1852    -1844    -1823    -1792 
   -1744    -1680    -1620    -1560    -1502    -1456    -1425    -1404 
   -1398    -1410    -1433    -1456    -1483    -1512    -1548    -1601 
   -1665    -1742    -1826    -1906    -1977    -2039    -2089    -2128 
   -2176    -2231    -2290    -2353    -2415    -2473    -2531    -2589 
   -2646    -2697    -2740    -2778    -2802    -2821    -2844    -2874 
   -2893    -2903    -2917    -2932    -2951    -2984    -3026    -3071 
   -3118    -3154    -3180    -3202    -3226    -3257    -3295    -3338 
   -3387    -3427    -3454    -3470    -3473    -3468    -3457    -3439 
   -3420    -3400    -3369    -3329    -3279    -3223    -3165    -3109 
   -3046    -2972    -2891    -2808    -2729    -2656    -2582    -2508 
   -2439    -2373    -2308    -2253    -2200    -2144    -2092    -2045 
   -2001    -1962    -1930    -1908    -1873    -1825    -1768    -1698 
   -1618    -1544    -1472    -1405    -1356    -1318    -1296    -1282 
   -1278    -1287    -1314    -1363    -1440    -1545    -1672    -1814 
   -1962    -2100    -2219    -2322    -2401    -2454    -2477    -2475 
   -2463    -2444    -2430    -2431    -2451    -2481    -2519    -2558 
   -2592    -2624    -2655    -2694    -2752    -2817    -2878    -2933 
   -2982    -3013    -3036    -3061    -3079    -3088    -3099    -3109 
   -3111    -3107    -3092    -3073    -3060    -3048    -3033    -3021 
   -3003    -2979    -2952    -2922    -2890    -2853    -2817    -2787 
   -2770    -2763    -2774    -2802    -2835    -2862    -2886    -2906 
   -2932    -2975    -3045    -3133    -3225    -3303    -3354    -3366 
   -3336    -3275    -3191    -3096    -3010    -2941    -2882    -2844 
   -2829    -2825    -2830    -2857    -2890    -2924    -2960    -2997 
   -3029    -3064    -3100    -3125    -3137    -3154    -3176    -3198 
   -3223    -3245    -3258    -3262    -3258    -3254    -3250    -3249 
   -3252    -3250    -3248    -3253    -3256    -3258    -3271    -3280 
   -3279    -3276    -3267    -3248    -3223    -3192    -3150    -3107 
   -3069    -3033    -3001    -2983    -2975    -2971    -2974    -2974 
   -2957    -2922    -2868    -2797    -2727    -2664    -2606    -2559 
   -2529    -2508    -2506    -2528    -2565    -2614    -2677    -2739 
   -2805    -2876    -2952    -3029    -3113    -3204    -3295    -3379 
   -3462    -3539    -3596    -3636    -3661    -3667    -3661    -3653 
   -3650    -3650    -3653    -3661    -3662    -3655    -3639    -3609 
   -3577    -3537    -3491    -3440    -3388    -3338    -3294    -3258 
   -3237    -3231    -3241    -3273    -3336    -3434    -3558    -3704 
   -3856    -4003    -4131    -4238    -4330    -4407    -4475    -4540 
   -4588    -4622    -4648    -4666    -4683    -4704    -4735    -4769 
   -4801    -4838    -4874    -4908    -4939    -4966    -4984    -4989 
   -4993    -4999    -5004    -5011    -5020    -5034    -5039    -5031 
   -5016    -4996    -4973    -4950    -4932    -4911    -4873    -4812 
   -4727    -4622    -4506    -4388    -4283    -4197    -4136    -4098 
   -4074    -4059    -4039    -4005    -3965    -3913    -3834    -3738 
   -3642    -3538    -3442    -3366    -3296    -3227    -3163    -3095 
   -3045    -3024    -3021    -3037    -3075    -3119    -3164    -3217 
   -3271    -3327    -3383    -3430    -3465    -3483    -3480    -3468 
   -3446    -3411    -3365    -3312    -3256    -3200    -3146    -3096 
   -3042    -2986    -2926    -2852    -2771    -2685    -2590    -2486 
   -2370    -2251    -2139    -2046    -1979    -1941    -1927    -1926 
   -1925    -1919    -1907    -1895    -1888    -1878    -1869    -1864 
   -1858    -1858    -1868    -1888    -1914    -1945    -1975    -2003 
   -2019    -2019    -2007    -1987    -1956    -1911    -1858    -1800 
   -1734    -1664    -1591    -1509    -1429    -1348    -1256    -1154 
   -1046     -929     -811     -699     -599     -519     -467     -432 
    -418     -433     -477     -544     -621     -689     -741     -772 
    -781     -769     -756     -749     -749     -756     -770     -795 
    -830     -877     -929     -974    -1015    -1050    -1071    -1078 
   -1078    -1063    -1039    -1031    -1046    -1085    -1140    -1198 
   -1252    -1301    -1343    -1382    -1426    -1487    -1567    -1658 
   -1750    -1836    -1904    -1965    -2025    -2079    -2133    -2180 
   -2214    -2230    -2224    -2204    -2180    -2153    -2137    -2135 
   -2139    -2149    -2155    -2155    -2163    -2187    -2209    -2228 
   -2253    -2282    -2313    -2338    -2363    -2381    -2392    -2405 
   -2419    -2434    -2444    -2450    -2447    -2435    -2419    -2398 
   -2373    -2346    -2315    -2280    -2241    -2195    -2135    -2062 
   -1982    -1903    -1823    -1737    -1651    -1561    -1470    -1381 
   -1296    -1224    -1162    -1111    -1080    -1077    -1098    -1142 
   -1209    -1287    -1371    -1457    -1544    -1629    -1707    -1768 
   -1810    -1837    -1850    -1857    -1863    -1868    -1869    -1868 
   -1865    -1852    -1831    -1809    -1786    -1764    -1760    -1779 
   -1815    -1863    -1917    -1975    -2038    -2096    -2149    -2191 
   -2222    -2241    -2249    -2250    -2246    -2231    -2203    -2172 
   -2137    -2093    -2049    -2008    -1961    -1910    -1863    -1817 
   -1765    -1718    -1682    -1652    -1632    -1624    -1621    -1625 
   -1632    -1644    -1653    -1652    -1629    -1572    -1480    -1360 
   -1220    -1078     -947     -824     -718     -623     -537     -460 
    -396     -346     -318     -313     -324     -355     -396     -450 
    -506     -564     -629     -696     -751     -785     -807     -812 
    -799     -781     -762     -739     -719     -702     -695     -700 
    -714     -737     -778     -838     -905     -973    -1038    -1090 
   -1133    -1167    -1198    -1237    -1285    -1329    -1370    -1409 
   -1452    -1495    -1539    -1591    -1660    -1740    -1831    -1937 
   -2050    -2165    -2269    -2354    -2405    -2413    -2385    -2319 
   -2230    -2126    -2016    -1906    -1799    -1698    -1611    -1535 
   -1471    -1426    -1397    -1378    -1364    -1354    -1340    -1321 
   -1301    -1286    -1278    -1282    -1301    -1329    -1367    -1421 
   -1486    -1547    -1598    -1634    -1653    -1657    -1649    -1638 
   -1614    -1575    -1530    -1479    -1422    -1372    -1334    -1316 
   -1320    -1344    -1390    -1457    -1545    -1648    -1761    -1875 
   -1988    -2107    -2228    -2349    -2461    -2551    -2612    -2648 
   -2652    -2635    -2605    -2569    -2531    -2494    -2457    -2415 
   -2365    -2309    -2246    -2170    -2092    -2026    -1964    -1915 
   -1877    -1849    -1840    -1848    -1863    -1890    -1923    -1946 
   -1956    -1961    -1956    -1941    -1915    -1887    -1863    -1837 
   -1818    -1814    -1813    -1811    -1811    -1800    -1772    -1740 
   -1702    -1647    -1574    -1498    -1416    -1327    -1243    -1165 
   -1092    -1035    -1003     -990     -994    -1016    -1047    -1075 
   -1092    -1102    -1105    -1102    -1084    -1047    -1000     -945 
    -889     -851     -828     -820     -830     -859     -903     -957 
   -1020    -1093    -1175    -1259    -1333    -1398    -1453    -1495 
   -1528    -1548    -1547    -1526    -1486    -1431    -1377    -1328 
   -1287    -1263    -1254    -1250    -1256    -1273    -1290    -1310 
   -1344    -1390    -1445    -1507    -1574    -1637    -1690    -1728 
   -1753    -1776    -1799    -1823    -1846    -1873    -1902    -1926 
   -1948    -1965    -1984    -2000    -2010    -2016    -2027    -2031 
   -2026    -2010    -1980    -1939    -1900    -1867    -1852    -1864 
   -1896    -1945    -2004    -2069    -2149    -2236    -2323    -2408 
   -2489    -2559    -2613    -2662    -2713    -2763    -2806    -2830 
   -2829    -2809    -2766    -2706    -2648    -2605    -2577    -2577 
   -2612    -2669    -2740    -2828    -2911    -2986    -3064    -3136 
   -3203    -3269    -3330    -3377    -3406    -3420    -3422    -3411 
   -3406    -3415    -3434    -3465    -3514    -3577    -3647    -3712 
   -3759    -3782    -3775    -3744    -3707    -3673    -3646    -3631 
   -3638    -3661    -3700    -3761    -3842    -3932    -4027    -4114 
   -4180    -4222    -4243    -4243    -4225    -4195    -4158    -4105 
   -4036    -3965    -3893    -3825    -3766    -3716    -3673    -3627 
   -3578    -3539    -3511    -3489    -3476    -3468    -3459    -3450 
   -3434    -3407    -3369    -3317    -3244    -3150    -3046    -2944 
   -2847    -2763    -2697    -2648    -2623    -2632    -2669    -2740 
   -2844    -2972    -3111    -3250    -3383    -3504    -3611    -3696 
