Origin Time       2016/04/16 01:25:00
Lat.              32.753
Long.             130.762
Depth. (km)       12
Mag.              7.3
Station Code      OKY013
Station Lat.      34.5095
Station Long.     133.5099
Station Height(m) 6
Record Time       2016/04/16 01:26:35
Sampling Freq(Hz) 100Hz
Duration Time(s)  77
Dir.              N-S
Scale Factor      7845(gal)/8223790
Max. Acc. (gal)   4.461
Last Correction   2016/04/16 01:26:37
Memo.             
[...]
   -2555    -2542    -2552    -2574    -2592    -2608    -2616    -2594 
   -2563    -2550    -2560    -2606    -2686    -2771    -2843    -2898 
   -2947    -2998    -3051    -3094    -3122    -3145    -3179    -3213 
   -3235    -3244    -3219    -3161    -3103    -3053    -2991    -2911 
   -2821    -2735    -2659    -2587    -2520    -2461    -2394    -2328 
   -2285    -2277    -2296    -2331    -2374    -2407    -2425    -2435 
   -2438    -2435    -2424    -2404    -2386    -2386    -2423    -2502 
   -2597    -2687    -2764    -2820    -2859    -2893    -2924    -2959 
   -2990    -3001    -2988    -2949    -2889    -2826    -2776    -2717 
   -2644    -2583    -2544    -2516    -2497    -2486    -2481    -2479 
   -2481    -2504    -2562    -2639    -2729    -2828    -2922    -2992 
   -3034    -3063    -3079    -3071    -3064    -3061    -3045    -3019 
   -2984    -2920    -2825    -2731    -2662    -2628    -2614    -2593 
   -2539    -2452    -2365    -2297    -2249    -2220    -2211    -2219 
   -2242    -2281    -2350    -2465    -2609    -2751    -2882    -3014 
   -3137    -3241    -3321    -3353    -3326    -3242    -3109    -2941 
   -2772    -2624    -2501    -2412    -2354    -2323    -2323    -2346 
   -2382    -2434    -2498    -2571    -2643    -2720    -2795    -2851 
   -2879    -2876    -2833    -2756    -2674    -2610    -2575    -2559 
   -2554    -2558    -2558    -2533    -2482    -2411    -2335    -2281 
   -2274    -2308    -2359    -2431    -2505    -2556    -2594    -2629 
   -2651    -2650    -2620    -2565    -2494    -2416    -2349    -2305 
   -2284    -2276    -2278    -2286    -2296    -2315    -2350    -2407 
   -2489    -2589    -2709    -2832    -2924    -2978    -2984    -2928 
   -2826    -2714    -2597    -2471    -2358    -2258    -2163    -2070 
   -1987    -1926    -1898    -1902    -1929    -1975    -2045    -2141 
   -2263    -2394    -2498    -2554    -2565    -2563    -2565    -2590 
   -2628    -2652    -2651    -2632    -2606    -2604    -2623    -2629 
   -2619    -2604    -2598    -2623    -2682    -2749    -2803    -2844 
   -2886    -2922    -2928    -2891    -2824    -2749    -2690    -2650 
   -2625    -2609    -2598    -2605    -2617    -2624    -2632    -2650 
   -2667    -2674    -2663    -2641    -2616    -2608    -2623    -2646 
   -2664    -2686    -2713    -2739    -2774    -2808    -2820    -2814 
   -2809    -2817    -2839    -2853    -2855    -2863    -2886    -2913 
   -2938    -2952    -2945    -2925    -2895    -2886    -2922    -2990 
   -3064    -3137    -3180    -3177    -3133    -3046    -2917    -2767 
   -2632    -2538    -2494    -2501    -2554    -2635    -2732    -2839 
   -2955    -3080    -3211    -3326    -3407    -3438    -3406    -3319 
   -3196    -3056    -2932    -2841    -2774    -2737    -2737    -2748 
   -2748    -2740    -2732    -2720    -2702    -2671    -2636    -2612 
   -2602    -2621    -2668    -2736    -2802    -2844    -2841    -2801 
   -2747    -2702    -2662    -2612    -2569    -2550    -2540    -2527 
   -2506    -2471    -2427    -2400    -2403    -2430    -2473    -2521 
   -2555    -2560    -2544    -2531    -2539    -2559    -2571    -2559 
   -2521    -2486    -2488    -2523    -2582    -2643    -2674    -2675 
   -2648    -2609    -2594    -2609    -2627    -2641    -2663    -2686 
   -2687    -2663    -2635    -2608    -2596    -2614    -2633    -2624 
   -2597    -2574    -2563    -2569    -2589    -2616    -2636    -2641 
   -2633    -2631    -2635    -2647    -2679    -2713    -2731    -2729 
   -2704    -2651    -2593    -2548    -2538    -2565    -2608    -2659 
   -2731    -2821    -2925    -3045    -3168    -3268    -3342    -3403 
   -3450    -3476    -3485    -3492    -3504    -3516    -3538    -3581 
   -3642    -3713    -3796    -3865    -3886    -3851    -3776    -3686 
   -3618    -3584    -3580    -3591    -3580    -3514    -3387    -3202 
   -2994    -2809    -2662    -2550    -2471    -2411    -2350    -2286 
   -2230    -2180    -2130    -2093    -2085    -2111    -2160    -2209 
   -2246    -2278    -2326    -2389    -2455    -2504    -2512    -2484 
   -2447    -2424    -2419    -2419    -2425    -2442    -2459    -2482 
   -2533    -2597    -2644    -2671    -2673    -2650    -2636    -2666 
   -2745    -2859    -2976    -3071    -3126    -3144    -3138    -3121 
   -3079    -3015    -2938    -2855    -2766    -2666    -2556    -2447 
   -2353    -2285    -2263    -2278    -2299    -2308    -2295    -2258 
   -2222    -2204    -2196    -2185    -2157    -2118    -2070    -2029 
   -2010    -2008    -2020    -2045    -2065    -2079    -2096    -2124 
   -2176    -2254    -2344    -2438    -2543    -2651    -2740    -2797 
   -2821    -2809    -2758    -2698    -2650    -2609    -2587    -2587 
   -2606    -2643    -2704    -2783    -2863    -2936    -3002    -3075 
   -3156    -3232    -3298    -3357    -3403    -3445    -3503    -3570 
   -3608    -3597    -3546    -3454    -3331    -3199    -3069    -2943 
   -2820    -2714    -2624    -2538    -2450    -2377    -2344    -2377 
   -2486    -2650    -2822    -2979    -3107    -3211    -3300    -3361 
   -3385    -3369    -3307    -3207    -3102    -3009    -2941    -2915 
   -2932    -2972    -3022    -3071    -3122    -3165    -3199    -3234 
   -3287    -3341    -3373    -3387    -3388    -3375    -3350    -3330 
   -3307    -3269    -3213    -3133    -3036    -2947    -2879    -2830 
   -2774    -2690    -2586    -2477    -2380    -2322    -2315    -2344 
   -2397    -2475    -2567    -2666    -2770    -2860    -2915    -2913 
   -2851    -2755    -2658    -2574    -2517    -2504    -2523    -2552 
   -2571    -2577    -2569    -2539    -2500    -2471    -2444    -2413 
   -2374    -2316    -2226    -2092    -1948    -1818    -1706    -1634 
   -1610    -1603    -1624    -1687    -1787    -1926    -2101    -2290 
   -2478    -2646    -2785    -2882    -2924    -2920    -2895    -2870 
   -2855    -2857    -2859    -2841    -2795    -2725    -2644    -2562 
   -2478    -2407    -2373    -2384    -2428    -2505    -2594    -2658 
   -2687    -2694    -2686    -2677    -2679    -2686    -2687    -2683 
   -2671    -2655    -2644    -2625    -2600    -2590    -2598    -2612 
   -2636    -2663    -2668    -2641    -2581    -2496    -2404    -2316 
   -2243    -2195    -2176    -2195    -2253    -2331    -2423    -2535 
   -2663    -2790    -2920    -3049    -3152    -3210    -3227    -3202 
   -3145    -3076    -3015    -2976    -2960    -2959    -2961    -2960 
   -2952    -2940    -2936    -2941    -2944    -2940    -2937    -2937 
   -2932    -2922    -2929    -2949    -2975    -3014    -3049    -3064 
   -3084    -3114    -3134    -3146    -3144    -3129    -3107    -3076 
   -3044    -3025    -3022    -3033    -3067    -3121    -3167    -3190 
   -3188    -3179    -3172    -3171    -3180    -3202    -3221    -3230 
   -3215    -3165    -3100    -3036    -2990    -2982    -3011    -3052 
   -3087    -3109    -3100    -3059    -3010    -2967    -2914    -2849 
   -2775    -2678    -2563    -2442    -2312    -2178    -2056    -1948 
   -1850    -1750    -1658    -1591    -1561    -1584    -1668    -1795 
   -1964    -2174    -2415    -2667    -2910    -3122    -3287    -3385 
   -3418    -3411    -3381    -3346    -3334    -3348    -3368    -3381 
   -3383    -3368    -3339    -3300    -3260    -3222    -3180    -3137 
   -3105    -3088    -3065    -3028    -2963    -2867    -2768    -2683 
   -2619    -2592    -2601    -2646    -2720    -2798    -2855    -2887 
   -2903    -2909    -2917    -2945    -2967    -2963    -2933    -2870 
   -2787    -2712    -2652    -2609    -2569    -2528    -2501    -2502 
   -2527    -2574    -2636    -2695    -2735    -2764    -2782    -2764 
   -2720    -2671    -2621    -2577    -2546    -2528    -2504    -2457 
   -2389    -2319    -2270    -2263    -2323    -2424    -2538    -2648 
   -2737    -2797    -2835    -2853    -2860    -2871    -2893    -2907 
   -2899    -2872    -2818    -2740    -2654    -2555    -2451    -2354 
   -2280    -2247    -2267    -2347    -2470    -2590    -2685    -2749 
   -2778    -2786    -2802    -2825    -2843    -2871    -2917    -2963 
   -3001    -3028    -3038    -3045    -3048    -3032    -3011    -3001 
   -2999    -3003    -3010    -3014    -3019    -3030    -3051    -3073 
   -3100    -3126    -3134    -3136    -3146    -3154    -3149    -3119 
   -3063    -2986    -2886    -2772    -2654    -2512    -2362    -2245 
   -2174    -2144    -2142    -2155    -2195    -2274    -2393    -2539 
   -2708    -2889    -3073    -3258    -3434    -3577    -3670    -3709 
   -3692    -3631    -3544    -3450    -3368    -3306    -3250    -3196 
   -3138    -3083    -3049    -3049    -3073    -3118    -3190    -3272 
   -3357    -3449    -3551    -3661    -3769    -3858    -3910    -3908 
   -3847    -3747    -3630    -3503    -3375    -3260    -3154    -3044 
   -2937    -2855    -2794    -2754    -2729    -2704    -2675    -2646 
   -2605    -2567    -2544    -2540    -2573    -2621    -2639    -2608 
   -2539    -2439    -2330    -2245    -2196    -2199    -2258    -2358 
   -2494    -2669    -2867    -3063    -3221    -3330    -3414    -3469 
   -3478    -3457    -3418    -3354    -3281    -3223    -3194    -3190 
   -3208    -3260    -3338    -3439    -3549    -3653    -3754    -3836 
   -3883    -3893    -3858    -3776    -3659    -3522    -3381    -3242 
   -3109    -2997    -2907    -2848    -2806    -2763    -2706    -2640 
   -2570    -2515    -2482    -2478    -2506    -2565    -2650    -2744 
   -2826    -2874    -2867    -2806    -2706    -2592    -2470    -2358 
   -2269    -2185    -2100    -2010    -1898    -1768    -1641    -1522 
   -1414    -1337    -1316    -1375    -1516    -1699    -1895    -2092 
   -2277    -2461    -2655    -2841    -2990    -3090    -3154    -3202 
   -3235    -3268    -3303    -3322    -3315    -3283    -3221    -3132 
   -3036    -2945    -2855    -2763    -2686    -2627    -2567    -2505 
   -2448    -2404    -2370    -2335    -2303    -2277    -2263    -2288 
   -2355    -2428    -2477    -2485    -2447    -2373    -2263    -2137 
   -2010    -1900    -1822    -1781    -1776    -1783    -1788    -1794 
   -1796    -1799    -1811    -1836    -1869    -1906    -1933    -1949 
   -1958    -1966    -1991    -2034    -2096    -2165    -2224    -2259 
   -2263    -2228    -2162    -2070    -1948    -1799    -1641    -1498 
   -1399    -1355    -1359    -1408    -1486    -1599    -1755    -1925 
   -2107    -2315    -2536    -2762    -2988    -3180    -3307    -3364 
   -3360    -3304    -3206    -3060    -2863    -2633    -2390    -2157 
   -1971    -1871    -1865    -1949    -2095    -2263    -2427    -2574 
   -2702    -2803    -2875    -2929    -2986    -3063    -3156    -3242 
   -3292    -3298    -3258    -3172    -3052    -2911    -2759    -2614 
   -2489    -2392    -2316    -2266    -2231    -2184    -2124    -2058 
   -1984    -1911    -1868    -1864    -1895    -1956    -2052    -2172 
   -2301    -2425    -2527    -2592    -2624    -2633    -2614    -2573 
   -2520    -2465    -2424    -2415    -2444    -2511    -2584    -2647 
   -2691    -2714    -2724    -2744    -2787    -2862    -2959    -3061 
   -3157    -3229    -3257    -3254    -3234    -3188    -3114    -3024 
   -2924    -2811    -2694    -2582    -2469    -2354    -2262    -2214 
   -2196    -2205    -2247    -2340    -2489    -2682    -2889    -3069 
   -3203    -3289    -3355    -3416    -3474    -3543    -3634    -3719 
   -3793    -3863    -3936    -4017    -4125    -4253    -4384    -4502 
   -4584    -4611    -4585    -4509    -4388    -4233    -4041    -3821 
   -3593    -3375    -3160    -2951    -2770    -2636    -2543    -2497 
   -2513    -2565    -2629    -2713    -2811    -2902    -2984    -3073 
   -3175    -3275    -3355    -3419    -3469    -3497    -3516    -3553 
   -3615    -3699    -3801    -3921    -4036    -4137    -4223    -4303 
   -4368    -4417    -4452    -4464    -4457    -4450    -4446    -4442 
   -4440    -4438    -4433    -4434    -4457    -4498    -4538    -4568 
   -4573    -4546    -4483    -4378    -4248    -4143    -4090    -4090 
   -4139    -4225    -4341    -4475    -4619    -4764    -4882    -4959 
   -5001    -5012    -4986    -4927    -4842    -4741    -4645    -4583 
   -4556    -4537    -4513    -4490    -4469    -4442    -4414    -4384 
   -4338    -4274    -4191    -4087    -3944    -3757    -3547    -3346 
   -3169    -3029    -2925    -2833    -2725    -2583    -2423    -2253 
   -2070    -1894    -1726    -1553    -1370    -1188    -1032     -905 
    -805     -735     -696     -695     -764     -907    -1101    -1318 
   -1517    -1660    -1726    -1717    -1641    -1516    -1345    -1124 
    -861     -581     -302      -39      180      346      451      504 
     513      475      388      253       72     -129     -338     -531 
    -702     -851     -990    -1133    -1293    -1476    -1675    -1875 
   -2047    -2178    -2278    -2359    -2442    -2558    -2716    -2902 
   -3107    -3310    -3491    -3639    -3754    -3825    -3844    -3786 
   -3646    -3454    -3246    -3029    -2817    -2631    -2494    -2423 
   -2409    -2428    -2448    -2442    -2403    -2358    -2338    -2351 
   -2390    -2461    -2556    -2673    -2808    -2965    -3157    -3388 
   -3655    -3937    -4237    -4544    -4851    -5167    -5483    -5780 
   -6050    -6282    -6478    -6656    -6821    -6978    -7114    -7233 
   -7350    -7433    -7434    -7349    -7165    -6883    -6544    -6201 
   -5876    -5585    -5348    -5154    -4984    -4851    -4766    -4720 
   -4720    -4777    -4876    -4974    -5039    -5071    -5089    -5103 
   -5142    -5231    -5363    -5509    -5634    -5705    -5699    -5617 
   -5471    -5273    -5039    -4783    -4510    -4230    -3940    -3653 
   -3412    -3234    -3113    -3038    -2994    -2978    -2988    -3026 
   -3096    -3200    -3321    -3449    -3581    -3677    -3713    -3704 
   -3662    -3604    -3557    -3520    -3492    -3454    -3385    -3284 
   -3157    -3002    -2839    -2688    -2559    -2451    -2374    -2319 
   -2277    -2242    -2207    -2154    -2079    -1989    -1900    -1811 
   -1705    -1588    -1462    -1313    -1151     -969     -739     -468 
    -162      163      476      754      966     1090     1124     1071 
     931      712      423       76     -311     -706    -1065    -1375 
   -1642    -1887    -2126    -2373    -2619    -2862    -3082    -3249 
   -3335    -3317    -3202    -3017    -2795    -2577    -2378    -2211 
   -2088    -2011    -1972    -1964    -1988    -2037    -2116    -2228 
   -2357    -2498    -2656    -2829    -3024    -3232    -3434    -3608 
   -3742    -3828    -3878    -3908    -3898    -3825    -3707    -3553 
   -3368    -3196    -3049    -2882    -2700    -2505    -2288    -2079 
   -1919    -1822    -1819    -1894    -2008    -2151    -2289    -2397 
   -2486    -2565    -2650    -2756    -2890    -3030    -3141    -3190 
   -3167    -3090    -2997    -2921    -2894    -2930    -3029    -3169 
   -3306    -3395    -3426    -3407    -3360    -3299    -3237    -3180 
   -3130    -3080    -3026    -2972    -2924    -2895    -2896    -2933 
   -3003    -3090    -3177    -3254    -3306    -3336    -3372    -3411 
   -3447    -3491    -3537    -3580    -3618    -3632    -3601    -3526 
   -3414    -3289    -3165    -3042    -2936    -2870    -2849    -2863 
   -2907    -2979    -3067    -3161    -3248    -3330    -3410    -3492 
   -3565    -3593    -3561    -3477    -3364    -3246    -3132    -3037 
   -2979    -2956    -2972    -3038    -3133    -3232    -3334    -3437 
   -3559    -3726    -3929    -4168    -4407    -4592    -4706    -4760 
   -4758    -4726    -4692    -4676    -4685    -4729    -4803    -4896 
   -4988    -5069    -5140    -5197    -5228    -5242    -5235    -5202 
   -5138    -5049    -4927    -4772    -4606    -4461    -4337    -4233 
   -4152    -4086    -4036    -3994    -3958    -3929    -3898    -3861 
   -3832    -3812    -3796    -3780    -3754    -3711    -3662    -3636 
   -3658    -3728    -3842    -3984    -4137    -4274    -4371    -4430 
   -4461    -4449    -4393    -4306    -4170    -3977    -3742    -3491 
   -3235    -2986    -2749    -2525    -2319    -2151    -2025    -1935 
   -1900    -1906    -1927    -1964    -2010    -2041    -2041    -1998 
   -1915    -1811    -1695    -1564    -1426    -1296    -1185    -1112 
   -1089    -1111    -1148    -1183    -1204    -1213    -1229    -1255 
   -1294    -1334    -1374    -1431    -1509    -1593    -1692    -1788 
   -1848    -1869    -1858    -1831    -1817    -1811    -1798    -1765 
   -1705    -1606    -1479    -1348    -1255    -1224    -1258    -1343 
   -1462    -1603    -1746    -1861    -1938    -1982    -2004    -2020 
   -2049    -2091    -2138    -2192    -2246    -2280    -2307    -2335 
   -2350    -2350    -2327    -2265    -2161    -2012    -1814    -1583 
   -1341    -1107     -893     -704     -540     -402     -295     -234 
    -225     -272     -360     -453     -514     -531     -510     -457 
    -396     -352     -326     -329     -368     -445     -569     -734 
    -926    -1133    -1363    -1606    -1857    -2102    -2331    -2540 
   -2739    -2929    -3107    -3272    -3397    -3450    -3418    -3316 
   -3167    -2995    -2840    -2717    -2640    -2632    -2701    -2824 
   -2961    -3083    -3154    -3142    -3038    -2862    -2632    -2377 
   -2133    -1927    -1790    -1736    -1755    -1831    -1960    -2147 
   -2400    -2713    -3078    -3470    -3855    -4205    -4495    -4712 
   -4880    -5020    -5142    -5258    -5370    -5462    -5528    -5564 
   -5575    -5545    -5459    -5316    -5113    -4846    -4530    -4190 
   -3842    -3504    -3192    -2926    -2729    -2613    -2563    -2565 
   -2600    -2650    -2713    -2801    -2903    -3002    -3092    -3176 
   -3261    -3349    -3433    -3483    -3470    -3377    -3218    -3025 
   -2818    -2628    -2485    -2398    -2376    -2413    -2478    -2538 
   -2565    -2559    -2527    -2475    -2407    -2326    -2245    -2182 
   -2142    -2126    -2133    -2147    -2160    -2158    -2138    -2118 
   -2104    -2096    -2107    -2153    -2230    -2323    -2397    -2431 
   -2420    -2374    -2326    -2308    -2324    -2358    -2415    -2497 
   -2570    -2596    -2558    -2448    -2277    -2070    -1856    -1647 
   -1456    -1298    -1177    -1090    -1030     -992     -967     -936 
    -888     -812     -722     -641     -588     -573     -599     -646 
    -702     -757     -793     -831     -882     -945    -1004    -1038 
   -1039    -1024     -985     -916     -826     -738     -675     -662 
    -724     -864    -1055    -1260    -1445    -1599    -1714    -1780 
   -1791    -1741    -1634    -1497    -1345    -1181     -997     -796 
    -591     -392     -218      -79       20       74       62      -29 
    -190     -382     -595     -827    -1051    -1259    -1441    -1576 
   -1663    -1692    -1660    -1566    -1409    -1205     -977     -734 
    -483     -240       -8      209      405      571      706      807 
     849      822      745      645      526      402      302      259 
     274      330      414      506      596      691      776      819 
     803      733      622      480      322      172       47      -60 
