Origin Time       2016/04/16 01:25:00
Lat.              32.753
Long.             130.762
Depth. (km)       12
Mag.              7.3
Station Code      OKY012
Station Lat.      34.5893
Station Long.     133.7545
Station Height(m) 3
Record Time       2016/04/16 01:26:09
Sampling Freq(Hz) 100Hz
Duration Time(s)  116
Dir.              E-W
Scale Factor      7845(gal)/8223790
Max. Acc. (gal)   5.534
Last Correction   2016/04/16 01:26:09
Memo.             
[...]
   -2327    -2224    -2166    -2142    -2157    -2226    -2351    -2536 
   -2763    -3002    -3225    -3420    -3599    -3762    -3894    -3994 
   -4074    -4126    -4120    -4052    -3936    -3798    -3665    -3514 
   -3330    -3136    -2928    -2705    -2502    -2338    -2230    -2185 
   -2174    -2181    -2189    -2174    -2133    -2097    -2106    -2155 
   -2242    -2361    -2477    -2570    -2648    -2720    -2811    -2943 
   -3106    -3283    -3429    -3523    -3577    -3603    -3608    -3615 
   -3651    -3705    -3746    -3757    -3746    -3707    -3659    -3634 
   -3623    -3605    -3563    -3505    -3438    -3329    -3194    -3087 
   -3007    -2932    -2874    -2829    -2795    -2783    -2798    -2857 
   -2970    -3115    -3284    -3469    -3647    -3808    -3971    -4144 
   -4294    -4413    -4527    -4623    -4665    -4675    -4672    -4660 
   -4654    -4638    -4598    -4567    -4526    -4450    -4383    -4322 
   -4252    -4202    -4176    -4168    -4189    -4210    -4205    -4178 
   -4118    -4043    -3964    -3878    -3781    -3672    -3576    -3496 
   -3414    -3357    -3304    -3229    -3176    -3107    -2997    -2915 
   -2852    -2787    -2754    -2725    -2685    -2633    -2562    -2473 
   -2392    -2336    -2303    -2284    -2285    -2316    -2382    -2469 
   -2563    -2671    -2774    -2876    -2995    -3106    -3196    -3272 
   -3323    -3364    -3377    -3334    -3267    -3203    -3152    -3132 
   -3113    -3079    -3073    -3119    -3169    -3188    -3221    -3287 
   -3366    -3487    -3597    -3667    -3762    -3859    -3920    -3971 
   -3993    -3994    -4025    -4036    -3977    -3888    -3817    -3732 
   -3605    -3481    -3349    -3188    -3042    -2898    -2752    -2643 
   -2528    -2423    -2380    -2370    -2350    -2332    -2347    -2358 
   -2343    -2351    -2384    -2436    -2498    -2544    -2639    -2782 
   -2895    -3013    -3186    -3395    -3578    -3719    -3851    -3956 
   -4047    -4122    -4145    -4145    -4118    -4023    -3886    -3762 
   -3689    -3631    -3541    -3440    -3361    -3316    -3279    -3221 
   -3173    -3140    -3109    -3078    -3034    -2938    -2786    -2702 
   -2708    -2650    -2552    -2508    -2467    -2442    -2502    -2570 
   -2587    -2656    -2805    -2959    -3109    -3238    -3365    -3561 
   -3730    -3811    -3929    -4090    -4172    -4213    -4270    -4270 
   -4205    -4174    -4200    -4217    -4176    -4152    -4192    -4212 
   -4194    -4271    -4431    -4480    -4413    -4414    -4449    -4405 
   -4357    -4380    -4405    -4363    -4261    -4162    -4098    -4045 
   -4017    -4045    -4043    -3915    -3771    -3709    -3609    -3423 
   -3254    -3153    -3033    -2824    -2614    -2471    -2350    -2254 
   -2165    -2081    -2034    -1944    -1815    -1745    -1686    -1606 
   -1620    -1706    -1776    -1878    -2027    -2185    -2405    -2673 
   -2949    -3284    -3619    -3848    -4041    -4228    -4359    -4469 
   -4535    -4502    -4455    -4430    -4363    -4237    -4099    -4013 
   -3958    -3886    -3835    -3816    -3816    -3858    -3936    -4002 
   -4032    -4029    -4021    -3990    -3873    -3696    -3510    -3254 
   -2907    -2562    -2263    -1998    -1755    -1540    -1364    -1229 
   -1138    -1107    -1105    -1127    -1230    -1394    -1532    -1632 
   -1741    -1894    -2064    -2185    -2258    -2338    -2452    -2567 
   -2664    -2763    -2870    -2986    -3133    -3302    -3449    -3582 
   -3748    -3940    -4086    -4170    -4233    -4291    -4338    -4386 
   -4418    -4436    -4442    -4431    -4407    -4348    -4243    -4121 
   -4000    -3877    -3751    -3605    -3445    -3295    -3144    -2976 
   -2820    -2695    -2574    -2427    -2261    -2107    -1995    -1927 
   -1895    -1908    -1952    -1989    -2015    -2062    -2137    -2234 
   -2381    -2552    -2688    -2787    -2886    -2988    -3083    -3218 
   -3399    -3553    -3662    -3755    -3821    -3856    -3919    -4044 
   -4168    -4256    -4340    -4407    -4448    -4486    -4556    -4654 
   -4730    -4789    -4847    -4850    -4792    -4752    -4738    -4706 
   -4649    -4577    -4483    -4342    -4190    -4067    -3948    -3844 
   -3813    -3816    -3800    -3804    -3827    -3840    -3858    -3839 
   -3784    -3742    -3686    -3615    -3532    -3375    -3194    -3049 
   -2874    -2678    -2529    -2431    -2351    -2286    -2254    -2250 
   -2280    -2380    -2506    -2624    -2774    -2947    -3118    -3327 
   -3538    -3707    -3883    -4050    -4149    -4222    -4261    -4256 
   -4232    -4143    -3991    -3852    -3688    -3511    -3388    -3245 
   -3055    -2893    -2782    -2698    -2590    -2447    -2354    -2289 
   -2165    -2042    -1985    -1907    -1779    -1684    -1634    -1570 
   -1509    -1520    -1560    -1567    -1580    -1669    -1826    -2015 
   -2228    -2469    -2698    -2898    -3134    -3431    -3703    -3936 
   -4197    -4464    -4671    -4812    -4918    -5020    -5097    -5085 
   -4997    -4927    -4876    -4761    -4561    -4322    -4077    -3828 
   -3585    -3327    -3021    -2705    -2470    -2262    -1987    -1696 
   -1483    -1362    -1312    -1281    -1243    -1237    -1296    -1394 
   -1505    -1610    -1715    -1836    -1958    -2064    -2137    -2169 
   -2220    -2358    -2542    -2693    -2828    -3018    -3253    -3496 
   -3744    -3954    -4113    -4294    -4499    -4666    -4761    -4808 
   -4862    -4882    -4806    -4675    -4527    -4352    -4189    -4064 
   -3944    -3792    -3622    -3492    -3414    -3315    -3194    -3082 
   -2976    -2880    -2790    -2694    -2597    -2484    -2378    -2301 
   -2234    -2188    -2185    -2208    -2232    -2242    -2263    -2338 
   -2427    -2493    -2578    -2710    -2882    -3068    -3250    -3431 
   -3615    -3793    -3975    -4139    -4274    -4423    -4577    -4685 
   -4743    -4747    -4685    -4564    -4391    -4180    -3958    -3751 
   -3585    -3450    -3325    -3231    -3172    -3134    -3121    -3137 
   -3210    -3323    -3407    -3469    -3519    -3500    -3420    -3302 
   -3122    -2920    -2701    -2461    -2259    -2093    -1934    -1849 
   -1846    -1888    -2016    -2201    -2389    -2623    -2909    -3191 
   -3449    -3699    -3937    -4143    -4317    -4484    -4614    -4699 
   -4783    -4865    -4914    -4936    -4953    -4963    -4939    -4878 
   -4826    -4776    -4676    -4556    -4490    -4445    -4388    -4372 
   -4382    -4336    -4263    -4222    -4167    -4091    -4035    -3974 
   -3877    -3740    -3578    -3419    -3272    -3122    -2976    -2852 
   -2729    -2608    -2513    -2447    -2397    -2361    -2323    -2266 
   -2196    -2147    -2150    -2185    -2228    -2278    -2336    -2405 
   -2501    -2620    -2740    -2851    -2955    -3067    -3207    -3379 
   -3562    -3762    -3959    -4124    -4276    -4423    -4527    -4603 
   -4652    -4645    -4577    -4453    -4286    -4131    -4014    -3905 
   -3792    -3692    -3605    -3544    -3527    -3544    -3589    -3685 
   -3820    -3955    -4081    -4182    -4237    -4248    -4225    -4187 
   -4159    -4143    -4133    -4129    -4136    -4175    -4247    -4329 
   -4411    -4502    -4594    -4662    -4687    -4660    -4594    -4487 
   -4332    -4122    -3852    -3550    -3249    -2971    -2733    -2546 
   -2407    -2309    -2257    -2243    -2278    -2365    -2467    -2575 
   -2700    -2821    -2929    -3014    -3065    -3079    -3057    -3013 
   -2960    -2906    -2870    -2874    -2917    -2982    -3053    -3118 
   -3169    -3206    -3240    -3281    -3323    -3350    -3361    -3354 
   -3333    -3307    -3276    -3241    -3227    -3237    -3257    -3310 
   -3402    -3508    -3623    -3735    -3825    -3889    -3921    -3928 
   -3921    -3894    -3861    -3839    -3823    -3808    -3792    -3781 
   -3792    -3820    -3865    -3932    -4003    -4050    -4068    -4043 
   -3981    -3904    -3807    -3677    -3504    -3277    -3018    -2739 
   -2442    -2153    -1880    -1632    -1436    -1275    -1142    -1071 
   -1075    -1139    -1262    -1413    -1541    -1615    -1629    -1610 
   -1578    -1547    -1535    -1547    -1571    -1620    -1687    -1771 
   -1888    -2043    -2249    -2498    -2755    -3001    -3200    -3317 
   -3373    -3397    -3399    -3396    -3391    -3379    -3355    -3327 
   -3312    -3330    -3392    -3495    -3634    -3775    -3893    -3987 
   -4069    -4143    -4218    -4305    -4403    -4500    -4584    -4642 
   -4650    -4608    -4549    -4479    -4425    -4396    -4364    -4314 
   -4243    -4132    -4000    -3842    -3662    -3505    -3373    -3232 
   -3083    -2907    -2702    -2488    -2267    -2043    -1846    -1672 
   -1521    -1409    -1331    -1287    -1293    -1325    -1364    -1412 
   -1467    -1530    -1580    -1583    -1554    -1512    -1440    -1343 
   -1242    -1139    -1026     -918     -853     -843     -874     -940 
   -1048    -1185    -1334    -1499    -1713    -1965    -2235    -2527 
   -2832    -3130    -3430    -3742    -4051    -4348    -4639    -4932 
   -5216    -5460    -5644    -5779    -5856    -5850    -5786    -5675 
   -5528    -5355    -5161    -4958    -4761    -4573    -4380    -4187 
   -4010    -3855    -3719    -3597    -3469    -3303    -3075    -2795 
   -2496    -2189    -1891    -1599    -1312    -1050     -822     -619 
    -456     -328     -212     -112      -28       32       52       36 
     -14     -106     -233     -392     -573     -743     -889    -1021 
   -1152    -1301    -1475    -1671    -1891    -2128    -2392    -2679 
   -2965    -3258    -3576    -3899    -4220    -4544    -4860    -5171 
   -5485    -5769    -6012    -6214    -6350    -6405    -6389    -6313 
   -6180    -5991    -5749    -5456    -5142    -4830    -4513    -4186 
   -3878    -3592    -3335    -3136    -2979    -2853    -2781    -2740 
   -2727    -2763    -2852    -2986    -3165    -3361    -3547    -3719 
   -3880    -4017    -4136    -4253    -4342    -4379    -4379    -4338 
   -4243    -4102    -3947    -3823    -3747    -3694    -3634    -3569 
   -3489    -3384    -3284    -3199    -3122    -3080    -3073    -3071 
   -3056    -3038    -3040    -3084    -3176    -3314    -3514    -3776 
   -4060    -4347    -4646    -4942    -5232    -5498    -5711    -5876 
   -5985    -6033    -6034    -5983    -5881    -5753    -5579    -5358 
   -5111    -4839    -4542    -4220    -3874    -3515    -3150    -2778 
   -2423    -2079    -1750    -1445    -1132     -819     -544     -321 
    -190     -141     -148     -251     -449     -681     -958    -1293 
   -1664    -2091    -2574    -3059    -3532    -4005    -4437    -4800 
   -5112    -5389    -5614    -5783    -5884    -5910    -5900    -5894 
   -5853    -5779    -5717    -5633    -5495    -5339    -5164    -4935 
   -4676    -4367    -3991    -3634    -3315    -2992    -2704    -2454 
   -2203    -2008    -1930    -1917    -1914    -1952    -2041    -2107 
   -2161    -2258    -2336    -2347    -2316    -2254    -2199    -2147 
   -2038    -1868    -1707    -1588    -1459    -1318    -1219    -1128 
   -1085    -1182    -1364    -1578    -1822    -2097    -2436    -2772 
   -3019    -3252    -3522    -3731    -3835    -3899    -3974    -4025 
   -4052    -4110    -4139    -4086    -4059    -4081    -4087    -4102 
   -4117    -4139    -4191    -4166    -4055    -4008    -3989    -3894 
   -3731    -3511    -3253    -3037    -2894    -2717    -2492    -2277 
   -2073    -1944    -1891    -1772    -1610    -1537    -1478    -1378 
   -1314    -1296    -1300    -1310    -1321    -1370    -1424    -1466 
   -1590    -1721    -1713    -1706    -1795    -1842    -1871    -1956 
   -2011    -2014    -2038    -2111    -2231    -2311    -2326    -2423 
   -2616    -2659    -2569    -2651    -2787    -2682    -2552    -2567 
   -2521    -2425    -2394    -2282    -2095    -2027    -1968    -1850 
   -1829    -1829    -1846    -2010    -2161    -2208    -2359    -2669 
   -2961    -3254    -3636    -4020    -4426    -4884    -5188    -5406 
   -5749    -5996    -6057    -6110    -6115    -6025    -5887    -5694 
   -5471    -5290    -5155    -5035    -4931    -4845    -4774    -4710 
   -4650    -4635    -4648    -4660    -4680    -4654    -4546    -4392 
   -4168    -3871    -3553    -3204    -2799    -2350    -1863    -1345 
    -835     -370       40      395      668      861      981     1007 
     951      834      683      521      299       16     -311     -692 
   -1032    -1282    -1580    -1987    -2361    -2625    -2905    -3265 
   -3596    -3863    -4178    -4568    -4923    -5189    -5443    -5737 
   -6022    -6258    -6415    -6475    -6473    -6481    -6524    -6459 
   -6264    -6112    -5948    -5640    -5292    -4954    -4579    -4172 
   -3747    -3307    -2839    -2335    -1815    -1316     -872     -471 
    -136       97      238      271      193       41     -221     -600 
   -1017    -1448    -1926    -2440    -2940    -3383    -3781    -4147 
   -4457    -4661    -4768    -4901    -5093    -5239    -5351    -5483 
   -5590    -5714    -5867    -5940    -6004    -6134    -6218    -6252 
   -6281    -6264    -6249    -6254    -6200    -6138    -6143    -6099 
   -5975    -5910    -5860    -5757    -5683    -5628    -5583    -5597 
   -5598    -5589    -5625    -5645    -5611    -5555    -5443    -5268 
   -5127    -5022    -4877    -4699    -4525    -4352    -4144    -3856 
   -3485    -3048    -2565    -2014    -1402     -781     -180      380 
     907     1417     1845     2155     2357     2455     2481     2398 
    2173     1850     1449      970      448     -122     -723    -1286 
   -1804    -2301    -2745    -3111    -3384    -3554    -3657    -3716 
   -3751    -3807    -3861    -3880    -3889    -3912    -3964    -4001 
   -4012    -4043    -4069    -4060    -4010    -3924    -3832    -3732 
   -3628    -3527    -3407    -3296    -3227    -3198    -3183    -3210 
   -3372    -3599    -3717    -3775    -3863    -3921    -3899    -3834 
   -3747    -3639    -3537    -3453    -3379    -3329    -3323    -3358 
   -3387    -3383    -3373    -3327    -3213    -3071    -2934    -2813 
   -2673    -2455    -2203    -1953    -1667    -1371    -1101     -850 
    -645     -492     -361     -234     -135     -117     -193     -351 
    -591     -901    -1282    -1713    -2138    -2535    -2924    -3317 
   -3716    -4114    -4506    -4885    -5246    -5559    -5803    -6004 
   -6166    -6274    -6330    -6331    -6339    -6374    -6397    -6397 
   -6358    -6313    -6282    -6210    -6131    -6089    -6061    -6035 
   -5999    -5976    -5988    -6002    -6033    -6130    -6268    -6415 
   -6569    -6701    -6793    -6866    -6903    -6880    -6812    -6697 
   -6527    -6308    -6030    -5705    -5346    -4961    -4568    -4166 
   -3775    -3403    -3013    -2623    -2254    -1895    -1559    -1236 
    -905     -584     -257       72      357      594      767      845 
     861      823      710      522      252      -75     -442     -873 
   -1359    -1871    -2377    -2853    -3315    -3771    -4228    -4693 
   -5157    -5599    -6029    -6432    -6808    -7163    -7482    -7759 
   -7985    -8139    -8229    -8248    -8174    -8033    -7852    -7634 
   -7399    -7145    -6848    -6531    -6192    -5849    -5518    -5193 
   -4880    -4575    -4248    -3905    -3557    -3229    -2907    -2567 
   -2239    -1949    -1701    -1499    -1355    -1262    -1227    -1239 
   -1285    -1363    -1464    -1583    -1729    -1902    -2102    -2324 
   -2517    -2647    -2731    -2798    -2862    -2911    -2941    -2975 
   -3034    -3129    -3258    -3388    -3515    -3690    -3927    -4187 
   -4450    -4706    -4956    -5197    -5420    -5632    -5849    -6043 
   -6189    -6284    -6301    -6285    -6288    -6295    -6299    -6326 
   -6394    -6524    -6686    -6840    -6979    -7110    -7246    -7369 
   -7457    -7491    -7446    -7319    -7094    -6774    -6399    -5968 
   -5494    -5005    -4507    -4016    -3546    -3082    -2624    -2184 
   -1798    -1505    -1289    -1101     -922     -715     -468     -221 
      18      263      483      693      901     1067     1179     1230 
    1215     1144     1000      767      469      112     -271     -654 
   -1053    -1466    -1906    -2378    -2857    -3329    -3780    -4199 
   -4596    -4981    -5367    -5744    -6087    -6400    -6704    -6982 
   -7246    -7501    -7708    -7894    -8086    -8266    -8441    -8572 
   -8623    -8642    -8619    -8545    -8428    -8253    -8060    -7874 
   -7677    -7492    -7299    -7071    -6831    -6559    -6250    -5934 
   -5616    -5304    -5008    -4708    -4429    -4191    -3971    -3773 
   -3599    -3416    -3225    -3033    -2859    -2720    -2584    -2448 
   -2350    -2286    -2234    -2192    -2165    -2177    -2234    -2307 
   -2408    -2532    -2673    -2856    -3048    -3246    -3476    -3709 
   -3948    -4197    -4450    -4715    -4984    -5259    -5548    -5815 
   -6048    -6249    -6411    -6544    -6650    -6705    -6716    -6698 
   -6654    -6577    -6465    -6330    -6172    -5984    -5755    -5483 
   -5174    -4866    -4611    -4411    -4241    -4098    -3994    -3925 
   -3877    -3855    -3875    -3932    -4033    -4163    -4295    -4411 
   -4507    -4585    -4660    -4725    -4784    -4851    -4923    -5003 
   -5085    -5163    -5240    -5309    -5362    -5383    -5356    -5275 
   -5136    -4934    -4664    -4332    -3937    -3501    -3056    -2606 
   -2172    -1771    -1418    -1119     -866     -656     -476     -313 
    -182      -95      -39       -9       -5      -25      -63     -121 
    -212     -341     -518     -772    -1100    -1493    -1930    -2382 
   -2828    -3253    -3651    -4036    -4419    -4781    -5107    -5390 
   -5616    -5780    -5886    -5930    -5933    -5904    -5840    -5751 
   -5648    -5537    -5418    -5266    -5081    -4885    -4664    -4423 
   -4190    -3946    -3670    -3373    -3078    -2806    -2571    -2390 
   -2288    -2258    -2295    -2394    -2520    -2664    -2853    -3076 
   -3295    -3487    -3631    -3713    -3738    -3708    -3609    -3468 
   -3307    -3142    -2983    -2832    -2718    -2656    -2632    -2648 
   -2708    -2797    -2896    -3003    -3095    -3140    -3144    -3130 
   -3111    -3083    -3041    -3003    -2965    -2924    -2886    -2852 
   -2816    -2795    -2803    -2832    -2890    -2965    -3038    -3100 
   -3142    -3154    -3136    -3102    -3063    -3011    -2936    -2837 
   -2714    -2554    -2354    -2142    -1927    -1721    -1541    -1409 
   -1341    -1314    -1312    -1360    -1455    -1564    -1695    -1852 
   -2030    -2212    -2377    -2513    -2620    -2708    -2791    -2878 
   -2967    -3068    -3175    -3279    -3361    -3404    -3403    -3361 
   -3284    -3187    -3075    -2948    -2825    -2739    -2685    -2667 
   -2678    -2685    -2710    -2762    -2795    -2824    -2853    -2872 
   -2884    -2860    -2802    -2704    -2554    -2388    -2207    -2011 
   -1829    -1656    -1486    -1316    -1136     -961     -787     -614 
    -471     -369     -309     -298     -352     -464     -635     -855 
   -1086    -1323    -1568    -1818    -2084    -2362    -2662    -2997 
   -3321    -3613    -3874    -4071    -4205    -4306    -4363    -4399 
   -4437    -4484    -4526    -4533    -4506    -4468    -4413    -4355 
