Origin Time       2016/04/16 01:25:00
Lat.              32.753
Long.             130.762
Depth. (km)       12
Mag.              7.3
Station Code      OKY010
Station Lat.      34.7454
Station Long.     134.1884
Station Height(m) 2
Record Time       2016/04/16 01:26:57
Sampling Freq(Hz) 100Hz
Duration Time(s)  65
Dir.              N-S
Scale Factor      7845(gal)/8223790
Max. Acc. (gal)   2.331
Last Correction   2016/04/16 01:26:57
Memo.             
[...]
   -1050    -1021    -1009    -1031    -1038     -996     -936     -908 
    -908     -913     -909     -896     -885     -897     -932     -973 
   -1016    -1067    -1125    -1185    -1209    -1206    -1224    -1235 
   -1233    -1247    -1243    -1232    -1244    -1232    -1194    -1196 
   -1208    -1192    -1165    -1138    -1119    -1092    -1043    -1020 
   -1005     -961     -931     -918     -874     -837     -843     -859 
    -846     -810     -777     -776     -778     -753     -728     -720 
    -696     -653     -627     -653     -708     -760     -799     -819 
    -822     -815     -810     -826     -845     -837     -838     -888 
    -957    -1005    -1036    -1065    -1088    -1081    -1057    -1035 
    -994     -924     -853     -796     -764     -766     -785     -810 
    -842     -876     -899     -903     -874     -827     -816     -845 
    -853     -851     -861     -872     -916     -974     -994    -1020 
   -1046    -1020     -982     -965     -953     -946     -939     -913 
    -873     -837     -808     -764     -708     -666     -642     -611 
    -575     -548     -529     -552     -618     -658     -692     -766 
    -818     -812     -787     -776     -792     -804     -792     -788 
    -818     -870     -900     -886     -885     -923     -950     -970 
   -1015    -1046    -1038    -1003     -953     -919     -889     -823 
    -741     -700     -688     -677     -691     -741     -810     -869 
    -901     -935     -978     -997    -1005    -1035    -1046    -1011 
    -996    -1030    -1067    -1089    -1101    -1117    -1151    -1182 
   -1189    -1177    -1169    -1178    -1192    -1185    -1170    -1167 
   -1173    -1185    -1188    -1154    -1096    -1065    -1081    -1113 
   -1135    -1125    -1097    -1092    -1102    -1107    -1107    -1073 
   -1012     -980     -967     -949     -935     -920     -903     -895 
    -911     -958     -984     -969     -972    -1024    -1080    -1107 
   -1115    -1093    -1055    -1034    -1013    -1000    -1005     -985 
    -947     -931     -943     -963     -953     -903     -843     -791 
    -760     -767     -783     -773     -757     -760     -797     -866 
    -929     -961     -966     -967     -954     -927     -903     -880 
    -847     -804     -776     -804     -886     -961    -1000    -1065 
   -1166    -1242    -1260    -1251    -1232    -1212    -1175    -1111 
   -1038     -984     -949     -929     -929     -929     -934     -954 
    -989    -1047    -1112    -1170    -1228    -1285    -1328    -1348 
   -1340    -1304    -1235    -1170    -1151    -1121    -1065    -1057 
   -1080    -1098    -1167    -1256    -1305    -1368    -1456    -1493 
   -1482    -1439    -1347    -1236    -1148    -1065     -982     -931 
    -903     -884     -911     -973    -1000    -1016    -1065    -1124 
   -1174    -1206    -1209    -1209    -1217    -1209    -1194    -1204 
   -1225    -1209    -1158    -1107    -1059    -1007     -929     -834 
    -767     -745     -731     -712     -689     -665     -621     -550 
    -487     -446     -423     -414     -392     -391     -461     -545 
    -592     -634     -697     -762     -800     -800     -765     -726 
    -699     -669     -664     -704     -749     -801     -884     -959 
   -1021    -1078    -1107    -1129    -1162    -1183    -1183    -1197 
   -1233    -1273    -1310    -1337    -1348    -1348    -1328    -1297 
   -1274    -1252    -1237    -1244    -1251    -1254    -1255    -1230 
   -1173    -1117    -1084    -1039     -965     -915     -909     -897 
    -870     -858     -859     -854     -838     -832     -838     -847 
    -858     -873     -895     -913     -919     -942    -1007    -1085 
   -1129    -1125    -1101    -1093    -1092    -1067    -1026     -977 
    -919     -864     -814     -765     -739     -712     -660     -626 
    -633     -641     -641     -642     -653     -693     -754     -785 
    -783     -770     -761     -761     -784     -832     -881     -934 
   -1039    -1162    -1240    -1301    -1368    -1412    -1425    -1436 
   -1471    -1509    -1497    -1441    -1404    -1372    -1331    -1294 
   -1237    -1163    -1125    -1107    -1071    -1030    -1016    -1026 
   -1021    -1023    -1073    -1120    -1092    -1039    -1032    -1026 
   -1017    -1034    -1051    -1060    -1089    -1135    -1167    -1159 
   -1097    -1021    -1008    -1019     -980     -951     -966     -980 
   -1032    -1125    -1167    -1200    -1273    -1300    -1258    -1220 
   -1202    -1154    -1075    -1021    -1008    -1024    -1044     -994 
    -873     -812     -819     -785     -749     -737     -670     -600 
    -615     -664     -687     -712     -739     -723     -676     -634 
    -656     -764     -864     -880     -816     -728     -699     -745 
    -824     -892     -866     -778     -772     -874    -1009    -1109 
   -1107    -1016     -939     -940    -1005    -1080    -1104    -1065 
   -1016    -1028    -1125    -1224    -1232    -1170    -1098    -1067 
   -1096    -1148    -1197    -1243    -1320    -1455    -1591    -1657 
   -1657    -1595    -1485    -1408    -1385    -1344    -1250    -1142 
   -1069    -1031    -1012     -982     -903     -818     -753     -675 
    -642     -696     -753     -770     -773     -784     -822     -869 
    -885     -896     -946     -980     -972    -1008    -1084    -1142 
   -1206    -1259    -1242    -1228    -1291    -1359    -1359    -1324 
   -1278    -1227    -1163    -1065     -990     -981     -954     -845 
    -743     -761     -838     -832     -756     -722     -730     -733 
    -738     -756     -801     -882     -943     -961    -1039    -1221 
   -1383    -1463    -1499    -1471    -1399    -1333    -1243    -1125 
   -1020     -950     -886     -808     -766     -758     -706     -600 
    -504     -433     -361     -330     -375     -422     -422     -433 
    -475     -540     -656     -797     -893     -954    -1007    -1035 
   -1073    -1147    -1193    -1175    -1136    -1109    -1081    -1057 
   -1057    -1067    -1051    -1009     -989     -984     -955     -942 
    -938     -885     -818     -772     -728     -692     -668     -635 
    -596     -565     -531     -492     -445     -390     -372     -436 
    -540     -627     -719     -858    -1012    -1119    -1185    -1254 
   -1297    -1304    -1271    -1198    -1125    -1085    -1062    -1019 
    -974     -945     -907     -896     -922     -928     -920     -903 
    -868     -851     -866     -892     -905     -909     -950    -1031 
   -1097    -1146    -1202    -1250    -1266    -1260    -1263    -1281 
   -1271    -1213    -1125    -1065    -1053    -1034    -1012    -1048 
   -1096    -1102    -1113    -1140    -1156    -1152    -1116    -1065 
   -1044    -1023     -987    -1004    -1075    -1136    -1171    -1221 
   -1323    -1456    -1564    -1645    -1725    -1783    -1810    -1825 
   -1836    -1842    -1822    -1767    -1721    -1694    -1636    -1541 
   -1431    -1313    -1192    -1078     -959     -853     -784     -735 
    -704     -706     -743     -795     -853     -928    -1000    -1069 
   -1154    -1235    -1301    -1362    -1418    -1490    -1594    -1690 
   -1745    -1776    -1786    -1772    -1733    -1661    -1567    -1460 
   -1348    -1247    -1142    -1030     -942     -874     -800     -731 
    -706     -700     -668     -626     -611     -600     -560     -510 
    -486     -471     -441     -395     -367     -379     -400     -407 
    -396     -392     -437     -499     -529     -538     -566     -596 
    -616     -650     -687     -697     -689     -664     -629     -598 
    -571     -560     -579     -614     -643     -670     -687     -688 
    -702     -724     -730     -714     -675     -621     -573     -546 
    -526     -468     -395     -355     -315     -263     -220     -170 
    -116      -87      -89     -112     -163     -221     -265     -292 
    -321     -341     -321     -283     -251     -217     -209     -230 
    -259     -309     -388     -499     -608     -664     -688     -727 
    -769     -793     -792     -761     -730     -753     -828     -889 
    -916     -934     -946     -947     -922     -842     -726     -616 
    -519     -410     -287     -190     -139     -105      -90     -129 
    -220     -326     -429     -521     -618     -726     -831     -920 
    -982    -1043    -1111    -1156    -1185    -1230    -1287    -1347 
   -1382    -1377    -1341    -1313    -1294    -1262    -1202    -1129 
   -1074    -1048    -1016     -950     -868     -795     -726     -650 
    -575     -493     -429     -410     -383     -328     -276     -261 
    -282     -317     -376     -454     -518     -591     -677     -760 
    -851     -945    -1034    -1125    -1228    -1324    -1377    -1409 
   -1445    -1472    -1471    -1421    -1356    -1324    -1305    -1281 
   -1243    -1213    -1210    -1193    -1155    -1111    -1077    -1074 
   -1077    -1075    -1067    -1021     -961     -912     -885     -861 
    -822     -811     -845     -924    -1020    -1088    -1144    -1174 
   -1189    -1240    -1281    -1304    -1324    -1316    -1333    -1393 
   -1475    -1591    -1706    -1799    -1854    -1869    -1875    -1867 
   -1815    -1725    -1622    -1505    -1409    -1375    -1329    -1275 
   -1270    -1269    -1274    -1282    -1296    -1337    -1372    -1426 
   -1507    -1568    -1642    -1721    -1806    -1898    -1929    -1938 
   -1973    -2025    -2079    -2104    -2116    -2139    -2199    -2299 
   -2357    -2377    -2388    -2377    -2347    -2265    -2162    -2056 
   -1915    -1786    -1661    -1557    -1528    -1530    -1557    -1628 
   -1728    -1856    -1987    -2123    -2262    -2384    -2493    -2571 
   -2641    -2721    -2775    -2806    -2833    -2868    -2909    -2941 
   -2997    -3053    -3088    -3109    -3073    -2998    -2902    -2766 
   -2621    -2454    -2270    -2106    -1935    -1792    -1682    -1578 
   -1505    -1466    -1445    -1422    -1377    -1340    -1305    -1259 
   -1189    -1107    -1057    -1009     -945     -886     -842     -824 
    -801     -757     -738     -741     -750     -734     -687     -652 
    -607     -540     -454     -349     -271     -201     -108      -27 
      45       90      108      128      110       47      -40     -148 
    -271     -440     -622     -787     -963    -1140    -1290    -1402 
   -1467    -1497    -1495    -1471    -1445    -1431    -1447    -1476 
   -1506    -1535    -1560    -1578    -1556    -1490    -1408    -1314 
   -1215    -1090     -977     -907     -830     -757     -715     -679 
    -653     -619     -584     -583     -560     -486     -409     -357 
    -336     -294     -237     -238     -289     -352     -419     -518 
    -645     -772     -862     -903     -942     -994     -999     -966 
    -945     -931     -932     -929     -936     -990    -1039    -1069 
   -1097    -1112    -1116    -1098    -1060    -1028    -1003     -974 
    -942     -928     -935     -954     -978     -986     -997    -1003 
    -965     -908     -851     -796     -751     -695     -637     -592 
    -546     -500     -454     -422     -409     -387     -372     -383 
    -413     -449     -491     -557     -656     -756     -838     -922 
   -1031    -1128    -1185    -1215    -1208    -1196    -1181    -1131 
   -1096    -1097    -1098    -1116    -1152    -1220    -1316    -1398 
   -1493    -1609    -1696    -1746    -1761    -1760    -1779    -1795 
   -1763    -1713    -1706    -1707    -1675    -1640    -1630    -1656 
   -1677    -1690    -1699    -1692    -1711    -1718    -1655    -1632 
   -1636    -1563    -1498    -1479    -1421    -1325    -1271    -1260 
   -1223    -1185    -1215    -1282    -1350    -1425    -1530    -1622 
   -1667    -1684    -1676    -1618    -1517    -1390    -1252    -1113 
    -970     -818     -677     -591     -550     -513     -486     -473 
    -454     -441     -442     -446     -429     -387     -388     -449 
    -499     -529     -558     -576     -595     -615     -639     -681 
    -724     -777     -841     -900     -950     -969     -936     -857 
    -749     -619     -460     -295     -151      -27       65      122 
     152      155      139      110       90      101      118      143 
     186      224      259      314      369      372      307      202 
      85      -23     -121     -218     -307     -382     -430     -453 
    -471     -476     -459     -459     -477     -487     -473     -446 
    -440     -453     -461     -453     -430     -407     -398     -392 
    -383     -386     -409     -425     -411     -388     -365     -309 
    -206      -86       37      172      317      464      596      688 
     753      808      851      870      842      792      758      720 
     680      633      513      315      121      -35     -186     -372 
    -588     -773     -881     -932     -978    -1038    -1093    -1107 
   -1060     -997     -962     -945     -924     -893     -837     -785 
    -761     -708     -614     -515     -425     -382     -388     -386 
    -386     -464     -612     -767     -908    -1057    -1230    -1435 
   -1641    -1818    -1969    -2107    -2242    -2381    -2501    -2579 
   -2628    -2675    -2712    -2721    -2704    -2646    -2559    -2465 
   -2367    -2303    -2262    -2209    -2168    -2146    -2106    -2062 
   -2052    -2046    -2046    -2092    -2153    -2193    -2258    -2347 
   -2442    -2582    -2727    -2824    -2932    -3053    -3130    -3204 
   -3291    -3330    -3339    -3368    -3395    -3407    -3403    -3372 
   -3334    -3308    -3262    -3184    -3069    -2933    -2816    -2690 
   -2517    -2362    -2239    -2106    -1984    -1873    -1736    -1634 
   -1587    -1522    -1501    -1570    -1609    -1622    -1694    -1748 
   -1753    -1775    -1783    -1753    -1721    -1676    -1645    -1652 
   -1683    -1753    -1844    -1908    -1969    -2022    -2043    -2060 
   -2081    -2097    -2135    -2189    -2247    -2324    -2415    -2523 
   -2651    -2775    -2882    -2951    -2965    -2952    -2914    -2844 
   -2755    -2652    -2552    -2479    -2428    -2403    -2412    -2435 
   -2447    -2442    -2411    -2353    -2270    -2168    -2061    -1958 
   -1854    -1776    -1732    -1711    -1728    -1748    -1742    -1752 
   -1773    -1780    -1783    -1788    -1802    -1818    -1822    -1837 
   -1878    -1937    -2016    -2104    -2199    -2311    -2417    -2509 
   -2609    -2712    -2790    -2844    -2895    -2953    -3025    -3088 
   -3132    -3176    -3221    -3260    -3289    -3279    -3234    -3180 
   -3092    -2982    -2878    -2770    -2652    -2527    -2382    -2214 
   -2034    -1864    -1687    -1487    -1271    -1047     -835     -650 
    -451     -234      -47      116      268      410      553      664 
     702      702      706      696      662      623      571      490 
     406      326      252      198      167      167      162      124 
     102      110      128      149      178      230      292      344 
     402      459      519      587      630      668      723      780 
     841      889      909      942      986     1004      990      957 
     909      847      764      657      540      411      276      135 
     -17     -184     -341     -459     -556     -623     -633     -576 
    -480     -391     -313     -225     -133      -21       89      152 
     198      261      333      402      445      498      569      604 
     600      571      504      405      278      155       74       20 
     -21      -65     -112     -144     -182     -237     -324     -457 
    -610     -757     -899    -1019    -1111    -1183    -1240    -1271 
   -1270    -1251    -1216    -1165    -1102    -1028     -951     -905 
    -877     -837     -800     -783     -760     -723     -693     -662 
    -619     -589     -568     -550     -572     -599     -592     -595 
    -603     -608     -648     -697     -715     -738     -770     -800 
    -838     -877     -893     -892     -912     -939     -962    -1019 
   -1090    -1139    -1189    -1266    -1347    -1412    -1475    -1543 
   -1593    -1628    -1644    -1626    -1591    -1537    -1460    -1390 
   -1314    -1204    -1081     -950     -791     -652     -562     -471 
    -360     -270     -178      -64       -5        5       55       94 
      95      117      147      149      156      189      229      279 
     337      365      357      349      334      297      252      189 
     103       43      -13     -124     -229     -292     -379     -451 
    -469     -506     -542     -504     -460     -437     -388     -332 
    -280     -228     -194     -174     -163     -157     -136     -108 
     -72      -17       44      106      187      298      403      475 
     545      619      661      666      648      619      585      533 
     464      391      310      222      129       23      -68     -114 
    -143     -172     -174     -162     -159     -133      -76       -5 
      76      151      194      241      295      344      402      457 
     513      598      672      733      816      885      915      913 
     866      783      689      587      498      441      406      394 
     405      427      456      495      552      612      688      776 
     837      870      900      885      822      772      741      707 
     676      649      615      572      525      498      491      486 
     500      546      603      677      767      846      893      920 
     943      951      928      909      911      888      826      766 
     727      702      711      762      818      854      911      970 
     974      943      908      835      735      641      545      442 
     334      216       89      -45     -189     -324     -436     -526 
    -599     -641     -652     -633     -579     -502     -430     -373 
    -313     -240     -180     -135      -83      -37        2       47 
      89      112      128      129      124      118      103       56 
     -31     -152     -287     -441     -622     -795     -940    -1081 
   -1230    -1367    -1470    -1543    -1605    -1637    -1630    -1603 
   -1548    -1475    -1401    -1297    -1152     -982     -820     -702 
    -602     -488     -368     -244     -114       16      136      259 
     405      549      669      765      828      843      804      722 
     608      461      279       82      -98     -234     -329     -387 
    -409     -390     -359     -359     -375     -378     -379     -378 
    -356     -336     -317     -288     -265     -248     -237     -270 
    -340     -414     -483     -562     -638     -679     -693     -712 
    -726     -730     -727     -714     -706     -737     -810     -900 
    -982    -1060    -1150    -1230    -1279    -1300    -1293    -1263 
   -1232    -1209    -1185    -1185    -1213    -1236    -1250    -1248 
   -1228    -1198    -1159    -1116    -1063    -1005     -972     -973 
    -986    -1008    -1057    -1128    -1193    -1242    -1262    -1237 
   -1197    -1152    -1092    -1038     -982     -909     -819     -720 
    -634     -558     -469     -375     -278     -191     -131      -79 
     -32      -10        2       18       44       56       29        0 
     -13      -39      -82     -143     -225     -330     -451     -579 
    -679     -750     -800     -805     -760     -691     -615     -538 
