Origin Time       2016/04/16 01:25:00
Lat.              32.753
Long.             130.762
Depth. (km)       12
Mag.              7.3
Station Code      OKY013
Station Lat.      34.5095
Station Long.     133.5099
Station Height(m) 6
Record Time       2016/04/16 01:26:35
Sampling Freq(Hz) 100Hz
Duration Time(s)  77
Dir.              E-W
Scale Factor      7845(gal)/8223790
Max. Acc. (gal)   3.778
Last Correction   2016/04/16 01:26:37
Memo.             
[...]
     193      284      361      417      450      461      457      451 
     451      456      460      450      413      346      270      194 
     139      120      131      155      176      198      221      241 
     259      270      272      274      272      261      243      218 
     190      137       51      -60     -182     -299     -421     -548 
    -665     -765     -841     -877     -873     -826     -737     -622 
    -518     -449     -407     -375     -357     -360     -367     -353 
    -307     -233     -143      -62       -1       32       62      112 
     183      255      313      342      360      386      423      467 
     496      506      511      523      533      540      529      487 
     421      329      218      112       13      -82     -167     -225 
    -252     -243     -221     -207     -205     -210     -224     -241 
    -245     -234     -214     -164      -60       91      280      479 
     643      747      787      773      723      649      550      438 
     324      206       93      -16     -125     -222     -282     -294 
    -275     -248     -225     -206     -182     -143      -99      -75 
     -86     -125     -170     -205     -225     -248     -286     -330 
    -361     -370     -372     -382     -406     -436     -442     -414 
    -357     -289     -237     -207     -191     -180     -175     -178 
    -190     -205     -211     -201     -178     -162     -151     -147 
    -152     -163     -178     -194     -201     -197     -195     -193 
    -183     -167     -124      -51       39      135      222      297 
     367      444      544      673      823      980     1119     1225 
    1301     1347     1350     1300     1205     1098     1000      908 
     812      708      608      514      413      324      265      246 
     275      352      463      577      687      791      882      959 
    1032     1097     1132     1136     1129     1120     1105     1089 
    1043      949      830      715      621      542      472      413 
     360      301      253      244      286      378      510      658 
     791      888      947      966      942      892      828      767 
     715      665      625      615      630      661      702      741 
     773      804      850      909      970     1026     1073     1112 
    1129     1094      997      858      696      529      369      220 
      85      -25     -108     -157     -186     -201     -199     -183 
    -157     -139     -129     -129     -137     -140     -131     -117 
     -97      -78      -67      -59      -49      -32       -2       39 
      87      139      189      232      246      225      191      157 
     144      162      193      217      218      197      153       98 
      44       10        0        0       10       35       60       78 
      72       59       56       47       13      -32      -68      -76 
     -45       13       78      124      151      171      190      205 
     230      266      301      328      341      326      287      233 
     178      128       81       28      -13      -23       -5       29 
      72      101       99       74       41       20       27       76 
     157      217      234      225      201      182      193      236 
     295      351      386      383      353      318      295      295 
     317      363      445      562      699      857     1036     1196 
    1302     1351     1341     1290     1232     1175     1109     1034 
     950      849      738      627      523      432      355      299 
     302      372      475      579      668      707      697      680 
     661      614      525      396      246      103      -11     -103 
    -178     -238     -286     -333     -372     -387     -368     -307 
    -217     -131      -68      -31        0       52      122      190 
     245      284      321      372      442      526      621      715 
     799      838      823      762      672      565      453      344 
     246      178      148      126       99       72       40        5 
     -17      -18       13       90      197      315      434      545 
     648      723      757      767      773      767      739      677 
     577      449      295      125      -22     -121     -152     -125 
     -75      -31       -8        1       14       25       29       16 
     -22      -78     -137     -206     -294     -398     -508     -625 
    -735     -824     -881     -903     -905     -900     -893     -888 
    -896     -920     -946     -959     -947     -895     -823     -747 
    -656     -540     -394     -225      -55       86      180      220 
     210      159       71      -32     -120     -186     -236     -278 
    -324     -378     -434     -481     -504     -495     -456     -398 
    -325     -251     -182     -105      -13       90      203      313 
     388      427      457      487      511      530      548      558 
     560      553      542      521      486      433      357      259 
     147       32      -72     -172     -257     -318     -346     -342 
    -311     -259     -187      -97       16      126      207      255 
     268      251      201      120       21      -91     -228     -376 
    -532     -697     -843     -947    -1019    -1070    -1092    -1070 
   -1005     -916     -814     -688     -530     -357     -189      -28 
     124      272      415      545      654      728      769      793 
     814      842      873      903      924      934      924      890 
     849      820      816      831      853      866      881      916 
     945      938      885      777      629      471      311      144 
     -16     -136     -210     -252     -265     -245     -187      -98 
       5       97      144      143      105       28      -83     -209 
    -333     -449     -552     -623     -639     -594     -508     -407 
    -303     -186      -41      117      257      356      409      436 
     446      454      475      522      600      688      773      846 
     882      877      845      789      715      626      506      370 
     255      178      144      151      198      283      394      521 
     646      758      853      915      940      938      912      886 
     895      940     1011     1111     1258     1440     1611     1732 
    1796     1811     1779     1715     1622     1493     1347     1208 
    1073      927      800      720      689      707      766      843 
     922      994     1059     1107     1131     1115     1060      970 
     851      719      592      492      425      392      406      459 
     530      594      633      638      599      519      418      311 
     201      103       37       11       16       37       82      140 
     189      220      241      266      317      395      471      522 
     568      622      683      751      820      870      892      885 
     857      818      766      710      669      656      649      625 
     573      491      379      229       49     -135     -301     -425 
    -502     -529     -496     -410     -288     -152      -14      124 
     271      418      548      627      635      577      475      357 
     272      229      228      268      341      442      565      664 
     695      654      550      392      197      -27     -276     -540 
    -791    -1019    -1208    -1340    -1412    -1436    -1418    -1364 
   -1279    -1185    -1105    -1036     -992     -990    -1031    -1090 
   -1148    -1190    -1213    -1240    -1301    -1383    -1451    -1489 
   -1517    -1543    -1552    -1539    -1506    -1459    -1404    -1334 
   -1250    -1179    -1133    -1089    -1020     -909     -753     -571 
    -373     -149      103      368      619      850     1069     1279 
    1479     1675     1871     2060     2251     2448     2643     2852 
    3082     3314     3541     3754     3923     4023     4036     3959 
    3820     3645     3423     3157     2857     2515     2147     1823 
    1575     1389     1277     1250     1277     1321     1350     1356 
    1393     1483     1614     1753     1867     1944     1998     2008 
    1946     1802     1586     1340     1120      939      797      693 
     616      550      483      407      324      238      153       71 
       9       -2       37       98      157      210      259      307 
     352      396      446      495      529      542      526      481 
     434      395      360      329      289      234      175      109 
      36      -31      -85     -118     -118      -82        9      175 
     396      638      872     1074     1224     1312     1323     1260 
    1150     1016      886      793      749      749      774      784 
     749      673      587      502      429      373      326      276 
     212      126       18     -110     -265     -436     -607     -776 
    -927    -1051    -1155    -1256    -1366    -1471    -1522    -1490 
   -1381    -1215    -1004     -778     -562     -365     -187      -27 
     121      251      348      419      483      548      600      618 
     585      519      444      388      365      375      403      427 
     432      411      367      309      246      193      166      184 
     256      372      513      685      888     1098     1321     1545 
    1728     1873     1999     2092     2165     2220     2231     2199 
    2128     2001     1830     1637     1425     1201      977      756 
     538      318       82     -174     -422     -631     -787     -884 
    -931     -936     -896     -814     -723     -677     -700     -777 
    -877     -982    -1074    -1136    -1163    -1162    -1142    -1112 
   -1059     -969     -850     -720     -591     -483     -429     -448 
    -538     -687     -859    -1023    -1169    -1274    -1297    -1223 
   -1057     -807     -515     -225       47      287      495      689 
     872     1034     1163     1243     1282     1308     1344     1389 
    1431     1464     1482     1483     1480     1487     1497     1499 
    1494     1495     1524     1582     1660     1728     1748     1702 
    1587     1401     1151      855      503      108     -288     -675 
   -1034    -1325    -1532    -1651    -1656    -1561    -1395    -1181 
    -957     -769     -629     -550     -552     -614     -706     -796 
    -853     -859     -815     -730     -604     -442     -278     -143 
     -51       -1       27       63      103      118       98       47 
     -16      -83     -155     -225     -288     -333     -357     -363 
    -351     -311     -238     -129       16      203      415      625 
     799      919      990     1016     1008      996     1004     1030 
    1077     1158     1255     1344     1416     1451     1425     1337 
    1205     1044      864      689      514      333      152      -35 
    -225     -395     -550     -697     -834     -949    -1009     -978 
    -864     -707     -515     -298      -72      162      402      618 
     797      934     1026     1094     1151     1189     1194     1162 
    1107     1055      992      903      791      641      473      324 
     205      112       32      -47     -135     -224     -322     -427 
    -526     -608     -656     -662     -638     -585     -506     -407 
    -295     -168      -20      151      344      537      684      764 
     767      679      510      301       82     -129     -315     -451 
    -545     -612     -654     -668     -669     -657     -618     -549 
    -467     -383     -313     -288     -337     -467     -654     -877 
   -1105    -1305    -1460    -1567    -1615    -1594    -1507    -1377 
   -1216    -1047     -881     -722     -581     -468     -387     -361 
    -398     -492     -625     -764     -888     -993    -1086    -1170 
   -1221    -1237    -1239    -1213    -1158    -1096    -1031     -962 
    -896     -831     -764     -697     -639     -602     -600     -646 
    -726     -807     -859     -869     -845     -780     -650     -459 
    -230       16      256      457      614      726      788      795 
     751      668      562      446      328      217       98      -31 
    -156     -265     -361     -459     -545     -592     -581     -491 
    -324      -99      172      471      770     1063     1343     1606 
    1838     2004     2093     2107     2061     1980     1864     1721 
    1564     1395     1235     1121     1073     1111     1237     1399 
    1540     1628     1656     1630     1560     1471     1390     1317 
    1235     1140     1036      926      816      708      600      490 
     361      190      -29     -270     -514     -760    -1005    -1262 
   -1517    -1738    -1907    -2016    -2079    -2120    -2124    -2083 
   -2000    -1876    -1705    -1490    -1225     -916     -573     -217 
      99      325      421      379      234       23     -236     -525 
    -812    -1070    -1277    -1424    -1506    -1506    -1433    -1312 
   -1162    -1011     -869     -731     -579     -398     -199      -10 
     141      228      229      157       47      -74     -202     -341 
    -487     -627     -754     -853     -916     -953     -950     -897 
    -823     -750     -697     -683     -695     -726     -800     -926 
   -1094    -1286    -1475    -1647    -1772    -1831    -1845    -1837 
   -1806    -1750    -1686    -1628    -1563    -1471    -1358    -1237 
   -1128    -1067    -1074    -1154    -1306    -1509    -1761    -2060 
   -2369    -2663    -2936    -3177    -3384    -3551    -3685    -3778 
   -3808    -3753    -3591    -3333    -3026    -2716    -2438    -2232 
   -2124    -2115    -2180    -2274    -2353    -2393    -2386    -2331 
   -2232    -2104    -1958    -1819    -1707    -1606    -1505    -1431 
   -1405    -1441    -1543    -1698    -1887    -2077    -2243    -2369 
   -2436    -2431    -2340    -2151    -1887    -1584    -1267     -962 
    -711     -526     -405     -340     -291     -221     -129      -29 
      78      190      280      352      437      531      646      796 
     959     1104     1213     1277     1298     1281     1208     1080 
     908      710      495      271       37     -207     -463     -735 
   -1031    -1333    -1611    -1825    -1953    -2000    -1984    -1923 
   -1823    -1682    -1495    -1271    -1016     -750     -517     -352 
    -248     -202     -210     -251     -309     -379     -460     -562 
    -679     -773     -816     -774     -634     -437     -225      -29 
     128      229      259      207       63     -153     -413     -662 
    -864    -1000    -1065    -1084    -1069    -1034     -992     -935 
    -864     -823     -811     -814     -834     -873     -932    -1007 
   -1075    -1120    -1107    -1015     -864     -683     -467     -237 
     -18      178      348      477      562      608      612      564 
     461      324      186       72      -21      -93     -120      -98 
     -39       49      152      234      280      289      271      241 
     210      174      137       95       47        4      -45     -109 
    -166     -180     -120        5      144      232      229      137 
     -14     -183     -325     -437     -525     -600     -669     -711 
    -712     -699     -693     -695     -681     -639     -568     -484 
    -411     -370     -375     -429     -523     -645     -764     -858 
    -924     -973    -1020    -1078    -1143    -1202    -1243    -1266 
   -1281    -1286    -1301    -1339    -1383    -1416    -1426    -1405 
   -1345    -1260    -1159    -1036     -877     -689     -499     -337 
    -232     -193     -210     -268     -356     -471     -602     -720 
    -808     -862     -884     -877     -847     -781     -669     -530 
    -376     -228     -118      -51       -5       36      110      225 
     352      459      546      623      669      684      676      638 
     576      506      436      390      375      380      405      430 
     438      434      429      440      481      556      648      741 
     834      919      986     1030     1039     1051     1090     1154 
    1229     1312     1366     1382     1366     1308     1221     1143 
    1102     1098     1121     1151     1154     1123     1081     1036 
     982      942      936      966     1016     1070     1128     1209 
    1308     1402     1468     1497     1501     1499     1499     1495 
    1482     1459     1426     1389     1355     1327     1308     1290 
    1260     1225     1197     1190     1225     1316     1456     1620 
    1786     1949     2098     2219     2308     2365     2374     2346 
    2285     2178     2016     1819     1617     1444     1316     1237 
    1220     1270     1379     1533     1709     1869     1984     2052 
    2079     2065     2014     1944     1872     1807     1740     1661 
    1586     1541     1545     1595     1671     1738     1769     1752 
    1695     1605     1495     1391     1296     1200     1121     1078 
    1065     1086     1151     1260     1390     1522     1652     1753 
    1810     1837     1837     1783     1661     1485     1278     1081 
     931      832      796      815      874      958     1046     1121 
    1188     1247     1297     1332     1355     1370     1375     1387 
    1440     1543     1699     1910     2153     2397     2620     2798 
    2924     3003     3046     3059     3022     2910     2727     2512 
    2305     2119     1948     1784     1647     1560     1509     1480 
    1482     1521     1610     1753     1926     2091     2218     2288 
    2292     2238     2139     2018     1894     1788     1718     1683 
    1683     1703     1709     1676     1609     1512     1402     1314 
    1269     1255     1267     1308     1381     1452     1486     1457 
    1375     1260     1136     1015      903      812      760      745 
     756      777      804      849      916      986     1039     1086 
    1139     1189     1215     1204     1163     1113     1065     1026 
    1007     1013     1057     1138     1236     1328     1408     1476 
    1535     1587     1621     1632     1624     1599     1588     1599 
    1611     1606     1586     1545     1491     1445     1418     1391 
    1366     1350     1343     1354     1389     1433     1487     1564 
    1653     1733     1783     1796     1794     1783     1763     1728 
    1661     1579     1490     1394     1316     1269     1252     1270 
    1305     1340     1371     1404     1453     1509     1545     1551 
    1502     1405     1290     1173     1080     1023      989      962 
     932      903      888      889      895      895      881      847 
     780      680      572      488      459      479      518      546 
     556      561      566      561      542      504      445      370 
     299      244      207      203      244      314      394      480 
     565      641      687      689      660      616      575      546 
     529      535      598      714      850      984     1081     1124 
    1115     1065      985      903      849      837      880      965 
    1048     1094     1093     1046      965      866      757      650 
     564      515      503      510      506      467      395      295 
     172       45      -59     -133     -170     -166     -139     -105 
     -78      -62      -47      -31        1       51      101      131 
     147      148      135      112       93       78       74       78 
