Origin Time       2016/04/16 01:25:00
Lat.              32.753
Long.             130.762
Depth. (km)       12
Mag.              7.3
Station Code      OKY014
Station Lat.      34.4462
Station Long.     133.7876
Station Height(m) 49
Record Time       2016/04/16 01:26:43
Sampling Freq(Hz) 100Hz
Duration Time(s)  61
Dir.              E-W
Scale Factor      7845(gal)/8223790
Max. Acc. (gal)   2.140
Last Correction   2016/04/16 01:26:44
Memo.             
[...]
    3037     3121     3184     3208     3180     3095     2960     2799 
    2644     2532     2492     2528     2625     2770     2944     3114 
    3246     3331     3372     3349     3237     3044     2808     2578 
    2397     2293     2270     2326     2466     2677     2918     3144 
    3311     3388     3381     3298     3150     2955     2725     2494 
    2304     2196     2193     2297     2467     2658     2835     2974 
    3078     3163     3226     3252     3223     3129     2990     2853 
    2754     2697     2678     2694     2745     2836     2951     3059 
    3127     3133     3087     3029     2988     2979     2998     3026 
    3045     3025     2961     2889     2839     2814     2808     2808 
    2799     2778     2751     2714     2667     2617     2556     2471 
    2376     2292     2223     2177     2162     2177     2223     2304 
    2409     2529     2659     2768     2830     2840     2798     2720 
    2628     2525     2411     2303     2209     2149     2138     2177 
    2257     2354     2450     2536     2601     2640     2652     2631 
    2567     2452     2290     2104     1927     1796     1733     1738 
    1804     1922     2070     2234     2394     2528     2617     2659 
    2651     2596     2512     2405     2285     2180     2116     2116 
    2187     2311     2459     2606     2735     2826     2872     2863 
    2797     2683     2551     2434     2357     2327     2354     2451 
    2608     2787     2959     3109     3225     3294     3314     3303 
    3273     3249     3240     3240     3234     3222     3211     3208 
    3230     3275     3321     3355     3375     3372     3348     3307 
    3249     3180     3114     3080     3090     3137     3213     3316 
    3433     3554     3669     3754     3797     3792     3740     3657 
    3547     3419     3276     3142     3049     3002     2988     3005 
    3041     3095     3175     3265     3335     3372     3369     3341 
    3291     3207     3096     2975     2859     2764     2708     2685 
    2702     2770     2880     3017     3159     3271     3330     3338 
    3304     3238     3144     3032     2929     2871     2878     2941 
    3065     3246     3458     3672     3861     3993     4055     4043 
    3944     3775     3559     3331     3127     2974     2894     2905 
    2994     3134     3302     3469     3599     3663     3642     3530 
    3365     3184     3009     2859     2745     2677     2674     2739 
    2844     2965     3090     3204     3308     3388     3415     3369 
    3260     3099     2915     2754     2635     2575     2597     2705 
    2902     3175     3480     3778     4052     4271     4406     4433 
    4345     4152     3892     3613     3357     3152     3013     2947 
    2952     3028     3149     3289     3423     3526     3589     3628 
    3640     3626     3605     3580     3544     3510     3481     3458 
    3449     3466     3492     3511     3523     3505     3458     3402 
    3334     3260     3200     3177     3206     3287     3404     3539 
    3667     3770     3828     3834     3770     3636     3465     3281 
    3103     2955     2844     2771     2739     2758     2832     2952 
    3083     3198     3292     3369     3427     3470     3499     3504 
    3484     3426     3325     3210     3102     3011     2953     2922 
    2918     2948     3003     3067     3137     3207     3268     3311 
    3334     3331     3303     3250     3161     3036     2886     2727 
    2584     2473     2401     2388     2421     2481     2552     2619 
    2671     2709     2725     2712     2677     2633     2590     2559 
    2563     2606     2679     2771     2862     2938     3003     3051 
    3068     3067     3059     3034     2988     2928     2862     2799 
    2740     2674     2582     2470     2355     2247     2149     2060 
    1975     1903     1849     1826     1831     1850     1869     1892 
    1937     2010     2107     2219     2327     2415     2463     2459 
    2412     2338     2261     2205     2181     2187     2215     2266 
    2332     2421     2531     2641     2762     2911     3078     3240 
    3395     3537     3651     3740     3793     3800     3770     3705 
    3604     3499     3416     3369     3383     3462     3576     3705 
    3840     3960     4062     4133     4158     4133     4069     3986 
    3912     3871     3861     3878     3909     3950     3982     3982 
    3935     3836     3690     3507     3303     3098     2902     2724 
    2586     2488     2420     2386     2392     2413     2434     2450 
    2448     2417     2351     2238     2081     1914     1769     1676 
    1652     1680     1752     1863     1999     2155     2315     2452 
    2552     2600     2565     2446     2263     2039     1800     1579 
    1393     1246     1150     1120     1154     1240     1356     1471 
    1583     1686     1764     1810     1810     1760     1688     1624 
    1572     1549     1571     1632     1736     1896     2114     2378 
    2666     2940     3175     3353     3465     3520     3539     3539 
    3554     3619     3746     3923     4126     4326     4500     4634 
    4723     4780     4811     4816     4803     4768     4700     4608 
    4507     4395     4263     4116     3971     3867     3819     3828 
    3882     3958     4041     4112     4159     4182     4162     4086 
    3955     3766     3526     3267     3019     2810     2664     2587 
    2563     2579     2639     2743     2884     3042     3196     3327 
    3423     3484     3515     3520     3504     3464     3400     3322 
    3245     3199     3206     3265     3373     3503     3630     3742 
    3825     3883     3929     3974     4028     4102     4187     4258 
    4305     4313     4278     4217     4149     4090     4060     4052 
    4043     4021     3975     3916     3869     3819     3738     3634 
    3527     3427     3352     3295     3249     3215     3184     3141 
    3073     2979     2852     2706     2559     2416     2300     2232 
    2208     2215     2245     2259     2245     2220     2203     2199 
    2211     2223     2232     2254     2288     2331     2392     2463 
    2540     2612     2655     2660     2644     2624     2614     2631 
    2656     2671     2664     2635     2584     2520     2444     2365 
    2308     2299     2335     2419     2544     2688     2821     2928 
    3013     3083     3148     3206     3245     3262     3253     3210 
    3154     3088     3009     2924     2840     2754     2668     2602 
    2577     2593     2646     2721     2806     2886     2936     2949 
    2936     2901     2875     2872     2871     2875     2901     2960 
    3063     3213     3407     3623     3825     3984     4082     4107 
    4041     3879     3639     3354     3061     2787     2562     2401 
    2315     2313     2403     2571     2792     3033     3256     3427 
    3527     3551     3510     3427     3334     3249     3172     3109 
    3055     2998     2933     2855     2759     2636     2485     2311 
    2135     1977     1873     1854     1934     2092     2299     2509 
    2682     2808     2875     2876     2830     2758     2664     2571 
    2505     2479     2488     2511     2533     2551     2558     2554 
    2539     2506     2455     2397     2347     2327     2361     2455 
    2609     2802     3006     3190     3322     3395     3407     3358 
    3267     3156     3021     2872     2721     2582     2471     2417 
    2435     2515     2636     2774     2911     3034     3121     3153 
    3137     3083     3001     2924     2882     2887     2947     3055 
    3168     3245     3280     3280     3249     3184     3080     2948 
    2801     2655     2529     2439     2389     2384     2423     2484 
    2539     2578     2589     2562     2497     2403     2290     2180 
    2083     2008     1961     1935     1921     1933     2001     2139 
    2338     2573     2802     3006     3184     3326     3407     3431 
    3412     3355     3254     3121     2974     2844     2762     2733 
    2758     2830     2938     3080     3246     3412     3546     3615 
    3620     3586     3549     3524     3511     3505     3505     3539 
    3624     3751     3894     4033     4128     4143     4066     3902 
    3677     3422     3163     2917     2698     2521     2411     2382 
    2413     2461     2502     2515     2481     2403     2305     2203 
    2092     1979     1871     1776     1705     1658     1641     1642 
    1653     1677     1725     1790     1852     1895     1912     1904 
    1858     1776     1671     1557     1456     1385     1368     1412 
    1485     1552     1598     1629     1642     1641     1648     1661 
    1663     1649     1613     1544     1445     1332     1206     1069 
     943      853      816      855      963     1105     1252     1390 
    1522     1658     1794     1922     2039     2146     2255     2374 
    2488     2571     2604     2584     2536     2494     2488     2532 
    2631     2771     2933     3105     3272     3426     3555     3638 
    3645     3563     3411     3206     2986     2779     2582     2385 
    2208     2088     2056     2121     2282     2505     2745     2974 
    3175     3336     3445     3477     3426     3302     3129     2938 
    2768     2636     2552     2529     2555     2604     2656     2678 
    2655     2594     2502     2392     2293     2212     2124     2030 
    1927     1804     1672     1554     1463     1399     1364     1344 
    1329     1314     1289     1252     1227     1213     1197     1179 
    1169     1158     1136     1102     1059     1015      978      957 
     953      965      984      994      997     1009     1047     1112 
    1188     1264     1331     1378     1408     1421     1437     1478 
    1570     1702     1845     1980     2085     2153     2195     2220 
    2243     2278     2319     2363     2412     2451     2481     2501 
    2513     2532     2569     2614     2658     2697     2721     2725 
    2690     2614     2525     2438     2349     2254     2149     2034 
    1919     1837     1802     1803     1833     1865     1884     1908 
    1956     2026     2119     2222     2319     2408     2474     2502 
    2496     2450     2371     2284     2196     2120     2062     2033 
    2038     2079     2151     2239     2362     2523     2683     2805 
    2866     2871     2847     2817     2766     2664     2517     2349 
    2184     2064     2007     2022     2123     2288     2479     2679 
    2855     2978     3041     3046     2998     2915     2818     2721 
    2646     2604     2610     2674     2789     2943     3115     3284 
    3426     3532     3608     3649     3645     3593     3497     3375 
    3254     3138     3003     2852     2698     2556     2454     2408 
    2409     2439     2471     2477     2447     2401     2376     2407 
    2500     2629     2764     2871     2918     2903     2837     2728 
    2596     2469     2363     2297     2280     2309     2380     2486 
    2616     2744     2843     2893     2882     2829     2756     2674 
    2597     2532     2481     2451     2444     2440     2434     2435 
    2451     2479     2521     2573     2621     2651     2656     2654 
    2650     2643     2632     2613     2590     2569     2536     2493 
    2442     2392     2338     2266     2157     2026     1898     1783 
    1713     1694     1719     1809     1973     2192     2425     2632 
    2774     2828     2787     2678     2533     2398     2304     2272 
    2309     2404     2525     2667     2821     2975     3119     3242 
    3327     3372     3387     3379     3343     3283     3196     3083 
    2965     2878     2833     2833     2870     2926     2994     3076 
    3164     3256     3358     3453     3518     3549     3537     3478 
    3384     3272     3172     3111     3106     3154     3235     3323 
    3402     3461     3495     3503     3497     3480     3450     3422 
    3388     3335     3275     3232     3218     3230     3262     3303 
    3350     3393     3407     3392     3353     3294     3227     3172 
    3138     3137     3167     3213     3262     3303     3326     3333 
    3334     3339     3349     3354     3341     3317     3303     3300 
    3302     3312     3335     3364     3387     3400     3400     3376 
    3321     3232     3115     2988     2874     2770     2675     2594 
    2543     2555     2643     2790     2972     3161     3325     3434 
    3476     3447     3352     3198     3009     2820     2663     2555 
    2501     2511     2584     2716     2882     3045     3171     3234 
    3221     3130     2978     2785     2574     2376     2220     2115 
    2070     2095     2182     2324     2500     2679     2840     2961 
    3024     3022     2967     2855     2685     2497     2336     2231 
    2185     2188     2234     2338     2508     2733     2983     3226 
    3434     3576     3655     3684     3667     3607     3511     3415 
    3339     3296     3296     3354     3469     3624     3815     4031 
    4245     4437     4590     4680     4692     4626     4502     4360 
    4233     4128     4043     3977     3924     3879     3858     3870 
    3890     3897     3880     3840     3785     3715     3628     3550 
    3492     3451     3438     3473     3557     3670     3790     3902 
    3984     4036     4083     4136     4200     4275     4352     4431 
    4514     4592     4672     4753     4827     4892     4942     4968 
    4977     4985     5005     5043     5096     5131     5131     5096 
    5032     4946     4850     4745     4630     4500     4353     4199 
    4069     3977     3920     3909     3946     4008     4095     4200 
    4303     4374     4393     4380     4352     4320     4286     4247 
    4187     4097     3987     3886     3812     3778     3781     3800 
    3824     3854     3878     3888     3882     3858     3807     3727 
    3615     3483     3348     3221     3109     3022     2971     2961 
    2991     3036     3075     3086     3057     3001     2936     2880 
    2847     2829     2806     2766     2705     2631     2559     2505 
    2479     2482     2513     2558     2593     2608     2604     2589 
    2573     2560     2560     2571     2593     2627     2666     2708 
    2745     2772     2791     2806     2809     2790     2748     2697 
    2656     2639     2652     2698     2758     2810     2857     2909 
    2961     3006     3053     3102     3146     3179     3179     3142 
    3082     3013     2955     2915     2898     2906     2947     3022 
    3130     3249     3354     3431     3474     3484     3456     3397 
    3316     3211     3090     2971     2871     2809     2776     2767 
    2778     2805     2844     2896     2951     3007     3071     3133 
    3187     3234     3271     3306     3345     3392     3449     3508 
    3566     3624     3672     3707     3727     3726     3704     3680 
    3665     3659     3663     3665     3653     3632     3596     3555 
    3532     3539     3580     3649     3716     3757     3771     3761 
    3726     3680     3639     3628     3670     3769     3928     4136 
    4368     4594     4776     4893     4932     4891     4799     4691 
    4588     4496     4425     4386     4374     4392     4452     4540 
    4619     4671     4699     4706     4691     4675     4662     4644 
    4606     4546     4456     4349     4247     4155     4077     4014 
    3959     3909     3878     3870     3888     3929     3981     4023 
    4054     4067     4036     3960     3834     3672     3511     3376 
    3267     3191     3168     3204     3291     3415     3561     3697 
    3800     3856     3859     3808     3713     3599     3497     3426 
    3384     3379     3416     3484     3561     3619     3626     3573 
    3474     3349     3225     3126     3063     3032     3017     3011 
    3019     3037     3042     3029     2995     2934     2870     2817 
    2764     2701     2627     2555     2504     2475     2463     2467 
    2479     2479     2461     2423     2357     2265     2166     2070 
    1987     1930     1908     1923     1968     2034     2107     2174 
    2236     2299     2357     2394     2386     2334     2258     2178 
    2111     2066     2053     2072     2111     2151     2184     2214 
    2253     2292     2323     2349     2367     2376     2370     2338 
    2270     2172     2060     1958     1891     1858     1857     1881 
    1930     2010     2110     2218     2311     2361     2359     2319 
    2258     2187     2115     2056     2007     1960     1930     1935 
    1973     2046     2160     2301     2463     2641     2820     2965 
    3049     3055     2986     2863     2731     2616     2527     2465 
    2438     2440     2470     2524     2598     2682     2759     2820 
    2847     2837     2795     2729     2644     2554     2481     2450 
    2466     2515     2560     2587     2601     2606     2606     2598 
    2579     2543     2485     2421     2371     2354     2371     2396 
    2409     2413     2411     2398     2396     2411     2442     2478 
    2520     2563     2596     2616     2632     2648     2664     2683 
    2713     2751     2792     2841     2880     2902     2918     2936 
    2944     2944     2929     2891     2833     2775     2747     2778 
    2875     3017     3184     3355     3501     3605     3674     3715 
    3734     3731     3719     3704     3678     3645     3609     3576 
    3547     3528     3523     3537     3561     3581     3585     3580 
    3572     3559     3559     3581     3612     3653     3711     3770 
    3828     3878     3909     3921     3904     3842     3747     3646 
    3554     3472     3410     3375     3368     3383     3403     3410 
    3393     3348     3277     3194     3103     3003     2909     2821 
    2736     2660     2598     2550     2513     2484     2451     2413 
    2367     2309     2243     2174     2124     2104     2107     2143 
    2214     2300     2386     2458     2509     2532     2520     2479 
    2404     2292     2157     2020     1898     1799     1725     1672 
    1645     1645     1665     1692     1709     1709     1687     1647 
    1598     1557     1520     1474     1425     1370     1296     1215 
    1142     1084     1047     1035     1047     1078     1111     1136 
    1143     1129     1107     1080     1051     1031     1016     1008 
    1011     1015     1016     1012      999      984      977      981 
     986      996     1015     1026     1023     1008      984      955 
     935      934      954      990     1044     1117     1192     1250 
    1282     1282     1254     1227     1212     1215     1240     1291 
    1377     1489     1614     1742     1854     1934     1987     2010 
    2012     2020     2049     2083     2098     2093     2070     2038 
    2008     1988     1987     2008     2052     2110     2187     2281 
    2373     2451     2512     2555     2583     2601     2604     2590 
    2570     2555     2560     2601     2682     2794     2929     3065 
    3186     3283     3352     3388     3403     3396     3380     3365 
    3362     3379     3418     3458     3476     3470     3451     3426 
    3407     3411     3438     3484     3551     3632     3713     3781 
    3823     3828     3816     3797     3780     3770     3759     3742 
