Origin Time       2016/04/16 01:25:00
Lat.              32.753
Long.             130.762
Depth. (km)       12
Mag.              7.3
Station Code      OKY002
Station Lat.      35.1787
Station Long.     134.0500
Station Height(m) 229
Record Time       2016/04/16 01:27:03
Sampling Freq(Hz) 100Hz
Duration Time(s)  60
Dir.              E-W
Scale Factor      7845(gal)/8223790
Max. Acc. (gal)   2.142
Last Correction   2016/04/16 01:27:03
Memo.             
[...]
     803      807      814      814      804      801      805      801 
     784      772      764      739      710      692      670      629 
     579      540      508      491      491      506      522      535 
     564      599      626      656      699      745      787      824 
     866      907      939      965      990     1011     1036     1065 
    1084     1093     1107     1123     1135     1146     1152     1158 
    1163     1170     1182     1194     1210     1233     1258     1282 
    1310     1331     1344     1355     1356     1347     1340     1345 
    1360     1382     1410     1447     1476     1499     1522     1534 
    1528     1509     1490     1475     1460     1452     1447     1436 
    1429     1424     1414     1397     1379     1363     1331     1301 
    1278     1243     1201     1161     1119     1080     1053     1036 
    1013      987      970      957      940      924      913      903 
     897      897      899      903      909      913      916      918 
     913      903      889      881      873      868      864      853 
     838      837      837      838      842      846      853      870 
     888      889      888      892      884      857      826      787 
     730      675      618      542      467      390      299      207 
     114        1     -124     -248     -380     -525     -665     -789 
    -911    -1028    -1124    -1204    -1275    -1318    -1324    -1314 
   -1297    -1267    -1232    -1196    -1147    -1094    -1051    -1013 
    -973     -931     -886     -843     -796     -731     -658     -594 
    -526     -461     -399     -338     -279     -243     -218     -190 
    -174     -178     -180     -159     -129     -110      -85      -52 
     -39      -31      -18      -28      -62      -97     -139     -209 
    -289     -372     -464     -560     -645     -722     -791     -847 
    -889     -924     -955     -977     -990     -996     -994     -990 
    -989     -997    -1004    -1000     -992     -976     -959     -943 
    -919     -886     -847     -795     -731     -661     -579     -491 
    -402     -306     -210     -114      -14       78      155      224 
     283      328      363      398      432      454      480      500 
     508      506      503      496      481      463      449      415 
     369      337      309      266      228      202      180      163 
     153      148      147      148      152      160      171      191 
     212      230      252      282      314      349      398      454 
     514      579      656      743      828      900      963     1026 
    1085     1131     1161     1179     1179     1166     1158     1147 
    1121     1090     1073     1062     1044     1042     1057     1062 
    1053     1057     1067     1062     1047     1039     1035     1034 
    1026     1016     1012     1000      986      967      953      947 
     950      950      945      939      935      923      907      888 
     872      857      849      845      835      819      818      837 
     859      877      893      916      943      966      994     1016 
    1019     1024     1043     1044     1026     1024     1034     1031 
    1011      986      958      915      870      823      754      687 
     645      611      576      556      553      540      525      522 
     526      538      546      557      581      614      641      664 
     684      711      741      765      789      824      859      895 
     943     1007     1084     1174     1271     1366     1456     1549 
    1642     1729     1819     1904     1973     2033     2079     2097 
    2091     2070     2037     1975     1895     1806     1706     1597 
    1487     1377     1259     1138     1023      928      849      787 
     746      726      714      712      728      757      785      816 
     858      905      957     1011     1067     1123     1174     1219 
    1259     1291     1333     1387     1444     1503     1574     1647 
    1709     1773     1845     1912     1972     2029     2072     2091 
    2091     2085     2068     2030     1985     1945     1902     1856 
    1817     1779     1734     1699     1680     1668     1661     1663 
    1674     1691     1706     1723     1737     1752     1772     1796 
    1819     1840     1858     1871     1884     1906     1933     1965 
    2006     2047     2084     2111     2134     2141     2134     2110 
    2060     1996     1926     1852     1779     1710     1649     1598 
    1548     1501     1463     1429     1390     1350     1316     1278 
    1232     1185     1129     1060      989      926      861      795 
     735      677      625      577      529      476      417      348 
     268      183       89        2      -55     -109     -159     -191 
    -217     -237     -255     -274     -297     -329     -365     -403 
    -444     -479     -498     -502     -500     -493     -479     -461 
    -437     -403     -364     -324     -287     -256     -225     -193 
    -160     -129      -95      -67      -51      -47      -54      -67 
     -86     -121     -168     -216     -265     -322     -376     -427 
    -486     -546     -594     -629     -665     -696     -715     -727 
    -731     -718     -692     -649     -592     -526     -457     -383 
    -311     -252     -199     -137      -74      -16       40      108 
     178      234      294      363      425      481      542      599 
     646      692      741      783      816      850      870      861 
     842      824      780      718      660      589      517      454 
     383      321      270      206      128       52      -18      -87 
    -152     -205     -236     -248     -261     -265     -252     -241 
    -236     -228     -207     -175     -135      -86      -29       35 
     110      194      276      344      407      472      525      562 
     585      596      598      585      575      572      564      545 
     531      526      519      513      502      472      433      386 
     333      276      203      129       67       13      -28      -49 
     -72      -99     -110     -112     -117     -125     -141     -163 
    -182     -205     -236     -276     -332     -395     -444     -483 
    -521     -545     -565     -594     -616     -633     -650     -662 
    -669     -666     -653     -637     -610     -575     -550     -531 
    -517     -511     -508     -500     -493     -493     -492     -477 
    -469     -464     -446     -434     -429     -418     -407     -396 
    -379     -360     -341     -318     -287     -255     -225     -198 
    -167     -135      -98      -51        0       55      128      212 
     303      400      503      596      675      743      812      869 
     903      932      963      974      966      947      911      858 
     797      731      654      575      498      429      368      319 
     287      266      251      245      245      232      211      193 
     168      137      108       74       37        9      -14      -35 
     -51      -70      -91     -122     -162     -207     -263     -326 
    -392     -464     -532     -595     -657     -723     -783     -834 
    -881     -926     -970    -1015    -1046    -1059    -1062    -1057 
   -1044    -1031    -1023    -1020    -1026    -1042    -1065    -1094 
   -1128    -1167    -1202    -1233    -1264    -1297    -1339    -1377 
   -1395    -1421    -1462    -1476    -1464    -1472    -1502    -1502 
   -1485    -1485    -1490    -1487    -1480    -1467    -1449    -1421 
   -1386    -1345    -1305    -1264    -1223    -1179    -1127    -1078 
   -1042     -997     -943     -895     -858     -832     -805     -778 
    -778     -812     -842     -854     -874     -907     -915     -889 
    -851     -820     -784     -739     -700     -675     -660     -657 
    -668     -684     -692     -697     -691     -658     -607     -544 
    -457     -351     -237     -135      -39       56      143      220 
     299      373      434      480      498      487      459      409 
     344      278      217      166      121       97       90       81 
      71       70       63       47       27        4      -21      -49 
     -78     -105     -133     -153     -157     -166     -184     -193 
    -193     -190     -182     -167     -144     -122     -102      -71 
     -43      -31      -13       10       25       32       47       44 
      21        0      -10      -21      -45      -72      -91     -122 
    -162     -191     -221     -253     -283     -307     -332     -359 
    -383     -411     -446     -488     -532     -576     -618     -660 
    -697     -724     -745     -769     -784     -791     -807     -824 
    -827     -814     -793     -760     -710     -653     -596     -537 
    -472     -411     -355     -288     -212     -149      -98      -47 
      -8        9       13       29       44       36       31       39 
      49       52       37       16        0      -23      -63      -95 
    -122     -157     -193     -221     -240     -259     -289     -310 
    -329     -364     -411     -461     -499     -540     -592     -635 
    -669     -712     -757     -796     -835     -874     -908     -931 
    -946     -953     -934     -881     -823     -777     -731     -679 
    -625     -581     -540     -490     -438     -386     -330     -265 
    -184     -102      -32       32      106      175      240      307 
     373      425      454      479      521      553      553      571 
     606      576      526      553      592      550      503      526 
     566      571      579      618      661      699      720      733 
     757      777      773      753      724      708      693      637 
     579      576      589      583      564      573      621      665 
     683      707      764      815      822      808      808      808 
     793      766      734      722      731      738      749      757 
     735      707      681      639      606      577      540      513 
     506      525      556      585      631      707      781      834 
     884      940      989     1019     1047     1088     1112     1104 
    1089     1080     1065     1047     1023     1000      978      947 
     912      892      880      855      835      828      824      824 
     832      847      861      872      903      954      994     1020 
    1053     1096     1125     1152     1188     1217     1232     1237 
    1242     1244     1239     1227     1213     1215     1229     1240 
    1237     1228     1221     1213     1205     1197     1190     1183 
    1175     1181     1204     1228     1266     1325     1386     1435 
    1480     1537     1587     1609     1624     1641     1652     1651 
    1636     1613     1582     1545     1513     1487     1466     1449 
    1433     1420     1405     1379     1340     1305     1277     1247 
    1215     1190     1177     1156     1139     1135     1131     1117 
    1109     1104     1100     1094     1088     1086     1090     1086 
    1070     1060     1058     1039     1008      967      926      873 
     814      766      726      657      565      481      409      333 
     259      197      143       85       21      -32      -59      -78 
     -97      -95     -102     -152     -193     -187     -211     -292 
    -344     -348     -364     -402     -423     -429     -425     -411 
    -391     -355     -301     -245     -183     -109      -39       35 
      94      125      162      206      224      225      240      263 
     307      348      359      370      425      493      521      526 
     560      598      602      589      576      561      537      514 
     508      508      503      513      526      533      546      560 
     558      552      556      577      596      594      598      630 
     652      643      648      670      675      668      687      720 
     753      784      814      837      838      818      801      788 
     758      715      666      619      576      531      492      464 
     446      446      467      506      552      588      621      652 
     666      665      668      676      677      677      689      722 
     761      804      868      943     1015     1081     1148     1224 
    1296     1358     1424     1499     1567     1622     1684     1748 
    1803     1846     1880     1921     1960     1984     2007     2037 
    2053     2056     2065     2070     2057     2037     2015     1981 
    1941     1894     1844     1796     1749     1709     1669     1624 
    1576     1524     1463     1410     1366     1317     1282     1277 
    1277     1274     1294     1339     1382     1413     1447     1482 
    1503     1509     1509     1509     1507     1503     1506     1526 
    1553     1576     1594     1613     1630     1644     1656     1665 
    1674     1680     1683     1686     1690     1687     1679     1667 
    1641     1610     1591     1572     1541     1507     1470     1440 
    1418     1397     1385     1377     1367     1366     1378     1397 
    1416     1424     1428     1436     1449     1451     1447     1452 
    1453     1444     1435     1429     1422     1410     1395     1382 
    1370     1352     1343     1355     1362     1351     1351     1372 
    1394     1397     1417     1470     1478     1439     1476     1574 
    1593     1568     1632     1742     1804     1852     1933     2023 
    2119     2208     2280     2354     2425     2481     2529     2579 
    2627     2675     2691     2678     2679     2686     2663     2606 
    2533     2482     2448     2384     2297     2243     2222     2184 
    2120     2070     2049     2029     1989     1944     1907     1881 
    1848     1800     1760     1722     1688     1655     1613     1576 
    1553     1522     1491     1482     1478     1460     1441     1433 
    1428     1420     1408     1402     1405     1408     1397     1389 
    1389     1387     1381     1374     1372     1367     1356     1347 
    1340     1333     1324     1316     1305     1285     1264     1251 
    1236     1213     1181     1159     1147     1131     1117     1119 
    1124     1123     1120     1129     1142     1142     1136     1136 
    1135     1123     1104     1085     1074     1065     1043     1020 
    1007      984      953      932      918      895      868      843 
     818      776      719      664      610      544      467      402 
     356      317      280      255      240      230      230      236 
     245      244      228      211      195      174      155      139 
     129      125      118      118      128      141      148      156 
     180      199      203      205      207      199      174      148 
     129      116       99       86       87       90       89       91 
     112      141      160      183      222      265      303      333 
     360      390      410      419      442      473      491      498 
     510      525      537      549      569      603      637      664 
     688      715      731      724      712      692      649      603 
     556      503      446      383      333      305      259      198 
     159      139      101       54       21        2      -13      -52 
     -99     -133     -170     -210     -245     -282     -303     -301 
    -322     -370     -349     -271     -270     -330     -319     -259 
    -263     -299     -297     -287     -271     -244     -230     -222 
    -202     -183     -172     -174     -166     -131     -118     -131 
    -114      -72      -55      -70      -91      -81      -45      -72 
    -149     -175     -155     -178     -261     -305     -288     -299 
    -337     -352     -349     -340     -333     -321     -289     -248 
    -210     -175     -143     -108      -56      -18       -2       18 
      49       74       78       62       64       89       95       81 
      72       91      108       90       75       91       98       75 
      58       64       75       72       70       76       86       85 
      74       67       58       41       28       25       32       49 
      76      110      143      183      222      251      268      283 
     287      282      280      276      263      256      246      230 
     212      203      198      182      162      140      110       68 
      25      -17      -63     -110     -157     -194     -217     -246 
    -280     -298     -305     -317     -330     -330     -325     -337 
    -349     -356     -373     -399     -425     -451     -487     -526 
    -558     -584     -622     -662     -692     -711     -728     -737 
    -738     -734     -719     -706     -697     -688     -673     -666 
    -672     -673     -675     -687     -695     -691     -689     -695 
    -695     -681     -679     -691     -700     -704     -710     -722 
    -734     -739     -751     -769     -776     -773     -774     -791 
    -804     -811     -824     -847     -873     -888     -912     -951 
    -985    -1005    -1026    -1053    -1077    -1086    -1100    -1123 
   -1140    -1146    -1152    -1156    -1148    -1133    -1121    -1113 
   -1104    -1080    -1053    -1030    -1000     -962     -920     -877 
    -828     -770     -711     -660     -603     -535     -476     -434 
    -398     -361     -330     -309     -292     -272     -257     -261 
    -266     -263     -266     -283     -299     -309     -325     -351 
    -373     -383     -392     -406     -414     -419     -425     -423 
    -403     -376     -360     -342     -309     -271     -232     -193 
    -159     -117      -60      -14       17       60      105      131 
     137      139      149      153      144      149      178      209 
     230      259      301      342      382      415      450      481 
     504      525      535      540      544      542      533      523 
     511      513      530      552      572      598      634      669 
     697      720      738      747      741      728      720      706 
     672      641      629      621      599      576      573      572 
     549      532      537      531      510      498      502      506 
     503      508      525      531      530      533      540      540 
     533      530      538      544      544      564      594      619 
     643      670      697      727      747      761      780      792 
     785      785      800      804      789      770      762      760 
     747      737      741      747      746      754      770      778 
     780      785      803      807      795      793      801      791 
     762      743      735      724      711      702      707      715 
     715      720      723      720      711      696      683      668 
     643      621      602      595      600      614      633      654 
     669      687      707      715      714      722      731      738 
     743      754      778      800      811      823      838      847 
     851      849      850      849      838      832      838      842 
     837      830      830      832      830      826      826      820 
     810      800      787      772      758      746      734      727 
     723      715      715      722      722      723      731      741 
     745      733      722      720      718      719      724      724 
     720      715      712      707      695      680      669      656 
