Origin Time       2016/04/16 01:25:00
Lat.              32.753
Long.             130.762
Depth. (km)       12
Mag.              7.3
Station Code      OKY008
Station Lat.      34.8701
Station Long.     133.9036
Station Height(m) 62
Record Time       2016/04/16 01:26:53
Sampling Freq(Hz) 100Hz
Duration Time(s)  65
Dir.              N-S
Scale Factor      7845(gal)/8223790
Max. Acc. (gal)   2.361
Last Correction   2016/04/16 01:26:54
Memo.             
[...]
    4989     4974     4958     4946     4930     4911     4891     4880 
    4905     4965     5022     5077     5130     5150     5136     5112 
    5082     5046     5016     5001     4989     4956     4918     4897 
    4868     4830     4799     4756     4702     4668     4657     4650 
    4648     4665     4695     4725     4761     4800     4818     4810 
    4804     4800     4780     4768     4772     4768     4765     4774 
    4777     4768     4760     4750     4734     4727     4735     4753 
    4776     4812     4862     4922     4982     5040     5093     5134 
    5144     5128     5103     5058     4997     4951     4916     4878 
    4860     4860     4843     4811     4787     4764     4726     4698 
    4691     4687     4687     4699     4708     4706     4703     4693 
    4676     4656     4631     4611     4594     4579     4577     4587 
    4598     4618     4656     4689     4718     4747     4770     4788 
    4810     4839     4887     4955     5046     5152     5252     5324 
    5377     5418     5433     5420     5401     5368     5309     5258 
    5229     5189     5159     5157     5138     5107     5086     5067 
    5036     4992     4939     4895     4864     4864     4893     4934 
    4976     5015     5026     5003     4969     4943     4926     4923 
    4953     5000     5047     5090     5117     5123     5108     5076 
    5032     4992     4953     4927     4918     4911     4918     4938 
    4954     4961     4965     4966     4963     4950     4930     4915 
    4903     4896     4901     4908     4908     4909     4909     4893 
    4882     4891     4895     4897     4923     4956     4984     5015 
    5042     5049     5042     5031     5019     5004     4994     4999 
    5005     4994     4963     4920     4862     4796     4734     4680 
    4634     4600     4592     4604     4627     4658     4692     4716 
    4733     4748     4770     4793     4819     4854     4885     4903 
    4923     4943     4954     4965     4970     4959     4935     4908 
    4870     4816     4760     4712     4673     4648     4635     4637 
    4645     4649     4652     4656     4649     4641     4641     4637 
    4627     4625     4619     4599     4572     4552     4537     4527 
    4541     4573     4604     4633     4668     4695     4703     4706 
    4712     4714     4716     4735     4765     4796     4833     4864 
    4880     4891     4901     4899     4869     4827     4781     4727 
    4677     4646     4630     4630     4654     4707     4758     4780 
    4773     4745     4698     4645     4600     4576     4575     4602 
    4654     4708     4747     4779     4800     4812     4826     4838 
    4838     4830     4830     4850     4882     4908     4916     4903 
    4869     4810     4730     4644     4556     4484     4450     4440 
    4446     4480     4522     4550     4588     4641     4681     4718 
    4756     4776     4787     4804     4814     4812     4796     4770 
    4731     4671     4604     4550     4515     4500     4496     4504 
    4514     4507     4495     4483     4452     4419     4399     4388 
    4387     4410     4455     4514     4592     4679     4750     4806 
    4846     4868     4868     4865     4885     4922     4961     5001 
    5039     5062     5073     5085     5089     5065     5031     5009 
    4986     4961     4950     4942     4922     4911     4916     4908 
    4887     4868     4841     4818     4819     4839     4877     4927 
    4972     5015     5043     5042     5023     4986     4931     4884 
    4852     4819     4797     4806     4830     4860     4888     4920 
    4959     4986     5004     5027     5039     5038     5044     5046 
    5027     4989     4942     4881     4814     4765     4742     4738 
    4760     4814     4873     4928     4988     5046     5090     5121 
    5138     5138     5127     5107     5080     5042     4988     4926 
    4858     4789     4720     4661     4626     4614     4623     4661 
    4703     4737     4776     4814     4826     4823     4823     4814 
    4801     4808     4823     4839     4869     4900     4912     4900 
    4862     4807     4737     4660     4599     4556     4525     4540 
    4592     4642     4699     4760     4808     4851     4891     4916 
    4928     4931     4935     4938     4927     4901     4862     4803 
    4738     4680     4635     4600     4577     4564     4563     4579 
    4606     4641     4684     4734     4788     4839     4864     4866 
    4860     4842     4814     4779     4742     4702     4649     4602 
    4573     4553     4541     4538     4531     4523     4523     4521 
    4500     4471     4450     4436     4428     4433     4446     4461 
    4484     4511     4533     4558     4588     4606     4622     4639 
    4648     4649     4645     4638     4650     4688     4737     4795 
    4852     4882     4889     4889     4873     4839     4800     4762 
    4739     4739     4761     4800     4842     4870     4892     4893 
    4868     4834     4800     4762     4738     4739     4761     4801 
    4858     4916     4963     5003     5027     5032     5026     5023 
    5020     5020     5031     5058     5100     5140     5182     5233 
    5279     5312     5328     5337     5346     5351     5360     5385 
    5417     5460     5512     5549     5563     5560     5543     5499 
    5448     5429     5429     5436     5462     5489     5485     5463 
    5440     5404     5348     5285     5211     5123     5046     4986 
    4935     4892     4857     4835     4822     4808     4814     4846 
    4892     4949     5027     5123     5233     5360     5466     5526 
    5545     5509     5431     5346     5267     5209     5193     5216 
    5275     5362     5443     5498     5530     5529     5501     5464 
    5428     5395     5379     5387     5406     5417     5431     5452 
    5462     5451     5427     5393     5355     5328     5317     5321 
    5344     5404     5483     5560     5617     5634     5611     5549 
    5460     5375     5312     5279     5286     5325     5393     5479 
    5562     5620     5644     5633     5598     5551     5491     5437 
    5401     5371     5354     5351     5339     5317     5304     5285 
    5239     5186     5146     5103     5057     5027     5027     5051 
    5090     5139     5174     5182     5175     5152     5120     5097 
    5098     5120     5155     5205     5255     5297     5331     5333 
    5296     5235     5150     5036     4932     4841     4758     4710 
    4696     4691     4699     4715     4720     4716     4708     4683 
    4645     4625     4626     4634     4654     4696     4753     4807 
    4855     4893     4897     4870     4834     4785     4733     4700 
    4699     4730     4776     4819     4842     4831     4808     4791 
    4760     4714     4669     4627     4590     4575     4583     4587 
    4584     4571     4541     4502     4455     4403     4363     4329 
    4305     4305     4302     4282     4266     4247     4205     4159 
    4121     4086     4051     4024     4002     3971     3935     3901 
    3856     3800     3754     3723     3696     3685     3697     3721 
    3755     3796     3831     3856     3879     3913     3955     3989 
    4012     4029     4028     4006     3981     3939     3875     3820 
    3782     3748     3723     3715     3719     3747     3792     3828 
    3855     3861     3840     3811     3784     3744     3705     3681 
    3647     3608     3581     3553     3511     3480     3454     3429 
    3407     3391     3365     3327     3283     3235     3183     3130 
    3087     3045     3001     2959     2922     2891     2870     2863 
    2860     2840     2805     2762     2706     2644     2602     2584 
    2587     2619     2671     2733     2806     2876     2933     2991 
    3051     3109     3172     3242     3322     3404     3472     3523 
    3572     3613     3661     3730     3808     3898     4001     4106 
    4223     4341     4438     4540     4646     4733     4807     4882 
    4954     5027     5116     5213     5313     5408     5485     5551 
    5610     5664     5719     5779     5837     5890     5940     5985 
    6015     6038     6057     6056     6056     6079     6104     6129 
    6156     6165     6154     6135     6087     5995     5884     5767 
    5643     5525     5422     5346     5298     5271     5271     5301 
    5341     5400     5467     5501     5532     5603     5667     5692 
    5719     5753     5776     5811     5834     5805     5779     5776 
    5730     5653     5614     5599     5567     5535     5535     5539 
    5510     5459     5408     5366     5328     5302     5304     5324 
    5348     5370     5390     5408     5409     5390     5366     5324 
    5247     5151     5047     4920     4783     4675     4594     4509 
    4436     4391     4353     4320     4310     4314     4318     4342 
    4399     4464     4538     4627     4712     4785     4854     4915 
    4959     5001     5047     5093     5138     5178     5221     5256 
    5267     5244     5202     5140     5055     4976     4909     4855 
    4838     4860     4911     4985     5057     5111     5144     5136 
    5092     5030     4943     4860     4814     4788     4776     4797 
    4830     4861     4900     4928     4920     4887     4845     4792 
    4734     4698     4695     4712     4734     4756     4761     4729 
    4666     4591     4502     4411     4347     4307     4298     4325 
    4387     4483     4602     4714     4822     4922     4989     5054 
    5147     5243     5360     5535     5727     5919     6115     6301 
    6453     6564     6635     6677     6701     6710     6718     6725 
    6724     6717     6704     6666     6604     6542     6471     6382 
    6305     6250     6189     6139     6115     6089     6057     6027 
    5989     5940     5887     5823     5744     5649     5543     5432 
    5323     5212     5103     5005     4918     4846     4797     4756 
    4707     4660     4617     4575     4540     4514     4491     4464 
    4431     4398     4367     4330     4289     4263     4237     4210 
    4199     4203     4210     4225     4260     4313     4374     4449 
    4537     4618     4698     4785     4864     4928     4996     5053 
    5093     5142     5204     5246     5256     5244     5209     5155 
    5100     5055     5016     4970     4908     4841     4768     4684 
    4595     4507     4414     4330     4274     4238     4210     4190 
    4182     4182     4189     4225     4283     4347     4419     4506 
    4592     4681     4777     4873     4956     5026     5084     5124 
    5139     5143     5134     5112     5090     5082     5086     5098 
    5136     5186     5235     5279     5294     5255     5177     5062 
    4920     4774     4622     4469     4352     4256     4185     4159 
    4171     4202     4240     4268     4275     4260     4233     4199 
    4163     4133     4113     4095     4071     4036     3993     3916 
    3798     3673     3544     3414     3316     3252     3194     3164 
    3157     3153     3140     3107     3063     3011     2947     2880 
    2840     2826     2843     2902     2991     3080     3160     3222 
    3232     3198     3148     3105     3075     3075     3109     3167 
    3237     3314     3392     3458     3497     3520     3534     3516 
    3484     3466     3454     3445     3462     3496     3532     3589 
    3666     3742     3807     3865     3913     3948     3993     4058 
    4122     4185     4243     4295     4342     4376     4367     4322 
    4256     4171     4088     4023     3969     3939     3927     3908 
    3889     3890     3899     3901     3908     3932     3956     3969 
    3982     3993     3997     4009     4036     4055     4059     4047 
    4012     3964     3916     3879     3866     3855     3851     3861 
    3873     3897     3927     3920     3946     4036     4077     4087 
    4153     4174     4155     4159     4114     4071     4063     3978 
    3861     3815     3784     3719     3696     3721     3738     3798 
    3886     3944     4012     4085     4144     4232     4321     4410 
    4546     4669     4731     4799     4861     4880     4877     4850 
    4787     4727     4668     4577     4483     4405     4318     4233 
    4162     4091     4023     3971     3943     3921     3894     3892 
    3925     3965     4017     4097     4176     4237     4305     4365 
    4391     4386     4380     4387     4417     4475     4549     4635 
    4726     4784     4811     4818     4799     4776     4764     4745 
    4727     4731     4741     4757     4795     4847     4903     4961 
    5023     5078     5120     5155     5188     5217     5251     5300 
    5355     5413     5481     5552     5607     5641     5682     5724 
    5765     5827     5898     5958     6018     6070     6097     6103 
    6092     6072     6042     6000     5940     5868     5776     5665 
    5552     5445     5347     5258     5182     5120     5063     5015 
    4984     4958     4932     4918     4918     4916     4911     4916 
    4914     4881     4837     4797     4756     4720     4710     4719 
    4745     4806     4889     4968     5050     5131     5188     5232 
    5271     5300     5320     5339     5356     5386     5443     5521 
    5625     5753     5894     6042     6196     6351     6497     6620 
    6727     6832     6939     7049     7163     7257     7319     7353 
    7353     7323     7277     7223     7168     7115     7063     7018 
    6984     6952     6918     6883     6845     6802     6741     6655 
    6554     6440     6313     6181     6057     5945     5844     5757 
    5672     5571     5458     5339     5217     5100     4994     4920 
    4887     4896     4966     5081     5219     5377     5541     5694 
    5831     5942     6023     6075     6093     6081     6050     6014 
    5989     5973     5961     5948     5927     5896     5859     5822 
    5792     5773     5776     5811     5883     5976     6077     6178 
    6252     6299     6336     6356     6358     6351     6331     6301 
    6284     6264     6241     6224     6201     6162     6104     6027 
    5934     5834     5744     5663     5585     5519     5463     5404 
    5352     5309     5259     5223     5216     5223     5242     5289 
    5355     5421     5481     5526     5556     5572     5583     5585 
    5582     5583     5599     5628     5674     5736     5809     5875 
    5934     5996     6070     6166     6278     6393     6523     6650 
    6748     6829     6880     6886     6863     6815     6748     6667 
    6588     6525     6480     6444     6430     6421     6405     6400 
    6400     6380     6350     6323     6284     6238     6204     6174 
    6126     6083     6060     6029     5995     5981     5976     5984 
    6026     6088     6162     6254     6342     6403     6439     6455 
    6463     6459     6440     6424     6411     6396     6389     6392 
    6385     6374     6372     6366     6359     6361     6363     6366 
    6370     6367     6363     6361     6353     6339     6328     6312 
    6285     6269     6265     6259     6259     6280     6303     6323 
    6356     6389     6399     6400     6407     6404     6392     6382 
    6373     6373     6400     6439     6478     6520     6546     6561 
    6578     6588     6583     6579     6562     6521     6485     6463 
    6446     6431     6423     6401     6370     6340     6311     6288 
    6288     6312     6355     6421     6509     6602     6697     6794 
    6881     6949     6990     7002     6993     6960     6890     6810 
    6736     6648     6574     6527     6463     6399     6351     6292 
    6219     6166     6120     6070     6033     6003     5965     5935 
    5922     5910     5898     5895     5886     5861     5833     5798 
    5767     5757     5757     5775     5818     5869     5917     5968 
    6016     6048     6064     6076     6072     6050     6021     5977 
    5921     5864     5815     5760     5701     5632     5540     5432 
    5324     5213     5112     5027     4955     4908     4877     4851 
    4849     4861     4862     4866     4882     4884     4877     4880 
    4880     4881     4903     4930     4954     4981     5005     5020 
    5027     5034     5066     5117     5159     5188     5206     5208 
    5209     5227     5250     5260     5263     5266     5259     5248 
    5252     5262     5265     5266     5266     5267     5266     5258 
    5250     5239     5223     5228     5256     5279     5312     5370 
    5431     5490     5563     5621     5649     5668     5682     5684 
    5688     5705     5706     5676     5620     5524     5387     5220 
    5022     4808     4610     4426     4268     4147     4055     3984 
    3943     3915     3882     3842     3807     3759     3704     3681 
    3707     3762     3859     3989     4121     4248     4371     4476 
    4554     4618     4675     4714     4742     4785     4824     4839 
    4845     4835     4796     4739     4661     4552     4429     4317 
    4225     4151     4087     4047     4024     4002     3990     3990 
    3983     3970     3960     3946     3923     3917     3932     3962 
    4012     4069     4124     4178     4228     4279     4347     4423 
    4506     4592     4677     4747     4784     4781     4743     4669 
    4568     4472     4382     4310     4260     4214     4162     4098 
    4008     3889     3762     3640     3538     3477     3465     3510 
    3612     3757     3932     4117     4291     4450     4584     4688 
    4783     4878     4984     5104     5225     5343     5455     5539 
    5579     5583     5549     5495     5451     5424     5417     5429 
    5440     5439     5421     5379     5302     5186     5046     4895 
    4722     4529     4349     4205     4107     4063     4058     4068 
    4074     4078     4086     4093     4105     4129     4156     4190 
    4236     4287     4342     4391     4417     4418     4403     4375 
    4344     4329     4337     4363     4402     4449     4495     4530 
    4540     4504     4413     4282     4149     4029     3932     3883 
    3875     3901     3971     4066     4149     4214     4243     4223 
    4171     4093     3993     3899     3832     3790     3765     3732 
    3692     3645     3582     3519     3458     3396     3353     3327 
    3322     3331     3341     3368     3411     3451     3503     3553 
    3582     3595     3591     3589     3604     3642     3712     3793 
    3861     3925     3975     3984     3959     3932     3899     3856 
    3831     3834     3856     3904     3974     4055     4156     4253 
    4325     4372     4398     4405     4402     4390     4374     4360 
    4337     4301     4253     4183     4113     4050     3975     3909 
    3858     3804     3743     3690     3642     3593     3549     3515 
    3487     3465     3438     3407     3381     3366     3362     3372 
    3388     3420     3454     3469     3474     3474     3458     3443 
    3442     3435     3430     3443     3456     3458     3473     3496 
    3501     3492     3489     3487     3480     3483     3496     3501 
    3499     3492     3473     3445     3414     3388     3384     3402 
    3442     3505     3578     3642     3711     3782     3827     3842 
