Origin Time       2016/04/16 01:25:00
Lat.              32.753
Long.             130.762
Depth. (km)       12
Mag.              7.3
Station Code      OKY004
Station Lat.      34.9579
Station Long.     133.5018
Station Height(m) 168
Record Time       2016/04/16 01:26:47
Sampling Freq(Hz) 100Hz
Duration Time(s)  69
Dir.              N-S
Scale Factor      7845(gal)/8223790
Max. Acc. (gal)   2.667
Last Correction   2016/04/16 01:26:48
Memo.             
[...]
   -8820    -8795    -8775    -8742    -8687    -8602    -8490    -8376 
   -8294    -8256    -8263    -8319    -8421    -8557    -8707    -8854 
   -8970    -9022    -8992    -8887    -8729    -8553    -8398    -8303 
   -8276    -8298    -8333    -8363    -8380    -8382    -8382    -8384 
   -8375    -8349    -8324    -8313    -8314    -8329    -8355    -8376 
   -8368    -8337    -8283    -8202    -8124    -8081    -8064    -8073 
   -8106    -8143    -8175    -8205    -8241    -8286    -8330    -8349 
   -8344    -8324    -8298    -8294    -8326    -8371    -8418    -8483 
   -8540    -8579    -8595    -8588    -8573    -8563    -8553    -8529 
   -8476    -8390    -8281    -8177    -8106    -8081    -8105    -8175 
   -8274    -8376    -8474    -8540    -8546    -8486    -8372    -8229 
   -8082    -7950    -7825    -7711    -7628    -7588    -7589    -7639 
   -7736    -7874    -8047    -8230    -8394    -8513    -8575    -8586 
   -8561    -8515    -8451    -8380    -8324    -8283    -8247    -8212 
   -8191    -8194    -8235    -8319    -8437    -8568    -8700    -8820 
   -8911    -8954    -8927    -8810    -8604    -8344    -8097    -7927 
   -7862    -7902    -8032    -8215    -8414    -8615    -8795    -8935 
   -9026    -9051    -8991    -8845    -8633    -8379    -8139    -7962 
   -7875    -7878    -7948    -8046    -8137    -8209    -8256    -8289 
   -8318    -8336    -8340    -8332    -8305    -8257    -8205    -8159 
   -8118    -8090    -8090    -8111    -8141    -8182    -8241    -8305 
   -8365    -8414    -8436    -8436    -8434    -8436    -8451    -8482 
   -8525    -8576    -8641    -8721    -8806    -8881    -8924    -8922 
   -8876    -8792    -8687    -8573    -8444    -8309    -8186    -8087 
   -8023    -8001    -8023    -8086    -8189    -8316    -8444    -8568 
   -8661    -8702    -8695    -8667    -8625    -8581    -8540    -8471 
   -8375    -8278    -8190    -8139    -8139    -8174    -8212    -8244 
   -8266    -8280    -8328    -8426    -8550    -8669    -8764    -8795 
   -8760    -8699    -8621    -8530    -8451    -8380    -8311    -8248 
   -8186    -8122    -8082    -8093    -8170    -8295    -8441    -8577 
   -8672    -8718    -8731    -8734    -8737    -8725    -8680    -8606 
   -8525    -8467    -8449    -8482    -8549    -8615    -8660    -8680 
   -8673    -8648    -8608    -8549    -8480    -8413    -8357    -8329 
   -8341    -8378    -8418    -8461    -8499    -8523    -8529    -8509 
   -8464    -8421    -8385    -8387    -8440    -8513    -8586    -8649 
   -8688    -8699    -8688    -8657    -8596    -8527    -8467    -8430 
   -8421    -8437    -8477    -8537    -8606    -8668    -8718    -8746 
   -8749    -8735    -8721    -8721    -8727    -8729    -8727    -8711 
   -8687    -8687    -8725    -8791    -8868    -8927    -8939    -8892 
   -8806    -8716    -8658    -8641    -8657    -8692    -8743    -8808 
   -8878    -8953    -9012    -9034    -9011    -8937    -8823    -8688 
   -8543    -8397    -8267    -8158    -8078    -8039    -8035    -8071 
   -8139    -8228    -8318    -8406    -8463    -8477    -8469    -8449 
   -8424    -8401    -8368    -8324    -8294    -8276    -8275    -8286 
   -8291    -8286    -8279    -8275    -8271    -8252    -8228    -8213 
   -8205    -8203    -8215    -8235    -8237    -8217    -8189    -8164 
   -8147    -8147    -8163    -8175    -8176    -8172    -8166    -8162 
   -8154    -8139    -8129    -8131    -8143    -8158    -8176    -8186 
   -8176    -8152    -8111    -8063    -8028    -8019    -8043    -8101 
   -8195    -8328    -8480    -8606    -8668    -8652    -8560    -8410 
   -8235    -8070    -7943    -7870    -7852    -7879    -7942    -8014 
   -8094    -8187    -8260    -8299    -8310    -8286    -8237    -8185 
   -8141    -8106    -8083    -8059    -8023    -7981    -7947    -7933 
   -7933    -7935    -7931    -7908    -7881    -7878    -7905    -7947 
   -7986    -8010    -8019    -8023    -8024    -8031    -8035    -8031 
   -8013    -7978    -7936    -7903    -7877    -7844    -7803    -7744 
   -7676    -7608    -7558    -7531    -7527    -7539    -7545    -7515 
   -7439    -7329    -7219    -7145    -7118    -7132    -7168    -7218 
   -7261    -7288    -7302    -7307    -7302    -7291    -7272    -7236 
   -7183    -7123    -7069    -7037    -7044    -7089    -7159    -7229 
   -7277    -7304    -7322    -7344    -7403    -7515    -7657    -7804 
   -7936    -8032    -8090    -8113    -8094    -8032    -7942    -7835 
   -7728    -7636    -7578    -7576    -7628    -7727    -7859    -7993 
   -8098    -8155    -8151    -8093    -8005    -7916    -7839    -7784 
   -7759    -7767    -7803    -7859    -7936    -8032    -8137    -8248 
   -8355    -8441    -8496    -8523    -8532    -8537    -8560    -8612 
   -8688    -8776    -8858    -8919    -8972    -9038    -9115    -9185 
   -9239    -9263    -9246    -9204    -9154    -9101    -9050    -9016 
   -8988    -8954    -8922    -8901    -8907    -8951    -9038    -9175 
   -9354    -9540    -9702    -9818    -9883    -9902    -9888    -9850 
   -9803    -9771    -9778    -9828    -9919   -10038   -10166   -10288 
  -10393   -10485   -10569   -10640   -10694   -10729   -10740   -10721 
  -10669   -10582   -10466   -10328   -10195   -10081    -9994    -9945 
   -9933    -9949    -9992   -10049   -10093   -10112   -10095   -10038 
   -9954    -9852    -9740    -9640    -9563    -9502    -9443    -9379 
   -9321    -9269    -9212    -9147    -9069    -8981    -8891    -8802 
   -8730    -8683    -8658    -8649    -8648    -8648    -8649    -8661 
   -8700    -8773    -8872    -8985    -9092    -9175    -9229    -9267 
   -9296    -9315    -9322    -9304    -9231    -9104    -8945    -8772 
   -8630    -8577    -8623    -8734    -8857    -8951    -8996    -9009 
   -9026    -9057    -9099    -9126    -9107    -9036    -8935    -8830 
   -8752    -8727    -8758    -8820    -8880    -8920    -8934    -8931 
   -8943    -8989    -9069    -9180    -9320    -9468    -9622    -9774 
   -9884    -9940    -9945    -9899    -9801    -9678    -9563    -9466 
   -9396    -9360    -9351    -9352    -9355    -9346    -9316    -9270 
   -9223    -9198    -9209    -9244    -9282    -9302    -9296    -9277 
   -9254    -9234    -9229    -9225    -9207    -9165    -9104    -9049 
   -9024    -9061    -9159    -9294    -9435    -9555    -9624    -9626 
   -9560    -9431    -9240    -9018    -8792    -8588    -8430    -8337 
   -8299    -8305    -8333    -8356    -8360    -8352    -8338    -8322 
   -8317    -8309    -8280    -8220    -8135    -8050    -7971    -7894 
   -7824    -7753    -7670    -7593    -7539    -7503    -7462    -7392 
   -7285    -7175    -7099    -7078    -7106    -7159    -7210    -7245 
   -7276    -7325    -7414    -7545    -7688    -7807    -7877    -7888 
   -7854    -7794    -7731    -7678    -7635    -7603    -7577    -7551 
   -7518    -7485    -7457    -7427    -7403    -7387    -7373    -7368 
   -7377    -7385    -7384    -7377    -7365    -7348    -7326    -7296 
   -7229    -7110    -6959    -6825    -6751    -6755    -6835    -6961 
   -7094    -7206    -7296    -7357    -7384    -7384    -7346    -7261 
   -7164    -7091    -7067    -7107    -7207    -7331    -7450    -7550 
   -7616    -7646    -7651    -7651    -7650    -7638    -7616    -7586 
   -7560    -7561    -7607    -7693    -7809    -7915    -7962    -7931 
   -7827    -7680    -7545    -7465    -7462    -7546    -7703    -7894 
   -8094    -8279    -8421    -8507    -8533    -8510    -8441    -8332 
   -8179    -8001    -7835    -7723    -7693    -7743    -7851    -7955 
   -8013    -8027    -8012    -7998    -8020    -8077    -8132    -8154 
   -8131    -8062    -7954    -7834    -7732    -7657    -7616    -7612 
   -7647    -7712    -7801    -7915    -8051    -8194    -8328    -8441 
   -8540    -8626    -8700    -8775    -8856    -8961    -9112    -9316 
   -9560    -9829   -10095   -10322   -10490   -10580   -10569   -10461 
  -10288   -10087    -9896    -9738    -9620    -9539    -9501    -9510 
   -9576    -9698    -9853   -10015   -10149   -10235   -10274   -10265 
  -10207   -10108    -9977    -9823    -9637    -9424    -9208    -9028 
   -8926    -8929    -9035    -9207    -9394    -9559    -9678    -9742 
   -9748    -9697    -9587    -9428    -9221    -8985    -8762    -8606 
   -8545    -8583    -8698    -8843    -8977    -9078    -9157    -9217 
   -9274    -9354    -9462    -9585    -9702    -9786    -9819    -9796 
   -9711    -9570    -9398    -9204    -8996    -8793    -8606    -8444 
   -8333    -8293    -8336    -8469    -8658    -8853    -9012    -9107 
   -9124    -9082    -9000    -8900    -8802    -8721    -8665    -8625 
   -8596    -8569    -8520    -8437    -8311    -8155    -7989    -7838 
   -7719    -7643    -7614    -7632    -7699    -7793    -7890    -7973 
   -8006    -7969    -7870    -7731    -7576    -7461    -7437    -7506 
   -7659    -7878    -8116    -8322    -8479    -8567    -8565    -8480 
   -8334    -8148    -7948    -7767    -7635    -7564    -7548    -7588 
   -7665    -7777    -7919    -8062    -8190    -8305    -8401    -8472 
   -8510    -8507    -8479    -8454    -8451    -8472    -8520    -8603 
   -8733    -8908    -9109    -9308    -9477    -9612    -9725    -9799 
   -9825    -9792    -9688    -9529    -9350    -9180    -9049    -8966 
   -8911    -8858    -8800    -8742    -8703    -8706    -8734    -8769 
   -8808    -8849    -8877    -8892    -8895    -8869    -8807    -8737 
   -8691    -8685    -8723    -8792    -8878    -8972    -9043    -9080 
   -9096    -9111    -9137    -9180    -9240    -9315    -9390    -9454 
   -9505    -9533    -9545    -9553    -9562    -9559    -9536    -9485 
   -9405    -9319    -9254    -9239    -9288    -9387    -9510    -9613 
   -9651    -9620    -9545    -9452    -9362    -9285    -9192    -9063 
   -8931    -8830    -8792    -8827    -8920    -9019    -9089    -9116 
   -9097    -9045    -8978    -8919    -8884    -8873    -8858    -8806 
   -8707    -8595    -8509    -8469    -8482    -8527    -8559    -8540 
   -8479    -8398    -8330    -8301    -8314    -8348    -8391    -8453 
   -8526    -8581    -8599    -8569    -8502    -8421    -8351    -8302 
   -8267    -8222    -8155    -8056    -7935    -7819    -7734    -7692 
   -7707    -7770    -7838    -7886    -7911    -7905    -7884    -7875 
   -7875    -7859    -7808    -7720    -7604    -7488    -7418    -7414 
   -7454    -7512    -7568    -7626    -7690    -7767    -7860    -7963 
   -8055    -8124    -8172    -8203    -8210    -8195    -8164    -8121 
   -8078    -8059    -8067    -8111    -8199    -8303    -8384    -8433 
   -8459    -8472    -8477    -8461    -8411    -8333    -8239    -8139 
   -8066    -8040    -8067    -8141    -8241    -8344    -8421    -8444 
   -8424    -8376    -8319    -8281    -8267    -8271    -8278    -8270 
   -8241    -8214    -8224    -8274    -8343    -8411    -8464    -8490 
   -8487    -8467    -8436    -8371    -8260    -8094    -7875    -7611 
   -7321    -7047    -6837    -6721    -6704    -6782    -6939    -7149 
   -7391    -7641    -7857    -7986    -8004    -7906    -7711    -7447 
   -7167    -6917    -6727    -6612    -6589    -6654    -6804    -7011 
   -7233    -7434    -7591    -7678    -7699    -7685    -7657    -7634 
   -7639    -7680    -7731    -7766    -7755    -7684    -7570    -7443 
   -7339    -7287    -7295    -7350    -7435    -7527    -7609    -7684 
   -7777    -7900    -8039    -8176    -8280    -8326    -8305    -8225 
   -8108    -7985    -7889    -7840    -7842    -7869    -7894    -7890 
   -7840    -7750    -7642    -7541    -7470    -7442    -7469    -7561 
   -7692    -7840    -7989    -8108    -8171    -8181    -8151    -8106 
   -8070    -8033    -7985    -7912    -7801    -7672    -7558    -7476 
   -7446    -7484    -7572    -7674    -7765    -7823    -7839    -7834 
   -7851    -7919    -8033    -8164    -8275    -8337    -8338    -8286 
   -8193    -8062    -7901    -7727    -7558    -7403    -7257    -7119 
   -7002    -6924    -6894    -6913    -6967    -7033    -7094    -7129 
   -7125    -7089    -7037    -6979    -6932    -6899    -6864    -6821 
   -6779    -6744    -6713    -6697    -6689    -6669    -6625    -6556 
   -6448    -6308    -6172    -6075    -6054    -6122    -6264    -6451 
   -6633    -6759    -6822    -6829    -6782    -6717    -6658    -6625 
   -6639    -6711    -6835    -6998    -7190    -7406    -7636    -7839 
   -7982    -8043    -8013    -7920    -7809    -7709    -7618    -7519 
   -7408    -7285    -7160    -7056    -6990    -6959    -6941    -6916 
   -6881    -6847    -6809    -6782    -6764    -6741    -6714    -6694 
   -6689    -6686    -6679    -6666    -6647    -6628    -6615    -6600 
   -6571    -6508    -6392    -6235    -6064    -5914    -5833    -5838 
   -5914    -6034    -6166    -6292    -6405    -6494    -6555    -6586 
   -6574    -6511    -6396    -6228    -6023    -5821    -5671    -5609 
   -5647    -5768    -5942    -6122    -6252    -6316    -6334    -6330 
   -6323    -6322    -6288    -6192    -6049    -5895    -5759    -5672 
   -5653    -5679    -5729    -5788    -5844    -5890    -5940    -6023 
   -6165    -6356    -6566    -6755    -6889    -6951    -6937    -6856 
   -6737    -6582    -6385    -6165    -5946    -5765    -5656    -5637 
   -5705    -5833    -5979    -6104    -6186    -6226    -6237    -6238 
   -6241    -6241    -6216    -6151    -6046    -5915    -5776    -5648 
   -5567    -5560    -5634    -5787    -5992    -6211    -6405    -6555 
   -6660    -6739    -6804    -6845    -6871    -6886    -6886    -6881 
   -6898    -6943    -7013    -7096    -7167    -7218    -7258    -7284 
   -7306    -7337    -7388    -7465    -7562    -7659    -7739    -7788 
   -7804    -7812    -7839    -7893    -7971    -8064    -8148    -8213 
   -8256    -8291    -8352    -8460    -8590    -8703    -8764    -8750 
   -8672    -8576    -8503    -8480    -8506    -8550    -8594    -8637 
   -8694    -8796    -8958    -9163    -9400    -9633    -9814    -9923 
   -9971    -9963    -9900    -9802    -9676    -9528    -9378    -9242 
   -9120    -9018    -8943    -8915    -8947    -9040    -9173    -9304 
   -9396    -9423    -9398    -9348    -9302    -9271    -9248    -9209 
   -9137    -9043    -8942    -8850    -8808    -8829    -8889    -8962 
   -8999    -8953    -8824    -8648    -8476    -8361    -8318    -8314 
   -8313    -8298    -8267    -8239    -8245    -8294    -8371    -8459 
   -8537    -8584    -8584    -8533    -8447    -8348    -8245    -8151 
   -8082    -8055    -8073    -8131    -8217    -8303    -8365    -8404 
   -8428    -8456    -8533    -8680    -8868    -9069    -9220    -9267 
   -9201    -9058    -8901    -8785    -8726    -8721    -8761    -8830 
   -8935    -9089    -9289    -9514    -9721    -9852    -9894    -9860 
   -9771    -9670    -9582    -9509    -9454    -9433    -9454    -9528 
   -9647    -9775    -9871    -9918    -9909    -9841    -9732    -9612 
   -9518    -9485    -9509    -9572    -9643    -9688    -9703    -9701 
   -9699    -9699    -9701    -9697    -9675    -9629    -9576    -9533 
   -9509    -9512    -9544    -9607    -9703    -9825    -9952   -10048 
  -10079   -10049    -9981    -9899    -9825    -9779    -9752    -9720 
   -9679    -9616    -9521    -9404    -9275    -9155    -9062    -8997 
   -8949    -8896    -8834    -8769    -8727    -8729    -8787    -8899 
   -9032    -9155    -9250    -9320    -9375    -9429    -9495    -9560 
   -9598    -9602    -9568    -9497    -9398    -9282    -9169    -9077 
   -9032    -9035    -9063    -9094    -9124    -9157    -9201    -9259 
   -9329    -9402    -9468    -9530    -9586    -9601    -9553    -9452 
   -9306    -9142    -8999    -8896    -8845    -8856    -8938    -9076 
   -9248    -9424    -9563    -9664    -9724    -9736    -9705    -9648 
   -9574    -9482    -9375    -9256    -9142    -9043    -8977    -8942 
   -8928    -8926    -8919    -8914    -8919    -8942    -8974    -9007 
   -9020    -9007    -8978    -8950    -8912    -8846    -8737    -8584 
   -8407    -8230    -8093    -8023    -8017    -8059    -8136    -8236 
   -8356    -8487    -8615    -8735    -8846    -8938    -8986    -8968 
   -8878    -8749    -8622    -8540    -8517    -8563    -8655    -8770 
   -8887    -8995    -9078    -9139    -9188    -9220    -9227    -9196 
   -9115    -8981    -8824    -8681    -8594    -8594    -8667    -8787 
   -8934    -9061    -9139    -9180    -9197    -9200    -9186    -9147 
   -9071    -8955    -8822    -8704    -8633    -8638    -8723    -8854 
   -8996    -9124    -9220    -9296    -9375    -9477    -9594    -9714 
   -9810    -9863    -9875    -9865    -9847    -9830    -9817    -9809 
   -9795    -9765    -9725    -9675    -9606    -9520    -9445    -9405 
   -9400    -9428    -9482    -9535    -9579    -9617    -9633    -9624 
   -9612    -9617    -9656    -9734    -9830    -9910    -9956    -9946 
   -9890    -9825    -9775    -9756    -9782    -9837    -9899    -9954 
   -9995   -10021   -10044   -10068   -10093   -10115   -10123   -10111 
  -10069   -10000    -9922    -9864    -9837    -9825    -9815    -9792 
   -9742    -9679    -9626    -9612    -9649    -9736    -9841    -9940 
  -10010   -10030   -10003    -9950    -9891    -9837    -9804    -9801 
   -9821    -9860    -9922   -10000   -10076   -10138   -10176   -10166 
  -10111   -10035    -9960    -9906    -9891    -9907    -9936    -9967 
  -10000   -10037   -10064   -10075   -10077   -10064   -10038   -10008 
   -9969    -9929    -9895    -9859    -9822    -9798    -9798    -9826 
   -9879    -9937    -9977    -9998   -10017   -10052   -10104   -10169 
  -10224   -10254   -10265   -10269   -10276   -10287   -10291   -10262 
  -10197   -10111   -10018    -9941    -9910    -9922    -9950    -9968 
   -9950    -9880    -9778    -9672    -9595    -9572    -9614    -9702 
   -9809    -9907    -9972    -9996    -9988    -9972    -9973    -9998 
  -10034   -10062   -10061   -10019    -9946    -9865    -9798    -9756 
   -9732    -9702    -9660    -9603    -9535    -9475    -9432    -9400 
   -9375    -9344    -9297    -9240    -9193    -9182    -9223    -9293 
   -9367    -9435    -9479    -9506    -9520    -9514    -9490    -9454 
   -9418    -9390    -9360    -9310    -9235    -9144    -9069    -9034 
   -9032    -9055    -9074    -9055    -8995    -8905    -8795    -8675 
   -8565    -8490    -8440    -8403    -8376    -8352    -8319    -8278 
   -8241    -8217    -8203    -8198    -8195    -8193    -8182    -8175 
   -8177    -8194    -8241    -8322    -8413    -8490    -8527    -8517 
   -8471    -8394    -8303    -8221    -8136    -8037    -7931    -7823 
   -7723    -7654    -7619    -7611    -7612    -7605    -7577    -7528 
   -7473    -7449    -7482    -7560    -7645    -7717    -7751    -7743 
   -7723    -7717    -7726    -7743    -7758    -7744    -7696    -7634 
   -7574    -7520    -7488    -7479    -7482    -7495    -7515    -7538 
   -7543    -7519    -7462    -7391    -7317    -7250    -7198    -7150 
   -7106    -7078    -7064    -7060    -7068    -7078    -7078    -7067 
   -7047    -7026    -7033    -7071    -7126    -7184    -7225    -7238 
   -7241    -7250    -7267    -7283    -7296    -7288    -7257    -7209 
   -7150    -7101    -7072    -7067    -7079    -7114    -7153    -7180 
