Origin Time       2016/04/16 01:25:00
Lat.              32.753
Long.             130.762
Depth. (km)       12
Mag.              7.3
Station Code      OKY012
Station Lat.      34.5893
Station Long.     133.7545
Station Height(m) 3
Record Time       2016/04/16 01:26:09
Sampling Freq(Hz) 100Hz
Duration Time(s)  116
Dir.              N-S
Scale Factor      7845(gal)/8223790
Max. Acc. (gal)   6.169
Last Correction   2016/04/16 01:26:09
Memo.             
[...]
   -7184    -7167    -7159    -7142    -7107    -7076    -7047    -6990 
   -6918    -6860    -6799    -6735    -6696    -6696    -6739    -6820 
   -6924    -7042    -7157    -7252    -7337    -7391    -7395    -7371 
   -7329    -7258    -7182    -7107    -7026    -6945    -6876    -6826 
   -6795    -6786    -6802    -6841    -6903    -6990    -7080    -7141 
   -7173    -7173    -7142    -7089    -7038    -7001    -6971    -6955 
   -6956    -6940    -6902    -6859    -6809    -6756    -6697    -6629 
   -6543    -6438    -6346    -6303    -6301    -6332    -6396    -6480 
   -6569    -6659    -6743    -6809    -6862    -6917    -6982    -7037 
   -7063    -7065    -7047    -7001    -6959    -6934    -6894    -6833 
   -6798    -6787    -6748    -6681    -6617    -6548    -6485    -6462 
   -6474    -6512    -6575    -6655    -6744    -6810    -6835    -6855 
   -6878    -6909    -6949    -6966    -6945    -6909    -6867    -6818 
   -6774    -6752    -6750    -6764    -6812    -6866    -6913    -6970 
   -7028    -7079    -7127    -7144    -7098    -6995    -6853    -6710 
   -6592    -6471    -6354    -6277    -6214    -6118    -6023    -5950 
   -5880    -5850    -5880    -5929    -5988    -6070    -6168    -6269 
   -6374    -6478    -6550    -6582    -6586    -6556    -6505    -6426 
   -6297    -6180    -6087    -5979    -5902    -5857    -5806    -5793 
   -5829    -5856    -5864    -5883    -5937    -6015    -6099    -6180 
   -6247    -6308    -6361    -6400    -6427    -6442    -6471    -6551 
   -6655    -6766    -6872    -6963    -7125    -7362    -7543    -7655 
   -7769    -7944    -8162    -8302    -8368    -8434    -8540    -8680 
   -8753    -8753    -8734    -8687    -8665    -8655    -8564    -8349 
   -8066    -7881    -7751    -7470    -7149    -6914    -6705    -6525 
   -6350    -6142    -5945    -5782    -5644    -5539    -5487    -5436 
   -5346    -5327    -5359    -5347    -5366    -5398    -5404    -5491 
   -5603    -5601    -5564    -5571    -5590    -5660    -5767    -5860 
   -5995    -6180    -6340    -6489    -6647    -6814    -7009    -7203 
   -7345    -7423    -7492    -7555    -7599    -7659    -7690    -7650 
   -7601    -7548    -7452    -7357    -7288    -7214    -7144    -7096 
   -7056    -7005    -6929    -6828    -6744    -6725    -6728    -6682 
   -6621    -6569    -6515    -6497    -6484    -6432    -6420    -6462 
   -6535    -6642    -6735    -6782    -6843    -6961    -7056    -7032 
   -6987    -6993    -7009    -7032    -7034    -7020    -7049    -7114 
   -7177    -7203    -7126    -6972    -6878    -6876    -6826    -6691 
   -6569    -6507    -6504    -6474    -6389    -6340    -6361    -6458 
   -6564    -6583    -6582    -6629    -6710    -6812    -6847    -6768 
   -6720    -6801    -6829    -6713    -6620    -6574    -6575    -6619 
   -6524    -6386    -6389    -6442    -6531    -6646    -6652    -6667 
   -6825    -6929    -6872    -6832    -6821    -6752    -6643    -6436 
   -6191    -6011    -5838    -5707    -5647    -5559    -5485    -5494 
   -5535    -5572    -5649    -5806    -5998    -6153    -6277    -6404 
   -6559    -6705    -6775    -6791    -6813    -6812    -6750    -6650 
   -6559    -6494    -6454    -6439    -6430    -6421    -6444    -6524 
   -6643    -6763    -6875    -6987    -7089    -7168    -7198    -7188 
   -7187    -7200    -7211    -7217    -7194    -7169    -7188    -7211 
   -7218    -7261    -7310    -7322    -7321    -7304    -7260    -7240 
   -7253    -7249    -7238    -7234    -7213    -7184    -7122    -6998 
   -6844    -6677    -6497    -6315    -6130    -5977    -5894    -5836 
   -5775    -5753    -5775    -5825    -5927    -6069    -6203    -6330 
   -6465    -6590    -6675    -6741    -6843    -6972    -7087    -7186 
   -7267    -7314    -7327    -7325    -7335    -7360    -7389    -7441 
   -7495    -7528    -7565    -7614    -7654    -7680    -7681    -7655 
   -7607    -7531    -7443    -7357    -7253    -7118    -6971    -6814 
   -6633    -6459    -6335    -6237    -6139    -6050    -5975    -5911 
   -5846    -5787    -5805    -5902    -6014    -6145    -6305    -6465 
   -6646    -6859    -7047    -7203    -7373    -7538    -7657    -7701 
   -7662    -7616    -7618    -7599    -7548    -7512    -7474    -7461 
   -7500    -7510    -7522    -7622    -7715    -7738    -7765    -7753 
   -7692    -7663    -7604    -7481    -7375    -7249    -7076    -6912 
   -6751    -6583    -6430    -6273    -6112    -5973    -5840    -5719 
   -5679    -5702    -5748    -5836    -5926    -5983    -6060    -6176 
   -6315    -6480    -6654    -6836    -7018    -7148    -7242    -7368 
   -7491    -7572    -7623    -7652    -7684    -7715    -7711    -7722 
   -7767    -7780    -7774    -7809    -7838    -7820    -7792    -7736 
   -7641    -7541    -7433    -7318    -7198    -7032    -6840    -6635 
   -6421    -6251    -6102    -5972    -5907    -5868    -5830    -5826 
   -5850    -5867    -5877    -5914    -5977    -6054    -6135    -6214 
   -6289    -6338    -6424    -6594    -6760    -6886    -7020    -7146 
   -7240    -7325    -7441    -7577    -7723    -7890    -8078    -8267 
   -8421    -8545    -8684    -8802    -8830    -8799    -8733    -8635 
   -8510    -8336    -8124    -7917    -7711    -7508    -7311    -7098 
   -6891    -6743    -6667    -6625    -6554    -6459    -6419    -6436 
   -6413    -6335    -6288    -6268    -6228    -6195    -6195    -6191 
   -6147    -6124    -6168    -6204    -6196    -6222    -6322    -6404 
   -6401    -6372    -6404    -6512    -6670    -6866    -7049    -7152 
   -7218    -7348    -7504    -7585    -7593    -7593    -7541    -7377 
   -7180    -7030    -6903    -6789    -6714    -6683    -6627    -6508 
   -6448    -6525    -6640    -6731    -6818    -6901    -6970    -7036 
   -7109    -7149    -7114    -7061    -7060    -7036    -6948    -6874 
   -6847    -6826    -6762    -6690    -6694    -6768    -6860    -6968 
   -7105    -7264    -7427    -7570    -7681    -7789    -7905    -7985 
   -8014    -7992    -7900    -7771    -7645    -7495    -7296    -7065 
   -6848    -6663    -6462    -6261    -6137    -6088    -6054    -6025 
   -6015    -6002    -5942    -5863    -5827    -5849    -5921    -6034 
   -6147    -6243    -6316    -6361    -6411    -6477    -6521    -6561 
   -6602    -6612    -6604    -6610    -6655    -6777    -6933    -7060 
   -7209    -7398    -7601    -7851    -8141    -8414    -8668    -8900 
   -9066    -9132    -9104    -9007    -8872    -8737    -8610    -8479 
   -8326    -8155    -8007    -7912    -7874    -7882    -7936    -8032 
   -8131    -8233    -8347    -8401    -8375    -8317    -8212    -8033 
   -7809    -7535    -7211    -6885    -6569    -6270    -5989    -5727 
   -5495    -5283    -5081    -4935    -4888    -4895    -4889    -4880 
   -4900    -4966    -5074    -5197    -5313    -5420    -5493    -5521 
   -5540    -5594    -5701    -5819    -5886    -5884    -5879    -5944 
   -6120    -6393    -6693    -6960    -7194    -7391    -7553    -7726 
   -7923    -8101    -8215    -8268    -8286    -8297    -8311    -8336 
   -8344    -8319    -8253    -8132    -7946    -7716    -7473    -7219 
   -6917    -6571    -6235    -5935    -5680    -5474    -5293    -5142 
   -5063    -5073    -5128    -5190    -5246    -5282    -5278    -5247 
   -5196    -5101    -4963    -4800    -4608    -4390    -4174    -3973 
   -3789    -3632    -3538    -3522    -3561    -3661    -3852    -4121 
   -4433    -4752    -5023    -5232    -5404    -5560    -5718    -5869 
   -5994    -6100    -6178    -6208    -6210    -6222    -6255    -6330 
   -6453    -6609    -6775    -6960    -7179    -7399    -7593    -7769 
   -7911    -7993    -8020    -7992    -7898    -7746    -7542    -7291 
   -7001    -6685    -6381    -6110    -5863    -5655    -5513    -5427 
   -5385    -5386    -5420    -5485    -5590    -5733    -5894    -6062 
   -6255    -6462    -6640    -6774    -6890    -7006    -7113    -7207 
   -7279    -7302    -7272    -7209    -7117    -6995    -6852    -6701 
   -6546    -6394    -6273    -6189    -6139    -6135    -6164    -6172 
   -6143    -6093    -6018    -5915    -5819    -5746    -5682    -5628 
   -5590    -5568    -5559    -5584    -5660    -5755    -5848    -5962 
   -6110    -6270    -6443    -6647    -6880    -7132    -7408    -7722 
   -8033    -8305    -8560    -8802    -9001    -9157    -9262    -9292 
   -9242    -9150    -9043    -8931    -8830    -8766    -8711    -8642 
   -8583    -8542    -8503    -8463    -8428    -8391    -8330    -8243 
   -8137    -8009    -7854    -7690    -7512    -7302    -7080    -6871 
   -6682    -6517    -6372    -6235    -6119    -6026    -5940    -5860 
   -5776    -5701    -5656    -5638    -5634    -5665    -5713    -5751 
   -5807    -5910    -6046    -6223    -6477    -6801    -7142    -7466 
   -7759    -8017    -8245    -8444    -8594    -8699    -8792    -8872 
   -8929    -8977    -9046    -9159    -9294    -9409    -9510    -9616 
   -9710    -9788    -9830    -9803    -9722    -9612    -9451    -9238 
   -8992    -8721    -8414    -8082    -7769    -7497    -7261    -7055 
   -6880    -6741    -6625    -6527    -6465    -6432    -6409    -6382 
   -6350    -6320    -6309    -6309    -6307    -6311    -6361    -6467 
   -6605    -6772    -6976    -7210    -7456    -7697    -7923    -8133 
   -8343    -8563    -8762    -8924    -9082    -9236    -9355    -9443 
   -9524    -9629    -9771    -9938   -10106   -10270   -10416   -10536 
  -10640   -10709   -10720   -10670   -10539   -10331   -10065    -9748 
   -9432    -9146    -8865    -8596    -8356    -8144    -7966    -7797 
   -7643    -7515    -7392    -7276    -7182    -7082    -6971    -6863 
   -6754    -6612    -6415    -6184    -5937    -5660    -5377    -5130 
   -4928    -4781    -4703    -4703    -4780    -4926    -5128    -5391 
   -5697    -6023    -6350    -6633    -6862    -7041    -7169    -7256 
   -7312    -7346    -7364    -7358    -7335    -7322    -7315    -7314 
   -7333    -7381    -7458    -7558    -7669    -7766    -7844    -7916 
   -7963    -7974    -7962    -7912    -7797    -7636    -7454    -7240 
   -6994    -6739    -6488    -6231    -5961    -5692    -5455    -5243 
   -5049    -4899    -4803    -4757    -4781    -4870    -4970    -5054 
   -5151    -5281    -5408    -5499    -5567    -5641    -5753    -5918 
   -6142    -6416    -6732    -7080    -7457    -7839    -8221    -8615 
   -8995    -9312    -9567    -9763    -9888    -9936    -9906    -9811 
   -9660    -9475    -9277    -9034    -8730    -8391    -8033    -7685 
   -7366    -7049    -6701    -6335    -5971    -5613    -5275    -4974 
   -4696    -4431    -4205    -4063    -4017    -4050    -4140    -4278 
   -4473    -4716    -4980    -5251    -5510    -5753    -6033    -6342 
   -6619    -6866    -7082    -7242    -7368    -7482    -7591    -7712 
   -7807    -7812    -7746    -7692    -7674    -7609    -7443    -7210 
   -6910    -6548    -6165    -5791    -5467    -5169    -4851    -4568 
   -4364    -4183    -3986    -3805    -3666    -3558    -3520    -3588 
   -3673    -3701    -3711    -3763    -3850    -3923    -4013    -4156 
   -4310    -4463    -4657    -4918    -5219    -5475    -5672    -5904 
   -6189    -6465    -6721    -6943    -7123    -7299    -7506    -7715 
   -7871    -7971    -8044    -8066    -8010    -7903    -7792    -7707 
   -7604    -7453    -7302    -7132    -6893    -6651    -6447    -6235 
   -6003    -5784    -5616    -5526    -5503    -5501    -5510    -5563 
   -5637    -5722    -5842    -5988    -6162    -6343    -6465    -6585 
   -6805    -7098    -7356    -7495    -7508    -7465    -7488    -7560 
   -7539    -7489    -7533    -7618    -7730    -7879    -8055    -8334 
   -8692    -9020    -9329    -9645    -9953   -10284   -10643   -10936 
  -11122   -11302   -11492   -11630   -11688   -11659   -11595   -11507 
  -11265   -10905   -10644   -10405   -10007    -9563    -9174    -8779 
   -8379    -8021    -7674    -7292    -6930    -6615    -6312    -6069 
   -5868    -5636    -5441    -5286    -5066    -4858    -4738    -4614 
   -4483    -4409    -4348    -4270    -4178    -4129    -4151    -4199 
   -4245    -4255    -4322    -4510    -4641    -4739    -4959    -5193 
   -5395    -5676    -6048    -6485    -6963    -7439    -7888    -8316 
   -8750    -9153    -9454    -9691    -9890   -10006   -10038   -10008 
   -9917    -9763    -9551    -9306    -9058    -8793    -8505    -8198 
   -7884    -7560    -7227    -6906    -6600    -6285    -5980    -5711 
   -5462    -5243    -5093    -4999    -4966    -4994    -5069    -5190 
   -5333    -5513    -5764    -6015    -6204    -6363    -6581    -6871 
   -7086    -7203    -7406    -7700    -7979    -8222    -8509    -8895 
   -9292    -9656   -10025   -10341   -10582   -10758   -10768   -10612 
  -10413   -10223    -9960    -9528    -9012    -8564    -8167    -7695 
   -7175    -6770    -6434    -6079    -5848    -5806    -5863    -5965 
   -6081    -6241    -6469    -6667    -6789    -6901    -6994    -7011 
   -6980    -6895    -6698    -6447    -6201    -5925    -5645    -5416 
   -5255    -5154    -5081    -5038    -5062    -5136    -5211    -5262 
   -5298    -5287    -5212    -5135    -5067    -4984    -4923    -4858 
   -4783    -4816    -4928    -5047    -5292    -5628    -5979    -6430 
   -6895    -7295    -7755    -8236    -8657    -9155    -9736   -10230 
  -10675   -11130   -11485   -11812   -12229   -12573   -12815   -13059 
  -13204   -13255   -13275   -13176   -12996   -12775   -12413   -11985 
  -11584   -11105   -10474    -9751    -9028    -8316    -7581    -6871 
   -6219    -5618    -5069    -4584    -4159    -3761    -3400    -3099 
   -2814    -2544    -2331    -2162    -2034    -1956    -1953    -2088 
   -2332    -2605    -2913    -3284    -3709    -4178    -4683    -5209 
   -5730    -6242    -6750    -7222    -7655    -8059    -8414    -8710 
   -8931    -9053    -9086    -9081    -9035    -8972    -8923    -8870 
   -8803    -8726    -8642    -8568    -8473    -8361    -8263    -8160 
   -8046    -7954    -7925    -7956    -7996    -8033    -8083    -8116 
   -8135    -8189    -8274    -8365    -8494    -8633    -8683    -8655 
   -8637    -8653    -8696    -8738    -8719    -8604    -8437    -8284 
   -8125    -7923    -7746    -7661    -7599    -7491    -7322    -7103 
   -6821    -6469    -6134    -5896    -5709    -5514    -5332    -5169 
   -5004    -4865    -4788    -4712    -4621    -4575    -4576    -4576 
   -4599    -4662    -4739    -4852    -5009    -5175    -5413    -5741 
   -6042    -6296    -6507    -6632    -6714    -6760    -6721    -6632 
   -6520    -6381    -6230    -6048    -5834    -5623    -5425    -5233 
   -5080    -4997    -4959    -4930    -4892    -4843    -4846    -4949 
   -5080    -5200    -5347    -5544    -5790    -6043    -6252    -6470 
   -6736    -7014    -7271    -7499    -7693    -7869    -8007    -8090 
   -8131    -8141    -8129    -8108    -8073    -8032    -8001    -7958 
   -7875    -7792    -7732    -7701    -7696    -7685    -7645    -7574 
   -7500    -7430    -7356    -7283    -7207    -7087    -6905    -6686 
   -6451    -6192    -5913    -5651    -5440    -5273    -5167    -5135 
   -5135    -5143    -5205    -5310    -5408    -5509    -5652    -5817 
   -5965    -6093    -6210    -6272    -6247    -6141    -5958    -5717 
   -5445    -5174    -4908    -4637    -4383    -4172    -3970    -3763 
   -3580    -3434    -3322    -3235    -3150    -3049    -2952    -2874 
   -2799    -2728    -2682    -2658    -2635    -2631    -2686    -2797 
   -2933    -3090    -3273    -3481    -3716    -3987    -4293    -4617 
   -4965    -5347    -5729    -6089    -6438    -6750    -6997    -7194 
   -7342    -7426    -7431    -7356    -7200    -6987    -6751    -6519 
   -6262    -5962    -5645    -5327    -4986    -4625    -4263    -3920 
   -3601    -3316    -3067    -2849    -2654    -2474    -2307    -2168 
   -2087    -2074    -2123    -2218    -2369    -2596    -2859    -3148 
   -3480    -3834    -4178    -4515    -4861    -5208    -5552    -5906 
   -6257    -6558    -6794    -6990    -7140    -7219    -7241    -7209 
   -7117    -6968    -6787    -6598    -6399    -6188    -5980    -5753 
   -5494    -5231    -4977    -4729    -4510    -4326    -4159    -4002 
   -3856    -3731    -3643    -3611    -3607    -3618    -3653    -3713 
   -3790    -3871    -3960    -4097    -4278    -4472    -4677    -4882 
   -5100    -5333    -5566    -5793    -5988    -6139    -6232    -6245 
   -6192    -6096    -5981    -5876    -5798    -5769    -5790    -5830 
   -5896    -5981    -6057    -6131    -6216    -6305    -6384    -6440 
   -6457    -6412    -6308    -6172    -6004    -5803    -5601    -5433 
   -5313    -5248    -5248    -5309    -5428    -5580    -5737    -5881 
   -6015    -6147    -6276    -6385    -6473    -6538    -6559    -6538 
   -6490    -6443    -6400    -6372    -6378    -6405    -6435    -6463 
   -6492    -6504    -6496    -6486    -6473    -6435    -6367    -6277 
   -6168    -6054    -5953    -5853    -5736    -5614    -5510    -5409 
   -5316    -5251    -5194    -5124    -5027    -4930    -4843    -4757 
   -4706    -4704    -4726    -4760    -4787    -4800    -4806    -4811 
   -4841    -4882    -4939    -5011    -5078    -5128    -5181    -5265 
   -5385    -5519    -5671    -5826    -5965    -6110    -6269    -6411 
   -6528    -6648    -6755    -6813    -6833    -6833    -6802    -6758 
   -6705    -6632    -6535    -6413    -6281    -6154    -6049    -5991 
   -5975    -5983    -6021    -6077    -6131    -6176    -6210    -6247 
   -6276    -6270    -6237    -6183    -6108    -6015    -5911    -5813 
   -5711    -5609    -5506    -5377    -5233    -5098    -4969    -4858 
   -4783    -4757    -4789    -4864    -4965    -5093    -5224    -5343 
   -5476    -5617    -5727    -5827    -5918    -5954    -5940    -5894 
   -5818    -5689    -5513    -5313    -5101    -4895    -4733    -4626 
   -4581    -4603    -4669    -4756    -4857    -4985    -5148    -5351 
   -5610    -5930    -6285    -6652    -7025    -7402    -7753    -8060 
   -8333    -8568    -8762    -8916    -9013    -9045    -9022    -8964 
   -8869    -8721    -8540    -8347    -8122    -7881    -7643    -7399 
   -7146    -6886    -6620    -6328    -6019    -5727    -5451    -5164 
   -4888    -4658    -4484    -4357    -4293    -4295    -4333    -4392 
   -4480    -4585    -4708    -4852    -5015    -5184    -5355    -5530 
   -5719    -5930    -6161    -6432    -6750    -7089    -7456    -7858 
   -8266    -8653    -9018    -9340    -9625    -9880   -10077   -10201 
  -10260   -10253   -10193   -10095    -9958    -9802    -9633    -9440 
   -9248    -9078    -8919    -8793    -8719    -8652    -8577    -8515 
   -8441    -8326    -8182    -8025    -7839    -7623    -7396    -7156 
   -6910    -6660    -6389    -6133    -5914    -5740    -5633    -5583 
   -5571    -5602    -5656    -5707    -5767    -5841    -5919    -5999 
   -6080    -6154    -6218    -6284    -6345    -6389    -6408    -6396 
   -6361    -6297    -6211    -6146    -6119    -6133    -6204    -6323 
   -6469    -6627    -6831    -7096    -7420    -7811    -8236    -8635 
   -8995    -9312    -9579    -9792    -9950   -10072   -10168   -10233 
  -10278   -10324   -10359   -10380   -10395   -10388   -10334   -10241 
